 2014  6 7 1137 48.1 L   6.597 -73.692 97.8  RSN 17 0.6 2.6LRSN                1
 GAP= 78        1.41       2.7     3.2  7.7 -0.8810E+00  0.7665E+01 -0.1563E+01E
 Epicentro: EL CARMEN DE CHUCURI - SANTANDER                                   3
 ACTION:UPD 14-07-01 22:51 OP:nd   STATUS:               ID:20140607113747 L   I
 OLDACT:UP  14-06-09 04:16 OP:CAM  STATUS:               ID:20140607113747 L   3
 OLDACT:DUP 14-06-07 22:28 OP:stll STATUS:               ID:20140607112816d    3
 2014-06-07-1128-15M.COL___247                                                 6
 STAT SP IPHASW D HRMM SECON CODA AMPLIT PERI AZIMU VELO AIN AR TRES W  DIS CAZ7
 BAR2 SZ IP     C 1138  4.07                             147    0.5110 56.3  90 
 BAR2 SZ ES       1138 16.08                             147    0.4210 56.3  90 
 BAR2 SZ I        1138 18.58       261.2 0.20            153           56.3  90 
 PTB  HZ IP   9 D 1138  4.66                             136   -0.76 0 84.8 266 
 PTB  HN ES       1138 17.60                                   -0.6010 84.8 266 
 PTB  HZ I        1138 20.31        85.0 0.10            137           84.8 266 
 RUS  HZ EP       1138  8.01                             130    0.3110  103 139 
 RUS  HN ES       1138 22.41                             130   -0.6110  103 139 
 RUS  HZ I        1138 25.25        74.4 0.50            135            103 139 
 SPBC HZ EP       1138  8.07                             127   -0.0210  113 202 
 SPBC HE ES       1138 23.15                             127   -0.5610  113 202 
 SPBC HZ I        1138 28.73        55.5 0.16            130            113 202 
 ZAR  HZ EP       1138 13.26                             116    0.04 9  163 308 
 ZAR  HN ES       1138 33.46                             116    0.62 9  163 308 
 ZAR  HZ I        1138 37.95       103.9 0.46            118            163 308 
 NOR  HZ EP       1138 14.18                             115   -0.29 9  173 229 
 NOR  HN ES       1138 35.02                             115   -0.06 9  173 229 
 NOR  HZ I        1138 39.21        60.7 0.16            116            173 229 
 OCA  HZ EP       1138 16.03                             113   -0.02 9  186  13 
 OCA  HN ES       1138 38.01                             113    0.12 9  186  13 
 OCA  HZ I        1138 44.86        29.7 0.16            115            186  13 
 HEL  HZ EP       1138 18.90                             111    0.07 8  208 258 
 HEL  HN ES       1138 43.93                             111    1.10 8  208 258 
 HEL  HZ I        1138 47.34        41.3 0.16            112            208 258 
 TAM  HZ IP     C 1138 19.12                             110    0.37 8  211  95 
 TAM  HZ I        1138 19.36        66.1 0.38            112            211  95 
 TAM  HN ES   1   1138 41.75                             110   -0.94 6  211  95 
 CHI  HN ES   1   1138 44.98                             110    0.11 6  218 181 
 GUY2CHZ EP       1138 23.29                             108    0.68 8  239 231 
 GUY2CHE ES       1138 48.60                             108   -0.96 8  239 231 
 GUY2CHZ I        1138 55.40        17.4 0.28                           239 231 
 URE  HZ EP       1138 20.93                             108   -1.18 8  240 302 
 URE  HN ES       1138 47.16                             108   -1.51 8  240 302 
 URE  HZ I        1138 56.75        44.7 0.16            108            240 302 
 SML  HZ EP       1138 22.35                             107   -0.59 8  247 350 
 SML  HN ES       1138 50.44                             107    0.30 8  247 350 
 SML  HZ I        1138 53.77        31.9 0.12            107            247 350 
 RREF HZ EP       1138 26.51                             106    1.02 8  262 224 
 RREF HN ES       1138 54.91                             106    0.22 8  262 224 
 RREF HZ I        1139  1.18        28.1 0.24            106            262 224 
 VIL  SZ EP       1138 26.55                             105    0.20 8  275 180 
 VIL  SE ES       1138 56.26                             105    0.03 8  275 180 
 TOL  SZ EP       1138 28.49                             105    0.50 7  286 219 
 TOL  SN ES       1138 59.58                             105    0.44 7  286 219 
 PRA  HZ EP       1138 34.89                             102    0.20 7  345 203 
 PRA  HN ES       1139  9.79                             102   -1.28 7  345 203 
 PRA  HZ I        1139 20.34         9.1 0.26            101            345 203 
                                                                                
