 2016  4 7 1700 17.1 L   6.767 -73.183150.2  RSN  5 0.1 1.6LRSN                1
 GAP=133        0.36       2.0     1.7  3.0 -0.3582E-01  0.1414E+01 -0.5028E+00E
 Epicentro: LOS SANTOS - SANTANDER                                             3
 ACTION:UPD 16-05-05 14:19 OP:rebc STATUS:               ID:20160407170017 L   I
 OLDACT:REG 16-04-07 19:42 OP:drio STATUS:               ID:20160407165746     3
 2016-04-07-1657-46M.COL___301                                                 6
 STAT SP IPHASW D HRMM SECON CODA AMPLIT PERI AZIMU VELO AIN AR TRES W  DIS CAZ7
 BAR2 EZ EP       17 0 37.29                             172    0.0710 19.3 180 
 BAR2 EZ ES       17 0 52.97                             172    0.0810 19.3 180 
 BAR2 EZ I        17 0 54.16        10.3 0.18            174           19.3 180 
 PAM  EZ EP       17 0 40.31                             150    0.1710 82.8  40 
 PAM  EE ES       17 0 57.97                             150   -0.1210 82.8  40 
 PAM  EZ I        17 1  0.59         3.8 0.54            151           82.8  40 
 RUS  HZ EP       17 0 40.99                             146   -0.1010 97.3 174 
 RUS  HN ES       17 0 59.72                             146   -0.0610 97.3 174 
 RUS  HZ I        17 1  1.24         6.1 0.24            150           97.3 174 
 PTB  HZ EP       17 0 44.00                             134   -0.05 9  143 260 
 PTB  HN ES       17 1  5.16                             134    0.12 9  143 260 
 PTB  HZ I        17 1  7.53         5.6 0.46            134            143 260 
 ZAR  HN ES       17 1 14.86                             124   -0.12 9  202 294 
 ZAR  HZ I        17 1 23.63         6.5 0.40            124            202 294 
                                                                                
