 2017  7 7 1746 46.0 L   6.700 -73.127143.6  RSN  5 0.3 1.5LRSN                1
 GAP=173        0.73       6.0     3.5  5.3 -0.4704E+01  0.5117E+01 -0.8062E+00E
 Epicentro: JORDAN - SANTANDER                                                 3
 ACTION:UPD 17-08-30 15:30 OP:rebc STATUS:               ID:20170707174646 L   I
 OLDACT:REG 17-07-07 21:22 OP:edw  STATUS:               ID:20170707173037     3
 2017-07-07-1738-00M.COL___383                                                 6
 STAT SP IPHASW D HRMM SECON CODA AMPLIT PERI AZIMU VELO AIN AR TRES W  DIS CAZ7
 BAR2 EZ IP     C 1747  5.58                             174    0.3310 13.4 207 
 BAR2 EZ ES       1747 20.32                             174    0.1010 13.4 207 
 BAR2 EZ I        1747 21.94        11.7 0.22            173           13.4 207 
 BRR  HZ EP       1747  7.41                             150    0.0110 78.8 305 
 BRR  HN ES       1747 24.44                             150    0.3810 78.8 305 
 PAM  EZ EP       1747  8.44                             148   -0.0610 85.1  34 
 PAM  EE ES       1747 25.67                             148   -0.3510 85.1  34 
 PAM  EZ I        1747 27.66         6.8 0.52            150           85.1  34 
 PTB  HZ EP       1747 12.86                             131    0.01 9  148 263 
 PTB  HE ES       1747 33.20                             131   -0.57 9  148 263 
 PTB  HZ I        1747 38.61         4.0 0.48            132            148 263 
 ZAR  HZ EP       1747 18.97                             121   -0.02 8  210 295 
 ZAR  HE ES       1747 44.85                             121    0.15 8  210 295 
 ZAR  HZ I        1747 49.46         1.8 0.15            122            210 295 
                                                                                
