 2010  6 7 1205 37.1 L   6.830 -73.157152.0  RSN  7 0.4 2.1LRSN                1
 GAP=136        0.87       6.2     8.9  8.3 -0.2199E+02 -0.2827E+01 -0.7846E+01E
 Epicentro: LOS SANTOS - SANTANDER                                             3
 ACTION:UP  10-08-24 10:08 OP:vdl  STATUS:               ID:20100607120537 L   I
 2010-06-07-1203-18S.COL___111                                                 6
 STAT SP IPHASW D HRMM SECON CODA AMPLIT PERI AZIMU VELO SNR AR TRES W  DIS CAZ7
 BAR2 SZ EP       12 5 57.65                             170     0.210   26 186 
 BAR2 SZ ES   1   12 6 12.97                             170    -0.5 7   26 186 
 GIR2 SZ EP   1   12 5 58.35                             169     1.0 7   28 352 
 GUE  SZ IP       12 6  1.94                             141    -0.210  114  13 
 GRA  SZ IP       12 6  2.76                             139     0.110  123  18 
 GRA  SZ ES   1   12 6 22.51                             139    -0.1 7  123  18 
 OCA  SZ EP   1   12 6  5.41                             132    -0.1 7  157 353 
 OCA  SZ ES   1   12 6 27.82                             132     0.1 7  157 353 
 OCA  SZ I        12 6 31.08        11.3 0.20                           157 353 
 HEL  HZ EP   2   12 6 17.45                             116    -0.1 4  272 255 
 HEL  HN ES   2   12 6 48.47                             116    -0.7 4  272 255 
 HEL  HZ I        12 6 56.02         7.5 0.27                           272 255 
 SDV  BZ IP     C 12 6 26.74                             109    -0.5 6  359  51 
 SDV  BZ I        12 6 27.85         5.0 0.30                           359  51 
                                                                                
