 2014  3 7 1444 37.6 L   6.801 -73.158145.7  RSN 14 0.6 2.3LRSN                1
 GAP= 70        1.42       4.2     4.7  7.6 -0.3020E+01  0.6768E+01  0.3413E+01E
 Epicentro: LOS SANTOS - SANTANDER                                             3
 ACTION:UPD 14-04-09 23:15 OP:nd   STATUS:               ID:20140307144438 L   I
 OLDACT:UP  14-03-10 02:58 OP:CAM  STATUS:               ID:20140307144438 L   3
 OLDACT:REG 14-03-07 15:49 OP:stll STATUS:               ID:20140307143818     3
 2014-03-07-1438-18M.COL___234                                                 6
 STAT SP IPHASW D HRMM SECON CODA AMPLIT PERI AZIMU VELO AIN AR TRES W  DIS CAZ7
 BAR2 SZ IP     D 1444 57.27                             170    0.0610 23.3 187 
 BAR2 SZ ES       1445 12.53                             170    0.0210 23.3 187 
 BAR2 SZ I        1445 13.67        85.4 0.18            167           23.3 187 
 BRR  HZ EP   1   1444 59.75                             153    1.10 7 69.9 299 
 BRR  HN ES   1   1445 17.06                             153    1.97 7 69.9 299 
 BRR  HZ I        1445 18.81        18.8 0.32            152           69.9 299 
 PAM  SZ IP     D 1445  0.01                             150    0.1710 78.2  40 
 PAM  SN ES       1445 16.89                             150   -0.3110 78.2  40 
 PAM  HZ I        1445 18.91        21.0 0.46            156           78.2  40 
 RUS  HZ EP       1445  1.20                             144   -0.1510  101 175 
 RUS  HN ES       1445 19.70                             144   -0.1810  101 175 
 PTB  HZ EP       1445  3.83                             132   -0.59 9  146 259 
 PTB  HN ES       1445 24.41                             132   -0.95 9  146 259 
 PTB  HZ I        1445 30.73        23.5 0.30            132            146 259 
 TAM  HZ EP       1445  5.45                             130    0.07 9  156 105 
 OCA  HN ES       1445 27.54                             130   -0.38 9  160 354 
 SPBC HZ EP       1445  6.20                             129    0.20 9  162 219 
 SPBC HN ES       1445 28.09                             129   -0.08 9  162 219 
 SPBC HZ I        1445 34.21        28.1 0.22            129            162 219 
 ZAR  HN ES       1445 34.71                             123   -0.37 9  203 292 
 NOR  HZ EP       1445 13.15                             119   -0.04 8  234 234 
 NOR  HN ES       1445 41.19                             119    0.22 8  234 234 
 NOR  HZ I        1445 48.74        14.1 0.14            119            234 234 
 SML  HZ EP       1445 13.55                             117   -0.58 8  243 336 
 CHI  HZ EP       1445 15.39                             117    0.14 8  248 195 
 CHI  HN ES       1445 44.48                             117   -0.16 8  248 195 
 CHI  HZ I        1445 52.23         7.7 0.58            118            248 195 
 HEL  HZ EP       1445 19.10                             115    1.46 8  271 256 
 HEL  HN ES       1445 48.68                             115   -0.21 8  271 256 
 HEL  HZ I        1445 55.80        11.0 0.36            116            271 256 
 GUY2CHZ EP   4   1445 22.56                             112    1.49 0  300 235 
 GUY2CHN ES   4   1445 53.17                             112   -1.82 0  300 235 
 GUY2CHZ I        1446  3.42        13.5 0.50                           300 235 
                                                                                
