 2015  4 7 1310  1.3 L   6.808 -73.151145.9  RSN 14 0.5 3.1LRSN 3.3WRSN        1
 SPEC AVERAGE  MO 14.1 ST  4.1 OM  2.3 f0 3.51 R0.7571 AL 0.00 WI 30.0 MW  3.3 3
 SPEC SD       MO  0.3 ST  4.2 OM  0.4 f0 2.02 R0.4037 AL      WI      MW  0.2 3
 GAP=135        1.12       3.0     4.3  5.6 -0.2962E+01  0.7385E+01  0.3302E+00E
 Epicentro: LOS SANTOS - SANTANDER                                             3
 SPEC BAR2EH Z MO 14.3 ST  3.0 OM  2.4 f0 2.95 R0.6522 AL-0.00 WI 30.0 MW  3.5 3
 SPEC BAR2EH Z T131034 K 0.000 GD  147 VS 5.20 DE 3.50 Q0750.0 QA 1.50 VS 5.20 3
 SPEC BRR HH Z MO 14.2 ST  2.1 OM  2.3 f0 2.75 R0.6996 AL-0.00 WI 30.0 MW  3.4 3
 SPEC BRR HH Z T131038 K 0.000 GD  161 VS 5.20 DE 3.50 Q0750.0 QA 1.50 VS 5.20 3
 SPEC PAM SH Z MO 14.3 ST0.354 OM  2.4 f0 1.39 R1.3842 AL-0.00 WI 30.0 MW  3.5 3
 SPEC PAM SH Z T131039 K 0.000 GD  165 VS 5.20 DE 3.50 Q0750.0 QA 1.50 VS 5.20 3
 SPEC RUS HH Z MO 14.3 ST0.481 OM  2.3 f0 1.62 R1.1877 AL-0.00 WI 30.0 MW  3.5 3
 SPEC RUS HH Z T131042 K 0.000 GD  178 VS 5.20 DE 3.50 Q0750.0 QA 1.50 VS 5.20 3
 SPEC PTB HH Z MO 13.8 ST  8.1 OM  1.8 f0 5.79 R0.3323 AL-0.00 WI 30.0 MW  3.2 3
 SPEC PTB HH Z T131047 K 0.000 GD  207 VS 5.20 DE 3.50 Q0750.0 QA 1.50 VS 5.20 3
 SPEC OCA HH Z MO 14.5 ST  1.4 OM  2.5 f0 1.86 R1.0344 AL-0.00 WI 30.0 MW  3.6 3
 SPEC OCA HH Z T131049 K 0.000 GD  215 VS 5.20 DE 3.50 Q0750.0 QA 1.50 VS 5.20 3
 SPEC SPBCHH Z MO 13.9 ST 12.6 OM  1.8 f0 6.58 R0.2924 AL-0.00 WI 30.0 MW  3.2 3
 SPEC SPBCHH Z T131050 K 0.000 GD  219 VS 5.20 DE 3.50 Q0750.0 QA 1.50 VS 5.20 3
 SPEC ZAR HH Z MO 14.0 ST  3.6 OM  1.9 f0 3.85 R0.4997 AL-0.00 WI 30.0 MW  3.3 3
 SPEC ZAR HH Z T131057 K 0.000 GD  249 VS 5.20 DE 3.50 Q0750.0 QA 1.50 VS 5.20 3
 SPEC NOR HH Z MO 14.0 ST  1.9 OM  1.8 f0 3.23 R0.5957 AL-0.00 WI 30.0 MW  3.2 3
 SPEC NOR HH Z T1311 2 K 0.000 GD  276 VS 5.20 DE 3.50 Q0750.0 QA 1.50 VS 5.20 3
 SPEC SML HH Z MO 13.7 ST 10.8 OM  1.5 f0 7.23 R0.2661 AL-0.00 WI 30.0 MW  3.1 3
 SPEC SML HH Z T1311 4 K 0.000 GD  283 VS 5.20 DE 3.50 Q0750.0 QA 1.50 VS 5.20 3
 SPEC HEL HH Z MO 14.2 ST0.264 OM  2.0 f0 1.39 R1.3842 AL-0.00 WI 30.0 MW  3.4 3
 SPEC HEL HH Z T131110 K 0.000 GD  308 VS 5.20 DE 3.50 Q0750.0 QA 1.50 VS 5.20 3
 SPECGUY2CHH Z MO 14.5 ST  0.1 OM  2.3 f00.908 R  2.12 AL-0.00 WI 30.0 MW  3.6 3
 SPECGUY2CHH Z T131118 K       GD334.5 VS 5.20 DE 3.50 Q0750.0 QA 1.50 VS 5.20 3
 OLDACT:REG 15-04-07 21:17 OP:carl STATUS:               ID:20150407130750     3
 ACTION:UPD 15-06-03 16:53 OP:cam  STATUS:               ID:20150407131001 L   I
 OLDACT:UP  15-04-07 22:42 OP:carl STATUS:               ID:20150407130750     3
 2015-04-07-1307-50M.COL___264                                                 6
 STAT SP IPHASW D HRMM SECON CODA AMPLIT PERI AZIMU VELO AIN AR TRES W  DIS CAZ7
 BAR2 EZ IP     C 1310 21.00                             170    0.0610 24.1 188 
 BAR2 EZ ES       1310 35.63                             170   -0.6410 24.1 188 
 BAR2 EZ I        1310 36.85       488.7 0.22            170           24.1 188 
 BRR  HZ IP     D 1310 22.86                             153    0.4810 70.2 298 
 BRR  HN ES       1310 39.88                             153    1.0310 70.2 298 
 BRR  HZ I        1310 42.91       272.3 0.28            149           70.2 298 
 PAM  SZ IP     C 1310 23.80                             151    0.3210 77.1  40 
 PAM  SN ES       1310 40.94                             151    0.1310 77.1  40 
 PAM  SZ I        1310 43.14       239.7 0.66            154           77.1  40 
 RUS  HZ EP       1310 25.00                             144   -0.1110  102 176 
 RUS  HN ES       1310 43.74                             144    0.0410  102 176 
 RUS  HZ I        1310 44.52       138.8 0.28            147            102 176 
 PTB  HZ EP       1310 27.55                             132   -0.67 9  147 258 
 PTB  HN ES       1310 48.54                             132   -0.69 9  147 258 
 PTB  HZ I        1310 50.86       145.5 0.14            131            147 258 
 OCA  HZ EP       1310 29.59                             130    0.09 9  159 353 
 OCA  HN IS       1310 51.03                             130   -0.49 9  159 353 
 OCA  HN ES       1310 51.03                             130            159 353 
 OCA  HZ I        1310 54.34       289.3 0.24            130            159 353 
 SPBC HZ EP       1310 29.85                             129    0.03 9  164 219 
 SPBC HN ES       1310 52.09                             129    0.01 9  164 219 
 SPBC HZ I        1310 56.90       203.3 0.20            130            164 219 
 ZAR  HZ EP       1310 33.54                             122   -0.10 9  203 292 
 ZAR  HN ES       1310 59.33                             122    0.45 9  203 292 
 ZAR  HZ I        1311  5.56       152.8 0.26            122            203 292 
 NOR  HZ EP       1310 36.97                             118   -0.05 8  235 234 
 NOR  HN ES       1311  4.40                             118   -0.50 8  235 234 
 NOR  HZ I        1311  8.76        81.1 0.58            119            235 234 
 SML  HZ EP       1310 37.52                             118   -0.27 8  243 335 
 SML  HN ES       1311  5.79                             118   -0.48 8  243 335 
 SML  HZ I        1311 13.50       104.8 0.10            118            243 335 
 HEL  HZ EP   4   1310 43.44                             115    1.98 0  272 256 
 HEL  HN ES   4   1311 12.14                             115   -0.66 0  272 256 
 HEL  HZ I        1311 21.00        48.6 0.34            115            272 256 
 GUY2CHZ EP       1310 45.77                             112    0.88 7  301 235 
 GUY2CHN ES       1311 19.74                             112    0.82 7  301 235 
 GUY2CHZ I        1311 25.45        40.5 0.36                           301 235 
 ANIL HZ EP       1310 50.96                             108   -0.15 6  358 224 
 ANIL HN ES   4   1311 29.26                             108   -0.72 0  358 224 
 ORTC HZ EP       1310 55.33                             106    0.09 6  396 216 
 ORTC HN ES       1311 37.06                             106   -0.28 6  396 216 
 ORTC HZ I        1311 41.83        20.5 0.18            107            396 216 
                                                                                
