 2015  8 7 1112 17.2 L   6.527 -73.508110.7  RSN 15 0.4 2.1LRSN                1
 GAP= 72        0.98       2.2     2.4  5.1 -0.2656E+00  0.5328E+01  0.1260E+01E
 Epicentro: EL CARMEN - SANTANDER                                              3
 ACTION:UPD 15-09-15 23:00 OP:cam  STATUS:               ID:20150807111217 L   I
 OLDACT:REG 15-08-07 20:37 OP:drio STATUS:               ID:20150807110747     3
 2015-08-07-1107-47M.COL___355                                                 6
 STAT SP IPHASW D HRMM SECON CODA AMPLIT PERI AZIMU VELO AIN AR TRES W  DIS CAZ7
 BAR2 EZ EP     D 1112 33.38                             160    0.2810 36.8  79 
 BAR2 EZ ES       1112 45.40                             160   -0.0910 36.8  79 
 BRR  HZ EP     D 1112 34.25                             146   -0.2310 68.0 341 
 BRR  HE ES       1112 48.22                             146    0.2810 68.0 341 
 BRR  HZ I        1112 49.52        28.8 0.10            138           68.0 341 
 RUS  HZ EP       1112 36.25                             140   -0.1310 84.5 146 
 RUS  HN ES       1112 51.24                             140   -0.0910 84.5 146 
 RUS  HZ I        1112 53.49        21.6 0.26            135           84.5 146 
 ZAR  HZ EP       1112 45.55                             116    0.19 9  183 306 
 ZAR  HE ES       1113  7.82                             116    0.51 9  183 306 
 ZAR  HZ I        1113 10.32        29.6 0.46            111            183 306 
 NOR  HZ EP     D 1112 44.88                             116   -0.66 9  185 235 
 NOR  HE ES       1113  7.04                             116   -0.60 9  185 235 
 NOR  HZ I        1113  9.55        17.9 0.18            112            185 235 
 TAM  HZ EP       1112 46.27                             115    0.12 9  190  93 
 TAM  HN ES       1113  8.19                             115   -0.53 9  190  93 
 OCA  HZ EP       1112 46.16                             115   -0.16 9  190   6 
 OCA  HE ES       1113  9.35                             115    0.33 9  190   6 
 OCA  HZ I        1113 13.79        50.6 0.22            110            190   6 
 CHI  HZ EP       1112 49.36                             113    0.39 8  211 187 
 CHI  HE ES       1113 13.99                             113    0.24 8  211 187 
 CHI  HZ I        1113 20.46         8.3 0.32            109            211 187 
 HEL  HZ EP       1112 50.89                             111    0.24 8  227 261 
 HEL  HE ES       1113 16.43                             111   -0.30 8  227 261 
 HEL  HZ I        1113 20.22         8.4 0.24            108            227 261 
 GUY2CHZ EP       1112 54.18                             109    0.59 8  251 235 
 GUY2CHE ES       1113 22.15                             109    0.19 8  251 235 
 GUY2CHZ I        1113 26.41         9.0 0.64                           251 235 
 SML  HE ES       1113 22.69                             108    0.15 8  259 346 
 SML  HZ I        1113 31.61        21.2 0.10            104            259 346 
 CBOC HZ EP       1112 56.44                             105   -0.92 7  287 255 
 CBOC HE ES       1113 28.13                             105   -0.55 7  287 255 
 CBOC HZ I        1113 31.04         5.1 0.34            103            287 255 
 TOL  SZ EP       1112 59.20                             105    0.77 7  294 223 
 TOL  SN ES       1113 31.33                             105    0.76 7  294 223 
 TOL  SZ I        1113 34.87         4.3 0.32            103            294 223 
 MON  HZ EP   4   1113  2.47                             102   -1.52 0  344 316 
 MON  HN ES       1113 39.54                             102   -0.93 7  344 316 
 MON  HZ I        1113 43.30         3.8 0.62            100            344 316 
 PAL  HZ EP       1113  5.50                             101    0.05 6  356 240 
 PAL  HE ES       1113 43.05                             101   -0.02 6  356 240 
 PAL  HZ I        1113 46.70         3.4 0.24            100            356 240 
                                                                                
