 2016 10 7 1517 55.2 L   6.838 -73.302117.4  RSN  6 0.3 1.5LRSN                1
 GAP=117        0.83       3.4     3.2  6.8 -0.1479E+01  0.9500E+01 -0.4660E+01E
 Epicentro: ZAPATOCA - SANTANDER                                               3
 ACTION:UPD 16-11-09 19:17 OP:rebc STATUS:               ID:20161007151755 L   I
 OLDACT:DUP 16-10-07 23:28 OP:lv   STATUS:               ID:20161007150747d    3
 2016-10-07-1508-00M.COL___360                                                 6
 STAT SP IPHASW D HRMM SECON CODA AMPLIT PERI AZIMU VELO AIN AR TRES W  DIS CAZ7
 BAR2 EZ EP       1518 11.66                             165   -0.0210 30.3 154 
 BAR2 EZ ES       1518 24.19                             165   -0.3010 30.3 154 
 PAM  EZ EP       1518 14.79                             141   -0.4210 86.6  50 
 PAM  EN ES       1518 31.20                             141    0.4110 86.6  50 
 PAM  EZ I        1518 32.80         4.9 0.22            144           86.6  50 
 RUS  HZ EP       1518 16.48                             135   -0.4210  107 167 
 RUS  HN ES       1518 34.18                             135    0.3910  107 167 
 RUS  HZ I        1518 35.38         3.6 0.22            139            107 167 
 PTB  HZ EP       1518 18.91                             128    0.4110  132 256 
 PTB  HN ES       1518 36.38                             128   -0.2510  132 256 
 PTB  HZ I        1518 38.78         9.4 0.14            130            132 256 
 SPBC HN ES       1518 41.27                             123    0.11 9  156 213 
 ZAR  HZ EP       1518 24.29                             118    0.19 9  186 293 
 ZAR  HN ES       1518 46.56                             118   -0.04 9  186 293 
 ZAR  HZ I        1518 51.68         5.4 0.30            119            186 293 
                                                                                
