 2013  5 7 1845 20.2 L   7.297 -73.245129.1  RSN  7 0.4 1.9LRSN                1
 GAP=195        0.73       4.4     4.7  5.6  0.8533E+01 -0.3025E+00 -0.6309E+01E
 Epicentro: RIONEGRO - SANTANDER                                               3
 ACTION:UPD 13-06-20 09:48 OP:ep   STATUS:               ID:20130507184520 L   I
 2013-05-07-1840-00M.COL___256                                                 6
 STAT SP IPHASW D HRMM SECON CODA AMPLIT PERI AZIMU VELO AIN AR TRES W  DIS CAZ7
 GIR2 SZ EP       1845 37.85                             169    0.1610 24.7 167 
 GIR2 SZ ES   1   1845 51.41                             169    0.06 7 24.7 167 
 BRR  HZ IP     C 1845 38.64                             155   -0.0210 55.7 248 
 BRR  HZ I        1845 38.85        26.2 0.10            154           55.7 248 
 BRR  HN IS       1845 53.07                             155           55.7 248 
 BRR  HN ES       1845 53.07                             155   -0.0110 55.7 248 
 BAR2 SZ EP       1845 40.40                             147    0.0710 78.2 175 
 BAR2 SZ I        1845 40.91        22.8 0.08            148           78.2 175 
 BAR2 SZ ES       1845 56.06                             147   -0.0010 78.2 175 
 RUS  HZ EP   1   1845 47.37                             127    0.08 7  156 173 
 RUS  HN ES   1   1846  8.33                             127   -0.12 7  156 173 
 RUS  HZ I        1846  9.77         3.8 0.46            127            156 173 
 PTB  HZ EP   1   1845 46.31                             126   -0.51 7  158 238 
 PTB  HN ES   1   1846  6.98                             126   -0.63 7  158 238 
 PTB  HZ I        1846 10.28         9.4 0.46            125            158 238 
 ZAR  HZ EP   2   1845 49.89                             122    0.91 4  179 277 
 ZAR  HE ES   1   1846 12.21                             122    0.75 7  179 277 
 SML  HZ EP   1   1845 50.05                             120    0.01 7  190 331 
 SML  HN ES   2   1846 12.31                             120   -1.03 4  190 331 
 SML  HZ I        1846 17.81        19.0 0.24            120            190 331 
                                                                                
