 2011  3 7 1942 13.9 L   6.815 -73.197133.2  RSN 11 0.5 2.4LRSN                1
 GAP=132        1.09       5.0     7.5  8.8 -0.2805E+01  0.2977E+02 -0.2107E+01E
 Epicentro: ZAPATOCA - SANTANDER                                               3
 ACTION:UP  11-06-16 14:32 OP:jfem STATUS:               ID:20110307194214 L   I
 2011-03-07-1940-13S.COL___135                                                 6
 STAT SP IPHASW D HRMM SECON CODA AMPLIT PERI AZIMU VELO SNR AR TRES W  DIS CAZ7
 BAR2 SZ EP       1942 32.62                             169     0.610   25 177 
 BAR2 SZ ES   1   1942 45.41                             169    -0.8 7   25 177 
 BAR2 SZ I        1942 49.27       137.4 0.15                            25 177 
 RUS  HZ EP       1942 36.49                             140    -0.110  103 173 
 RUS  HN ES   1   1942 54.91                             140     0.6 7  103 173 
 RUS  HZ I        1942 56.33        35.2 0.27                           103 173 
 GRA  SZ EP       1942 38.35                             134     0.310  126  20 
 GRA  SZ ES   2   1942 56.96                             134     0.1 5  126  20 
 GRA  SZ I        1942 59.52        22.8 0.30                           126  20 
 OCA  SZ EP   1   1942 40.47                             127    -0.6 7  158 355 
 OCA  SZ I        1943  6.94        28.4 0.28                           158 355 
 YOP  SZ EP       1942 43.08                             123    -0.4 9  183 152 
 CHI  HZ EP   1   1942 50.54                             114    -0.4 6  249 194 
 CHI  HE ES   2   1943 19.70                             114    -0.1 4  249 194 
 CHI  HZ I        1943 25.65        16.1 0.39                           249 194 
 HEL  HZ EP   2   1942 53.89                             113     1.0 4  267 255 
 GUY  SZ EP   2   1942 57.74                             110     1.2 4  298 234 
 RREF HZ EP       1942 59.62                             109     0.5 7  319 228 
 DBB  SZ EP       1942 59.88                             107    -0.3 7  334 274 
 DBB  SZ ES   1   1943 35.92                             107    -0.4 5  334 274 
 PRA  HZ EP       1943  6.25                             104    -0.6 6  391 209 
                                                                                
