 2015  5 7 1440 50.6 L   6.807 -73.148141.2  RSN 14 0.5 2.1LRSN                1
 GAP= 71        1.15       3.4     4.6  5.9 -0.3070E+01  0.5924E+01  0.1848E+01E
 Epicentro: LOS SANTOS - SANTANDER                                             3
 ACTION:UPD 15-09-10 22:02 OP:cam  STATUS:               ID:20150507144050 L   I
 OLDACT:UP  15-05-11 15:40 OP:cam  STATUS:               ID:20150507144050 L   3
 OLDACT:UP  15-05-11 15:40 OP:cam  STATUS:               ID:20150507144050 L   3
 OLDACT:UP  15-05-11 07:44 OP:AK   STATUS:               ID:20150507144050 L   3
 OLDACT:REG 15-05-07 22:44 OP:stll STATUS:               ID:20150507143748     3
 2015-05-07-1437-48M.COL___276                                                 6
 STAT SP IPHASW D HRMM SECON CODA AMPLIT PERI AZIMU VELO AIN AR TRES W  DIS CAZ7
 BAR2 EZ EP       1441  9.82                             170    0.1610 24.1 189 
 BAR2 EZ ES       1441 24.72                             170    0.1610 24.1 189 
 BAR2 EZ I        1441 25.91        29.1 0.20            164           24.1 189 
 BRR  HZ EP     C 1441 11.51                             152    0.3310 70.6 298 
 BRR  HN ES       1441 27.88                             152    0.6110 70.6 298 
 PAM  SZ EP       1441 12.78                             150    0.5110 76.9  40 
 PAM  SN ES       1441 28.58                             150   -0.6210 76.9  40 
 PAM  SZ I        1441 31.87        27.2 0.46            146           76.9  40 
 RUS  HZ EP       1441 13.92                             143   -0.0110  101 176 
 RUS  HN ES       1441 32.23                             143    0.0810  101 176 
 RUS  HZ I        1441 33.41        18.6 0.24            134            101 176 
 TAM  HZ EP     D 1441 18.17                             129    0.24 9  156 105 
 TAM  HZ I        1441 18.30        32.3 0.20            123            156 105 
 SPBC HZ EP       1441 18.52                             128   -0.24 9  164 219 
 SPBC HN ES       1441 40.11                             128   -0.64 9  164 219 
 SPBC HZ I        1441 43.23        24.2 0.40            118            164 219 
 NOR  HZ EP       1441 26.01                             117   -0.05 8  235 234 
 NOR  HN ES       1441 53.03                             117   -0.71 8  235 234 
 NOR  HZ I        1441 59.61        12.4 0.20            109            235 234 
 SML  HZ EP       1441 26.17                             117   -0.67 8  243 335 
 SML  HN ES       1441 54.44                             117   -0.70 8  243 335 
 SML  HZ I        1441 58.16        17.5 0.10            108            243 335 
 CHI  HZ EP       1441 27.97                             116   -0.12 8  249 195 
 CHI  HN ES       1441 57.01                             116   -0.35 8  249 195 
 CHI  HZ I        1442  0.52        10.3 0.36            108            249 195 
 HEL  HZ EP       1441 31.68                             114    1.14 8  272 256 
 HEL  HZ I        1442  7.26         7.3 0.38            106            272 256 
 GUY2CHZ EP   1   1441 33.80                             111   -0.19 5  301 235 
 GUY2CHE ES       1442  8.54                             111    0.68 7  301 235 
 GUY2CHZ I        1442 13.82         5.4 0.36                           301 235 
 RREF HZ EP   4   1441 37.66                             110    1.12 0  322 229 
 RREF HZ I        1442 21.89         3.5 0.44            102            322 229 
 MON  HZ EP   9   1441 36.86                             108   -2.45 0  353 308 
 MON  HN ES       1442 15.27                                    0.39 6  353 308 
 MON  HZ I        1442 18.16         2.1 0.48            101            353 308 
 SJC  HZ EP   4   1441 43.88                             105   -2.00 0  408 327 
 SJC  HN ES   4   1442 24.53                             105   -4.50 0  408 327 
 SJC  HZ I        1442 30.44         2.3 0.28             98            408 327 
                                                                                
