 2011 12 7 1209  5.3 L   6.694 -73.098146.6  RSN  4 0.2 1.5LRSN                1
 GAP=147        0.50       5.2    19.1  7.3 -0.1100E+02 -0.4906E+02 -0.1380E+02E
 Epicentro: JORDAN - SANTANDER                                                 3
 ACTION:UPD 12-07-13 16:14 OP:ep   STATUS:               ID:20111207120905 L   I
 2011-12-07-1208-39S.COL___153                                                 6
 STAT SP IPHASW D HRMM SECON CODA AMPLIT PERI AZIMU VELO AIN AR TRES W  DIS CAZ7
 BAR2 SZ EP       12 9 24.87                             174   -0.0310 14.6 219 
 BAR2 SZ ES   1   12 9 40.40                             174    0.23 7 14.6 219 
 BAR2 SZ I        12 9 41.67         8.5 0.20                          14.6 219 
 GIR2 SZ EP   1   12 9 25.24                             163   -0.24 7 43.8 346 
 PAM  SZ EP   1   12 9 28.04                             149    0.03 7 83.9  32 
 RUS  HZ EP   1   12 9 28.64                             147    0.31 7 88.7 179 
 RUS  HN ES   1   12 9 46.01                             147   -0.27 7 88.7 179 
 RUS  HZ I        12 9 48.69         4.1 0.27                          88.7 179 
                                                                                
