 2012  9 7 1635 42.0 L   6.742 -73.124141.5  RSN  4 0.3 2.0LRSN                1
 GAP=166        0.59      26.3     9.1 18.5 -0.2037E+03 -0.1212E+03  0.4421E+03E
 Epicentro: JORDAN - SANTANDER                                                 3
 ACTION:UPD 12-10-22 14:17 OP:ep   STATUS:               ID:20120907163542 L   I
 2012-09-07-1630-00M.COL___227                                                 6
 STAT SP IPHASW D HRMM SECON CODA AMPLIT PERI AZIMU VELO AIN AR TRES W  DIS CAZ7
 BAR2 SZ EP   3   1636  1.67                             175    0.63 2 17.8 201 
 BRR  HZ EP       1636  3.21                             146    0.1910 76.5 302 
 BRR  HN ES   1   1636 19.48                             146    0.08 7 76.5 302 
 BRR  HN I        1636 20.56        29.6 0.22                          76.5 302 
 PAM  SZ EP       1636  4.21                             145    0.2010 81.0  35 
 PAM  SE ES   1   1636 20.82                             145   -0.34 7 81.0  35 
 PAM  SN I        1636 22.14        18.6 0.42                          81.0  35 
 PTB  HZ EP       1636  8.44                             129   -0.32 9  149 261 
 PTB  HN I        1636 34.79         6.3 0.52                           149 261 
                                                                                
