 2016  5 7 1721 29.3 L   7.351 -73.789 82.7  RSN  4 0.3 1.4LRSN                1
 GAP=115        0.47       5.1     3.2  6.5  0.3936E+01 -0.1108E+01 -0.2255E+02E
 Epicentro: PUERTO WILCHES - SANTANDER                                         3
 *ZAR-PAM-SML                                                                  3
 ACTION:UPD 16-08-18 17:43 OP:cam  STATUS:               ID:20160507172129 L   I
 OLDACT:DUP 16-05-07 23:20 OP:dnl  STATUS:               ID:20160507171751d    3
 2016-05-07-1717-50M.COL___307                                                 6
 STAT SP IPHASW D HRMM SECON CODA AMPLIT PERI AZIMU VELO AIN AR TRES W  DIS CAZ7
 BRR  HZ EP       1721 41.18                             160   -0.0910 28.3 163 
 BRR  HN ES       1721 50.62                             160    0.0310 28.3 163 
 BRR  HZ I        1721 51.51        10.1 0.19            170           28.3 163 
 ZAR  HZ EP   2   1721 49.43                             120    0.55 5  119 278 
 ZAR  HN ES   2   1722  3.89                             120   -0.24 5  119 278 
 ZAR  HZ I        1722  7.43         3.3 0.38            121            119 278 
 PAM  EZ EP   2   1721 49.81                             120    0.18 5  120  91 
 PAM  EN ES   2   1722  5.44                             120   -0.02 5  120  91 
 PAM  EZ I        1722  7.02         3.4 0.18            123            120  91 
 SML  HZ EP   2   1721 53.24                             112   -0.56 5  163 349 
 SML  HE ES   2   1722 13.21                             112    0.32 5  163 349 
 SML  HZ I        1722 16.92        11.6 0.24            112            163 349 
                                                                                
