 2017  8 7 1431  8.8 L   6.781 -73.119152.9  RSN  8 0.4 1.4LRSN                1
 GAP=239        0.65       3.4     3.9  4.8  0.3514E+01  0.4707E+01  0.1766E+01E
 Epicentro: LOS SANTOS - SANTANDER                                             3
 ACTION:UPD 17-09-04 20:17 OP:rebc STATUS:               ID:20170807143108 L   I
 OLDACT:UP  17-08-07 22:05 OP:dani STATUS:               ID:20170807142750     3
 OLDACT:UP  17-08-07 22:04 OP:dani STATUS:               ID:20170807142750     3
 OLDACT:REG 17-08-07 20:07 OP:dani STATUS:               ID:20170807142750     3
 2017-08-07-1428-00M.COL___393                                                 6
 STAT SP IPHASW D HRMM SECON CODA AMPLIT PERI AZIMU VELO AIN AR TRES W  DIS CAZ7
 BAR2 HZ EP       1431 29.03                             171   -0.2110 22.0 199 
 BAR2 HZ ES       1431 45.02                             171   -0.1910 22.0 199 
 BAR2 HZ I        1431 46.66         6.0 0.19            174           22.0 199 
 BRR  HZ EP       1431 31.16                             152    0.2510 74.8 299 
 BRR  HZ I        1431 48.19         9.3 0.54            150           74.8 299 
 BRR  HN ES       1431 48.46                             152    0.2910 74.8 299 
 RUS  HZ EP       1431 33.29                             146    0.2110 98.3 178 
 RUS  HE ES       1431 51.93                             146   -0.1010 98.3 178 
 RUS  HZ I        1431 54.79         2.4 0.31            144           98.3 178 
 PTB  HZ EP       1431 36.07                             133   -0.49 9  150 260 
 PTB  HN ES   3   1431 57.14                             133   -1.10 2  150 260 
 PTB  HZ I        1431 58.62         2.9 0.30            131            150 260 
 SPBC HZ EP       1431 38.07                             131    0.21 9  163 220 
 SPBC HN ES       1432  0.58                             131    0.04 9  163 220 
 ZAR  HN ES       1432  7.91                             123   -0.11 8  208 292 
 NOR  HN ES       1432 13.49                             120    0.13 8  236 235 
 CHI  HZ EP   3   1431 45.73                             119   -1.02 2  247 196 
 CHI  HN ES   3   1432 17.83                             119    1.47 2  247 196 
 CHI  HZ I        1432 22.00         1.3 0.16            115            247 196 
 GUY2CHN ES   4   1432 31.16                             114    3.91 0  302 235 
                                                                                
