 2013  6 7 1253 35.5 L   6.747 -73.167147.3  RSN  5 0.4 1.7LRSN                1
 GAP=147        1.04       8.0     6.0  7.5 -0.1832E+02  0.9932E+01 -0.1245E+02E
 Epicentro: VILLANUEVA - SANTANDER                                             3
 ACTION:UPD 14-01-08 09:53 OP:ep   STATUS:               ID:20130607125335 L   I
 OLDACT:REG 13-06-07 16:08 OP:nd   STATUS:               ID:20130607124959     3
 2013-06-07-1249-59M.COL___261                                                 6
 STAT SP IPHASW D HRMM SECON CODA AMPLIT PERI AZIMU VELO AIN AR TRES W  DIS CAZ7
 BAR2 SZ IP     C 1253 55.23                             173    0.0210 17.2 186 
 BAR2 SZ ES       1254 10.61                             173    0.0310 17.2 186 
 BAR2 SZ I        1254 12.64         6.1 0.38            173           17.2 186 
 BRR  HZ EP       1253 57.32                             152    0.4510 72.2 304 
 BRR  HN ES       1254 14.24                             152    0.7010 72.2 304 
 BRR  HZ I        1254 15.51         9.3 0.24            146           72.2 304 
 PAM  SZ EP       1253 58.37                             149    0.1210 83.4  38 
 PAM  SN ES       1254 15.40                             149   -0.5910 83.4  38 
 PAM  SZ I        1254 17.88         7.4 0.40            148           83.4  38 
 PTB  HZ EP       1254  2.16                             133   -0.13 9  144 261 
 PTB  HN ES       1254 22.51                             133   -0.68 9  144 261 
 PTB  HZ I        1254 28.96         3.5 0.14            132            144 261 
 SML  HZ EP       1254 12.78                             117    0.09 8  248 336 
 SML  HN ES   2   1254 41.27                             117   -0.42 4  248 336 
 SML  HZ I        1254 50.13         8.6 0.26            116            248 336 
                                                                                
