 2016  2 7 1051 48.7 L   6.825 -73.123149.3  RSN  8 0.2 1.6LRSN                1
 GAP=185        0.61       1.8     3.7  4.5  0.6085E+00  0.4799E+01 -0.1786E+00E
 Epicentro: LOS SANTOS - SANTANDER                                             3
 ACTION:UPD 16-03-04 21:24 OP:rebc STATUS:               ID:20160207105148 L   I
 OLDACT:REG 16-02-07 20:16 OP:cara STATUS:               ID:20160207104748     3
 2016-02-07-1047-48M.COL___331                                                 6
 STAT SP IPHASW D HRMM SECON CODA AMPLIT PERI AZIMU VELO AIN AR TRES W  DIS CAZ7
 BAR2 EZ IP       1052  9.01                             169    0.1410 26.6 194 
 BAR2 EZ ES       1052 24.27                             169   -0.2910 26.6 194 
 BAR2 EZ I        1052 26.57         7.7 0.42            167           26.6 194 
 RUS  HZ EP       1052 13.14                             144    0.1110  103 178 
 RUS  HN ES       1052 31.83                             144   -0.1510  103 178 
 RUS  HZ I        1052 34.44         2.3 0.32            146            103 178 
 OCA  HE ES       1052 39.76                             131    0.53 9  158 352 
 OCA  HZ I        1052 45.62        10.1 0.38            132            158 352 
 SPBC HZ EP       1052 17.66                             129   -0.21 9  167 219 
 SPBC HN ES       1052 40.81                             129    0.23 9  167 219 
 SPBC HZ I        1052 47.78         5.6 0.32            130            167 219 
 ZAR  HE ES       1052 47.02                             123   -0.12 8  205 291 
 ZAR  HZ I        1052 54.94         2.9 0.28            123            205 291 
 SML  HZ EP       1052 25.13                             118   -0.29 8  242 334 
 SML  HN ES       1052 53.80                             118   -0.22 8  242 334 
 SML  HZ I        1052 58.21         4.6 0.10            120            242 334 
 CHI  HZ IP       1052 26.90                             117   -0.10 8  252 196 
 CHI  HN ES       1052 57.11                             117    0.27 8  252 196 
 CHI  HZ I        1053  3.19         1.1 0.24            119            252 196 
 GUY2CHN ES       1053  7.46                             113    0.07 7  305 235 
                                                                                
