 2015  9 7 1056  4.8 L   6.820 -73.149146.8  RSN 12 0.5 2.1LRSN                1
 GAP=113        1.25       3.5     4.6  6.5 -0.7051E+00  0.3769E+01 -0.5734E+00E
 Epicentro: LOS SANTOS - SANTANDER                                             3
 ACTION:UPD 15-10-28 16:24 OP:cam  STATUS:               ID:20150907105604 L   I
 OLDACT:REG 15-09-07 21:19 OP:stll STATUS:               ID:20150907104749     3
 2015-09-07-1047-49M.COL___349                                                 6
 STAT SP IPHASW D HRMM SECON CODA AMPLIT PERI AZIMU VELO AIN AR TRES W  DIS CAZ7
 BAR2 EZ EP     D 1056 24.66                             170    0.0310 25.5 188 
 BAR2 EZ ES       1056 39.91                             170   -0.1610 25.5 188 
 BAR2 EZ I        1056 41.37        19.8 0.46            170           25.5 188 
 BRR  HZ EP       1056 26.53                             153    0.5210 69.8 297 
 BRR  HZ I        1056 26.71        21.8 0.20            152           69.8 297 
 BRR  HN ES       1056 43.19                             153    0.6610 69.8 297 
 RUS  HZ EP       1056 28.49                             143   -0.3610  103 176 
 RUS  HN ES       1056 47.40                             143   -0.1810  103 176 
 RUS  HZ I        1056 48.12         8.8 0.26            145            103 176 
 PTB  HZ EP       1056 31.23                             132   -0.66 9  148 258 
 PTB  HN ES       1056 52.57                             132   -0.42 9  148 258 
 PTB  HZ I        1056 55.98        12.7 0.12            132            148 258 
 TAM  HZ EP       1056 32.80                             131    0.12 9  156 106 
 TAM  HZ I        1056 33.12        17.3 0.46            134            156 106 
 OCA  HZ EP       1056 32.23                             130   -0.78 9  158 353 
 OCA  HN ES       1056 55.63                             130    0.64 9  158 353 
 OCA  HZ I        1057  0.47        36.2 0.28            131            158 353 
 SPBC HZ EP       1056 33.62                             129    0.07 9  165 218 
 SPBC HE ES       1056 55.84                             129   -0.11 9  165 218 
 SPBC HZ I        1057  2.70        24.9 0.38            130            165 218 
 ZAR  HZ EP       1056 36.98                             123   -0.24 9  203 292 
 ZAR  HN ES       1057  2.30                             123   -0.18 9  203 292 
 ZAR  HZ I        1057  9.07        14.1 0.40            123            203 292 
 SML  HZ EP       1056 41.07                             118   -0.21 8  241 335 
 SML  HE ES       1057  9.85                             118    0.15 8  241 335 
 SML  HZ I        1057 12.42        17.9 0.32            119            241 335 
 HEL  HZ EP       1056 46.26                             115    1.15 8  272 255 
 HEL  HE ES       1057 15.49                             115   -1.04 8  272 255 
 HEL  HZ I        1057 18.76         6.9 0.38            116            272 255 
 GUY2CHZ EP       1056 48.03                             112   -0.57 7  302 234 
 GUY2CHE ES       1057 23.65                             112    0.92 7  302 234 
 GUY2CHZ I        1057 31.74         5.9 0.54                           302 234 
 ORTC HZ EP       1056 59.66                             106    0.69 6  397 216 
 ORTC HN ES       1057 42.16                             106    0.97 6  397 216 
 ORTC HZ I        1057 46.38         3.6 0.34            107            397 216 
                                                                                
