 2012 12 7 1614  9.9 L   6.629 -73.347128.6  RSN  4 0.4 1.7LRSN                1
 GAP=163        0.93       8.3     6.1  9.0  0.3230E+02  0.1590E+02 -0.7624E+00E
 Epicentro: GALAN - SANTANDER                                                  3
 ACTION:UPD 13-01-04 14:26 OP:ep   STATUS:               ID:20121207161409 L   I
 2012-12-07-1610-00M.COL___242                                                 6
 STAT SP IPHASW D HRMM SECON CODA AMPLIT PERI AZIMU VELO AIN AR TRES W  DIS CAZ7
 BAR2 SZ EP       1614 26.66                             171   -0.6810 18.7 103 
 BAR2 SZ ES       1614 41.16                             171    0.2010 18.7 103 
 BAR2 SZ I        1614 42.40        16.6 0.22                          18.7 103 
 RUS  HZ EP       1614 31.18                             144    0.2610 86.6 160 
 RUS  HN ES       1614 47.46                             144    0.1310 86.6 160 
 RUS  HN I        1614 48.96         4.1 0.28                          86.6 160 
 PTB  HZ EP       1614 33.39                             133    0.1910  123 265 
 PTB  HN ES       1614 51.00                             133   -0.4010  123 265 
 PTB  HN I        1614 56.74         7.5 0.24                           123 265 
 ZAR  HN ES       1615  3.87                             120    0.37 9  192 300 
 ZAR  HN I        1615  5.46         8.6 0.42                           192 300 
                                                                                
