 2017  3 7 1156 45.3 L   6.788 -73.147147.9  RSN 10 0.4 1.8LRSN                1
 GAP=120        0.81       3.1     3.4  4.8  0.2113E-01  0.2937E+01  0.2915E+01E
 Epicentro: LOS SANTOS - SANTANDER                                             3
 ACTION:UPD 17-05-25 18:37 OP:jn   STATUS:               ID:20170307115645 L   I
 OLDACT:UP  17-03-07 21:44 OP:ar   STATUS:               ID:20170307114749d    3
 OLDACT:UP  17-03-07 21:40 OP:ar   STATUS:               ID:20170307114749d    3
 OLDACT:UP  17-03-07 21:40 OP:ar   STATUS:               ID:20170307114749d    3
 OLDACT:UP  17-03-07 21:37 OP:ar   STATUS:               ID:20170307114749d    3
 OLDACT:UP  17-03-07 21:35 OP:ar   STATUS:               ID:20170307114749d    3
 OLDACT:DUP 17-03-07 21:24 OP:ar   STATUS:               ID:20170307114749d    3
 2017-03-07-1148-00M.COL___360                                                 6
 STAT SP IPHASW D HRMM SECON CODA AMPLIT PERI AZIMU VELO AIN AR TRES W  DIS CAZ7
 BAR2 HZ EP       1157  5.08                             171   -0.1210 22.0 190 
 BAR2 HZ ES       1157 20.31                             171   -0.3810 22.0 190 
 BAR2 HZ I        1157 22.85        20.0 0.32            170           22.0 190 
 PAM  EZ IP     D 1157  8.05                             151    0.2010 78.5  39 
 PAM  EN ES       1157 25.73                             151    0.3210 78.5  39 
 PAM  EZ I        1157 28.12         8.9 0.38            154           78.5  39 
 RUS  HZ EP       1157  8.91                             145   -0.2910 99.2 176 
 RUS  HN ES       1157 27.87                             145    0.0510 99.2 176 
 RUS  HZ I        1157 28.68         8.3 0.38            145           99.2 176 
 PTB  HZ EP   2   1157 11.96                             133   -0.48 5  147 259 
 PTB  HN ES       1157 33.69                             133    0.10 9  147 259 
 PTB  HZ I        1157 35.35         4.6 0.16            132            147 259 
 SPBC HZ EP       1157 14.31                             130    0.42 9  162 219 
 SPBC HN ES       1157 35.92                             130   -0.25 9  162 219 
 SPBC HZ I        1157 38.81        14.9 0.28            130            162 219 
 ZAR  HZ EP       1157 17.72                             123   -0.24 9  204 293 
 ZAR  HN ES       1157 43.45                             123    0.04 9  204 293 
 ZAR  HZ I        1157 48.77         6.9 0.20            123            204 293 
 CHI  HZ EP       1157 23.34                             118    0.33 8  247 195 
 CHI  HN ES       1157 52.89                             118    0.50 8  247 195 
 CHI  HZ I        1157 58.73         3.8 0.38            118            247 195 
 GUY2CHZ EP   4   1157 31.67                             113    2.73 0  300 235 
 GUY2CHN ES   4   1158  7.44                             113    4.48 0  300 235 
 GUY2CHZ  IAML    1158 11.24         2.7 0.27                           300 235 
 PTGC HZ EP       1157 28.21                             112   -0.94 7  307 159 
 PTGC HN ES   2   1158  4.26                             112    0.93 4  307 159 
 PRA  HZ EP       1157 39.01                             107    0.22 6  391 210 
 PRA  HN ES   4   1158 22.23                             107    1.75 0  391 210 
 PRA  HZ I        1158 27.20         3.8 0.48            107            391 210 
                                                                                
