 2012  7 7 1058 47.3 L   6.031 -73.719108.5  RSN  4 0.2 1.7LRSN                1
 GAP=204        0.55       3.7     3.9  8.2 -0.6835E+01  0.1286E+02  0.7523E+00E
 Epicentro: BOLIVAR - SANTANDER                                                3
 ACTION:UPD 12-08-14 11:43 OP:ep   STATUS:               ID:20120707105847 L   I
 2012-07-07-1050-00M.COL___201                                                 6
 STAT SP IPHASW D HRMM SECON CODA AMPLIT PERI AZIMU VELO AIN AR TRES W  DIS CAZ7
 BAR2 SZ EP   1   1059  6.06                             139     0.1 8   86  44 
 BAR2 SZ ES   1   1059 20.23                             139    -0.3 8   86  44 
 BRR  HZ EP   1   1059  8.59                             128     0.0 8  119   0 
 BRR  HZ I        1059 17.09         8.9 0.56             56            119   0 
 BRR  HN ES   1   1059 25.66                             128     0.5 8  119   0 
 NOR  SZ EP       1059 10.56                             124     0.110  138 248 
 NOR  SE ES   1   1059 28.59                             124     0.0 7  138 248 
 ZAR  HZ EP   1   1059 17.50                             113    -0.2 7  205 322 
 ZAR  HN ES   1   1059 41.12                             113    -0.3 7  205 322 
 ZAR  HZ I        1059 42.71         4.7 0.21             56            205 322 
