 2011  8 7 1731 29.7 L   6.784 -73.099141.1  RSN 12 0.3 2.8LRSN                1
 GAP=143        0.37       2.2     3.0  3.5 -0.1717E+01  0.5126E+00  0.4009E+01E
 Epicentro: LOS SANTOS - SANTANDER                                             3
 ACTION:UPD 12-07-25 14:06 OP:epov STATUS:               ID:20110807173129 L   I
 2011-08-07-1720-00M.COL___145                                                 6
 STAT SP IPHASW D HRMM SECON CODA AMPLIT PERI AZIMU VELO AIN AR TRES W  DIS CAZ7
 BAR2 SZ IP       1731 48.64                             170   -0.1010 23.1 203 
 BAR2 SZ ES   2   1732  3.32                             170   -0.29 5 23.1 203 
 BAR2 SZ I        1732  5.99       147.9 0.32                          23.1 203 
 PAM  SZ EP   1   1731 51.56                             151    0.27 7 75.7  36 
 PAM  SN ES   2   1732  8.46                             151    0.31 5 75.7  36 
 BRR  HZ IP     C 1731 50.41                             150   -0.2310 76.6 298 
 BRR  HZ I        1731 50.70       199.2 0.17                          76.6 298 
 BRR  HE ES   1   1732  7.11                             150    0.12 7 76.6 298 
 RUS  HZ EP   1   1731 52.72                             143   -0.10 7 98.5 179 
 RUS  HN ES   2   1732 11.06                             143    0.19 5 98.5 179 
 RUS  HZ I        1732 13.73        74.1 0.28                          98.5 179 
 NOR  SZ EP   2   1732  5.43                             117   -0.05 4  238 236 
 NOR  SN ES   2   1732 33.28                             117   -0.12 4  238 236 
 CHI  HZ EP   1   1732  7.10                             116    0.02 6  248 196 
 CHI  HN ES   2   1732 36.36                             116    0.11 4  248 196 
 CHI  HZ I        1732 45.13        28.9 0.47                           248 196 
 ROSC BZ EP   2   1732  8.18                             116    0.51 4  254 212 
 ROSC BN ES   2   1732 37.53                             116    0.23 4  254 212 
 ROSC BZ I        1732 45.49        55.8 0.59                           254 212 
 VIL  SZ EP   1   1732 12.51                             111   -0.29 5  303 193 
 VIL  SN ES   2   1732 46.24                             111   -0.20 4  303 193 
 VIL  SZ I        1733  0.08        25.3 0.57                           303 193 
 RREF HZ EP   2   1732 15.89                             110   -0.04 3  325 230 
 RREF HN ES   2   1732 51.98                             110   -0.03 3  325 230 
 RREF HZ I        1733  0.47        40.0 0.44                           325 230 
 TOL  SZ EP   2   1732 18.71                             108    0.70 3  346 225 
 TOL  SZ ES   2   1732 56.10                             108    0.38 3  346 225 
 PRA  HZ EP   2   1732 23.05                             106   -0.10 3  393 210 
 PRA  HN ES   2   1733  5.23                             106    0.37 3  393 210 
 SJA  SZ EP   2   1732 23.42                             105   -0.58 3  399 194 
 SJA  SZ ES   2   1733  6.71                             105    0.33 3  399 194 
                                                                                
