 2014  2 7 1117 46.3 L   6.780 -73.153145.2  RSN 10 0.3 2.0LRSN                1
 GAP=136        0.68       2.2     2.9  4.4 -0.4632E+00  0.4222E+01  0.6298E+00E
 Epicentro: LOS SANTOS - SANTANDER                                             3
 ACTION:UPD 14-03-10 08:08 OP:ep   STATUS:               ID:20140207111746 L   I
 OLDACT:REG 14-02-07 17:27 OP:cam  STATUS:               ID:20140207111000     3
 2014-02-07-1110-00M.COL___291                                                 6
 STAT SP IPHASW D HRMM SECON CODA AMPLIT PERI AZIMU VELO AIN AR TRES W  DIS CAZ7
 BAR2 SZ EP     C 1118  5.71                             171   -0.1210 21.0 189 
 BAR2 SZ ES       1118 20.95                             171   -0.1010 21.0 189 
 BAR2 SZ I        1118 22.01        33.4 0.32            170           21.0 189 
 PAM  SZ EP       1118  8.64                             150    0.0310 79.6  39 
 PAM  SN ES       1118 26.27                             150    0.2810 79.6  39 
 PAM  SZ I        1118 27.95        17.6 0.58            153           79.6  39 
 RUS  HZ EP       1118  9.53                             144   -0.3310 98.4 175 
 RUS  HN ES       1118 28.08                             144   -0.1310 98.4 175 
 RUS  HZ I        1118 29.51         7.0 0.24            147           98.4 175 
 PTB  HZ EP       1118 12.93                             132   -0.20 9  147 260 
 PTB  HN ES       1118 33.51                             132   -0.52 9  147 260 
 PTB  HZ I        1118 39.50        15.2 0.34            131            147 260 
 SPBC HZ EP       1118 14.58                             129    0.02 9  161 219 
 SPBC HN ES   1   1118 36.72                             129    0.14 7  161 219 
 SPBC HZ I        1118 38.01        15.8 0.20            129            161 219 
 ZAR  HZ EP   4   1118 20.07                             122    1.34 0  204 293 
 ZAR  HN ES       1118 44.40                             122    0.39 9  204 293 
 ZAR  HZ I        1118 50.07         6.4 0.32            122            204 293 
 NOR  HZ EP       1118 22.23                             118    0.43 8  233 235 
 NOR  HN ES       1118 49.69                             118    0.21 8  233 235 
 NOR  HZ I        1118 53.83         7.6 0.22            119            233 235 
 SML  HZ EP   2   1118 22.12                             117   -0.97 4  245 336 
 SML  HE ES       1118 51.86                             117    0.08 8  245 336 
 SML  HZ I        1118 56.22        14.3 0.20            118            245 336 
 CHI  HZ EP       1118 23.93                             117    0.20 8  246 195 
 CHI  HN ES       1118 53.20                             117    0.30 8  246 195 
 CHI  HZ I        1118 56.72         3.3 0.56            119            246 195 
 HEL  HZ EP   4   1118 28.24                             115    1.89 0  271 256 
 HEL  HN ES   4   1118 59.76                             115    2.18 0  271 256 
 HEL  HZ I        1119  4.26         4.1 0.30            115            271 256 
                                                                                
