 2012  2 7 1019 41.0 L   6.755 -73.178135.3  RSN  8 0.4 1.7LRSN                1
 GAP=135        0.84       5.0     4.7  7.0  0.2006E+01  0.8726E+01  0.1390E+01E
 ACTION:UP  12-03-07 16:28 OP:epov STATUS:               ID:20120207101941 L   I
 2012-02-07-1017-40S.COL___154                                                 6
 STAT SP IPHASW D HRMM SECON CODA AMPLIT PERI AZIMU VELO AIN AR TRES W  DIS CAZ7
 BAR2 SZ EP   1   1019 59.65                             172    0.42 7 18.0 182 
 BAR2 SZ I        1020  0.03        13.0 0.10                          18.0 182 
 BAR2 SZ ES   1   1020 13.43                             172   -0.05 7 18.0 182 
 GIR2 SZ EP   1   1019 59.80                             164    0.26 7 35.9 357 
 BRR  HZ EP   1   1020  1.58                             151    0.62 7 70.8 303 
 BRR  HZ I        1020  2.11        23.4 0.09                          70.8 303 
 BRR  HN ES   1   1020 16.74                             151    0.18 7 70.8 303 
 PAM  SZ EP   1   1020  1.81                             147   -0.66 7 83.5  39 
 PAM  SN ES   1   1020 19.08                             147   -0.17 7 83.5  39 
 RUS  HZ EP   1   1020  3.82                             143    0.47 7 95.9 174 
 RUS  HN ES   1   1020 20.64                             143   -0.17 7 95.9 174 
 RUS  HZ I        1020 23.32         5.3 0.26                          95.9 174 
 PTB  HZ EP   1   1020  5.92                             130   -0.77 7  143 261 
 PTB  HN ES   1   1020 26.29                             130   -0.46 7  143 261 
 PTB  HZ I        1020 29.72         0.0 0.18                           143 261 
 ZAR  HZ EP   1   1020 12.29                             120   -0.32 6  203 294 
 ZAR  HE ES   1   1020 37.77                             120    0.47 6  203 294 
 ZAR  HZ I        1020 40.76         4.4 0.15                           203 294 
 PRA  HZ EP   1   1020 33.66                             105    0.24 4  386 209 
                                                                                
