 2017  8 7 1535 44.4 L   6.797 -73.121148.8  RSN  5 0.3 1.3LRSN                1
 GAP=240        0.74       6.0     5.6  6.6  0.1829E+02  0.7282E+01 -0.4665E+01E
 Epicentro: LOS SANTOS - SANTANDER                                             3
 ACTION:UPD 17-09-04 20:17 OP:rebc STATUS:               ID:20170807153544 L   I
 OLDACT:DUP 17-08-07 22:22 OP:dani STATUS:               ID:20170807152738d    3
 OLDACT:UP  17-08-07 22:21 OP:dani STATUS:               ID:20170807152737     3
 OLDACT:REG 17-08-07 20:12 OP:dani STATUS:               ID:20170807152737     3
 2017-08-07-1528-00M.COL___393                                                 6
 STAT SP IPHASW D HRMM SECON CODA AMPLIT PERI AZIMU VELO AIN AR TRES W  DIS CAZ7
 BAR2 EZ EP       1536  4.19                             170   -0.1610 23.6 197 
 BAR2 EZ ES       1536 19.67                             170   -0.2810 23.6 197 
 BAR2 EZ I        1536 20.58         4.1 0.34            176           23.6 197 
 BRR  HZ EP       1536  5.96                             152   -0.0110 73.7 298 
 BRR  HN ES       1536 22.95                             152    0.1210 73.7 298 
 BRR  HZ I        1536 33.86         6.5 0.34            151           73.7 298 
 RUS  HN ES       1536 27.53                             144    0.4310  100 178 
 PTB  HZ EP       1536 11.73                             132   -0.07 9  150 259 
 PTB  HE ES       1536 32.81                             132   -0.40 9  150 259 
 PTB  HZ I        1536 35.28         1.4 0.16            137            150 259 
 ZAR  HN ES       1536 43.37                             123    0.43 8  207 292 
                                                                                
