 2016  2 7 1745 30.8 L   6.826 -73.191149.0  RSN  8 0.2 1.4LRSN                1
 GAP=130        0.63       2.0     5.5  5.1 -0.9288E+00  0.1550E+02 -0.6541E+00E
 Epicentro: ZAPATOCA - SANTANDER                                               3
 ACTION:UPD 16-03-04 21:24 OP:rebc STATUS:               ID:20160207174530 L   I
 OLDACT:REG 16-02-07 21:28 OP:cara STATUS:               ID:20160207173750     3
 2016-02-07-1737-50M.COL___334                                                 6
 STAT SP IPHASW D HRMM SECON CODA AMPLIT PERI AZIMU VELO AIN AR TRES W  DIS CAZ7
 BAR2 EZ IP       1745 50.82                             170   -0.0410 25.8 178 
 BAR2 EZ EP     D 1745 50.85                             170   -0.0110 25.8 178 
 BAR2 EZ ES       1746  6.70                             170    0.1810 25.8 178 
 BAR2 EZ I        1746  8.38         7.1 0.28            168           25.8 178 
 PAM  EZ EP     C 1745 53.47                             151    0.0510 78.6  44 
 PAM  EN ES       1746 11.23                             151    0.1510 78.6  44 
 PAM  EZ I        1746 12.84         3.6 0.44            157           78.6  44 
 RUS  HN ES       1746 13.63                             144   -0.4310  104 173 
 RUS  HZ I        1746 14.13         3.5 0.44            146            104 173 
 PTB  HZ EP       1745 57.88                             134    0.24 9  143 257 
 PTB  HE ES   4   1746 15.46                             134   -3.12 0  143 257 
 PTB  HZ I        1746 22.06         2.9 0.12            132            143 257 
 OCA  HZ EP       1745 58.69                             131   -0.35 9  157 355 
 OCA  HN ES       1746 21.29                             131    0.21 9  157 355 
 ZAR  HE ES   4   1746 29.04                             124    1.16 0  198 292 
 ZAR  HZ I        1746 34.80         5.6 0.34            124            198 292 
 SML  HN ES       1746 35.09                             119   -0.33 8  239 336 
 CHI  HZ EP       1746  9.24                             118    0.41 8  250 194 
 CHI  HN ES       1746 38.46                             118   -0.04 8  250 194 
 CHI  HZ I        1746 41.31         1.0 0.32            120            250 194 
                                                                                
