 2010  7 7 1245 25.8 L   6.761 -73.077142.0  RSN  5 0.3 1.6LRSN                1
 GAP=167        0.76       4.9    11.3 10.7  0.9048E+01 -0.6938E+02 -0.2169E+02E
 Epicentro: LOS SANTOS - SANTANDER                                             3
 ACTION:UPD 10-12-01 15:15 OP:pat  STATUS:               ID:20100707124525 L   I
 2010-07-07-1243-40S.COL___117                                                 6
 STAT SP IPHASW D HRMM SECON CODA AMPLIT PERI AZIMU VELO AIN AR TRES W  DIS CAZ7
 BAR2 SZ ES   2   1246  0.30                             171     0.4 5   22 212 
 BAR2 SZ I        1246  0.89        12.4 0.26                            22 212 
 BRR  HZ EP   2   1245 46.72                             149    -0.4 5   80 299 
 BRR  HZ I        1245 56.78        17.1 0.50                            80 299 
 BRR  HN ES   1   1246  3.62                             149    -0.1 8   80 299 
 RUS  HZ EP   1   1245 48.82                             144    -0.1 8   96 180 
 RUS  HN ES   1   1246  6.74                             144    -0.1 8   96 180 
 RUS  HZ I        1246  8.21         4.0 0.51                            96 180 
 GUE  SZ EP       1245 50.89                             138     0.510  119   8 
 GUE  SZ I        1246 12.40         3.2 0.14                           119   8 
 GRA  SZ EP       1245 50.72                             135    -0.210  128  14 
 GRA  SZ ES   2   1246  9.99                             135    -0.5 5  128  14 
 GRA  SZ I        1246 10.96         6.3 0.35                           128  14 
                                                                                
