 2016  4 7 1607  5.0 L   6.789 -73.161138.6  RSN 10 0.4 2.0LRSN                1
 GAP=135        1.02       3.7     4.2  6.2 -0.2035E+01  0.9737E+01  0.1860E+01E
 Epicentro: LOS SANTOS - SANTANDER                                             3
 ACTION:UPD 16-05-05 14:19 OP:rebc STATUS:               ID:20160407160705 L   I
 OLDACT:UP  16-04-07 21:10 OP:drio STATUS:               ID:20160407155745     3
 OLDACT:REG 16-04-07 19:29 OP:drio STATUS:               ID:20160407155745     3
 2016-04-07-1557-45M.COL___319                                                 6
 STAT SP IPHASW D HRMM SECON CODA AMPLIT PERI AZIMU VELO AIN AR TRES W  DIS CAZ7
 BAR2 EZ EP       16 7 23.62                             171   -0.1510 21.8 186 
 BAR2 EZ ES       16 7 38.45                             171    0.0610 21.8 186 
 BAR2 EZ I        16 7 39.79        37.2 0.16            169           21.8 186 
 PAM  EZ EP       16 7 26.51                             149   -0.1110 79.5  40 
 PAM  EE ES       16 7 43.62                             149    0.1610 79.5  40 
 PAM  EZ I        16 7 45.24         8.0 0.38            153           79.5  40 
 RUS  HZ EP       16 7 27.69                             143   -0.3210 99.5 175 
 RUS  HE ES       16 7 46.09                             143    0.1710 99.5 175 
 RUS  HZ I        16 7 47.34        10.9 0.30            145           99.5 175 
 PTB  HZ EP       16 7 30.71                             131   -0.54 9  146 259 
 PTB  HN ES       16 7 50.88                             131   -0.81 9  146 259 
 PTB  HZ I        16 7 57.01        12.5 0.30            130            146 259 
 SPBC HZ EP       16 7 32.67                             128   -0.12 9  161 219 
 SPBC HN ES       16 7 55.04                             128    0.60 9  161 219 
 SPBC HZ I        16 7 55.72        37.1 0.20            128            161 219 
 ZAR  HZ EP       16 7 37.60                             121    0.69 9  203 293 
 ZAR  HN ES       16 8  2.10                             121    0.34 9  203 293 
 ZAR  HZ I        16 8 11.94         9.9 0.24            121            203 293 
 NOR  HZ EP       16 7 39.83                             117   -0.30 8  233 234 
 NOR  HN ES       16 8  7.50                             117    0.00 8  233 234 
 NOR  HZ I        16 8 14.46        10.0 0.18            118            233 234 
 CHI  HZ EP       16 7 41.90                             116   -0.27 8  247 195 
 CHI  HN ES       16 8 11.27                             116    0.15 8  247 195 
 CHI  HZ I        16 8 17.67         5.3 0.26            117            247 195 
 GUY2CHZ EP       16 7 49.03                             111    0.95 7  299 235 
 GUY2CHE ES   4   16 8 23.65                             111    2.00 0  299 235 
 GUY2CHZ I        16 8 30.26         7.2 0.42                           299 235 
 ORTC HZ EP   4   16 7 57.21                             105   -1.27 0  393 216 
 ORTC HE ES   4   16 8 41.56                             105    1.39 0  393 216 
 ORTC HZ I        16 8 46.74         4.0 0.44            106            393 216 
                                                                                
