 2011  7 7 1518  1.8 L   6.811 -73.102139.0  RSN  8 0.2 2.3LRSN                1
 GAP=160        0.44       2.2     3.1  3.6 -0.6783E+00  0.2805E+01 -0.2606E+00E
 Epicentro: LOS SANTOS - SANTANDER                                             3
 ACTION:UPD 12-07-25 13:59 OP:epov STATUS:               ID:20110707151801 L   I
 2011-07-07-1513-26S.COL___140                                                 6
 STAT SP IPHASW D HRMM SECON CODA AMPLIT PERI AZIMU VELO AIN AR TRES W  DIS CAZ7
 BAR2 SZ EP       1518 20.76                             169    0.1210 25.7 200 
 BAR2 SZ ES   1   1518 34.99                             169   -0.36 7 25.7 200 
 BAR2 SZ I        1518 39.59        35.8 0.42                          25.7 200 
 BRR  HZ EP       1518 22.55                             150    0.1410 74.9 296 
 BRR  HN ES   1   1518 38.72                             150    0.21 7 74.9 296 
 BRR  HZ I        1518 43.07        59.8 0.15                          74.9 296 
 RUS  HZ EP   1   1518 24.71                             142   -0.23 7  102 179 
 RUS  HZ I        1518 26.17        12.6 0.10                           102 179 
 RUS  HN ES   1   1518 43.16                             142    0.16 7  102 179 
 BRI  SZ EP   2   1518 24.95                             141    0.14 5  106  19 
 OCA  SZ EP   1   1518 29.39                             128   -0.12 7  160 351 
 OCA  SZ ES   2   1518 51.01                             128   -0.14 5  160 351 
 OCA  SZ I        1518 55.53        27.7 0.19                           160 351 
 NOR  SZ EP   1   1518 37.32                             116   -0.30 6  239 235 
 NOR  SE ES   1   1519  5.70                             116    0.12 6  239 235 
 CHI  HZ EP   2   1518 39.19                             115   -0.18 4  251 196 
 CHI  HE ES   2   1519  8.89                             115    0.19 4  251 196 
 CHI  HZ I        1519 16.16        10.3 0.55                           251 196 
 HEL  HZ EP   1   1518 42.53                             113    0.33 6  277 256 
 HEL  HN ES   1   1519 13.36                             113   -0.38 6  277 256 
 HEL  HZ I        1519 20.50        24.2 0.47                           277 256 
                                                                                
