 2016  9 7 1527 55.1 L   6.832 -73.135142.8  RSN  5 0.2 1.4LRSN                1
 GAP=246        0.64       4.2     3.9  5.2  0.6918E+01  0.3401E+01 -0.4917E+01E
 Epicentro: LOS SANTOS - SANTANDER                                             3
 ACTION:UPD 17-08-17 21:07 OP:lp   STATUS:               ID:20160907152755 L   I
 OLDACT:REG 16-09-07 20:23 OP:lv   STATUS:               ID:20160907151736     3
 2016-09-07-1518-00M.COL___358                                                 6
 STAT SP IPHASW D HRMM SECON CODA AMPLIT PERI AZIMU VELO AIN AR TRES W  DIS CAZ7
 BAR2 EZ EP       1528 14.75                             169    0.3010 27.0 191 
 BAR2 EZ ES       1528 29.58                             169    0.0310 27.0 191 
 BAR2 EZ I        1528 31.13         8.4 0.16            169           27.0 191 
 RUS  HZ EP       1528 18.85                             142    0.0410  104 177 
 RUS  HE ES       1528 37.02                             142   -0.2910  104 177 
 RUS  HZ I        1528 38.47         2.8 0.25            146            104 177 
 PTB  HZ EP       1528 22.06                             131    0.07 9  150 258 
 PTB  HN ES       1528 42.74                             131   -0.23 9  150 258 
 PTB  HZ I        1528 45.52         3.0 0.15            131            150 258 
 SPBC HZ EP       1528 23.76                             128    0.06 9  167 219 
 SPBC HN ES       1528 46.26                             128    0.24 9  167 219 
 SPBC HZ I        1528 48.68         3.4 0.16            129            167 219 
 ZAR  HZ EP       1528 26.82                             122   -0.50 9  204 291 
 ZAR  HE ES       1528 52.73                             122    0.27 9  204 291 
 ZAR  HZ I        1529  1.26         2.2 0.17            122            204 291 
                                                                                
