 2016  7 7 1624 52.9 L   6.726 -73.164151.5  RSN  6 0.4 1.8LRSN                1
 GAP=230        1.00       5.4     5.9  6.8  0.1242E+02  0.6742E+01 -0.1315E+01E
 Epicentro: VILLANUEVA - SANTANDER                                             3
 ACTION:UPD 17-03-29 16:48 OP:lp   STATUS:               ID:20160707162452 L   I
 OLDACT:UP  16-07-08 01:15 OP:edw  STATUS:               ID:20160707161748     3
 OLDACT:REG 16-07-07 20:52 OP:edw  STATUS:               ID:20160707161748     3
 2016-07-07-1617-48M.COL___331                                                 6
 STAT SP IPHASW D HRMM SECON CODA AMPLIT PERI AZIMU VELO AIN AR TRES W  DIS CAZ7
 BAR2 EZ EP       1625 12.94                             174   -0.1310 15.0 188 
 BAR2 EZ ES       1625 28.63                             174   -0.1810 15.0 188 
 BAR2 EZ I        1625 29.68         7.6 0.44            175           15.0 188 
 BRR  HZ EP       1625 14.87                             153    0.0710 73.8 305 
 BRR  HE ES       1625 32.21                             153    0.3210 73.8 305 
 RUS  HZ EP       1625 17.03                             147    0.3710 92.6 174 
 RUS  HN ES       1625 35.03                             147   -0.1810 92.6 174 
 PTB  HZ EP       1625 19.33                             134   -0.70 9  144 262 
 PTB  HN ES       1625 40.78                             134   -0.42 9  144 262 
 PTB  HZ I        1625 42.57         5.7 0.18            134            144 262 
 SPBC HZ EP       1625 20.82                             132   -0.31 9  156 220 
 SPBC HN ES       1625 43.86                             132    0.69 9  156 220 
 ZAR  HZ EP       1625 26.40                             123    0.55 8  205 294 
 ZAR  HN ES       1625 51.54                             123   -0.02 8  205 294 
 ZAR  HZ I        1625 55.74        11.0 0.44            123            205 294 
                                                                                
