 2017 11 7 1202  7.5 L   6.781 -73.116143.6  RSN 10 0.5 1.8LRSN                1
 GAP=159        0.73       4.9     3.6  6.3 -0.3850E+01  0.3324E+01  0.1289E+02E
 Epicentro: LOS SANTOS - SANTANDER                                             3
 ACTION:UPD 17-12-12 19:53 OP:rebc STATUS:               ID:20171107120207 L   I
 OLDACT:UP  17-11-07 21:51 OP:mg   STATUS:               ID:20171107115737     3
 OLDACT:REG 17-11-07 20:14 OP:mg   STATUS:               ID:20171107115737     3
 2017-11-07-1158-00M.COL___414                                                 6
 STAT SP IPHASW D HRMM SECON CODA AMPLIT PERI AZIMU VELO AIN AR TRES W  DIS CAZ7
 BAR2 EZ EP       12 2 26.78                             171   -0.1010 22.2 199 
 BAR2 EZ ES   2   12 2 41.18                             171   -0.78 5 22.2 199 
 BAR2 EZ I        12 2 42.62        14.9 0.22            165           22.2 199 
 BRR  HZ EP       12 2 28.69                             151    0.0210 75.1 299 
 BRR  HN ES       12 2 45.50                             151    0.3410 75.1 299 
 BRR  HZ I        12 2 48.67        15.5 0.36            152           75.1 299 
 PAM  EZ EP       12 2 29.75                             150    0.2610 77.0  37 
 PAM  EN ES       12 2 46.52                             150   -0.1010 77.0  37 
 PAM  EZ I        12 2 47.21        11.1 0.34            157           77.0  37 
 PTB  HZ EP   1   12 2 33.97                             131   -0.61 7  151 260 
 PTB  HN ES   1   12 2 55.16                             131   -0.52 7  151 260 
 PTB  HZ I        12 2 58.17         6.7 0.10            131            151 260 
 ZAR  HZ EP   1   12 2 40.16                             121   -0.07 6  208 292 
 ZAR  HN ES       12 3  5.92                             121    0.18 8  208 292 
 ZAR  HZ I        12 3  8.30         5.7 0.10            123            208 292 
 NOR  HZ EP   1   12 2 42.90                             118   -0.40 6  236 235 
 NOR  HN ES   1   12 3 11.45                             118    0.26 6  236 235 
 NOR  HZ I        12 3 16.21         4.6 0.17            118            236 235 
 CHI  HZ EP   2   12 2 45.34                             117    0.35 4  248 196 
 CHI  HN ES   3   12 3 15.79                             117    1.58 2  248 196 
 CHI  HZ I        12 3 20.96         1.4 0.21            117            248 196 
 GUY2CHE ES   4   12 3 28.98                             112    3.70 0  303 235 
 GUY2CHZ I        12 3 32.18         4.1 0.24                           303 235 
 PRA  HZ EP   2   12 3  2.04                             106    1.08 3  392 210 
 PRA  HN ES   2   12 3 43.72                             106    1.09 3  392 210 
 PRA  HZ I        12 3 48.64         2.2 0.35            107            392 210 
 SJC  HZ EP   3   12 3  1.57                             105   -1.86 1  413 327 
 SJC  HN ES   4   12 3 44.14                             105   -2.90 0  413 327 
 SJC  HZ I        12 3 45.65         1.3 0.43            107            413 327 
                                                                                
