 2013  6 7 1135 51.9 L   6.817 -73.146145.6  RSN 19 0.4 3.2LRSN                1
 GAP= 65        0.98       2.2     2.6  4.2  0.5492E+00  0.2549E+01  0.2160E+01E
 Epicentro: LOS SANTOS - SANTANDER                                             3
 ACTION:UPD 14-01-08 09:53 OP:ep   STATUS:               ID:20130607113551 L   I
 OLDACT:REG 13-06-07 15:57 OP:nd   STATUS:               ID:20130607112959     3
 2013-06-07-1129-59M.COL___261                                                 6
 STAT SP IPHASW D HRMM SECON CODA AMPLIT PERI AZIMU VELO AIN AR TRES W  DIS CAZ7
 BAR2 SZ IP     D 1136 11.62                             170    0.0410 25.1 189 
 BAR2 SZ ES       1136 26.62                             170   -0.2910 25.1 189 
 BAR2 SZ I        1136 28.05       616.8 0.20            169           25.1 189 
 GIR2 SZ IP     C 1136 11.55                             168    0.0110 29.5 350 
 GIR2 SZ ES       1136 26.56                             168   -0.2710 29.5 350 
 GIR2 SZ I        1136 28.34       120.8 0.36            166           29.5 350 
 BRR  HZ IP     C 1136 13.50                             153    0.4810 70.3 297 
 BRR  HN ES       1136 30.48                             153    1.0210 70.3 297 
 BRR  HZ I        1136 31.66       212.9 0.16            150           70.3 297 
 PAM  SZ IP     D 1136 14.43                             151    0.3810 76.0  40 
 PAM  SN ES       1136 31.35                             151    0.0510 76.0  40 
 PAM  SZ I        1136 33.17       119.2 0.42            147           76.0  40 
 RUS  HZ IP     C 1136 15.55                             143   -0.2510  102 176 
 RUS  HN ES       1136 33.73                             143   -0.6910  102 176 
 RUS  HZ I        1136 35.64       168.6 0.32            140            102 176 
 PTB  HZ EP       1136 18.24                             132   -0.68 9  148 258 
 PTB  HN ES       1136 39.35                             132   -0.61 9  148 258 
 PTB  HZ I        1136 41.12       169.9 0.40            128            148 258 
 TAM  HZ IP     D 1136 19.99                             130    0.34 9  156 106 
 TAM  HZ I        1136 40.69        83.4 0.44            126            156 106 
 TAM  HN ES       1136 41.28                             130    0.02 9  156 106 
 OCA  HZ EP       1136 19.94                             130   -0.12 9  158 353 
 OCA  HN ES       1136 41.80                             130   -0.20 9  158 353 
 OCA  HZ I        1136 44.88       247.6 0.22            126            158 353 
 YOP  SZ IP     C 1136 22.31                             126    0.18 9  181 154 
 YOP  SN ES       1136 46.31                             126    0.63 9  181 154 
 YOP  SZ I        1136 46.99       168.6 0.28            122            181 154 
 ZAR  HZ EP       1136 24.52                             122    0.23 9  203 292 
 ZAR  HN ES       1136 49.62                             122    0.09 9  203 292 
 ZAR  HZ I        1136 58.22       157.1 0.48            119            203 292 
 NOR  HZ EP       1136 27.61                             118   -0.15 8  236 234 
 NOR  HN ES       1136 55.74                             118    0.03 8  236 234 
 NOR  HZ I        1137  0.93       147.1 0.20            115            236 234 
 SML  HZ EP       1136 28.07                             118   -0.30 8  242 335 
 SML  HN ES       1136 56.42                             118   -0.37 8  242 335 
 SML  HZ I        1136 58.74       141.6 0.24            114            242 335 
 CHI  HZ EP       1136 29.84                             117    0.03 8  250 195 
 CHI  HN ES       1136 59.27                             117   -0.09 8  250 195 
 CHI  HZ I        1137  6.18        98.3 0.46            114            250 195 
 ROSC BZ EP   4   1136 31.34                             116    1.13 0  254 211 
 ROSC BN ES   4   1137  2.22                             116    2.15 0  254 211 
 HEL  HZ EP       1136 32.49                             115    0.31 8  272 255 
 HEL  HN ES       1137  4.20                             115    0.62 8  272 255 
 HEL  HZ I        1137 12.85        70.1 0.28            112            272 255 
 GUY2CHZ EP   2   1136 35.96                             112    0.31 4  302 234 
 GUY2CHN ES   2   1137 10.34                             112    0.59 4  302 234 
 GUY2CHZ I        1137 18.08       166.1 0.30                           302 234 
 VIL  SZ EP       1136 35.00                             112   -0.54 7  305 191 
 VIL  SN ES       1137  9.59                             112    0.03 7  305 191 
 VIL  SZ I        1137 19.71        89.8 0.42            109            305 191 
 COD  HZ EP   4   1136 39.40                             109   -0.69 0  346 355 
 COD  HN ES   4   1137 15.11                             109   -2.55 0  346 355 
 COD  HZ I        1137 28.46        26.5 0.76            106            346 355 
 ARGC HZ EP   4   1136 41.99                             108    0.61 0  357 340 
 ARGC HN ES   4   1137 24.90                             108    4.95 0  357 340 
 ARGC HZ I        1137 28.02        36.3 0.30            105            357 340 
 PRA  HZ EP       1136 44.84                             106   -0.79 6  394 209 
 PRA  HN ES       1137 28.02                             106    0.50 6  394 209 
 PRA  HZ I        1137 33.51        84.0 0.28            104            394 209 
                                                                                
