 2014  1 7 1204 10.2 L   6.835 -73.193136.7  RSN  5 0.6 1.4LRSN                1
 GAP=197        1.45       7.7     8.6 13.1  0.2710E+02  0.4573E+01 -0.4466E+02E
 Epicentro: ZAPATOCA - SANTANDER                                               3
 ACTION:UPD 14-03-13 09:52 OP:ep   STATUS:               ID:20140107120410 L   I
 OLDACT:REG 14-01-07 15:26 OP:stll STATUS:               ID:20140107115811     3
 2014-01-07-1158-11M.COL___231                                                 6
 STAT SP IPHASW D HRMM SECON CODA AMPLIT PERI AZIMU VELO AIN AR TRES W  DIS CAZ7
 BAR2 SZ EP       12 4 28.93                             168    0.1510 26.8 178 
 BAR2 SZ ES       12 4 43.63                             168    0.3210 26.8 178 
 BAR2 SZ I        12 4 44.82        11.0 0.36            168           26.8 178 
 RUS  HZ EP       12 4 33.42                             141    0.0610  105 173 
 RUS  HN ES       12 4 51.28                             141   -0.1810  105 173 
 RUS  HZ I        12 4 53.50         1.6 0.16            143            105 173 
 PTB  HZ EP       12 4 35.97                             131   -0.04 9  143 257 
 PTB  HN ES       12 4 55.24                             131   -0.93 9  143 257 
 PTB  HZ I        12 4 58.91         2.6 0.24            130            143 257 
 ZAR  HE ES       12 5  6.99                             121    1.27 9  198 292 
 ZAR  HZ I        12 5 15.51         3.6 0.12            121            198 292 
 SML  HZ EP       12 4 45.93                             116    0.26 8  238 336 
 SML  HN ES       12 5 12.43                             116   -0.94 8  238 336 
                                                                                
