 2015  2 7 1831 38.1 L   7.451 -73.249128.0  RSN  9 0.5 2.0LRSN                1
 GAP=107        1.19       3.4     4.9  8.5  0.3562E+01  0.1506E+02  0.5039E+01E
 Epicentro: EL PLAYON - SANTANDER                                              3
 ACTION:UPD 15-04-30 21:23 OP:nd   STATUS:               ID:20150207183138 L   I
 OLDACT:UP  15-02-07 23:46 OP:cam  STATUS:               ID:20150207182750     3
 OLDACT:UP  15-02-07 23:45 OP:cam  STATUS:               ID:20150207182750     3
 OLDACT:REG 15-02-07 22:28 OP:cam  STATUS:               ID:20150207182750     3
 2015-02-07-1827-50M.COL___290                                                 6
 STAT SP IPHASW D HRMM SECON CODA AMPLIT PERI AZIMU VELO AIN AR TRES W  DIS CAZ7
 PAM  SZ EP       1831 57.95                             153    0.4110 61.9 101 
 PAM  SN ES       1832 12.79                             153    0.1110 61.9 101 
 PAM  SZ I        1832 15.09        23.1 0.74            156           61.9 101 
 OCA  HZ EP       1831 59.14                             144    0.4310 87.4 355 
 OCA  HN ES       1832 15.17                             144    0.4110 87.4 355 
 OCA  HZ I        1832 17.91        14.0 0.54            146           87.4 355 
 BAR2 EZ EP       1831 59.51                             141    0.1010 95.3 176 
 BAR2 EZ ES       1832 15.59                             141   -0.4210 95.3 176 
 BAR2 EZ I        1832 17.67        21.7 0.44            144           95.3 176 
 PTB  HZ EP       1832  6.04                             124    0.40 9  167 233 
 PTB  HN ES       1832 27.66                             124    0.56 9  167 233 
 PTB  HZ I        1832 31.13         9.9 0.16            126            167 233 
 RUS  HZ EP       1832  6.22                             123   -0.66 9  173 174 
 RUS  HN ES       1832 28.85                             123   -0.46 9  173 174 
 SML  HZ EP   1   1832  6.47                             123    0.10 7  175 329 
 SML  HN ES       1832 27.17                             123   -1.23 9  175 329 
 SML  HZ I        1832 30.78        22.8 0.32            125            175 329 
 TAM  HZ EP       1832  8.70                             119    0.00 9  196 125 
 TAM  HN ES   4   1832 29.02                             119   -3.53 0  196 125 
 TAM  HZ I        1832 34.57        10.5 0.34            122            196 125 
 MON  HZ EP   4   1832 19.60                             108   -1.11 0  304 299 
 MON  HN ES       1832 53.76                             108   -0.16 7  304 299 
 MON  HN I        1832 55.26         3.6 0.28            110            304 299 
 GUY2CHZ EP   4   1832 27.31                             106    1.84 0  340 224 
 GUY2CHN ES       1833  2.59                             106    0.19 7  340 224 
 GUY2CHZ I        1833 16.67         3.1 0.46                           340 224 
                                                                                
