 2010  2 7 1110 51.4 L   6.835 -73.110131.7  RSN  9 0.5 2.3LRSN                1
 GAP=146        0.94       5.3     9.0  7.6 -0.1819E+02  0.1624E+02 -0.1651E+01E
 Epicentro: LOS SANTOS - SANTANDER                                             3
 ACTION:UP  10-08-24 09:47 OP:vdl  STATUS:               ID:20100207111051 L   I
 2010-02-07-1107-46S.COL___093                                                 6
 STAT SP IPHASW D HRMM SECON CODA AMPLIT PERI AZIMU VELO SNR AR TRES W  DIS CAZ7
 BAR2 SZ IP       1111 10.26                             167     0.810   28 197 
 BAR2 SZ ES   1   1111 22.91                             167    -0.6 7   28 197 
 OCA  SZ EP       1111 18.25                             127    -0.1 9  157 352 
 OCA  SZ ES   2   1111 39.34                             127     0.0 5  157 352 
 OCA  SZ I        1111 45.31        45.0 0.12                           157 352 
 CHI  HZ EP       1111 28.63                             114    -0.2 8  253 196 
 CHI  HE ES   2   1111 57.56                             114    -0.6 4  253 196 
 CHI  HZ I        1112  1.08         6.3 0.27                           253 196 
 HEL  HZ EP   2   1111 31.27                             111    -0.2 4  277 255 
 HEL  HN ES   3   1112  1.92                             111    -0.8 2  277 255 
 HEL  HZ I        1112  8.11        12.7 0.54                           277 255 
 RREF BZ EP   2   1111 37.53                             108    -0.1 3  327 229 
 DBB  SZ EP       1111 38.52                             107    -0.2 7  343 274 
 TOL  SZ EP       1111 40.33                             106     0.6 6  349 225 
 SDV  BZ EP       1111 39.77                             106    -0.5 6  355  50 
 PRA  HZ EP       1111 44.81                             104    -0.3 6  397 210 
 PRA  HN ES   3   1112 26.39                             104    -0.6 1  397 210 
 PRA  HZ I        1112 28.95         5.1 0.33                           397 210 
                                                                                
