 2013  7 7 1851 20.2 L   6.781 -73.153146.3  RSN 14 0.5 2.4LRSN                1
 GAP= 71        1.01       3.7     4.0  5.8 -0.2131E+01  0.6009E+01  0.1671E+01E
 Epicentro: LOS SANTOS - SANTANDER                                             3
 ACTION:UPD 13-08-12 10:36 OP:ep   STATUS:               ID:20130707185120 L   I
 OLDACT:DUP 13-07-07 16:55 OP:jn   STATUS:               ID:20130707184960d    3
 2013-07-07-1849-59M.COL___267                                                 6
 STAT SP IPHASW D HRMM SECON CODA AMPLIT PERI AZIMU VELO AIN AR TRES W  DIS CAZ7
 BAR2 SZ EP     D 1851 39.93                             171    0.0310 21.2 189 
 BAR2 SZ ES       1851 54.90                             171   -0.3310 21.2 189 
 BAR2 SZ I        1851 56.77        40.6 0.26            170           21.2 189 
 GIR2 SZ EP       1851 40.06                             167    0.0310 33.2 352 
 BRR  HZ EP     C 1851 41.79                             153    0.3210 71.5 300 
 BRR  HN ES   1   1851 59.09                             153    1.07 7 71.5 300 
 BRR  HZ I        1852  4.63        31.0 0.20            152           71.5 300 
 PAM  SZ EP     D 1851 42.81                             150    0.1710 79.5  39 
 PAM  SN ES       1852  0.20                             150    0.0810 79.5  39 
 PAM  SZ I        1852  2.19        24.2 0.48            146           79.5  39 
 RUS  HZ EP     C 1851 43.77                             144   -0.1410 98.6 175 
 RUS  HN ES   1   1852  2.32                             144   -0.05 7 98.6 175 
 RUS  HZ I        1852  3.58        27.2 0.24            141           98.6 175 
 PTB  HZ EP       1851 46.51                             132   -0.64 9  147 260 
 PTB  HN ES       1852  7.90                             132   -0.23 9  147 260 
 PTB  HZ I        1852 10.59        31.5 0.20            130            147 260 
 TAM  HZ EP   1   1851 48.07                             131    0.08 7  155 104 
 TAM  HZ I        1852 10.55        15.2 0.31            126            155 104 
 OCA  HE ES   1   1852 10.37                             129   -0.67 7  162 354 
 OCA  HZ I        1852 15.04        22.8 0.35            126            162 354 
 ZAR  HZ EP   1   1851 52.34                             122   -0.38 6  204 293 
 ZAR  HE ES   1   1852 17.20                             122   -0.86 6  204 293 
 ZAR  HZ I        1852 25.03        44.2 0.32            120            204 293 
 NOR  HZ EP       1851 55.65                             119   -0.15 8  233 235 
 NOR  HE ES   1   1852 23.81                             119    0.27 6  233 235 
 NOR  HZ I        1852 28.21        29.5 0.22            116            233 235 
 SML  HZ EP       1851 56.64                             117   -0.42 8  245 336 
 SML  HE ES   1   1852 26.77                             117    0.99 6  245 336 
 HEL  HN ES   1   1852 32.10                             115    0.49 6  271 256 
 HEL  HZ I        1852 39.15        14.9 0.30            113            271 256 
 GUY2CHZ EP       1852  4.80                             113    1.13 7  299 235 
 GUY2CHZ I        1852 45.80        13.9 0.52                           299 235 
 PRA  HZ EP   1   1852 13.58                             107    0.06 4  390 210 
 PRA  HN ES   1   1852 54.96                             107   -0.13 4  390 210 
 PRA  HZ I        1852 59.22         8.2 0.30            104            390 210 
                                                                                
