 2014  4 7 1436 19.0 L   6.814 -73.141148.2  RSN 22 0.5 2.8LRSN                1
 GAP= 71        1.07       3.1     2.9  5.5 -0.1200E+01  0.2214E+01  0.2313E+01E
 Epicentro: LOS SANTOS - SANTANDER                                             3
 ACTION:UPD 14-05-13 23:06 OP:nd   STATUS:               ID:20140407143619 L   I
 OLDACT:UP  14-04-07 23:06 OP:cam  STATUS:               ID:20140407142806     3
 OLDACT:REG 14-04-07 21:52 OP:cam  STATUS:               ID:20140407142806     3
 2014-04-07-1428-06M.COL___262                                                 6
 STAT SP IPHASW D HRMM SECON CODA AMPLIT PERI AZIMU VELO AIN AR TRES W  DIS CAZ7
 BRR  HZ IP     D 1436 40.67                             153    0.2410 71.0 297 
 BRR  HN ES       1436 57.99                             153    0.8610 71.0 297 
 BRR  HZ I        1437  2.05        52.7 0.16            153           71.0 297 
 PAM  SZ EP     D 1436 41.62                             152    0.2010 75.8  40 
 PAM  SE ES   1   1436 58.99                             152    0.11 7 75.8  40 
 PAM  SN I        1437  0.06       183.9 0.62            150           75.8  40 
 RUS  HZ EP       1436 42.74                             144   -0.3910  102 176 
 RUS  HN ES       1437  1.86                             144   -0.0710  102 176 
 RUS  HZ I        1437  2.41        59.8 0.24            142            102 176 
 PTB  HZ EP       1436 45.46                             132   -0.82 9  149 258 
 PTB  HN ES       1437  6.72                             132   -0.81 9  149 258 
 PTB  HZ I        1437  8.07        62.7 0.40            131            149 258 
 TAM  HZ IP     D 1436 47.02                             131    0.13 9  155 106 
 TAM  HZ I        1437  7.78        30.7 0.34            129            155 106 
 TAM  HN ES       1437  8.73                             131    0.11 9  155 106 
 OCA  HE ES       1437  8.98                             130   -0.55 9  159 353 
 OCA  HZ I        1437 13.73        46.9 0.48            129            159 353 
 SPBC HZ EP       1436 47.73                             129   -0.13 9  165 219 
 SPBC HN ES       1437 10.17                             129   -0.18 9  165 219 
 SPBC HZ I        1437 12.46        87.2 0.22            127            165 219 
 ZAR  HZ EP       1436 51.52                             123   -0.11 9  204 292 
 ZAR  HE ES       1437 17.62                             123    0.56 9  204 292 
 ZAR  HZ I        1437 23.98        56.9 0.26            121            204 292 
 NOR  HZ EP     D 1436 55.24                             119    0.19 8  236 234 
 NOR  HN ES       1437 22.86                             119   -0.28 8  236 234 
 NOR  HZ I        1437 28.05        62.4 0.48            117            236 234 
 SML  HZ EP       1436 55.72                             118    0.05 8  243 335 
 SML  HN ES   2   1437 23.84                             118   -0.41 4  243 335 
 SML  HZ I        1437 29.69        42.1 0.22            117            243 335 
 CHI  HZ EP   1   1436 56.42                             117   -0.62 6  250 195 
 CHI  HN ES   4   1437 25.79                             117   -0.90 0  250 195 
 CHI  HZ I        1437 30.30        23.2 0.28            116            250 195 
 ROSC BZ EP       1436 58.47                             117    1.01 8  254 211 
 ROSC BN ES   4   1437 29.11                             117    1.68 0  254 211 
 ROSC BZ I        1437 36.48        56.5 0.35            115            254 211 
 HEL  HZ EP   4   1437  0.74                             115    1.27 0  273 256 
 HEL  HN ES   1   1437 30.82                             115   -0.19 6  273 256 
 HEL  HZ I        1437 37.71        30.6 0.44            114            273 256 
 URE  HZ EP   4   1436 58.95                             114   -1.27 0  284 292 
 GUY2CHZ EP       1437  3.84                             113    0.94 7  303 235 
 GUY2CHN ES       1437 36.81                             113   -0.31 7  303 235 
 GUY2CHZ I        1437 45.35        53.4 0.36                           303 235 
 RREF HZ EP   4   1437  7.10                             111    1.66 0  323 229 
 RREF HN ES   4   1437 40.94                             111   -0.70 0  323 229 
 RREF HZ I        1437 48.77        29.2 0.30            110            323 229 
 CBOC HZ EP     D 1437  6.96                             110    0.80 7  335 252 
 CBOC HN ES       1437 42.88                             110   -0.05 7  335 252 
 CBOC HZ I        1437 44.04         6.2 0.52            109            335 252 
 DBB  SZ EP   1 C 1437  6.60                             110   -0.06 5  340 274 
 DBB  SZ ES   4   1437 39.14                             110   -4.67 0  340 274 
 DBB  SZ I        1437 47.22        57.1 0.30            109            340 274 
 SDV  BZ EP       1437  8.35                             109   -0.65 6  359  50 
 ANIL HZ EP   4   1437 10.23                             109    1.13 0  359 224 
 ANIL HN ES   4   1437 50.67                             109    2.52 0  359 224 
 ANIL HN I        1437 58.52       168.8 0.40            107            359 224 
 PRA  HZ EP       1437 12.61                             107   -0.21 6  394 210 
 PRA  HE ES   2   1437 54.76                             107   -0.02 3  394 210 
 PRA  HZ I        1438  1.01        23.2 0.58            105            394 210 
 ORTC HZ EP   1   1437 13.96                             107    0.74 4  397 216 
 SJC  HZ EP   4 D 1437 13.34                             106   -1.22 0  408 327 
 SJC  HN ES   4   1437 54.50                             106   -3.37 0  408 327 
 SJC  HZ I        1437 57.84         8.6 0.34            105            408 327 
                                                                                
