 2013  3 7 1739 48.2 L   6.783 -73.137140.5  RSN  8 0.4 2.3LRSN                1
 GAP= 72        1.06       4.5     3.5  6.6  0.2894E+01  0.2137E+01 -0.4516E+00E
 Epicentro: LOS SANTOS - SANTANDER                                             3
 ACTION:UPD 13-04-09 14:00 OP:ep   STATUS:               ID:20130307173948 L   I
 2013-03-07-1740-00M.COL___231                                                 6
 STAT SP IPHASW D HRMM SECON CODA AMPLIT PERI AZIMU VELO AIN AR TRES W  DIS CAZ7
 BAR2 SZ EP       1740  7.09                             171   -0.0310 21.7 193 
 BAR2 SZ ES       1740 21.71                             171   -0.2010 21.7 193 
 BAR2 SZ I        1740 27.16        22.5 0.20            170           21.7 193 
 BRR  HZ EP       1740  9.28                             151    0.4410 73.0 299 
 BRR  HN ES       1740 25.71                             151    0.7410 73.0 299 
 BRR  HE I        1740 26.51        71.3 0.26            153           73.0 299 
 PAM  SZ EP       1740 10.11                             150    0.2510 78.2  38 
 PAM  SZ I        1740 10.33        28.0 0.24            153           78.2  38 
 PAM  SN ES       1740 26.65                             150   -0.1410 78.2  38 
 RUS  HZ EP       1740 11.64                             143    0.3910 98.7 177 
 RUS  HN ES       1740 29.18                             143   -0.0910 98.7 177 
 RUS  HN I        1740 31.34        22.0 0.38            145           98.7 177 
 PTB  HZ EP       1740 14.36                             131   -0.39 9  148 260 
 PTB  HN ES       1740 34.84                             131   -0.66 9  148 260 
 PTB  HN I        1740 37.08        27.7 0.22            133            148 260 
 TAM  HZ IP     D 1740 15.49                             130    0.21 9  154 104 
 TAM  HN ES       1740 36.20                             130   -0.24 9  154 104 
 OCA  HN ES   1   1740 37.20                             128   -0.96 7  162 353 
 OCA  HN I        1740 38.09        50.6 0.18            131            162 353 
 ZAR  HZ EP       1740 20.04                             121   -0.39 8  206 293 
 ZAR  HN ES       1740 46.03                             121    0.43 8  206 293 
                                                                                
