 2017  6 7 1301 16.7 L   6.738 -73.218146.6  RSN  4 0.3 1.5LRSN                1
 GAP=224        0.66       4.3     4.2  6.3  0.4399E+01  0.2992E+01  0.3790E+01E
 Epicentro: VILLANUEVA - SANTANDER                                             3
 ACTION:UPD 17-09-14 16:50 OP:jn   STATUS:               ID:20170607130116 L   I
 OLDACT:REG 17-06-07 20:44 OP:osc  STATUS:               ID:20170607125653     3
 2017-06-07-1258-00M.COL___371                                                 6
 STAT SP IPHASW D HRMM SECON CODA AMPLIT PERI AZIMU VELO AIN AR TRES W  DIS CAZ7
 BRR  HZ EP       13 1 37.52                             154   -0.2410 68.2 307 
 BRR  HN ES       13 1 54.57                             154    0.3710 68.2 307 
 BRR  HZ I        13 1 56.92        10.6 0.22            153           68.2 307 
 RUS  HZ EP       13 1 40.22                             146    0.1210 94.7 171 
 RUS  HN ES       13 1 58.31                             146   -0.0610 94.7 171 
 RUS  HZ I        13 2  0.26         3.6 0.20            145           94.7 171 
 PTB  HZ EP       13 1 42.75                             134   -0.16 9  139 261 
 PTB  HN ES       13 2  3.04                             134   -0.33 9  139 261 
 PTB  HZ I        13 2  4.65         4.9 0.44            133            139 261 
 NOR  HZ EP   2   13 1 52.02                             120    0.67 4  224 235 
 NOR  HN ES       13 2 18.59                             120    0.20 8  224 235 
 NOR  HZ I        13 2 26.41         1.6 0.14            120            224 235 
                                                                                
