 2012  8 7 1300 48.4 L   6.687 -73.194146.1  RSN  4 0.3 1.1LRSN                1
 GAP=223        0.60       7.1     6.2  7.0  0.2341E+02  0.9380E+01  0.1047E+02E
 Epicentro: VILLANUEVA - SANTANDER                                             3
 ACTION:UPD 12-09-10 11:55 OP:ep   STATUS:               ID:20120807130048 L   I
 2012-08-07-1300-00M.COL___216                                                 6
 STAT SP IPHASW D HRMM SECON CODA AMPLIT PERI AZIMU VELO AIN AR TRES W  DIS CAZ7
 BAR2 SZ EP   1   13 1  7.55                             176   -0.38 7 10.5 173 
 BAR2 SZ I        13 1  7.85         2.1 0.42                          10.5 173 
 BAR2 SZ ES   1   13 1 22.85                             176   -0.28 7 10.5 173 
 BRR  HN ES   1   13 1 26.81                             152    0.39 7 73.8 309 
 RUS  HZ EP   1   13 1 11.80                             147    0.39 7 88.6 172 
 RUS  HN ES   1   13 1 29.42                             147    0.10 7 88.6 172 
 RUS  HZ I        13 1 31.07         1.4 0.28                          88.6 172 
 PTB  HZ EP   1   13 1 14.69                             134   -0.11 7  141 263 
 PTB  HN ES   1   13 1 35.23                             134   -0.12 7  141 263 
 PTB  HZ I        13 1 35.86         2.9 0.52                           141 263 
                                                                                
