 2012  4 7 1644 56.4 L   6.807 -73.150140.4  RSN  9 0.5 2.2LRSN                1
 GAP=136        1.17       5.2     5.9  8.2 -0.5087E+00  0.1339E+02 -0.1984E+01E
 Epicentro: LOS SANTOS - SANTANDER                                             3
 ACTION:UPD 12-07-05 11:51 OP:tino STATUS:               ID:20120407164456 L   I
 2012-04-07-1640-00M.COL___196                                                 6
 STAT SP IPHASW D HRMM SECON CODA AMPLIT PERI AZIMU VELO AIN AR TRES W  DIS CAZ7
 BAR2 SZ EP       1645 15.35                             170     0.010   24 189 
 BAR2 SZ ES   1   1645 30.02                             170    -0.2 7   24 189 
 BAR2 SZ I        1645 31.20        24.6 0.32                            24 189 
 BRR  HZ EP       1645 17.15                             152     0.210   70 298 
 BRR  HN ES   1   1645 33.97                             152     1.0 7   70 298 
 BRR  HZ I        1645 37.61        57.8 0.20                            70 298 
 PAM  SZ EP       1645 18.15                             150     0.110   77  40 
 PAM  SE ES   1   1645 35.07                             150     0.2 7   77  40 
 RUS  HZ EP       1645 19.62                             143    -0.110  101 176 
 RUS  HE ES   1   1645 37.30                             143    -0.5 7  101 176 
 RUS  HZ I        1645 39.55        17.0 0.26                           101 176 
 PTB  HZ IP     C 1645 22.34                             131    -0.6 9  147 259 
 PTB  HE ES   1   1645 42.87                             131    -0.7 7  147 259 
 PTB  HZ I        1645 47.59        13.2 0.50                           147 259 
 OCA  SZ EP       1645 24.01                             128    -0.2 9  159 353 
 OCA  SZ ES   2   1645 45.05                             128    -0.9 5  159 353 
 ZAR  HZ EP       1645 28.55                             121     0.1 9  203 292 
 ZAR  HE ES   1   1645 53.18                             121    -0.2 6  203 292 
 ZAR  HZ I        1645 59.92        21.0 0.34                           203 292 
 CHI  HZ EP   2   1645 33.76                             116    -0.1 4  249 195 
 CHI  HE ES   2   1646  3.91                             116     0.8 4  249 195 
 CHI  HZ I        1646 10.06        11.7 0.64                           249 195 
 HEL  HZ EP       1645 37.23                             114     0.9 8  272 256 
 HEL  HZ I        1646 14.97         7.4 0.38                           272 256 
                                                                                
