 2013  3 7 1916 23.1 L   6.823 -73.115144.9  RSN 18 0.5 3.4LRSN 3.5WRSN        1
 SPEC AVERAGE  MO 14.3 ST 21.9 OM  2.5 f0 3.77 R0.4367 AL 2.69 WI 26.6 MW  3.5 3
 SPEC SD       MO  0.2 ST 22.8 OM  0.5 f0 1.29 R0.1494 AL      WI      MW  0.1 3
 GAP= 72        1.17       2.7     3.6  5.5 -0.8292E-01  0.6844E+01  0.2918E+01E
 Epicentro: LOS SANTOS - SANTANDER                                             3
 SPEC ZAR HH N MO 14.2 ST 74.3 OM  2.4 f0 6.99 R0.2103 AL 3.96 WI 33.5 MW  3.4 3
 SPEC ZAR HH N T191718 K 0.000 GD  251 VS 4.20 DE 3.20 Q0300.0 QA 0.60 VS 4.20 3
 SPEC TAM HH N MO 14.0 ST  3.0 OM  2.3 f0 2.76 R0.5326 AL 1.86 WI 31.1 MW  3.3 3
 SPEC TAM HH N T191711 K 0.000 GD  210 VS 4.20 DE 3.20 Q0300.0 QA 0.60 VS 4.20 3
 SPEC PRA HH N MO 14.0 ST  9.9 OM  2.0 f0 4.09 R0.3594 AL 2.60 WI 43.4 MW  3.3 3
 SPEC PRA HH N T191754 K 0.000 GD  421 VS 4.20 DE 3.20 Q0300.0 QA 0.60 VS 4.20 3
 SPEC RREFHH Z MO 14.3 ST 22.2 OM  1.6 f0 4.25 R0.3459 AL 3.48 WI 30.5 MW  3.5 3
 SPEC RREFHH Z T1917 9 K 0.000 GD  356 VP 7.60 DE 3.20 Q0300.0 QA 0.60 VS 4.20 3
 SPEC ROSCBH Z MO 14.5 ST 23.8 OM  1.9 f0 3.68 R0.3995 AL 3.14 WI 27.4 MW  3.6 3
 SPEC ROSCBH Z T1917 2 K 0.000 GD  295 VP 7.60 DE 3.20 Q0300.0 QA 0.60 VS 4.20 3
 SPEC PTB HH E MO 14.2 ST  7.2 OM  2.5 f0 3.16 R0.4652 AL 1.48 WI 28.3 MW  3.4 3
 SPEC PTB HH E T1917 9 K 0.000 GD  210 VS 4.20 DE 3.20 Q0300.0 QA 0.60 VS 4.20 3
 SPEC RUS HH N MO 13.9 ST  5.2 OM  2.3 f0 3.49 R0.4212 AL 2.64 WI 26.0 MW  3.2 3
 SPEC RUS HH N T1917 4 K 0.000 GD  177 VS 4.20 DE 3.20 Q0300.0 QA 0.60 VS 4.20 3
 SPEC HEL HH Z MO 14.2 ST  5.2 OM  1.5 f0 2.95 R0.4983 AL 1.70 WI 30.4 MW  3.4 3
 SPEC HEL HH Z T1917 3 K 0.000 GD  311 VP 7.60 DE 3.20 Q0300.0 QA 0.60 VS 4.20 3
 SPEC OCA HH N MO 14.7 ST 56.6 OM  3.0 f0 4.25 R0.3459 AL 2.97 WI 26.8 MW  3.8 3
 SPEC OCA HH N T191711 K 0.000 GD  214 VS 4.20 DE 3.20 Q0300.0 QA 0.60 VS 4.20 3
 SPEC PAM SH Z MO 14.4 ST 44.4 OM  2.0 f0 5.12 R0.2871 AL 2.66 WI 15.6 MW  3.5 3
 SPEC PAM SH Z T191645 K 0.000 GD  162 VP 7.60 DE 3.20 Q0300.0 QA 0.60 VS 4.20 3
 SPEC CHI HH N MO 14.2 ST  5.4 OM  2.3 f0 3.00 R0.4900 AL 2.33 WI 20.6 MW  3.4 3
 SPEC CHI HH N T191729 K 0.000 GD  290 VS 4.20 DE 3.20 Q0300.0 QA 0.60 VS 4.20 3
 SPEC CTABSH Z MO 14.2 ST  2.2 OM  2.4 f0 2.10 R0.7000 AL 2.68 WI 21.1 MW  3.4 3
 SPEC CTABSH Z T191729 K 0.000 GD  275 VS 4.20 DE 3.20 Q0300.0 QA 0.60 VS 4.20 3
 SPEC BRR HH N MO 14.4 ST 44.3 OM  2.8 f0 5.01 R0.2934 AL 4.36 WI 21.3 MW  3.5 3
 SPEC BRR HH N T1917 1 K 0.000 GD  162 VS 4.20 DE 3.20 Q0300.0 QA 0.60 VS 4.20 3
 SPEC BAR2SH Z MO 14.5 ST  2.8 OM  2.9 f0 1.92 R0.7656 AL 1.74 WI 17.0 MW  3.6 3
 SPEC BAR2SH Z T191656 K 0.000 GD  147 VS 4.20 DE 3.20 Q0300.0 QA 0.60 VS 4.20 3
 ACTION:UPD 13-04-09 14:00 OP:ep   STATUS:               ID:20130307191623 L   I
 2013-03-07-1910-00M.COL___231                                                 6
 STAT SP IPHASW D HRMM SECON CODA AMPLIT PERI AZIMU VELO AIN AR TRES W  DIS CAZ7
 BAR2 SZ IP       1916 42.55                             169   -0.1310 26.6 196 
 BAR2 SZ ES       1916 57.44                             169   -0.5310 26.6 196 
 BAR2 SZ I        1916 58.76       771.2 0.18            164           26.6 196 
 BRR  HZ IP     D 1916 44.42                             152    0.1710 73.1 296 
 BRR  HE ES       1917  1.29                             152    0.5410 73.1 296 
 BRR  HN I        1917  1.85       951.7 0.26            147           73.1 296 
 PAM  SZ IP     D 1916 45.40                             152    0.4310 73.3  39 
 PAM  SZ I        1916 45.75       383.1 0.22            154           73.3  39 
 PAM  SN ES       1917  2.26                             152    0.2210 73.3  39 
 RUS  HZ IP     C 1916 46.44                             143   -0.4810  103 178 
 RUS  HN ES       1917  4.89                             143   -0.6210  103 178 
 RUS  HE I        1917  6.10       168.2 0.18            138            103 178 
 PTB  HZ EP   4   1916 49.00                             131   -1.33 0  152 258 
 PTB  HN ES   4   1917  9.72                             131   -1.86 0  152 258 
 PTB  HE I        1917 15.76       231.7 0.36            126            152 258 
 TAM  HZ IP     D 1916 50.88                             131    0.42 9  153 106 
 TAM  HN ES       1917 12.23                             131    0.43 9  153 106 
 OCA  HZ EP       1916 50.79                             130   -0.34 9  158 352 
 OCA  HE ES       1917 13.16                             130    0.15 9  158 352 
 OCA  HN I        1917 15.87       715.9 0.24            128            158 352 
 ZAR  HZ EP       1916 55.87                             122    0.17 8  206 291 
 ZAR  HN ES       1917 21.18                             122    0.04 8  206 291 
 ZAR  HN I        1917 26.12       236.1 0.44            118            206 291 
 CTAB SZ EP       1917  0.02                             119    0.82 8  234 211 
 CTAB SZ I        1917 32.11       152.0 0.36            115            234 211 
 SML  HZ EP       1916 58.82                             117   -0.75 8  243 334 
 SML  HN ES       1917 27.37                             117   -0.66 8  243 334 
 SML  HE I        1917 32.58       159.7 0.12            115            243 334 
 CHI  HZ EP       1917  0.56                             116   -0.54 8  252 196 
 CHI  HE ES       1917 29.85                             116   -0.90 8  252 196 
 CHI  HN I        1917 35.54       116.0 0.54            113            252 196 
 ROSC BZ EP       1917  2.16                             116    0.58 8  257 211 
 ROSC BE ES       1917 32.27                             116    0.66 8  257 211 
 ROSC BZ I        1917 38.48        85.4 0.55            112            257 211 
 HEL  HZ EP       1917  4.26                             114    0.57 7  276 255 
 HEL  HN ES       1917 35.75                             114    0.40 7  276 255 
 HEL  HE I        1917 43.72        66.6 0.28            111            276 255 
 URE  HZ EP       1917  3.70                             113   -0.66 7  286 291 
 VIL  SE ES   1   1917 41.20                             112    0.27 5  307 192 
 VIL  SE I        1917 50.06       175.0 0.44            108            307 192 
 RREF HZ EP       1917  9.65                             110   -0.02 7  326 229 
 RREF HE ES       1917 45.49                             110   -0.51 7  326 229 
 RREF HZ I        1917 54.91        59.3 0.26            107            326 229 
 ANIL HN EP       1917 13.78                             108    0.44 6  361 225 
 ANIL HE ES       1917 53.51                             108    0.98 6  361 225 
 ANIL HE I        1917 58.23       117.3 0.56            105            361 225 
 PRA  HZ EP       1917 16.08                             106   -0.95 6  396 210 
 PRA  HN ES       1917 58.84                             106   -0.26 6  396 210 
 PRA  HE I        1918  5.10       104.5 0.30            103            396 210 
                                                                                
