 2012  5 7 1406 46.4 L   6.312 -73.655123.9  RSN  6 0.3 1.5LRSN                1
 GAP=103        0.60       3.1     3.1  6.2 -0.1661E+00  0.1845E+01 -0.2547E+01E
 Epicentro: SANTA HELENA DEL OPON - SANTANDER                                  3
 ACTION:UP  12-07-05 12:03 OP:pat  STATUS:               ID:20120507140646 L   I
 2012-05-07-1400-00M.COL___192                                                 6
 STAT SP IPHASW D HRMM SECON CODA AMPLIT PERI AZIMU VELO SNR AR TRES W  DIS CAZ7
 BAR2 SZ EP   1   14 7  4.97                             152     0.0 8   61  59 
 BAR2 SZ ES   1   14 7 19.75                             152     0.4 8   61  59 
 RUS  HZ EP   1   14 7  5.95                             146    -0.5 8   79 126 
 RUS  HZ I        14 7  6.51         7.0 0.10                            79 126 
 RUS  HN ES   1   14 7 21.86                             146    -0.2 8   79 126 
 PTB  HZ EP   1   14 7  6.54                             141    -0.2 8   92 286 
 PTB  HN ES   1   14 7 22.43                             141    -0.2 8   92 286 
 PTB  HZ I        14 7 23.59         4.6 0.14                            92 286 
 PAM  SZ EP       14 7 13.19                             125     0.210  155  43 
 PAM  SN ES   1   14 7 33.65                             125    -0.2 7  155  43 
 CHI  HN ES   1   14 7 39.70                             120     0.4 7  186 183 
 CHI  HZ I        14 7 44.59         4.4 0.35                           186 183 
 ZAR  HZ EP   2   14 7 15.94                             120     0.3 5  186 315 
 ZAR  HN ES   2   14 7 38.55                             120     0.2 5  186 315 
 ZAR  HZ I        14 7 45.26         5.0 0.32                           186 315 
                                                                                
