 2016  6 7 1547 10.4 L   6.834 -73.196142.0  RSN  5 0.2 1.2LRSN                1
 GAP=235        0.63       3.9     4.4  5.0  0.5081E+01  0.4841E+01  0.1735E+01E
 Epicentro: ZAPATOCA - SANTANDER                                               3
 ACTION:UPD 16-07-21 22:16 OP:rebc STATUS:               ID:20160607154710 L   I
 OLDACT:UP  16-06-07 23:49 OP:edw  STATUS:               ID:20160607153745d    3
 OLDACT:DUP 16-06-07 23:44 OP:edw  STATUS:               ID:20160607153745d    3
 2016-06-07-1537-44M.COL___328                                                 6
 STAT SP IPHASW D HRMM SECON CODA AMPLIT PERI AZIMU VELO AIN AR TRES W  DIS CAZ7
 BAR2 EZ EP       1547 29.83                             169    0.1510 26.8 177 
 BAR2 EZ ES       1547 44.36                             169   -0.3310 26.8 177 
 BRR  HZ EP       1547 31.13                             154    0.3310 64.5 298 
 BRR  HN ES   4   1547 43.62                             154   -3.06 0 64.5 298 
 RUS  HZ EP       1547 34.08                             142   -0.0510  105 173 
 RUS  HN ES       1547 52.80                             142    0.1910  105 173 
 RUS  HZ I        1547 53.53         3.0 0.32                           105 173 
 PTB  HZ EP       1547 36.44                             132   -0.22 9  143 257 
 PTB  HN ES       1547 57.14                             132    0.02 9  143 257 
 PTB  HZ I        1547 58.55         1.9 0.28                           143 257 
 CHI  HZ EP       1547 47.78                             116   -0.39 8  251 194 
 CHI  HE ES       1548 17.81                             116    0.21 8  251 194 
                                                                                
