 2010  5 7 1809 43.4 L   6.757 -73.115143.2  RSN  7 0.4 1.8LRSN                1
 GAP=160        0.74       4.2     8.7  7.7 -0.7956E+01 -0.1598E+02 -0.3160E+01E
 Epicentro: LOS SANTOS - SANTANDER                                             3
 ACTION:UP  10-08-24 10:03 OP:vdl  STATUS:               ID:20100507180943 L   I
 2010-05-07-1806-47S.COL___105                                                 6
 STAT SP IPHASW D HRMM SECON CODA AMPLIT PERI AZIMU VELO SNR AR TRES W  DIS CAZ7
 BAR2 SZ EP   2   1810  2.03                             172    -0.6 5   20 203 
 BAR2 SZ ES   2   1810 17.01                             172    -0.7 5   20 203 
 GIR2 SZ EP   2   1810  2.06                             165    -0.9 5   37 346 
 BRR  HZ EP   1   1810  4.65                             150     0.0 8   77 300 
 BRR  HE ES   1   1810 21.34                             150     0.2 8   77 300 
 BRR  HZ I        1810 23.77        15.7 0.45                            77 300 
 RUS  HZ EP   2   1810  6.34                             145    -0.2 5   96 178 
 RUS  HE ES   1   1810 25.05                             145     0.4 8   96 178 
 RUS  HZ I        1810 26.13         2.8 0.29                            96 178 
 BRI  SZ IP       1810  7.67                             140     0.310  112  18 
 GUE  SZ IP       1810  8.11                             138    -0.110  121  10 
 GUE  SZ ES   1   1810 27.59                             138     0.0 7  121  10 
 PRA  HZ EP   2   1810 36.60                             106     0.0 3  390 210 
 PRA  HE ES   2   1811 17.86                             106    -0.2 3  390 210 
 PRA  HZ I        1811 24.38         3.9 0.19                           390 210 
                                                                                
