 2011 11 7 1555 24.4 L   6.808 -73.148144.2  RSN 18 0.4 4.1LRSN                1
 GAP= 80        0.93       2.9     3.8  5.3 -0.3689E+00  0.6176E+01  0.3329E+01E
 Epicentro: LOS SANTOS - SANTANDER                                             3
 ACTION:UPD 12-07-13 16:08 OP:ep   STATUS:               ID:20111107155524 L   I
 2011-11-07-1545-00M.COL___176                                                 6
 STAT SP IPHASW D HRMM SECON CODA AMPLIT PERI AZIMU VELO AIN AR TRES W  DIS CAZ7
 SAN  SZ IP       1555 44.32                             176    0.6810 9.54 120 
 BTL  SZ EP       1555 44.08                             173    0.2910 18.0 313 
 BAR2 SZ IP       1555 43.92                             170    0.0110 24.2 189 
 BAR2 SZ ES   1   1555 58.49                             170   -0.60 7 24.2 189 
 GIR2 SZ IP       1555 43.94                             167    0.0310 30.3 350 
 BRR  HZ IP     C 1555 45.73                             152    0.3410 70.5 298 
 BRR  HN ES   1   1556  2.29                             152    0.56 7 70.5 298 
 BRR  HZ I        1556  6.19       903.4 0.14                          70.5 298 
 PAM  SZ EP       1555 46.70                             151    0.2310 76.9  40 
 PAM  SN ES   1   1556  3.45                             151   -0.19 7 76.9  40 
 RUS  HZ EP       1555 47.86                             143   -0.2510  102 176 
 RUS  HN ES   1   1556  5.89                             143   -0.68 7  102 176 
 OCA  SZ EP       1555 52.65                             129    0.10 9  159 353 
 OCA  SZ ES   1   1556 13.96                             129   -0.51 7  159 353 
 OCA  SZ I        1556 19.16      1267.5 0.44                           159 353 
 YOP  SZ EP       1555 54.74                             126    0.27 9  180 153 
 YOP  SN ES   1   1556 17.67                             126   -0.22 7  180 153 
 YOP  SZ I        1556 22.04       791.0 0.40                           180 153 
 ZAR  HZ EP   1   1555 56.14                             122   -0.59 6  203 292 
 ZAR  HE ES   1   1556 22.03                             122    0.12 6  203 292 
 ZAR  HZ I        1556 27.59       967.3 0.47                           203 292 
 NOR  SZ EP       1555 59.87                             118   -0.25 8  235 234 
 NOR  SE ES       1556 27.70                             118   -0.24 8  235 234 
 HEL  HZ EP       1556  3.88                             114   -0.69 8  272 256 
 HEL  HN ES   1   1556 35.84                             114   -0.04 6  272 256 
 HEL  HZ I        1556 42.30       658.4 0.24                           272 256 
 VIL  SZ EP       1556  7.47                             112   -0.42 7  304 191 
 VIL  SE ES   1   1556 42.44                             112    0.67 5  304 191 
 GUY  SZ EP       1556  8.55                             112    0.27 7  304 235 
 GUY  SZ I        1556 52.71      1046.4 0.24                           304 235 
 VIL  SZ I        1556 46.13       350.9 0.20                           304 191 
 TOL  SZ EP       1556 13.62                             109    0.93 7  344 225 
 COD  HZ EP       1556 11.83                             109   -0.82 6  347 355 
 ANIL HZ EP       1556 14.71                             108    0.47 6  358 224 
 ANIL HZ I        1557  1.64      1257.6 0.40                           358 224 
 PRA  HZ EP       1556 17.44                             106   -0.55 6  393 209 
 PRA  HE ES   1   1556 59.53                             106   -0.22 4  393 209 
                                                                                
