 2016 10 7 1638 21.4 L   6.811 -73.185142.0  RSN 25 0.5 3.1LRSN 3.7WRSN        1
 SPEC AVERAGE  MO 14.6 ST0.341 OM  2.7 f0 1.08 R1.8855 AL 0.00 WI 30.0 MW  3.7 3
 SPEC SD       MO  0.2 ST  4.0 OM  0.4 f0 1.50 R0.6871 AL      WI      MW  0.1 3
 GAP= 69        1.09       2.8     2.8  5.1 -0.7026E+00  0.5125E+01 -0.3873E-01E
 Epicentro: ZAPATOCA - SANTANDER                                               3
 SPEC RUS HH Z MO 14.6 ST0.235 OM  2.6 f0 1.02 R1.8863 AL-0.00 WI 30.0 MW  3.6 3
 SPEC RUS HH Z T1639 2 K 0.000 GD  174 VS 5.20 DE 3.50 Q0750.0 QA 1.50 VS 3.50 3
 SPEC ZAR HH Z MO 14.5 ST  1.1 OM  2.4 f0 1.75 R1.0994 AL-0.00 WI 30.0 MW  3.6 3
 SPEC ZAR HH Z T163916 K 0.000 GD  245 VS 5.20 DE 3.50 Q0750.0 QA 1.50 VS 3.50 3
 SPEC CHI HH Z MO 14.5 ST0.114 OM  2.3 f00.856 R2.2477 AL-0.00 WI 30.0 MW  3.6 3
 SPEC CHI HH Z T163927 K 0.000 GD  286 VS 5.20 DE 3.50 Q0750.0 QA 1.50 VS 3.50 3
 SPEC HEL HH Z MO 14.4 ST0.209 OM  2.2 f0 1.11 R1.7333 AL-0.00 WI 30.0 MW  3.5 3
 SPEC HEL HH Z T163929 K 0.000 GD  303 VS 5.20 DE 3.50 Q0750.0 QA 1.50 VS 3.50 3
 SPECGUY2CHH Z MO 14.6 ST0.163 OM  2.4 f00.851 R2.2609 AL-0.00 WI 30.0 MW  3.7 3
 SPECGUY2CHH Z T163936 K 0.000 GD  331 VS 5.20 DE 3.50 Q0750.0 QA 1.50 Q1 0.00 3
 SPEC VIL EH Z MO 14.8 ST0.387 OM  2.6 f00.969 R1.9856 AL-0.00 WI 30.0 MW  3.8 3
 SPEC VIL EH Z T163937 K 0.000 GD  335 VS 5.20 DE 3.50 Q0750.0 QA 1.50 VS 3.50 3
 SPEC ELA HH Z MO 14.7 ST0.144 OM  2.4 f00.797 R2.4141 AL-0.00 WI 30.0 MW  3.7 3
 SPEC ELA HH Z T163943 K 0.000 GD  356 VS 5.20 DE 3.50 Q0750.0 QA 1.50 VS 3.50 3
 SPEC PRA HH Z MO 14.5 ST0.243 OM  2.2 f0 1.05 R1.8324 AL-0.00 WI 30.0 MW  3.6 3
 SPEC PRA HH Z T163954 K 0.000 GD  415 VS 5.20 DE 3.50 Q0750.0 QA 1.50 VS 3.50 3
 OLDACT:REG 16-10-07 20:22 OP:lv   STATUS:               ID:20161007163745     3
 ACTION:UPD 16-11-09 19:17 OP:rebc STATUS:               ID:20161007163821 L   I
 OLDACT:UP  16-10-08 00:12 OP:lv   STATUS:               ID:20161007163745     3
 2016-10-07-1638-00M.COL___356                                                 6
 STAT SP IPHASW D HRMM SECON CODA AMPLIT PERI AZIMU VELO AIN AR TRES W  DIS CAZ7
 BAR2 EZ IP     C 1638 40.51                             170   -0.1210 24.2 179 
 BAR2 EZ ES       1638 55.90                             170    0.3010 24.2 179 
 BAR2 EZ I        1638 58.55       354.1 0.36            168           24.2 179 
 PAM  EZ EP       1638 43.36                             149   -0.0110 79.3  42 
 PAM  EN ES       1639  0.38                             149   -0.0910 79.3  42 
 PAM  EZ I        1639  2.73       254.1 0.44            155           79.3  42 
 RUS  HZ EP       1638 44.47                             143   -0.4610  102 174 
 RUS  HN ES       1639  3.62                             143    0.3610  102 174 
 RUS  HZ I        1639  4.30       195.7 0.26            144            102 174 
 PTB  HZ EP       1638 46.86                             132   -0.87 9  144 258 
 PTB  HN ES       1639  8.24                             132   -0.01 9  144 258 
 PTB  HZ I        1639 15.33       141.1 0.31            131            144 258 
 TAM  HZ IP     D 1638 48.93                             129   -0.31 9  160 105 
 TAM  HE ES       1639 10.91                             129   -0.01 9  160 105 
 SPBC HZ EP       1638 49.31                             128   -0.17 9  161 218 
 SPBC HN ES       1639 11.79                             128    0.43 9  161 218 
 SPBC HZ I        1639 17.77       245.4 0.22            129            161 218 
 ZAR  HZ EP       1638 53.01                             122   -0.17 9  200 292 
 ZAR  HE ES       1639 18.43                             122    0.50 9  200 292 
 ZAR  HZ I        1639 27.50       116.5 0.22            123            200 292 
 NOR  HZ EP       1638 56.30                             118   -0.35 8  232 234 
 NOR  HE ES       1639 24.31                             118    0.19 8  232 234 
 NOR  HZ I        1639 29.40       102.5 0.34            119            232 234 
 CHI  HZ EP       1638 58.72                             116   -0.22 8  249 194 
 CHI  HE ES       1639 28.57                             116    0.38 8  249 194 
 CHI  HZ I        1639 31.32        70.7 0.38            118            249 194 
 ROSC BZ EP   9   1639  0.59                             116    1.36 0  252 210 
 ROSC BN ES       1639 31.52                                    1.45 8  252 210 
 ROSC BZ I        1639 38.76       106.1 0.35            117            252 210 
 HEL  HZ EP       1639  1.78                             114    0.75 8  268 255 
 HEL  HE ES       1639 31.26                             114   -0.65 8  268 255 
 HEL  HZ I        1639 40.82        74.4 0.27            115            268 255 
 URE  HZ EP       1639  1.17                             113   -0.65 7  279 292 
 URE  HE ES       1639 32.78                             113   -0.55 7  279 292 
 GUY2CHZ EP       1639  4.79                             112    0.24 7  298 234 
 GUY2CHN ES       1639 38.18                             112   -0.01 7  298 234 
 GUY2CHZ I        1639 46.74        71.8 0.23                           298 234 
 VIL  EZ EP       1639  4.24                             111   -0.48 7  304 191 
 VIL  EE ES       1639 38.50                             111    0.01 7  304 191 
 VIL  EZ I        1639 47.51        74.2 0.43            113            304 191 
 LL1C HZ EP   4   1639  5.77                             111    1.11 0  305 352 
 LL1C HE ES   4   1639 41.78                             111    3.41 0  305 352 
 PTGC HZ EP   4   1639  3.79                             111   -1.64 0  311 158 
 PTGC HE ES   4   1639 37.11                             111   -2.64 0  311 158 
 PTGC HZ I        1639 42.01        90.6 0.28            113            311 158 
 ELA  HZ EP   4   1639  8.85                             110    1.00 0  327 229 
 ELA  HN ES       1639 44.65                             110    0.60 7  327 229 
 ELA  HZ I        1640  0.01        54.2 0.52            111            327 229 
 CBOC HZ EP       1639  8.53                             109    0.76 7  330 252 
 CBOC HN ES       1639 43.27                             109   -0.64 7  330 252 
 CBOC HZ I        1639 48.78        23.6 0.19            111            330 252 
 DBB  HZ EP       1639  8.57                             109    0.31 7  335 274 
 DBB  HE ES   4   1639 43.52                             109   -1.25 0  335 274 
 ANIL HZ EP       1639 11.77                             108    0.92 6  355 224 
 ANIL HE ES   4   1639 51.71                             108    2.32 0  355 224 
 ANIL HZ I        1639 57.44       151.1 0.32            109            355 224 
 ARGC HZ EP       1639 11.19                             108    0.54 6  357 341 
 ARGC HE ES       1639 50.11                             108    1.07 6  357 341 
 ARGC HZ I        1640  0.81        22.6 0.26            110            357 341 
 PRA  HZ EP       1639 14.39                             106   -0.31 6  391 209 
 PRA  HE ES       1639 56.41                             106    0.16 6  391 209 
 PRA  HZ I        1640  0.66        44.2 0.25            107            391 209 
 PAL  HZ EP       1639 16.27                             105    0.16 6  403 239 
 PAL  HE ES       1639 58.31                             105   -0.45 6  403 239 
 PAL  HZ I        1640  4.58        25.7 0.36            107            403 239 
 SJC  HZ EP   4   1639 14.22                             105   -2.26 0  406 327 
 SJC  HN ES   4   1639 55.89                             105   -3.53 0  406 327 
 SJC  HZ I        1640  2.93        13.2 0.29            107            406 327 
 CRJC HZ EP   4   1639 20.83                             103   -2.89 0  467   4 
 CRJC HE ES   4   1640  8.50                             103   -3.80 0  467   4 
 CRJC HZ I        1640 13.03        30.3 0.17            105            467   4 
 GARC HZ EP   4   1639 34.62                             100   -1.88 0  572 207 
 GARC HE ES   4   1640 31.61                             100   -3.45 0  572 207 
 GARC HZ I        1640 36.90        19.5 0.26            101            572 207 
                                                                                
