 2013  2 7 1748 38.8 L   6.741 -73.120142.5  RSN  5 0.3 1.8LRSN                1
 GAP=143        0.60       4.4     4.4  5.8  0.3445E+01 -0.4304E+01 -0.4110E+01E
 Epicentro: JORDAN - SANTANDER                                                 3
 ACTION:UPD 13-03-12 09:31 OP:ep   STATUS:               ID:20130207174838 L   I
 2013-02-07-1740-00M.COL___240                                                 6
 STAT SP IPHASW D HRMM SECON CODA AMPLIT PERI AZIMU VELO AIN AR TRES W  DIS CAZ7
 BAR2 SZ ES   1   1749 12.35                             173   -0.46 7 17.8 203 
 BAR2 SZ I        1749 13.70         9.1 0.16            172           17.8 203 
 BRR  HZ EP       1748 59.98                             150    0.0910 77.0 302 
 BRR  HE ES       1749 16.56                             150    0.1810 77.0 302 
 BRR  HE I        1749 17.41        25.6 0.19            149           77.0 302 
 PAM  SZ EP       1749  0.82                             149   -0.0210 80.9  35 
 PAM  SZ I        1749  1.25        11.8 0.26            150           80.9  35 
 RUS  HZ EP   1   1749  1.96                             145    0.25 7 93.9 178 
 RUS  HN ES   1   1749 19.77                             145    0.17 7 93.9 178 
 PTB  HZ EP   1   1749  5.08                             131   -0.53 7  149 262 
 PTB  HE ES   1   1749 26.63                             131    0.07 7  149 262 
 PTB  HZ I        1749 28.71         4.5 0.10            131            149 262 
                                                                                
