 2016 10 7 1118 25.0 L   6.818 -73.152137.4  RSN 21 0.4 2.7LRSN                1
 GAP= 70        1.01       2.7     2.7  5.0 -0.6325E+00  0.5067E+01  0.1293E+01E
 Epicentro: LOS SANTOS - SANTANDER                                             3
 ACTION:UPD 16-11-09 19:17 OP:rebc STATUS:               ID:20161007111825 L   I
 OLDACT:REG 16-10-07 20:10 OP:lv   STATUS:               ID:20161007111742     3
 2016-10-07-1118-00M.COL___351                                                 6
 STAT SP IPHASW D HRMM SECON CODA AMPLIT PERI AZIMU VELO AIN AR TRES W  DIS CAZ7
 BAR2 EZ IP     C 1118 43.56                             169   -0.0810 25.2 188 
 BAR2 EZ ES       1118 58.18                             169   -0.0110 25.2 188 
 BAR2 EZ I        1119  1.14       179.7 0.39            168           25.2 188 
 PAM  EZ EP       1118 46.49                             150    0.2510 76.3  41 
 PAM  EN ES       1119  3.24                             150    0.4210 76.3  41 
 PAM  EZ I        1119  6.09        92.5 0.48            154           76.3  41 
 RUS  HZ EP       1118 47.55                             141   -0.5110  103 176 
 RUS  HE ES       1119  6.15                             141    0.0810  103 176 
 RUS  HZ I        1119  8.29        59.1 0.33            143            103 176 
 PTB  HZ EP   4   1118 50.15                             130   -1.09 0  147 258 
 PTB  HN ES       1119 11.23                             130   -0.50 9  147 258 
 PTB  HZ I        1119 13.89        81.4 0.23            130            147 258 
 TAM  HZ IP     D 1118 52.00                             128   -0.11 9  156 106 
 TAM  HE ES       1119 13.35                             128    0.07 9  156 106 
 TAM  HZ I        1119 13.94        60.4 0.25            133            156 106 
 OCA  HZ EP       1118 52.06                             128   -0.39 9  158 353 
 OCA  HN ES       1119 13.54                             128   -0.34 9  158 353 
 OCA  HZ I        1119 18.73        87.7 0.30            130            158 353 
 SPBC HZ EP       1118 52.50                             127   -0.45 9  164 218 
 SPBC HE ES       1119 15.56                             127    0.79 9  164 218 
 SPBC HZ I        1119 20.34        69.6 0.16            128            164 218 
 ZAR  HZ EP       1118 56.66                             121   -0.08 9  203 292 
 ZAR  HN ES       1119 22.08                             121    0.57 9  203 292 
 ZAR  HZ I        1119 27.86        70.6 0.49            122            203 292 
 NOR  HZ EP       1119  0.14                             117   -0.15 8  235 234 
 NOR  HE ES       1119 27.67                             117   -0.17 8  235 234 
 NOR  HZ I        1119 29.72        42.1 0.17            118            235 234 
 CHI  HZ EP       1119  1.82                             115   -0.59 8  250 195 
 CHI  HN ES       1119 30.94                             115   -0.67 8  250 195 
 CHI  HZ I        1119 37.87        17.5 0.45            117            250 195 
 ROSC BZ EP       1119  3.43                             115    0.63 8  254 211 
 ROSC BN ES   4   1119 34.17                             115    1.87 0  254 211 
 ROSC BZ I        1119 40.59        58.9 0.40            116            254 211 
 HEL  HZ EP       1119  5.73                             113    0.98 8  272 255 
 HEL  HN ES       1119 35.56                             113   -0.21 8  272 255 
 HEL  HZ I        1119 42.57        49.7 0.30            114            272 255 
 URE  HZ EP   4   1119  4.38                             112   -1.11 0  282 292 
 URE  HN ES       1119 36.42                             112   -0.67 7  282 292 
 URE  HZ I        1119 46.25        34.8 0.26            113            282 292 
 GUY2CHZ EP       1119  8.88                             111    0.61 7  302 234 
 GUY2CHN ES   4   1119 43.42                             111    1.38 0  302 234 
 GUY2CHZ I        1119 48.80        27.9 0.28                           302 234 
 ELA  HZ EP   4   1119 12.99                             109    1.42 0  330 229 
 ELA  HN ES   4   1119 50.38                             109    2.47 0  330 229 
 ELA  HZ I        1119 57.29        18.1 0.38            110            330 229 
 CBOC HZ EP       1119 12.26                             108    0.71 7  334 252 
 CBOC HE ES       1119 47.90                             108    0.03 7  334 252 
 CBOC HZ I        1119 51.35        14.7 0.27            110            334 252 
 DBB  HZ EP       1119 12.09                             108    0.07 7  339 274 
 DBB  HN ES   4   1119 47.46                             108   -1.26 0  339 274 
 ANIL HZ EP       1119 15.05                             107    0.48 6  358 224 
 ANIL HN ES       1119 53.08                             107   -0.18 6  358 224 
 ANIL HZ I        1120  0.92        47.5 0.35            108            358 224 
 PAL  HZ EP       1119 20.00                             104    0.08 6  406 239 
 PAL  HN ES   4   1120  1.18                             104   -1.59 0  406 239 
 PAL  HZ I        1120  4.91        13.4 0.26            106            406 239 
 SJC  HZ EP   4   1119 18.78                             104   -1.25 0  407 327 
 SJC  HN ES   4   1119 59.41                             104   -3.56 0  407 327 
 SJC  HZ I        1120  4.23         6.8 0.29            106            407 327 
 CRJC HZ EP   4   1119 24.40                             102   -2.62 0  466   4 
 CRJC HN ES   4   1120 11.60                             102   -3.81 0  466   4 
 CRJC HZ I        1120 18.99         7.4 0.33            104            466   4 
                                                                                
