 2014  9 7 1238 16.0 L   6.779 -73.220152.7  RSN  9 0.5 2.0LRSN                1
 GAP=191        1.02       4.4     7.3  9.9 -0.1573E+01 -0.1699E+02 -0.3245E+01E
 Epicentro: ZAPATOCA - SANTANDER                                               3
 ACTION:UPD 14-10-03 23:03 OP:nd   STATUS:               ID:20140907123816 L   I
 OLDACT:REG 14-09-07 20:26 OP:fm   STATUS:               ID:20140907122819     3
 2014-09-07-1228-19M.COL___262                                                 6
 STAT SP IPHASW D HRMM SECON CODA AMPLIT PERI AZIMU VELO AIN AR TRES W  DIS CAZ7
 BAR2 SZ EP       1238 36.35                             172   -0.1010 21.0 168 
 BRR  HZ EP       1238 37.76                             156    0.1410 65.3 304 
 BRR  HE ES   1   1238 55.15                             156    0.68 7 65.3 304 
 BRR  HZ I        1238 56.22        15.0 0.20            145           65.3 304 
 PTB  HZ EP       1238 42.21                             135   -0.61 9  139 259 
 PTB  HN ES       1239  3.08                             135   -0.64 9  139 259 
 PTB  HZ I        1239  6.36        13.0 0.14            128            139 259 
 SPBC HZ EP       1238 44.28                             132   -0.15 9  156 217 
 SPBC HN ES       1239  6.70                             132    0.12 9  156 217 
 SPBC HZ I        1239  9.84        12.2 0.22            127            156 217 
 ZAR  HZ EP       1238 48.78                             125    0.52 9  197 294 
 ZAR  HE ES       1239 13.82                             125    0.42 9  197 294 
 ZAR  HZ I        1239 21.36         9.4 0.38            120            197 294 
 NOR  HZ EP   1   1238 52.19                             121    0.87 6  227 234 
 NOR  HN ES   1   1239 18.91                             121    0.06 6  227 234 
 NOR  HZ I        1239 26.72         6.8 0.24            117            227 234 
 SML  HZ EP   1   1238 53.01                             119    0.09 6  243 337 
 SML  HE ES       1239 21.14                             119   -0.57 8  243 337 
 SML  HZ I        1239 25.56         7.6 0.10            116            243 337 
 HEL  HZ EP   4   1238 57.64                             117    1.98 0  263 256 
 HEL  HN ES   4   1239 29.90                             117    3.32 0  263 256 
 HEL  HZ I        1239 35.55         4.4 0.40            113            263 256 
 GUY2CHN ES   4   1239 38.48                             114    5.85 0  293 234 
 GUY2CHZ I        1239 43.86         5.5 0.42                           293 234 
                                                                                
