 2015  6 7 1104 11.4 L   6.545 -73.504109.0  RSN 17 0.5 2.3LRSN                1
 GAP= 65        1.20       2.3     3.6  6.0 -0.1264E+01  0.1041E+02  0.7182E+00E
 Epicentro: EL CARMEN - SANTANDER                                              3
 ACTION:UPD 15-09-10 22:10 OP:cam  STATUS:               ID:20150607110411 L   I
 OLDACT:REG 15-06-07 20:40 OP:ar   STATUS:               ID:20150607105748     3
 2015-06-07-1057-48M.COL___306                                                 6
 STAT SP IPHASW D HRMM SECON CODA AMPLIT PERI AZIMU VELO AIN AR TRES W  DIS CAZ7
 BAR2 EZ EP       11 4 27.58                             160    0.4810 36.0  82 
 BAR2 EZ ES       11 4 38.56                             160   -0.7610 36.0  82 
 BAR2 EZ I        11 4 41.32       178.5 0.34            164           36.0  82 
 BRR  HZ EP       11 4 28.40                             146   -0.0210 66.2 340 
 BRR  HN ES       11 4 42.24                             146    0.5810 66.2 340 
 BRR  HZ I        11 4 51.35        33.3 0.12            148           66.2 340 
 RUS  HZ EP       11 4 30.67                             139    0.1010 85.9 147 
 RUS  HN ES       11 4 45.77                             139    0.2810 85.9 147 
 RUS  HZ I        11 4 47.35        17.1 0.48            144           85.9 147 
 SPBC HZ EP       11 4 32.32                             129   -0.4310  117 213 
 SPBC HN ES       11 4 48.77                             129   -0.6010  117 213 
 SPBC HZ I        11 4 50.45        57.7 0.10            133            117 213 
 PAM  SZ EP       11 4 34.40                             127    0.3610  125  45 
 PAM  SN ES       11 4 52.04                             127    0.3710  125  45 
 PAM  SZ I        11 4 53.12        33.9 0.22            132            125  45 
 ZAR  HZ EP       11 4 39.59                             116    0.18 9  183 305 
 ZAR  HN ES       11 5  2.04                             116    0.82 9  183 305 
 ZAR  HZ I        11 5  4.15        37.0 0.28            119            183 305 
 NOR  HZ EP       11 4 39.07                             115   -0.78 9  186 234 
 NOR  HE ES   4   11 5  0.61                             115   -1.40 0  186 234 
 NOR  HZ I        11 5  1.68        19.6 0.40            119            186 234 
 OCA  HZ EP       11 4 39.67                             115   -0.56 9  188   6 
 OCA  HE ES       11 5  2.03                             115   -0.66 9  188   6 
 OCA  HZ I        11 5  8.88        72.3 0.54            118            188   6 
 CHI  HZ EP       11 4 43.39                             112    0.03 8  213 187 
 CHI  HN ES       11 5  8.87                             112    0.62 8  213 187 
 CHI  HZ I        11 5 14.62         8.2 0.34            116            213 187 
 HEL  HZ EP       11 4 45.12                             110    0.23 8  227 260 
 HEL  HN ES       11 5 10.12                             110   -0.87 8  227 260 
 HEL  HZ I        11 5 13.16        14.5 0.42            113            227 260 
 GUY2CHZ EP       11 4 48.26                             108    0.33 8  253 235 
 GUY2CHE ES       11 5 17.10                             108    0.71 8  253 235 
 GUY2CHZ I        11 5 20.84        13.8 0.62                           253 235 
 SML  HZ EP       11 4 47.84                             107   -0.02 8  257 346 
 SML  HN ES       11 5 15.70                             107   -0.57 8  257 346 
 SML  HZ I        11 5 20.46        33.9 0.10            110            257 346 
 URE  HZ EP       11 4 49.10                             107    0.79 8  261 301 
 URE  HE ES       11 5 16.84                             107   -0.22 8  261 301 
 URE  HZ I        11 5 18.55        14.2 0.16            110            261 301 
 TOL  SZ EP       11 4 53.17                             104    0.36 7  296 223 
 TOL  SN ES       11 5 24.98                             104   -0.10 7  296 223 
 TOL  SZ I        11 5 30.74         7.4 0.66            107            296 223 
 PRA  HZ EP       11 4 57.74                             101   -0.99 6  349 206 
 PRA  HE ES       11 5 35.18                             101   -0.44 6  349 206 
 PRA  HZ I        11 5 38.80         7.7 0.24            104            349 206 
 ORTC HZ EP       11 4 58.86                             101   -0.00 6  350 214 
 ORTC HN ES       11 5 36.31                             101    0.46 6  350 214 
 ORTC HZ I        11 5 42.04         4.7 0.64            104            350 214 
 PAL  HZ EP       11 4 59.85                             101    0.04 6  357 240 
 PAL  HE ES   4   11 5 34.54                             101   -2.99 0  357 240 
 PAL  HZ I        11 5 36.73         3.4 0.39            104            357 240 
                                                                                
