 2013  7 7 1430 18.6 L   6.604 -73.464115.9  RSN  5 0.4 1.5LRSN                1
 GAP=111        0.73       4.8     7.3 10.2 -0.1271E+02  0.4999E+02 -0.2809E+02E
 Epicentro: EL CARMEN DE CHUCURI - SANTANDER                                   3
 ACTION:UPD 13-08-12 10:36 OP:ep   STATUS:               ID:20130707143018 L   I
 OLDACT:REG 13-07-07 14:36 OP:jn   STATUS:               ID:20130707142959     3
 2013-07-07-1429-59M.COL___267                                                 6
 STAT SP IPHASW D HRMM SECON CODA AMPLIT PERI AZIMU VELO AIN AR TRES W  DIS CAZ7
 BAR2 SZ EP       1430 34.98                             164    0.1310 31.2  92 
 BAR2 SZ ES       1430 47.68                             164    0.1310 31.2  92 
 BAR2 SZ I        1430 48.78         8.7 0.20            168           31.2  92 
 GIR2 SZ EP       1430 36.34                             150    0.2510 60.4  30 
 RUS  HN ES   1   1430 53.55                             140   -0.66 7 89.2 152 
 RUS  HZ I        1430 55.44         6.4 0.42            142           89.2 152 
 NOR  HE ES   1   1431 11.34                             116    0.11 7  193 234 
 NOR  HZ I        1431 14.12         3.0 0.16            117            193 234 
 SML  HZ EP   1   1430 54.78                             110    0.11 6  252 345 
 SML  HN ES   1   1431 22.17                             110   -0.65 6  252 345 
                                                                                
