 2011  6 7 1025  5.4 L   6.804 -73.151141.2  RSN 19 0.2 3.3LRSN                1
 GAP=136        0.42       1.7     3.0  3.1 -0.3162E+01  0.4337E+01 -0.2655E+00E
 Epicentro: LOS SANTOS - SANTANDER                                             3
 ACTION:UP  11-07-14 19:03 OP:ep   STATUS:               ID:20110607102505 L   I
 2011-06-07-1023-30S.COL___132                                                 6
 STAT SP IPHASW D HRMM SECON CODA AMPLIT PERI AZIMU VELO SNR AR TRES W  DIS CAZ7
 BTL  SZ EP   1   1025 24.49                             172     0.1 8   18 315 
 BAR2 SZ EP   1   1025 24.44                             170     0.0 8   24 188 
 BAR2 SZ ES   1   1025 39.22                             170    -0.1 8   24 188 
 BAR2 SZ I        1025 42.53       388.2 0.48                            24 188 
 GIR2 SZ EP   1   1025 24.38                                    -0.1 8   31 351 
 BRR  HZ EP   1   1025 26.28                             152     0.3 8   71 298 
 BRR  HZ I        1025 46.89       265.2 0.41                            71 298 
 PAM  SZ EP   1   1025 27.25                             150     0.1 8   77  40 
 PAM  SN ES   1   1025 44.08                             150     0.0 8   77  40 
 RUS  HZ EP   1   1025 28.63                             143    -0.1 8  101 176 
 RUS  HN ES   1   1025 46.73                             143    -0.2 8  101 176 
 RUS  HZ I        1025 49.10       404.1 0.29                           101 176 
 BRI  SZ EP   1   1025 28.92                             140     0.1 8  108  21 
 BRI  SZ ES   1   1025 47.50                             140     0.4 8  108  21 
 BRI  SZ I        1025 50.38       207.7 0.30                           108  21 
 GRA  SZ IP       1025 30.22                             136     0.010  126  18 
 GRA  SZ ES   1   1025 49.48                             136    -0.1 7  126  18 
 GRA  SZ I        1025 52.48       375.9 0.44                           126  18 
 OCA  SZ EP   1   1025 32.89                             129    -0.4 7  160 353 
 OCA  SZ ES   2   1025 54.54                             129    -0.5 5  160 353 
 OCA  SZ I        1025 57.97       279.5 0.22                           160 353 
 NOR  SZ EP   1   1025 40.50                             117    -0.3 6  234 234 
 NOR  SE ES   1   1026  8.59                             117     0.1 6  234 234 
 CHI  HZ EP   1   1025 42.90                             116     0.0 6  249 195 
 CHI  HE ES   2   1026 11.92                             116    -0.2 4  249 195 
 CHI  HZ I        1026 19.04       102.0 0.46                           249 195 
 ROSC BN ES   1   1026 13.12                                     0.3 6  253 211 
 ROSC BZ I        1026 19.15       300.4 0.46                           253 211 
 GUY  SN ES   1   1026 22.85                             111    -0.2 6  303 235 
 GUY  SZ I        1026 32.60       213.4 0.39                           303 235 
 VIL  SZ EP   1   1025 48.54                             111    -0.1 6  304 191 
 VIL  SN ES   2   1026 22.37                             111     0.0 4  304 191 
 VIL  SZ I        1026 32.41        99.7 0.51                           304 191 
 RREF HZ EP   1   1025 51.28                             110     0.0 5  322 229 
 RREF HE ES   1   1026 27.42                             110     0.3 5  322 229 
 DBB  SZ EP   1   1025 52.65                                     0.0 5  339 274 
 TOL  SZ EP   1   1025 53.73                             108     0.3 5  343 225 
 TOL  SZ ES   1   1026 30.67                             108    -0.3 5  343 225 
 ANIL HZ EP   2   1025 55.05                             108     0.1 3  357 224 
 ANIL HN ES   2   1026 33.67                             108     0.0 3  357 224 
 PRA  HZ EP   1   1025 58.66                             106    -0.1 5  392 209 
 PRA  HN ES   2   1026 40.93                             106     0.5 3  392 209 
                                                                                
