 2014  1 7 1624 30.1 L   6.804 -72.994182.5  RSN 15 0.5 2.2LRSN                1
 GAP= 79        1.23       3.7     4.6  6.0 -0.2832E+01  0.7586E+00  0.2632E+01E
 Epicentro: CEPITA - SANTANDER                                                 3
 ACTION:UPD 14-03-13 09:52 OP:ep   STATUS:               ID:20140107162430 L   I
 OLDACT:REG 14-01-07 15:37 OP:stll STATUS:               ID:20140107161815     3
 2014-01-07-1618-15M.COL___246                                                 6
 STAT SP IPHASW D HRMM SECON CODA AMPLIT PERI AZIMU VELO AIN AR TRES W  DIS CAZ7
 BAR2 SZ EP       1624 54.58                             170    0.3010 31.4 222 
 BAR2 SZ I        1624 55.48        35.5 0.38            166           31.4 222 
 BAR2 SZ ES       1625 13.11                             170   -0.0510 31.4 222 
 PAM  SZ EP       1624 56.15                             159    0.3110 67.5  29 
 PAM  SN ES       1625 15.64                             159   -0.3010 67.5  29 
 PAM  SZ I        1625 18.58        26.7 0.72            160           67.5  29 
 BRR  HZ EP       1624 56.49                             154    0.4510 86.1 293 
 BRR  HN ES       1625 17.50                             154    1.2110 86.1 293 
 BRR  HZ I        1625 21.75        26.0 0.32            150           86.1 293 
 RUS  HZ EP       1624 58.02                             150    0.3910  101 186 
 RUS  HN ES       1625 18.93                             150   -0.1910  101 186 
 RUS  HZ I        1625 21.62         8.3 0.26            147            101 186 
 TAM  HZ EP       1624 59.64                             141    0.03 9  139 107 
 TAM  HZ I        1624 59.76        45.0 0.22            141            139 107 
 OCA  HZ EP       1625  1.96                             136    0.30 9  163 347 
 OCA  HZ I        1625  3.22        14.3 0.44            135            163 347 
 OCA  HN ES       1625 25.66                             136   -0.64 9  163 347 
 PTB  HZ EP       1625  1.64                             136    0.03 9  164 260 
 PTB  HE ES       1625 25.97                             136   -0.24 9  164 260 
 PTB  HZ I        1625 29.41        17.6 0.28            133            164 260 
 ZAR  HZ EP   4   1625  9.35                             127    2.72 0  220 290 
 ZAR  HN ES       1625 34.63                             127   -0.52 8  220 290 
 NOR  HZ EP       1625 10.08                             124    0.48 8  249 237 
 NOR  HN ES       1625 39.54                             124   -0.88 8  249 237 
 NOR  HZ I        1625 42.57         8.8 0.16            121            249 237 
 SML  HZ EP       1625  9.25                             124   -0.47 8  251 332 
 SML  HE ES       1625 40.47                             124   -0.17 8  251 332 
 CHI  HZ EP       1625 10.50                             123   -0.10 8  254 199 
 CHI  HN ES       1625 41.28                             123   -0.92 8  254 199 
 CHI  HZ I        1625 44.23         3.2 0.28            121            254 199 
 GUY2CHZ EP       1625 17.74                             118    0.61 7  315 236 
 GUY2CHN ES       1625 53.59                             118   -0.25 7  315 236 
 GUY2CHZ I        1626  1.79         3.6 0.32                           315 236 
 RREF HZ EP       1625 19.66                             116    0.18 7  335 231 
 RREF HZ I        1626  4.65         5.9 0.46            114            335 231 
 SDV  BZ EP       1625 19.04                             115   -1.25 6  347  48 
 TOL  SZ IP       1625 21.91                             114    0.51 6  356 227 
                                                                                
