 2014  8 7 1823 56.7 L   6.723 -73.116146.6  RSN  5 0.3 1.4LRSN                1
 GAP=235        0.87       7.1     7.1  8.0  0.3301E+02  0.6089E+01 -0.1799E+01E
 Epicentro: JORDAN - SANTANDER                                                 3
 ACTION:UPD 14-09-15 21:47 OP:nd   STATUS:               ID:20140807182356 L   I
 OLDACT:REG 14-08-07 20:46 OP:spq  STATUS:               ID:20140807181815     3
 2014-08-07-1818-15M.COL___257                                                 6
 STAT SP IPHASW D HRMM SECON CODA AMPLIT PERI AZIMU VELO AIN AR TRES W  DIS CAZ7
 BAR2 SZ ES   1   1824 31.38                             173   -0.22 7 16.3 207 
 BAR2 SZ I        1824 34.90         7.3 0.22            173           16.3 207 
 BRR  HZ EP       1824 18.97                             150    0.6210 78.4 303 
 BRR  HN ES       1824 35.14                             150   -0.1010 78.4 303 
 BRR  HZ I        1824 38.98         9.9 0.46            152           78.4 303 
 RUS  HZ EP       1824 19.44                             146   -0.4810 91.9 178 
 RUS  HE ES       1824 38.26                             146    0.2210 91.9 178 
 RUS  HZ I        1824 41.82         2.3 0.42            150           91.9 178 
 PTB  HZ EP   1   1824 23.88                             132   -0.02 7  150 262 
 PTB  HN ES       1824 45.29                             132    0.17 9  150 262 
 PTB  HZ I        1824 47.12         3.1 0.14            134            150 262 
 ZAR  HN ES       1824 55.34                             122   -0.37 8  210 294 
 ZAR  HZ I        1825  0.59         1.7 0.34            124            210 294 
                                                                                
