 2013 11 7 1051 15.5 L   5.968 -73.950 14.9  RSN  7 0.5 1.3LRSN                1
 GAP=106        1.26       2.6     2.7  5.7 -0.1360E+01  0.5846E+01 -0.1914E+01E
 Epicentro: LA BELLEZA - SANTANDER                                             3
 ACTION:UPD 14-01-09 16:26 OP:ep   STATUS:               ID:20131107105115 L   I
 OLDACT:REG 13-11-07 15:00 OP:nd   STATUS:               ID:20131107105000     3
 2013-11-07-1050-00M.COL___273                                                 6
 STAT SP IPHASW D HRMM SECON CODA AMPLIT PERI AZIMU VELO AIN AR TRES W  DIS CAZ7
 SPBC HZ EP       1051 22.41                             108    0.2910 37.5 201 
 SPBC HN ES       1051 27.06                             108   -0.2410 37.5 201 
 SPBC HZ I        1051 31.30        27.1 0.18            110           37.5 201 
 PTB  HZ EP       1051 28.10                              98   -0.9010 84.4 318 
 PTB  HN ES       1051 39.92                              98    0.3810 84.4 318 
 PTB  HZ I        1051 40.78        19.5 0.09             99           84.4 318 
 RUS  HZ EP       1051 32.06                              97    0.7810 96.3  95 
 RUS  HN ES       1051 42.91                              97   -0.6910 96.3  95 
 RUS  HZ I        1051 44.62         3.1 0.24             98           96.3  95 
 NOR  HZ EP       1051 33.28                              96    0.2110  111 246 
 NOR  HN ES       1051 46.68                              96   -0.1110  111 246 
 NOR  HZ I        1051 46.95         9.3 0.28             96            111 246 
 BRR  HZ EP       1051 35.96                              95    0.3210  129  12 
 BRR  HN ES       1051 51.46                              95    0.1010  129  12 
 BRR  HZ I        1051 54.49         9.0 0.48             96            129  12 
 HEL  HZ EP       1051 42.19                              56   -0.12 9  177 278 
 HEL  HN ES       1052  2.68                              56   -0.56 9  177 278 
 HEL  HZ I        1052  6.19         2.9 0.54             56            177 278 
 GUY2CHZ EP   4   1051 44.10                              56    1.59 0  177 242 
 GUY2CHN ES       1052  4.13                              56    0.54 9  177 242 
 GUY2CHZ I        1052  8.54         2.6 0.25                           177 242 
                                                                                
