 2010  8 7 1136 33.3 L   6.752 -73.057145.7  RSN  4 0.5 1.6LRSN                1
 GAP=175        0.96       8.5    17.8 15.0 -0.1273E+01 -0.8474E+02  0.3524E+01E
 Epicentro: LOS SANTOS - SANTANDER                                             3
 ACTION:UP  10-09-07 10:52 OP:vdl  STATUS:               ID:20100807113633 L   I
 2010-08-07-1133-23S.COL___125                                                 6
 STAT SP IPHASW D HRMM SECON CODA AMPLIT PERI AZIMU VELO SNR AR TRES W  DIS CAZ7
 BAR2 SZ EP   1   1136 52.30                             171    -0.6 7   23 218 
 BAR2 SZ ES   2   1137  7.53                             171    -0.7 5   23 218 
 BAR2 SZ I        1137  9.30         9.4 0.81                            23 218 
 BRR  HZ EP   1   1136 55.06                             149    -0.1 7   82 299 
 BRR  HN ES   2   1137 12.58                             149     0.4 5   82 299 
 BRR  HZ I        1137 20.72         8.7 1.01                            82 299 
 RUS  HZ EP   1   1136 57.28                             145     0.6 7   95 182 
 RUS  HN ES   3   1137 15.62                             145     0.7 2   95 182 
 RUS  HZ I        1137 29.92         6.4 0.58                            95 182 
 GUE  SZ EP   1   1136 58.11                             139    -0.2 7  120   7 
 GUE  SZ ES   2   1137 18.48                             139     0.7 5  120   7 
                                                                                
