 2014 10 7 1507 56.7 L   6.795 -73.181136.2  RSN 19 0.7 2.5LRSN                1
 GAP= 69        2.54       6.5     8.0 11.8 -0.7162E+01  0.2124E+02  0.1352E+02E
 Epicentro: LOS SANTOS - SANTANDER                                             3
 ACTION:UPD 14-11-29 23:47 OP:nd   STATUS:               ID:20141007150756 L   I
 OLDACT:DUP 14-10-08 02:02 OP:stll STATUS:               ID:20141007145750d    3
 2014-10-07-1457-49M.COL___295                                                 6
 STAT SP IPHASW D HRMM SECON CODA AMPLIT PERI AZIMU VELO AIN AR TRES W  DIS CAZ7
 BAR2 SZ IP     C 15 8 15.48                             170    0.2710 22.4 180 
 BAR2 SZ ES       15 8 29.98                             170    0.3810 22.4 180 
 BAR2 SZ I        15 8 31.45        87.3 0.44            169           22.4 180 
 BRR  HZ IP     D 15 8 17.41                             152    0.7310 68.0 300 
 BRR  HN ES       15 8 32.81                             152    0.5810 68.0 300 
 BRR  HZ I        15 8 38.57        53.2 0.10            147           68.0 300 
 PAM  SZ IP     D 15 8 18.29                             148    0.1510 80.3  41 
 PAM  SN ES       15 8 34.69                             148   -0.1410 80.3  41 
 PAM  SZ I        15 8 37.16       111.0 0.48            148           80.3  41 
 RUS  HZ EP       15 8 19.59                             141    0.0410  100 174 
 RUS  HE ES       15 8 36.98                             141   -0.3610  100 174 
 RUS  HZ I        15 8 39.45        42.8 0.24            141            100 174 
 PTB  HZ EP       15 8 22.49                             130   -0.09 9  144 259 
 PTB  HN ES       15 8 42.94                             130    0.21 9  144 259 
 PTB  HZ I        15 8 46.07        33.4 0.24            127            144 259 
 TAM  HZ EP       15 8 23.82                             127   -0.21 9  159 104 
 TAM  HZ I        15 8 24.07        76.4 0.36            128            159 104 
 OCA  HZ EP       15 8 23.74                             127   -0.60 9  160 355 
 OCA  HE ES       15 8 45.18                             127   -0.68 9  160 355 
 OCA  HZ I        15 8 50.56        38.5 0.26            125            160 355 
 ZAR  HZ EP       15 8 28.33                             120    0.11 9  201 293 
 ZAR  HE ES       15 8 53.39                             120    0.61 9  201 293 
 SML  HZ EP       15 8 31.83                             115   -0.90 8  243 336 
 CHI  HZ EP       15 8 33.82                             115    0.06 8  247 194 
 CHI  HZ I        15 8 36.28        11.4 0.40            114            247 194 
 CHI  HE ES       15 9  2.34                             115   -0.30 8  247 194 
 GUY2CHZ EP       15 8 40.97                             110    1.44 7  298 234 
 GUY2CHE ES       15 9 10.82                             110   -2.07 7  298 234 
 GUY2CHZ I        15 9 22.88        12.1 0.42                           298 234 
 SOCV BZ EP   9   15 8 38.52                             110   -1.26 0  305  57 
 SOCV BE ES       15 9  8.59                                   -3.50 7  305  57 
 RREF HZ EP   9   15 8 39.57                             109   -2.54 0  318 229 
 RREF HE ES       15 9 11.43                                   -3.52 7  318 229 
 RREF HZ I        15 9 25.20        11.0 0.26            108            318 229 
 DBB  SZ EP       15 8 43.81                             108    0.41 7  336 274 
 DBB  SZ I        15 9 23.87        38.8 0.44            106            336 274 
 TOL  SZ EP       15 8 45.43                             107    1.16 7  340 224 
 TOL  SN ES       15 9 21.28                             107   -0.06 7  340 224 
 MON  HZ EP   9   15 8 43.15                             107   -1.92 0  351 309 
 MON  HN ES       15 9 19.34                                   -1.50 6  351 309 
 MON  HZ I        15 9 22.41        13.0 0.18            105            351 309 
 ANIL HN ES       15 9 23.34                             107   -0.78 6  354 224 
 ANIL HZ I        15 9 31.62         3.5 0.34            105            354 224 
 PRA  HZ EP       15 8 49.30                             105   -0.37 6  390 209 
 PRA  HN ES       15 9 30.36                             105   -0.59 6  390 209 
 PRA  HZ I        15 9 37.31        11.0 0.20            104            390 209 
 SJC  HZ EP   9   15 8 50.24                             104   -1.57 0  408 327 
 SJC  HN ES       15 9 28.94                                   -4.25 6  408 327 
 SJC  HZ I        15 9 34.90         8.9 0.44            103            408 327 
                                                                                
