 2010  1 7 1613 46.1 L   6.755 -72.938142.0  RSN  5 0.2 1.6LRSN                1
 GAP=183        0.39       9.1    33.3  7.3 -0.2909E+03 -0.1773E+03  0.4869E+02E
 Epicentro: CEPITA - SANTANDER                                                 3
 ACTION:UP  10-08-24 09:43 OP:vdl  STATUS:               ID:20100107161346 L   I
 2010-01-07-1609-49S.COL___097                                                 6
 STAT SP IPHASW D HRMM SECON CODA AMPLIT PERI AZIMU VELO SNR AR TRES W  DIS CAZ7
 BAR2 SZ IP       1614  5.34                             167    -0.210   33 236 
 BAR2 SZ ES   1   1614 20.67                             167     0.0 7   33 236 
 RUS  BZ EP   2   1614  9.34                             144     0.2 5   97 190 
 GUE  SZ EP   2   1614 11.05                             138     0.4 5  119   1 
 GRA  SZ EP   2   1614 10.70                             136    -0.3 5  126   7 
 GRA  SZ ES   1   1614 30.50                             136     0.1 7  126   7 
 CHI  HZ EP   2   1614 23.85                             116     0.0 4  251 201 
 CHI  HN ES   2   1614 53.44                             116     0.2 4  251 201 
 CHI  HZ I        1615  1.06         2.7 0.37                           251 201 
                                                                                
