 2017  3 7 1058 12.1 L   6.786 -73.150146.0  RSN  7 0.5 1.8LRSN                1
 GAP=137        1.28       6.0     5.7  8.6  0.1645E+01  0.1109E+02  0.4867E+01E
 Epicentro: LOS SANTOS - SANTANDER                                             3
 ACTION:UPD 17-05-25 18:37 OP:jn   STATUS:               ID:20170307105812 L   I
 OLDACT:UP  17-03-07 21:15 OP:ar   STATUS:               ID:20170307104744     3
 OLDACT:REG 17-03-07 20:14 OP:ar   STATUS:               ID:20170307104744     3
 2017-03-07-1048-00M.COL___360                                                 6
 STAT SP IPHASW D HRMM SECON CODA AMPLIT PERI AZIMU VELO AIN AR TRES W  DIS CAZ7
 BAR2 EZ IP     C 1058 31.63                             171   -0.1110 21.7 189 
 BAR2 EZ ES       1058 47.10                             171    0.0510 21.7 189 
 BAR2 EZ I        1058 47.97        12.2 0.22            171           21.7 189 
 BRR  HZ IP     C 1058 33.36                             153    0.0510 71.5 300 
 BRR  HN ES       1058 50.76                             153    0.9210 71.5 300 
 BRR  HZ I        1058 54.19        15.9 0.14            151           71.5 300 
 PAM  EZ IP     D 1058 34.54                             151    0.0910 78.9  39 
 PAM  EN ES       1058 51.15                             151   -0.7210 78.9  39 
 PAM  EZ I        1058 52.01         4.0 0.22            153           78.9  39 
 RUS  HZ EP       1058 36.26                             144    0.4810 99.0 176 
 RUS  HN ES       1058 54.35                             144    0.1110 99.0 176 
 RUS  HZ I        1058 55.72         8.7 0.26            147           99.0 176 
 PTB  HZ EP       1058 38.09                             132   -0.94 9  147 259 
 PTB  HN ES       1058 59.28                             132   -0.74 9  147 259 
 PTB  HZ I        1059  1.29         6.4 0.18            132            147 259 
 SPBC HZ EP       1058 40.88                             129    0.39 9  162 219 
 SPBC HN ES   2   1059  2.47                             129   -0.14 5  162 219 
 ZAR  HZ EP   2   1058 45.33                             122    0.74 4  204 293 
 ZAR  HE ES       1059 10.17                             122    0.25 9  204 293 
 ZAR  HZ I        1059 15.60        11.6 0.46            123            204 293 
 CHI  HN ES   4   1059 20.91                             117    1.99 0  247 195 
                                                                                
