 2013 11 7 1424  4.7 L   6.808 -73.134128.0  RSN  5 0.3 1.6LRSN                1
 GAP=138        0.65       3.1     3.6  5.3  0.1239E+01  0.7739E+01 -0.2123E+01E
 Epicentro: LOS SANTOS - SANTANDER                                             3
 ACTION:UPD 14-01-09 16:26 OP:ep   STATUS:               ID:20131107142404 L   I
 OLDACT:REG 13-11-07 15:06 OP:nd   STATUS:               ID:20131107142000     3
 2013-11-07-1420-00M.COL___273                                                 6
 STAT SP IPHASW D HRMM SECON CODA AMPLIT PERI AZIMU VELO AIN AR TRES W  DIS CAZ7
 BAR2 SZ EP   2   1424 22.21                             168   -0.06 5 24.5 193 
 BAR2 SZ ES       1424 35.88                             168   -0.0610 24.5 193 
 BAR2 SZ I        1424 38.02        25.1 0.30            170           24.5 193 
 BRR  HZ EP       1424 24.18                             149    0.1310 71.9 297 
 BRR  HZ I        1424 33.25        15.8 0.44            146           71.9 297 
 BRR  HN ES   2   1424 39.82                             149    0.72 5 71.9 297 
 PAM  SZ EP       1424 25.06                             148    0.0610 75.8  39 
 PAM  SN ES       1424 40.67                             148   -0.1310 75.8  39 
 PAM  SZ I        1424 44.13         5.7 0.48            148           75.8  39 
 RUS  HZ EP       1424 26.68                             139   -0.1810  101 177 
 RUS  HN ES       1424 44.17                             139    0.0610  101 177 
 RUS  HZ I        1424 46.17         2.2 0.32            141            101 177 
 ZAR  HZ EP       1424 36.64                             118    0.45 9  205 292 
 ZAR  HN ES       1425  0.21                             118   -0.51 9  205 292 
 ZAR  HZ I        1425  4.91         3.9 0.30            117            205 292 
                                                                                
