 2014  3 7 1245 54.0 L   6.828 -73.162143.8  RSN 14 0.4 2.4LRSN                1
 GAP=124        0.97       2.8     3.4  5.0 -0.2506E+01  0.5381E+01  0.2180E+00E
 Epicentro: LOS SANTOS - SANTANDER                                             3
 OLDACT:REG 14-03-07 15:33 OP:stll STATUS:               ID:20140307123814     3
 ACTION:UPD 14-04-09 23:15 OP:nd   STATUS:               ID:20140307124554 L   I
 OLDACT:UP  14-03-07 19:13 OP:stll STATUS:               ID:20140307123814     3
 OLDACT:UP  14-03-07 19:12 OP:stll STATUS:               ID:20140307123814     3
 2014-03-07-1238-14M.COL___225                                                 6
 STAT SP IPHASW D HRMM SECON CODA AMPLIT PERI AZIMU VELO AIN AR TRES W  DIS CAZ7
 BAR2 SZ EP       1246 13.66                             169    0.1910 26.2 185 
 BAR2 SZ ES       1246 28.65                             169    0.0010 26.2 185 
 BAR2 SZ I        1246 29.73        85.7 0.32            171           26.2 185 
 PAM  SZ IP     C 1246 16.74                             151    0.7910 76.2  42 
 PAM  SN ES       1246 32.83                             151   -0.2310 76.2  42 
 PAM  SZ I        1246 35.68        32.6 0.42            136           76.2  42 
 RUS  HZ EP       1246 17.79                             142   -0.0210  104 175 
 RUS  HN ES       1246 36.64                             142    0.2710  104 175 
 RUS  SZ I        1246 37.43        37.8 0.26            136            104 175 
 PTB  HZ EP       1246 20.19                             132   -0.53 9  147 257 
 PTB  HN ES       1246 40.99                             132   -0.55 9  147 257 
 PTB  SZ I        1246 48.04        37.8 0.42            123            147 257 
 OCA  HN ES       1246 43.49                             130   -0.09 9  157 354 
 SPBC HZ EP       1246 22.53                             128    0.04 9  164 218 
 SPBC HE ES       1246 44.73                             128    0.03 9  164 218 
 SPBC SZ I        1246 46.87        27.8 0.48            120            164 218 
 ZAR  HZ EP       1246 26.30                             122    0.26 9  201 292 
 ZAR  HN ES       1246 50.98                             122   -0.03 9  201 292 
 ZAR  SZ I        1246 53.20        18.6 0.40            112            201 292 
 NOR  HZ EP       1246 29.42                             118   -0.25 8  235 234 
 NOR  HN ES       1246 57.07                             118   -0.41 8  235 234 
 NOR  SZ I        1247  2.17        20.7 0.48            110            235 234 
 SML  HZ EP       1246 30.19                             117    0.05 8  240 335 
 SML  SZ I        1247  3.78        17.6 0.10            107            240 335 
 CHI  HZ EP       1246 31.97                             116    0.09 8  251 195 
 CHI  HN ES       1247  1.09                             116   -0.33 8  251 195 
 CHI  SZ I        1247  4.33        21.8 0.38            108            251 195 
 HEL  HZ EP       1246 34.59                             114    0.57 8  271 255 
 HEL  HE ES       1247  5.49                             114    0.27 8  271 255 
 HEL  SZ I        1247 12.51        13.7 0.54            106            271 255 
 GUY2CHZ EP       1246 37.96                             112    0.39 7  302 234 
 GUY2CHN ES       1247 12.08                             112    0.54 7  302 234 
 GUY2CSZ I        1247 19.01         9.3 0.24                           302 234 
 SDV  BZ EP       1246 43.33                             108   -0.59 6  360  51 
 SDV  SZ I        1247 23.93         6.6 1.55             99            360  51 
 ORTC HZ EP       1246 46.42                             106   -1.62 6  397 216 
 ORTC HN ES       1247 30.69                             106    0.52 6  397 216 
 ORTC SZ I        1247 42.03         5.7 1.24             98            397 216 
                                                                                
