 2012  4 7 1322 12.5 L   6.212 -73.864 82.3  RSN  7 0.4 1.6LRSN                1
 GAP=125        0.97       6.2     4.2 10.5  0.5959E+01 -0.6823E+00  0.7768E+01E
 Epicentro: LANDAZURI - SANTANDER                                              3
 ACTION:UPD 12-07-05 11:51 OP:tino STATUS:               ID:20120407132212 L   I
 2012-04-07-1320-00M.COL___196                                                 6
 STAT SP IPHASW D HRMM SECON CODA AMPLIT PERI AZIMU VELO AIN AR TRES W  DIS CAZ7
 PTB  HZ EP       1322 27.35                             134    -0.310   75 299 
 PTB  HE ES   1   1322 40.11                             134     0.7 7   75 299 
 BAR2 SZ ES   1   1322 41.76                             130    -0.1 7   86  61 
 RUS  HZ EP       1322 30.04                             127     0.010   93 112 
 BRR  HZ EP       1322 29.71                             125    -0.410  100  10 
 BRR  HE ES   1   1322 43.37                             125    -0.4 7  100  10 
 BRR  HZ I        1322 49.77        12.1 0.30                           100  10 
 NOR  SN ES   3   1322 49.47                             117    -0.5 2  132 237 
 ZAR  HZ EP       1322 38.65                             109    -0.2 9  179 322 
 ZAR  HE ES   1   1322 59.55                             109     0.2 7  179 322 
 ZAR  HZ I        1323  2.50         5.4 0.36                           179 322 
 PAM  SZ EP       1322 40.18                             109     0.8 9  179  46 
                                                                                
