 2012  4 7 1420 45.3 L   6.789 -73.165154.6  RSN  4 0.3 1.8LRSN                1
 GAP=135        0.51       7.2     6.9  8.1  0.2228E+02  0.6995E+01  0.2927E+02E
 Epicentro: LOS SANTOS - SANTANDER                                             3
 ACTION:UPD 12-07-05 11:51 OP:tino STATUS:               ID:20120407142045 L   I
 2012-04-07-1420-00M.COL___196                                                 6
 STAT SP IPHASW D HRMM SECON CODA AMPLIT PERI AZIMU VELO AIN AR TRES W  DIS CAZ7
 BRR  HZ EP       1421  7.70                             154     0.310   70 300 
 BRR  HZ I        1421  7.87        10.3 0.16                            70 300 
 BRR  HN ES   1   1421 24.65                             154     0.1 7   70 300 
 PAM  SZ EP   3   1421  8.06                             151    -0.6 2   80  40 
 PAM  SE ES   3   1421 26.10                             151    -0.7 2   80  40 
 RUS  HZ EP       1421  9.86                             146     0.010  100 175 
 RUS  HE ES   3   1421 28.73                             146    -0.3 2  100 175 
 PTB  HZ EP       1421 12.62                             134    -0.2 9  145 259 
 PTB  HN ES   3   1421 34.12                             134    -0.2 2  145 259 
                                                                                
