 2010 12 7 1456 52.7 L   6.792 -73.239146.8  RSN  5 0.3 1.5LRSN                1
 GAP=182        0.54       8.5    39.6  7.2 -0.1994E+03 -0.1694E+03 -0.1666E+01E
 Epicentro: ZAPATOCA - SANTANDER                                               3
 ACTION:UP  11-01-14 15:23 OP:pat  STATUS:               ID:20101207145652 L   I
 2010-12-07-1455-09S.COL___135                                                 6
 STAT SP IPHASW D HRMM SECON CODA AMPLIT PERI AZIMU VELO SNR AR TRES W  DIS CAZ7
 BTL  SZ ES   1   1457 27.44                             173    -0.2 7   14 347 
 BAR2 SZ EP       1457 12.65                             171     0.210   23 165 
 BAR2 SZ ES   1   1457 27.67                             171    -0.2 7   23 165 
 BAR2 SZ I        1457 29.06         7.8 0.20                            23 165 
 GIR2 SZ EP   3   1457 11.70                             167    -0.8 2   32   9 
 GIR2 SZ ES   2   1457 28.35                             167     0.4 5   32   9 
 GUE  SZ EP       1457 17.90                             139     0.110  120  17 
 GRA  SZ EP       1457 18.26                             136    -0.110  130  22 
 GRA  SZ I        1457 39.51         3.2 0.21                           130  22 
                                                                                
