 2012 11 7 1523  8.4 L   6.383 -73.605107.9  RSN  7 0.3 2.3LRSN                1
 GAP=146        0.55       2.0     4.6  5.9 -0.9493E+00  0.1260E+02  0.2346E+01E
 Epicentro: SANTA HELENA DEL OPON - SANTANDER                                  3
 ACTION:UPD 12-12-05 15:31 OP:}ep  STATUS:               ID:20121107152308 L   I
 2012-11-07-1520-00M.COL___230                                                 6
 STAT SP IPHASW D HRMM SECON CODA AMPLIT PERI AZIMU VELO AIN AR TRES W  DIS CAZ7
 BAR2 SZ EP       1523 25.05                             152    0.3010 52.2  64 
 BAR2 SZ ES   1   1523 37.79                             152    0.30 7 52.2  64 
 BAR2 SZ I        1523 38.97       303.5 0.12                          52.2  64 
 RUS  HZ EP       1523 26.83                             141   -0.0910 79.2 133 
 RUS  HN ES   1   1523 40.89                             141   -0.46 7 79.2 133 
 RUS  HN I        1523 42.33        12.7 0.32                          79.2 133 
 BRR  HZ EP       1523 26.16                             140   -0.2110 81.0 352 
 BRR  HE ES   1   1523 40.29                             140   -0.08 7 81.0 352 
 BRR  HE I        1523 40.77        61.4 0.18                          81.0 352 
 PAM  SZ EP   2   1523 33.33                             122    0.32 5  146  43 
 PAM  SN ES   1   1523 52.16                             122   -0.03 7  146  43 
 PAM  SN I        1523 56.64        39.6 0.22                           146  43 
 CHI  HZ EP   1   1523 37.83                             114   -0.32 6  194 184 
 CHI  HE ES   1   1524  1.76                             114    0.42 6  194 184 
 CHI  HE I        1524  4.55        36.0 0.24                           194 184 
 OCA  HN ES   1   1524  3.47                             112    0.05 6  208   9 
 PRA  HZ EP   2   1523 52.82                             102   -0.35 3  328 206 
 PRA  HN ES   1   1524 28.32                             102    0.24 5  328 206 
 PRA  HN I        1524 30.65         5.6 0.24                           328 206 
                                                                                
