 2012  4 7 1341 36.4 L   6.154 -73.670112.4  RSN  5 0.3 1.4LRSN                1
 GAP=182        0.78       7.9     7.0 15.6  0.3486E+02  0.7292E+02  0.7387E+02E
 Epicentro: LA PAZ - SANTANDER                                                 3
 ACTION:UP  12-07-05 11:51 OP:tino STATUS:               ID:20120407134136 L   I
 2012-04-07-1340-00M.COL___196                                                 6
 STAT SP IPHASW D HRMM SECON CODA AMPLIT PERI AZIMU VELO AIN AR TRES W  DIS CAZ7
 RUS  HZ EP       1341 55.19                             145     0.410   71 114 
 RUS  HN ES   2   1342  8.91                             145    -0.2 5   71 114 
 BAR2 SZ ES   1   1342  8.37                             144    -0.3 7   73  48 
 BAR2 SZ I        1342 10.59        17.2 0.72                            73  48 
 PTB  HZ EP       1341 55.69                             136    -0.410   97 296 
 PTB  HZ I        1341 57.05         2.4 0.18                            97 296 
 PTB  HE ES   2   1342 11.76                             136     0.3 5   97 296 
 BRR  HE ES   1   1342 12.98                             133     0.2 7  106 358 
 ZAR  HN ES   2   1342 29.71                             114     0.2 4  198 319 
                                                                                
