 2014  3 7 1001 10.8 L   7.069 -73.161139.4  RSN  5 0.2 1.3LRSN                1
 GAP=135        0.55       3.0     2.5  4.8  0.7202E-01  0.4235E+01  0.9811E-01E
 Epicentro: GIRON - SANTANDER                                                  3
 ACTION:UPD 14-04-09 23:15 OP:nd   STATUS:               ID:20140307100110 L   I
 OLDACT:DUP 14-03-07 16:30 OP:stll STATUS:               ID:20140307095815d    3
 2014-03-07-0958-14M.COL___216                                                 6
 STAT SP IPHASW D HRMM SECON CODA AMPLIT PERI AZIMU VELO AIN AR TRES W  DIS CAZ7
 BAR2 SZ EP       10 1 30.45                             158   -0.1610 52.8 183 
 BAR2 SZ ES       10 1 46.09                             158   -0.0110 52.8 183 
 BAR2 SZ I        10 1 48.28        10.8 0.18            157           52.8 183 
 PAM  SZ EP       10 1 31.22                             156   -0.0610 59.1  60 
 PAM  SZ I        10 1 31.33         3.0 0.16            159           59.1  60 
 PAM  SN ES       10 1 47.37                             156    0.0910 59.1  60 
 RUS  HZ EP       10 1 36.72                             135    0.4210  130 176 
 RUS  HN ES       10 1 56.02                             135   -0.2010  130 176 
 RUS  HZ I        10 1 58.47         1.3 0.32            135            130 176 
 PTB  HZ EP       10 1 37.64                             129   -0.23 9  155 248 
 PTB  HN ES       10 1 59.22                             129    0.21 9  155 248 
 PTB  HZ I        10 2  1.06         3.1 0.48            130            155 248 
 ZAR  HN ES       10 2  5.72                             122   -0.05 9  193 284 
                                                                                
