 2017 10 7 1953 51.2 L   6.785 -73.080141.5  RSN  4 0.3 1.3LRSN                1
 GAP=159        0.74       5.2     7.5  6.7 -0.2482E+02  0.1758E+02 -0.3674E+01E
 Epicentro: LOS SANTOS - SANTANDER                                             3
 ACTION:UPD 17-11-07 19:29 OP:rebc STATUS:               ID:20171007195351 L   I
 OLDACT:REG 17-10-07 21:13 OP:osc  STATUS:               ID:20171007193817     3
 2017-10-07-1948-00M.COL___414                                                 6
 STAT SP IPHASW D HRMM SECON CODA AMPLIT PERI AZIMU VELO AIN AR TRES W  DIS CAZ7
 BAR2 EZ EP       1954  9.70                             170   -0.5910 24.2 208 
 BAR2 EZ ES       1954 25.12                             170   -0.0910 24.2 208 
 PAM  EZ EP       1954 12.76                             151    0.0310 74.3  34 
 PAM  EN ES       1954 29.81                             151    0.2510 74.3  34 
 PAM  EZ I        1954 31.32         3.8 0.18            152           74.3  34 
 RUS  HZ EP       1954 14.59                             143    0.2410 98.7 180 
 RUS  HN ES       1954 32.48                             143    0.0310 98.7 180 
 RUS  HZ I        1954 34.11         3.6 0.28            144           98.7 180 
 GUY2CHE ES       1955  9.72                             111    0.27 7  306 236 
                                                                                
