 2011  9 7 1157 57.9 L   6.749 -73.160142.0  RSN  4 0.4 1.8LRSN                1
 GAP=232        0.60       9.1    11.5  7.9  0.8569E+02 -0.1309E+02 -0.1757E+02E
 Epicentro: LOS SANTOS - SANTANDER                                             3
 ACTION:UPD 12-07-13 15:56 OP:ep   STATUS:               ID:20110907115757 L   I
 2011-09-07-1153-56S.COL___171                                                 6
 STAT SP IPHASW D HRMM SECON CODA AMPLIT PERI AZIMU VELO AIN AR TRES W  DIS CAZ7
 BAR2 SZ EP       1158 16.79                             172   -0.1810 17.5 188 
 BAR2 SZ I        1158 17.41         8.6 0.19                          17.5 188 
 BAR2 SZ ES   2   1158 31.78                             172   -0.06 5 17.5 188 
 BRR  HZ EP   1   1158 18.61                             151   -0.12 7 72.7 303 
 BRR  HZ I        1158 21.77        14.5 0.38                          72.7 303 
 BRR  HE ES   1   1158 35.26                             151    0.28 7 72.7 303 
 RUS  HZ EP   2   1158 20.78                             145   -0.10 5 95.1 175 
 RUS  HE ES   1   1158 38.98                             145    0.17 7 95.1 175 
 ZAR  HZ EP   2   1158 31.09                             122    0.91 4  205 294 
 ZAR  HN ES   2   1158 54.63                             122   -0.72 4  205 294 
 ZAR  HZ I        1159  0.63         6.2 0.28                           205 294 
                                                                                
