 2015  9 7 1847 26.4 L   6.824 -73.176144.0  RSN 10 0.4 1.7LRSN                1
 GAP=132        1.00       3.3     4.2  6.4 -0.1933E+01  0.1136E+02  0.1498E+01E
 Epicentro: ZAPATOCA - SANTANDER                                               3
 ACTION:UPD 15-10-28 16:24 OP:cam  STATUS:               ID:20150907184726 L   I
 OLDACT:REG 15-09-07 21:42 OP:stll STATUS:               ID:20150907183748     3
 2015-09-07-1837-48M.COL___352                                                 6
 STAT SP IPHASW D HRMM SECON CODA AMPLIT PERI AZIMU VELO AIN AR TRES W  DIS CAZ7
 BAR2 EZ EP       1847 45.18                             169   -0.7110 25.6 182 
 BAR2 EZ ES       1848  1.78                             169    0.7110 25.6 182 
 BAR2 EZ I        1848  2.87         7.7 0.25            169           25.6 182 
 PAM  EZ EP       1847 48.71                             150    0.2510 77.6  43 
 PAM  EN ES       1848  5.94                             150    0.2910 77.6  43 
 PAM  EZ I        1848  8.51         5.7 0.52            156           77.6  43 
 RUS  HZ EP       1847 49.89                             143   -0.3210  104 174 
 RUS  HN ES       1848  8.14                             143   -0.6310  104 174 
 RUS  HZ I        1848 11.71         4.4 0.32            146            104 174 
 PTB  HZ EP       1847 53.60                             132    0.60 9  145 258 
 PTB  HN ES       1848 13.51                             132   -0.22 9  145 258 
 PTB  HZ I        1848 16.91         6.0 0.14            133            145 258 
 SPBC HZ EP       1847 54.77                             129   -0.02 9  163 217 
 SPBC HN ES       1848 16.99                             129    0.08 9  163 217 
 SPBC HZ I        1848 23.07        10.9 0.18            130            163 217 
 ZAR  HZ EP   1   1847 57.77                             123   -0.56 6  200 292 
 ZAR  HN ES       1848 23.00                             123   -0.23 9  200 292 
 ZAR  HZ I        1848 32.99         4.7 0.25            124            200 292 
 SML  HN ES       1848 30.44                             117   -0.27 8  240 336 
 GUY2CHZ EP   1   1848 10.18                             112    0.36 5  300 234 
 GUY2CHN ES       1848 44.16                             112    0.49 7  300 234 
 GUY2CHZ I        1848 53.09         3.5 0.76                           300 234 
 TOL  SZ EP   1   1848 14.75                             109    0.19 5  343 224 
 TOL  SN ES       1848 51.93                             109   -0.18 7  343 224 
 TOL  SZ I        1848 58.01         2.0 0.66            111            343 224 
 PRA  HZ EP       1848 20.52                             106    0.56 6  393 209 
 PRA  HN ES       1849  2.01                             106    0.29 6  393 209 
 PRA  HZ I        1849  4.37         3.0 0.30            108            393 209 
                                                                                
