 2017 12 7 1738 55.3 L   7.405 -73.385112.2  RSN  4 0.5 1.3LRSN                1
 GAP=182        1.27       8.9     5.4 14.9 -0.6077E+01  0.4413E+02 -0.3817E+02E
 Epicentro: SABANA DE TORRES - SANTANDER                                       3
 ACTION:UPD 18-01-04 13:18 OP:rebc STATUS:               ID:20171207173855 L   I
 OLDACT:REG 17-12-07 20:41 OP:lv   STATUS:               ID:20171207173747     3
 2017-12-07-1738-00M.COL___491                                                 6
 STAT SP IPHASW D HRMM SECON CODA AMPLIT PERI AZIMU VELO AIN AR TRES W  DIS CAZ7
 PAM  EZ EP       1739 14.76                             144    0.7610 76.0  95 
 PAM  EE ES       1739 28.23                             144   -0.3310 76.0  95 
 PAM  EZ I        1739 30.68         4.0 0.22            148           76.0  95 
 BAR2 EZ EP       1739 15.06                             138    0.1210 92.6 166 
 BAR2 EZ ES       1739 29.99                             138   -0.2410 92.6 166 
 BAR2 EZ I        1739 31.14         4.4 0.34            142           92.6 166 
 PTB  HZ EP       1739 19.38                             122   -0.88 9  152 231 
 PTB  HE ES       1739 40.41                             122    0.70 9  152 231 
 PTB  HZ I        1739 41.44         1.5 0.18            126            152 231 
 ZAR  HZ EP       1739 21.26                             120   -0.11 9  163 273 
 ZAR  HE ES       1739 41.61                             120   -0.06 9  163 273 
 ZAR  HZ I        1739 43.65         5.4 0.24            123            163 273 
                                                                                
