 2016  6 7 1212  0.0 L   6.782 -73.145146.2  RSN  6 0.2 1.6LRSN                1
 GAP=137        0.61       2.6     3.1  4.0 -0.8539E+00  0.1309E+01  0.2774E+01E
 Epicentro: LOS SANTOS - SANTANDER                                             3
 ACTION:UPD 16-07-21 22:16 OP:rebc STATUS:               ID:20160607121200 L   I
 OLDACT:UP  16-06-07 22:55 OP:edw  STATUS:               ID:20160607120745d    3
 OLDACT:DUP 16-06-07 22:52 OP:edw  STATUS:               ID:20160607120745d    3
 OLDACT:REG 16-06-07 20:39 OP:edw  STATUS:               ID:20160607120744     3
 2016-06-07-1207-44M.COL___328                                                 6
 STAT SP IPHASW D HRMM SECON CODA AMPLIT PERI AZIMU VELO AIN AR TRES W  DIS CAZ7
 BAR2 EZ EP       1212 19.65                             171   -0.0010 21.4 191 
 BAR2 EZ ES       1212 34.74                             171   -0.2310 21.4 191 
 BAR2 EZ I        1212 36.06         9.5 0.14                          21.4 191 
 BRR  HZ EP       1212 21.26                             152   -0.0010 72.3 300 
 BRR  HN ES       1212 38.34                             152    0.5010 72.3 300 
 PAM  EZ EP       1212 22.25                             150   -0.1110 78.9  39 
 PAM  EN ES       1212 39.79                             150    0.0010 78.9  39 
 PAM  EZ I        1212 41.65         9.0 0.50                          78.9  39 
 RUS  HZ EP       1212 23.82                             144    0.1610 98.6 176 
 RUS  HE ES       1212 41.99                             144   -0.1110 98.6 176 
 RUS  HZ I        1212 43.38         7.6 0.32                          98.6 176 
 PTB  HZ EP       1212 26.85                             132   -0.14 9  147 260 
 PTB  HN ES       1212 47.69                             132   -0.34 9  147 260 
 PTB  HZ I        1212 52.95         3.8 0.38                           147 260 
 CHI  HZ EP       1212 37.50                             117   -0.02 8  247 195 
 CHI  HN ES       1213  7.14                             117    0.36 8  247 195 
 CHI  HZ I        1213 16.91         2.9 0.40                           247 195 
                                                                                
