 2014  4 7 1638  1.7 L   6.804 -73.148148.0  RSN 14 0.4 2.4LRSN                1
 GAP= 71        0.85       3.1     2.5  5.4  0.2812E+00  0.3248E+01  0.6564E+01E
 Epicentro: LOS SANTOS - SANTANDER                                             3
 ACTION:UPD 14-05-13 23:06 OP:nd   STATUS:               ID:20140407163801 L   I
 OLDACT:REG 14-04-07 23:59 OP:cam  STATUS:               ID:20140407163645     3
 2014-04-07-1636-45M.COL___256                                                 6
 STAT SP IPHASW D HRMM SECON CODA AMPLIT PERI AZIMU VELO AIN AR TRES W  DIS CAZ7
 BRR  HZ EP       1638 23.26                             153    0.2110 70.7 298 
 BRR  HE ES       1638 40.41                             153    0.6910 70.7 298 
 BRR  HZ I        1638 44.24        22.6 0.52            153           70.7 298 
 PAM  SZ EP     C 1638 24.13                             151    0.0010 77.2  40 
 PAM  SN ES       1638 41.54                             151   -0.0910 77.2  40 
 PAM  SZ I        1638 43.49        39.4 0.46            157           77.2  40 
 RUS  HZ EP       1638 25.30                             144   -0.3910  101 176 
 RUS  HE ES   4   1638 43.63                             144   -0.79 0  101 176 
 RUS  HZ I        1638 45.20        16.4 0.42            146            101 176 
 PTB  HZ EP       1638 28.55                             133   -0.27 9  148 259 
 PTB  HN ES       1638 49.34                             133   -0.65 9  148 259 
 PTB  HZ I        1638 55.15        32.7 0.24            134            148 259 
 TAM  HZ EP     D 1638 29.50                             131   -0.08 9  155 105 
 TAM  HE ES       1638 51.36                             131    0.03 9  155 105 
 ZAR  HZ EP   1   1638 34.27                             123    0.03 6  204 292 
 ZAR  HE ES       1638 59.77                             123    0.15 9  204 292 
 ZAR  HZ I        1639  5.66        26.6 0.32            125            204 292 
 NOR  HZ EP     D 1638 37.54                             119   -0.01 8  235 234 
 NOR  HN ES       1639  5.71                             119    0.18 8  235 234 
 NOR  HZ I        1639  9.09        21.9 0.24            121            235 234 
 SML  HZ EP   1   1638 38.31                             118   -0.07 6  243 335 
 SML  HN ES   1   1639  6.47                             118   -0.53 6  243 335 
 SML  HZ I        1639  9.94        24.6 0.10            121            243 335 
 CHI  HZ EP   1   1638 39.53                             118   -0.02 6  249 195 
 CHI  HE ES       1639  8.99                             118   -0.10 8  249 195 
 CHI  HZ I        1639 14.69        11.3 0.40            120            249 195 
 GUY2CHZ EP       1638 45.89                             113    0.48 7  301 235 
 GUY2CHE ES   4   1639 22.03                             113    2.52 0  301 235 
 GUY2CHZ I        1639 28.14        22.0 0.74                           301 235 
 RREF HZ EP       1638 49.13                             111    1.19 7  322 229 
 RREF HN ES   4   1639 26.99                             111    2.97 0  322 229 
 RREF HZ I        1639 29.99        12.9 0.24            113            322 229 
 CBOC HZ EP   1   1638 49.35                             110    0.67 5  334 252 
 CBOC HE ES   1   1639 25.21                             110   -0.13 5  334 252 
 DBB  SZ EP       1638 48.98                             110   -0.24 7  339 274 
 DBB  SZ ES       1639 25.73                             110   -0.57 7  339 274 
 PRA  HZ EP       1638 55.06                             107   -0.26 6  392 210 
 PRA  HE ES   1   1639 37.04                             107   -0.11 4  392 210 
 PRA  HZ I        1639 43.07        15.4 0.36            109            392 210 
                                                                                
