 2012  7 7 1017 21.6 L   5.987 -73.806105.6  RSN  5 0.3 1.4LRSN                1
 GAP=203        0.72       4.6     3.9  8.5 -0.7285E+01  0.9298E+01  0.4139E+01E
 Epicentro: EL PEON - SANTANDER                                                3
 ACTION:UPD 12-08-14 11:43 OP:ep   STATUS:               ID:20120707101721 L   I
 2012-07-07-1010-00M.COL___201                                                 6
 STAT SP IPHASW D HRMM SECON CODA AMPLIT PERI AZIMU VELO AIN AR TRES W  DIS CAZ7
 PTB  HZ EP       1017 40.51                             135     0.110   94 310 
 PTB  HE ES   1   1017 54.76                             135    -0.4 7   94 310 
 PTB  HZ I        1017 56.83         2.7 0.15            135             94 310 
 BAR2 SZ EP   1   1017 40.26                             134    -0.6 7   96  46 
 BAR2 SZ ES       1017 56.18                             134     0.210   96  46 
 BAR2 SZ I        1017 58.34        10.6 0.31            135             96  46 
 BRR  HE ES   1   1018  0.21                             126     0.1 7  124   5 
 NOR  SZ EP       1017 43.47                             125     0.010  127 248 
 NOR  SN ES   1   1018  0.82                             125     0.2 7  127 248 
 ZAR  HZ EP       1017 51.95                             112     0.3 9  203 325 
 ZAR  HN ES   1   1018 15.01                             112    -0.1 6  203 325 
 ZAR  HZ I        1018 18.10         2.5 0.23            113            203 325 
