 2011  5 7 1804 15.2 L   6.762 -73.209146.3  RSN  4 0.4 1.5LRSN                1
 GAP=192        0.96      13.7    43.7 10.9  0.4836E+03  0.1468E+03  0.2524E+02E
 Epicentro: VILLANUEVA - SANTANDER                                             3
 ACTION:UP  11-06-29 08:51 OP:tino STATUS:               ID:20110507180415 L   I
 2011-05-07-1800-20S.COL___133                                                 6
 STAT SP IPHASW D HRMM SECON CODA AMPLIT PERI AZIMU VELO SNR AR TRES W  DIS CAZ7
 BTL  SZ EP   1   18 4 35.63                             172     0.8 7   18 339 
 BTL  SZ ES   1   18 4 50.14                             172     0.0 7   18 339 
 BAR2 SZ EP   1   18 4 34.33                             172    -0.5 7   19 171 
 BAR2 SZ ES   1   18 4 49.84                             172    -0.3 7   19 171 
 BAR2 SZ I        18 4 52.05         6.5 0.37                            19 171 
 BRR  HZ EP   1   18 4 36.15                             154    -0.1 7   67 304 
 BRR  HZ I        18 4 54.96        10.6 0.20                            67 304 
 RUS  HZ EP   1   18 4 38.51                             145    -0.3 7   97 172 
 RUS  HN ES       18 4 57.38                             145     0.210   97 172 
 RUS  HZ I        18 4 58.18         3.8 0.22                            97 172 
                                                                                
