 2013  1 7 1216 35.4 L   6.807 -73.127148.0  RSN  8 0.5 2.7LRSN                1
 GAP=185        1.13       4.0     5.5  6.9  0.4333E+01  0.8235E+01  0.2236E+01E
 Epicentro: LOS SANTOS - SANTANDER                                             3
 ACTION:UPD 13-02-15 09:12 OP:ep   STATUS:               ID:20130107121635 L   I
 2013-01-07-1210-00M.COL___242                                                 6
 STAT SP IPHASW D HRMM SECON CODA AMPLIT PERI AZIMU VELO AIN AR TRES W  DIS CAZ7
 BAR2 SZ EP       1216 55.26                             170   -0.0610 24.5 195 
 BAR2 SZ ES       1217 10.42                             170   -0.4310 24.5 195 
 BAR2 SZ I        1217 12.20        82.1 0.42            168           24.5 195 
 BRR  HZ EP       1216 57.35                             152    0.4810 72.7 297 
 BRR  HN ES       1217 14.59                             152    0.9710 72.7 297 
 BRR  HN I        1217 15.55        85.9 0.20            150           72.7 297 
 RUS  HZ EP       1216 59.40                             144   -0.0110  101 177 
 RUS  HN ES       1217 18.29                             144    0.1510  101 177 
 RUS  HN I        1217 19.70        64.9 0.20            144            101 177 
 PTB  HZ EP       1217  2.02                             132   -0.73 9  150 259 
 PTB  HE ES       1217 23.53                             132   -0.55 9  150 259 
 PTB  HN I        1217 24.42        57.1 0.24            131            150 259 
 OCA  HZ EP   1   1217  4.05                             130    0.21 7  160 352 
 OCA  HN ES       1217 25.62                             130   -0.40 9  160 352 
 OCA  HN I        1217 28.33       111.3 0.38            131            160 352 
 ZAR  HZ EP       1217  7.94                             123   -0.22 8  206 292 
 ZAR  HN ES       1217 33.41                             123   -0.30 8  206 292 
 ZAR  HN I        1217 39.47        63.6 0.30            122            206 292 
 CHI  HZ EP       1217 13.49                             117    0.13 8  250 196 
 CHI  HN ES       1217 42.85                             117   -0.12 8  250 196 
 CHI  HN I        1217 47.93        23.5 0.46            117            250 196 
 HEL  HZ EP       1217 16.77                             115    0.80 8  274 256 
 HEL  HN ES       1217 47.88                             115    0.27 8  274 256 
 HEL  HN I        1217 55.42        12.6 0.28            115            274 256 
 MON  HZ EP   4   1217 22.58                             109   -2.04 0  355 308 
                                                                                
