 2013  3 7 1748 41.5 L   7.419 -73.190127.9  RSN  4 0.1 1.9LRSN                1
 GAP=186        0.36       3.4     2.0  3.8  0.1851E+01  0.2904E+01 -0.4346E+00E
 Epicentro: EL PLAYON - SANTANDER                                              3
 ACTION:UPD 13-04-09 14:00 OP:ep   STATUS:               ID:20130307174841 L   I
 2013-03-07-1748-30M.COL___229                                                 6
 STAT SP IPHASW D HRMM SECON CODA AMPLIT PERI AZIMU VELO AIN AR TRES W  DIS CAZ7
 PAM  SN ES       1749 15.41                             156    0.0410 54.8  99 
 BRR  HZ EP       1749  0.46                             150   -0.0410 67.1 239 
 BRR  HN ES       1749 15.19                             150   -0.1310 67.1 239 
 BRR  HN I        1749 16.40        22.4 0.16            150           67.1 239 
 BAR2 SZ EP       1749  2.44                             142   -0.0410 91.4 179 
 BAR2 SZ I        1749  2.87        11.1 0.10            142           91.4 179 
 BAR2 SZ ES       1749 18.94                             142    0.0910 91.4 179 
 ZAR  HN ES       1749 33.69                             121    0.12 9  184 273 
                                                                                
