 2016  7 7 1520 26.1 L   7.354 -73.387134.0  RSN  4 0.3 1.4LRSN                1
 GAP=317        0.67       7.4     6.2  5.8  0.5025E+01  0.3021E+01 -0.5688E+01E
 Epicentro: SABANA DE TORRES - SANTANDER                                       3
 ACTION:UPD 17-03-29 16:48 OP:lp   STATUS:               ID:20160707152026 L   I
 OLDACT:REG 16-07-07 20:42 OP:edw  STATUS:               ID:20160707151749     3
 2016-07-07-1517-49M.COL___324                                                 6
 STAT SP IPHASW D HRMM SECON CODA AMPLIT PERI AZIMU VELO AIN AR TRES W  DIS CAZ7
 BRR  HZ EP       1520 44.91                             160    0.2910 45.1 233 
 BRR  HN ES       1520 59.06                             160   -0.0310 45.1 233 
 PTB  HZ EP       1520 51.68                             129   -0.50 9  149 233 
 PTB  HN ES       1521 12.64                             129    0.09 9  149 233 
 PTB  HZ I        1521 16.19         3.3 0.19            127            149 233 
 ZAR  HZ EP       1520 53.40                             126   -0.17 9  163 275 
 ZAR  HN ES       1521 15.09                             126    0.07 9  163 275 
 ZAR  HZ I        1521 18.42         3.7 0.06            124            163 275 
 CBOC HZ EP       1521 12.95                             108    0.41 7  334 241 
                                                                                
