 2014  5 7 1808  2.7 L   6.817 -73.159144.8  RSN  9 0.4 2.1LRSN                1
 GAP=134        1.01       3.4     4.2  6.4 -0.1073E+01  0.5594E+01 -0.7407E+00E
 Epicentro: LOS SANTOS - SANTANDER                                             3
 ACTION:UPD 15-03-16 16:55 OP:nd   STATUS:               ID:20140507180802 L   I
 OLDACT:UP  14-05-07 21:46 OP:mh   STATUS:               ID:20140507180651     3
 OLDACT:UP  14-05-07 21:45 OP:mh   STATUS:               ID:20140507180651     3
 OLDACT:REG 14-05-07 21:41 OP:mh   STATUS:               ID:20140507180651     3
 2014-05-07-1806-51M.COL___230                                                 6
 STAT SP IPHASW D HRMM SECON CODA AMPLIT PERI AZIMU VELO AIN AR TRES W  DIS CAZ7
 BRR  HZ EP     C 18 8 24.09                             153    0.4610 69.0 298 
 BRR  HN ES       18 8 40.36                             153    0.4210 69.0 298 
 BRR  HZ I        18 8 43.40        24.6 0.23            152           69.0 298 
 PAM  SZ IP     C 18 8 25.36                             151    0.5710 76.9  41 
 PAM  SN ES       18 8 42.03                             151    0.0210 76.9  41 
 PAM  SZ I        18 8 44.79        24.1 0.47            154           76.9  41 
 RUS  HZ EP       18 8 26.27                             143   -0.2410  103 175 
 RUS  HN ES       18 8 44.74                             143   -0.3310  103 175 
 PTB  HZ EP       18 8 28.96                             132   -0.54 9  147 258 
 PTB  HN ES       18 8 50.05                             132   -0.35 9  147 258 
 PTB  HZ I        18 8 53.80        13.9 0.29            133            147 258 
 OCA  HZ EP       18 8 30.57                             130   -0.17 9  158 354 
 OCA  HN ES   1   18 8 52.09                             130   -0.52 7  158 354 
 OCA  HZ I        18 8 56.22        14.7 0.44            132            158 354 
 ZAR  HZ EP   1   18 8 35.25                             122    0.38 6  202 292 
 ZAR  HN ES       18 9  0.25                             122    0.29 9  202 292 
 ZAR  HZ I        18 9  6.34        13.9 0.17            124            202 292 
 NOR  HZ EP       18 8 38.90                             118    0.53 8  235 234 
 NOR  HN ES   1   18 9  5.86                             118   -0.33 6  235 234 
 NOR  HZ I        18 9 10.21        10.4 0.11            120            235 234 
 SML  HZ EP       18 8 38.28                             117   -0.74 8  241 335 
 SML  HN ES       18 9  7.25                             117   -0.10 8  241 335 
 RREF HZ EP   4   18 8 51.32                             111    2.50 0  322 229 
 RREF HE ES   4   18 9 28.67                             111    3.88 0  322 229 
 PRA  HZ EP   1   18 8 57.34                             106    1.04 4  393 209 
 PRA  HN ES   4   18 9 37.64                             106   -0.47 0  393 209 
                                                                                
