 2010  8 7 1558  0.9 L   7.385 -73.238128.5  RSN  7 0.4 1.9LRSN                1
 GAP=131        0.84       4.7    10.4  8.7 -0.1617E+02 -0.5626E+01  0.4229E+01E
 Epicentro: EL PLAYON - SANTANDER                                              3
 ACTION:UP  10-09-07 10:52 OP:vdl  STATUS:               ID:20100807155800 L   I
 2010-08-07-1553-21S.COL___125                                                 6
 STAT SP IPHASW D HRMM SECON CODA AMPLIT PERI AZIMU VELO SNR AR TRES W  DIS CAZ7
 GIR2 SZ EP   1   1558 18.43                             164    -0.2 7   34 172 
 GIR2 SZ ES   2   1558 32.19                             164    -0.2 5   34 172 
 GUE  SZ EP       1558 19.59                             154    -0.410   60  35 
 GUE  SZ I        1558 19.92        15.9 0.11                            60  35 
 GUE  SZ ES   2   1558 34.80                             154    -0.1 5   60  35 
 BRR  HZ EP   1   1558 19.69                             153     0.1 7   61 240 
 BRR  HN ES   2   1558 34.80                             153     0.6 5   61 240 
 BRR  HZ I        1558 36.33        39.8 0.15                            61 240 
 GRA  SZ EP       1558 21.21                             149     0.710   73  41 
 GRA  SZ ES   2   1558 36.23                             149     0.3 5   73  41 
 GRA  SZ I        1558 38.20        25.6 0.28                            73  41 
 BAR2 SZ EP   1   1558 21.48                             144    -0.2 7   88 176 
 BAR2 SZ ES   2   1558 37.81                             144    -0.1 5   88 176 
 BAR2 SZ I        1558 39.04        44.3 0.16                            88 176 
 OCA  SZ EP   1   1558 21.74                             142    -0.3 7   95 355 
 OCA  SZ ES   2   1558 38.36                             142    -0.2 5   95 355 
 OCA  SZ I        1558 40.40        11.5 0.21                            95 355 
 RUS  HZ EP   1   1558 29.14                             125     0.2 7  166 174 
 RUS  HE ES   2   1558 50.59                             125    -0.2 5  166 174 
 RUS  HZ I        1558 54.15         3.3 0.51                           166 174 
                                                                                
