 2010  8 7 1310  5.2 L   6.791 -73.106141.0  RSN 11 0.4 1.8LRSN                1
 GAP=163        0.72       4.7     8.2  6.3 -0.1005E+02  0.7929E+01  0.4156E+01E
 Epicentro: LOS SANTOS - SANTANDER                                             3
 ACTION:UP  10-09-07 10:52 OP:vdl  STATUS:               ID:20100807131005 L   I
 2010-08-07-1306-46S.COL___124                                                 6
 STAT SP IPHASW D HRMM SECON CODA AMPLIT PERI AZIMU VELO SNR AR TRES W  DIS CAZ7
 BTL  SZ EP       1310 24.34                             171     0.110   23 308 
 BTL  SZ ES   2   1310 38.83                             171    -0.3 5   23 308 
 BAR2 SZ EP   1   1310 24.10                             170    -0.2 7   24 201 
 BAR2 SZ ES   2   1310 38.63                             170    -0.5 5   24 201 
 BAR2 SZ I        1310 41.53        16.6 0.36                            24 201 
 GIR2 SZ EP   1   1310 25.10                             166     0.7 7   33 343 
 BRR  HZ EP   1   1310 26.03                             150    -0.1 7   76 298 
 BRR  HZ I        1310 26.80        11.5 0.16                            76 298 
 BRR  HN ES   2   1310 42.72                             150     0.3 5   76 298 
 RUS  HZ EP   1   1310 28.45                             143     0.0 7   99 179 
 RUS  HN ES   2   1310 47.20                             143     0.7 5   99 179 
 RUS  HZ I        1310 48.50         9.3 0.22                            99 179 
 GUE  SZ EP   1   1310 29.14                             138    -0.4 7  117  10 
 GRA  SZ EP   1   1310 30.06                             136     0.0 7  125  15 
 CHI  HZ EP   1   1310 42.32                             116    -0.4 6  249 196 
 CHI  HZ I        1311 19.31         2.2 0.86                           249 196 
 HEL  HZ EP   1   1310 45.62                             113     0.0 6  276 256 
 HEL  HZ I        1311 24.25         4.0 0.43                           276 256 
 RREF HZ EP   1   1310 51.75                             110     0.3 5  324 230 
 PRA  HZ EP   1   1310 59.05                             106     0.3 4  393 210 
 PRA  HE ES   2   1311 39.59                             106    -0.9 3  393 210 
 PRA  HZ I        1311 46.04         2.3 0.70                           393 210 
                                                                                
