 2015  5 7 1313  4.3 L   6.828 -73.140136.6  RSN 16 0.6 2.5LRSN                1
 GAP= 70        1.41       3.3     3.9  6.4 -0.1918E+01  0.6198E+01  0.1905E+01E
 Epicentro: LOS SANTOS - SANTANDER                                             3
 ACTION:UPD 15-09-10 22:02 OP:cam  STATUS:               ID:20150507131304 L   I
 OLDACT:REG 15-05-07 22:40 OP:stll STATUS:               ID:20150507130748     3
 2015-05-07-1307-48M.COL___282                                                 6
 STAT SP IPHASW D HRMM SECON CODA AMPLIT PERI AZIMU VELO AIN AR TRES W  DIS CAZ7
 BAR2 EZ IP     C 1313 23.12                             169    0.2110 26.4 190 
 BAR2 EZ ES       1313 37.36                             169   -0.0610 26.4 190 
 BAR2 EZ I        1313 38.84        71.9 0.36            166           26.4 190 
 BRR  HZ IP     C 1313 24.89                             151    0.4610 70.3 296 
 BRR  HZ I        1313 25.13        84.1 0.26            145           70.3 296 
 BRR  HN ES       1313 40.71                             151    0.6010 70.3 296 
 PAM  SZ IP     C 1313 26.01                             150    0.6210 74.7  41 
 PAM  SE ES       1313 42.69                             150    0.8610 74.7  41 
 PAM  SZ I        1313 45.21        63.4 0.54            151           74.7  41 
 RUS  HZ EP       1313 27.14                             141   -0.2610  104 176 
 RUS  HE ES       1313 45.23                             141   -0.1810  104 176 
 RUS  HZ I        1313 47.50        22.0 0.16            140            104 176 
 TAM  HZ IP     D 1313 31.48                             128    0.18 9  155 106 
 TAM  HE ES       1313 51.97                             128   -0.39 9  155 106 
 OCA  HZ EP       1313 31.43                             128   -0.21 9  157 353 
 OCA  HE ES       1313 52.73                             128   -0.23 9  157 353 
 OCA  HZ I        1313 56.96        61.1 0.12            125            157 353 
 SPBC HZ EP       1313 32.08                             127   -0.31 9  166 218 
 SPBC HE ES       1313 53.89                             127   -0.41 9  166 218 
 SPBC HZ I        1314  0.14        47.2 0.22            123            166 218 
 ZAR  HZ EP       1313 35.95                             121   -0.17 9  203 291 
 ZAR  HN ES       1314  0.45                             121   -0.47 9  203 291 
 ZAR  HZ I        1314  7.62        46.3 0.30            117            203 291 
 NOR  HZ EP       1313 39.31                             116   -0.47 8  237 234 
 NOR  HE ES       1314  7.06                             116   -0.37 8  237 234 
 NOR  HZ I        1314 10.92        31.7 0.30            113            237 234 
 SML  HZ EP       1313 40.04                             116   -0.13 8  241 335 
 SML  HN ES       1314  6.73                             116   -1.40 8  241 335 
 SML  HZ I        1314 16.82        21.3 0.26            113            241 335 
 CHI  HZ EP     D 1313 41.68                             115   -0.18 8  252 195 
 CHI  HN ES       1314 10.22                             115   -0.93 8  252 195 
 CHI  HZ I        1314 16.03         9.3 0.26            113            252 195 
 HEL  HZ EP       1313 45.62                             113    1.39 8  273 255 
 HEL  HZ I        1314 21.53        14.7 0.36            110            273 255 
 SOCV BZ EP     D 1313 45.85                             111   -0.86 7  299  57 
 GUY2CHZ EP       1313 48.70                             110    0.93 7  303 234 
 GUY2CHN ES       1314 21.72                             110    0.05 7  303 234 
 GUY2CHZ I        1314 29.45        17.6 0.34                           303 234 
 RREF HZ EP       1313 51.88                             109    1.52 7  324 229 
 RREF HN ES       1314 25.70                             109   -0.57 7  324 229 
 RREF HZ I        1314 36.66         5.9 0.28            107            324 229 
 ORTC HZ EP       1313 58.32                             105    0.05 6  398 216 
 ORTC HN ES       1314 41.15                             105    0.80 6  398 216 
 ORTC HZ I        1314 47.50         6.0 0.44            103            398 216 
                                                                                
