 2016  5 7 1712 33.9 L   6.771 -73.135136.6  RSN  6 0.4 1.5LRSN                1
 GAP=236        0.50       5.5     5.9  5.8  0.1246E+02  0.7354E+01 -0.4719E+00E
 Epicentro: LOS SANTOS - SANTANDER                                             3
 ACTION:UPD 16-08-18 17:43 OP:cam  STATUS:               ID:20160507171233 L   I
 OLDACT:REG 16-05-07 20:39 OP:dnl  STATUS:               ID:20160507170743     3
 2016-05-07-1707-43M.COL___307                                                 6
 STAT SP IPHASW D HRMM SECON CODA AMPLIT PERI AZIMU VELO AIN AR TRES W  DIS CAZ7
 BAR2 EZ EP       1712 52.08                             171   -0.2510 20.5 195 
 BAR2 EZ ES       1713  6.84                             171    0.1010 20.5 195 
 BAR2 EZ I        1713  9.54         4.4 0.22             92           20.5 195 
 BRR  HZ EP   2   1712 54.09                             150   -0.10 5 73.8 300 
 BRR  HN ES   2   1713 10.37                             150    0.33 5 73.8 300 
 RUS  HZ EP   2   1712 56.24                             143   -0.24 5 97.3 177 
 RUS  HN ES   2   1713 14.55                             143    0.43 5 97.3 177 
 RUS  HZ I        1713 16.33         3.6 0.44             92           97.3 177 
 PTB  HZ EP   3   1713  0.80                             130    0.65 2  148 260 
 PTB  HN ES   3   1713 19.23                             130   -1.43 2  148 260 
 PTB  HZ I        1714 23.99         4.8 0.20             91            148 260 
 SPBC HZ EP   3   1713  2.42                             127    0.91 2  161 220 
 SPBC HE ES   2   1713 23.01                             127   -0.06 5  161 220 
 SPBC HZ I        1713 26.48         5.4 0.10             91            161 220 
 ZAR  HZ EP   3   1713  6.20                             120    0.23 2  206 293 
 ZAR  HN ES   2   1713 31.29                             120    0.27 4  206 293 
 ZAR  HZ I        1713 37.04         3.7 0.28             91            206 293 
                                                                                
