 2017  7 7 1809 25.1 L   6.733 -73.111135.4  RSN  7 0.4 1.7LRSN                1
 GAP=173        0.94       5.5     4.4  6.5 -0.9588E+01  0.8444E+01  0.4936E+01E
 Epicentro: JORDAN - SANTANDER                                                 3
 ACTION:UPD 17-08-30 15:30 OP:rebc STATUS:               ID:20170707180925 L   I
 OLDACT:REG 17-07-07 21:24 OP:edw  STATUS:               ID:20170707180740     3
 2017-07-07-1808-00M.COL___383                                                 6
 STAT SP IPHASW D HRMM SECON CODA AMPLIT PERI AZIMU VELO AIN AR TRES W  DIS CAZ7
 BAR2 EZ EP     C 18 9 43.29                             172   -0.1110 17.5 207 
 BAR2 EZ ES       18 9 57.71                             172    0.0610 17.5 207 
 BAR2 EZ I        18 9 58.95        13.1 0.36            170           17.5 207 
 BRR  HZ EP       18 9 45.21                             148   -0.3910 78.2 302 
 BRR  HE ES       1810  2.32                             148    0.7510 78.2 302 
 BRR  HZ I        1810  6.91         9.8 0.12            144           78.2 302 
 PAM  EZ EP       18 9 46.36                             148   -0.1210 81.0  34 
 PAM  EE ES       1810  3.00                             148   -0.1410 81.0  34 
 PAM  EZ I        1810  3.70         7.6 0.17            148           81.0  34 
 PTB  HZ EP   4   18 9 50.24                             129   -1.27 0  150 262 
 PTB  HE ES       1810 11.70                             129   -0.39 9  150 262 
 PTB  HZ I        1810 14.73         5.8 0.10            129            150 262 
 ZAR  HZ EP       18 9 58.11                             119    0.51 8  210 294 
 ZAR  HE ES       1810 22.46                             119   -0.47 8  210 294 
 ZAR  HZ I        1810 30.31         7.3 0.30            119            210 294 
 NOR  HN ES       1810 27.46                             116   -0.03 8  234 236 
 GUY2CHZ EP       1810  8.78                             110    0.62 7  300 236 
 GUY2CHE ES       1810 41.68                             110   -0.05 7  300 236 
 GUY2CHZ I        1810 48.69         3.4 0.24                           300 236 
                                                                                
