 2013 12 7 1137 34.3 L   6.825 -73.176140.3  RSN 19 0.5 2.9LRSN 3.3WRSN        1
 SPEC AVERAGE  MO 14.0 ST 68.0 OM  2.6 f0 7.17 R0.2749 AL 0.00 WI 34.3 MW  3.3 3
 SPEC SD       MO  0.2 ST 54.2 OM  0.3 f0 2.98 R0.1444 AL      WI      MW  0.1 3
 GAP= 69        1.11       2.9     4.4  5.7 -0.3460E+01  0.1010E+02 -0.9387E+00E
 Epicentro: LOS SANTOS - SANTANDER                                             3
 SPEC HEL HH E MO 14.1 ST 13.4 OM  2.2 f0 4.57 R0.3400 AL 0.00 WI 31.7 MW  3.3 3
 SPEC HEL HH E T113841 K 0.000 GD  304 VS 4.20 DE 3.20 Q0300.0 QA 0.60 VS 4.20 3
 SPEC SML HH N MO 13.7 ST 64.3 OM  1.9 f0 10.0 R0.1554 AL 0.00 WI 47.6 MW  3.1 3
 SPEC SML HH N T113838 K 0.000 GD  278 VS 4.20 DE 3.20 Q0300.0 QA 0.60 VS 4.20 3
 SPEC NOR HH E MO 14.1 ST158.5 OM  2.3 f0 10.0 R0.1554 AL 0.00 WI 29.9 MW  3.4 3
 SPEC NOR HH E T113836 K 0.000 GD  272 VS 4.20 DE 3.20 Q0300.0 QA 0.60 VS 4.20 3
 SPEC OCA HH N MO 14.3 ST 76.4 OM  2.6 f0 6.79 R0.2289 AL 0.00 WI 35.2 MW  3.5 3
 SPEC OCA HH N T113822 K 0.000 GD  210 VS 4.20 DE 3.20 Q0300.0 QA 0.60 VS 4.20 3
 SPEC PTB HH N MO 14.0 ST111.0 OM  2.3 f0 9.82 R0.1582 AL 0.00 WI 35.2 MW  3.3 3
 SPEC PTB HH N T113820 K 0.000 GD  201 VS 4.20 DE 3.20 Q0300.0 QA 0.60 VS 4.20 3
 SPEC RUS HH E MO 13.8 ST  2.4 OM  2.2 f0 3.11 R0.4997 AL 0.00 WI 51.7 MW  3.2 3
 SPEC RUS HH E T113814 K 0.000 GD  174 VS 4.20 DE 3.20 Q0300.0 QA 0.60 VS 4.20 3
 SPEC PAM SH N MO 14.1 ST  4.3 OM  2.5 f0 3.07 R0.5062 AL 0.00 WI 17.0 MW  3.3 3
 SPEC PAM SH N T113812 K 0.000 GD  160 VS 4.20 DE 3.20 Q0300.0 QA 0.60 VS 4.20 3
 SPEC BRR HH N MO 14.0 ST113.7 OM  2.4 f0 10.0 R0.1554 AL 0.00 WI 26.4 MW  3.3 3
 SPEC BRR HH N T113811 K 0.000 GD  155 VS 4.20 DE 3.20 Q0300.0 QA 0.60 VS 4.20 3
 ACTION:UPD 14-01-13 10:16 OP:ep   STATUS:               ID:20131207113734 L   I
 OLDACT:UP  13-12-07 16:58 OP:cam  STATUS:               ID:20131207113000     3
 OLDACT:UP  13-12-07 16:58 OP:cam  STATUS:               ID:20131207113000     3
 OLDACT:REG 13-12-07 15:06 OP:cam  STATUS:               ID:20131207113000     3
 2013-12-07-1130-00M.COL___285                                                 6
 STAT SP IPHASW D HRMM SECON CODA AMPLIT PERI AZIMU VELO AIN AR TRES W  DIS CAZ7
 BAR2 SZ IP       1137 53.21                             169   -0.0710 25.7 182 
 BAR2 SZ ES       1138  7.86                             169   -0.2510 25.7 182 
 BAR2 SZ I        1138 12.30       225.5 0.28            168           25.7 182 
 BRR  HZ IP     C 1137 55.19                             153    0.6210 67.0 298 
 BRR  HN ES   4   1138 12.07                             153    1.65 0 67.0 298 
 BRR  HZ I        1138 16.34       135.6 0.18            149           67.0 298 
 PAM  SZ EP       1137 56.23                             150    0.3410 77.5  43 
 PAM  SN ES       1138 13.09                             150    0.3210 77.5  43 
 PAM  SZ I        1138 13.61       131.0 0.34            156           77.5  43 
 RUS  HZ IP       1137 57.06                             142   -0.6310  104 174 
 RUS  HE ES       1138 15.79                             142   -0.1910  104 174 
 RUS  HZ I        1138 17.82        52.6 0.36            148            104 174 
 PTB  HZ EP       1137 59.88                             131   -0.65 9  145 258 
 PTB  HN ES       1138 21.58                             131    0.55 9  145 258 
 PTB  HZ I        1138 26.19       124.6 0.26            131            145 258 
 OCA  HZ EP       1138  1.95                             129    0.10 9  157 354 
 OCA  HN ES       1138 23.17                             129   -0.20 9  157 354 
 OCA  HZ I        1138 28.46        86.4 0.40            132            157 354 
 TAM  HZ EP   2   1138  1.60                             128   -0.27 5  159 106 
 SPBC HZ EP       1138  2.11                             128   -0.24 9  163 217 
 SPBC HE ES       1138 24.55                             128    0.29 9  163 217 
 SPBC HZ I        1138 31.30       114.8 0.20            130            163 217 
 ZAR  HZ EP       1138  6.30                             122    0.38 9  200 292 
 ZAR  HE ES   4   1138 32.43                             122    1.82 0  200 292 
 ZAR  HZ I        1138 42.09        87.3 0.30            123            200 292 
 NOR  HZ EP       1138  9.15                             117   -0.40 8  234 233 
 NOR  HE ES       1138 37.01                             117   -0.08 8  234 233 
 NOR  HZ I        1138 39.07        93.5 0.24            120            234 233 
 SML  HZ EP       1138 10.07                             117   -0.08 8  240 336 
 SML  HN ES       1138 37.70                             117   -0.45 8  240 336 
 SML  HZ I        1138 48.21        71.4 0.22            119            240 336 
 CHI  HZ EP       1138 11.37                             116   -0.48 8  250 194 
 ROSC BZ EP       1138 13.17                             115    1.02 8  253 210 
 HEL  HZ EP       1138 14.82                             114    0.91 8  270 255 
 HEL  HE ES       1138 43.76                             114   -1.08 8  270 255 
 HEL  HZ I        1138 52.20        82.6 0.50            116            270 255 
 GUY2CHZ EP       1138 17.79                             111    0.30 7  300 234 
 RREF HZ EP   2   1138 20.34                             110    0.26 3  321 229 
 CBOC HZ EP       1138 21.27                             109    0.59 7  331 251 
 DBB  SZ EP   4   1138 19.69                             109   -1.41 0  336 274 
 PRA  HZ EP       1138 27.73                             105    0.05 6  393 209 
 PRA  HN ES       1139  9.41                             105    0.06 6  393 209 
 PRA  HZ I        1139 17.78        32.4 0.28            109            393 209 
 ORTC HZ EP   4   1138 27.65                             105   -0.37 0  396 216 
 PAL  HZ EP   4   1138 29.39                             105    0.32 0  404 238 
 SJC  HZ EP       1138 28.17                             105   -0.98 6  405 327 
 SJC  HN ES   4   1139  9.50                             105   -2.47 0  405 327 
 SJC  HZ I        1139 13.58        10.6 0.38            107            405 327 
                                                                                
