 2012 12 7 1409 51.5 L   6.806 -73.167141.6  RSN 12 0.4 2.9LRSN                1
 GAP= 70        0.87       2.3     3.1  4.8 -0.4187E+00  0.4152E+01  0.4245E+00E
 Epicentro: LOS SANTOS - SANTANDER                                             3
 ACTION:UPD 13-01-04 14:26 OP:ep   STATUS:               ID:20121207140951 L   I
 2012-12-07-1408-49M.COL___208                                                 6
 STAT SP IPHASW D HRMM SECON CODA AMPLIT PERI AZIMU VELO AIN AR TRES W  DIS CAZ7
 BAR2 SZ EP       1410 10.71                             170    0.1210 23.7 184 
 BAR2 SZ ES       1410 25.43                             170   -0.0810 23.7 184 
 BAR2 SZ I        1410 27.13       188.4 0.20                          23.7 184 
 PAM  SZ EP       1410 13.67                             150    0.3810 78.4  41 
 PAM  SN ES       1410 30.74                             150    0.4210 78.4  41 
 PAM  SN I        1410 31.97       109.1 0.62                          78.4  41 
 RUS  HZ EP       1410 14.57                             143   -0.2910  101 175 
 RUS  HN ES       1410 32.89                             143   -0.2310  101 175 
 RUS  HN I        1410 34.30        73.0 0.20                           101 175 
 PTB  HZ EP       1410 17.45                             131   -0.43 9  146 258 
 PTB  HN ES       1410 38.02                             131   -0.47 9  146 258 
 PTB  HN I        1410 40.12        78.6 0.30                           146 258 
 TAM  HZ EP       1410 18.91                             129   -0.13 9  158 105 
 OCA  HZ EP       1410 19.03                             129   -0.32 9  159 354 
 OCA  HN ES       1410 41.10                             129    0.00 9  159 354 
 OCA  HN I        1410 44.41       328.6 0.30                           159 354 
 ZAR  HZ EP       1410 23.39                             122    0.02 9  202 292 
 ZAR  HN ES       1410 48.90                             122    0.64 9  202 292 
 ZAR  HN I        1410 49.84       108.0 0.20                           202 292 
 NOR  HZ EP       1410 26.55                             118   -0.22 8  233 234 
 NOR  HN ES       1410 54.46                             118    0.13 8  233 234 
 NOR  HN I        1410 59.58       108.7 0.16                           233 234 
 SML  HZ EP   1   1410 27.89                             117    0.22 6  242 336 
 SML  HN ES       1410 55.28                             117   -0.63 8  242 336 
 SML  HN I        1411  1.74       163.2 0.10                           242 336 
 CHI  HZ EP       1410 28.70                             116   -0.23 8  249 195 
 CHI  HE ES       1410 58.59                             116    0.43 8  249 195 
 CHI  HN I        1411  3.52        40.1 0.36                           249 195 
 ROSC BZ EP       1410 29.55                             116    0.27 8  252 210 
 ROSC BZ I        1411  6.39        36.8 0.35                           252 210 
 HEL  HZ EP       1410 31.97                             114    0.76 8  270 256 
 HEL  HN I        1411 10.40        22.8 0.30                           270 256 
                                                                                
