 2016 12 7 1032  5.7 L   6.766 -73.154147.5  RSN  8 0.3 1.8LRSN                1
 GAP=137        0.87       3.5     3.9  5.8  0.1168E+01  0.4101E+01  0.4804E+01E
 Epicentro: LOS SANTOS - SANTANDER                                             3
 ACTION:UPD 17-01-11 20:13 OP:rebc STATUS:               ID:20161207103205 L   I
 OLDACT:UP  16-12-07 21:34 OP:dnl  STATUS:               ID:20161207102744     3
 OLDACT:REG 16-12-07 20:59 OP:dnl  STATUS:               ID:20161207102744     3
 2016-12-07-1028-00M.COL___358                                                 6
 STAT SP IPHASW D HRMM SECON CODA AMPLIT PERI AZIMU VELO AIN AR TRES W  DIS CAZ7
 BAR2 EZ EP       1032 25.43                             172    0.0010 19.5 189 
 BAR2 EZ ES       1032 40.58                             172   -0.2710 19.5 189 
 BAR2 EZ I        1032 41.52        16.2 0.40            168           19.5 189 
 BRR  HZ EP       1032 27.41                             152    0.3510 72.3 301 
 BRR  HN ES       1032 44.42                             152    0.6710 72.3 301 
 BRR  HZ I        1032 45.82        12.4 0.50            151           72.3 301 
 PAM  EZ EP       1032 28.43                             150    0.1610 80.9  38 
 PAM  EN ES       1032 45.57                             150   -0.3310 80.9  38 
 PAM  EZ I        1032 47.63        10.9 0.50            155           80.9  38 
 RUS  HZ EP       1032 29.31                             145   -0.0110 96.9 175 
 RUS  HN ES       1032 47.80                             145    0.0210 96.9 175 
 RUS  HZ I        1032 49.86        13.2 0.88            144           96.9 175 
 PTB  HZ EP       1032 32.12                             133   -0.51 9  146 260 
 PTB  HE ES       1032 53.74                             133    0.07 9  146 260 
 PTB  HZ I        1032 59.89         7.0 0.32            131            146 260 
 ZAR  HZ EP   4   1032 32.72                             123   -5.57 0  205 293 
 ZAR  HN ES       1033  3.23                             123   -0.50 9  205 293 
 ZAR  HZ I        1033  8.81         6.9 0.46            122            205 293 
 CHI  HZ EP       1032 43.44                             118    0.40 8  245 195 
 CHI  HE ES       1033 12.04                             118   -0.15 8  245 195 
 CHI  HZ I        1033 21.54         4.3 0.64            118            245 195 
 SJC  HZ EP   4   1032 59.55                             106   -2.04 0  412 327 
 SJC  HE ES   4   1033 41.98                             106   -3.24 0  412 327 
 SJC  HZ I        1033 46.03         2.2 0.76            106            412 327 
                                                                                
