 2017  4 7 1021 20.5 L   6.773 -73.126150.8  RSN  4 0.3 1.2LRSN                1
 GAP=237        0.75       6.9     6.1  6.4  0.2292E+02  0.5359E+01  0.6571E+01E
 Epicentro: LOS SANTOS - SANTANDER                                             3
 ACTION:UPD 17-05-30 21:09 OP:jn   STATUS:               ID:20170407102120 L   I
 OLDACT:REG 17-04-07 19:59 OP:ar   STATUS:               ID:20170407101738     3
 2017-04-07-1018-00M.COL___368                                                 6
 STAT SP IPHASW D HRMM SECON CODA AMPLIT PERI AZIMU VELO AIN AR TRES W  DIS CAZ7
 BAR2 EZ EP       1021 40.56                             172   -0.1110 21.0 197 
 BAR2 EZ ES       1021 55.95                             172   -0.4610 21.0 197 
 BAR2 EZ I        1021 56.54         3.4 0.26            170           21.0 197 
 BRR  HE ES       1021 59.83                             152    0.4110 74.5 300 
 RUS  HZ EP       1021 44.55                             146    0.0410 97.5 177 
 RUS  HN ES       1022  3.57                             146    0.3210 97.5 177 
 RUS  HZ I        1022  4.00         2.0 0.32            145           97.5 177 
 PTB  HZ EP       1021 47.97                             133   -0.03 9  149 260 
 PTB  HE ES       1022  9.27                             133   -0.20 9  149 260 
 PTB  HZ I        1022 10.47         2.0 0.32            132            149 260 
                                                                                
