 2013  8 7 1815 10.3 L   6.723 -73.162145.4  RSN  6 0.4 1.5LRSN                1
 GAP=152        0.91       6.9     5.5  7.4 -0.2490E+01  0.4869E+01 -0.6499E+01E
 Epicentro: VILLANUEVA - SANTANDER                                             3
 ACTION:UPD 14-01-14 09:00 OP:ep   STATUS:               ID:20130807181510 L   I
 OLDACT:REG 13-08-07 14:30 OP:jn   STATUS:               ID:20130807180959     3
 2013-08-07-1809-59M.COL___270                                                 6
 STAT SP IPHASW D HRMM SECON CODA AMPLIT PERI AZIMU VELO AIN AR TRES W  DIS CAZ7
 BAR2 SZ EP       1815 29.89                             174    0.1810 14.6 189 
 BAR2 SZ ES       1815 44.49                             174   -0.3810 14.6 189 
 BAR2 SZ I        1815 45.84         5.5 0.18            174           14.6 189 
 BRR  HZ EP       1815 31.75                             151    0.2010 74.2 305 
 BRR  HN ES       1815 48.66                             151    0.5210 74.2 305 
 BRR  HZ I        1815 53.43         6.7 0.56            147           74.2 305 
 PAM  SZ EP   1   1815 32.68                             148   -0.25 7 85.2  37 
 PTB  HZ EP       1815 36.54                             133   -0.38 9  145 262 
 PTB  HN ES       1815 57.24                             133   -0.46 9  145 262 
 PTB  HZ I        1815 59.55         3.7 0.48            133            145 262 
 SPBC HN ES   1   1816  0.33                             130    0.67 7  155 220 
 ZAR  HZ EP   1   1815 43.24                             122    0.37 6  206 295 
 ZAR  HN ES   1   1816  8.01                             122   -0.29 6  206 295 
 ZAR  HZ I        1816 13.99         4.3 0.30            122            206 295 
                                                                                
