 2011 11 7 1408 32.6 L   6.811 -73.131144.6  RSN  5 0.2 1.5LRSN                1
 GAP=138        0.35       2.9     3.6  4.0  0.3936E+01  0.6857E-02 -0.2731E+00E
 Epicentro: LOS SANTOS - SANTANDER                                             3
 ACTION:UPD 12-07-13 16:08 OP:ep   STATUS:               ID:20111107140832 L   I
 2011-11-07-1405-00M.COL___176                                                 6
 STAT SP IPHASW D HRMM SECON CODA AMPLIT PERI AZIMU VELO AIN AR TRES W  DIS CAZ7
 BAR2 SZ EP   1   14 8 52.17                             170    0.03 7 24.8 193 
 BAR2 SZ ES   1   14 9  7.28                             170   -0.08 7 24.8 193 
 BAR2 SZ I        14 9  9.16         6.7 0.26                          24.8 193 
 BRR  HZ EP   1   14 8 53.73                             152    0.04 7 72.1 297 
 BRR  HZ I        14 9  0.26        10.1 0.33                          72.1 297 
 BRR  HE ES   1   14 9 10.35                             152    0.22 7 72.1 297 
 PAM  SZ EP   2   14 8 54.65                             151    0.06 5 75.4  39 
 PAM  SN ES   2   14 9 11.54                             151   -0.19 5 75.4  39 
 RUS  HZ EP   1   14 8 56.37                             143    0.04 7  102 177 
 RUS  HN ES   1   14 9 14.79                             143   -0.04 7  102 177 
 RUS  HZ I        14 9 16.54         2.7 0.45                           102 177 
 ZAR  HN ES   2   14 9 29.97                             122   -0.47 4  205 292 
                                                                                
