 2011  2 7 1920 48.2 L   6.784 -73.144147.1  RSN  5 0.2 1.9LRSN                1
 GAP=219        0.50       5.2     5.7  5.6 -0.5549E+01  0.1122E+02  0.3432E+01E
 Epicentro: LOS SANTOS - SANTANDER                                             3
 ACTION:UP  11-03-28 15:06 OP:jfem STATUS:               ID:20110207192048 L   I
 2011-02-07-1920-00M.COL___139                                                 6
 STAT SP IPHASW D HRMM SECON CODA AMPLIT PERI AZIMU VELO SNR AR TRES W  DIS CAZ7
 BTL  SZ EP   1   1921  8.12                             172     0.2 7   20 317 
 BTL  SZ ES   2   1921 23.14                             172    -0.2 5   20 317 
 BAR2 SZ EP   1   1921  7.86                             171    -0.1 7   22 192 
 BAR2 SZ ES   2   1921 23.64                             171     0.3 5   22 192 
 BAR2 SZ I        1921 25.69        18.3 0.19                            22 192 
 RUS  HZ EP   1   1921 11.55                             145    -0.4 7   99 176 
 RUS  HE ES   1   1921 30.56                             145     0.1 7   99 176 
 RUS  HZ I        1921 31.68        10.2 0.30                            99 176 
 NOR  SZ EP   1   1921 24.04                             119     0.1 6  234 235 
 NOR  SN ES   1   1921 51.66                             119    -0.1 6  234 235 
 CHI  HZ EP   1   1921 26.08                             118     0.3 6  247 195 
 CHI  HZ I        1922  3.37         5.2 0.45                           247 195 
                                                                                
