 2015 10 7 1636 11.7 L   6.789 -73.129147.3  RSN 13 0.4 2.1LRSN                1
 GAP=139        0.96       2.7     3.6  5.1 -0.2725E+00  0.6874E+01  0.1114E+01E
 Epicentro: LOS SANTOS - SANTANDER                                             3
 ACTION:UPD 15-12-22 20:38 OP:cam  STATUS:               ID:20151007163611 L   I
 OLDACT:REG 15-10-07 21:34 OP:ak   STATUS:               ID:20151007162748     3
 2015-10-07-1627-48M.COL___322                                                 6
 STAT SP IPHASW D HRMM SECON CODA AMPLIT PERI AZIMU VELO AIN AR TRES W  DIS CAZ7
 BAR2 EZ EP       1636 31.59                             171    0.0510 22.5 195 
 BAR2 EZ ES       1636 46.58                             171   -0.3910 22.5 195 
 BAR2 EZ I        1636 49.22        33.0 0.30            169           22.5 195 
 BRR  HZ EP       1636 33.52                             152    0.3410 73.4 299 
 BRR  HN ES       1636 50.63                             152    0.7310 73.4 299 
 BRR  HZ I        1636 51.90        19.9 0.15            151           73.4 299 
 PAM  EZ EP       1636 34.25                             151    0.1510 77.2  38 
 PAM  EN ES       1636 51.66                             151    0.1110 77.2  38 
 PAM  EZ I        1636 53.67        15.1 0.56            155           77.2  38 
 RUS  HZ EP       1636 35.61                             144    0.0710 99.2 177 
 RUS  HE ES       1636 54.08                             144   -0.0310 99.2 177 
 RUS  HZ I        1636 57.07        10.1 0.30            146           99.2 177 
 SPBC HZ EP       1636 40.37                             129   -0.01 9  163 220 
 SPBC HN ES       1637  2.49                             129   -0.22 9  163 220 
 SPBC HZ I        1637  5.31        24.8 0.34            130            163 220 
 ZAR  HZ EP       1636 44.96                             122    0.45 8  206 292 
 ZAR  HN ES       1637 10.07                             122   -0.00 8  206 292 
 ZAR  HZ I        1637 16.08        14.8 0.22            123            206 292 
 NOR  HZ EP       1636 47.86                             119    0.22 8  236 235 
 NOR  HN ES       1637 15.43                             119   -0.22 8  236 235 
 NOR  HZ I        1637 20.25        10.8 0.36            119            236 235 
 SML  HZ EP       1636 47.88                             118   -0.78 8  246 335 
 SML  HE ES       1637 16.74                             118   -0.71 8  246 335 
 SML  HZ I        1637 19.80        21.4 0.24            119            246 335 
 CHI  HZ EP       1636 49.11                             117   -0.34 8  248 196 
 CHI  HN ES       1637 18.15                             117   -0.71 8  248 196 
 CHI  HZ I        1637 28.74         6.5 0.34            119            248 196 
 HEL  HZ EP   2   1636 52.11                             115   -0.09 4  274 256 
 HEL  HE ES       1637 23.41                             115   -0.34 8  274 256 
 URE  HZ EP   4   1636 51.91                             114   -1.22 0  286 292 
 URE  HE ES       1637 24.96                             114   -0.45 7  286 292 
 URE  HZ I        1637 34.87        10.1 0.18            115            286 292 
 GUY2CHZ EP       1636 56.18                             113    0.67 7  302 235 
 GUY2CHN ES       1637 30.21                             113    0.56 7  302 235 
 GUY2CHZ I        1637 40.31         6.6 0.52                           302 235 
 ORTC HZ EP       1637  6.47                             107    0.75 6  396 216 
 CRJC HZ EP   4   1637 11.27                             103   -3.15 0  469   3 
                                                                                
