 2013  3 7 1800 31.6 L   6.809 -73.117147.6  RSN  9 0.5 2.6LRSN                1
 GAP=140        1.26       3.8     6.5  7.4  0.2674E+01  0.1258E+02  0.1103E+01E
 Epicentro: LOS SANTOS - SANTANDER                                             3
 ACTION:UPD 13-04-09 14:00 OP:ep   STATUS:               ID:20130307180031 L   I
 2013-03-07-1800-00M.COL___231                                                 6
 STAT SP IPHASW D HRMM SECON CODA AMPLIT PERI AZIMU VELO AIN AR TRES W  DIS CAZ7
 BAR2 SZ IP       18 0 51.58                             170    0.0910 25.1 197 
 BAR2 SZ I        18 0 52.08        62.0 0.16            171           25.1 197 
 BAR2 SZ ES       18 1  6.83                             170   -0.1710 25.1 197 
 BRR  HZ IP     C 18 0 53.39                             152    0.3110 73.5 297 
 BRR  HZ I        18 0 53.66        32.1 0.26            152           73.5 297 
 BRR  HN ES       18 1 10.80                             152    0.9710 73.5 297 
 PAM  SZ EP       18 0 54.25                             152    0.3910 74.6  38 
 PAM  SZ I        18 0 54.62        58.6 0.22            151           74.6  38 
 PAM  SN ES       18 1 11.15                             152   -0.0610 74.6  38 
 RUS  HZ EP       18 0 55.92                             144    0.3210  101 178 
 RUS  HN ES       18 1 13.72                             144   -0.5910  101 178 
 PTB  HZ EP       18 0 58.13                             132   -0.89 9  151 259 
 OCA  HZ EP       18 1  0.35                             130    0.35 9  160 352 
 OCA  HN ES       18 1 21.46                             130   -0.69 9  160 352 
 OCA  HE I        18 1 25.66       119.7 0.18            130            160 352 
 ZAR  HZ EP   1   18 1  5.38                             122    0.95 6  207 292 
 ZAR  HE ES       18 1 29.90                             122   -0.13 8  207 292 
 SML  HZ EP   1   18 1  7.89                             118   -0.49 6  244 335 
 SML  HN ES   1   18 1 36.10                             118   -0.96 6  244 335 
 CHI  HZ EP       18 1  9.70                             117    0.10 8  250 196 
 CHI  HE ES       18 1 39.18                             117   -0.06 8  250 196 
                                                                                
