 2017  5 7 1204 48.7 L   6.823 -73.161151.2  RSN 18 0.6 2.2LRSN                1
 GAP=110        1.11       2.9     3.4  5.6  0.8167E-01  0.8061E+00  0.1960E+01E
 Epicentro: LOS SANTOS - SANTANDER                                             3
 ACTION:UPD 17-06-16 13:33 OP:jn   STATUS:               ID:20170507120448 L   I
 OLDACT:UP  17-05-07 21:38 OP:and  STATUS:               ID:20170507114627     3
 OLDACT:UP  17-05-07 21:37 OP:and  STATUS:               ID:20170507114627     3
 OLDACT:UP  17-05-07 21:35 OP:and  STATUS:               ID:20170507114627     3
 OLDACT:UP  17-05-07 21:35 OP:and  STATUS:               ID:20170507114627     3
 OLDACT:UP  17-05-07 21:32 OP:and  STATUS:               ID:20170507114627     3
 OLDACT:UP  17-05-07 21:32 OP:and  STATUS:               ID:20170507114627     3
 OLDACT:REG 17-05-07 20:01 OP:and  STATUS:               ID:20170507114627     3
 2017-05-07-1158-00M.COL___373                                                 6
 STAT SP IPHASW D HRMM SECON CODA AMPLIT PERI AZIMU VELO AIN AR TRES W  DIS CAZ7
 BRR  HZ EP       12 5 10.68                             154    0.3810 68.5 297 
 BRR  HN ES       12 5 27.95                             154    0.8010 68.5 297 
 BRR  HZ I        12 5 29.68        17.2 0.10            152           68.5 297 
 PAM  EZ IP     D 12 5 11.88                             152    0.4310 76.5  42 
 PAM  EN ES       12 5 28.74                             152   -0.4510 76.5  42 
 PAM  EZ I        12 5 31.10        36.8 0.50            156           76.5  42 
 RUS  HZ EP       12 5 13.14                             144   -0.0510  103 175 
 RUS  HN ES       12 5 31.81                             144   -0.4710  103 175 
 RUS  HZ I        12 5 32.68        20.6 0.22            144            103 175 
 PTB  HZ EP   2   12 5 15.24                             133   -0.78 5  147 258 
 PTB  HN ES       12 5 36.51                             133   -0.82 9  147 258 
 PTB  HZ I        12 5 43.70        12.8 0.66            131            147 258 
 SPBC HZ EP       12 5 18.01                             130    0.29 9  164 218 
 SPBC HN ES       12 5 40.19                             130   -0.16 9  164 218 
 SPBC HZ I        12 5 42.67        25.2 0.18            129            164 218 
 YPLC HZ EP       12 5 19.29                             127    0.10 9  180 151 
 YPLC HE ES       12 5 43.64                             127    0.66 9  180 151 
 YPLC HZ I        12 5 44.27        24.2 0.28            128            180 151 
 ZAR  HZ EP       12 5 21.53                             124    0.28 9  202 292 
 ZAR  HN ES       12 5 46.22                             124   -0.42 9  202 292 
 ZAR  HZ I        12 5 52.46        11.6 0.38            123            202 292 
 TABC EZ EP   9   12 5 26.47                             120    1.54 0  231 210 
 TABC EZ ES       12 5 54.84                             119    0.11 8  231 210 
 NOR  HZ EP       12 5 25.11                             120    0.34 8  235 234 
 NOR  HN ES       12 5 53.30                             120    0.39 8  235 234 
 NOR  HZ I        12 5 55.44         9.6 0.18            119            235 234 
 CHI  HZ EP       12 5 27.21                             118    0.28 8  251 195 
 CHI  HN ES       12 5 56.17                             118   -0.58 8  251 195 
 CHI  HZ I        12 5 59.92         8.4 0.50            118            251 195 
 ROSC BZ EP   9   12 5 28.94                             118    1.67 0  254 210 
 ROSC BN ES       12 5 59.54                             117    0.51 8  254 210 
 ROSC BZ I        12 6  7.10        12.3 0.35            117            254 210 
 HEL  HZ EP   3   12 5 31.12                             116    2.03 2  271 255 
 HEL  HN ES       12 6  0.86                             116    0.26 8  271 255 
 HEL  HZ I        12 6  6.99         6.7 0.26            115            271 255 
 VIL  EZ EP       12 5 32.61                             113   -0.01 7  306 191 
 VIL  EE ES       12 6  6.80                             113   -0.08 7  306 191 
 VIL  EZ I        12 6 16.61        15.8 0.36            113            306 191 
 PTGC HZ EP       12 5 32.15                             112   -1.00 7  312 159 
 PTGC HN ES   3   12 6  5.83                             112   -1.99 2  312 159 
 ELA  HZ EP   4   12 5 40.06                             111    4.22 0  330 229 
 ELA  HN ES       12 6 11.92                             111   -0.68 7  330 229 
 ELA  HZ I        12 6 23.50         4.5 0.26            111            330 229 
 ORTC HZ EP       12 5 43.89                             107    0.95 6  397 216 
 ORTC HN ES   3   12 6 26.93                             107    1.68 1  397 216 
 ORTC HZ I        12 6 30.14         4.0 0.52            107            397 216 
 SJC  HZ IP     C 12 5 43.12                             107   -0.97 6  406 327 
 SJC  HN ES   3   12 6 24.18                             107   -3.11 1  406 327 
 SJC  HZ I        12 6 31.80         2.6 0.44            107            406 327 
 VALLCHE ES       12 6 27.69                             107    0.17 6  408 359 
                                                                                
