 2011  3 7 1143 40.7 L   6.897 -73.365135.9  RSN  7 0.6 2.0LRSN                1
 GAP=147        1.06       8.4     8.9 13.7  0.1365E+02  0.5550E+02 -0.6233E+01E
 Epicentro: SAN VICENTE DE CHUCURI - SANTANDER                                 3
 ACTION:UP  11-06-16 14:32 OP:jfem STATUS:               ID:20110307114340 L   I
 2011-03-07-1141-27S.COL___135                                                 6
 STAT SP IPHASW D HRMM SECON CODA AMPLIT PERI AZIMU VELO SNR AR TRES W  DIS CAZ7
 BAR2 SZ EP   1   1144  0.53                             163     0.9 8   39 149 
 BAR2 SZ I        1144  0.85        22.2 0.19                            39 149 
 BAR2 SZ ES   1   1144 14.41                             163     0.1 8   39 149 
 RUS  HZ EP       1144  4.59                             138    -0.110  115 164 
 RUS  HN ES   1   1144 23.04                             138    -0.3 7  115 164 
 RUS  HZ I        1144 24.77        15.5 0.34                           115 164 
 OCA  SZ EP   2   1144  6.16                             129    -1.0 5  148   2 
 OCA  SZ I        1144 34.04        14.8 0.33                           148   2 
 HEL  HN ES   2   1144 46.81                             115    -0.6 4  252 252 
 HEL  HZ I        1144 59.22         6.5 0.37                           252 252 
 CHI  HN ES   1   1144 47.59                             115    -0.3 6  254 189 
 CHI  HZ I        1144 51.74         4.6 0.29                           254 189 
 DBB  SZ ES   1   1144 59.62                             109     0.2 5  315 273 
 PRA  HZ EP   3   1144 35.41                             105     1.7 1  390 206 
                                                                                
