 2016  5 7 1608  1.2 L   6.826 -73.124150.1  RSN 18 0.5 2.5LRSN                1
 GAP=138        0.97       3.1     4.2  4.8  0.3421E+00  0.6830E+01  0.2449E+01E
 Epicentro: LOS SANTOS - SANTANDER                                             3
 ACTION:UPD 16-08-18 17:43 OP:cam  STATUS:               ID:20160507160801 L   I
 OLDACT:REG 16-05-07 20:20 OP:dnl  STATUS:               ID:20160507160743     3
 2016-05-07-1607-43M.COL___307                                                 6
 STAT SP IPHASW D HRMM SECON CODA AMPLIT PERI AZIMU VELO AIN AR TRES W  DIS CAZ7
 BAR2 EZ EP       16 8 21.51                             170    0.0810 26.6 194 
 BAR2 EZ ES       16 8 36.51                             170   -0.6910 26.6 194 
 BAR2 EZ I        16 8 37.87        99.3 0.18            166           26.6 194 
 BRR  HZ EP       16 8 23.36                             153    0.4810 72.1 296 
 BRR  HN ES       16 8 40.48                             153    0.7010 72.1 296 
 BRR  HZ I        16 8 44.09        41.9 0.46            149           72.1 296 
 PAM  EN ES       16 8 41.39                             152    0.1910 73.6  39 
 PAM  EZ I        16 8 43.81        36.3 0.60            157           73.6  39 
 RUS  HZ EP       16 8 25.44                             144   -0.1410  103 178 
 RUS  HN ES       16 8 44.80                             144    0.2110  103 178 
 RUS  HZ I        16 8 45.30        30.1 0.32            144            103 178 
 PTB  HZ EP       16 8 28.61                             132   -0.19 9  151 258 
 PTB  HN ES       16 8 49.27                             132   -1.05 9  151 258 
 PTB  HZ I        16 8 51.28        37.0 0.14            130            151 258 
 SPBC HZ EP       16 8 30.49                             129    0.10 9  167 219 
 SPBC HE ES       16 8 53.01                             129   -0.15 9  167 219 
 SPBC HZ I        16 8 55.17        48.2 0.18            128            167 219 
 ZAR  HZ EP   2   16 8 34.02                             123   -0.05 4  205 291 
 ZAR  HE ES       16 9  0.31                             123    0.62 8  205 291 
 ZAR  HZ I        16 9  6.20        29.8 0.34            122            205 291 
 NOR  HZ EP       16 8 37.44                             119   -0.14 8  238 234 
 NOR  HN ES       16 9  5.84                             119   -0.11 8  238 234 
 NOR  HZ I        16 9 10.74        38.0 0.42            118            238 234 
 SML  HZ EP   2   16 8 37.95                             118    0.03 4  242 334 
 SML  HE ES   2   16 9  6.14                             118   -0.41 4  242 334 
 SML  HZ I        16 9  9.31        28.0 0.10            119            242 334 
 CHI  HZ EP       16 8 39.76                             118    0.24 8  252 196 
 CHI  HN ES       16 9  9.10                             118   -0.29 8  252 196 
 CHI  HZ I        16 9 16.11        12.4 0.50            118            252 196 
 ROSC BZ EP   4   16 8 41.24                             117    1.27 0  256 211 
 ROSC BN ES   2   16 9 11.15                             117    0.95 4  256 211 
 ROSC BZ I        16 9 17.53        21.2 0.55            117            256 211 
 HEL  HZ EP   2   16 8 42.74                             115    0.76 4  275 255 
 HEL  HN ES   4   16 9 15.26                             115    1.47 0  275 255 
 HEL  HZ I        16 9 20.17        16.3 0.26            115            275 255 
 URE  HZ EP       16 8 42.27                             114   -0.36 7  285 291 
 URE  HN ES   4   16 9 12.67                             114   -2.27 0  285 291 
 URE  HZ I        16 9 22.04        14.6 0.30            114            285 291 
 DBB  SZ EP   2   16 8 48.99                             110   -0.13 3  342 274 
 DBB  SZ ES   4   16 9 24.81                             110   -1.68 0  342 274 
 DBB  SZ I        16 9 32.84        23.7 0.38            110            342 274 
 PRA  HZ EP       16 8 55.31                             107    0.00 6  396 210 
 PRA  HE ES   2   16 9 37.95                             107    0.44 3  396 210 
 PRA  HZ I        16 9 43.95        13.4 0.52            107            396 210 
 ORTC HZ EP       16 8 56.30                             107    0.59 6  399 216 
 ORTC HN ES   2   16 9 39.36                             107    1.13 3  399 216 
 ORTC HZ I        16 9 46.44        10.1 0.44            107            399 216 
 SJC  HZ EP       16 8 55.71                             106   -1.09 6  408 326 
 SJC  HN ES   4   16 9 36.81                             106   -3.34 0  408 326 
 SJC  HZ I        16 9 40.53         5.5 0.34            107            408 326 
 PAL  HZ EP       16 8 57.30                             106    0.37 6  409 239 
 PAL  HE ES   2   16 9 39.71                             106   -0.68 3  409 239 
 PAL  HZ I        16 9 47.30         5.1 0.22            106            409 239 
                                                                                
