 2013  3 7 1017 22.4 L   6.749 -73.171149.5  RSN  5 0.3 1.4LRSN                1
 GAP=136        0.86       5.0     4.6  6.7 -0.3620E+01  0.5342E+01 -0.2509E+01E
 Epicentro: VILLANUEVA - SANTANDER                                             3
 ACTION:UPD 13-04-09 14:00 OP:ep   STATUS:               ID:20130307101722 L   I
 2013-03-07-1010-00M.COL___231                                                 6
 STAT SP IPHASW D HRMM SECON CODA AMPLIT PERI AZIMU VELO AIN AR TRES W  DIS CAZ7
 BAR2 SZ EP       1017 42.54                             173    0.1410 17.3 184 
 BAR2 SZ ES       1017 58.36                             173    0.3710 17.3 184 
 BAR2 SZ I        1017 59.15         6.9 0.24            171           17.3 184 
 BRR  HZ EP       1017 43.86                             153   -0.1510 71.8 304 
 BRR  HN ES       1018  1.32                             153    0.4710 71.8 304 
 PAM  SZ EP       1017 45.65                             150    0.2410 83.5  39 
 PAM  SZ I        1017 45.85         2.8 0.18            153           83.5  39 
 PAM  SN ES       1018  2.79                             150   -0.5510 83.5  39 
 RUS  HZ EP   2   1017 46.57                             146    0.40 5 95.2 174 
 RUS  HN ES       1018  4.45                             146   -0.2410 95.2 174 
 RUS  HE I        1018  6.48         3.3 0.18            146           95.2 174 
 PTB  HZ EP       1017 49.36                             134   -0.01 9  144 261 
 PTB  HN ES       1018  9.97                             134   -0.42 9  144 261 
 PTB  HE I        1018 15.96         3.4 0.34            132            144 261 
                                                                                
