 2012  9 7 1433 48.5 L   5.868 -73.742113.1  RSN  5 0.2 1.6LRSN                1
 GAP=225        0.42      11.9     3.8  9.4 -0.1649E+01  0.5514E+01  0.6230E+02E
 Epicentro: JESUS MARIA - SANTANDER                                            3
 ACTION:UPD 12-10-22 14:17 OP:ep   STATUS:               ID:20120907143348 L   I
 2012-09-07-1430-00M.COL___226                                                 6
 STAT SP IPHASW D HRMM SECON CODA AMPLIT PERI AZIMU VELO AIN AR TRES W  DIS CAZ7
 RUS  HN ES   3   1434 21.36                             145   -0.18 3 73.0  88 
 BAR2 SZ EP       1434  9.12                             135    0.1910  101  38 
 BAR2 SZ ES   1   1434 24.66                             135   -0.19 7  101  38 
 BAR2 SZ I        1434 26.75        18.9 0.30                           101  38 
 PTB  HZ EP   1   1434  9.06                             133   -0.20 7  108 313 
 PTB  HN ES   2   1434 25.70                             133    0.26 5  108 313 
 PTB  HN I        1434 30.51         4.4 0.14                           108 313 
 BRR  HZ EP   3   1434 11.38                             125   -0.56 2  137   1 
 GIR2 SZ EP   2   1434 13.13                             123    0.00 5  147  24 
                                                                                
