 2017  9 7 1644 24.8 L   6.771 -73.125146.5  RSN  6 0.4 1.2LRSN                1
 GAP=141        0.89       4.2     4.3  6.5 -0.6544E+00  0.7800E+01  0.5043E+01E
 Epicentro: LOS SANTOS - SANTANDER                                             3
 ACTION:UPD 17-10-05 19:10 OP:rebc STATUS:               ID:20170907164424 L   I
 OLDACT:REG 17-09-07 20:21 OP:lv   STATUS:               ID:20170907163536     3
 2017-09-07-1638-00M.COL___423                                                 6
 STAT SP IPHASW D HRMM SECON CODA AMPLIT PERI AZIMU VELO AIN AR TRES W  DIS CAZ7
 BAR2 EZ EP       1644 44.30                             172   -0.1410 20.7 198 
 BAR2 EZ ES       1644 59.61                             172   -0.1610 20.7 198 
 BAR2 EZ I        1645  0.68         6.7 0.27            170           20.7 198 
 BRR  HN ES       1645  3.56                             151    0.6510 74.8 300 
 PAM  EZ EP       1644 47.33                             151    0.2010 78.5  37 
 PAM  EE ES       1645  4.46                             151   -0.1010 78.5  37 
 PAM  EZ I        1645  5.08         3.4 0.18            153           78.5  37 
 RUS  HZ EP       1644 48.31                             145   -0.0410 97.2 177 
 RUS  HN ES       1645  6.57                             145   -0.1810 97.2 177 
 RUS  HZ I        1645  8.67         0.9 0.17            144           97.2 177 
 ZAR  HN ES       1645 22.44                             122   -0.78 8  207 293 
 NOR  HZ EP       1645  0.83                             119    0.29 8  235 235 
 NOR  HN ES       1645 28.66                             119    0.22 8  235 235 
 NOR  HZ I        1645 30.82         2.1 0.15            119            235 235 
                                                                                
