 2017  9 7 1723 45.1 L   6.775 -73.178139.5  RSN  4 0.1 1.7LRSN                1
 GAP=134        0.41       2.1     3.2  3.4 -0.1747E-01 -0.6814E+00  0.2568E+00E
 Epicentro: LOS SANTOS - SANTANDER                                             3
 ACTION:UPD 17-10-05 19:10 OP:rebc STATUS:               ID:20170907172345 L   I
 OLDACT:DUP 17-09-07 22:55 OP:lv   STATUS:               ID:20170907171743d    3
 2017-09-07-1718-00M.COL___423                                                 6
 STAT SP IPHASW D HRMM SECON CODA AMPLIT PERI AZIMU VELO AIN AR TRES W  DIS CAZ7
 BAR2 EZ EP       1724  3.85                             171   -0.0410 20.3 181 
 BAR2 EZ ES       1724 18.81                             171    0.2510 20.3 181 
 BRR  HZ EP       1724  5.59                             152    0.1410 69.4 302 
 BRR  HN ES       1724 21.18                             152   -0.1510 69.4 302 
 BRR  HZ I        1724 26.52        22.6 0.38            150           69.4 302 
 PAM  EZ EP       1724  6.94                             148    0.0310 81.8  40 
 PAM  EE ES       1724 23.85                             148   -0.0810 81.8  40 
 PAM  EZ I        1724 25.87         5.0 0.44            150           81.8  40 
 RUS  HZ EP       1724  8.00                             143   -0.0410 98.2 174 
 RUS  HN ES       1724 25.84                             143   -0.1110 98.2 174 
                                                                                
