 2014  2 7 1215 49.1 L   6.820 -73.181144.5  RSN  5 0.1 1.5LRSN                1
 GAP=131        0.34       3.0     3.6  5.8  0.3150E+01 -0.2899E+01 -0.1306E+02E
 Epicentro: ZAPATOCA - SANTANDER                                               3
 ACTION:UPD 14-03-10 08:08 OP:ep   STATUS:               ID:20140207121549 L   I
 OLDACT:UP  14-02-07 18:42 OP:cam  STATUS:               ID:20140207121000     3
 OLDACT:REG 14-02-07 17:31 OP:cam  STATUS:               ID:20140207121000     3
 2014-02-07-1210-00M.COL___291                                                 6
 STAT SP IPHASW D HRMM SECON CODA AMPLIT PERI AZIMU VELO AIN AR TRES W  DIS CAZ7
 BAR2 SZ ES   1   1216 23.86                             170    0.02 7 25.1 180 
 PAM  SZ EP       1216 11.35                             150    0.1110 78.3  43 
 RUS  HN ES       1216 31.38                             143   -0.1010  103 174 
 RUS  HZ I        1216 32.04         3.1 0.22            147            103 174 
 PTB  HN ES   2   1216 36.53                             132    0.15 5  144 258 
 SML  HZ EP   1   1216 25.22                             118   -0.05 6  240 336 
 SML  HE ES   1   1216 53.39                             118   -0.09 6  240 336 
 SML  HZ I        1216 58.31         3.9 0.10            118            240 336 
                                                                                
