 2010 10 7 1410 18.1 L   7.377 -73.179132.3  RSN  4 0.2 1.8LRSN                1
 GAP=153        0.59       5.5     6.2  6.8 -0.1312E+02 -0.8542E+01  0.9961E+01E
 Epicentro: EL PLAYON - SANTANDER                                              3
 ACTION:UP  11-02-18 11:08 OP:tino STATUS:               ID:20101007141018 L   I
 2010-10-07-1405-37S.COL___122                                                 6
 STAT SP IPHASW D HRMM SECON CODA AMPLIT PERI AZIMU VELO SNR AR TRES W  DIS CAZ7
 BTL  SZ EP       1410 36.77                             157    -0.310   52 191 
 BRR  HZ EP       1410 37.55                             152     0.010   66 243 
 BRR  HN ES       1410 52.67                             152     0.010   66 243 
 BRR  HZ I        1410 53.67        13.4 0.21                            66 243 
 GRA  SZ ES   1   1410 53.49                             151     0.1 7   70  36 
 BAR2 SZ EP       1410 39.45                             145     0.310   87 180 
 BAR2 SZ ES   1   1410 55.61                             145     0.0 7   87 180 
 BAR2 SZ I        1410 57.08        13.9 0.51                            87 180 
                                                                                
