 2013  4 7 1101  2.9 L   6.704 -73.174151.5  RSN  5 0.3 1.3LRSN                1
 GAP=177        0.65       5.4     5.8  6.4  0.9922E+01 -0.1221E+01  0.8275E+00E
 Epicentro: VILLANUEVA - SANTANDER                                             3
 ACTION:UPD 13-05-22 14:36 OP:EP   STATUS:               ID:20130407110102 L   I
 2013-04-07-1100-00M.COL___245                                                 6
 STAT SP IPHASW D HRMM SECON CODA AMPLIT PERI AZIMU VELO AIN AR TRES W  DIS CAZ7
 BAR2 SZ EP       11 1 23.35                             175    0.2610 12.4 184 
 BAR2 SZ ES   1   11 1 39.05                             175    0.23 7 12.4 184 
 BAR2 SZ I        11 1 39.58         5.9 0.21            166           12.4 184 
 GIR2 SZ EP   1   11 1 22.88                             164   -0.72 7 41.5 357 
 GIR2 SZ ES   1   11 1 39.63                             164   -0.09 7 41.5 357 
 BRR  HZ EP       11 1 25.10                             152    0.2210 74.3 307 
 BRR  HN ES       11 1 42.02                             152    0.0210 74.3 307 
 BRR  HZ I        11 1 42.97         5.2 0.13            149           74.3 307 
 RUS  HZ EP   2   11 1 26.70                             148    0.14 5 90.3 174 
 RUS  HE ES   1   11 1 44.77                             148   -0.22 7 90.3 174 
 RUS  HZ I        11 1 47.53         1.9 0.20            143           90.3 174 
 PTB  HN ES   1   11 1 50.87                             134   -0.16 7  143 263 
 PTB  HZ I        11 1 57.11         3.2 0.30            130            143 263 
                                                                                
