 2011 12 7 1026  9.8 L   6.771 -73.150143.1  RSN  6 0.4 1.8LRSN                1
 GAP=137        0.80       3.6     5.6  7.4 -0.5387E+01  0.9949E+01 -0.3800E+01E
 Epicentro: LOS SANTOS - SANTANDER                                             3
 ACTION:UPD 12-07-13 16:14 OP:ep   STATUS:               ID:20111207102609 L   I
 2011-12-07-1020-00M.COL___183                                                 6
 STAT SP IPHASW D HRMM SECON CODA AMPLIT PERI AZIMU VELO AIN AR TRES W  DIS CAZ7
 BAR2 SZ EP       1026 29.11                             172    0.0910 20.1 190 
 BAR2 SZ ES   1   1026 44.25                             172    0.22 7 20.1 190 
 BAR2 SZ I        1026 45.00        11.2 0.17                          20.1 190 
 BRR  HZ EP   1   1026 30.55                             152   -0.15 7 72.3 301 
 BRR  HE ES   1   1026 47.68                             152    0.66 7 72.3 301 
 BRR  HZ I        1026 52.84        22.3 0.13                          72.3 301 
 PAM  SZ EP   1   1026 32.12                             149    0.24 7 80.2  38 
 PAM  SE ES   1   1026 48.42                             149   -0.70 7 80.2  38 
 RUS  HZ EP   1   1026 33.54                             144    0.50 7 97.4 176 
 RUS  HN ES       1026 51.03                             144   -0.1510 97.4 176 
 RUS  HZ I        1026 52.68         7.0 0.34                          97.4 176 
 OCA  SZ EP   1   1026 38.31                             128    0.13 7  163 353 
 OCA  SZ ES   1   1027  0.10                             128   -0.23 7  163 353 
 OCA  SZ I        1027  5.19        10.4 0.25                           163 353 
 NOR  SN ES       1027 12.18                             118   -0.48 8  232 235 
                                                                                
