 2012  8 7 1804 35.0 L   6.775 -73.175146.9  RSN  6 0.4 1.5LRSN                1
 GAP=134        0.78       5.4     4.6  7.9  0.2234E+01  0.6478E+01  0.2319E+01E
 Epicentro: LOS SANTOS - SANTANDER                                             3
 ACTION:UPD 12-09-10 11:55 OP:ep   STATUS:               ID:20120807180435 L   I
 2012-08-07-1800-00M.COL___216                                                 6
 STAT SP IPHASW D HRMM SECON CODA AMPLIT PERI AZIMU VELO AIN AR TRES W  DIS CAZ7
 BAR2 SZ EP   1   18 4 54.79                             172    0.07 7 20.2 182 
 BAR2 SZ I        18 4 55.12        10.2 0.10                          20.2 182 
 BAR2 SZ ES   1   18 5 10.23                             172    0.14 7 20.2 182 
 BRR  HE ES   1   18 5 13.39                             153    0.65 7 69.8 302 
 PAM  SZ EP   1   18 4 57.75                             150    0.14 7 81.6  40 
 PAM  SN ES   1   18 5 14.62                             150   -0.61 7 81.6  40 
 RUS  HZ EP   1   18 4 58.85                             145    0.15 7 98.1 174 
 RUS  HZ I        18 4 59.72         4.7 0.08                          98.1 174 
 RUS  HE ES   1   18 5 17.22                             145    0.05 7 98.1 174 
 PTB  HZ EP   1   18 5  1.71                             133   -0.03 7  144 260 
 PTB  HN ES   1   18 5 21.79                             133   -0.80 7  144 260 
 PTB  HZ I        18 5 26.20         4.1 0.18                           144 260 
 ZAR  HN ES   1   18 5 32.74                             123    0.19 6  202 293 
                                                                                
