 2011  4 7 1130 26.4 L   6.818 -73.132147.0  RSN 16 0.4 3.3LRSN                1
 GAP=104        0.98       3.7     4.4  7.1 -0.2914E+01  0.6024E+01  0.9481E+01E
 Epicentro: LOS SANTOS - SANTANDER                                             3
 ACTION:UP  11-06-22 15:29 OP:REBC STATUS:               ID:20110407113026 L   I
 2011-04-07-1128-45S.COL___133                                                 6
 STAT SP IPHASW D HRMM SECON CODA AMPLIT PERI AZIMU VELO SNR AR TRES W  DIS CAZ7
 BAR2 SZ IP       1130 46.03                             170    -0.110   26 192 
 BAR2 SZ I        1130 46.14       264.1 0.09                            26 192 
 BRR  HZ IP       1130 47.88                             153     0.210   72 297 
 BRR  HN ES   1   1131  4.48                             153     0.2 7   72 297 
 BRR  HZ I        1131  9.02       284.0 0.14                            72 297 
 PAM  SZ IP     D 1130 48.89                             152     0.310   75  40 
 PAM  SN ES   1   1131  5.85                             152     0.0 7   75  40 
 OCA  SZ EP       1130 54.69                             130     0.1 9  158 353 
 OCA  SZ ES   1   1131 16.23                             130    -0.4 7  158 353 
 OCA  SZ I        1131 23.45       127.6 0.24                           158 353 
 YOP  SZ IP       1130 56.57                             126     0.0 9  180 154 
 YOP  SN ES   1   1131 20.49                             126     0.3 7  180 154 
 NOR  SZ EP       1131  1.86                             118    -0.5 8  237 234 
 NOR  SN ES   1   1131 29.84                             118    -0.7 6  237 234 
 CHI  HZ EP       1131  4.28                             117    -0.1 8  251 195 
 CHI  HN ES   1   1131 33.15                             117    -0.9 6  251 195 
 HEL  HZ EP       1131  6.85                             115     0.0 8  274 255 
 HEL  HN ES   1   1131 38.17                             115    -0.2 6  274 255 
 HEL  HZ I        1131 44.93        70.5 0.38                           274 255 
 GUY  SZ EP   3   1131 10.03                             112    -0.5 2  306 235 
 GUY  SZ I        1131 53.99       154.8 0.36                           306 235 
 RREF HZ EP       1131 13.04                             111     0.2 7  324 229 
 RREF HZ I        1131 56.04        78.3 0.35                           324 229 
 DBB  SZ EP       1131 13.89                             110    -0.1 7  341 274 
 TOL  SZ EP       1131 15.93                             109     1.0 6  346 225 
 MON  HZ IP   4 D 1131 13.26                             109    -2.1 0  354 308 
 MON  HZ I        1132  7.15        45.2 0.55                           354 308 
 SDV  BZ IP     D 1131 15.40                             109    -0.8 6  358  50 
 ANIL HZ EP       1131 17.18                             108     0.7 6  360 224 
 ANIL HN ES   1   1131 56.41                             108     0.8 5  360 224 
 ANIL HZ I        1132  3.68       124.2 0.35                           360 224 
 PRA  HZ EP       1131 19.86                             107    -0.3 6  395 210 
 PRA  HZ I        1132  5.22       109.6 0.40                           395 210 
                                                                                
