 2016 11 7 1346  0.2 L   6.782 -73.137145.1  RSN  9 0.4 2.0LRSN                1
 GAP=155        0.96       4.0     4.3  6.3 -0.4697E+01  0.4684E+01  0.6363E+01E
 Epicentro: LOS SANTOS - SANTANDER                                             3
 ACTION:UPD 17-10-26 21:05 OP:lp   STATUS:               ID:20161107134600 L   I
 OLDACT:REG 16-11-07 21:42 OP:dnl  STATUS:               ID:20161107133744     3
 2016-11-07-1338-00M.COL___328                                                 6
 STAT SP IPHASW D HRMM SECON CODA AMPLIT PERI AZIMU VELO AIN AR TRES W  DIS CAZ7
 BAR2 EZ EP       1346 19.63                             171   -0.0910 21.5 193 
 BAR2 EZ ES       1346 34.56                             171   -0.3810 21.5 193 
 BAR2 EZ I        1346 36.29        13.0 0.22            167           21.5 193 
 BRR  HZ EP       1346 21.94                             152    0.5510 73.0 300 
 BRR  HE ES       1346 38.70                             152    0.7910 73.0 300 
 BRR  HZ I        1346 42.42        17.4 0.42            152           73.0 300 
 PAM  EZ EP       1346 22.38                             150   -0.0310 78.4  38 
 PAM  EN ES       1346 39.61                             150   -0.1210 78.4  38 
 PAM  EZ I        1346 41.99         8.3 0.58            157           78.4  38 
 PTB  HZ EP       1346 26.56                             132   -0.61 9  148 260 
 PTB  HN ES       1346 47.50                             132   -0.70 9  148 260 
 PTB  HZ I        1346 55.14         9.1 0.16            132            148 260 
 SPBC HZ EP       1346 28.54                             129   -0.02 9  162 220 
 SPBC HN ES       1346 50.78                             129    0.10 9  162 220 
 SPBC HZ I        1346 57.12        13.4 0.16            129            162 220 
 ZAR  HZ EP   2   1346 32.92                             122    0.14 4  206 293 
 ZAR  HN ES       1346 57.92                             122   -0.27 8  206 293 
 ZAR  HZ I        1347  3.41        15.9 0.58            124            206 293 
 NOR  HZ EP       1346 36.03                             118    0.18 8  234 235 
 NOR  HN ES       1347  4.11                             118    0.45 8  234 235 
 NOR  HZ I        1347  9.09         7.7 0.34            119            234 235 
 CHI  HZ EP   2   1346 37.62                             117   -0.06 4  247 196 
 CHI  HN ES       1347  7.10                             117    0.19 8  247 196 
 CHI  HZ I        1347 18.44         3.1 0.50            118            247 196 
 PRA  HZ EP   9   1346 51.95                             106   -1.60 0  391 210 
 PRA  HN ES       1347 33.57                                    0.01 6  391 210 
 PRA  HZ I        1347 41.03         5.6 0.64            108            391 210 
                                                                                
