 2014  8 7 1457 50.7 L   6.797 -73.124147.1  RSN 22 0.4 2.3LRSN                1
 GAP=139        0.98       2.3     3.4  4.7 -0.1830E+01  0.4623E+01  0.1429E+01E
 Epicentro: LOS SANTOS - SANTANDER                                             3
 ACTION:UPD 14-09-15 21:47 OP:nd   STATUS:               ID:20140807145750 L   I
 OLDACT:REG 14-08-07 20:26 OP:spq  STATUS:               ID:20140807144818     3
 2014-08-07-1448-18M.COL___263                                                 6
 STAT SP IPHASW D HRMM SECON CODA AMPLIT PERI AZIMU VELO AIN AR TRES W  DIS CAZ7
 BAR2 SZ IP     C 1458 10.66                             170    0.1910 23.5 196 
 BAR2 SZ ES   1   1458 25.66                             170   -0.25 7 23.5 196 
 BAR2 SZ I        1458 28.67        31.6 0.24            168           23.5 196 
 BRR  HZ IP     D 1458 12.72                             152    0.6210 73.5 298 
 BRR  HE ES       1458 29.13                             152    0.3310 73.5 298 
 BRR  HZ I        1458 34.59        27.4 0.12            150           73.5 298 
 PAM  SZ EP       1458 13.40                             151    0.4410 76.1  38 
 PAM  SE ES       1458 29.99                             151   -0.3510 76.1  38 
 PAM  SZ I        1458 32.91        23.8 0.52            158           76.1  38 
 RUS  HZ EP       1458 14.50                             144   -0.0310  100 177 
 RUS  HN ES       1458 33.19                             144    0.0710  100 177 
 RUS  HZ I        1458 34.79         9.4 0.20            147            100 177 
 PTB  HZ EP       1458 17.54                             132   -0.42 9  150 259 
 PTB  HN ES       1458 38.52                             132   -0.72 9  150 259 
 PTB  HZ I        1458 46.14        42.0 0.44            132            150 259 
 OCA  HZ EP       1458 18.37                             130   -0.78 9  161 352 
 OCA  HN ES       1458 41.73                             130    0.37 9  161 352 
 OCA  HZ I        1458 44.59        18.2 0.56            133            161 352 
 SPBC HZ EP       1458 19.45                             129    0.05 9  164 220 
 SPBC HN ES       1458 41.97                             129    0.17 9  164 220 
 SPBC HZ I        1458 48.81        29.0 0.29            130            164 220 
 ZAR  HZ EP       1458 23.22                             122   -0.23 8  206 292 
 ZAR  HN ES       1458 49.57                             122    0.55 8  206 292 
 ZAR  HZ I        1458 55.57        17.4 0.42            123            206 292 
 NOR  HZ EP       1458 26.02                             119   -0.66 8  236 235 
 NOR  HE ES       1458 54.45                             119   -0.30 8  236 235 
 NOR  HZ I        1458 58.39        18.7 0.16            120            236 235 
 SML  HZ EP       1458 27.37                             118   -0.15 8  245 335 
 SML  HE ES       1458 55.69                             118   -0.57 8  245 335 
 SML  HZ I        1459  2.33        27.4 0.10            120            245 335 
 CHI  HZ EP       1458 28.85                             117    0.36 8  249 196 
 CHI  HN ES   1   1458 57.26                             117   -0.71 6  249 196 
 CHI  HZ I        1459  5.83         8.9 0.52            120            249 196 
 ROSC BN ES       1458 59.27                             117    0.42 8  254 212 
 ROSC BZ I        1459  8.60        18.5 0.40            119            254 212 
 HEL  HZ EP       1458 31.84                             115    0.63 8  274 256 
 HEL  HN ES       1459  2.66                             115   -0.16 8  274 256 
 HEL  HZ I        1459  9.00        12.8 0.36            116            274 256 
 URE  HZ EP   4   1458 30.51                             114   -1.57 0  286 292 
 URE  HN ES   4   1459  1.94                             114   -2.43 0  286 292 
 URE  HZ I        1459 15.12        12.9 0.16            115            286 292 
 GUY2CHZ EP       1458 34.83                             112    0.28 7  303 235 
 GUY2CHN ES       1459  9.35                             112    0.58 7  303 235 
 GUY2CHZ I        1459 15.66        11.5 0.34                           303 235 
 PTGC HZ EP   4   1458 33.43                             112   -1.03 0  308 159 
 PTGC HE ES   4   1459  2.78                             112   -5.83 0  308 159 
 PTGC HZ I        1459  9.10        23.0 0.40            115            308 159 
 CBOC HN ES   1   1459 14.60                             110   -0.13 5  336 252 
 CBOC HZ I        1459 20.08         4.6 0.30            112            336 252 
 DBB  SZ EP       1458 38.83                             110    0.34 7  342 274 
 DBB  SZ ES   4   1459 12.91                             110   -2.87 0  342 274 
 DBB  SZ I        1459 19.44        24.5 0.24            111            342 274 
 TOL  SZ EP       1458 39.85                             109    0.69 7  345 225 
 TOL  SN ES       1459 16.40                             109   -0.57 7  345 225 
 TOL  SZ I        1459 21.78        16.9 0.30            111            345 225 
 PRA  HZ EP       1458 43.86                             107   -0.49 6  393 210 
 PRA  HN ES       1459 25.68                             107   -0.54 6  393 210 
 PRA  HZ I        1459 30.81         6.4 0.52            109            393 210 
 ORTC HZ EP       1458 44.70                             106   -0.08 6  397 216 
 ORTC HE ES       1459 27.36                             106    0.38 6  397 216 
 ORTC HZ I        1459 34.35         5.9 0.66            108            397 216 
 SJC  HZ EP   4   1458 44.38                             106   -2.09 0  411 327 
 SJC  HN ES   4   1459 26.41                             106   -3.58 0  411 327 
 SJC  HZ I        1459 30.98         4.6 0.40            108            411 327 
                                                                                
