 2016  8 7 1833 13.6 L   6.758 -73.153144.0  RSN  9 0.4 1.8LRSN                1
 GAP=137        1.02       4.0     4.1  5.9 -0.2155E+01  0.7571E+01  0.2024E+01E
 Epicentro: LOS SANTOS - SANTANDER                                             3
 ACTION:UPD 16-10-29 15:33 OP:rebc STATUS:               ID:20160807183313 L   I
 OLDACT:ARG 16-08-08 04:29 OP:ak   STATUS:               ID:20160807182800     3
 2016-08-07-1828-00M.COL___365                                                 6
 STAT SP IPHASW D HRMM SECON CODA AMPLIT PERI AZIMU VELO AIN AR TRES W  DIS CAZ7
 BAR2 EZ EP       1833 32.74                             172   -0.2310 18.6 190 
 BAR2 EZ ES       1833 47.94                             172   -0.1110 18.6 190 
 BAR2 EZ I        1833 49.27        19.1 0.28                          18.6 190 
 BRR  HZ EP       1833 34.71                             152    0.0210 72.8 302 
 BRR  HN ES       1833 51.90                             152    0.7910 72.8 302 
 BRR  HZ I        1833 52.86         8.1 0.12                          72.8 302 
 PAM  EZ EP       1833 35.45                             149   -0.4710 81.5  38 
 PAM  EE ES       1833 53.32                             149    0.0210 81.5  38 
 PAM  EZ I        1833 53.91         6.1 0.22                          81.5  38 
 RUS  HZ EP       1833 37.03                             145    0.1310 96.0 175 
 RUS  HE ES       1833 55.21                             145    0.1810 96.0 175 
 RUS  HZ I        1833 56.56         6.4 0.28                          96.0 175 
 PTB  HZ EP       1833 39.84                             132   -0.48 9  146 261 
 PTB  HE ES       1834  0.34                             132   -0.79 9  146 261 
 PTB  HZ I        1834  6.32         5.6 0.26                           146 261 
 SPBC HZ EP       1833 41.60                             129   -0.02 9  159 220 
 SPBC HN ES       1834  3.73                             129    0.29 9  159 220 
 SPBC HZ I        1834  5.65        13.7 0.22                           159 220 
 ZAR  HZ EP       1833 46.73                             122    0.65 9  205 293 
 ZAR  HN ES       1834 11.28                             122   -0.10 9  205 293 
 ZAR  HZ I        1834 17.13        11.3 0.30                           205 293 
 NOR  HZ EP       1833 48.83                             119   -0.08 8  231 235 
 NOR  HN ES       1834 16.23                             119   -0.20 8  231 235 
 NOR  HZ I        1834 25.11         6.0 0.20                           231 235 
 GUY2CHZ EP       1833 57.49                             112    0.69 7  298 235 
 GUY2CHN ES   4   1834 35.22                             112    4.76 0  298 235 
 GUY2CHZ I        1834 38.35         2.5 0.09                           298 235 
                                                                                
