 2014  8 7 1520 30.8 L   6.756 -73.179133.9  RSN  5 0.3 1.2LRSN                1
 GAP=134        0.80       4.7     4.0  6.6 -0.3671E+01  0.2767E+01  0.3613E+01E
 Epicentro: LOS SANTOS - SANTANDER                                             3
 ACTION:UPD 14-09-15 21:47 OP:nd   STATUS:               ID:20140807152030 L   I
 OLDACT:REG 14-08-07 20:28 OP:spq  STATUS:               ID:20140807151818     3
 2014-08-07-1518-18M.COL___263                                                 6
 STAT SP IPHASW D HRMM SECON CODA AMPLIT PERI AZIMU VELO AIN AR TRES W  DIS CAZ7
 BAR2 SZ EP       1520 49.20                             172    0.3110 18.1 181 
 BAR2 SZ ES   1   1521  3.70                             172    0.69 7 18.1 181 
 BAR2 SZ I        1521  5.13         2.3 0.18            172           18.1 181 
 BRR  HZ EP       1520 50.99                             150    0.3610 70.5 303 
 BRR  HN ES       1521  5.93                             150   -0.1710 70.5 303 
 BRR  HZ I        1521 12.53         7.4 0.21            152           70.5 303 
 PAM  SZ EP       1520 52.08                             146   -0.0710 83.4  39 
 PAM  SE ES       1521  8.53                             146   -0.2910 83.4  39 
 PAM  SZ I        1521 10.23         3.4 0.20            151           83.4  39 
 RUS  HZ EP   1   1520 52.67                             142   -0.38 7 96.1 174 
 RUS  HE ES   1   1521 10.16                             142   -0.26 7 96.1 174 
 RUS  HZ I        1521 12.97         1.5 0.30            147           96.1 174 
 PTB  HZ EP       1520 56.55                             130    0.15 9  143 260 
 PTB  HE ES       1521 16.03                             130   -0.34 9  143 260 
 PTB  HZ I        1521 19.22         2.4 0.16            133            143 260 
                                                                                
