 2016  8 7 1333 31.7 L   6.786 -73.116148.7  RSN  7 0.3 1.7LRSN                1
 GAP=240        0.82       4.0     4.4  5.2  0.4524E+01  0.5222E+01  0.6224E+00E
 Epicentro: LOS SANTOS - SANTANDER                                             3
 ACTION:UPD 16-10-29 15:33 OP:rebc STATUS:               ID:20160807133331 L   I
 OLDACT:ARG 16-08-08 04:28 OP:ak   STATUS:               ID:20160807132800     3
 2016-08-07-1328-00M.COL___362                                                 6
 STAT SP IPHASW D HRMM SECON CODA AMPLIT PERI AZIMU VELO AIN AR TRES W  DIS CAZ7
 BAR2 EZ EP       1333 51.68                             171    0.0410 22.7 199 
 BAR2 EZ ES       1334  6.89                             171   -0.3210 22.7 199 
 BAR2 EZ I        1334  8.34        13.8 0.14                          22.7 199 
 BRR  HZ EP       1333 53.51                             152    0.1710 74.8 298 
 BRR  HN ES       1334 10.61                             152    0.3710 74.8 298 
 BRR  HZ I        1334 11.17        12.6 0.10                          74.8 298 
 RUS  HZ EP       1333 55.49                             145   -0.1010 98.9 178 
 RUS  HE ES       1334 14.51                             145    0.2710 98.9 178 
 RUS  HZ I        1334 15.61         4.3 0.28                          98.9 178 
 PTB  HZ EP       1333 58.80                             132   -0.34 9  151 260 
 PTB  HE ES       1334 20.45                             132   -0.12 9  151 260 
 PTB  HZ I        1334 22.40         4.5 0.12                           151 260 
 SPBC HZ EP       1334  0.67                             130    0.19 9  164 220 
 SPBC HN ES       1334 22.42                             130   -0.53 9  164 220 
 SPBC HZ I        1334 26.09        10.6 0.15                           164 220 
 ZAR  HZ EP       1334  4.89                             122    0.21 8  208 292 
 ZAR  HE ES       1334 30.11                             122   -0.32 8  208 292 
 ZAR  HZ I        1334 36.65         5.0 0.32                           208 292 
 NOR  HZ EP       1334  7.54                             119   -0.22 8  237 235 
 NOR  HE ES       1334 36.67                             119    0.75 8  237 235 
 NOR  HZ I        1334 38.33         2.8 0.38                           237 235 
                                                                                
