 2013  3 7 1101 45.0 L   6.823 -73.146140.2  RSN 14 0.5 2.6LRSN                1
 GAP= 70        1.26       2.9     3.8  6.1 -0.4193E+00  0.5998E+01 -0.1719E+00E
 Epicentro: LOS SANTOS - SANTANDER                                             3
 ACTION:UPD 13-04-09 14:00 OP:ep   STATUS:               ID:20130307110145 L   I
 2013-03-07-1100-00M.COL___231                                                 6
 STAT SP IPHASW D HRMM SECON CODA AMPLIT PERI AZIMU VELO AIN AR TRES W  DIS CAZ7
 BAR2 SZ IP     C 11 2  4.00                             169   -0.0310 25.8 189 
 BAR2 SZ ES       11 2 18.42                             169   -0.4510 25.8 189 
 BAR2 SZ I        11 2 20.26       105.5 0.14            165           25.8 189 
 BRR  HZ IP     D 11 2  5.85                             152    0.3510 70.0 297 
 BRR  HN ES   1   11 2 22.51                             152    1.04 7 70.0 297 
 BRR  HE I        11 2 23.39       136.6 0.32            145           70.0 297 
 PAM  SZ IP     D 11 2  6.94                             150    0.4110 75.5  41 
 PAM  SZ I        11 2  7.11        45.3 0.22            152           75.5  41 
 PAM  SE ES       11 2 23.90                             150    0.6010 75.5  41 
 PAM  SN I        11 2 24.92        79.6 0.46            152           75.5  41 
 RUS  HZ EP       11 2  7.96                             142   -0.4610  103 176 
 RUS  HN ES       11 2 26.06                             142   -0.6110  103 176 
 RUS  HE I        11 2 27.44        28.2 0.50            139            103 176 
 PTB  HZ EP       11 2 10.95                             130   -0.63 9  148 258 
 PTB  HN ES       11 2 31.41                             130   -0.89 9  148 258 
 PTB  HE I        11 2 37.33        52.3 0.46            125            148 258 
 TAM  HZ IP     D 11 2 12.35                             129    0.02 9  156 106 
 TAM  HN ES       11 2 33.71                             129    0.08 9  156 106 
 OCA  HZ EP       11 2 12.30                             129   -0.36 9  158 353 
 OCA  HN ES       11 2 33.63                             129   -0.59 9  158 353 
 OCA  HE I        11 2 38.54       127.5 0.22            126            158 353 
 ZAR  HZ EP       11 2 16.82                             121   -0.18 9  203 291 
 ZAR  HE ES       11 2 42.49                             121    0.54 9  203 291 
 ZAR  HN I        11 2 49.52        40.0 0.32            117            203 291 
 SML  HZ EP       11 2 20.51                             116   -0.57 8  241 335 
 SML  HN ES       11 2 49.89                             116    0.68 8  241 335 
 CHI  HZ EP       11 2 22.26                             116   -0.42 8  251 195 
 CHI  HE ES       11 2 52.90                             116    0.84 8  251 195 
 CHI  HN I        11 2 57.49        26.8 0.32            113            251 195 
 ROSC BZ EP       11 2 24.04                             115    0.96 8  255 211 
 ROSC BE ES       11 2 53.08                             115    0.32 8  255 211 
 HEL  HZ IP     D 11 2 25.44                             113    0.42 8  273 255 
 HEL  HZ I        11 3  3.01        14.5 0.30            110            273 255 
 HEL  HN I        11 3  3.31        15.0 0.24                           273 255 
 RREF HZ EP       11 2 31.71                             110    0.60 7  323 229 
 RREF HE ES       11 3  6.75                             110   -0.31 7  323 229 
 RREF HZ I        11 3 16.29        13.8 0.26            107            323 229 
 COD  HZ EP       11 2 32.60                             108   -0.28 6  346 355 
 COD  HN ES       11 3 10.20                             108   -0.02 6  346 355 
                                                                                
