 2012  9 7 1809 19.1 L   6.788 -73.156139.5  RSN  8 0.3 2.4LRSN                1
 GAP=136        0.66       3.2     3.5  4.9  0.7256E+00  0.3313E+01  0.1266E+01E
 Epicentro: LOS SANTOS - SANTANDER                                             3
 ACTION:UPD 12-10-22 14:17 OP:ep   STATUS:               ID:20120907180919 L   I
 2012-09-07-1808-06M.COL___216                                                 6
 STAT SP IPHASW D HRMM SECON CODA AMPLIT PERI AZIMU VELO AIN AR TRES W  DIS CAZ7
 BAR2 SZ EP       18 9 37.94                             171    0.0110 21.8 188 
 BAR2 SZ ES   1   18 9 52.13                             171   -0.50 7 21.8 188 
 BAR2 SZ I        18 9 54.37        52.7 0.38                          21.8 188 
 GIR2 SZ EP       18 9 37.80                             166   -0.2510 32.4 353 
 GIR2 SZ ES   1   18 9 52.95                             166    0.11 7 32.4 353 
 BRR  HZ EP       18 9 39.81                             151    0.2710 70.8 300 
 BRR  HN ES   1   18 9 56.22                             151    0.73 7 70.8 300 
 BRR  HN I        18 9 57.35       109.0 0.18                          70.8 300 
 PAM  SZ IP       18 9 40.89                             149    0.1410 79.2  40 
 PAM  SN ES   1   18 9 57.38                             149   -0.27 7 79.2  40 
 PAM  SN I        18 9 59.86        30.1 0.34                          79.2  40 
 RUS  HZ EP       18 9 42.11                             143   -0.0210 99.3 175 
 RUS  HZ I        18 9 43.21        17.7 0.14                          99.3 175 
 RUS  HN ES   1   1810  0.30                             143    0.19 7 99.3 175 
 PTB  HN ES   1   1810  5.63                             131   -0.33 7  146 259 
 PTB  HN I        1810  8.22        25.5 0.50                           146 259 
 ZAR  HZ EP       18 9 50.96                             121   -0.11 9  203 293 
 ZAR  HN ES   1   1810 15.73                             121   -0.29 6  203 293 
 CHI  HN ES   1   1810 25.42                             116    0.15 6  247 195 
 CHI  HN I        1810 28.42        26.3 0.30                           247 195 
                                                                                
