 2017  9 7 1944 37.5 L   6.813 -73.155138.9  RSN  8 0.4 1.6LRSN                1
 GAP=135        0.89       4.0     4.1  5.7 -0.2438E+01  0.7367E+01  0.6314E+01E
 Epicentro: LOS SANTOS - SANTANDER                                             3
 ACTION:UPD 17-10-05 19:10 OP:rebc STATUS:               ID:20170907194437 L   I
 OLDACT:REG 17-09-07 20:28 OP:lv   STATUS:               ID:20170907193745     3
 2017-09-07-1938-00M.COL___423                                                 6
 STAT SP IPHASW D HRMM SECON CODA AMPLIT PERI AZIMU VELO AIN AR TRES W  DIS CAZ7
 BAR2 EZ EP       1944 56.32                             169    0.0210 24.6 187 
 BAR2 EZ ES       1945 11.01                             169    0.0210 24.6 187 
 BAR2 EZ I        1945 12.26        10.2 0.11            160           24.6 187 
 BRR  HZ EP       1944 57.82                             152    0.0310 69.6 298 
 BRR  HE ES       1945 13.58                             152   -0.0510 69.6 298 
 PAM  EZ EP       1944 58.96                             150    0.0310 77.0  41 
 PAM  EN ES       1945 15.79                             150    0.1210 77.0  41 
 PAM  EZ I        1945 18.17        10.8 0.54            141           77.0  41 
 RUS  HZ EP       1945  0.47                             142   -0.2010  102 176 
 RUS  HN ES       1945 18.86                             142    0.1110  102 176 
 RUS  HZ I        1945 20.25         3.9 0.46            129            102 176 
 ZAR  HE ES   1   1945 33.77                             121   -0.39 6  203 292 
 NOR  HZ EP       1945 12.85                             117    0.04 8  235 234 
 NOR  HN ES       1945 39.65                             117   -0.72 8  235 234 
 NOR  HZ I        1945 45.88         2.6 0.26            109            235 234 
 CHI  HZ EP       1945 14.35                             115   -0.57 8  250 195 
 CHI  HZ I        1945 46.98         3.2 0.64            106            250 195 
 GUY2CHZ EP       1945 21.44                             111    0.67 7  301 234 
 GUY2CHE ES       1945 55.60                             111    1.06 7  301 234 
 GUY2CHZ I        1946  2.22         2.4 0.36                           301 234 
                                                                                
