 2013 12 7 1834 50.6 L   5.891 -73.769104.0  RSN  4 0.1 1.9LRSN                1
 GAP=164        0.31       2.3     1.8  6.4 -0.2487E+01 -0.3177E+01  0.5924E+01E
 Epicentro: JESUS MARIA - SANTANDER                                            3
 ACTION:UPD 14-01-13 10:16 OP:ep   STATUS:               ID:20131207183450 L   I
 OLDACT:UP  13-12-07 17:32 OP:cam  STATUS:               ID:20131207183000     3
 OLDACT:REG 13-12-07 16:16 OP:cam  STATUS:               ID:20131207183000     3
 2013-12-07-1830-00M.COL___285                                                 6
 STAT SP IPHASW D HRMM SECON CODA AMPLIT PERI AZIMU VELO AIN AR TRES W  DIS CAZ7
 RUS  HZ EP       1835  8.52                             142    0.0210 75.9  90 
 BAR2 SZ EP       1835 10.18                             132   -0.0810  101  40 
 BAR2 SZ ES       1835 25.60                             132    0.0310  101  40 
 BAR2 SZ I        1835 27.29        29.9 0.30            138            101  40 
 NOR  HZ EP   2   1835 12.66                             125    0.17 5  127 254 
 NOR  HN ES       1835 29.53                             125   -0.0210  127 254 
 NOR  HZ I        1835 31.04         7.5 0.18            130            127 254 
 BRR  HN ES       1835 30.79                             123    0.0110  135   3 
                                                                                
