 2011 10 7 1949 37.8 L   6.669 -73.924 84.9  RSN 12 0.4 3.4LRSN                1
 GAP= 70        0.81       2.8     2.5  7.6 -0.4075E+00  0.4552E+01  0.8750E+01E
 Epicentro: PUERTO PARRA - SANTANDER                                           3
 ACTION:UPD 12-07-13 16:02 OP:ep   STATUS:               ID:20111007194937 L   I
 2011-10-07-1940-00M.COL___171                                                 6
 STAT SP IPHASW D HRMM SECON CODA AMPLIT PERI AZIMU VELO AIN AR TRES W  DIS CAZ7
 BRR  HZ IP     D 1949 51.52                             145    0.0410 53.8  26 
 BRR  HN ES   1   1950  2.51                             145    0.37 7 53.8  26 
 BRR  HZ I        1950  3.21      2871.4 0.13                          53.8  26 
 BAR2 SZ IP       1949 54.32                             132    0.1610 82.5  96 
 BAR2 SZ I        1949 54.63      1785.6 0.22                          82.5  96 
 BAR2 SZ ES   1   1950  6.54                             132   -0.37 7 82.5  96 
 GIR2 SZ IP       1949 55.11                             129    0.1310 92.6  61 
 ZAR  HZ EP   1   1949 59.28                             117   -0.23 7  138 311 
 ZAR  HN ES   1   1950 16.58                             117    0.15 7  138 311 
 ZAR  HZ I        1950 18.81      1536.3 0.34                           138 311 
 PAM  SZ EP   1   1950  2.01                             114    0.03 7  154  61 
 PAM  SN ES   1   1950 20.85                             114    0.02 7  154  61 
 PAM  SZ I        1950 22.56       350.7 0.34                           154  61 
 NOR  SZ EP   1   1950  1.44                             113   -0.74 7  161 221 
 NOR  SZ I        1950 23.67        29.5 0.27                           161 221 
 HEL  HZ EP   1   1950  5.24                             110   -0.13 7  185 254 
 HEL  HN ES   1   1950 26.85                             110   -0.03 7  185 254 
 HEL  HZ I        1950 29.30       772.0 0.41                           185 254 
 OCA  SZ EP   1   1950  5.58                             110    0.39 7  186  21 
 OCA  SZ ES   1   1950 25.87                             110   -0.69 7  186  21 
 OCA  SZ I        1950 35.18       404.4 0.28                           186  21 
 YOP  SZ EP   1   1950  9.96                             106    0.70 6  221 131 
 YOP  SE ES   1   1950 32.80                             106   -0.99 6  221 131 
 YOP  SZ I        1950 42.01       139.4 0.52                           221 131 
 CHI  HZ EP   1   1950  9.96                             106   -0.33 6  227 175 
 CHI  HE ES   1   1950 36.37                             106    0.74 6  227 175 
 CHI  HZ I        1950 47.27        99.3 0.62                           227 175 
 GUY  SZ EP   1   1950 10.85                             106    0.33 6  228 226 
 GUY  SN ES   1   1950 35.68                             106   -0.36 6  228 226 
 GUY  SZ I        1950 38.62       320.6 0.34                           228 226 
 VIL  SZ EP   1   1950 17.44                             102    0.62 6  284 175 
                                                                                
