 2013  7 7 1426 39.3 L   6.795 -73.155140.3  RSN  8 0.3 1.9LRSN                1
 GAP=136        0.66       3.6     5.8  8.1  0.2274E+01  0.2450E+02 -0.1456E+00E
 Epicentro: LOS SANTOS - SANTANDER                                             3
 ACTION:UPD 13-08-12 10:36 OP:ep   STATUS:               ID:20130707142639 L   I
 OLDACT:UP  13-07-07 15:39 OP:jn   STATUS:               ID:20130707141959     3
 OLDACT:REG 13-07-07 14:36 OP:jn   STATUS:               ID:20130707141959     3
 2013-07-07-1419-59M.COL___267                                                 6
 STAT SP IPHASW D HRMM SECON CODA AMPLIT PERI AZIMU VELO AIN AR TRES W  DIS CAZ7
 BAR2 SZ EP   1   1426 58.37                             170    0.14 7 22.6 188 
 BAR2 SZ ES   1   1427 13.14                             170    0.12 7 22.6 188 
 BAR2 SZ I        1427 14.13        17.8 0.30            167           22.6 188 
 GIR2 SZ EP       1426 58.43                             167    0.1210 31.7 352 
 BRR  HZ EP   1   1427  0.16                             152    0.36 7 70.6 299 
 BRR  HZ I        1427 22.38        13.9 0.38            143           70.6 299 
 PAM  SE ES   1   1427 18.17                             149    0.27 7 78.4  40 
 PAM  SZ I        1427 20.41        19.9 0.70            147           78.4  40 
 RUS  HZ EP   1   1427  2.49                             143    0.03 7  100 175 
 RUS  HN ES   1   1427 20.09                             143   -0.45 7  100 175 
 RUS  HZ I        1427 24.32         4.4 0.32            137            100 175 
 PTB  HZ EP   1   1427  5.44                             131   -0.26 7  147 259 
 OCA  HE ES   1   1427 28.26                             128   -0.73 7  161 354 
 OCA  HZ I        1427 31.59        11.5 0.22            122            161 354 
 ZAR  HE ES   1   1427 36.48                             121    0.21 6  203 292 
 ZAR  HZ I        1427 43.28         9.6 0.37            114            203 292 
                                                                                
