 2013  6 7 1624 55.0 L   6.792 -73.160134.4  RSN  5 0.4 1.7LRSN                1
 GAP=182        1.05       6.0     6.2  7.8  0.1622E+02  0.1358E+02  0.7074E+01E
 Epicentro: LOS SANTOS - SANTANDER                                             3
 ACTION:UPD 14-01-08 09:53 OP:ep   STATUS:               ID:20130607162455 L   I
 OLDACT:REG 13-06-07 16:48 OP:nd   STATUS:               ID:20130607161959     3
 2013-06-07-1619-59M.COL___261                                                 6
 STAT SP IPHASW D HRMM SECON CODA AMPLIT PERI AZIMU VELO AIN AR TRES W  DIS CAZ7
 GIR2 SZ EP       1625 13.07                             166   -0.3210 31.9 353 
 GIR2 SZ ES       1625 27.62                             166   -0.0810 31.9 353 
 GIR2 SZ I        1625 29.48        11.4 0.12            168           31.9 353 
 BRR  HZ EP     C 1625 15.07                             151    0.1510 70.2 300 
 BRR  HN ES       1625 30.40                             151   -0.0210 70.2 300 
 BRR  HZ I        1625 32.88        13.2 0.22            151           70.2 300 
 RUS  HZ EP       1625 17.60                             142   -0.0410 99.8 175 
 RUS  HN ES       1625 35.68                             142    0.4210 99.8 175 
 RUS  HZ I        1625 39.37         3.2 0.60            143           99.8 175 
 PTB  HZ EP       1625 20.10                             130   -0.84 9  146 259 
 PTB  HN ES       1625 40.88                             130   -0.27 9  146 259 
 PTB  HZ I        1625 42.90         7.2 0.22            130            146 259 
 ZAR  HZ EP       1625 27.41                             120    0.76 9  203 293 
 ZAR  HN ES       1625 51.73                             120    0.42 9  203 293 
 ZAR  HZ I        1625 56.79         6.6 0.14            122            203 293 
                                                                                
