 2013  1 7 1124 55.8 L   6.859 -73.194158.4  RSN  6 0.4 1.8LRSN                1
 GAP=183        1.04       5.1     7.3 11.7 -0.4153E+01 -0.2366E+02  0.2990E+02E
 Epicentro: ZAPATOCA - SANTANDER                                               3
 ACTION:UPD 13-02-15 09:12 OP:ep   STATUS:               ID:20130107112455 L   I
 2013-01-07-1120-00M.COL___242                                                 6
 STAT SP IPHASW D HRMM SECON CODA AMPLIT PERI AZIMU VELO AIN AR TRES W  DIS CAZ7
 BAR2 SZ EP       1125 16.56                             169   -0.4910 29.5 177 
 BAR2 SZ I        1125 33.31        10.2 0.18            168           29.5 177 
 BRR  HZ EP       1125 18.49                             157    0.5810 63.5 296 
 BRR  HN ES       1125 35.45                             157    0.2710 63.5 296 
 BRR  HN I        1125 38.24        17.0 0.20            161           63.5 296 
 PTB  HZ EP       1125 23.23                             135   -0.23 9  144 256 
 PTB  HN ES       1125 44.41                             135   -0.66 9  144 256 
 OCA  HN ES       1125 46.69                             134   -0.16 9  153 355 
 ZAR  HN ES       1125 54.11                             126    0.37 9  197 291 
 ZAR  HN I        1126  1.06         5.5 0.60            128            197 291 
 CHI  HZ EP       1125 34.66                             119   -0.06 8  254 194 
 CHI  HN ES       1126  5.61                             119    0.51 8  254 194 
 CHI  HN I        1126  7.61         3.5 0.22            119            254 194 
                                                                                
