 2012  8 7 1706 44.8 L   6.793 -73.085143.8  RSN  4 0.2 1.0LRSN                1
 GAP=145        0.47       3.3     4.9  5.1 -0.4836E+00 -0.1751E+01  0.7548E+00E
 Epicentro: LOS SANTOS - SANTANDER                                             3
 ACTION:UPD 12-09-10 11:55 OP:ep   STATUS:               ID:20120807170644 L   I
 2012-08-07-1700-00M.COL___216                                                 6
 STAT SP IPHASW D HRMM SECON CODA AMPLIT PERI AZIMU VELO AIN AR TRES W  DIS CAZ7
 BAR2 SZ EP   1   17 7  4.01                             170   -0.25 7 24.6 206 
 BAR2 SZ ES   1   17 7 19.36                             170   -0.05 7 24.6 206 
 BAR2 SZ I        17 7 20.54         4.2 0.27                          24.6 206 
 PAM  SZ EP   1   17 7  7.05                             152    0.41 7 74.0  35 
 PAM  SE ES   1   17 7 23.47                             152   -0.18 7 74.0  35 
 BRR  HZ EP   1   17 7  6.00                             150   -0.15 7 77.5 297 
 BRR  HN ES   1   17 7 22.91                             150    0.14 7 77.5 297 
 RUS  HZ EP   1   17 7  8.23                             144   -0.09 7 99.5 180 
 RUS  HZ I        17 7  8.88         1.0 0.10                          99.5 180 
 RUS  HE ES   1   17 7 26.79                             144    0.16 7 99.5 180 
                                                                                
