 2012 10 7 1705 29.4 L   6.783 -73.137140.2  RSN  7 0.3 2.3LRSN                1
 GAP=138        0.49       2.9     3.5  4.4  0.1193E+01  0.2555E+01  0.2280E+00E
 Epicentro: LOS SANTOS - SANTANDER                                             3
 ACTION:UPD 12-11-22 17:02 OP:ep   STATUS:               ID:20121007170529 L   I
 2012-10-07-1700-00M.COL___222                                                 6
 STAT SP IPHASW D HRMM SECON CODA AMPLIT PERI AZIMU VELO AIN AR TRES W  DIS CAZ7
 BAR2 SZ IP       17 5 48.25                             171   -0.0410 21.7 194 
 BAR2 SZ ES   1   17 6  2.84                             171   -0.21 7 21.7 194 
 BAR2 SZ I        17 6  4.02        35.7 0.16                          21.7 194 
 GIR2 SZ EP       17 5 48.37                             166   -0.0710 33.3 349 
 GIR2 SZ ES   2   17 6  2.98                             166   -0.33 5 33.3 349 
 BRR  HZ EP       17 5 50.14                             151    0.1210 73.0 299 
 BRR  HN ES   2   17 6  6.89                             151    0.76 5 73.0 299 
 BRR  HN I        17 6  7.61        83.1 0.22                          73.0 299 
 PAM  SZ EP       17 5 51.24                             149    0.1910 78.2  38 
 PAM  SN ES   1   17 6  7.82                             149   -0.13 7 78.2  38 
 PAM  SN I        17 6  9.10        27.4 0.24                          78.2  38 
 RUS  HZ EP       17 5 52.27                             143   -0.1610 98.6 177 
 RUS  HN ES   1   17 6 10.70                             143    0.28 7 98.6 177 
 ZAR  HZ EP   3   17 6  1.48                             121   -0.15 2  206 293 
 ZAR  HE ES   1   17 6 26.54                             121   -0.25 6  206 293 
 ZAR  HN I        17 6 32.25        16.8 0.30                           206 293 
 CHI  HZ EP   3   17 6  7.13                             116    0.54 2  247 196 
 CHI  HN ES   3   17 6 35.06                             116   -0.56 2  247 196 
 CHI  HN I        17 6 37.85        10.2 0.34                           247 196 
                                                                                
