 2013  9 7 1603 42.7 L   6.764 -73.151143.9  RSN  6 0.5 1.8LRSN                1
 GAP=137        1.11       5.9     5.4  8.7 -0.2104E+01  0.1203E+02 -0.4946E+01E
 Epicentro: LOS SANTOS - SANTANDER                                             3
 ACTION:UPD 13-10-22 09:20 OP:ep   STATUS:               ID:20130907160342 L   I
 OLDACT:UP  13-09-07 17:24 OP:cam  STATUS:               ID:20130907155959     3
 OLDACT:REG 13-09-07 15:29 OP:cam  STATUS:               ID:20130907155959     3
 2013-09-07-1559-59M.COL___269                                                 6
 STAT SP IPHASW D HRMM SECON CODA AMPLIT PERI AZIMU VELO AIN AR TRES W  DIS CAZ7
 BAR2 SZ EP       16 4  2.02                             172   -0.0110 19.3 190 
 BAR2 SZ ES       16 4 16.94                             172   -0.1710 19.3 190 
 BAR2 SZ I        16 4 17.82        12.2 0.19            172           19.3 190 
 BRR  HZ EP       16 4  3.91                             152    0.1810 72.7 301 
 BRR  HN ES   1   16 4 20.90                             152    0.77 7 72.7 301 
 BRR  HZ I        16 4 25.07        19.0 0.30            151           72.7 301 
 PAM  SZ EP       16 4  5.03                             149    0.1010 80.8  38 
 PAM  SN ES       16 4 21.83                             149   -0.4310 80.8  38 
 PAM  SZ I        16 4 23.87        12.4 0.48            153           80.8  38 
 RUS  HZ EP   1   16 4  6.51                             144    0.52 7 96.7 176 
 RUS  HN ES       16 4 24.45                             144    0.3010 96.7 176 
 RUS  HZ I        16 4 25.55        10.5 0.36            148           96.7 176 
 PTB  HZ EP       16 4  8.82                             132   -0.58 9  146 260 
 PTB  HN ES       16 4 29.56                             132   -0.66 9  146 260 
 PTB  HZ I        16 4 34.55         5.7 0.20            133            146 260 
 ZAR  HN ES   1   16 4 41.37                             122    0.95 6  205 293 
                                                                                
