 2013  4 7 1631 20.6 L   6.468 -73.679100.0  RSN  5 0.4 1.3LRSN                1
 GAP= 99        0.91       5.0     5.4 12.1  0.8228E+01  0.3656E+02  0.1543E+02E
 Epicentro: SANTA HELENA DEL OPON - SANTANDER                                  3
 ACTION:UPD 13-05-22 14:36 OP:EP   STATUS:               ID:20130407163120 L   I
 2013-04-07-1630-00M.COL___245                                                 6
 STAT SP IPHASW D HRMM SECON CODA AMPLIT PERI AZIMU VELO AIN AR TRES W  DIS CAZ7
 BAR2 SZ EP       1631 36.56                             149    0.1610 56.6  76 
 BAR2 SZ ES       1631 49.25                             149    0.5610 56.6  76 
 BAR2 SZ I        1631 50.50        22.2 0.22            156           56.6  76 
 BRR  HZ EP       1631 36.77                             142   -0.2810 70.8 357 
 BRR  HE ES   1   1631 49.21                             142   -0.64 7 70.8 357 
 RUS  HZ EP   1   1631 39.37                             135   -0.07 7 91.6 134 
 RUS  HE ES   1   1631 53.57                             135   -0.54 7 91.6 134 
 RUS  HZ I        1631 56.24         2.3 0.13            139           91.6 134 
 NOR  HE ES   1   1632  6.47                             116    0.15 7  165 233 
 NOR  HZ I        1632  9.22         2.0 0.18            119            165 233 
 ZAR  HN ES   1   1632  8.06                             115    0.43 7  173 311 
 ZAR  HZ I        1632 10.45         2.3 0.24            118            173 311 
                                                                                
