 2017  6 7 1207  7.0 L   6.774 -73.168147.2  RSN 10 0.3 2.1LRSN                1
 GAP=209        0.92       4.1     3.6  6.6  0.5989E+01 -0.1450E+01 -0.1310E+01E
 Epicentro: LOS SANTOS - SANTANDER                                             3
 ACTION:UPD 17-09-14 16:50 OP:jn   STATUS:               ID:20170607120707 L   I
 OLDACT:REG 17-06-07 20:39 OP:osc  STATUS:               ID:20170607115733     3
 2017-06-07-1158-00M.COL___365                                                 6
 STAT SP IPHASW D HRMM SECON CODA AMPLIT PERI AZIMU VELO AIN AR TRES W  DIS CAZ7
 BRR  HZ IP     C 12 7 28.27                             153   -0.0310 70.5 302 
 BRR  HN ES       12 7 45.24                             153    0.3510 70.5 302 
 BRR  HZ I        12 7 48.39        22.2 0.20            151           70.5 302 
 RUS  HZ EP       12 7 30.29                             145   -0.4510 97.9 175 
 RUS  HN ES       12 7 49.01                             145   -0.2110 97.9 175 
 RUS  HZ I        12 7 49.79        13.2 0.22            143           97.9 175 
 PTB  HZ EP   4   12 7 32.68                             133   -1.17 0  145 260 
 PTB  HN ES       12 7 54.17                             133   -0.60 9  145 260 
 PTB  HZ I        12 7 56.05        12.5 0.26            131            145 260 
 TAM  HN ES   4   12 7 55.32                             130   -1.45 0  157 104 
 SPBC HZ EP       12 7 35.07                             130   -0.22 9  159 219 
 SPBC HE ES       12 7 57.24                             130   -0.08 9  159 219 
 SPBC HZ I        12 8  1.64        13.9 0.06            128            159 219 
 YPLC HZ EP       12 7 36.73                             127   -0.07 9  175 150 
 YPLC HN ES       12 8  0.61                             127    0.59 9  175 150 
 YPLC HZ I        12 8  3.38        12.2 0.26            127            175 150 
 ZAR  HZ EP       12 7 39.31                             123   -0.15 9  203 293 
 ZAR  HE ES       12 8  5.02                             123    0.27 9  203 293 
 ZAR  HZ I        12 8 11.17        23.5 0.42            122            203 293 
 NOR  HZ EP       12 7 42.82                             119    0.37 8  231 235 
 NOR  HE ES       12 8 10.39                             119    0.31 8  231 235 
 NOR  HZ I        12 8 14.39        14.2 0.40            118            231 235 
 HEL  HZ EP   4   12 7 48.21                             115    1.23 0  269 256 
 HEL  HN ES       12 8 18.44                             115    0.30 8  269 256 
 HEL  HZ I        12 8 24.70         8.0 0.28            114            269 256 
 ELA  HZ EP   9   12 7 56.38                             111    2.86 0  325 230 
 ELA  HN ES       12 8 32.04                                   -0.60 7  325 230 
 ELA  HZ I        12 8 38.88         4.4 0.26            110            325 230 
 CBOC HZ EP   9   12 7 54.58                             110    0.94 0  330 252 
 CBOC HE ES       12 8 30.04                                   -0.89 7  330 252 
                                                                                
