 2013  9 7 1727  5.4 L   6.847 -73.156146.8  RSN  8 0.4 1.9LRSN                1
 GAP=133        0.97       3.9     4.5  7.3 -0.2781E+01  0.4927E+01  0.2983E+01E
 Epicentro: LOS SANTOS - SANTANDER                                             3
 ACTION:UPD 13-10-22 09:20 OP:ep   STATUS:               ID:20130907172705 L   I
 OLDACT:UP  13-09-07 17:44 OP:cam  STATUS:               ID:20130907171959     3
 OLDACT:REG 13-09-07 15:33 OP:cam  STATUS:               ID:20130907171959     3
 2013-09-07-1719-59M.COL___269                                                 6
 STAT SP IPHASW D HRMM SECON CODA AMPLIT PERI AZIMU VELO AIN AR TRES W  DIS CAZ7
 BAR2 SZ EP       1727 25.14                             169   -0.1110 28.3 186 
 BAR2 SZ ES   1   1727 40.23                             169   -0.52 7 28.3 186 
 BAR2 SZ I        1727 42.16        13.1 0.34            171           28.3 186 
 BRR  HZ EP       1727 26.50                             154    0.0410 67.8 295 
 BRR  HN ES       1727 43.66                             154    0.7610 67.8 295 
 BRR  HZ I        1727 48.34        21.4 0.16            152           67.8 295 
 PAM  SZ EP       1727 27.71                             152    0.1810 74.2  43 
 PAM  SN ES       1727 44.63                             152   -0.1710 74.2  43 
 PAM  SZ I        1727 45.23        10.4 0.22            154           74.2  43 
 RUS  HZ EP   1   1727 29.46                             143   -0.16 7  106 176 
 RUS  HN ES       1727 48.68                             143    0.1610  106 176 
 RUS  HZ I        1727 49.87         6.7 0.22            147            106 176 
 PTB  HZ EP   1   1727 31.96                             132   -0.47 7  148 257 
 PTB  HN ES       1727 52.73                             132   -0.80 9  148 257 
 PTB  HZ I        1727 54.62        16.2 0.16            133            148 257 
 OCA  HN ES   1   1727 54.74                             131   -0.31 7  155 353 
 OCA  HZ I        1727 58.72         9.4 0.18            132            155 353 
 SPBC HZ EP       1727 34.67                             129    0.39 9  167 218 
 SPBC HN ES       1727 56.99                             129    0.17 9  167 218 
 ZAR  HZ EP   4   1727 39.13                             123    1.54 0  201 291 
 ZAR  HN ES   1   1728  3.08                             123    0.36 6  201 291 
 ZAR  HZ I        1728  8.49        22.3 0.28            124            201 291 
 GUY2CHZ EP   4   1727 50.65                             112    1.38 0  303 234 
                                                                                
