 2012  3 7 1327 57.2 L   6.803 -73.079148.4  RSN  9 1.6 2.3LRSN                1
 GAP=145        3.35      13.2    16.9 21.1  0.4722E+02  0.1284E+03  0.5504E+02E
 ACTION:UP  12-03-31 23:18 OP:EP   STATUS:               ID:20120307132757 L   I
 2012-03-07-1320-00M.COL___193                                                 6
 STAT SP IPHASW D HRMM SECON CODA AMPLIT PERI AZIMU VELO SNR AR TRES W  DIS CAZ7
 BAR2 SZ EP   1   1328 17.21                             170     0.0 7   26 206 
 BAR2 SZ ES       1328 31.78                             170    -1.010   26 206 
 BAR2 SZ I   L    1328 34.67        51.0 0.25                    1.910   26 206 
 PAM  SZ EP   1   1328 18.99                             150    -0.4 7   73  35 
 PAM  SN ES   1   1328 35.98                             150    -0.8 7   73  35 
 BRR  HZ EP   1   1328 18.91                             153    -0.1 7   78 296 
 BRR  HZ I   L    1328 19.09        92.8 0.16                    0.110   78 296 
 BRR  HN ES   1   1328 34.48                             153    -1.5 7   78 296 
 RUS  HZ EP   1   1328 21.50                             142     0.3 7  101 180 
 RUS  HN ES   1   1328 39.44                             142    -0.5 7  101 180 
 PTB  HZ EP   1   1328 23.73                             131    -1.3 7  155 259 
 PTB  HN ES   1   1328 44.96                             131    -1.8 7  155 259 
 ZAR  HZ EP   1   1328 29.96                             122    -0.5 6  211 291 
 ZAR  HN ES   1   1328 54.48                             122    -2.0 6  211 291 
 ZAR  HZ I   L    1329  1.11        13.6 0.33                    4.6 8  211 291 
 CHI  HZ EP   1   1328 35.33                             116     0.0 6  251 197 
 CHI  HN ES       1329  4.44                             116    -0.6 8  251 197 
 CHI  HZ I   L    1329  7.00         6.9 0.35                    2.0 8  251 197 
 HEL  HE ES   1   1329  7.74                             114    -2.7 6  279 256 
 PRA  HZ EP   1   1328 51.37                             106     0.1 4  396 210 
                                                                                
