 2015 12 7 1314 46.2 L   6.804 -73.110151.1  RSN 21 0.5 2.8LRSN                1
 GAP=122        1.07       2.8     3.9  4.9 -0.2067E+01  0.6093E+01  0.9332E+00E
 Epicentro: LOS SANTOS - SANTANDER                                             3
 ACTION:UPD 16-02-04 15:03 OP:cam  STATUS:               ID:20151207131446 L   I
 OLDACT:UP  15-12-07 22:55 OP:ar   STATUS:               ID:20151207130749     3
 OLDACT:REG 15-12-07 21:23 OP:ar   STATUS:               ID:20151207130749     3
 2015-12-07-1307-49M.COL___323                                                 6
 STAT SP IPHASW D HRMM SECON CODA AMPLIT PERI AZIMU VELO AIN AR TRES W  DIS CAZ7
 BAR2 EZ EP     D 1315  6.43                             170   -0.0710 24.8 199 
 BAR2 EZ ES       1315 21.83                             170   -0.5010 24.8 199 
 BRR  HZ EP     C 1315  8.30                             152    0.1910 74.5 297 
 BRR  HN ES       1315 25.90                             152    0.7010 74.5 297 
 BRR  HZ I        1315 27.94        58.3 0.14            148           74.5 297 
 PAM  EZ EP     D 1315  9.25                             153    0.4310 74.6  37 
 PAM  EN ES       1315 26.62                             153    0.1510 74.6  37 
 PAM  EZ I        1315 28.59        77.2 0.56            158           74.6  37 
 RUS  HZ EP       1315 10.37                             145   -0.1310  101 178 
 RUS  HN ES       1315 29.36                             145   -0.0910  101 178 
 RUS  HZ I        1315 29.96        44.6 0.26            147            101 178 
 PTB  HZ EP       1315 13.07                             132   -0.89 9  152 259 
 PTB  HN ES   4   1315 34.11                             132   -1.51 0  152 259 
 PTB  HZ I        1315 41.83        66.3 0.40            131            152 259 
 OCA  HZ EP       1315 15.23                             131    0.29 9  160 352 
 OCA  HN ES       1315 37.43                             131    0.08 9  160 352 
 OCA  HZ I        1315 42.32       173.9 0.28            132            160 352 
 SPBC HZ EP       1315 15.34                             130   -0.04 9  166 220 
 SPBC HE ES       1315 37.85                             130   -0.29 9  166 220 
 SPBC HZ I        1315 44.55       117.0 0.24            130            166 220 
 ZAR  HZ EP       1315 19.05                             123   -0.30 8  208 292 
 ZAR  HE ES       1315 44.65                             123   -0.56 8  208 292 
 ZAR  HZ I        1315 50.00        59.1 0.54            123            208 292 
 NOR  HZ EP       1315 22.57                             119   -0.04 8  238 235 
 NOR  HN ES   4   1315 49.91                             119   -1.11 0  238 235 
 NOR  HZ I        1315 57.70        49.1 0.22            120            238 235 
 SML  HZ EP       1315 23.38                             118    0.11 8  245 334 
 SML  HE ES       1315 52.52                             118    0.34 8  245 334 
 SML  HZ I        1315 56.12        95.3 0.10            119            245 334 
 ROSC BZ EP   2   1315 25.90                             117    1.02 4  255 212 
 ROSC BN ES   4   1315 57.13                             117    2.08 0  255 212 
 ROSC BZ I        1315 59.92        48.9 0.45            119            255 212 
 HEL  HZ EP   4   1315 28.36                             115    1.24 0  276 256 
 HEL  HN ES       1315 59.20                             115    0.16 7  276 256 
 HEL  HZ I        1316  5.22        24.6 0.30            116            276 256 
 URE  HZ EP   4   1315 26.32                             114   -1.60 0  287 292 
 URE  HN ES   4   1315 57.15                             114   -3.32 0  287 292 
 URE  HZ I        1316  7.13        38.6 0.30            115            287 292 
 SOCV BZ EP       1315 27.97                             113   -1.13 7  298  57 
 SOCV BN ES   4   1316  0.28                             113   -2.28 0  298  57 
 GUY2CHZ EP       1315 31.34                             113    0.89 7  305 235 
 GUY2CHN ES   4   1316  8.97                             113    4.00 0  305 235 
 GUY2CHZ I        1316 13.42        28.1 0.38                           305 235 
 CBOC HZ EP       1315 34.10                             111    0.32 7  338 252 
 CBOC HE ES   4   1316  9.30                             111   -1.60 0  338 252 
 CBOC HZ I        1316 21.91        11.5 0.52            111            338 252 
 DBB  SZ EP       1315 34.20                             110   -0.14 7  343 274 
 DBB  SZ ES       1316 10.90                             110   -1.00 7  343 274 
 ANIL HZ EP   4   1315 37.84                             109    1.27 0  360 225 
 ANIL HN ES       1316 15.84                             109   -0.02 6  360 225 
 PRA  HZ EP       1315 39.89                             107   -0.29 6  394 210 
 PRA  HE ES       1316 22.55                             107    0.26 6  394 210 
 PRA  HZ I        1316 25.58        17.9 0.28            108            394 210 
 ORTC HZ EP       1315 41.31                             107    0.69 6  398 217 
 ORTC HE ES       1316 24.39                             107    1.32 6  398 217 
 ORTC HZ I        1316 28.11        13.5 0.38            108            398 217 
 PAL  HZ EP       1315 41.97                             106    0.01 6  409 239 
 PAL  HE ES   4   1316 23.04                             106   -2.42 0  409 239 
 PAL  HZ I        1316 31.69         8.8 0.38            107            409 239 
                                                                                
