 2014 11 7 1723  1.3 L   6.116 -73.450127.4  RSN  9 0.4 1.8LRSN                1
 GAP= 96        1.02       3.5     4.6  6.9 -0.5237E+01  0.1223E+02  0.3818E+01E
 Epicentro: SUAITA - SANTANDER                                                 3
 ACTION:UPD 14-12-19 15:40 OP:nd   STATUS:               ID:20141107172301 L   I
 OLDACT:REG 14-11-07 23:20 OP:carl STATUS:               ID:20141107171750     3
 2014-11-07-1717-50M.COL___295                                                 6
 STAT SP IPHASW D HRMM SECON CODA AMPLIT PERI AZIMU VELO AIN AR TRES W  DIS CAZ7
 RUS  HZ EP       1723 19.93                             158   -0.0410 47.6 121 
 RUS  HN ES       1723 34.53                             158    0.0310 47.6 121 
 RUS  HZ I        1723 35.51        10.7 0.24            160           47.6 121 
 BAR2 SZ EP       1723 20.16                             153   -0.0810 60.4  29 
 BAR2 SZ ES       1723 35.52                             153    0.5410 60.4  29 
 BAR2 SZ I        1723 38.93        23.7 0.22            158           60.4  29 
 BRR  HZ EP       1723 23.22                             135   -0.4810  113 345 
 BRR  HN ES       1723 41.06                             135   -0.0810  113 345 
 BRR  HZ I        1723 43.75        16.2 0.16            140            113 345 
 PTB  HZ EP   4   1723 22.95                             134   -1.42 0  121 293 
 PTB  HN ES   4   1723 40.29                             134   -2.04 0  121 293 
 PTB  HZ I        1723 42.72        14.5 0.44            136            121 293 
 PAM  SZ EP       1723 28.84                             125    0.26 9  159  31 
 CHI  HZ EP       1723 29.39                             124    0.05 9  167 191 
 CHI  HN ES       1723 50.47                             124   -0.72 9  167 191 
 CHI  HZ I        1723 56.78         3.6 0.22            126            167 191 
 NOR  HZ EP       1723 28.93                             123   -0.07 9  169 249 
 NOR  HN ES       1723 50.01                             123   -0.56 9  169 249 
 NOR  HZ I        1723 54.05        11.1 0.20            126            169 249 
 GUY2CHZ EP       1723 36.72                             115    0.19 8  234 245 
 GUY2CHN ES       1724  4.49                             115    0.52 8  234 245 
 GUY2CHZ I        1724 11.27         2.8 0.52                           234 245 
 PRA  HZ EP       1723 44.46                             108   -0.15 7  310 211 
 PRA  HN ES       1724 19.49                             108    1.13 7  310 211 
 PRA  HZ I        1724 24.33         3.7 0.60            110            310 211 
                                                                                
