 2011  1 7 1617 16.0 L   6.789 -73.152139.3  RSN  6 0.2 1.8LRSN                1
 GAP=182        0.58       3.2     8.3  6.4 -0.4726E+01  0.1694E+02 -0.6586E+01E
 Epicentro: LOS SANTOS - SANTANDER                                             3
 ACTION:UP  11-02-08 08:39 OP:pat  STATUS:               ID:20110107161716 L   I
 2011-01-07-1600-00M.COL___137                                                 6
 STAT SP IPHASW D HRMM SECON CODA AMPLIT PERI AZIMU VELO SNR AR TRES W  DIS CAZ7
 BTL  SZ EP       1617 34.38                             172    -0.410   19 318 
 BAR2 SZ EP       1617 35.00                             171     0.210   22 189 
 BAR2 SZ I        1617 35.29        18.8 0.11                            22 189 
 BAR2 SZ ES   1   1617 49.73                             171     0.2 7   22 189 
 RUS  HZ EP       1617 39.06                             143     0.010   99 176 
 RUS  HZ I        1617 40.22         6.8 0.07                            99 176 
 RUS  HN ES   1   1617 56.94                             143    -0.1 7   99 176 
 OCA  SZ EP       1617 44.20                             128     0.3 9  161 353 
 OCA  SZ ES   2   1618  5.49                             128    -0.2 5  161 353 
 OCA  SZ I        1618 10.43        11.1 0.24                           161 353 
 NOR  SZ EP   2   1617 51.24                             117     0.0 4  234 235 
 NOR  SN ES   2   1618 18.80                             117     0.1 4  234 235 
 CHI  HE ES   2   1618 22.20                             116     0.0 4  247 195 
 CHI  HZ I        1618 33.39         2.7 0.51                           247 195 
                                                                                
