 2011  7 7 1825 59.4 L   6.734 -73.117148.1  RSN  4 0.1 1.6LRSN                1
 GAP=160        0.32       3.7     5.8  4.5  0.1051E+02 -0.1339E+02 -0.7360E+01E
 Epicentro: JORDAN - SANTANDER                                                 3
 ACTION:UPD 12-07-25 13:59 OP:epov STATUS:               ID:20110707182559 L   I
 2011-07-07-1823-39S.COL___139                                                 6
 STAT SP IPHASW D HRMM SECON CODA AMPLIT PERI AZIMU VELO AIN AR TRES W  DIS CAZ7
 BAR2 SZ EP       1826 19.16                             173   -0.0910 17.3 205 
 BAR2 SZ ES   1   1826 34.67                             173   -0.03 7 17.3 205 
 BAR2 SZ I        1826 37.79        10.3 0.19                          17.3 205 
 BRR  HZ EP   1   1826 21.33                             151    0.12 7 77.6 302 
 BRR  HZ I        1826 27.97        11.9 0.34                          77.6 302 
 BRR  HN ES   1   1826 38.16                             151   -0.03 7 77.6 302 
 RUS  HZ EP   2   1826 22.81                             146   -0.10 5 93.2 178 
 RUS  HZ I        1826 24.02         4.2 0.09                          93.2 178 
 RUS  HN ES   2   1826 41.42                             146    0.21 5 93.2 178 
 BRI  SZ EP   1   1826 24.06                             140    0.06 7  114  18 
                                                                                
