 2013 10 7 1618 23.3 L   6.806 -73.169134.2  RSN  5 0.2 1.6LRSN                1
 GAP=133        0.66       3.7     3.7  5.5 -0.3656E+01  0.6953E+01 -0.3003E+01E
 Epicentro: LOS SANTOS - SANTANDER                                             3
 ACTION:UPD 13-11-25 09:20 OP:ep   STATUS:               ID:20131007161823 L   I
 OLDACT:REG 13-10-07 15:28 OP:nd   STATUS:               ID:20131007160959     3
 2013-10-07-1609-59M.COL___273                                                 6
 STAT SP IPHASW D HRMM SECON CODA AMPLIT PERI AZIMU VELO AIN AR TRES W  DIS CAZ7
 BAR2 SZ EP       1618 41.39                             169   -0.1210 23.7 184 
 BAR2 SZ ES       1618 55.69                             169   -0.0510 23.7 184 
 BAR2 SZ I        1618 57.75        14.6 0.16            170           23.7 184 
 BRR  HZ EP       1618 43.46                             151    0.4510 68.6 299 
 BRR  HN ES   4   1619  2.51                             151    4.08 0 68.6 299 
 BRR  HZ I        1619  4.11        14.5 0.12            149           68.6 299 
 PAM  SZ EP       1618 44.47                             148    0.1410 78.5  41 
 PAM  SN ES       1619  0.58                             148   -0.1810 78.5  41 
 PAM  SZ I        1619  2.32         4.9 0.40            154           78.5  41 
 RUS  HZ EP       1618 45.99                             141    0.0310  101 175 
 RUS  HN ES       1619  3.75                             141    0.0810  101 175 
 RUS  HZ I        1619  5.56         3.2 0.44            147            101 175 
 PTB  HZ EP       1618 48.58                             130   -0.50 9  145 258 
 PTB  HN ES       1619  9.32                             130    0.09 9  145 258 
 PTB  HZ I        1619 15.02         5.8 0.22            131            145 258 
                                                                                
