 2011  6 7 1131 52.7 L   6.759 -73.098147.7  RSN 10 0.3 2.2LRSN                1
 GAP=145        0.55       2.3     4.6  4.0 -0.4064E+01  0.3526E+01  0.1090E+01E
 Epicentro: LOS SANTOS - SANTANDER                                             3
 ACTION:UP  11-07-14 19:03 OP:ep   STATUS:               ID:20110607113152 L   I
 2011-06-07-1130-20S.COL___132                                                 6
 STAT SP IPHASW D HRMM SECON CODA AMPLIT PERI AZIMU VELO SNR AR TRES W  DIS CAZ7
 BAR2 SZ EP   1   1132 12.54                             172     0.0 7   21 207 
 BAR2 SZ ES   1   1132 27.86                             172    -0.2 7   21 207 
 BAR2 SZ I        1132 29.09        85.6 0.14                            21 207 
 PAM  SE ES   1   1132 32.65                             151    -0.1 7   78  34 
 BRR  HZ EP   1   1132 14.47                             151     0.0 7   78 300 
 BRR  HE ES   1   1132 31.61                             151     0.1 7   78 300 
 BRR  HZ I        1132 34.91        37.6 0.22                            78 300 
 RUS  HZ EP   1   1132 16.48                             146     0.1 7   96 179 
 RUS  HN ES   1   1132 34.65                             146    -0.1 7   96 179 
 RUS  HZ I        1132 36.45        20.1 0.43                            96 179 
 BRI  SZ EP   1   1132 16.97                             141     0.0 7  111  17 
 BRI  SZ ES   1   1132 36.46                             141     0.5 7  111  17 
 BRI  SZ I        1132 43.20        11.5 0.42                           111  17 
 GRA  SZ EP   1   1132 17.92                             137    -0.5 7  129  15 
 GRA  SZ ES   1   1132 38.30                             137    -0.1 7  129  15 
 GRA  SZ I        1132 39.54        16.4 0.31                           129  15 
 OCA  SZ EP   1   1132 21.66                             129     0.0 7  165 352 
 OCA  SZ ES   1   1132 44.39                             129     0.1 7  165 352 
 OCA  SZ I        1132 47.35        20.4 0.27                           165 352 
 NOR  SZ EP   1   1132 28.49                             119    -0.3 6  237 236 
 NOR  SE ES   2   1132 56.64                             119    -0.3 4  237 236 
 CHI  HZ EP   1   1132 30.60                             118     0.4 6  246 197 
 CHI  HE ES   2   1132 59.85                             118     0.4 4  246 197 
 CHI  HZ I        1133  8.60        11.6 0.55                           246 197 
 PRA  HZ EP   1   1132 46.68                             107     0.5 4  391 211 
                                                                                
