 2014  6 7 1242  9.9 L   6.788 -73.179139.0  RSN 13 0.5 2.2LRSN                1
 GAP=133        1.26       3.8     5.0  6.7 -0.2989E+01  0.8744E+01  0.4813E+01E
 Epicentro: LOS SANTOS - SANTANDER                                             3
 ACTION:UPD 14-07-01 22:51 OP:nd   STATUS:               ID:20140607124209 L   I
 OLDACT:DUP 14-06-07 23:12 OP:stll STATUS:               ID:20140607123815d    3
 2014-06-07-1238-14M.COL___253                                                 6
 STAT SP IPHASW D HRMM SECON CODA AMPLIT PERI AZIMU VELO AIN AR TRES W  DIS CAZ7
 BAR2 SZ IP     D 1242 28.67                             171    0.0210 21.7 181 
 BAR2 SZ ES       1242 43.07                             171   -0.2310 21.7 181 
 BAR2 SZ I        1242 44.86        50.4 0.14            169           21.7 181 
 BRR  HZ IP     C 1242 30.60                             152    0.4610 68.6 301 
 BRR  HZ I        1242 30.80        33.4 0.26            150           68.6 301 
 BRR  HN ES       1242 47.09                             152    1.1410 68.6 301 
 PAM  SZ EP       1242 31.61                             149    0.0310 80.8  41 
 RUS  HZ EP       1242 32.71                             143   -0.1710 99.6 174 
 RUS  HN ES       1242 50.84                             143   -0.0010 99.6 174 
 RUS  HZ I        1242 51.98        11.5 0.22            143           99.6 174 
 PTB  HZ EP       1242 35.30                             131   -0.63 9  144 259 
 PTB  HN ES       1242 55.83                             131   -0.43 9  144 259 
 PTB  HZ I        1242 58.60        19.1 0.60            130            144 259 
 SPBC HZ EP       1242 37.69                             128    0.16 9  160 218 
 SPBC HN ES       1242 59.29                             128    0.18 9  160 218 
 OCA  HN ES       1242 58.46                             128   -1.03 9  161 355 
 ZAR  HZ EP       1242 41.33                             121   -0.24 9  201 293 
 ZAR  HN ES       1243  6.51                             121    0.21 9  201 293 
 ZAR  HZ I        1243 13.23        12.4 0.26            121            201 293 
 NOR  HZ EP       1242 44.57                             117   -0.23 8  231 234 
 NOR  HE ES       1243 11.68                             117   -0.37 8  231 234 
 NOR  HZ I        1243 18.76        13.7 0.20            117            231 234 
 GUY2CHZ EP       1242 53.33                             111    0.59 7  297 235 
 GUY2CHN ES       1243 26.29                             111    0.11 7  297 235 
 GUY2CHZ I        1243 35.13        10.1 0.36                           297 235 
 RREF HZ EP       1242 56.79                             110    1.49 7  318 229 
 RREF HN ES       1243 30.12                             110   -0.62 7  318 229 
 RREF HZ I        1243 38.74         7.1 0.32            110            318 229 
 TOL  SZ EP       1242 57.78                             108    0.34 7  340 224 
 TOL  SN ES       1243 34.55                             108   -0.01 7  340 224 
 PRA  HZ EP       1243  3.07                             106    0.26 6  389 209 
 PRA  HN ES       1243 43.15                             106   -0.96 6  389 209 
 PRA  HZ I        1243 51.16         6.0 0.26            106            389 209 
                                                                                
