 2015  5 7 1357  2.7 L   6.782 -73.109148.0  RSN  5 0.4 1.8LRSN                1
 GAP=204        1.02       4.5     9.8  7.5  0.9566E+01  0.2864E+01 -0.7059E+01E
 Epicentro: LOS SANTOS - SANTANDER                                             3
 ACTION:UPD 15-09-10 22:02 OP:cam  STATUS:               ID:20150507135702 L   I
 OLDACT:REG 15-05-07 22:42 OP:stll STATUS:               ID:20150507134748     3
 2015-05-07-1347-48M.COL___282                                                 6
 STAT SP IPHASW D HRMM SECON CODA AMPLIT PERI AZIMU VELO AIN AR TRES W  DIS CAZ7
 BAR2 EZ EP       1357 22.67                             171    0.1310 22.5 201 
 BAR2 EZ ES       1357 37.98                             171   -0.0610 22.5 201 
 BAR2 EZ I        1357 38.84        13.3 0.18            171           22.5 201 
 BRR  HZ EP       1357 24.63                             151    0.3310 75.7 298 
 BRR  HN ES       1357 41.74                             151    0.5610 75.7 298 
 RUS  HZ EP   1   1357 26.97                             145    0.50 7 98.4 178 
 RUS  HZ I        1357 27.33         4.8 0.26            145           98.4 178 
 RUS  HN ES   1   1357 44.24                             145   -0.81 7 98.4 178 
 SPBC HZ EP       1357 31.57                             129    0.15 9  164 221 
 SPBC HZ I        1357 32.04        12.9 0.22            130            164 221 
 SPBC HN ES       1357 53.52                             129   -0.34 9  164 221 
 SML  HZ EP       1357 39.54                             118   -0.24 8  247 335 
 SML  HN ES       1358  8.00                             118   -0.74 8  247 335 
                                                                                
