 2011 12 7 1514 45.3 L   6.799 -72.977134.0  RSN  4 0.4 1.4LRSN                1
 GAP=224        0.92      10.9    21.1 12.8  0.1829E+03 -0.1438E+03 -0.8048E+02E
 Epicentro: CEPITA - SANTANDER                                                 3
 ACTION:UPD 12-07-13 16:14 OP:ep   STATUS:               ID:20111207151445 L   I
 2011-12-07-1510-00M.COL___182                                                 6
 STAT SP IPHASW D HRMM SECON CODA AMPLIT PERI AZIMU VELO AIN AR TRES W  DIS CAZ7
 BAR2 SZ EP   1   1515  3.73                             166   -0.06 7 32.2 225 
 BAR2 SZ ES   1   1515 17.61                             166   -0.57 7 32.2 225 
 BAR2 SZ I        1515 20.73         9.1 0.29                          32.2 225 
 GIR2 SZ EP   1   1515  4.54                             163    0.66 7 39.1 322 
 BRR  HZ EP       1515  5.87                             145   -0.4810 88.1 293 
 BRR  HE ES   1   1515 23.23                             145    0.50 7 88.1 293 
 BRR  HZ I        1515 27.51         6.4 0.11                          88.1 293 
 RUS  HZ EP   1   1515  7.98                             141    0.00 7  101 187 
 RUS  HE ES       1515 25.82                             141    0.1810  101 187 
 RUS  HZ I        1515 27.85         3.1 0.46                           101 187 
                                                                                
