 2012  2 7 1107 35.0 L   6.783 -73.189142.4  RSN 13 0.4 2.4LRSN                1
 GAP=132        0.68       2.7     3.5  4.7 -0.8069E+00  0.4197E+01  0.2417E+01E
 ACTION:UP  12-03-07 16:28 OP:epov STATUS:               ID:20120207110735 L   I
 2012-02-07-1100-00M.COL___187                                                 6
 STAT SP IPHASW D HRMM SECON CODA AMPLIT PERI AZIMU VELO AIN AR TRES W  DIS CAZ7
 BAR2 SZ EP   1   11 7 54.37                             171    0.15 7 21.1 178 
 BAR2 SZ ES   1   11 8  9.15                             171   -0.04 7 21.1 178 
 BAR2 SZ I        11 8 10.37        96.1 0.30                          21.1 178 
 GIR2 SZ EP   1   11 7 54.33                             166   -0.02 7 32.7 359 
 BRR  HZ EP       11 7 56.08                             153    0.4310 68.0 302 
 BRR  HZ I        11 7 56.33       197.1 0.12                          68.0 302 
 BRR  HN ES   1   11 8 12.37                             153    0.65 7 68.0 302 
 PAM  SZ EP   1   11 7 57.03                             149   -0.15 7 81.9  41 
 PAM  SN ES   1   11 8 13.97                             149   -0.48 7 81.9  41 
 PAM  SZ I        11 8 16.92        20.7 0.33                          81.9  41 
 RUS  HZ EP   1   11 7 58.30                             143   -0.06 7 99.2 173 
 RUS  HN ES   1   11 8 16.30                             143   -0.25 7 99.2 173 
 RUS  HZ I        11 8 18.95        19.1 0.18                          99.2 173 
 PTB  HZ EP   1   11 8  0.83                             132   -0.45 7  143 259 
 PTB  HN ES   1   11 8 21.32                             132   -0.43 7  143 259 
 OCA  SZ EP   1   11 8  3.71                             129    0.49 7  162 355 
 OCA  SZ ES   2   11 8 25.37                             129    0.17 5  162 355 
 ZAR  HZ EP   1   11 8  6.60                             122   -0.29 6  200 293 
 ZAR  HN ES   1   11 8 31.14                             122   -0.59 6  200 293 
 ZAR  HZ I        11 8 37.52        23.9 0.16                           200 293 
 NOR  SZ EP   1   11 8 10.34                             118    0.30 6  230 234 
 NOR  SN ES   1   11 8 37.51                             118    0.16 6  230 234 
 CHI  HZ EP   1   11 8 12.06                             117   -0.17 6  246 194 
 CHI  HN ES   1   11 8 41.63                             117    0.40 6  246 194 
 CHI  HZ I        11 8 46.30         8.8 0.34                           246 194 
 HEL  HZ EP   1   11 8 14.44                             114   -0.08 6  267 256 
 HEL  HZ I        11 8 52.79        15.2 0.29                           267 256 
 PRA  HZ EP   1   11 8 28.12                             106    0.14 4  388 209 
 PRA  HN ES   1   11 9  9.77                             106    0.49 4  388 209 
 PRA  HZ I        11 9 16.18        23.0 0.25                           388 209 
 SJA  SZ EP   1   11 8 28.40                             106   -0.75 4  397 192 
                                                                                
