 2017  1 7 1302 12.5 L   6.787 -73.174148.0  RSN  8 0.4 1.8LRSN                1
 GAP=233        1.05       5.9     6.8  7.9  0.2109E+02  0.1202E+02  0.9907E+01E
 Epicentro: LOS SANTOS - SANTANDER                                             3
 ACTION:UPD 17-05-22 15:56 OP:jn   STATUS:               ID:20170107130212 L   I
 OLDACT:UP  17-01-07 22:44 OP:dnl  STATUS:               ID:20170107125746     3
 OLDACT:UP  17-01-07 22:44 OP:dnl  STATUS:               ID:20170107125746     3
 OLDACT:UP  17-01-07 22:43 OP:dnl  STATUS:               ID:20170107125746     3
 OLDACT:REG 17-01-07 21:06 OP:dnl  STATUS:               ID:20170107125746     3
 2017-01-07-1258-00M.COL___381                                                 6
 STAT SP IPHASW D HRMM SECON CODA AMPLIT PERI AZIMU VELO AIN AR TRES W  DIS CAZ7
 BAR2 EZ EP       13 2 32.13                             171   -0.1910 21.5 182 
 BAR2 EZ ES       13 2 47.06                             171   -0.7510 21.5 182 
 BAR2 EZ I        13 2 49.62        13.4 0.26            168           21.5 182 
 BRR  HZ EP       13 2 33.98                             154    0.2510 69.2 301 
 BRR  HN ES       13 2 51.23                             154    0.9010 69.2 301 
 BRR  HZ I        13 2 55.55        10.6 0.30            151           69.2 301 
 RUS  HZ EP       13 2 36.47                             145    0.1310 99.4 174 
 RUS  HN ES       13 2 55.14                             145    0.1710 99.4 174 
 RUS  HZ I        13 2 56.50         8.4 0.24            145           99.4 174 
 PTB  HZ EP       13 2 38.93                             133   -0.37 9  144 259 
 PTB  HN ES       13 3  0.04                             133   -0.20 9  144 259 
 PTB  HZ I        13 3  1.93         7.7 0.42            132            144 259 
 ZAR  HZ EP   4   13 2 48.31                             123    3.51 0  202 293 
 ZAR  HN ES       13 3  9.73                             123   -0.31 9  202 293 
 ZAR  HZ I        13 3 15.51         5.4 0.56            123            202 293 
 CHI  HZ EP   2   13 2 50.26                             118    0.22 4  246 195 
 CHI  HE ES       13 3 19.61                             118    0.26 8  246 195 
 CHI  HZ I        13 3 21.82         3.6 0.28            118            246 195 
 GUY2CHZ EP   4   13 2 57.54                             113    1.76 0  298 235 
 GUY2CHN ES   4   13 3 32.25                             113    2.68 0  298 235 
 GUY2CHZ  IAML    13 3 38.47         5.0 0.28                           298 235 
 ORTC HZ EP   2   13 3  6.45                             107    0.36 3  392 216 
 ORTC HN ES   4   13 3 50.84                             107    2.91 0  392 216 
 ORTC HZ I        13 3 56.11         1.9 0.30            107            392 216 
                                                                                
