 2012  2 7 1757  0.5 L   6.752 -73.136140.4  RSN  7 0.3 2.1LRSN                1
 GAP=140        0.66       3.9     3.6  6.5 -0.6991E+00  0.6880E+01  0.3213E+01E
 ACTION:UP  12-03-07 16:28 OP:epov STATUS:               ID:20120207175700 L   I
 2012-02-07-1750-00M.COL___188                                                 6
 STAT SP IPHASW D HRMM SECON CODA AMPLIT PERI AZIMU VELO AIN AR TRES W  DIS CAZ7
 BAR2 SZ EP   1   1757 19.48                             172    0.10 7 18.4 196 
 BAR2 SZ I        1757 35.84        34.7 0.20                          18.4 196 
 BRR  HZ EP   1   1757 21.32                             150    0.05 7 74.8 302 
 BRR  HZ I        1757 29.62        30.9 0.34                          74.8 302 
 BRR  HN ES   1   1757 38.10                             150    0.61 7 74.8 302 
 PAM  SZ EP   1   1757 22.33                             149   -0.03 7 80.9  37 
 PAM  SN ES   1   1757 39.19                             149   -0.23 7 80.9  37 
 RUS  HZ EP   1   1757 23.58                             144    0.25 7 95.2 176 
 RUS  HN ES   1   1757 40.88                             144   -0.26 7 95.2 176 
 RUS  HZ I        1757 43.04        10.2 0.25                          95.2 176 
 PTB  HZ EP   1   1757 26.43                             131   -0.60 7  148 261 
 PTB  HN ES   1   1757 47.47                             131   -0.27 7  148 261 
 ZAR  HZ EP   1   1757 33.33                             121    0.42 6  207 293 
 ZAR  HN ES   1   1757 57.76                             121   -0.44 6  207 293 
 ZAR  HZ I        1758  4.13        22.3 0.31                           207 293 
 NOR  SZ EP   1   1757 35.81                             118    0.13 6  233 236 
 NOR  SN ES   1   1758  3.41                             118    0.29 6  233 236 
                                                                                
