 2012  5 7 1633 16.5 L   6.770 -73.155151.4  RSN  6 0.3 2.0LRSN                1
 GAP=137        0.80       5.6     5.1  7.3  0.5931E+00  0.7480E+01 -0.1537E+01E
 Epicentro: LOS SANTOS - SANTANDER                                             3
 ACTION:UP  12-07-05 12:03 OP:pat  STATUS:               ID:20120507163316 L   I
 2012-05-07-1630-00M.COL___192                                                 6
 STAT SP IPHASW D HRMM SECON CODA AMPLIT PERI AZIMU VELO SNR AR TRES W  DIS CAZ7
 BAR2 SZ EP   1   1633 36.77                             172     0.0 7   20 189 
 BAR2 SZ ES   1   1633 52.19                             172    -0.4 7   20 189 
 BAR2 SZ I        1633 53.12        33.5 0.46                            20 189 
 BRR  HZ EP       1633 38.54                             153     0.210   72 301 
 BRR  HZ I        1633 38.75        40.0 0.11                            72 301 
 BRR  HE ES   1   1633 56.04                             153     0.7 7   72 301 
 PAM  SZ EP   1   1633 39.88                             151     0.3 7   81  39 
 PAM  SE ES   1   1633 56.99                             151    -0.5 7   81  39 
 RUS  HZ EP   1   1633 40.70                             146     0.1 7   97 175 
 RUS  HE ES   1   1633 59.57                             146     0.2 7   97 175 
 RUS  HZ I        1634  0.44         7.6 0.31                            97 175 
 PTB  HZ EP   1   1633 43.47                             133    -0.4 7  146 260 
 PTB  HN ES   1   1634  4.99                             133    -0.1 7  146 260 
 PTB  HZ I        1634 12.00         7.9 0.47                           146 260 
 ZAR  HZ EP   2   1633 49.05                             123    -0.4 4  204 293 
 ZAR  HE ES   2   1634 14.81                             123    -0.2 4  204 293 
 ZAR  HZ I        1634 21.96         7.9 0.45                           204 293 
                                                                                
