 2012  1 7 1038  4.1 L   6.792 -73.152147.1  RSN  8 0.4 1.8LRSN                1
 GAP=136        0.87       4.9     5.1  8.8  0.2036E+01  0.8500E+01  0.6498E+01E
 Epicentro: LOS SANTOS - SANTANDER                                             3
 ACTION:UP  12-02-03 08:15 OP:REBC STATUS:               ID:20120107103804 L   I
 2012-01-07-1030-00M.COL___186                                                 6
 STAT SP IPHASW D HRMM SECON CODA AMPLIT PERI AZIMU VELO SNR AR TRES W  DIS CAZ7
 BAR2 SZ EP       1038 23.95                             171     0.110   22 189 
 BAR2 SZ I        1038 24.30        17.2 0.38                            22 189 
 GIR2 SZ EP       1038 23.91                             167     0.010   32 352 
 BRR  HZ IP     D 1038 25.68                             153     0.310   71 299 
 BRR  HN ES   1   1038 42.45                             153     0.5 7   71 299 
 BRR  HZ I        1038 47.45        20.9 0.12                            71 299 
 PAM  SZ EP       1038 26.69                             151     0.210   79  40 
 PAM  SN ES   1   1038 43.51                             151    -0.5 7   79  40 
 RUS  HZ EP       1038 27.93                             144     0.010  100 176 
 RUS  HN ES   1   1038 46.03                             144    -0.4 7  100 176 
 RUS  HZ I        1038 48.16         5.8 0.28                           100 176 
 PTB  HZ EP       1038 30.56                             132    -0.5 9  147 259 
 PTB  HE ES   2   1038 52.33                             132     0.2 5  147 259 
 PTB  HZ I        1038 54.21         8.4 0.16                           147 259 
 ZAR  HZ EP   2   1038 36.28                             123    -0.3 4  204 292 
 ZAR  HN ES   1   1039  1.43                             123    -0.5 6  204 292 
 ZAR  HZ I        1039  7.37        13.2 0.38                           204 292 
 CHI  HZ EP   3   1038 42.45                             117     0.7 2  248 195 
 CHI  HZ I        1038 44.80         2.1 0.16                           248 195 
 CHI  HE ES   2   1039 11.84                             117     0.7 4  248 195 
                                                                                
