 2013  3 7 1957 36.6 L   6.814 -73.148142.5  RSN 10 0.5 2.9LRSN                1
 GAP= 70        1.19       3.8     4.3  6.7  0.2068E+01  0.5058E+01  0.3730E+01E
 Epicentro: LOS SANTOS - SANTANDER                                             3
 ACTION:UPD 13-04-09 14:00 OP:ep   STATUS:               ID:20130307195736 L   I
 2013-03-07-1950-00M.COL___231                                                 6
 STAT SP IPHASW D HRMM SECON CODA AMPLIT PERI AZIMU VELO AIN AR TRES W  DIS CAZ7
 BAR2 SZ IP       1957 55.96                             170    0.1210 24.9 189 
 BAR2 SZ ES       1958 10.50                             170   -0.3710 24.9 189 
 BAR2 SZ I        1958 11.70       223.5 0.32            159           24.9 189 
 BRR  HZ EP       1957 57.78                             152    0.4710 70.2 297 
 BRR  HE ES       1958 14.39                             152    0.9010 70.2 297 
 BRR  HN I        1958 15.20       162.1 0.14            136           70.2 297 
 PAM  SZ EP       1957 58.89                             151    0.5110 76.3  40 
 PAM  SE ES       1958 15.39                             151    0.0010 76.3  40 
 PAM  SN I        1958 17.01       130.1 0.24            148           76.3  40 
 RUS  HZ EP       1958  0.02                             143   -0.1010  102 176 
 RUS  HN ES       1958 18.10                             143   -0.3910  102 176 
 RUS  HE I        1958 20.57        98.8 0.50            134            102 176 
 PTB  HZ EP       1958  2.63                             131   -0.65 9  148 258 
 PTB  HE I        1958 29.25        98.8 0.60            117            148 258 
 TAM  HZ IP     D 1958  4.43                             130    0.37 9  156 106 
 TAM  HZ I        1958  4.54        68.8 0.34            126            156 106 
 TAM  HN ES       1958 25.55                             130    0.05 9  156 106 
 OCA  HZ EP       1958  3.62                             129   -0.86 9  159 353 
 OCA  HN ES       1958 25.69                             129   -0.55 9  159 353 
 OCA  HE I        1958 33.04       140.9 0.28            119            159 353 
 ZAR  HE ES       1958 33.67                             122   -0.12 9  203 292 
 CHI  HZ EP       1958 14.45                             116    0.20 8  250 195 
 CHI  HE ES       1958 43.41                             116   -0.23 8  250 195 
 CHI  HN I        1958 49.96        45.6 0.30            108            250 195 
 HEL  HZ EP       1958 17.28                             114    0.64 8  272 255 
 HEL  HN I        1958 53.47        24.3 0.34            104            272 255 
                                                                                
