 2017  4 7 1316 16.1 L   6.845 -73.134147.7  RSN 21 0.4 2.8LRSN                1
 GAP=111        1.18       4.0     3.8  5.5  0.8106E+00  0.4009E+01  0.3073E+01E
 Epicentro: LOS SANTOS - SANTANDER                                             3
 ACTION:UPD 17-05-30 21:09 OP:jn   STATUS:               ID:20170407131616 L   I
 OLDACT:UP  17-04-07 21:56 OP:edw  STATUS:               ID:20170407130748d    3
 OLDACT:DUP 17-04-07 21:47 OP:edw  STATUS:               ID:20170407130748d    3
 2017-04-07-1308-00M.COL___368                                                 6
 STAT SP IPHASW D HRMM SECON CODA AMPLIT PERI AZIMU VELO AIN AR TRES W  DIS CAZ7
 BAR2 EZ IP     C 1316 35.97                             169   -0.1510 28.5 191 
 BAR2 EZ ES       1316 51.47                             169   -0.2310 28.5 191 
 BAR2 EZ I        1316 52.12       104.8 0.24            161           28.5 191 
 BRR  HZ IP     C 1316 37.58                             153    0.1410 70.1 294 
 BRR  HN ES       1316 54.53                             153    0.4810 70.1 294 
 BRR  HZ I        1316 59.75       126.3 0.18            150           70.1 294 
 PAM  EZ IP     C 1316 38.39                             152    0.0910 72.7  41 
 PAM  EN ES       1316 55.53                             152   -0.0510 72.7  41 
 PAM  EZ I        1316 57.42       114.9 0.22            162           72.7  41 
 RUS  HZ IP   9 C 1316 40.12                             143   -0.32 0  106 177 
 RUS  HN ES       1316 58.45                             141   -0.6210  106 177 
 RUS  HZ I        1317  0.28        66.5 0.38            140            106 177 
 PTB  HZ EP   9   1316 42.56                             132   -0.91 0  150 257 
 PTB  HN ES       1317  4.13                             132    0.25 9  150 257 
 PTB  HZ I        1317  6.34       167.3 0.52            129            150 257 
 SPBC HZ EP       1316 45.10                             128   -0.14 9  168 218 
 SPBC HN ES       1317  7.73                             128   -0.20 9  168 218 
 SPBC HZ I        1317 14.44        76.2 0.18            126            168 218 
 YPLC HZ IP     C 1316 46.64                             126    0.19 9  181 152 
 YPLC HN ES       1317  9.75                             126   -0.34 9  181 152 
 YPLC HZ I        1317 13.54        56.5 0.28            127            181 152 
 ZAR  HZ EP       1316 48.56                             122   -0.09 9  203 291 
 ZAR  HN ES       1317 14.22                             122    0.22 9  203 291 
 ZAR  HZ I        1317 19.54       193.4 0.30            122            203 291 
 NOR  HZ EP       1316 52.48                             118    0.07 8  239 234 
 NOR  HN ES       1317 20.03                             118   -0.67 8  239 234 
 NOR  HZ I        1317 25.55        43.8 0.18            117            239 234 
 CHI  HZ EP   9   1316 54.60                             117    0.09 0  254 195 
 CHI  HN ES       1317 23.55                             116   -0.98 8  254 195 
 CHI  HZ I        1317 29.87        18.7 0.24            116            254 195 
 ROSC BZ EP   4   1316 56.29                             116    1.38 0  258 211 
 ROSC BN ES   4   1317 27.45                             116    2.31 0  258 211 
 ROSC BZ I        1317 34.27        45.1 0.40            115            258 211 
 HEL  HZ EP   4   1316 57.94                             114    1.21 0  275 255 
 HEL  HN ES       1317 28.92                             114    0.53 8  275 255 
 HEL  HZ I        1317 35.86        47.1 0.46            114            275 255 
 URE  HZ EP   9   1316 55.33                             114   -1.90 0  283 291 
 URE  HN ES       1317 26.90                             114   -0.48 7  283 291 
 URE  HZ I        1317 29.75        61.4 0.16            114            283 291 
 ELA  HZ EP   4   1317  5.04                             110    1.48 0  333 229 
 ELA  HN ES   4   1317 37.85                             110   -2.69 0  333 229 
 ELA  HZ I        1317 52.42        30.8 0.46            110            333 229 
 CBOC HZ EP   4   1317  4.47                             110    1.02 0  336 251 
 CBOC HN ES   4   1317 37.78                             110   -2.58 0  336 251 
 CBOC HZ I        1317 51.86        14.9 0.28            110            336 251 
 DBB  EZ EP   2   1317  3.65                             109   -0.15 3  340 273 
 DBB  EN ES   4   1317 39.47                             109   -1.51 0  340 273 
 DBB  EZ I        1317 44.28        25.4 0.18            110            340 273 
 ANIL HZ EP   4   1317  8.02                             108    1.48 0  362 224 
 ANIL HN ES   4   1317 47.38                             108    1.53 0  362 224 
 ANIL HZ I        1317 57.23        61.5 0.40            108            362 224 
 PRA  HZ EP       1317 10.95                             106    0.64 6  397 209 
 PRA  HN ES       1317 53.22                             106    0.66 6  397 209 
 PRA  HZ I        1317 57.10        24.0 0.30            106            397 209 
 APAC HZ EP       1317  9.64                             106   -0.72 6  398 287 
 APAC HN ES       1317 51.76                             106   -0.89 6  398 287 
 APAC HZ I        1317 56.19        21.1 0.50            107            398 287 
 ORTC HZ EP       1317 11.36                             106    0.67 6  400 216 
 ORTC HN ES   4   1317 55.01                             106    1.77 0  400 216 
 ORTC HZ I        1318  0.92         8.1 0.42            106            400 216 
 SJC  HZ EP   9   1317  9.85                             106   -1.51 0  406 326 
 SJC  HN ES       1317 50.52                             106   -2.40 6  406 326 
 SJC  HZ I        1317 54.78         9.6 0.56            107            406 326 
                                                                                
