 2011  6 7 1830 49.2 L   6.329 -73.603113.5  RSN  4 0.2 1.6LRSN                1
 GAP=113        0.50       4.5     4.5  7.9 -0.1693E+01  0.1826E+02  0.1044E+02E
 Epicentro: SANTA HELENA DEL OPON - SANTANDER                                  3
 ACTION:UP  11-07-14 19:03 OP:ep   STATUS:               ID:20110607183049 L   I
 2011-06-07-1826-35S.COL___132                                                 6
 STAT SP IPHASW D HRMM SECON CODA AMPLIT PERI AZIMU VELO SNR AR TRES W  DIS CAZ7
 BAR2 SZ IP       1831  6.48                             152     0.110   55  58 
 BAR2 SZ ES   1   1831 19.57                             152    -0.1 7   55  58 
 BAR2 SZ I        1831 20.88        15.0 0.22                            55  58 
 RUS  HZ EP   1   1831  7.74                             144    -0.2 7   75 130 
 RUS  HZ I        1831  8.24         4.0 0.21                            75 130 
 RUS  HE ES   2   1831 22.77                             144     0.2 5   75 130 
 BRR  HZ EP   2   1831  7.75                             140    -0.4 5   87 352 
 BRR  HZ I        1831  8.27        12.2 0.36                            87 352 
 BRR  HE ES   2   1831 23.10                             140     0.2 5   87 352 
 NOR  SZ EP   1   1831 15.75                             120     0.2 7  164 239 
 NOR  SN ES   2   1831 35.75                             120    -0.2 5  164 239 
                                                                                
