 2014 10 7 1353 26.7 L   6.787 -73.195148.8  RSN  6 0.5 1.4LRSN                1
 GAP=131        1.31       6.9     6.7  8.9 -0.5380E+01  0.8914E+01  0.8688E+01E
 Epicentro: ZAPATOCA - SANTANDER                                               3
 ACTION:UPD 14-11-29 23:47 OP:nd   STATUS:               ID:20141007135326 L   I
 OLDACT:DUP 14-10-08 01:48 OP:stll STATUS:               ID:20141007134749d    3
 2014-10-07-1347-48M.COL___292                                                 6
 STAT SP IPHASW D HRMM SECON CODA AMPLIT PERI AZIMU VELO AIN AR TRES W  DIS CAZ7
 BAR2 SZ EP       1353 46.64                             171   -0.0110 21.6 176 
 BAR2 SZ ES       1354  2.05                             171   -0.1710 21.6 176 
 BAR2 SZ I        1354  6.44         7.2 0.16            172           21.6 176 
 BRR  HZ EP       1353 48.55                             154    0.5910 67.2 302 
 BRR  HN ES       1354  5.44                             154    0.9010 67.2 302 
 PAM  SZ EP       1353 49.47                             150   -0.0410 82.0  42 
 PAM  SN ES       1354  6.71                             150   -0.5910 82.0  42 
 PAM  SZ I        1354  8.64         6.5 0.58            153           82.0  42 
 RUS  HZ EP       1353 50.55                             145   -0.1310 99.7 173 
 RUS  HN ES       1354  9.68                             145    0.3010 99.7 173 
 RUS  HZ I        1354 10.07         2.5 0.26            147           99.7 173 
 PTB  HZ EP       1353 53.10                             134   -0.31 9  142 259 
 PTB  HN ES       1354 13.30                             134   -0.95 9  142 259 
 PTB  HZ I        1354 16.59         3.8 0.16            136            142 259 
 SPBC HZ EP       1353 55.33                             131    0.32 9  159 218 
                                                                                
