 2012 11 7 1606 56.3 L   6.793 -73.141141.5  RSN 11 0.5 2.5LRSN                1
 GAP=137        0.95       3.8     4.5  6.6 -0.4127E+00  0.1092E+02  0.4385E+01E
 Epicentro: LOS SANTOS - SANTANDER                                             3
 ACTION:UPD 12-12-05 15:31 OP:}ep  STATUS:               ID:20121107160656 L   I
 2012-11-07-1600-00M.COL___230                                                 6
 STAT SP IPHASW D HRMM SECON CODA AMPLIT PERI AZIMU VELO AIN AR TRES W  DIS CAZ7
 BAR2 SZ IP     D 16 7 15.41                             170    0.0610 22.7 192 
 BAR2 SZ ES   1   16 7 29.67                             170   -0.58 7 22.7 192 
 BAR2 SZ I        16 7 32.35        41.9 0.12                          22.7 192 
 BRR  HZ IP     C 16 7 17.18                             151    0.2010 72.0 299 
 BRR  HN ES   1   16 7 34.16                             151    1.01 7 72.0 299 
 BRR  HN I        16 7 38.01        98.9 0.16                          72.0 299 
 PAM  SZ EP       16 7 18.23                             150    0.2010 77.7  39 
 PAM  SN ES   1   16 7 35.21                             150    0.20 7 77.7  39 
 PAM  SN I        16 7 37.32        84.9 0.48                          77.7  39 
 RUS  HZ EP       16 7 19.46                             143   -0.0610 99.8 176 
 RUS  HE ES   1   16 7 37.88                             143    0.20 7 99.8 176 
 RUS  HE I        16 7 39.21        45.4 0.24                          99.8 176 
 PTB  HZ EP       16 7 22.19                             131   -0.71 9  148 259 
 PTB  HN ES   1   16 7 43.19                             131   -0.50 7  148 259 
 PTB  HN I        16 7 47.30        58.4 0.20                           148 259 
 OCA  HE ES   1   16 7 45.39                             128   -0.80 7  161 353 
 ZAR  HZ EP   1   16 7 28.18                             121   -0.32 6  205 292 
 ZAR  HN ES   1   16 7 53.69                             121    0.04 6  205 292 
 ZAR  HN I        16 7 59.54        66.0 0.12                           205 292 
 CHI  HZ EP   1   16 7 33.84                             116    0.19 6  248 195 
 CHI  HN ES   1   16 8  2.20                             116   -0.62 6  248 195 
 HEL  HZ EP       16 7 36.76                             114    0.48 8  272 256 
 HEL  HN ES   1   16 8  7.95                             114    0.45 6  272 256 
 HEL  HN I        16 8 15.15        15.0 0.38                           272 256 
 RREF HZ EP   1   16 7 43.14                             110    0.94 5  322 230 
 RREF HE ES   1   16 8 18.12                             110    0.09 5  322 230 
 RREF HZ I        16 8 28.12         7.9 0.28                           322 230 
 DBB  SZ EP       16 7 43.52                             109   -0.10 7  340 274 
                                                                                
