 2010 12 7 1643  1.6 L   6.766 -73.114150.0  RSN 10 0.5 2.1LRSN                1
 GAP=181        0.95       5.8     9.9  8.3 -0.3949E+02  0.3210E+02 -0.3647E+01E
 Epicentro: LOS SANTOS - SANTANDER                                             3
 ACTION:UP  11-01-14 15:23 OP:pat  STATUS:               ID:20101207164301 L   I
 2010-12-07-1640-30S.COL___135                                                 6
 STAT SP IPHASW D HRMM SECON CODA AMPLIT PERI AZIMU VELO SNR AR TRES W  DIS CAZ7
 BAR2 SZ EP       1643 21.43                             172    -0.310   21 202 
 BAR2 SZ ES   1   1643 37.70                             172     0.3 7   21 202 
 BAR2 SZ I        1643 39.51        25.7 0.33                            21 202 
 BTL  SZ EP       1643 21.94                             171     0.210   24 315 
 GUE  SZ EP   1   1643 26.78                             140    -0.2 7  120  10 
 GRA  SZ EP       1643 28.03                             137     0.610  128  15 
 GRA  SZ ES   1   1643 47.09                             137    -0.5 7  128  15 
 GRA  SZ I        1643 49.22        14.6 0.31                           128  15 
 OCA  SZ EP       1643 30.48                             130    -0.2 9  164 352 
 OCA  SZ ES   2   1643 53.12                             130    -0.2 5  164 352 
 OCA  SZ I        1643 57.79        22.3 0.12                           164 352 
 NOR  SZ EP       1643 37.47                             119    -0.2 8  236 236 
 NOR  SN ES   1   1644  4.99                             119    -0.8 6  236 236 
 CHI  HZ EP   1   1643 38.68                             118    -0.6 6  246 196 
 CHI  HN ES   2   1644  9.15                             118     0.5 4  246 196 
 CHI  HZ I        1644 16.64         6.8 0.29                           246 196 
 HEL  HZ EP       1643 42.67                             115     0.4 8  275 257 
 HEL  HZ I        1644 21.13         7.6 0.20                           275 257 
 RREF HZ EP       1643 47.92                             112     0.0 7  322 230 
 RREF HN ES   2   1644 25.57                             112     1.5 3  322 230 
 RREF HZ I        1644 29.94         9.0 0.37                           322 230 
 PRA  HZ EP       1643 55.09                             107     0.0 6  390 210 
                                                                                
