 2015  2 7 1235 38.6 L   6.564 -73.593104.5  RSN  5 0.2 1.5LRSN                1
 GAP=141        0.63       4.9     2.9  5.7 -0.7136E+01  0.7161E+00  0.1258E+01E
 Epicentro: EL CARMEN - SANTANDER                                              3
 ACTION:UPD 15-04-30 21:23 OP:nd   STATUS:               ID:20150207123538 L   I
 OLDACT:REG 15-02-07 21:23 OP:cam  STATUS:               ID:20150207122747     3
 2015-02-07-1227-47M.COL___286                                                 6
 STAT SP IPHASW D HRMM SECON CODA AMPLIT PERI AZIMU VELO AIN AR TRES W  DIS CAZ7
 BAR2 EZ IP     D 1235 54.51                             155    0.3410 45.5  86 
 BAR2 EZ ES       1236  6.38                             155    0.0510 45.5  86 
 BAR2 EZ I        1236  8.00        14.4 0.14            159           45.5  86 
 RUS  HZ EP   1   1235 57.50                             135   -0.40 7 93.3 143 
 PTB  HZ EP     D 1235 57.33                             134   -0.1210 95.5 268 
 PTB  HN ES       1236 12.16                             134   -0.0110 95.5 268 
 PTB  HZ I        1236 15.81         8.6 0.16            136           95.5 268 
 SPBC HZ EP   1   1235 59.30                             128    0.06 7  114 208 
 PAM  SZ EP       1236  1.68                             125    0.2710  131  49 
 PAM  SN ES       1236 18.89                             125   -0.3410  131  49 
 PAM  SZ I        1236 20.52         3.4 0.20            128            131  49 
                                                                                
