 2017  4 7 1208 10.1 L   6.755 -73.136150.1  RSN  8 0.4 1.7LRSN                1
 GAP=140        0.87       3.3     4.0  5.7  0.2622E+00  0.6036E+01  0.3408E+01E
 Epicentro: LOS SANTOS - SANTANDER                                             3
 ACTION:UPD 17-05-30 21:09 OP:jn   STATUS:               ID:20170407120810 L   I
 OLDACT:UP  17-04-07 21:30 OP:edw  STATUS:               ID:20170407115745     3
 OLDACT:UP  17-04-07 21:30 OP:edw  STATUS:               ID:20170407115745     3
 OLDACT:REG 17-04-07 20:03 OP:ar   STATUS:               ID:20170407115745     3
 2017-04-07-1158-00M.COL___374                                                 6
 STAT SP IPHASW D HRMM SECON CODA AMPLIT PERI AZIMU VELO AIN AR TRES W  DIS CAZ7
 BAR2 EZ IP     C 12 8 30.15                             173   -0.0210 18.7 196 
 BAR2 EZ ES       12 8 46.10                             173    0.2810 18.7 196 
 BAR2 EZ I        12 8 46.55         8.8 0.74            168           18.7 196 
 BRR  HZ IP       12 8 31.98                             152    0.0710 74.6 301 
 BRR  HN ES       12 8 49.45                             152    0.5310 74.6 301 
 PAM  EZ IP     D 12 8 33.06                             151    0.0910 80.6  37 
 PAM  EN ES       12 8 50.32                             151   -0.4910 80.6  37 
 PAM  EZ I        12 8 52.19         6.8 0.44            154           80.6  37 
 RUS  HZ EP       12 8 34.40                             146    0.4710 95.5 177 
 RUS  HN ES       12 8 52.01                             146   -0.5010 95.5 177 
 RUS  HZ I        12 8 54.03         7.1 0.28            144           95.5 177 
 PTB  HZ EP   4   12 8 31.67                             133   -5.77 0  148 261 
 PTB  HN ES   2   12 8 58.29                             133   -0.48 5  148 261 
 PTB  HZ I        12 8 59.82         4.4 0.16            130            148 261 
 ZAR  HZ EP       12 8 42.71                             123   -0.42 8  207 293 
 ZAR  HN ES       12 9  8.90                             123    0.01 8  207 293 
 ZAR  HZ I        12 9 15.10         9.3 0.38            122            207 293 
 NOR  HZ EP   4   12 8 44.14                             120   -1.73 0  233 236 
 NOR  HN ES       12 9 13.36                             120   -0.42 8  233 236 
 NOR  HZ I        12 9 22.06         3.7 0.52            118            233 236 
 CHI  HZ EP       12 8 47.72                             118    0.17 8  244 196 
 CHI  HN ES       12 9 16.99                             118    0.22 8  244 196 
 CHI  HZ I        12 9 27.28         1.8 0.48            117            244 196 
                                                                                
