 2013  1 7 1319 35.8 L   6.790 -73.139142.0  RSN  9 0.5 3.1LRSN 3.2WRSN        1
 SPEC AVERAGE  MO 13.9 ST 11.2 OM  2.5 f0 4.51 R0.3363 AL 2.73 WI 15.2 MW  3.2 3
 SPEC SD       MO  0.2 ST  5.7 OM  0.4 f00.811 R0.0600 AL      WI      MW  0.1 3
 GAP=183        1.26       4.5     5.3  7.4  0.1106E+01  0.1244E+02 -0.3227E+01E
 Epicentro: LOS SANTOS - SANTANDER                                             3
 SPEC URE HH N MO 14.1 ST 12.7 OM  2.2 f0 4.18 R0.3517 AL 2.99 WI 22.8 MW  3.3 3
 SPEC URE HH N T132046 K 0.000 GD  318 VS 4.20 DE 3.20 Q0300.0 QA 0.60 VS 4.20 3
 SPEC ZAR HH N MO 13.8 ST  8.9 OM  2.0 f0 4.70 R0.3128 AL 2.13 WI 16.4 MW  3.1 3
 SPEC ZAR HH N T132032 K 0.000 GD  249 VS 4.20 DE 3.20 Q0300.0 QA 0.60 VS 4.20 3
 SPEC NOR HH N MO 13.8 ST 19.5 OM  2.0 f0 5.91 R0.2487 AL 3.45 WI 17.1 MW  3.2 3
 SPEC NOR HH N T132038 K 0.000 GD  274 VS 4.20 DE 3.20 Q0300.0 QA 0.60 VS 4.20 3
 SPEC OCA HH N MO 14.2 ST 13.2 OM  2.5 f0 3.84 R0.3828 AL 2.30 WI 15.6 MW  3.4 3
 SPEC OCA HH N T132023 K 0.000 GD  214 VS 4.20 DE 3.20 Q0300.0 QA 0.60 VS 4.20 3
 SPEC PTB HH N MO 13.7 ST  5.7 OM  2.0 f0 4.33 R0.3395 AL 2.62 WI 16.2 MW  3.1 3
 SPEC PTB HH N T132021 K 0.000 GD  205 VS 4.20 DE 3.20 Q0300.0 QA 0.60 VS 4.20 3
 SPEC BRR HH N MO 13.9 ST 16.3 OM  2.3 f0 5.30 R0.2774 AL 3.74 WI 11.9 MW  3.2 3
 SPEC BRR HH N T132012 K 0.000 GD  159 VS 4.20 DE 3.20 Q0300.0 QA 0.60 VS 4.20 3
 SPEC BAR2SH Z MO 13.6 ST  1.8 OM  2.0 f0 3.33 R0.4414 AL 1.91 WI  6.4 MW  3.0 3
 SPEC BAR2SH Z T1320 9 K 0.000 GD  143 VS 4.20 DE 3.20 Q0300.0 QA 0.60 VS 4.20 3
 ACTION:UPD 13-02-15 09:12 OP:ep   STATUS:               ID:20130107131936dL   I
 2013-01-07-1317-46M.COL___208                                                 6
 STAT SP IPHASW D HRMM SECON CODA AMPLIT PERI AZIMU VELO AIN AR TRES W  DIS CAZ7
 BAR2 SZ IP       1319 55.12                             171    0.2110 22.4 192 
 BAR2 SZ ES       1320  9.90                             171    0.0510 22.4 192 
 BAR2 SZ I        1320 11.03       148.4 0.28            169           22.4 192 
 BRR  HZ IP     D 1319 57.04                             151    0.4810 72.3 299 
 BRR  HN ES       1320 13.64                             151    0.8610 72.3 299 
 BRR  HN I        1320 14.06       300.2 0.22            147           72.3 299 
 RUS  HZ EP       1319 59.18                             143    0.1310 99.5 176 
 RUS  HN ES       1320 16.70                             143   -0.5210 99.5 176 
 PTB  HZ EP       1320  2.24                             131   -0.22 9  148 259 
 PTB  HN ES       1320 22.39                             131   -0.90 9  148 259 
 PTB  HN I        1320 25.08       183.6 0.24            129            148 259 
 OCA  HZ EP       1320  3.44                             129   -0.44 9  161 353 
 OCA  HN ES       1320 25.22                             129   -0.60 9  161 353 
 OCA  HN I        1320 29.47       385.9 0.32            128            161 353 
 ZAR  HZ EP       1320  8.23                             121    0.17 9  205 292 
 ZAR  HN ES       1320 33.87                             121    0.61 9  205 292 
 ZAR  HN I        1320 39.72       128.9 0.42            120            205 292 
 NOR  HZ EP       1320 11.79                             118    0.53 8  235 235 
 NOR  HN ES       1320 39.34                             118    0.39 8  235 235 
 NOR  HN I        1320 47.96        70.1 0.16            117            235 235 
 HEL  HZ EP       1320 16.40                             114    0.58 8  272 256 
 HEL  HE ES       1320 46.16                             114   -0.91 8  272 256 
 URE  HZ EP       1320 16.32                             113   -0.44 7  285 292 
 URE  HN ES       1320 48.55                             113   -0.19 7  285 292 
 URE  HN I        1320 59.27        82.9 0.24            112            285 292 
                                                                                
