 2015  7 7 1721  6.2 L   6.823 -73.117140.7  RSN  9 0.5 2.1LRSN                1
 GAP=139        1.04       3.1     5.3  8.8 -0.3456E+01  0.2487E+02  0.3352E+01E
 Epicentro: LOS SANTOS - SANTANDER                                             3
 ACTION:UPD 15-09-08 21:47 OP:cam  STATUS:               ID:20150707172106 L   I
 OLDACT:REG 15-07-07 21:34 OP:ar   STATUS:               ID:20150707171747     3
 2015-07-07-1717-47M.COL___339                                                 6
 STAT SP IPHASW D HRMM SECON CODA AMPLIT PERI AZIMU VELO AIN AR TRES W  DIS CAZ7
 PAM  EZ EP       1721 28.01                             151    0.3510 73.4  39 
 PAM  EN ES       1721 44.85                             151    0.4710 73.4  39 
 PAM  EZ I        1721 47.03        20.0 0.44            155           73.4  39 
 RUS  HZ EP       1721 29.41                             142   -0.2410  103 178 
 RUS  HE ES       1721 47.43                             142   -0.5010  103 178 
 RUS  HZ I        1721 48.01        17.7 0.46            145            103 178 
 OCA  HZ EP       1721 33.85                             129   -0.09 9  158 352 
 OCA  HN ES       1721 55.08                             129   -0.48 9  158 352 
 OCA  HZ I        1721 57.24        33.0 0.20            131            158 352 
 ZAR  HZ EP       1721 38.74                             121    0.19 8  206 291 
 ZAR  HN ES       1722  4.01                             121    0.24 8  206 291 
 ZAR  HZ I        1722  9.20        21.0 0.32            122            206 291 
 NOR  HZ EP       1721 41.37                             117   -0.73 8  239 234 
 NOR  HE ES       1722  9.80                             117   -0.29 8  239 234 
 NOR  HZ I        1722 14.38         9.7 0.46            119            239 234 
 CHI  HN ES       1722 14.15                             116    0.67 8  252 196 
 CHI  HZ I        1722 16.90         4.4 0.42            118            252 196 
 GUY2CHZ EP       1721 50.84                             111    0.78 7  305 235 
 GUY2CHN ES       1722 24.02                             111   -0.24 7  305 235 
 GUY2CHZ I        1722 30.44         7.0 0.22                           305 235 
 TOL  SN ES       1722 32.97                             108    0.37 6  348 225 
 TOL  SZ I        1722 34.50         3.9 0.29            110            348 225 
 PRA  HZ EP       1721 59.16                             105   -0.86 6  396 210 
 PRA  HN ES       1722 42.56                             105    0.58 6  396 210 
 PRA  HZ I        1722 42.81         5.0 0.28            107            396 210 
                                                                                
