 2010  7 7 1205 34.5 L   7.368 -73.114143.6  RSN  6 0.4 1.7LRSN                1
 GAP=143        0.91       7.5    13.3  9.3 -0.6493E+02  0.3343E+02 -0.2202E+02E
 Epicentro: MATANZA - SANTANDER                                                3
 ACTION:UPD 10-12-01 15:15 OP:pat  STATUS:               ID:20100707120534 L   I
 2010-07-07-1204-25S.COL___116                                                 6
 STAT SP IPHASW D HRMM SECON CODA AMPLIT PERI AZIMU VELO AIN AR TRES W  DIS CAZ7
 GIR2 SZ ES   2   12 6  9.36                             166     0.2 5   33 195 
 BRI  SZ EP   2   12 5 54.49                             159    -0.3 5   52  42 
 BRI  SZ ES   2   12 6 10.97                             159     0.5 5   52  42 
 GUE  SZ IP       12 5 55.65                             158     0.610   55  22 
 GUE  SZ I        12 5 55.93        11.0 0.15                            55  22 
 GUE  SZ ES   1   12 6 11.36                             158     0.2 7   55  22 
 GRA  SZ EP       12 5 54.99                             154    -0.410   67  31 
 GRA  SZ ES   2   12 6 10.76                             154    -1.0 5   67  31 
 GRA  SZ I        12 6 12.90         7.7 0.35                            67  31 
 BRR  HZ EP       12 5 55.40                             152    -0.110   72 247 
 BRR  HZ I        12 5 57.62        13.8 0.40                            72 247 
 BRR  HN ES   2   12 6 11.90                             152     0.0 5   72 247 
 BAR2 SZ EP   2   12 5 57.16                             148     0.4 5   86 185 
 BAR2 SZ ES       12 6 13.90                             148    -0.110   86 185 
 BAR2 SZ I        12 6 15.86         7.7 0.12                            86 185 
                                                                                
