 2010  9 7 1952 57.3 L   6.761 -72.994145.6  RSN  6 0.4 1.4LRSN                1
 GAP=182        0.69       6.9    14.7 10.1  0.3715E+02 -0.7430E+02 -0.2503E+02E
 Epicentro: CEPITA - SANTANDER                                                 3
 ACTION:UP  11-02-18 11:01 OP:tino STATUS:               ID:20100907195257 L   I
 2010-09-07-1948-03S.COL___120                                                 6
 STAT SP IPHASW D HRMM SECON CODA AMPLIT PERI AZIMU VELO SNR AR TRES W  DIS CAZ7
 BAR2 SZ EP   1   1953 17.02                             169     0.0 7   28 228 
 BAR2 SZ I        1953 17.33         8.3 0.07                            28 228 
 BAR2 SZ ES   2   1953 31.86                             169    -0.5 5   28 228 
 BTL  SZ EP   1   1953 17.13                             166    -0.1 7   35 300 
 BTL  SZ ES   2   1953 32.54                             166    -0.2 5   35 300 
 GIR2 SZ EP   1   1953 17.18                             163    -0.1 7   41 328 
 BRR  HZ EP   1   1953 18.94                             147    -0.5 7   88 296 
 BRR  HN ES   2   1953 37.62                             147     0.9 5   88 296 
 RUS  HZ EP   1   1953 20.93                             145     0.2 7   97 186 
 RUS  HN ES   2   1953 39.29                             145     0.3 5   97 186 
 RUS  HZ I        1953 41.70         3.2 0.39                            97 186 
 GUE  SZ EP   1   1953 22.47                             139     0.3 7  118   4 
                                                                                
