 2017  2 7 1821 32.9 L   6.731 -73.117143.7  RSN  5 0.2 1.6LRSN                1
 GAP=263        0.59       4.4     3.8  4.4  0.9990E+00  0.2321E+01  0.4057E+01E
 Epicentro: JORDAN - SANTANDER                                                 3
 ACTION:UPD 17-05-24 15:33 OP:jn   STATUS:               ID:20170207182132 L   I
 OLDACT:UP  17-02-08 00:03 OP:and  STATUS:               ID:20170207181741     3
 OLDACT:REG 17-02-07 21:18 OP:and  STATUS:               ID:20170207181741     3
 2017-02-07-1818-00M.COL___358                                                 6
 STAT SP IPHASW D HRMM SECON CODA AMPLIT PERI AZIMU VELO AIN AR TRES W  DIS CAZ7
 BAR2 EZ EP       1821 52.20                             173    0.0510 17.0 205 
 BAR2 EZ ES       1822  7.01                             173   -0.1610 17.0 205 
 BAR2 EZ I        1822  8.33         9.1 0.36            167           17.0 205 
 BRR  HZ EP       1821 53.97                             150   -0.2210 77.8 302 
 BRR  HN ES       1822 11.17                             150    0.3610 77.8 302 
 PTB  HZ EP   9   1821 59.08                             131   -0.77 0  150 262 
 PTB  HN ES       1822 20.14                                    0.03 9  150 262 
 PTB  HZ I        1822 22.41         4.2 0.26            130            150 262 
 ZAR  HN ES       1822 31.24                             121   -0.24 8  210 294 
 NOR  HZ EP       1822  8.65                             118    0.35 8  233 236 
 NOR  HN ES       1822 35.81                             118   -0.12 8  233 236 
 NOR  HZ I        1822 41.53         3.3 0.20            117            233 236 
                                                                                
