 2011 11 7 1317 15.7 L   6.787 -73.092142.0  RSN  4 0.2 1.4LRSN                1
 GAP=144        0.37       4.0     6.1  6.0  0.1040E+02 -0.1939E+02 -0.5659E+01E
 Epicentro: LOS SANTOS - SANTANDER                                             3
 ACTION:UPD 12-07-13 16:08 OP:ep   STATUS:               ID:20111107131715 L   I
 2011-11-07-1305-00M.COL___176                                                 6
 STAT SP IPHASW D HRMM SECON CODA AMPLIT PERI AZIMU VELO AIN AR TRES W  DIS CAZ7
 BAR2 SZ EP   2   1317 34.90                             170    0.04 5 23.7 205 
 BAR2 SZ ES   2   1317 49.54                             170   -0.28 5 23.7 205 
 BAR2 SZ I        1317 51.12         7.9 0.23                          23.7 205 
 PAM  SZ EP   1   1317 37.41                             151    0.07 7 75.0  35 
 BRR  HZ EP   1   1317 36.55                             150   -0.21 7 77.1 297 
 BRR  HZ I        1317 43.46         6.9 0.07                          77.1 297 
 BRR  HN ES   1   1317 53.38                             150    0.16 7 77.1 297 
 RUS  HZ EP   1   1317 38.96                             144    0.03 7 98.9 179 
 RUS  HE ES   2   1317 57.19                             144    0.12 5 98.9 179 
 RUS  HZ I        1317 58.94         2.6 0.15                          98.9 179 
                                                                                
