 2016  6 7 1210 35.7 L   6.744 -73.177151.0  RSN  4 0.2 1.3LRSN                1
 GAP=229        0.68       5.5     5.2  5.5  0.1380E+02  0.2487E+01  0.4837E+00E
 Epicentro: VILLANUEVA - SANTANDER                                             3
 ACTION:UPD 16-07-21 22:16 OP:rebc STATUS:               ID:20160607121035 L   I
 OLDACT:REG 16-06-07 20:39 OP:edw  STATUS:               ID:20160607120744     3
 2016-06-07-1207-44M.COL___328                                                 6
 STAT SP IPHASW D HRMM SECON CODA AMPLIT PERI AZIMU VELO AIN AR TRES W  DIS CAZ7
 BAR2 EZ EP       1210 55.56                             173   -0.3210 16.8 182 
 BAR2 EZ ES       1211 11.25                             173   -0.3510 16.8 182 
 BAR2 EZ I        1211 12.29         5.5 0.18                          16.8 182 
 BRR  HZ EP       1210 57.61                             153    0.1410 71.5 304 
 BRR  HN ES       1211 14.75                             153    0.3310 71.5 304 
 RUS  HZ EP       1210 59.72                             146    0.1210 94.7 174 
 RUS  HE ES       1211 18.48                             146    0.2710 94.7 174 
 RUS  HZ I        1211 19.23         2.4 0.48                          94.7 174 
 PTB  HZ EP       1211  2.69                             134   -0.04 9  143 261 
 PTB  HE ES       1211 23.61                             134   -0.19 9  143 261 
 PTB  HZ I        1211 27.83         2.4 0.10                           143 261 
                                                                                
