 2017 12 7 1018 58.8 L   6.805 -73.185142.8  RSN  9 0.3 1.8LRSN                1
 GAP=155        0.62       2.2     2.6  4.2  0.1412E+01  0.3073E+01  0.3245E+01E
 Epicentro: ZAPATOCA - SANTANDER                                               3
 ACTION:UPD 18-01-04 13:17 OP:rebc STATUS:               ID:20171207101858 L   I
 OLDACT:UP  17-12-07 21:13 OP:lv   STATUS:               ID:20171207101742     3
 OLDACT:REG 17-12-07 20:14 OP:lv   STATUS:               ID:20171207101742     3
 2017-12-07-1018-00M.COL___458                                                 6
 STAT SP IPHASW D HRMM SECON CODA AMPLIT PERI AZIMU VELO AIN AR TRES W  DIS CAZ7
 BAR2 HZ EP       1019 18.32                             170    0.2510 23.5 179 
 BAR2 HZ ES       1019 33.19                             170    0.0910 23.5 179 
 PTB  HZ EP       1019 24.84                             132   -0.29 9  144 258 
 PTB  HE ES       1019 45.85                             132    0.17 9  144 258 
 PTB  HZ I        1019 47.72         4.7 0.40            132            144 258 
 OCA  HE ES       1019 48.33                             129   -0.28 9  159 355 
 OCA  HZ I        1019 54.51        15.2 0.44            129            159 355 
 YPLC HZ EP       1019 28.57                             125   -0.05 9  179 150 
 YPLC HN ES       1019 51.64                             125   -0.26 9  179 150 
 YPLC HZ I        1019 55.24         7.2 0.30            126            179 150 
 ZAR  HZ EP       1019 30.87                             122    0.27 9  200 292 
 ZAR  HN ES       1019 55.44                             122    0.02 9  200 292 
 ZAR  HZ I        1020  1.21         4.3 0.38            122            200 292 
 CHI  HZ EP       1019 36.31                             117    0.06 8  248 194 
 CHI  HN ES       1020  5.76                             117    0.28 8  248 194 
 CHI  HZ I        1020  9.26         3.5 0.62            117            248 194 
 GUY2CHZ EP       1019 42.31                             112    0.42 7  298 234 
 GUY2CHN ES       1020 14.76                             112   -0.75 7  298 234 
 GUY2CHZ I        1020 22.17         2.4 0.40                           298 234 
 PRA  HN EP       1019 51.85                             106   -0.16 6  390 209 
 PRA  HE ES       1020 33.61                             106    0.09 6  390 209 
 PRA  HN I        1020 40.03         2.4 0.38            106            390 209 
 ORTC HZ EP       1019 52.62                             106    0.27 6  393 216 
 ORTC HN ES       1020 33.90                             106   -0.23 6  393 216 
 ORTC HZ I        1020 41.08         1.5 0.24            106            393 216 
 SJC  HZ EP   4   1019 52.35                             105   -1.57 0  406 327 
 SJC  HN ES   4   1020 32.22                             105   -4.71 0  406 327 
                                                                                
