 2011 12 7 1231 44.5 L   7.445 -73.172137.5  RSN  5 0.1 1.6LRSN                1
 GAP=225        0.34       3.8     3.5  4.0  0.2125E+00  0.2844E+01  0.2077E+00E
 Epicentro: EL PLAYON - SANTANDER                                              3
 ACTION:UPD 12-07-13 16:14 OP:ep   STATUS:               ID:20111207123144 L   I
 2011-12-07-1230-00M.COL___182                                                 6
 STAT SP IPHASW D HRMM SECON CODA AMPLIT PERI AZIMU VELO AIN AR TRES W  DIS CAZ7
 GIR2 SZ EP   1   1232  3.43                             163   -0.09 7 40.6 183 
 PAM  SE ES   1   1232 20.24                             158    0.05 7 53.5 103 
 BRR  HZ EP       1232  4.69                             151   -0.0410 70.3 238 
 BRR  HZ I        1232  4.92        24.7 0.12                          70.3 238 
 BRR  HE ES   1   1232 20.63                             151    0.13 7 70.3 238 
 BAR2 SZ EP   1   1232  6.60                             144   -0.05 7 94.3 181 
 BAR2 SZ ES   1   1232 23.78                             144   -0.13 7 94.3 181 
 BAR2 SZ I        1232 27.65         7.7 0.18                          94.3 181 
 RUS  HZ EP   2   1232 14.18                             126    0.38 4  172 177 
 RUS  HE ES   2   1232 36.70                             126    0.07 4  172 177 
 RUS  HZ I        1232 39.08         1.7 0.47                           172 177 
                                                                                
