 2010  7 7 1433  5.9 L   7.471 -73.141139.7  RSN  7 0.5 1.5LRSN                1
 GAP=153        1.13       9.5    13.7 10.5 -0.8115E+02 -0.7497E+01  0.2704E+02E
 Epicentro: EL PLAYON - SANTANDER                                              3
 ACTION:UPD 10-12-01 15:15 OP:pat  STATUS:               ID:20100707143305 L   I
 2010-07-07-1429-46S.COL___117                                                 6
 STAT SP IPHASW D HRMM SECON CODA AMPLIT PERI AZIMU VELO AIN AR TRES W  DIS CAZ7
 GIR2 SZ EP       1433 25.13                             162    -0.110   44 188 
 GUE  SZ EP   1   1433 26.05                             161     0.4 7   46  31 
 GUE  SZ ES   2   1433 41.60                             161     0.6 5   46  31 
 GUE  SZ I        1433 42.33         2.9 0.15                            46  31 
 BRI  SZ EP   1   1433 26.42                             160     1.0 7   47  54 
 BRI  SZ ES   1   1433 40.87                             160     0.2 7   47  54 
 BRI  SZ I        1433 44.53         6.1 0.32                            47  54 
 GRA  SZ EP   1   1433 25.54                             156    -0.4 7   59  39 
 GRA  SZ ES   1   1433 40.74                             156    -0.9 7   59  39 
 GRA  SZ I        1433 42.40         9.9 0.29                            59  39 
 BRR  HZ EP   1   1433 26.43                             150    -0.2 7   75 238 
 BRR  HZ I        1433 26.60        15.9 0.14                            75 238 
 BRR  HN ES   1   1433 42.89                             150     0.1 7   75 238 
 BAR2 SZ EP   1   1433 28.11                             143    -0.4 7   97 183 
 BAR2 SZ ES   1   1433 46.24                             143     0.2 7   97 183 
 BAR2 SZ I        1433 47.30         7.3 0.34                            97 183 
 RUS  HZ EP   1   1433 35.65                             126     0.0 7  175 178 
 RUS  HZ I        1433 35.79         2.1 0.13                           175 178 
                                                                                
