 2012  4 7 1545  7.2 L   6.565 -73.541107.4  RSN 18 0.5 2.7LRSN                1
 GAP= 51        1.24       4.3     4.4  7.7  0.1542E+01  0.1227E+02  0.9002E+01E
 Epicentro: EL CARMEN DE CHUCURI - SANTANDER                                   3
 ACTION:UPD 12-07-05 11:51 OP:tino STATUS:               ID:20120407154507 L   I
 2012-04-07-1540-00M.COL___196                                                 6
 STAT SP IPHASW D HRMM SECON CODA AMPLIT PERI AZIMU VELO AIN AR TRES W  DIS CAZ7
 BAR2 SZ IP       1545 23.18                             158     0.310   40  86 
 BAR2 SZ ES   1   1545 35.08                             158     0.0 7   40  86 
 BAR2 SZ I        1545 37.24       621.3 0.44                            40  86 
 BRR  HZ EP       1545 23.90                             147     0.110   63 343 
 BRR  HE ES   1   1545 37.73                             147     1.0 7   63 343 
 BRR  HZ I        1545 40.81        87.1 0.40                            63 343 
 RUS  HZ EP       1545 26.20                             137    -0.310   90 146 
 RUS  HE ES   1   1545 41.64                             137     0.0 7   90 146 
 RUS  HZ I        1545 43.09        71.9 0.24                            90 146 
 PTB  HZ IP     C 1545 26.00                             133    -0.810  101 268 
 PTB  HE ES   1   1545 41.43                             133    -0.7 7  101 268 
 PTB  HZ I        1545 42.26        84.6 0.48                           101 268 
 PAM  SZ EP       1545 29.56                             127    -0.310  126  47 
 PAM  SE ES   1   1545 47.46                             127     0.0 7  126  47 
 ZAR  HZ EP       1545 34.93                             116     0.3 9  178 305 
 ZAR  HZ I        1545 59.42       142.8 0.32                           178 305 
 YOP  SZ EP       1545 35.34                             115     0.1 9  183 137 
 YOP  SE ES   1   1545 57.40                             115     0.3 7  183 137 
 YOP  SZ I        1545 58.78        43.1 0.18                           183 137 
 NOR  SZ EP       1545 34.84                             115    -0.5 9  184 233 
 OCA  SZ EP       1545 35.51                             115    -0.2 9  187   8 
 CHI  HZ EP   2   1545 38.25                             111    -1.0 4  215 186 
 CHI  HE ES   2   1546  4.40                             111     0.1 4  215 186 
 CHI  HZ I        1546  9.22        13.6 0.26                           215 186 
 HEL  HZ EP       1545 40.50                             110     0.3 8  224 259 
 HEL  HZ I        1546 13.35        34.9 0.30                           224 259 
 GUY  SZ EP   2   1545 44.34                             107     0.6 4  253 234 
 GUY  SZ I        1546 17.46        45.3 0.34                           253 234 
 VIL  SN ES   3   1546 15.57                             106     0.3 2  272 184 
 RREF HZ EP       1545 46.55                             106     0.4 8  272 227 
 RREF HZ I        1546 25.47        23.7 0.22                           272 227 
 TOL  SZ EP       1545 49.50                             104     1.1 7  295 222 
 DBB  SZ EP   2   1545 49.16                             104     0.5 4  299 280 
 ANIL HZ EP   2   1545 50.99                             103     1.0 4  308 222 
 ANIL HZ I        1546 32.50        64.0 0.38                           308 222 
 PRA  HZ EP       1545 54.01                             101    -0.5 6  349 205 
                                                                                
