 2017  5 7 1800 51.0 L   6.832 -73.353117.7  RSN  4 0.3 1.4LRSN                1
 GAP=130        0.89       4.3     4.0  7.7  0.4915E+01  0.7335E+01  0.3766E+01E
 Epicentro: SAN VICENTE DE CHUCURI - SANTANDER                                 3
 ACTION:UPD 17-06-16 13:33 OP:jn   STATUS:               ID:20170507180051 L   I
 OLDACT:UP  17-05-07 21:35 OP:dani STATUS:               ID:20170507175740     3
 OLDACT:REG 17-05-07 20:30 OP:dani STATUS:               ID:20170507175740     3
 2017-05-07-1758-00M.COL___359                                                 6
 STAT SP IPHASW D HRMM SECON CODA AMPLIT PERI AZIMU VELO AIN AR TRES W  DIS CAZ7
 BRR  HZ EP       18 1  7.56                             155   -0.3610 49.9 308 
 BRR  HE ES       18 1 21.00                             155   -0.1310 49.9 308 
 BRR  HZ I        18 1 21.97         7.0 0.13            154           49.9 308 
 PAM  EZ EP       18 1 11.70                             140    0.3410 91.5  52 
 PAM  EN ES       18 1 27.20                             140   -0.0410 91.5  52 
 RUS  HZ EP       18 1 12.15                             135   -0.5910  108 164 
 RUS  HN ES       18 1 30.13                             135    0.4310  108 164 
 ZAR  HZ EP       18 1 19.60                             119    0.27 9  182 294 
 ZAR  HN ES       18 1 41.61                             119    0.18 9  182 294 
 ZAR  HZ I        18 1 43.90         3.5 0.30            118            182 294 
                                                                                
