 2011  9 7 1546 17.7 L   6.823 -73.123140.5  RSN  5 0.2 1.8LRSN                1
 GAP=242        0.41       4.2     5.5  4.2  0.1680E+02  0.4539E+01  0.2544E+01E
 Epicentro: LOS SANTOS - SANTANDER                                             3
 ACTION:UPD 12-07-13 15:56 OP:ep   STATUS:               ID:20110907154617 L   I
 2011-09-07-1540-46S.COL___171                                                 6
 STAT SP IPHASW D HRMM SECON CODA AMPLIT PERI AZIMU VELO AIN AR TRES W  DIS CAZ7
 BAR2 SZ EP   1   1546 36.58                             169   -0.15 7 26.4 195 
 BAR2 SZ ES   1   1546 51.44                             169   -0.16 7 26.4 195 
 BAR2 SZ I        1546 53.18        14.2 0.19                          26.4 195 
 BRR  HZ EP   1   1546 38.38                             151    0.06 7 72.3 296 
 BRR  HN ES   1   1546 54.68                             151    0.26 7 72.3 296 
 BRR  HZ I        1546 58.04        19.5 0.33                          72.3 296 
 RUS  HZ EP   1   1546 41.18                             142    0.09 7  103 178 
 RUS  HE ES   1   1546 59.38                             142    0.03 7  103 178 
 RUS  HZ I        1547  0.59         7.8 0.20                           103 178 
 ZAR  HZ EP   2   1546 50.31                             121    0.38 4  205 291 
 ZAR  HE ES   1   1547 14.77                             121   -0.32 6  205 291 
 ZAR  HZ I        1547 20.66         5.9 0.09                           205 291 
 CHI  HZ EP   2   1546 55.10                             116   -0.33 4  252 196 
 CHI  HE ES   2   1547 25.10                             116    0.22 4  252 196 
 CHI  HZ I        1547 30.77         3.8 0.41                           252 196 
                                                                                
