 2016  3 7 1009 41.9 L   6.819 -73.175139.7  RSN  5 0.3 1.4LRSN                1
 GAP=145        0.86       4.7     4.8  6.7 -0.1012E+02  0.9708E+01 -0.1663E+01E
 Epicentro: ZAPATOCA - SANTANDER                                               3
 ACTION:UPD 16-05-13 21:22 OP:cam  STATUS:               ID:20160307100941 L   I
 OLDACT:REG 16-03-07 19:58 OP:ar   STATUS:               ID:20160307100748     3
 2016-03-07-1007-48M.COL___318                                                 6
 STAT SP IPHASW D HRMM SECON CODA AMPLIT PERI AZIMU VELO AIN AR TRES W  DIS CAZ7
 BAR2 EZ EP       1010  0.45                             169   -0.3410 25.1 182 
 BAR2 EZ ES       1010 15.06                             169   -0.5110 25.1 182 
 BAR2 EZ I        1010 16.69         7.9 0.26            169           25.1 182 
 PAM  EZ IP     C 1010  3.69                             149    0.2310 77.9  42 
 PAM  EE ES       1010 20.44                             149    0.1210 77.9  42 
 PAM  EZ I        1010 22.42         4.8 0.40            154           77.9  42 
 RUS  HZ EP       1010  5.27                             142    0.0810  103 174 
 RUS  HN ES       1010 23.85                             142    0.4610  103 174 
 RUS  HZ I        1010 25.08         4.0 0.28            144            103 174 
 PTB  HZ EP       1010  7.79                             131   -0.29 9  145 258 
 PTB  HN ES       1010 29.04                             131    0.50 9  145 258 
 PTB  HZ I        1010 33.74         3.2 0.20            131            145 258 
 SPBC HZ EP       1010  9.79                             128   -0.07 9  163 218 
 SPBC HN ES       1010 31.49                             128   -0.21 9  163 218 
 SPBC HZ I        1010 38.71         3.7 0.40            129            163 218 
                                                                                
