 2017  8 7 1659  1.5 L   6.706 -73.217143.0  RSN  5 0.4 1.3LRSN                1
 GAP=214        1.14       8.9     8.6  9.5  0.4908E+02  0.2276E+02  0.8994E+01E
 Epicentro: VILLANUEVA - SANTANDER                                             3
 ACTION:UPD 17-09-04 20:17 OP:rebc STATUS:               ID:20170807165901 L   I
 OLDACT:REG 17-08-07 20:18 OP:dani STATUS:               ID:20170807165741     3
 2017-08-07-1658-00M.COL___393                                                 6
 STAT SP IPHASW D HRMM SECON CODA AMPLIT PERI AZIMU VELO AIN AR TRES W  DIS CAZ7
 BAR2 EZ ES       1659 34.93                             174   -0.6410 13.2 163 
 BRR  HZ EP       1659 22.03                             152   -0.2810 70.4 309 
 BRR  HE ES       1659 39.10                             152    0.5610 70.4 309 
 BRR  HZ I        1659 43.51         4.7 0.20            152           70.4 309 
 RUS  HZ EP       1659 24.89                             146    0.5610 91.2 171 
 RUS  HN ES       1659 42.33                             146    0.2010 91.2 171 
 RUS  HZ I        1659 43.33         2.7 0.22            149           91.2 171 
 PTB  HZ EP       1659 26.82                             133   -0.58 9  138 262 
 PTB  HN ES       1659 47.53                             133   -0.07 9  138 262 
 PTB  HZ I        1659 51.61         2.2 0.42            135            138 262 
 ZAR  HN ES       1659 58.63                             122    0.24 9  201 296 
                                                                                
