 2011  1 7 1607 25.0 L   7.099 -74.117 23.5  RSN  6 0.4 1.7LRSN                1
 GAP=189        0.59       4.1     5.1  4.9 -0.1173E+02  0.6164E+01 -0.5814E+01E
 Epicentro: BARRANCABERMEJA - SANTANDER                                        3
 ACTION:UP  11-02-08 08:39 OP:pat  STATUS:               ID:20110107160725 L   I
 2011-01-07-1600-00M.COL___137                                                 6
 STAT SP IPHASW D HRMM SECON CODA AMPLIT PERI AZIMU VELO SNR AR TRES W  DIS CAZ7
 BTL  SZ EP   1   16 7 40.55                             102    -0.2 7   96 102 
 GIR2 SZ EP   2   16 7 42.07                             101     0.5 5  102  91 
 BAR2 SZ EP   2   16 7 43.25                              56    -0.3 5  117 118 
 BAR2 SZ ES   2   16 7 58.49                              56     0.4 5  117 118 
 BAR2 SZ I        16 8  1.52         7.8 0.39                           117 118 
 OCA  SZ EP   2   16 7 48.75                              56     0.7 5  154  35 
 OCA  SZ ES   2   16 8  5.92                              56    -0.1 5  154  35 
 OCA  SZ I        16 8 10.47        12.6 0.52                           154  35 
 GRA  SZ EP   2   16 7 49.55                              56    -0.4 5  169  59 
 GRA  SZ ES   1   16 8  9.20                              56    -0.2 7  169  59 
 GRA  SZ I        16 8 10.15        18.6 0.31                           169  59 
 NOR  SZ EP   2   16 7 52.48                              56     0.2 4  189 206 
 NOR  SN ES   2   16 8 13.38                              56    -0.2 4  189 206 
                                                                                
