 2012  4 7 1229 16.3 L   6.768 -73.147145.4  RSN  8 0.5 1.8LRSN                1
 GAP=138        1.11       5.0     7.0  8.8  0.1560E+01  0.1295E+02 -0.2562E+01E
 Epicentro: LOS SANTOS - SANTANDER                                             3
 ACTION:UPD 12-07-05 11:51 OP:tino STATUS:               ID:20120407122916 L   I
 2012-04-07-1227-20M.COL___178                                                 6
 STAT SP IPHASW D HRMM SECON CODA AMPLIT PERI AZIMU VELO AIN AR TRES W  DIS CAZ7
 BAR2 SZ EP       1229 36.04                             172     0.210   20 191 
 BAR2 SZ ES   1   1229 50.58                             172    -0.5 7   20 191 
 BRR  HZ IP     C 1229 37.75                             152     0.210   73 301 
 BRR  HN ES   1   1229 54.66                             152     0.6 7   73 301 
 PAM  SZ EP       1229 38.75                             150     0.110   80  38 
 PAM  SN ES   1   1229 55.78                             150    -0.3 7   80  38 
 RUS  HZ EP       1229 40.15                             145     0.310   97 176 
 RUS  HN ES   1   1229 57.90                             145    -0.2 7   97 176 
 RUS  HZ I        1230  0.03         7.1 0.46                            97 176 
 PTB  HZ EP       1229 42.92                             132    -0.3 9  147 260 
 PTB  HZ I        1230  9.14         7.7 0.24                           147 260 
 OCA  SZ EP       1229 44.16                             129    -0.8 9  164 353 
 OCA  SZ ES   1   1230  8.26                             129     1.0 7  164 353 
 ZAR  HZ EP   2   1229 49.46                             122     0.6 4  205 293 
 ZAR  HN ES   1   1230 13.72                             122    -0.6 6  205 293 
 ZAR  HZ I        1230 19.35        11.8 0.30                           205 293 
 CHI  HN ES   2   1230 23.37                             117     0.6 4  245 195 
                                                                                
