 2010 10 7 1444  7.6 L   6.762 -73.117149.3  RSN  6 0.5 1.9LRSN                1
 GAP=186        1.20       9.5    11.9 10.6 -0.6873E+02 -0.1857E+02  0.3112E+02E
 Epicentro: LOS SANTOS - SANTANDER                                             3
 ACTION:UP  11-02-18 11:08 OP:tino STATUS:               ID:20101007144407 L   I
 2010-10-07-1440-25S.COL___122                                                 6
 STAT SP IPHASW D HRMM SECON CODA AMPLIT PERI AZIMU VELO SNR AR TRES W  DIS CAZ7
 BAR2 SZ EP       1444 27.85                             173     0.210   20 201 
 BAR2 SZ ES   1   1444 42.62                             173    -0.6 7   20 201 
 BAR2 SZ I        1444 45.77        22.5 0.51                            20 201 
 BRR  HZ EP       1444 29.69                             151     0.310   76 300 
 BRR  HN ES       1444 46.66                             151     0.210   76 300 
 BRR  HZ I        1444 55.05        24.2 0.05                            76 300 
 GRA  SZ EP       1444 33.61                             137     0.210  129  16 
 GRA  SZ ES   1   1444 53.64                             137     0.1 7  129  16 
 GRA  SZ I        1444 54.64         5.1 0.19                           129  16 
 NOR  SZ EP       1444 42.42                             119    -1.2 8  235 236 
 NOR  SN ES   2   1445 11.94                             119     0.3 4  235 236 
 RREF HN ES   2   1445 30.11                             112     0.1 3  321 230 
 RREF HZ I        1445 39.90         3.5 0.30                           321 230 
 PRA  HN ES   2   1445 43.88                             107     1.2 3  390 210 
                                                                                
