 2014  2 7 1540 47.7 L   6.644 -73.543102.6  RSN  4 0.5 1.4LRSN                1
 GAP=155        1.24       8.9     6.3 11.4  0.3359E+02  0.2051E+02 -0.1013E+02E
 Epicentro: EL CARMEN DE CHUCURI - SANTANDER                                   3
 ACTION:UPD 14-03-10 08:08 OP:ep   STATUS:               ID:20140207154047 L   I
 OLDACT:REG 14-02-07 17:44 OP:cam  STATUS:               ID:20140207154000     3
 2014-02-07-1540-00M.COL___291                                                 6
 STAT SP IPHASW D HRMM SECON CODA AMPLIT PERI AZIMU VELO AIN AR TRES W  DIS CAZ7
 BAR2 SZ EP       1541  2.87                             157    0.0310 40.3  98 
 BAR2 SZ ES       1541 14.27                             157   -0.3610 40.3  98 
 BAR2 SZ I        1541 15.94        13.7 0.22            159           40.3  98 
 RUS  HZ EP       1541  7.46                             133    0.2110 97.5 149 
 RUS  HN ES       1541 22.95                             133    0.4610 97.5 149 
 RUS  HZ I        1541 24.74         3.9 0.22            136           97.5 149 
 PTB  HZ EP       1541  6.56                             131   -0.4210  102 263 
 PTB  HN ES       1541 21.75                             131   -0.2610  102 263 
 PTB  HZ I        1541 23.37         3.5 0.20            133            102 263 
 ZAR  HZ EP       1541 13.68                             115   -0.60 9  173 303 
 ZAR  HN ES       1541 36.03                             115    1.03 9  173 303 
 ZAR  HZ I        1541 38.62         4.7 0.32            117            173 303 
                                                                                
