 2017  1 7 1911 43.0 L   6.764 -73.092140.2  RSN  6 0.3 1.5LRSN                1
 GAP=145        0.86       4.6     4.8  6.8  0.1693E+01  0.1010E+02 -0.2920E+01E
 Epicentro: LOS SANTOS - SANTANDER                                             3
 ACTION:UPD 17-05-22 15:56 OP:jn   STATUS:               ID:20170107191143 L   I
 OLDACT:UP  17-01-08 00:00 OP:dnl  STATUS:               ID:20170107190743     3
 OLDACT:UP  17-01-07 23:59 OP:dnl  STATUS:               ID:20170107190743     3
 OLDACT:REG 17-01-07 21:25 OP:dnl  STATUS:               ID:20170107190743     3
 2017-01-07-1908-00M.COL___375                                                 6
 STAT SP IPHASW D HRMM SECON CODA AMPLIT PERI AZIMU VELO AIN AR TRES W  DIS CAZ7
 BAR2 EZ EP   2   1912  1.73                             171   -0.22 5 21.4 208 
 BAR2 EZ ES       1912 16.23                             171   -0.4810 21.4 208 
 BAR2 EZ I        1912 18.88         6.3 0.24            173           21.4 208 
 PAM  EZ EP       1912  4.58                             150   -0.0510 77.0  34 
 PAM  EN ES       1912 21.69                             150    0.2110 77.0  34 
 PAM  EZ I        1912 25.76         4.1 0.80            151           77.0  34 
 BRR  HZ EP       1912  3.56                             149   -0.4510 78.4 299 
 BRR  HE ES       1912 20.85                             149    0.4710 78.4 299 
 BRR  HZ I        1912 25.28        11.2 0.42            149           78.4 299 
 RUS  HZ EP   2   1912  5.99                             144    0.07 5 96.3 179 
 RUS  HE ES       1912 23.94                             144    0.1510 96.3 179 
 RUS  HZ I        1912 24.56         2.5 0.44            150           96.3 179 
 PTB  HZ EP       1912 10.50                             130    0.47 9  153 261 
 PTB  HN ES   4   1912 29.02                             130   -2.07 0  153 261 
 PTB  HZ I        1912 31.61         2.8 0.28            132            153 261 
 ZAR  HZ EP   4   1912 13.54                             120   -2.31 0  211 293 
 ZAR  HE ES       1912 41.16                             120   -0.30 8  211 293 
 ZAR  HZ I        1912 46.48         5.8 0.80            122            211 293 
                                                                                
