 2013  4 7 1424 56.5 L   6.812 -73.166148.0  RSN  7 0.4 1.8LRSN                1
 GAP=181        1.03       5.4     6.1  6.5  0.9361E+01  0.4174E+01 -0.3868E+01E
 Epicentro: LOS SANTOS - SANTANDER                                             3
 ACTION:UPD 13-05-22 14:36 OP:EP   STATUS:               ID:20130407142456 L   I
 2013-04-07-1420-00M.COL___245                                                 6
 STAT SP IPHASW D HRMM SECON CODA AMPLIT PERI AZIMU VELO AIN AR TRES W  DIS CAZ7
 BAR2 SZ EP       1425 16.49                             170    0.1010 24.3 184 
 BAR2 SZ ES       1425 31.27                             170   -0.6610 24.3 184 
 BAR2 SZ I        1425 32.53        14.6 0.28            170           24.3 184 
 GIR2 SZ EP       1425 16.40                             168    0.0310 29.7 354 
 GIR2 SZ ES       1425 31.97                             168    0.0810 29.7 354 
 GIR2 SZ I        1425 33.20        15.4 0.36            166           29.7 354 
 BRR  HZ EP       1425 18.37                             154    0.6510 68.6 298 
 BRR  HN ES       1425 35.01                             154    0.7110 68.6 298 
 BRR  HZ I        1425 38.90        15.6 0.18            151           68.6 298 
 RUS  HZ EP       1425 20.67                             144    0.1210  102 175 
 RUS  HN ES   1   1425 39.10                             144   -0.23 7  102 175 
 RUS  HZ I        1425 40.46         7.4 0.34            146            102 175 
 PTB  HZ EP       1425 23.44                             133   -0.01 9  146 258 
 PTB  HN ES       1425 44.11                             133   -0.38 9  146 258 
 PTB  HZ I        1425 45.62         6.8 0.22            132            146 258 
 ZAR  HE ES   1   1425 54.08                             123    0.06 6  201 292 
 ZAR  HZ I        1426  0.85         9.8 0.44            123            201 292 
 SML  HZ EP       1425 32.52                             118   -0.48 8  242 336 
 SML  HE ES   1   1426  0.77                             118   -0.72 6  242 336 
                                                                                
