 2013  9 7 1308 36.9 L   6.760 -73.127154.2  RSN  7 0.4 1.7LRSN                1
 GAP=141        1.00       6.3     5.4  9.2 -0.1925E+01  0.5440E+01  0.2019E+02E
 Epicentro: LOS SANTOS - SANTANDER                                             3
 ACTION:UPD 13-10-22 09:20 OP:ep   STATUS:               ID:20130907130836 L   I
 OLDACT:UP  13-09-07 16:59 OP:cam  STATUS:               ID:20130907125959     3
 OLDACT:REG 13-09-07 15:22 OP:cam  STATUS:               ID:20130907125959     3
 2013-09-07-1259-59M.COL___269                                                 6
 STAT SP IPHASW D HRMM SECON CODA AMPLIT PERI AZIMU VELO AIN AR TRES W  DIS CAZ7
 BAR2 SZ EP       13 8 57.51                             172    0.0210 19.5 198 
 BRR  HZ EP   1   13 8 59.65                             153    0.45 7 75.2 301 
 BRR  HN ES       13 9 17.11                             153    0.5310 75.2 301 
 PAM  SZ EP       13 9  0.39                             152    0.2310 79.6  36 
 PAM  SN ES       13 9 17.69                             152   -0.6010 79.6  36 
 PAM  SZ I        13 9 19.65        13.9 0.54            156           79.6  36 
 RUS  HZ EP   1   13 9  1.48                             147    0.29 7 96.0 177 
 RUS  HN ES   1   13 9 20.46                             147    0.33 7 96.0 177 
 RUS  HZ I        13 9 21.12         3.8 0.32            148           96.0 177 
 PTB  HZ EP   1   13 9  4.54                             134   -0.15 7  149 261 
 PTB  HN ES   1   13 9 25.41                             134   -0.95 7  149 261 
 PTB  HZ I        13 9 33.06         6.4 0.42            134            149 261 
 SPBC HZ EP       13 9  5.50                             131   -0.38 9  161 221 
 ZAR  HN ES   1   13 9 36.52                             124    0.20 6  208 293 
                                                                                
