 2010  2 7 1215 28.7 L   6.543 -72.959119.1  RSN  4 0.3 1.6LRSN                1
 GAP=280        0.58       9.3    13.0  9.6 -0.5598E+02 -0.6828E+01  0.5953E+02E
 Epicentro: MOGOTES - SANTANDER                                                3
 ACTION:UP  10-08-24 09:48 OP:vdl  STATUS:               ID:20100207121528 L   I
 2010-02-07-1212-57S.COL___093                                                 6
 STAT SP IPHASW D HRMM SECON CODA AMPLIT PERI AZIMU VELO SNR AR TRES W  DIS CAZ7
 BAR2 SZ IP       1215 45.10                             168    -0.110   25 282 
 BAR2 SZ ES   2   1215 58.15                             168     0.1 5   25 282 
 CHI  HZ EP       1216  3.15                             113     0.4 8  228 202 
 CHI  HN ES   2   1216 28.88                             113    -0.5 4  228 202 
 CHI  HZ I        1216 37.24         1.6 0.43                           228 202 
 RREF BZ EP   2   1216 13.15                             105    -0.6 3  321 236 
 RREF BN ES   2   1216 49.34                             105     0.5 3  321 236 
 RREF BZ I        1216 53.46         2.2 0.43                           321 236 
 PRA  HZ EP       1216 19.62                             102    -0.2 6  379 214 
 PRA  HN ES   3   1216 59.38                             102    -0.4 2  379 214 
 PRA  HZ I        1217  7.43         2.7 0.49                           379 214 
                                                                                
