 2011  2 7 1639 59.8 L   6.768 -73.112138.1  RSN  8 0.3 1.8LRSN                1
 GAP=163        0.51       2.9     4.9  4.1 -0.7934E+01  0.6877E+01 -0.1285E+01E
 Epicentro: LOS SANTOS - SANTANDER                                             3
 ACTION:UP  11-03-28 15:06 OP:jfem STATUS:               ID:20110207163959 L   I
 2011-02-07-1637-06S.COL___136                                                 6
 STAT SP IPHASW D HRMM SECON CODA AMPLIT PERI AZIMU VELO SNR AR TRES W  DIS CAZ7
 BAR2 SZ IP       1640 18.53                             171     0.110   21 202 
 BAR2 SZ ES   1   1640 32.92                             171    -0.1 7   21 202 
 BAR2 SZ I        1640 34.68        23.6 0.27                            21 202 
 BTL  SZ EP   1   1640 18.65                             170     0.1 7   24 314 
 BTL  SZ ES   1   1640 32.87                             170    -0.2 7   24 314 
 RUS  HZ EP   1   1640 22.53                             143     0.0 7   97 178 
 RUS  HN ES   1   1640 40.54                             143     0.3 7   97 178 
 RUS  HZ I        1640 42.30         8.5 0.49                            97 178 
 GRA  SZ EP       1640 24.51                             135     0.010  128  15 
 GRA  SZ ES   1   1640 43.92                             135     0.0 7  128  15 
 GRA  SZ I        1640 46.08        10.7 0.32                           128  15 
 NOR  SZ EP       1640 35.31                             117     0.1 8  236 236 
 NOR  SN ES   1   1641  2.63                             117    -0.2 6  236 236 
 NOR  SZ I        1641  6.44         1.2 0.20                           236 236 
 CHI  HZ EP   2   1640 36.02                             116    -0.8 4  246 196 
 CHI  HN ES   2   1641  5.25                             116    -0.4 4  246 196 
 CHI  HZ I        1641  9.36         5.3 0.54                           246 196 
 RREF HN ES   2   1641 22.08                             109     0.6 3  322 230 
 RREF HZ I        1641 29.07         7.9 0.51                           322 230 
 DBB  SZ EP   2   1640 47.70                             108     0.3 3  343 275 
                                                                                
