 2016 10 7 1337 44.3 L   6.836 -73.176135.1  RSN 11 0.4 2.1LRSN                1
 GAP=131        0.91       3.3     3.8  6.0 -0.3377E+01  0.1313E+02 -0.4675E+01E
 Epicentro: ZAPATOCA - SANTANDER                                               3
 ACTION:UPD 16-11-09 19:17 OP:rebc STATUS:               ID:20161007133744 L   I
 OLDACT:DUP 16-10-07 22:40 OP:lv   STATUS:               ID:20161007132220d    3
 2016-10-07-1328-00M.COL___357                                                 6
 STAT SP IPHASW D HRMM SECON CODA AMPLIT PERI AZIMU VELO AIN AR TRES W  DIS CAZ7
 BAR2 EZ EP       1338  2.56                             168   -0.1710 26.9 181 
 BAR2 EZ ES       1338 17.21                             168    0.1010 26.9 181 
 PAM  EZ EP       1338  5.42                             149    0.0810 76.6  43 
 PAM  EN ES       1338 22.29                             149    0.5410 76.6  43 
 PAM  EZ I        1338 24.80        15.6 0.54            154           76.6  43 
 RUS  HZ EP       1338  7.19                             140   -0.1510  105 174 
 RUS  HN ES       1338 24.75                             140   -0.5610  105 174 
 PTB  HZ EP       1338  9.79                             130   -0.40 9  145 257 
 PTB  HN ES       1338 29.86                             130   -0.52 9  145 257 
 PTB  HZ I        1338 33.47        23.7 0.12            131            145 257 
 SPBC HZ EP       1338 12.34                             126    0.24 9  164 217 
 SPBC HN ES       1338 33.68                             126   -0.11 9  164 217 
 SPBC HZ I        1338 39.71        13.6 0.23            129            164 217 
 ZAR  HZ EP       1338 15.74                             120    0.15 9  199 291 
 ZAR  HE ES   4   1338 42.36                             120    2.37 0  199 291 
 ZAR  HZ I        1338 47.57        20.0 0.22            122            199 291 
 NOR  HZ EP       1338 19.46                             116    0.07 8  234 233 
 NOR  HE ES       1338 47.37                             116    0.61 8  234 233 
 NOR  HZ I        1338 53.90         9.6 0.15            119            234 233 
 URE  HZ EP       1338 24.01                             112   -0.34 7  279 291 
 URE  HE ES       1338 55.87                             112    0.28 7  279 291 
 URE  HZ I        1339  4.32        10.5 0.14            114            279 291 
 GUY2CHZ EP   4   1338 29.69                             110    2.30 0  301 234 
 GUY2CHE ES       1339  1.81                             110    0.81 7  301 234 
 GUY2CHZ I        1339  8.00         5.2 0.28                           301 234 
 CBOC HZ EP       1338 31.01                             108    0.44 7  332 251 
 CBOC HN ES       1339  6.49                             108   -0.17 7  332 251 
 SJC  HZ EP   4   1338 37.58                             104   -1.34 0  404 327 
 SJC  HN ES       1339 20.83                             104   -0.69 6  404 327 
 SJC  HZ I        1339 22.64         4.8 0.44            107            404 327 
                                                                                
