 2014  4 7 1931 14.1 L   6.838 -73.135145.7  RSN  4 0.3 1.5LRSN                1
 GAP=202        0.77       5.1     6.2 10.5  0.9883E+01 -0.2676E+01 -0.2251E+02E
 Epicentro: LOS SANTOS - SANTANDER                                             3
 ACTION:UPD 14-05-13 23:06 OP:nd   STATUS:               ID:20140407193114 L   I
 OLDACT:UP  14-04-07 23:47 OP:cam  STATUS:               ID:20140407192806     3
 OLDACT:REG 14-04-07 22:10 OP:cam  STATUS:               ID:20140407192806     3
 2014-04-07-1928-06M.COL___262                                                 6
 STAT SP IPHASW D HRMM SECON CODA AMPLIT PERI AZIMU VELO AIN AR TRES W  DIS CAZ7
 RUS  HZ EP   1   1931 38.04                             142   -0.14 7  105 177 
 RUS  HN ES       1931 56.85                             142   -0.0910  105 177 
 RUS  HZ I        1931 58.02         2.2 0.30            145            105 177 
 PTB  HZ EP       1931 41.11                             131   -0.17 9  150 257 
 PTB  HN ES       1932  2.02                             131   -0.43 9  150 257 
 PTB  HZ I        1932  9.28         5.6 0.44            131            150 257 
 SPBC HZ EP       1931 43.06                             128    0.05 9  167 218 
 SPBC HE ES       1932  6.12                             128    0.59 9  167 218 
 SPBC HZ I        1932  9.93         6.9 0.24            129            167 218 
 SML  HN ES   1   1932 19.14                             118    0.46 6  240 335 
                                                                                
