 2012  7 7 1419 22.5 L   6.698 -73.097148.2  RSN  6 0.4 1.8LRSN                1
 GAP=147        0.86       5.7     5.5  7.4 -0.7627E+01  0.1055E+02  0.3116E+01E
 Epicentro: JORDAN - SANTANDER                                                 3
 ACTION:UPD 12-08-14 11:43 OP:ep   STATUS:               ID:20120707141922 L   I
 2012-07-07-1414-38M.COL___211                                                 6
 STAT SP IPHASW D HRMM SECON CODA AMPLIT PERI AZIMU VELO AIN AR TRES W  DIS CAZ7
 BAR2 SZ EP       1419 42.20                             174     0.010   15 219 
 BAR2 SZ ES   1   1419 57.63                             174     0.0 7   15 219 
 BAR2 SZ I        1419 59.68        16.3 0.36            172             15 219 
 BRR  HZ EP       1419 44.88                             149     0.410   82 304 
 BRR  HZ I        1419 55.95        23.5 0.22            145             82 304 
 BRR  HN ES   1   1420  2.26                             149     0.6 7   82 304 
 PAM  SZ EP   1   1419 45.43                             149     0.1 7   83  32 
 PAM  SE ES   1   1420  2.33                             149    -0.8 7   83  32 
 RUS  HZ EP   1   1419 45.91                             148     0.2 7   89 179 
 RUS  HE ES   1   1420  3.93                             148     0.2 7   89 179 
 RUS  HZ I        1420  6.42         5.9 0.44            149             89 179 
 PTB  HZ EP       1419 49.84                             132    -0.1 9  151 263 
 PTB  HN ES   1   1420 11.04                             132    -0.4 7  151 263 
 PTB  HZ I        1420 16.91         7.5 0.66            130            151 263 
 NOR  SZ EP   1   1419 57.85                             119    -0.3 6  233 238 
 NOR  SE ES   1   1420 25.65                             119    -0.3 6  233 238 
