 2017 11 7 1829 20.8 L   6.771 -73.177130.0  RSN  5 0.4 1.4LRSN                1
 GAP=134        0.93       4.6     4.2  7.3 -0.6037E+00  0.1239E+02 -0.5868E+01E
 Epicentro: LOS SANTOS - SANTANDER                                             3
 ACTION:UPD 17-12-12 19:53 OP:rebc STATUS:               ID:20171107182920 L   I
 OLDACT:DUP 17-11-07 23:10 OP:lv   STATUS:               ID:20171107182516d    3
 2017-11-07-1828-00M.COL___432                                                 6
 STAT SP IPHASW D HRMM SECON CODA AMPLIT PERI AZIMU VELO AIN AR TRES W  DIS CAZ7
 BAR2 EZ EP       1829 38.26                             171   -0.2110 19.7 182 
 BAR2 EZ ES       1829 52.38                             171    0.1410 19.7 182 
 BAR2 EZ I        1829 53.95         8.6 0.37            173           19.7 182 
 PAM  EZ EP       1829 41.15                             146   -0.5310 82.1  40 
 PAM  EN ES       1829 58.13                             146    0.1610 82.1  40 
 PAM  EZ I        1830  0.25         6.1 0.66            148           82.1  40 
 RUS  HZ EP       1829 42.89                             141    0.0810 97.6 174 
 RUS  HN ES       1830  0.24                             141    0.2610 97.6 174 
 RUS  HZ I        1830  1.69         1.6 0.20            145           97.6 174 
 PTB  HZ EP       1829 45.95                             129   -0.20 9  144 260 
 PTB  HN ES       1830  5.40                             129   -0.53 9  144 260 
 PTB  HZ I        1830  7.81         2.6 0.15            131            144 260 
 ZAR  HZ EP       1829 52.81                             119    0.74 9  202 293 
 ZAR  HE ES       1830 16.73                             119    0.27 9  202 293 
 ZAR  HZ I        1830 20.88         4.3 0.20            121            202 293 
                                                                                
