 2011  6 7 1150  9.0 L   6.752 -73.083147.2  RSN  4 0.1 1.5LRSN                1
 GAP=163        0.38       4.1     7.5  5.3  0.1037E+02 -0.1554E+02 -0.8175E+01E
 Epicentro: LOS SANTOS - SANTANDER                                             3
 ACTION:UP  11-07-14 19:03 OP:ep   STATUS:               ID:20110607115009 L   I
 2011-06-07-1147-21S.COL___132                                                 6
 STAT SP IPHASW D HRMM SECON CODA AMPLIT PERI AZIMU VELO SNR AR TRES W  DIS CAZ7
 BAR2 SZ EP   1   1150 28.55                             172    -0.2 7   21 212 
 BAR2 SZ I        1150 28.93         8.0 0.10                            21 212 
 BAR2 SZ ES   1   1150 44.09                             172    -0.1 7   21 212 
 BRR  HZ EP   1   1150 30.82                             150     0.0 7   80 299 
 BRR  HN ES   2   1150 47.98                             150     0.1 5   80 299 
 RUS  HZ EP   1   1150 32.59                             146     0.1 7   95 180 
 RUS  HN ES   2   1150 51.08                             146     0.2 5   95 180 
 RUS  HZ I        1150 51.90         4.2 0.38                            95 180 
 BRI  SZ EP   1   1150 33.39                             141     0.1 7  111  17 
                                                                                
