 2011  8 7 1638 38.7 L   6.771 -73.081148.0  RSN  4 0.1 2.1LRSN                1
 GAP=242        0.33       3.4     4.2  3.6  0.5051E+01  0.9457E+00  0.1453E+01E
 Epicentro: LOS SANTOS - SANTANDER                                             3
 ACTION:UPD 12-07-25 14:06 OP:epov STATUS:               ID:20110807163838 L   I
 2011-08-07-1620-00M.COL___145                                                 6
 STAT SP IPHASW D HRMM SECON CODA AMPLIT PERI AZIMU VELO AIN AR TRES W  DIS CAZ7
 BAR2 SZ IP       1638 58.68                             171    0.0710 22.7 210 
 BAR2 SZ I        1638 59.01        41.6 0.02                          22.7 210 
 BAR2 SZ ES   1   1639 13.94                             171   -0.18 7 22.7 210 
 BRR  HZ EP       1639  0.52                             150   -0.0510 79.0 298 
 BRR  HN ES   1   1639 17.71                             150    0.10 7 79.0 298 
 BRR  HZ I        1639 21.23        31.0 0.31                          79.0 298 
 RUS  HZ EP   1   1639  2.51                             145    0.06 7 97.1 180 
 RUS  HN ES   2   1639 21.04                             145    0.08 5 97.1 180 
 RUS  HZ I        1639 22.22         8.9 0.27                          97.1 180 
 NOR  SZ EP   2   1639 14.74                             118   -0.28 4  239 236 
 NOR  SN ES   2   1639 43.40                             118    0.08 4  239 236 
                                                                                
