 2015 10 7 1141 22.7 L   6.820 -73.101154.2  RSN  6 0.4 1.7LRSN                1
 GAP=205        0.99       4.4     8.6  6.7  0.2094E+02  0.5877E+01 -0.2357E+01E
 Epicentro: LOS SANTOS - SANTANDER                                             3
 ACTION:UPD 15-12-22 20:38 OP:cam  STATUS:               ID:20151007114122 L   I
 OLDACT:REG 15-10-07 20:54 OP:ak   STATUS:               ID:20151007113748     3
 2015-10-07-1137-48M.COL___343                                                 6
 STAT SP IPHASW D HRMM SECON CODA AMPLIT PERI AZIMU VELO AIN AR TRES W  DIS CAZ7
 BAR2 EZ EP       1141 43.40                             170    0.0210 26.7 200 
 BAR2 EZ ES       1141 59.11                             170   -0.4310 26.7 200 
 BAR2 EZ I        1142  0.43         8.1 0.42            163           26.7 200 
 BRR  HZ EP       1141 45.40                             153    0.4810 74.6 295 
 BRR  HN ES       1142  3.10                             153    0.8210 74.6 295 
 RUS  HZ EP   2   1141 47.24                             145   -0.15 5  103 179 
 RUS  HN ES       1142  6.44                             145   -0.2410  103 179 
 RUS  HZ I        1142  9.10         4.2 0.42            142            103 179 
 ZAR  HZ EP   1   1141 55.85                             124   -0.21 6  208 291 
 ZAR  HN ES       1142 21.59                             124   -0.51 8  208 291 
 ZAR  HZ I        1142 27.43         7.9 0.64            120            208 291 
 SML  HZ EP       1141 59.67                             119   -0.12 8  244 334 
 SML  HN ES       1142 28.32                             119   -0.43 8  244 334 
 SML  HZ I        1142 35.83         7.0 0.10            118            244 334 
 CHI  HZ EP       1142  1.64                             118    0.43 8  252 196 
 CHI  HE ES       1142 31.13                             118   -0.15 8  252 196 
 CHI  HZ I        1142 40.71         2.2 0.38            116            252 196 
                                                                                
