 2013  3 7 1415 27.3 L   6.720 -73.200145.8  RSN  4 0.5 1.7LRSN                1
 GAP=225        1.27      12.1     9.8 14.3  0.5473E+02 -0.9200E+01 -0.5630E+02E
 Epicentro: VILLANUEVA - SANTANDER                                             3
 ACTION:UPD 13-04-09 14:00 OP:ep   STATUS:               ID:20130307141527 L   I
 2013-03-07-1410-00M.COL___231                                                 6
 STAT SP IPHASW D HRMM SECON CODA AMPLIT PERI AZIMU VELO AIN AR TRES W  DIS CAZ7
 BAR2 SZ EP       1415 46.11                             175   -0.6510 14.3 172 
 BAR2 SZ ES   2   1416  2.07                             175    0.11 5 14.3 172 
 BRR  HZ EP       1415 49.44                             152    1.0310 71.0 307 
 BRR  HN ES   2   1416  4.21                             152   -0.69 5 71.0 307 
 BRR  HN I        1416  5.92         8.1 0.22            149           71.0 307 
 RUS  HZ EP       1415 50.43                             147   -0.0310 92.4 172 
 RUS  HN ES       1416  8.64                             147    0.1010 92.4 172 
 PTB  HZ EP       1415 53.06                             134   -0.53 9  140 262 
 PTB  HN ES       1416 14.29                             134    0.18 9  140 262 
 PTB  HE I        1416 20.10         6.7 0.62            130            140 262 
                                                                                
