 2013  5 7 1509 58.9 L   6.814 -73.090149.3  RSN  5 0.4 2.0LRSN                1
 GAP=143        0.99       4.4     9.8  8.2  0.1206E+02 -0.2485E+02 -0.1075E+02E
 Epicentro: LOS SANTOS - SANTANDER                                             3
 ACTION:UPD 13-06-20 09:48 OP:ep   STATUS:               ID:20130507150958 L   I
 2013-05-07-1510-00M.COL___256                                                 6
 STAT SP IPHASW D HRMM SECON CODA AMPLIT PERI AZIMU VELO AIN AR TRES W  DIS CAZ7
 BAR2 SZ EP     D 1510 18.83                             169   -0.2110 26.5 203 
 BAR2 SZ I        1510 19.09        22.5 0.20            171           26.5 203 
 BAR2 SZ ES       1510 34.82                             169    0.0810 26.5 203 
 PAM  SZ EP     D 1510 21.71                             153    0.4810 72.4  37 
 PAM  SE ES   2   1510 38.98                             153    0.35 5 72.4  37 
 BRR  HZ IP     C 1510 20.60                             151   -0.1210 76.0 295 
 BRR  HN ES       1510 38.19                             151    0.4610 76.0 295 
 BRR  HZ I        1510 41.19        19.7 0.46            150           76.0 295 
 RUS  HZ EP       1510 23.15                             144    0.0410  102 180 
 RUS  HN ES       1510 41.62                             144   -0.3610  102 180 
 RUS  HZ I        1510 42.12        11.4 0.26            148            102 180 
 OCA  HZ EP       1510 27.75                             130    0.31 9  160 351 
 OCA  HN ES       1510 48.85                             130   -0.85 9  160 351 
 OCA  HZ I        1510 54.42        18.3 0.30            131            160 351 
                                                                                
