 2013  7 7 1426 45.6 L   6.790 -73.115146.8  RSN  6 0.3 1.8LRSN                1
 GAP=141        0.59       3.3     6.0  6.0  0.5323E+00 -0.4454E+01 -0.1399E+01E
 Epicentro: LOS SANTOS - SANTANDER                                             3
 ACTION:UPD 13-08-12 10:36 OP:ep   STATUS:               ID:20130707142646dL   I
 OLDACT:DUP 13-07-07 15:39 OP:jn   STATUS:               ID:20130707141960d    3
 OLDACT:REG 13-07-07 14:36 OP:jn   STATUS:               ID:20130707141959     3
 2013-07-07-1419-59M.COL___267                                                 6
 STAT SP IPHASW D HRMM SECON CODA AMPLIT PERI AZIMU VELO AIN AR TRES W  DIS CAZ7
 BAR2 SZ EP   1   1427  5.25                             171   -0.07 7 23.1 199 
 BAR2 SZ ES   1   1427 20.58                             171   -0.15 7 23.1 199 
 BAR2 SZ I        1427 22.92        22.2 0.32            170           23.1 199 
 GIR2 SZ EP   1   1427  5.33                             167   -0.08 7 33.1 345 
 GIR2 SZ I        1427 23.50        10.4 0.20            161           33.1 345 
 BRR  HZ EP   1   1427  7.05                             152    0.02 7 74.7 298 
 BRR  HE ES   1   1427 24.18                             152    0.41 7 74.7 298 
 BRR  HZ I        1427 28.00        12.3 0.17            144           74.7 298 
 PAM  SZ EP     D 1427  8.10                             151    0.2810 76.2  37 
 PAM  SE ES   1   1427 25.34                             151    0.16 7 76.2  37 
 PAM  SZ I        1427 28.03         8.5 0.20            147           76.2  37 
 RUS  HZ EP   1   1427  9.30                             144   -0.03 7 99.3 178 
 RUS  HE ES   1   1427 27.64                             144   -0.22 7 99.3 178 
 RUS  HZ I        1427 29.05         9.8 0.26            142           99.3 178 
 OCA  HN ES   1   1427 35.72                             130   -0.64 7  162 352 
                                                                                
