 2012  6 7 1148 38.7 L   6.749 -73.191138.6  RSN 10 0.3 2.5LRSN                1
 GAP=133        0.64       2.5     3.4  4.9 -0.1037E+01  0.7026E+01  0.2315E+00E
 Epicentro: VILLANUEVA - SANTANDER                                             3
 ACTION:UPD 12-08-06 17:47 OP:ep   STATUS:               ID:20120607114837 L   I
 2012-06-07-1140-00M.COL___201                                                 6
 STAT SP IPHASW D HRMM SECON CODA AMPLIT PERI AZIMU VELO AIN AR TRES W  DIS CAZ7
 BAR2 SZ IP       1148 57.40                             172    0.0510 17.3 177 
 BAR2 SZ ES   1   1149 11.81                             172   -0.09 7 17.3 177 
 BAR2 SZ I        1149 14.26        53.5 0.27            173           17.3 177 
 PAM  SZ EP   1   1149  0.54                             147   -0.10 7 85.0  40 
 PAM  SN ES   1   1149 17.82                             147    0.06 7 85.0  40 
 RUS  HZ EP   1   1149  1.15                             144   -0.22 7 95.4 173 
 RUS  HE ES   1   1149 19.29                             144    0.24 7 95.4 173 
 RUS  HZ I        1149 20.90        33.7 0.19            148           95.4 173 
 PTB  HZ EP   1   1149  4.11                             132   -0.42 7  142 261 
 PTB  HN ES   1   1149 24.03                             132   -0.66 7  142 261 
 PTB  HZ I        1149 29.27        38.2 0.05            132            142 261 
 OCA  HZ EP   1   1149  7.55                             127    0.60 7  165 355 
 OCA  HE ES   1   1149 28.67                             127   -0.32 7  165 355 
 OCA  HZ I        1149 33.75        67.0 0.46            129            165 355 
 ZAR  HZ EP       1149 10.60                             121    0.17 9  202 294 
 ZAR  HN ES   1   1149 35.73                             121    0.55 6  202 294 
 ZAR  HZ I        1149 42.39        49.8 0.35            122            202 294 
 NOR  SZ EP       1149 13.08                             118   -0.13 8  227 235 
 NOR  SN ES   1   1149 40.76                             118    0.62 6  227 235 
 CHI  HZ EP   1   1149 15.21                             116   -0.05 6  242 194 
 CHI  HN ES   1   1149 43.96                             116    0.18 6  242 194 
 CHI  HZ I        1149 47.30        10.7 0.33            119            242 194 
 DBB  SZ EP   1   1149 24.99                             108   -0.37 5  335 275 
 PRA  HZ EP   1   1149 30.94                             106   -0.16 4  385 209 
                                                                                
