 2012  9 7 1205 40.0 L   6.751 -73.143140.2  RSN  5 0.4 1.6LRSN                1
 GAP=157        0.60       8.5     5.4  6.6 -0.2988E+02  0.1278E+02 -0.1187E+02E
 Epicentro: LOS SANTOS - SANTANDER                                             3
 ACTION:UPD 12-10-22 14:17 OP:ep   STATUS:               ID:20120907120540 L   I
 2012-09-07-1200-00M.COL___227                                                 6
 STAT SP IPHASW D HRMM SECON CODA AMPLIT PERI AZIMU VELO AIN AR TRES W  DIS CAZ7
 BAR2 SZ EP       12 5 58.97                             171    0.1010 18.1 194 
 BAR2 SZ ES   1   12 6 13.65                             171    0.07 7 18.1 194 
 BAR2 SZ I        12 6 15.26         8.3 0.50                          18.1 194 
 GIR2 SZ EP   3   12 5 58.97                             165   -0.21 2 36.7 351 
 BRR  HZ EP       12 6  0.69                             151   -0.0410 74.2 302 
 BRR  HZ I        12 6  1.01        11.9 0.32                          74.2 302 
 BRR  HN ES   3   12 6 18.26                             151    1.36 2 74.2 302 
 PAM  SZ EP       12 6  1.80                             148   -0.0910 81.5  37 
 PAM  SZ I        12 6  2.07         9.7 0.20                          81.5  37 
 PAM  SN ES   1   12 6 18.84                             148   -0.12 7 81.5  37 
 PTB  HZ EP       12 6  6.78                             131    0.32 9  147 261 
 PTB  HN ES   1   12 6 26.51                             131   -0.59 7  147 261 
 PTB  HN I        12 6 31.87         4.1 0.38                           147 261 
                                                                                
