 2012  8 7 1135 46.0 L   6.795 -73.149145.2  RSN  7 0.4 1.6LRSN                1
 GAP=136        0.82       4.4     4.8  8.0  0.6784E+00  0.7404E+01 -0.3065E+00E
 Epicentro: LOS SANTOS - SANTANDER                                             3
 ACTION:UPD 12-09-10 11:55 OP:ep   STATUS:               ID:20120807113546 L   I
 2012-08-07-1130-00M.COL___216                                                 6
 STAT SP IPHASW D HRMM SECON CODA AMPLIT PERI AZIMU VELO AIN AR TRES W  DIS CAZ7
 BAR2 SZ EP   1   1136  5.58                             171    0.07 7 22.7 189 
 BAR2 SZ ES   1   1136 20.45                             171   -0.30 7 22.7 189 
 BAR2 SZ I        1136 21.64         8.1 0.34                          22.7 189 
 BRR  HZ EP   1   1136  7.47                             152    0.43 7 71.1 299 
 BRR  HE ES   1   1136 24.26                             152    0.78 7 71.1 299 
 BRR  HZ I        1136 27.54        16.8 0.41                          71.1 299 
 PAM  SZ EP   1   1136  8.47                             150    0.31 7 78.0  40 
 PAM  SN ES   1   1136 25.42                             150   -0.04 7 78.0  40 
 RUS  HZ EP   1   1136  9.65                             144    0.03 7  100 176 
 RUS  HN ES   1   1136 28.02                             144   -0.05 7  100 176 
 RUS  HZ I        1136 30.15         3.1 0.36                           100 176 
 PTB  HZ EP   1   1136 12.50                             132   -0.34 7  147 259 
 PTB  HE ES   1   1136 33.23                             132   -0.57 7  147 259 
 PTB  HZ I        1136 34.82         2.8 0.20                           147 259 
 OCA  HN ES   1   1136 35.59                             129   -0.76 7  161 353 
 ZAR  HN ES   1   1136 43.90                             122    0.28 6  204 292 
 ZAR  HZ I        1136 49.62         3.8 0.11                           204 292 
                                                                                
