 2010 11 7 1756 49.1 L   6.783 -73.131145.8  RSN  6 0.4 1.6LRSN                1
 GAP=184        0.58       3.8    10.3  6.7 -0.3891E+01  0.7133E+01 -0.3710E+01E
 Epicentro: LOS SANTOS - SANTANDER                                             3
 ACTION:UP  10-12-17 16:50 OP:REBC STATUS:               ID:20101107175649 L   I
 2010-11-07-1755-00S.COL___123                                                 6
 STAT SP IPHASW D HRMM SECON CODA AMPLIT PERI AZIMU VELO SNR AR TRES W  DIS CAZ7
 BAR2 SZ ES   2   1757 24.29                             171     0.3 5   22 195 
 BAR2 SZ I        1757 24.76         9.7 0.31                            22 195 
 BRR  HZ EP   1   1757 10.54                             152     0.2 8   74 299 
 BRR  HZ I        1757 14.19         8.8 0.03                            74 299 
 BRR  HE ES   2   1757 26.58                             152    -0.4 5   74 299 
 RUS  HZ EP   2   1757 12.64                             144     0.0 5   99 177 
 RUS  HN ES   2   1757 30.85                             144    -0.2 5   99 177 
 RUS  HZ I        1757 32.53         4.6 0.30                            99 177 
 OCA  SZ EP       1757 17.34                             129    -0.210  162 353 
 OCA  SZ ES   2   1757 40.20                             129     0.4 5  162 353 
 OCA  SZ I        1757 43.06         6.1 0.17                           162 353 
 NOR  SZ EP   2   1757 25.14                             118     0.3 4  235 235 
 PRA  HZ EP   2   1757 43.31                             107     0.8 3  391 210 
 PRA  HE ES   2   1758 23.45                             107    -0.7 3  391 210 
                                                                                
