 2013  2 7 1137 34.0 L   6.775 -73.331133.6  RSN 13 0.3 3.0LRSN                1
 GAP= 65        0.65       2.0     2.4  4.0  0.3124E+00  0.1606E+01  0.6945E+00E
 Epicentro: ZAPATOCA - SANTANDER                                               3
 ACTION:UPD 13-03-12 09:31 OP:ep   STATUS:               ID:20130207113734 L   I
 2013-02-07-1130-00M.COL___241                                                 6
 STAT SP IPHASW D HRMM SECON CODA AMPLIT PERI AZIMU VELO AIN AR TRES W  DIS CAZ7
 BAR2 SZ EP       1137 52.33                             168    0.0910 26.0 141 
 BAR2 SZ ES   1   1138  6.41                             168   -0.05 7 26.0 141 
 BAR2 SZ I        1138  7.88       307.9 0.27            162           26.0 141 
 BRR  HZ IP     C 1137 53.50                             156    0.4910 55.9 311 
 BRR  HE ES   1   1138  8.43                             156    0.60 7 55.9 311 
 BRR  HN I        1138  9.78       520.8 0.18            154           55.9 311 
 PAM  SZ EP       1137 56.17                             143    0.1110 93.6  48 
 PAM  SE ES   1   1138 13.23                             143   -0.03 7 93.6  48 
 PAM  SZ I        1138 16.06        99.8 0.62            141           93.6  48 
 RUS  HZ EP       1137 56.39                             141   -0.2510  101 164 
 RUS  HE ES   1   1138 13.95                             141   -0.34 7  101 164 
 RUS  HE I        1138 16.31        76.8 0.25            132            101 164 
 PTB  HZ IP     C 1137 57.59                             134   -0.5310  127 258 
 PTB  HE ES   1   1138 16.46                             134   -0.47 7  127 258 
 PTB  HE I        1138 20.36       189.9 0.31            127            127 258 
 OCA  HZ EP   1   1138  1.33                             126   -0.24 7  162   0 
 OCA  HE ES   1   1138 22.91                             126   -0.15 7  162   0 
 OCA  HZ I        1138 25.32       166.2 0.38            123            162   0 
 TAM  HZ EP       1138  2.68                             124    0.02 9  174 102 
 ZAR  HZ EP       1138  3.73                             122   -0.12 9  186 295 
 ZAR  HE ES   1   1138 27.12                             122    0.00 7  186 295 
 ZAR  HZ I        1138 32.87       103.7 0.45            117            186 295 
 SML  HZ EP   1   1138  9.47                             115    0.06 6  239 340 
 SML  HN ES   1   1138 36.62                             115   -0.40 6  239 340 
 CHI  HZ EP       1138 10.50                             115    0.24 8  241 191 
 CHI  HE ES       1138 38.72                             115    0.20 8  241 191 
 HEL  HZ EP   1   1138 11.60                             114    0.27 6  252 255 
 HEL  HN ES   1   1138 40.60                             114    0.16 6  252 255 
 HEL  HZ I        1138 47.14        43.1 0.46            109            252 255 
 URE  HZ EP   1   1138 12.88                             113    0.37 6  266 294 
 VIL  SZ EP   1   1138 16.21                             110    0.02 5  297 188 
 VIL  SZ I        1139  0.85        32.9 0.40            105            297 188 
                                                                                
