 2016  2 7 1239  4.7 L   6.849 -73.122146.7  RSN  7 0.2 1.6LRSN                1
 GAP=137        0.57       2.6     3.0  4.4  0.5299E+00  0.5698E+01  0.2980E+01E
 Epicentro: LOS SANTOS - SANTANDER                                             3
 ACTION:UPD 16-03-04 21:24 OP:rebc STATUS:               ID:20160207123904 L   I
 OLDACT:REG 16-02-07 20:35 OP:cara STATUS:               ID:20160207123747     3
 2016-02-07-1237-47M.COL___328                                                 6
 STAT SP IPHASW D HRMM SECON CODA AMPLIT PERI AZIMU VELO AIN AR TRES W  DIS CAZ7
 BAR2 EZ IP       1239 24.89                             168    0.3710 29.2 193 
 BAR2 EZ ES       1239 40.28                             168    0.2610 29.2 193 
 BAR2 EZ I        1239 42.45         9.4 0.24            169           29.2 193 
 PAM  EN ES       1239 43.46                             153   -0.3110 71.5  41 
 PAM  EZ I        1239 46.46         5.8 0.18            154           71.5  41 
 RUS  HN ES       1239 47.73                             142   -0.0510  106 178 
 RUS  HZ I        1239 48.81         5.2 0.28            144            106 178 
 PTB  HZ EP       1239 31.91                             131   -0.12 9  151 257 
 PTB  HN ES       1239 53.09                             131   -0.30 9  151 257 
 PTB  HZ I        1239 55.50         3.4 0.24            131            151 257 
 SPBC HZ EP       1239 33.80                             128    0.02 9  169 219 
 SPBC HN ES       1239 56.47                             128   -0.03 9  169 219 
 SPBC HZ I        1239 58.49         8.7 0.22            129            169 219 
 ZAR  HE ES       1240  2.83                             122    0.23 9  205 290 
 ZAR  HZ I        1240 12.04         3.4 0.22            122            205 290 
 CHI  HZ EP       1239 42.96                             117   -0.09 8  255 195 
 CHI  HE ES       1240 12.99                             117   -0.01 8  255 195 
 CHI  HZ I        1240 19.25         1.3 0.24            118            255 195 
                                                                                
