 2011 12 7 1528 58.1 L   7.324 -73.935 73.1  RSN  8 0.4 2.0LRSN                1
 GAP=136        0.72       6.4     5.7 17.5 -0.2812E+02  0.8114E+02 -0.6779E+02E
 Epicentro: PUERTO WILCHES - SANTANDER                                         3
 ACTION:UPD 12-07-13 16:14 OP:ep   STATUS:               ID:20111207152858 L   I
 2011-12-07-1528-39S.COL___163                                                 6
 STAT SP IPHASW D HRMM SECON CODA AMPLIT PERI AZIMU VELO AIN AR TRES W  DIS CAZ7
 GIR2 SZ EP   1   1529 13.83                             124    0.06 7 86.2 108 
 GIR2 SZ ES   1   1529 25.34                             124   -0.66 7 86.2 108 
 BAR2 SZ EP   1   1529 16.81                             116   -0.25 7  116 134 
 BAR2 SZ ES   1   1529 32.36                             116    0.51 7  116 134 
 BAR2 SZ I        1529 33.08        15.5 0.26                           116 134 
 BRI  SZ EP   1   1529 18.99                             112    0.11 7  133  71 
 PAM  SZ EP   1   1529 19.97                             112    0.30 7  136  89 
 PAM  SE ES   1   1529 36.74                             112    0.25 7  136  89 
 HEL  HN ES   1   1529 53.68                             102    0.69 6  216 235 
 NOR  SZ EP   1   1529 28.64                             102   -0.41 6  220 208 
 NOR  SN ES   1   1529 52.91                             102   -0.29 6  220 208 
 COD  HZ EP   2   1529 37.24                              98   -0.65 4  294  11 
 COD  HZ I        1530 20.09        13.0 0.45                           294  11 
 RREF HZ EP   1   1529 40.83                              98    0.15 5  310 210 
 RREF HN ES   1   1530 13.56                              98   -0.33 5  310 210 
 RREF HZ I        1530 20.55         4.4 0.27                           310 210 
                                                                                
