 2016 11 7 1136 19.9 L   6.787 -73.144142.0  RSN  8 0.6 1.6LRSN                1
 GAP=152        1.28       5.1     5.7  8.1 -0.6001E+01  0.8750E+01  0.1063E+02E
 Epicentro: LOS SANTOS - SANTANDER                                             3
 ACTION:UPD 17-10-26 21:05 OP:lp   STATUS:               ID:20161107113619 L   I
 OLDACT:DUP 16-11-07 22:33 OP:dnl  STATUS:               ID:20161107112160d    3
 OLDACT:UP  16-11-07 22:30 OP:dnl  STATUS:               ID:20161107112159     3
 OLDACT:UP  16-11-07 22:30 OP:dnl  STATUS:               ID:20161107112159     3
 OLDACT:UP  16-11-07 22:28 OP:dnl  STATUS:               ID:20161107112159     3
 OLDACT:UP  16-11-07 21:59 OP:dnl  STATUS:               ID:20161107112159     3
 OLDACT:UP  16-11-07 21:58 OP:dnl  STATUS:               ID:20161107112159     3
 OLDACT:REG 16-11-07 21:39 OP:dnl  STATUS:               ID:20161107112159     3
 2016-11-07-1128-00M.COL___325                                                 6
 STAT SP IPHASW D HRMM SECON CODA AMPLIT PERI AZIMU VELO AIN AR TRES W  DIS CAZ7
 BAR2 EZ EP   2   1136 38.85                             171   -0.21 5 21.9 191 
 BAR2 EZ ES       1136 53.52                             171   -0.4710 21.9 191 
 BAR2 EZ I        1136 56.68        12.9 0.32            168           21.9 191 
 BRR  HZ EP       1136 40.73                             152    0.0310 72.1 299 
 BRR  HN ES       1136 57.94                             152    1.0210 72.1 299 
 BRR  HZ I        1137  4.58         8.0 0.52            153           72.1 299 
 PAM  EZ EP       1136 41.78                             150   -0.0110 78.4  39 
 PAM  EE ES       1136 59.01                             150    0.1610 78.4  39 
 PAM  EZ I        1137  1.29         6.4 0.64            158           78.4  39 
 PTB  HZ EP       1136 45.78                             132   -0.78 9  148 259 
 PTB  HE ES       1137  7.10                             132   -0.25 9  148 259 
 PTB  HZ I        1137 11.83         4.2 0.40            134            148 259 
 SPBC HZ EP       1136 47.99                             129   -0.03 9  162 219 
 SPBC HE ES       1137 10.21                             129    0.26 9  162 219 
 SPBC HZ I        1137 16.78         9.2 0.24            131            162 219 
 ZAR  HZ EP       1136 51.65                             122   -0.54 9  205 293 
 ZAR  HN ES       1137 17.12                             122   -0.24 9  205 293 
 ZAR  HZ I        1137 20.10         3.4 0.28            125            205 293 
 NOR  HZ EP   2   1136 58.20                             118    2.85 4  234 235 
 NOR  HN ES       1137 23.19                             118    0.20 8  234 235 
 NOR  HZ I        1137 28.52         4.5 0.24            121            234 235 
 CHI  HZ EP       1136 57.20                             117   -0.05 8  247 195 
 CHI  HN ES       1137 26.44                             117    0.06 8  247 195 
 CHI  HZ I        1137 32.45         2.2 0.32            120            247 195 
                                                                                
