 2011 12 7 1617 33.6 L   6.781 -73.092144.0  RSN  6 0.1 1.7LRSN                1
 GAP=144        0.33       1.9     3.4  3.4 -0.1134E+01 -0.2312E+00  0.1070E+01E
 Epicentro: LOS SANTOS - SANTANDER                                             3
 ACTION:UPD 12-07-13 16:14 OP:ep   STATUS:               ID:20111207161733 L   I
 2011-12-07-1610-00M.COL___182                                                 6
 STAT SP IPHASW D HRMM SECON CODA AMPLIT PERI AZIMU VELO AIN AR TRES W  DIS CAZ7
 BAR2 SZ EP       1617 53.08                             170    0.0310 23.1 206 
 BAR2 SZ ES   1   1618  8.11                             170   -0.09 7 23.1 206 
 BAR2 SZ I        1618  9.60         9.5 0.16                          23.1 206 
 GIR2 SZ EP   1   1617 52.94                             166   -0.26 7 34.8 341 
 PAM  SZ EP   1   1617 55.74                             151    0.19 7 75.5  35 
 PAM  SE ES   1   1618 12.68                             151    0.03 7 75.5  35 
 BRR  HZ EP   1   1617 54.90                             150   -0.06 7 77.4 298 
 BRR  HE ES   1   1618 11.71                             150    0.11 7 77.4 298 
 BRR  HZ I        1618 15.97        19.7 0.13                          77.4 298 
 RUS  HZ EP   1   1617 56.99                             144   -0.05 7 98.2 179 
 RUS  HN ES   1   1618 15.30                             144    0.00 7 98.2 179 
 RUS  HZ I        1618 16.56         3.8 0.33                          98.2 179 
 CHI  HN ES   1   1618 40.61                             117    0.13 6  248 197 
                                                                                
