 2015  5 7 1345  9.6 L   6.786 -73.123140.2  RSN  4 0.1 1.9LRSN                1
 GAP=160        0.40       2.8     3.1  3.3 -0.5039E+01 -0.2400E+00  0.2221E+01E
 Epicentro: LOS SANTOS - SANTANDER                                             3
 ACTION:UPD 15-09-10 22:02 OP:cam  STATUS:               ID:20150507134509 L   I
 OLDACT:REG 15-05-07 22:41 OP:stll STATUS:               ID:20150507133748     3
 2015-05-07-1337-48M.COL___282                                                 6
 STAT SP IPHASW D HRMM SECON CODA AMPLIT PERI AZIMU VELO AIN AR TRES W  DIS CAZ7
 BAR2 EZ EP       1345 28.47                             170   -0.0310 22.4 197 
 BAR2 EZ I        1345 28.75        14.6 0.34            167           22.4 197 
 BAR2 EZ ES       1345 43.27                             170    0.0010 22.4 197 
 BRR  HZ EP       1345 30.21                             150   -0.0710 74.2 299 
 BRR  HZ I        1345 30.45        15.2 0.30            154           74.2 299 
 BRR  HN ES       1345 46.48                             150    0.0410 74.2 299 
 PAM  SZ EP       1345 31.40                             150    0.2410 77.1  37 
 PAM  SN ES       1345 47.88                             150   -0.1310 77.1  37 
 PAM  SZ I        1345 50.54        19.8 0.42            154           77.1  37 
 SPBC HZ EP       1345 37.50                             128   -0.17 9  164 220 
 SPBC HN ES       1345 59.70                             128    0.10 9  164 220 
 SPBC HZ I        1346  5.61        11.2 0.24            128            164 220 
                                                                                
