 2013  8 7 1043 18.7 L   7.443 -73.410112.2  RSN  9 0.4 1.5LRSN                1
 GAP= 92        1.03       2.8     3.6  7.0  0.3458E+00  0.7909E+01  0.1655E+01E
 Epicentro: SABANA DE TORRES - SANTANDER                                       3
 ACTION:UPD 14-01-14 08:59 OP:ep   STATUS:               ID:20130807104318 L   I
 OLDACT:REG 13-08-07 14:14 OP:jn   STATUS:               ID:20130807103959     3
 2013-08-07-1039-59M.COL___269                                                 6
 STAT SP IPHASW D HRMM SECON CODA AMPLIT PERI AZIMU VELO AIN AR TRES W  DIS CAZ7
 BRR  HN ES   1   1043 48.02                             154    0.30 7 49.9 222 
 PAM  SZ EP       1043 37.79                             142    0.2210 79.3  98 
 PAM  SN ES       1043 52.53                             142    0.2010 79.3  98 
 PAM  SZ I        1043 54.95         6.3 0.28            148           79.3  98 
 OCA  HZ EP       1043 37.81                             139   -0.0110 88.5   7 
 OCA  HN ES       1043 52.77                             139    0.0110 88.5   7 
 OCA  HZ I        1043 55.23         6.9 0.20            143           88.5   7 
 BAR2 SZ EP       1043 38.59                             136   -0.0810 97.4 165 
 BAR2 SZ ES       1043 53.95                             136   -0.3310 97.4 165 
 BAR2 SZ I        1043 54.62         9.1 0.24            138           97.4 165 
 PTB  HZ EP   1   1043 43.66                             122    0.02 7  153 229 
 PTB  HN ES       1044  2.16                             122   -0.97 9  153 229 
 PTB  HZ I        1044  6.59         3.2 0.14            123            153 229 
 ZAR  HZ EP       1043 44.93                             121    0.56 9  160 272 
 ZAR  HN ES       1044  5.08                             121    0.65 9  160 272 
 ZAR  HZ I        1044 10.05         5.6 0.18            122            160 272 
 SML  HZ EP       1043 44.96                             119   -0.13 9  167 334 
 SML  HN ES       1044  5.15                             119   -0.56 9  167 334 
 SML  HZ I        1044  6.24         8.2 0.10            122            167 334 
 RUS  HZ EP       1043 46.63                             118    0.00 9  175 168 
 SPBC HZ EP       1043 49.73                             113   -0.33 8  211 200 
 SPBC HN ES       1044 15.15                             113    0.59 8  211 200 
 SPBC HZ I        1044 23.92         3.0 0.28            115            211 200 
                                                                                
