 2015  5 7 1734  6.6 L   6.807 -73.142141.3  RSN  5 0.3 1.6LRSN                1
 GAP=137        0.89       5.0     4.8  7.0  0.3327E+01  0.9782E+01 -0.7233E+01E
 Epicentro: LOS SANTOS - SANTANDER                                             3
 ACTION:UPD 15-09-10 22:02 OP:cam  STATUS:               ID:20150507173406 L   I
 OLDACT:REG 15-05-07 22:53 OP:stll STATUS:               ID:20150507172748     3
 2015-05-07-1727-48M.COL___282                                                 6
 STAT SP IPHASW D HRMM SECON CODA AMPLIT PERI AZIMU VELO AIN AR TRES W  DIS CAZ7
 BAR2 EZ EP       1734 26.47                             170    0.7310 24.1 191 
 BAR2 EZ ES       1734 40.41                             170   -0.2410 24.1 191 
 BAR2 EZ I        1734 41.14         8.6 0.30            170           24.1 191 
 BRR  HZ EP       1734 27.28                             152   -0.0210 71.2 298 
 BRR  HN ES       1734 43.84                             152    0.4210 71.2 298 
 PAM  SZ EP       1734 28.28                             150   -0.0510 76.6  40 
 PAM  SZ I        1734 28.32         9.3 0.18            151           76.6  40 
 PAM  SN ES       1734 45.04                             150   -0.2110 76.6  40 
 RUS  HN ES       1734 47.99                             143   -0.2410  101 176 
 ZAR  HZ EP       1734 38.49                             121   -0.31 9  204 292 
 ZAR  HN ES       1735  3.65                             121   -0.24 9  204 292 
 ZAR  HZ I        1735  5.57         3.8 0.14            121            204 292 
                                                                                
