 2010  4 7 1830 56.0 L   6.799 -72.984139.0  RSN  4 0.3 2.0LRSN                1
 GAP=279        0.49       8.3     9.0  7.0  0.2942E+02 -0.3678E+01  0.1442E+02E
 Epicentro: CEPITA - SANTANDER                                                 3
 ACTION:UPD 10-08-24 09:58 OP:vdl  STATUS:               ID:20100407183056 L   I
 2010-04-07-1826-11S.COL___097                                                 6
 STAT SP IPHASW D HRMM SECON CODA AMPLIT PERI AZIMU VELO AIN AR TRES W  DIS CAZ7
 BAR2 SZ EP       1831 15.17                             166     0.210   32 224 
 BAR2 SZ ES   2   1831 29.63                             166    -0.2 5   32 224 
 BRR  HZ EP       1831 17.19                             146    -0.210   87 293 
 BRR  HN ES   1   1831 34.26                             146     0.1 7   87 293 
 BRR  HZ I        1831 36.38        13.0 0.14                            87 293 
 RREF BZ EP   2   1831 43.94                             109     0.5 3  335 231 
 RREF BN ES   3   1832 20.26                             109    -0.1 2  335 231 
 RREF BZ I        1832 24.08         4.0 0.26                           335 231 
 PRA  HZ EP   3   1831 49.46                             105    -0.9 1  401 212 
 PRA  HN ES   3   1832 32.22                             105    -0.5 1  401 212 
 PRA  HZ I        1832 37.58         3.2 0.28                           401 212 
                                                                                
