 2011  5 7 1416 22.9 L   6.775 -73.092148.6  RSN  4 0.1 1.7LRSN                1
 GAP=168        0.32       3.0    13.6  3.5 -0.3420E+02 -0.1019E+01 -0.5735E+00E
 Epicentro: LOS SANTOS - SANTANDER                                             3
 ACTION:UP  11-06-29 08:51 OP:tino STATUS:               ID:20110507141622 L   I
 2011-05-07-1412-13S.COL___133                                                 6
 STAT SP IPHASW D HRMM SECON CODA AMPLIT PERI AZIMU VELO SNR AR TRES W  DIS CAZ7
 BAR2 SZ EP       1416 42.79                             171    -0.110   23 206 
 BAR2 SZ ES   1   1416 58.48                             171     0.1 7   23 206 
 BAR2 SZ I        1417  0.79        16.3 0.22                            23 206 
 RUS  HZ EP   1   1416 46.62                             145    -0.1 7   98 179 
 RUS  HN ES   1   1417  5.36                             145     0.1 7   98 179 
 RUS  HZ I        1417  6.73         5.5 0.21                            98 179 
 BRI  SZ EP   1   1416 47.19                             142     0.1 7  109  17 
 BRI  SZ ES   1   1417  5.95                             142     0.0 7  109  17 
 GRA  SZ EP   1   1416 48.61                             137     0.1 7  127  15 
 GRA  SZ ES   1   1417  8.35                             137    -0.1 7  127  15 
 GRA  SZ I        1417 11.48         7.7 0.51                           127  15 
                                                                                
