 2015  7 7 1128 17.7 L   6.783 -73.169138.1  RSN 12 0.6 2.4LRSN                1
 GAP=134        1.25       3.5     4.9  9.6 -0.2663E+01  0.2511E+02  0.4367E+01E
 Epicentro: LOS SANTOS - SANTANDER                                             3
 ACTION:UPD 15-09-08 21:47 OP:cam  STATUS:               ID:20150707112817 L   I
 OLDACT:UP  15-07-07 23:09 OP:ar   STATUS:               ID:20150707111748     3
 OLDACT:REG 15-07-07 21:02 OP:ar   STATUS:               ID:20150707111748     3
 2015-07-07-1117-48M.COL___327                                                 6
 STAT SP IPHASW D HRMM SECON CODA AMPLIT PERI AZIMU VELO AIN AR TRES W  DIS CAZ7
 PAM  EZ EP     C 1128 39.43                             148    0.1310 80.5  40 
 PAM  EE ES       1128 56.05                             148   -0.1010 80.5  40 
 PAM  EZ I        1128 57.99        32.6 0.33            155           80.5  40 
 RUS  HZ EP       1128 40.49                             143   -0.0910 98.9 174 
 RUS  HE ES       1128 59.19                             143    0.7710 98.9 174 
 RUS  HZ I        1128 59.85        34.3 0.20            145           98.9 174 
 OCA  HZ EP       1128 45.72                             127    0.14 9  162 354 
 OCA  HN ES       1129  6.34                             127   -0.99 9  162 354 
 OCA  HZ I        1129  9.99        64.7 0.26            132            162 354 
 ZAR  HZ EP       1128 50.17                             121    0.69 9  202 293 
 ZAR  HN ES       1129 14.82                             121    0.55 9  202 293 
 ZAR  HZ I        1129 17.37        24.7 0.16            123            202 293 
 NOR  HZ EP       1128 52.41                             117   -0.24 8  231 234 
 NOR  HE ES       1129 20.22                             117    0.32 8  231 234 
 NOR  HZ I        1129 24.70        25.5 0.20            119            231 234 
 CHI  HZ EP       1128 54.01                             116   -0.70 8  246 195 
 CHI  HN ES       1129 22.75                             116   -0.82 8  246 195 
 CHI  HZ I        1129 31.03         6.7 0.26            118            246 195 
 HEL  HZ EP       1128 58.13                             113    0.93 8  269 256 
 HEL  HN ES       1129 27.20                             113   -0.81 8  269 256 
 HEL  HZ I        1129 36.15        13.0 0.52            115            269 256 
 GUY2CHZ EP       1129  1.29                             111    0.69 7  298 235 
 GUY2CHN ES       1129 34.10                             111    0.04 7  298 235 
 GUY2CHZ I        1129 43.03        16.6 0.44                           298 235 
 CBOC HN ES       1129 40.04                             109    0.01 7  331 252 
 CBOC HZ I        1129 51.91         6.3 0.58            111            331 252 
 DBB  SZ EP       1129  4.73                             108    0.13 7  337 275 
 DBB  SZ ES       1129 40.52                             108   -0.65 7  337 275 
 TOL  SZ EP       1129  5.87                             108    0.58 7  340 225 
 TOL  SN ES       1129 41.99                             108   -0.42 7  340 225 
 TOL  SZ I        1129 48.26        11.6 0.46            110            340 225 
 PRA  HN ES       1129 51.08                             105   -0.82 6  389 209 
 PRA  HZ I        1129 57.33         6.3 0.40            107            389 209 
                                                                                
