 2017  3 7 1016 53.3 L   6.809 -73.159150.2  RSN  8 0.4 1.8LRSN                1
 GAP=134        0.98       3.6     4.7  6.1  0.1015E+01  0.7814E+01  0.3804E+01E
 Epicentro: LOS SANTOS - SANTANDER                                             3
 ACTION:UPD 17-05-25 18:37 OP:jn   STATUS:               ID:20170307101653 L   I
 OLDACT:UP  17-03-07 21:01 OP:ar   STATUS:               ID:20170307100742     3
 OLDACT:REG 17-03-07 20:12 OP:ar   STATUS:               ID:20170307100742     3
 2017-03-07-1008-00M.COL___366                                                 6
 STAT SP IPHASW D HRMM SECON CODA AMPLIT PERI AZIMU VELO AIN AR TRES W  DIS CAZ7
 BAR2 EZ EP       1017 13.20                             170   -0.2810 24.1 186 
 BAR2 EZ ES       1017 28.64                             170   -0.5810 24.1 186 
 BAR2 EZ I        1017 29.00        15.7 0.38            169           24.1 186 
 BRR  HZ EP       1017 15.20                             154    0.3610 69.5 298 
 BRR  HE ES       1017 32.27                             154    0.6310 69.5 298 
 PAM  EZ EP       1017 16.22                             152    0.2210 77.6  41 
 PAM  EN ES       1017 33.37                             152   -0.3410 77.6  41 
 PAM  EZ I        1017 35.23        14.3 0.50            154           77.6  41 
 RUS  HZ EP       1017 17.27                             144   -0.3010  102 175 
 RUS  HN ES       1017 36.78                             144    0.2810  102 175 
 RUS  HZ I        1017 37.43         6.1 0.46            144            102 175 
 SPBC HZ EP       1017 22.57                             130    0.44 9  163 218 
 SPBC HN ES       1017 44.81                             130    0.19 9  163 218 
 SPBC HZ I        1017 50.46        10.6 0.38            129            163 218 
 ZAR  HZ EP       1017 26.05                             123    0.18 9  202 292 
 ZAR  HN ES       1017 50.81                             123   -0.46 9  202 292 
 ZAR  HZ I        1017 53.55         5.6 0.24            124            202 292 
 CHI  HZ EP       1017 31.34                             118    0.03 8  249 195 
 CHI  HN ES       1018  0.71                             118   -0.25 8  249 195 
 CHI  HZ I        1018  3.95         4.9 0.66            118            249 195 
 URE  HN ES   2   1018  5.10                             114   -1.36 4  282 292 
                                                                                
