 2014 10 7 1229 56.5 L   7.436 -73.184142.7  RSN  4 0.6 1.5LRSN                1
 GAP=134        1.58       9.2    10.9 16.5  0.2769E+02  0.1366E+02 -0.4193E+02E
 Epicentro: EL PLAYON - SANTANDER                                              3
 ACTION:UPD 14-11-29 23:47 OP:nd   STATUS:               ID:20141007122956 L   I
 OLDACT:REG 14-10-07 22:04 OP:stll STATUS:               ID:20141007122747     3
 2014-10-07-1227-47M.COL___295                                                 6
 STAT SP IPHASW D HRMM SECON CODA AMPLIT PERI AZIMU VELO AIN AR TRES W  DIS CAZ7
 PAM  SZ EP       1230 16.72                             158   -0.4910 54.5 101 
 PAM  SN ES       1230 33.93                             158    0.5910 54.5 101 
 PAM  SZ I        1230 35.07         4.9 0.18            158           54.5 101 
 BRR  HZ EP       1230 18.22                             153    1.0110 68.7 238 
 BRR  HN ES       1230 33.52                             153    0.1810 68.7 238 
 BAR2 SZ EP   1   1230 19.11                             145    0.00 7 93.3 180 
 BAR2 SZ ES       1230 35.82                             145   -0.8910 93.3 180 
 BAR2 SZ I        1230 37.80         7.0 0.16            146           93.3 180 
 SML  HN ES       1230 49.03                             125   -0.50 9  180 327 
                                                                                
