 2012 10 7 1921 46.9 L   6.753 -73.108140.0  RSN  5 0.2 1.9LRSN                1
 GAP=144        0.40       4.2     4.5  4.3 -0.4607E+01 -0.1422E+00  0.4481E+01E
 Epicentro: LOS SANTOS - SANTANDER                                             3
 ACTION:UPD 12-11-22 17:02 OP:ep   STATUS:               ID:20121007192146 L   I
 2012-10-07-1920-00M.COL___222                                                 6
 STAT SP IPHASW D HRMM SECON CODA AMPLIT PERI AZIMU VELO AIN AR TRES W  DIS CAZ7
 BAR2 SZ EP       1922  5.68                             172   -0.0410 19.5 205 
 BAR2 SZ ES   2   1922 20.36                             172   -0.07 5 19.5 205 
 BAR2 SZ I        1922 22.04        24.2 0.14                          19.5 205 
 GIR2 SZ EP       1922  5.89                             164   -0.1310 37.3 345 
 GIR2 SZ ES   1   1922 20.92                             164   -0.06 7 37.3 345 
 BRR  HZ EP       1922  7.65                             149   -0.1010 77.4 300 
 BRR  HZ I        1922  8.17        15.0 0.12                          77.4 300 
 BRR  HN ES   2   1922 24.53                             149    0.47 5 77.4 300 
 PAM  SZ EP       1922  8.79                             149    0.2310 79.1  35 
 PAM  SZ I        1922  8.99        12.4 0.24                          79.1  35 
 PAM  SN ES   1   1922 25.37                             149   -0.12 7 79.1  35 
 RUS  HZ EP   2   1922  9.76                             144    0.12 5 95.1 178 
 RUS  HN ES   3   1922 27.66                             144    0.24 2 95.1 178 
                                                                                
