 2017  4 7 1028  5.0 L   5.903 -73.653128.5  RSN  5 0.3 1.2LRSN                1
 GAP=148        0.66       4.4     3.1  6.1 -0.1430E+01  0.3434E+01 -0.2547E+01E
 Epicentro: PUENTE NACIONAL - SANTANDER                                        3
 ACTION:UPD 17-05-30 21:09 OP:jn   STATUS:               ID:20170407102805 L   I
 OLDACT:UP  17-04-07 21:14 OP:edw  STATUS:               ID:20170407101740d    3
 OLDACT:UP  17-04-07 21:11 OP:edw  STATUS:               ID:20170407101740d    3
 OLDACT:UP  17-04-07 21:10 OP:edw  STATUS:               ID:20170407101740d    3
 OLDACT:UP  17-04-07 20:56 OP:ar   STATUS:               ID:20170407101740d    3
 OLDACT:DUP 17-04-07 20:55 OP:ar   STATUS:               ID:20170407101740d    3
 OLDACT:DUP 17-04-07 20:53 OP:ar   STATUS:               ID:20170407101739d    3
 OLDACT:REG 17-04-07 19:59 OP:ar   STATUS:               ID:20170407101738     3
 2017-04-07-1018-00M.COL___368                                                 6
 STAT SP IPHASW D HRMM SECON CODA AMPLIT PERI AZIMU VELO AIN AR TRES W  DIS CAZ7
 SPBC HZ EP       1028 23.42                             156   -0.0410 54.1 239 
 SPBC HN ES       1028 38.20                             156    0.3310 54.1 239 
 SPBC HZ I        1028 39.08         8.0 0.44            158           54.1 239 
 RUS  HZ EP       1028 24.46                             153   -0.0610 63.1  91 
 RUS  HN ES       1028 39.42                             153   -0.3510 63.1  91 
 RUS  HZ I        1028 42.46         1.8 0.30            155           63.1  91 
 BAR2 EZ EP   2   1028 26.13                             142    0.04 5 92.3  34 
 BAR2 EZ ES       1028 42.88                             142    0.3210 92.3  34 
 BAR2 EZ I        1028 45.11         6.3 0.18            144           92.3  34 
 PTB  HZ EP       1028 27.64                             136    0.1710  113 308 
 PTB  HN ES       1028 44.63                             136   -0.3810  113 308 
 PTB  HZ I        1028 47.19         1.6 0.10            138            113 308 
 NOR  HN ES   2   1028 49.21                             129   -0.11 5  140 255 
 NOR  HZ I        1028 51.14         2.4 0.50            132            140 255 
 CHI  HZ EP   4   1028 27.18                             129   -3.31 0  141 184 
 CHI  HE ES   4   1028 48.79                             129   -1.60 0  141 184 
                                                                                
