 2013 12 7 1913 20.8 L   6.820 -73.137146.8  RSN 19 0.5 2.5LRSN                1
 GAP= 66        0.98       2.6     3.4  4.8 -0.5185E+00  0.4023E+01  0.1697E+01E
 Epicentro: LOS SANTOS - SANTANDER                                             3
 ACTION:UPD 14-01-13 10:16 OP:ep   STATUS:               ID:20131207191320 L   I
 OLDACT:UP  13-12-07 17:41 OP:cam  STATUS:               ID:20131207191000     3
 OLDACT:REG 13-12-07 16:16 OP:cam  STATUS:               ID:20131207191000     3
 2013-12-07-1910-00M.COL___285                                                 6
 STAT SP IPHASW D HRMM SECON CODA AMPLIT PERI AZIMU VELO AIN AR TRES W  DIS CAZ7
 BAR2 SZ IP     C 1913 40.54                             170   -0.0410 25.7 191 
 BAR2 SZ ES       1913 55.82                             170   -0.2110 25.7 191 
 BAR2 SZ I        1913 57.21        98.6 0.34            168           25.7 191 
 BRR  HZ EP       1913 42.25                             153    0.2210 71.0 297 
 BRR  HE ES       1913 59.37                             153    0.7710 71.0 297 
 BRR  HZ I        1914  3.61        51.4 0.16            150           71.0 297 
 PAM  SZ EP       1913 43.49                             152    0.5210 75.1  40 
 PAM  SE ES       1914  0.33                             152    0.0510 75.1  40 
 PAM  SE I        1914  3.17        76.9 0.34            156           75.1  40 
 RUS  HZ EP       1913 44.46                             143   -0.3310  103 177 
 RUS  HN ES       1914  3.32                             143   -0.2010  103 177 
 RUS  HZ I        1914  4.28        26.4 0.26            146            103 177 
 PTB  HZ EP       1913 47.29                             132   -0.66 9  149 258 
 PTB  HN ES   4   1914  8.10                             132   -1.05 0  149 258 
 PTB  HZ I        1914 15.40        31.9 0.16            131            149 258 
 TAM  HZ EP       1913 49.04                             131    0.53 9  155 106 
 OCA  HN ES       1914 10.36                             130   -0.60 9  158 353 
 SPBC HZ EP       1913 49.57                             129   -0.01 9  165 219 
 SPBC HN ES       1914 12.06                             129    0.02 9  165 219 
 SPBC HZ I        1914 15.70        49.1 0.42            129            165 219 
 ZAR  HZ EP   1   1913 53.67                             123    0.38 6  204 291 
 ZAR  HN ES       1914 18.28                             123   -0.38 9  204 291 
 ZAR  HZ I        1914 23.59        32.6 0.52            123            204 291 
 NOR  HZ EP       1913 56.71                             118   -0.08 8  237 234 
 NOR  HE ES       1914 24.60                             118   -0.27 8  237 234 
 NOR  HZ I        1914 33.60        18.1 0.34            119            237 234 
 SML  HZ EP       1913 57.01                             118   -0.27 8  242 335 
 SML  HE ES       1914 25.51                             118   -0.25 8  242 335 
 SML  HZ I        1914 34.89        33.8 0.10            119            242 335 
 CHI  HZ EP       1913 58.76                             117   -0.03 8  251 195 
 CHI  HN ES       1914 28.05                             117   -0.40 8  251 195 
 CHI  HZ I        1914 33.37        19.1 0.34            119            251 195 
 HEL  HZ EP   4   1914  2.73                             115    1.53 0  274 255 
 HEL  HN ES       1914 33.02                             115    0.28 8  274 255 
 HEL  HZ I        1914 38.63        20.8 0.28            115            274 255 
 GUY2CHZ EP       1914  5.48                             112    0.82 7  303 235 
 GUY2CHE ES   4   1914 42.92                             112    4.02 0  303 235 
 GUY2CHZ I        1914 46.70        19.8 0.34                           303 235 
 PTGC HZ EP   2   1914  3.79                             112   -1.09 3  310 159 
 RREF HZ EP       1914  8.10                             111    0.89 7  324 229 
 CBOC HZ EP   2   1914  8.49                             110    0.58 3  335 252 
 PRA  HZ EP   2   1914 14.40                             106   -0.21 3  394 210 
 SJC  HZ EP   2   1914 14.81                             106   -1.40 3  408 327 
                                                                                
