 2016  2 7 1008 16.9 L   6.752 -73.130138.5  RSN  7 0.3 1.3LRSN                1
 GAP=201        0.68       3.4     4.0  5.2  0.5663E+01  0.5044E+01  0.7865E+00E
 Epicentro: LOS SANTOS - SANTANDER                                             3
 ACTION:UPD 16-03-04 21:24 OP:rebc STATUS:               ID:20160207100816 L   I
 OLDACT:REG 16-02-07 22:09 OP:cara STATUS:               ID:20160207095737     3
 2016-02-07-0957-37M.COL___328                                                 6
 STAT SP IPHASW D HRMM SECON CODA AMPLIT PERI AZIMU VELO AIN AR TRES W  DIS CAZ7
 BAR2 EZ IP       10 8 35.28                             172   -0.2710 18.5 198 
 BAR2 EZ ES       10 8 50.24                             172    0.1410 18.5 198 
 BAR2 EZ I        10 8 50.88         4.3 0.34            170           18.5 198 
 RUS  HZ EP       10 8 39.34                             144   -0.1810 95.1 177 
 RUS  HE ES       10 8 57.40                             144    0.2210 95.1 177 
 RUS  HZ I        10 8 59.27         2.2 0.28            143           95.1 177 
 PTB  HN ES       10 9  3.59                             130   -0.38 9  149 261 
 PTB  HZ I        10 9  6.07         1.7 0.38            128            149 261 
 SPBC HZ EP       10 8 44.46                             128   -0.08 9  160 221 
 SPBC HN ES       10 9  5.86                             128   -0.25 9  160 221 
 SPBC HZ I        10 9  9.35         2.9 0.22            126            160 221 
 ZAR  HZ EP       10 8 49.44                             120    0.19 8  208 293 
 ZAR  HN ES       10 9 14.92                             120    0.43 8  208 293 
 ZAR  HZ I        10 9 19.06         2.2 0.52            119            208 293 
 CHI  HE ES       10 9 22.78                             116    0.42 8  244 196 
 CHI  HZ I        10 9 29.08         0.9 0.76            115            244 196 
 SML  HZ EP   9   10 8 51.71                             115   -2.01 0  249 335 
 SML  HN ES       10 9 20.23                                   -0.22 8  249 335 
 SML  HZ I        10 9 26.56         2.8 0.10            114            249 335 
                                                                                
