 2017  2 7 1846 27.1 L   6.818 -73.185142.8  RSN 19 0.4 2.6LRSN                1
 GAP= 68        0.82       2.9     2.3  4.3 -0.1968E+00  0.3203E+01 -0.8305E-01E
 Epicentro: ZAPATOCA - SANTANDER                                               3
 ACTION:UPD 17-05-24 15:33 OP:jn   STATUS:               ID:20170207184627 L   I
 OLDACT:UP  17-02-08 00:24 OP:and  STATUS:               ID:20170207183748     3
 OLDACT:UP  17-02-08 00:24 OP:and  STATUS:               ID:20170207183748     3
 OLDACT:UP  17-02-08 00:23 OP:and  STATUS:               ID:20170207183748     3
 OLDACT:UP  17-02-08 00:22 OP:and  STATUS:               ID:20170207183748     3
 OLDACT:UP  17-02-08 00:22 OP:and  STATUS:               ID:20170207183748     3
 OLDACT:UP  17-02-08 00:20 OP:and  STATUS:               ID:20170207183748     3
 OLDACT:UP  17-02-08 00:16 OP:and  STATUS:               ID:20170207183748     3
 OLDACT:UP  17-02-08 00:13 OP:and  STATUS:               ID:20170207183748     3
 OLDACT:REG 17-02-07 21:20 OP:and  STATUS:               ID:20170207183748     3
 2017-02-07-1838-00M.COL___358                                                 6
 STAT SP IPHASW D HRMM SECON CODA AMPLIT PERI AZIMU VELO AIN AR TRES W  DIS CAZ7
 BAR2 EZ IP     C 1846 46.48                             170    0.0810 24.9 179 
 BAR2 EZ ES       1847  1.25                             170   -0.2110 24.9 179 
 BAR2 EZ I        1847  2.67        93.3 0.19            168           24.9 179 
 BRR  HZ IP     C 1846 48.34                             153    0.6910 66.5 299 
 BRR  HN ES   4   1847  5.45                             153    1.75 0 66.5 299 
 BRR  HZ I        1847  9.53        49.5 0.14            149           66.5 299 
 PAM  EZ EP       1846 49.42                             150    0.3410 78.8  43 
 PAM  EN ES       1847  6.20                             150   -0.0210 78.8  43 
 PAM  EZ I        1847  8.60       118.4 0.50            151           78.8  43 
 RUS  HZ EP       1846 50.43                             143   -0.2910  103 174 
 RUS  HN ES       1847  9.18                             143    0.0210  103 174 
 RUS  HZ I        1847 10.19       103.1 0.24            141            103 174 
 PTB  HZ EP       1846 53.19                             132   -0.28 9  144 258 
 PTB  HN ES       1847 14.20                             132    0.16 9  144 258 
 PTB  HZ I        1847 17.10        34.3 0.18            129            144 258 
 TAM  HZ IP     D 1846 54.82                             129   -0.16 9  160 105 
 TAM  HN ES       1847 16.55                             129   -0.18 9  160 105 
 ZAR  HZ EP       1846 58.87                             122    0.02 9  199 292 
 ZAR  HN ES       1847 23.45                             122   -0.18 9  199 292 
 ZAR  HZ I        1847 33.24        27.7 0.28            120            199 292 
 NOR  HZ EP       1847  2.47                             118    0.08 8  232 233 
 NOR  HN ES       1847 30.82                             118    0.89 8  232 233 
 NOR  HZ I        1847 32.94        27.6 0.18            116            232 233 
 CHI  HZ EP       1847  4.48                             116   -0.23 8  249 194 
 CHI  HN ES       1847 33.75                             116   -0.31 8  249 194 
 CHI  HZ I        1847 37.43        26.8 0.48            115            249 194 
 ROSC BZ EP   9   1847  7.05                             116    2.06 0  252 210 
 ROSC BN ES       1847 36.19                                   -0.43 8  252 210 
 ROSC BZ I        1847 40.23        40.0 0.45            114            252 210 
 URE  HZ EP       1847  6.86                             113   -0.62 7  279 292 
 LL1C HZ EP   4   1847 11.82                             111    1.56 0  304 352 
 LL1C HN ES   4   1847 48.67                             111    4.73 0  304 352 
 PTGC HZ EP   4   1847  9.65                             111   -1.55 0  312 158 
 PTGC HN ES   4   1847 42.89                             111   -2.72 0  312 158 
 PTGC HZ I        1847 47.85        32.0 0.28            110            312 158 
 CBOC HZ EP   9   1847 14.91                             110    1.43 0  330 252 
 CBOC HN ES       1847 50.83                             109   -0.26 7  330 252 
 CBOC HZ I        1847 54.54         6.0 0.20            108            330 252 
 DBB  EZ EP       1847 14.51                             109    0.58 7  335 274 
 DBB  EN ES       1847 49.62                             109   -0.85 7  335 274 
 DBB  EZ I        1847 51.37         8.5 0.13            107            335 274 
 ANIL HZ EP   9   1847 17.96                             108    1.37 0  356 224 
 ANIL HN ES       1847 56.46                             108   -0.11 6  356 224 
 ORTC HZ EP       1847 20.69                             106   -0.11 6  394 215 
 ORTC HN ES   3   1848  4.02                             106    1.33 1  394 215 
 ORTC HZ I        1848  7.65        13.7 0.52            105            394 215 
 PAL  HZ EP       1847 22.05                             105    0.22 6  403 239 
 PAL  HZ I        1848  7.41         8.5 0.08            104            403 239 
 SJC  HZ EP   4   1847 20.55                             105   -1.53 0  405 327 
 SJC  HN ES   4   1848  1.68                             105   -3.30 0  405 327 
 SJC  HZ I        1848  8.49         6.9 0.58            104            405 327 
 CRJC HZ EP   9   1847 26.82                             103   -2.49 0  466   4 
 CRJC HN ES       1848 15.42                             103    0.07 5  466   4 
 CRJC HZ I        1848 17.62        10.1 0.11            102            466   4 
                                                                                
