 2017  9 7 1151 20.2 L   6.767 -73.131136.2  RSN  8 0.5 1.7LRSN                1
 GAP=140        1.21       4.5     5.8  7.3 -0.9724E+00  0.1474E+02  0.5802E+01E
 Epicentro: LOS SANTOS - SANTANDER                                             3
 ACTION:UPD 17-10-05 19:10 OP:rebc STATUS:               ID:20170907115120 L   I
 OLDACT:REG 17-09-07 20:06 OP:lv   STATUS:               ID:20170907114739     3
 2017-09-07-1148-00M.COL___423                                                 6
 STAT SP IPHASW D HRMM SECON CODA AMPLIT PERI AZIMU VELO AIN AR TRES W  DIS CAZ7
 BAR2 EZ EP       1151 38.44                             171   -0.1910 20.1 196 
 BAR2 EZ ES       1151 52.32                             171   -0.6710 20.1 196 
 BAR2 EZ I        1151 54.63        16.7 0.34            171           20.1 196 
 BRR  HZ EP       1151 40.39                             150   -0.1410 74.4 300 
 BRR  HN ES       1151 57.26                             150    0.8810 74.4 300 
 BRR  HZ I        1152  0.28        13.5 0.32            149           74.4 300 
 PAM  EZ EP       1151 41.42                             148   -0.1210 79.2  37 
 PAM  EN ES       1151 58.12                             148   -0.0510 79.2  37 
 PAM  EZ I        1152  0.55         9.7 0.52            151           79.2  37 
 RUS  HZ EP       1151 42.62                             143   -0.1410 96.8 177 
 RUS  HN ES       1152  1.02                             143    0.6910 96.8 177 
 RUS  HZ I        1152  2.19         3.8 0.26            145           96.8 177 
 SPBC HZ EP       1151 47.55                             127   -0.27 9  161 220 
 SPBC HN ES       1152  9.21                             127   -0.15 9  161 220 
 ZAR  HZ EP       1151 53.06                             120    0.70 8  207 293 
 ZAR  HE ES       1152 16.58                             120   -0.86 8  207 293 
 ZAR  HZ I        1152 21.63         4.6 0.13            121            207 293 
 GUY2CHZ EP       1152  3.97                             110    0.66 7  300 236 
 GUY2CHN ES   4   1152 35.92                             110   -1.01 0  300 236 
 GUY2CHZ I        1152 44.71         1.8 0.41                           300 236 
 PRA  HZ EP       1152 13.04                             105   -0.10 6  390 210 
 PRA  HE ES       1152 54.13                             105   -0.30 6  390 210 
 PRA  HZ I        1152 59.71         2.8 0.32            106            390 210 
                                                                                
