 2013  1 7 1416 16.3 L   6.782 -73.124144.8  RSN 14 0.5 3.3LRSN 3.3WRSN        1
 SPEC AVERAGE  MO 14.1 ST 43.3 OM  2.7 f0 4.93 R0.3348 AL 2.76 WI 14.7 MW  3.3 3
 SPEC SD       MO  0.2 ST 60.8 OM  0.4 f0 1.75 R0.1095 AL      WI      MW  0.1 3
 GAP=128        1.21       3.5     4.8  6.0  0.5213E+00  0.3878E+01  0.8088E+00E
 Epicentro: LOS SANTOS - SANTANDER                                             3
 SPEC SDV BH N MO 14.4 ST197.3 OM  2.4 f0 8.38 R0.1754 AL 0.00 WI 12.7 MW  3.5 3
 SPEC SDV BH N T141742 K 0.000 GD  388 VS 4.20 DE 3.20 Q0300.0 QA 0.60 VS 4.20 3
 SPEC PTB HH N MO 14.1 ST 12.2 OM  2.4 f0 4.08 R0.3603 AL 2.34 WI 13.0 MW  3.4 3
 SPEC PTB HH N T1417 2 K 0.000 GD  208 VS 4.20 DE 3.20 Q0300.0 QA 0.60 VS 4.20 3
 SPEC RUS HH N MO 13.7 ST  1.9 OM  2.1 f0 2.92 R0.5034 AL 2.41 WI 13.8 MW  3.1 3
 SPEC RUS HH N T141656 K 0.000 GD  175 VS 4.20 DE 3.20 Q0300.0 QA 0.60 VS 4.20 3
 SPEC HEL HH N MO 14.0 ST  8.5 OM  2.1 f0 3.99 R0.3684 AL 2.74 WI 21.5 MW  3.3 3
 SPEC HEL HH N T141725 K 0.000 GD  309 VS 4.20 DE 3.20 Q0300.0 QA 0.60 VS 4.20 3
 SPEC NOR HH N MO 14.1 ST 56.1 OM  2.3 f0 6.66 R0.2207 AL 4.12 WI 20.1 MW  3.4 3
 SPEC NOR HH N T141718 K 0.000 GD  276 VS 4.20 DE 3.20 Q0300.0 QA 0.60 VS 4.20 3
 SPEC CHI HH N MO 14.0 ST  3.6 OM  2.1 f0 3.06 R0.4804 AL 2.87 WI 19.7 MW  3.2 3
 SPEC CHI HH N T141722 K 0.000 GD  286 VS 4.20 DE 3.20 Q0300.0 QA 0.60 VS 4.20 3
 SPEC BRR HH N MO 14.4 ST 38.1 OM  2.8 f0 4.76 R0.3088 AL 3.41 WI  9.1 MW  3.5 3
 SPEC BRR HH N T141654 K 0.000 GD  162 VS 4.20 DE 3.20 Q0300.0 QA 0.60 VS 4.20 3
 SPEC BAR2SH Z MO 14.1 ST 28.4 OM  2.5 f0 5.63 R0.2611 AL 4.22 WI  7.7 MW  3.3 3
 SPEC BAR2SH Z T141648 K 0.000 GD  146 VS 4.20 DE 3.20 Q0300.0 QA 0.60 VS 4.20 3
 ACTION:UPD 13-02-15 09:12 OP:ep   STATUS:               ID:20130107141616 L   I
 2013-01-07-1410-00M.COL___242                                                 6
 STAT SP IPHASW D HRMM SECON CODA AMPLIT PERI AZIMU VELO AIN AR TRES W  DIS CAZ7
 BAR2 SZ EP       1416 36.09                             171    0.3210 22.0 197 
 BAR2 SZ ES       1416 50.68                             171   -0.2910 22.0 197 
 BAR2 SZ I        1416 51.88       318.1 0.16            164           22.0 197 
 BRR  HZ EP       1416 38.06                             151    0.5610 74.2 299 
 BRR  HN ES       1416 54.88                             151    0.8310 74.2 299 
 BRR  HN I        1416 55.07       806.9 0.22            141           74.2 299 
 RUS  HZ EP       1416 40.05                             144    0.2610 98.5 177 
 RUS  HN ES       1416 58.10                             144   -0.0210 98.5 177 
 RUS  HN I        1416 59.85       144.7 0.32            133           98.5 177 
 PTB  HZ EP       1416 42.77                             131   -0.58 9  150 260 
 PTB  HN ES       1417  3.59                             131   -0.88 9  150 260 
 PTB  HN I        1417  6.25       465.3 0.22            119            150 260 
 OCA  HZ EP       1416 44.66                             129   -0.07 9  162 352 
 OCA  HN ES       1417  6.19                             129   -0.72 9  162 352 
 ZAR  HZ EP       1416 49.22                             122    0.25 8  207 292 
 ZAR  HN ES       1417 14.85                             122    0.38 8  207 292 
 ZAR  HN I        1417 20.86       269.8 0.32            111            207 292 
 NOR  HZ EP       1416 52.63                             118    0.58 8  236 235 
 NOR  HN ES       1417 19.90                             118   -0.04 8  236 235 
 NOR  HN I        1417 25.18       172.5 0.20            108            236 235 
 CHI  HZ EP       1416 54.44                             117    0.65 8  247 196 
 CHI  HE ES       1417 22.53                             117   -0.52 8  247 196 
 CHI  HE I        1417 30.15        51.1 0.62            107            247 196 
 ROSC BZ EP       1416 53.57                             116   -0.74 8  252 212 
 ROSC BZ I        1417 32.27        56.7 0.50            107            252 212 
 HEL  HZ EP       1416 57.18                             114    0.52 8  274 256 
 HEL  HE ES       1417 28.05                             114   -0.09 8  274 256 
 HEL  HE I        1417 36.87        76.6 0.48            105            274 256 
 URE  HZ EP       1416 56.73                             113   -0.91 7  287 292 
 URE  HN I        1417 38.14       158.5 0.24            104            287 292 
 VIL  SN ES       1417 33.22                             112    0.02 7  302 192 
 DBB  SZ EP       1417  4.43                             109    0.41 7  342 275 
 MON  HZ EP   4   1417  4.05                             108   -1.56 0  357 308 
 SDV  BZ EP       1417  5.93                             108   -0.29 6  360  50 
                                                                                
