 2017 11 7 1247 60.0 L   6.346 -73.608114.0  RSN  7 0.4 1.7LRSN                1
 GAP= 86        0.86       3.9     3.4  9.4  0.1966E+01 -0.9822E+00  0.3879E+00E
 Epicentro: SANTA HELENA DEL OPON - SANTANDER                                  3
 ACTION:UPD 17-12-12 19:53 OP:rebc STATUS:               ID:20171107124760 L   I
 OLDACT:UP  17-11-07 22:06 OP:mg   STATUS:               ID:20171107123739     3
 OLDACT:REG 17-11-07 20:18 OP:mg   STATUS:               ID:20171107123739     3
 2017-11-07-1238-00M.COL___417                                                 6
 STAT SP IPHASW D HRMM SECON CODA AMPLIT PERI AZIMU VELO AIN AR TRES W  DIS CAZ7
 BAR2 EZ EP     D 1248 17.24                             153    0.1310 54.4  60 
 BAR2 EZ ES   2   1248 30.32                             153   -0.14 5 54.4  60 
 BAR2 EZ I        1248 31.62        23.3 0.19            157           54.4  60 
 BRR  HZ EP   1   1248 18.86                             141    0.03 7 85.0 352 
 BRR  HN ES   2   1248 33.68                             141    0.16 5 85.0 352 
 BRR  HZ I        1248 35.11        22.0 0.36            144           85.0 352 
 SPBC HN ES   1   1248 34.67                             138   -0.11 7 92.3 214 
 SPBC HZ I        1248 38.39        10.3 0.09            141           92.3 214 
 PTB  HZ EP     C 1248 18.91                             137   -0.8510 96.3 283 
 PTB  HN ES   3   1248 34.15                             137   -1.03 2 96.3 283 
 PTB  HZ I        1248 36.89         6.3 0.12            139           96.3 283 
 NOR  HZ EP   1   1248 26.10                             121   -0.24 7  164 238 
 NOR  HE ES       1248 47.37                             121    0.48 9  164 238 
 NOR  HZ I        1248 49.16         4.8 0.16            123            164 238 
 YPLC HZ EP       1248 27.12                             119   -0.04 9  172 128 
 YPLC HN ES   1   1248 48.70                             119    0.35 7  172 128 
 YPLC HZ I        1248 49.39         7.7 0.38            123            172 128 
 ZAR  HZ EP   2   1248 29.16                             117    0.38 4  188 313 
 ZAR  HE ES       1248 51.67                             117    0.45 9  188 313 
 ZAR  HZ I        1248 54.90         6.9 0.22            120            188 313 
                                                                                
