 2016  2 7 1146 19.0 L   6.814 -73.155141.2  RSN  7 0.2 1.6LRSN                1
 GAP=255        0.49       2.7     2.8  3.6  0.1197E+01  0.2350E+01  0.2339E+01E
 Epicentro: LOS SANTOS - SANTANDER                                             3
 ACTION:UPD 16-03-04 21:24 OP:rebc STATUS:               ID:20160207114619 L   I
 OLDACT:REG 16-02-07 20:21 OP:cara STATUS:               ID:20160207113749     3
 2016-02-07-1137-49M.COL___331                                                 6
 STAT SP IPHASW D HRMM SECON CODA AMPLIT PERI AZIMU VELO AIN AR TRES W  DIS CAZ7
 BAR2 EZ IP       1146 38.35                             170    0.1910 24.7 187 
 BAR2 EZ ES       1146 52.96                             170   -0.1010 24.7 187 
 BAR2 EZ I        1146 54.50         8.1 0.20            164           24.7 187 
 PTB  HZ EP       1146 45.24                             131   -0.34 9  147 258 
 PTB  HN ES       1147  6.13                             131   -0.14 9  147 258 
 PTB  HZ I        1147 11.21         4.4 0.48            130            147 258 
 SPBC HZ EP       1146 47.13                             128   -0.12 9  164 218 
 SPBC HN ES       1147  9.62                             128    0.37 9  164 218 
 SPBC HZ I        1147 17.02        11.7 0.24            127            164 218 
 ZAR  HN ES       1147 16.17                             122    0.18 9  203 292 
 ZAR  HZ I        1147 22.54         4.5 0.32            122            203 292 
 NOR  HZ EP       1146 54.60                             117    0.08 8  235 234 
 NOR  HE ES       1147 22.14                             117   -0.05 8  235 234 
 NOR  HZ I        1147 29.55         2.7 0.16            118            235 234 
 CHI  HZ EP       1146 56.67                             116    0.04 8  250 195 
 CHI  HN ES       1147 25.76                             116   -0.17 8  250 195 
 CHI  HZ I        1147 31.15         2.4 0.30            117            250 195 
 GUY2CHZ EP       1147  2.61                             111    0.16 7  301 234 
 GUY2CHN ES       1147 36.24                             111   -0.06 7  301 234 
 GUY2CHZ I        1147 44.73         2.1 0.50                           301 234 
                                                                                
