 2015  4 7 1102  8.6 L   6.808 -73.173140.9  RSN  8 0.5 1.9LRSN                1
 GAP=133        1.20       4.4     4.8  7.5 -0.6331E+00  0.1089E+02 -0.6028E+01E
 Epicentro: LOS SANTOS - SANTANDER                                             3
 ACTION:UPD 15-06-03 16:53 OP:cam  STATUS:               ID:20150407110208 L   I
 OLDACT:REG 15-04-07 21:17 OP:carl STATUS:               ID:20150407105750     3
 2015-04-07-1057-50M.COL___264                                                 6
 STAT SP IPHASW D HRMM SECON CODA AMPLIT PERI AZIMU VELO AIN AR TRES W  DIS CAZ7
 BAR2 EZ EP       11 2 27.69                             170    0.0610 23.9 183 
 BAR2 EZ ES       11 2 42.26                             170   -0.2310 23.9 183 
 BAR2 EZ I        11 2 43.48        23.9 0.30            172           23.9 183 
 BRR  HZ EP       11 2 29.48                             153    0.4510 68.1 299 
 BRR  HN ES       11 2 45.49                             153    0.5110 68.1 299 
 PAM  SZ EP       11 2 30.58                             149    0.2210 78.7  42 
 PAM  SN ES       11 2 47.50                             149    0.1610 78.7  42 
 PAM  SZ I        11 2 49.49        23.6 0.42            151           78.7  42 
 RUS  HZ EP       11 2 32.18                             142    0.2410  102 174 
 RUS  HN ES       11 2 49.72                             142   -0.4310  102 174 
 RUS  HZ I        11 2 51.35         4.8 0.32            147            102 174 
 PTB  HZ EP       11 2 34.39                             131   -0.51 9  145 258 
 PTB  HN ES       11 2 54.65                             131   -0.77 9  145 258 
 PTB  HZ I        11 3  0.73         7.0 0.32            131            145 258 
 ZAR  HZ EP       11 2 40.95                             122    0.56 9  201 292 
 ZAR  HE ES       11 3  5.78                             122    0.58 9  201 292 
 ZAR  HZ I        11 3 15.72         7.7 0.32            121            201 292 
 NOR  HN ES       11 3 11.72                             118    0.41 8  233 234 
 NOR  HZ I        11 3 13.56         4.1 0.22            119            233 234 
 SML  HZ EP       11 2 44.01                             117   -0.70 8  242 336 
 SML  HN ES       11 3 12.07                             117   -0.83 8  242 336 
 SML  HZ I        11 3 21.33        10.9 0.10            117            242 336 
                                                                                
