 2011 12 7 1952 54.5 L   6.753 -73.132142.7  RSN 10 0.3 2.3LRSN                1
 GAP=117        0.68       3.2     4.6  4.8 -0.2671E+01  0.3008E+01  0.3782E+01E
 Epicentro: LOS SANTOS - SANTANDER                                             3
 ACTION:UPD 12-07-13 16:14 OP:ep   STATUS:               ID:20111207195254 L   I
 2011-12-07-1950-00M.COL___182                                                 6
 STAT SP IPHASW D HRMM SECON CODA AMPLIT PERI AZIMU VELO AIN AR TRES W  DIS CAZ7
 BAR2 SZ EP       1953 13.57                             172   -0.1010 18.6 197 
 BAR2 SZ ES   1   1953 28.26                             172   -0.36 7 18.6 197 
 BAR2 SZ I        1953 31.47        79.2 0.21                          18.6 197 
 GIR2 SZ EP   1   1953 13.68                             165   -0.28 7 36.7 349 
 GIR2 SZ ES   1   1953 29.40                             165    0.25 7 36.7 349 
 BRR  HZ EP       1953 15.49                             151   -0.0510 75.1 301 
 BRR  HE ES   1   1953 32.46                             151    0.50 7 75.1 301 
 BRR  HZ I        1953 34.82        38.8 0.15                          75.1 301 
 PAM  SZ EP   1   1953 16.39                             149   -0.19 7 80.6  36 
 PAM  SN ES   1   1953 33.34                             149   -0.47 7 80.6  36 
 RUS  HZ EP   1   1953 17.47                             145   -0.09 7 95.3 177 
 RUS  HN ES   1   1953 36.06                             145    0.50 7 95.3 177 
 RUS  HZ I        1953 37.53        28.5 0.23                          95.3 177 
 OCA  SZ EP   1   1953 23.67                             128    0.59 7  166 353 
 OCA  SZ I        1953 48.35        19.7 0.20                           166 353 
 YOP  SZ EP   1   1953 24.05                             126    0.26 7  174 153 
 YOP  SZ I        1953 48.88        23.0 0.27                           174 153 
 NOR  SZ EP   1   1953 29.48                             118   -0.38 6  233 236 
 NOR  SN ES   1   1953 56.89                             118   -0.55 6  233 236 
 CHI  HZ EP   1   1953 31.81                             117    0.29 6  244 196 
 CHI  HN ES   1   1954  0.51                             117    0.11 6  244 196 
 CHI  HZ I        1954  6.63        11.3 0.24                           244 196 
 HEL  HZ EP   2   1953 34.88                             114    0.30 4  272 257 
 HEL  HZ I        1954 18.84         6.9 0.42                           272 257 
                                                                                
