 2014  4 7 1650 39.7 L   6.819 -73.144149.3  RSN 12 0.4 2.4LRSN                1
 GAP=136        0.99       3.0     4.1  6.1 -0.2478E+01  0.5925E+01 -0.7743E+00E
 Epicentro: LOS SANTOS - SANTANDER                                             3
 ACTION:UPD 14-05-13 23:06 OP:nd   STATUS:               ID:20140407165039 L   I
 OLDACT:UP  14-04-07 23:22 OP:cam  STATUS:               ID:20140407164806     3
 OLDACT:UP  14-04-07 23:21 OP:cam  STATUS:               ID:20140407164806     3
 OLDACT:REG 14-04-07 21:59 OP:cam  STATUS:               ID:20140407164806     3
 2014-04-07-1648-06M.COL___256                                                 6
 STAT SP IPHASW D HRMM SECON CODA AMPLIT PERI AZIMU VELO AIN AR TRES W  DIS CAZ7
 BRR  HZ IP     D 1651  1.50                             153    0.2810 70.4 297 
 BRR  HN ES       1651 18.42                             153    0.4410 70.4 297 
 BRR  HZ I        1651 21.52        59.7 0.34            149           70.4 297 
 PAM  SZ EP     C 1651  2.62                             152    0.4010 75.6  40 
 PAM  SN ES       1651 19.61                             152   -0.1510 75.6  40 
 PAM  SZ I        1651 21.46        63.1 0.50            154           75.6  40 
 RUS  HZ EP       1651  3.80                             144   -0.1910  103 176 
 RUS  HN ES       1651 23.09                             144    0.1910  103 176 
 PTB  HZ EP       1651  6.89                             133   -0.16 9  148 258 
 PTB  HN ES       1651 27.47                             133   -0.88 9  148 258 
 PTB  HZ I        1651 30.27        30.6 0.16            131            148 258 
 OCA  HZ EP       1651  7.82                             131   -0.31 9  158 353 
 OCA  HN ES       1651 30.13                             131   -0.14 9  158 353 
 OCA  HZ I        1651 32.63        35.0 0.24            130            158 353 
 SPBC HZ IP     D 1651  8.77                             129    0.10 9  165 219 
 SPBC HN ES       1651 30.59                             129   -0.66 9  165 219 
 SPBC HZ I        1651 34.52        23.4 0.74            130            165 219 
 ZAR  HZ EP       1651 12.66                             123    0.31 9  203 292 
 ZAR  HE ES       1651 38.41                             123    0.62 9  203 292 
 ZAR  HZ I        1651 43.97        25.8 0.34            122            203 292 
 NOR  HZ EP       1651 16.13                             119    0.31 8  236 234 
 NOR  HN ES       1651 44.52                             119    0.55 8  236 234 
 NOR  HZ I        1651 50.24        12.4 0.36            119            236 234 
 SML  HZ EP   1   1651 16.14                             118   -0.22 6  242 335 
 SML  HE ES   1   1651 44.37                             118   -0.56 6  242 335 
 SML  HZ I        1651 54.73        32.2 0.22            118            242 335 
 HEL  HN ES   4   1651 55.83                             115    4.05 0  273 255 
 URE  HZ EP       1651 20.58                             114   -0.33 7  283 291 
 URE  HN ES   4   1651 51.06                             114   -1.97 0  283 291 
 URE  HZ I        1652  0.52        12.4 0.16            114            283 291 
 GUY2CHZ EP   4   1651 25.97                             113    2.30 0  303 234 
 GUY2CHN ES   4   1652  0.01                             113    2.08 0  303 234 
 GUY2CHZ I        1652  7.75         8.3 0.62                           303 234 
 RREF HZ EP   4   1651 29.20                             111    2.99 0  323 229 
 RREF HN ES   4   1652  4.86                             111    2.40 0  323 229 
 PRA  HZ EP   4   1651 33.80                             107    0.19 0  394 209 
 PRA  HN ES   4   1652 16.06                             107    0.43 0  394 209 
 PRA  HZ I        1652 19.24        11.2 0.28            108            394 209 
 ORTC HE ES   4   1652 16.97                             107    0.66 0  397 216 
                                                                                
