 2016  5 7 1636 54.2 L   6.814 -73.141142.0  RSN 26 0.5 2.8LRSN 3.8WRSN        1
 SPEC AVERAGE  MO 14.8 ST0.300 OM  2.9 f00.867 R3.0484 AL 0.00 WI 40.0 MW  3.8 3
 SPEC SD       MO  0.3 ST0.401 OM  0.4 f00.480 R2.0097 AL      WI      MW  0.2 3
 GAP= 71        1.05       2.3     2.8  4.5 -0.9295E+00  0.3247E+01  0.4265E+00E
 Epicentro: LOS SANTOS - SANTANDER                                             3
 SPEC PAM EH Z MO 14.5 ST0.318 OM  2.6 f0 1.16 R1.6586 AL-0.00 WI 40.0 MW  3.6 3
 SPEC PAM EH Z T163731 K 0.000 GD  160 VS 5.20 DE 3.50 Q0750.0 QA 1.50 VS 3.50 3
 SPEC RUS HH Z MO 14.9 ST0.058 OM  2.9 f00.507 R3.7949 AL-0.00 WI 40.0 MW  3.8 3
 SPEC RUS HH Z T163734 K 0.000 GD  174 VS 5.20 DE 3.50 Q0750.0 QA 1.50 VS 3.50 3
 SPEC OCA HH Z MO 14.4 ST  1.4 OM  2.4 f0 2.02 R0.9525 AL-0.00 WI 40.0 MW  3.6 3
 SPEC OCA HH Z T163741 K 0.000 GD  213 VS 5.20 DE 3.50 Q0750.0 QA 1.50 VS 3.50 3
 SPEC SPBCHH Z MO 14.6 ST0.223 OM  2.6 f00.931 R2.0666 AL-0.00 WI 40.0 MW  3.7 3
 SPEC SPBCHH Z T163742 K 0.000 GD  217 VS 5.20 DE 3.50 Q0750.0 QA 1.50 VS 3.50 3
 SPEC ZAR HH Z MO 15.0 ST0.192 OM  2.9 f00.674 R2.8546 AL-0.00 WI 40.0 MW  4.0 3
 SPEC ZAR HH Z T163750 K 0.000 GD  248 VS 5.20 DE 3.50 Q0750.0 QA 1.50 VS 3.50 3
 SPEC CHI HH Z MO 15.4 ST0.018 OM  3.2 f00.233 R8.2575 AL-0.00 WI 40.0 MW  4.2 3
 SPEC CHI HH Z T1638 0 K 0.000 GD  287 VS 5.20 DE 3.50 Q0750.0 QA 1.50 VS 3.50 3
 SPEC CBOCHH Z MO 14.3 ST0.072 OM  2.0 f00.852 R2.2582 AL-0.00 WI 40.0 MW  3.5 3
 SPEC CBOCHH Z T163816 K 0.000 GD  363 VS 5.20 DE 3.50 Q0750.0 QA 1.50 VS 3.50 3
 SPEC DBB SH Z MO 14.8 ST0.229 OM  2.5 f00.852 R2.2582 AL-0.00 WI 40.0 MW  3.8 3
 SPEC DBB SH Z T163814 K 0.000 GD  368 VS 5.20 DE 3.50 Q0750.0 QA 1.50 VS 3.50 3
 SPEC ANILHH Z MO 15.2 ST0.188 OM  2.9 f00.577 R3.3345 AL-0.00 WI 40.0 MW  4.1 3
 SPEC ANILHH Z T163822 K 0.000 GD  386 VS 5.20 DE 3.50 Q0750.0 QA 1.50 VS 3.50 3
 OLDACT:REG 16-05-07 20:21 OP:dnl  STATUS:               ID:20160507162743     3
 ACTION:UPD 16-08-18 17:43 OP:cam  STATUS:               ID:20160507163654 L   I
 OLDACT:UP  16-05-15 07:31 OP:ar   STATUS:               ID:20160507163654 L   3
 OLDACT:UP  16-05-07 23:04 OP:dnl  STATUS:               ID:20160507162743     3
 2016-05-07-1627-43M.COL___307                                                 6
 STAT SP IPHASW D HRMM SECON CODA AMPLIT PERI AZIMU VELO AIN AR TRES W  DIS CAZ7
 BAR2 EZ IP     C 1637 13.30                             170   -0.0810 25.0 191 
 BAR2 EZ ES       1637 27.77                             170   -0.6010 25.0 191 
 BAR2 EZ I        1637 29.35       122.9 0.18            168           25.0 191 
 BRR  HZ EP       1637 15.22                             152    0.3210 70.9 297 
 BRR  HE ES       1637 32.06                             152    1.0010 70.9 297 
 BRR  HZ I        1637 36.17        83.1 0.13            150           70.9 297 
 PAM  EZ IP     C 1637 16.19                             151    0.3010 75.8  40 
 PAM  EN ES       1637 32.97                             151    0.1410 75.8  40 
 PAM  EZ I        1637 35.27       418.8 0.48            154           75.8  40 
 RUS  HZ EP       1637 17.59                             143   -0.0810  102 176 
 RUS  HE ES       1637 35.71                             143   -0.2810  102 176 
 RUS  HZ I        1637 37.55       101.7 0.36            143            102 176 
 PTB  HZ EP       1637 20.23                             131   -0.68 9  149 258 
 PTB  HN ES       1637 41.16                             131   -0.61 9  149 258 
 PTB  HZ I        1637 44.34        75.8 0.18            130            149 258 
 TAM  HZ IP     C 1637 21.71                             130    0.17 9  155 106 
 TAM  HN ES       1637 43.03                             130    0.14 9  155 106 
 TAM  HZ I        1637 47.87        33.0 0.50            132            155 106 
 OCA  HZ EP       1637 21.65                             129   -0.40 9  159 353 
 OCA  HN ES       1637 43.26                             129   -0.53 9  159 353 
 SPBC HZ EP       1637 22.51                             128   -0.02 9  165 219 
 SPBC HN ES       1637 44.37                             128   -0.28 9  165 219 
 SPBC HZ I        1637 49.18        73.1 0.28            128            165 219 
 ZAR  HZ EP       1637 26.32                             121   -0.04 9  204 292 
 ZAR  HN ES       1637 52.15                             121    0.68 9  204 292 
 ZAR  HZ I        1637 57.60        87.6 0.37            121            204 292 
 NOR  HZ EP       1637 30.07                             117    0.24 8  236 234 
 NOR  HN ES       1637 57.67                             117    0.03 8  236 234 
 NOR  HZ I        1638  3.08        46.3 0.34            118            236 234 
 SML  HZ EP       1637 29.78                             117   -0.67 8  242 335 
 SML  HE ES   2   1637 58.93                             117    0.17 4  242 335 
 SML  HZ I        1638  1.28       109.2 0.26            117            242 335 
 CHI  HZ EP       1637 31.65                             116   -0.19 8  250 195 
 CHI  HE ES       1638  2.10                             116    0.87 8  250 195 
 CHI  HZ I        1638  4.27        32.6 0.58            117            250 195 
 ROSC BZ EP   2   1637 31.79                             116   -0.48 4  254 211 
 ROSC BN ES       1638  2.70                             116    0.72 8  254 211 
 ROSC BZ I        1638 12.56        64.3 0.40            116            254 211 
 HEL  HZ EP       1637 34.92                             114    0.63 8  273 256 
 HEL  HN ES       1638  4.59                             114   -1.00 8  273 256 
 HEL  HZ I        1638 10.42        28.7 0.40            114            273 256 
 URE  HZ EP   4   1637 33.87                             113   -1.18 0  284 292 
 URE  HE ES   4   1638  4.88                             113   -2.05 0  284 292 
 URE  HZ I        1638 18.14        46.8 0.30            113            284 292 
 VIL  SZ EP   4   1637 34.52                             111   -3.09 0  305 192 
 VIL  SN ES   2   1638 11.44                             111   -0.04 4  305 192 
 PTGC HZ EP   4   1637 36.62                             111   -1.39 0  310 159 
 PTGC HN ES   4   1638  9.84                             111   -2.36 0  310 159 
 PTGC HZ I        1638 12.21        67.4 0.32            112            310 159 
 CBOC HZ EP       1637 41.56                             109    0.51 7  335 252 
 CBOC HE ES       1638 17.68                             109    0.07 7  335 252 
 CBOC HZ I        1638 21.14        12.4 0.42            109            335 252 
 DBB  SZ EP       1637 41.46                             109   -0.08 7  340 274 
 DBB  SZ ES   4   1638 16.19                             109   -2.30 0  340 274 
 ARGC HZ EP       1637 43.74                             108    0.21 6  358 340 
 ARGC HE ES       1638 22.68                             108    0.65 6  358 340 
 ARGC HZ I        1638 30.57        17.3 0.30            108            358 340 
 ANIL HZ EP   9   1637 45.70                             108    1.69 0  359 224 
 ANIL HE ES       1638 24.44                             108   -0.13 6  359 224 
 ANIL HZ I        1638 29.37        71.2 0.40            108            359 224 
 SDV  BZ EP   2   1637 43.25                             108   -0.65 3  359  50 
 SDV  BE ES   4   1638 20.09                             108   -2.61 0  359  50 
 PRA  HZ EP       1637 47.20                             106   -0.55 6  394 210 
 PRA  HE ES       1638 28.99                             106   -0.56 6  394 210 
 PRA  HZ I        1638 36.63        26.8 0.44            106            394 210 
 ORTC HZ EP       1637 48.26                             106    0.11 6  397 216 
 ORTC HN ES       1638 30.99                             106    0.74 6  397 216 
 ORTC HZ I        1638 36.58        25.7 0.50            106            397 216 
 CRJC HZ EP   4   1637 54.12                             103   -2.25 0  466   3 
 CRJC HN ES   4   1638 40.85                             103   -4.04 0  466   3 
 CRJC HZ I        1638 44.86        11.2 0.24            104            466   3 
 YOT  HZ EP   2   1637 56.62                             103   -0.66 2  473 229 
 YOT  HN ES   4   1638 50.53                             103    4.02 0  473 229 
 YOT  HZ I        1638 53.73         4.9 0.46            103            473 229 
                                                                                
