 2010 10 7 1135 51.2 L   6.794 -73.007147.3  RSN 12 0.5 2.4LRSN                1
 GAP=188        1.30       5.9     9.8  9.1 -0.3228E+02 -0.1153E+02  0.2090E+02E
 Epicentro: CEPITA - SANTANDER                                                 3
 ACTION:UP  11-02-18 11:08 OP:tino STATUS:               ID:20101007113551 L   I
 2010-10-07-1131-04S.COL___122                                                 6
 STAT SP IPHASW D HRMM SECON CODA AMPLIT PERI AZIMU VELO SNR AR TRES W  DIS CAZ7
 BAR2 SZ EP       1136 11.21                             168     0.010   30 221 
 BAR2 SZ ES   1   1136 26.91                             168     0.2 7   30 221 
 BAR2 SZ I        1136 28.02        58.5 0.42                            30 221 
 BTL  SZ EP       1136 10.60                             167    -0.610   32 296 
 BRR  HZ IP     C 1136 13.07                             148    -0.310   85 294 
 BRR  HZ I        1136 13.40       156.1 0.37                            85 294 
 BRR  HN ES       1136 30.57                             148    -0.110   85 294 
 GUE  SZ EP       1136 16.23                             140     0.310  115   5 
 GUE  SZ I        1136 17.62        11.3 0.15                           115   5 
 GRA  SZ IP       1136 16.99                             138     0.610  123  11 
 GRA  SZ I        1136 18.15        42.8 0.26                           123  11 
 GRA  SZ ES   1   1136 35.54                             138    -0.4 7  123  11 
 OCA  SZ EP       1136 19.72                             129    -0.2 9  163 348 
 OCA  SZ ES   1   1136 43.13                             129     0.8 7  163 348 
 OCA  SZ I        1136 45.75        34.7 0.44                           163 348 
 NOR  SZ EP       1136 27.25                             117    -1.1 8  247 237 
 NOR  SZ I        1136 57.45         2.7 1.09                           247 237 
 CHI  HZ EP       1136 29.23                             117    -0.2 8  252 199 
 CHI  HZ I        1136 31.91        11.6 0.80                           252 199 
 CHI  HN ES   1   1136 59.71                             117     0.5 6  252 199 
 HEL  HN ES   2   1137  5.87                             114     0.0 4  287 257 
 HEL  HZ I        1137  9.85        12.6 0.29                           287 257 
 RREF HZ EP       1136 39.22                             110     0.5 7  333 231 
 RREF HN ES       1137 16.63                             110     0.9 7  333 231 
 RREF HZ I        1137 19.51         9.9 0.44                           333 231 
 TOL  SZ EP       1136 40.82                             109     0.1 6  354 226 
 PRA  HZ EP   1   1136 45.40                             106    -0.2 4  399 212 
 PRA  HZ I        1136 46.81        37.6 0.11                           399 212 
 PRA  HN ES   2   1137 29.01                             106     0.9 3  399 212 
                                                                                
