 2014  7 7 1741 37.6 L   6.765 -73.102148.0  RSN  4 0.3 1.5LRSN                1
 GAP=239        0.61       5.2     7.3  5.2  0.2087E+02  0.6275E+01  0.5538E+01E
 Epicentro: LOS SANTOS - SANTANDER                                             3
 ACTION:UPD 15-03-16 20:42 OP:nd   STATUS:               ID:20140707174137 L   I
 OLDACT:UP  14-07-07 21:26 OP:cam  STATUS:               ID:20140707174000     3
 OLDACT:REG 14-07-07 20:26 OP:cam  STATUS:               ID:20140707174000     3
 2014-07-07-1740-00M.COL___282                                                 6
 STAT SP IPHASW D HRMM SECON CODA AMPLIT PERI AZIMU VELO AIN AR TRES W  DIS CAZ7
 BAR2 SZ EP       1741 57.50                             171    0.0610 21.0 205 
 BAR2 SZ ES       1742 13.25                             171    0.3210 21.0 205 
 BAR2 SZ I        1742 14.64         6.8 0.24            171           21.0 205 
 BRR  HZ EP   1   1741 58.85                             151   -0.48 7 77.3 299 
 BRR  HE ES       1742 16.28                             151   -0.0110 77.3 299 
 BRR  HZ I        1742 18.66         9.8 0.66            151           77.3 299 
 RUS  HZ EP       1742  1.23                             146   -0.0410 96.5 179 
 RUS  HE ES       1742 19.56                             146   -0.1810 96.5 179 
 RUS  HZ I        1742 20.75         2.7 0.58            147           96.5 179 
 GUY2CHZ EP   1   1742 22.07                             113    0.57 5  303 236 
 GUY2CHN ES   2   1742 55.49                             113   -0.26 4  303 236 
 GUY2CHZ I        1743  2.79         2.1 0.24                           303 236 
                                                                                
