 2012  1 7 1903  9.0 L   6.762 -73.156150.0  RSN 10 0.4 2.1LRSN                1
 GAP=137        0.86       4.7     4.7  6.9  0.5871E-01  0.4526E+01 -0.9672E-01E
 Epicentro: LOS SANTOS - SANTANDER                                             3
 ACTION:UP  12-02-03 08:15 OP:REBC STATUS:               ID:20120107190309 L   I
 2012-01-07-1900-00M.COL___186                                                 6
 STAT SP IPHASW D HRMM SECON CODA AMPLIT PERI AZIMU VELO SNR AR TRES W  DIS CAZ7
 BAR2 SZ EP       19 3 29.14                             172     0.110   19 189 
 BAR2 SZ ES   1   19 3 44.48                             172    -0.2 7   19 189 
 BAR2 SZ I        19 3 47.04        25.4 0.24                            19 189 
 GIR2 SZ EP       19 3 29.20                             166    -0.110   35 353 
 GIR2 SZ ES   3   19 3 44.84                             166    -0.3 2   35 353 
 BRR  HZ IP     C 19 3 31.03                             153     0.410   72 302 
 BRR  HN ES   1   19 3 48.56                             153     1.0 7   72 302 
 BRR  HZ I        19 3 51.74        33.6 0.14                            72 302 
 PAM  SZ EP       19 3 31.96                             150     0.110   81  38 
 PAM  SE ES   1   19 3 49.19                             150    -0.6 7   81  38 
 RUS  HZ EP       19 3 32.93                             146     0.010   97 175 
 RUS  HE ES   1   19 3 51.78                             146     0.3 7   97 175 
 RUS  HZ I        19 3 52.84        11.6 0.40                            97 175 
 PTB  HZ EP       19 3 35.66                             133    -0.5 9  146 260 
 PTB  HN ES   1   19 3 57.02                             133    -0.3 7  146 260 
 PTB  HZ I        19 4  2.95        14.9 0.18                           146 260 
 OCA  SZ EP   2   19 3 38.24                             130     0.2 5  164 354 
 OCA  SZ I        19 4  6.45        19.3 0.47                           164 354 
 ZAR  HZ EP   2   19 3 41.80                             123     0.0 4  205 293 
 ZAR  HE ES   1   19 4  7.08                             123    -0.3 6  205 293 
 ZAR  HZ I        19 4 14.14        20.0 0.22                           205 293 
 NOR  SN ES   3   19 4 12.34                             120    -0.1 2  231 235 
 CHI  HZ EP   3   19 3 47.03                             119     0.6 2  244 195 
 CHI  HN ES   2   19 4 15.64                             119    -0.1 4  244 195 
 CHI  HZ I        19 4 26.03         6.1 0.36                           244 195 
                                                                                
