 2016 11 7 1326  3.7 L   7.134 -73.489 30.5  RSN  5 0.3 1.5LRSN                1
 GAP=151        0.81       3.3     1.8  2.7  0.7911E+00 -0.5906E+00 -0.3098E+01E
 Epicentro: SABANA DE TORRES - SANTANDER                                       3
 ACTION:UPD 17-10-26 21:05 OP:lp   STATUS:               ID:20161107132603 L   I
 OLDACT:REG 16-11-07 21:41 OP:dnl  STATUS:               ID:20161107131742     3
 2016-11-07-1318-00M.COL___328                                                 6
 STAT SP IPHASW D HRMM SECON CODA AMPLIT PERI AZIMU VELO AIN AR TRES W  DIS CAZ7
 BRR  HZ EP       1326  9.71                             137   -0.1810 24.8 263 
 BRR  HN ES       1326 14.58                             137   -0.1410 24.8 263 
 BRR  HZ I        1326 14.69        35.0 0.18            133           24.8 263 
 BAR2 EZ EP       1326 15.79                             106    0.1610 68.8 150 
 BAR2 EZ ES       1326 25.02                             106    0.0810 68.8 150 
 BAR2 EZ I        1326 26.20        16.3 0.12            103           68.8 150 
 PAM  EZ EP       1326 18.61                              61   -0.0110 90.1  75 
 PAM  EN ES       1326 30.02                              61   -0.2510 90.1  75 
 PAM  EZ I        1326 30.38        19.9 0.26             61           90.1  75 
 PTB  HZ EP       1326 22.52                              61    0.0510  125 238 
 PTB  HE ES       1326 36.82                              61   -0.3010  125 238 
 PTB  HZ I        1326 38.30        10.9 0.26             61            125 238 
 ZAR  HZ EP       1326 27.17                              61    0.86 9  156 285 
 ZAR  HE ES       1326 43.77                              61   -0.18 9  156 285 
 ZAR  HZ I        1326 46.67         3.2 0.18             61            156 285 
                                                                                
