 2014  2 7 1402 31.6 L   6.727 -73.305104.0  RSN  5 0.6 1.6LRSN                1
 GAP=144        1.46       7.3     7.5 12.0 -0.1919E+02  0.1761E+02 -0.3014E+01E
 Epicentro: GALAN - SANTANDER                                                  3
 ACTION:UPD 14-03-10 08:08 OP:ep   STATUS:               ID:20140207140231 L   I
 OLDACT:REG 14-02-07 17:40 OP:cam  STATUS:               ID:20140207140000     3
 2014-02-07-1400-00M.COL___291                                                 6
 STAT SP IPHASW D HRMM SECON CODA AMPLIT PERI AZIMU VELO AIN AR TRES W  DIS CAZ7
 BAR2 SZ EP       14 2 44.88                             168   -1.2310 20.1 138 
 BAR2 SZ ES       14 2 58.00                             168    0.5410 20.1 138 
 BAR2 SZ I        14 3  5.56        14.4 0.62            172           20.1 138 
 PAM  SZ EP     C 14 2 51.07                             135    0.0610 95.2  45 
 PAM  SN ES       14 3  6.42                             135    0.2410 95.2  45 
 PAM  SZ I        14 3 10.06         9.9 0.50            147           95.2  45 
 RUS  HN ES       14 3  6.09                             135   -0.1410 95.5 165 
 RUS  HZ I        14 3 12.42         6.5 0.30            143           95.5 165 
 PTB  HZ EP   4   14 2 50.56                             125   -3.00 0  129 261 
 PTB  HN ES       14 3 10.78                             125    0.0510  129 261 
 PTB  HZ I        14 3 18.64         7.2 0.56            132            129 261 
 CHI  HZ EP       14 3  6.67                             108    0.73 8  237 192 
                                                                                
