 2017 11 7 1353 42.2 L   6.833 -73.157151.4  RSN 14 0.5 2.1LRSN                1
 GAP=109        0.98       3.7     3.8  6.7 -0.3478E+00  0.3608E+01  0.1110E+02E
 Epicentro: LOS SANTOS - SANTANDER                                             3
 ACTION:UPD 17-12-12 19:53 OP:rebc STATUS:               ID:20171107135342 L   I
 OLDACT:UP  17-11-07 22:54 OP:mg   STATUS:               ID:20171107134736     3
 OLDACT:REG 17-11-07 20:24 OP:mg   STATUS:               ID:20171107134736     3
 2017-11-07-1348-00M.COL___420                                                 6
 STAT SP IPHASW D HRMM SECON CODA AMPLIT PERI AZIMU VELO AIN AR TRES W  DIS CAZ7
 BAR2 EZ EP       1354  2.20                             170   -0.4010 26.8 186 
 BAR2 EZ ES   2   1354 17.90                             170   -0.60 5 26.8 186 
 BAR2 EZ I        1354 18.48        36.0 0.22            168           26.8 186 
 BRR  HZ EP       1354  4.04                             154    0.2110 68.4 296 
 BRR  HN ES       1354 21.30                             154    0.6110 68.4 296 
 BRR  HZ I        1354 24.23        17.5 0.30            148           68.4 296 
 PAM  EZ EP       1354  5.18                             152    0.2610 75.4  42 
 PAM  EN ES       1354 22.23                             152   -0.4110 75.4  42 
 PAM  EZ I        1354 24.44        15.8 0.48            154           75.4  42 
 PTB  HZ EP   1   1354  9.60                             133   -0.01 7  147 257 
 PTB  HN ES   1   1354 30.69                             133   -0.29 7  147 257 
 PTB  HZ I        1354 31.98        10.7 0.14            129            147 257 
 SPBC HN ES   1   1354 33.68                             130   -0.40 7  165 218 
 SPBC HZ I        1354 39.15        18.4 0.14            127            165 218 
 YPLC HZ EP       1354 12.67                             127   -0.13 9  181 152 
 YPLC HE ES       1354 37.26                             127    0.61 9  181 152 
 ZAR  HN ES   1   1354 39.89                             124   -0.29 6  202 291 
 ZAR  HZ I        1354 45.39        16.3 0.18            120            202 291 
 TABC EZ EP   3   1354 20.40                             120    1.82 2  232 210 
 TABC EZ ES   1   1354 47.73                             120    0.79 6  232 210 
 TABC EZ I        1354 53.55        12.2 0.40            118            232 210 
 NOR  HZ EP       1354 18.29                             119   -0.11 8  236 234 
 NOR  HN ES       1354 46.69                             119    0.06 8  236 234 
 NOR  HZ I        1354 53.64         6.8 0.18            117            236 234 
 CHI  HZ EP       1354 20.47                             118   -0.11 8  252 195 
 CHI  HN ES       1354 49.73                             118   -0.78 8  252 195 
 CHI  HZ I        1354 53.87         8.2 0.50            117            252 195 
 URE  HN ES   2   1354 54.78                             115   -0.54 4  281 291 
 URE  HZ I        1355  7.28         9.1 0.24            112            281 291 
 GUY2CHZ EP       1354 27.28                             113    1.06 7  302 234 
 GUY2CHZ I        1355  8.44         6.4 0.34                           302 234 
 PRA  HZ EP   1   1354 36.01                             107   -0.23 4  395 209 
 PRA  HN ES       1355 17.92                             107   -0.46 6  395 209 
 PRA  HZ I        1355 25.98         5.5 0.24            106            395 209 
 SJC  HZ EP   2   1354 36.31                             107   -1.22 3  405 327 
 SJC  HN ES   4   1355 17.67                             107   -3.00 0  405 327 
 SJC  HZ I        1355 32.36         1.8 0.58            105            405 327 
                                                                                
