 2013 12 7 1742 19.0 L   6.790 -73.084151.7  RSN  4 0.1 1.3LRSN                1
 GAP=145        0.45       2.7     3.9  4.7  0.8107E+00  0.1222E+01  0.3082E+01E
 Epicentro: LOS SANTOS - SANTANDER                                             3
 ACTION:UPD 14-01-13 10:16 OP:ep   STATUS:               ID:20131207174219 L   I
 OLDACT:UP  13-12-07 17:27 OP:cam  STATUS:               ID:20131207174000     3
 OLDACT:REG 13-12-07 16:13 OP:cam  STATUS:               ID:20131207174000     3
 2013-12-07-1740-00M.COL___285                                                 6
 STAT SP IPHASW D HRMM SECON CODA AMPLIT PERI AZIMU VELO AIN AR TRES W  DIS CAZ7
 BAR2 SZ EP       1742 39.19                             170   -0.1610 24.4 206 
 PAM  SZ EP   2   1742 41.71                             153    0.06 5 74.2  35 
 PAM  SN ES       1742 59.35                             153    0.0110 74.2  35 
 PAM  SZ I        1743  1.24         8.1 0.56            154           74.2  35 
 BRR  HZ EP       1742 40.99                             151   -0.1510 77.7 297 
 BRR  HE ES       1742 58.55                             151    0.1210 77.7 297 
 RUS  HZ EP       1742 43.49                             145    0.2710 99.2 180 
 RUS  HE ES       1743  2.04                             145   -0.1010 99.2 180 
 RUS  HZ I        1743  4.29         1.7 0.50            146           99.2 180 
                                                                                
