 2014  6 7 1426 53.0 L   6.797 -73.140140.3  RSN 16 0.6 2.3LRSN                1
 GAP=112        1.42       3.4     4.0  6.8 -0.1013E+01  0.6116E+01  0.1540E+01E
 Epicentro: LOS SANTOS - SANTANDER                                             3
 ACTION:UPD 14-07-01 22:51 OP:nd   STATUS:               ID:20140607142653 L   I
 OLDACT:REG 14-06-07 21:18 OP:stll STATUS:               ID:20140607141817     3
 2014-06-07-1418-17M.COL___250                                                 6
 STAT SP IPHASW D HRMM SECON CODA AMPLIT PERI AZIMU VELO AIN AR TRES W  DIS CAZ7
 BAR2 SZ EP       1427 12.30                             170    0.3310 23.2 192 
 BAR2 SZ ES       1427 26.15                             170   -0.6210 23.2 192 
 BAR2 SZ I        1427 28.68        43.9 0.26            170           23.2 192 
 BRR  HZ EP       1427 14.32                             151    0.7210 71.9 298 
 BRR  HE ES       1427 31.25                             151    1.5810 71.9 298 
 BRR  HZ I        1427 35.43        36.8 0.32            150           71.9 298 
 RUS  HZ EP       1427 16.37                             143    0.1710  100 176 
 RUS  HN ES       1427 34.35                             143    0.0610  100 176 
 RUS  HZ I        1427 36.23        16.6 0.26            145            100 176 
 PTB  HZ EP       1427 19.27                             131   -0.31 9  148 259 
 PTB  HN ES       1427 40.38                             131    0.06 9  148 259 
 PTB  HZ I        1427 42.32        25.5 0.14            131            148 259 
 TAM  HZ IP     D 1427 20.96                             129    0.77 9  154 105 
 TAM  HZ I        1427 21.21        25.2 0.36            134            154 105 
 TAM  HN ES       1427 40.72                             129   -0.67 9  154 105 
 OCA  HZ EP       1427 20.27                             128   -0.66 9  161 353 
 OCA  HN ES       1427 42.43                             128   -0.28 9  161 353 
 OCA  HZ I        1427 50.73        26.0 0.46            130            161 353 
 SPBC HZ EP       1427 20.59                             128   -0.51 9  163 219 
 SPBC HN ES       1427 42.80                             128   -0.22 9  163 219 
 SPBC HZ I        1427 47.94        27.8 0.22            129            163 219 
 ZAR  HZ EP       1427 25.33                             121    0.16 9  205 292 
 ZAR  HN ES       1427 49.61                             121   -0.65 9  205 292 
 ZAR  HZ I        1427 55.74        22.4 0.54            122            205 292 
 NOR  HZ EP       1427 28.69                             117    0.23 8  235 235 
 NOR  HN ES       1427 54.94                             117   -1.17 8  235 235 
 NOR  HZ I        1428  4.40        12.3 0.14            118            235 235 
 SML  HZ EP       1427 28.73                             116   -0.66 8  244 335 
 SML  HN ES       1427 57.72                             116   -0.05 8  244 335 
 SML  HZ I        1428  1.13        31.4 0.32            118            244 335 
 CHI  HN ES       1427 59.20                             116   -0.35 8  249 195 
 CHI  HZ I        1428  5.35        14.3 0.28            118            249 195 
 HEL  HZ EP       1427 32.96                             114   -0.04 8  273 256 
 HEL  HE ES       1428  3.57                             114   -0.64 8  273 256 
 HEL  HZ I        1428 10.55        11.1 0.26            115            273 256 
 GUY2CHZ EP       1427 36.68                             111    0.28 7  302 235 
 GUY2CHE ES       1428 10.80                             111    0.54 7  302 235 
 GUY2CHZ I        1428 18.87        10.5 0.56                           302 235 
 RREF HZ EP       1427 40.14                             110    1.19 7  322 229 
 RREF HE ES       1428 14.66                             110   -0.12 7  322 229 
 RREF HZ I        1428 24.18        12.3 0.48            111            322 229 
 TOL  SZ EP       1427 41.44                             108    0.37 7  344 225 
 TOL  SE ES       1428 19.31                             108    0.74 7  344 225 
 PRA  HZ EP       1427 46.46                             106    0.11 6  392 210 
 PRA  HE ES       1428 27.60                             106   -0.35 6  392 210 
 PRA  HZ I        1428 35.02        11.0 0.26            107            392 210 
                                                                                
