 2010 12 7 1504 43.7 L   6.843 -73.219136.0  RSN  7 0.4 2.0LRSN                1
 GAP=150        0.96       8.9    21.3 15.2 -0.9180E+02  0.4027E+02 -0.5549E+02E
 Epicentro: ZAPATOCA - SANTANDER                                               3
 ACTION:UP  11-01-14 15:23 OP:pat  STATUS:               ID:20101207150443 L   I
 2010-12-07-1503-29S.COL___135                                                 6
 STAT SP IPHASW D HRMM SECON CODA AMPLIT PERI AZIMU VELO SNR AR TRES W  DIS CAZ7
 BTL  SZ EP       15 5  2.32                             175     0.410   10 327 
 GIR2 SZ EP   3   15 5  2.40                             168     0.3 2   26   6 
 BAR2 SZ EP       15 5  2.14                             168    -0.110   28 172 
 BAR2 SZ ES   2   15 5 16.41                             168    -0.3 5   28 172 
 BAR2 SZ I        15 5 17.85        18.4 0.30                            28 172 
 GUE  SZ EP       15 5  6.58                             138    -0.710  114  17 
 GRA  SZ EP       15 5  8.20                             135     0.310  124  22 
 GRA  SZ ES   2   15 5 27.66                             135     0.8 5  124  22 
 GRA  SZ I        15 5 29.89        19.5 0.23                           124  22 
 OCA  SZ EP   1   15 5 10.94                             129     0.2 7  155 356 
 OCA  SZ ES   2   15 5 31.44                             129    -0.4 5  155 356 
 OCA  SZ I        15 5 35.91        18.1 0.36                           155 356 
 NOR  SN ES   3   15 5 45.70                             117     0.1 2  231 232 
                                                                                
