 2011 12 7 1800 16.9 L   6.759 -73.100141.5  RSN 10 0.4 2.3LRSN                1
 GAP=144        0.74       3.1     5.3  5.8 -0.6345E+01  0.5507E+01  0.1979E+01E
 Epicentro: LOS SANTOS - SANTANDER                                             3
 ACTION:UPD 12-07-13 16:14 OP:ep   STATUS:               ID:20111207180016 L   I
 2011-12-07-1800-00M.COL___182                                                 6
 STAT SP IPHASW D HRMM SECON CODA AMPLIT PERI AZIMU VELO AIN AR TRES W  DIS CAZ7
 BAR2 SZ EP       18 0 36.13                             171    0.1310 20.6 206 
 BAR2 SZ ES   1   18 0 50.75                             171   -0.12 7 20.6 206 
 BAR2 SZ I        18 0 52.37        76.4 0.23                          20.6 206 
 BRR  HZ EP   1   18 0 38.06                             150    0.03 7 77.9 300 
 BRR  HN ES   1   18 0 54.84                             150    0.37 7 77.9 300 
 BRR  HZ I        18 0 59.27        43.2 0.14                          77.9 300 
 PAM  SZ EP   1   18 0 38.99                             150    0.25 7 78.0  35 
 PAM  SN ES   1   18 0 55.54                             150   -0.20 7 78.0  35 
 RUS  HZ EP   1   18 0 40.08                             144    0.15 7 95.8 179 
 RUS  HN ES   1   18 0 58.08                             144    0.23 7 95.8 179 
 RUS  HZ I        18 0 59.49        17.5 0.23                          95.8 179 
 BRI  SZ EP   1   18 0 40.77                             140    0.14 7  111  18 
 OCA  SZ EP   1   18 0 45.08                             128   -0.34 7  165 352 
 OCA  SZ ES   1   18 1  7.34                             128   -0.29 7  165 352 
 OCA  SZ I        18 1 11.32        37.2 0.31                           165 352 
 NOR  SN ES   1   18 1 19.47                             117   -0.94 6  236 236 
 CHI  HZ EP   2   18 0 54.07                             117   -0.01 4  246 197 
 CHI  HN ES   1   18 1 22.17                             117   -0.87 6  246 197 
 CHI  HZ I        18 1 30.16         8.0 0.19                           246 197 
 RREF HE ES   1   18 1 40.01                             110    1.07 5  323 231 
 RREF HZ I        18 1 44.83         8.5 0.42                           323 231 
 PRA  HZ EP   1   18 1 10.05                             106   -0.10 4  391 211 
 PRA  HN ES   1   18 1 52.04                             106    0.38 4  391 211 
                                                                                
