 2010  3 7 1913 40.5 L   6.803 -73.019147.4  RSN  8 0.4 2.1LRSN                1
 GAP=196        0.77       3.4     7.2  4.7  0.3926E+01  0.4189E+01  0.1742E+01E
 Epicentro: CEPITA - SANTANDER                                                 3
 ACTION:UP  10-08-24 09:52 OP:vdl  STATUS:               ID:20100307191340 L   I
 2010-03-07-1910-54S.COL___100                                                 6
 STAT SP IPHASW D HRMM SECON CODA AMPLIT PERI AZIMU VELO SNR AR TRES W  DIS CAZ7
 BAR2 SZ EP       1914  0.38                             168    -0.110   30 218 
 BAR2 SZ ES       1914 15.66                             168    -0.410   30 218 
 BRR  HZ EP       1914  2.38                             149    -0.210   84 294 
 BRR  HN ES       1914 19.86                             149     0.110   84 294 
 BRR  HZ I        1914 23.19        20.3 0.11                            84 294 
 RUS  BZ EP       1914  4.48                             144     0.110  101 184 
 RUS  BN ES       1914 23.31                             144     0.210  101 184 
 RUS  BZ I        1914 25.05         9.6 0.29                           101 184 
 OCA  SZ EP       1914  9.20                             130     0.1 9  162 348 
 OCA  SZ ES   2   1914 32.28                             130     0.8 5  162 348 
 OCA  SZ I        1914 36.27        13.4 0.15                           162 348 
 CHI  HZ EP       1914 18.81                             117     0.1 8  253 198 
 CHI  HE ES   3   1914 48.52                             117    -0.1 2  253 198 
 HEL  HZ EP   1   1914 21.40                             114    -0.9 6  286 256 
 HEL  HZ I        1915  0.81         6.9 0.36                           286 256 
 TOL  SZ EP       1914 30.50                             109     0.5 6  354 226 
 TOL  SZ ES   2   1915  9.04                             109     0.5 3  354 226 
 PRA  HZ EP   1   1914 34.31                             106    -0.6 4  399 211 
 PRA  HZ I        1914 35.73         4.6 0.28                           399 211 
 PRA  HN ES   1   1915 17.83                             106     0.5 4  399 211 
                                                                                
