 2017  8 7 1730 26.3 L   6.956 -73.395113.5  RSN  7 0.6 1.5LRSN                1
 GAP=214        1.20       6.2     5.8  8.8  0.1694E+02  0.1601E+02  0.1464E+02E
 Epicentro: SAN VICENTE DE CHUCURI - SANTANDER                                 3
 ACTION:UPD 17-09-04 20:17 OP:rebc STATUS:               ID:20170807173026 L   I
 OLDACT:UP  17-08-08 01:35 OP:dani STATUS:               ID:20170807172641     3
 OLDACT:UP  17-08-07 22:35 OP:mg   STATUS:               ID:20170807172641     3
 OLDACT:UP  17-08-07 22:31 OP:mg   STATUS:               ID:20170807172641     3
 OLDACT:UP  17-08-07 22:26 OP:mg   STATUS:               ID:20170807172641     3
 OLDACT:UP  17-08-07 22:19 OP:mg   STATUS:               ID:20170807172641     3
 OLDACT:UP  17-08-07 22:10 OP:mg   STATUS:               ID:20170807172641     3
 OLDACT:REG 17-08-07 20:21 OP:dani STATUS:               ID:20170807172641     3
 2017-08-07-1728-00M.COL___393                                                 6
 STAT SP IPHASW D HRMM SECON CODA AMPLIT PERI AZIMU VELO AIN AR TRES W  DIS CAZ7
 BRR  HZ EP       1730 42.00                             160   -0.2410 38.8 296 
 BRR  HN ES       1730 55.12                             160    0.4510 38.8 296 
 BRR  HZ I        1730 59.46         6.1 0.37            159           38.8 296 
 BAR2 EZ EP     C 1730 42.85                             156   -0.1010 46.6 150 
 BAR2 EZ ES       1730 56.02                             156    0.0910 46.6 150 
 BAR2 EZ I        1730 56.87        14.9 0.20            161           46.6 150 
 RUS  HZ EP       1730 49.38                             130    0.3610  123 164 
 RUS  HN ES       1731  6.60                             130   -0.1310  123 164 
 RUS  HZ I        1731  7.66         4.0 0.24            134            123 164 
 PTB  HZ EP       1730 47.92                             128   -0.7910  126 249 
 PTB  HN ES       1731  5.33                             128   -0.8410  126 249 
 PTB  HZ I        1731  7.09         4.9 0.20            131            126 249 
 SPBC HN ES       1731 13.08                             121    0.19 9  162 207 
 ZAR  HN ES       1731 14.93                             119    0.42 9  172 290 
 ZAR  HZ I        1731 17.95         5.9 0.21            121            172 290 
 NOR  HZ EP       1730 59.96                             112    0.75 8  224 227 
 NOR  HN ES   3   1731 26.98                             112    2.11 2  224 227 
                                                                                
