 2015 10 7 1739 48.5 L   6.847 -73.187140.6  RSN  6 0.3 1.7LRSN                1
 GAP=129        0.75       2.8     3.9  5.8 -0.1849E+00  0.1198E+02 -0.2964E+01E
 Epicentro: ZAPATOCA - SANTANDER                                               3
 ACTION:UPD 15-12-22 20:38 OP:cam  STATUS:               ID:20151007173948 L   I
 OLDACT:UP  15-10-08 00:31 OP:ak   STATUS:               ID:20151007173750     3
 OLDACT:REG 15-10-07 21:44 OP:ak   STATUS:               ID:20151007173750     3
 2015-10-07-1737-50M.COL___340                                                 6
 STAT SP IPHASW D HRMM SECON CODA AMPLIT PERI AZIMU VELO AIN AR TRES W  DIS CAZ7
 BAR2 EZ EP       1740  7.63                             168    0.0110 28.1 179 
 BAR2 EZ ES       1740 22.60                             168    0.0710 28.1 179 
 BAR2 EZ I        1740 23.72        14.0 0.26            172           28.1 179 
 PAM  EZ EP       1740 10.57                             150    0.4510 76.6  45 
 PAM  EN ES       1740 27.16                             150    0.1810 76.6  45 
 PAM  EZ I        1740 30.20        10.3 0.43            152           76.6  45 
 RUS  HZ EP       1740 12.03                             141   -0.1310  106 174 
 RUS  HN ES       1740 30.19                             141   -0.4310  106 174 
 RUS  HZ I        1740 32.29         3.7 0.24            148            106 174 
 ZAR  HZ EP       1740 19.67                             122   -0.31 9  198 291 
 ZAR  HN ES       1740 44.58                             122    0.05 9  198 291 
 ZAR  HZ I        1740 52.09         5.3 0.26            123            198 291 
 SML  HZ EP       1740 24.18                             117    0.06 8  237 336 
 SML  HN ES       1740 51.45                             117   -0.46 8  237 336 
 SML  HZ I        1741  1.78         6.8 0.09            118            237 336 
 GUY2CHZ EP   1   1740 31.60                             111   -0.20 5  301 233 
 GUY2CHN ES       1741  6.23                             111    0.66 7  301 233 
 GUY2CHZ I        1741 15.99         1.9 0.28                           301 233 
                                                                                
