 2010  3 7 1055 32.5 L   6.576 -73.467113.8  RSN  7 0.2 1.5LRSN                1
 GAP=111        0.49       3.9     4.0  5.6  0.7330E+01  0.1487E+02  0.1136E+02E
 Epicentro: EL CARMEN DE CHUCURI - SANTANDER                                   3
 ACTION:UP  10-08-24 09:52 OP:vdl  STATUS:               ID:20100307105532 L   I
 2010-03-07-1052-38S.COL___100                                                 6
 STAT SP IPHASW D HRMM SECON CODA AMPLIT PERI AZIMU VELO SNR AR TRES W  DIS CAZ7
 BAR2 SZ EP       1055 48.79                             163     0.310   31  87 
 BAR2 SZ ES       1056  0.98                             163     0.010   31  87 
 BRR  HZ EP       1055 49.76                             148    -0.110   65 335 
 BRR  HZ I        1055 57.83        12.3 0.12                            65 335 
 BRR  HN ES   1   1056  3.39                             148     0.0 7   65 335 
 RUS  BZ EP       1055 51.85                             140    -0.210   87 151 
 RUS  BN ES   2   1056  7.49                             140     0.1 5   87 151 
 RUS  BZ I        1056  9.00         3.3 0.13                            87 151 
 HEL  HZ EP   1   1056  6.64                             111     0.0 6  232 260 
 HEL  HN ES   2   1056 32.79                             111    -0.5 4  232 260 
 HEL  HZ I        1056 40.10         2.2 0.40                           232 260 
 TOL  SZ ES   3   1056 47.63                             105     0.2 2  301 223 
 DBB  SZ ES   2   1056 48.44                             105     0.3 4  307 279 
 PRA  HE ES   2   1056 58.31                             102     0.4 3  353 207 
 PRA  HZ I        1057  1.60         3.0 0.23                           353 207 
                                                                                
