 2016  3 7 1721 56.6 L   6.815 -73.165138.0  RSN  5 0.4 1.4LRSN                1
 GAP=133        1.08       5.5     5.0 10.0 -0.1402E+00  0.1979E+02 -0.5845E+01E
 Epicentro: LOS SANTOS - SANTANDER                                             3
 ACTION:UPD 16-05-13 21:22 OP:cam  STATUS:               ID:20160307172156 L   I
 OLDACT:UP  16-03-07 23:24 OP:ar   STATUS:               ID:20160307171751d    3
 OLDACT:UP  16-03-07 23:17 OP:ar   STATUS:               ID:20160307171751d    3
 OLDACT:DUP 16-03-07 23:13 OP:ar   STATUS:               ID:20160307171751d    3
 OLDACT:REG 16-03-07 20:49 OP:ar   STATUS:               ID:20160307171750     3
 2016-03-07-1717-50M.COL___325                                                 6
 STAT SP IPHASW D HRMM SECON CODA AMPLIT PERI AZIMU VELO AIN AR TRES W  DIS CAZ7
 BAR2 EZ EP       1722 15.10                             169   -0.2310 24.7 185 
 BAR2 EZ ES   2   1722 29.72                             169   -0.21 5 24.7 185 
 BAR2 EZ I        1722 31.60         5.7 0.34            171           24.7 185 
 PAM  EZ EP       1722 18.07                             149    0.0710 77.5  42 
 PAM  EN ES       1722 34.56                             149   -0.1310 77.5  42 
 PAM  EZ I        1722 36.93         5.9 0.62            153           77.5  42 
 RUS  HZ EP       1722 19.56                             142   -0.1710  102 175 
 RUS  HN ES       1722 38.38                             142    0.6110  102 175 
 RUS  HZ I        1722 39.22         2.6 0.26            147            102 175 
 PTB  HZ EP       1722 22.06                             131   -0.72 9  146 258 
 PTB  HN ES       1722 42.81                             131   -0.40 9  146 258 
 PTB  HZ I        1722 46.44         3.2 0.16            132            146 258 
 ZAR  HZ EP       1722 29.00                             121    0.72 9  201 292 
 ZAR  HN ES       1722 53.48                             121    0.49 9  201 292 
 ZAR  HZ I        1722 59.43         4.0 0.30            123            201 292 
                                                                                
