 2016 11 7 1249  6.5 L   6.792 -73.140148.6  RSN  7 0.4 1.6LRSN                1
 GAP=153        0.93       5.1     4.4  7.2 -0.8845E+01  0.7137E+01  0.3251E+01E
 Epicentro: LOS SANTOS - SANTANDER                                             3
 ACTION:UPD 17-10-26 21:05 OP:lp   STATUS:               ID:20161107124906 L   I
 OLDACT:REG 16-11-07 21:41 OP:dnl  STATUS:               ID:20161107124744     3
 2016-11-07-1248-00M.COL___328                                                 6
 STAT SP IPHASW D HRMM SECON CODA AMPLIT PERI AZIMU VELO AIN AR TRES W  DIS CAZ7
 BAR2 EZ EP       1249 26.39                             171   -0.0210 22.5 192 
 BAR2 EZ ES       1249 41.53                             171   -0.4510 22.5 192 
 BAR2 EZ I        1249 44.17        11.1 0.30            170           22.5 192 
 BRR  HZ EP       1249 28.41                             153    0.4410 72.2 299 
 BRR  HN ES       1249 45.29                             153    0.5510 72.2 299 
 BRR  HZ I        1249 49.75         6.6 0.68            149           72.2 299 
 PAM  EZ EP       1249 29.12                             151    0.1210 77.7  39 
 PAM  EN ES       1249 46.54                             151   -0.0410 77.7  39 
 PAM  EZ I        1249 48.53         6.4 0.50            155           77.7  39 
 PTB  HZ EP       1249 33.23                             132   -0.46 9  148 259 
 PTB  HE ES       1249 54.68                             132   -0.25 9  148 259 
 PTB  HZ I        1249 59.25         3.8 0.10            132            148 259 
 SPBC HZ EP   2   1249 34.73                             130   -0.41 5  163 219 
 SPBC HE ES       1249 57.57                             130    0.06 9  163 219 
 SPBC HZ I        1250  2.08         7.8 0.22            131            163 219 
 ZAR  HZ EP   4   1249 39.56                             123    0.38 0  205 292 
 ZAR  HE ES       1250  4.22                             123   -0.48 9  205 292 
 ZAR  HZ I        1250 13.29         2.7 0.18            123            205 292 
 NOR  HZ EP   4   1249 46.34                             119    3.99 0  235 235 
 NOR  HE ES       1250 10.96                             119    0.62 8  235 235 
 NOR  HZ I        1250 15.97         2.7 0.24            120            235 235 
                                                                                
