 2014 12 7 1357 27.6 L   6.793 -73.147144.9  RSN  6 0.4 1.7LRSN                1
 GAP=137        0.96       4.1     4.5  7.0  0.1401E+00  0.8900E+01  0.5076E+01E
 Epicentro: LOS SANTOS - SANTANDER                                             3
 ACTION:UPD 15-02-10 17:01 OP:nd   STATUS:               ID:20141207135727 L   I
 OLDACT:REG 14-12-08 00:47 OP:carl STATUS:               ID:20141207134744     3
 2014-12-07-1347-44M.COL___306                                                 6
 STAT SP IPHASW D HRMM SECON CODA AMPLIT PERI AZIMU VELO AIN AR TRES W  DIS CAZ7
 BAR2 SZ EP       1357 47.15                             171    0.0710 22.5 190 
 BAR2 SZ ES       1358  1.93                             171   -0.3710 22.5 190 
 BAR2 SZ I        1358  3.85        15.6 0.18            171           22.5 190 
 PAM  SZ EP       1357 49.92                             150    0.1910 78.1  39 
 PAM  SN ES       1358  6.91                             150   -0.1110 78.1  39 
 PAM  SZ I        1358  9.25         7.2 0.50            152           78.1  39 
 RUS  HZ EP       1357 51.12                             144   -0.0610 99.8 176 
 RUS  HN ES       1358 10.13                             144    0.5410 99.8 176 
 RUS  HZ I        1358 11.52         7.4 0.40            146           99.8 176 
 PTB  HZ EP       1357 53.97                             132   -0.48 9  148 259 
 PTB  HN ES       1358 14.95                             132   -0.46 9  148 259 
 PTB  HZ I        1358 16.82         6.3 0.40            132            148 259 
 ZAR  HE ES       1358 26.06                             122    0.80 9  204 292 
 ZAR  HZ I        1358 32.28         5.1 0.26            122            204 292 
 CHI  HZ EP       1358  4.91                             117   -0.22 8  248 195 
 CHI  HN ES       1358 34.63                             117    0.20 8  248 195 
 CHI  HZ I        1358 37.89         2.7 0.50            118            248 195 
                                                                                
