 2015  8 7 1718 39.6 L   6.565 -73.436117.2  RSN 11 0.4 2.1LRSN                1
 GAP= 71        0.99       2.6     3.4  5.8 -0.2625E+01  0.9700E+01 -0.1830E+01E
 Epicentro: HATO - SANTANDER                                                   3
 ACTION:UPD 15-09-15 23:00 OP:cam  STATUS:               ID:20150807171839 L   I
 OLDACT:REG 15-08-07 20:50 OP:drio STATUS:               ID:20150807170749     3
 2015-08-07-1707-49M.COL___361                                                 6
 STAT SP IPHASW D HRMM SECON CODA AMPLIT PERI AZIMU VELO AIN AR TRES W  DIS CAZ7
 BAR2 EZ EP       1718 55.89                             166   -0.0910 28.3  84 
 BAR2 EZ ES       1719  8.81                             166    0.0910 28.3  84 
 BAR2 EZ I        1719 10.98        33.0 0.28            168           28.3  84 
 BRR  HZ EP       1718 57.39                             148   -0.1310 67.3 333 
 BRR  HN ES       1719 11.89                             148    0.4310 67.3 333 
 RUS  HZ EP       1718 59.25                             142   -0.1410 84.0 152 
 RUS  HN ES       1719 14.56                             142   -0.2310 84.0 152 
 RUS  HZ I        1719 17.57        12.7 0.36            144           84.0 152 
 PAM  EZ EP       1719  1.97                             132   -0.2610  118  44 
 PAM  EE ES       1719 19.92                             132    0.0610  118  44 
 PAM  EZ I        1719 23.02        13.5 0.34            134            118  44 
 OCA  HZ EP       1719  9.30                             118    0.73 9  186   4 
 OCA  HN ES       1719 31.12                             118   -0.02 9  186   4 
 OCA  HZ I        1719 35.71        25.6 0.14            119            186   4 
 ZAR  HZ EP       1719  8.96                             118    0.36 9  188 303 
 ZAR  HE ES       1719 31.29                             118    0.10 9  188 303 
 ZAR  HZ I        1719 33.74        11.6 0.26            118            188 303 
 NOR  HZ EP       1719  9.71                             117    0.42 9  193 235 
 NOR  HN ES       1719 31.99                             117   -0.43 9  193 235 
 NOR  HZ I        1719 34.49        14.6 0.48            118            193 235 
 HEL  HZ EP       1719 14.40                             112    0.07 8  235 260 
 HEL  HE ES       1719 40.78                             112   -0.62 8  235 260 
 HEL  HZ I        1719 45.85         7.6 0.24            113            235 260 
 SML  HZ EP       1719 15.76                             110   -0.60 8  257 344 
 SML  HE ES       1719 44.17                             110   -0.83 8  257 344 
 SML  HZ I        1719 48.76        23.9 0.10            111            257 344 
 GUY2CHZ EP       1719 18.12                             109    0.82 8  260 235 
 GUY2CHE ES       1719 47.24                             109    0.56 8  260 235 
 GUY2CHZ I        1719 57.84         7.3 0.44                           260 235 
 TOL  SZ EP   4   1719 23.91                             106    1.85 0  302 224 
 TOL  SN ES       1719 54.66                             106   -0.49 7  302 224 
 TOL  SZ I        1720  5.55         7.8 0.72            107            302 224 
                                                                                
