 2016  4 7 1842 14.2 L   7.387 -73.195129.7  RSN  4 0.1 1.6LRSN                1
 GAP=182        0.33       2.7     1.9  3.6  0.7853E-01  0.4344E+01 -0.1479E+01E
 Epicentro: EL PLAYON - SANTANDER                                              3
 ACTION:UPD 16-05-05 14:19 OP:rebc STATUS:               ID:20160407184214 L   I
 OLDACT:REG 16-04-07 19:45 OP:drio STATUS:               ID:20160407183751     3
 2016-04-07-1837-51M.COL___304                                                 6
 STAT SP IPHASW D HRMM SECON CODA AMPLIT PERI AZIMU VELO AIN AR TRES W  DIS CAZ7
 PAM  EE ES       1842 48.53                             156    0.0410 55.0  95 
 PAM  EZ I        1842 49.70         6.1 0.50            160           55.0  95 
 BAR2 EZ EP       1842 35.16                             144    0.0210 87.9 179 
 BAR2 EZ ES       1842 51.36                             144   -0.0810 87.9 179 
 BAR2 EZ I        1842 52.81        14.3 0.10            146           87.9 179 
 PTB  HZ EP       1842 42.05                             124    0.11 9  168 236 
 PTB  HE ES       1843  3.59                             124    0.04 9  168 236 
 PTB  HZ I        1843  6.74         4.6 0.12            126            168 236 
 ZAR  HZ EP       1842 43.43                             121   -0.14 9  184 274 
 ZAR  HE ES       1843  6.46                             121    0.01 9  184 274 
 ZAR  HZ I        1843  8.53         4.3 0.28            123            184 274 
                                                                                
