 2011  9 7 1211 39.3 L   6.735 -73.119146.5  RSN  5 0.3 1.5LRSN                1
 GAP=185        0.59       8.6    10.4  7.6  0.6431E+02 -0.2096E+02 -0.2358E+02E
 Epicentro: JORDAN - SANTANDER                                                 3
 ACTION:UPD 12-07-13 15:56 OP:ep   STATUS:               ID:20110907121139 L   I
 2011-09-07-1208-46S.COL___171                                                 6
 STAT SP IPHASW D HRMM SECON CODA AMPLIT PERI AZIMU VELO AIN AR TRES W  DIS CAZ7
 BAR2 SZ EP   1   1211 59.27                             173    0.38 7 17.3 204 
 BAR2 SZ ES   1   1212 13.82                             173   -0.37 7 17.3 204 
 BAR2 SZ I        1212 14.95         7.4 0.19                          17.3 204 
 BRR  HZ EP   1   1212  1.12                             150    0.25 7 77.4 302 
 BRR  HZ I        1212  2.79         9.9 0.27                          77.4 302 
 BRR  HN ES   1   1212 17.79                             150    0.09 7 77.4 302 
 RUS  HZ EP   2   1212  1.97                             146   -0.62 5 93.2 178 
 RUS  HE ES   2   1212 21.05                             146    0.28 5 93.2 178 
 RUS  HZ I        1212 23.35         2.8 0.21                          93.2 178 
 OCA  SZ EP   2   1212  8.13                             128   -0.23 5  168 352 
 ZAR  HE ES   2   1212 37.76                             121   -0.37 4  210 294 
 ZAR  HZ I        1212 49.20         3.0 0.51                           210 294 
                                                                                
