 2010  6 7 1132 47.0 L   6.540 -73.505  4.0  RSN  7 0.5 2.4LRSN                1
 GAP=148        1.10       4.6     4.0  7.0 -0.7842E+01  0.5429E+01 -0.8000E+01E
 Epicentro: EL CARMEN DE CHUCURI - SANTANDER                                   3
 ACTION:UP  10-08-24 10:08 OP:vdl  STATUS:               ID:20100607113247 L   I
 2010-06-07-1129-45S.COL___111                                                 6
 STAT SP IPHASW D HRMM SECON CODA AMPLIT PERI AZIMU VELO SNR AR TRES W  DIS CAZ7
 BAR2 SZ IP       1132 53.32                              47     0.110   36  81 
 BAR2 SZ ES   1   1132 57.74                              47    -0.4 7   36  81 
 GIR2 SZ EP   1   1132 59.02                              47     0.9 7   69  30 
 GIR2 SZ ES   1   1133  7.30                              47     0.5 7   69  30 
 GUE  SZ EP       1133 11.37                              47    -0.2 9  156  24 
 GUE  SZ ES   1   1133 29.89                              47    -0.9 7  156  24 
 GRA  SZ IP       1133 13.24                              47     0.1 9  168  27 
 GRA  SZ ES   1   1133 33.35                              47    -0.2 7  168  27 
 OCA  SZ EP       1133 15.68                              37    -0.3 9  189   6 
 OCA  SZ ES   1   1133 39.36                              37     0.7 7  189   6 
 OCA  SZ I        1133 42.07        62.9 0.39                           189   6 
 HEL  HZ EP   1   1133 21.25                              37     0.2 6  227 260 
 HEL  HN ES   1   1133 46.77                              37    -0.9 6  227 260 
 HEL  HZ I        1133 52.71        12.1 0.22                           227 260 
 RREF BZ EP   2   1133 27.80                              37     0.7 4  273 228 
 RREF BN ES   2   1133 59.32                              37     0.9 4  273 228 
 RREF BZ I        1134  2.55        18.0 0.32                           273 228 
                                                                                
