 2011 12 7 1038 27.3 L   6.768 -73.100140.3  RSN  5 0.3 1.6LRSN                1
 GAP=144        0.56       3.8     5.6  5.7  0.3712E+00  0.3733E+00 -0.8750E+00E
 Epicentro: LOS SANTOS - SANTANDER                                             3
 ACTION:UPD 12-07-13 16:14 OP:ep   STATUS:               ID:20111207103827 L   I
 2011-12-07-1030-00M.COL___183                                                 6
 STAT SP IPHASW D HRMM SECON CODA AMPLIT PERI AZIMU VELO AIN AR TRES W  DIS CAZ7
 BAR2 SZ EP   1   1038 46.13                             171   -0.14 7 21.4 205 
 BAR2 SZ ES   1   1039  0.64                             171   -0.40 7 21.4 205 
 BAR2 SZ I        1039  2.75        18.5 0.43                          21.4 205 
 GIR2 SZ EP   1   1038 46.28                             165   -0.22 7 35.9 343 
 PAM  SZ EP   1   1038 49.11                             150    0.15 7 77.2  35 
 PAM  SN ES   1   1039  5.93                             150    0.11 7 77.2  35 
 BRR  HZ EP       1038 48.07                             149   -0.2010 77.3 299 
 BRR  HN ES   1   1039  5.01                             149    0.42 7 77.3 299 
 BRR  HZ I        1039  5.82         7.6 0.15                          77.3 299 
 RUS  HZ EP   1   1038 50.58                             144    0.30 7 96.8 179 
 RUS  HN ES   1   1039  8.29                             144    0.12 7 96.8 179 
 RUS  HZ I        1039  9.75         3.6 0.24                          96.8 179 
                                                                                
