 2016  9 7 1510 24.5 L   6.877 -73.167141.5  RSN  6 0.3 1.5LRSN                1
 GAP=245        0.68       5.1     4.0  5.7  0.8525E+01  0.7159E+01  0.1275E+00E
 Epicentro: BETULIA - SANTANDER                                                3
 ACTION:UPD 17-08-17 21:07 OP:lp   STATUS:               ID:20160907151024 L   I
 OLDACT:DUP 16-09-07 23:44 OP:lv   STATUS:               ID:20160907150736d    3
 2016-09-07-1508-00M.COL___358                                                 6
 STAT SP IPHASW D HRMM SECON CODA AMPLIT PERI AZIMU VELO AIN AR TRES W  DIS CAZ7
 BAR2 EZ EP       1510 44.09                             167    0.3010 31.5 183 
 BAR2 EZ ES       1510 58.69                             167   -0.1610 31.5 183 
 BAR2 EZ I        1511  0.63        10.7 0.22            163           31.5 183 
 RUS  HZ EP       1510 48.11                             140   -0.3510  109 175 
 RUS  HE ES       1511  7.36                             140    0.1910  109 175 
 RUS  HZ I        1511  8.12         2.1 0.17            141            109 175 
 PTB  HZ EP       1510 51.41                             131    0.35 9  147 255 
 PTB  HN ES       1511 11.60                             131   -0.20 9  147 255 
 PTB  HZ I        1511 18.44         2.2 0.12            129            147 255 
 ZAR  HZ EP   4   1510 59.42                             122    3.32 0  199 290 
 ZAR  HN ES       1511 20.77                             122   -0.00 9  199 290 
 ZAR  HZ I        1511 27.34         2.6 0.13            122            199 290 
 NOR  HZ EP       1510 59.92                             117   -0.38 8  238 232 
 NOR  HE ES       1511 28.45                             117    0.20 8  238 232 
 NOR  HZ I        1511 35.84         2.6 0.14            117            238 232 
 GUY2CHZ EP   4   1511 10.41                             111    2.17 0  304 233 
 GUY2CHN ES   4   1511 46.58                             111    4.20 0  304 233 
 GUY2CHZ I        1511 50.24         2.4 0.36                           304 233 
                                                                                
