 2011  6 7 1542  5.2 L   6.785 -73.065148.9  RSN  4 0.2 1.6LRSN                1
 GAP=245        0.48       4.7     6.3  5.0  0.1203E+02  0.6439E+01  0.3958E+01E
 Epicentro: LOS SANTOS - SANTANDER                                             3
 ACTION:UP  11-07-14 19:03 OP:ep   STATUS:               ID:20110607154205 L   I
 2011-06-07-1540-48S.COL___129                                                 6
 STAT SP IPHASW D HRMM SECON CODA AMPLIT PERI AZIMU VELO SNR AR TRES W  DIS CAZ7
 BAR2 SZ EP   1   1542 25.14                             170    -0.1 7   25 211 
 BAR2 SZ ES   1   1542 40.65                             170    -0.2 7   25 211 
 BAR2 SZ I        1542 41.91        10.4 0.28                            25 211 
 BRR  HZ EP   1   1542 27.01                             150    -0.2 7   80 296 
 BRR  HZ I        1542 31.62         9.1 0.12                            80 296 
 BRR  HE ES   1   1542 44.65                             150     0.3 7   80 296 
 RUS  HZ EP   1   1542 29.36                             145     0.2 7   99 181 
 RUS  HN ES   1   1542 47.91                             145     0.1 7   99 181 
 RUS  HZ I        1542 49.52         4.4 0.27                            99 181 
 NOR  SZ EP   1   1542 41.79                             118     0.0 6  241 236 
 NOR  SN ES   2   1543 10.22                             118    -0.1 4  241 236 
                                                                                
