 2013  2 7 1717 52.5 L   6.778 -73.164144.1  RSN 10 0.3 2.5LRSN                1
 GAP= 98        0.66       2.7     2.4  4.1 -0.3765E+00  0.1827E+01  0.2862E+01E
 Epicentro: LOS SANTOS - SANTANDER                                             3
 ACTION:UPD 13-03-12 09:31 OP:ep   STATUS:               ID:20130207171752 L   I
 2013-02-07-1710-00M.COL___240                                                 6
 STAT SP IPHASW D HRMM SECON CODA AMPLIT PERI AZIMU VELO AIN AR TRES W  DIS CAZ7
 BAR2 SZ EP       1718 11.90                             171    0.0210 20.6 186 
 BAR2 SZ ES       1718 26.68                             171   -0.3110 20.6 186 
 BAR2 SZ I        1718 28.29       121.1 0.39            170           20.6 186 
 BRR  HZ IP     C 1718 13.68                             152    0.2410 70.6 301 
 BRR  HN ES       1718 30.35                             152    0.5810 70.6 301 
 BRR  HZ I        1718 34.63        50.0 0.19            150           70.6 301 
 PAM  SZ EP       1718 14.72                             149   -0.0210 80.6  40 
 PAM  SN ES       1718 31.84                             149   -0.2410 80.6  40 
 PAM  SZ I        1718 34.30        25.6 0.43            153           80.6  40 
 RUS  HZ EP       1718 15.86                             144   -0.0710 98.3 175 
 RUS  HN ES   1   1718 34.34                             144    0.14 7 98.3 175 
 RUS  HN I        1718 35.42        86.9 0.38            146           98.3 175 
 PTB  HZ EP   1   1718 18.56                             132   -0.55 7  145 260 
 PTB  HN ES   1   1718 39.47                             132   -0.39 7  145 260 
 PTB  HZ I        1718 46.52        37.1 0.45            131            145 260 
 TAM  HZ EP   1   1718 20.18                             130    0.00 7  156 104 
 TAM  HZ I        1718 20.71        29.8 0.25            134            156 104 
 TAM  HN ES   1   1718 41.97                             130    0.20 7  156 104 
 ZAR  HZ EP   1   1718 24.52                             122   -0.23 6  203 293 
 ZAR  HE ES   1   1718 49.70                             122   -0.19 6  203 293 
 ZAR  HZ I        1718 55.50        34.0 0.33            122            203 293 
 NOR  HZ EP   1   1718 27.48                             118   -0.33 6  232 235 
 NOR  HE ES       1718 55.37                             118    0.03 8  232 235 
 NOR  HZ I        1719  2.29        18.6 0.29            119            232 235 
 CHI  HZ EP   1   1718 30.05                             117    0.25 6  246 195 
 CHI  HN ES       1718 58.99                             117    0.11 8  246 195 
 CHI  HZ I        1719  1.81        18.3 0.40            118            246 195 
 HEL  HZ EP   1   1718 33.02                             115    0.67 6  269 256 
                                                                                
