 2013  7 7 1808 43.2 L   6.734 -73.067145.1  RSN  7 0.5 1.6LRSN                1
 GAP=150        1.06       6.5     6.3  9.5  0.1690E+01  0.1941E+01  0.1204E+02E
 Epicentro: JORDAN - SANTANDER                                                 3
 ACTION:UPD 13-08-12 10:36 OP:ep   STATUS:               ID:20130707180843 L   I
 OLDACT:REG 13-07-07 17:58 OP:jn   STATUS:               ID:20130707180648     3
 2013-07-07-1806-48M.COL___224                                                 6
 STAT SP IPHASW D HRMM SECON CODA AMPLIT PERI AZIMU VELO AIN AR TRES W  DIS CAZ7
 BAR2 SZ EP   1   18 9  2.56                             172   -0.10 7 20.2 219 
 BAR2 SZ I        18 9 20.48         5.7 0.38            169           20.2 219 
 GIR2 SZ EP       18 9  2.77                             164   -0.2810 40.6 340 
 GIR2 SZ ES       18 9 18.68                             164    0.1310 40.6 340 
 PAM  SZ EP       18 9  5.49                             150    0.1210 78.3  31 
 PAM  SN ES   1   18 9 22.64                             150   -0.04 7 78.3  31 
 PAM  SZ I        18 9 24.82        12.8 0.54            151           78.3  31 
 BRR  HZ EP       18 9  4.70                             149   -0.2210 82.4 300 
 BRR  HN ES   1   18 9 21.50                             149   -0.38 7 82.4 300 
 BRR  HZ I        18 9 26.91         7.0 0.16            148           82.4 300 
 RUS  HZ EP       18 9  6.43                             146    0.1010 93.1 181 
 RUS  HN ES   1   18 9 24.96                             146    0.57 7 93.1 181 
 RUS  HZ I        18 9 26.45         4.8 0.24            142           93.1 181 
 PTB  HN ES   1   18 9 31.32                             130   -0.97 7  155 262 
 PTB  HZ I        18 9 36.45         5.0 0.22            128            155 262 
 ZAR  HE ES   1   18 9 44.31                             121    1.45 6  215 293 
                                                                                
