 2017  8 7 1252 39.3 L   6.802 -73.160148.0  RSN  7 0.4 1.4LRSN                1
 GAP=236        0.66       3.8     4.2  5.0  0.4194E+01  0.2439E+01  0.6132E+01E
 Epicentro: LOS SANTOS - SANTANDER                                             3
 ACTION:UPD 17-09-04 20:17 OP:rebc STATUS:               ID:20170807125239 L   I
 OLDACT:UP  17-08-07 21:18 OP:dani STATUS:               ID:20170807124740     3
 OLDACT:UP  17-08-07 21:17 OP:dani STATUS:               ID:20170807124740     3
 OLDACT:REG 17-08-07 19:52 OP:dani STATUS:               ID:20170807124740     3
 2017-08-07-1248-00M.COL___387                                                 6
 STAT SP IPHASW D HRMM SECON CODA AMPLIT PERI AZIMU VELO AIN AR TRES W  DIS CAZ7
 BAR2 EZ EP       1252 59.13                             171   -0.0510 23.4 186 
 BAR2 EZ ES       1253 14.62                             171   -0.0810 23.4 186 
 BAR2 EZ I        1253 16.71        11.1 0.26            163           23.4 186 
 BRR  HE ES       1253 17.70                             153    0.4910 69.7 299 
 RUS  HZ EP       1253  3.11                             144   -0.1710  101 175 
 RUS  HE ES       1253 21.86                             144   -0.1410  101 175 
 RUS  HZ I        1253 23.01         3.1 0.18            141            101 175 
 PTB  HZ EP       1253  6.39                             133    0.09 9  146 259 
 PTB  HN ES       1253 27.03                             133   -0.34 9  146 259 
 PTB  HZ I        1253 32.99         1.9 0.14            130            146 259 
 SPBC HN ES       1253 30.25                             130    0.07 9  162 219 
 ZAR  HE ES   3   1253 35.11                             123   -1.90 2  203 292 
 CHI  HZ EP       1253 17.36                             118    0.28 8  248 195 
 CHI  HN ES       1253 46.60                             118    0.03 8  248 195 
 CHI  HZ I        1253 56.68         1.8 0.27            116            248 195 
                                                                                
