 2012  6 7 1107 20.7 L   6.842 -73.184146.6  RSN 11 0.4 2.1LRSN                1
 GAP=123        0.67       2.8     3.2  4.8 -0.1331E+01  0.3027E+01  0.8717E+00E
 Epicentro: ZAPATOCA - SANTANDER                                               3
 ACTION:UPD 12-08-06 17:47 OP:ep   STATUS:               ID:20120607110727 L   I
 2012-06-07-1100-00M.COL___201                                                 6
 STAT SP IPHASW D HRMM SECON CODA AMPLIT PERI AZIMU VELO AIN AR TRES W  DIS CAZ7
 BAR2 SZ IP       11 7 40.58                             169    0.0610 27.7 180 
 BAR2 SZ ES   1   11 7 56.04                             169    0.06 7 27.7 180 
 BAR2 SZ I        11 7 57.87        47.7 0.22            170           27.7 180 
 PAM  SZ EP   1   11 7 43.11                             151    0.15 7 76.7  44 
 PAM  SN ES   1   11 8  0.66                             151    0.34 7 76.7  44 
 RUS  HZ EP   1   11 7 44.58                             143   -0.31 7  106 174 
 RUS  HE ES   1   11 8  3.47                             143   -0.30 7  106 174 
 RUS  HZ I        11 8  4.54        23.8 0.37            138            106 174 
 PTB  HZ EP   1   11 7 47.10                             133   -0.34 7  145 257 
 PTB  HN ES       11 8  8.15                             133   -0.15 9  145 257 
 PTB  HZ I        11 8 11.86        12.8 0.11            128            145 257 
 OCA  HE ES   1   11 8 10.37                             131    0.02 7  155 354 
 OCA  HZ I        11 8 13.65        36.1 0.20            120            155 354 
 ZAR  HZ EP   1   11 7 53.44                             123    0.83 6  198 291 
 ZAR  HE ES   1   11 8 16.88                             123   -0.62 6  198 291 
 ZAR  HZ I        11 8 25.18        19.0 0.18            116            198 291 
 NOR  SZ EP   1   11 7 57.04                             119    0.64 6  234 233 
 NOR  SN ES   1   11 8 24.58                             119    0.33 6  234 233 
 CHI  HZ EP   1   11 7 59.04                             117    0.23 6  252 194 
 CHI  HN ES   1   11 8 28.59                             117    0.05 6  252 194 
 SDV  BZ EP   1   11 8 10.25                             108   -0.55 5  361  51 
 SDV  BZ I        11 8 51.26         0.5 0.45            101            361  51 
 PRA  HZ EP       11 8 14.19                             106   -0.28 6  394 209 
 SJC  HZ EP   1   11 8 15.15                             106   -0.40 4  403 327 
                                                                                
