 2013  4 7 1941 45.4 L   6.803 -73.187137.3  RSN  8 0.4 1.9LRSN                1
 GAP=175        1.04       4.9     7.1  8.3  0.9414E+00  0.1973E+02 -0.4075E+01E
 Epicentro: ZAPATOCA - SANTANDER                                               3
 ACTION:UPD 13-05-22 14:36 OP:EP   STATUS:               ID:20130407194145 L   I
 2013-04-07-1940-00M.COL___245                                                 6
 STAT SP IPHASW D HRMM SECON CODA AMPLIT PERI AZIMU VELO AIN AR TRES W  DIS CAZ7
 BAR2 SZ EP       1942  4.15                             170    0.1710 23.3 179 
 BAR2 SZ ES       1942 17.87                             170   -0.6310 23.3 179 
 BAR2 SZ I        1942 21.15        29.7 0.22            168           23.3 179 
 GIR2 SZ EP       1942  4.25                             167    0.2410 30.5 359 
 GIR2 SZ ES       1942 18.88                             167    0.3210 30.5 359 
 GIR2 SZ I        1942 20.58        10.3 0.61            164           30.5 359 
 BRR  HZ EP       1942  6.07                             152    0.7110 67.0 300 
 BRR  HE ES   4   1942 22.77                             152    1.81 0 67.0 300 
 BRR  HZ I        1942 26.11        10.0 0.26            148           67.0 300 
 RUS  HZ EP   1   1942  8.13                             142   -0.22 7  101 173 
 RUS  HN ES   1   1942 26.09                             142   -0.20 7  101 173 
 RUS  HZ I        1942 27.82         9.1 0.32            146            101 173 
 PTB  HZ EP       1942 10.88                             131   -0.36 9  143 258 
 PTB  HN ES       1942 31.65                             131    0.22 9  143 258 
 PTB  HZ I        1942 34.17        17.4 0.16            130            143 258 
 OCA  HE ES   1   1942 34.26                             128   -0.21 7  159 355 
 ZAR  HE ES   4   1942 42.91                             121    1.57 0  200 293 
 ZAR  HZ I        1942 51.05         9.4 0.32            121            200 293 
 SML  HE ES   1   1942 48.35                             116   -0.96 6  241 336 
                                                                                
