 2014 10 7 1132 59.4 L   6.054 -73.740108.0  RSN 21 0.5 2.3LRSN                1
 GAP= 58        1.30       2.4     3.2  6.0 -0.2076E+01  0.4364E+01  0.9422E+00E
 Epicentro: BOLIVAR - SANTANDER                                                3
 ACTION:UPD 14-11-29 23:47 OP:nd   STATUS:               ID:20141007113259 L   I
 OLDACT:REG 14-10-07 21:50 OP:stll STATUS:               ID:20141007112750     3
 2014-10-07-1127-50M.COL___292                                                 6
 STAT SP IPHASW D HRMM SECON CODA AMPLIT PERI AZIMU VELO AIN AR TRES W  DIS CAZ7
 SPBC HZ EP       1133 16.55                             150    0.6910 57.7 220 
 SPBC HZ I        1133 16.85        98.3 0.12            144           57.7 220 
 SPBC HE ES       1133 28.96                             150    0.2710 57.7 220 
 RUS  HZ IP     D 1133 17.74                             143    0.1510 74.9 104 
 RUS  HZ I        1133 18.00        38.2 0.28            139           74.9 104 
 RUS  HN ES       1133 31.72                             143   -0.0610 74.9 104 
 BAR2 SZ IP     C 1133 18.53                             138    0.4610 85.7  46 
 BAR2 SZ ES       1133 32.65                             138    0.0210 85.7  46 
 PTB  HZ EP       1133 18.35                             135   -0.2510 95.7 304 
 PTB  HN ES       1133 33.52                             135   -0.0410 95.7 304 
 PTB  HZ I        1133 36.64        49.8 0.74            126           95.7 304 
 BRR  HZ EP     C 1133 20.77                             129    0.3110  116   2 
 BRR  HN ES       1133 36.52                             129   -0.3610  116   2 
 BRR  HZ I        1133 40.47        30.5 0.14            121            116   2 
 CHI  HZ EP       1133 24.93                             120   -0.21 9  158 180 
 CHI  HN ES       1133 44.78                             120   -0.44 9  158 180 
 CHI  HZ I        1133 51.61        21.1 0.30            115            158 180 
 PAM  SZ EP       1133 27.94                             116   -0.03 9  183  39 
 PAM  SE ES       1133 49.46                             116   -0.78 9  183  39 
 PAM  SZ I        1133 55.11        13.9 0.20            110            183  39 
 ZAR  HZ EP       1133 29.51                             113    0.10 9  201 322 
 ZAR  HE ES       1133 52.62                             113   -0.20 9  201 322 
 ZAR  HZ I        1133 58.52        42.1 0.44            108            201 322 
 GUY2CHZ EP       1133 30.94                             113    0.86 9  202 243 
 GUY2CHN ES       1133 55.15                             113    1.14 9  202 243 
 GUY2CHZ I        1134  0.14        10.5 0.64                           202 243 
 VIL  SZ EP       1133 31.06                             111   -0.03 8  215 179 
 VIL  SE ES       1133 55.62                             111   -0.18 8  215 179 
 RREF HZ EP   9   1133 29.05                             111   -3.15 0  219 234 
 RREF HN ES       1133 53.93                                   -0.70 8  219 234 
 RREF HZ I        1134  0.75        11.5 0.26            107            219 234 
 TOL  SZ EP       1133 34.26                             109    0.16 8  239 227 
 TOL  SN ES       1134  0.55                             109   -0.61 8  239 227 
 TOL  SZ I        1134  7.63        52.7 0.84            105            239 227 
 OCA  HZ EP       1133 35.44                             108    0.74 8  246  11 
 OCA  HN ES       1134  2.13                             108   -0.09 8  246  11 
 OCA  HZ I        1134 11.84        28.9 0.22            104            246  11 
 CBOC HZ EP       1133 35.02                             107   -0.45 8  252 265 
 CBOC HE ES       1134  3.12                             107   -0.47 8  252 265 
 CBOC HZ I        1134 15.94         5.0 0.54            104            252 265 
 ANIL HN ES       1134  2.66                             107   -1.26 8  253 227 
 PTGC HZ EP   9   1133 36.40                             106   -1.10 0  272 139 
 PTGC HN ES       1134  4.57                                   -1.54 8  272 139 
 URE  HZ EP   9   1133 36.43                             105   -1.23 0  273 314 
 URE  HN ES       1134  5.42                                   -0.85 8  273 314 
 PRA  HZ EP       1133 39.24                             104   -0.27 7  288 206 
 PRA  HE ES       1134 10.48                             104   -0.31 7  288 206 
 PRA  HZ I        1134 17.55        13.9 0.64            102            288 206 
 ORTC HZ EP       1133 40.12                             104    0.40 7  290 215 
 ORTC HN ES       1134 11.78                             104    0.62 7  290 215 
 ORTC HZ I        1134 16.32         9.9 0.24            102            290 215 
 SML  HZ EP       1133 40.95                             103   -0.59 7  306 353 
 SML  HZ I        1134 17.11        22.4 0.10            101            306 353 
 MON  HZ EP   9   1133 47.08                             100   -1.95 0  369 325 
 MON  HN ES       1134 25.11                                   -0.67 6  369 325 
 MON  HZ I        1134 30.01         4.0 0.52             99            369 325 
                                                                                
