 2017  4 7 1441 29.8 L   6.821 -73.166137.5  RSN  5 0.4 1.4LRSN                1
 GAP=144        0.86       7.4     6.0  8.9 -0.2931E+02  0.1963E+02 -0.4566E+01E
 Epicentro: LOS SANTOS - SANTANDER                                             3
 ACTION:UPD 17-05-30 21:09 OP:jn   STATUS:               ID:20170407144130 L   I
 OLDACT:UP  17-05-08 16:36 OP:nlst STATUS:               ID:20170407144130 L   3
 OLDACT:UP  17-04-07 22:03 OP:edw  STATUS:               ID:20170407143746     3
 OLDACT:UP  17-04-07 22:03 OP:edw  STATUS:               ID:20170407143746     3
 OLDACT:UP  17-04-07 22:03 OP:edw  STATUS:               ID:20170407143746     3
 OLDACT:UP  17-04-07 22:03 OP:edw  STATUS:               ID:20170407143746     3
 OLDACT:REG 17-04-07 20:08 OP:ar   STATUS:               ID:20170407143746     3
 2017-04-07-1438-00M.COL___368                                                 6
 STAT SP IPHASW D HRMM SECON CODA AMPLIT PERI AZIMU VELO AIN AR TRES W  DIS CAZ7
 BAR2 EZ ES   1   1442  3.20                             169    0.16 7 25.3 184 
 PAM  EZ EP       1441 51.18                             149    0.0610 77.1  42 
 PAM  EN ES       1442  7.36                             149   -0.3910 77.1  42 
 PAM  EZ I        1442 10.88         3.0 0.60            156           77.1  42 
 RUS  HZ EP   2   1441 52.80                             141   -0.13 5  103 175 
 RUS  HN ES   2   1442 11.35                             141    0.38 5  103 175 
 RUS  HZ I        1442 13.96         3.7 0.28            145            103 175 
 PTB  HZ EP       1441 56.42                             130    0.48 9  146 258 
 PTB  HN ES       1442 16.58                             130    0.25 9  146 258 
 PTB  HZ I        1442 23.81         5.9 0.48            132            146 258 
 NOR  HN ES       1442 31.75                             116   -0.71 8  234 234 
 NOR  HZ I        1442 38.12         2.7 0.34            119            234 234 
                                                                                
