 2011  9 7 1157  2.2 L   6.763 -73.137135.4  RSN  5 0.3 1.7LRSN                1
 GAP=183        0.54       7.5     8.8  8.1  0.4343E+02 -0.9954E+01 -0.2321E+02E
 Epicentro: LOS SANTOS - SANTANDER                                             3
 ACTION:UPD 12-07-13 15:56 OP:ep   STATUS:               ID:20110907115702 L   I
 2011-09-07-1153-56S.COL___171                                                 6
 STAT SP IPHASW D HRMM SECON CODA AMPLIT PERI AZIMU VELO AIN AR TRES W  DIS CAZ7
 BAR2 SZ EP   1   1157 20.70                             171    0.20 7 19.5 195 
 BAR2 SZ I        1157 21.24         6.0 0.31                          19.5 195 
 BAR2 SZ ES   2   1157 35.36                             171    0.58 5 19.5 195 
 BRR  HZ EP   1   1157 22.10                             150   -0.30 7 74.1 301 
 BRR  HE ES   2   1157 37.89                             150   -0.28 5 74.1 301 
 BRR  HZ I        1157 42.32        15.2 0.30                          74.1 301 
 RUS  HZ EP   2   1157 24.79                             143    0.17 5 96.4 176 
 RUS  HE ES   2   1157 41.64                             143   -0.48 5 96.4 176 
 OCA  SZ EP   2   1157 29.91                             126   -0.21 5  164 353 
 ZAR  HZ EP   2   1157 34.78                             120    0.54 4  207 293 
 ZAR  HN ES   2   1157 59.27                             120    0.03 4  207 293 
 ZAR  HZ I        1158  5.17         5.8 0.65                           207 293 
                                                                                
