 2016  9 7 1935 53.5 L   6.807 -73.363114.5  RSN  5 0.1 1.6LRSN                1
 GAP=116        0.42       2.0     2.1  3.8  0.3389E+00  0.4162E+01 -0.1003E+01E
 Epicentro: SAN VICENTE DE CHUCURI - SANTANDER                                 3
 ACTION:UPD 17-08-17 21:07 OP:lp   STATUS:               ID:20160907193553 L   I
 OLDACT:REG 16-09-07 20:52 OP:lv   STATUS:               ID:20160907192737     3
 2016-09-07-1928-00M.COL___355                                                 6
 STAT SP IPHASW D HRMM SECON CODA AMPLIT PERI AZIMU VELO AIN AR TRES W  DIS CAZ7
 BAR2 EZ EP       1936  9.47                             164   -0.1410 31.0 140 
 BAR2 EZ ES       1936 22.14                             164   -0.0410 31.0 140 
 BAR2 EZ I        1936 23.74        26.1 0.27            166           31.0 140 
 PAM  EZ EP       1936 13.67                             138   -0.1110 94.0  51 
 PAM  EE ES       1936 29.74                             138    0.1510 94.0  51 
 PAM  EZ I        1936 31.55         3.3 0.17            142           94.0  51 
 RUS  HZ EP       1936 14.70                             135   -0.0710  106 163 
 RUS  HN ES       1936 31.39                             135    0.0310  106 163 
 RUS  HZ I        1936 33.19         3.9 0.37            138            106 163 
 PTB  HZ EP       1936 16.13                             129    0.3010  124 256 
 PTB  HN ES   4   1936 30.13                             129   -3.12 0  124 256 
 PTB  HZ I        1936 35.24         8.2 0.09            131            124 256 
 ZAR  HZ EP       1936 21.67                             118   -0.01 9  182 295 
 ZAR  HN ES       1936 43.53                             118   -0.13 9  182 295 
 ZAR  HZ I        1936 44.62         7.7 0.26            120            182 295 
                                                                                
