 2016  4 7 1941  3.4 L   6.789 -73.154145.2  RSN 10 0.3 2.0LRSN                1
 GAP=119        0.83       3.1     3.2  4.8 -0.2339E+01  0.3224E+01 -0.2015E+00E
 Epicentro: LOS SANTOS - SANTANDER                                             3
 ACTION:UPD 16-05-05 14:19 OP:rebc STATUS:               ID:20160407194103 L   I
 OLDACT:UP  16-04-08 00:21 OP:drio STATUS:               ID:20160407193745d    3
 OLDACT:DUP 16-04-08 00:15 OP:drio STATUS:               ID:20160407193745d    3
 2016-04-07-1937-44M.COL___304                                                 6
 STAT SP IPHASW D HRMM SECON CODA AMPLIT PERI AZIMU VELO AIN AR TRES W  DIS CAZ7
 BAR2 EZ EP       1941 23.16                             171    0.1910 22.0 188 
 BAR2 EZ ES       1941 38.04                             171   -0.1610 22.0 188 
 BAR2 EZ I        1941 39.52        33.2 0.20            168           22.0 188 
 PAM  EZ EP       1941 25.96                             150    0.2810 78.9  40 
 PAM  EE ES       1941 43.21                             150    0.1810 78.9  40 
 PAM  EZ I        1941 44.72        12.6 0.36            156           78.9  40 
 RUS  HZ EP       1941 26.90                             144   -0.1510 99.5 175 
 RUS  HE ES       1941 45.66                             144    0.2010 99.5 175 
 RUS  HZ I        1941 46.35         7.1 0.48            144           99.5 175 
 PTB  HZ EP       1941 29.73                             132   -0.52 9  147 259 
 PTB  HN ES       1941 50.85                             132   -0.32 9  147 259 
 PTB  HZ I        1941 58.16        13.6 0.44            132            147 259 
 SPBC HZ EP       1941 31.41                             129   -0.33 9  162 219 
 SPBC HE ES       1941 53.48                             129   -0.35 9  162 219 
 SPBC HZ I        1942  2.06        18.0 0.12            129            162 219 
 ZAR  HZ EP       1941 36.38                             122    0.58 9  204 293 
 ZAR  HN ES       1942  1.19                             122    0.15 9  204 293 
 ZAR  HZ I        1942  3.44         8.0 0.10            123            204 293 
 NOR  HZ EP       1941 39.40                             119    0.43 8  233 235 
 NOR  HE ES       1942  6.64                             119   -0.05 8  233 235 
 NOR  HZ I        1942 12.68         6.7 0.50            119            233 235 
 CHI  HZ EP       1941 41.18                             117    0.23 8  247 195 
 CHI  HE ES       1942 10.58                             117    0.37 8  247 195 
 CHI  HZ I        1942 17.58         5.8 0.44            118            247 195 
 GUY2CHZ EP   4   1941 48.51                             112    1.66 0  300 235 
 GUY2CHE ES   4   1942 22.64                             112    1.92 0  300 235 
 GUY2CHZ I        1942 29.62         7.3 0.40                           300 235 
 SOCV BZ EP       1941 45.84                             112   -0.78 7  303  57 
 SOCV BE ES   4   1942 17.40                             112   -2.90 0  303  57 
 SJC  HZ EP   4   1941 57.19                             106   -1.85 0  410 327 
 SJC  HN ES   4   1942 38.04                             106   -4.36 0  410 327 
                                                                                
