 2013  3 7 1745 11.9 L   6.833 -73.165142.0  RSN 14 0.5 2.7LRSN                1
 GAP= 69        1.29       3.3     4.1  6.8  0.5034E+00  0.7365E+01 -0.7451E+00E
 Epicentro: LOS SANTOS - SANTANDER                                             3
 ACTION:UPD 13-04-09 14:00 OP:ep   STATUS:               ID:20130307174511 L   I
 2013-03-07-1740-00M.COL___231                                                 6
 STAT SP IPHASW D HRMM SECON CODA AMPLIT PERI AZIMU VELO AIN AR TRES W  DIS CAZ7
 BAR2 SZ EP       1745 31.21                             169    0.0310 26.7 184 
 BAR2 SZ ES       1745 46.27                             169    0.0810 26.7 184 
 BAR2 SZ I        1745 47.32        92.9 0.20            167           26.7 184 
 BRR  HZ EP       1745 33.11                             153    0.6510 67.6 297 
 BRR  HN I        1745 53.66        81.7 0.48            145           67.6 297 
 PAM  SZ IP     C 1745 34.19                             151    0.5310 76.0  43 
 PAM  SN ES       1745 50.90                             151    0.2910 76.0  43 
 PAM  SE I        1745 52.77        80.3 0.52            150           76.0  43 
 RUS  HZ EP       1745 35.23                             142   -0.3610  104 175 
 RUS  HE ES       1745 54.08                             142    0.0210  104 175 
 PTB  HZ EP       1745 38.09                             131   -0.37 9  146 257 
 PTB  HN ES       1745 58.74                             131   -0.42 9  146 257 
 OCA  HZ EP       1745 40.32                             130    0.75 9  156 354 
 OCA  HN ES       1746  0.48                             130   -0.66 9  156 354 
 OCA  HE I        1746  8.01       119.4 0.26            125            156 354 
 TAM  HZ IP     D 1745 39.61                             129    0.01 9  158 106 
 TAM  HE ES       1746  1.07                             129   -0.11 9  158 106 
 ZAR  HZ EP       1745 44.11                             122    0.33 9  201 291 
 ZAR  HN ES       1746  9.41                             122    0.79 9  201 291 
 ZAR  HE I        1746 16.42        93.0 0.18            117            201 291 
 CTAU SZ EP   9   1745 48.49                             122    3.62 0  205 208 
 CTAU SZ ES   1   1746 14.95                                    0.76 6  205 208 
 SML  HZ EP       1745 47.56                             117   -0.32 8  239 335 
 SML  HN ES       1746 14.54                             117   -1.38 8  239 335 
 CHI  HZ EP       1745 49.42                             116   -0.33 8  252 194 
 CHI  HN ES       1746 18.52                             116   -0.73 8  252 194 
 CHI  HE I        1746 21.95        24.8 0.42            113            252 194 
 ROSC BZ EP   4   1745 51.59                             116    1.52 0  255 210 
 HEL  HZ EP       1745 52.94                             114    1.12 8  271 255 
 HEL  HN I        1746 29.44        25.9 0.42            110            271 255 
 COD  HZ EP       1745 59.23                             108   -0.47 7  344 355 
 PRA  HZ EP       1746  5.58                             106    0.01 6  394 209 
 PRA  HZ I        1746  8.12         7.4 0.36            103            394 209 
 PRA  HN ES       1746 47.20                             106   -0.22 6  394 209 
                                                                                
