 2016  9 7 1215 31.7 L   6.806 -73.180142.9  RSN 25 0.4 2.8LRSN                1
 GAP=116        0.99       2.2     3.2  4.8 -0.1755E+01  0.5306E+01 -0.5692E+00E
 Epicentro: ZAPATOCA - SANTANDER                                               3
 ACTION:UPD 17-08-17 21:07 OP:lp   STATUS:               ID:20160907121531 L   I
 OLDACT:UP  16-09-07 23:12 OP:lv   STATUS:               ID:20160907120736     3
 OLDACT:REG 16-09-07 20:12 OP:lv   STATUS:               ID:20160907120736     3
 2016-09-07-1208-00M.COL___361                                                 6
 STAT SP IPHASW D HRMM SECON CODA AMPLIT PERI AZIMU VELO AIN AR TRES W  DIS CAZ7
 BAR2 EZ IP     D 1215 50.90                             170   -0.0810 23.6 180 
 BAR2 EZ ES       1216  6.20                             170    0.1710 23.6 180 
 BAR2 EZ I        1216  7.01       251.3 0.26            169           23.6 180 
 BRR  HZ IP     C 1215 52.70                             153    0.3810 67.5 300 
 BRR  HN ES   4   1216  9.87                             153    1.45 0 67.5 300 
 BRR  HZ I        1216 13.78       132.2 0.30            150           67.5 300 
 PAM  EZ EP       1215 53.69                             150   -0.0310 79.4  42 
 PAM  EE ES       1216 11.08                             150    0.1710 79.4  42 
 PAM  EZ I        1216 13.35       121.1 0.50            155           79.4  42 
 RUS  HZ EP       1215 54.87                             143   -0.3610  102 174 
 RUS  HN ES       1216 13.64                             143    0.0510  102 174 
 RUS  HZ I        1216 14.98        61.8 0.25            146            102 174 
 PTB  HZ EP       1215 57.85                             132   -0.24 9  144 258 
 PTB  HN ES       1216 18.62                             132   -0.06 9  144 258 
 PTB  HZ I        1216 25.34        56.8 0.13            131            144 258 
 OCA  HZ EP       1215 58.97                             129   -0.71 9  159 354 
 OCA  HE ES       1216 20.78                             129   -0.73 9  159 354 
 OCA  HZ I        1216 24.22       133.4 0.26            131            159 354 
 SPBC HZ EP       1215 59.80                             129    0.02 9  161 218 
 SPBC HN ES       1216 22.19                             129    0.49 9  161 218 
 SPBC HZ I        1216 26.80       107.1 0.11            129            161 218 
 ZAR  HZ EP       1216  3.50                             122   -0.05 9  200 292 
 ZAR  HN ES       1216 28.82                             122    0.41 9  200 292 
 ZAR  HZ I        1216 34.31        56.7 0.26            122            200 292 
 NOR  HZ EP       1216  7.00                             118    0.05 8  232 234 
 NOR  HE ES       1216 34.81                             118    0.35 8  232 234 
 NOR  HZ I        1216 42.73        49.9 0.14            119            232 234 
 CHI  HZ EP       1216  9.12                             117   -0.06 8  248 194 
 CHI  HN ES       1216 38.42                             117   -0.01 8  248 194 
 CHI  HZ I        1216 42.18        47.2 0.61            118            248 194 
 ROSC BZ EP       1216  9.47                             116   -0.02 8  251 210 
 ROSC BN ES       1216 38.38                             116   -0.60 8  251 210 
 ROSC BZ I        1216 45.56       104.2 0.45            118            251 210 
 HEL  HZ EP   4   1216 12.78                             114    1.42 0  268 255 
 HEL  HN ES       1216 42.12                             114   -0.18 8  268 255 
 HEL  HZ I        1216 49.13        23.5 0.22            115            268 255 
 URE  HZ EP       1216 11.43                             113   -0.76 7  280 292 
 URE  HE ES   4   1216 42.64                             113   -1.14 0  280 292 
 URE  HZ I        1216 54.82        37.2 0.20            114            280 292 
 GUY2CHZ EP   4   1216 16.01                             112    1.16 0  298 234 
 GUY2CHN ES       1216 48.42                             112   -0.09 7  298 234 
 GUY2CHZ I        1216 57.17        37.4 0.32                           298 234 
 VIL  EZ EP       1216 14.84                             111   -0.12 7  303 191 
 VIL  EE ES       1216 49.04                             111    0.33 7  303 191 
 VIL  EZ I        1216 51.60        72.2 0.36            113            303 191 
 LL1C HZ EP       1216 16.24                             111    1.22 7  305 352 
 LL1C HN ES   4   1216 52.90                             111    4.08 0  305 352 
 PTGC HZ EP   9   1216 13.99                             111   -1.65 0  311 158 
 PTGC HN ES       1216 47.65                                   -0.63 7  311 158 
 PTGC HZ I        1216 53.36        23.1 0.21            114            311 158 
 ELA  HZ EP   9   1216 19.71                             110    1.58 0  327 229 
 ELA  HN ES       1216 56.13                                    0.19 7  327 229 
 ELA  HZ I        1217  3.61        31.0 0.52            111            327 229 
 CBOC HZ EP       1216 18.73                             110    0.65 7  330 252 
 CBOC HN ES       1216 53.69                             110   -0.58 7  330 252 
 CBOC HZ I        1217  3.36         9.5 0.37            110            330 252 
 ANIL HZ EP   4   1216 23.78                             108    2.66 0  355 224 
 ANIL HN ES       1216 59.90                             108    0.22 6  355 224 
 ARGC HZ EP       1216 21.15                             108    0.13 6  357 341 
 ARGC HE ES       1217  0.53                             108    1.04 6  357 341 
 ARGC HZ I        1217  7.63        11.9 0.23            109            357 341 
 PAL  HZ EP       1216 26.45                             105    0.05 6  403 239 
 PAL  HE ES       1217  8.77                             105   -0.31 6  403 239 
 PAL  HZ I        1217 13.43         9.0 0.24            107            403 239 
 SJC  HZ EP   9   1216 24.52                             105   -2.33 0  407 327 
 SJC  HN ES       1217  6.07                                   -1.48 6  407 327 
 SJC  HZ I        1217 14.06         9.6 0.27            107            407 327 
 CRJC HZ EP   4   1216 31.31                             103   -2.75 0  467   4 
 CRJC HE ES   4   1217 18.83                             103   -3.89 0  467   4 
 CRJC HZ I        1217 20.94        21.9 0.18            105            467   4 
 SMAR HZ EP   4   1216 36.14                             102   -1.16 0  495 347 
 SMAR HN ES   4   1217 24.18                             102   -4.30 0  495 347 
 MACC HZ EP   4   1216 38.32                             101   -2.01 0  521 188 
 MACC HE ES   4   1217 28.81                             101   -5.06 0  521 188 
 MACC HZ I        1217 34.30         6.3 0.26            103            521 188 
 URI  HZ EP   4   1216 41.55                             100   -3.11 0  557  13 
 URI  HE ES   4   1217 38.92                             100   -2.66 0  557  13 
                                                                                
