 2010 11 7 1252 50.2 L   6.776 -73.082144.0  RSN  5 0.2 1.6LRSN                1
 GAP=166        0.46       3.3     7.4  5.5 -0.1542E+01 -0.1154E+02 -0.4939E+01E
 Epicentro: LOS SANTOS - SANTANDER                                             3
 ACTION:UP  10-12-17 16:50 OP:REBC STATUS:               ID:20101107125250 L   I
 2010-11-07-1250-38S.COL___128                                                 6
 STAT SP IPHASW D HRMM SECON CODA AMPLIT PERI AZIMU VELO SNR AR TRES W  DIS CAZ7
 BAR2 SZ EP       1253  9.62                             170     0.010   23 209 
 BAR2 SZ ES   1   1253 24.45                             170    -0.3 7   23 209 
 BAR2 SZ I        1253 27.76        14.8 0.37                            23 209 
 BRR  HZ EP   1   1253 11.48                             150    -0.1 7   79 298 
 BRR  HE ES   2   1253 28.49                             150     0.2 5   79 298 
 BRR  HZ I        1253 32.22         9.7 0.12                            79 298 
 RUS  HZ EP   1   1253 13.54                             144     0.0 7   98 180 
 RUS  HN ES   2   1253 32.10                             144     0.3 5   98 180 
 RUS  HZ I        1253 33.98         5.6 0.56                            98 180 
 GUE  SZ EP       1253 14.98                             138     0.110  118   8 
 GRA  SZ EP   2   1253 15.01                             136    -0.3 5  126  14 
 GRA  SZ ES   2   1253 35.10                             136     0.2 5  126  14 
 GRA  SZ I        1253 36.62         3.7 0.09                           126  14 
                                                                                
