 2016  9 7 1318 26.4 L   5.854 -73.913106.4  RSN  7 0.3 1.4LRSN                1
 GAP=131        0.89       4.5     2.9  6.3 -0.5710E+01  0.2235E+01 -0.8661E+00E
 Epicentro: LA BELLEZA - SANTANDER                                             3
 ACTION:UPD 17-08-17 21:07 OP:lp   STATUS:               ID:20160907131826 L   I
 OLDACT:REG 16-09-07 20:14 OP:lv   STATUS:               ID:20160907130735     3
 2016-09-07-1308-00M.COL___364                                                 6
 STAT SP IPHASW D HRMM SECON CODA AMPLIT PERI AZIMU VELO AIN AR TRES W  DIS CAZ7
 SPBC HZ EP       1318 41.32                             164    0.0610 28.5 218 
 SPBC HE ES       1318 53.12                             164    0.2710 28.5 218 
 SPBC HZ I        1318 53.76        24.2 0.16            167           28.5 218 
 RUS  HZ EP       1318 45.65                             136   -0.1310 91.9  87 
 RUS  HN ES       1319  0.61                             136   -0.2910 91.9  87 
 RUS  HZ I        1319  3.51         1.7 0.21            138           91.9  87 
 PTB  HZ EP       1318 44.91                             134   -0.6310 96.7 322 
 PTB  HN ES       1319  0.67                             134    0.2010 96.7 322 
 PTB  HZ I        1319  2.45         6.7 0.10            135           96.7 322 
 NOR  HZ EP       1318 46.69                             130   -0.1610  111 253 
 NOR  HN ES       1319  2.46                             130   -0.3510  111 253 
 NOR  HZ I        1319  4.54         7.7 0.22            132            111 253 
 BAR2 EZ EP       1318 47.74                             129    0.2510  115  45 
 BAR2 EZ ES       1319  4.14                             129    0.2010  115  45 
 BAR2 EZ I        1319  6.67        11.1 0.15            130            115  45 
 GUY2CHZ EP       1318 54.76                             117    0.73 9  175 247 
 GUY2CHE ES       1319 15.58                             117   -0.01 9  175 247 
 GUY2CHZ I        1319 20.98         1.7 0.19                           175 247 
 ZAR  HZ EP   4   1318 52.67                             112   -4.53 0  209 330 
 ZAR  HE ES   4   1319 21.93                             112    0.70 0  209 330 
 ZAR  HZ I        1319 23.86         2.3 0.10            113            209 330 
                                                                                
