 2010  1 7 1606 28.4 L   6.786 -73.038151.3  RSN  7 0.4 2.3LRSN                1
 GAP=171        0.76       3.8     7.4  9.4 -0.1164E+02  0.3539E+02 -0.3994E+01E
 Epicentro: CEPITA - SANTANDER                                                 3
 ACTION:UP  10-08-24 09:43 OP:vdl  STATUS:               ID:20100107160628 L   I
 2010-01-07-1602-44S.COL___097                                                 6
 STAT SP IPHASW D HRMM SECON CODA AMPLIT PERI AZIMU VELO SNR AR TRES W  DIS CAZ7
 BAR2 SZ IP       16 6 48.72                             170    -0.110   27 217 
 RUS  BZ EP   1   16 6 52.76                             145     0.2 7   99 183 
 RUS  BE ES   1   16 7 11.28                             145    -0.2 7   99 183 
 GRA  SZ IP       16 6 54.46                             138     0.410  124  12 
 GRA  SZ ES   1   16 7 13.72                             138    -0.3 7  124  12 
 CHI  HZ EP   1   16 7  6.52                             118    -0.1 6  251 198 
 CHI  HN ES   1   16 7 36.42                             118     0.0 6  251 198 
 CHI  HZ I        16 7 44.21         7.8 0.42                           251 198 
 HEL  HN ES   1   16 7 43.35                             115     0.6 6  283 257 
 HEL  HZ I        16 7 47.07         8.5 0.24                           283 257 
 DBB  SZ IP       16 7 16.71                             109    -0.8 6  351 274 
 PRA  HZ EP   1   16 7 23.01                             107     0.3 4  397 211 
 PRA  HN ES   1   16 8  4.97                             107     0.0 4  397 211 
 PRA  HZ I        16 8  9.44         9.1 0.59                           397 211 
                                                                                
