 2015  1 7 1049 58.0 L   6.802 -73.264154.9  RSN  4 0.4 1.8LRSN                1
 GAP=260        0.95       7.6    11.2 13.4 -0.5696E+02 -0.4658E+02  0.1313E+02E
 Epicentro: ZAPATOCA - SANTANDER                                               3
 ACTION:UPD 15-03-02 15:37 OP:nd   STATUS:               ID:20150107104958 L   I
 OLDACT:UP  15-01-07 22:53 OP:mh   STATUS:               ID:20150107104750     3
 OLDACT:UP  15-01-07 22:52 OP:mh   STATUS:               ID:20150107104750     3
 OLDACT:REG 15-01-07 20:30 OP:mh   STATUS:               ID:20150107104750     3
 2015-01-07-1047-50M.COL___277                                                 6
 STAT SP IPHASW D HRMM SECON CODA AMPLIT PERI AZIMU VELO AIN AR TRES W  DIS CAZ7
 PTB  HZ EP   1   1050 24.67                             137    0.07 7  135 258 
 PTB  HN ES       1050 45.00                             137   -0.3810  135 258 
 OCA  HN ES       1050 49.80                             132    0.3510  159 358 
 ZAR  HZ EP   1   1050 30.35                             126    0.53 7  192 294 
 ZAR  HN ES       1050 55.16                             126    0.51 9  192 294 
 SML  HZ EP       1050 34.32                             120   -0.23 8  238 338 
 SML  HN ES       1051  2.39                             120   -0.70 8  238 338 
 SML  HZ I        1051 10.50         4.4 0.10            116            238 338 
                                                                                
