 2015  5 7 1334 50.4 L   6.790 -73.116143.8  RSN 22 0.6 2.6LRSN                1
 GAP= 54        1.28       3.1     3.3  5.3 -0.2314E+01  0.3137E+01  0.1645E+01E
 Epicentro: LOS SANTOS - SANTANDER                                             3
 ACTION:UPD 15-09-10 22:02 OP:cam  STATUS:               ID:20150507133450 L   I
 OLDACT:REG 15-05-07 22:41 OP:stll STATUS:               ID:20150507132748     3
 2015-05-07-1327-48M.COL___282                                                 6
 STAT SP IPHASW D HRMM SECON CODA AMPLIT PERI AZIMU VELO AIN AR TRES W  DIS CAZ7
 BAR2 EZ EP     C 1335  9.93                             171    0.1110 23.0 198 
 BAR2 EZ ES       1335 24.53                             171   -0.4210 23.0 198 
 BAR2 EZ I        1335 25.81        85.5 0.16            169           23.0 198 
 BRR  HZ IP     D 1335 11.98                             151    0.4110 74.6 298 
 BRR  HE ES       1335 28.93                             151    0.8810 74.6 298 
 BRR  HZ I        1335 33.57        65.4 0.12            145           74.6 298 
 PAM  SZ EP     D 1335 12.92                             151    0.5510 76.3  37 
 PAM  SZ I        1335 13.19        96.5 0.30            150           76.3  37 
 PAM  SN ES       1335 29.60                             151    0.1110 76.3  37 
 RUS  HZ EP       1335 13.80                             144   -0.1010 99.3 178 
 RUS  HN ES       1335 31.61                             144   -0.5910 99.3 178 
 RUS  HZ I        1335 32.84        42.0 0.38            144           99.3 178 
 TAM  HZ IP     C 1335 18.22                             130    0.58 9  152 105 
 TAM  HE ES       1335 39.02                             130    0.16 9  152 105 
 OCA  HZ EP       1335 18.43                             129   -0.31 9  162 352 
 OCA  HN ES       1335 40.30                             129   -0.52 9  162 352 
 OCA  HZ I        1335 42.24        82.9 0.30            126            162 352 
 SPBC HZ EP       1335 18.91                             128    0.02 9  164 220 
 SPBC HN ES       1335 40.57                             128   -0.52 9  164 220 
 SPBC HZ I        1335 45.16        43.8 0.38            126            164 220 
 ZAR  HZ EP       1335 23.44                             121    0.34 8  207 292 
 ZAR  HN ES       1335 48.54                             121   -0.05 8  207 292 
 ZAR  HZ I        1335 56.72        45.7 0.30            118            207 292 
 NOR  HZ EP       1335 26.08                             118   -0.18 8  237 235 
 NOR  HN ES       1335 53.88                             118   -0.33 8  237 235 
 NOR  HZ I        1335 59.33        26.0 0.16            116            237 235 
 SML  HZ EP       1335 26.75                             117   -0.46 8  246 335 
 SML  HZ I        1335 59.80        66.7 0.26            114            246 335 
 CHI  HZ EP       1335 27.97                             117   -0.02 8  248 196 
 CHI  HN ES       1335 56.90                             117   -0.40 8  248 196 
 CHI  HZ I        1336  0.15        12.3 0.38            116            248 196 
 HEL  HZ EP       1335 31.96                             114    1.10 8  275 256 
 HEL  HN ES       1336  2.01                             114   -0.39 8  275 256 
 HEL  HZ I        1336  8.57         8.8 0.50            112            275 256 
 SOCV BZ EP       1335 32.86                             112   -0.29 7  299  56 
 GUY2CHZ EP       1335 34.59                             112    0.42 7  303 235 
 GUY2CHN ES       1336  7.95                             112   -0.34 7  303 235 
 GUY2CHZ I        1336 18.76        14.0 0.54                           303 235 
 PTGC HZ IP     D 1335 33.00                             111   -0.95 7  306 159 
 PTGC HZ I        1335 33.51        61.6 0.16            111            306 159 
 RREF HZ EP       1335 37.44                             110    0.76 7  323 230 
 RREF HN ES       1336 11.92                             110   -0.84 7  323 230 
 RREF HZ I        1336 21.30         5.8 0.36            109            323 230 
 CBOC HZ EP   1   1335 38.09                             109    0.51 5  336 252 
 CBOC HZ I        1335 39.66         9.5 0.16            108            336 252 
 MON  HZ EP   9   1335 37.83                             108   -1.90 0  357 308 
 MON  HE ES       1336 14.90                                   -1.39 6  357 308 
 MON  HZ I        1336 18.98         7.3 0.26            106            357 308 
 SDV  BZ IP     C 1335 39.86                             108   -0.33 6  359  50 
 SDV  BZ I        1335 40.51        12.8 0.15            107            359  50 
 ANIL HZ EP       1335 41.62                             108    1.29 6  359 225 
 ANIL HE ES       1336 19.92                             108    0.67 6  359 225 
 ANIL HZ I        1336 26.66        27.1 0.46            107            359 225 
 ORTC HZ EP       1335 44.45                             106    0.05 6  396 217 
 ORTC HN ES       1336 27.06                             106    0.56 6  396 217 
 ORTC HZ I        1336 33.66         8.4 0.46            105            396 217 
 SJC  HZ EP       1335 44.36                             105   -1.89 6  412 327 
 SJC  HZ I        1335 45.02        10.9 0.12            104            412 327 
 SJC  HN ES   4   1336 25.67                             105   -4.12 0  412 327 
                                                                                
