 2017  5 7 1017 31.5 L   6.801 -73.087147.1  RSN  4 0.3 1.2LRSN                1
 GAP=144        0.70       3.8     5.1  6.3 -0.1454E+01 -0.8665E+01  0.2572E+01E
 Epicentro: LOS SANTOS - SANTANDER                                             3
 ACTION:UPD 17-06-16 13:33 OP:jn   STATUS:               ID:20170507101731 L   I
 OLDACT:UP  17-05-07 20:24 OP:and  STATUS:               ID:20170507100152d    3
 OLDACT:DUP 17-05-07 20:22 OP:and  STATUS:               ID:20170507100152d    3
 2017-05-07-1008-00M.COL___364                                                 6
 STAT SP IPHASW D HRMM SECON CODA AMPLIT PERI AZIMU VELO AIN AR TRES W  DIS CAZ7
 PAM  EZ IP     C 1017 53.90                             152    0.3210 73.3  36 
 PAM  EN ES       1018 10.66                             152   -0.1710 73.3  36 
 PAM  EZ I        1018 12.87         3.2 0.52            153           73.3  36 
 BRR  HZ EP       1017 52.63                             151   -0.4510 76.9 296 
 BRR  HN ES       1018 10.18                             151    0.2410 76.9 296 
 RUS  HZ EP       1017 55.45                             144    0.1210  100 180 
 RUS  HN ES       1018 13.88                             144   -0.0710  100 180 
 RUS  HZ I        1018 15.24         2.1 0.42            145            100 180 
 PTB  HZ EP   9   1017 57.32                             131   -1.79 0  154 259 
 PTB  HN ES       1018 18.69                             133   -0.20 9  154 259 
 PTB  HZ I        1018 21.49         1.8 0.24            133            154 259 
 NOR  HN ES   4   1018 36.17                             118   -0.04 0  240 235 
                                                                                
