 2010 11 7 1033 34.4 L   6.775 -73.109148.8  RSN  7 0.3 1.6LRSN                1
 GAP=163        0.44       3.2     5.1  5.2 -0.4350E+01 -0.1668E+01  0.1823E+01E
 Epicentro: LOS SANTOS - SANTANDER                                             3
 ACTION:UP  10-12-17 16:50 OP:REBC STATUS:               ID:20101107103334 L   I
 2010-11-07-1030-24S.COL___128                                                 6
 STAT SP IPHASW D HRMM SECON CODA AMPLIT PERI AZIMU VELO SNR AR TRES W  DIS CAZ7
 BAR2 SZ EP   2   1033 54.31                             171    -0.1 5   22 202 
 BAR2 SZ I        1034  3.49        16.3 0.73                            22 202 
 BAR2 SZ ES   2   1034 10.28                             171     0.3 5   22 202 
 BRR  HZ EP   1   1033 56.32                             151     0.1 7   76 299 
 BRR  HN ES   1   1034 12.99                             151    -0.2 7   76 299 
 BRR  HZ I        1034 15.67         8.1 0.13                            76 299 
 RUS  HZ EP   2   1033 58.26                             145     0.0 5   98 178 
 RUS  HE ES   2   1034 16.70                             145    -0.2 5   98 178 
 RUS  HZ I        1034 18.75         4.2 0.30                            98 178 
 GRA  SZ EP   2   1034  0.00                             137    -0.1 5  127  15 
 GRA  SZ ES   2   1034 20.16                             137     0.1 5  127  15 
 GRA  SZ I        1034 20.90         5.7 0.56                           127  15 
 OCA  SZ EP   2   1034  3.08                             130    -0.2 5  164 352 
 OCA  SZ I        1034 30.32         5.4 0.41                           164 352 
 NOR  SN ES   2   1034 39.03                             119     0.3 4  237 236 
 PRA  HZ EP   2   1034 28.60                             107     0.6 3  392 210 
 PRA  HN ES   2   1035  8.97                             107    -0.8 3  392 210 
                                                                                
