 2012  9 7 1850  1.0 L   6.786 -73.170146.0  RSN  7 0.3 2.0LRSN                1
 GAP=134        0.51       3.3     3.1  5.3 -0.1080E+01  0.4220E+01 -0.6743E+00E
 Epicentro: LOS SANTOS - SANTANDER                                             3
 ACTION:UPD 12-10-22 14:17 OP:ep   STATUS:               ID:20120907185001 L   I
 2012-09-07-1850-00M.COL___227                                                 6
 STAT SP IPHASW D HRMM SECON CODA AMPLIT PERI AZIMU VELO AIN AR TRES W  DIS CAZ7
 BAR2 SZ EP       1850 20.55                             171   -0.0310 21.5 184 
 BAR2 SZ ES   2   1850 35.56                             171   -0.32 5 21.5 184 
 GIR2 SZ EP   3   1850 21.54                             167    0.85 2 32.5 355 
 GIR2 SZ ES   3   1850 36.56                             167    0.48 2 32.5 355 
 BRR  HZ EP       1850 22.29                             153    0.2510 69.6 301 
 BRR  HE ES   3   1850 39.85                             153    1.36 2 69.6 301 
 BRR  HN I        1850 40.71        44.6 0.24                          69.6 301 
 PAM  SZ EP       1850 23.29                             150   -0.0810 80.3  40 
 PAM  SN ES   1   1850 40.69                             150   -0.17 7 80.3  40 
 PAM  SN I        1850 42.04         8.8 0.38                          80.3  40 
 RUS  HZ EP       1850 24.83                             144    0.1910 99.3 174 
 RUS  HN ES   1   1850 43.04                             144   -0.07 7 99.3 174 
 PTB  HZ EP       1850 27.41                             133   -0.27 9  145 259 
 PTB  HN ES   1   1850 48.46                             133   -0.06 7  145 259 
 PTB  HN I        1850 54.61         9.5 0.34                           145 259 
 ZAR  HE ES   2   1850 58.27                             123   -0.11 4  202 293 
                                                                                
