 2011  1 7 1029  6.0 L   7.377 -73.179128.0  RSN  4 0.2 1.6LRSN                1
 GAP=144        0.46       3.9     7.4  7.3 -0.1464E+02  0.2273E+02  0.1888E+01E
 Epicentro: EL PLAYON - SANTANDER                                              3
 ACTION:UP  11-02-08 08:39 OP:pat  STATUS:               ID:20110107102906 L   I
 2011-01-07-1027-17S.COL___135                                                 6
 STAT SP IPHASW D HRMM SECON CODA AMPLIT PERI AZIMU VELO SNR AR TRES W  DIS CAZ7
 GRA  SZ IP       1029 25.54                             150     0.110   70  36 
 GRA  SZ ES   1   1029 40.48                             150    -0.1 7   70  36 
 GRA  SZ I        1029 41.35        13.6 0.32                            70  36 
 BAR2 SZ EP   2   1029 26.82                             144     0.1 5   87 180 
 BAR2 SZ ES   2   1029 42.72                             144    -0.1 5   87 180 
 BAR2 SZ I        1029 44.43         9.1 0.11                            87 180 
 OCA  SZ EP   2   1029 26.74                             141    -0.6 5   97 351 
 OCA  SZ ES   2   1029 44.16                             141     0.3 5   97 351 
 OCA  SZ I        1029 45.19         4.5 0.08                            97 351 
 NOR  SZ EP   2   1029 45.46                             111     0.2 4  274 223 
 NOR  SE ES   2   1030 15.76                             111    -0.1 4  274 223 
                                                                                
