 2010 11 7 1226 27.4 L   6.819 -73.130145.8  RSN  8 0.3 1.7LRSN                1
 GAP=160        0.57       3.4     7.0  6.6 -0.7877E+01  0.4191E+01  0.1254E+01E
 Epicentro: LOS SANTOS - SANTANDER                                             3
 ACTION:UP  10-12-17 16:50 OP:REBC STATUS:               ID:20101107122627 L   I
 2010-11-07-1222-33S.COL___128                                                 6
 STAT SP IPHASW D HRMM SECON CODA AMPLIT PERI AZIMU VELO SNR AR TRES W  DIS CAZ7
 BAR2 SZ EP   1   1226 47.00                             169    -0.1 7   26 193 
 BAR2 SZ I        1226 51.88        14.3 0.52                            26 193 
 BAR2 SZ ES   2   1227  1.81                             169    -0.6 5   26 193 
 BRR  HZ EP   1   1226 48.74                             152     0.2 7   72 296 
 BRR  HE ES   2   1227  5.28                             152     0.2 5   72 296 
 BRR  HZ I        1227 11.81        13.1 0.47                            72 296 
 RUS  HZ EP   1   1226 51.20                             143    -0.1 7  103 177 
 RUS  HN ES   2   1227 10.27                             143     0.4 5  103 177 
 RUS  HZ I        1227 10.96         2.9 0.15                           103 177 
 GUE  SZ EP   1   1226 52.19                             140     0.3 7  114  11 
 GRA  SZ EP   2   1226 52.15                             137    -0.3 5  123  17 
 GRA  SZ ES   2   1227 11.93                             137     0.0 5  123  17 
 GRA  SZ I        1227 14.79         7.5 0.41                           123  17 
 OCA  SZ EP   2   1226 54.68                             130    -0.8 5  158 352 
 OCA  SZ ES   2   1227 17.76                             130     0.3 5  158 352 
 OCA  SZ I        1227 22.51         5.9 0.34                           158 352 
 RREF HZ EP   2   1227 14.00                             111     0.2 3  324 229 
 RREF HE ES   2   1227 49.53                             111    -0.5 3  324 229 
 RREF HZ I        1227 58.74         3.4 0.31                           324 229 
 PRA  HZ EP   2   1227 21.67                             106     0.5 3  395 210 
 PRA  HE ES   2   1228  3.31                             106     0.1 3  395 210 
                                                                                
