 2011  5 7 1742 36.8 L   6.144 -73.741101.1  RSN 11 0.3 2.0LRSN                1
 GAP= 94        0.64       3.0     2.7  5.5 -0.4320E+01  0.4782E+01 -0.1553E+01E
 Epicentro: LANDAZURI - SANTANDER                                              3
 ACTION:UP  11-06-29 08:51 OP:tino STATUS:               ID:20110507174236 L   I
 2011-05-07-1739-19S.COL___132                                                 6
 STAT SP IPHASW D HRMM SECON CODA AMPLIT PERI AZIMU VELO SNR AR TRES W  DIS CAZ7
 RUS  HZ EP   1   1742 54.83                             139     0.3 7   78 111 
 RUS  HN ES   1   1743  8.07                             139    -0.3 7   78 111 
 RUS  HZ I        1743  9.68         9.9 0.39                            78 111 
 BAR2 SZ EP       1742 54.58                             139     0.310   79  51 
 BAR2 SZ ES   1   1743  8.18                             139     0.2 7   79  51 
 BAR2 SZ I        1743 10.00        96.3 0.31                            79  51 
 BTL  SZ EP   1   1742 56.24                             131     0.1 7  100  31 
 BRR  HZ EP   1   1742 56.14                             129    -0.2 7  107   2 
 BRR  HN ES   1   1743 11.47                             129    -0.2 7  107   2 
 BRR  HZ I        1743 18.80        26.1 0.12                           107   2 
 NOR  SZ EP   1   1742 59.76                             121    -0.1 7  140 243 
 NOR  SE ES       1743 17.85                             121     0.0 9  140 243 
 HEL  HZ EP   1   1743  6.92                             111     0.4 6  198 272 
 HEL  HN ES   1   1743 29.55                             111    -0.2 6  198 272 
 HEL  HZ I        1743 34.68         6.9 0.31                           198 272 
 BRI  SZ EP   1   1743  6.69                             111    -0.2 6  203  31 
 GRA  SZ EP       1743  8.69                             109     0.0 8  219  28 
 GRA  SZ ES   1   1743 33.26                             109    -0.2 6  219  28 
 GRA  SZ I        1743 38.45        12.1 0.28                           219  28 
 RREF HZ EP   1   1743 10.16                             108     0.2 6  225 232 
 RREF HZ I        1743 41.53         9.5 0.27                           225 232 
 TOL  SZ EP   1   1743 12.39                             106     0.4 6  246 226 
 PRA  HZ EP   1   1743 16.90                             102    -0.9 5  297 205 
                                                                                
