 2017 10 7 1435 19.6 L   6.787 -73.006152.0  RSN  5 0.4 1.6LRSN                1
 GAP=156        0.79       4.5     5.4  7.2  0.1245E+01  0.2163E+02  0.6895E+01E
 Epicentro: CEPITA - SANTANDER                                                 3
 ACTION:UPD 17-11-07 19:29 OP:rebc STATUS:               ID:20171007143519 L   I
 OLDACT:REG 17-10-07 20:27 OP:osc  STATUS:               ID:20171007142740     3
 2017-10-07-1428-00M.COL___441                                                 6
 STAT SP IPHASW D HRMM SECON CODA AMPLIT PERI AZIMU VELO AIN AR TRES W  DIS CAZ7
 BAR2 HZ EP       1435 39.86                             169   -0.2010 29.1 222 
 BAR2 HZ ES       1435 55.54                             169   -0.5210 29.1 222 
 BAR2 HZ I        1435 57.69         9.2 0.40            166           29.1 222 
 PAM  EN ES       1435 59.95                             154    0.4010 69.8  29 
 RUS  HZ EP       1435 43.81                             145   -0.0310 99.3 185 
 RUS  HN ES       1436  2.96                             145    0.1910 99.3 185 
 RUS  HZ I        1436  4.87         3.5 0.42            147           99.3 185 
 ZAR  HZ EP   3   1435 52.78                             122   -1.17 2  219 291 
 ZAR  HN ES       1436 20.74                             122   -0.03 8  219 291 
 ZAR  HZ I        1436 25.78         5.6 0.14            122            219 291 
 GUY2CHZ EP       1436  4.66                             112   -0.14 7  313 237 
 GUY2CHE ES       1436 40.71                             112    0.61 7  313 237 
 GUY2CHZ I        1436 45.08         2.3 0.56                           313 237 
                                                                                
