 2013  4 7 1626 19.4 L   6.776 -73.135146.3  RSN 11 0.4 2.4LRSN                1
 GAP=184        0.88       3.2     4.6  5.3  0.1810E+01  0.8178E+01  0.2948E+01E
 Epicentro: LOS SANTOS - SANTANDER                                             3
 ACTION:UPD 13-05-22 14:36 OP:EP   STATUS:               ID:20130407162619 L   I
 2013-04-07-1620-00M.COL___245                                                 6
 STAT SP IPHASW D HRMM SECON CODA AMPLIT PERI AZIMU VELO AIN AR TRES W  DIS CAZ7
 BAR2 SZ EP       1626 39.36                             171    0.2710 21.0 194 
 BAR2 SZ ES       1626 54.40                             171   -0.0110 21.0 194 
 BAR2 SZ I        1626 57.07        89.0 0.42            162           21.0 194 
 GIR2 SZ EP       1626 39.38                             166    0.1310 34.1 349 
 GIR2 SZ ES       1626 54.19                             166   -0.5110 34.1 349 
 GIR2 SZ I        1626 56.51        44.4 0.58            162           34.1 349 
 BRR  HZ EP       1626 41.19                             152    0.4210 73.5 300 
 BRR  HN ES       1626 58.15                             152    0.7410 73.5 300 
 BRR  HZ I        1627  1.66        37.4 0.19            140           73.5 300 
 RUS  HZ EP       1626 43.19                             145    0.1410 97.9 177 
 RUS  HN ES       1627  1.35                             145   -0.1210 97.9 177 
 RUS  HZ I        1627  4.80        19.5 0.38            130           97.9 177 
 PTB  HZ EP   1   1626 46.29                             132   -0.22 7  148 260 
 PTB  HN ES   1   1627  6.94                             132   -0.68 7  148 260 
 PTB  HZ I        1627 13.22        49.9 0.40            117            148 260 
 OCA  HN ES       1627  9.79                             129   -0.57 9  163 353 
 OCA  HZ I        1627 14.52        22.5 0.36            117            163 353 
 ZAR  HE ES       1627 17.85                             122    0.22 8  206 293 
 ZAR  HZ I        1627 24.59        24.6 0.16            109            206 293 
 NOR  HZ EP       1626 55.08                             119   -0.06 8  234 235 
 NOR  HE ES       1627 22.74                             119   -0.24 8  234 235 
 NOR  HZ I        1627 27.07        20.5 0.22            106            234 235 
 SML  HE ES   1   1627 25.19                             117   -0.05 6  247 335 
 HEL  HZ EP   1   1626 59.88                             115    0.15 6  273 256 
 HEL  HZ I        1627 37.64        17.3 0.30            103            273 256 
 PRA  HZ EP       1627 12.38                             107   -0.40 6  390 210 
 PRA  HZ I        1627 58.47         9.4 0.66             96            390 210 
                                                                                
