 2014  1 7 1031 22.5 L   6.793 -73.160141.5  RSN 11 0.5 1.6LRSN                1
 GAP=118        1.27       3.8     4.6  7.0 -0.4022E+01  0.8063E+01 -0.1518E+01E
 Epicentro: LOS SANTOS - SANTANDER                                             3
 ACTION:UPD 14-03-13 09:52 OP:ep   STATUS:               ID:20140107103122 L   I
 OLDACT:REG 14-01-07 14:58 OP:stll STATUS:               ID:20140107102805     3
 2014-01-07-1028-05M.COL___231                                                 6
 STAT SP IPHASW D HRMM SECON CODA AMPLIT PERI AZIMU VELO AIN AR TRES W  DIS CAZ7
 BAR2 SZ IP     D 1031 42.11                             171    0.5210 22.3 186 
 BAR2 SZ ES       1031 56.58                             171    0.1010 22.3 186 
 BAR2 SZ I        1031 58.65        23.0 0.26            169           22.3 186 
 PAM  SZ EP       1031 45.00                             149    0.6510 79.0  40 
 PAM  SZ I        1031 45.13         6.6 0.20            153           79.0  40 
 PAM  SN ES       1032  1.49                             149    0.0810 79.0  40 
 RUS  HZ EP       1031 45.94                             143    0.1710 99.9 175 
 RUS  HZ I        1031 46.88         2.8 0.46            144           99.9 175 
 RUS  HN ES       1032  3.59                             143   -0.3410 99.9 175 
 PTB  HZ EP       1031 48.88                             131   -0.07 9  146 259 
 PTB  HN ES       1032  8.74                             131   -0.86 9  146 259 
 PTB  HZ I        1032 11.63         4.8 0.28            131            146 259 
 SPBC HZ EP       1031 50.81                             128    0.30 9  162 219 
 SPBC HE ES       1032 12.69                             128    0.33 9  162 219 
 SPBC HZ I        1032 20.67         5.3 0.20            128            162 219 
 ZAR  HN ES       1032 19.53                             121   -0.01 9  203 293 
 ZAR  HZ I        1032 25.21         4.6 0.38            122            203 293 
 NOR  HZ EP       1031 58.20                             118    0.42 8  233 234 
 NOR  HE ES       1032 25.59                             118    0.28 8  233 234 
 NOR  HZ I        1032 32.03         2.6 0.26            118            233 234 
 SML  HZ EP       1031 58.90                             116    0.01 8  244 336 
 SML  HN ES       1032 26.82                             116   -0.46 8  244 336 
 SML  HZ I        1032 31.27         4.0 0.10            117            244 336 
 CHI  HZ EP       1031 59.86                             116    0.04 8  247 195 
 CHI  HN ES       1032 27.57                             116   -1.37 8  247 195 
 CHI  HZ I        1032 33.41         2.5 0.82            117            247 195 
 GUY2CHZ EP       1032  6.50                             111    0.80 7  299 235 
 GUY2CHE ES       1032 39.44                             111    0.03 7  299 235 
 SOCV BZ EP       1032  4.26                             111   -1.28 7  303  57 
                                                                                
