 2011  5 7 1859 10.4 L   6.780 -73.127141.9  RSN  6 0.4 1.7LRSN                1
 GAP=140        0.95       6.0    12.8  9.0 -0.3624E+02  0.2333E+02 -0.2775E+01E
 Epicentro: LOS SANTOS - SANTANDER                                             3
 ACTION:UP  11-06-29 08:51 OP:tino STATUS:               ID:20110507185909 L   I
 2011-05-07-1857-43S.COL___131                                                 6
 STAT SP IPHASW D HRMM SECON CODA AMPLIT PERI AZIMU VELO SNR AR TRES W  DIS CAZ7
 BAR2 SZ EP   1   1859 29.47                             171    -0.1 7   22 196 
 BAR2 SZ ES       1859 43.82                             171    -0.710   22 196 
 BAR2 SZ I        1859 47.37        15.1 0.18                            22 196 
 BTL  SZ EP   1   1859 29.65                             171     0.1 7   22 315 
 BTL  SZ ES   1   1859 45.27                             171     0.8 7   22 315 
 BRR  HZ EP   1   1859 31.28                             151    -0.1 7   74 299 
 BRR  HZ I        1859 50.54        15.4 0.13                            74 299 
 PAM  SZ EP   2   1859 32.34                             150     0.1 5   78  37 
 PAM  SN ES       1859 49.42                             150     0.110   78  37 
 RUS  HZ EP   1   1859 33.79                             143     0.2 7   98 177 
 RUS  HN ES   1   1859 52.02                             143     0.3 7   98 177 
 RUS  HZ I        1859 53.50         4.3 0.19                            98 177 
 GRA  SZ ES   1   1859 54.77                             135    -0.2 7  127  16 
 GRA  SZ I        1859 56.22         7.2 0.23                           127  16 
                                                                                
