 2017  9 7 1138 37.9 L   7.032 -73.309117.6  RSN  6 0.2 1.7LRSN                1
 GAP=136        0.63       2.9     2.5  4.9  0.7862E+00  0.4119E+01  0.4230E+01E
 Epicentro: LEBRIJA - SANTANDER                                                3
 ACTION:UPD 17-10-05 19:10 OP:rebc STATUS:               ID:20170907113837 L   I
 OLDACT:DUP 17-09-07 21:28 OP:lv   STATUS:               ID:20170907112746d    3
 2017-09-07-1128-00M.COL___414                                                 6
 STAT SP IPHASW D HRMM SECON CODA AMPLIT PERI AZIMU VELO AIN AR TRES W  DIS CAZ7
 BRR  HZ IP     D 1138 54.29                             157   -0.2610 45.3 281 
 BRR  HE ES       1139  7.74                             157    0.1710 45.3 281 
 BRR  HZ I        1139  8.93        19.5 0.06            159           45.3 281 
 BAR2 EZ IP     D 1138 55.47                             155    0.3110 50.6 164 
 BAR2 EZ I        1139 10.51        40.5 0.30            152           50.6 164 
 PAM  EZ EP       1138 56.80                             146   -0.2210 75.4  63 
 PAM  EZ ES       1139 11.90                             146   -0.0710 75.4  63 
 PAM  EE ES       1139 12.18                             146           75.4  63 
 PAM  EZ I        1139 14.45        11.5 0.23            144           75.4  63 
 RUS  HZ EP       1139  1.34                             129   -0.1010  128 169 
 RUS  HE ES       1139 19.92                             129    0.0910  128 169 
 RUS  HN ES       1139 20.44                             129            128 169 
 RUS  HZ I        1139 21.87         2.7 0.16            127            128 169 
 ZAR  HZ EP       1139  5.97                             119    0.11 9  179 287 
 ZAR  HN ES       1139 27.74                             119    0.03 9  179 287 
 ZAR  HZ I        1139 29.82         9.3 0.22            119            179 287 
 NOR  HZ EP       1139 12.82                             112    0.44 8  237 227 
 NOR  HN ES       1139 38.84                             112   -0.47 8  237 227 
 NOR  HZ I        1139 42.93         3.1 0.24            111            237 227 
                                                                                
