 2015 12 7 1828 55.6 L   6.764 -73.140137.0  RSN  6 0.2 1.9LRSN                1
 GAP=156        0.52       3.0     2.6  3.8 -0.2740E+01  0.3667E+01  0.1529E+01E
 Epicentro: LOS SANTOS - SANTANDER                                             3
 ACTION:UPD 16-02-04 15:03 OP:cam  STATUS:               ID:20151207182855 L   I
 OLDACT:DUP 15-12-08 01:06 OP:ar   STATUS:               ID:20151207181748d    3
 2015-12-07-1817-47M.COL___323                                                 6
 STAT SP IPHASW D HRMM SECON CODA AMPLIT PERI AZIMU VELO AIN AR TRES W  DIS CAZ7
 BAR2 EZ EP       1829 13.93                             171   -0.1810 19.6 194 
 BAR2 EZ ES       1829 28.69                             171    0.1510 19.6 194 
 BAR2 EZ I        1829 29.93        12.8 0.14            171           19.6 194 
 BRR  HZ EP       1829 15.65                             150   -0.3110 73.7 301 
 BRR  HN ES       1829 31.93                             150    0.0910 73.7 301 
 BRR  HZ I        1829 36.11        12.0 0.16            148           73.7 301 
 PAM  EZ EP       1829 16.99                             148   -0.0810 80.1  37 
 PAM  EN ES       1829 33.88                             148    0.0710 80.1  37 
 PAM  EZ I        1829 36.29        10.2 0.54            151           80.1  37 
 ZAR  HZ EP       1829 28.04                             120    0.33 8  206 293 
 ZAR  HN ES       1829 52.64                             120   -0.12 8  206 293 
 ZAR  HZ I        1829 58.47         9.8 0.26            121            206 293 
 NOR  HN ES       1829 57.82                             117   -0.16 8  233 235 
 NOR  HZ I        1830  2.44         6.5 0.20            118            233 235 
 GUY2CHZ EP       1829 39.02                             111    0.40 7  299 235 
 GUY2CHN ES       1830 12.19                             111    0.02 7  299 235 
 GUY2CHZ I        1830 20.65         5.3 0.42                           299 235 
                                                                                
