 2010 11 7 1624  0.2 L   6.805 -73.080135.9  RSN  9 0.3 2.1LRSN                1
 GAP=166        0.70       3.6     6.0  6.3 -0.6523E+01  0.5609E+01 -0.4268E+01E
 Epicentro: LOS SANTOS - SANTANDER                                             3
 ACTION:UP  10-12-17 16:50 OP:REBC STATUS:               ID:20101107162400 L   I
 2010-11-07-1621-28S.COL___129                                                 6
 STAT SP IPHASW D HRMM SECON CODA AMPLIT PERI AZIMU VELO SNR AR TRES W  DIS CAZ7
 BAR2 SZ IP       1624 18.87                             169     0.110   26 206 
 BAR2 SZ ES   1   1624 33.06                             169    -0.1 7   26 206 
 BAR2 SZ I        1624 36.14        28.8 0.38                            26 206 
 BRR  HZ IP     C 1624 20.76                             149     0.010   78 296 
 BRR  HN ES   2   1624 36.96                             149     0.3 5   78 296 
 BRR  HZ I        1624 42.13        48.4 0.19                            78 296 
 RUS  HZ EP       1624 22.85                             142    -0.210  101 180 
 RUS  HE ES   2   1624 41.04                             142     0.2 5  101 180 
 RUS  HZ I        1624 42.06         8.4 0.20                           101 180 
 GUE  SZ EP   1   1624 23.54                             138    -0.4 7  115   9 
 GRA  SZ IP       1624 24.85                             135     0.410  123  14 
 GRA  SZ I        1624 26.13        18.1 0.38                           123  14 
 GRA  SZ ES   2   1624 43.71                             135     0.5 5  123  14 
 OCA  SZ EP       1624 27.73                             127    -0.1 9  161 351 
 OCA  SZ ES   2   1624 48.60                             127    -0.8 5  161 351 
 OCA  SZ I        1624 54.52        16.7 0.24                           161 351 
 NOR  SZ EP   2   1624 35.32                             116    -0.8 4  241 235 
 HEL  HZ EP   2   1624 40.99                             112     0.2 4  279 256 
 HEL  HN ES   2   1625 12.52                             112     0.1 4  279 256 
 HEL  HZ I        1625 17.59         5.8 0.15                           279 256 
 RREF HZ EP   2   1624 47.19                             109     0.5 3  328 230 
 RREF HE ES   2   1625 23.19                             109     0.3 3  328 230 
 RREF HZ I        1625 28.73         5.8 0.59                           328 230 
                                                                                
