 2014 10 7 1716 59.7 L   6.811 -73.171148.7  RSN  4 0.1 1.7LRSN                1
 GAP=133        0.31       1.4     1.8  3.0 -0.2802E+00  0.1901E+01 -0.1172E+01E
 Epicentro: LOS SANTOS - SANTANDER                                             3
 ACTION:UPD 14-11-29 23:47 OP:nd   STATUS:               ID:20141007171659 L   I
 OLDACT:REG 14-10-07 22:17 OP:stll STATUS:               ID:20141007170748     3
 2014-10-07-1707-48M.COL___283                                                 6
 STAT SP IPHASW D HRMM SECON CODA AMPLIT PERI AZIMU VELO AIN AR TRES W  DIS CAZ7
 PAM  SZ EP       1717 22.33                             151    0.0810 78.3  42 
 PAM  SN ES       1717 39.88                             151    0.0110 78.3  42 
 PAM  SN I        1717 41.03         7.0 0.34            157           78.3  42 
 RUS  HZ EP       1717 23.69                             144   -0.1310  102 175 
 RUS  HN ES       1717 42.66                             144    0.0010  102 175 
 RUS  HN I        1717 45.38         3.3 0.32            148            102 175 
 PTB  HZ EP       1717 26.77                             133    0.11 9  145 258 
 PTB  HN ES       1717 47.70                             133   -0.00 9  145 258 
 PTB  HZ I        1717 54.79         6.6 0.42            134            145 258 
 SML  HZ EP       1717 36.21                             118   -0.00 8  241 336 
 SML  HN ES       1718  4.63                             118   -0.09 8  241 336 
 SML  HN I        1718  9.18         8.7 0.10            121            241 336 
                                                                                
