 2017  8 7 1938 50.0 L   6.745 -73.133144.0  RSN  8 0.4 1.7LRSN                1
 GAP=141        1.05       4.2     4.3  7.1 -0.2465E+01  0.8037E+01  0.9500E+00E
 Epicentro: LOS SANTOS - SANTANDER                                             3
 ACTION:UPD 17-09-04 20:17 OP:rebc STATUS:               ID:20170807193850 L   I
 OLDACT:UP  17-08-08 01:14 OP:mg   STATUS:               ID:20170807193744     3
 OLDACT:REG 17-08-07 20:34 OP:dani STATUS:               ID:20170807193744     3
 2017-08-07-1938-00M.COL___396                                                 6
 STAT SP IPHASW D HRMM SECON CODA AMPLIT PERI AZIMU VELO AIN AR TRES W  DIS CAZ7
 BAR2 EZ EP       1939  9.05                             173   -0.2910 17.7 198 
 BAR2 EZ ES   1   1939 23.40                             173   -1.01 7 17.7 198 
 BRR  HZ EP     C 1939 11.36                             151    0.1310 75.5 302 
 BRR  HN ES       1939 28.38                             151    0.6110 75.5 302 
 BRR  HZ I        1939 31.13        13.8 0.16            151           75.5 302 
 PAM  EZ EP       1939 12.45                             149    0.1610 81.3  36 
 PAM  EN ES       1939 29.55                             149   -0.1110 81.3  36 
 PAM  EZ I        1939 30.21         2.8 0.20            152           81.3  36 
 RUS  HZ EP       1939 13.35                             145    0.1910 94.4 177 
 RUS  HN ES       1939 31.62                             145    0.4110 94.4 177 
 RUS  HZ I        1939 32.59         6.5 0.28            147           94.4 177 
 PTB  HZ EP       1939 15.90                             132   -0.97 9  148 261 
 PTB  HN ES       1939 37.93                             132    0.11 9  148 261 
 PTB  HZ I        1939 39.24         6.2 0.22            133            148 261 
 SPBC HZ EP       1939 18.17                             129    0.14 9  159 221 
 SPBC HN ES       1939 39.83                             129   -0.04 9  159 221 
 SPBC HZ I        1939 43.52         6.6 0.08            131            159 221 
 ZAR  HZ EP       1939 23.09                             122    0.36 8  208 294 
 ZAR  HN ES       1939 48.08                             122   -0.16 8  208 294 
 ZAR  HN I        1939 51.35         8.2 0.28            123            208 294 
 NOR  HZ EP   4   1939 27.80                             118    2.40 0  232 236 
 NOR  HN ES       1939 52.98                             118   -0.01 8  232 236 
                                                                                
