 2014 11 7 1328 10.0 L   6.748 -73.452117.4  RSN  6 0.4 1.9LRSN                1
 GAP= 88        1.03       4.5     3.8  7.0 -0.3999E+01  0.5323E+01  0.5611E+01E
 Epicentro: EL CARMEN - SANTANDER                                              3
 ACTION:UPD 14-12-19 15:40 OP:nd   STATUS:               ID:20141107132810 L   I
 OLDACT:DUP 14-11-07 23:55 OP:carl STATUS:               ID:20141107131747d    3
 2014-11-07-1317-46M.COL___307                                                 6
 STAT SP IPHASW D HRMM SECON CODA AMPLIT PERI AZIMU VELO AIN AR TRES W  DIS CAZ7
 BAR2 SZ EP       1328 26.93                             163    0.3610 34.5 120 
 BAR2 SZ ES       1328 39.54                             163    0.0510 34.5 120 
 BRR  HZ EP       1328 26.94                             156    0.1010 49.0 324 
 BRR  HN ES       1328 39.94                             156   -0.0410 49.0 324 
 BRR  HZ I        1328 40.40        36.2 0.12            156           49.0 324 
 RUS  HZ EP       1328 31.65                             136    0.3710  103 157 
 RUS  HE ES       1328 47.49                             136   -0.4010  103 157 
 RUS  HZ I        1328 49.23        16.5 0.26            136            103 157 
 PAM  SZ EP       1328 31.93                             135    0.4210  106  52 
 PAM  SN ES       1328 47.98                             135   -0.3110  106  52 
 PAM  SZ I        1328 51.05         5.8 0.14            137            106  52 
 PTB  HZ IP     C 1328 30.66                             133   -0.8810  113 258 
 PTB  HN ES       1328 48.65                             133    0.3210  113 258 
 PTB  HZ I        1328 50.93        14.1 0.34            133            113 258 
 NOR  HZ EP       1328 40.48                             115   -0.38 9  204 230 
 NOR  HE ES       1329  5.31                             115    0.38 9  204 230 
 NOR  HZ I        1329  9.86        10.3 0.22            115            204 230 
                                                                                
