 2012  4 7 1746 33.9 L   6.767 -74.001 17.1  RSN  5 0.3 1.3LRSN                1
 GAP=110        0.63       2.7     2.3  5.4 -0.2829E+01 -0.4932E+01  0.1487E+01E
 Epicentro: PUERTO PARRA - SANTANDER                                           3
 ACTION:UPD 12-07-05 11:51 OP:tino STATUS:               ID:20120407174633 L   I
 2012-04-07-1740-00M.COL___196                                                 6
 STAT SP IPHASW D HRMM SECON CODA AMPLIT PERI AZIMU VELO AIN AR TRES W  DIS CAZ7
 BRR  HZ EP       1746 42.09                             102    -0.110   49  40 
 BRR  HN ES   1   1746 48.61                             102    -0.1 7   49  40 
 BRR  HZ I        1746 49.68        19.4 0.20                            49  40 
 PTB  HZ EP       1746 43.25                             101     0.010   56 244 
 PTB  HN ES   1   1746 50.57                             101     0.0 7   56 244 
 ZAR  HE ES   3   1747  8.07                              95    -0.5 2  124 310 
 RUS  HZ EP       1746 55.95                              94    -0.2 9  140 134 
 RUS  HE ES   2   1747 13.15                              94    -0.3 5  140 134 
 PAM  SZ EP       1746 58.79                              56     0.6 9  157  66 
 PAM  SN ES   2   1747 16.76                              56    -0.5 5  157  66 
                                                                                
