 2012  5 7 1543 58.3 L   6.763 -73.121151.1  RSN  6 0.3 1.7LRSN                1
 GAP=141        0.62       4.3     3.9  6.3  0.1833E+01  0.3380E+01 -0.1569E+01E
 Epicentro: LOS SANTOS - SANTANDER                                             3
 ACTION:UP  12-07-05 12:03 OP:pat  STATUS:               ID:20120507154358 L   I
 2012-05-07-1540-00M.COL___192                                                 6
 STAT SP IPHASW D HRMM SECON CODA AMPLIT PERI AZIMU VELO SNR AR TRES W  DIS CAZ7
 BAR2 SZ EP   1   1544 18.39                             172    -0.1 7   20 200 
 BAR2 SZ ES   1   1544 34.32                             172     0.0 7   20 200 
 BAR2 SZ I        1544 36.04        13.6 0.27                            20 200 
 BRR  HZ EP   1   1544 20.36                             152     0.1 7   76 300 
 BRR  HE ES   1   1544 37.86                             152     0.4 7   76 300 
 BRR  HZ I        1544 39.37        12.4 0.15                            76 300 
 PAM  SZ EP   1   1544 21.34                             151     0.2 7   79  36 
 PAM  SN ES   1   1544 38.66                             151    -0.4 7   79  36 
 RUS  HZ EP   1   1544 22.20                             146    -0.1 7   96 177 
 RUS  HE ES   1   1544 41.19                             146     0.2 7   96 177 
 RUS  HZ I        1544 44.46         3.0 0.33                            96 177 
 PTB  HE ES   1   1544 46.93                             133    -0.5 7  150 261 
 ZAR  HZ EP   2   1544 32.03                             123     0.5 4  208 293 
 ZAR  HE ES   1   1544 57.33                             123    -0.1 6  208 293 
 ZAR  HZ I        1545  7.61         4.7 0.47                           208 293 
                                                                                
