 2011  3 7 1735 17.1 L   6.815 -73.123146.3  RSN 15 0.5 3.5LRSN                1
 GAP=104        0.79       2.5     5.8  5.4 -0.3458E+01  0.7523E+01  0.7624E+00E
 Epicentro: LOS SANTOS - SANTANDER                                             3
 ACTION:UP  11-06-16 14:32 OP:jfem STATUS:               ID:20110307173517 L   I
 2011-03-07-1733-38S.COL___135                                                 6
 STAT SP IPHASW D HRMM SECON CODA AMPLIT PERI AZIMU VELO SNR AR TRES W  DIS CAZ7
 BAR2 SZ IP       1735 37.10                             170     0.310   26 195 
 BAR2 SZ ES   1   1735 52.05                             170    -0.2 7   26 195 
 BAR2 SZ I        1735 54.91       450.1 0.22                            26 195 
 RUS  HZ IP     D 1735 40.94                             143    -0.110  102 177 
 RUS  HE ES   1   1735 59.35                             143    -0.3 7  102 177 
 GUE  SZ EP       1735 41.36                             140    -0.310  114  11 
 GRA  SZ IP       1735 42.94                             137     0.710  123  17 
 GRA  SZ ES   1   1736  1.66                             137    -0.1 7  123  17 
 GRA  SZ I        1736  4.29       527.7 0.35                           123  17 
 OCA  SZ EP       1735 45.25                             130    -0.1 9  159 352 
 OCA  SZ ES   1   1736  7.03                             130    -0.3 7  159 352 
 OCA  SZ I        1736 12.12       265.2 0.26                           159 352 
 YOP  SZ EP       1735 47.42                             126     0.2 9  179 154 
 YOP  SE ES   2   1736 10.87                             126     0.1 4  179 154 
 CHI  HZ EP       1735 55.07                                     0.0 8  251 196 
 CHI  HN ES   1   1736 24.77                             117     0.1 6  251 196 
 CHI  HZ I        1736 34.11       160.6 0.46                           251 196 
 ROSC BZ EP   2   1735 56.39                             116     0.8 4  255 211 
 HEL  HZ EP   2   1735 57.60                             114     0.0 4  275 256 
 HEL  HZ I        1736 35.26       114.5 0.29                           275 256 
 GUY  SZ EP   3   1736  3.42                             112     2.3 2  304 235 
 GUY  SN ES   3   1736 37.49                             112     2.1 2  304 235 
 VIL  SZ EP       1736  0.76                             112     0.0 7  306 192 
 VIL  SE ES   2   1736 34.09                             112    -0.8 4  306 192 
 DBB  SZ EP       1736  4.65                             109    -0.2 7  342 274 
 TOL  SZ EP   1   1736  5.54                             109    -0.2 5  346 225 
 SDV  BZ EP       1736  6.39                             108    -0.4 6  357  50 
 PRA  HZ EP       1736 10.61                             106    -0.3 6  395 210 
 PRA  HZ I        1736 56.56       409.1 0.68                           395 210 
                                                                                
