 2016  8 7 1725 54.8 L   6.764 -73.249121.9  RSN  4 0.4 1.3LRSN                1
 GAP=212        1.15       8.1     7.7  9.3  0.3262E+02  0.1528E+02  0.1088E+02E
 Epicentro: ZAPATOCA - SANTANDER                                               3
 ACTION:UPD 16-10-29 15:33 OP:rebc STATUS:               ID:20160807172554 L   I
 OLDACT:ARG 16-08-08 04:29 OP:ak   STATUS:               ID:20160807171800     3
 2016-08-07-1718-00M.COL___359                                                 6
 STAT SP IPHASW D HRMM SECON CODA AMPLIT PERI AZIMU VELO AIN AR TRES W  DIS CAZ7
 BAR2 EZ EP       1726 11.70                             170    0.2210 20.4 159 
 BAR2 EZ ES       1726 24.83                             170    0.3210 20.4 159 
 BAR2 EZ I        1726 25.61        11.8 0.38                          20.4 159 
 BRR  HZ EP       1726 12.40                             151   -0.5310 63.6 307 
 BRR  HN ES       1726 27.05                             151   -0.0410 63.6 307 
 BRR  HZ I        1726 29.60        10.1 0.82                          63.6 307 
 RUS  HZ EP       1726 15.65                             139   -0.4210 98.1 169 
 RUS  HN ES       1726 32.61                             139   -0.0710 98.1 169 
 RUS  HZ I        1726 34.36         1.5 0.24                          98.1 169 
 PTB  HZ EP       1726 19.69                             128    0.94 9  136 260 
 PTB  HE ES       1726 37.09                             128   -0.35 9  136 260 
 PTB  HZ I        1726 37.99         2.9 0.14                           136 260 
                                                                                
