 2016  1 7 1142  2.2 L   6.796 -73.171137.7  RSN  6 0.4 1.6LRSN                1
 GAP=134        1.02       4.2     4.6  7.8  0.1800E+00  0.1170E+02 -0.9775E+01E
 Epicentro: LOS SANTOS - SANTANDER                                             3
 ACTION:UPD 16-03-09 23:23 OP:cam  STATUS:               ID:20160107114202 L   I
 OLDACT:REG 16-01-07 22:04 OP:ar   STATUS:               ID:20160107113750     3
 2016-01-07-1137-50M.COL___279                                                 6
 STAT SP IPHASW D HRMM SECON CODA AMPLIT PERI AZIMU VELO AIN AR TRES W  DIS CAZ7
 BAR2 EZ EP       1142 20.73                             170   -0.1210 22.5 183 
 BAR2 EZ ES       1142 35.34                             170   -0.0610 22.5 183 
 BAR2 EZ I        1142 37.02        12.2 0.34            172           22.5 183 
 PAM  EZ EP       1142 23.88                             148    0.1710 79.6  41 
 PAM  EN ES       1142 40.52                             148    0.0410 79.6  41 
 PAM  EZ I        1142 42.97         9.1 0.52            151           79.6  41 
 RUS  HZ EP       1142 25.68                             142    0.5210  100 174 
 RUS  HE ES       1142 42.93                             142   -0.1310  100 174 
 RUS  HZ I        1142 44.88         4.0 0.30            146            100 174 
 PTB  HZ EP       1142 27.60                             131   -0.66 9  145 259 
 PTB  HN ES       1142 48.35                             131   -0.23 9  145 259 
 PTB  HZ I        1142 51.81         5.4 0.16            132            145 259 
 ZAR  HZ EP   4   1142 37.81                             121    3.93 0  202 293 
 ZAR  HN ES       1142 59.52                             121    0.93 9  202 293 
 ZAR  HZ I        1143  5.17         4.0 0.34            122            202 293 
 SML  HZ EP       1142 38.33                             116    0.02 8  243 336 
 SML  HN ES       1143  5.97                             116   -0.51 8  243 336 
 SML  HZ I        1143  9.49         4.6 0.10            117            243 336 
                                                                                
