 2013  3 7 1038 26.4 L   6.762 -73.147146.4  RSN  5 0.3 1.6LRSN                1
 GAP=138        0.86       4.6     4.5  6.5 -0.1911E+01  0.2021E+01  0.1084E+01E
 Epicentro: LOS SANTOS - SANTANDER                                             3
 ACTION:UPD 13-04-09 14:00 OP:ep   STATUS:               ID:20130307103826 L   I
 2013-03-07-1030-00M.COL___231                                                 6
 STAT SP IPHASW D HRMM SECON CODA AMPLIT PERI AZIMU VELO AIN AR TRES W  DIS CAZ7
 BAR2 SZ EP       1038 45.88                             172   -0.1410 19.2 192 
 BAR2 SZ ES       1039  0.92                             172   -0.4110 19.2 192 
 BAR2 SZ I        1039  2.69         6.5 0.32            170           19.2 192 
 BRR  HZ EP       1038 47.87                             152    0.1510 73.1 301 
 BRR  HN ES       1039  5.02                             152    0.6710 73.1 301 
 BRR  HE I        1039  6.09         8.3 0.20            150           73.1 301 
 PAM  SZ EP       1038 48.72                             150   -0.1610 80.8  38 
 PAM  SE ES       1039  6.28                             150   -0.1410 80.8  38 
 RUS  HZ EP       1038 50.21                             145    0.3010 96.4 176 
 RUS  HN ES       1039  8.45                             145    0.2010 96.4 176 
 PTB  HZ EP   1   1038 53.12                             132   -0.21 7  147 260 
 PTB  HN ES       1039 13.92                             132   -0.42 9  147 260 
 PTB  HE I        1039 19.64         7.6 0.28            131            147 260 
                                                                                
