 2011  2 7 1035 36.6 L   5.992 -73.719108.4  RSN  4 0.2 1.1LRSN                1
 GAP=151        0.60       9.3     6.1 11.4 -0.4524E+02 -0.4006E+01  0.2447E+02E
 Epicentro: BOLIVAR - SANTANDER                                                3
 ACTION:UP  11-03-28 15:06 OP:jfem STATUS:               ID:20110207103536 L   I
 2011-02-07-1020-00M.COL___139                                                 6
 STAT SP IPHASW D HRMM SECON CODA AMPLIT PERI AZIMU VELO SNR AR TRES W  DIS CAZ7
 RUS  HZ EP   1   1035 54.69                             145     0.1 7   71  99 
 RUS  HZ I        1035 54.96         3.8 0.09                            71  99 
 BAR2 SZ EP   1   1035 55.50                             138    -0.1 7   89  42 
 BAR2 SZ ES   1   1036 10.18                             138    -0.2 7   89  42 
 BAR2 SZ I        1036 11.82         5.9 0.16                            89  42 
 BTL  SZ EP   1   1035 58.07                             130     0.3 7  114  26 
 NOR  SZ EP   1   1035 59.29                             124    -0.4 7  136 250 
 NOR  SN ES   1   1036 17.91                             124     0.2 7  136 250 
 NOR  SZ I        1036 18.54         1.0 0.23                           136 250 
                                                                                
