 2014  2 7 1204  2.7 L   6.820 -73.139144.6  RSN  9 0.6 2.1LRSN                1
 GAP=136        1.08       3.5     4.8  6.9 -0.1894E+01  0.1265E+02 -0.7888E+00E
 Epicentro: LOS SANTOS - SANTANDER                                             3
 ACTION:UPD 14-03-10 08:08 OP:ep   STATUS:               ID:20140207120402 L   I
 OLDACT:REG 14-02-07 17:30 OP:cam  STATUS:               ID:20140207120000     3
 2014-02-07-1200-00M.COL___291                                                 6
 STAT SP IPHASW D HRMM SECON CODA AMPLIT PERI AZIMU VELO AIN AR TRES W  DIS CAZ7
 BAR2 SZ EP     D 12 4 22.12                             170   -0.1010 25.6 191 
 BAR2 SZ ES       12 4 37.29                             170   -0.1710 25.6 191 
 BAR2 SZ I        12 4 39.88        37.5 0.36            168           25.6 191 
 PAM  SZ EP       12 4 25.00                             151    0.3510 75.2  40 
 PAM  SN ES       12 4 42.19                             151    0.4110 75.2  40 
 PAM  SZ I        12 4 44.41        19.8 0.84            157           75.2  40 
 RUS  HZ EP       12 4 26.07                             143   -0.4010  103 177 
 RUS  HN ES       12 4 45.16                             143    0.1310  103 177 
 RUS  HZ I        12 4 47.35        11.2 0.34            144            103 177 
 PTB  HZ EP       12 4 29.12                             131   -0.54 9  149 258 
 PTB  HN ES       12 4 50.24                             131   -0.46 9  149 258 
 PTB  HZ I        12 4 57.14        21.1 0.62            132            149 258 
 ZAR  HZ EP   2   12 4 35.06                             122    0.02 4  204 292 
 ZAR  HE ES   1   12 4 59.83                             122   -0.45 6  204 292 
 ZAR  HZ I        12 5  5.53        12.5 0.56            123            204 292 
 NOR  HZ EP   1   12 4 38.52                             118   -0.02 6  237 234 
 NOR  HN ES       12 5  7.19                             118    0.67 8  237 234 
 NOR  HZ I        12 5 10.58         9.4 0.16            119            237 234 
 SML  HZ EP       12 4 39.15                             117    0.09 8  242 335 
 SML  HE ES       12 5  7.33                             117   -0.11 8  242 335 
 SML  HZ I        12 5  9.30        11.3 0.26            120            242 335 
 CHI  HZ EP       12 4 40.32                             116   -0.24 8  251 195 
 CHI  HN ES       12 5  9.80                             116   -0.31 8  251 195 
 CHI  HZ I        12 5 19.23         4.9 0.46            118            251 195 
 GUY2CHZ EP   1   12 4 48.31                             112    1.86 5  303 235 
 GUY2CHN ES   2   12 5 22.30                             112    1.72 4  303 235 
 GUY2CHZ I        12 5 30.50         8.0 0.52                           303 235 
                                                                                
