 2010  8 7 1131 49.6 L   6.786 -73.044140.4  RSN  6 0.4 1.4LRSN                1
 GAP=170        0.79       8.5    21.6 19.0  0.6459E+02 -0.2959E+03 -0.9434E+02E
 Epicentro: LOS SANTOS - SANTANDER                                             3
 ACTION:UP  10-09-07 10:52 OP:vdl  STATUS:               ID:20100807113149 L   I
 2010-08-07-1128-18S.COL___125                                                 6
 STAT SP IPHASW D HRMM SECON CODA AMPLIT PERI AZIMU VELO SNR AR TRES W  DIS CAZ7
 BAR2 SZ EP   1   1132  8.40                             171    -0.2 7   27 216 
 BAR2 SZ ES   2   1132 23.22                             171    -0.3 5   27 216 
 BAR2 SZ I        1132 24.58         8.0 0.26                            27 216 
 GIR2 SZ EP   1   1132  9.48                             166     0.7 7   36 333 
 BRR  HN ES   2   1132 27.25                             150    -0.1 5   82 296 
 BRR  HZ I        1132 30.94         6.9 0.28                            82 296 
 RUS  HZ EP   2   1132 12.37                             144    -0.3 5   99 183 
 RUS  HZ I        1132 13.05         1.8 0.27                            99 183 
 RUS  HN ES   2   1132 30.87                             144     0.2 5   99 183 
 GUE  SZ EP   1   1132 13.30                             139    -0.5 7  116   6 
 GRA  SZ EP   1   1132 14.33                             137     0.1 7  124  12 
                                                                                
