 2017 10 7 1113 28.6 L   6.852 -73.090148.0  RSN  6 0.3 1.6LRSN                1
 GAP=250        0.70       4.0     4.2  6.0  0.1862E+01  0.1039E+02 -0.3250E+01E
 Epicentro: LOS SANTOS - SANTANDER                                             3
 ACTION:UPD 17-11-07 19:29 OP:rebc STATUS:               ID:20171007111328 L   I
 OLDACT:DUP 17-10-07 21:56 OP:osc  STATUS:               ID:20171007110443d    3
 2017-10-07-1108-00M.COL___438                                                 6
 STAT SP IPHASW D HRMM SECON CODA AMPLIT PERI AZIMU VELO AIN AR TRES W  DIS CAZ7
 BAR2 EZ EP       1113 49.00                             168    0.3110 30.5 200 
 BAR2 EZ ES       1114  4.33                             168   -0.0110 30.5 200 
 BAR2 EZ I        1114  5.35         3.7 0.19            165           30.5 200 
 RUS  HZ EP       1113 53.25                             143    0.2410  106 180 
 RUS  HN ES       1114 11.57                             143   -0.4510  106 180 
 RUS  HZ I        1114 13.53         5.3 0.28            150            106 180 
 SPBC HZ EP       1113 58.03                             128   -0.07 9  172 219 
 SPBC HN ES       1114 21.44                             128    0.35 9  172 219 
 SPBC HZ I        1114 26.54         4.8 0.10            130            172 219 
 ZAR  HZ EP       1114  1.15                             122   -0.45 8  208 290 
 ZAR  HN ES       1114 27.41                             122    0.09 8  208 290 
 ZAR  HZ I        1114 46.69         9.2 0.28            121            208 290 
 NOR  HN ES       1114 34.12                             118    0.06 8  243 234 
 GUY2CHE ES       1114 47.93                             112   -0.19 7  310 235 
                                                                                
