 2013  9 7 1843 13.8 L   6.823 -73.144148.0  RSN  6 0.3 1.8LRSN                1
 GAP=136        0.75       4.6     4.0  6.2 -0.2685E+00  0.3094E+01 -0.9336E-01E
 Epicentro: LOS SANTOS - SANTANDER                                             3
 ACTION:UPD 13-10-22 09:20 OP:ep   STATUS:               ID:20130907184313 L   I
 OLDACT:UP  13-09-07 17:52 OP:cam  STATUS:               ID:20130907183959     3
 OLDACT:REG 13-09-07 15:37 OP:cam  STATUS:               ID:20130907183959     3
 2013-09-07-1839-59M.COL___269                                                 6
 STAT SP IPHASW D HRMM SECON CODA AMPLIT PERI AZIMU VELO AIN AR TRES W  DIS CAZ7
 BAR2 SZ EP   1   1843 33.56                             170   -0.17 7 25.9 190 
 BAR2 SZ ES       1843 49.25                             170   -0.0410 25.9 190 
 BAR2 SZ I        1843 50.45        11.6 0.19            170           25.9 190 
 BRR  HZ EP       1843 35.09                             153   -0.0210 70.2 297 
 BRR  HN ES       1843 52.20                             153    0.4410 70.2 297 
 BRR  HZ I        1843 55.34        17.7 0.48            154           70.2 297 
 PAM  SZ EP       1843 36.18                             152    0.0710 75.3  41 
 PAM  SN ES       1843 53.24                             152   -0.2910 75.3  41 
 PAM  SZ I        1843 55.05        17.4 0.50            154           75.3  41 
 RUS  HZ EP   1   1843 38.39                             144    0.46 7  103 176 
 RUS  HN ES   1   1843 56.87                             144    0.10 7  103 176 
 RUS  HZ I        1843 58.14         3.4 0.24            146            103 176 
 PTB  HZ EP   2   1843 40.40                             132   -0.59 5  148 258 
 PTB  HN ES   1   1844  1.45                             132   -0.77 7  148 258 
 PTB  HZ I        1844  3.83         9.6 0.44            134            148 258 
 ZAR  HZ EP   4   1843 47.57                             123    1.28 0  203 291 
 ZAR  HN ES   1   1844 11.93                             123    0.28 6  203 291 
                                                                                
