 2013  9 7 1104 22.1 L   6.803 -73.126152.0  RSN  9 0.5 2.0LRSN                1
 GAP=139        1.12       4.5     5.1  7.0  0.2314E+01  0.7532E+01  0.4658E+01E
 Epicentro: LOS SANTOS - SANTANDER                                             3
 ACTION:UPD 13-10-22 09:20 OP:ep   STATUS:               ID:20130907110422 L   I
 OLDACT:UP  13-09-07 16:49 OP:cam  STATUS:               ID:20130907105959     3
 OLDACT:REG 13-09-07 15:17 OP:cam  STATUS:               ID:20130907105959     3
 2013-09-07-1059-59M.COL___269                                                 6
 STAT SP IPHASW D HRMM SECON CODA AMPLIT PERI AZIMU VELO AIN AR TRES W  DIS CAZ7
 BAR2 SZ EP       11 4 42.29                             171   -0.1810 24.1 195 
 BAR2 SZ ES   1   11 4 58.26                             171   -0.12 7 24.1 195 
 BAR2 SZ I        11 5  0.38        17.3 0.20            168           24.1 195 
 BRR  HZ EP     C 11 4 44.19                             153    0.1910 72.9 297 
 BRR  HN ES       11 5  1.98                             153    0.8910 72.9 297 
 BRR  HZ I        11 5  6.52        20.8 0.12            151           72.9 297 
 PAM  SZ EP       11 4 45.18                             153    0.3210 75.7  38 
 PAM  SN ES       11 5  2.53                             153   -0.1110 75.7  38 
 PAM  SZ I        11 5  4.39        10.7 0.42            158           75.7  38 
 RUS  HZ EP       11 4 46.14                             145   -0.3210  101 177 
 RUS  HN ES   1   11 5  5.27                             145   -0.21 7  101 177 
 RUS  HZ I        11 5  6.28         5.6 0.18            147            101 177 
 PTB  HZ EP       11 4 49.21                             133   -0.54 9  150 259 
 PTB  HN ES       11 5 10.61                             133   -0.73 9  150 259 
 PTB  HZ I        11 5 17.71        22.2 0.40            133            150 259 
 ZAR  HZ EP       11 4 54.83                             124   -0.29 8  206 292 
 ZAR  HN ES       11 5 21.33                             124    0.43 8  206 292 
 ZAR  HZ I        11 5 26.61        15.6 0.62            124            206 292 
 SML  HZ EP   1   11 4 58.84                             119   -0.28 6  244 335 
 SML  HN ES   1   11 5 27.28                             119   -0.73 6  244 335 
 SML  HZ I        11 5 31.33        22.8 0.10            121            244 335 
 CHI  HZ EP       11 5  0.56                             118    0.33 8  250 196 
 CHI  HN ES   1   11 5 30.52                             118    0.54 6  250 196 
 CHI  HZ I        11 5 37.43         4.4 0.56            120            250 196 
 GUY2CHZ EP   1   11 5  7.50                             113    1.30 5  303 235 
                                                                                
