 2016  9 7 1805 44.4 L   6.773 -73.132141.9  RSN 10 0.4 2.0LRSN                1
 GAP=139        0.91       3.2     3.6  5.4 -0.1423E+01  0.5036E+01  0.1613E+01E
 Epicentro: LOS SANTOS - SANTANDER                                             3
 ACTION:UPD 17-08-17 21:07 OP:lp   STATUS:               ID:20160907180544 L   I
 OLDACT:UP  16-09-08 01:08 OP:lc   STATUS:               ID:20160907175737d    3
 OLDACT:DUP 16-09-08 01:02 OP:lc   STATUS:               ID:20160907175737d    3
 2016-09-07-1758-00M.COL___358                                                 6
 STAT SP IPHASW D HRMM SECON CODA AMPLIT PERI AZIMU VELO AIN AR TRES W  DIS CAZ7
 BAR2 EZ EP       18 6  3.49                             171   -0.0410 20.7 195 
 BAR2 EZ ES       18 6 18.19                             171   -0.2510 20.7 195 
 BAR2 EZ I        18 6 20.50        18.3 0.23            169           20.7 195 
 BRR  HZ EP       18 6  5.37                             151    0.0610 74.0 300 
 BRR  HN ES       18 6 22.20                             151    0.6010 74.0 300 
 BRR  HZ I        18 6 26.42        29.2 0.12            150           74.0 300 
 PAM  EZ EP       18 6  6.36                             150    0.0510 78.8  37 
 PAM  EN ES       18 6 23.25                             150   -0.1310 78.8  37 
 PAM  EZ I        18 6 25.60        12.1 0.30            154           78.8  37 
 RUS  HZ EP       18 6  7.54                             144   -0.0210 97.5 177 
 RUS  HN ES       18 6 25.89                             144    0.2710 97.5 177 
 RUS  HZ I        18 6 26.74         9.0 0.24            145           97.5 177 
 PTB  HZ EP       18 6 10.61                             131   -0.54 9  149 260 
 PTB  HN ES       18 6 31.28                             131   -0.73 9  149 260 
 PTB  HZ I        18 6 33.86        14.1 0.14            131            149 260 
 SPBC HZ EP       18 6 12.69                             128    0.20 9  162 220 
 SPBC HN ES       18 6 33.95                             128   -0.43 9  162 220 
 SPBC HZ I        18 6 39.01        14.3 0.16            129            162 220 
 ZAR  HZ EP       18 6 16.65                             121   -0.22 8  207 293 
 ZAR  HE ES       18 6 42.64                             121    0.45 8  207 293 
 ZAR  HZ I        18 6 48.37        14.7 0.26            122            207 293 
 NOR  HZ EP       18 6 20.08                             118    0.22 8  234 235 
 NOR  HE ES       18 6 47.99                             118    0.48 8  234 235 
 NOR  HZ I        18 6 52.95         9.0 0.16            119            234 235 
 CHI  HZ EP   4   18 6 23.18                             117    1.55 0  246 196 
 CHI  HN ES       18 6 50.85                             117    0.20 8  246 196 
 CHI  HZ I        18 6 57.79         2.9 0.16            118            246 196 
 GUY2CHZ EP   9   18 6 29.27                             112    1.48 0  301 235 
 GUY2CHE ES       18 7  3.69                                    0.59 7  301 235 
 GUY2CHZ I        18 7  8.98         6.3 0.23                           301 235 
                                                                                
