 2013  5 7 1114 19.3 L   7.450 -73.197134.1  RSN  5 0.3 1.8LRSN                1
 GAP=135        0.52       5.5     7.0  8.8  0.5901E+01  0.1970E+02 -0.9329E+01E
 Epicentro: EL PLAYON - SANTANDER                                              3
 ACTION:UPD 13-06-20 09:48 OP:ep   STATUS:               ID:20130507111419 L   I
 2013-05-07-1110-00M.COL___256                                                 6
 STAT SP IPHASW D HRMM SECON CODA AMPLIT PERI AZIMU VELO AIN AR TRES W  DIS CAZ7
 PAM  SN ES   2   1114 54.76                             156    0.28 5 56.2 103 
 PAM  SN I        1114 56.38        16.3 0.37            156           56.2 103 
 BRR  HZ EP   1   1114 38.97                             151   -0.03 7 68.4 236 
 BRR  HE ES   1   1114 54.55                             151    0.17 7 68.4 236 
 BRR  HE I        1114 55.12         7.8 0.18            155           68.4 236 
 BAR2 SZ ES   2   1114 57.50                             143   -0.63 5 94.9 179 
 BAR2 SZ I        1114 58.62        13.3 0.12            145           94.9 179 
 PTB  HZ EP   2   1114 48.00                             125    0.35 4  172 234 
 SML  HN ES   2   1115 10.53                             124   -0.30 4  178 327 
                                                                                
