 2016 10 7 1802  9.2 L   6.811 -73.118147.6  RSN  4 0.1 1.6LRSN                1
 GAP=140        0.35       1.6     2.0  3.5 -0.4426E+00  0.3321E+01 -0.4443E+00E
 Epicentro: LOS SANTOS - SANTANDER                                             3
 ACTION:UPD 16-11-09 19:17 OP:rebc STATUS:               ID:20161007180209 L   I
 OLDACT:DUP 16-10-07 23:48 OP:lv   STATUS:               ID:20161007175747d    3
 2016-10-07-1758-00M.COL___336                                                 6
 STAT SP IPHASW D HRMM SECON CODA AMPLIT PERI AZIMU VELO AIN AR TRES W  DIS CAZ7
 PAM  EZ EP       18 2 31.48                             152    0.0510 74.6  38 
 PAM  EE ES       18 2 48.77                             152   -0.0210 74.6  38 
 PAM  EZ I        18 2 50.53         9.9 0.50            154           74.6  38 
 RUS  HZ EP       18 2 33.13                             144   -0.0610  102 178 
 RUS  HN ES       18 2 51.93                             144    0.0110  102 178 
 RUS  HZ I        18 2 53.23         2.9 0.40            146            102 178 
 SPBC HZ EP       18 2 37.95                             129   -0.15 9  166 220 
 SPBC HE ES       18 3  0.75                             129    0.11 9  166 220 
 SPBC HZ I        18 3  2.41         5.9 0.10            131            166 220 
 ZAR  HZ EP       18 2 42.18                             122    0.18 8  206 292 
 ZAR  HE ES       18 3  7.48                             122   -0.11 8  206 292 
 ZAR  HZ I        18 3  8.83         3.3 0.28            124            206 292 
                                                                                
