 2012  9 7 1448 30.1 L   6.708 -73.188142.0  RSN  5 0.2 1.9LRSN                1
 GAP=225        0.39       8.2     4.6 17.3  0.2272E+02 -0.2277E+02 -0.4934E+02E
 Epicentro: VILLANUEVA - SANTANDER                                             3
 ACTION:UPD 12-10-22 14:17 OP:ep   STATUS:               ID:20120907144830 L   I
 2012-09-07-1440-00M.COL___227                                                 6
 STAT SP IPHASW D HRMM SECON CODA AMPLIT PERI AZIMU VELO AIN AR TRES W  DIS CAZ7
 BAR2 SZ EP       1448 49.08                             175   -0.0510 12.8 177 
 BAR2 SZ I        1448 49.70        16.1 0.34                          12.8 177 
 BRR  HZ EP       1448 50.99                             152    0.0310 72.8 307 
 RUS  HZ EP   3   1448 53.66                             146    0.84 2 90.9 173 
 PTB  HZ EP   2   1448 55.95                             133   -0.26 5  141 263 
 PTB  HN ES   2   1449 16.60                             133    0.04 5  141 263 
 PTB  HN I        1449 21.82        12.0 0.22                           141 263 
 ZAR  HE ES   1   1449 27.45                             122    0.04 6  204 295 
                                                                                
