 2015  9 7 1127 31.1 L   6.806 -73.152148.7  RSN 11 0.4 2.1LRSN                1
 GAP=182        0.96       2.6     4.3  5.1 -0.1147E+01  0.4450E+01 -0.2712E+00E
 Epicentro: LOS SANTOS - SANTANDER                                             3
 ACTION:UPD 15-10-28 16:24 OP:cam  STATUS:               ID:20150907112731 L   I
 OLDACT:DUP 15-09-08 00:52 OP:stll STATUS:               ID:20150907111749d    3
 2015-09-07-1117-48M.COL___346                                                 6
 STAT SP IPHASW D HRMM SECON CODA AMPLIT PERI AZIMU VELO AIN AR TRES W  DIS CAZ7
 BAR2 EZ EP       1127 51.09                             170    0.0210 23.9 188 
 BAR2 EZ ES       1128  6.38                             170   -0.2810 23.9 188 
 BAR2 EZ I        1128  7.52        31.0 0.18            171           23.9 188 
 BRR  HZ EP       1127 53.03                             153    0.5410 70.3 298 
 BRR  HN ES       1128  9.90                             153    0.7110 70.3 298 
 BRR  HZ I        1128 15.19        14.4 0.18            150           70.3 298 
 RUS  HZ EP       1127 55.32                             144    0.1510  101 176 
 RUS  HN ES       1128 13.94                             144   -0.0110  101 176 
 RUS  HZ I        1128 15.38        14.9 0.26            148            101 176 
 PTB  HZ EP       1127 57.86                             133   -0.38 9  147 259 
 PTB  HN ES       1128 18.85                             133   -0.57 9  147 259 
 PTB  HZ I        1128 20.91        12.6 0.36            133            147 259 
 OCA  HZ EP       1127 59.72                             130    0.18 9  160 353 
 OCA  HE ES       1128 21.08                             130   -0.66 9  160 353 
 OCA  HZ I        1128 26.68        26.6 0.46            131            160 353 
 SPBC HZ EP       1127 59.73                             130   -0.08 9  163 219 
 SPBC HN ES       1128 22.00                             130   -0.22 9  163 219 
 SPBC HZ I        1128 24.71        29.5 0.18            131            163 219 
 ZAR  HZ EP       1128  3.77                             123    0.15 9  203 292 
 ZAR  HE ES       1128 28.74                             123   -0.27 9  203 292 
 ZAR  HZ I        1128 39.67         6.5 0.20            123            203 292 
 NOR  HZ EP       1128  7.41                             119    0.45 8  235 234 
 NOR  HE ES       1128 35.60                             119    0.65 8  235 234 
 NOR  HZ I        1128 38.44        11.2 0.14            121            235 234 
 SML  HZ EP       1128  7.65                             118   -0.12 8  243 335 
 SML  HN ES       1128 36.59                             118    0.20 8  243 335 
 SML  HZ I        1128 40.13        14.5 0.10            119            243 335 
 GUY2CHZ EP       1128 14.23                             113   -0.58 7  301 235 
 GUY2CHN ES       1128 49.27                             113    0.36 7  301 235 
 GUY2CHZ I        1128 55.95         5.5 0.34                           301 235 
 PRA  HZ EP       1128 24.81                             107    0.08 6  392 209 
 PRA  HZ I        1128 26.93         3.5 0.18            109            392 209 
 PRA  HE ES       1129  5.85                             107   -0.73 6  392 209 
                                                                                
