 2011  7 7 1042 35.1 L   7.390 -73.179134.1  RSN  5 0.1 1.5LRSN                1
 GAP=167        0.33       4.2     3.1  4.1 -0.4262E+01  0.2279E+01 -0.4903E+01E
 Epicentro: EL PLAYON - SANTANDER                                              3
 ACTION:UPD 12-07-25 13:58 OP:epov STATUS:               ID:20110707104235 L   I
 2011-07-07-1042-23S.COL___140                                                 6
 STAT SP IPHASW D HRMM SECON CODA AMPLIT PERI AZIMU VELO AIN AR TRES W  DIS CAZ7
 GIR2 SZ EP   2   1042 53.43                             165   -0.02 5 34.4 183 
 PAM  SZ EP   1   1042 54.82                             157    0.11 7 53.2  96 
 PAM  SE ES   1   1043  9.90                             157   -0.14 7 53.2  96 
 BRI  SZ EP   2   1042 54.60                             156    0.23 5 55.5  49 
 BRR  HZ EP       1042 54.66                             152   -0.0410 66.6 242 
 BRR  HE ES   1   1043 10.03                             152    0.02 7 66.6 242 
 BRR  HZ I        1043 11.51         9.7 0.11                          66.6 242 
 BAR2 SZ EP   1   1042 56.30                             145   -0.12 7 88.2 180 
 BAR2 SZ ES   1   1043 13.20                             145    0.12 7 88.2 180 
 BAR2 SZ I        1043 13.98         4.4 0.12                          88.2 180 
                                                                                
