 2010  7 7 1116 23.5 L   6.780 -73.069145.0  RSN 13 0.3 2.4LRSN                1
 GAP=132        0.63       2.9     4.8  5.0 -0.6673E+01 -0.5538E+01  0.2974E+01E
 Epicentro: LOS SANTOS - SANTANDER                                             3
 ACTION:UPD 10-12-01 15:15 OP:pat  STATUS:               ID:20100707111623 L   I
 2010-07-07-1113-42S.COL___117                                                 6
 STAT SP IPHASW D HRMM SECON CODA AMPLIT PERI AZIMU VELO AIN AR TRES W  DIS CAZ7
 BAR2 SZ IP       1116 43.04                             170     0.010   24 211 
 BAR2 SZ ES   3   1116 58.72                             170     0.4 2   24 211 
 BAR2 SZ I        1116 59.05        57.8 0.29                            24 211 
 GIR2 SZ EP       1116 43.17                             165     0.010   36 337 
 GIR2 SZ ES   2   1116 58.24                             165    -0.3 5   36 337 
 BRR  HZ EP   2   1116 45.12                             149     0.0 5   80 297 
 BRR  HN ES   1   1117  2.00                             149     0.1 7   80 297 
 BRR  HZ I        1117  6.28        47.7 0.13                            80 297 
 RUS  HZ EP       1116 47.01                             144     0.010   98 181 
 RUS  HN ES   2   1117  5.22                             144    -0.1 5   98 181 
 RUS  HZ I        1117  6.65        36.8 0.26                            98 181 
 BRI  SZ IP       1116 47.64                             141     0.410  108  16 
 BRI  SZ ES   2   1117  5.72                             141    -0.1 5  108  16 
 BRI  SZ I        1117  8.41        36.9 0.47                           108  16 
 GUE  SZ EP       1116 48.12                             139    -0.110  117   8 
 GRA  SZ IP       1116 48.94                             137     0.310  126  13 
 GRA  SZ ES   1   1117  8.51                             137     0.2 7  126  13 
 GRA  SZ I        1117  9.74        35.7 0.40                           126  13 
 OCA  SZ EP       1116 51.85                             129    -0.2 9  164 350 
 OCA  SZ ES   2   1117 13.40                             129    -1.0 5  164 350 
 OCA  SZ I        1117 18.16        38.4 0.19                           164 350 
 CHI  HZ EP   2   1117  1.33                             117     0.1 4  249 197 
 CHI  HN ES   2   1117 30.48                             117    -0.1 4  249 197 
 CHI  HZ I        1117 33.68        11.8 0.25                           249 197 
 HEL  HZ EP   1   1117  5.00                             114     0.5 6  280 257 
 HEL  HZ I        1117 41.76        18.2 0.37                           280 257 
 RREF HZ EP   2   1117 10.18                             110     0.0 3  327 231 
 RREF HE ES   2   1117 45.66                             110    -0.9 3  327 231 
 RREF HZ I        1117 50.53        11.9 0.24                           327 231 
 SDV  BZ EP       1117 12.69                             108    -0.2 6  355  49 
 SDV  BE ES   2   1117 50.51                             108    -1.0 3  355  49 
 SDV  BZ I        1117 54.38         8.4 0.69                           355  49 
 PRA  HZ EP   2   1117 17.46                             106     0.2 3  394 211 
 PRA  HE ES   2   1117 58.82                             106    -0.4 3  394 211 
 PRA  HZ I        1118  4.82        14.3 0.33                           394 211 
                                                                                
