 2012  1 7 1603 45.2 L   6.790 -73.163143.7  RSN  8 0.3 1.9LRSN                1
 GAP=135        0.69       3.5     4.2  7.5 -0.1089E+01  0.9110E+01  0.4649E+01E
 Epicentro: LOS SANTOS - SANTANDER                                             3
 ACTION:UP  12-02-03 08:15 OP:REBC STATUS:               ID:20120107160345 L   I
 2012-01-07-1600-00M.COL___186                                                 6
 STAT SP IPHASW D HRMM SECON CODA AMPLIT PERI AZIMU VELO SNR AR TRES W  DIS CAZ7
 BAR2 SZ EP       16 4  4.54                             171     0.010   22 185 
 BAR2 SZ I        16 4 21.48        14.8 0.28                            22 185 
 GIR2 SZ EP   1   16 4  4.79                             167     0.1 7   32 354 
 BRR  HZ EP       16 4  6.59                             152     0.510   70 300 
 BRR  HZ I        16 4 29.42        22.3 0.22                            70 300 
 PAM  SZ EP       16 4  7.38                             150     0.110   79  40 
 PAM  SN ES   1   16 4 24.19                             150    -0.4 7   79  40 
 RUS  HZ EP       16 4  8.70                             144     0.010  100 175 
 RUS  HN ES   1   16 4 27.06                             144     0.1 7  100 175 
 RUS  HZ I        16 4 28.62        10.6 0.50                           100 175 
 PTB  HZ EP       16 4 11.52                             132    -0.3 9  146 259 
 PTB  HN ES   1   16 4 32.48                             132    -0.1 7  146 259 
 PTB  HZ I        16 4 39.85         9.8 0.52                           146 259 
 ZAR  HZ EP   2   16 4 16.68                             122    -0.7 4  203 293 
 ZAR  HE ES   2   16 4 42.54                             122     0.1 4  203 293 
 ZAR  HZ I        16 4 49.25        10.7 0.38                           203 293 
 CHI  HZ EP       16 4 22.55                             117    -0.1 8  247 195 
 CHI  HN ES   1   16 4 51.73                             117    -0.1 6  247 195 
 CHI  HZ I        16 4 57.79         5.0 0.60                           247 195 
                                                                                
