 2010 11 7 1614 35.5 L   6.736 -73.069139.1  RSN  5 0.3 1.4LRSN                1
 GAP=173        0.63       6.9    11.6  8.3  0.4249E+02 -0.2493E+02 -0.5094E+01E
 Epicentro: JORDAN - SANTANDER                                                 3
 ACTION:UP  10-12-17 16:50 OP:REBC STATUS:               ID:20101107161435 L   I
 2010-11-07-1610-04S.COL___129                                                 6
 STAT SP IPHASW D HRMM SECON CODA AMPLIT PERI AZIMU VELO SNR AR TRES W  DIS CAZ7
 BAR2 SZ ES   2   1615  9.22                             172     0.4 5   20 219 
 BAR2 SZ I        1615 18.02        10.3 0.61                            20 219 
 BRR  HZ EP   1   1614 56.33                             148    -0.2 7   82 300 
 BRR  HE ES   1   1615 12.97                             148    -0.1 7   82 300 
 BRR  HZ I        1615 14.49         6.2 0.08                            82 300 
 RUS  HZ EP   1   1614 57.70                             145    -0.3 7   93 181 
 RUS  HN ES   2   1615 15.84                             145     0.2 5   93 181 
 RUS  HZ I        1615 19.12         2.4 0.37                            93 181 
 GUE  SZ EP   2   1615  0.50                             137     0.5 5  122   8 
 RREF HZ EP   2   1615 22.23                             110     0.7 3  324 231 
                                                                                
