 2016  3 7 1818 44.5 L   6.813 -73.166136.8  RSN  7 0.4 2.0LRSN                1
 GAP=133        0.92       4.3     4.2  6.6 -0.3651E+01  0.1390E+02 -0.2640E+01E
 Epicentro: LOS SANTOS - SANTANDER                                             3
 ACTION:UPD 16-05-13 21:22 OP:cam  STATUS:               ID:20160307181844 L   I
 OLDACT:REG 16-03-07 21:01 OP:ar   STATUS:               ID:20160307180747     3
 2016-03-07-1807-47M.COL___325                                                 6
 STAT SP IPHASW D HRMM SECON CODA AMPLIT PERI AZIMU VELO AIN AR TRES W  DIS CAZ7
 BAR2 EZ EP     C 1819  2.93                             169   -0.1610 24.5 184 
 BAR2 EZ ES       1819 17.55                             169   -0.0410 24.5 184 
 BAR2 EZ I        1819 18.73        30.3 0.32            171           24.5 184 
 PAM  EZ EP       1819  5.67                             149   -0.1410 77.7  41 
 PAM  EN ES       1819 22.65                             149    0.2310 77.7  41 
 PAM  EZ I        1819 24.43        18.8 0.16            152           77.7  41 
 RUS  HZ EP   2   1819  7.30                             141   -0.22 5  102 175 
 RUS  HN ES       1819 25.64                             141    0.1810  102 175 
 RUS  HZ I        1819 26.43         8.7 0.18            146            102 175 
 PTB  HZ EP       1819  9.86                             130   -0.73 9  146 258 
 PTB  HN ES       1819 30.48                             130   -0.45 9  146 258 
 PTB  HZ I        1819 35.91        14.1 0.54            131            146 258 
 ZAR  HZ EP       1819 16.28                             121    0.16 9  201 292 
 ZAR  HN ES       1819 41.20                             121    0.43 9  201 292 
 ZAR  HZ I        1819 46.76        17.3 0.38            122            201 292 
 NOR  HZ EP       1819 19.42                             117   -0.21 8  234 234 
 NOR  HE ES       1819 47.43                             117    0.40 8  234 234 
 NOR  HZ I        1819 49.03         8.1 0.18            119            234 234 
 GUY2CHZ EP       1819 28.49                             111    0.88 7  300 234 
 GUY2CHN ES   4   1820  5.07                             111    3.84 0  300 234 
 GUY2CHZ I        1820  9.27         3.0 0.34                           300 234 
                                                                                
