 2017 11 7 1318 42.5 L   6.740 -73.105139.7  RSN  5 0.3 1.5LRSN                1
 GAP=173        0.76       6.3     4.6  6.0 -0.1758E+02  0.8602E+00  0.1087E+02E
 Epicentro: JORDAN - SANTANDER                                                 3
 ACTION:UPD 17-12-12 19:53 OP:rebc STATUS:               ID:20171107131842 L   I
 OLDACT:REG 17-11-07 20:21 OP:mg   STATUS:               ID:20171107130742     3
 2017-11-07-1308-00M.COL___417                                                 6
 STAT SP IPHASW D HRMM SECON CODA AMPLIT PERI AZIMU VELO AIN AR TRES W  DIS CAZ7
 BAR2 EZ EP       1319  1.33                             172   -0.0210 18.4 208 
 BAR2 EZ ES       1319 15.94                             172   -0.0810 18.4 208 
 BAR2 EZ I        1319 17.06         8.5 0.34            172           18.4 208 
 BRR  HZ EP       1319  3.94                             149    0.4710 78.4 301 
 BRR  HN ES       1319 19.95                             149    0.1610 78.4 301 
 BRR  HZ I        1319 23.95        13.1 0.45            147           78.4 301 
 PAM  EZ EP       1319  4.17                             149   -0.1010 80.0  34 
 PAM  EN ES       1319 21.18                             149   -0.0510 80.0  34 
 PAM  EZ I        1319 23.50         4.6 0.24            150           80.0  34 
 PTB  HZ EP   2   1319  8.74                             130   -0.58 5  151 262 
 PTB  HN ES       1319 29.69                             130   -0.52 9  151 262 
 PTB  HZ I        1319 31.63         2.7 0.14            130            151 262 
 NOR  HZ EP       1319 17.70                             117   -0.21 8  235 236 
 NOR  HN ES       1319 46.01                             117    0.50 8  235 236 
 NOR  HZ I        1319 49.13         1.9 0.15            118            235 236 
                                                                                
