 2011 11 7 1814 49.7 L   6.763 -73.110141.2  RSN  4 0.2 1.3LRSN                1
 GAP=143        0.52       3.7     4.4  6.4  0.5593E+00  0.7384E+01 -0.2105E+01E
 Epicentro: LOS SANTOS - SANTANDER                                             3
 ACTION:UPD 12-07-13 16:08 OP:ep   STATUS:               ID:20111107181449 L   I
 2011-11-07-1805-00M.COL___167                                                 6
 STAT SP IPHASW D HRMM SECON CODA AMPLIT PERI AZIMU VELO AIN AR TRES W  DIS CAZ7
 BAR2 SZ EP   1   1815  8.64                             171   -0.12 7 20.5 203 
 BAR2 SZ ES   1   1815 23.33                             171   -0.27 7 20.5 203 
 BAR2 SZ I        1815 25.67         4.3 0.46                          20.5 203 
 PAM  SZ EP   1   1815 11.72                             150    0.21 7 78.2  35 
 PAM  SE ES   1   1815 28.52                             150    0.02 7 78.2  35 
 RUS  HZ EP   1   1815 12.43                             144   -0.30 7 96.3 178 
 RUS  HE ES   1   1815 31.05                             144    0.39 7 96.3 178 
 RUS  HZ I        1815 32.50         2.7 0.44                          96.3 178 
 ZAR  HN ES   1   1815 48.05                             121    0.11 6  209 293 
 ZAR  HZ I        1815 49.56         2.8 0.12                           209 293 
                                                                                
