 2013  6 7 1028 42.5 L   6.760 -73.154143.0  RSN  7 0.4 1.7LRSN                1
 GAP=152        1.12       6.6     5.4  6.9 -0.1085E+01  0.7856E+01 -0.1087E+02E
 Epicentro: LOS SANTOS - SANTANDER                                             3
 ACTION:UPD 14-01-08 09:53 OP:ep   STATUS:               ID:20130607102842 L   I
 OLDACT:REG 13-06-07 17:08 OP:nd   STATUS:               ID:20130607102748     3
 2013-06-07-1027-48M.COL___233                                                 6
 STAT SP IPHASW D HRMM SECON CODA AMPLIT PERI AZIMU VELO AIN AR TRES W  DIS CAZ7
 BAR2 SZ EP       1029  2.08                             172    0.3610 18.8 190 
 BAR2 SZ ES       1029 16.35                             172   -0.3610 18.8 190 
 BAR2 SZ I        1029 17.85        13.8 0.22            173           18.8 190 
 GIR2 SZ EP       1029  2.07                             165    0.0910 35.6 353 
 GIR2 SZ ES       1029 16.62                             165   -0.5410 35.6 353 
 GIR2 SZ I        1029 19.92         8.2 0.38            164           35.6 353 
 BRR  HZ IP     C 1029  3.84                             151    0.4010 72.7 302 
 BRR  HZ I        1029 16.00         8.0 0.40            150           72.7 302 
 BRR  HN ES       1029 20.68                             151    0.9110 72.7 302 
 PAM  SZ EP       1029  4.75                             149    0.0710 81.4  38 
 PAM  SN ES   2   1029 22.23                             149    0.26 5 81.4  38 
 PAM  SZ I        1029 23.86         8.2 0.58            148           81.4  38 
 PTB  HZ EP       1029  8.62                             132   -0.47 9  146 260 
 PTB  HN ES       1029 29.36                             132   -0.47 9  146 260 
 PTB  HZ I        1029 31.26         4.5 0.38            131            146 260 
 ZAR  HZ EP       1029 15.30                             122    0.44 9  205 293 
 ZAR  HN ES       1029 40.25                             122    0.15 9  205 293 
 ZAR  HZ I        1029 43.79         4.6 0.36            121            205 293 
 SML  HZ EP       1029 18.88                             116   -0.50 8  247 336 
 SML  HN ES       1029 47.69                             116   -0.45 8  247 336 
 SML  HZ I        1029 50.94         4.5 0.10            115            247 336 
                                                                                
