 2013 11 7 1416 21.8 L   6.666 -73.052127.5  RSN  4 0.5 1.7LRSN                1
 GAP=155        1.07       5.1     7.3 10.5 -0.3553E+01  0.7975E+01  0.6410E+01E
 Epicentro: ARATOCA - SANTANDER                                                3
 ACTION:UPD 14-01-09 16:26 OP:ep   STATUS:               ID:20131107141621 L   I
 OLDACT:REG 13-11-07 15:06 OP:nd   STATUS:               ID:20131107141000     3
 2013-11-07-1410-00M.COL___273                                                 6
 STAT SP IPHASW D HRMM SECON CODA AMPLIT PERI AZIMU VELO AIN AR TRES W  DIS CAZ7
 PAM  SZ EP       1416 42.32                             145   -0.2310 84.0  28 
 PAM  SN ES       1416 58.85                             145    0.1110 84.0  28 
 PAM  SZ I        1417  0.69         4.5 0.20            155           84.0  28 
 RUS  HZ EP       1416 43.31                             144    0.6410 85.6 182 
 RUS  HN ES       1416 58.63                             144   -0.3210 85.6 182 
 RUS  HZ I        1417  5.30        12.9 0.28            149           85.6 182 
 BRR  HZ EP       1416 41.48                             143   -0.6410 87.7 304 
 BRR  HN ES       1416 58.38                             143    0.3910 87.7 304 
 BRR  HZ I        1417  6.61        13.2 0.34            146           87.7 304 
 GUY2CHZ EP   2   1417  5.65                             109    0.98 4  302 238 
 GUY2CHN ES   2   1417 37.60                             109   -0.52 4  302 238 
 GUY2CHZ I        1417 40.83         5.0 0.40                           302 238 
                                                                                
