 2012  5 7 1742 11.6 L   6.806 -73.190150.0  RSN  4 0.3 1.2LRSN                1
 GAP=131        0.71       5.5     5.2  9.1 -0.5162E+01  0.8384E+01  0.1911E+01E
 Epicentro: ZAPATOCA - SANTANDER                                               3
 ACTION:UP  12-07-05 12:03 OP:pat  STATUS:               ID:20120507174211 L   I
 2012-05-07-1739-43M.COL___175                                                 6
 STAT SP IPHASW D HRMM SECON CODA AMPLIT PERI AZIMU VELO SNR AR TRES W  DIS CAZ7
 BRR  HZ EP   1   1742 33.40                             155     0.4 7   67 300 
 BRR  HE ES   2   1742 50.28                             155     0.7 5   67 300 
 PAM  SZ EP   1   1742 34.12                             151    -0.3 7   80  42 
 PAM  SN ES   1   1742 52.05                             151    -0.2 7   80  42 
 RUS  HZ EP   1   1742 36.11                             144     0.3 7  102 173 
 RUS  HN ES   1   1742 54.69                             144    -0.1 7  102 173 
 RUS  HZ I        1742 56.78         1.6 0.42                           102 173 
 PTB  HZ EP   1   1742 38.39                             134    -0.1 7  143 258 
 PTB  HN ES   1   1742 59.05                             134    -0.4 7  143 258 
 PTB  HZ I        1743  4.58         2.9 0.45                           143 258 
                                                                                
