 2014 10 7 1612 38.6 L   6.770 -73.381123.8  RSN  5 0.4 1.5LRSN                1
 GAP= 97        1.00       6.9     5.1  9.4  0.2873E+01  0.4534E+01 -0.2387E+02E
 Epicentro: SAN VICENTE DE CHUCURI - SANTANDER                                 3
 ACTION:UPD 14-11-29 23:47 OP:nd   STATUS:               ID:20141007161238 L   I
 OLDACT:REG 14-10-07 22:15 OP:stll STATUS:               ID:20141007160750     3
 2014-10-07-1607-50M.COL___298                                                 6
 STAT SP IPHASW D HRMM SECON CODA AMPLIT PERI AZIMU VELO AIN AR TRES W  DIS CAZ7
 BAR2 SZ EP       1612 56.01                             166    0.2710 29.4 132 
 BAR2 SZ ES       1613  8.72                             166   -0.4010 29.4 132 
 BAR2 SZ I        1613  9.68        21.6 0.22            167           29.4 132 
 BRR  HZ EP       1612 56.34                             156    0.0310 52.3 316 
 PAM  SZ EP       1613  0.26                             139    0.2110 98.1  50 
 RUS  HZ EP       1613  0.48                             138    0.0810  102 161 
 RUS  HN ES       1613 17.49                             138    0.0810  102 161 
 RUS  HZ I        1613 19.11         3.4 0.32            139            102 161 
 PTB  HZ EP       1613  0.60                             132   -0.7910  122 258 
 PTB  HN ES       1613 19.68                             132    0.5010  122 258 
 PTB  HZ I        1613 23.84         3.9 0.30            132            122 258 
                                                                                
