 2015  9 7 1340 49.0 L   7.070 -73.356  4.0  RSN  7 0.5 1.7LRSN                1
 GAP=182        1.35       3.5     4.0  7.2  0.7917E+01  0.7568E+01  0.4810E+01E
 Epicentro: LEBRIJA - SANTANDER                                                3
 ACTION:UPD 15-10-28 16:24 OP:cam  STATUS:               ID:20150907134049 L   I
 OLDACT:DUP 15-09-08 01:50 OP:stll STATUS:               ID:20150907133750d    3
 2015-09-07-1337-48M.COL___358                                                 6
 STAT SP IPHASW D HRMM SECON CODA AMPLIT PERI AZIMU VELO AIN AR TRES W  DIS CAZ7
 BRR  HZ IP     D 1340 55.68                              47    0.0610 39.6 276 
 BRR  HZ I        1340 55.89        24.8 0.16             47           39.6 276 
 BRR  HN ES       1341  0.66                              47   -0.1010 39.6 276 
 BAR2 EZ IP     C 1340 58.33                              47   -0.0510 56.2 160 
 BAR2 EZ I        1340 58.46        16.4 0.10             47           56.2 160 
 BAR2 EZ ES       1341  4.97                              47   -0.7010 56.2 160 
 RUS  HZ EP       1341 10.75                              47    0.3810  134 167 
 RUS  HZ I        1341 10.99         6.7 0.12             47            134 167 
 RUS  HN ES       1341 26.65                              47   -0.3810  134 167 
 PTB  HZ EP       1341 10.52                              47    0.4210  135 244 
 PTB  HZ I        1341 10.88        23.9 0.20             47            135 244 
 PTB  HN ES       1341 26.11                              47   -0.4310  135 244 
 ZAR  HZ EP       1341 16.26                              47    0.52 9  172 286 
 ZAR  HN ES       1341 35.61                              47   -0.97 9  172 286 
 ZAR  HZ I        1341 37.86        12.4 0.46             47            172 286 
 SPBC HZ EP   4   1341 18.38                              47    2.05 0  176 207 
 SPBC HN ES       1341 38.81                              47    1.18 9  176 207 
 SPBC HZ I        1341 41.32        13.2 0.32             47            176 207 
 SML  HZ EP       1341 20.50                              37    0.34 8  207 338 
 SML  HN ES       1341 44.41                              37   -0.03 8  207 338 
 SML  HZ I        1341 47.13        11.4 0.10             37            207 338 
                                                                                
