 2015  6 7 1032 43.7 L   6.823 -73.190127.5  RSN  4 0.3 1.4LRSN                1
 GAP=135        0.84      11.3     6.0  7.6  0.3725E+02 -0.6547E+01 -0.4030E+02E
 Epicentro: ZAPATOCA - SANTANDER                                               3
 ACTION:UPD 15-09-10 22:10 OP:cam  STATUS:               ID:20150607103243 L   I
 OLDACT:REG 15-06-07 20:33 OP:ar   STATUS:               ID:20150607102748     3
 2015-06-07-1027-48M.COL___303                                                 6
 STAT SP IPHASW D HRMM SECON CODA AMPLIT PERI AZIMU VELO AIN AR TRES W  DIS CAZ7
 BAR2 EZ EP       1033  1.05                             168   -0.1510 25.5 178 
 BAR2 EZ ES       1033 14.76                             168   -0.0810 25.5 178 
 BAR2 EZ I        1033 17.20         4.1 0.22            161           25.5 178 
 BRR  HZ EP       1033  2.83                             151    0.2510 65.7 299 
 BRR  HZ I        1033 16.88         6.3 0.40            144           65.7 299 
 BRR  HN ES       1033 17.60                             151    0.3010 65.7 299 
 PAM  SZ EP       1033  3.91                             147   -0.1910 78.7  43 
 ZAR  HZ EP       1033 14.91                             119    0.46 9  199 292 
 ZAR  HN ES       1033 37.78                             119   -0.64 9  199 292 
 ZAR  HZ I        1033 44.79         3.8 0.46            113            199 292 
                                                                                
