 2017  3 7 1153 36.2 L   6.839 -73.119148.4  RSN 26 0.8 2.9LRSN                1
 GAP= 67        1.72       4.4     5.1  7.1 -0.1754E+01  0.7290E+01  0.2165E+01E
 Epicentro: LOS SANTOS - SANTANDER                                             3
 ACTION:UPD 17-05-25 18:37 OP:jn   STATUS:               ID:20170307115336 L   I
 OLDACT:DUP 17-04-26 15:01 OP:nlst STATUS:               ID:20170307115336 L   3
 OLDACT:UP  17-03-07 21:35 OP:ar   STATUS:               ID:20170307114749d    3
 OLDACT:DUP 17-03-07 21:24 OP:ar   STATUS:               ID:20170307114749d    3
 2017-03-07-1148-00M.COL___360                                                 6
 STAT SP IPHASW D HRMM SECON CODA AMPLIT PERI AZIMU VELO AIN AR TRES W  DIS CAZ7
 BAR2 EZ IP     D 1153 56.15                             169   -0.1510 28.1 194 
 BAR2 EZ ES       1154 11.39                             169   -0.5510 28.1 194 
 BAR2 EZ I        1154 13.73       116.4 0.40            166           28.1 194 
 BRR  HZ EP       1153 57.97                             152    0.2510 71.9 294 
 BRR  HE ES       1154 15.51                             152    1.0410 71.9 294 
 BRR  HZ I        1154 18.36        91.1 0.34            152           71.9 294 
 PAM  EZ EP       1153 58.95                             152    0.5010 72.2  40 
 PAM  EN ES       1154 16.17                             152    0.4010 72.2  40 
 PAM  EZ I        1154 17.97       173.4 0.56            156           72.2  40 
 RUS  HZ EP       1154  0.12                             143   -0.4310  105 178 
 RUS  HN ES       1154 19.14                             143   -0.3810  105 178 
 RUS  HZ I        1154 20.25        61.1 0.36            143            105 178 
 PTB  HZ EP       1154  2.92                             131   -0.84 9  151 257 
 PTB  HN ES       1154 24.40                             131   -0.83 9  151 257 
 PTB  HZ I        1154 26.44        78.9 0.18            131            151 257 
 TAM  HZ IP     D 1154  4.30                             131    0.32 9  153 107 
 SPBC HZ EP       1154  5.16                             128   -0.27 9  168 219 
 SPBC HN ES       1154 27.55                             128   -0.65 9  168 219 
 SPBC HZ I        1154 29.69       135.0 0.42            128            168 219 
 ZAR  HZ EP       1154  8.68                             122   -0.30 9  205 291 
 ZAR  HE ES       1154 34.63                             122    0.12 9  205 291 
 ZAR  HZ I        1154 40.36        78.8 0.40            123            205 291 
 CHI  HZ EP       1154 14.41                             117   -0.21 8  254 196 
 CHI  HN ES       1154 43.96                             117   -0.59 8  254 196 
 CHI  HZ I        1154 50.03        25.4 0.68            117            254 196 
 ROSC BZ EP   4   1154 16.70                             116    1.63 0  258 211 
 ROSC BN ES   4   1154 48.69                             116    3.33 0  258 211 
 ROSC BZ I        1154 50.58        57.0 0.35            116            258 211 
 HEL  HZ EP       1154 18.50                             114    1.48 7  276 255 
 HEL  HN ES       1154 49.08                             114    0.25 7  276 255 
 HEL  HZ I        1154 54.54        34.1 0.24            115            276 255 
 URE  HZ EP   9   1154 16.67                             113   -0.90 0  285 291 
 URE  HN ES       1154 47.07                             113   -1.83 7  285 291 
 URE  HZ I        1154 50.78        46.6 0.18            114            285 291 
 LL1C HZ EP       1154 20.79                             112    1.26 7  303 351 
 LL1C HN ES   4   1154 57.16                             112    3.87 0  303 351 
 GUY2CHZ EP       1154 21.55                             112    1.03 7  306 234 
 GUY2CHN ES   4   1154 58.95                             112    3.89 0  306 234 
 GUY2CHZ  IAML    1155  2.87        45.2 0.68                           306 234 
 VIL  EZ EP       1154 20.24                             112   -0.08 7  308 192 
 VIL  EN ES       1154 54.36                             112   -0.34 7  308 192 
 VIL  EZ I        1154 59.74        34.5 0.46            112            308 192 
 PTGC HZ EP   9   1154 19.07                             111   -1.48 0  312 159 
 PTGC HN ES       1154 52.56                             111   -1.07 7  312 159 
 PTGC HZ I        1154 57.31        43.9 0.42            112            312 159 
 ELA  HZ EP   4   1154 25.56                             110    1.78 0  334 229 
 ELA  HE ES   4   1155  2.90                             110    2.05 0  334 229 
 ELA  HZ I        1155  8.01        34.2 0.38            110            334 229 
 CBOC HZ EP       1154 24.71                             110    0.97 7  338 252 
 CBOC HN ES       1155  1.19                             110    0.41 7  338 252 
 CBOC HZ I        1155  6.45        12.6 0.48            110            338 252 
 DBB  EZ EP       1154 25.47                             109    1.34 7  342 273 
 DBB  EN ES       1154 59.94                             109   -1.54 7  342 273 
 DBB  EZ I        1155  1.93        18.7 0.22            110            342 273 
 ANIL HZ EP       1154 28.08                             108    1.34 6  362 224 
 ANIL HN ES   4   1155  8.50                             108    2.38 0  362 224 
 ANIL HZ I        1155 13.09        77.8 0.34            109            362 224 
 PRA  HZ EP       1154 30.16                             106   -0.30 6  397 210 
 PRA  HN ES       1155 12.39                             106   -0.36 6  397 210 
 PRA  HZ I        1155 18.09        27.4 0.40            107            397 210 
 ORTC HZ EP       1154 30.58                             106   -0.28 6  401 216 
 ORTC HN ES       1155 14.21                             106    0.75 6  401 216 
 ORTC HZ I        1155 20.96        20.5 0.24            107            401 216 
 SJC  HZ EP       1154 30.32                             106   -1.34 6  407 326 
 SJC  HN ES   4   1155 11.38                             106   -3.51 0  407 326 
 SJC  HZ I        1155 15.71        15.3 0.46            107            407 326 
 CRJC HZ EP       1154 36.18                             103   -2.11 5  463   3 
 CRJC HE ES       1155 25.35                             103   -1.34 5  463   3 
 CRJC HZ I        1155 28.36        13.1 0.36            104            463   3 
 URI  HZ EP   2   1154 46.47                             101   -2.26 2  552  13 
 JAMC HZ EP       1154 52.29                             101    2.06 3  562 225 
                                                                                
