 2017 10 7 1807 48.6 L   6.770 -73.114146.4  RSN  6 0.2 1.7LRSN                1
 GAP=245        0.52       2.9     3.1  4.2  0.7035E+00  0.5690E+01 -0.1320E+01E
 Epicentro: LOS SANTOS - SANTANDER                                             3
 ACTION:UPD 17-11-07 19:29 OP:rebc STATUS:               ID:20171007180748 L   I
 OLDACT:DUP 17-10-07 23:55 OP:osc  STATUS:               ID:20171007175739d    3
 OLDACT:DUP 17-10-07 23:45 OP:osc  STATUS:               ID:20171007175737d    3
 2017-10-07-1758-00M.COL___435                                                 6
 STAT SP IPHASW D HRMM SECON CODA AMPLIT PERI AZIMU VELO AIN AR TRES W  DIS CAZ7
 BAR2 EZ EP       18 8  8.02                             171   -0.2010 21.0 201 
 BAR2 EZ ES       18 8 23.62                             171    0.0710 21.0 201 
 BAR2 EZ I        18 8 25.72        13.0 0.25            166           21.0 201 
 RUS  HZ EP       18 8 12.05                             145   -0.0710 97.1 178 
 RUS  HN ES       18 8 30.52                             145    0.0210 97.1 178 
 RUS  HZ I        18 8 31.79         6.4 0.32            147           97.1 178 
 SPBC HZ EP       18 8 17.09                             129    0.02 9  163 221 
 SPBC HE ES       18 8 39.57                             129    0.26 9  163 221 
 SPBC HZ I        18 8 45.98        13.0 0.10            130            163 221 
 ZAR  HZ EP       18 8 21.87                             122    0.36 8  209 293 
 ZAR  HE ES       18 8 47.07                             122   -0.14 8  209 293 
 ZAR  HZ I        18 8 54.80         4.3 0.36            122            209 293 
 NOR  HZ EP       18 8 24.41                             118   -0.01 8  236 236 
 NOR  HE ES       18 8 51.96                             118   -0.44 8  236 236 
 NOR  HZ I        18 8 59.84         3.0 0.16            119            236 236 
 GUY2CHE ES       18 9  6.59                             112    0.17 7  302 236 
 GUY2CHZ I        18 9 13.45         1.9 0.30                           302 236 
                                                                                
