 2010  3 7 1506 38.5 L   6.926 -73.187121.2  RSN  4 0.2 1.8LRSN                1
 GAP=180        0.52       5.0     8.8  6.6  0.3083E+02 -0.3603E+02 -0.1683E+02E
 Epicentro: BETULIA - SANTANDER                                                3
 ACTION:UP  10-08-24 09:52 OP:vdl  STATUS:               ID:20100307150638 L   I
 2010-03-07-1502-24S.COL___100                                                 6
 STAT SP IPHASW D HRMM SECON CODA AMPLIT PERI AZIMU VELO SNR AR TRES W  DIS CAZ7
 BAR2 SZ EP       15 6 55.90                             162     0.310   37 179 
 BAR2 SZ ES   1   15 7  8.64                             162    -0.3 7   37 179 
 BRR  HZ EP       15 6 56.28                             151    -0.210   61 289 
 BRR  HZ I        15 6 56.63        10.4 0.15                            61 289 
 BRR  HE ES       15 7 10.53                             151     0.110   61 289 
 RUS  BZ EP   1   15 7  1.17                             133     0.0 7  115 174 
 RUS  BE ES   2   15 7 18.68                             133    -0.1 5  115 174 
 OCA  SZ EP   1   15 7  3.41                             126    -0.2 7  146 354 
 OCA  SZ ES   3   15 7 23.45                             126     0.3 2  146 354 
 OCA  SZ I        15 7 33.51        16.9 0.30                           146 354 
                                                                                
