 2013  5 7 1522 43.8 L   7.284 -73.424109.7  RSN  9 0.4 2.1LRSN                1
 GAP= 79        0.88       3.0     4.3  5.8 -0.2446E+00  0.9991E+01 -0.9469E+00E
 Epicentro: SABANA DE TORRES - SANTANDER                                       3
 ACTION:UPD 13-06-20 09:48 OP:ep   STATUS:               ID:20130507152243 L   I
 2013-05-07-1520-00M.COL___256                                                 6
 STAT SP IPHASW D HRMM SECON CODA AMPLIT PERI AZIMU VELO AIN AR TRES W  DIS CAZ7
 GIR2 SZ EP       1522 59.46                             161    0.1010 34.1 132 
 GIR2 SZ I        1522 59.67        77.8 0.10            166           34.1 132 
 GIR2 SZ ES       1523 11.07                             161   -0.3910 34.1 132 
 BRR  HZ EP     D 1522 59.26                             160   -0.0210 37.4 238 
 BRR  HZ I        1522 59.48        30.6 0.34            156           37.4 238 
 BRR  HE ES   1   1523 11.62                             160    0.30 7 37.4 238 
 PAM  SZ EP   2   1523  3.05                             141    0.48 5 80.2  86 
 PAM  SN ES   1   1523 17.41                             141    0.22 7 80.2  86 
 PAM  SZ I        1523 18.56        34.6 0.28            149           80.2  86 
 BAR2 SZ EP     C 1523  2.62                             141    0.3310 81.1 161 
 BAR2 SZ I        1523  2.92        51.1 0.30            144           81.1 161 
 BAR2 SZ ES       1523 16.97                             141    0.2910 81.1 161 
 OCA  HZ EP       1523  4.16                             132   -0.1210  106   6 
 OCA  HE ES       1523 19.97                             132   -0.2510  106   6 
 OCA  HZ I        1523 22.01        50.8 0.32            136            106   6 
 PTB  HZ EP     C 1523  6.92                             124   -0.50 9  141 234 
 PTB  HN ES   1   1523 25.50                             124   -0.31 7  141 234 
 PTB  HZ I        1523 31.43        22.3 0.34            124            141 234 
 RUS  HZ EP     C 1523  9.61                             120   -0.26 9  158 166 
 RUS  HN ES   1   1523 29.79                             120   -0.39 7  158 166 
 RUS  HZ I        1523 31.93         6.4 0.36            124            158 166 
 ZAR  HZ EP       1523 10.27                             120    0.86 9  160 278 
 ZAR  HN ES   4   1523 31.35                             120    2.00 0  160 278 
 ZAR  HZ I        1523 34.32        22.1 0.26            121            160 278 
 SML  HZ EP   2   1523 11.31                             116   -0.48 4  182 337 
 NOR  HN ES   4   1523 49.39                             108    2.33 0  249 220 
                                                                                
