 2014  9 7 1923  7.1 L   6.799 -73.147147.0  RSN  8 0.5 1.8LRSN                1
 GAP=214        1.09       4.9     9.1  8.5 -0.3991E+01  0.8050E+01  0.3934E+01E
 Epicentro: LOS SANTOS - SANTANDER                                             3
 ACTION:UPD 14-10-03 23:03 OP:nd   STATUS:               ID:20140907192307 L   I
 OLDACT:DUP 14-09-07 23:57 OP:fm   STATUS:               ID:20140907191821d    3
 2014-09-07-1918-19M.COL___263                                                 6
 STAT SP IPHASW D HRMM SECON CODA AMPLIT PERI AZIMU VELO AIN AR TRES W  DIS CAZ7
 BAR2 SZ ES   1   1923 42.01                             171   -0.26 7 23.2 190 
 BAR2 SZ I        1923 44.86         9.1 0.18            166           23.2 190 
 BRR  HZ EP       1923 28.95                             153    0.6010 71.1 299 
 BRR  HN ES       1923 45.36                             153    0.4110 71.1 299 
 BRR  HZ I        1923 51.70        10.5 0.82            149           71.1 299 
 PTB  HZ EP       1923 33.28                             133   -0.85 9  148 259 
 PTB  HN ES       1923 54.69                             133   -0.54 9  148 259 
 PTB  HZ I        1924  2.63         7.6 0.48            132            148 259 
 SPBC HZ EP       1923 35.76                             130    0.11 9  163 219 
 SPBC HN ES       1923 57.86                             130   -0.08 9  163 219 
 SPBC HZ I        1924  4.02         9.4 0.12            131            163 219 
 ZAR  HE ES   1   1924  5.23                             123    0.28 6  204 292 
 ZAR  HZ I        1924 11.65         5.3 0.64            124            204 292 
 NOR  HN ES   1   1924 11.49                             119    0.72 6  235 234 
 NOR  HZ I        1924 15.38         5.3 0.20            121            235 234 
 SML  HZ EP   4   1923 37.02                             118   -6.76 0  244 335 
 SML  HN ES       1924 12.04                             118   -0.36 8  244 335 
 SML  HZ I        1924 15.65         7.2 0.10            121            244 335 
 GUY2CHZ EP       1923 51.06                             113    0.34 7  301 235 
 GUY2CHN ES   4   1924 26.39                             113    1.63 0  301 235 
 GUY2CHZ I        1924 34.06         3.9 0.78                           301 235 
                                                                                
