 2013  5 7 1943 53.0 L   6.772 -73.159154.0  RSN  5 0.5 1.6LRSN                1
 GAP=181        0.85       7.5     6.4  8.7  0.8003E+01  0.1044E+01  0.1132E+02E
 Epicentro: LOS SANTOS - SANTANDER                                             3
 ACTION:UPD 13-06-20 09:48 OP:ep   STATUS:               ID:20130507194353 L   I
 2013-05-07-1940-00M.COL___256                                                 6
 STAT SP IPHASW D HRMM SECON CODA AMPLIT PERI AZIMU VELO AIN AR TRES W  DIS CAZ7
 BAR2 SZ EP     C 1944 13.45                             172   -0.1610 20.0 187 
 BAR2 SZ ES   2   1944 28.43                             172   -1.22 5 20.0 187 
 GIR2 SZ EP   1   1944 13.50                             167   -0.28 7 34.2 354 
 GIR2 SZ ES   1   1944 30.06                             167    0.12 7 34.2 354 
 GIR2 SZ I        1944 30.72         8.3 0.34            168           34.2 354 
 BRR  HZ EP   2   1944 15.46                             154    0.36 5 71.4 301 
 BRR  HN ES   1   1944 32.99                             154    0.68 7 71.4 301 
 RUS  HZ EP   1   1944 17.33                             147   -0.08 7 97.6 175 
 RUS  HZ I        1944 18.28         3.1 0.44            146           97.6 175 
 RUS  HN ES   1   1944 37.01                             147    0.60 7 97.6 175 
 PTB  HZ EP   1   1944 20.45                             135   -0.06 7  146 260 
 PTB  HN ES       1944 41.73                             135   -0.21 9  146 260 
 PTB  HZ I        1944 46.04         9.1 0.16            133            146 260 
                                                                                
