 2012  5 7 1227  6.3 L   6.765 -73.138140.2  RSN  6 0.2 1.4LRSN                1
 GAP=139        0.39       2.6     2.7  4.1  0.9810E-01  0.4899E+01 -0.1777E+01E
 Epicentro: LOS SANTOS - SANTANDER                                             3
 ACTION:UP  12-07-05 12:03 OP:pat  STATUS:               ID:20120507122706 L   I
 2012-05-07-1219-37M.COL___184                                                 6
 STAT SP IPHASW D HRMM SECON CODA AMPLIT PERI AZIMU VELO SNR AR TRES W  DIS CAZ7
 BAR2 SZ EP   1   1227 25.15                             172    -0.1 7   20 194 
 BAR2 SZ ES   1   1227 39.81                             172    -0.1 7   20 194 
 BRR  HZ EP   1   1227 26.91                             151    -0.1 7   74 301 
 PAM  SZ EP   1   1227 27.87                             149    -0.2 7   80  37 
 PAM  SN ES   1   1227 45.31                             149     0.2 7   80  37 
 RUS  HZ EP   1   1227 29.40                             144     0.2 7   97 176 
 RUS  HN ES   1   1227 47.20                             144     0.1 7   97 176 
 RUS  HZ I        1227 49.91         2.4 0.52                            97 176 
 PTB  HZ EP   1   1227 32.77                             131    -0.1 7  148 260 
 PTB  HN ES   2   1227 53.47                             131    -0.1 5  148 260 
 PTB  HZ I        1227 56.69         2.9 0.23                           148 260 
 ZAR  HZ EP   1   1227 38.87                             121     0.2 6  206 293 
 ZAR  HN ES   1   1228  3.97                             121     0.1 6  206 293 
 ZAR  HZ I        1228  9.95         6.1 0.41                           206 293 
                                                                                
