 2013  7 7 1859 45.5 L   6.612 -73.341135.2  RSN  5 0.5 1.5LRSN                1
 GAP=134        0.94       7.4     7.0 10.0  0.1451E+02  0.1738E+02  0.6535E+01E
 Epicentro: GALAN - SANTANDER                                                  3
 ACTION:UPD 13-08-12 10:36 OP:ep   STATUS:               ID:20130707185945 L   I
 OLDACT:REG 13-07-07 17:59 OP:jn   STATUS:               ID:20130707185748     3
 2013-07-07-1857-48M.COL___221                                                 6
 STAT SP IPHASW D HRMM SECON CODA AMPLIT PERI AZIMU VELO AIN AR TRES W  DIS CAZ7
 BAR2 SZ EP   1   19 0  3.70                             171   -0.02 7 17.6  97 
 BAR2 SZ ES   1   19 0 17.68                             171   -0.28 7 17.6  97 
 BRR  HZ EP       19 0  5.52                             151    0.2010 68.4 323 
 BRR  HN ES   1   19 0 21.40                             151    0.59 7 68.4 323 
 RUS  HZ EP   1   19 0  7.36                             146    0.32 7 84.5 160 
 RUS  HN ES   1   19 0 23.79                             146   -0.07 7 84.5 160 
 RUS  HZ I        19 0 24.02         3.1 0.65            142           84.5 160 
 PTB  HZ EP   1   19 0  8.75                             135   -0.67 7  124 266 
 PTB  HN ES   1   19 0 27.38                             135   -0.71 7  124 266 
 PTB  HZ I        19 0 30.37         5.6 0.40            130            124 266 
 NOR  HN ES   2   19 0 43.57                             120    1.23 4  205 236 
 NOR  HZ I        19 0 49.33         4.7 0.58            116            205 236 
                                                                                
