 2011 12 7 1723 46.3 L   5.899 -73.750105.2  RSN  4 0.1 1.6LRSN                1
 GAP=163        0.34       4.0     2.5  5.5 -0.6539E+01  0.6217E+01 -0.5283E+01E
 Epicentro: JESUS MARIA - SANTANDER                                            3
 ACTION:UPD 12-07-13 16:14 OP:ep   STATUS:               ID:20111207172346 L   I
 2011-12-07-1720-00M.COL___182                                                 6
 STAT SP IPHASW D HRMM SECON CODA AMPLIT PERI AZIMU VELO AIN AR TRES W  DIS CAZ7
 RUS  HZ EP   1   1724  4.23                             143    0.14 7 73.8  91 
 RUS  HN ES   1   1724 17.91                             143   -0.09 7 73.8  91 
 RUS  HZ I        1724 20.69         4.3 0.33                          73.8  91 
 BAR2 SZ EP   1   1724  5.65                             133   -0.16 7 99.1  39 
 BAR2 SZ ES   1   1724 21.18                             133    0.12 7 99.1  39 
 BAR2 SZ I        1724 22.77        21.7 0.44                          99.1  39 
 NOR  SZ EP   1   1724  8.54                             125    0.10 7  129 253 
 NOR  SE ES   1   1724 25.69                             125   -0.05 7  129 253 
 GIR2 SZ EP   2   1724  9.97                             121   -0.10 5  144  25 
                                                                                
