 2012  8 7 1019  3.3 L   6.397 -73.637106.5  RSN  5 0.4 1.2LRSN                1
 GAP=148        0.77       5.1     4.8 10.3  0.5085E+01 -0.1349E-01  0.9686E+01E
 Epicentro: SANTA HELENA DEL OPON - SANTANDER                                  3
 ACTION:UPD 12-09-10 11:55 OP:ep   STATUS:               ID:20120807101903 L   I
 2012-08-07-1017-36M.COL___209                                                 6
 STAT SP IPHASW D HRMM SECON CODA AMPLIT PERI AZIMU VELO AIN AR TRES W  DIS CAZ7
 BAR2 SZ EP   1   1019 19.99                             151    0.40 7 54.7  67 
 BAR2 SZ ES   1   1019 32.86                             151    0.53 7 54.7  67 
 BAR2 SZ I        1019 33.62        10.5 0.19                          54.7  67 
 BRR  HN ES   1   1019 34.31                             140   -0.40 7 79.0 354 
 RUS  HZ EP   1   1019 22.15                             140    0.23 7 82.8 132 
 RUS  HN ES   1   1019 35.90                             140   -0.56 7 82.8 132 
 GIR2 SZ EP   1   1019 21.62                             137   -0.39 7 90.0  33 
 GIR2 SZ ES   1   1019 36.68                             137    0.05 7 90.0  33 
 PTB  HN ES   1   1019 36.77                             136    0.14 7 92.0 280 
 PTB  HZ I        1019 38.01         1.4 0.15                          92.0 280 
                                                                                
