 2010 12 7 1047 27.0 L   6.749 -72.792137.0  RSN  6 0.2 1.8LRSN                1
 GAP=249        0.59       6.4    16.8  7.3 -0.7142E+02 -0.7680E+02  0.8600E+01E
 Epicentro: MOLAGAVITA - SANTANDER                                             3
 ACTION:UP  11-01-14 15:23 OP:pat  STATUS:               ID:20101207104727 L   I
 2010-12-07-1045-54S.COL___135                                                 6
 STAT SP IPHASW D HRMM SECON CODA AMPLIT PERI AZIMU VELO SNR AR TRES W  DIS CAZ7
 BAR2 SZ EP       1047 46.15                             160    -0.110   47 248 
 BAR2 SZ ES   1   1048  1.49                             160     0.2 7   47 248 
 BAR2 SZ I        1048  3.05        22.4 0.21                            47 248 
 BTL  SZ EP       1047 46.61                             157    -0.110   56 290 
 BTL  SZ ES   1   1048  2.09                             157     0.0 7   56 290 
 GIR2 SZ ES   3   1048  1.50                             156    -0.5 2   57 309 
 GUE  SZ EP       1047 51.65                             136     0.410  120 353 
 GRA  SZ EP       1047 51.22                             135    -0.210  126 359 
 GRA  SZ ES   1   1048 10.35                             135    -0.1 7  126 359 
 GRA  SZ I        1048 14.15         6.1 0.08                           126 359 
 OCA  SZ EP       1047 55.97                             125    -0.1 9  175 341 
 OCA  SZ I        1048 20.04         9.1 0.17                           175 341 
                                                                                
