 2015  8 7 1413  2.2 L   6.811 -73.105144.9  RSN  9 0.4 2.0LRSN                1
 GAP=141        1.03       4.2     5.5  6.6  0.4377E+01  0.1641E+02  0.9215E+01E
 Epicentro: LOS SANTOS - SANTANDER                                             3
 ACTION:UPD 15-09-15 23:00 OP:cam  STATUS:               ID:20150807141302 L   I
 OLDACT:REG 15-08-07 20:44 OP:drio STATUS:               ID:20150807140749     3
 2015-08-07-1407-49M.COL___361                                                 6
 STAT SP IPHASW D HRMM SECON CODA AMPLIT PERI AZIMU VELO AIN AR TRES W  DIS CAZ7
 BAR2 EZ EP       1413 21.77                             169   -0.0410 25.7 199 
 BAR2 EZ ES       1413 37.36                             169    0.2810 25.7 199 
 BAR2 EZ I        1413 37.89        19.2 0.24            167           25.7 199 
 PAM  EN ES       1413 40.63                             152   -0.5810 73.6  37 
 BRR  HZ EP       1413 23.61                             151    0.1210 74.6 296 
 BRR  HE ES       1413 40.80                             151    0.7410 74.6 296 
 BRR  HZ I        1413 43.67        16.7 0.32            147           74.6 296 
 RUS  HZ EP       1413 26.22                             143    0.2510  102 179 
 RUS  HE ES       1413 44.24                             143   -0.2510  102 179 
 ZAR  HZ EP       1413 35.33                             122    0.32 8  208 291 
 ZAR  HE ES       1413 59.83                             122   -0.74 8  208 291 
 ZAR  HZ I        1414  5.96         9.6 0.32            120            208 291 
 NOR  HZ EP       1413 37.92                             118   -0.47 8  239 235 
 NOR  HE ES       1414  6.19                             118   -0.40 8  239 235 
 NOR  HZ I        1414 11.14         6.0 0.18            117            239 235 
 SML  HZ I        1414 12.93        10.9 0.10            117            244 334 
 CHI  HZ EP       1413 40.42                             117    0.27 8  251 196 
 CHI  HN ES       1414  9.59                             117   -0.13 8  251 196 
 CHI  HZ I        1414 14.56         5.7 0.30            117            251 196 
 GUY2CHZ EP       1413 46.81                             112    0.51 7  306 235 
 GUY2CHN ES   4   1414 23.36                             112    2.69 0  306 235 
 GUY2CHZ I        1414 27.01         3.6 0.30                           306 235 
                                                                                
