 2015  8 7 1207  6.0 L   6.778 -73.076140.1  RSN 11 0.4 2.0LRSN                1
 GAP=207        0.96       3.3     4.7  5.5  0.1739E+01  0.9140E+01  0.7139E+00E
 Epicentro: LOS SANTOS - SANTANDER                                             3
 ACTION:UPD 15-09-15 23:00 OP:cam  STATUS:               ID:20150807120706 L   I
 OLDACT:REG 15-08-07 20:39 OP:drio STATUS:               ID:20150807115748     3
 2015-08-07-1157-48M.COL___355                                                 6
 STAT SP IPHASW D HRMM SECON CODA AMPLIT PERI AZIMU VELO AIN AR TRES W  DIS CAZ7
 BAR2 EZ EP       12 7 25.10                             170    0.1310 23.7 210 
 BAR2 EZ ES       12 7 39.97                             170    0.2210 23.7 210 
 BAR2 EZ I        12 7 42.75        20.8 0.44            164           23.7 210 
 BRR  HZ EP     C 12 7 26.98                             149   -0.0510 79.2 297 
 BRR  HE ES       12 7 43.68                             149    0.2510 79.2 297 
 BRR  HZ I        12 7 51.11        11.2 0.32            146           79.2 297 
 RUS  HZ EP       12 7 29.07                             143    0.0610 97.9 180 
 RUS  HE ES       12 7 46.63                             143   -0.3210 97.9 180 
 RUS  HZ I        12 7 50.41        10.3 0.38            145           97.9 180 
 ZAR  HZ EP       12 7 39.69                             120    0.75 8  212 292 
 ZAR  HE ES       12 8  4.44                             120   -0.18 8  212 292 
 ZAR  HZ I        12 8 11.48         9.1 0.44            121            212 292 
 NOR  HZ EP       12 7 41.38                             117   -0.57 8  240 236 
 NOR  HE ES       12 8  9.12                             117   -0.87 8  240 236 
 NOR  HZ I        12 8 13.67         8.6 0.20            118            240 236 
 CHI  HZ EP       12 7 43.51                             116    0.14 8  248 197 
 CHI  HE ES   4   12 8 14.17                             116    1.65 0  248 197 
 CHI  HZ I        12 8 22.34         4.2 0.64            118            248 197 
 SML  HZ EP       12 7 42.14                             116   -0.79 8  249 334 
 SML  HN ES       12 8 11.54                             116   -0.18 8  249 334 
 SML  HZ I        12 8 15.58        12.1 0.32            118            249 334 
 HEL  HZ EP       12 7 47.21                             113    0.50 7  279 257 
 HEL  HE ES       12 8 18.34                             113   -0.12 7  279 257 
 HEL  HZ I        12 8 25.44         5.2 0.68            114            279 257 
 URE  HZ EP   4   12 7 49.58                             112    1.86 0  292 292 
 URE  HN ES   4   12 8 16.94                             112   -3.31 0  292 292 
 URE  HZ I        12 8 30.66         5.6 0.18            113            292 292 
 GUY2CHZ EP       12 7 50.43                             111    0.51 7  306 236 
 GUY2CHE ES       12 8 24.73                             111    0.55 7  306 236 
 GUY2CHZ I        12 8 30.52         4.6 0.26                           306 236 
 TOL  SZ EP   4   12 7 55.37                             108    0.90 0  347 226 
 TOL  SE ES       12 8 32.29                             108    0.01 6  347 226 
 TOL  SZ I        12 8 39.93         3.9 0.60            110            347 226 
                                                                                
