 2017  5 7 1900 34.5 L   6.775 -73.151132.0  RSN  4 0.4 1.5LRSN                1
 GAP=137        0.90       4.5     4.3  9.2 -0.7632E+00  0.1720E+02 -0.4823E+01E
 Epicentro: LOS SANTOS - SANTANDER                                             3
 ACTION:UPD 17-06-16 13:33 OP:jn   STATUS:               ID:20170507190034 L   I
 OLDACT:REG 17-05-07 20:34 OP:dani STATUS:               ID:20170507185741     3
 2017-05-07-1858-00M.COL___368                                                 6
 STAT SP IPHASW D HRMM SECON CODA AMPLIT PERI AZIMU VELO AIN AR TRES W  DIS CAZ7
 PAM  EZ EP       19 0 54.93                             147   -0.4810 79.9  39 
 PAM  EN ES       19 1 11.99                             147    0.2610 79.9  39 
 PAM  EZ I        19 1 14.38         8.3 0.66            150           79.9  39 
 RUS  HZ EP       19 0 56.46                             142   -0.2310 97.9 176 
 RUS  HN ES       19 1 14.19                             142    0.1710 97.9 176 
 RUS  HZ I        19 1 15.84         3.9 0.30            146           97.9 176 
 PTB  HZ EP       19 1  0.89                             129    0.64 9  147 260 
 PTB  HN ES       19 1 19.92                             129   -0.44 9  147 260 
 PTB  HZ I        19 1 21.29         3.0 0.38            131            147 260 
 ZAR  HZ EP       19 1  6.25                             119    0.14 9  205 293 
 ZAR  HN ES       19 1 30.80                             119    0.01 9  205 293 
 ZAR  HZ I        19 1 36.57         5.2 0.31            121            205 293 
                                                                                
