 2011 11 7 1736 32.5 L   6.774 -73.131140.3  RSN 11 0.4 3.0LRSN                1
 GAP=116        0.76       3.0     3.3  4.4  0.1482E+01  0.4764E+01  0.4211E+01E
 Epicentro: LOS SANTOS - SANTANDER                                             3
 ACTION:UPD 12-07-13 16:08 OP:ep   STATUS:               ID:20111107173632 L   I
 2011-11-07-1725-00M.COL___167                                                 6
 STAT SP IPHASW D HRMM SECON CODA AMPLIT PERI AZIMU VELO AIN AR TRES W  DIS CAZ7
 BAR2 SZ IP       1736 51.49                             171    0.0910 20.9 196 
 BAR2 SZ ES       1737  5.98                             171   -0.1810 20.9 196 
 BAR2 SZ I        1737  7.61       254.9 0.26                          20.9 196 
 BRR  HZ IP     C 1736 53.30                             151    0.1010 74.0 300 
 BRR  HE ES       1737 10.03                             151    0.6610 74.0 300 
 BRR  HZ I        1737 14.40       201.8 0.09                          74.0 300 
 PAM  SZ EP       1736 54.25                             149    0.0610 78.6  37 
 PAM  SN ES       1737 10.85                             149   -0.2710 78.6  37 
 RUS  HZ EP       1736 55.48                             143    0.0110 97.6 177 
 RUS  HN ES       1737 13.18                             143   -0.2310 97.6 177 
 RUS  HZ I        1737 15.99       123.3 0.36                          97.6 177 
 YOP  SZ EP       1737  2.14                             126    0.34 9  176 153 
 YOP  SN ES   1   1737 24.67                             126    0.00 7  176 153 
 ZAR  HZ EP   1   1737  4.15                             121   -0.69 6  207 293 
 ZAR  HE ES   1   1737 29.42                             121   -0.66 6  207 293 
 ZAR  HZ I        1737 35.71       136.4 0.38                           207 293 
 NOR  SZ EP       1737  7.43                             117   -0.43 8  234 235 
 NOR  SE ES   1   1737 35.54                             117    0.09 6  234 235 
 HEL  HZ EP   1   1737 13.17                             114    0.66 6  273 256 
 HEL  HN ES   2   1737 43.66                             114   -0.08 4  273 256 
 HEL  HZ I        1737 50.62        76.8 0.54                           273 256 
 RREF HZ EP   2   1737 17.89                             110   -0.42 3  321 230 
 RREF HZ I        1737 59.97        52.5 0.23                           321 230 
 TOL  SZ EP   1   1737 21.09                             108    0.68 5  343 225 
 PRA  HZ EP       1737 25.47                             106   -0.14 6  390 210 
 PRA  HN ES   1   1738  7.13                             106    0.07 4  390 210 
                                                                                
