 2011  8 7 1411 17.0 L   6.087 -73.412120.3  RSN  4 0.2 1.6LRSN                1
 GAP=130        0.41       4.0     3.9  6.2 -0.6261E+01  0.1192E+02  0.1967E+01E
 Epicentro: SUAITA - SANTANDER                                                 3
 ACTION:UPD 12-07-25 14:06 OP:epov STATUS:               ID:20110807141117 L   I
 2011-08-07-1400-00M.COL___145                                                 6
 STAT SP IPHASW D HRMM SECON CODA AMPLIT PERI AZIMU VELO AIN AR TRES W  DIS CAZ7
 RUS  HZ EP   2   1411 34.43                             160   -0.19 5 42.3 121 
 RUS  HN ES   2   1411 48.12                             160   -0.22 5 42.3 121 
 RUS  HZ I        1411 50.14         3.1 0.25                          42.3 121 
 BAR2 SZ EP   1   1411 35.53                             151    0.31 7 61.3  24 
 BAR2 SZ I        1411 35.92        16.1 0.12                          61.3  24 
 BAR2 SZ ES   1   1411 49.51                             151    0.10 7 61.3  24 
 BRR  HZ EP   2   1411 38.89                             132   -0.27 5  118 344 
 BRR  HN ES   2   1411 56.15                             132   -0.27 5  118 344 
 BRR  HZ I        1411 59.53        15.7 0.42                           118 344 
 NOR  SZ EP   1   1411 44.43                             121   -0.09 7  171 250 
 NOR  SN ES   1   1412  6.05                             121    0.09 7  171 250 
                                                                                
