 2012  5 7 1221 27.2 L   6.871 -73.168142.6  RSN  6 0.4 1.3LRSN                1
 GAP=130        0.83       5.8     5.2  9.3 -0.2372E+00  0.1577E+02 -0.5018E+01E
 Epicentro: ZAPATOCA - SANTANDER                                               3
 ACTION:UP  12-07-05 12:03 OP:pat  STATUS:               ID:20120507122127 L   I
 2012-05-07-1219-37M.COL___184                                                 6
 STAT SP IPHASW D HRMM SECON CODA AMPLIT PERI AZIMU VELO SNR AR TRES W  DIS CAZ7
 BAR2 SZ EP   1   1221 46.74                             167     0.1 7   31 183 
 BAR2 SZ ES   1   1222  2.07                             167     0.3 7   31 183 
 BRR  HZ EP   1   1221 47.67                             154    -0.1 7   66 294 
 PAM  SZ EP   1   1221 49.52                             152     0.7 7   73  45 
 PAM  SN ES   1   1222  5.14                             152    -0.6 7   73  45 
 RUS  HZ EP   1   1221 50.91                             141    -0.4 7  109 175 
 RUS  HN ES   1   1222 10.30                             141     0.3 7  109 175 
 RUS  HZ I        1222 11.22         3.8 0.35                           109 175 
 PTB  HZ EP   1   1221 53.54                             131    -0.3 7  147 256 
 PTB  HE ES   1   1222 14.34                             131    -0.3 7  147 256 
 PTB  HZ I        1222 18.89         2.6 0.23                           147 256 
 ZAR  HN ES   1   1222 24.09                             122     0.4 6  199 290 
                                                                                
