 2017  5 7 1634  6.7 L   6.780 -73.126144.8  RSN  5 0.3 1.7LRSN                1
 GAP=140        0.71       3.7     3.9  5.9  0.2934E+01  0.7854E+01  0.2151E+01E
 Epicentro: LOS SANTOS - SANTANDER                                             3
 ACTION:UPD 17-06-16 13:33 OP:jn   STATUS:               ID:20170507163406 L   I
 OLDACT:REG 17-05-07 20:24 OP:dani STATUS:               ID:20170507162747     3
 2017-05-07-1628-00M.COL___358                                                 6
 STAT SP IPHASW D HRMM SECON CODA AMPLIT PERI AZIMU VELO AIN AR TRES W  DIS CAZ7
 BRR  HZ EP       1634 28.08                             151    0.1210 74.1 299 
 BRR  HN ES       1634 44.87                             151    0.3710 74.1 299 
 BRR  HZ I        1634 49.36        13.5 0.12            150           74.1 299 
 PAM  EZ EP       1634 29.04                             150    0.1610 77.8  37 
 PAM  EN ES       1634 45.94                             150   -0.2010 77.8  37 
 PAM  EZ I        1634 48.30         9.3 0.54            154           77.8  37 
 RUS  HZ EP       1634 30.27                             144    0.0310 98.3 177 
 RUS  HN ES       1634 48.32                             144   -0.2410 98.3 177 
 RUS  HZ I        1634 49.38         5.5 0.22            149           98.3 177 
 PTB  HZ EP       1634 34.14                             131    0.35 9  149 260 
 ZAR  HZ EP       1634 39.00                             122   -0.42 8  207 292 
 ZAR  HN ES       1635  4.55                             122   -0.35 8  207 292 
 ZAR  HZ I        1635 10.60         7.1 0.26            123            207 292 
                                                                                
