 2014  8 7 1929  6.5 L   6.824 -73.136146.9  RSN  5 0.3 1.5LRSN                1
 GAP=136        0.83       4.6     4.4  7.0 -0.2487E+01  0.1696E+01  0.3679E+01E
 Epicentro: LOS SANTOS - SANTANDER                                             3
 ACTION:UPD 14-09-15 21:47 OP:nd   STATUS:               ID:20140807192906 L   I
 OLDACT:DUP 14-08-07 23:27 OP:spq  STATUS:               ID:20140807192819d    3
 2014-08-07-1928-18M.COL___257                                                 6
 STAT SP IPHASW D HRMM SECON CODA AMPLIT PERI AZIMU VELO AIN AR TRES W  DIS CAZ7
 BAR2 SZ ES   1   1929 41.87                             169    0.05 7 26.2 191 
 BAR2 SZ I        1929 44.72         6.6 0.26            171           26.2 191 
 BRR  HZ EP   1   1929 27.28                             153   -0.50 7 70.9 296 
 BRR  HN ES       1929 44.44                             153    0.0810 70.9 296 
 BRR  HZ I        1929 47.01        13.0 0.26            154           70.9 296 
 PAM  SZ EP       1929 29.34                             152    0.6310 74.6  40 
 PAM  SN ES       1929 45.63                             152   -0.3710 74.6  40 
 PAM  SZ I        1929 49.29         4.4 0.60            154           74.6  40 
 RUS  HZ EP       1929 30.64                             143    0.0610  103 177 
 RUS  HN ES       1929 49.27                             143   -0.0710  103 177 
 RUS  HZ I        1929 50.84         3.3 0.32            147            103 177 
 PTB  HZ EP   1   1929 33.26                             132   -0.47 7  149 258 
 PTB  HN ES       1929 55.12                             132    0.18 9  149 258 
 PTB  HZ I        1929 57.33         2.7 0.13            135            149 258 
                                                                                
