 2016 10 7 1808 37.2 L   6.545 -73.598109.4  RSN  4 0.3 1.5LRSN                1
 GAP=139        0.69       3.8     2.7  6.2 -0.1505E+01  0.1761E+01 -0.4874E+01E
 Epicentro: EL CARMEN - SANTANDER                                              3
 ACTION:UPD 16-11-09 19:17 OP:rebc STATUS:               ID:20161007180837 L   I
 OLDACT:UP  16-10-07 23:54 OP:lv   STATUS:               ID:20161007175748d    3
 OLDACT:DUP 16-10-07 23:50 OP:lv   STATUS:               ID:20161007175748d    3
 2016-10-07-1758-00M.COL___336                                                 6
 STAT SP IPHASW D HRMM SECON CODA AMPLIT PERI AZIMU VELO AIN AR TRES W  DIS CAZ7
 BAR2 EZ EP       18 8 53.78                             156    0.4210 46.2  84 
 BAR2 EZ ES       18 9  6.26                             156    0.2910 46.2  84 
 RUS  HZ EP       18 8 56.69                             137   -0.1510 91.9 142 
 RUS  HN ES       18 9 11.97                             137   -0.1910 91.9 142 
 PTB  HZ EP       18 8 56.52                             136    0.0910 95.0 270 
 PTB  HN ES       18 9 11.27                             136   -0.1810 95.0 270 
 PTB  HZ I        18 9 12.47         6.7 0.30            136           95.0 270 
 PAM  EZ EP       18 9  0.63                             126    0.0810  133  48 
 PAM  EE ES       18 9 18.39                             126   -0.3910  133  48 
 PAM  EZ I        18 9 19.78         5.9 0.26            126            133  48 
                                                                                
