 2013  4 7 1546  7.0 L   6.717 -73.214149.9  RSN  4 0.3 1.3LRSN                1
 GAP=218        0.66       7.5     6.2  6.7  0.2256E+02  0.8516E+01  0.9456E+01E
 Epicentro: VILLANUEVA - SANTANDER                                             3
 ACTION:UPD 13-05-22 14:36 OP:EP   STATUS:               ID:20130407154607 L   I
 2013-04-07-1540-00M.COL___245                                                 6
 STAT SP IPHASW D HRMM SECON CODA AMPLIT PERI AZIMU VELO AIN AR TRES W  DIS CAZ7
 BAR2 SZ EP       1546 26.77                             174   -0.1910 14.3 166 
 BAR2 SZ ES       1546 42.88                             174    0.3310 14.3 166 
 BAR2 SZ I        1546 44.46         5.4 0.40            166           14.3 166 
 BRR  HE ES   1   1546 44.99                             154   -0.31 7 69.9 308 
 RUS  HZ EP   1   1546 30.92                             147    0.35 7 92.3 171 
 RUS  HN ES   1   1546 48.53                             147   -0.45 7 92.3 171 
 RUS  HZ I        1546 50.92         2.3 0.40            144           92.3 171 
 PTB  HZ EP   1   1546 33.56                             135    0.07 7  139 262 
 PTB  HN ES   1   1546 54.29                             135    0.11 7  139 262 
 PTB  HZ I        1547  0.70         2.4 0.26            131            139 262 
                                                                                
