 2017 12 7 1039 27.5 L   6.842 -73.203132.5  RSN  5 0.4 1.2LRSN                1
 GAP=244        1.05       5.6     6.7  8.0  0.1334E+02  0.1193E+02  0.4465E+01E
 Epicentro: ZAPATOCA - SANTANDER                                               3
 ACTION:UPD 18-01-04 13:17 OP:rebc STATUS:               ID:20171207103927 L   I
 OLDACT:REG 17-12-07 20:14 OP:lv   STATUS:               ID:20171207103744     3
 2017-12-07-1038-00M.COL___458                                                 6
 STAT SP IPHASW D HRMM SECON CODA AMPLIT PERI AZIMU VELO AIN AR TRES W  DIS CAZ7
 BAR2 EZ EP       1039 45.53                             168   -0.1410 27.7 175 
 BAR2 EZ ES       1039 59.97                             168    0.1510 27.7 175 
 BAR2 EZ I        1040  2.16         3.5 0.40            157           27.7 175 
 PTB  HZ EP       1039 52.41                             130   -0.55 9  143 257 
 PTB  HN ES       1040 12.37                             130   -0.42 9  143 257 
 PTB  HZ I        1040 14.63         1.2 0.16            127            143 257 
 SPBC HZ EP       1039 55.02                             126    0.00 9  163 216 
 SPBC HN ES       1040 16.18                             126   -0.29 9  163 216 
 SPBC HZ I        1040 34.79         4.3 0.10            123            163 216 
 ZAR  HZ EP       1039 58.13                             120   -0.21 9  196 292 
 ZAR  HN ES       1040 23.30                             120    0.92 9  196 292 
 ZAR  HZ I        1040 26.46         2.1 0.26            121            196 292 
 CHI  HZ EP       1040  5.03                             114    0.18 8  252 194 
 CHI  HN ES       1040 34.66                             114    0.71 8  252 194 
                                                                                
