 2017  7 7 1118 39.7 L   6.842 -73.136150.0  RSN  9 0.5 1.9LRSN                1
 GAP=186        1.17       5.9     5.7  7.2  0.7351E+01  0.6730E+00 -0.1848E+01E
 Epicentro: LOS SANTOS - SANTANDER                                             3
 ACTION:UPD 17-08-30 15:30 OP:rebc STATUS:               ID:20170707111839 L   I
 OLDACT:UP  17-07-07 22:30 OP:edw  STATUS:               ID:20170707111739     3
 OLDACT:UP  17-07-07 22:28 OP:edw  STATUS:               ID:20170707111739     3
 OLDACT:REG 17-07-07 20:03 OP:edw  STATUS:               ID:20170707111739     3
 2017-07-07-1118-00M.COL___380                                                 6
 STAT SP IPHASW D HRMM SECON CODA AMPLIT PERI AZIMU VELO AIN AR TRES W  DIS CAZ7
 BAR2 EZ IP     D 1118 59.95                             169    0.0310 28.1 191 
 BAR2 EZ ES       1119 14.88                             169   -0.8310 28.1 191 
 BAR2 EZ I        1119 15.81        22.0 0.38            163           28.1 191 
 BRR  HZ EP     D 1119  1.73                             153    0.5110 70.1 295 
 BRR  HN ES       1119 18.70                             153    0.6710 70.1 295 
 PTB  HZ EP   9   1119  6.70                             132   -0.47 0  150 257 
 PTB  HN ES       1119 27.72                             131   -0.43 9  150 257 
 PTB  HZ I        1119 32.25         5.1 0.12            128            150 257 
 YPLC HZ EP       1119 10.31                             126    0.19 9  180 152 
 YPLC HE ES   4   1119 37.93                             126    4.05 0  180 152 
 ZAR  HZ EP   4   1119 13.88                             123    1.55 0  203 291 
 ZAR  HN ES       1119 37.23                             123   -0.57 9  203 291 
 ZAR  HZ I        1119 40.76         5.9 0.26            121            203 291 
 NOR  HZ EP       1119 16.06                             119    0.02 8  238 234 
 NOR  HN ES       1119 44.72                             119    0.32 8  238 234 
 NOR  HZ I        1119 49.23         5.1 0.16            116            238 234 
 HEL  HZ EP   4   1119 22.20                             115    1.85 0  274 255 
 HEL  HN ES       1119 52.14                             115    0.06 8  274 255 
 HEL  HZ I        1120  0.12         5.4 0.42            113            274 255 
 GUY2CHN ES   4   1120  0.45                             112    2.08 0  305 234 
 PTGC HZ EP   9   1119 23.07                             112   -1.09 0  313 159 
 PTGC HN ES       1119 56.96                             112   -0.81 7  313 159 
 SJC  HZ EP       1119 34.26                             106   -0.73 6  406 326 
 SJC  HN ES       1120 17.74                             106   -0.41 6  406 326 
                                                                                
