 2016  5 7 1128 46.3 L   6.894 -73.472104.3  RSN  5 0.3 1.4LRSN                1
 GAP= 92        0.54       3.9     3.8  9.0 -0.3404E+01  0.1517E+02 -0.1424E+02E
 Epicentro: SAN VICENTE DE CHUCURI - SANTANDER                                 3
 ACTION:UPD 16-08-18 17:43 OP:cam  STATUS:               ID:20160507112846 L   I
 OLDACT:REG 16-05-07 20:12 OP:dnl  STATUS:               ID:20160507112746     3
 2016-05-07-1127-46M.COL___297                                                 6
 STAT SP IPHASW D HRMM SECON CODA AMPLIT PERI AZIMU VELO AIN AR TRES W  DIS CAZ7
 BAR2 EZ EP       1129  2.23                             154    0.3410 46.2 136 
 BAR2 EZ ES   2   1129 14.45                             154    0.39 5 46.2 136 
 BAR2 EZ I        1129 15.59         7.4 0.18            164           46.2 136 
 PAM  EZ EP   1   1129  6.11                             133    0.06 7 98.6  60 
 PAM  EE ES   2   1129 20.79                             133   -0.68 5 98.6  60 
 PAM  EZ I        1129 22.42         2.7 0.14            143           98.6  60 
 PTB  HZ EP       1129  6.86                             128   -0.1310  116 250 
 PTB  HN ES   2   1129 22.96                             128   -0.18 5  116 250 
 PTB  HZ I        1129 28.65         4.7 0.12            131            116 250 
 RUS  HZ EP   2   1129  7.58                             128   -0.35 5  119 159 
 RUS  HN ES   2   1129 24.57                             128   -0.25 5  119 159 
 RUS  HZ I        1129 27.34         2.8 0.28            136            119 159 
 SML  HZ EP   2   1129 18.52                             110    0.18 4  221 343 
 SML  HE ES   2   1129 43.26                             110   -0.09 4  221 343 
 SML  HZ I        1129 47.17         5.9 0.28            115            221 343 
                                                                                
