 2017 12 7 1104 45.3 L   6.791 -73.172147.3  RSN 10 0.6 1.8LRSN                1
 GAP=110        1.35       3.7     5.1  8.3 -0.5218E+00  0.8369E+01  0.6667E+01E
 Epicentro: LOS SANTOS - SANTANDER                                             3
 ACTION:UPD 18-01-04 13:17 OP:rebc STATUS:               ID:20171207110445 L   I
 OLDACT:UP  17-12-07 21:45 OP:lv   STATUS:               ID:20171207105745     3
 OLDACT:REG 17-12-07 20:15 OP:lv   STATUS:               ID:20171207105745     3
 2017-12-07-1058-00M.COL___467                                                 6
 STAT SP IPHASW D HRMM SECON CODA AMPLIT PERI AZIMU VELO AIN AR TRES W  DIS CAZ7
 BAR2 EZ IP     C 11 5  4.92                             171   -0.1210 22.0 183 
 BAR2 EZ ES       11 5 20.48                             171    0.0110 22.0 183 
 BAR2 EZ I        11 5 21.26         9.2 0.22            175           22.0 183 
 PAM  EZ EP       11 5  7.96                             150    0.1710 80.0  41 
 PAM  EN ES       11 5 25.04                             150   -0.3210 80.0  41 
 PTB  HZ EP       11 5 11.77                             133   -0.29 9  145 259 
 PTB  HN ES       11 5 33.07                             133    0.10 9  145 259 
 PTB  HZ I        11 5 38.46         5.8 0.28            128            145 259 
 OCA  HZ EP       11 5 14.10                             130    0.36 9  161 354 
 OCA  HN ES       11 5 35.44                             130   -0.52 9  161 354 
 OCA  HZ I        11 5 37.81        16.1 0.30            123            161 354 
 SPBC HZ EP       11 5 13.98                             130    0.36 9  161 218 
 SPBC HN ES       11 5 36.59                             130    0.85 9  161 218 
 SPBC HZ I        11 5 38.19         8.4 0.34            127            161 218 
 YPLC HZ EP       11 5 14.51                             127   -0.70 9  177 150 
 YPLC HN ES       11 5 39.39                             127    0.81 9  177 150 
 YPLC HZ I        11 5 40.34         9.7 0.26            124            177 150 
 ZAR  HZ EP       11 5 17.52                             123   -0.03 9  202 293 
 ZAR  HN ES       11 5 43.07                             123    0.32 9  202 293 
 ZAR  HZ I        11 5 48.51         8.8 0.34            118            202 293 
 CHI  HZ EP       11 5 23.42                             118    0.57 8  247 195 
 CHI  HN ISg      11 5 51.62                             118   -0.55 8  247 195 
 CHI  HN ES       11 5 51.74                             118   -0.43 8  247 195 
 CHI  HZ I        11 5 55.08         2.9 0.26            114            247 195 
 GUY2CHZ EP   4   11 5 30.36                             113    1.77 0  298 235 
 GUY2CHN ES   4   11 6  5.48                             113    3.08 0  298 235 
 GUY2CHZ I        11 6 12.98         2.9 0.62                           298 235 
 PRA  HZ EP       11 5 39.32                             107    0.77 6  390 209 
 PRA  HN ES       11 6 17.90                             107   -2.23 6  390 209 
 PRA  HZ I        11 6 24.66         1.7 0.30            104            390 209 
 SJC  HZ EP   4   11 5 39.23                             106   -1.54 0  408 327 
 SJC  HN ES   4   11 6 20.97                             106   -3.11 0  408 327 
                                                                                
