 2010  7 7 1907 50.3 L   6.767 -73.124151.0  RSN  5 0.4 1.6LRSN                1
 GAP=161        0.97       6.9    14.4 12.8  0.4362E+01 -0.3066E+02 -0.3302E+02E
 Epicentro: LOS SANTOS - SANTANDER                                             3
 ACTION:UPD 10-12-01 15:16 OP:pat  STATUS:               ID:20100707190750 L   I
 2010-07-07-1904-25S.COL___116                                                 6
 STAT SP IPHASW D HRMM SECON CODA AMPLIT PERI AZIMU VELO AIN AR TRES W  DIS CAZ7
 BAR2 SZ EP   1   19 8 10.23                             172    -0.3 7   21 199 
 BAR2 SZ ES   2   19 8 25.92                             172    -0.3 5   21 199 
 BAR2 SZ I        19 8 27.67        10.4 0.33                            21 199 
 BRR  HZ EP       19 8 12.10                             152    -0.110   75 300 
 BRR  HZ I        19 8 12.31        14.8 0.29                            75 300 
 BRR  HE ES   2   19 8 29.86                             152     0.5 5   75 300 
 RUS  HZ EP   1   19 8 14.60                             146     0.3 7   97 177 
 RUS  HN ES   1   19 8 33.04                             146     0.0 7   97 177 
 RUS  HZ I        19 8 33.91         4.7 0.33                            97 177 
 GUE  SZ EP   1   19 8 15.04                             140    -0.7 7  120  11 
 GUE  SZ I        19 8 42.71         2.9 0.20                           120  11 
 GRA  SZ EP   1   19 8 16.99                             137     0.8 7  129  16 
 GRA  SZ ES   2   19 8 36.61                             137     0.1 5  129  16 
 GRA  SZ I        19 8 38.11         4.5 0.31                           129  16 
                                                                                
