 2014  2 7 1010 24.7 L   6.726 -73.184143.7  RSN  4 0.2 1.2LRSN                1
 GAP=196        0.44       4.1     3.8  8.4  0.1004E+02 -0.1032E+02 -0.2102E+02E
 Epicentro: VILLANUEVA - SANTANDER                                             3
 ACTION:UPD 14-03-10 08:08 OP:ep   STATUS:               ID:20140207101024 L   I
 OLDACT:UP  14-02-07 17:59 OP:cam  STATUS:               ID:20140207101001d    3
 OLDACT:DUP 14-02-07 17:57 OP:cam  STATUS:               ID:20140207101001d    3
 OLDACT:UP  14-02-07 17:57 OP:cam  STATUS:               ID:20140207101000     3
 OLDACT:REG 14-02-07 17:24 OP:cam  STATUS:               ID:20140207101000     3
 2014-02-07-1010-00M.COL___291                                                 6
 STAT SP IPHASW D HRMM SECON CODA AMPLIT PERI AZIMU VELO AIN AR TRES W  DIS CAZ7
 RUS  HZ EP       1010 47.72                             146    0.0110 92.9 173 
 RUS  HN ES       1011  5.69                             146    0.0410 92.9 173 
 RUS  HN I        1011  7.66         2.9 0.32            146           92.9 173 
 PTB  HZ EP   2   1010 50.95                             133   -0.05 5  142 262 
 PTB  HN ES       1011 11.34                             133   -0.17 9  142 262 
 PTB  HZ I        1011 17.13         1.6 0.16            132            142 262 
 ZAR  HN ES   1   1011 22.51                             122    0.41 6  203 295 
 SML  HN ES   1   1011 30.65                             116   -0.16 6  249 337 
                                                                                
