 2011  2 7 1151 36.1 L   6.790 -73.160141.6  RSN  5 0.2 1.4LRSN                1
 GAP=215        0.57       7.3     6.8  6.5 -0.1625E+02  0.1469E+02  0.5832E+01E
 Epicentro: LOS SANTOS - SANTANDER                                             3
 ACTION:UP  11-03-28 15:06 OP:jfem STATUS:               ID:20110207115136 L   I
 2011-02-07-1149-13S.COL___137                                                 6
 STAT SP IPHASW D HRMM SECON CODA AMPLIT PERI AZIMU VELO SNR AR TRES W  DIS CAZ7
 BTL  SZ EP   1   1151 55.57                             172     0.4 7   19 320 
 BAR2 SZ EP   1   1151 55.20                             171     0.0 7   22 187 
 BAR2 SZ I        1151 55.66         4.6 0.13                            22 187 
 BAR2 SZ ES   1   1152  9.93                             171    -0.2 7   22 187 
 RUS  HZ EP   1   1151 59.15                             143    -0.3 7  100 175 
 RUS  HN ES   2   1152 17.94                             143     0.4 5  100 175 
 RUS  HZ I        1152 19.36         7.5 0.31                           100 175 
 NOR  SZ EP   1   1152 11.22                             118    -0.2 6  233 235 
 NOR  SN ES   1   1152 39.02                             118     0.1 6  233 235 
 NOR  SZ I        1152 42.95         1.1 0.16                           233 235 
 CHI  HZ EP   1   1152 13.49                             116     0.0 6  247 195 
 CHI  HZ I        1152 13.87         3.3 0.18                           247 195 
                                                                                
