 2011  2 7 1042  0.0 L   6.818 -73.175133.1  RSN  8 0.4 2.0LRSN                1
 GAP=155        0.99       4.8    10.0 10.7 -0.2212E+02  0.3909E+02 -0.1752E+02E
 Epicentro: LOS SANTOS - SANTANDER                                             3
 ACTION:UP  11-03-28 15:06 OP:jfem STATUS:               ID:20110207104200 L   I
 2011-02-07-1039-29S.COL___137                                                 6
 STAT SP IPHASW D HRMM SECON CODA AMPLIT PERI AZIMU VELO SNR AR TRES W  DIS CAZ7
 BTL  SZ IP       1042 18.50                             173     0.510   15 317 
 BAR2 SZ EP       1042 18.25                             169     0.110   25 182 
 BAR2 SZ ES   1   1042 32.75                             169     0.4 7   25 182 
 BAR2 SZ I        1042 34.03        43.4 0.21                            25 182 
 GIR2 SZ EP       1042 18.39                             167     0.210   29 356 
 RUS  HZ EP   1   1042 22.39                             141    -0.4 7  103 174 
 RUS  HN ES   1   1042 40.00                             141    -0.5 7  103 174 
 RUS  HZ I        1042 41.48        15.1 0.21                           103 174 
 GRA  SZ EP       1042 24.31                             134     0.210  125  19 
 GRA  SZ ES   1   1042 42.31                             134    -0.6 7  125  19 
 GRA  SZ I        1042 46.17        11.7 0.36                           125  19 
 OCA  SZ EP   1   1042 26.71                             127    -0.5 7  158 354 
 OCA  SZ ES   1   1042 48.10                             127    -0.2 7  158 354 
 OCA  SZ I        1042 52.96        14.3 0.20                           158 354 
 NOR  SN ES   1   1043  1.55                             116    -0.6 6  233 234 
 HEL  HZ EP   2   1042 40.12                             112     0.8 4  269 255 
 HEL  HZ I        1043 17.81         4.2 0.53                           269 255 
                                                                                
