 2011  8 7 1910 41.9 L   6.745 -73.085157.2  RSN  4 0.2 1.6LRSN                1
 GAP=240        0.41       4.8     6.0  5.7  0.5298E+01  0.5049E+01  0.3719E+01E
 Epicentro: JORDAN - SANTANDER                                                 3
 ACTION:UPD 12-07-25 14:06 OP:epov STATUS:               ID:20110807191041 L   I
 2011-08-07-1900-00M.COL___145                                                 6
 STAT SP IPHASW D HRMM SECON CODA AMPLIT PERI AZIMU VELO AIN AR TRES W  DIS CAZ7
 BAR2 SZ EP   1   1911  2.87                             172    0.02 7 20.0 212 
 BAR2 SZ ES   2   1911 18.81                             172   -0.38 5 20.0 212 
 BAR2 SZ I        1911 21.06         7.7 0.40                          20.0 212 
 BRR  HZ EP   1   1911  4.91                             152    0.12 7 80.0 300 
 BRR  HN ES   1   1911 22.65                             152    0.02 7 80.0 300 
 BRR  HZ I        1911 26.05         9.2 0.14                          80.0 300 
 RUS  HN ES   2   1911 25.69                             148    0.23 5 94.3 180 
 RUS  HZ I        1911 27.07         5.4 0.38                          94.3 180 
 NOR  SZ EP   2   1911 18.06                             121   -0.48 4  237 237 
 NOR  SN ES   2   1911 47.25                             121    0.14 4  237 237 
                                                                                
