 2017  5 7 1412 32.9 L   6.795 -73.124146.0  RSN 12 0.4 1.9LRSN                1
 GAP=114        0.66       2.4     2.5  4.4 -0.6190E+00  0.2113E+00  0.3581E+01E
 Epicentro: LOS SANTOS - SANTANDER                                             3
 ACTION:UPD 17-06-16 13:33 OP:jn   STATUS:               ID:20170507141232 L   I
 OLDACT:UP  17-05-07 22:06 OP:and  STATUS:               ID:20170507140745     3
 OLDACT:UP  17-05-07 22:04 OP:and  STATUS:               ID:20170507140745     3
 OLDACT:UP  17-05-07 22:04 OP:and  STATUS:               ID:20170507140745     3
 OLDACT:UP  17-05-07 22:04 OP:and  STATUS:               ID:20170507140745     3
 OLDACT:UP  17-05-07 22:03 OP:and  STATUS:               ID:20170507140745     3
 OLDACT:UP  17-05-07 22:01 OP:and  STATUS:               ID:20170507140745     3
 OLDACT:UP  17-05-07 22:01 OP:and  STATUS:               ID:20170507140745     3
 OLDACT:UP  17-05-07 22:01 OP:and  STATUS:               ID:20170507140745     3
 OLDACT:UP  17-05-07 22:01 OP:and  STATUS:               ID:20170507140745     3
 OLDACT:REG 17-05-07 20:11 OP:and  STATUS:               ID:20170507140745     3
 2017-05-07-1408-00M.COL___376                                                 6
 STAT SP IPHASW D HRMM SECON CODA AMPLIT PERI AZIMU VELO AIN AR TRES W  DIS CAZ7
 BRR  HZ EP       1412 53.96                             151   -0.2210 73.6 298 
 BRR  HN ES       1413 11.13                             151    0.3210 73.6 298 
 BRR  HZ I        1413 15.11        15.8 0.30            152           73.6 298 
 PAM  EZ IP     D 1412 55.12                             151    0.0710 76.3  38 
 PAM  EN ES       1413 12.26                             151   -0.0810 76.3  38 
 PAM  EZ I        1413 15.36         9.2 0.28            156           76.3  38 
 RUS  HZ EP       1412 56.27                             144   -0.3310 99.9 177 
 RUS  HN ES       1413 14.99                             144   -0.1110 99.9 177 
 RUS  HZ I        1413 16.21        17.2 0.36            146           99.9 177 
 PTB  HZ EP   9   1412 59.10                             131   -0.97 0  150 259 
 PTB  HN ES       1413 19.86                             131   -0.45 9  150 259 
 PTB  HZ I        1413 27.33         8.0 0.44            133            150 259 
 SPBC HZ EP       1413  1.54                             129    0.04 9  164 220 
 SPBC HN ES       1413 23.57                             129   -0.25 9  164 220 
 SPBC HZ I        1413 30.25        15.1 0.18            130            164 220 
 YPLC HZ IP     C 1413  2.76                             127    0.24 9  175 152 
 YPLC HE ES   3   1413 27.31                             127    1.66 2  175 152 
 YPLC HZ I        1413 27.69        12.2 0.28            130            175 152 
 ZAR  HN ES       1413 30.88                             122   -0.22 8  207 292 
 ZAR  HZ I        1413 35.52         6.9 0.22            124            207 292 
 TABC EZ EP   3   1413  9.92                             119    1.20 2  231 211 
 NOR  HE ES       1413 36.98                             118    0.17 8  236 235 
 NOR  HZ I        1413 39.16         5.6 0.26            120            236 235 
 CHI  HZ EP       1413 10.62                             117    0.02 8  249 196 
 CHI  HN ES       1413 40.02                             117   -0.00 8  249 196 
 CHI  HZ I        1413 41.11         5.4 0.38            119            249 196 
 ROSC BZ EP   4   1413 12.89                             116    1.80 0  254 212 
 ROSC BN ES   4   1413 44.58                             116    3.68 0  254 212 
 ROSC BZ I        1413 47.01         8.1 0.45            119            254 212 
 HEL  HZ EP   4   1413 16.72                             114    3.38 0  274 256 
 HEL  HN ES   4   1413 42.01                             114   -2.90 0  274 256 
 CBOC HZ EP   3   1413 19.07                             109   -0.97 2  336 252 
 CBOC HN ES       1413 57.43                             109    0.59 7  336 252 
                                                                                
