 2010  7 7 1120 50.6 L   6.787 -73.084147.3  RSN 16 0.4 3.1LRSN                1
 GAP=163        0.72       2.7     4.9  4.9 -0.4927E+01  0.5303E+01  0.9196E+00E
 Epicentro: LOS SANTOS - SANTANDER                                             3
 ACTION:UPD 10-12-01 15:15 OP:pat  STATUS:               ID:20100707112050 L   I
 2010-07-07-1119-54S.COL___117                                                 6
 STAT SP IPHASW D HRMM SECON CODA AMPLIT PERI AZIMU VELO AIN AR TRES W  DIS CAZ7
 BAR2 SZ IP       1121 10.34                             170    -0.110   24 207 
 BAR2 SZ ES   1   1121 25.51                             170    -0.4 7   24 207 
 BAR2 SZ I        1121 27.32       345.3 0.32                            24 207 
 GIR2 SZ EP       1121 10.51                             166     0.010   35 340 
 BRR  HZ IP     C 1121 12.24                             151     0.010   78 297 
 BRR  HZ I        1121 12.47       641.2 0.18                            78 297 
 BRR  HN ES   1   1121 29.42                             151     0.2 7   78 297 
 RUS  HZ IP       1121 14.18                             145    -0.210   99 180 
 RUS  HN ES   1   1121 32.90                             145     0.0 7   99 180 
 RUS  HZ I        1121 36.26       129.7 0.45                            99 180 
 BRI  SZ EP   1   1121 14.88                             142     0.3 7  108  17 
 BRI  SZ ES   2   1121 33.66                             142     0.4 5  108  17 
 BRI  SZ I        1121 39.47       112.0 0.41                           108  17 
 GUE  SZ EP       1121 15.35                             140    -0.110  117   9 
 GUE  SZ I        1121 38.40        64.4 0.12                           117   9 
 GRA  SZ EP       1121 16.25                             137     0.310  125  14 
 GRA  SZ ES   1   1121 35.64                             137     0.0 7  125  14 
 GRA  SZ I        1121 37.96       214.0 0.28                           125  14 
 OCA  SZ EP   1   1121 18.71                             129    -0.5 7  163 351 
 OCA  SZ ES   1   1121 41.66                             129     0.1 7  163 351 
 OCA  SZ I        1121 46.52       338.0 0.32                           163 351 
 CHI  HZ EP   1   1121 28.39                             117     0.0 6  249 197 
 CHI  HZ I        1121 30.84        53.4 0.41                           249 197 
 CHI  HE ES   2   1121 57.93                             117     0.0 4  249 197 
 ROSC BZ EP   2   1121 29.87                             117     0.8 4  255 213 
 ROSC BE ES   2   1121 58.97                             117    -0.1 4  255 213 
 ROSC BZ I        1122  8.32       100.8 0.37                           255 213 
 CVER SZ EP   2   1121 31.65                             115     0.5 4  273 204 
 CVER SZ I        1121 33.14       119.7 0.20                           273 204 
 HEL  HZ EP   1   1121 31.66                             114     0.1 6  278 256 
 HEL  HE ES   2   1122  3.54                             114     0.0 4  278 256 
 HEL  HZ I        1122  9.90        96.0 0.33                           278 256 
 RREF HZ EP   2   1121 38.11                             111     0.8 3  326 230 
 RREF HN ES   2   1122 14.67                             111     1.0 3  326 230 
 RREF HZ I        1122 19.55        92.6 0.29                           326 230 
 DBB  SZ EP       1121 38.08                             109    -0.8 6  346 274 
 DBB  SZ I        1122 16.79        18.3 0.31                           346 274 
 TOL  SZ EP   2   1121 39.60                             109     0.3 3  347 226 
 TOL  SZ ES   2   1122 18.29                             109     0.9 3  347 226 
 PRA  HZ EP   1   1121 43.89                             107    -0.5 4  394 211 
 PRA  HE ES   2   1122 26.18                             107    -0.2 3  394 211 
 PRA  HZ I        1122 31.84        66.8 0.65                           394 211 
                                                                                
