 2010  7 7 1916 22.2 L   6.798 -73.109146.8  RSN 26 0.5 4.7LRSN                1
 GAP=124        1.12       3.5     6.3  6.0 -0.9572E+01  0.5550E+01  0.6107E+01E
 Epicentro: LOS SANTOS - SANTANDER                                             3
 Evento Sentido                                                                2
 Reportado como Sentido:                                                       3
 BUCARAMANGA, GIRON, ZAPATOCA (SANTANDER), MEDELLIN (ANTIOQIA)                 3
 ACTION:UPD 10-12-01 15:16 OP:pat  STATUS:               ID:20100707191622 L   I
 2010-07-07-1914-58S.COL___116                                                 6
 STAT SP IPHASW D HRMM SECON CODA AMPLIT PERI AZIMU VELO AIN AR TRES W  DIS CAZ7
 BAR2 SZ IP     D 1916 41.87                             170    -0.110   24 200 
 BAR2 SZ ES   2   1916 56.91                             170    -0.5 5   24 200 
 BAR2 SZ I        1916 57.95     12198.4 0.33                            24 200 
 GIR2 SZ EP       1916 41.91                             167    -0.110   32 343 
 GIR2 SZ ES   1   1916 56.89                             167    -0.6 7   32 343 
 BRR  HZ EP       1916 43.73                             152     0.110   75 297 
 BRR  HN ES   1   1917  0.82                             152     0.4 7   75 297 
 BRR  HZ I        1917  4.75      6966.3 0.35                            75 297 
 RUS  HZ EP       1916 45.81                             144    -0.210  100 178 
 RUS  HE ES   1   1917  4.57                             144     0.0 7  100 178 
 RUS  HZ I        1917  6.33      4207.0 0.58                           100 178 
 BRI  SZ IP       1916 46.41                             142     0.310  107  19 
 BRI  SZ ES   1   1917  5.29                             142     0.6 7  107  19 
 BRI  SZ I        1917  9.48      6367.1 0.64                           107  19 
 GUE  SZ EP       1916 46.69                             140    -0.310  116  10 
 GRA  SZ EP       1916 48.64                             137     1.210  125  16 
 GRA  SZ ES   1   1917  7.37                             137     0.2 7  125  16 
 GRA  SZ I        1917 11.30      6818.5 0.41                           125  16 
 OCA  SZ EP       1916 50.25                             130    -0.4 9  161 352 
 OCA  SZ ES       1917 12.03                             130    -0.8 9  161 352 
 OCA  SZ I        1917 15.57     11152.2 0.23                           161 352 
 CHI  HZ EP       1916 59.86                             117    -0.2 8  250 196 
 CHI  HE ES   1   1917 29.17                             117    -0.4 6  250 196 
 CHI  HZ I        1917 36.51      3759.7 0.59                           250 196 
 ROSC BZ EP       1917  1.62                             117     1.0 8  255 212 
 CVER SZ EP       1917  3.43                             115     0.7 8  274 203 
 HEL  HZ EP   1   1917  2.67                             114    -0.2 6  276 256 
 HEL  HZ I        1917 41.28      4243.2 0.37                           276 256 
 GUY  HZ EP       1917  6.34                             112     0.1 7  305 235 
 GUY  HN ES   2   1917 40.04                             112    -0.5 4  305 235 
 RREF HZ EP       1917  8.53                             111    -0.2 7  325 230 
 RREF HN ES   1   1917 45.77                             111     0.8 5  325 230 
 RREF HZ I        1917 56.19      2914.3 0.30                           325 230 
 DBB  SZ EP       1917  9.82                             109    -0.4 7  344 274 
 TOL  SZ EP   1   1917 10.72                             109    -0.1 5  346 225 
 SDV  BZ EP       1917 11.28                             108    -0.6 6  357  50 
 SDV  BZ I        1917 12.46      1494.7 0.27                           357  50 
 PRA  HZ EP   1   1917 15.31                             106    -0.7 4  394 210 
 PRA  HE ES   1   1917 57.48                             106    -0.4 4  394 210 
 PRA  HZ I        1918  2.89      3780.3 0.45                           394 210 
 GUA  SZ EP   1   1917 24.34                             103    -1.0 4  473 174 
 GUA  SZ ES   2   1918 14.69                             103     0.2 2  473 174 
 MARA HZ EP   1   1917 32.68                             101    -0.8 3  539 216 
 MARA HZ I        1918 34.39       351.6 0.65                           539 216 
 MAL  SZ EP       1917 36.44                             101     0.8 3  561 237 
 PCON HZ EP       1917 42.92                              99     0.1 3  614 217 
 PCON HZ I        1919 15.59       310.1 0.54                           614 217 
 POP2 HZ EP       1917 41.62                              99    -0.9 3  615 220 
 POP2 HZ I        1917 44.23       176.7 0.44                           615 220 
 POP2 HE ES   2   1918 45.09                              99    -0.1 1  615 220 
 SOTA HZ EP       1917 46.33                              99    -0.2 2  645 217 
 CRU  SZ EP       1917 56.01                              97     0.8 1  719 217 
 CRU  SZ I        1917 59.86       182.2 0.50                           719 217 
 GCAL SZ EP   1   1918  2.38                              97    -0.3 0  781 218 
 GCAL SZ I        1918  4.33       128.7 0.43                           781 218 
 GCAL SE ES   2   1919 20.78                              97    -0.3 0  781 218 
                                                                                
