 2016 12 7 1720 20.5 L   6.787 -73.160145.7  RSN 10 0.4 2.3LRSN                1
 GAP=135        1.00       3.6     4.1  5.6  0.3162E-01  0.6512E+01  0.5932E+01E
 Epicentro: LOS SANTOS - SANTANDER                                             3
 ACTION:UPD 17-01-11 20:13 OP:rebc STATUS:               ID:20161207172020 L   I
 OLDACT:UP  16-12-07 22:37 OP:dnl  STATUS:               ID:20161207171747     3
 OLDACT:REG 16-12-07 21:14 OP:dnl  STATUS:               ID:20161207171747     3
 2016-12-07-1718-00M.COL___372                                                 6
 STAT SP IPHASW D HRMM SECON CODA AMPLIT PERI AZIMU VELO AIN AR TRES W  DIS CAZ7
 BAR2 EZ EP       1720 40.00                             171   -0.0710 21.7 187 
 BAR2 EZ ES       1720 54.88                             171   -0.4710 21.7 187 
 BAR2 EZ I        1720 57.10        59.9 0.32            168           21.7 187 
 BRR  HZ EP       1720 41.78                             153    0.1910 70.5 300 
 BRR  HE ES       1720 59.13                             153    1.0810 70.5 300 
 BRR  HZ I        1720 59.91        32.8 0.20            151           70.5 300 
 PAM  EZ EP       1720 42.81                             150   -0.0110 79.5  40 
 PAM  EN ES       1720 59.97                             150   -0.2710 79.5  40 
 PAM  EZ I        1721  2.19        48.8 0.44            156           79.5  40 
 RUS  HZ EP       1720 44.06                             144   -0.0810 99.3 175 
 RUS  HE ES       1721  2.79                             144    0.2110 99.3 175 
 RUS  HZ I        1721  3.90        35.6 0.30            145           99.3 175 
 PTB  HZ EP       1720 46.54                             132   -0.74 9  146 259 
 PTB  HN ES       1721  7.67                             132   -0.51 9  146 259 
 PTB  HZ I        1721 14.78        25.8 0.68            131            146 259 
 ZAR  HZ EP       1720 53.16                             122    0.33 9  203 293 
 ZAR  HE ES       1721 17.88                             122   -0.18 9  203 293 
 ZAR  HZ I        1721 24.19        17.8 0.24            123            203 293 
 NOR  HZ EP       1720 56.07                             119    0.09 8  233 235 
 NOR  HN ES       1721 23.45                             119   -0.22 8  233 235 
 NOR  HZ I        1721 31.86        16.0 0.16            119            233 235 
 CHI  HZ EP       1720 58.23                             117    0.24 8  247 195 
 CHI  HE IS       1721 27.45                             117    0.22 8  247 195 
 CHI  HZ I        1721 31.56        12.0 0.70            118            247 195 
 ROSC BZ EP   4   1720 59.92                             117    1.54 0  251 211 
 ROSC BN ES   4   1721 31.34                             117    3.41 0  251 211 
 PRA  HZ EP       1721 13.84                             107    0.07 6  390 209 
 PRA  HN ES       1721 55.66                             107    0.33 6  390 209 
 PRA  HZ I        1722  0.01         8.7 0.24            107            390 209 
 ORTC HZ EP       1721 14.34                             106    0.18 6  393 216 
 ORTC HN ES   4   1721 57.93                             106    1.91 0  393 216 
 ORTC HZ I        1722  2.88         5.2 0.34            107            393 216 
                                                                                
