 2010  8 7 1721  0.0 L   6.805 -73.107150.0  RSN  7 0.3 2.0LRSN                1
 GAP=163        0.58       3.3     8.2  6.2 -0.8638E+01 -0.3175E+00  0.1285E+01E
 Epicentro: LOS SANTOS - SANTANDER                                             3
 ACTION:UP  10-09-07 10:53 OP:vdl  STATUS:               ID:20100807172060 L   I
 2010-08-07-1716-49S.COL___124                                                 6
 STAT SP IPHASW D HRMM SECON CODA AMPLIT PERI AZIMU VELO SNR AR TRES W  DIS CAZ7
 BAR2 SZ EP   1   1721 19.93                             170    -0.3 7   25 200 
 BAR2 SZ ES   2   1721 35.74                             170    -0.2 5   25 200 
 BAR2 SZ I        1721 37.02        17.4 0.29                            25 200 
 BRR  HZ EP   1   1721 21.79                             152    -0.1 7   75 297 
 BRR  HZ I        1721 22.11        43.5 0.15                            75 297 
 BRR  HN ES   2   1721 39.13                             152     0.3 5   75 297 
 RUS  HZ EP   1   1721 23.90                             145    -0.3 7  101 179 
 RUS  HE ES   2   1721 43.62                             145     0.5 5  101 179 
 RUS  HZ I        1721 44.18         6.1 0.14                           101 179 
 GUE  SZ EP   1   1721 25.28                             141     0.2 7  115  10 
 GUE  SZ ES   2   1721 44.87                             141     0.3 5  115  10 
 GRA  SZ EP   1   1721 25.76                             138     0.2 7  124  16 
 GRA  SZ ES   2   1721 45.44                             138     0.0 5  124  16 
 GRA  SZ I        1721 47.03        16.0 0.27                           124  16 
 OCA  SZ EP   1   1721 28.58                             131    -0.1 7  160 352 
 OCA  SZ ES   2   1721 50.50                             131    -0.5 5  160 352 
 OCA  SZ I        1721 55.24        16.0 0.50                           160 352 
 PRA  HZ EP   1   1721 54.13                             107     0.1 4  395 210 
 PRA  HN ES   2   1722 36.89                             107     0.8 3  395 210 
 PRA  HZ I        1722 39.82         3.7 0.68                           395 210 
                                                                                
