 2014  1 7 1959 39.6 L   6.761 -73.157133.6  RSN  6 0.4 1.3LRSN                1
 GAP=137        0.94       5.4     4.2  8.3 -0.1842E+01  0.3090E+01  0.1576E+02E
 Epicentro: LOS SANTOS - SANTANDER                                             3
 ACTION:UPD 14-03-13 09:52 OP:ep   STATUS:               ID:20140107195939 L   I
 OLDACT:REG 14-01-08 01:45 OP:mh   STATUS:               ID:20140107195850     3
 2014-01-07-1958-50M.COL___243                                                 6
 STAT SP IPHASW D HRMM SECON CODA AMPLIT PERI AZIMU VELO AIN AR TRES W  DIS CAZ7
 BRR  HZ EP       1959 59.58                             150    0.0410 72.3 302 
 BRR  HN ES       20 0 15.29                             150    0.2210 72.3 302 
 BRR  HZ I        20 0 21.07         4.4 0.19            154           72.3 302 
 PAM  SZ EP       20 0  0.58                             147   -0.2510 81.5  38 
 PAM  SN ES   1   20 0 17.26                             147   -0.11 7 81.5  38 
 PAM  SZ I        20 0 20.11         3.4 0.49            154           81.5  38 
 RUS  HZ EP       20 0  2.59                             142    0.7110 96.4 175 
 RUS  HN ES   2   20 0 18.57                             142   -0.68 5 96.4 175 
 RUS  HZ I        20 0 22.25         1.3 0.17            147           96.4 175 
 PTB  HZ EP       20 0  4.77                             130   -0.67 9  146 260 
 PTB  HN ES       20 0 25.21                             130   -0.37 9  146 260 
 PTB  HZ I        20 0 28.65         4.8 0.06            135            146 260 
 ZAR  HZ EP   1   20 0 11.40                             120    0.04 6  205 293 
 ZAR  HN ES       20 0 36.53                             120    0.41 9  205 293 
 NOR  HZ EP       20 0 14.23                             116   -0.07 8  231 235 
 NOR  HN ES   1   20 0 41.74                             116    0.40 6  231 235 
 NOR  HZ I        20 0 43.87         2.8 0.18            121            231 235 
                                                                                
