 2012  7 7 1901 56.9 L   6.297 -73.638106.6  RSN  8 0.3 2.0LRSN                1
 GAP=113        0.90       3.7     3.3  6.6 -0.1293E+01  0.8116E+01 -0.4672E+00E
 Epicentro: SANTA HELENA DEL OPON - SANTANDER                                  3
 ACTION:UPD 12-08-14 11:43 OP:ep   STATUS:               ID:20120707190157 L   I
 2012-07-07-1900-00M.COL___201                                                 6
 STAT SP IPHASW D HRMM SECON CODA AMPLIT PERI AZIMU VELO AIN AR TRES W  DIS CAZ7
 BAR2 SZ EP       19 2 13.86                             148     0.310   60  57 
 BAR2 SZ ES       19 2 26.47                             148    -0.110   60  57 
 BAR2 SZ I        19 2 28.54        89.2 0.34            150             60  57 
 RUS  HZ EP   1   19 2 15.01                             142     0.0 7   76 126 
 RUS  HZ I        19 2 15.87         9.7 0.26            146             76 126 
 RUS  HN ES   1   19 2 29.13                             142    -0.1 7   76 126 
 BRR  HZ EP       19 2 15.47                             136     0.010   90 355 
 BRR  HZ I        19 2 15.90        28.1 0.15            135             90 355 
 BRR  HE ES       19 2 30.61                             136     0.710   90 355 
 PTB  HZ EP       19 2 15.71                             135    -0.210   94 287 
 PTB  HN ES       19 2 30.23                             135    -0.410   94 287 
 PTB  HZ I        19 2 33.44        13.9 0.09            133             94 287 
 NOR  SZ EP   1   19 2 22.12                             119    -0.1 7  159 239 
 NOR  SE ES   1   19 2 42.01                             119     0.1 7  159 239 
 ZAR  HZ EP       19 2 25.70                             114     0.2 9  189 315 
 ZAR  HN ES   1   19 2 47.18                             114    -0.5 7  189 315 
 ZAR  HZ I        19 2 52.92        14.0 0.23            113            189 315 
 HEL  HZ EP   1   19 2 28.79                             112     0.5 6  210 267 
 HEL  HN ES   1   19 2 52.88                             112     0.2 6  210 267 
 HEL  HZ I        19 3  0.29         5.5 0.42            111            210 267 
 OCA  HZ EP   1   19 2 28.42                             111    -0.5 6  218   9 
 OCA  HN ES   1   19 2 53.45                             111    -0.4 6  218   9 
 OCA  HZ I        19 2 59.42        19.8 0.19            111            218   9 
