 2012  5 7 1207 19.5 L   6.570 -73.562115.9  RSN  4 0.3 0.9LRSN                1
 GAP=123        0.65       7.5     5.2 10.6  0.2085E+02 -0.1609E+01  0.4075E+01E
 Epicentro: EL CARMEN DE CHUCURI - SANTANDER                                   3
 ACTION:UP  12-07-05 12:03 OP:pat  STATUS:               ID:20120507120719 L   I
 2012-05-07-1159-37M.COL___184                                                 6
 STAT SP IPHASW D HRMM SECON CODA AMPLIT PERI AZIMU VELO SNR AR TRES W  DIS CAZ7
 BAR2 SZ EP   1   12 7 36.08                             159    -0.1 7   42  87 
 BRR  HN ES   2   12 7 50.55                             150     0.1 5   62 344 
 RUS  HZ EP   1   12 7 40.19                             139     0.5 7   92 145 
 RUS  HN ES   1   12 7 55.29                             139    -0.2 7   92 145 
 RUS  HZ I        12 7 58.39         2.2 0.35                            92 145 
 PTB  HZ EP   1   12 7 39.30                             136    -0.4 7   99 268 
 PTB  HZ I        12 7 39.55         1.5 0.25                            99 268 
 PTB  HN ES   1   12 7 55.56                             136     0.2 7   99 268 
                                                                                
