 2017 10 7 1735 58.3 L   7.098 -73.924 93.8  RSN 12 0.4 2.2LRSN                1
 GAP=146        0.79       2.7     1.9  8.2  0.7698E+00  0.3579E+01  0.7612E+01E
 Epicentro: BARRANCABERMEJA - SANTANDER                                        3
 ACTION:UPD 17-11-07 19:29 OP:rebc STATUS:               ID:20171007173558 L   I
 OLDACT:UP  17-10-07 23:42 OP:osc  STATUS:               ID:20171007172542d    3
 OLDACT:DUP 17-10-07 23:30 OP:osc  STATUS:               ID:20171007172542d    3
 2017-10-07-1728-00M.COL___441                                                 6
 STAT SP IPHASW D HRMM SECON CODA AMPLIT PERI AZIMU VELO AIN AR TRES W  DIS CAZ7
 BAR2 EZ EP       1736 16.77                             130   -0.1310 99.2 124 
 BAR2 EZ ES       1736 31.78                             130    0.3410 99.2 124 
 BAR2 EZ I        1736 33.37        62.2 0.26            130           99.2 124 
 ZAR  HZ EP     C 1736 17.82                             126   -0.0110  112 293 
 ZAR  HN ES       1736 33.46                             126    0.3610  112 293 
 ZAR  HZ I        1736 35.33        54.1 0.14            127            112 293 
 PAM  EZ EP       1736 21.19                             121    0.06 9  138  79 
 PAM  EE ES       1736 38.76                             121   -0.21 9  138  79 
 PAM  EZ I        1736 44.06        82.1 0.26            122            138  79 
 RUS  HZ EP       1736 23.65                             116   -0.18 9  163 145 
 RUS  HN ES       1736 43.41                             116   -0.36 9  163 145 
 RUS  HZ I        1736 44.48        23.5 0.22            116            163 145 
 NOR  HZ EP       1736 27.29                             111   -0.16 9  199 212 
 NOR  HN ES       1736 49.44                             111   -0.78 9  199 212 
 NOR  HZ I        1736 52.39        22.6 0.26            111            199 212 
 TABC EZ ES       1736 58.01                             108   -0.08 8  233 188 
 TABC EZ I        1737  3.64        11.8 0.32            108            233 188 
 TAM  HN ES       1737  0.46                             107    0.35 8  247 107 
 DBB  EN ES       1737  1.46                             106    0.04 8  253 268 
 DBB  EZ I        1737  4.45        11.1 0.14            106            253 268 
 GUY2CHZ EP   4   1736 36.75                             106    1.47 0  261 218 
 GUY2CHE ES   4   1737  0.35                             106   -3.80 0  261 218 
 GUY2CHZ I        1737  9.03         7.0 0.34                           261 218 
 CHI  HZ EP   3   1736 37.99                             105    1.32 2  274 176 
 CHI  HN ES       1737  7.27                             105    0.64 8  274 176 
 CHI  HZ I        1737 11.61         5.3 0.40            105            274 176 
 ORTC HZ EP   4   1736 51.17                             100    1.92 0  382 203 
 ORTC HN ES       1737 29.27                             100    0.25 6  382 203 
 ORTC HZ I        1737 42.26         2.1 0.11            100            382 203 
 PRA  HN ES   3   1737 32.35                             100    1.75 1  389 196 
                                                                                
