 2017  6 7 1954 19.8 L   6.805 -73.097153.6  RSN  5 0.3 1.6LRSN                1
 GAP=243        0.76       5.3     6.3  6.5  0.1880E+02  0.1082E+02  0.4544E+01E
 Epicentro: LOS SANTOS - SANTANDER                                             3
 ACTION:UPD 17-09-14 16:50 OP:jn   STATUS:               ID:20170607195419 L   I
 OLDACT:REG 17-06-07 21:49 OP:osc  STATUS:               ID:20170607194739     3
 2017-06-07-1948-00M.COL___351                                                 6
 STAT SP IPHASW D HRMM SECON CODA AMPLIT PERI AZIMU VELO AIN AR TRES W  DIS CAZ7
 BRR  HN ES       1954 59.68                             152    0.2310 75.8 296 
 RUS  HZ EP       1954 44.70                             145    0.3210  101 179 
 RUS  HN ES       1955  3.26                             145   -0.2710  101 179 
 RUS  HZ I        1955  3.89         4.2 0.46            145            101 179 
 PTB  HZ EP       1954 47.34                             133   -0.59 9  153 259 
 PTB  HN ES   4   1955  8.35                             133   -1.50 0  153 259 
 PTB  HZ I        1955 10.47         3.5 0.16            130            153 259 
 ZAR  HZ EP       1954 53.35                             123    0.06 8  209 291 
 ZAR  HE ES       1955 19.25                             123   -0.14 8  209 291 
 ZAR  HZ I        1955 25.77         2.8 0.10            122            209 291 
 NOR  HZ EP       1954 56.80                             120    0.27 8  239 235 
 NOR  HN ES       1955 25.34                             120    0.19 8  239 235 
 NOR  HZ I        1955 29.88         4.4 0.24            118            239 235 
                                                                                
