 2013 12 7 1043 48.7 L   6.797 -73.104151.3  RSN 14 0.5 2.2LRSN                1
 GAP=142        1.16       3.2     4.9  6.0 -0.2941E+01  0.1048E+02  0.3175E+00E
 Epicentro: LOS SANTOS - SANTANDER                                             3
 ACTION:UPD 14-01-13 10:16 OP:ep   STATUS:               ID:20131207104348 L   I
 OLDACT:UP  13-12-07 16:46 OP:cam  STATUS:               ID:20131207104000     3
 OLDACT:REG 13-12-07 15:05 OP:cam  STATUS:               ID:20131207104000     3
 2013-12-07-1040-00M.COL___285                                                 6
 STAT SP IPHASW D HRMM SECON CODA AMPLIT PERI AZIMU VELO AIN AR TRES W  DIS CAZ7
 BAR2 SZ EP     C 1044  8.86                             170   -0.1910 24.3 201 
 BAR2 SZ ES       1044 24.94                             170    0.0510 24.3 201 
 BAR2 SZ I        1044 27.91        36.7 0.42            168           24.3 201 
 PAM  SZ EP       1044 11.75                             153    0.3610 74.8  37 
 PAM  SN ES       1044 29.11                             153    0.0510 74.8  37 
 PAM  SZ I        1044 31.00        13.2 0.22            158           74.8  37 
 BRR  HZ EP       1044 10.85                             152    0.1410 75.4 297 
 BRR  HN ES       1044 28.17                             152    0.3110 75.4 297 
 RUS  HZ EP       1044 12.73                             145   -0.2710  100 179 
 RUS  HN ES       1044 31.75                             145   -0.1710  100 179 
 RUS  HZ I        1044 34.09         8.7 0.46            147            100 179 
 PTB  HZ EP       1044 15.77                             132   -0.78 9  152 259 
 PTB  HN ES   4   1044 37.04                             132   -1.21 0  152 259 
 PTB  HZ I        1044 44.27        22.3 0.42            132            152 259 
 OCA  HZ EP       1044 17.97                             131    0.41 9  161 352 
 OCA  HN ES       1044 40.43                             131    0.39 9  161 352 
 OCA  HZ I        1044 43.81        15.8 0.28            133            161 352 
 SPBC HZ EP       1044 17.78                             130   -0.13 9  166 220 
 SPBC HN ES       1044 40.45                             130   -0.22 9  166 220 
 SPBC HZ I        1044 47.13        28.1 0.32            131            166 220 
 ZAR  HZ EP   1   1044 21.59                             123   -0.40 6  208 292 
 ZAR  HN ES       1044 47.82                             123   -0.11 8  208 292 
 ZAR  HZ I        1044 53.28        16.0 0.54            124            208 292 
 NOR  HZ EP       1044 24.94                             119   -0.23 8  238 235 
 NOR  HE ES       1044 53.79                             119    0.20 8  238 235 
 NOR  HZ I        1044 56.55        19.7 0.18            120            238 235 
 SML  HZ EP       1044 25.37                             118   -0.54 8  246 334 
 SML  HN ES       1044 53.74                             118   -1.17 8  246 334 
 SML  HZ I        1044 59.15        25.8 0.10            120            246 334 
 CHI  HZ EP   4   1044 27.21                             118    0.36 0  250 196 
 HEL  HZ EP       1044 30.83                             115    1.12 7  276 256 
 HEL  HE ES       1045  2.29                             115    0.61 7  276 256 
 HEL  HZ I        1045  6.99         6.8 0.30            117            276 256 
 GUY2CHZ EP       1044 33.76                             113    0.76 7  305 235 
 RREF HZ EP   4   1044 36.91                             112    1.42 0  325 230 
 RREF HN ES   4   1045 14.66                             112    2.69 0  325 230 
 RREF HZ I        1045 21.04         8.0 0.30            113            325 230 
 CBOC HZ EP   4   1044 36.93                             111    0.56 0  338 252 
 PRA  HZ EP       1044 43.68                             107    1.00 6  394 210 
 PRA  HN ES       1045 23.75                             107   -1.02 6  394 210 
 PRA  HZ I        1045 29.49         5.2 0.30            109            394 210 
 SJC  HZ EP   4   1044 43.17                             106   -1.63 0  412 326 
 SJC  HN ES   4   1045 26.55                             106   -1.98 0  412 326 
                                                                                
