 2017  9 7 1757 53.3 L   6.748 -73.133144.0  RSN  9 0.4 1.7LRSN                1
 GAP=140        0.82       2.9     3.6  4.9 -0.5877E+00  0.6370E+01  0.3995E+01E
 Epicentro: LOS SANTOS - SANTANDER                                             3
 ACTION:UPD 17-10-05 19:10 OP:rebc STATUS:               ID:20170907175753 L   I
 OLDACT:REG 17-09-07 20:24 OP:lv   STATUS:               ID:20170907174541     3
 2017-09-07-1748-00M.COL___423                                                 6
 STAT SP IPHASW D HRMM SECON CODA AMPLIT PERI AZIMU VELO AIN AR TRES W  DIS CAZ7
 BAR2 EZ IP     C 1758 12.49                             173   -0.1010 18.0 198 
 BAR2 EZ ES       1758 27.49                             173   -0.1710 18.0 198 
 BAR2 EZ I        1758 29.17         9.8 0.26            171           18.0 198 
 BRR  HZ EP       1758 14.54                             151    0.0810 75.3 302 
 BRR  HN ES       1758 31.58                             151    0.5810 75.3 302 
 BRR  HZ I        1758 32.44        15.0 0.14            149           75.3 302 
 PAM  EZ EP       1758 15.64                             149    0.1210 81.1  36 
 PAM  EN ES       1758 32.70                             149   -0.1810 81.1  36 
 PAM  EZ I        1758 34.88         6.8 0.46            152           81.1  36 
 RUS  HZ EP       1758 16.49                             145    0.0710 94.7 177 
 RUS  HN ES       1758 34.59                             145    0.1010 94.7 177 
 RUS  HZ I        1758 35.68         6.7 0.20            147           94.7 177 
 ZAR  HZ EP       1758 25.42                             122   -0.54 8  208 293 
 ZAR  HN ES       1758 51.23                             122   -0.24 8  208 293 
 ZAR  HZ I        1758 58.03         9.5 0.14            122            208 293 
 NOR  HZ EP       1758 28.49                             118   -0.17 8  233 236 
 NOR  HE ES       1758 56.25                             118   -0.02 8  233 236 
 NOR  HZ I        1759  1.39         6.4 0.22            119            233 236 
 CHI  HZ EP       1758 30.67                             117    0.37 8  243 196 
 CHI  HN ES       1758 58.38                             117   -0.80 8  243 196 
 CHI  HZ I        1759  1.92         1.6 0.26            118            243 196 
 GUY2CHZ EP   4   1758 37.65                             112    1.10 0  299 236 
 GUY2CHE ES       1759 10.31                             112   -0.00 7  299 236 
 GUY2CHZ I        1759 17.61         3.1 0.48                           299 236 
 PRA  HZ EP       1758 46.82                             106    0.60 6  388 210 
 PRA  HN ES       1759 28.19                             106    0.67 6  388 210 
                                                                                
