 2011  4 7 1222 18.8 L   6.780 -73.035145.9  RSN  6 0.5 2.1LRSN                1
 GAP=167        0.69       7.3    10.5  8.8  0.6762E+01  0.4290E+01  0.3416E+02E
 Epicentro: CEPITA - SANTANDER                                                 3
 ACTION:UP  11-06-22 15:29 OP:REBC STATUS:               ID:20110407122218 L   I
 2011-04-07-1221-01S.COL___132                                                 6
 STAT SP IPHASW D HRMM SECON CODA AMPLIT PERI AZIMU VELO SNR AR TRES W  DIS CAZ7
 BAR2 SZ EP       1222 38.55                             169     0.010   26 218 
 BAR2 SZ ES   2   1222 53.93                             169     0.0 5   26 218 
 BAR2 SZ I        1222 55.11        23.4 0.12                            26 218 
 PAM  SN ES   3   1222 57.35                             153    -0.5 2   72  31 
 BRR  HZ EP       1222 40.55                             149    -0.210   83 296 
 BRR  HN ES   1   1222 58.06                             149     0.3 7   83 296 
 BRR  HZ I        1222 59.43        18.4 0.37                            83 296 
 NOR  SZ EP   2   1222 54.69                             118    -0.8 4  244 237 
 NOR  SN ES   3   1223 22.59                             118    -1.6 2  244 237 
 CHI  HZ EP   3   1222 56.53                             117    -0.2 2  250 198 
 CHI  HN ES   2   1223 26.40                             117     0.2 4  250 198 
 CHI  HZ I        1223 34.03         4.0 0.34                           250 198 
 PRA  HZ EP       1223 13.51                             106     0.6 6  396 211 
 PRA  HZ I        1223 14.31        16.4 0.28                           396 211 
                                                                                
