 2010  5 7 1254 23.5 L   6.830 -73.077154.0  RSN  4 0.2 2.0LRSN                1
 GAP=196        0.48      14.6    22.0 21.1 -0.3097E+03 -0.4412E+03  0.2898E+03E
 Epicentro: LOS SANTOS - SANTANDER                                             3
 ACTION:UP  10-08-24 10:03 OP:vdl  STATUS:               ID:20100507125423 L   I
 2010-05-07-1251-31S.COL___105                                                 6
 STAT SP IPHASW D HRMM SECON CODA AMPLIT PERI AZIMU VELO SNR AR TRES W  DIS CAZ7
 BRR  HZ IP     C 1254 45.97                             153     0.110   77 294 
 BRR  HZ I        1254 46.11        15.0 0.53                            77 294 
 BRR  HE ES   1   1255  3.17                             153    -0.1 7   77 294 
 GUE  SZ IP       1254 48.43                             143    -0.210  112   9 
 GRA  SZ IP       1254 49.21                             141     0.210  120  14 
 PRA  HZ EP   1   1255 17.74                             108    -0.3 4  399 210 
 PRA  HZ I        1255 43.99         2.5 0.39                           399 210 
 PRA  HE ES   1   1256  0.81                             108     0.1 4  399 210 
                                                                                
