 2012 10 7 1748 54.8 L   6.786 -73.128142.0  RSN  5 0.1 1.9LRSN                1
 GAP=139        0.32       2.0     3.1  3.8 -0.2897E-01 -0.6845E-01 -0.1509E+01E
 Epicentro: LOS SANTOS - SANTANDER                                             3
 ACTION:UPD 12-11-22 17:02 OP:ep   STATUS:               ID:20121007174854 L   I
 2012-10-07-1740-00M.COL___222                                                 6
 STAT SP IPHASW D HRMM SECON CODA AMPLIT PERI AZIMU VELO AIN AR TRES W  DIS CAZ7
 BAR2 SZ EP       1749 13.95                             171    0.0210 22.3 196 
 BAR2 SZ ES   3   1749 28.43                             171   -0.44 2 22.3 196 
 BAR2 SZ I        1749 29.70        19.7 0.30                          22.3 196 
 GIR2 SZ EP   3   1749 13.82                             166   -0.23 2 33.2 347 
 GIR2 SZ ES   3   1749 29.16                             166    0.07 2 33.2 347 
 BRR  HZ EP       1749 15.51                             151   -0.1510 73.7 299 
 BRR  HZ I        1749 15.68        15.1 0.14                          73.7 299 
 BRR  HN ES   1   1749 32.12                             151    0.17 7 73.7 299 
 PAM  SZ EP       1749 16.68                             150    0.1010 77.3  38 
 PAM  SZ I        1749 16.85        12.2 0.18                          77.3  38 
 PAM  SN ES   1   1749 33.52                             150   -0.08 7 77.3  38 
 RUS  HZ EP   3   1749 18.29                             144    0.26 2 98.9 177 
 RUS  HN ES       1749 36.18                             144    0.0010 98.9 177 
                                                                                
