 2016 11 7 1430 33.2 L   6.806 -73.162147.2  RSN  4 0.2 1.4LRSN                1
 GAP=177        0.48       3.3     2.7  6.8 -0.4167E+01  0.5927E+01 -0.1368E+01E
 Epicentro: LOS SANTOS - SANTANDER                                             3
 ACTION:UPD 17-10-26 21:05 OP:lp   STATUS:               ID:20161107143033 L   I
 OLDACT:UP  16-11-07 23:43 OP:dnl  STATUS:               ID:20161107142745     3
 OLDACT:UP  16-11-07 23:43 OP:dnl  STATUS:               ID:20161107142745     3
 OLDACT:REG 16-11-07 21:43 OP:dnl  STATUS:               ID:20161107142745     3
 2016-11-07-1428-00M.COL___328                                                 6
 STAT SP IPHASW D HRMM SECON CODA AMPLIT PERI AZIMU VELO AIN AR TRES W  DIS CAZ7
 PAM  EZ EP       1430 55.72                             151    0.1610 78.1  41 
 PAM  EN ES       1431 12.92                             151   -0.1210 78.1  41 
 PAM  EZ I        1431 15.06         5.2 0.52            153           78.1  41 
 PTB  HZ EP   2   1430 59.35                             132   -0.73 5  146 258 
 PTB  HN ES       1431 21.13                             132    0.04 9  146 258 
 PTB  HZ I        1431 27.28         1.9 0.14            133            146 258 
 SPBC HE ES       1431 24.01                             129    0.05 9  163 218 
 ZAR  HZ EP   2   1431  5.70                             123    0.21 4  202 292 
 ZAR  HN ES       1431 30.72                             123    0.01 9  202 292 
 ZAR  HZ I        1431 37.65         2.3 0.40            123            202 292 
                                                                                
