 2012  4 7 1346 29.4 L   6.817 -73.169134.0  RSN  5 0.3 1.4LRSN                1
 GAP=133        0.59       6.6     4.7  9.2 -0.9778E+01 -0.1196E+02  0.3646E+02E
 Epicentro: LOS SANTOS - SANTANDER                                             3
 ACTION:UPD 12-07-05 11:51 OP:tino STATUS:               ID:20120407134629 L   I
 2012-04-07-1340-00M.COL___196                                                 6
 STAT SP IPHASW D HRMM SECON CODA AMPLIT PERI AZIMU VELO AIN AR TRES W  DIS CAZ7
 BRR  HZ EP       1346 48.88                             152    -0.210   68 298 
 BRR  HZ I        1346 54.01         5.0 0.14                            68 298 
 BRR  HN ES   1   1347  4.25                             152    -0.2 7   68 298 
 PAM  SZ EP       1346 50.26                             149    -0.110   78  42 
 PAM  SN ES   1   1347  7.06                             149     0.3 7   78  42 
 RUS  HZ EP       1346 52.11                             141     0.010  103 175 
 PTB  HE ES   2   1347 15.99                             130     0.7 5  146 258 
 ZAR  HZ EP   3   1347  1.72                             121     1.0 2  201 292 
                                                                                
