 2017  8 7 1154 13.0 L   6.802 -73.144149.5  RSN  5 0.4 1.3LRSN                1
 GAP=238        1.03       8.2     7.4  8.2  0.3787E+02  0.5851E+01 -0.1934E+01E
 Epicentro: LOS SANTOS - SANTANDER                                             3
 ACTION:UPD 17-09-04 20:17 OP:rebc STATUS:               ID:20170807115413 L   I
 OLDACT:UP  17-08-07 21:06 OP:dani STATUS:               ID:20170807114742     3
 OLDACT:UP  17-08-07 21:06 OP:dani STATUS:               ID:20170807114742     3
 OLDACT:REG 17-08-07 19:44 OP:dani STATUS:               ID:20170807114742     3
 2017-08-07-1148-00M.COL___390                                                 6
 STAT SP IPHASW D HRMM SECON CODA AMPLIT PERI AZIMU VELO AIN AR TRES W  DIS CAZ7
 BAR2 EZ EP       1154 33.25                             171    0.1410 23.6 190 
 BAR2 EZ ES       1154 48.13                             171   -0.6410 23.6 190 
 BAR2 EZ I        1154 49.70         5.3 0.22            166           23.6 190 
 BRR  HZ EP       1154 35.08                             153    0.5010 71.2 298 
 BRR  HE ES       1154 51.78                             153    0.3910 71.2 298 
 BRR  HZ I        1154 56.18         5.9 0.60            151           71.2 298 
 RUS  HZ EP       1154 36.93                             144   -0.2310  101 176 
 RUS  HN ES       1154 56.26                             144    0.2810  101 176 
 RUS  HZ I        1154 58.11         2.1 0.22            145            101 176 
 PTB  HZ EP       1154 40.02                             133   -0.30 9  148 259 
 PTB  HN ES       1155  1.89                             133    0.28 9  148 259 
 PTB  HZ I        1155  8.29         1.9 0.24            132            148 259 
 ZAR  HN ES       1155 10.68                             123   -0.55 9  204 292 
                                                                                
