 2017  5 7 1021 56.3 L   6.838 -73.353116.8  RSN  9 0.4 1.5LRSN                1
 GAP= 93        0.75       3.0     2.8  5.4  0.1085E+01  0.4475E+01  0.5260E+01E
 Epicentro: SAN VICENTE DE CHUCURI - SANTANDER                                 3
 ACTION:UPD 17-06-16 13:33 OP:jn   STATUS:               ID:20170507102156 L   I
 OLDACT:UP  17-05-07 20:35 OP:and  STATUS:               ID:20170507101432     3
 OLDACT:UP  17-05-07 20:35 OP:and  STATUS:               ID:20170507101432     3
 OLDACT:UP  17-05-07 20:34 OP:and  STATUS:               ID:20170507101432     3
 OLDACT:UP  17-05-07 20:34 OP:and  STATUS:               ID:20170507101432     3
 OLDACT:UP  17-05-07 20:33 OP:and  STATUS:               ID:20170507101432     3
 OLDACT:UP  17-05-07 20:33 OP:and  STATUS:               ID:20170507101432     3
 OLDACT:UP  17-05-07 20:32 OP:and  STATUS:               ID:20170507101432     3
 OLDACT:UP  17-05-07 20:31 OP:and  STATUS:               ID:20170507101432     3
 OLDACT:UP  17-05-07 20:30 OP:and  STATUS:               ID:20170507101432     3
 OLDACT:UP  17-05-07 20:30 OP:and  STATUS:               ID:20170507101432     3
 OLDACT:UP  17-05-07 20:30 OP:and  STATUS:               ID:20170507101432     3
 OLDACT:UP  17-05-07 20:28 OP:and  STATUS:               ID:20170507101432     3
 OLDACT:REG 17-05-07 19:55 OP:and  STATUS:               ID:20170507101432     3
 2017-05-07-1018-00M.COL___358                                                 6
 STAT SP IPHASW D HRMM SECON CODA AMPLIT PERI AZIMU VELO AIN AR TRES W  DIS CAZ7
 BRR  HZ EP       1022 12.54                             155   -0.5410 49.6 307 
 BRR  HN ES       1022 26.08                             155   -0.1210 49.6 307 
 PAM  EZ EP       1022 16.77                             139    0.2610 91.0  52 
 PAM  EN ES       1022 32.37                             139    0.0710 91.0  52 
 PAM  EZ I        1022 36.85         5.3 0.12            143           91.0  52 
 RUS  HZ EP       1022 17.96                             134   -0.0310  109 164 
 RUS  HN ES       1022 35.01                             134    0.0710  109 164 
 RUS  HZ I        1022 35.99         5.6 0.20            137            109 164 
 PTB  HZ IP   3 C 1022 17.29                             129   -1.66 2  126 255 
 PTB  HN ES   4   1022 33.73                             129   -2.93 0  126 255 
 PTB  HZ I        1022 38.36         6.4 0.24            131            126 255 
 ZAR  HZ EP       1022 24.26                             118   -0.26 9  181 294 
 ZAR  HN ES       1022 46.99                             118    0.42 9  181 294 
 ZAR  HZ I        1022 50.06         4.8 0.22            120            181 294 
 YPLC HZ EP       1022 25.79                             117   -0.02 9  192 146 
 NOR  HZ EP       1022 28.96                             113    0.22 8  219 230 
 NOR  HN ES       1022 53.85                             113   -0.23 8  219 230 
 NOR  HZ I        1023  0.64         2.5 0.16            115            219 230 
 HEL  HZ EP       1022 33.27                             110    0.51 8  251 254 
 SJC  HZ EP   3   1022 47.38                             101   -1.76 1  394 329 
 SJC  HE ES   4   1023 27.26                             101   -3.13 0  394 329 
                                                                                
