 2014  2 7 1014 29.8 L   6.837 -73.154140.0  RSN  4 0.4 1.3LRSN                1
 GAP=201        0.74       5.7     6.8 16.0  0.1239E+02 -0.1181E+02 -0.6239E+02E
 Epicentro: LOS SANTOS - SANTANDER                                             3
 ACTION:UPD 14-03-10 08:08 OP:ep   STATUS:               ID:20140207101429 L   I
 OLDACT:UP  14-02-07 17:57 OP:cam  STATUS:               ID:20140207101000     3
 OLDACT:REG 14-02-07 17:24 OP:cam  STATUS:               ID:20140207101000     3
 2014-02-07-1010-00M.COL___291                                                 6
 STAT SP IPHASW D HRMM SECON CODA AMPLIT PERI AZIMU VELO AIN AR TRES W  DIS CAZ7
 RUS  HN ES   1   1015 11.83                             141    0.18 9  105 176 
 PTB  HZ EP   1   1014 55.99                             131   -0.34 8  148 257 
 PTB  HN ES   1   1015 16.55                             131   -0.45 8  148 257 
 PTB  HZ I        1015 20.16         1.6 0.20            133            148 257 
 ZAR  HN ES       1015 26.97                             121    0.4810  202 291 
 ZAR  HZ I        1015 30.82         1.9 0.10            124            202 291 
 SML  HZ EP   1   1015  6.04                             117    0.36 7  240 335 
 SML  HN ES       1015 33.35                             117   -0.31 9  240 335 
 SML  HZ I        1015 37.27         2.0 0.24            119            240 335 
                                                                                
