 2010  6 7 1432  9.5 L   6.799 -73.028160.5  RSN  5 0.3 1.9LRSN                1
 GAP=245        0.53       9.2     9.7  8.6 -0.6047E+02  0.5304E+01  0.2038E+02E
 Epicentro: CEPITA - SANTANDER                                                 3
 ACTION:UP  10-08-24 10:08 OP:vdl  STATUS:               ID:20100607143209 L   I
 2010-06-07-1429-13S.COL___111                                                 6
 STAT SP IPHASW D HRMM SECON CODA AMPLIT PERI AZIMU VELO SNR AR TRES W  DIS CAZ7
 GIR2 SZ EP   2   1432 31.54                             167     0.5 5   36 329 
 GIR2 SZ ES   2   1432 47.95                             167     0.1 5   36 329 
 GUE  SZ EP   1   1432 35.39                             143    -0.1 7  115   6 
 GUE  SZ ES   2   1432 55.40                             143    -0.3 5  115   6 
 GRA  SZ ES   2   1432 56.14                             141    -0.3 5  123  12 
 OCA  SZ EP   2   1432 38.93                             132    -0.3 5  162 349 
 OCA  SZ ES   2   1433  2.97                             132     0.6 5  162 349 
 OCA  SZ I        1433  5.44         8.3 0.56                           162 349 
 HEL  HZ EP   2   1432 52.15                             116     0.3 4  285 256 
 HEL  HN ES   2   1433 24.47                             116    -0.5 4  285 256 
 HEL  HZ I        1433 29.77         3.4 0.44                           285 256 
                                                                                
