 2012  1 7 1116 38.3 L   6.825 -73.174139.5  RSN  7 0.4 1.4LRSN                1
 GAP=132        0.87       7.5     6.8  9.5  0.2144E+02  0.2462E+02  0.2164E+02E
 Epicentro: LOS SANTOS - SANTANDER                                             3
 ACTION:UP  12-02-03 08:15 OP:REBC STATUS:               ID:20120107111638 L   I
 2012-01-07-1110-00M.COL___186                                                 6
 STAT SP IPHASW D HRMM SECON CODA AMPLIT PERI AZIMU VELO SNR AR TRES W  DIS CAZ7
 BAR2 SZ EP       1116 57.71                             169     0.510   26 182 
 BAR2 SZ ES   2   1117 11.75                             169    -0.2 5   26 182 
 BAR2 SZ I        1117 12.76         6.8 0.28                            26 182 
 GIR2 SZ EP   2   1116 57.34                             168     0.2 5   28 356 
 GIR2 SZ ES   2   1117 11.18                             168    -0.6 5   28 356 
 BRR  HZ EP       1116 58.34                             153    -0.210   67 298 
 BRR  HN ES   2   1117 15.31                             153     1.0 5   67 298 
 BRR  HZ I        1117 17.43         9.4 0.60                            67 298 
 PAM  SN ES   2   1117 16.23                             150    -0.4 5   77  43 
 RUS  HZ EP       1117  1.44                             142    -0.210  104 174 
 RUS  HN ES   2   1117 20.13                             142     0.3 5  104 174 
 RUS  HZ I        1117 24.61         1.6 0.38                           104 174 
 PTB  HZ EP       1117  4.30                             131    -0.2 9  145 258 
 PTB  HN ES   2   1117 24.72                             131    -0.2 5  145 258 
 PTB  HZ I        1117 26.20         3.2 0.18                           145 258 
 ZAR  HZ EP   2   1117 10.74                             121     0.8 4  200 292 
 ZAR  HN ES   1   1117 34.40                             121    -0.2 6  200 292 
 ZAR  HZ I        1117 39.99         5.2 0.38                           200 292 
                                                                                
