 2010 12 7 1322 17.4 L   6.812 -73.110144.3  RSN 11 0.4 2.4LRSN                1
 GAP=180        0.94       5.4     8.5  6.2 -0.3097E+02  0.1155E+02  0.4231E+00E
 Epicentro: LOS SANTOS - SANTANDER                                             3
 ACTION:UP  11-01-14 15:23 OP:pat  STATUS:               ID:20101207132217 L   I
 2010-12-07-1320-04S.COL___135                                                 6
 STAT SP IPHASW D HRMM SECON CODA AMPLIT PERI AZIMU VELO SNR AR TRES W  DIS CAZ7
 BTL  SZ IP       1322 37.09                             171     0.310   21 304 
 BTL  SZ ES   1   1322 52.46                             171     0.5 7   21 304 
 BAR2 SZ IP       1322 36.94                             169     0.110   26 199 
 BAR2 SZ ES   1   1322 51.56                             169    -0.5 7   26 199 
 BAR2 SZ I        1322 54.44        45.1 0.18                            26 199 
 GIR2 SZ EP       1322 36.92                             167     0.110   31 343 
 GIR2 SZ ES   2   1322 52.42                             167     0.4 5   31 343 
 GUE  SZ EP       1322 42.14                             140     0.410  114  10 
 GRA  SZ IP       1322 41.73                             137    -0.610  123  16 
 GRA  SZ ES   1   1323  1.07                             137    -0.6 7  123  16 
 GRA  SZ I        1323  2.30        27.8 0.41                           123  16 
 OCA  SZ EP       1322 45.44                             129    -0.1 9  160 352 
 OCA  SZ I        1323 12.96        33.8 0.34                           160 352 
 NOR  SN ES   1   1323 20.99                             118    -0.6 6  239 235 
 NOR  SZ I        1323 26.93         2.4 0.32                           239 235 
 CHI  HZ EP       1322 55.31                             116     0.1 8  251 196 
 CHI  HN ES   2   1323 24.44                             116    -0.3 4  251 196 
 CHI  HZ I        1323 31.87        12.3 0.54                           251 196 
 HEL  HZ EP       1322 58.44                             114     0.5 7  276 256 
 HEL  HN ES   2   1323 29.03                             114    -0.6 4  276 256 
 HEL  HZ I        1323 35.97        16.9 0.66                           276 256 
 RREF HZ EP   1   1323  4.16                             110     0.3 5  326 230 
 RREF HN ES   2   1323 39.94                             110    -0.2 3  326 230 
 RREF HZ I        1323 49.07        10.2 0.58                           326 230 
 PRA  HZ EP       1323 11.24                             106     0.0 6  395 210 
 PRA  HZ I        1324  0.01        35.0 0.15                           395 210 
                                                                                
