 2010 12 7 1111 31.8 L   6.801 -72.926134.1  RSN  6 0.3 1.8LRSN                1
 GAP=224        0.77       7.7    20.3  7.8 -0.1009E+03 -0.7128E+02  0.4588E+00E
 Epicentro: CEPITA - SANTANDER                                                 3
 ACTION:UP  11-01-14 15:23 OP:pat  STATUS:               ID:20101207111131 L   I
 2010-12-07-1109-54S.COL___135                                                 6
 STAT SP IPHASW D HRMM SECON CODA AMPLIT PERI AZIMU VELO SNR AR TRES W  DIS CAZ7
 BAR2 SZ EP       1111 50.41                             164     0.010   37 231 
 BAR2 SZ ES   1   1112  4.54                             164    -0.4 7   37 231 
 BAR2 SZ I        1112  6.47        13.8 0.35                            37 231 
 BTL  SZ EP       1111 50.71                             163     0.210   40 289 
 BTL  SZ ES   1   1112  5.24                             163     0.1 7   40 289 
 GIR2 SZ EP   2   1111 50.37                             162    -0.1 5   43 316 
 GIR2 SZ ES   2   1112  5.30                             162     0.2 5   43 316 
 GUE  SZ EP       1111 55.80                             137     0.610  114   0 
 GRA  SZ EP       1111 55.36                             135    -0.210  121   6 
 GRA  SZ I        1111 56.61         9.8 0.28                           121   6 
 GRA  SZ ES   1   1112 14.00                             135    -0.1 7  121   6 
 OCA  SZ EP       1111 59.34                             126    -0.4 9  165 345 
 OCA  SZ I        1112 25.17         9.8 0.87                           165 345 
                                                                                
