 2014  2 7 1030 21.6 L   6.825 -73.152133.0  RSN 11 0.6 1.7LRSN                1
 GAP=134        1.25       3.8     5.2  8.7 -0.4325E+01  0.2145E+02 -0.6520E+01E
 Epicentro: LOS SANTOS - SANTANDER                                             3
 ACTION:UPD 14-03-10 08:08 OP:ep   STATUS:               ID:20140207103021 L   I
 OLDACT:UP  14-02-07 18:19 OP:cam  STATUS:               ID:20140207103000     3
 OLDACT:UP  14-02-07 18:19 OP:cam  STATUS:               ID:20140207103000     3
 OLDACT:REG 14-02-07 17:25 OP:cam  STATUS:               ID:20140207103000     3
 2014-02-07-1030-00M.COL___291                                                 6
 STAT SP IPHASW D HRMM SECON CODA AMPLIT PERI AZIMU VELO AIN AR TRES W  DIS CAZ7
 BAR2 SZ EP     D 1030 39.69                             168   -0.1010 25.9 187 
 BAR2 SZ ES       1030 53.70                             168   -0.2610 25.9 187 
 BAR2 SZ I        1030 55.41        26.1 0.32            165           25.9 187 
 PAM  SZ EP       1030 42.51                             149    0.1110 75.8  41 
 PAM  SN ES       1030 59.37                             149    0.7610 75.8  41 
 PAM  SZ I        1031  1.49        11.5 0.48            141           75.8  41 
 RUS  HZ EP       1030 43.74                             140   -0.6310  103 176 
 RUS  HN ES       1031  2.18                             140    0.0810  103 176 
 RUS  HZ I        1031  4.08         5.8 0.30            131            103 176 
 PTB  HZ EP   1   1030 46.70                             129   -0.88 7  148 258 
 PTB  HN ES       1031  7.61                             129   -0.21 9  148 258 
 PTB  HZ I        1031  8.36         7.7 0.30            118            148 258 
 OCA  HZ EP   1   1030 49.13                             127    0.42 7  157 353 
 OCA  HN ES       1031  9.46                             127   -0.37 9  157 353 
 OCA  HZ I        1031 12.80         6.9 0.26            117            157 353 
 ZAR  HZ EP       1030 54.13                             120    1.03 9  202 291 
 ZAR  HN ES       1031 17.95                             120    0.30 9  202 291 
 ZAR  HZ I        1031 24.45         6.9 0.16            110            202 291 
 NOR  HN ES       1031 24.19                             115    0.02 8  236 234 
 NOR  HZ I        1031 28.74         4.8 0.28            106            236 234 
 SML  HZ EP   1   1030 56.22                             115   -1.05 6  241 335 
 SML  HE ES       1031 24.52                             115   -0.54 8  241 335 
 SML  HZ I        1031 35.37         7.0 0.28            106            241 335 
 CHI  HZ EP   4   1030 57.55                             114   -1.38 0  251 195 
 CHI  HN ES   4   1031 26.74                             114   -1.28 0  251 195 
 CHI  HZ I        1031 30.74         1.8 0.42            106            251 195 
 HEL  HZ EP   4   1031  2.15                             112    0.93 0  272 255 
 HEL  HZ I        1031 39.86         4.1 0.32            103            272 255 
 URE  HN ES   4   1031 30.07                             111   -3.28 0  282 291 
 GUY2CHZ EP   1   1031  6.05                             110    1.25 5  302 234 
 GUY2CHN ES       1031 38.75                             110    0.28 7  302 234 
 GUY2CHZ I        1031 44.37         1.6 0.38                           302 234 
                                                                                
