 2014 12 7 1339 52.5 L   6.806 -73.156147.2  RSN  6 0.2 1.7LRSN                1
 GAP=142        0.65       3.7     3.5  5.0 -0.6500E+01  0.5515E+01 -0.9181E+00E
 Epicentro: LOS SANTOS - SANTANDER                                             3
 ACTION:UPD 15-02-10 17:01 OP:nd   STATUS:               ID:20141207133952 L   I
 OLDACT:REG 14-12-08 00:47 OP:carl STATUS:               ID:20141207133747     3
 2014-12-07-1337-47M.COL___309                                                 6
 STAT SP IPHASW D HRMM SECON CODA AMPLIT PERI AZIMU VELO AIN AR TRES W  DIS CAZ7
 BAR2 SZ EP       1340 12.44                             170    0.1810 23.8 187 
 BAR2 SZ ES       1340 27.59                             170   -0.1210 23.8 187 
 BAR2 SZ I        1340 28.82         8.4 0.18            170           23.8 187 
 PAM  SZ EP       1340 15.10                             151    0.2710 77.6  41 
 PAM  SE ES       1340 32.20                             151   -0.0910 77.6  41 
 PAM  SZ I        1340 34.73         8.3 0.62            154           77.6  41 
 RUS  HZ EP       1340 16.44                             144    0.0410  101 175 
 RUS  HN ES       1340 35.10                             144    0.0310  101 175 
 RUS  HZ I        1340 36.12         4.6 0.38            146            101 175 
 PTB  HZ EP       1340 19.43                             132   -0.02 9  147 258 
 PTB  HN ES       1340 40.40                             132   -0.10 9  147 258 
 PTB  HZ I        1340 44.34         5.5 0.10            133            147 258 
 SPBC HZ EP       1340 20.40                             129   -0.64 9  163 219 
 SPBC HN ES       1340 43.43                             129    0.09 9  163 219 
 SPBC HZ I        1340 47.23        12.0 0.38            130            163 219 
 NOR  HN ES       1340 56.48                             119    0.39 8  234 234 
 NOR  HZ I        1341  1.56         4.5 0.30            120            234 234 
                                                                                
