 2011  7 7 1507 19.8 L   6.957 -72.771128.1  RSN  4 0.4 1.4LRSN                1
 GAP=198        0.70       5.0     8.6 10.4 -0.1166E+02 -0.1544E+02  0.8614E+01E
 Epicentro: GUACA - SANTANDER                                                  3
 ACTION:UPD 12-07-25 13:59 OP:epov STATUS:               ID:20110707150719 L   I
 2011-07-07-1502-18S.COL___140                                                 6
 STAT SP IPHASW D HRMM SECON CODA AMPLIT PERI AZIMU VELO AIN AR TRES W  DIS CAZ7
 BAR2 SZ EP   2   15 7 39.29                             153    0.48 5 60.8 228 
 BAR2 SZ ES   2   15 7 54.43                             153    0.81 5 60.8 228 
 BAR2 SZ I        15 7 58.23         4.2 0.29                          60.8 228 
 GRA  SZ EP   2   15 7 41.56                             138   -0.01 5  103 358 
 GRA  SZ ES   1   15 7 58.37                             138   -0.16 8  103 358 
 GRA  SZ I        15 7 59.13         2.1 0.30                           103 358 
 BRR  HZ EP       15 7 41.80                             138    0.2410  105 279 
 BRR  HE ES   1   15 7 58.10                             138   -0.42 7  105 279 
 BRR  HZ I        15 8  3.00        19.3 0.08                           105 279 
 RUS  HZ EP   2   15 7 43.33                             133   -0.38 5  123 196 
 RUS  HN ES   2   15 8  1.75                             133   -0.61 5  123 196 
 RUS  HZ I        15 8  3.78         2.8 0.27                           123 196 
                                                                                
