 2017 10 7 1933 12.4 L   7.322 -73.741 11.2  RSN  4 0.4 1.0LRSN                1
 GAP=170        0.91       4.5     2.3  6.9  0.4739E+01  0.3063E+01  0.1603E+02E
 Epicentro: PUERTO WILCHES - SANTANDER                                         3
 ACTION:UPD 17-11-07 19:29 OP:rebc STATUS:               ID:20171007193312 L   I
 OLDACT:REG 17-10-07 21:10 OP:osc  STATUS:               ID:20171007192740     3
 2017-10-07-1928-00M.COL___420                                                 6
 STAT SP IPHASW D HRMM SECON CODA AMPLIT PERI AZIMU VELO AIN AR TRES W  DIS CAZ7
 BAR2 EZ EP       1933 29.11                              94    0.3910  102 143 
 BAR2 EZ ES       1933 41.20                              94   -0.2210  102 143 
 BAR2 EZ I        1933 42.02         3.1 0.28             93            102 143 
 PAM  EZ EP       1933 31.15                              94    0.1510  115  89 
 PAM  EN ES       1933 45.15                              94   -0.3210  115  89 
 PAM  EZ I        1933 46.91         3.1 0.16             92            115  89 
 ZAR  HZ EP       1933 32.25                              93    0.2610  125 279 
 ZAR  HE ES       1933 46.81                              93   -0.4210  125 279 
 RUS  HZ EP       1933 40.00                              56    0.57 9  174 155 
 RUS  HN ES       1934  0.10                              56   -0.38 9  174 155 
 RUS  HZ I        1934  2.00         2.4 0.34             56            174 155 
                                                                                
