 2014  3 7 1216  8.6 L   6.461 -73.815 80.9  RSN  7 0.4 1.5LRSN                1
 GAP=102        0.99       3.3     2.4  7.7 -0.1292E+01  0.4292E+01  0.3095E+00E
 Epicentro: SANTA HELENA DEL OPON - SANTANDER                                  3
 OLDACT:REG 14-03-07 15:27 OP:stll STATUS:               ID:20140307120818     3
 ACTION:UPD 14-04-09 23:15 OP:nd   STATUS:               ID:20140307121608 L   I
 OLDACT:UP  14-03-07 19:04 OP:stll STATUS:               ID:20140307120818     3
 2014-03-07-1208-18M.COL___222                                                 6
 STAT SP IPHASW D HRMM SECON CODA AMPLIT PERI AZIMU VELO AIN AR TRES W  DIS CAZ7
 PTB  HZ EP       1216 22.56                             135   -0.8010 71.4 277 
 PTB  HN ES       1216 34.44                             135   -0.4010 71.4 277 
 PTB  HZ I        1216 35.13        11.6 0.18            141           71.4 277 
 BAR2 SZ EP       1216 23.65                             135   -0.0210 71.5  78 
 BAR2 SZ ES       1216 35.79                             135    0.4010 71.5  78 
 BAR2 HZ I        1216 37.61        27.6 0.18            138           71.5  78 
 RUS  HZ EP       1216 26.76                             124   -0.2210  103 128 
 RUS  HN ES       1216 41.31                             124    0.0310  103 128 
 RUS  HZ I        1216 52.07         3.0 1.86            126            103 128 
 NOR  HZ EP       1216 31.99                             112    0.05 9  153 230 
 NOR  HN ES       1216 50.70                             112    0.59 9  153 230 
 NOR  HZ I        1216 52.41         6.0 0.14            116            153 230 
 PAM  SZ EP       1216 32.95                             112    0.02 9  157  52 
 PAM  SE ES       1216 51.76                             112   -0.10 9  157  52 
 PAM  HZ I        1216 54.49         5.3 2.68            116            157  52 
 ZAR  HZ EP       1216 32.68                             111   -0.23 9  162 315 
 ZAR  HN ES       1216 52.59                             111    0.76 9  162 315 
 ZAR  HZ I        1216 55.79         5.5 0.24            116            162 315 
 GUY2CHZ EP       1216 40.44                             105    0.21 8  219 232 
 GUY2CHN ES       1217  4.78                             105   -0.08 8  219 232 
 GUY2CHZ I        1217  9.88         3.6 4.24                           219 232 
                                                                                
