 2010 10 7 1454 41.6 L   6.804 -73.100150.3  RSN 12 0.9 2.9LRSN                1
 GAP=163        1.93       7.9    10.7 12.7 -0.2177E+02 -0.1143E+01  0.4092E+02E
 Epicentro: LOS SANTOS - SANTANDER                                             3
 ACTION:UP  11-02-18 11:08 OP:tino STATUS:               ID:20101007145441 L   I
 2010-10-07-1453-00S.COL___118                                                 6
 STAT SP IPHASW D HRMM SECON CODA AMPLIT PERI AZIMU VELO SNR AR TRES W  DIS CAZ7
 BAR2 SZ EP       1455  1.46                             170    -0.310   25 201 
 BAR2 SZ ES   1   1455 17.11                             170    -0.4 7   25 201 
 BAR2 SZ I        1455 19.51        91.5 0.17                            25 201 
 BRR  HZ EP       1455  3.39                             152    -0.110   75 296 
 BRR  HZ I        1455  5.01       129.8 0.22                            75 296 
 BRR  HN ES       1455 21.00                             152     0.510   75 296 
 OCA  SZ EP       1455 10.38                             130     0.1 9  161 351 
 OCA  SZ ES   1   1455 32.60                             130     0.0 7  161 351 
 OCA  SZ I        1455 36.84       103.6 1.37                           161 351 
 YOP  SZ EP       1455 11.90                             127     0.1 9  177 155 
 NOR  SZ EP       1455 17.28                             119    -0.8 8  239 235 
 NOR  SN ES       1455 45.40                             119    -1.1 8  239 235 
 CHI  HZ EP       1455 19.48                             118    -0.2 8  250 196 
 CHI  HE ES   2   1455 48.50                             118    -1.0 4  250 196 
 CHI  HZ I        1455 56.71        19.2 0.42                           250 196 
 ROSC BZ EP       1455 21.43                             117     1.2 8  256 212 
 ROSC BN ES   1   1455 53.18                             117     2.7 6  256 212 
 ROSC BZ I        1455 59.04        40.6 1.22                           256 212 
 HEL  HZ EP   1   1455 23.16                             115     0.6 6  277 256 
 HEL  HN ES   1   1455 54.02                             115    -0.5 6  277 256 
 HEL  HZ I        1455 59.40        36.6 0.59                           277 256 
 RREF HZ EP       1455 28.75                             111     0.4 7  326 230 
 RREF HN ES       1456  6.09                             111     1.2 7  326 230 
 RREF HZ I        1456 11.87        37.0 0.72                           326 230 
 DBB  SZ EP       1455 29.20                             110    -0.6 7  344 274 
 TOL  SZ EP       1455 30.97                             110     0.5 6  347 225 
 PRA  HZ EP       1455 35.14                             107    -0.5 6  395 210 
 PRA  HN ES       1456 15.80                             107    -1.9 6  395 210 
 PRA  HZ I        1456 23.47        67.0 0.44                           395 210 
                                                                                
