 2010  8 7 1901 42.6 L   6.796 -73.112150.2  RSN 22 0.5 4.0LRSN                1
 GAP=124        1.02       3.7     6.1  5.4 -0.1125E+02  0.3211E+01  0.5600E+01E
 Epicentro: LOS SANTOS - SANTANDER                                             3
 ACTION:UP  10-09-07 10:53 OP:vdl  STATUS:               ID:20100807190142 L   I
 2010-08-07-1858-17S.COL___125                                                 6
 STAT SP IPHASW D HRMM SECON CODA AMPLIT PERI AZIMU VELO SNR AR TRES W  DIS CAZ7
 BTL  SZ EP       19 2  2.81                             172     0.110   22 308 
 BTL  SZ ES   2   19 2 18.59                             172     0.2 5   22 308 
 BAR2 SZ IP       19 2  2.64                             171    -0.110   24 199 
 BAR2 SZ ES   1   19 2 18.05                             171    -0.4 7   24 199 
 BAR2 SZ I        19 2 19.55      3378.1 0.18                            24 199 
 GIR2 SZ EP   1   19 2  2.73                             167    -0.1 7   33 344 
 GIR2 SZ ES   2   19 2 18.13                             167    -0.5 5   33 344 
 BRR  HZ IP       19 2  4.50                             152     0.110   75 298 
 BRR  HN ES   1   19 2 21.60                             152     0.2 7   75 298 
 BRR  HZ I        19 2 25.14      1340.9 0.25                            75 298 
 RUS  HZ EP   1   19 2  6.48                             145    -0.2 7  100 178 
 RUS  HN ES   2   19 2 25.11                             145    -0.5 5  100 178 
 RUS  HZ I        19 2 26.73       987.1 0.55                           100 178 
 BRI  SZ EP   1   19 2  7.17                             143     0.3 7  108  19 
 BRI  SZ ES   1   19 2 26.24                             143     0.5 7  108  19 
 BRI  SZ I        19 2 31.28       418.3 0.77                           108  19 
 GUE  SZ EP       19 2  7.61                             141    -0.110  116  10 
 GUE  SZ I        19 2 29.44       169.5 0.26                           116  10 
 GRA  SZ IP       19 2  8.43                             138     0.310  125  16 
 GRA  SZ ES   2   19 2 28.16                             138     0.0 5  125  16 
 GRA  SZ I        19 2 30.45       642.0 0.36                           125  16 
 OCA  SZ EP       19 2 11.02                             131    -0.3 9  161 352 
 OCA  SZ ES   1   19 2 33.65                             131    -0.1 7  161 352 
 OCA  SZ I        19 2 38.00       748.8 0.32                           161 352 
 CHI  HZ IP     D 19 2 20.29                             118    -0.3 8  249 196 
 CHI  HN ES   1   19 2 51.06                             118     0.8 6  249 196 
 CHI  HZ I        19 2 56.08       525.0 0.52                           249 196 
 ROSC BZ IP     D 19 2 22.26                             117     1.1 8  254 212 
 ROSC BN ES   2   19 2 50.88                             117    -0.3 4  254 212 
 ROSC BZ I        19 2 57.74       954.5 0.37                           254 212 
 CVER SZ EP       19 2 23.94                             116     0.7 8  273 203 
 CVER SZ I        19 2 25.87      1001.0 0.50                           273 203 
 HEL  HZ EP       19 2 22.57                             115    -0.8 7  276 256 
 HEL  HE ES   2   19 2 55.03                             115    -0.2 4  276 256 
 HEL  HZ I        19 3  2.30       515.0 0.13                           276 256 
 GUY  SZ EP       19 2 27.05                                     0.3 7  304 235 
 GUY  SZ I        19 3  8.37      1865.5 0.49                           304 235 
 RREF HZ EP   1   19 2 28.97                             112    -0.2 5  324 230 
 RREF HN ES   2   19 3  4.54                             112    -1.0 3  324 230 
 RREF HZ I        19 3 13.34       576.3 0.20                           324 230 
 DBB  SZ EP   1   19 2 30.20                             110    -0.5 5  343 274 
 TOL  SZ EP       19 2 31.37                             110     0.1 6  346 225 
 SDV  BZ EP       19 2 31.93                             109    -0.6 6  358  50 
 SDV  BZ I        19 2 33.41       175.2 0.39                           358  50 
 ANIL HZ EP       19 2 33.54                                     0.7 6  360 225 
 ANIL HN ES   2   19 3 12.53                                     0.5 3  360 225 
 ANIL HZ I        19 3 19.36      1461.6 0.38                           360 225 
 PRA  HZ EP       19 2 35.72                             107    -0.7 6  393 210 
 PRA  HN ES   1   19 3 17.80                             107    -0.6 4  393 210 
 PRA  HZ I        19 3 24.44       739.3 0.28                           393 210 
 GUA  SZ EP   1   19 2 44.52                             104    -1.2 4  473 173 
 HORQ SZ EP   1   19 2 53.61                                     0.2 3  534 227 
 HORQ SZ I        19 2 56.16        43.7 0.57                           534 227 
 HORQ SE ES   3   19 3 48.90                                     0.2 1  534 227 
                                                                                
