 2010 12 7 1946  5.9 L   6.868 -73.270120.0  RSN  6 0.2 1.9LRSN                1
 GAP=195        0.49       4.7    13.9  4.5 -0.1467E+02 -0.2383E+01 -0.1221E+02E
 Epicentro: BETULIA - SANTANDER                                                3
 ACTION:UP  11-01-14 15:23 OP:pat  STATUS:               ID:20101207194605 L   I
 2010-12-07-1944-45S.COL___135                                                 6
 STAT SP IPHASW D HRMM SECON CODA AMPLIT PERI AZIMU VELO SNR AR TRES W  DIS CAZ7
 BTL  SZ EP       1946 22.27                             177     0.110    6   3 
 BTL  SZ ES   1   1946 34.95                             177     0.1 7    6   3 
 GIR2 SZ EP       1946 22.33                             168     0.010   25  20 
 GIR2 SZ ES   1   1946 35.19                             168     0.1 7   25  20 
 BAR2 SZ EP       1946 22.71                             164     0.110   32 163 
 BAR2 SZ I        1946 22.99        39.2 0.23                            32 163 
 BAR2 SZ ES   1   1946 35.37                             164    -0.4 7   32 163 
 GUE  SZ EP       1946 27.87                             134    -0.110  113  20 
 GRA  SZ EP       1946 28.87                             131     0.110  124  25 
 GRA  SZ I        1946 29.70         6.9 0.33                           124  25 
 OCA  SZ EP       1946 31.25                             125    -0.2 9  152 358 
 OCA  SZ I        1946 56.87        13.1 0.16                           152 358 
                                                                                
