 2010 11 7 1721 40.9 L   6.745 -73.114150.7  RSN  7 0.4 1.9LRSN                1
 GAP=163        0.75       5.1     7.6  7.9 -0.1008E+02 -0.3556E+01  0.8200E+00E
 Epicentro: JORDAN - SANTANDER                                                 3
 ACTION:UP  10-12-17 16:50 OP:REBC STATUS:               ID:20101107172140 L   I
 2010-11-07-1718-47S.COL___129                                                 6
 STAT SP IPHASW D HRMM SECON CODA AMPLIT PERI AZIMU VELO SNR AR TRES W  DIS CAZ7
 BAR2 SZ EP   1   1722  0.87                             173    -0.2 7   19 204 
 BAR2 SZ ES   2   1722 16.23                             173    -0.5 5   19 204 
 BAR2 SZ I        1722 18.60        14.0 0.18                            19 204 
 BRR  HZ IP     C 1722  2.72                             151    -0.210   77 301 
 BRR  HZ I        1722  3.02        31.2 0.19                            77 301 
 BRR  HN ES   1   1722 20.39                             151     0.3 7   77 301 
 RUS  HZ EP   1   1722  4.75                             147     0.1 7   94 178 
 RUS  HE ES   2   1722 23.53                             147     0.3 5   94 178 
 GUE  SZ EP   2   1722  5.71                             139    -0.8 5  122  10 
 GRA  SZ EP   1   1722  7.70                             137     0.7 7  131  15 
 GRA  SZ ES   2   1722 27.33                             137     0.0 5  131  15 
 GRA  SZ I        1722 33.23         6.2 0.33                           131  15 
 OCA  SZ EP   2   1722  9.68                             129    -0.5 5  167 352 
 OCA  SZ I        1722 37.14         8.9 0.00                           167 352 
 NOR  SZ EP   1   1722 17.06                             120     0.2 6  234 236 
 NOR  SN ES   2   1722 44.82                             120    -0.1 4  234 236 
                                                                                
