 2014  1 7 1214  5.9 L   6.705 -73.336128.9  RSN  5 0.3 1.5LRSN                1
 GAP=108        0.88       4.4     3.6  7.1  0.1433E+00  0.8967E+01 -0.6568E+01E
 Epicentro: GALAN - SANTANDER                                                  3
 ACTION:UPD 14-03-13 09:52 OP:ep   STATUS:               ID:20140107121405 L   I
 OLDACT:REG 14-01-07 15:26 OP:stll STATUS:               ID:20140107120811     3
 2014-01-07-1208-11M.COL___231                                                 6
 STAT SP IPHASW D HRMM SECON CODA AMPLIT PERI AZIMU VELO AIN AR TRES W  DIS CAZ7
 BAR2 SZ EP       1214 23.76                             170    0.3510 21.1 126 
 BAR2 SZ ES       1214 36.88                             170   -0.2210 21.1 126 
 BAR2 SZ I        1214 37.97        29.3 0.24            173           21.1 126 
 RUS  HZ EP       1214 27.97                             142    0.4810 94.1 163 
 RUS  HN ES       1214 44.27                             142   -0.0910 94.1 163 
 RUS  HZ I        1214 46.13         2.6 0.26            144           94.1 163 
 PAM  SZ EP       1214 27.43                             140   -0.4510 99.3  45 
 PAM  SZ I        1214 29.63         3.8 0.14            142           99.3  45 
 PAM  SN ES       1214 45.24                             140    0.1810 99.3  45 
 PTB  HZ EP       1214 28.78                             133   -0.6210  125 262 
 PTB  HE ES       1214 47.83                             133    0.0610  125 262 
 PTB  HZ I        1214 49.87         5.6 0.46            133            125 262 
 ZAR  HZ EP       1214 35.80                             120    0.11 9  189 297 
 ZAR  HN ES       1214 59.20                             120    0.24 9  189 297 
 ZAR  HZ I        1215  3.68         4.6 0.22            121            189 297 
                                                                                
