 2013  5 7 1301 41.3 L   6.757 -73.134151.6  RSN  7 0.3 1.9LRSN                1
 GAP=140        0.72       3.6     4.4  4.9  0.2374E+00  0.1709E+01  0.6113E+00E
 Epicentro: LOS SANTOS - SANTANDER                                             3
 ACTION:UPD 13-06-20 09:48 OP:ep   STATUS:               ID:20130507130141 L   I
 2013-05-07-1300-00M.COL___256                                                 6
 STAT SP IPHASW D HRMM SECON CODA AMPLIT PERI AZIMU VELO AIN AR TRES W  DIS CAZ7
 BAR2 SZ EP     C 13 2  1.52                             172   -0.0810 19.0 196 
 BAR2 SZ ES       13 2 16.99                             172   -0.4010 19.0 196 
 GIR2 SZ ES       13 2 18.18                             166    0.3410 36.2 350 
 BRR  HZ EP       13 2  3.32                             152    0.0010 74.7 301 
 BRR  HN ES       13 2 20.72                             152    0.2610 74.7 301 
 BRR  HZ I        13 2 24.46        14.2 0.40            146           74.7 301 
 PAM  SZ EP       13 2  4.46                             151    0.1010 80.4  37 
 PAM  SZ I        13 2  4.69        10.6 0.22            149           80.4  37 
 PAM  SN ES       13 2 21.90                             151   -0.4110 80.4  37 
 RUS  HZ EP       13 2  5.38                             146    0.0410 95.7 177 
 RUS  HZ I        13 2  6.50         4.9 0.16            148           95.7 177 
 RUS  HN ES   1   13 2 24.63                             146    0.58 7 95.7 177 
 PTB  HZ EP   2   13 2  8.64                             133   -0.18 5  148 261 
 PTB  HE ES   1   13 2 29.76                             133   -0.50 7  148 261 
 PTB  HZ I        13 2 32.99         6.0 0.16            130            148 261 
 SML  HZ EP   2   13 2 18.71                             118   -0.11 4  249 335 
 SML  HN ES   1   13 2 48.35                             118    0.29 6  249 335 
 SML  HZ I        13 2 56.50        20.2 0.10            115            249 335 
                                                                                
