 2016  7 7 1206 59.2 L   6.769 -73.276142.4  RSN  5 0.3 1.6LRSN                1
 GAP=204        0.92       5.2     5.9  7.3  0.4956E+01  0.1186E+02  0.3768E+01E
 Epicentro: ZAPATOCA - SANTANDER                                               3
 ACTION:UPD 17-03-29 16:48 OP:lp   STATUS:               ID:20160707120659 L   I
 OLDACT:REG 16-07-07 22:46 OP:edw  STATUS:               ID:20160707115747     3
 2016-07-07-1157-47M.COL___325                                                 6
 STAT SP IPHASW D HRMM SECON CODA AMPLIT PERI AZIMU VELO AIN AR TRES W  DIS CAZ7
 BAR2 EZ EP       12 7 19.23                             171    0.8010 22.2 152 
 BAR2 EZ ES       12 7 33.14                             171   -0.2610 22.2 152 
 BAR2 EZ I        12 7 33.22         9.6 0.14            166           22.2 152 
 BRR  HZ EP       12 7 19.07                             155   -0.3910 60.9 308 
 BRR  HN ES       12 7 35.33                             155    0.1010 60.9 308 
 RUS  HZ EP   4   12 7  2.87                             143   -19.7 0 99.3 168 
 RUS  HE ES       12 7 40.59                             143   -0.1510 99.3 168 
 PTB  HZ EP       12 7 24.48                             134   -0.1110  133 259 
 PTB  HN ES       12 7 44.46                             134    0.0810  133 259 
 PTB  HZ I        12 7 46.99         3.7 0.18            131            133 259 
 SPBC HZ EP       12 7 26.08                             130   -0.31 9  152 216 
 SPBC HN ES       12 7 47.80                             130    0.23 9  152 216 
 SPBC HZ I        12 7 54.96         5.9 0.10            127            152 216 
 ZAR  HE ES   4   12 7 56.29                             123    1.88 0  192 295 
                                                                                
