 2013  7 7 1825 35.3 L   6.779 -73.202150.4  RSN  6 0.4 1.5LRSN                1
 GAP=171        0.94       6.0     8.2  8.3  0.2302E+02  0.2433E+01 -0.1026E+02E
 Epicentro: ZAPATOCA - SANTANDER                                               3
 ACTION:UPD 13-08-12 10:36 OP:ep   STATUS:               ID:20130707182535 L   I
 OLDACT:REG 13-07-07 14:48 OP:jn   STATUS:               ID:20130707181959     3
 2013-07-07-1819-59M.COL___267                                                 6
 STAT SP IPHASW D HRMM SECON CODA AMPLIT PERI AZIMU VELO AIN AR TRES W  DIS CAZ7
 BAR2 SZ EP   1   1825 55.55                             172    0.14 7 20.7 174 
 BAR2 SZ ES       1826 10.96                             172   -0.1610 20.7 174 
 BAR2 SZ I        1826 11.92         7.3 0.28            163           20.7 174 
 GIR2 SZ EP   1   1825 55.31                             167   -0.23 7 33.2   2 
 BRR  HZ EP       1825 57.37                             154    0.6810 67.0 303 
 BRR  HN ES   1   1826 13.87                             154    0.46 7 67.0 303 
 BRR  HZ I        1826 16.85         8.8 0.36            147           67.0 303 
 RUS  HZ EP       1825 59.62                             145    0.2610 98.9 172 
 RUS  HN ES       1826 17.74                             145   -0.4110 98.9 172 
 RUS  HZ I        1826 19.59         2.5 0.36            143           98.9 172 
 PTB  HZ EP   1   1826  1.67                             134   -0.36 7  141 259 
 PTB  HN ES   1   1826 22.70                             134   -0.21 7  141 259 
 PTB  HZ I        1826 31.51         4.0 0.12            129            141 259 
 SML  HN ES   1   1826 40.01                             118   -0.84 6  243 337 
                                                                                
