 2014  9 7 1918 59.7 L   6.828 -73.117152.5  RSN  4 0.4 1.7LRSN                1
 GAP=221        0.92       7.6     8.0  9.1  0.4645E+01  0.1850E+01 -0.3734E+01E
 Epicentro: LOS SANTOS - SANTANDER                                             3
 ACTION:UPD 14-10-03 23:03 OP:nd   STATUS:               ID:20140907191859 L   I
 OLDACT:DUP 14-09-07 23:56 OP:fm   STATUS:               ID:20140907191820d    3
 2014-09-07-1918-19M.COL___263                                                 6
 STAT SP IPHASW D HRMM SECON CODA AMPLIT PERI AZIMU VELO AIN AR TRES W  DIS CAZ7
 BAR2 SZ EP       1919 20.05                             170   -0.1810 27.0 195 
 BAR2 SZ ES   1   1919 35.82                             170   -0.41 7 27.0 195 
 BAR2 SZ I        1919 39.96         6.2 0.18            171           27.0 195 
 BRR  HZ EP   1   1919 22.08                             153    0.41 7 72.6 295 
 BRR  HN ES       1919 39.33                             153    0.5310 72.6 295 
 PTB  HZ EP       1919 27.83                             133    0.26 9  151 258 
 PTB  HN ES       1919 48.80                             133   -0.50 9  151 258 
 PTB  HZ I        1919 53.38         5.8 0.16            135            151 258 
 SML  HN ES   1   1920  4.91                             119   -0.41 6  242 334 
 SML  HZ I        1920  8.25         4.3 0.22            121            242 334 
                                                                                
