 2014  6 7 1213 40.1 L   6.056 -73.714110.4  RSN 11 0.6 2.0LRSN                1
 GAP=102        1.43       4.0     4.2  8.0 -0.4269E+01  0.1212E+02 -0.3370E+01E
 Epicentro: BOLIVAR - SANTANDER                                                3
 ACTION:UPD 14-07-01 22:51 OP:nd   STATUS:               ID:20140607121340 L   I
 OLDACT:REG 14-06-07 21:13 OP:stll STATUS:               ID:20140607120812     3
 2014-06-07-1208-12M.COL___247                                                 6
 STAT SP IPHASW D HRMM SECON CODA AMPLIT PERI AZIMU VELO AIN AR TRES W  DIS CAZ7
 SPBC HZ EP       1213 57.20                             149    0.3210 59.7 222 
 SPBC HZ I        1213 57.61        59.2 0.12            150           59.7 222 
 SPBC HN ES       1214 10.67                             149    0.6710 59.7 222 
 RUS  HZ EP       1213 58.58                             145    0.3010 72.1 104 
 RUS  HN ES       1214 11.67                             145   -0.8210 72.1 104 
 RUS  HZ I        1214 14.56        15.1 0.24            148           72.1 104 
 BAR2 SZ EP       1213 59.38                             140    0.6110 83.5  45 
 BAR2 SZ ES       1214 13.44                             140    0.0810 83.5  45 
 BAR2 SZ I        1214 14.80        32.0 0.12            142           83.5  45 
 PTB  HZ EP       1213 59.28                             135   -0.3710 98.0 303 
 PTB  HN ES       1214 14.70                             135   -0.2310 98.0 303 
 PTB  HZ I        1214 17.82        21.1 0.28            135           98.0 303 
 NOR  HZ EP       1214  4.07                             124    0.51 9  139 247 
 NOR  HN ES       1214 21.72                             124   -0.18 9  139 247 
 NOR  HZ I        1214 24.70        19.7 0.18            125            139 247 
 HEL  HZ EP       1214 11.53                             114    0.89 9  201 274 
 HEL  HN ES       1214 34.60                             114    0.11 9  201 274 
 HEL  HZ I        1214 41.34         5.6 0.68            114            201 274 
 ZAR  HZ EP       1214  9.96                             113   -0.40 9  203 322 
 ZAR  HE ES       1214 33.75                             113   -0.25 9  203 322 
 ZAR  HZ I        1214 39.26        21.6 0.44            114            203 322 
 GUY2CHZ EP       1214 12.44                             113    1.30 9  205 243 
 GUY2CHE ES       1214 34.89                             113   -0.50 9  205 243 
 GUY2CHZ I        1214 43.24         5.3 0.66                           205 243 
 TOL  SN ES       1214 41.70                             109   -0.73 8  241 228 
 PRA  HZ EP       1214 20.38                             105   -0.02 7  290 207 
 PRA  HN ES       1214 50.64                             105   -1.23 7  290 207 
 PRA  HZ I        1214 58.25         4.4 0.26            106            290 207 
 SML  HZ EP       1214 21.66                             104   -0.62 7  306 353 
 SML  HE ES       1214 54.72                             104   -0.49 7  306 353 
 SML  HZ I        1214 58.40         9.8 0.30            105            306 353 
                                                                                
