 2015  5 7 1505 19.0 L   6.822 -73.140140.3  RSN 11 0.6 2.0LRSN                1
 GAP= 71        1.49       4.3     5.6  7.8  0.3847E+00  0.8674E+01  0.2587E+01E
 Epicentro: LOS SANTOS - SANTANDER                                             3
 ACTION:UPD 15-09-10 22:02 OP:cam  STATUS:               ID:20150507150519 L   I
 OLDACT:REG 15-05-07 22:45 OP:stll STATUS:               ID:20150507145748     3
 2015-05-07-1457-48M.COL___276                                                 6
 STAT SP IPHASW D HRMM SECON CODA AMPLIT PERI AZIMU VELO AIN AR TRES W  DIS CAZ7
 BAR2 EZ EP       15 5 38.11                             169    0.1010 25.9 190 
 BAR2 EZ ES       15 5 52.57                             169   -0.2910 25.9 190 
 BAR2 EZ I        15 5 54.14        20.5 0.22            169           25.9 190 
 BRR  HZ EP       15 5 39.94                             152    0.4310 70.6 297 
 BRR  HN ES       15 5 56.76                             152    1.2410 70.6 297 
 BRR  HZ I        15 6  0.46        22.3 0.30            153           70.6 297 
 PAM  SZ EP       15 5 41.14                             150    0.6610 75.1  40 
 PAM  SN ES       15 5 57.20                             150   -0.0510 75.1  40 
 PAM  SZ I        15 5 59.74        26.3 0.50            154           75.1  40 
 RUS  HZ EP       15 5 42.32                             142   -0.0610  103 177 
 RUS  HE ES       15 6  0.15                             142   -0.4810  103 177 
 RUS  HZ I        15 6  2.28        15.4 0.26            144            103 177 
 TAM  HZ EP       15 5 46.52                             129    0.28 9  155 106 
 SPBC HZ EP       15 5 46.97                             127   -0.33 9  166 219 
 SPBC HN ES       15 6  8.89                             127   -0.49 9  166 219 
 SPBC HZ I        15 6 12.65        18.6 0.32            129            166 219 
 ZAR  HZ EP       15 5 51.29                             121    0.24 9  204 291 
 ZAR  HN ES       15 6 15.85                             121   -0.21 9  204 291 
 ZAR  HZ I        15 6 18.65        13.0 0.22            123            204 291 
 SML  HZ EP       15 5 54.43                             117   -0.67 8  242 335 
 SML  HE ES       15 6 21.73                             117   -1.53 8  242 335 
 CHI  HZ EP       15 5 56.57                             116   -0.10 8  251 195 
 CHI  HN ES       15 6 25.33                             116   -0.73 8  251 195 
 CHI  HZ I        15 6 28.10         4.2 0.36            118            251 195 
 GUY2CHZ EP       15 6  3.50                             111    0.93 7  303 234 
 GUY2CHN ES       15 6 37.16                             111    0.59 7  303 234 
 GUY2CHZ I        15 6 46.37         5.0 0.28                           303 234 
 MON  HZ EP   9   15 6  5.76                             108   -1.90 0  353 308 
 MON  HN ES       15 6 42.77                                   -0.96 6  353 308 
 MON  HZ I        15 6 44.87         2.5 0.18            110            353 308 
                                                                                
