 2012  1 7 1105  7.1 L   6.772 -73.081148.6  RSN  4 0.1 1.3LRSN                1
 GAP=200        0.31       6.3    11.0  3.9  0.5974E+02 -0.1254E+02 -0.6812E+01E
 Epicentro: LOS SANTOS - SANTANDER                                             3
 ACTION:UP  12-02-03 08:15 OP:REBC STATUS:               ID:20120107110507 L   I
 2012-01-07-1100-00M.COL___186                                                 6
 STAT SP IPHASW D HRMM SECON CODA AMPLIT PERI AZIMU VELO SNR AR TRES W  DIS CAZ7
 BAR2 SZ EP       11 5 27.12                             171     0.110   23 209 
 BAR2 SZ ES   1   11 5 42.59                             171     0.0 7   23 209 
 BAR2 SZ I        11 5 44.80         5.2 0.40                            23 209 
 GIR2 SZ EP   3   11 5 27.11                             166    -0.1 2   36 340 
 BRR  HZ EP       11 5 29.02                             151     0.010   79 298 
 BRR  HZ I        11 5 30.56         6.9 0.76                            79 298 
 BRR  HN ES   2   11 5 46.00                             151    -0.1 5   79 298 
 RUS  HZ EP       11 5 30.81                             145    -0.110   97 180 
 RUS  HN ES   2   11 5 49.52                             145     0.1 5   97 180 
 RUS  HZ I        11 5 50.55         1.7 0.28                            97 180 
                                                                                
