 2013  4 7 1503 51.4 L   6.819 -73.172148.0  RSN 11 0.4 2.1LRSN                1
 GAP=179        0.94       4.3     5.5  6.1  0.1452E+01  0.5253E+01  0.1218E+02E
 Epicentro: LOS SANTOS - SANTANDER                                             3
 ACTION:UPD 13-05-22 14:36 OP:EP   STATUS:               ID:20130407150351 L   I
 2013-04-07-1500-00M.COL___245                                                 6
 STAT SP IPHASW D HRMM SECON CODA AMPLIT PERI AZIMU VELO AIN AR TRES W  DIS CAZ7
 BAR2 SZ EP       15 4 11.24                             170   -0.1410 25.1 183 
 BAR2 SZ ES       15 4 26.84                             170   -0.0910 25.1 183 
 BAR2 SZ I        15 4 27.44        40.9 0.38            161           25.1 183 
 GIR2 SZ EP       15 4 10.92                             169   -0.4010 28.8 355 
 GIR2 SZ ES       15 4 26.86                             169    0.0410 28.8 355 
 GIR2 SZ I        15 4 27.96        18.8 0.36            170           28.8 355 
 BRR  HZ EP       15 4 13.10                             154    0.4610 67.6 298 
 BRR  HN ES       15 4 29.78                             154    0.6010 67.6 298 
 BRR  HZ I        15 4 33.14        22.4 0.44            150           67.6 298 
 RUS  HZ EP       15 4 15.30                             144   -0.2910  103 175 
 RUS  HZ I        15 4 36.12         6.8 0.30            131            103 175 
 PTB  HZ EP       15 4 18.07                             133   -0.31 9  145 258 
 PTB  HN ES   1   15 4 38.63                             133   -0.76 7  145 258 
 PTB  HZ I        15 4 43.93        18.5 0.10            124            145 258 
 OCA  HN ES   1   15 4 41.69                             131   -0.06 7  158 354 
 ZAR  HE ES   1   15 4 49.14                             124    0.31 6  201 292 
 ZAR  HZ I        15 4 54.92        16.1 0.62            115            201 292 
 NOR  HZ EP   1   15 4 26.67                             119   -0.52 6  234 234 
 NOR  HN ES   1   15 4 54.65                             119   -0.42 6  234 234 
 CHI  HZ EP       15 4 29.52                             118    0.11 8  250 194 
 CHI  HN ES       15 4 59.65                             118    0.63 8  250 194 
 CHI  HZ I        15 5  7.02         4.3 0.38            108            250 194 
 PRA  HZ EP   1   15 4 45.14                             107    0.05 4  392 209 
 PRA  HZ I        15 5 32.47         5.4 0.24            100            392 209 
 SJA  SZ EP   1   15 4 47.57                             107    1.33 4  402 192 
 SJC  HZ EP   4   15 4 45.31                             106   -1.38 0  406 327 
 SJC  HN ES   4   15 5 25.92                             106   -3.86 0  406 327 
                                                                                
