 2012 10 7 1539 15.1 L   6.791 -73.073142.5  RSN  5 0.1 2.0LRSN                1
 GAP=146        0.33       5.2     6.2  4.9  0.1847E+02 -0.8477E+01 -0.1511E+01E
 Epicentro: LOS SANTOS - SANTANDER                                             3
 ACTION:UPD 12-11-22 17:02 OP:ep   STATUS:               ID:20121007153915 L   I
 2012-10-07-1538-15M.COL___205                                                 6
 STAT SP IPHASW D HRMM SECON CODA AMPLIT PERI AZIMU VELO AIN AR TRES W  DIS CAZ7
 BAR2 SZ EP       1539 34.29                             170   -0.0410 25.1 209 
 BAR2 SZ ES   2   1539 49.22                             170   -0.14 5 25.1 209 
 BAR2 SZ I        1539 50.76        12.5 0.10                          25.1 209 
 GIR2 SZ EP   1   1539 34.63                             166    0.20 7 34.5 337 
 PAM  SN ES   3   1539 53.50                             151   -0.06 2 73.4  34 
 BRR  HZ EP       1539 36.19                             150   -0.1210 78.8 296 
 BRR  HE ES   1   1539 52.96                             150    0.08 7 78.8 296 
 BRR  HN I        1539 53.89        36.4 0.16                          78.8 296 
 RUS  HZ EP   2   1539 38.54                             144    0.15 5 99.3 181 
 RUS  HN ES   3   1539 56.68                             144    0.08 2 99.3 181 
                                                                                
