 2013 10 7 1206  2.1 L   6.822 -73.145124.1  RSN  6 0.6 2.0LRSN                1
 GAP=297        1.06     111.0   305.9389.9  0.3370E+05 -0.1191E+06 -0.4287E+05E
 Epicentro: LOS SANTOS - SANTANDER                                             3
 ACTION:UPD 13-11-25 09:19 OP:ep   STATUS:               ID:20131007120602 L   I
 OLDACT:UP  13-10-07 16:02 OP:nd   STATUS:               ID:20131007115959     3
 OLDACT:REG 13-10-07 14:57 OP:nd   STATUS:               ID:20131007115959     3
 2013-10-07-1159-59M.COL___273                                                 6
 STAT SP IPHASW D HRMM SECON CODA AMPLIT PERI AZIMU VELO AIN AR TRES W  DIS CAZ7
 BAR2 SZ EP   4   12 6 27.14                             169    7.95 0 25.8 189 
 BAR2 SZ ES   4   12 6 40.37                             169    7.85 0 25.8 189 
 BAR2 SZ I        12 6 41.61        75.2 0.24            169           25.8 189 
 BRR  HZ EP   4   12 6 27.97                             151    7.09 0 70.1 297 
 BRR  HN ES   4   12 6 39.32                             151    3.79 0 70.1 297 
 BRR  HZ I        12 6 42.90        18.6 0.12            158           70.1 297 
 RUS  HZ EP   4   12 6 31.59                             141    7.60 0  103 176 
 RUS  HN ES   4   12 6 42.48                             141    1.42 0  103 176 
 RUS  HZ I        12 6 43.52         8.8 0.28            147            103 176 
 PTB  HZ EP       12 6 26.77                             129   -0.6810  148 258 
 PTB  HN ES       12 6 47.82                             129    0.6010  148 258 
 PTB  HZ I        12 6 53.33        14.6 0.18            138            148 258 
 SPBC HZ EP   2   12 6 30.10                             126    0.87 5  165 218 
 SPBC HN ES   2   12 6 50.00                             126   -0.39 5  165 218 
 SPBC HZ I        12 6 55.93        15.2 0.20            134            165 218 
 CHI  HZ EP   2   12 6 39.43                             114    0.47 4  251 195 
 CHI  HN ES   2   12 7  7.05                             114   -0.67 4  251 195 
 CHI  HZ I        12 7 15.82         3.2 0.52            122            251 195 
                                                                                
