 2010 12 7 1926 25.8 L   6.755 -73.105135.3  RSN  8 0.4 2.1LRSN                1
 GAP=182        1.08       6.6    11.5  9.4 -0.5170E+02  0.3420E+02 -0.1174E+01E
 Epicentro: LOS SANTOS - SANTANDER                                             3
 ACTION:UP  11-01-14 15:23 OP:pat  STATUS:               ID:20101207192625 L   I
 2010-12-07-1923-15S.COL___135                                                 6
 STAT SP IPHASW D HRMM SECON CODA AMPLIT PERI AZIMU VELO SNR AR TRES W  DIS CAZ7
 BAR2 SZ EP       1926 44.29                             171     0.210   20 206 
 BAR2 SZ ES   1   1926 58.78                             171     0.4 7   20 206 
 BAR2 SZ I        1927  0.83        25.9 0.48                            20 206 
 BTL  SZ EP       1926 44.74                             169     0.510   25 315 
 GUE  SZ EP       1926 49.81                             136    -0.110  121  10 
 GRA  SZ EP       1926 50.12                             134    -0.310  129  15 
 GRA  SZ ES   1   1927  9.17                             134    -0.5 7  129  15 
 GRA  SZ I        1927 10.91        13.3 0.36                           129  15 
 NOR  SZ EP       1927  0.94                             116    -0.1 8  236 236 
 NOR  SN ES   1   1927 27.63                             116    -0.9 6  236 236 
 CHI  HZ EP       1927  2.36                             115    -0.2 8  245 196 
 CHI  HN ES   1   1927 30.67                             115    -0.5 6  245 196 
 CHI  HZ I        1927 35.47         5.2 0.36                           245 196 
 HEL  HZ EP       1927  6.49                             112     0.6 8  275 257 
 HEL  HZ I        1927 46.12         6.1 0.55                           275 257 
 PRA  HZ EP       1927 19.20                             105     0.5 6  390 211 
 PRA  HZ I        1928  4.43        10.0 0.26                           390 211 
                                                                                
