 2016  2 7 1826 28.3 L   6.746 -73.153138.6  RSN  4 0.1 1.4LRSN                1
 GAP=153        0.38       3.8     2.2  3.5 -0.3992E+01  0.4100E+01 -0.4661E+01E
 Epicentro: LOS SANTOS - SANTANDER                                             3
 ACTION:UPD 16-03-04 21:24 OP:rebc STATUS:               ID:20160207182628 L   I
 OLDACT:DUP 16-02-08 01:12 OP:cara STATUS:               ID:20160207181752d    3
 2016-02-07-1817-50M.COL___331                                                 6
 STAT SP IPHASW D HRMM SECON CODA AMPLIT PERI AZIMU VELO AIN AR TRES W  DIS CAZ7
 BAR2 EZ ES       1827  1.59                             173    0.1110 17.3 191 
 BAR2 EZ I        1827  3.37         4.8 0.28            176           17.3 191 
 PAM  EZ IP     C 1826 49.98                             148   -0.0810 82.6  37 
 PAM  EN ES       1827  7.01                             148   -0.0410 82.6  37 
 PAM  EZ I        1827  9.37         4.4 0.64            148           82.6  37 
 PTB  HZ EP       1826 54.41                             131   -0.08 9  146 261 
 PTB  HN ES       1827 14.83                             131   -0.11 9  146 261 
 PTB  HZ I        1827 16.01         2.7 0.22            132            146 261 
 ZAR  HZ EP       1827  0.67                             120    0.25 8  206 294 
 ZAR  HE ES       1827 25.49                             120   -0.01 8  206 294 
 ZAR  HZ I        1827 29.75         2.4 0.18            122            206 294 
                                                                                
