 2016 12 7 1132  0.2 L   6.079 -73.253164.0  RSN  4 0.3 1.4LRSN                1
 GAP=153        0.91       8.5     7.4  8.0  0.1792E+02  0.1902E+02 -0.2916E+01E
 Epicentro: GAMBITA - SANTANDER                                                3
 ACTION:UPD 17-01-11 20:13 OP:rebc STATUS:               ID:20161207113159 L   I
 OLDACT:UP  16-12-09 15:01 OP:nlst STATUS:               ID:20161207113159 L   3
 OLDACT:REG 16-12-07 21:01 OP:dnl  STATUS:               ID:20161207112743     3
 2016-12-07-1128-00M.COL___358                                                 6
 STAT SP IPHASW D HRMM SECON CODA AMPLIT PERI AZIMU VELO AIN AR TRES W  DIS CAZ7
 RUS  HZ EP   4   1132 23.77                             170    1.32 0 27.9 138 
 RUS  HN ES       1132 40.14                             170    0.3010 27.9 138 
 RUS  HZ I        1132 42.63         2.6 0.28            170           27.9 138 
 BAR2 EZ EP       1132 23.04                             160    0.0410 57.2   8 
 BAR2 EZ ES       1132 40.23                             160   -0.5910 57.2   8 
 BAR2 EZ I        1132 42.12         5.1 0.36            161           57.2   8 
 BRR  HZ EP       1132 26.63                             141   -0.1210  124 336 
 BRR  HE ES       1132 48.08                             141    0.5810  124 336 
 BRR  HZ I        1132 49.67         5.8 0.58            143            124 336 
 PTB  HZ EP       1132 28.25                             137    0.02 9  143 291 
 PTB  HN ES       1132 49.91                             137   -0.22 9  143 291 
 PTB  HZ I        1132 50.87         2.3 0.14            139            143 291 
                                                                                
