 2014  9 7 1658  6.2 L   6.852 -73.216143.1  RSN  9 0.4 1.8LRSN                1
 GAP=176        0.84       2.7     4.6  7.6 -0.1160E+01  0.1368E+02 -0.3165E+01E
 Epicentro: ZAPATOCA - SANTANDER                                               3
 ACTION:UPD 14-10-03 23:03 OP:nd   STATUS:               ID:20140907165806 L   I
 OLDACT:REG 14-09-07 20:45 OP:fm   STATUS:               ID:20140907164819     3
 2014-09-07-1648-19M.COL___263                                                 6
 STAT SP IPHASW D HRMM SECON CODA AMPLIT PERI AZIMU VELO AIN AR TRES W  DIS CAZ7
 BAR2 SZ EP       1658 26.03                             168    0.3510 29.0 173 
 BAR2 SZ ES   1   1658 41.30                             168    0.46 7 29.0 173 
 BAR2 SZ I        1658 42.44        15.2 0.14            171           29.0 173 
 RUS  HN ES       1658 48.53                             141   -0.3910  107 172 
 RUS  HZ I        1658 49.75         8.6 0.24            145            107 172 
 PTB  HN ES       1658 52.65                             133   -0.18 9  141 256 
 PTB  HZ I        1658 56.57         6.9 0.12            134            141 256 
 OCA  HN ES       1658 55.10                             130   -0.08 9  154 356 
 OCA  HZ I        1659  0.46         6.3 0.44            131            154 356 
 SPBC HZ EP   1   1658 34.27                             128   -0.25 7  163 216 
 SPBC HN ES   1   1658 56.40                             128   -0.18 7  163 216 
 SPBC HZ I        1658 59.45        11.3 0.28            131            163 216 
 ZAR  HN ES       1659  1.71                             123   -0.26 9  195 291 
 ZAR  HZ I        1659  6.05         4.4 0.48            124            195 291 
 NOR  HZ EP   4   1658 49.00                             118    7.49 0  232 232 
 NOR  HE ES   1   1659  8.95                             118   -0.08 6  232 232 
 NOR  HZ I        1659 12.44         5.4 0.16            120            232 232 
 SML  HZ EP   1   1658 40.83                             118   -0.97 6  235 336 
 SML  HN ES       1659  9.94                             118    0.40 8  235 336 
 SML  HZ I        1659 14.25        10.1 0.24            119            235 336 
 GUY2CHZ EP       1658 49.91                             112    0.51 7  298 233 
 GUY2CHE ES       1659 23.54                             112    0.48 7  298 233 
 GUY2CHZ I        1659 32.05         3.8 0.30                           298 233 
                                                                                
