 2016  2 7 1154 42.7 L   6.802 -73.181139.8  RSN  5 0.2 1.5LRSN                1
 GAP=204        0.61       2.7     4.0  5.4  0.1808E+01  0.4144E+01 -0.3453E+01E
 Epicentro: ZAPATOCA - SANTANDER                                               3
 ACTION:UPD 16-03-04 21:24 OP:rebc STATUS:               ID:20160207115442 L   I
 OLDACT:REG 16-02-07 20:22 OP:cara STATUS:               ID:20160207114749     3
 2016-02-07-1147-49M.COL___328                                                 6
 STAT SP IPHASW D HRMM SECON CODA AMPLIT PERI AZIMU VELO AIN AR TRES W  DIS CAZ7
 BAR2 EZ EP       1155  1.89                             170    0.2810 23.2 180 
 BAR2 EZ ES       1155 16.29                             170   -0.0810 23.2 180 
 BAR2 EZ I        1155 18.13         5.0 0.42            173           23.2 180 
 PTB  HZ EP       1155  8.51                             131   -0.33 9  144 258 
 PTB  HN ES       1155 29.19                             131   -0.04 9  144 258 
 PTB  HZ I        1155 31.53         2.8 0.12            132            144 258 
 ZAR  HN ES       1155 39.44                             122    0.35 9  200 293 
 ZAR  HZ I        1155 44.68         3.3 0.26            122            200 293 
 SML  HZ EP       1155 18.99                             116    0.19 8  242 336 
 SML  HN ES       1155 46.63                             116   -0.33 8  242 336 
 SML  HZ I        1155 52.18         3.9 0.22            117            242 336 
 CHI  HN ES       1155 49.03                             116   -0.04 8  248 194 
                                                                                
