 2015 11 7 1935 26.8 L   6.822 -73.146144.1  RSN 17 0.4 2.7LRSN                1
 GAP= 70        0.96       2.4     2.9  4.7 -0.2142E+00  0.4220E+01  0.1030E+01E
 Epicentro: LOS SANTOS - SANTANDER                                             3
 ACTION:UPD 15-12-28 16:09 OP:cam  STATUS:               ID:20151107193526 L   I
 OLDACT:UP  15-11-19 06:50 OP:CARA STATUS:               ID:20151107193526 L   3
 OLDACT:UP  15-11-08 10:30 OP:mh   STATUS:               ID:20151107192750d    3
 OLDACT:UP  15-11-08 10:29 OP:mh   STATUS:               ID:20151107192750d    3
 OLDACT:UP  15-11-08 10:23 OP:mh   STATUS:               ID:20151107192750d    3
 OLDACT:DUP 15-11-08 10:18 OP:mh   STATUS:               ID:20151107192750d    3
 2015-11-07-1927-49M.COL___307                                                 6
 STAT SP IPHASW D HRMM SECON CODA AMPLIT PERI AZIMU VELO AIN AR TRES W  DIS CAZ7
 BAR2 EZ EP       1935 46.21                             169   -0.0210 25.8 189 
 BAR2 EZ ES       1936  1.04                             169   -0.3810 25.8 189 
 BAR2 EZ I        1936  2.43        89.6 0.18            167           25.8 189 
 BRR  HZ EP   1   1935 47.96                             153    0.31 7 70.0 297 
 BRR  HN ES       1936  4.84                             153    0.8910 70.0 297 
 BRR  HZ I        1936  8.40       104.9 0.38            147           70.0 297 
 PAM  EZ EP   1   1935 49.04                             151    0.37 7 75.5  41 
 PAM  EN ES       1936  5.94                             151    0.1710 75.5  41 
 PAM  EZ I        1936  6.67        41.9 0.18            152           75.5  41 
 RUS  HZ EP       1935 50.36                             143   -0.1610  103 176 
 RUS  HN ES       1936  8.25                             143   -0.8010  103 176 
 RUS  HZ I        1936  9.82        33.0 0.76            141            103 176 
 TAM  HZ EP       1935 54.60                             130    0.24 9  156 106 
 TAM  HN ES       1936 15.94                             130    0.05 9  156 106 
 TAM  HZ I        1936 17.63        23.0 0.18            130            156 106 
 OCA  HZ EP       1935 54.40                             130   -0.30 9  158 353 
 OCA  HN ES       1936 16.48                             130   -0.01 9  158 353 
 OCA  HZ I        1936 19.57        94.8 0.16            127            158 353 
 SPBC HZ EP       1935 55.32                             128    0.02 9  165 218 
 SPBC HN ES       1936 17.45                             128   -0.12 9  165 218 
 SPBC HZ I        1936 22.98        65.6 0.20            125            165 218 
 ZAR  HZ EP       1935 59.05                             122    0.06 9  203 291 
 ZAR  HN ES       1936 24.04                             122   -0.09 9  203 291 
 ZAR  HZ I        1936 29.91        64.1 0.50            119            203 291 
 NOR  HZ EP       1936  2.63                             118    0.09 8  236 234 
 NOR  HN ES       1936 30.57                             118    0.12 8  236 234 
 NOR  HZ I        1936 36.27        35.0 0.18            115            236 234 
 SML  HZ EP       1936  2.71                             117   -0.33 8  241 335 
 SML  HN ES       1936 30.92                             117   -0.42 8  241 335 
 SML  HZ I        1936 35.25        70.7 0.10            115            241 335 
 ROSC BZ EP       1936  6.11                             116    1.10 8  255 211 
 ROSC BN ES   4   1936 36.88                             116    2.03 0  255 211 
 ROSC BZ I        1936 40.47        29.5 0.40            114            255 211 
 HEL  HZ EP       1936  6.98                             114    0.04 8  273 255 
 HEL  HN ES       1936 38.29                             114   -0.00 8  273 255 
 HEL  HZ I        1936 45.00        20.7 0.40            111            273 255 
 URE  HZ EP   4   1936  8.84                             113    1.21 0  283 291 
 URE  HN ES   4   1936 37.04                             113   -2.48 0  283 291 
 URE  HZ I        1936 41.57        30.7 0.14            111            283 291 
 VIL  SZ EP   4   1936  8.90                             111   -1.47 0  306 191 
 VIL  SN ES       1936 44.71                             111    0.32 7  306 191 
 DBB  SZ EP       1936 13.27                             109   -0.86 7  339 274 
 DBB  SZ I        1936 54.86        47.3 0.63            107            339 274 
 MON  HZ EP   4   1936 12.56                             108   -2.95 0  352 308 
 MON  HN ES   4   1936 51.68                             108   -1.85 0  352 308 
 MON  HZ I        1936 54.19        10.4 0.46            106            352 308 
 ORTC HZ EP       1936 20.39                             106   -0.46 6  397 216 
 ORTC HN ES       1937  3.17                             106    0.13 6  397 216 
 ORTC HZ I        1937 10.13        13.7 0.28            104            397 216 
                                                                                
