 2014  1 7 1115 14.1 L   6.860 -73.237126.7  RSN  4 0.5 1.2LRSN                1
 GAP=192        1.27       6.8     8.8 12.7  0.2153E+02 -0.2139E+01 -0.4430E+02E
 Epicentro: ZAPATOCA - SANTANDER                                               3
 ACTION:UPD 14-03-13 09:52 OP:ep   STATUS:               ID:20140107111514 L   I
 OLDACT:REG 14-01-07 15:14 OP:stll STATUS:               ID:20140107110811     3
 2014-01-07-1108-11M.COL___231                                                 6
 STAT SP IPHASW D HRMM SECON CODA AMPLIT PERI AZIMU VELO AIN AR TRES W  DIS CAZ7
 BAR2 SZ EP       1115 31.93                             166    0.3610 30.3 168 
 BAR2 SZ ES       1115 44.87                             166   -0.3710 30.3 168 
 BAR2 SZ I        1115 46.80        17.1 0.28            151           30.3 168 
 RUS  HZ EP       1115 37.00                             137    0.3910  108 171 
 RUS  HZ I        1115 37.23         0.9 0.42            132            108 171 
 RUS  HE ES       1115 54.14                             137   -0.0610  108 171 
 PTB  HN ES       1115 57.96                             129   -0.02 9  139 255 
 PTB  HZ I        1116 16.27         1.6 0.22            117            139 255 
 SML  HZ EP       1115 47.37                             114   -1.17 8  233 337 
 SML  HN ES       1116 16.17                             114    0.73 8  233 337 
 SML  HZ I        1116 23.74         1.8 0.26            110            233 337 
                                                                                
