 2013  5 7 1349 28.1 L   6.951 -73.592  0.0  RSN  4 0.2 1.2LRSN                1
 GAP=169        0.60       1.9     1.9  4.6  0.2074E+01  0.8155E+00  0.1701E+01E
 Epicentro: SAN VICENTE DE CHUCURI - SANTANDER                                 3
 ACTION:UPD 13-06-20 09:48 OP:ep   STATUS:               ID:20130507134928 L   I
 2013-05-07-1348-38M.COL___225                                                 6
 STAT SP IPHASW D HRMM SECON CODA AMPLIT PERI AZIMU VELO AIN AR TRES W  DIS CAZ7
 BRR  HZ EP       1349 32.07                              47   -0.4510 21.7 323 
 BRR  HN ES       1349 36.34                              47    0.3410 21.7 323 
 BRR  HZ I        1349 36.67        52.0 0.10             47           21.7 323 
 BAR2 SZ EP   2   1349 38.60                              47   -0.00 5 60.2 131 
 BAR2 SZ ES       1349 46.82                              47   -0.0010 60.2 131 
 BAR2 SZ I        1349 47.55        11.1 0.24             47           60.2 131 
 PTB  HZ EP   1   1349 45.28                              47    0.00 7  106 245 
 PTB  HN ES       1349 58.68                              47   -0.0210  106 245 
 PTB  HZ I        1349 59.48         9.0 0.24             47            106 245 
 RUS  HZ EP   1   1349 49.66                              47    0.24 7  130 154 
 RUS  HN ES   1   1350  6.11                              47    0.03 7  130 154 
 RUS  HZ I        1350  7.10         3.3 0.18             47            130 154 
                                                                                
