 2015  6 7 1139 13.1 L   6.735 -73.115142.9  RSN  7 0.2 1.8LRSN                1
 GAP=143        0.65       2.4     3.3  4.7 -0.3011E+00  0.3789E+01 -0.1175E+01E
 Epicentro: JORDAN - SANTANDER                                                 3
 ACTION:UPD 15-09-10 22:10 OP:cam  STATUS:               ID:20150607113913 L   I
 OLDACT:REG 15-06-07 20:51 OP:ar   STATUS:               ID:20150607113749     3
 2015-06-07-1137-49M.COL___306                                                 6
 STAT SP IPHASW D HRMM SECON CODA AMPLIT PERI AZIMU VELO AIN AR TRES W  DIS CAZ7
 BAR2 EZ EP       1139 32.41                             173    0.0910 17.5 205 
 BAR2 EZ ES       1139 47.12                             173   -0.1610 17.5 205 
 BAR2 EZ I        1139 48.38        13.4 0.30            171           17.5 205 
 BRR  HZ EP       1139 34.33                             150   -0.0410 77.7 302 
 BRR  HN ES       1139 51.39                             150    0.4710 77.7 302 
 BRR  HZ I        1139 52.29        10.8 0.20            149           77.7 302 
 PAM  SZ EP       1139 35.36                             149    0.0810 81.1  34 
 PAM  SN ES       1139 52.29                             149   -0.2610 81.1  34 
 PAM  SZ I        1139 54.36        11.6 0.60            151           81.1  34 
 RUS  HZ EP       1139 36.00                             145   -0.0910 93.2 178 
 RUS  HN ES       1139 54.25                             145    0.2610 93.2 178 
 RUS  HZ I        1139 55.70         4.3 0.24            147           93.2 178 
 SPBC HN ES       1140  2.58                             129   -0.34 9  160 222 
 SPBC HZ I        1140  5.64         5.7 2.32            129            160 222 
 OCA  HN ES       1140  4.35                             128   -0.08 9  168 352 
 OCA  HZ I        1140  5.85        12.6 0.22            128            168 352 
 ZAR  HZ EP       1139 46.33                             121    0.31 8  210 294 
 ZAR  HN ES       1140 11.34                             121   -0.32 8  210 294 
 ZAR  HZ I        1140 17.16         8.0 0.42            121            210 294 
                                                                                
