 2010  9 7 1536 59.0 L   6.691 -73.149155.7  RSN  7 0.5 1.8LRSN                1
 GAP=159        1.00       7.9    17.3 11.8 -0.4129E+01 -0.5852E+02 -0.1700E+02E
 Epicentro: VILLANUEVA - SANTANDER                                             3
 ACTION:UP  11-02-18 11:00 OP:tino STATUS:               ID:20100907153659 L   I
 2010-09-07-1532-06S.COL___120                                                 6
 STAT SP IPHASW D HRMM SECON CODA AMPLIT PERI AZIMU VELO SNR AR TRES W  DIS CAZ7
 BAR2 SZ EP   1   1537 19.75                             176     0.1 7   12 199 
 BAR2 SZ ES   2   1537 35.75                             176     0.0 5   12 199 
 BAR2 SZ I        1537 36.62        11.5 0.40                            12 199 
 BTL  SZ EP       1537 19.93                             169     0.010   28 333 
 BTL  SZ ES   2   1537 35.98                             169    -0.3 5   28 333 
 GIR2 SZ EP   1   1537 19.05                             164    -1.2 7   43 354 
 BRR  HZ EP   1   1537 22.00                             152     0.4 7   77 307 
 BRR  HE ES   2   1537 39.20                             152     0.0 5   77 307 
 BRR  HZ I        1537 41.81        12.5 0.50                            77 307 
 RUS  HZ EP   1   1537 22.74                             149    -0.2 7   89 175 
 RUS  HE ES   2   1537 42.31                             149     0.7 5   89 175 
 RUS  HZ I        1537 43.76         7.6 0.28                            89 175 
 GUE  SZ EP   1   1537 26.17                             138     0.6 7  128  11 
 GRA  SZ EP   1   1537 26.24                             136     0.1 7  137  16 
 GRA  SZ ES   2   1537 47.35                             136     0.1 5  137  16 
 GRA  SZ I        1537 47.74         6.9 0.35                           137  16 
                                                                                
