 2014  7 7 1047 53.2 L   6.831 -73.132146.0  RSN  8 0.5 2.0LRSN                1
 GAP=202        1.02       4.0     5.6  7.3  0.2140E+01  0.1212E+02 -0.8515E+01E
 Epicentro: LOS SANTOS - SANTANDER                                             3
 ACTION:UPD 15-03-16 20:42 OP:nd   STATUS:               ID:20140707104753 L   I
 OLDACT:UP  14-07-07 20:38 OP:cam  STATUS:               ID:20140707104000     3
 OLDACT:REG 14-07-07 20:04 OP:cam  STATUS:               ID:20140707104000     3
 2014-07-07-1040-00M.COL___279                                                 6
 STAT SP IPHASW D HRMM SECON CODA AMPLIT PERI AZIMU VELO AIN AR TRES W  DIS CAZ7
 BAR2 SZ EP     C 1048 12.94                             169   -0.0510 27.0 192 
 BAR2 SZ ES       1048 28.90                             169    0.5210 27.0 192 
 BAR2 SZ I        1048 29.62        13.0 0.26            167           27.0 192 
 RUS  HZ EP   1   1048 16.92                             143   -0.35 7  104 177 
 RUS  HE ES       1048 35.94                             143   -0.0610  104 177 
 RUS  HZ I        1048 38.45         5.4 0.34            146            104 177 
 PTB  HZ EP       1048 19.67                             132   -0.76 9  150 258 
 PTB  HN ES       1048 41.31                             132   -0.32 9  150 258 
 PTB  HZ I        1048 46.91        13.9 0.40            131            150 258 
 SPBC HZ EP       1048 21.77                             129   -0.34 9  167 219 
 SPBC HE ES       1048 44.61                             129   -0.01 9  167 219 
 SPBC HZ I        1048 50.98        17.3 0.24            129            167 219 
 ZAR  HZ EP       1048 25.56                             123   -0.16 9  204 291 
 ZAR  HE ES       1048 51.19                             123    0.15 9  204 291 
 ZAR  HZ I        1048 57.46        12.2 0.34            123            204 291 
 SML  HZ EP       1048 29.91                             118    0.30 8  241 335 
 SML  HN ES       1048 57.84                             118   -0.14 8  241 335 
 SML  HZ I        1049  2.65        12.8 0.10            120            241 335 
 HEL  HZ EP   1   1048 35.18                             115    1.45 6  274 255 
 HEL  HN ES   4   1049  6.73                             115    1.43 0  274 255 
 HEL  HZ I        1049 11.42         5.1 0.52            116            274 255 
 GUY2CHZ EP   1   1048 38.12                             112    0.89 5  304 234 
 GUY2CHN ES       1049 11.94                             112    0.40 7  304 234 
 GUY2CHZ I        1049 19.80         7.0 0.78                           304 234 
 PRA  HZ EP   4   1048 47.54                             106    0.32 0  396 210 
                                                                                
