 2014  6 7 1617 44.8 L   6.819 -73.143143.8  RSN 14 0.5 2.5LRSN                1
 GAP=201        1.15       3.4     4.9  5.7 -0.1250E+00  0.7759E+01  0.2027E+01E
 Epicentro: LOS SANTOS - SANTANDER                                             3
 ACTION:UPD 14-07-01 22:51 OP:nd   STATUS:               ID:20140607161744 L   I
 OLDACT:REG 14-06-07 21:20 OP:stll STATUS:               ID:20140607160818     3
 2014-06-07-1608-18M.COL___259                                                 6
 STAT SP IPHASW D HRMM SECON CODA AMPLIT PERI AZIMU VELO AIN AR TRES W  DIS CAZ7
 BAR2 SZ IP     D 1618  4.46                             170    0.1910 25.4 190 
 BAR2 SZ ES       1618 19.62                             170    0.1810 25.4 190 
 BAR2 SZ I        1618 20.85        68.1 0.20            166           25.4 190 
 BRR  HZ IP     C 1618  6.38                             152    0.6510 70.4 297 
 BRR  HN ES       1618 22.84                             152    0.8110 70.4 297 
 BRR  HZ I        1618 24.58        26.8 0.38            149           70.4 297 
 RUS  HZ IP     C 1618  8.38                             143   -0.1610  103 176 
 RUS  HZ I        1618  9.30        15.3 0.48            143            103 176 
 RUS  HN ES       1618 26.55                             143   -0.4910  103 176 
 PTB  HZ EP       1618 11.22                             131   -0.48 9  148 258 
 PTB  HN ES       1618 32.11                             131   -0.55 9  148 258 
 PTB  HZ I        1618 35.17        34.4 0.14            129            148 258 
 SPBC HZ EP       1618 13.42                             128    0.07 9  165 219 
 SPBC HE ES       1618 35.51                             128   -0.09 9  165 219 
 SPBC HZ I        1618 40.84        31.5 0.20            127            165 219 
 ZAR  HZ EP       1618 17.25                             122    0.16 9  204 292 
 ZAR  HN ES       1618 42.17                             122   -0.09 9  204 292 
 ZAR  HZ I        1618 48.11        29.2 0.54            121            204 292 
 NOR  HZ IP     C 1618 20.81                             118    0.21 8  236 234 
 NOR  HN ES       1618 47.52                             118   -0.98 8  236 234 
 NOR  HZ I        1618 53.59        21.9 0.18            117            236 234 
 SML  HZ EP       1618 20.77                             117   -0.38 8  242 335 
 SML  HN ES       1618 48.49                             117   -0.99 8  242 335 
 SML  HZ I        1618 51.62        31.9 0.12            118            242 335 
 HEL  HZ EP       1618 25.70                             114    0.67 8  273 255 
 HEL  HN ES       1618 56.33                             114   -0.06 8  273 255 
 HEL  HZ I        1619  3.68        16.7 0.58            114            273 255 
 GUY2CHZ EP       1618 28.73                             112    0.22 7  303 234 
 GUY2CHE ES       1619  3.64                             112    1.06 7  303 234 
 GUY2CHZ I        1619 10.96        18.0 0.38                           303 234 
 RREF HZ EP       1618 31.27                             110    0.20 7  323 229 
 RREF HN ES       1619  6.88                             110   -0.25 7  323 229 
 RREF HZ I        1619 16.44        14.2 0.50            110            323 229 
 TOL  SZ EP       1618 34.01                             109    0.81 7  345 224 
 TOL  SN ES       1619 11.28                             109    0.35 7  345 224 
 PRA  HZ EP       1618 38.11                             106   -0.40 6  394 209 
 PRA  HN ES       1619 19.51                             106   -0.88 6  394 209 
 PRA  HZ I        1619 28.84        14.0 0.58            106            394 209 
 ORTC HZ EP       1618 38.73                             106   -0.17 6  397 216 
 ORTC HN ES       1619 21.36                             106    0.28 6  397 216 
 ORTC HZ I        1619 28.75        10.4 0.32            106            397 216 
                                                                                
