 2013  7 7 1748 56.2 L   6.547 -73.533109.4  RSN 17 0.5 2.7LRSN 3.1WRSN        1
 SPEC AVERAGE  MO 13.8 ST  3.7 OM  2.7 f0 3.40 R0.4742 AL 2.26 WI 23.9 MW  3.1 3
 SPEC SD       MO  0.1 ST  3.5 OM  0.6 f00.684 R0.0890 AL      WI      MW  0.1 3
 GAP= 48        1.18       3.2     3.4  6.4  0.3251E+00  0.7686E+01  0.1670E+01E
 Epicentro: EL CARMEN DE CHUCURI - SANTANDER                                   3
 SPEC TAM HH E MO 13.8 ST  1.7 OM  2.1 f0 2.78 R0.5590 AL 1.92 WI 19.4 MW  3.2 3
 SPEC TAM HH E T174946 K 0.000 GD  221 VS 4.20 DE 3.20 Q0300.0 QA 0.60 VS 4.20 3
 SPEC HEL HH N MO 13.8 ST  1.3 OM  2.0 f0 2.62 R0.5931 AL 1.71 WI 28.7 MW  3.1 3
 SPEC HEL HH N T174954 K 0.000 GD  249 VS 4.20 DE 3.20 Q0300.0 QA 0.60 VS 4.20 3
 SPEC NOR HH N MO 14.0 ST 12.1 OM  2.3 f0 4.60 R0.3378 AL 3.21 WI 29.3 MW  3.3 3
 SPEC NOR HH N T174944 K 0.000 GD  214 VS 4.20 DE 3.20 Q0300.0 QA 0.60 VS 4.20 3
 SPEC RUS HH N MO 13.7 ST  1.8 OM  2.2 f0 3.02 R0.5146 AL 2.06 WI 22.1 MW  3.1 3
 SPEC RUS HH N T174928 K 0.000 GD  140 VS 4.20 DE 3.20 Q0300.0 QA 0.60 VS 4.20 3
 SPEC PAM SH N MO 13.7 ST  3.9 OM  2.1 f0 3.98 R0.3905 AL 2.97 WI 17.1 MW  3.1 3
 SPEC PAM SH N T174936 K 0.000 GD  167 VS 4.20 DE 3.20 Q0300.0 QA 0.60 VS 4.20 3
 SPEC CHI HH N MO 13.7 ST  3.1 OM  1.9 f0 3.84 R0.4047 AL 2.61 WI 29.9 MW  3.1 3
 SPEC CHI HH N T174951 K 0.000 GD  239 VS 4.20 DE 3.20 Q0300.0 QA 0.60 VS 4.20 3
 SPEC BRR HH N MO 13.8 ST  2.0 OM  2.3 f0 2.99 R0.5197 AL 1.33 WI 20.5 MW  3.1 3
 SPEC BRR HH N T174926 K 0.000 GD  127 VS 4.20 DE 3.20 Q0300.0 QA 0.60 VS 4.20 3
 ACTION:UPD 13-08-12 10:36 OP:ep   STATUS:               ID:20130707174856 L   I
 OLDACT:UP  13-07-07 19:08 OP:jn   STATUS:               ID:20130707174648     3
 OLDACT:UP  13-07-07 19:07 OP:jn   STATUS:               ID:20130707174648     3
 OLDACT:REG 13-07-07 17:58 OP:jn   STATUS:               ID:20130707174648     3
 2013-07-07-1746-48M.COL___224                                                 6
 STAT SP IPHASW D HRMM SECON CODA AMPLIT PERI AZIMU VELO AIN AR TRES W  DIS CAZ7
 BAR2 SZ IP     C 1749 12.50                             159    0.4310 39.1  83 
 BAR2 SZ ES       1749 24.65                             159    0.2310 39.1  83 
 BAR2 SZ I        1749 26.14      1019.8 0.48            162           39.1  83 
 BRR  HZ EP       1749 13.31                             147    0.1410 65.1 342 
 BRR  HN ES   1   1749 27.21                             147    0.83 7 65.1 342 
 BRR  HZ I        1749 34.69        96.7 0.18            143           65.1 342 
 GIR2 SZ EP       1749 14.06                             145    0.3610 69.8  32 
 RUS  HZ EP       1749 15.52                             139   -0.0310 87.8 145 
 RUS  HE ES       1749 30.27                             139   -0.3410 87.8 145 
 RUS  HZ I        1749 31.48        84.7 0.22            142           87.8 145 
 PTB  HZ IP     D 1749 15.29                             134   -0.8210  102 270 
 PTB  HN ES   4   1749 30.20                             134   -1.40 0  102 270 
 PTB  HZ I        1749 31.77       142.5 0.09            131            102 270 
 PAM  SZ EP       1749 18.52                             127   -0.5510  127  46 
 PAM  SE ES   1   1749 36.30                             127   -0.58 7  127  46 
 PAM  SZ I        1749 38.14        63.7 0.23            127            127  46 
 YOP  SZ EP     C 1749 24.50                             116    0.38 9  180 137 
 YOP  SN ES   1   1749 45.99                             116    0.12 7  180 137 
 YOP  SZ I        1749 48.88       110.9 0.34            118            180 137 
 ZAR  HZ EP       1749 24.20                             116    0.27 9  180 306 
 ZAR  HE ES   4   1749 47.86                             116    2.32 0  180 306 
 ZAR  HZ I        1749 49.41       146.3 0.50            115            180 306 
 NOR  HZ EP       1749 23.96                             116   -0.43 9  184 234 
 NOR  HE ES   1   1749 45.10                             116   -1.26 7  184 234 
 NOR  HZ I        1749 50.37        49.9 0.34            115            184 234 
 OCA  HZ EP       1749 24.60                             115   -0.48 9  189   7 
 OCA  HN ES   1   1749 47.57                             115    0.00 7  189   7 
 OCA  HZ I        1749 53.82        64.2 0.24            114            189   7 
 TAM  HZ EP       1749 25.28                             115   -0.14 9  193  94 
 TAM  HE ES   1   1749 47.95                             115   -0.24 7  193  94 
 TAM  HZ I        1749 51.03        34.3 0.50            116            193  94 
 CHI  HZ EP       1749 29.50                             112    1.35 8  213 186 
 CHI  HN ES   1   1749 52.39                             112   -0.64 6  213 186 
 CHI  HZ I        1749 57.77        18.8 0.24            113            213 186 
 AGZ  SZ EP       1749 27.66                             112   -0.05 8  214 146 
 AGZ  SZ ES   4   1749 50.26                             112   -1.99 0  214 146 
 HEL  HZ EP       1749 29.42                             111    0.06 8  224 260 
 HEL  HN ES   1   1749 55.53                             111    0.34 6  224 260 
 HEL  HZ I        1749 59.86        37.2 0.38            110            224 260 
 GUY2CHZ EP       1749 33.06                             108    0.61 8  250 234 
 SML  HZ EP       1749 32.47                             108   -0.10 8  256 347 
 SML  HE ES   4   1750  2.49                             108    1.58 0  256 347 
 DBB  SZ EP       1749 38.10                             104    0.23 7  300 280 
                                                                                
