 2011  7 7 1115 35.9 L   6.776 -73.048145.7  RSN 10 0.4 2.1LRSN                1
 GAP=167        0.69       3.0     5.4  5.2 -0.2013E+01  0.6368E+00  0.1819E+01E
 Epicentro: LOS SANTOS - SANTANDER                                             3
 ACTION:UPD 12-07-25 13:59 OP:epov STATUS:               ID:20110707111535 L   I
 2011-07-07-1114-45S.COL___140                                                 6
 STAT SP IPHASW D HRMM SECON CODA AMPLIT PERI AZIMU VELO AIN AR TRES W  DIS CAZ7
 BAR2 SZ EP   1   1115 55.31                             170   -0.21 7 25.2 216 
 BAR2 SZ ES   1   1116 10.34                             170   -0.52 7 25.2 216 
 BAR2 SZ I        1116 13.70        25.5 0.29                          25.2 216 
 GIR2 SZ EP   1   1115 55.83                             165    0.13 7 37.2 334 
 BRR  HZ IP     C 1115 57.58                             149   -0.0710 82.1 297 
 BRR  HZ I        1115 57.88        51.3 0.15                          82.1 297 
 BRR  HN ES       1116 15.12                             149    0.4710 82.1 297 
 RUS  HZ EP   1   1115 59.60                             145    0.20 7 97.7 182 
 RUS  HE ES   1   1116 17.73                             145   -0.04 7 97.7 182 
 RUS  HZ I        1116 19.58         8.9 0.19                          97.7 182 
 BRI  SZ EP   1   1116  0.14                             142    0.45 7  108  15 
 OCA  SZ EP   1   1116  4.79                             129    0.21 7  165 350 
 OCA  SZ ES   1   1116 26.28                             129   -0.69 7  165 350 
 OCA  SZ I        1116 32.69        18.6 0.42                           165 350 
 NOR  SZ EP   1   1116 11.78                             118   -0.61 6  242 236 
 NOR  SN ES   2   1116 40.54                             118   -0.33 4  242 236 
 CHI  HZ EP   2   1116 13.55                             117   -0.06 4  249 198 
 CHI  HN ES   2   1116 43.78                             117    0.73 4  249 198 
 CHI  HZ I        1116 50.89         5.4 0.51                           249 198 
 HEL  HZ EP   2   1116 16.60                             114   -0.57 4  282 257 
 HEL  HN ES   2   1116 49.64                             114    0.24 4  282 257 
 PRA  HZ EP   1   1116 30.06                             106    0.31 4  395 211 
 PRA  HN ES   1   1117 11.70                             106   -0.08 4  395 211 
                                                                                
