 2016  9 7 1551 31.8 L   6.805 -73.141144.0  RSN 10 0.4 2.0LRSN                1
 GAP=137        0.93       3.2     3.6  5.1 -0.1139E+01  0.5340E+01  0.3350E+01E
 Epicentro: LOS SANTOS - SANTANDER                                             3
 ACTION:UPD 17-08-17 21:07 OP:lp   STATUS:               ID:20160907155131 L   I
 OLDACT:REG 16-09-07 20:25 OP:lv   STATUS:               ID:20160907154736     3
 2016-09-07-1548-00M.COL___355                                                 6
 STAT SP IPHASW D HRMM SECON CODA AMPLIT PERI AZIMU VELO AIN AR TRES W  DIS CAZ7
 BAR2 EZ EP       1551 51.07                             170   -0.1510 24.0 191 
 BAR2 EZ ES       1552  6.37                             170   -0.0110 24.0 191 
 BAR2 EZ I        1552  7.81        29.1 0.21            169           24.0 191 
 BRR  HZ EP       1551 53.26                             152    0.5010 71.4 298 
 BRR  HN ES       1552  9.66                             152    0.5410 71.4 298 
 BRR  HZ I        1552 14.83        16.2 0.26            151           71.4 298 
 PAM  EZ EP       1551 54.10                             151    0.3210 76.6  39 
 PAM  EE ES       1552 10.57                             151   -0.3510 76.6  39 
 PAM  EZ I        1552 11.86        13.8 0.21            155           76.6  39 
 RUS  HZ EP       1551 55.10                             143   -0.3110  101 176 
 RUS  HN ES       1552 13.98                             143    0.1510  101 176 
 RUS  HZ I        1552 15.49         8.8 0.25            145            101 176 
 PTB  HZ EP       1551 57.83                             131   -0.85 9  148 259 
 PTB  HN ES       1552 19.08                             131   -0.56 9  148 259 
 PTB  HZ I        1552 21.80        10.0 0.14            132            148 259 
 SPBC HZ EP       1552  0.35                             129    0.12 9  164 219 
 SPBC HN ES       1552 22.64                             129    0.23 9  164 219 
 SPBC HZ I        1552 26.46        16.5 0.21            130            164 219 
 ZAR  HZ EP       1552  4.22                             122    0.07 9  204 292 
 ZAR  HE ES       1552 29.21                             122   -0.19 9  204 292 
 ZAR  HZ I        1552 34.40        11.4 0.23            123            204 292 
 NOR  HZ EP       1552  7.24                             118   -0.26 8  235 234 
 NOR  HN ES       1552 35.48                             118    0.13 8  235 234 
 NOR  HZ I        1552 40.53         5.1 0.12            120            235 234 
 CHI  HZ EP       1552  9.50                             117    0.03 8  249 195 
 CHI  HN ES       1552 38.66                             117   -0.19 8  249 195 
 CHI  HZ I        1552 42.87         3.9 0.11            119            249 195 
 GUY2CHZ EP       1552 16.12                             112    0.71 7  302 235 
 GUY2CHN ES       1552 49.73                             112    0.31 7  302 235 
 GUY2CHZ I        1552 57.35         6.5 0.34                           302 235 
                                                                                
