 2011  4 7 2352 29.6 L   6.770 -73.114145.5  RSN 12 0.3 2.4LRSN                1
 GAP=118        0.63       2.8     4.4  4.9 -0.3553E+01  0.2230E+01  0.4548E+01E
 Epicentro: LOS SANTOS - SANTANDER                                             3
 ACTION:UP  11-06-22 15:29 OP:REBC STATUS:               ID:20110407235229 L   I
 2011-04-07-2351-19S.COL___138                                                 6
 STAT SP IPHASW D HRMM SECON CODA AMPLIT PERI AZIMU VELO SNR AR TRES W  DIS CAZ7
 BAR2 SZ EP       2352 49.10                             171    -0.110   21 201 
 BAR2 SZ ES   1   2353  3.94                             171    -0.5 7   21 201 
 BAR2 SZ I        2353  6.12        47.0 0.32                            21 201 
 BTL  SZ EP   1   2352 49.60                             170     0.4 7   24 314 
 GIR2 SZ EP   1   2352 49.27                             166    -0.1 7   35 346 
 BRR  HZ EP   1   2352 51.09                             151     0.1 7   76 299 
 BRR  HN ES   1   2353  8.43                             151     0.7 7   76 299 
 BRR  HZ I        2353 12.83        39.7 0.18                            76 299 
 PAM  SZ EP   1   2352 51.95                             151     0.1 7   78  36 
 PAM  SN ES   1   2353  8.91                             151    -0.3 7   78  36 
 GRA  SZ EP   1   2352 55.04                             136     0.0 7  128  16 
 GRA  SZ ES   2   2353 14.58                             136    -0.3 5  128  16 
 GRA  SZ I        2353 15.65        36.0 0.33                           128  16 
 OCA  SZ EP   1   2352 58.19                             129    -0.1 7  164 352 
 OCA  SZ ES   2   2353 20.33                             129    -0.3 5  164 352 
 OCA  SZ I        2353 24.71        36.7 0.23                           164 352 
 YOP  SZ EP   1   2352 59.61                             127     0.4 7  174 154 
 YOP  SN ES   2   2353 22.76                             127     0.5 4  174 154 
 YOP  SZ I        2353 27.49        16.9 0.67                           174 154 
 NOR  SZ EP   1   2353  5.20                             118    -0.2 6  236 236 
 NOR  SN ES   2   2353 33.36                             118     0.0 4  236 236 
 CHI  HZ EP   1   2353  7.03                             117     0.0 6  246 196 
 CHI  HE ES   1   2353 36.19                             117    -0.1 6  246 196 
 CHI  HZ I        2353 44.95        12.9 0.53                           246 196 
 RREF HZ EP   1   2353 15.61                             111    -0.2 5  322 230 
 RREF HE ES   2   2353 51.07                             111    -0.8 3  322 230 
 RREF HZ I        2354  0.90        17.3 0.40                           322 230 
 PRA  HZ EP   1   2353 22.80                             106    -0.2 4  391 210 
 PRA  HE ES   2   2354  4.93                             106     0.3 3  391 210 
                                                                                
