 2016 10 7 2031 57.6 L   6.861 -73.337142.7  RSN  4 0.4 1.5LRSN                1
 GAP=127        0.97       5.3     5.6  9.3  0.4334E+01  0.1307E+02 -0.2595E+01E
 Epicentro: BETULIA - SANTANDER                                                3
 OLDACT:UP  16-10-08 04:39 OP:cara STATUS:               ID:20161007202749     3
 OLDACT:UP  16-10-08 04:32 OP:cara STATUS:               ID:20161007202749     3
 OLDACT:REG 16-10-08 02:38 OP:cara STATUS:               ID:20161007202749     3
 ACTION:UPD 16-11-09 19:17 OP:rebc STATUS:               ID:20161007203157 L   I
 OLDACT:DUP 16-10-08 04:42 OP:cara STATUS:               ID:20161007202750d    3
 OLDACT:UP  16-10-08 04:42 OP:cara STATUS:               ID:20161007202749     3
 2016-10-07-2028-00M.COL___360                                                 6
 STAT SP IPHASW D HRMM SECON CODA AMPLIT PERI AZIMU VELO AIN AR TRES W  DIS CAZ7
 BAR2 EZ EP       2032 17.28                             166    0.0910 34.3 150 
 BAR2 EZ ES       2032 32.99                             166    0.5610 34.3 150 
 BAR2 EZ I        2032 34.19         9.8 0.24            170           34.3 150 
 PAM  EZ EP       2032 20.67                             147    0.4510 88.0  53 
 PAM  EN ES       2032 37.32                             147   -0.5010 88.0  53 
 PAM  EZ I        2032 38.15         3.6 0.40            152           88.0  53 
 RUS  HZ EP       2032 21.70                             140   -0.1710  111 165 
 RUS  HE ES       2032 40.43                             140   -0.3310  111 165 
 RUS  HZ I        2032 41.78         2.4 0.26            144            111 165 
 ZAR  HN ES       2032 50.87                             125   -0.16 9  182 293 
 ZAR  HZ I        2033  0.80         5.3 0.36            124            182 293 
                                                                                
