 2010  8 7 2046 46.5 L   6.830 -73.020136.0  RSN  4 0.3 1.4LRSN                1
 GAP=178        0.62       7.2    13.2 10.2  0.6979E+02 -0.7995E+02 -0.4062E+02E
 Epicentro: CEPITA - SANTANDER                                                 3
 ACTION:UP  10-09-07 10:53 OP:vdl  STATUS:               ID:20100807204646 L   I
 2010-08-07-2044-48S.COL___124                                                 6
 STAT SP IPHASW D HRMM SECON CODA AMPLIT PERI AZIMU VELO SNR AR TRES W  DIS CAZ7
 BAR2 SZ EP   1   2047  5.26                             167     0.1 7   32 215 
 BAR2 SZ ES   2   2047 19.16                             167    -0.6 5   32 215 
 BAR2 SZ I        2047 21.73         9.9 0.07                            32 215 
 BRR  HZ EP       2047  7.17                             148    -0.210   82 292 
 BRR  HZ I        2047  7.62        15.3 0.16                            82 292 
 BRR  HN ES   1   2047 23.82                             148     0.2 7   82 292 
 RUS  HZ EP   1   2047  9.53                             142    -0.1 7  104 184 
 RUS  HE ES   1   2047 27.78                             142     0.2 7  104 184 
 RUS  HZ I        2047 28.71         2.2 0.18                           104 184 
 GUE  SZ EP   2   2047 10.25                             139     0.3 5  111   5 
 GUE  SZ I        2047 31.70         1.3 0.23                           111   5 
                                                                                
