 2010  8 7 2244  0.8 L   6.803 -73.107140.9  RSN 13 0.4 2.2LRSN                1
 GAP=163        0.85       3.1     5.5  6.0 -0.4064E+01  0.6440E+01 -0.4565E-01E
 Epicentro: LOS SANTOS - SANTANDER                                             3
 ACTION:UP  10-09-07 10:53 OP:vdl  STATUS:               ID:20100807224400 L   I
 2010-08-07-2242-34S.COL___124                                                 6
 STAT SP IPHASW D HRMM SECON CODA AMPLIT PERI AZIMU VELO SNR AR TRES W  DIS CAZ7
 BTL  SZ IP       2244 19.99                             171     0.210   22 306 
 BAR2 SZ IP       2244 19.93                             170     0.010   25 200 
 BAR2 SZ ES   1   2244 34.22                             170    -0.5 7   25 200 
 BAR2 SZ I        2244 36.25        47.5 0.30                            25 200 
 GIR2 SZ EP       2244 19.96                             167     0.010   32 343 
 BRR  HZ IP       2244 21.76                             150     0.110   75 297 
 BRR  HN ES   1   2244 38.40                             150     0.5 7   75 297 
 BRR  HZ I        2244 39.85        69.2 0.09                            75 297 
 RUS  HZ EP       2244 24.31                             143     0.210  101 179 
 RUS  HE ES   1   2244 42.21                             143     0.0 7  101 179 
 RUS  HZ I        2244 43.69         7.3 0.12                           101 179 
 GUE  SZ EP   1   2244 24.73                             139    -0.3 7  115  10 
 GUE  SZ I        2244 46.38         9.2 0.23                           115  10 
 GRA  SZ IP       2244 25.67                             136     0.210  124  16 
 GRA  SZ I        2244 26.96        29.3 0.29                           124  16 
 OCA  SZ EP       2244 28.21                             128    -0.6 9  161 352 
 OCA  SZ ES   1   2244 50.69                             128     0.1 7  161 352 
 OCA  SZ I        2244 54.21        28.8 0.09                           161 352 
 CHI  HZ EP   1   2244 38.29                             116    -0.1 6  250 196 
 CHI  HN ES   1   2245  7.60                             116    -0.1 6  250 196 
 CHI  HZ I        2245 15.00        10.1 0.36                           250 196 
 HEL  HZ EP   1   2244 41.62                             113     0.4 6  276 256 
 HEL  HN ES   1   2245 12.03                             113    -0.8 6  276 256 
 HEL  HZ I        2245 18.48        14.0 0.56                           276 256 
 GUY  SZ EP   1   2244 45.65                             111     1.0 5  305 235 
 GUY  SN ES   2   2245 19.27                             111     0.5 4  305 235 
 DBB  SZ EP   1   2244 48.15                             108    -0.4 5  344 274 
 PRA  HZ EP   1   2244 54.01                             106    -0.4 4  394 210 
 PRA  HN ES   1   2245 35.98                             106    -0.3 4  394 210 
 PRA  HZ I        2245 39.24        15.3 0.26                           394 210 
                                                                                
