 2016  5 7 2155 28.0 L   6.377 -72.904  4.0  RSN 15 0.6 2.5LRSN                1
 GAP=113        1.50       2.9     2.8  5.8 -0.8276E+00  0.4452E+01 -0.1555E+01E
 Epicentro: SAN JOAQUIN - SANTANDER                                            3
 ACTION:UPD 16-08-18 17:43 OP:cam  STATUS:               ID:20160507215528 L   I
 OLDACT:UP  16-05-15 07:31 OP:ar   STATUS:               ID:20160507215528 L   3
 OLDACT:UP  16-05-08 05:47 OP:ar   STATUS:               ID:20160507214746     3
 OLDACT:UP  16-05-08 05:46 OP:ar   STATUS:               ID:20160507214746     3
 OLDACT:REG 16-05-08 02:38 OP:ar   STATUS:               ID:20160507214746     3
 2016-05-07-2147-46M.COL___310                                                 6
 STAT SP IPHASW D HRMM SECON CODA AMPLIT PERI AZIMU VELO AIN AR TRES W  DIS CAZ7
 BAR2 EZ EP       2155 34.27                              47   -0.4710 38.9 308 
 BAR2 EZ ES       2155 39.52                              47   -0.4710 38.9 308 
 BAR2 EZ I        2155 40.03       619.7 0.22             47           38.9 308 
 RUS  HZ IP     C 2155 37.32                              47   -0.4410 57.1 200 
 RUS  HN ES       2155 44.82                              47   -0.5410 57.1 200 
 RUS  HZ I        2155 45.41       170.3 0.24             47           57.1 200 
 PAM  EZ EP       2155 44.71                              47   -0.8910  109  12 
 PAM  EN ES       2155 58.33                              47   -0.9910  109  12 
 PAM  EZ I        2156  0.65        48.3 0.20             47            109  12 
 BRR  HZ EP       2155 47.43                              47    0.5910  120 312 
 BRR  HN ES       2156  2.44                              47    0.9110  120 312 
 BRR  HZ I        2156  6.22        89.1 0.30             47            120 312 
 TAM  HZ EP       2155 48.39                              47    1.0610  123  87 
 TAM  HN ES       2156  2.51                              47    0.1110  123  87 
 TAM  HZ I        2156  6.60        43.8 0.22             47            123  87 
 SPBC HZ EP       2155 52.04                              47    0.30 9  152 238 
 SPBC HE ES       2156 10.23                              47   -0.02 9  152 238 
 SPBC HZ I        2156 12.51        89.6 0.12             47            152 238 
 PTB  HZ EP       2155 54.93                              47    0.16 9  173 276 
 PTB  HN ES       2156 15.92                              47    0.27 9  173 276 
 PTB  HZ I        2156 17.53       182.1 0.18             47            173 276 
 OCA  HZ EP       2156  0.60                              37    0.78 8  211 347 
 OCA  HN ES   4   2156 26.72                              37    2.09 0  211 347 
 OCA  HZ I        2156 37.68        73.3 0.36             37            211 347 
 CHI  HZ EP   4   2156  3.22                              37    2.73 0  214 205 
 CHI  HN ES   4   2156 30.60                              37    4.77 0  214 205 
 CHI  HZ I        2156 31.64        19.7 0.54             37            214 205 
 NOR  HZ EP   9   2156  4.87                              37    2.12 0  235 248 
 NOR  HN ES       2156 31.77                              37   -0.20 8  235 248 
 NOR  HZ I        2156 35.25        17.2 0.20             37            235 248 
 ZAR  HZ EP   4   2156  5.57                              37    1.21 0  249 300 
 ZAR  HN ES       2156 33.25                              37    0.54 8  249 300 
 ZAR  HZ I        2156 37.68        30.9 0.30             37            249 300 
 PTGC HZ EP   4   2155 59.45                              37   -5.75 0  255 160 
 PTGC HN ES   4   2156 38.78                              37    4.56 0  255 160 
 PTGC HZ I        2156 41.88        27.0 0.30             37            255 160 
 VIL  SZ EP   4   2156 12.37                              37    5.79 0  265 199 
 VIL  SN ES   4   2156 45.70                              37    9.03 0  265 199 
 HEL  HZ EP       2156 10.41                              37    0.31 7  291 266 
 HEL  HN ES       2156 42.18                              37   -0.75 7  291 266 
 HEL  HZ I        2156 51.13        12.7 0.38             37            291 266 
 SML  HZ EP   9   2156 14.79                              36    4.36 0  297 334 
 SML  HN ES       2156 47.44                              36   -0.44 7  297 334 
 SML  HZ I        2156 53.81        26.2 0.10             36            297 334 
 URE  HN ES   4   2156 52.99                              36    2.77 0  328 298 
 URE  HZ I        2157  0.65        10.4 0.20             36            328 298 
 PRA  HZ EP   4   2156 26.01                              36    6.89 0  367 217 
 PRA  HN ES   4   2157 12.02                              36   13.03 0  367 217 
                                                                                
