 2014 11 7 2038 13.8 L   6.773 -73.189136.6  RSN  7 0.3 1.6LRSN                1
 GAP=132        0.69       3.6     3.3  5.3 -0.3836E+01  0.2016E+01  0.3881E+01E
 Epicentro: LOS SANTOS - SANTANDER                                             3
 ACTION:UPD 14-12-19 15:40 OP:nd   STATUS:               ID:20141107203813 L   I
 OLDACT:REG 14-11-08 04:26 OP:spq  STATUS:               ID:20141107202747     3
 2014-11-07-2027-47M.COL___295                                                 6
 STAT SP IPHASW D HRMM SECON CODA AMPLIT PERI AZIMU VELO AIN AR TRES W  DIS CAZ7
 BAR2 SZ EP   1   2038 31.76                             171   -0.53 7 20.0 178 
 BAR2 SZ ES   1   2038 47.05                             171    0.36 7 20.0 178 
 BAR2 SZ I        2038 48.51        17.5 0.21            171           20.0 178 
 BRR  HZ EP       2038 34.38                             152    0.5410 68.6 303 
 BRR  HN ES       2038 49.46                             152    0.0110 68.6 303 
 BRR  HZ I        2038 57.60         7.7 0.52            151           68.6 303 
 PAM  SZ EP     C 2038 35.45                             147    0.0310 82.8  41 
 PAM  SN ES       2038 52.04                             147   -0.2210 82.8  41 
 PAM  SZ I        2038 52.62         3.5 0.44            154           82.8  41 
 RUS  HZ EP       2038 36.50                             143    0.0110 98.0 173 
 RUS  HE ES   1   2038 54.32                             143    0.14 7 98.0 173 
 RUS  HZ I        2038 56.00         4.9 0.28            146           98.0 173 
 PTB  HZ EP       2038 39.24                             131   -0.33 9  142 260 
 PTB  HN ES       2038 59.53                             131   -0.12 9  142 260 
 PTB  HZ I        2039  2.36         5.5 0.16            132            142 260 
 SPBC HE ES   1   2039  2.16                             128   -0.25 7  158 218 
 SPBC HZ I        2039  7.11         7.0 0.18            130            158 218 
 NOR  HZ EP   1   2038 48.88                             117    0.46 6  229 234 
 NOR  HE ES   1   2039 15.40                             117   -0.01 6  229 234 
 NOR  HZ I        2039 19.42         2.0 0.36            120            229 234 
                                                                                
