 2014  2 7 2201 24.5 L   6.869 -73.325119.9  RSN 14 0.5 2.1LRSN                1
 GAP= 93        1.09       2.4     3.3  5.1 -0.1448E+01  0.3740E+01  0.7590E+00E
 Epicentro: BETULIA - SANTANDER                                                3
 ACTION:UPD 14-03-10 08:08 OP:ep   STATUS:               ID:20140207220124 L   I
 OLDACT:REG 14-02-08 00:06 OP:stll STATUS:               ID:20140207215817     3
 2014-02-07-2158-17M.COL___226                                                 6
 STAT SP IPHASW D HRMM SECON CODA AMPLIT PERI AZIMU VELO AIN AR TRES W  DIS CAZ7
 BAR2 SZ EP       22 1 41.61                             163    0.2410 34.5 153 
 BAR2 SZ ES       22 1 54.01                             163   -0.5210 34.5 153 
 BAR2 SZ I        22 1 56.07       155.6 0.42            164           34.5 153 
 BRR  HZ IP     D 22 1 42.06                             156    0.3710 50.2 302 
 BRR  HN ES       22 1 55.92                             156    0.8110 50.2 302 
 BRR  HZ I        22 1 57.12        47.1 0.10            155           50.2 302 
 PAM  SZ EP       22 1 45.14                             142    0.4510 86.5  53 
 PAM  SN ES       22 2  0.82                             142    0.3710 86.5  53 
 PAM  SZ I        22 2  3.37        15.8 0.28            145           86.5  53 
 RUS  HZ EP       22 1 46.42                             135   -0.2910  111 166 
 RUS  HN ES       22 2  3.85                             135   -0.1910  111 166 
 PTB  HZ IP     C 22 1 46.96                             129   -0.8410  130 254 
 PTB  HE ES       22 2  5.21                             129   -0.7610  130 254 
 PTB  HZ I        22 2 10.06        27.1 0.32            129            130 254 
 OCA  HZ EP       22 1 49.70                             125   -0.35 9  151   0 
 OCA  HN ES       22 2  9.77                             125   -0.20 9  151   0 
 OCA  HZ I        22 2 13.91        29.1 0.18            127            151   0 
 SPBC HZ EP       22 1 50.80                             123    0.18 9  158 212 
 SPBC HN ES       22 2 10.91                             123   -0.09 9  158 212 
 ZAR  HZ EP       22 1 53.30                             119    0.20 9  183 292 
 ZAR  HN ES       22 2 15.53                             119    0.11 9  183 292 
 ZAR  HZ I        22 2 19.33        23.4 0.40            120            183 292 
 NOR  HZ EP       22 1 58.12                             114    0.48 8  224 230 
 NOR  HN ES       22 2 23.83                             114    0.34 8  224 230 
 NOR  HZ I        22 2 31.49         6.3 0.28            114            224 230 
 SML  HZ EP       22 1 57.72                             113   -0.43 8  229 339 
 SML  HE ES       22 2 24.25                             113   -0.14 8  229 339 
 CHI  HZ EP       22 2  1.59                             111    0.33 8  252 190 
 CHI  HN ES       22 2 29.56                             111   -0.37 8  252 190 
 CHI  HZ I        22 2 36.01         5.2 0.40            112            252 190 
 GUY2CHZ EP       22 2  6.09                             108    0.35 7  290 231 
 GUY2CHN ES       22 2 37.48                             108   -0.43 7  290 231 
 GUY2CHZ I        22 2 42.84         3.3 0.40                           290 231 
 SOCV BZ EP       22 2  7.42                             106   -0.58 7  314  60 
 PRA  HZ EP       22 2 17.64                             102    0.70 6  389 206 
 PRA  HN ES       22 2 58.65                             102    0.80 6  389 206 
 PRA  HZ I        22 3  6.37         3.8 0.48            103            389 206 
                                                                                
