 2011 12 7 2039  5.6 L   6.745 -73.101144.1  RSN  4 0.2 1.9LRSN                1
 GAP=145        0.48       3.9     6.3  5.6  0.9603E+01 -0.1455E+02 -0.6819E+01E
 Epicentro: JORDAN - SANTANDER                                                 3
 ACTION:UPD 12-07-13 16:14 OP:ep   STATUS:               ID:20111207203905 L   I
 2011-12-07-2030-00M.COL___170                                                 6
 STAT SP IPHASW D HRMM SECON CODA AMPLIT PERI AZIMU VELO AIN AR TRES W  DIS CAZ7
 BAR2 SZ IP       2039 24.85                             172   -0.1210 19.1 208 
 BAR2 SZ I        2039 25.18        14.6 0.42                          19.1 208 
 BAR2 SZ ES   1   2039 39.78                             172   -0.29 7 19.1 208 
 BRR  HZ IP     C 2039 26.86                             150   -0.1610 78.4 301 
 BRR  HZ I        2039 27.10        22.2 0.26                          78.4 301 
 BRR  HN ES   1   2039 43.99                             150    0.28 7 78.4 301 
 PAM  SZ EP       2039 27.92                             150    0.1410 79.3  34 
 RUS  HZ EP       2039 28.82                             145    0.0610 94.3 179 
 RUS  HE ES   1   2039 46.98                             145    0.16 7 94.3 179 
 RUS  HZ I        2039 48.23         9.0 0.42                          94.3 179 
                                                                                
