 2012  6 7 2229 18.2 L   6.806 -73.188140.9  RSN  5 0.2 1.8LRSN                1
 GAP=144        0.57       3.4     3.2  4.8 -0.4127E+01  0.4891E+01 -0.1391E+01E
 Epicentro: ZAPATOCA - SANTANDER                                               3
 ACTION:UPD 12-08-06 17:48 OP:ep   STATUS:               ID:20120607222917 L   I
 2012-06-07-2224-38M.COL___170                                                 6
 STAT SP IPHASW D HRMM SECON CODA AMPLIT PERI AZIMU VELO AIN AR TRES W  DIS CAZ7
 BAR2 SZ EP       2229 37.43                             170    0.1910 23.6 178 
 BAR2 SZ ES       2229 52.11                             170    0.0110 23.6 178 
 BAR2 SZ I        2229 53.45        13.9 0.19            170           23.6 178 
 PAM  SZ EP       2229 40.39                             149    0.3410 80.0  42 
 PAM  SE ES       2229 56.82                             149   -0.2810 80.0  42 
 RUS  HZ EP       2229 41.35                             142   -0.1910  102 173 
 RUS  HE ES       2229 59.81                             142    0.0610  102 173 
 RUS  HZ I        2230  1.01        10.2 0.36            144            102 173 
 PTB  HZ EP       2229 44.09                             132   -0.26 9  143 258 
 PTB  HN ES       2230  4.91                             132    0.16 9  143 258 
 PTB  HZ I        2230  7.54         7.5 0.15            132            143 258 
 NOR  SN ES   1   2230 20.49                             118   -0.13 6  231 234 
                                                                                
