 2015  8 7 2109 45.3 L   6.778 -73.105142.8  RSN  4 0.1 1.5LRSN                1
 GAP=143        0.39       2.0     3.0  3.1 -0.1350E+00 -0.6465E+00  0.2397E+00E
 Epicentro: LOS SANTOS - SANTANDER                                             3
 ACTION:UPD 15-09-15 23:00 OP:cam  STATUS:               ID:20150807210945 L   I
 OLDACT:REG 15-08-08 03:33 OP:stll STATUS:               ID:20150807210748     3
 2015-08-07-2107-48M.COL___361                                                 6
 STAT SP IPHASW D HRMM SECON CODA AMPLIT PERI AZIMU VELO AIN AR TRES W  DIS CAZ7
 BAR2 EZ EP       2110  4.44                             171   -0.0810 22.3 203 
 BAR2 EZ ES       2110 19.32                             171   -0.2110 22.3 203 
 BAR2 EZ I        2110 21.12         6.7 0.44            170           22.3 203 
 BRR  HZ EP     D 2110  6.30                             150   -0.1010 76.3 299 
 BRR  HZ I        2110  6.52        10.6 0.26            152           76.3 299 
 BRR  HE ES       2110 23.02                             150    0.1410 76.3 299 
 PAM  EZ EP       2110  7.12                             151    0.0110 76.5  36 
 PAM  EZ I        2110  7.43         5.4 0.24            152           76.5  36 
 PAM  EN ES       2110 24.22                             151    0.0610 76.5  36 
 RUS  HZ EP       2110  8.60                             144    0.0710 97.9 179 
 RUS  HE ES       2110 26.79                             144    0.1110 97.9 179 
 RUS  HZ I        2110 27.97         2.8 0.32            144           97.9 179 
                                                                                
