 2017  6 7 2113 39.9 L   6.754 -73.133144.0  RSN  5 0.4 1.5LRSN                1
 GAP=235        0.80       8.0     9.6  7.3  0.6180E+02  0.6860E+01 -0.1988E+01E
 Epicentro: LOS SANTOS - SANTANDER                                             3
 ACTION:UPD 17-09-14 16:50 OP:jn   STATUS:               ID:20170607211339 L   I
 OLDACT:UP  17-06-08 03:22 OP:dani STATUS:               ID:20170607210727     3
 OLDACT:REG 17-06-08 02:41 OP:dani STATUS:               ID:20170607210727     3
 2017-06-07-2108-00M.COL___363                                                 6
 STAT SP IPHASW D HRMM SECON CODA AMPLIT PERI AZIMU VELO AIN AR TRES W  DIS CAZ7
 BRR  HZ EP       2114  1.11                             151   -0.0110 74.9 301 
 BRR  HN ES       2114 17.66                             151    0.0310 74.9 301 
 BRR  HZ I        2114 21.31        12.5 0.31            151           74.9 301 
 RUS  HZ EP       2114  3.27                             145    0.1110 95.5 177 
 RUS  HN ES       2114 21.38                             145    0.1210 95.5 177 
 RUS  HZ I        2114 22.37         2.4 0.24            149           95.5 177 
 PTB  HZ EP       2114  6.06                             132   -0.75 9  148 261 
 PTB  HE ES   3   2114 26.76                             132   -1.01 2  148 261 
 PTB  HZ I        2114 29.12         4.7 0.19            133            148 261 
 ZAR  HZ EP       2114 12.90                             122    0.29 8  207 293 
 ZAR  HN ES       2114 38.36                             122    0.27 8  207 293 
 ZAR  HZ I        2114 42.64         3.9 0.42            123            207 293 
 NOR  HE ES   3   2114 44.42                             119    1.39 2  233 236 
                                                                                
