 2017 12 7 2224 59.3 L   6.848 -73.149140.2  RSN 15 0.7 2.1LRSN                1
 GAP= 64        1.43       3.4     4.6  7.4 -0.2960E+01  0.5775E+01  0.7373E+00E
 Epicentro: LOS SANTOS - SANTANDER                                             3
 ACTION:UPD 18-01-04 13:18 OP:rebc STATUS:               ID:20171207222459 L   I
 OLDACT:REG 17-12-08 02:38 OP:dhb  STATUS:               ID:20171207221738     3
 2017-12-07-2218-00M.COL___491                                                 6
 STAT SP IPHASW D HRMM SECON CODA AMPLIT PERI AZIMU VELO AIN AR TRES W  DIS CAZ7
 BAR2 EZ IP     C 2225 18.39                             168   -0.0310 28.5 187 
 BAR2 EZ ES       2225 32.89                             168   -0.4210 28.5 187 
 BAR2 EZ I        2225 34.89        40.4 0.18            169           28.5 187 
 PAM  EZ IP     C 2225 21.30                             151    0.5610 73.6  42 
 PAM  EN ES       2225 38.07                             151    0.6410 73.6  42 
 PAM  EZ I        2225 40.45        12.3 0.36            153           73.6  42 
 PTB  HZ EP       2225 24.97                             131   -0.96 9  149 257 
 PTB  HN ES       2225 45.85                             131   -0.82 9  149 257 
 PTB  HZ I        2225 53.05        12.1 0.42            131            149 257 
 TAM  HZ IP     D 2225 26.71                             129   -0.05 9  157 107 
 SPBC HZ EP       2225 27.13                             127   -0.67 9  167 218 
 SPBC HN ES       2225 49.37                             127   -0.63 9  167 218 
 SPBC HZ I        2225 51.87        24.5 0.34            128            167 218 
 YPLC HZ EP       2225 29.04                             124   -0.18 9  182 152 
 YPLC HE ES       2225 52.84                             124    0.31 9  182 152 
 YPLC HZ I        2225 53.66        15.2 0.30            127            182 152 
 ZAR  HZ EP       2225 31.18                             121   -0.01 9  202 291 
 ZAR  HN ES       2225 56.28                             121    0.25 9  202 291 
 ZAR  HZ I        2226  2.54        13.2 0.56            122            202 291 
 TABC EZ EP       2225 35.85                             117    0.61 8  234 210 
 TABC EZ ES       2226  3.93                             117    0.69 8  234 210 
 TABC EZ I        2226  8.69        10.6 0.56            119            234 210 
 CHI  HZ EP       2225 36.52                             115   -0.77 8  254 195 
 CHI  HE ES       2226  6.33                             115   -0.56 8  254 195 
 CHI  HZ I        2226  9.84         6.1 0.72            117            254 195 
 ROSC BZ EP       2225 38.17                             115    0.52 8  257 210 
 ROSC BE ES       2226  7.84                             115    0.32 8  257 210 
 ROSC BZ I        2226 14.69        12.5 0.40            116            257 210 
 DRL03HZ EP       2225 40.31                             112    0.22 7  284 353 
 DRL03HE ES       2226 12.77                             112    0.90 7  284 353 
 GUY2CHZ EP       2225 43.59                             111    0.57 7  304 234 
 GUY2CHN ES       2226 18.94                             111    1.86 7  304 234 
 GUY2CHZ I        2226 23.47         4.3 0.24                           304 234 
 LL6C HZ EP       2225 43.56                             110   -0.64 7  320 358 
 LL6C HE ES   1   2226 18.00                             110   -1.19 5  320 358 
 LL6C HZ I        2226 29.20         9.8 0.60            111            320 358 
 PRA  HZ EP   2   2225 52.20                             105   -1.00 3  396 209 
 PRA  HE ES       2226 35.47                             105    0.27 6  396 209 
 PRA  HZ I        2226 38.31         5.7 0.28            107            396 209 
 ORTC HZ EP   1   2225 52.75                             105   -0.81 4  400 216 
                                                                                
