 2010  8 7 2041 49.3 L   6.765 -73.159153.8  RSN  4 0.2 0.9LRSN                1
 GAP=163        0.53       5.8    12.4  7.2  0.4472E+02 -0.4148E+02 -0.1052E+02E
 Epicentro: LOS SANTOS - SANTANDER                                             3
 ACTION:UP  10-09-07 10:53 OP:vdl  STATUS:               ID:20100807204149 L   I
 2010-08-07-2038-48S.COL___125                                                 6
 STAT SP IPHASW D HRMM SECON CODA AMPLIT PERI AZIMU VELO SNR AR TRES W  DIS CAZ7
 BTL  SZ EP   1   2042  9.68                             172    -0.2 7   21 325 
 BTL  SZ ES   1   2042 26.18                             172     0.3 7   21 325 
 BRR  HZ EP   2   2042 11.47                             154     0.1 5   72 302 
 BRR  HE ES   1   2042 28.50                             154    -0.1 7   72 302 
 RUS  HZ EP   1   2042 13.94                             146     0.3 7   97 175 
 RUS  HN ES   1   2042 32.31                             146    -0.3 7   97 175 
 RUS  HZ I        2042 33.86         1.6 0.21                            97 175 
 GUE  SZ EP   2   2042 14.93                             140    -0.2 5  121  12 
 GUE  SZ I        2042 43.21         0.8 0.20                           121  12 
                                                                                
