 2011  4 7 2133 33.9 L   6.733 -73.084142.7  RSN 14 0.3 2.6LRSN                1
 GAP=122        0.65       2.4     3.7  4.0 -0.7918E+00  0.2015E+01  0.2909E+01E
 Epicentro: JORDAN - SANTANDER                                                 3
 ACTION:UP  11-06-22 15:29 OP:REBC STATUS:               ID:20110407213333 L   I
 2011-04-07-2131-06S.COL___138                                                 6
 STAT SP IPHASW D HRMM SECON CODA AMPLIT PERI AZIMU VELO SNR AR TRES W  DIS CAZ7
 BAR2 SZ EP   1   2133 53.19                             172     0.1 8   19 215 
 BAR2 SZ ES   1   2134  8.05                             172     0.0 8   19 215 
 BAR2 SZ I        2134 10.35        78.8 0.21                            19 215 
 BTL  SZ EP   1   2133 53.60                             168     0.3 8   29 315 
 BTL  SZ ES   1   2134  8.18                             168    -0.2 8   29 315 
 GIR2 SZ EP   1   2133 53.51                             163     0.0 8   40 343 
 GIR2 SZ ES   1   2134  8.61                             163    -0.1 8   40 343 
 PAM  SZ EP   1   2133 56.12                             150     0.2 8   79  32 
 PAM  SN ES   2   2134 13.00                             150    -0.1 5   79  32 
 BRR  HZ EP   1   2133 55.23                             149    -0.1 8   81 301 
 BRR  HE ES   1   2134 12.39                             149     0.4 8   81 301 
 BRR  HZ I        2134 13.60        99.7 0.13                            81 301 
 GRA  SZ IP       2133 59.30                             135     0.010  131  14 
 GRA  SZ ES   1   2134 18.92                             135    -0.2 7  131  14 
 GRA  SZ I        2134 20.21        46.8 0.36                           131  14 
 YOP  SZ EP   1   2134  3.45                             127     0.7 7  169 154 
 YOP  SZ I        2134  4.23        21.3 0.40                           169 154 
 OCA  SZ EP   1   2134  2.30                             127    -0.5 7  169 351 
 OCA  SZ I        2134 29.73       113.9 0.05                           169 351 
 YOP  SE ES       2134 24.98                             127    -0.3 9  169 154 
 NOR  SZ EP   1   2134  9.14                             118    -0.5 6  236 237 
 NOR  SN ES   2   2134 37.54                             118     0.1 4  236 237 
 CHI  HZ EP   1   2134 11.10                             117     0.3 6  243 197 
 CHI  HE ES   1   2134 39.82                             117     0.1 6  243 197 
 CHI  HZ I        2134 44.42        17.2 0.53                           243 197 
 HEL  HZ EP   2   2134 13.86                             114    -0.6 4  277 258 
 HEL  HZ I        2134 51.96        20.4 0.30                           277 258 
 GUY  SZ EP   1   2134 18.22                             111     0.4 6  305 237 
 GUY  SN ES   2   2134 51.43                             111    -0.6 4  305 237 
 GUY  SZ I        2134 57.98        37.8 0.53                           305 237 
 RREF HZ EP   1   2134 20.17                             110     0.2 5  322 231 
 RREF HZ I        2135  2.54        22.9 0.23                           322 231 
 PRA  HZ EP   1   2134 26.37                             106    -0.6 5  389 211 
 PRA  HE ES   2   2135  8.03                             106    -0.3 3  389 211 
                                                                                
