 2012  8 7 2359  7.2 L   6.810 -73.121142.0  RSN  6 0.5 1.8LRSN                1
 GAP=139        0.93       6.4     8.5 12.3 -0.3671E+01 -0.1267E+02  0.3309E+02E
 Epicentro: LOS SANTOS - SANTANDER                                             3
 ACTION:UPD 12-09-10 11:55 OP:ep   STATUS:               ID:20120807235907 L   I
 2012-08-07-2357-44M.COL___212                                                 6
 STAT SP IPHASW D HRMM SECON CODA AMPLIT PERI AZIMU VELO AIN AR TRES W  DIS CAZ7
 BAR2 SZ EP       2359 26.33                             169   -0.1110 25.0 196 
 BAR2 SZ I        2359 26.43        18.9 0.36                          25.0 196 
 BAR2 SZ ES   3   2359 40.81                             169   -0.62 2 25.0 196 
 BRR  HZ EP       2359 28.26                             152    0.1810 73.1 297 
 BRR  HZ I        2359 28.66        26.9 0.12                          73.1 297 
 BRR  HN ES   1   2359 44.91                             152    0.56 7 73.1 297 
 PAM  SZ EP       2359 29.34                             152    0.4510 74.8  38 
 PAM  SZ I        2359 29.58         6.6 0.26                          74.8  38 
 PAM  SN ES   1   2359 45.98                             152    0.20 7 74.8  38 
 RUS  HZ EP       2359 30.32                             143   -0.3610  102 178 
 RUS  HE ES   3   2359 48.47                             143   -0.50 2  102 178 
 RUS  HZ I        2359 49.72         5.8 0.32                           102 178 
 PTB  HE ES   3   2359 54.79                             131   -0.38 2  151 259 
 PTB  HZ I        2359 56.23         8.3 0.16                           151 259 
 OCA  HN ES   1   2359 55.90                             130   -1.08 7  160 352 
 OCA  HZ I        2359 57.87        11.3 0.62                           160 352 
                                                                                
