 2010  3 7 2054 18.2 L   6.744 -73.126147.3  RSN  4 0.2 1.5LRSN                1
 GAP=235        0.38       6.7    13.8  6.6  0.7193E+02 -0.1109E+02  0.6152E+00E
 Epicentro: JORDAN - SANTANDER                                                 3
 ACTION:UP  10-08-24 09:52 OP:vdl  STATUS:               ID:20100307205419 L   I
 2010-03-07-2051-22S.COL___100                                                 6
 STAT SP IPHASW D HRMM SECON CODA AMPLIT PERI AZIMU VELO SNR AR TRES W  DIS CAZ7
 BAR2 SZ ES   3   2054 52.67                             173    -0.6 2   18 201 
 BRR  HZ EP   1   2054 39.87                             151     0.1 7   76 302 
 BRR  HN ES   2   2054 56.66                             151     0.0 5   76 302 
 BRR  HZ I        2054 57.77         7.5 0.49                            76 302 
 RUS  BZ EP   1   2054 41.60                             146    -0.1 7   94 177 
 RUS  BE ES   2   2055  0.24                             146     0.3 5   94 177 
 RUS  BZ I        2055  1.80         4.4 0.32                            94 177 
 CHI  HZ EP   2   2054 55.43                             118     0.0 4  243 196 
 CHI  HZ I        2054 58.64         1.8 0.36                           243 196 
 CHI  HE ES   3   2055 24.01                             118    -0.4 2  243 196 
                                                                                
