 2014  6 7 2047 53.0 L   6.706 -73.158143.9  RSN  5 0.3 1.8LRSN                1
 GAP=229        0.87       6.2     6.1  7.6 -0.2398E+01  0.2493E+01  0.7168E+01E
 Epicentro: VILLANUEVA - SANTANDER                                             3
 ACTION:UPD 14-07-01 22:51 OP:nd   STATUS:               ID:20140607204753 L   I
 OLDACT:UP  14-06-08 02:43 OP:cam  STATUS:               ID:20140607204002d    3
 OLDACT:DUP 14-06-08 02:41 OP:cam  STATUS:               ID:20140607204002d    3
 2014-06-07-2040-00M.COL___276                                                 6
 STAT SP IPHASW D HRMM SECON CODA AMPLIT PERI AZIMU VELO AIN AR TRES W  DIS CAZ7
 BAR2 SZ EP     D 2048 12.37                             175    0.1010 12.9 192 
 BAR2 SZ I        2048 12.50        17.6 0.42            165           12.9 192 
 BAR2 SZ ES       2048 26.83                             175   -0.4510 12.9 192 
 BRR  HZ EP       2048 14.27                             151    0.0410 75.6 306 
 BRR  HN ES       2048 31.14                             151    0.3710 75.6 306 
 BRR  HZ I        2048 31.57         8.3 0.30            149           75.6 306 
 RUS  HZ EP   1   2048 16.43                             146    0.55 7 90.3 175 
 PTB  HZ EP       2048 18.98                             132   -0.59 9  145 263 
 PTB  HN ES       2048 40.29                             132    0.02 9  145 263 
 PTB  HZ I        2048 45.89         6.7 0.18            129            145 263 
 SPBC HE ES       2048 42.18                             130    0.16 9  154 221 
 SPBC HE I        2048 50.38        15.2 0.28            126            154 221 
                                                                                
