 2015  3 7 2339 49.5 L   6.806 -73.182146.8  RSN  7 0.4 1.9LRSN                1
 GAP=132        0.97       3.5     4.3  6.9 -0.1171E+01  0.1081E+02 -0.5231E+01E
 Epicentro: ZAPATOCA - SANTANDER                                               3
 ACTION:UPD 15-04-30 16:24 OP:nd   STATUS:               ID:20150307233949 L   I
 OLDACT:UP  15-03-08 05:25 OP:mh   STATUS:               ID:20150307233748     3
 OLDACT:UP  15-03-08 05:25 OP:mh   STATUS:               ID:20150307233748     3
 OLDACT:UP  15-03-08 05:25 OP:mh   STATUS:               ID:20150307233748     3
 OLDACT:UP  15-03-08 05:24 OP:mh   STATUS:               ID:20150307233748     3
 OLDACT:REG 15-03-08 02:03 OP:mh   STATUS:               ID:20150307233748     3
 2015-03-07-2337-48M.COL___284                                                 6
 STAT SP IPHASW D HRMM SECON CODA AMPLIT PERI AZIMU VELO AIN AR TRES W  DIS CAZ7
 BAR2 EZ EP   1   2340  9.61                             170    0.33 7 23.6 180 
 BAR2 EZ ES       2340 24.86                             170    0.1710 23.6 180 
 BAR2 EZ I        2340 26.21        12.4 0.10            170           23.6 180 
 PAM  SZ EP       2340 12.57                             150    0.6010 79.5  42 
 PAM  SN ES       2340 29.04                             150   -0.4410 79.5  42 
 PAM  SZ I        2340 31.63        12.6 0.38            155           79.5  42 
 RUS  HZ EP       2340 13.24                             144   -0.2010  102 174 
 RUS  HN ES       2340 31.97                             144   -0.1310  102 174 
 RUS  HZ I        2340 33.01         9.2 0.24            146            102 174 
 PTB  HZ EP       2340 16.15                             133   -0.08 9  144 258 
 PTB  HN ES       2340 36.77                             133   -0.29 9  144 258 
 PTB  HZ I        2340 44.14         9.5 0.26            133            144 258 
 SPBC HZ EP       2340 18.31                             130    0.40 9  161 218 
 SPBC HN ES       2340 40.08                             130    0.02 9  161 218 
 SPBC HZ I        2340 47.54        14.3 0.22            131            161 218 
 ZAR  HZ EP       2340 20.76                             123   -0.87 9  200 292 
 ZAR  HN ES       2340 47.26                             123    0.59 9  200 292 
 SML  HZ EP   1   2340 25.67                             118   -0.29 6  241 336 
 SML  HN ES       2340 54.55                             118    0.17 8  241 336 
 SML  HZ I        2340 57.76        12.2 0.10            120            241 336 
                                                                                
