 2011 12 7 2002 12.9 L   6.800 -73.134146.6  RSN  5 0.3 1.5LRSN                1
 GAP=138        0.62       5.0     8.3  6.4  0.5174E+01 -0.9612E+01 -0.2307E+01E
 Epicentro: LOS SANTOS - SANTANDER                                             3
 ACTION:UPD 12-07-13 16:14 OP:ep   STATUS:               ID:20111207200212 L   I
 2011-12-07-2000-00M.COL___182                                                 6
 STAT SP IPHASW D HRMM SECON CODA AMPLIT PERI AZIMU VELO AIN AR TRES W  DIS CAZ7
 BAR2 SZ EP       20 2 32.53                             171   -0.0710 23.6 193 
 BAR2 SZ ES   1   20 2 47.81                             171   -0.19 7 23.6 193 
 GIR2 SZ EP       20 2 32.49                             167   -0.1510 31.5 348 
 GIR2 SZ ES   2   20 2 48.26                             167    0.19 5 31.5 348 
 BRR  HZ EP       20 2 33.82                             153   -0.3510 72.4 298 
 BRR  HZ I        20 2 34.95        13.1 0.31                          72.4 298 
 BRR  HN ES   2   20 2 51.58                             153    0.79 5 72.4 298 
 PAM  SZ EP       20 2 35.44                             151    0.3210 76.5  39 
 PAM  SN ES   3   20 2 52.14                             151   -0.34 2 76.5  39 
 RUS  HZ EP       20 2 36.85                             144    0.1610  101 177 
 RUS  HN ES   2   20 2 55.15                             144   -0.13 5  101 177 
 RUS  HZ I        20 2 56.64         2.6 0.46                           101 177 
                                                                                
