 2012  3 7 2351 33.8 L   5.971 -74.250 19.9  RSN  4 0.4 1.6LRSN                1
 GAP=143        0.87       3.2     4.3  7.2  0.5930E+00 -0.2333E+02 -0.6937E+00E
 ACTION:UP  12-03-31 23:18 OP:EP   STATUS:               ID:20120307235133 L   I
 2012-03-07-2350-00M.COL___191                                                 6
 STAT SP IPHASW D HRMM SECON CODA AMPLIT PERI AZIMU VELO SNR AR TRES W  DIS CAZ7
 PTB  HZ EP   1   2351 44.80                             104     0.0 8   67 340 
 PTB  HN ES   1   2351 53.19                             104    -0.2 8   67 340 
 NOR  SZ EP   1   2351 47.36                             101     0.3 8   82 237 
 NOR  SE ES   1   2351 57.09                             101    -0.4 8   82 237 
 RUS  HZ EP   1   2351 54.58                              56     0.1 7  130  94 
 RUS  HZ I   L    2351 54.98        10.4 0.18                    0.510  130  94 
 RUS  HN ES   1   2352  9.70                              56    -0.9 7  130  94 
 ZAR  HN ES   1   2352 21.10                              56     0.1 7  181 338 
                                                                                
