 2015 11 7 2144  4.3 L   6.876 -73.121142.3  RSN  4 0.5 1.8LRSN                1
 GAP=150        1.34       9.0     9.6 12.2  0.1063E+02  0.8292E+01 -0.3220E+02E
 Epicentro: LOS SANTOS - SANTANDER                                             3
 ACTION:UPD 15-12-28 16:09 OP:cam  STATUS:               ID:20151107214404 L   I
 OLDACT:UP  15-11-08 11:36 OP:mh   STATUS:               ID:20151107213751     3
 OLDACT:UP  15-11-08 11:36 OP:mh   STATUS:               ID:20151107213751     3
 OLDACT:REG 15-11-08 06:16 OP:mh   STATUS:               ID:20151107213751     3
 2015-11-07-2137-51M.COL___307                                                 6
 STAT SP IPHASW D HRMM SECON CODA AMPLIT PERI AZIMU VELO AIN AR TRES W  DIS CAZ7
 BAR2 EZ EP       2144 22.99                             167   -0.7210 32.1 192 
 BAR2 EZ ES       2144 38.48                             167   -0.3910 32.1 192 
 BAR2 EZ I        2144 39.53        10.4 0.16            170           32.1 192 
 PAM  EZ EP       2144 26.26                             153    0.6010 69.3  42 
 PAM  EN ES       2144 42.33                             153   -0.0110 69.3  42 
 PAM  EZ I        2144 45.66         6.5 0.56            155           69.3  42 
 BRR  HZ EP       2144 25.54                             152    0.5410 70.1 291 
 BRR  HN ES       2144 41.61                             152    0.4510 70.1 291 
 BRR  HZ I        2144 46.86        23.0 0.44            152           70.1 291 
 SML  HN ES       2145  7.17                             117   -0.72 8  237 334 
                                                                                
