 2013  5 7 2236 41.6 L   6.798 -73.133146.7  RSN 18 0.5 2.8LRSN 3.1WRSN        1
 SPEC AVERAGE  MO 13.7 ST  1.6 OM  1.8 f0 4.83 R0.6263 AL 2.13 WI 28.7 MW  3.1 3
 SPEC SD       MO  0.1 ST  1.2 OM  0.7 f0 1.16 R0.1873 AL      WI      MW  0.1 3
 GAP= 66        1.04       2.8     3.6  5.5  0.2270E-01  0.3681E+01  0.2981E+01E
 Epicentro: LOS SANTOS - SANTANDER                                             3
 SPEC HEL HH N MO 13.7 ST0.241 OM  1.0 f0 2.99 R0.9405 AL 1.60 WI 31.8 MW  3.1 3
 SPEC HEL HH N T223720 K 0.000 GD  309 VP 7.60 DE 3.20 Q0300.0 QA 0.60 VS 4.20 3
 SPEC PRA HH Z MO 13.7 ST  1.0 OM  0.9 f0 4.72 R0.5958 AL 2.01 WI 37.7 MW  3.1 3
 SPEC PRA HH Z T223732 K 0.000 GD  419 VP 7.60 DE 3.20 Q0300.0 QA 0.60 VS 4.20 3
 SPEC NOR HH N MO 13.9 ST  3.5 OM  1.3 f0 5.99 R0.4694 AL 2.51 WI 31.3 MW  3.2 3
 SPEC NOR HH N T223714 K 0.000 GD  277 VP 7.60 DE 3.20 Q0300.0 QA 0.60 VS 4.20 3
 SPEC BRR HH Z MO 13.7 ST  1.7 OM  1.3 f0 5.63 R0.4995 AL 2.42 WI 14.1 MW  3.1 3
 SPEC BRR HH Z T2237 0 K 0.000 GD  163 VP 7.60 DE 3.20 Q0300.0 QA 0.60 VS 4.20 3
 ACTION:UPD 13-06-20 09:48 OP:ep   STATUS:               ID:20130507223641 L   I
 2013-05-07-2230-00M.COL___256                                                 6
 STAT SP IPHASW D HRMM SECON CODA AMPLIT PERI AZIMU VELO AIN AR TRES W  DIS CAZ7
 BAR2 SZ IP     D 2237  1.55                             171    0.2310 23.4 194 
 BAR2 SZ ES   1   2237 16.39                             171   -0.32 7 23.4 194 
 BAR2 SZ I        2237 21.15        55.6 0.12            169           23.4 194 
 GIR2 SZ EP     C 2237  1.62                             167    0.2510 31.8 348 
 GIR2 SZ ES   1   2237 17.09                             167    0.28 7 31.8 348 
 GIR2 SZ I        2237 18.84        83.7 0.14            166           31.8 348 
 BRR  HZ EP     C 2237  3.41                             152    0.5110 72.6 298 
 BRR  HN ES       2237 20.68                             152    1.1510 72.6 298 
 BRR  HN I        2237 21.73       319.3 0.20            150           72.6 298 
 PAM  SZ EP   1 C 2237  4.33                             151    0.49 7 76.6  39 
 PAM  SN ES       2237 20.60                             151   -0.6110 76.6  39 
 PAM  SN I        2237 22.97        55.1 0.44            154           76.6  39 
 RUS  HZ EP     C 2237  5.38                             144   -0.0110  100 177 
 RUS  HN ES       2237 23.55                             144   -0.4210  100 177 
 RUS  HZ I        2237 25.13        46.3 0.30            145            100 177 
 PTB  HZ EP   1   2237  8.01                             132   -0.73 7  149 259 
 PTB  HN ES       2237 29.47                             132   -0.46 9  149 259 
 PTB  HZ I        2237 31.55        85.1 0.14            131            149 259 
 TAM  HZ EP   1   2237  9.69                             131    0.50 7  154 105 
 TAM  HN ES   2   2237 30.01                             131   -0.72 5  154 105 
 TAM  HN I        2237 32.17        43.0 0.24            134            154 105 
 OCA  HZ EP   1   2237  9.98                             130   -0.01 7  161 353 
 OCA  HN ES       2237 31.82                             130   -0.34 9  161 353 
 YOP  SZ EP   1   2237 11.38                             127   -0.22 7  178 154 
 YOP  SN ES   1   2237 35.68                             127    0.66 7  178 154 
 YOP  SZ I        2237 38.71        43.7 0.20            129            178 154 
 ZAR  HZ EP   1   2237 14.14                             122   -0.09 6  205 292 
 ZAR  HN ES   1   2237 39.73                             122    0.04 6  205 292 
 ZAR  HZ I        2237 46.55        85.2 0.18            122            205 292 
 NOR  HZ EP   1   2237 17.38                             119   -0.09 6  236 235 
 NOR  HN ES       2237 45.57                             119    0.10 8  236 235 
 NOR  HZ I        2237 49.72        49.9 0.20            119            236 235 
 SML  HZ EP   1   2237 18.10                             118   -0.24 6  245 335 
 SML  HN ES   1   2237 45.86                             118   -1.16 6  245 335 
 SML  HZ I        2237 50.97        76.6 0.10            118            245 335 
 CHI  HZ EP   1   2237 19.69                             117    0.35 6  249 196 
 CHI  HN ES       2237 48.68                             117   -0.12 8  249 196 
 CHI  HN I        2237 51.12        50.2 0.36            118            249 196 
 ROSC BZ EP   4   2237 21.05                             117    1.25 0  253 211 
 ROSC BN ES   1   2237 48.84                             117   -0.78 6  253 211 
 HEL  HZ EP   1   2237 22.60                             115    0.62 6  273 256 
 HEL  HN ES   2   2237 53.40                             115   -0.10 4  273 256 
 HEL  HN I        2238  3.20        34.6 0.56            115            273 256 
 URE  HZ EP   4   2237 21.40                             114   -1.45 0  285 292 
 URE  HN ES   4   2237 53.61                             114   -1.43 0  285 292 
 URE  HN I        2238  5.45        94.8 0.22            114            285 292 
 PRA  HZ EP   1   2237 35.18                             107   -0.01 4  393 210 
 PRA  HN ES   1   2238 16.69                             107   -0.31 4  393 210 
 PRA  HZ I        2238 20.77        23.1 0.62            107            393 210 
 SJC  HZ EP   4   2237 35.25                             106   -2.03 0  410 327 
 SJC  HN ES   4   2238 16.30                             106   -4.43 0  410 327 
 SJC  HN I        2238 20.30        21.3 0.44            106            410 327 
                                                                                
