 2014 11 7 2353 35.5 L   6.798 -73.144146.0  RSN 14 0.4 2.0LRSN                1
 GAP=137        0.87       2.9     3.9  5.0 -0.4463E+01  0.1910E+01  0.4977E+01E
 Epicentro: LOS SANTOS - SANTANDER                                             3
 ACTION:UPD 14-12-19 15:40 OP:nd   STATUS:               ID:20141107235335 L   I
 OLDACT:DUP 14-11-08 11:07 OP:spq  STATUS:               ID:20141107234745d    3
 2014-11-07-2347-44M.COL___289                                                 6
 STAT SP IPHASW D HRMM SECON CODA AMPLIT PERI AZIMU VELO AIN AR TRES W  DIS CAZ7
 BAR2 SZ EP       2353 55.25                             171    0.1410 23.1 191 
 BAR2 SZ ES   1   2354 10.10                             171   -0.34 7 23.1 191 
 BAR2 SZ I        2354 11.30        20.6 0.23            168           23.1 191 
 BRR  HZ EP       2353 57.01                             153    0.3610 71.5 299 
 BRR  HN ES       2354 14.06                             153    0.8810 71.5 299 
 BRR  HZ I        2354 14.96        16.5 0.23            148           71.5 299 
 PAM  SZ EP       2353 58.03                             151    0.3310 77.5  39 
 PAM  SN ES       2354 14.96                             151   -0.0910 77.5  39 
 PAM  SZ I        2354 17.28        25.7 0.42            153           77.5  39 
 RUS  HZ EP       2353 59.18                             144   -0.0310  100 176 
 RUS  HN ES   1   2354 17.90                             144    0.16 7  100 176 
 RUS  HZ I        2354 18.97        14.5 0.19            145            100 176 
 PTB  HZ EP   1   2354  1.84                             132   -0.62 7  148 259 
 PTB  HN ES       2354 22.96                             132   -0.56 9  148 259 
 PTB  HZ I        2354 24.90        11.5 0.14            129            148 259 
 OCA  HZ EP   1   2354  3.39                             130   -0.42 7  161 353 
 OCA  HN ES       2354 25.41                             130   -0.52 9  161 353 
 OCA  HZ I        2354 28.96        12.7 0.56            129            161 353 
 SPBC HZ EP       2354  3.72                             129   -0.25 9  163 219 
 SPBC HE ES       2354 26.00                             129   -0.20 9  163 219 
 SPBC HZ I        2354 33.18        15.7 0.20            128            163 219 
 NOR  HZ EP       2354 10.77                             119   -0.43 8  235 235 
 NOR  HN ES       2354 39.54                             119    0.46 8  235 235 
 NOR  HZ I        2354 46.97         9.4 0.16            117            235 235 
 CHI  HZ EP       2354 13.33                             117    0.18 8  248 195 
 CHI  HE ES       2354 42.15                             117   -0.39 8  248 195 
 CHI  HZ I        2354 46.14         6.9 0.48            117            248 195 
 GUY2CHZ EP   1   2354 19.73                             112    0.65 5  301 235 
 GUY2CHE ES   1   2354 53.31                             112    0.21 5  301 235 
 GUY2CHZ I        2355  5.59         4.5 0.44                           301 235 
 TOL  SZ EP   1   2354 24.20                             109    0.48 5  343 225 
 TOL  SN ES   1   2355  1.36                             109   -0.00 5  343 225 
 TOL  SZ I        2355  8.70        11.7 0.56            109            343 225 
 MON  HZ EP   4   2354 22.43                             109   -2.08 0  354 308 
 MON  HN ES   4   2355  0.44                             109   -2.33 0  354 308 
 MON  HZ I        2355 16.52         1.7 0.50            108            354 308 
 PRA  HZ EP       2354 29.01                             107    0.04 6  392 210 
 PRA  HN ES   1   2355 10.57                             107   -0.14 4  392 210 
 PRA  HZ I        2355 17.45         3.8 0.54            106            392 210 
 ORTC HZ EP       2354 29.43                             106    0.05 6  395 216 
 ORTC HN ES       2355 11.66                             106    0.23 6  395 216 
 ORTC HZ I        2355 16.50         3.4 0.30            106            395 216 
                                                                                
