 2012  1 7 2004 44.6 L   6.776 -73.130142.8  RSN  6 0.2 1.6LRSN                1
 GAP=140        0.60       3.7     3.9  5.9 -0.3397E+01  0.1115E-01  0.8210E+01E
 Epicentro: LOS SANTOS - SANTANDER                                             3
 ACTION:UP  12-02-03 08:15 OP:REBC STATUS:               ID:20120107200444 L   I
 2012-01-07-2000-00M.COL___186                                                 6
 STAT SP IPHASW D HRMM SECON CODA AMPLIT PERI AZIMU VELO SNR AR TRES W  DIS CAZ7
 GIR2 SZ EP   1   20 5  3.71                             166    -0.3 7   34 348 
 BRR  HZ EP       20 5  5.50                             151    -0.110   74 300 
 BRR  HZ I        20 5  5.69        17.8 0.15                            74 300 
 BRR  HE ES   1   20 5 22.42                             151     0.5 7   74 300 
 PAM  SZ EP       20 5  6.69                             150     0.210   78  37 
 PAM  SN ES       20 5 23.50                             150    -0.210   78  37 
 RUS  HZ EP   1   20 5  8.04                             144     0.2 7   98 177 
 RUS  HE ES   1   20 5 25.95                             144     0.0 7   98 177 
 RUS  HZ I        20 5 27.87         3.5 0.07                            98 177 
 PTB  HE ES   1   20 5 32.03                             131    -0.3 7  149 260 
 CHI  HZ EP       20 5 21.92                             117     0.0 8  247 196 
 CHI  HZ I        20 5 25.14         1.7 0.46                           247 196 
                                                                                
