 2013  8 7 2010 49.9 L   6.779 -73.157149.2  RSN  5 0.3 1.2LRSN                1
 GAP=136        0.82       5.4     5.1  6.5  0.5917E+01 -0.2536E+01 -0.5743E+01E
 Epicentro: LOS SANTOS - SANTANDER                                             3
 ACTION:UPD 14-01-14 09:00 OP:ep   STATUS:               ID:20130807201049 L   I
 OLDACT:UP  13-08-07 22:03 OP:cam  STATUS:               ID:20130807200959     3
 OLDACT:REG 13-08-07 21:47 OP:cam  STATUS:               ID:20130807200959     3
 2013-08-07-2009-59M.COL___270                                                 6
 STAT SP IPHASW D HRMM SECON CODA AMPLIT PERI AZIMU VELO AIN AR TRES W  DIS CAZ7
 BAR2 SZ EP   1   2011  9.92                             172    0.05 7 20.8 188 
 BAR2 SZ ES       2011 24.87                             172   -0.6010 20.8 188 
 BAR2 SZ I        2011 26.25         6.6 0.18            168           20.8 188 
 BRR  HZ EP       2011 11.64                             153    0.2410 71.2 301 
 BRR  HN ES       2011 28.54                             153    0.3610 71.2 301 
 PAM  SZ EP       2011 12.57                             151   -0.0410 80.0  39 
 RUS  HZ EP       2011 13.68                             145   -0.1310 98.3 175 
 RUS  HN ES       2011 32.93                             145    0.4610 98.3 175 
 RUS  HZ I        2011 33.55         1.4 0.42            144           98.3 175 
 PTB  HZ EP       2011 16.76                             133   -0.21 9  146 260 
 PTB  HN ES       2011 37.96                             133   -0.15 9  146 260 
 PTB  HZ I        2011 43.05         2.4 0.40            131            146 260 
                                                                                
