 2015  5 7 2139 51.4 L   6.797 -73.133138.3  RSN  8 0.4 1.7LRSN                1
 GAP=138        0.88       3.1     4.3  6.3 -0.7841E-01  0.9743E+01 -0.1966E+00E
 Epicentro: LOS SANTOS - SANTANDER                                             3
 ACTION:UPD 15-09-10 22:02 OP:cam  STATUS:               ID:20150507213951 L   I
 OLDACT:REG 15-05-08 04:10 OP:ak   STATUS:               ID:20150507213746     3
 2015-05-07-2137-46M.COL___282                                                 6
 STAT SP IPHASW D HRMM SECON CODA AMPLIT PERI AZIMU VELO AIN AR TRES W  DIS CAZ7
 BAR2 EZ EP   1   2140 10.13                             170    0.03 7 23.3 194 
 BAR2 EZ ES       2140 24.20                             170   -0.5110 23.3 194 
 BAR2 EZ I        2140 26.09        12.5 0.32            169           23.3 194 
 BRR  HZ IP     C 2140 11.79                             151   -0.0010 72.6 298 
 BRR  HN ES       2140 28.06                             151    0.3310 72.6 298 
 BRR  HZ I        2140 29.54        13.5 0.27            150           72.6 298 
 PAM  SZ EP       2140 12.90                             150    0.1410 76.8  39 
 PAM  SN ES       2140 29.69                             150    0.2510 76.8  39 
 PAM  SZ I        2140 31.68         9.6 0.15            152           76.8  39 
 RUS  HZ EP   2   2140 14.19                             142   -0.17 5  100 177 
 RUS  HN ES       2140 32.21                             142   -0.0810  100 177 
 RUS  HZ I        2140 34.22         6.9 0.18            143            100 177 
 ZAR  HN ES       2140 49.13                             120    0.59 8  205 292 
 ZAR  HZ I        2140 53.75        12.0 0.25            121            205 292 
 NOR  HZ EP   1   2140 26.62                             117   -0.15 6  236 235 
 NOR  HE ES       2140 53.85                             117   -0.54 8  236 235 
 SML  HZ EP   2   2140 27.18                             116   -0.50 4  245 335 
 SML  HE ES       2140 55.38                             116   -0.63 8  245 335 
 CHI  HZ EP   2   2140 28.73                             115    0.07 4  249 195 
 CHI  HN ES   1   2140 58.75                             115    0.99 6  249 195 
 CHI  HZ I        2141  1.07         1.6 0.31            116            249 195 
                                                                                
