 2011 11 7 2107 18.0 L   6.802 -73.094139.8  RSN  4 0.2 0.9LRSN                1
 GAP=143        0.54       4.6    11.9  6.9 -0.3291E+02  0.2093E+02 -0.4152E+01E
 Epicentro: LOS SANTOS - SANTANDER                                             3
 ACTION:UP  12-07-13 16:08 OP:ep   STATUS:               ID:20111107210719 L   I
 OLDACT:UPD 12-07-12 22:26 OP:ep   STATUS:               ID:20111107210719 L   3
 2011-11-07-2105-07S.COL___175                                                 6
 STAT SP IPHASW D HRMM SECON CODA AMPLIT PERI AZIMU VELO AIN AR TRES W  DIS CAZ7
 BAR2 SZ ES   2   21 7 51.79                             169    0.04 5 25.1 203 
 PAM  SZ EP       21 7 39.67                             151    0.2810 73.7  36 
 PAM  SN ES   1   21 7 55.77                             151   -0.28 7 73.7  36 
 BRR  HZ EP   2   21 7 38.83                             149    0.00 5 76.2 296 
 RUS  HZ EP       21 7 40.95                             142   -0.2410  101 179 
 RUS  HE ES   1   21 7 59.43                             142    0.18 7  101 179 
 RUS  HZ I        21 8  1.25         1.4 0.28                           101 179 
                                                                                
