 2014  6 7 2106 47.4 L   6.830 -73.130147.4  RSN 18 0.5 2.9LRSN                1
 GAP= 71        1.22       3.4     3.4  5.5 -0.1116E+01  0.5641E+01  0.2655E+01E
 Epicentro: LOS SANTOS - SANTANDER                                             3
 ACTION:UPD 14-07-01 22:51 OP:nd   STATUS:               ID:20140607210647 L   I
 OLDACT:UP  14-06-08 02:51 OP:cam  STATUS:               ID:20140607210000     3
 OLDACT:UP  14-06-08 02:51 OP:cam  STATUS:               ID:20140607210000     3
 OLDACT:UP  14-06-08 02:50 OP:cam  STATUS:               ID:20140607210000     3
 OLDACT:REG 14-06-08 02:15 OP:cam  STATUS:               ID:20140607210000     3
 2014-06-07-2100-00M.COL___276                                                 6
 STAT SP IPHASW D HRMM SECON CODA AMPLIT PERI AZIMU VELO AIN AR TRES W  DIS CAZ7
 BAR2 SZ IP     C 21 7  7.13                             169   -0.2210 26.9 192 
 BAR2 SZ ES       21 7 22.55                             169   -0.3210 26.9 192 
 BAR2 SZ I        21 7 23.84       102.5 0.24            168           26.9 192 
 BRR  HZ IP     C 21 7  9.10                             153    0.3310 71.2 296 
 BRR  HE ES       21 7 26.23                             153    0.8310 71.2 296 
 BRR  HZ I        21 7 29.96        60.0 0.42            153           71.2 296 
 PAM  SZ EP     C 21 7  9.89                             152    0.2710 73.8  40 
 PAM  SN ES       21 7 27.32                             152    0.4010 73.8  40 
 PAM  SZ I        21 7 29.30       131.7 0.50            151           73.8  40 
 RUS  HZ EP       21 7 11.03                             143   -0.5510  104 177 
 RUS  HE ES       21 7 29.91                             143   -0.5010  104 177 
 RUS  HZ I        21 7 31.17        41.8 0.34            142            104 177 
 PTB  HZ EP       21 7 14.13                             132   -0.62 9  150 258 
 PTB  HN ES       21 7 35.04                             132   -1.02 9  150 258 
 PTB  HZ I        21 7 40.94        84.7 0.26            131            150 258 
 TAM  HZ IP     D 21 7 15.28                             131    0.10 9  154 106 
 TAM  HZ I        21 7 36.06        47.9 0.42            129            154 106 
 TAM  HE ES       21 7 37.10                             131    0.28 9  154 106 
 SPBC HZ EP       21 7 16.16                             129   -0.25 9  167 219 
 SPBC HN ES       21 7 39.07                             129    0.07 9  167 219 
 SPBC HZ I        21 7 43.16       101.1 0.22            128            167 219 
 ZAR  HZ EP       21 7 19.74                             123   -0.29 9  204 291 
 ZAR  HE ES       21 7 45.42                             123   -0.03 9  204 291 
 ZAR  HZ I        21 7 51.34        62.8 0.32            122            204 291 
 NOR  HZ EP       21 7 23.09                             118   -0.53 8  238 234 
 NOR  HN ES       21 7 51.53                             118   -0.30 8  238 234 
 NOR  HZ I        21 7 58.30        44.3 0.40            118            238 234 
 SML  HZ EP       21 7 23.52                             118   -0.40 8  241 335 
 SML  HN ES       21 7 52.11                             118   -0.26 8  241 335 
 SML  HZ I        21 7 54.25        46.1 0.36            117            241 335 
 ROSC BZ EP       21 7 26.75                             117    0.70 8  256 211 
 HEL  HZ EP       21 7 28.62                             115    0.61 8  275 255 
 HEL  HN ES       21 8  0.18                             115    0.53 8  275 255 
 HEL  HZ I        21 8  5.76        34.4 0.36            114            275 255 
 CVER SZ EP   4   21 7 29.54                             115    1.25 0  276 202 
 GUY2CHZ EP       21 7 32.02                             112    0.52 7  304 234 
 GUY2CHN ES       21 8  5.57                             112   -0.29 7  304 234 
 GUY2CHZ I        21 8 13.95        57.0 0.74                           304 234 
 RREF HZ EP   4   21 7 35.20                             111    1.15 0  325 229 
 CBOC HZ EP       21 7 35.08                             110    0.35 7  336 252 
 DBB  SZ EP       21 7 35.35                             110    0.20 7  341 274 
 TOL  SZ EP       21 7 36.68                             109    0.51 6  347 224 
 TOL  SZ ES       21 8 16.09                             109    1.92 6  347 224 
 TOL  SZ I        21 8 21.09        94.7 0.36            109            347 224 
 SDV  BZ EP   4   21 7 36.38                             109   -0.77 0  357  50 
 ANIL HZ EP   4   21 7 38.85                             108    1.13 0  361 224 
 PRA  HZ EP       21 7 41.02                             106   -0.43 6  396 210 
 PRA  HE ES       21 8 23.70                             106    0.13 6  396 210 
 PRA  HZ I        21 8 28.95        41.2 0.36            106            396 210 
 ORTC HZ EP       21 7 41.02                             106   -0.82 6  399 216 
 ORTC HE ES       21 8 24.65                             106    0.37 6  399 216 
 ORTC HZ I        21 8 31.83        25.8 0.24            106            399 216 
 SJC  HZ EP   4   21 7 41.42                             106   -1.43 0  407 327 
                                                                                
