 2017  6 7 2048 40.1 L   7.299 -73.995 70.6  RSN  5 0.4 1.2LRSN                1
 GAP=198        1.06       5.9     4.3  8.5  0.1599E+02  0.9537E+01  0.8740E+01E
 Epicentro: PUERTO WILCHES - SANTANDER                                         3
 ACTION:UPD 17-09-14 16:50 OP:jn   STATUS:               ID:20170607204840 L   I
 OLDACT:DUP 17-06-08 03:08 OP:dani STATUS:               ID:20170607203742d    3
 2017-06-07-2038-00M.COL___365                                                 6
 STAT SP IPHASW D HRMM SECON CODA AMPLIT PERI AZIMU VELO AIN AR TRES W  DIS CAZ7
 BRR  HZ EP       2048 50.64                             149   -0.5910 37.8 124 
 BRR  HE ES       2049  0.05                             149    0.1610 37.8 124 
 BRR  HZ I        2049  0.37        15.8 0.41            150           37.8 124 
 ZAR  HZ EP       2048 56.77                             120    0.1310 97.6 283 
 ZAR  HN ES       2049  9.81                             120    0.2910 97.6 283 
 ZAR  HZ I        2049 12.24         5.0 0.26            121           97.6 283 
 PTB  HZ EP       2048 56.12                             120   -0.5910 98.3 211 
 PTB  HN ES       2049  9.55                             120   -0.1110 98.3 211 
 PTB  HZ I        2049 12.10         3.0 0.14            120           98.3 211 
 URE  HE ES       2049 25.90                             105    0.18 9  177 287 
 RUS  HZ EP       2049  7.21                             105   -0.12 9  185 147 
 RUS  HN ES       2049 29.41                             105    0.85 9  185 147 
 RUS  HZ I        2049 30.74         1.5 0.44            106            185 147 
                                                                                
