 2013  9 7 2232 36.0 L   6.733 -73.192145.0  RSN  5 0.2 1.6LRSN                1
 GAP=227        0.49       3.8     3.6  4.0  0.6886E+01  0.1699E+01  0.6193E+00E
 Epicentro: VILLANUEVA - SANTANDER                                             3
 ACTION:UPD 13-10-22 09:21 OP:ep   STATUS:               ID:20130907223236 L   I
 OLDACT:REG 13-09-07 21:32 OP:nd   STATUS:               ID:20130907223000     3
 2013-09-07-2230-00M.COL___268                                                 6
 STAT SP IPHASW D HRMM SECON CODA AMPLIT PERI AZIMU VELO AIN AR TRES W  DIS CAZ7
 BAR2 SZ EP       2232 55.29                             174   -0.1710 15.6 176 
 BAR2 SZ ES       2233 10.45                             174   -0.1510 15.6 176 
 BAR2 SZ I        2233 11.91         9.5 0.24            174           15.6 176 
 BRR  HZ EP       2232 57.02                             153   -0.0710 70.8 306 
 BRR  HN ES       2233 13.74                             153    0.2310 70.8 306 
 BRR  HZ I        2233 18.33         7.3 0.26            153           70.8 306 
 RUS  HZ EP       2232 59.25                             146    0.0110 93.7 173 
 RUS  HN ES       2233 17.49                             146    0.1510 93.7 173 
 RUS  HZ I        2233 19.39         3.6 0.30            149           93.7 173 
 PTB  HZ EP       2233  2.59                             133    0.21 9  141 261 
 PTB  HN ES       2233 22.71                             133   -0.21 9  141 261 
 PTB  HZ I        2233 25.72         4.2 0.16            135            141 261 
 SML  HZ EP   4   2233 16.56                             117    3.42 0  248 337 
 SML  HN ES   4   2233 39.18                             117   -2.89 0  248 337 
 SML  HZ I        2233 42.58         7.5 0.10            119            248 337 
                                                                                
