 2010 10 7 2155 28.8 L   6.809 -73.135150.1  RSN  6 0.3 1.8LRSN                1
 GAP=246        0.45       6.4    10.2  9.2 -0.2353E+02 -0.3670E+02  0.4672E+02E
 Epicentro: LOS SANTOS - SANTANDER                                             3
 ACTION:UP  11-02-18 11:08 OP:tino STATUS:               ID:20101007215528 L   I
 2010-10-07-2151-36S.COL___122                                                 6
 STAT SP IPHASW D HRMM SECON CODA AMPLIT PERI AZIMU VELO SNR AR TRES W  DIS CAZ7
 BTL  SZ EP   2   2155 49.28                             172     0.4 9   19 310 
 BRR  HZ EP   2   2155 50.10                             153    -0.3 9   72 297 
 BRR  HE ES   1   2156  7.29                             153     0.013   72 297 
 BRR  HZ I        2156  9.32        11.9 0.23                            72 297 
 NOR  SZ EP   2   2156  5.38                             119     0.5 7  236 235 
 CHI  HZ EP   2   2156  6.62                             118    -0.2 7  250 195 
 CHI  HE ES   2   2156 36.35                             118    -0.2 7  250 195 
 CHI  HZ I        2156 45.78         3.1 0.30                           250 195 
 RREF HN ES   2   2156 51.48                             111    -0.1 6  323 229 
 RREF HZ I        2157  2.70         2.7 0.33                           323 229 
 PRA  HZ EP       2156 22.44                             107    -0.210  393 210 
 PRA  HN ES   2   2157  5.05                             107     0.5 5  393 210 
                                                                                
