 2016 11 7 2331 33.8 L   6.787 -73.189132.0  RSN 10 0.5 2.0LRSN                1
 GAP=153        0.84       3.4     3.6  6.1 -0.3077E+01  0.6299E+00  0.9260E+01E
 Epicentro: ZAPATOCA - SANTANDER                                               3
 ACTION:UPD 17-10-26 21:05 OP:lp   STATUS:               ID:20161107233133 L   I
 OLDACT:REG 16-11-08 03:31 OP:cog  STATUS:               ID:20161107232749     3
 2016-11-07-2328-00M.COL___352                                                 6
 STAT SP IPHASW D HRMM SECON CODA AMPLIT PERI AZIMU VELO AIN AR TRES W  DIS CAZ7
 BRR  HZ EP       2331 53.56                             152    0.3010 67.7 302 
 BRR  HN ES       2332  8.78                             152    0.3410 67.7 302 
 BRR  HZ I        2332 15.17        26.2 0.18            151           67.7 302 
 PAM  EZ EP       2331 54.52                             147   -0.3110 81.6  42 
 PAM  EN ES       2332 11.34                             147    0.0910 81.6  42 
 PAM  EZ I        2332 12.51        16.9 0.08            152           81.6  42 
 PTB  HZ EP       2331 58.37                             130   -0.82 9  143 259 
 PTB  HN ES       2332 18.58                             130   -0.43 9  143 259 
 PTB  HZ I        2332 21.65        19.0 0.12            132            143 259 
 SPBC HZ EP       2332  1.07                             127    0.21 9  159 218 
 SPBC HE ES       2332 22.19                             127    0.21 9  159 218 
 SPBC HZ I        2332 25.93        18.8 0.14            130            159 218 
 ZAR  HZ EP       2332  4.84                             120   -0.12 9  200 293 
 ZAR  HN ES       2332 29.59                             120    0.32 9  200 293 
 ZAR  HZ I        2332 38.70        18.4 0.27            122            200 293 
 NOR  HZ EP       2332  8.26                             116    0.03 8  230 234 
 NOR  HE ES       2332 35.09                             116   -0.01 8  230 234 
 CHI  HZ EP       2332 10.36                             115   -0.11 8  246 194 
 CHI  HN ES       2332 39.34                             115    0.26 8  246 194 
 CHI  HZ I        2332 42.27         3.3 0.38            118            246 194 
 ROSC BZ EP   3   2332 12.84                             115    2.06 2  249 210 
 ROSC BN ES   3   2332 39.97                             115    0.34 2  249 210 
 URE  HZ EP   3   2332 16.09                             112    2.31 2  280 293 
 PRA  HZ EP       2332 26.16                             105   -0.28 6  388 209 
 PRA  HE ES   4   2333  5.58                             105   -1.92 0  388 209 
                                                                                
