 2016 12 7 2007 12.3 L   6.281 -73.704106.3  RSN 23 0.6 2.8LRSN                1
 GAP= 38        1.11       2.5     2.9  6.1 -0.7915E+00  0.7401E+01  0.1830E+01E
 Epicentro: SANTA HELENA DEL OPON - SANTANDER                                  3
 ACTION:UPD 17-01-11 20:13 OP:rebc STATUS:               ID:20161207200712 L   I
 OLDACT:UP  16-12-08 03:46 OP:dani STATUS:               ID:20161207195750     3
 OLDACT:UP  16-12-08 03:46 OP:dani STATUS:               ID:20161207195750     3
 OLDACT:UP  16-12-08 03:39 OP:dani STATUS:               ID:20161207195750     3
 OLDACT:UP  16-12-08 03:38 OP:dani STATUS:               ID:20161207195750     3
 OLDACT:UP  16-12-08 03:36 OP:dani STATUS:               ID:20161207195750     3
 OLDACT:UP  16-12-08 03:35 OP:dani STATUS:               ID:20161207195750     3
 OLDACT:UP  16-12-08 03:35 OP:dani STATUS:               ID:20161207195750     3
 OLDACT:REG 16-12-08 02:35 OP:dani STATUS:               ID:20161207195750     3
 2016-12-07-1958-00M.COL___369                                                 6
 STAT SP IPHASW D HRMM SECON CODA AMPLIT PERI AZIMU VELO AIN AR TRES W  DIS CAZ7
 BAR2 EZ EP     C 20 7 29.69                             145    0.2610 67.2  59 
 BAR2 EZ ES       20 7 43.12                             145    0.3510 67.2  59 
 BAR2 EZ I        20 7 44.08      1014.4 0.48            149           67.2  59 
 RUS  HZ EP     D 20 7 30.62                             140   -0.1910 81.1 122 
 RUS  HN ES       20 7 45.25                             140    0.0210 81.1 122 
 RUS  HZ I        20 7 46.05       115.9 0.26            141           81.1 122 
 PTB  HZ EP     C 20 7 29.74                             137   -0.9610 88.0 289 
 PTB  HN ES   2   20 7 43.56                             137   -1.48 5 88.0 289 
 PTB  HZ I        20 7 43.86        98.1 0.36            136           88.0 289 
 BRR  HZ EP     C 20 7 30.99                             136    0.0210 91.4 359 
 BRR  HE ES       20 7 45.69                             136    0.1810 91.4 359 
 BRR  HZ I        20 7 46.81       127.6 0.12            138           91.4 359 
 NOR  HZ EP     C 20 7 36.16                             120   -0.67 9  151 238 
 NOR  HN ES   3   20 7 54.45                             120   -1.51 2  151 238 
 NOR  HZ I        20 7 59.26        95.3 0.14            119            151 238 
 PAM  EZ EP       20 7 38.56                             119    0.10 9  161  43 
 PAM  EN ES       20 7 58.63                             119   -0.21 9  161  43 
 PAM  EZ I        20 7 59.93        71.8 0.14            121            161  43 
 ROSC BZ EP   9   20 7 41.57                             117    1.95 0  173 203 
 ROSC BN ES       20 8  1.89                                   -0.97 9  173 203 
 ROSC BZ I        20 8  7.68        48.1 0.40            116            173 203 
 CHI  HZ EP       20 7 40.63                             115   -0.04 9  183 181 
 CHI  HE ES       20 8  2.93                             115    0.15 9  183 181 
 CHI  HZ I        20 8  5.73        31.2 0.60            115            183 181 
 ZAR  HZ EP     D 20 7 40.54                             115    0.13 9  185 316 
 ZAR  HE ES       20 8  2.80                             115    0.48 9  185 316 
 ZAR  HZ I        20 8  6.73       248.5 0.46            115            185 316 
 TAM  HZ EP       20 7 43.71                             111    0.18 8  212  85 
 TAM  HE ES   3   20 8  6.58                             111   -1.29 2  212  85 
 TAM  HZ I        20 8 12.06        48.2 0.29            112            212  85 
 GUY2CHZ EP       20 7 45.15                             111    0.44 8  218 238 
 GUY2CHN ES   3   20 8 11.07                             111    1.10 2  218 238 
 GUY2CHZ I        20 8 15.25        76.0 0.84                           218 238 
 ELA  HZ EP       20 7 48.88                             108    1.00 8  245 230 
 ELA  HN ES       20 8 14.80                             108   -0.82 8  245 230 
 ELA  HZ I        20 8 24.87        29.4 0.48            108            245 230 
 URE  HZ EP   3   20 7 47.74                             106   -1.19 2  259 309 
 URE  HN ES   4   20 8 15.19                             106   -2.29 0  259 309 
 URE  HZ I        20 8 17.38        87.8 0.18            107            259 309 
 CBOC HZ EP       20 7 49.72                             106    0.57 8  260 260 
 CBOC HE ES   3   20 8 15.98                             106   -1.90 2  260 260 
 CBOC HZ I        20 8 28.95        15.5 0.66            106            260 260 
 ANIL HZ EP   3   20 7 52.01                             105    1.12 2  273 224 
 ANIL HE ES       20 8 21.75                             105    0.77 8  273 224 
 ANIL HZ I        20 8 26.10        47.1 0.42            105            273 224 
 PTGC HZ EP       20 7 51.61                             104   -0.74 7  289 143 
 PTGC HN ES   3   20 8 22.37                             104   -1.21 2  289 143 
 PTGC HZ I        20 8 25.24        28.7 0.23            104            289 143 
 DBB  HZ EP   3   20 7 53.78                             104    1.31 2  289 287 
 DBB  HN ES   2   20 8 24.03                             104    0.24 4  289 287 
 ORTC HZ EP   3   20 7 56.31                             102    1.01 2  313 213 
 ORTC HN ES       20 8 29.56                             102    0.73 7  313 213 
 ORTC HE ES       20 8 30.41                                            313 213 
 ORTC HZ I        20 8 35.25        16.9 0.38            102            313 213 
 APAC HZ EP       20 8  0.93                             100   -0.50 6  365 300 
 APAC HN ES       20 8 40.07                             100    0.34 6  365 300 
 LL6C HZ EP   9   20 7 45.03                              99   -18.9 0  385   7 
 LL6C HE ES   3   20 8 27.58                             101    2.33 1  385   7 
 LL6C HZ I        20 8 41.15        18.1 0.46             99            385   7 
 SJC  HZ EP       20 8  9.02                              97   -0.58 5  432 338 
 SJC  HE ES   4   20 8 51.43                              97   -2.84 0  432 338 
 SJC  HZ I        20 8 59.05         8.8 0.44             97            432 338 
 MACC HZ EP   3   20 8 11.20                              96   -1.48 1  458 182 
 MACC HN ES   4   20 8 57.57                              96   -2.19 0  458 182 
 MACC HZ I        20 9  0.98         9.9 0.25             96            458 182 
 CRJC HZ EP       20 8 21.94                              94    0.13 4  532  10 
 CRJC HN ES       20 9 14.96                              94   -1.06 4  532  10 
                                                                                
