 2014  7 7 2130 58.2 L   6.818 -73.423114.2  RSN  7 0.3 1.6LRSN                1
 GAP=151        0.88       3.1     3.7  6.0  0.3025E+01  0.3960E+01 -0.3096E+01E
 Epicentro: SAN VICENTE DE CHUCURI - SANTANDER                                 3
 ACTION:UPD 15-03-16 20:42 OP:nd   STATUS:               ID:20140707213058 L   I
 OLDACT:REG 14-07-08 02:48 OP:spq  STATUS:               ID:20140707212819     3
 2014-07-07-2128-19M.COL___271                                                 6
 STAT SP IPHASW D HRMM SECON CODA AMPLIT PERI AZIMU VELO AIN AR TRES W  DIS CAZ7
 BAR2 SZ EP       2131 14.64                             161    0.1410 36.5 133 
 BAR2 SZ ES   1   2131 27.40                             161    0.21 7 36.5 133 
 BAR2 SZ I        2131 29.08        25.8 0.26            166           36.5 133 
 BRR  HZ EP       2131 14.87                             157    0.3410 45.2 315 
 BRR  HN ES       2131 27.39                             157    0.1410 45.2 315 
 BRR  HZ I        2131 29.51        17.8 0.38            153           45.2 315 
 RUS  HZ EP       2131 19.57                             134   -0.1810  109 160 
 RUS  HN ES       2131 36.32                             134   -0.2210  109 160 
 PTB  HZ EP       2131 19.86                             130   -0.0910  118 255 
 PTB  HN ES       2131 36.15                             130   -0.7510  118 255 
 PTB  HZ I        2131 38.41         4.0 0.16            129            118 255 
 ZAR  HZ EP       2131 25.82                             119    0.14 9  175 295 
 ZAR  HE ES       2131 47.59                             119    0.50 9  175 295 
 ZAR  HZ I        2131 55.77         3.6 0.22            118            175 295 
 NOR  HN ES       2131 54.74                             113    0.40 8  212 229 
 NOR  HZ I        2132  1.40         2.0 0.20            114            212 229 
 SML  HZ EP       2131 31.85                             111    0.04 8  231 342 
 SML  HE ES       2131 57.45                             111   -0.55 8  231 342 
 SML  HZ I        2132  3.95         6.9 0.10            112            231 342 
                                                                                
