 2014  1 7 2258 29.9 L   6.832 -73.153144.2  RSN 16 0.5 2.1LRSN                1
 GAP= 70        0.88       2.8     3.2  5.4 -0.2079E+01  0.2635E+01 -0.1952E+01E
 Epicentro: LOS SANTOS - SANTANDER                                             3
 ACTION:UPD 14-03-13 09:52 OP:ep   STATUS:               ID:20140107225829 L   I
 OLDACT:UP  14-01-08 03:12 OP:mh   STATUS:               ID:20140107225737     3
 OLDACT:REG 14-01-08 01:46 OP:mh   STATUS:               ID:20140107225737     3
 2014-01-07-2257-37M.COL___243                                                 6
 STAT SP IPHASW D HRMM SECON CODA AMPLIT PERI AZIMU VELO AIN AR TRES W  DIS CAZ7
 BAR2 SZ EP       2258 49.51                             169    0.1410 26.7 187 
 BAR2 SZ ES   1   2259  4.43                             169   -0.16 7 26.7 187 
 BAR2 SZ I        2259  5.85        49.2 0.24            171           26.7 187 
 PAM  SZ EP       2258 52.46                             151    0.6810 75.2  42 
 PAM  SN ES   1   2259  9.36                             151    0.49 7 75.2  42 
 PAM  SZ I        2259 11.64        25.1 0.47            154           75.2  42 
 RUS  HZ EP       2258 53.44                             142   -0.2810  104 176 
 RUS  HN ES   1   2259 12.53                             142    0.20 7  104 176 
 RUS  HZ I        2259 13.27        13.5 0.27            146            104 176 
 PTB  HZ EP       2258 56.21                             132   -0.48 9  148 257 
 PTB  HN ES   1   2259 17.03                             132   -0.59 7  148 257 
 PTB  HZ I        2259 24.57        13.4 0.15            132            148 257 
 TAM  HZ EP       2258 57.90                             130    0.32 9  157 106 
 TAM  HN ES   2   2259 19.27                             130    0.08 5  157 106 
 TAM  HZ I        2259 22.65         8.4 0.16            135            157 106 
 OCA  HZ EP   1   2258 57.45                             130   -0.25 7  157 353 
 OCA  HN ES   2   2259 18.87                             130   -0.55 5  157 353 
 OCA  HZ I        2259 22.91        13.6 0.25            131            157 353 
 SPBC HZ EP       2258 58.56                             128    0.10 9  165 218 
 SPBC HN ES       2259 20.08                             128   -0.68 9  165 218 
 ZAR  HZ EP   4   2259  4.90                             122    2.91 0  202 291 
 ZAR  HN ES   1   2259 27.11                             122    0.07 6  202 291 
 ZAR  HZ I        2259 32.66        12.0 0.18            123            202 291 
 NOR  HZ EP       2259  5.68                             118    0.03 8  236 234 
 NOR  HN ES   1   2259 34.07                             118    0.50 6  236 234 
 NOR  HZ I        2259 39.03         9.3 0.19            120            236 234 
 SML  HZ EP   1   2259  5.92                             117   -0.09 6  240 335 
 SML  HN ES   1   2259 34.54                             117    0.34 6  240 335 
 SML  HZ I        2259 39.68        16.6 0.07            119            240 335 
 CHI  HZ EP   1   2259  7.71                             116   -0.11 6  252 195 
 CHI  HN ES   1   2259 37.10                             116   -0.33 6  252 195 
 CHI  HZ I        2259 40.55         9.6 0.47            119            252 195 
 ROSC BN ES   4   2259 40.01                             116    1.94 0  255 210 
 HEL  HZ EP   1   2259 10.75                             114    0.75 6  272 255 
 HEL  HN ES   2   2259 42.03                             114    0.72 4  272 255 
 HEL  HZ I        2259 47.95         8.3 0.42            116            272 255 
 GUY2CHZ EP   1   2259 14.50                             112    0.95 5  303 234 
 GUY2CHN ES   4   2259 50.40                             112    2.76 0  303 234 
 GUY2CHZ I        2259 55.76         7.8 0.37                           303 234 
 RREF HZ EP   1   2259 16.42                             110    0.29 5  323 229 
 COD  HZ EP   1   2259 16.87                             109   -0.88 5  345 355 
 COD  HN ES   1   2259 54.90                             109   -0.21 5  345 355 
 COD  HZ I        23 0  1.35         2.3 0.41            110            345 355 
 SDV  BZ EP       2259 18.91                             108   -0.74 6  359  51 
 SDV  BN ES   4   2259 55.68                             108   -2.81 0  359  51 
                                                                                
