 2011  9 7 2324  8.2 L   6.788 -73.101143.6  RSN  4 0.2 1.5LRSN                1
 GAP=143        0.54       3.8     5.7  5.9 -0.5309E+00 -0.2246E+01  0.9238E+00E
 Epicentro: LOS SANTOS - SANTANDER                                             3
 ACTION:UPD 12-07-13 15:56 OP:ep   STATUS:               ID:20110907232408 L   I
 2011-09-07-2321-21S.COL___171                                                 6
 STAT SP IPHASW D HRMM SECON CODA AMPLIT PERI AZIMU VELO AIN AR TRES W  DIS CAZ7
 BAR2 SZ EP   1   2324 27.35                             170   -0.19 7 23.4 203 
 BAR2 SZ ES   1   2324 42.26                             170   -0.39 7 23.4 203 
 BAR2 SZ I        2324 43.86         7.1 0.19                          23.4 203 
 PAM  SZ EP   1   2324 30.21                             151    0.17 7 75.4  36 
 PAM  SN ES   1   2324 47.13                             151    0.03 7 75.4  36 
 BRR  HZ EP   1   2324 29.08                             150   -0.30 7 76.2 298 
 BRR  HZ I        2324 29.82         7.5 0.34                          76.2 298 
 BRR  HE ES   1   2324 46.26                             150    0.34 7 76.2 298 
 RUS  HZ EP   1   2324 31.71                             144    0.12 7 99.0 179 
 RUS  HN ES   1   2324 50.08                             144    0.22 7 99.0 179 
 RUS  HZ I        2324 51.21         5.0 0.25                          99.0 179 
                                                                                
