 2013  2 7 2001 52.1 L   6.784 -73.169150.0  RSN  4 0.2 1.6LRSN                1
 GAP=234        0.52       4.7     4.4  5.0  0.1000E+02  0.2925E+00  0.2384E+01E
 Epicentro: LOS SANTOS - SANTANDER                                             3
 ACTION:UPD 13-03-12 09:31 OP:ep   STATUS:               ID:20130207200152 L   I
 2013-02-07-1958-50M.COL___196                                                 6
 STAT SP IPHASW D HRMM SECON CODA AMPLIT PERI AZIMU VELO AIN AR TRES W  DIS CAZ7
 BAR2 SZ ES   1   20 2 27.60                             172   -0.26 7 21.3 184 
 BRR  HZ EP       20 2 13.59                             154   -0.0310 69.8 301 
 BRR  HZ I        20 2 14.96         8.8 0.44            153           69.8 301 
 BRR  HN ES       20 2 30.54                             154    0.1210 69.8 301 
 RUS  HZ EP       20 2 16.38                             145    0.2310 99.1 175 
 RUS  HN ES   1   20 2 34.85                             145   -0.07 7 99.1 175 
 RUS  HN I        20 2 35.94         7.0 0.38            144           99.1 175 
 PTB  HZ EP   1   20 2 18.72                             133   -0.43 7  145 259 
 PTB  HN ES       20 2 40.34                             133    0.08 9  145 259 
 PTB  HZ I        20 2 41.25         3.8 0.42            133            145 259 
                                                                                
