 2016  4 7 2034 36.2 L   6.736 -73.156140.5  RSN  4 0.3 1.2LRSN                1
 GAP=138        0.75       4.5     4.4  6.3 -0.6011E+01  0.7454E+01 -0.2961E+01E
 Epicentro: LOS SANTOS - SANTANDER                                             3
 ACTION:UPD 16-05-05 14:19 OP:rebc STATUS:               ID:20160407203436 L   I
 OLDACT:DUP 16-04-08 04:02 OP:cara STATUS:               ID:20160407202745d    3
 OLDACT:UP  16-04-08 04:00 OP:cara STATUS:               ID:20160407202744     3
 OLDACT:REG 16-04-08 03:36 OP:cara STATUS:               ID:20160407202744     3
 2016-04-07-2027-44M.COL___328                                                 6
 STAT SP IPHASW D HRMM SECON CODA AMPLIT PERI AZIMU VELO AIN AR TRES W  DIS CAZ7
 BAR2 EZ EP       2034 54.93                             173   -0.1210 16.1 190 
 BAR2 EZ ES       2035 10.10                             173    0.3310 16.1 190 
 BAR2 EZ I        2035 13.34         6.1 0.30            172           16.1 190 
 PAM  EZ IP       2034 58.37                             148    0.1310 83.6  37 
 PAM  EZ I        2034 58.48         2.9 0.20            152           83.6  37 
 PAM  EN ES       2035 15.23                             148   -0.2110 83.6  37 
 RUS  HZ EP       2034 59.34                             145    0.4210 93.6 175 
 RUS  HN ES       2035 16.27                             145   -0.3710 93.6 175 
 RUS  HZ I        2035 19.28         1.7 0.28            147           93.6 175 
 PTB  HZ EP       2035  2.20                             131   -0.31 9  145 261 
 PTB  HN ES       2035 23.15                             131    0.10 9  145 261 
 PTB  HZ I        2035 26.30         2.3 0.38            133            145 261 
                                                                                
