 2012  3 7 2040 12.8 L   6.496 -73.505 63.0  RSN 13 9.4 2.8LRSN                1
 GAP= 63       20.13      49.6    48.5123.8  0.3333E+03  0.3092E+04  0.1132E+04E
 ACTION:UP  12-03-31 23:18 OP:EP   STATUS:               ID:20120307204012 L   I
 2012-03-07-2039-59S.COL___195                                                 6
 STAT SP IPHASW D HRMM SECON CODA AMPLIT PERI AZIMU VELO SNR AR TRES W  DIS CAZ7
 BAR2 SZ EP   1   2040 19.91                             152    -3.5 7   37  73 
 BAR2 SZ ES   1   2040 32.42                             152     0.7 7   37  73 
 BAR2 SZ I   L    2040 33.72       584.1 0.21                    2.010   37  73 
 BRR  HZ EP   1   2040 19.95                             147    -6.1 7   71 341 
 BRR  HZ I   L    2040 39.53       245.6 0.13                   13.510   71 341 
 RUS  HZ EP       2040 22.94                             133    -4.810   81 145 
 RUS  HE ES   1   2040 38.33                             133    -1.0 7   81 145 
 RUS  HZ I   L    2040 40.33       106.1 0.21                    1.010   81 145 
 PTB  HZ EP       2040 21.82                             134    -7.910  105 273 
 PTB  HE ES   1   2040 35.94                             134    -7.0 7  105 273 
 PAM  SZ EP       2040 26.57                             123    -6.510  129  44 
 PAM  SN ES   1   2040 44.23                             123    -4.6 7  129  44 
 PAM  SZ I   L    2040 47.97        60.4 0.27                   -0.910  129  44 
 YOP  SZ EP   1   2040 32.55                             113    -5.4 7  174 136 
 YOP  SN ES   1   2040 54.73                             113    -2.9 7  174 136 
 YOP  SZ I   L    2040 57.20       122.8 0.25                   -0.4 9  174 136 
 ZAR  HZ EP   1   2040 30.38                             116    -8.9 7  186 306 
 ZAR  HZ I   L    2040 56.48       204.5 0.25                   17.2 9  186 306 
 CHI  HZ EP   1   2040 35.76                             110    -6.7 6  208 187 
 CHI  HZ I   L    2041  3.84        38.1 0.38                   21.4 8  208 187 
 HEL  HZ EP   1   2040 35.94                             110    -8.7 6  226 262 
 HEL  HN ES   1   2041  0.78                             110    -8.7 6  226 262 
 HEL  HZ I   L    2041  4.19        76.0 0.19                   -5.3 8  226 262 
 GUY  SZ EP   1   2040 40.26                             107    -7.6 6  252 236 
 GUY  SZ I   L    2041 12.56       105.7 0.35                   24.7 8  252 236 
 TOL  SZ EP   1   2040 44.81                             103    -7.8 5  292 224 
 PRA  HZ EP   1   2040 50.88                              99    -7.7 5  344 207 
 YOT  HZ EP   1   2040 58.52                              96    -9.6 4  420 229 
                                                                                
