 2013  4 7 2125 45.6 L   6.828 -73.150141.6  RSN 15 0.5 2.9LRSN                1
 GAP=111        1.02       2.9     3.3  5.4  0.8619E+00  0.3392E+01  0.1754E+01E
 Epicentro: LOS SANTOS - SANTANDER                                             3
 ACTION:UPD 13-05-22 14:36 OP:EP   STATUS:               ID:20130407212545 L   I
 2013-04-07-2120-00M.COL___245                                                 6
 STAT SP IPHASW D HRMM SECON CODA AMPLIT PERI AZIMU VELO AIN AR TRES W  DIS CAZ7
 BAR2 SZ EP       2126  4.75                             169    0.0010 26.3 188 
 BAR2 SZ ES       2126 19.29                             169   -0.4410 26.3 188 
 BAR2 SZ I        2126 20.61       295.8 0.30            168           26.3 188 
 GIR2 SZ IP       2126  4.72                             168    0.0710 28.1 350 
 GIR2 SZ ES       2126 20.25                             168    0.7010 28.1 350 
 GIR2 SZ I        2126 21.26        63.5 0.14            169           28.1 350 
 BRR  HZ IP     C 2126  6.53                             152    0.3810 69.3 296 
 RUS  HZ IP     C 2126  8.77                             142   -0.3610  104 176 
 RUS  HN ES       2126 27.05                             142   -0.4810  104 176 
 RUS  HN I        2126 28.34       165.1 0.20            141            104 176 
 PTB  HN ES       2126 32.60                             131   -0.39 9  148 258 
 PTB  HN I        2126 33.59       181.3 0.30            132            148 258 
 TAM  HZ IP     D 2126 13.21                             129    0.18 9  156 106 
 TAM  HN ES       2126 34.90                             129    0.45 9  156 106 
 TAM  HN I        2126 38.93        62.3 0.36            129            156 106 
 OCA  HZ EP   1   2126 12.91                             129   -0.34 7  157 353 
 OCA  HN ES       2126 34.41                             129   -0.43 9  157 353 
 ZAR  HZ EP   2   2126 17.64                             122    0.07 4  202 291 
 ZAR  HE ES       2126 43.36                             122    0.82 9  202 291 
 CHI  HZ EP       2126 23.18                             116   -0.16 8  252 195 
 CHI  HN ES       2126 52.59                             116   -0.23 8  252 195 
 CHI  HN I        2126 55.26        73.2 0.30            116            252 195 
 ROSC BN ES       2126 53.86                             115    0.37 8  255 211 
 URE  HZ EP   2   2126 25.48                             113   -0.77 4  282 291 
 DBB  SZ EP   1   2126 33.56                             109    0.77 5  339 274 
 DBB  SZ ES       2127  9.13                             109   -0.50 7  339 274 
 DBB  SZ I        2127 11.09        21.9 0.38            109            339 274 
 COD  HZ EP   1   2126 32.50                             108   -0.90 5  345 355 
 COD  HN ES   2   2127  9.95                             108   -0.78 3  345 355 
 PRA  HZ EP   1   2126 39.37                             106    0.14 4  395 209 
 PRA  HN ES   1   2127 20.49                             106   -0.60 4  395 209 
 PRA  HN I        2127 25.99        16.6 0.54            106            395 209 
 SJA  SZ EP       2126 41.45                             105    1.13 6  403 193 
                                                                                
