 2010  6 7 2229 12.7 L   6.795 -73.101139.8  RSN 10 0.6 2.0LRSN                1
 GAP=181        1.17       6.2    14.8  8.5 -0.6040E+02  0.3559E+02  0.2300E+01E
 Epicentro: LOS SANTOS - SANTANDER                                             3
 ACTION:UP  10-08-24 10:09 OP:vdl  STATUS:               ID:20100607222912 L   I
 2010-06-07-2223-47S.COL___111                                                 6
 STAT SP IPHASW D HRMM SECON CODA AMPLIT PERI AZIMU VELO SNR AR TRES W  DIS CAZ7
 BAR2 SZ EP       2229 31.36                             170    -0.310   24 202 
 BAR2 SZ ES   1   2229 46.92                             170     0.5 7   24 202 
 GIR2 SZ ES   1   2229 45.43                             166    -1.1 7   33 342 
 GUE  SZ EP       2229 36.64                             138    -0.210  116  10 
 GUE  SZ ES   1   2229 56.04                             138     0.4 7  116  10 
 GRA  SZ EP       2229 37.14                             136    -0.210  125  15 
 GRA  SZ ES       2229 56.96                             136     0.410  125  15 
 OCA  SZ EP       2229 40.45                             128    -0.2 9  161 351 
 OCA  SZ ES   1   2230  3.08                             128     0.6 7  161 351 
 CHI  HZ EP   1   2229 49.88                             116    -0.3 6  249 196 
 CHI  HN ES   2   2230 20.97                             116     1.6 4  249 196 
 CHI  HZ I        2230 22.93         5.6 0.53                           249 196 
 ROSC BZ EP   1   2229 51.34                             115     0.6 6  255 212 
 ROSC BZ I        2230 25.90         9.6 0.40                           255 212 
 HEL  HZ EP   1   2229 53.64                             113     0.5 6  277 256 
 HEL  HZ I        2229 55.19         3.0 0.54                           277 256 
 RREF BZ EP   2   2229 59.82                             109     0.8 3  325 230 
 RREF BN ES   2   2230 34.76                             109    -0.3 3  325 230 
 RREF BZ I        2230 39.96         5.4 0.95                           325 230 
 TOL  SZ EP   1   2230  0.10                             108    -1.0 5  347 225 
                                                                                
