 2012  8 7 2159 16.9 L   6.778 -73.161144.0  RSN  7 0.4 1.7LRSN                1
 GAP=136        0.86       5.4     6.4  7.5 -0.8134E+00  0.9423E+01  0.2977E+01E
 Epicentro: LOS SANTOS - SANTANDER                                             3
 ACTION:UPD 12-09-10 11:55 OP:ep   STATUS:               ID:20120807215916 L   I
 2012-08-07-2157-43M.COL___211                                                 6
 STAT SP IPHASW D HRMM SECON CODA AMPLIT PERI AZIMU VELO AIN AR TRES W  DIS CAZ7
 BAR2 SZ EP       2159 36.19                             171   -0.0610 20.6 187 
 BAR2 SZ ES   1   2159 50.78                             171   -0.58 7 20.6 187 
 BAR2 SZ I        2159 52.49        24.4 0.16                          20.6 187 
 BRR  HZ EP       2159 38.16                             152    0.3310 71.0 301 
 BRR  HN ES   1   2159 54.83                             152    0.66 7 71.0 301 
 BRR  HZ I        2159 55.83        12.9 0.62                          71.0 301 
 PAM  SZ EP       2159 39.29                             150    0.1910 80.4  39 
 PAM  SZ I        2159 39.49         9.0 0.24                          80.4  39 
 PAM  SN ES   1   2159 56.02                             150   -0.40 7 80.4  39 
 RUS  HZ EP       2159 40.24                             144   -0.0610 98.3 175 
 RUS  HZ I        2159 41.06         5.3 0.10                          98.3 175 
 RUS  HN ES   1   2159 59.12                             144    0.56 7 98.3 175 
 PTB  HZ EP       2159 42.88                             132   -0.64 9  146 260 
 PTB  HN ES   3   22 0  3.53                             132   -0.76 2  146 260 
 PTB  HZ I        22 0  9.74         5.0 0.24                           146 260 
 ZAR  HN ES   3   22 0 14.70                             122    0.38 2  203 293 
 ZAR  HZ I        22 0 21.50         4.6 0.32                           203 293 
 CHI  HZ EP   3   2159 54.72                             117    0.54 2  246 195 
 CHI  HN ES   3   22 0 23.78                             117    0.51 2  246 195 
 CHI  HZ I        22 0 29.52         2.5 0.22                           246 195 
                                                                                
