 2014  2 7 2234 45.3 L   6.779 -73.157149.0  RSN  6 0.5 1.4LRSN                1
 GAP=136        1.31       5.9     6.8 10.4 -0.4848E+01  0.2897E+01  0.2020E+02E
 Epicentro: LOS SANTOS - SANTANDER                                             3
 ACTION:UPD 14-03-10 08:08 OP:ep   STATUS:               ID:20140207223445 L   I
 OLDACT:REG 14-02-08 00:08 OP:stll STATUS:               ID:20140207222817     3
 2014-02-07-2228-17M.COL___226                                                 6
 STAT SP IPHASW D HRMM SECON CODA AMPLIT PERI AZIMU VELO AIN AR TRES W  DIS CAZ7
 BAR2 SZ EP       2235  5.11                             172   -0.1510 20.8 188 
 BRR  HZ EP       2235  7.41                             153    0.6210 71.3 301 
 BRR  HN ES       2235 24.38                             153    0.8210 71.3 301 
 BRR  HZ I        2235 28.27         9.8 0.44            154           71.3 301 
 PAM  SZ EP       2235  7.98                             151   -0.0210 80.0  39 
 PAM  SZ I        2235  8.37         4.8 0.22            154           80.0  39 
 PAM  SN ES       2235 25.04                             151   -0.6710 80.0  39 
 RUS  HZ EP       2235  9.18                             145   -0.0210 98.3 175 
 RUS  HN ES       2235 28.20                             145    0.3510 98.3 175 
 RUS  HZ I        2235 30.72         2.8 0.48            147           98.3 175 
 PTB  HZ EP       2235 12.05                             133   -0.33 9  146 260 
 PTB  HN ES       2235 32.69                             133   -0.81 9  146 260 
 PTB  HZ I        2235 35.86         3.3 0.16            135            146 260 
 CHI  HZ EP       2235 23.44                             118    0.55 8  246 195 
 CHI  HZ I        2235 24.40         1.1 0.16            120            246 195 
 CHI  HN ES       2235 51.78                             118   -0.44 8  246 195 
                                                                                
