 2013  5 7 2102 35.5 L   5.816 -73.669131.2  RSN 15 0.4 2.7LRSN                1
 GAP= 73        0.92       2.6     2.7  6.5 -0.1402E+01  0.2403E+01 -0.3293E+01E
 Epicentro: PUENTE NACIONAL - SANTANDER                                        3
 ACTION:UPD 13-06-20 09:48 OP:ep   STATUS:               ID:20130507210235 L   I
 2013-05-07-2100-00M.COL___256                                                 6
 STAT SP IPHASW D HRMM SECON CODA AMPLIT PERI AZIMU VELO AIN AR TRES W  DIS CAZ7
 RUS  HZ IP     D 21 2 55.44                             152    0.0110 65.4  83 
 RUS  HN ES   1   21 3 10.28                             152   -0.72 7 65.4  83 
 RUS  HN I        21 3 12.58        68.8 0.48            148           65.4  83 
 BAR2 SZ EP       21 2 57.70                             140    0.1810  101  32 
 BAR2 SZ ES   1   21 3 14.80                             140    0.09 7  101  32 
 BAR2 SZ I        21 3 17.51        47.5 0.28            134            101  32 
 PTB  HZ EP   1   21 2 58.03                             135   -0.58 7  118 313 
 PTB  HN ES   1   21 3 15.91                             135   -0.75 7  118 313 
 PTB  HN I        21 3 18.98        95.1 0.24            130            118 313 
 ROSC BZ EP   1   21 3  0.81                             132    0.67 7  130 214 
 ROSC BN ES       21 3 20.31                             132    0.9310  130 214 
 ROSC BZ I        21 3 24.18        34.3 0.30            130            130 214 
 CHI  HN ES   1   21 3 19.30                             132   -0.38 7  131 183 
 CHI  HN I        21 3 20.83        55.0 0.24            130            131 183 
 NOR  HZ EP   1   21 2 59.88                             131   -0.35 7  136 258 
 NOR  HN ES       21 3 19.22                             131   -0.32 9  136 258 
 BRR  HZ EP   1   21 3  0.69                             129   -0.11 7  143 358 
 BRR  HN ES   1   21 3 21.41                             129    0.85 7  143 358 
 BRR  HN I        21 3 26.51       101.6 0.14            124            143 358 
 YOP  SZ EP   1   21 3  1.46                             128    0.08 7  147 110 
 YOP  SN ES   1   21 3 21.55                             128   -0.04 7  147 110 
 YOP  SN I        21 3 23.44       171.2 0.54            125            147 110 
 GIR2 SZ EP     D 21 3  1.88                             128    0.29 9  149  21 
 GIR2 SZ I        21 3 27.79        21.3 0.28            123            149  21 
 PAM  SZ EP   1   21 3  7.25                             120    0.09 6  200  32 
 PAM  SE ES       21 3 31.80                             120   -0.08 9  200  32 
 PAM  SE I        21 3 34.64        19.1 0.16            115            200  32 
 HEL  HZ IP     D 21 3  8.34                             118    0.22 8  210 281 
 HEL  HN ES       21 3 33.77                             118    0.18 8  210 281 
 HEL  HZ I        21 3 39.73        31.7 0.32            115            210 281 
 ZAR  HZ EP   1   21 3  9.33                             116   -0.19 6  227 325 
 ZAR  HE ES       21 3 36.02                             116   -0.06 8  227 325 
 ZAR  HE I        21 3 42.36        84.5 0.42            112            227 325 
 PRA  HZ EP   1   21 3 13.43                             112   -0.78 6  269 210 
 PRA  HN ES   1   21 3 43.98                             112   -0.44 6  269 210 
 PRA  HN I        21 3 46.73        69.4 0.30            109            269 210 
 SML  HZ EP   1   21 3 21.18                             107   -0.35 5  333 352 
 SML  HE ES   1   21 3 57.60                             107    0.14 5  333 352 
 SML  HE I        21 4  5.44        35.4 0.32            104            333 352 
 SJC  HZ EP   4   21 3 37.99                             100   -1.17 0  481 340 
 SJC  HE ES   4   21 4 23.23                             100   -5.61 0  481 340 
 SJC  HN I        21 4 33.18         7.1 0.36             98            481 340 
                                                                                
