 2014  2 7 2321 24.1 L   6.787 -73.141142.9  RSN  4 0.4 1.2LRSN                1
 GAP=138        1.01       5.4     5.4 10.2 -0.3508E+01 -0.2937E+01  0.7974E+01E
 Epicentro: LOS SANTOS - SANTANDER                                             3
 ACTION:UPD 14-03-10 08:08 OP:ep   STATUS:               ID:20140207232124 L   I
 OLDACT:REG 14-02-08 00:09 OP:stll STATUS:               ID:20140207231816     3
 2014-02-07-2318-16M.COL___226                                                 6
 STAT SP IPHASW D HRMM SECON CODA AMPLIT PERI AZIMU VELO AIN AR TRES W  DIS CAZ7
 BRR  HZ EP       2321 45.26                             152    0.2510 72.3 299 
 BRR  HN ES       2322  1.93                             152    0.6110 72.3 299 
 PAM  SZ EP       2321 45.88                             150   -0.1910 78.2  39 
 PAM  SN ES       2322  2.88                             150   -0.3210 78.2  39 
 PAM  SZ I        2322  5.61         4.4 0.68            151           78.2  39 
 RUS  HZ EP       2321 47.73                             144    0.2510 99.1 176 
 RUS  HN ES       2322  5.69                             144   -0.0210 99.1 176 
 RUS  HZ I        2322  7.15         1.7 0.30            145           99.1 176 
 PTB  HN ES       2322 11.07                             131   -0.66 9  148 259 
                                                                                
