 2011  2 7 2031 22.4 L   6.286 -73.546107.7  RSN  7 0.4 1.6LRSN                1
 GAP=116        0.69       4.6     5.5 11.2 -0.1026E+02  0.3580E+02 -0.8500E+01E
 Epicentro: EL GUACAMAYO - SANTANDER                                           3
 ACTION:UP  11-03-28 15:06 OP:jfem STATUS:               ID:20110207203122 L   I
 2011-02-07-2027-49S.COL___136                                                 6
 STAT SP IPHASW D HRMM SECON CODA AMPLIT PERI AZIMU VELO SNR AR TRES W  DIS CAZ7
 BAR2 SZ EP   1   2031 38.79                             152     0.1 7   52  50 
 BAR2 SZ ES   2   2031 50.78                             152    -0.6 5   52  50 
 BAR2 SZ I        2031 53.66        30.1 0.32                            52  50 
 RUS  HZ EP   1   2031 39.77                             146    -0.2 7   67 130 
 RUS  HN ES   2   2031 53.95                             146     0.2 5   67 130 
 RUS  HZ I        2031 55.05         4.4 0.33                            67 130 
 BTL  SZ EP       2031 40.64                             142     0.410   76  24 
 GIR2 SZ EP       2031 41.61                             135    -0.110   96  24 
 NOR  SZ EP   1   2031 48.03                             118    -0.6 7  167 242 
 NOR  SN ES   2   2032  9.03                             118    -0.1 5  167 242 
 CHI  HZ EP   2   2031 50.70                             115    -0.3 4  184 186 
 CHI  HN ES   2   2032 13.90                             115     0.6 4  184 186 
 CHI  HZ I        2032 18.40         3.0 0.48                           184 186 
 HEL  HZ EP   2   2031 55.18                             111     0.3 4  220 267 
 HEL  HZ I        2032  7.73         4.6 0.41                           220 267 
 HEL  HE ES   2   2032 20.41                             111     0.2 4  220 267 
                                                                                
