 2017  8 7 2006 40.0 L   6.629 -73.270159.5  RSN  4 0.3 1.2LRSN                1
 GAP=127        0.76       4.5     4.4  7.4  0.4051E+00  0.6316E+01  0.5795E+01E
 Epicentro: GALAN - SANTANDER                                                  3
 ACTION:UPD 17-09-04 20:17 OP:rebc STATUS:               ID:20170807200640 L   I
 OLDACT:REG 17-08-08 04:32 OP:edw  STATUS:               ID:20170807195741     3
 2017-08-07-1958-00M.COL___396                                                 6
 STAT SP IPHASW D HRMM SECON CODA AMPLIT PERI AZIMU VELO AIN AR TRES W  DIS CAZ7
 BRR  HZ EP     C 20 7  2.06                             154   -0.5910 72.0 317 
 BRR  HE ES       20 7 20.42                             154    0.0710 72.0 317 
 RUS  HZ EP       20 7  4.22                             151    0.1810 84.0 166 
 RUS  HN ES       20 7 22.66                             151   -0.1510 84.0 166 
 RUS  HZ I        20 7 23.79         2.4 0.28            152           84.0 166 
 PAM  EZ EP   4 D 20 7  3.20                             146   -1.89 0  101  39 
 PAM  EE ES       20 7 24.86                             146    0.1610  101  39 
 PTB  HZ EP       20 7  7.06                             138    0.3310  132 266 
 PTB  HN ES       20 7 27.63                             138    0.0310  132 266 
 PTB  HZ I        20 7 30.62         1.9 0.24            138            132 266 
                                                                                
