 2017  9 7 2356 35.2 L   7.060 -73.442109.1  RSN  5 0.3 1.0LRSN                1
 GAP=142        0.71       3.8     3.3  5.4  0.5691E+01  0.5986E+01  0.3753E+01E
 Epicentro: SAN VICENTE DE CHUCURI - SANTANDER                                 3
 ACTION:UPD 17-10-05 19:10 OP:rebc STATUS:               ID:20170907235635 L   I
 OLDACT:DUP 17-09-08 09:38 OP:osc  STATUS:               ID:20170907234739d    3
 OLDACT:REG 17-09-08 04:30 OP:osc  STATUS:               ID:20170907234738     3
 2017-09-07-2348-00M.COL___423                                                 6
 STAT SP IPHASW D HRMM SECON CODA AMPLIT PERI AZIMU VELO AIN AR TRES W  DIS CAZ7
 BRR  HZ EP       2356 49.92                             163   -0.3510 30.3 280 
 BRR  HN ES       2357  1.88                             163   -0.1710 30.3 280 
 BAR2 EZ EP       2356 52.31                             150    0.2810 59.2 151 
 BAR2 EZ ES       2357  5.18                             150   -0.0110 59.2 151 
 BAR2 EZ I        2357  6.58         4.6 0.18            148           59.2 151 
 PAM  EE ES       2357  9.58                             139    0.1210 87.6  69 
 PAM  EZ I        2357 16.93         2.7 0.42            133           87.6  69 
 RUS  HZ EP       2356 58.80                             125    0.0410  135 163 
 RUS  HN ES       2357 17.17                             125    0.0010  135 163 
 RUS  HZ I        2357 20.62         1.0 0.22            125            135 163 
 ZAR  HZ EP       2357  0.67                             119   -0.40 9  164 287 
 ZAR  HN ES       2357 21.79                             119    0.51 9  164 287 
                                                                                
