 2016  8 7 2048 13.8 L   6.783 -73.148146.4  RSN  5 0.2 1.4LRSN                1
 GAP=137        0.63       3.4     3.8  6.4  0.3493E+00 -0.5009E+01 -0.2978E+01E
 Epicentro: LOS SANTOS - SANTANDER                                             3
 *PTB-RUS                                                                      3
 ACTION:UPD 16-10-29 15:33 OP:rebc STATUS:               ID:20160807204813 L   I
 OLDACT:DUP 16-08-08 20:25 OP:cara STATUS:               ID:20160807203735d    3
 2016-08-07-2038-00M.COL___359                                                 6
 STAT SP IPHASW D HRMM SECON CODA AMPLIT PERI AZIMU VELO AIN AR TRES W  DIS CAZ7
 BRR  HZ EP       2048 34.66                             152   -0.4010 71.9 300 
 BRR  HN ES       2048 51.91                             152    0.2710 71.9 300 
 BRR  HZ I        2048 56.56         5.9 0.42                          71.9 300 
 PAM  EZ IP       2048 36.14                             150   -0.0410 78.9  39 
 PAM  EZ I        2048 55.27         6.4 0.54                          78.9  39 
 RUS  HZ EP       2048 37.70                             144    0.2110 98.8 176 
 RUS  HE ES       2048 55.84                             144   -0.1210 98.8 176 
 RUS  HZ I        2048 57.05         2.7 0.30                          98.8 176 
 PTB  HZ EP       2048 41.05                             132    0.28 9  147 260 
 PTB  HE ES       2049  1.60                             132   -0.21 9  147 260 
 PTB  HZ I        2049  6.32         1.2 0.14                           147 260 
 SPBC HZ EP   4   2048 43.09                             129    0.89 0  162 219 
 SPBC HN ES       2049  4.37                             129    0.02 9  162 219 
 SPBC HZ I        2049  5.88         4.1 0.14                           162 219 
                                                                                
