 2014  5 7 2256 37.3 L   6.799 -73.138146.4  RSN 12 0.5 2.0LRSN                1
 GAP=138        0.98       2.9     4.9  7.8 -0.1394E+01  0.1278E+02  0.6845E+00E
 Epicentro: LOS SANTOS - SANTANDER                                             3
 OLDACT:REG 14-05-08 02:54 OP:fm   STATUS:               ID:20140507224813     3
 ACTION:UPD 15-03-16 16:55 OP:nd   STATUS:               ID:20140507225638dL   I
 OLDACT:UP  14-05-08 03:27 OP:fm   STATUS:               ID:20140507224813     3
 2014-05-07-2248-13M.COL___239                                                 6
 STAT SP IPHASW D HRMM SECON CODA AMPLIT PERI AZIMU VELO AIN AR TRES W  DIS CAZ7
 BRR  HE ES   1   2257 15.90                             152    0.74 7 72.0 298 
 PAM  SZ EP       2256 59.87                             151    0.3010 76.9  39 
 PAM  SN ES       2257 16.67                             151   -0.2510 76.9  39 
 PAM  SZ I        2257 18.59        20.9 0.58            151           76.9  39 
 RUS  HN ES       2257 19.88                             144    0.1910  100 177 
 OCA  HZ EP   1   2257  5.82                             130    0.13 7  160 353 
 OCA  HN ES   1   2257 27.02                             130   -0.80 7  160 353 
 OCA  SZ I        2257 34.72         8.2 0.18            128            160 353 
 SPBC HE ES   1   2257 27.65                             129   -0.57 7  164 219 
 ZAR  HN ES       2257 36.07                             122    0.77 9  205 292 
 NOR  HE ES   2   2257 40.72                             119   -0.39 4  235 235 
 SML  HZ EP   1   2257 13.92                             118   -0.10 6  244 335 
 SML  HE ES       2257 42.15                             118   -0.50 8  244 335 
 SML  SZ I        2257 45.38         7.2 0.12            115            244 335 
 CHI  HZ EP   1   2257 15.55                             117    0.48 6  249 195 
 CHI  HN ES       2257 43.97                             117   -0.54 8  249 195 
 CHI  SZ I        2257 57.97         3.5 1.56            113            249 195 
 HEL  HE ES   1   2257 48.44                             115   -0.68 6  273 256 
 RREF HZ EP   4   2257 25.58                             111    2.02 0  322 229 
 RREF HE ES   4   2257 57.55                             111   -2.08 0  322 229 
 RREF SZ I        2258  9.30         3.9 1.24            108            322 229 
 PRA  HZ EP   1   2257 31.41                             107    0.51 4  392 210 
 PRA  HN ES   1   2258 13.10                             107    0.40 4  392 210 
 PRA  SZ I        2258 23.72         7.1 2.38            104            392 210 
 SJC  HN ES   4   2258 13.94                             106   -2.42 0  410 327 
                                                                                
