 2012  8 7 2222 25.4 L   6.793 -73.195140.1  RSN  4 0.2 1.2LRSN                1
 GAP=131        0.40       3.4     5.0  8.0  0.2801E+01 -0.1575E+02 -0.2929E+01E
 Epicentro: ZAPATOCA - SANTANDER                                               3
 ACTION:UPD 12-09-10 11:55 OP:ep   STATUS:               ID:20120807222225 L   I
 2012-08-07-2220-00M.COL___216                                                 6
 STAT SP IPHASW D HRMM SECON CODA AMPLIT PERI AZIMU VELO AIN AR TRES W  DIS CAZ7
 BRR  HZ EP       2222 45.88                             152    0.1510 66.8 301 
 BRR  HZ I        2222 52.87         6.1 0.46                          66.8 301 
 BRR  HE ES   2   2223  1.67                             152    0.11 5 66.8 301 
 PAM  SZ EP       2222 47.16                             148   -0.1510 81.5  42 
 PAM  SZ I        2222 47.34         3.0 0.18                          81.5  42 
 RUS  HZ EP       2222 48.69                             142    0.0710  100 173 
 RUS  HN ES   2   2223  6.46                             142   -0.24 5  100 173 
 RUS  HZ I        2223  8.67         1.8 0.24                           100 173 
 PTB  HZ EP   3   2222 50.89                             131   -0.55 2  142 259 
 PTB  HN ES   3   2223 11.46                             131   -0.27 2  142 259 
                                                                                
