 2016 11 7 2123 31.1 L   6.777 -73.169147.7  RSN  4 0.4 1.5LRSN                1
 GAP=144        0.82       9.0     5.4  7.9 -0.2628E+02  0.1982E+02 -0.2712E+02E
 Epicentro: LOS SANTOS - SANTANDER                                             3
 ACTION:UPD 17-10-26 21:05 OP:lp   STATUS:               ID:20161107212331 L   I
 OLDACT:REG 16-11-08 03:06 OP:cog  STATUS:               ID:20161107211743     3
 2016-11-07-2118-00M.COL___349                                                 6
 STAT SP IPHASW D HRMM SECON CODA AMPLIT PERI AZIMU VELO AIN AR TRES W  DIS CAZ7
 BAR2 EZ EP       2123 50.76                             171   -0.1310 20.5 184 
 BAR2 EZ ES       2124  6.78                             171    0.4510 20.5 184 
 PAM  EZ EP       2123 53.78                             150    0.0610 81.0  40 
 PAM  EN ES       2124 11.07                             150   -0.3010 81.0  40 
 PAM  EZ I        2124 12.11         3.6 0.18            150           81.0  40 
 PTB  HZ EP   2   2123 57.91                             133   -0.03 5  145 260 
 PTB  HN ES       2124 18.35                             133   -0.53 9  145 260 
 PTB  HZ I        2124 24.48         4.4 0.32            131            145 260 
 ZAR  HZ EP       2124  3.88                             123    0.37 9  203 293 
 ZAR  HE ES   2   2124 29.44                             123    0.64 4  203 293 
 ZAR  HZ I        2124 35.98         4.6 0.09            121            203 293 
                                                                                
