 2013  6 7 2111 41.3 L   6.799 -73.151144.8  RSN  9 0.6 2.0LRSN                1
 GAP=136        1.52       5.9     6.4  9.2 -0.1697E+01  0.6872E+01 -0.2287E+01E
 Epicentro: LOS SANTOS - SANTANDER                                             3
 ACTION:UPD 14-01-08 09:53 OP:ep   STATUS:               ID:20130607211141 L   I
 OLDACT:REG 13-06-07 23:29 OP:stll STATUS:               ID:20130607210849     3
 2013-06-07-2108-49M.COL___235                                                 6
 STAT SP IPHASW D HRMM SECON CODA AMPLIT PERI AZIMU VELO AIN AR TRES W  DIS CAZ7
 BAR2 SZ IP     D 2112  0.86                             170    0.0910 23.1 189 
 BAR2 SZ ES       2112 15.54                             170   -0.4410 23.1 189 
 BAR2 SZ I        2112 16.75        20.9 0.36            172           23.1 189 
 GIR2 SZ EP       2112  0.99                             167    0.1710 31.3 351 
 GIR2 SZ ES       2112 16.35                             167    0.2810 31.3 351 
 BRR  HZ IP     C 2112  2.76                             152    0.4810 70.7 299 
 BRR  HN ES       2112 19.62                             152    0.9510 70.7 299 
 BRR  HE I        2112 20.40        31.0 0.18            153           70.7 299 
 PAM  SZ EP       2112  4.00                             150    0.6010 77.9  40 
 PAM  SN ES       2112 20.79                             150    0.1210 77.9  40 
 PAM  SE I        2112 22.84        22.7 0.44            151           77.9  40 
 RUS  HZ EP       2112  5.14                             144    0.2310  101 176 
 RUS  HN ES       2112 22.90                             144   -0.4610  101 176 
 RUS  HE I        2112 23.74        10.2 0.48            145            101 176 
 GRA  SZ EP       2112  6.28                             137   -0.1710  126  18 
 PTB  HZ EP       2112  7.59                             132   -0.51 9  147 259 
 PTB  HN ES       2112 28.39                             132   -0.63 9  147 259 
 OCA  HN ES       2112 30.02                             129   -1.51 9  160 353 
 ZAR  HE ES       2112 39.35                             122    0.54 9  204 292 
                                                                                
