 2014  9 7 2232 27.0 L   6.799 -73.136146.8  RSN  5 0.4 1.8LRSN                1
 GAP=239        1.10       6.6     7.1  8.1  0.1079E+02  0.6405E+01  0.4482E+01E
 Epicentro: LOS SANTOS - SANTANDER                                             3
 ACTION:UPD 14-10-03 23:03 OP:nd   STATUS:               ID:20140907223227 L   I
 OLDACT:REG 14-09-08 04:03 OP:stll STATUS:               ID:20140907222820     3
 2014-09-07-2228-20M.COL___263                                                 6
 STAT SP IPHASW D HRMM SECON CODA AMPLIT PERI AZIMU VELO AIN AR TRES W  DIS CAZ7
 BAR2 SZ EP       2232 46.77                             171    0.0610 23.5 193 
 BAR2 SZ ES       2233  1.89                             171   -0.2410 23.5 193 
 BAR2 SZ I        2233  3.17        11.2 0.26            164           23.5 193 
 BRR  HZ EP       2232 48.55                             152    0.2810 72.2 298 
 BRR  HZ I        2232 48.82        12.2 0.18            148           72.2 298 
 BRR  HN ES       2233  5.35                             152    0.4510 72.2 298 
 RUS  HZ EP       2232 50.85                             144    0.0510  100 177 
 RUS  HN ES       2233  9.07                             144   -0.3310  100 177 
 RUS  HZ I        2233 10.34         5.9 0.26            142            100 177 
 PTB  HZ EP       2232 53.39                             132   -0.71 9  149 259 
 PTB  HN ES       2233 14.70                             132   -0.58 9  149 259 
 PTB  HZ I        2233 21.93        12.5 0.42            129            149 259 
 SPBC HZ EP       2232 55.89                             129    0.30 9  164 219 
 SPBC HN ES       2233 18.66                             129    0.73 9  164 219 
 SPBC HZ I        2233 23.82         9.5 0.30            126            164 219 
                                                                                
