 2011  6 7 2251 59.7 L   6.748 -73.075149.7  RSN  6 0.3 1.9LRSN                1
 GAP=148        0.91       5.4     8.9  8.0 -0.7154E+01 -0.1314E+02 -0.8645E+01E
 Epicentro: LOS SANTOS - SANTANDER                                             3
 ACTION:UP  11-07-14 19:03 OP:ep   STATUS:               ID:20110607225159 L   I
 2011-06-07-2250-47S.COL___129                                                 6
 STAT SP IPHASW D HRMM SECON CODA AMPLIT PERI AZIMU VELO SNR AR TRES W  DIS CAZ7
 BAR2 SZ EP       2252 19.51                             172    -0.310   21 214 
 BAR2 SZ ES   1   2252 35.26                             172    -0.2 7   21 214 
 BAR2 SZ I        2252 36.18        17.0 0.23                            21 214 
 PAM  SZ EP       2252 22.68                             151     0.310   77  32 
 PAM  SZ I        2252 22.96         7.2 0.15                            77  32 
 PAM  SE ES   1   2252 39.67                             151    -0.3 7   77  32 
 BRR  HZ EP       2252 21.77                             150    -0.110   81 299 
 BRR  HZ I        2252 22.06        36.9 0.16                            81 299 
 BRR  HN ES   1   2252 39.21                             150     0.1 7   81 299 
 RUS  HZ EP       2252 23.04                             146    -0.410   95 181 
 RUS  HN ES   1   2252 42.59                             146     0.6 7   95 181 
 RUS  HZ I        2252 43.76         7.1 0.26                            95 181 
 BRI  SZ EP       2252 24.40                             141     0.210  111  16 
 BRI  SZ I        2252 24.80         8.4 0.26                           111  16 
 GRA  SZ EP       2252 25.69                             137     0.110  129  13 
 GRA  SZ I        2252 26.83        11.6 0.33                           129  13 
                                                                                
