 2016 10 7 2328 21.7 L   6.800 -73.125139.4  RSN  6 0.1 1.1LRSN                1
 GAP=139        0.43       2.0     2.0  4.8 -0.6937E+00  0.3430E+01 -0.5999E+00E
 Epicentro: LOS SANTOS - SANTANDER                                             3
 ACTION:UPD 16-11-09 19:17 OP:rebc STATUS:               ID:20161007232821 L   I
 OLDACT:UP  16-10-08 04:42 OP:edw  STATUS:               ID:20161007231743d    3
 OLDACT:UP  16-10-08 04:42 OP:edw  STATUS:               ID:20161007231743d    3
 OLDACT:DUP 16-10-08 04:38 OP:edw  STATUS:               ID:20161007231743d    3
 OLDACT:UP  16-10-08 04:37 OP:edw  STATUS:               ID:20161007231742d    3
 OLDACT:DUP 16-10-08 04:32 OP:edw  STATUS:               ID:20161007231742d    3
 OLDACT:UP  16-10-08 04:30 OP:edw  STATUS:               ID:20161007231741     3
 OLDACT:REG 16-10-08 03:39 OP:cara STATUS:               ID:20161007231741     3
 2016-10-07-2318-00M.COL___360                                                 6
 STAT SP IPHASW D HRMM SECON CODA AMPLIT PERI AZIMU VELO AIN AR TRES W  DIS CAZ7
 PAM  EZ EP       2328 43.24                             150    0.0810 76.0  38 
 PAM  EN ES       2328 59.78                             150   -0.1110 76.0  38 
 RUS  HZ EP       2328 44.83                             142    0.0110  100 177 
 RUS  HN ES       2329  2.99                             142    0.1410  100 177 
 RUS  HZ I        2329  5.70         0.9 0.26            143            100 177 
 PTB  HZ EP       2328 48.19                             130   -0.18 9  150 259 
 PTB  HN ES       2329  9.00                             130   -0.17 9  150 259 
 PTB  HZ I        2329 10.91         1.8 0.14            132            150 259 
 SPBC HZ EP   4   2328 49.21                             127   -0.65 0  165 220 
 SPBC HE ES       2329 11.79                             127   -0.03 9  165 220 
 SPBC HZ I        2329 12.98         2.8 0.18            129            165 220 
 ZAR  HN ES       2329 19.41                             121    0.28 8  206 292 
 GUY2CHZ EP   4   2329  5.58                             111    0.35 0  303 235 
 GUY2CHN ES   4   2329 40.38                             111    1.19 0  303 235 
 GUY2CHZ I        2329 53.44         1.0 0.28                           303 235 
                                                                                
