 2010  8 7 2148 51.2 L   6.785 -73.030142.0  RSN  5 0.3 1.4LRSN                1
 GAP=172        0.70       6.7    11.9 11.1  0.3428E+02 -0.7746E+02 -0.3157E+02E
 Epicentro: CEPITA - SANTANDER                                                 3
 ACTION:UP  10-09-07 10:53 OP:vdl  STATUS:               ID:20100807214851 L   I
 2010-08-07-2145-10S.COL___124                                                 6
 STAT SP IPHASW D HRMM SECON CODA AMPLIT PERI AZIMU VELO SNR AR TRES W  DIS CAZ7
 BAR2 SZ EP   1   2149 10.64                             169     0.2 7   27 218 
 BAR2 SZ ES   2   2149 24.91                             169    -0.6 5   27 218 
 BAR2 SZ I        2149 27.32         9.1 0.09                            27 218 
 BRR  HZ EP       2149 12.46                             149    -0.310   83 295 
 BRR  HZ I        2149 12.68        10.3 0.14                            83 295 
 BRR  HN ES   1   2149 29.79                             149     0.3 7   83 295 
 RUS  HZ EP   1   2149 14.32                             144    -0.2 7   99 183 
 RUS  HN ES   2   2149 33.20                             144     0.6 5   99 183 
 RUS  HZ I        2149 34.40         1.5 0.37                            99 183 
 GUE  SZ EP   1   2149 15.62                             139     0.1 7  116   6 
 GRA  SZ EP   2   2149 16.27                             137     0.3 5  124  12 
 GRA  SZ I        2149 17.26         2.1 0.28                           124  12 
                                                                                
