 2015  4 7 2117 53.7 L   6.777 -73.122146.3  RSN  9 0.5 1.8LRSN                1
 GAP=141        1.12       3.9     4.8  7.0 -0.2249E+01  0.1113E+02 -0.4106E+00E
 Epicentro: LOS SANTOS - SANTANDER                                             3
 ACTION:UPD 15-06-03 16:53 OP:cam  STATUS:               ID:20150407211753 L   I
 OLDACT:REG 15-04-08 02:48 OP:fm   STATUS:               ID:20150407210750     3
 2015-04-07-2107-50M.COL___261                                                 6
 STAT SP IPHASW D HRMM SECON CODA AMPLIT PERI AZIMU VELO AIN AR TRES W  DIS CAZ7
 BAR2 EZ EP   1   2118 13.60                             171    0.19 7 21.5 198 
 BAR2 EZ ES       2118 29.35                             171    0.6110 21.5 198 
 BAR2 EZ I        2118 29.96        10.0 0.36            168           21.5 198 
 BRR  HZ EP       2118 15.68                             151    0.5310 74.7 299 
 BRR  HN ES       2118 32.42                             151    0.5710 74.7 299 
 BRR  HZ I        2118 33.91        14.0 0.34            150           74.7 299 
 PAM  SZ EP       2118 16.29                             151    0.2510 77.7  37 
 PAM  SN ES       2118 32.55                             151   -0.8710 77.7  37 
 PAM  SZ I        2118 34.77         6.2 0.48            156           77.7  37 
 RUS  HZ EP   1   2118 17.29                             145   -0.07 7 97.9 177 
 RUS  HE ES       2118 35.38                             145   -0.4010 97.9 177 
 RUS  HZ I        2118 39.10         5.0 0.40            146           97.9 177 
 PTB  HZ EP       2118 20.66                             132   -0.29 9  150 260 
 PTB  HE ES       2118 41.45                             132   -0.72 9  150 260 
 PTB  HZ I        2118 48.95        10.2 0.52            131            150 260 
 SPBC HZ EP       2118 22.57                             129    0.31 9  163 220 
 SPBC HN ES       2118 44.53                             129    0.02 9  163 220 
 SPBC HZ I        2118 50.32        11.1 0.38            129            163 220 
 ZAR  HZ EP   1   2118 25.96                             122   -0.61 6  207 293 
 ZAR  HN ES       2118 52.30                             122    0.12 8  207 293 
 ZAR  HZ I        2118 55.94         4.5 0.24            123            207 293 
 NOR  HZ EP       2118 29.96                             118    0.38 8  235 235 
 NOR  HE ES       2118 57.28                             118   -0.26 8  235 235 
 NOR  HZ I        2119  3.19         5.5 0.30            119            235 235 
 SML  HE ES       2118 59.52                             117   -0.12 8  247 335 
 SML  HZ I        2119  1.60         5.1 0.10            119            247 335 
                                                                                
