 2016  8 7 2200 41.4 L   6.774 -73.182142.0  RSN  4 0.2 1.2LRSN                1
 GAP=133        0.64       4.1     4.5  8.0  0.5228E+01 -0.1528E+02 -0.7379E+01E
 Epicentro: LOS SANTOS - SANTANDER                                             3
 ACTION:UPD 16-10-29 15:33 OP:rebc STATUS:               ID:20160807220041 L   I
 OLDACT:REG 16-08-08 12:20 OP:dnl  STATUS:               ID:20160807215733     3
 2016-08-07-2158-00M.COL___359                                                 6
 STAT SP IPHASW D HRMM SECON CODA AMPLIT PERI AZIMU VELO AIN AR TRES W  DIS CAZ7
 BRR  HZ EP       22 1  2.28                             152    0.2510 69.2 302 
 BRR  HN ES       22 1 18.29                             152    0.1710 69.2 302 
 BRR  HZ I        22 1 25.73         4.3 0.66                          69.2 302 
 PAM  EZ EP       22 1  3.18                             149   -0.3410 82.2  40 
 RUS  HZ EP       22 1  4.81                             144    0.2110 98.0 174 
 RUS  HN ES       22 1 22.63                             144   -0.0610 98.0 174 
 RUS  HZ I        22 1 24.83         1.8 0.44                          98.0 174 
 PTB  HE ES       22 1 27.87                             132   -0.26 9  143 260 
 PTB  HZ I        22 1 30.61         1.9 0.30                           143 260 
                                                                                
