 2012  1 7 2344 13.3 L   6.723 -73.134142.2  RSN 13 0.4 2.7LRSN                1
 GAP=141        0.87       3.2     4.1  5.0 -0.3907E+01  0.4352E+01  0.3515E+01E
 Epicentro: JORDAN - SANTANDER                                                 3
 ACTION:UP  12-02-03 08:15 OP:REBC STATUS:               ID:20120107234413 L   I
 2012-01-07-2340-00M.COL___186                                                 6
 STAT SP IPHASW D HRMM SECON CODA AMPLIT PERI AZIMU VELO SNR AR TRES W  DIS CAZ7
 BAR2 SZ EP       2344 32.37                             173     0.010   15 200 
 BAR2 SZ ES       2344 47.48                             173     0.310   15 200 
 BAR2 SZ I        2344 48.95       120.9 0.14                            15 200 
 GIR2 SZ EP       2344 32.46                             164    -0.310   40 351 
 BRR  HZ IP       2344 34.32                             150     0.010   77 304 
 BRR  HE ES       2344 50.99                             150     0.210   77 304 
 BRR  HZ I        2344 55.54        73.9 0.32                            77 304 
 PAM  SZ EP       2344 35.11                             148    -0.410   83  35 
 PAM  SE ES       2344 52.30                             148    -0.510   83  35 
 RUS  HZ EP       2344 36.25                             145     0.210   92 176 
 RUS  HE ES   1   2344 53.93                             145     0.1 7   92 176 
 RUS  HZ I        2344 56.78        52.0 0.48                            92 176 
 PTB  HZ EP   1   2344 39.33                             131    -0.6 7  148 262 
 PTB  HE ES   1   2345  0.57                             131    -0.2 7  148 262 
 OCA  SZ EP       2344 42.91                             127     0.8 9  169 353 
 OCA  SZ ES   1   2345  4.94                             127     0.3 7  169 353 
 OCA  SZ I        2345  9.89        78.2 0.23                           169 353 
 NOR  SZ EP   1   2344 47.90                             118    -0.5 6  231 236 
 NOR  SN ES   1   2345 15.56                             118    -0.2 6  231 236 
 CHI  HZ EP       2344 50.17                             117     0.3 8  241 196 
 CHI  HN ES   1   2345 18.94                             117     0.4 6  241 196 
 CHI  HZ I        2345 23.30        29.3 0.62                           241 196 
 HEL  HZ EP   1   2344 53.83                             114     0.6 6  271 258 
 HEL  HN ES   1   2345 24.46                             114     0.1 6  271 258 
 HEL  HZ I        2345 30.33        26.2 0.38                           271 258 
 RREF HZ EP   1   2344 58.24                             110    -0.5 5  317 231 
 RREF HN ES   1   2345 33.74                             110    -0.5 5  317 231 
 RREF HZ I        2345 44.34        44.5 0.50                           317 231 
 TOL  SZ EP   1   2345  0.98                             109     0.2 5  338 226 
 PRA  HZ EP   1   2345  5.93                             106     0.1 4  385 210 
 PRA  HN ES   1   2345 46.98                             106     0.1 4  385 210 
                                                                                
