 2014 11 7 2324  1.7 L   6.811 -73.139145.2  RSN 18 0.4 2.4LRSN                1
 GAP= 71        0.91       2.7     2.9  4.7 -0.2461E+01  0.1300E+01  0.2734E+01E
 Epicentro: LOS SANTOS - SANTANDER                                             3
 ACTION:UPD 14-12-19 15:40 OP:nd   STATUS:               ID:20141107232401 L   I
 OLDACT:DUP 14-11-08 10:57 OP:spq  STATUS:               ID:20141107231747d    3
 2014-11-07-2317-46M.COL___292                                                 6
 STAT SP IPHASW D HRMM SECON CODA AMPLIT PERI AZIMU VELO AIN AR TRES W  DIS CAZ7
 BAR2 SZ EP       2324 21.43                             170    0.1410 24.6 191 
 BAR2 SZ ES   1   2324 36.08                             170   -0.49 7 24.6 191 
 BAR2 SZ I        2324 37.35        77.7 0.15            168           24.6 191 
 BRR  HZ EP     C 2324 23.21                             152    0.4210 71.3 297 
 BRR  HN ES       2324 40.15                             152    0.9010 71.3 297 
 BRR  HZ I        2324 43.21        54.2 0.40            152           71.3 297 
 PAM  SZ EP     D 2324 24.14                             151    0.3710 76.0  40 
 PAM  SN ES       2324 40.98                             151   -0.0110 76.0  40 
 PAM  SZ I        2324 42.97        48.2 0.54            154           76.0  40 
 RUS  HZ EP       2324 25.34                             143   -0.1410  102 177 
 RUS  HE ES       2324 43.97                             143   -0.0510  102 177 
 RUS  HZ I        2324 44.87        20.9 0.22            143            102 177 
 PTB  HZ EP       2324 28.16                             132   -0.55 9  149 258 
 PTB  HE ES       2324 49.24                             132   -0.54 9  149 258 
 PTB  HZ I        2324 53.14        36.4 0.10            132            149 258 
 TAM  HZ EP     D 2324 29.66                             130    0.37 9  155 105 
 TAM  HN ES   1   2324 50.77                             130   -0.04 7  155 105 
 TAM  HZ I        2324 51.83        16.6 0.46            132            155 105 
 OCA  HZ EP   1   2324 30.08                             130    0.22 7  159 353 
 OCA  HN ES       2324 51.21                             130   -0.62 9  159 353 
 OCA  HZ I        2324 54.75        35.6 0.24            132            159 353 
 SPBC HZ EP       2324 30.27                             129   -0.02 9  165 219 
 SPBC HN ES       2324 52.55                             129   -0.04 9  165 219 
 SPBC HZ I        2324 59.17        29.4 0.26            129            165 219 
 NOR  HZ EP       2324 37.27                             118   -0.26 8  236 234 
 NOR  HE ES       2325  5.06                             118   -0.43 8  236 234 
 NOR  HZ I        2325 10.63        22.2 0.22            118            236 234 
 CHI  HZ EP   1   2324 39.07                             117   -0.44 6  250 195 
 CHI  HN ES   1   2325  8.44                             117   -0.56 6  250 195 
 CHI  HZ I        2325 15.85         6.2 0.28            117            250 195 
 GUY2CHZ EP   4   2324 46.77                             112    1.34 0  302 235 
 GUY2CHN ES       2325 19.58                             112    0.04 7  302 235 
 GUY2CHZ I        2325 27.94        14.1 0.54                           302 235 
 DBB  SZ EP   1   2324 49.27                             109    0.04 5  340 274 
 DBB  SZ ES   1   2325 26.38                             109    0.08 5  340 274 
 TOL  SN ES   1   2325 28.46                             109    0.63 5  345 225 
 TOL  SZ I        2325 33.38        16.7 0.26            110            345 225 
 MON  HZ EP   4   2324 48.83                             108   -1.83 0  354 308 
 MON  HN ES   4   2325 27.50                             108   -1.35 0  354 308 
 MON  HZ I        2325 28.32         7.4 0.18            109            354 308 
 SDV  BZ EP       2324 50.98                             108   -0.58 6  359  50 
 SDV  BE ES   4   2325 28.44                             108   -2.01 0  359  50 
 SDV  BZ I        2325 32.52         3.5 0.50            109            359  50 
 PRA  HZ EP       2324 55.69                             106    0.33 6  393 210 
 PRA  HN ES       2325 37.76                             106    0.54 6  393 210 
 PRA  HZ I        2325 44.19         7.4 0.22            107            393 210 
 ORTC HZ EP       2324 56.42                             106    0.66 6  397 216 
 ORTC HN ES   1   2325 38.31                             106    0.38 4  397 216 
 ORTC HZ I        2325 44.45         5.8 0.52            107            397 216 
 SJC  HZ EP   4   2324 55.52                             106   -1.65 0  409 327 
 SJC  HE ES   4   2325 36.11                             106   -4.33 0  409 327 
 SJC  HZ I        2325 41.29         5.4 0.66            106            409 327 
                                                                                
