 2012 11 7 2251  9.8 L   6.816 -73.163145.0  RSN 11 0.4 2.7LRSN                1
 GAP= 70        0.90       2.7     2.9  4.7  0.1456E+00  0.3083E+01  0.2339E+01E
 Epicentro: LOS SANTOS - SANTANDER                                             3
 ACTION:UPD 12-12-05 15:31 OP:}ep  STATUS:               ID:20121107225109 L   I
 2012-11-07-2250-00M.COL___229                                                 6
 STAT SP IPHASW D HRMM SECON CODA AMPLIT PERI AZIMU VELO AIN AR TRES W  DIS CAZ7
 BAR2 SZ EP       2251 29.37                             170    0.0210 24.9 185 
 BAR2 SZ ES       2251 44.43                             170   -0.1810 24.9 185 
 BAR2 SZ I        2251 48.18        73.4 0.38                          24.9 185 
 BRR  HZ EP       2251 31.15                             153    0.4510 68.6 298 
 BRR  HN ES       2251 47.78                             153    0.7610 68.6 298 
 BRR  HN I        2251 48.43       236.8 0.30                          68.6 298 
 PAM  SZ EP       2251 32.24                             151    0.3410 77.3  42 
 PAM  SN ES       2251 49.09                             151   -0.0810 77.3  42 
 PAM  SN I        2251 49.97       109.5 0.46                          77.3  42 
 RUS  HZ EP       2251 33.53                             143   -0.0610  103 175 
 RUS  HN ES       2251 51.94                             143   -0.2410  103 175 
 RUS  HN I        2251 53.93        52.1 0.40                           103 175 
 PTB  HZ EP       2251 36.11                             132   -0.43 9  146 258 
 PTB  HN ES   1   2251 57.15                             132   -0.27 7  146 258 
 PTB  HN I        2252  2.24        91.8 0.50                           146 258 
 TAM  HZ EP       2251 37.83                             130    0.22 9  157 105 
 TAM  HN ES   1   2251 59.23                             130   -0.10 7  157 105 
 TAM  HN I        2252  0.18        35.0 0.34                           157 105 
 OCA  HZ EP       2251 37.61                             130   -0.23 9  158 354 
 OCA  HN ES       2251 59.15                             130   -0.57 9  158 354 
 OCA  HN I        2252  2.23       104.4 0.34                           158 354 
 ZAR  HZ EP       2251 41.29                             123   -0.62 9  202 292 
 ZAR  HN ES       2252  7.37                             123    0.39 9  202 292 
 ZAR  HN I        2252 11.97        59.1 0.74                           202 292 
 CHI  HZ EP       2251 47.88                             117    0.31 8  250 195 
 CHI  HN ES       2252 16.76                             117   -0.28 8  250 195 
 CHI  HN I        2252 19.81        33.5 0.32                           250 195 
 HEL  HZ EP       2251 50.07                             115    0.28 8  271 255 
 HEL  HN ES       2252 20.59                             115   -0.41 8  271 255 
 HEL  HN I        2252 28.47        20.6 0.46                           271 255 
 PRA  HZ EP       2252  3.91                             106    0.57 6  393 209 
 PRA  HN ES       2252 45.29                             106    0.17 6  393 209 
                                                                                
