 2012 11 7 2147 13.9 L   6.707 -73.172152.6  RSN  6 0.2 2.1LRSN                1
 GAP=227        0.52       2.9     3.5  5.1  0.5281E+01  0.3691E+00  0.8626E+00E
 Epicentro: VILLANUEVA - SANTANDER                                             3
 ACTION:UPD 12-12-05 15:31 OP:}ep  STATUS:               ID:20121107214714dL   I
 2012-11-07-2140-00M.COL___230                                                 6
 STAT SP IPHASW D HRMM SECON CODA AMPLIT PERI AZIMU VELO AIN AR TRES W  DIS CAZ7
 BAR2 SZ EP       2147 33.81                             175   -0.3510 12.7 185 
 BRR  HZ EP       2147 35.97                             153    0.0410 74.3 307 
 BRR  HN ES       2147 53.12                             153   -0.0210 74.3 307 
 BRR  HN I        2147 54.51        30.4 0.20                          74.3 307 
 RUS  HZ EP       2147 37.94                             148    0.3210 90.6 174 
 RUS  HN ES       2147 56.24                             148    0.0910 90.6 174 
 RUS  HN I        2147 57.31         7.5 0.32                          90.6 174 
 PTB  HZ EP       2147 40.90                             134   -0.10 9  143 263 
 PTB  HN ES       2148  2.09                             134   -0.08 9  143 263 
 PTB  HN I        2148  7.39        29.1 0.46                           143 263 
 ZAR  HN ES       2148 12.90                             124    0.21 8  206 295 
 ZAR  HN I        2148 18.35        15.8 0.24                           206 295 
 CHI  HN ES       2148 19.53                             120   -0.10 8  238 195 
 CHI  HN I        2148 23.87         5.7 0.30                           238 195 
                                                                                
