 2010  8 7 2016 19.2 L   6.792 -73.112139.9  RSN 14 0.5 2.3LRSN                1
 GAP=159        0.99       3.9     7.1  7.2 -0.8608E+01  0.4558E+01 -0.1839E+01E
 Epicentro: LOS SANTOS - SANTANDER                                             3
 ACTION:UP  10-09-07 10:53 OP:vdl  STATUS:               ID:20100807201619 L   I
 2010-08-07-2014-48S.COL___124                                                 6
 STAT SP IPHASW D HRMM SECON CODA AMPLIT PERI AZIMU VELO SNR AR TRES W  DIS CAZ7
 BTL  SZ EP   1   2016 39.25                                     1.1 7   22 309 
 BAR2 SZ EP   1   2016 37.49                             170    -0.6 7   24 200 
 BAR2 SZ ES   1   2016 52.59                             170    -0.3 7   24 200 
 BAR2 SZ I        2016 54.13        55.5 0.29                            24 200 
 GIR2 SZ IP       2016 38.25                             166     0.010   33 344 
 BRR  HZ IP     D 2016 40.04                             149     0.110   75 298 
 BRR  HE ES   1   2016 56.58                             149     0.5 7   75 298 
 BRR  HZ I        2017  1.18        65.7 0.15                            75 298 
 RUS  HZ EP   1   2016 42.15                             143    -0.1 7   99 178 
 RUS  HE ES   1   2017  0.20                             143    -0.1 7   99 178 
 RUS  HZ I        2017  2.50        19.6 0.29                            99 178 
 BRI  SZ EP   1   2016 42.69                             140     0.2 7  108  19 
 GUE  SZ EP       2016 43.19                             138    -0.210  117  10 
 GUE  SZ I        2016 44.95        15.0 0.13                           117  10 
 GRA  SZ IP       2016 44.16                             136     0.310  126  16 
 GRA  SZ I        2016 45.44        39.8 0.24                           126  16 
 GRA  SZ ES   2   2017  2.65                             136    -0.5 5  126  16 
 OCA  SZ IP       2016 46.87                             128    -0.3 9  162 352 
 OCA  SZ ES   1   2017  8.82                             128    -0.2 7  162 352 
 OCA  SZ I        2017 12.58        45.1 0.24                           162 352 
 CHI  HZ EP   1   2016 57.08                             116     0.5 6  249 196 
 CHI  HE ES   2   2017 24.94                             116    -0.8 4  249 196 
 CHI  HZ I        2017 28.70         7.3 0.48                           249 196 
 HEL  HZ EP   1   2016 59.86                             113     0.4 6  276 256 
 HEL  HE ES   2   2017 29.77                             113    -1.2 4  276 256 
 HEL  HZ I        2017 35.32         6.3 0.53                           276 256 
 GUY  SN ES   2   2017 37.09                             111     0.2 4  304 235 
 GUY  SZ I        2017 46.11        18.4 0.54                           304 235 
 DBB  SZ EP   2   2017  6.08                             108    -0.8 3  343 274 
 PRA  HZ EP   1   2017 12.74                             105     0.1 4  393 210 
 PRA  HE ES   2   2017 54.50                             105     0.2 3  393 210 
 PRA  HZ I        2017 59.23         6.6 0.26                           393 210 
                                                                                
