 2017  7 7 2140 45.7 L   7.304 -73.329111.5  RSN 10 0.5 2.3LRSN                1
 GAP=122        1.14       4.7     3.9  7.5 -0.2354E+01  0.1415E+02 -0.1056E+02E
 Epicentro: RIONEGRO - SANTANDER                                               3
 ACTION:UPD 17-08-30 15:30 OP:rebc STATUS:               ID:20170707214045 L   I
 OLDACT:UP  17-07-08 05:29 OP:dhb  STATUS:               ID:20170707213744     3
 OLDACT:REG 17-07-08 02:49 OP:dhb  STATUS:               ID:20170707213744     3
 2017-07-07-2138-00M.COL___383                                                 6
 STAT SP IPHASW D HRMM SECON CODA AMPLIT PERI AZIMU VELO AIN AR TRES W  DIS CAZ7
 BRR  HZ IP       2141  1.55                             155   -0.2710 47.6 243 
 BRR  HE ES       2141 14.38                             155   -0.0310 47.6 243 
 BRR  HZ I        2141 15.06        39.6 0.16            154           47.6 243 
 PAM  EZ EP       2141  4.59                             146    0.7410 69.6  87 
 PAM  EN ES       2141 18.35                             146    0.3410 69.6  87 
 PAM  EZ I        2141 20.78        32.6 0.21            147           69.6  87 
 BAR2 EZ IP     C 2141  3.88                             142   -0.3910 80.3 168 
 BAR2 EZ ES       2141 18.11                             142   -0.6510 80.3 168 
 BAR2 EZ I        2141 19.20       136.3 0.11            141           80.3 168 
 PTB  HZ EP       2141  9.63                             122   -0.77 9  151 236 
 PTB  HN ES       2141 29.70                             122    0.02 9  151 236 
 PTB  HZ I        2141 30.37        25.7 0.15            121            151 236 
 ZAR  HZ E        2141 12.76                                            170 277 
 ZAR  HZ EP       2141 12.76                             118    0.31 9  170 277 
 ZAR  HE ES       2141 33.95                             118    0.63 9  170 277 
 ZAR  HZ I        2141 36.16        27.2 0.22            118            170 277 
 URE  HZ EP   3   2141 20.83                             109   -0.37 2  248 282 
 URE  HN ES       2141 48.49                             109   -0.40 8  248 282 
 URE  HZ I        2141 50.95        25.8 0.24            108            248 282 
 NOR  HZ EP   9   2141 21.19                             108   -1.08 0  257 222 
 NOR  HE ES       2141 49.67                                   -0.05 8  257 222 
 NOR  HZ I        2141 53.94        15.2 0.18            107            257 222 
 LL6C HZ EP   4   2141 23.96                             107    0.37 0  269   1 
 LL6C HN ES   4   2141 56.30                             107    3.16 0  269   1 
 GUY2CHZ EP   4   2141 31.16                             103    0.75 0  322 225 
 GUY2CHN ES       2142  6.38                             103    1.08 7  322 225 
 GUY2CHZ I        2142 10.90         7.0 0.29                           322 225 
 CBOC HZ EP       2141 32.28                             102    0.48 7  337 242 
 CBOC HN ES       2142  7.75                             102   -0.01 7  337 242 
 CBOC HZ I        2142 16.43         3.9 0.34            102            337 242 
 SJC  HZ EP       2141 33.27                             101   -0.18 6  352 325 
 SJC  HN ES       2142 10.13                             101   -0.57 6  352 325 
 SJC  HZ I        2142 12.48         3.7 0.28            101            352 325 
 ORTC HZ EP   4   2141 44.07                              98    1.09 0  431 210 
 ORTC HN ES   4   2142 30.20                              98    2.53 0  431 210 
                                                                                
