 2013  4 7 2242  6.3 L   6.738 -73.199151.7  RSN  5 0.3 1.9LRSN                1
 GAP=226        0.54       4.3     4.4  4.7  0.9452E+01  0.3661E+01  0.2016E+01E
 Epicentro: VILLANUEVA - SANTANDER                                             3
 ACTION:UPD 13-05-22 14:36 OP:EP   STATUS:               ID:20130407224206 L   I
 2013-04-07-2240-00M.COL___245                                                 6
 STAT SP IPHASW D HRMM SECON CODA AMPLIT PERI AZIMU VELO AIN AR TRES W  DIS CAZ7
 BAR2 SZ EP   2   2242 25.96                             174   -0.57 5 16.2 174 
 BAR2 SZ I        2242 42.15        13.8 0.16            167           16.2 174 
 BAR2 SZ ES       2242 42.19                             174   -0.1210 16.2 174 
 BRR  HZ EP       2242 27.96                             154   -0.0710 69.9 306 
 BRR  HN ES       2242 45.26                             154    0.2910 69.9 306 
 BRR  HN I        2242 45.45        23.2 0.28            149           69.9 306 
 RUS  HZ EP   1   2242 30.47                             147    0.26 7 94.3 172 
 RUS  HN ES       2242 48.87                             147    0.0110 94.3 172 
 RUS  HN I        2242 50.02         9.1 0.34            141           94.3 172 
 PTB  HZ EP   1   2242 32.95                             135   -0.20 7  141 261 
 PTB  HN ES       2242 53.97                             135   -0.12 9  141 261 
 PTB  HN I        2242 55.26         8.1 0.40            132            141 261 
 CHI  HZ EP   2   2242 44.05                             119    0.59 4  240 194 
                                                                                
