 2014 11 7 2132 27.9 L   6.809 -73.158143.6  RSN  5 0.1 1.5LRSN                1
 GAP=142        0.36       2.6     2.1  3.2 -0.2247E+01  0.1655E+01  0.1944E+00E
 Epicentro: LOS SANTOS - SANTANDER                                             3
 ACTION:UPD 14-12-19 15:40 OP:nd   STATUS:               ID:20141107213227 L   I
 OLDACT:REG 14-11-08 04:35 OP:spq  STATUS:               ID:20141107212750     3
 2014-11-07-2127-50M.COL___295                                                 6
 STAT SP IPHASW D HRMM SECON CODA AMPLIT PERI AZIMU VELO AIN AR TRES W  DIS CAZ7
 BAR2 SZ EP   1   2132 47.26                             170   -0.07 7 24.2 186 
 BAR2 SZ ES   1   2133  2.39                             170   -0.07 7 24.2 186 
 BAR2 SZ I        2133  5.73        12.3 0.22            170           24.2 186 
 PAM  SZ EP       2132 50.11                             150    0.1710 77.5  41 
 PAM  SE ES   1   2133  6.97                             150   -0.12 7 77.5  41 
 PAM  SZ I        2133  9.50         2.4 0.48            154           77.5  41 
 RUS  HZ EP       2132 51.56                             143   -0.0110  102 175 
 RUS  HE ES   1   2133 10.05                             143    0.06 7  102 175 
 RUS  HZ I        2133 10.87         3.2 0.36            146            102 175 
 PTB  HZ EP   1   2132 54.31                             132   -0.32 7  147 258 
 PTB  HN ES       2133 15.56                             132    0.11 9  147 258 
 PTB  HZ I        2133 17.38         5.7 0.14            133            147 258 
 NOR  HZ EP       2133  3.50                             118    0.01 8  234 234 
 NOR  HN ES   1   2133 31.23                             118    0.01 6  234 234 
 NOR  HZ I        2133 37.29         2.8 0.16            120            234 234 
                                                                                
