 2012 10 7 2307 25.8 L   6.772 -73.053138.0  RSN  5 0.4 1.5LRSN                1
 GAP=150        0.81       9.9     6.2 13.5  0.1432E+02  0.1973E+02  0.7760E+02E
 Epicentro: LOS SANTOS - SANTANDER                                             3
 ACTION:UPD 12-11-22 17:02 OP:ep   STATUS:               ID:20121007230725 L   I
 2012-10-07-2300-00M.COL___222                                                 6
 STAT SP IPHASW D HRMM SECON CODA AMPLIT PERI AZIMU VELO AIN AR TRES W  DIS CAZ7
 BAR2 SZ EP   1   23 7 44.38                             169   -0.19 7 24.4 216 
 PAM  SZ EP   1   23 7 47.41                             151    0.38 7 73.9  32 
 PAM  SN ES   1   23 8  3.58                             151    0.02 7 73.9  32 
 PAM  SN I        23 8  5.35         7.1 0.50                          73.9  32 
 BRR  HZ EP       23 7 46.22                             148   -0.6010 81.7 297 
 BRR  HN ES   1   23 8  3.34                             148    0.16 7 81.7 297 
 BRR  HN I        23 8  4.10        20.6 0.22                          81.7 297 
 RUS  HZ EP   1   23 7 48.95                             143    0.35 7 97.3 182 
 RUS  HZ I        23 8  8.08         0.8 0.24                          97.3 182 
 ZAR  HN ES   1   23 8 25.22                             120    0.49 6  215 292 
 ZAR  HN I        23 8 31.20         5.4 0.26                           215 292 
                                                                                
