 2017 10 7 2330 26.5 L   6.391 -73.921  9.8  RSN  4 0.4 0.9LRSN                1
 GAP=197        1.04       5.4     5.2  8.0  0.1822E+02  0.2727E+02  0.1099E+02E
 Epicentro: CIMITARRA - SANTANDER                                              3
 ACTION:UPD 17-11-07 19:29 OP:rebc STATUS:               ID:20171007233026 L   I
 OLDACT:UP  17-10-08 04:06 OP:edw  STATUS:               ID:20171007232544     3
 OLDACT:REG 17-10-08 03:14 OP:edw  STATUS:               ID:20171007232544     3
 2017-10-07-2328-00M.COL___399                                                 6
 STAT SP IPHASW D HRMM SECON CODA AMPLIT PERI AZIMU VELO AIN AR TRES W  DIS CAZ7
 BAR2 EZ EP       2330 39.32                              94   -0.8610 84.6  75 
 BAR2 EZ ES       2330 51.26                              94    0.4010 84.6  75 
 BAR2 EZ I        2330 53.56         3.2 0.24             95           84.6  75 
 RUS  HZ EP       2330 43.94                              93   -0.0110  108 121 
 RUS  HN ES       2330 57.93                              93    0.3510  108 121 
 RUS  HZ I        2331  0.71         1.7 0.28             94            108 121 
 ZAR  HZ EP       2330 51.45                              56    0.22 9  160 320 
 ZAR  HN ES       2331 10.66                              56    0.12 9  160 320 
 ZAR  HZ I        2331 10.96         2.3 0.28             56            160 320 
 YPLC HN ES       2331 20.05                              56   -0.22 9  203 123 
                                                                                
