 2012  5 7 2340 10.2 L   6.733 -73.113144.8  RSN  4 0.2 1.3LRSN                1
 GAP=144        0.57       4.4     4.4  7.8 -0.6570E+01  0.1049E+02 -0.6166E+01E
 Epicentro: JORDAN - SANTANDER                                                 3
 ACTION:UP  12-07-05 12:03 OP:pat  STATUS:               ID:20120507234010 L   I
 2012-05-07-2338-35M.COL___187                                                 6
 STAT SP IPHASW D HRMM SECON CODA AMPLIT PERI AZIMU VELO SNR AR TRES W  DIS CAZ7
 BRR  HZ EP   1   2340 31.56                             150    -0.1 7   78 302 
 BRR  HZ I        2340 46.13        10.1 0.32                            78 302 
 PAM  SZ EP       2340 32.78                             149     0.310   81  34 
 PAM  SN ES   1   2340 49.69                             149    -0.2 7   81  34 
 RUS  HZ EP   1   2340 32.95                             146    -0.3 7   93 178 
 RUS  HN ES   1   2340 51.48                             146     0.2 7   93 178 
 RUS  HZ I        2340 52.91         1.6 0.17                            93 178 
 PTB  HZ EP   1   2340 37.22                             131    -0.1 7  150 262 
 PTB  HN ES   1   2340 58.47                             131     0.1 7  150 262 
 PTB  HZ I        2340 59.85         1.4 0.14                           150 262 
                                                                                
