 2015  3 7 2354  0.7 L   6.773 -73.153147.2  RSN  7 0.4 1.8LRSN                1
 GAP=137        1.08       4.3     5.3  7.5 -0.3954E+01  0.6799E+01 -0.3713E+00E
 Epicentro: LOS SANTOS - SANTANDER                                             3
 ACTION:UPD 15-04-30 16:24 OP:nd   STATUS:               ID:20150307235400 L   I
 OLDACT:REG 15-03-08 02:03 OP:mh   STATUS:               ID:20150307234748     3
 2015-03-07-2347-48M.COL___281                                                 6
 STAT SP IPHASW D HRMM SECON CODA AMPLIT PERI AZIMU VELO AIN AR TRES W  DIS CAZ7
 BAR2 EZ EP   1   2354 20.40                             172   -0.01 7 20.2 189 
 BAR2 EZ ES       2354 35.54                             172   -0.2610 20.2 189 
 BAR2 EZ I        2354 36.94        12.9 0.21            171           20.2 189 
 BRR  HZ EP       2354 22.43                             152    0.4210 72.0 301 
 BRR  HN ES       2354 39.49                             152    0.8410 72.0 301 
 BRR  HZ I        2354 43.07        12.0 0.79            151           72.0 301 
 PAM  SZ EP       2354 23.71                             150    0.5110 80.3  39 
 PAM  SN ES       2354 40.25                             150   -0.5310 80.3  39 
 PAM  SZ I        2354 42.76        10.3 0.46            155           80.3  39 
 RUS  HZ EP       2354 24.42                             145    0.0810 97.6 175 
 RUS  HN ES   1   2354 42.63                             145   -0.18 7 97.6 175 
 RUS  HZ I        2354 44.34         7.5 0.50            147           97.6 175 
 PTB  HZ EP       2354 27.11                             133   -0.51 9  146 260 
 PTB  HN ES       2354 48.20                             133   -0.45 9  146 260 
 PTB  HZ I        2354 55.10         8.0 0.54            133            146 260 
 SPBC HZ EP   1   2354 28.90                             130   -0.10 7  160 219 
 SPBC HN ES       2354 51.34                             130    0.24 9  160 219 
 SPBC HZ I        2354 54.93        11.5 0.29            131            160 219 
 SML  HN ES       2355  6.05                             117   -0.41 8  246 336 
                                                                                
