 2010  8 7 2043 20.5 L   6.814 -73.086143.7  RSN  4 0.2 0.8LRSN                1
 GAP=171        0.49       8.0    12.8 13.8  0.4116E+02 -0.1008E+03 -0.2596E+02E
 Epicentro: LOS SANTOS - SANTANDER                                             3
 ACTION:UP  10-09-07 10:53 OP:vdl  STATUS:               ID:20100807204320 L   I
 2010-08-07-2038-48S.COL___125                                                 6
 STAT SP IPHASW D HRMM SECON CODA AMPLIT PERI AZIMU VELO SNR AR TRES W  DIS CAZ7
 BTL  SZ EP       2043 40.14                             171     0.210   23 300 
 BRR  HZ EP       2043 41.71                             151     0.010   76 295 
 BRR  HE ES   2   2043 58.14                             151    -0.2 5   76 295 
 RUS  HZ EP   2   2043 43.83                             143    -0.3 5  102 180 
 RUS  HN ES   3   2044  2.54                             143    -0.1 2  102 180 
 RUS  HZ I        2044  3.79         1.1 0.41                           102 180 
 GUE  SZ EP   2   2043 44.55                             140    -0.3 5  114   9 
 GUE  SZ I        2044  4.61         0.9 0.08                           114   9 
                                                                                
