 2015  6 7 2334 28.5 L   6.786 -73.149148.6  RSN 13 0.4 1.9LRSN                1
 GAP=182        0.75       2.3     4.1  5.0 -0.6391E+00  0.2808E+01  0.1204E+00E
 Epicentro: LOS SANTOS - SANTANDER                                             3
 ACTION:UPD 15-09-10 22:10 OP:cam  STATUS:               ID:20150607233428 L   I
 OLDACT:REG 15-06-08 03:13 OP:spq  STATUS:               ID:20150607232749     3
 2015-06-07-2327-49M.COL___300                                                 6
 STAT SP IPHASW D HRMM SECON CODA AMPLIT PERI AZIMU VELO AIN AR TRES W  DIS CAZ7
 BAR2 EZ EP       2334 48.20                             171   -0.2510 21.7 190 
 BAR2 EZ ES   1   2335  3.92                             171   -0.08 7 21.7 190 
 BAR2 EZ I        2335  4.31        20.1 0.26            169           21.7 190 
 BRR  HZ EP     C 2334 49.90                             153   -0.0910 71.7 300 
 BRR  HN ES       2335  7.13                             153    0.3810 71.7 300 
 BRR  HZ I        2335  9.64        11.4 0.17            149           71.7 300 
 RUS  HZ EP   1   2334 52.10                             145   -0.33 7 99.0 176 
 RUS  HE ES   1   2335 11.02                             145   -0.07 7 99.0 176 
 RUS  HZ I        2335 11.87         8.7 0.26            145           99.0 176 
 SPBC HZ EP       2334 57.52                             130    0.43 9  162 219 
 SPBC HN ES       2335 19.37                             130   -0.01 9  162 219 
 SPBC HZ I        2335 24.13        12.8 0.16            129            162 219 
 OCA  HZ EP       2334 56.84                             130   -0.35 9  162 353 
 OCA  HE ES       2335 20.14                             130    0.59 9  162 353 
 OCA  HZ I        2335 26.58        13.8 0.26            130            162 353 
 ZAR  HZ EP   1   2335  1.33                             123    0.16 6  204 293 
 ZAR  HE ES       2335 26.20                             123   -0.45 9  204 293 
 ZAR  HZ I        2335 31.44         6.9 0.41            122            204 293 
 NOR  HZ EP   1   2335  4.75                             119    0.47 6  233 235 
 NOR  HE ES   1   2335 31.59                             119   -0.59 6  233 235 
 NOR  HZ I        2335 39.39         5.1 0.16            118            233 235 
 SML  HZ EP   1   2335  5.14                             118   -0.30 6  245 336 
 SML  HE ES   1   2335 33.76                             118   -0.48 6  245 336 
 SML  HZ I        2335 37.11        11.3 0.10            118            245 336 
 CHI  HN ES   1   2335 35.50                             118   -0.08 6  247 195 
 CHI  HZ I        2335 38.04         6.0 0.44            118            247 195 
 HEL  HZ EP   4   2335 10.10                             115    1.31 0  271 256 
 HEL  HN ES   1   2335 40.46                             115    0.25 6  271 256 
 HEL  HZ I        2335 46.16         3.5 0.30            115            271 256 
 GUY2CHZ EP   4   2335 13.46                             113    1.34 0  300 235 
 GUY2CHE ES   4   2335 48.51                             113    2.38 0  300 235 
 GUY2CHZ I        2335 54.59         3.1 0.56                           300 235 
 MON  HN ES   4   2335 53.84                             109   -2.24 0  354 309 
 MON  HZ I        2335 55.87         2.4 0.36            109            354 309 
 PRA  HZ EP   1   2335 22.66                             107    0.71 4  390 210 
 PRA  HN ES   1   2336  3.99                             107    0.36 4  390 210 
 PRA  HZ I        2336 11.58         3.4 0.36            107            390 210 
                                                                                
