 2012  3 7 2204 24.1 L   6.889 -73.202 82.0  RSN 11 9.1 2.1LRSN                1
 GAP=125       18.88      52.0    61.3112.6  0.2950E+02  0.3800E+04  0.1826E+03E
 ACTION:UP  12-03-31 23:18 OP:EP   STATUS:               ID:20120307220424 L   I
 2012-03-07-2200-00M.COL___193                                                 6
 STAT SP IPHASW D HRMM SECON CODA AMPLIT PERI AZIMU VELO SNR AR TRES W  DIS CAZ7
 BAR2 SZ EP       22 4 33.34                             171    -3.210   33 176 
 BAR2 SZ ES   1   22 4 47.15                             171     0.9 7   33 176 
 BAR2 SZ I   L    22 4 49.91        44.0 0.15                    3.710   33 176 
 BRR  HZ EP       22 4 35.14                             151    -2.910   61 293 
 BRR  HZ I   L    22 4 35.30        66.5 0.16                   -2.710   61 293 
 PAM  SZ EP       22 4 36.36                             148    -3.510   75  48 
 PAM  SE ES   1   22 4 53.08                             148     1.0 7   75  48 
 PAM  SZ I   L    22 4 55.65        16.7 0.45                    3.510   75  48 
 RUS  HZ EP       22 4 37.34                             142    -6.010  111 173 
 RUS  HE ES   1   22 4 55.51                             142    -2.9 7  111 173 
 RUS  HZ I   L    22 4 56.97        24.7 0.24                   -1.410  111 173 
 PTB  HZ EP   1   22 4 40.05                             130    -6.3 7  144 255 
 PTB  HN ES   1   22 5  1.14                             130    -2.6 7  144 255 
 ZAR  HZ EP   1   22 4 45.81                             120    -6.4 6  195 290 
 ZAR  HN ES   1   22 5 11.40                             120    -2.7 6  195 290 
 ZAR  HZ I   L    22 5 16.99        31.9 0.29                    2.9 9  195 290 
 NOR  SZ EP   1   22 4 50.01                             117    -7.1 6  236 232 
 NOR  SN ES   1   22 5 17.23                             117    -5.7 6  236 232 
 CHI  HZ EP   1   22 4 51.58                             115    -8.5 6  257 193 
 CHI  HZ I   L    22 5 25.04         7.7 0.35                   24.9 8  257 193 
 HEL  HZ EP   1   22 4 54.72                             113    -6.8 6  269 253 
 HEL  HZ I   L    22 5 31.56        17.3 0.48                   30.1 8  269 253 
 TOL  SZ EP   1   22 5  2.05                             108    -8.8 5  346 223 
 PRA  HZ EP   1   22 5  7.95                             105    -8.8 4  398 208 
                                                                                
