 2014  7 7 2120 18.3 L   7.059 -73.214148.1  RSN  6 0.5 1.6LRSN                1
 GAP=202        1.03       5.0     9.7  8.9  0.6287E+01  0.1797E+02 -0.9468E+01E
 Epicentro: GIRON - SANTANDER                                                  3
 ACTION:UPD 15-03-16 20:42 OP:nd   STATUS:               ID:20140707212018 L   I
 OLDACT:REG 14-07-08 02:47 OP:spq  STATUS:               ID:20140707211819     3
 2014-07-07-2118-19M.COL___271                                                 6
 STAT SP IPHASW D HRMM SECON CODA AMPLIT PERI AZIMU VELO AIN AR TRES W  DIS CAZ7
 BAR2 SZ ES   1   2120 54.45                             160   -0.81 7 51.7 176 
 BAR2 SZ I        2120 55.46         3.5 0.11            163           51.7 176 
 BRR  HZ EP       2120 39.17                             159    0.3310 55.2 276 
 BRR  HE ES       2120 55.18                             159    0.2710 55.2 276 
 BRR  HZ I        2121  3.82        13.0 0.52            153           55.2 276 
 PTB  HZ EP       2120 45.17                             132   -0.33 9  149 247 
 SPBC HN ES       2121 13.15                             126    0.60 9  182 211 
 SPBC HZ I        2121 14.64         1.9 0.08            130            182 211 
 ZAR  HZ EP       2120 48.97                             125   -0.23 9  188 285 
 ZAR  HN ES       2121 12.82                             125   -0.51 9  188 285 
 ZAR  HZ I        2121 20.06         3.4 0.14            127            188 285 
 SML  HZ EP   1   2120 51.70                             121   -0.22 6  215 334 
 SML  HN ES       2121 18.66                             121    0.48 8  215 334 
 SML  HZ I        2121 21.35         6.3 0.07            124            215 334 
                                                                                
