 2017 10 7 2357 58.6 L   7.172 -73.062147.2  RSN  8 0.3 1.8LRSN                1
 GAP=116        0.66       3.0     3.7  4.9  0.8029E+00  0.9068E+01  0.3651E+01E
 Epicentro: BUCARAMANGA - SANTANDER                                            3
 ACTION:UPD 17-11-07 19:29 OP:rebc STATUS:               ID:20171007235758 L   I
 OLDACT:UP  17-10-08 04:45 OP:edw  STATUS:               ID:20171007234119     3
 OLDACT:UP  17-10-08 04:22 OP:edw  STATUS:               ID:20171007234119     3
 OLDACT:REG 17-10-08 03:16 OP:edw  STATUS:               ID:20171007234119     3
 2017-10-07-2348-00M.COL___399                                                 6
 STAT SP IPHASW D HRMM SECON CODA AMPLIT PERI AZIMU VELO AIN AR TRES W  DIS CAZ7
 PAM  EZ EP       2358 19.11                             163   -0.2510 44.1  65 
 PAM  EE ES       2358 35.71                             163    0.1510 44.1  65 
 PAM  EZ I        2358 37.48         7.9 0.20            167           44.1  65 
 BAR2 EZ EP       2358 20.50                             155    0.5610 65.5 192 
 BAR2 EZ ES       2358 36.31                             155   -0.2710 65.5 192 
 BAR2 EZ I        2358 40.73        12.3 0.24            154           65.5 192 
 RUS  HZ EP       2358 25.84                             134    0.07 9  141 181 
 RUS  HN ES       2358 46.86                             134   -0.10 9  141 181 
 RUS  HZ I        2358 48.48         2.0 0.30            135            141 181 
 ZAR  HZ EP       2358 30.76                             123   -0.10 9  201 280 
 ZAR  HE ES       2358 56.06                             123    0.03 9  201 280 
 ZAR  HZ I        2358 58.01         8.9 0.28            125            201 280 
 LL6C HZ EP   9   2358 37.41                             114   -2.37 0  284 355 
 LL6C HE ES   1   2359  9.13                             114   -0.41 6  284 355 
 CHI  HZ EP       2358 40.45                             113   -0.56 7  291 195 
 CHI  HE ES       2359 14.33                             113    0.23 7  291 195 
 CHI  HZ I        2359 20.13         2.4 0.34            115            291 195 
 GUY2CHZ EP       2358 46.17                             110    0.22 7  334 230 
 GUY2CHN ES       2359 22.93                             110    0.04 7  334 230 
 GUY2CHZ I        2359 32.35         2.9 0.54                           334 230 
 PRA  HE ES       2359 42.21                             105   -0.20 5  432 208 
 PRA  HZ I        2359 48.78         3.8 0.28            106            432 208 
                                                                                
