 2016  7 7 2331 45.5 L   6.847 -73.312120.9  RSN  8 0.5 1.8LRSN                1
 GAP=108        1.14       4.3     4.2  8.4 -0.2511E+01  0.1100E+02  0.1856E+01E
 Epicentro: ZAPATOCA - SANTANDER                                               3
 ACTION:UPD 17-03-29 16:48 OP:lp   STATUS:               ID:20160707233145 L   I
 OLDACT:REG 16-07-08 03:49 OP:ak   STATUS:               ID:20160707232743     3
 2016-07-07-2327-43M.COL___334                                                 6
 STAT SP IPHASW D HRMM SECON CODA AMPLIT PERI AZIMU VELO AIN AR TRES W  DIS CAZ7
 BAR2 EZ IP     C 2332  2.51                             164    0.1610 31.6 153 
 BAR2 EZ ES       2332 15.63                             164    0.1210 31.6 153 
 BAR2 EZ I        2332 16.88        56.6 0.30            164           31.6 153 
 BRR  HZ IP     D 2332  2.90                             155    0.0110 52.7 303 
 BRR  HN ES       2332 16.52                             155    0.0310 52.7 303 
 PAM  EZ EP       2332  5.56                             142   -0.2210 86.8  51 
 PAM  EN ES       2332 22.07                             142    0.4510 86.8  51 
 PAM  EZ I        2332 25.27         9.2 0.21            144           86.8  51 
 RUS  HZ EP   2   2332  7.55                             135    0.03 5  109 167 
 RUS  HN ES       2332 24.11                             135   -0.6210  109 167 
 RUS  HZ I        2332 28.56         4.9 0.36            135            109 167 
 PTB  HZ EP   2   2332  7.97                             129   -0.94 5  131 255 
 PTB  HN ES       2332 26.21                             129   -0.9810  131 255 
 PTB  HZ I        2332 29.90        15.9 0.16            128            131 255 
 SPBC HZ EP   2   2332 12.22                             124    0.70 5  157 213 
 SPBC HN ES       2332 32.22                             124    0.38 9  157 213 
 SPBC HZ I        2332 34.66         8.0 0.24            123            157 213 
 ZAR  HZ EP   2   2332 13.60                             119   -0.77 4  185 293 
 ZAR  HN ES       2332 37.17                             119    0.25 9  185 293 
 ZAR  HZ I        2332 42.18         9.9 0.11            118            185 293 
 NOR  HZ EP   2   2332 18.40                             114   -0.20 4  223 231 
 NOR  HN ES       2332 45.43                             114    0.98 8  223 231 
 NOR  HZ I        2332 52.40         3.8 0.10            113            223 231 
                                                                                
