 2016 10 7 2320 23.0 L   6.785 -73.094148.1  RSN 10 0.3 1.8LRSN                1
 GAP=144        0.79       3.4     3.5  4.9 -0.2570E+01  0.4657E+01  0.5297E-01E
 Epicentro: LOS SANTOS - SANTANDER                                             3
 ACTION:UPD 16-11-09 19:17 OP:rebc STATUS:               ID:20161007232023 L   I
 OLDACT:UP  16-10-08 04:30 OP:edw  STATUS:               ID:20161007231741     3
 OLDACT:REG 16-10-08 03:39 OP:cara STATUS:               ID:20161007231741     3
 2016-10-07-2318-00M.COL___360                                                 6
 STAT SP IPHASW D HRMM SECON CODA AMPLIT PERI AZIMU VELO AIN AR TRES W  DIS CAZ7
 BAR2 EZ EP       2320 42.81                             171   -0.0610 23.4 205 
 BAR2 EZ ES       2320 58.73                             171    0.3310 23.4 205 
 BAR2 EZ I        2321  4.53         8.9 0.16            168           23.4 205 
 PAM  EZ EP       2320 45.85                             152    0.5510 75.2  35 
 PAM  EN ES       2321  2.62                             152   -0.1010 75.2  35 
 RUS  HZ EP       2320 46.64                             145   -0.1710 98.7 179 
 RUS  HN ES       2321  4.93                             145   -0.4810 98.7 179 
 PTB  HZ EP   9   2320 49.78                             131   -0.82 0  153 260 
 PTB  HN ES       2321 10.96                             130   -0.38 9  153 260 
 PTB  HZ I        2321 12.93         6.2 0.11            132            153 260 
 SPBC HZ EP       2320 51.85                             129   -0.01 9  166 221 
 SPBC HN ES       2321 14.53                             129    0.12 9  166 221 
 SPBC HZ I        2321 17.23        11.2 0.12            130            166 221 
 ZAR  HZ EP       2320 55.52                             122   -0.65 8  210 292 
 ZAR  HN ES       2321 21.96                             122   -0.10 8  210 292 
 ZAR  HZ I        2321 27.25         6.7 0.20            124            210 292 
 NOR  HZ EP   4   2321  1.39                             118    2.17 0  238 236 
 NOR  HN ES       2321 27.80                             118    0.29 8  238 236 
 NOR  HZ I        2321 30.51         5.3 0.18            120            238 236 
 CHI  HZ EP       2321  0.94                             117    0.16 8  249 197 
 CHI  HN ES   4   2321 32.58                             117    2.29 0  249 197 
 CHI  HZ I        2321 37.95         1.9 0.54            119            249 197 
 HEL  HZ EP   2   2321  4.24                             115    0.38 4  277 256 
 HEL  HN ES   2   2321 36.01                             115    0.25 4  277 256 
 GUY2CHZ EP   4   2321  8.76                             112    1.66 0  305 236 
 GUY2CHN ES   4   2321 44.15                             112    2.63 0  305 236 
 GUY2CHZ I        2321 47.77         3.3 0.28                           305 236 
                                                                                
