 2013  9 7 2342 28.8 L   6.811 -73.128146.5  RSN 20 0.5 2.5LRSN                1
 GAP= 72        1.13       2.6     3.1  4.9 -0.1303E+01  0.3680E+01  0.1430E+01E
 Epicentro: LOS SANTOS - SANTANDER                                             3
 ACTION:UPD 13-10-22 09:21 OP:ep   STATUS:               ID:20130907234228 L   I
 OLDACT:REG 13-09-07 21:38 OP:nd   STATUS:               ID:20130907233959     3
 2013-09-07-2339-59M.COL___269                                                 6
 STAT SP IPHASW D HRMM SECON CODA AMPLIT PERI AZIMU VELO AIN AR TRES W  DIS CAZ7
 BAR2 SZ IP     D 2342 48.62                             170    0.0510 24.9 194 
 BAR2 SZ ES       2343  4.02                             170    0.0510 24.9 194 
 BAR2 SZ I        2343  5.31        45.4 0.22            170           24.9 194 
 BRR  HZ IP     C 2342 50.50                             152    0.3910 72.3 297 
 BRR  HN ES       2343  7.62                             152    0.9010 72.3 297 
 BRR  HZ I        2343 12.32        39.8 0.22            152           72.3 297 
 PAM  SZ EP       2342 51.51                             152    0.5210 75.3  39 
 PAM  SN ES       2343  8.27                             152   -0.0110 75.3  39 
 PAM  SZ I        2343 10.79        56.0 0.48            151           75.3  39 
 RUS  HZ IP     C 2342 52.36                             144   -0.3610  102 177 
 RUS  HN ES       2343 10.63                             144   -0.7310  102 177 
 RUS  HZ I        2343 12.62        22.9 0.38            143            102 177 
 PTB  HZ EP       2342 55.22                             132   -0.82 9  150 259 
 PTB  HN ES       2343 16.45                             132   -0.82 9  150 259 
 PTB  HZ I        2343 22.57        56.1 0.38            131            150 259 
 TAM  HZ IP     C 2342 56.78                             131    0.36 9  154 106 
 TAM  HZ I        2343 17.63        23.7 0.32            130            154 106 
 TAM  HN ES       2343 18.34                             131    0.40 9  154 106 
 OCA  HZ EP       2342 56.95                             130   -0.15 9  159 352 
 OCA  HN ES       2343 18.60                             130   -0.56 9  159 352 
 OCA  HZ I        2343 24.94        21.0 0.40            129            159 352 
 SPBC HZ EP       2342 57.44                             129   -0.14 9  165 219 
 SPBC HN ES       2343 19.68                             129   -0.33 9  165 219 
 SPBC HZ I        2343 24.66        60.5 0.20            128            165 219 
 ZAR  HZ EP       2343  1.03                             122   -0.42 8  205 292 
 ZAR  HN ES       2343 26.92                             122    0.02 8  205 292 
 ZAR  HZ I        2343 33.13        44.5 0.60            121            205 292 
 NOR  HZ EP       2343  4.72                             118   -0.12 8  237 235 
 NOR  HN ES       2343 32.68                             118   -0.24 8  237 235 
 NOR  HZ I        2343 39.78        28.2 0.24            118            237 235 
 SML  HZ EP       2343  5.31                             118   -0.15 8  243 335 
 SML  HE ES       2343 34.21                             118    0.17 8  243 335 
 SML  HZ I        2343 38.34        50.0 0.10            117            243 335 
 CHI  HZ EP       2343  6.56                             117   -0.18 8  250 196 
 CHI  HN ES   2   2343 35.98                             117   -0.33 4  250 196 
 CHI  HZ I        2343 44.61        11.5 0.54            116            250 196 
 ROSC BZ EP       2343  7.90                             117    0.70 8  255 211 
 ROSC BN ES   4   2343 38.85                             117    1.72 0  255 211 
 HEL  HZ EP       2343  9.85                             115    0.54 8  274 256 
 HEL  HN ES       2343 41.00                             115    0.11 8  274 256 
 HEL  HZ I        2343 47.30        17.0 0.34            114            274 256 
 URE  HZ EP   4   2343  8.09                             114   -1.99 0  285 292 
 URE  HN ES   4   2343 38.21                             114   -4.05 0  285 292 
 URE  HZ I        2343 49.41        17.3 0.32            113            285 292 
 GUY2CHZ EP       2343 13.31                             112    0.59 7  303 235 
 GUY2CHN ES       2343 48.36                             112    1.40 7  303 235 
 GUY2CHZ I        2343 55.45        28.5 0.76                           303 235 
 RREF HZ EP       2343 15.43                             111    0.18 7  324 229 
 RREF HN ES       2343 52.13                             111    0.67 7  324 229 
 RREF HZ I        2343 57.10        18.2 0.30            110            324 229 
 COD  HZ EP       2343 16.34                             109   -0.78 6  347 354 
 COD  HN ES   2   2343 55.26                             109    0.48 3  347 354 
 COD  HZ I        2344  1.94         5.3 0.58            108            347 354 
 PRA  HZ EP       2343 22.08                             106   -0.52 6  394 210 
 PRA  HN ES       2344  4.46                             106   -0.08 6  394 210 
 PRA  HZ I        2344 10.09        18.6 0.62            106            394 210 
 ORTC HZ EP       2343 22.60                             106   -0.41 6  398 216 
 ORTC HN ES       2344  5.39                             106    0.11 6  398 216 
 ORTC HZ I        2344 13.29        12.1 0.22            106            398 216 
                                                                                
