 2014  1 7 2326 42.0 L   6.760 -73.129142.0  RSN  7 0.5 1.4LRSN                1
 GAP=141        0.89       3.2     5.0  9.4  0.1746E+01  0.1451E+02  0.2440E+01E
 Epicentro: LOS SANTOS - SANTANDER                                             3
 ACTION:UPD 14-03-13 09:52 OP:ep   STATUS:               ID:20140107232642 L   I
 OLDACT:UP  14-01-08 00:44 OP:mh   STATUS:               ID:20140107232000     3
 OLDACT:REG 14-01-07 21:41 OP:mh   STATUS:               ID:20140107232000     3
 2014-01-07-2320-00M.COL___285                                                 6
 STAT SP IPHASW D HRMM SECON CODA AMPLIT PERI AZIMU VELO AIN AR TRES W  DIS CAZ7
 PAM  SZ EP       2327  3.87                             149   -0.1110 79.7  36 
 PAM  SN ES   1   2327 20.62                             149   -0.49 7 79.7  36 
 PAM  SZ I        2327 23.03         5.1 0.51            157           79.7  36 
 RUS  HZ EP       2327  5.19                             144    0.1110 96.1 177 
 RUS  HN ES   1   2327 23.14                             144    0.08 7 96.1 177 
 RUS  HZ I        2327 25.05         4.2 0.22            145           96.1 177 
 PTB  HZ EP   1   2327  8.60                             131   -0.19 7  149 261 
 PTB  HN ES   2   2327 29.36                             131   -0.30 5  149 261 
 PTB  HZ I        2327 34.60         3.0 0.08            132            149 261 
 ZAR  HE ES       2327 39.97                             121   -0.01 8  207 293 
 NOR  HN ES   2   2327 44.30                             118   -0.75 4  234 236 
 NOR  HZ I        2327 50.33         2.3 0.16            119            234 236 
 CHI  HZ EP       2327 18.95                             117   -0.16 8  245 196 
 CHI  HN ES       2327 48.56                             117    0.52 8  245 196 
 CHI  HZ I        2327 56.66         1.1 0.51            119            245 196 
 SML  HZ EP   1   2327 18.14                             116   -0.83 6  248 335 
 SML  HN ES       2327 48.72                             116    0.94 8  248 335 
                                                                                
