 2013  8 7 2155 52.9 L   6.718 -73.191148.0  RSN  4 0.4 1.1LRSN                1
 GAP=226        0.74       7.4     6.9  9.2  0.3265E+02 -0.5264E+01 -0.1263E+02E
 Epicentro: VILLANUEVA - SANTANDER                                             3
 ACTION:UPD 14-01-14 09:00 OP:ep   STATUS:               ID:20130807215552 L   I
 OLDACT:UP  13-08-07 22:10 OP:cam  STATUS:               ID:20130807215000     3
 OLDACT:REG 13-08-07 21:52 OP:cam  STATUS:               ID:20130807215000     3
 2013-08-07-2150-00M.COL___267                                                 6
 STAT SP IPHASW D HRMM SECON CODA AMPLIT PERI AZIMU VELO AIN AR TRES W  DIS CAZ7
 BRR  HZ EP   1   2156 13.99                             153   -0.37 8 71.8 307 
 BRR  HE ES   1   2156 31.44                             153    0.37 8 71.8 307 
 RUS  HZ EP   1   2156 16.19                             147   -0.13 8 92.1 173 
 RUS  HN ES   1   2156 34.68                             147    0.12 8 92.1 173 
 RUS  HZ I        2156 35.93         1.4 0.38            142           92.1 173 
 PTB  HZ EP   1   2156 19.23                             134   -0.28 7  141 262 
 PTB  HN ES       2156 40.31                             134    0.0810  141 262 
 PTB  HZ I        2156 47.58         2.6 0.42            129            141 262 
 ZAR  HZ EP   2   2156 26.76                             124    1.34 5  203 295 
 ZAR  HE ES       2156 50.53                             124   -0.23 9  203 295 
                                                                                
