 2010 11 7 2052 20.4 L   6.774 -73.097145.3  RSN  6 0.3 1.7LRSN                1
 GAP=170        0.64       5.5     7.6  8.1 -0.7066E+01  0.6151E+01 -0.3516E+01E
 Epicentro: LOS SANTOS - SANTANDER                                             3
 ACTION:UP  10-12-17 16:50 OP:REBC STATUS:               ID:20101107205220 L   I
 2010-11-07-2052-00S.COL___128                                                 6
 STAT SP IPHASW D HRMM SECON CODA AMPLIT PERI AZIMU VELO SNR AR TRES W  DIS CAZ7
 BAR2 SZ EP   1   2052 40.14                             171     0.2 7   22 205 
 BAR2 SZ ES   2   2052 54.55                             171    -0.6 5   22 205 
 BAR2 SZ I        2052 56.08        12.3 0.31                            22 205 
 BTL  SZ EP   1   2052 39.49                             170    -0.5 7   25 310 
 BRR  HZ EP   1   2052 41.90                             150     0.1 7   77 298 
 BRR  HZ I        2052 42.06        20.3 0.15                            77 298 
 BRR  HN ES   2   2052 59.15                             150     0.6 5   77 298 
 RUS  HZ EP   1   2052 44.01                             145     0.2 7   98 179 
 RUS  HN ES   2   2053  2.44                             145     0.3 5   98 179 
 RUS  HZ I        2053  4.34         3.6 0.37                            98 179 
 GUE  SZ EP   1   2052 45.16                             139     0.0 7  118   9 
 NOR  SZ EP   1   2052 56.33                             118     0.0 6  238 236 
 NOR  SE ES   2   2053 24.07                             118    -0.4 4  238 236 
                                                                                
