 2013  3 7 2205 24.6 L   6.784 -73.213134.9  RSN  5 0.3 1.7LRSN                1
 GAP=128        0.62       6.8     4.9  7.1 -0.1557E+02  0.8464E+01  0.7604E+00E
 Epicentro: ZAPATOCA - SANTANDER                                               3
 ACTION:UPD 13-04-09 14:00 OP:ep   STATUS:               ID:20130307220524 L   I
 2013-03-07-2200-00M.COL___231                                                 6
 STAT SP IPHASW D HRMM SECON CODA AMPLIT PERI AZIMU VELO AIN AR TRES W  DIS CAZ7
 BAR2 SZ ES   1   22 5 57.20                             170    0.10 7 21.4 171 
 BRR  HZ EP   1   22 5 44.87                             152    0.65 7 65.7 303 
 BRR  HN ES   4   22 6  1.47                             152    1.91 0 65.7 303 
 BRR  HZ I        22 6  2.00        12.4 0.16            149           65.7 303 
 PAM  SZ EP   1   22 5 45.82                             147   -0.22 7 83.6  43 
 PAM  SN ES   1   22 6  2.64                             147   -0.15 7 83.6  43 
 PAM  SZ I        22 6  5.04         7.9 0.60            150           83.6  43 
 RUS  HZ EP   1   22 5 47.22                             142    0.04 7 99.6 172 
 PTB  HZ EP   1   22 5 49.70                             131   -0.25 7  140 259 
 PTB  HN ES   1   22 6  9.53                             131   -0.22 7  140 259 
 PTB  HZ I        22 6 15.66         7.4 0.20            131            140 259 
                                                                                
