 2013  2 7 2315 54.6 L   6.791 -73.147150.9  RSN  6 0.5 1.7LRSN                1
 GAP=137        1.22       5.2     5.6 10.0  0.2065E+01  0.8302E+01  0.1396E+02E
 Epicentro: LOS SANTOS - SANTANDER                                             3
 *PRV                                                                          3
 ACTION:UPD 13-03-12 09:31 OP:ep   STATUS:               ID:20130207231554 L   I
 2013-02-07-2308-41M.COL___191                                                 6
 STAT SP IPHASW D HRMM SECON CODA AMPLIT PERI AZIMU VELO AIN AR TRES W  DIS CAZ7
 BRR  HZ EP       2316 16.71                             153    0.3710 71.5 299 
 BRR  HN ES       2316 34.01                             153    0.7310 71.5 299 
 BRR  HN I        2316 34.57        17.1 0.20            143           71.5 299 
 PAM  SZ I        2316 17.59         5.4 0.18            159           78.3  39 
 PAM  SZ IP     D 2316 17.69                             151    0.2610 78.3  39 
 PAM  SN ES       2316 34.93                             151   -0.2910 78.3  39 
 RUS  HZ EP       2316 18.42                             145   -0.3810 99.6 176 
 RUS  HN ES       2316 37.39                             145   -0.2810 99.6 176 
 RUS  HZ I        2316 38.20         4.1 0.22            136           99.6 176 
 PTB  HZ EP       2316 21.49                             133   -0.48 9  147 259 
 PTB  HN ES       2316 42.54                             133   -0.77 9  147 259 
 PTB  HZ I        2316 47.23         4.0 0.22            123            147 259 
 ZAR  HN ES       2316 53.11                             123    0.10 9  204 292 
 ZAR  HN I        2316 54.80         7.4 0.38            117            204 292 
 CHI  HZ EP   1   2316 32.62                             118    0.13 6  248 195 
 CHI  HN ES       2317  2.92                             118    0.89 8  248 195 
 CHI  HN I        2317  5.44         2.6 0.36            112            248 195 
                                                                                
