 2012 11 7 2225 57.5 L   6.723 -73.387118.9  RSN  5 0.3 2.0LRSN                1
 GAP=163        0.79       7.9     5.5 10.2  0.2377E+02  0.1124E+02  0.4224E+02E
 Epicentro: EL CARMEN DE CHUCURI - SANTANDER                                   3
 ACTION:UPD 12-12-05 15:31 OP:}ep  STATUS:               ID:20121107222557 L   I
 2012-11-07-2220-00M.COL___230                                                 6
 STAT SP IPHASW D HRMM SECON CODA AMPLIT PERI AZIMU VELO AIN AR TRES W  DIS CAZ7
 BAR2 SZ EP       2226 14.12                             166    0.0810 26.8 123 
 BRR  HZ EP       2226 14.43                             153   -0.4810 55.7 320 
 BRR  HN ES       2226 28.51                             153    0.0510 55.7 320 
 BRR  HN I        2226 29.03        47.2 0.24                          55.7 320 
 RUS  HZ EP       2226 18.86                             138    0.3410 97.7 160 
 PTB  HZ EP       2226 19.56                             131   -0.2410  120 260 
 PTB  HN ES   1   2226 36.94                             131   -0.22 7  120 260 
 PTB  HN I        2226 41.12        10.9 0.24                           120 260 
 ZAR  HN ES       2226 48.93                             119    0.46 9  183 298 
 ZAR  HN I        2226 52.27        10.3 0.20                           183 298 
                                                                                
