 2011  1 7 2033 34.4 L   6.758 -73.132138.4  RSN  7 0.1 1.7LRSN                1
 GAP=161        0.37       2.6     4.3  4.5 -0.5256E+01  0.2711E+01 -0.2625E+01E
 Epicentro: LOS SANTOS - SANTANDER                                             3
 ACTION:UP  11-02-08 08:39 OP:pat  STATUS:               ID:20110107203334 L   I
 2011-01-07-2031-19S.COL___135                                                 6
 STAT SP IPHASW D HRMM SECON CODA AMPLIT PERI AZIMU VELO SNR AR TRES W  DIS CAZ7
 BAR2 SZ EP   2   2033 53.20                             172     0.2 5   19 197 
 BAR2 SZ ES   2   2034  7.75                             172     0.2 5   19 197 
 BAR2 SZ I        2034  9.60        12.6 0.18                            19 197 
 BTL  SZ EP       2033 52.85                             170    -0.310   23 320 
 GIR2 SZ EP   2   2033 53.45                             164     0.1 5   36 349 
 GIR2 SZ ES   2   2034  8.13                             164     0.0 5   36 349 
 RUS  HZ EP   1   2033 56.98                             144    -0.1 7   96 177 
 RUS  HN ES   2   2034 14.65                             144    -0.1 5   96 177 
 RUS  HZ I        2034 16.36         4.3 0.33                            96 177 
 GRA  SZ EP       2033 59.45                             134     0.210  130  16 
 GRA  SZ I        2034 20.44         8.0 0.55                           130  16 
 OCA  SZ EP   2   2034  2.65                             127     0.1 5  165 353 
 OCA  SZ ES   2   2034 24.43                             127    -0.1 5  165 353 
 OCA  SZ I        2034 27.32        11.4 0.49                           165 353 
 NOR  SZ EP   3   2034  9.57                             117     0.0 2  233 236 
 NOR  SN ES   1   2034 37.08                             117     0.1 6  233 236 
                                                                                
