 2017  2 7 2356  9.3 L   6.807 -73.160145.5  RSN 15 0.4 2.3LRSN                1
 GAP=102        0.96       3.3     2.7  4.9  0.9690E-01  0.3512E+01  0.3309E+01E
 Epicentro: LOS SANTOS - SANTANDER                                             3
 ACTION:UPD 17-05-24 15:33 OP:jn   STATUS:               ID:20170207235609 L   I
 OLDACT:UP  17-02-08 04:11 OP:dnl  STATUS:               ID:20170207234746     3
 OLDACT:UP  17-02-08 04:10 OP:dnl  STATUS:               ID:20170207234746     3
 OLDACT:REG 17-02-08 02:47 OP:dnl  STATUS:               ID:20170207234746     3
 2017-02-07-2348-00M.COL___343                                                 6
 STAT SP IPHASW D HRMM SECON CODA AMPLIT PERI AZIMU VELO AIN AR TRES W  DIS CAZ7
 BAR2 EZ EP       2356 28.76                             170   -0.1310 23.9 186 
 BAR2 EZ ES       2356 44.07                             170   -0.1210 23.9 186 
 BAR2 EZ I        2356 46.46        60.9 0.30            168           23.9 186 
 BRR  HZ IP     C 2356 30.44                             153    0.1410 69.5 299 
 BRR  HN ES       2356 47.54                             153    0.8410 69.5 299 
 BRR  HZ I        2356 48.32        33.6 0.30            152           69.5 299 
 PAM  EZ EP     C 2356 31.60                             151    0.1110 77.8  41 
 PAM  EN ES       2356 48.91                             151    0.1010 77.8  41 
 PAM  EZ I        2356 51.91        21.2 0.46            154           77.8  41 
 RUS  HZ EP       2356 32.74                             143   -0.3310  101 175 
 RUS  HN ES       2356 51.30                             143   -0.3310  101 175 
 RUS  HZ I        2356 52.71        19.6 0.30            143            101 175 
 PTB  HZ EP       2356 35.69                             132   -0.41 9  146 258 
 PTB  HN ES       2356 56.32                             132   -0.70 9  146 258 
 PTB  HZ I        2357  3.23        18.8 0.16            131            146 258 
 TAM  HZ IP     C 2356 37.07                             130   -0.02 9  157 105 
 TAM  HN ES       2356 58.65                             130   -0.14 9  157 105 
 TAM  HZ I        2357  0.04        10.6 0.30            133            157 105 
 ZAR  HZ EP       2356 41.74                             122    0.22 9  202 292 
 ZAR  HN ES       2357  6.56                             122   -0.12 9  202 292 
 ZAR  HZ I        2357 11.98        27.0 0.46            122            202 292 
 NOR  HZ EP       2356 44.84                             118   -0.06 8  234 234 
 NOR  HE ES       2357 12.51                             118   -0.18 8  234 234 
 NOR  HZ I        2357 21.97        10.0 0.16            118            234 234 
 CHI  HZ EP       2356 46.93                             117   -0.07 8  249 195 
 CHI  HE ES       2357 17.39                             117    0.97 8  249 195 
 CHI  HZ I        2357 22.28        10.7 0.30            117            249 195 
 ROSC BZ EP   9   2356 49.07                             117    1.70 0  253 211 
 ROSC BN ES       2357 18.52                                   -0.26 8  253 211 
 ROSC BZ I        2357 23.29        37.9 0.45            117            253 211 
 CBOC HZ EP       2356 56.46                             110    0.42 7  332 252 
 CBOC HN ES       2357 33.15                             110    0.64 7  332 252 
 CBOC HZ I        2357 43.49         2.6 0.26            110            332 252 
 DBB  EZ EP   2   2356 57.09                             109    0.54 3  338 274 
 DBB  EN ES       2357 32.64                             109   -0.79 7  338 274 
 DBB  EZ I        2357 33.97         5.9 0.38            110            338 274 
 ANIL HZ EP   4   2356 57.18                             108   -1.83 0  357 224 
 ANIL HN ES   4   2357 38.80                             108    1.00 0  357 224 
 PRA  HZ EP       2357  2.49                             106   -0.29 6  392 209 
 PRA  HN ES       2357 45.24                             106    0.73 6  392 209 
 PRA  HZ I        2357 50.91        13.4 0.34            107            392 209 
 SJC  HZ EP   4   2357  2.94                             106   -1.71 0  408 327 
 SJC  HN ES   4   2357 44.01                             106   -3.83 0  408 327 
 SJC  HZ I        2357 52.57         4.5 0.40            106            408 327 
 CRJC HZ EP   4   2357  8.85                             103   -2.83 0  467   4 
 CRJC HN ES   4   2357 55.30                             103   -5.06 0  467   4 
 CRJC HZ I        2358  3.96         8.1 0.28            104            467   4 
                                                                                
