 2010 10 7 2309 28.1 L   6.754 -73.125140.0  RSN 14 0.4 3.0LRSN                1
 GAP=137        0.81       3.4     4.6  5.6 -0.5485E+01 -0.3249E+00  0.7434E+01E
 Epicentro: LOS SANTOS - SANTANDER                                             3
 ACTION:UP  11-02-18 11:08 OP:tino STATUS:               ID:20101007230928 L   I
 2010-10-07-2307-13S.COL___122                                                 6
 STAT SP IPHASW D HRMM SECON CODA AMPLIT PERI AZIMU VELO SNR AR TRES W  DIS CAZ7
 BAR2 SZ IP       23 9 47.07                             172     0.110   19 200 
 BAR2 SZ ES   1   2310  1.54                             172    -0.2 7   19 200 
 BAR2 SZ I        2310  4.94       178.5 0.23                            19 200 
 URB  SZ EP       23 9 48.22                             157     0.110   58 337 
 BRR  HZ IP     C 23 9 48.79                             150    -0.110   76 301 
 BRR  HE ES       2310  5.74                             150     0.610   76 301 
 BRR  HZ I        2310  9.61       131.7 0.12                            76 301 
 GUE  SZ EP   1   23 9 52.70                             137     0.0 7  121  10 
 GRA  SZ IP       23 9 52.85                             135    -0.410  130  16 
 GRA  SZ ES   1   2310 12.63                             135    -0.2 7  130  16 
 GRA  SZ I        2310 13.77       137.8 0.24                           130  16 
 OCA  SZ EP   2   23 9 56.10                             128    -0.4 5  166 353 
 OCA  SZ I        2310 22.14        91.1 0.42                           166 353 
 YOP  SZ EP   1   23 9 57.81                             126     0.6 7  173 153 
 YOP  SN ES   2   2310 19.68                             126    -0.2 4  173 153 
 NOR  SZ EP       2310  3.09                             118    -0.3 8  234 236 
 NOR  SE ES   1   2310 30.45                             118    -0.5 6  234 236 
 CHI  HZ EP       2310  5.20                             117     0.2 8  244 196 
 CHI  HN ES   1   2310 33.93                             117     0.1 6  244 196 
 CHI  HZ I        2310 37.99        44.1 0.49                           244 196 
 HEL  HZ EP   1   2310  8.22                             114     0.0 6  273 257 
 HEL  HE ES   2   2310 38.78                             114    -0.6 4  273 257 
 HEL  HZ I        2310 47.26        35.2 0.55                           273 257 
 RREF HZ EP   1   2310 14.69                             110     0.8 5  320 230 
 RREF HN ES   2   2310 49.74                             110     0.2 3  320 230 
 RREF HZ I        2310 59.37        50.5 0.32                           320 230 
 TOL  SZ EP   1   2310 16.72                             109     0.8 5  342 226 
 ANIL HZ EP   2   2310 17.44                             108     0.0 3  355 225 
 ANIL HN ES   2   2310 55.84                             108    -0.1 3  355 225 
 ANIL HZ I        2311  4.25        85.7 0.44                           355 225 
 PRA  HZ EP       2310 20.52                             106    -0.5 6  389 210 
 PRA  HE ES   1   2311  1.65                             106    -0.7 4  389 210 
                                                                                
