 2012  5 7 2307 33.2 L   6.273 -73.612104.0  RSN  4 0.5 1.3LRSN                1
 GAP=162        1.24       9.9     9.1 15.7  0.5100E+02  0.4198E+02 -0.1418E+01E
 Epicentro: SANTA HELENA DEL OPON - SANTANDER                                  3
 ACTION:UP  12-07-05 12:03 OP:pat  STATUS:               ID:20120507230733 L   I
 2012-05-07-2300-50M.COL___187                                                 6
 STAT SP IPHASW D HRMM SECON CODA AMPLIT PERI AZIMU VELO SNR AR TRES W  DIS CAZ7
 RUS  HZ EP   1   23 7 50.73                             143     0.0 7   72 126 
 RUS  HN ES   1   23 8  4.97                             143     0.5 7   72 126 
 RUS  HZ I        23 8  6.28         2.4 0.26                            72 126 
 BRR  HZ EP   1   23 7 50.99                             135    -0.8 7   93 353 
 BRR  HN ES   1   23 8  6.18                             135    -0.1 7   93 353 
 BRR  HZ I        23 8  6.50        13.0 0.27                            93 353 
 PTB  HZ EP       23 7 51.83                             133    -0.410   98 288 
 PTB  HZ I        23 7 52.00         2.2 0.04                            98 288 
 PTB  HN ES   1   23 8  6.94                             133    -0.1 7   98 288 
 ZAR  HZ EP   1   23 8  2.69                             113     0.7 7  193 314 
 ZAR  HN ES   1   23 8 25.44                             113     0.9 7  193 314 
 ZAR  HZ I        23 8 29.26         3.9 0.44                           193 314 
                                                                                
