 2012  6 7 2301 32.4 L   6.793 -73.159138.7  RSN  7 0.2 2.1LRSN                1
 GAP=135        0.43       2.4     2.1  3.6 -0.1274E+00  0.2514E+01  0.5336E+00E
 Epicentro: LOS SANTOS - SANTANDER                                             3
 ACTION:UPD 12-08-06 17:48 OP:ep   STATUS:               ID:20120607230141 L   I
 2012-06-07-2300-00M.COL___201                                                 6
 STAT SP IPHASW D HRMM SECON CODA AMPLIT PERI AZIMU VELO AIN AR TRES W  DIS CAZ7
 BAR2 SZ EP       23 1 51.36                             170    0.1910 22.3 187 
 BAR2 SZ ES   1   23 2  5.69                             170   -0.11 7 22.3 187 
 BAR2 SZ I        23 2  7.55        34.8 0.35            156           22.3 187 
 PAM  SZ EP   1   23 1 54.08                             149    0.10 7 78.9  40 
 PAM  SE ES   1   23 2 10.78                             149   -0.02 7 78.9  40 
 RUS  HZ EP       23 1 55.41                             142   -0.0110 99.9 175 
 RUS  HE ES       23 2 13.36                             142   -0.0110 99.9 175 
 RUS  HZ I        23 2 16.03        17.0 0.36            123           99.9 175 
 PTB  HZ EP       23 1 58.23                             131   -0.43 9  146 259 
 PTB  HN ES       23 2 19.19                             131    0.05 9  146 259 
 PTB  HZ I        23 2 21.97        14.3 0.14            116            146 259 
 ZAR  HN ES   1   23 2 29.30                             121    0.14 6  203 293 
 ZAR  HZ I        23 2 35.10        14.2 0.18            109            203 293 
 NOR  SZ EP   1   23 2  7.59                             117    0.03 6  233 234 
 NOR  SN ES   1   23 2 35.12                             117    0.15 6  233 234 
 CHI  HZ EP   1   23 2  9.77                             116    0.17 6  247 195 
 CHI  HZ I        23 2 43.78         5.9 0.30            104            247 195 
                                                                                
