 2013 12 7 2337 28.2 L   6.801 -73.163142.7  RSN  9 0.4 2.0LRSN                1
 GAP=134        0.82       3.2     3.7  5.9 -0.2805E+01  0.4479E+01  0.5732E+01E
 Epicentro: LOS SANTOS - SANTANDER                                             3
 ACTION:UPD 14-01-13 10:16 OP:ep   STATUS:               ID:20131207233728 L   I
 OLDACT:UP  13-12-07 23:07 OP:mh   STATUS:               ID:20131207233000     3
 OLDACT:REG 13-12-07 22:50 OP:mh   STATUS:               ID:20131207233000     3
 2013-12-07-2330-00M.COL___285                                                 6
 STAT SP IPHASW D HRMM SECON CODA AMPLIT PERI AZIMU VELO AIN AR TRES W  DIS CAZ7
 BAR2 SZ EP       2337 47.75                             170    0.2510 23.2 185 
 BAR2 SZ ES   1   2338  2.29                             170   -0.23 7 23.2 185 
 BAR2 SZ I        2338  3.97        58.5 0.13            167           23.2 185 
 BRR  HZ EP       2337 49.17                             153    0.2110 69.5 299 
 BRR  HN ES       2338  5.63                             153    0.5110 69.5 299 
 BRR  HZ I        2338  7.85        16.0 0.22            153           69.5 299 
 PAM  SZ EP       2337 50.64                             150    0.4410 78.5  41 
 PAM  SN ES       2338  7.18                             150   -0.1410 78.5  41 
 PAM  SZ I        2338  8.97        12.9 0.21            155           78.5  41 
 RUS  HZ EP       2337 51.76                             143    0.0510  101 175 
 RUS  HN ES   1   2338  9.66                             143   -0.36 7  101 175 
 RUS  HZ I        2338 12.45         5.3 0.25            143            101 175 
 PTB  HZ EP   1   2337 54.52                             132   -0.27 7  146 259 
 PTB  HN ES   1   2338 15.05                             132   -0.45 7  146 259 
 PTB  HZ I        2338 18.18        16.5 0.10            132            146 259 
 OCA  HN ES       2338 17.48                             129   -0.67 9  160 354 
 NOR  HZ EP       2338  3.70                             118    0.06 8  233 234 
 NOR  HN ES       2338 31.60                             118    0.36 8  233 234 
 NOR  HZ I        2338 35.76         9.5 0.08            119            233 234 
 CHI  HZ EP   1   2338  5.22                             116   -0.51 6  248 195 
 CHI  HN ES   1   2338 34.78                             116   -0.19 6  248 195 
 CHI  HZ I        2338 41.36         4.5 0.25            117            248 195 
 HEL  HZ EP   4   2338  9.91                             114    1.81 0  270 256 
 HEL  HN ES       2338 38.98                             114   -0.21 8  270 256 
 HEL  HZ I        2338 46.17         5.5 0.29            115            270 256 
                                                                                
