 2014  5 7 2236 23.4 L   6.141 -73.677112.0  RSN 12 0.4 1.7LRSN                1
 GAP= 74        0.99       2.7     3.1  6.1 -0.1431E+01  0.1940E+01 -0.1653E+01E
 Epicentro: CHIPATA - SANTANDER                                                3
 OLDACT:REG 14-05-08 02:52 OP:fm   STATUS:               ID:20140507222814d    3
 ACTION:UPD 15-03-16 16:55 OP:nd   STATUS:               ID:20140507223623 L   I
 OLDACT:UP  14-05-08 03:20 OP:fm   STATUS:               ID:20140507222814d    3
 2014-05-07-2228-13M.COL___239                                                 6
 STAT SP IPHASW D HRMM SECON CODA AMPLIT PERI AZIMU VELO AIN AR TRES W  DIS CAZ7
 SPBC HZ EP       2236 41.26                             146    0.2210 69.6 219 
 SPBC HN ES       2236 55.10                             146    0.3010 69.6 219 
 SPBC HZ I        2236 58.40        12.0 0.22            146           69.6 219 
 RUS  HZ EP       2236 41.91                             145    0.1810 71.2 113 
 RUS  HN ES       2236 55.43                             145   -0.5910 71.2 113 
 RUS  HZ I        2236 57.10         6.8 0.36            152           71.2 113 
 PTB  HZ EP       2236 42.21                             136   -0.8310 96.8 297 
 PTB  HN ES       2236 57.56                             136   -0.8010 96.8 297 
 PTB  HZ I        2237  2.13         9.6 0.12            136           96.8 297 
 BRR  HZ EP       2236 44.10                             133    0.2010  107 358 
 BRR  HE ES   1   2237  0.76                             133    0.88 7  107 358 
 BRR  HZ I        2237  8.82        11.2 0.40            135            107 358 
 NOR  HZ EP       2236 48.20                             123    0.40 9  147 244 
 NOR  HN ES       2237  7.23                             123    0.41 9  147 244 
 NOR  HZ I        2237  9.22         8.7 0.28            124            147 244 
 CHI  HZ EP   1   2236 50.43                             119    0.02 7  167 182 
 CHI  HN ES   1   2237 11.81                             119    0.33 7  167 182 
 CHI  HZ I        2237 14.58         4.2 0.96            122            167 182 
 PAM  SZ EP       2236 50.89                             119   -0.02 9  171  39 
 PAM  SN ES       2237 12.47                             119    0.11 9  171  39 
 PAM  HZ I        2237 15.38         6.1 0.36            123            171  39 
 ZAR  HZ EP       2236 53.33                             114    0.05 9  198 319 
 ZAR  HE ES       2237 16.92                             114    0.34 9  198 319 
 ZAR  HZ I        2237 18.32        15.2 0.36            116            198 319 
 HEL  HZ EP   4   2236 57.03                             114    2.55 0  205 272 
 HEL  HE ES   2   2237 18.29                             114   -0.42 4  205 272 
 HEL  HZ I        2237 29.80         4.2 0.46            115            205 272 
 RREF HZ EP   2   2236 57.63                             111   -0.03 4  230 234 
 RREF HN ES   2   2237 24.23                             111   -0.15 4  230 234 
 RREF HZ I        2237 33.47         3.1 0.36            113            230 234 
 SML  HZ EP   1   2237  4.38                             105   -0.26 5  297 352 
 SML  HE ES   4   2237 38.59                             105    1.79 0  297 352 
 PRA  HZ EP   1   2237  4.69                             105   -0.33 5  300 207 
 PRA  HE ES       2237 37.22                             105   -0.25 7  300 207 
 PRA  HZ I        2237 43.94         7.4 2.82            107            300 207 
                                                                                
