 2011  2 7 2356 58.7 L   6.783 -73.280132.2  RSN  4 0.2 1.6LRSN                1
 GAP=198        0.40       4.2    17.0  7.3 -0.3957E+02  0.2649E+02 -0.1327E+02E
 Epicentro: ZAPATOCA - SANTANDER                                               3
 ACTION:UP  11-03-28 15:06 OP:jfem STATUS:               ID:20110207235658 L   I
 2011-02-07-2354-43S.COL___137                                                 6
 STAT SP IPHASW D HRMM SECON CODA AMPLIT PERI AZIMU VELO SNR AR TRES W  DIS CAZ7
 BTL  SZ EP   1   2357 16.66                             173     0.2 7   15   5 
 BAR2 SZ EP   2   2357 16.37                             170    -0.3 5   24 153 
 BAR2 SZ ES   2   2357 30.58                             170    -0.1 5   24 153 
 BAR2 SZ I        2357 32.37        17.0 0.22                            24 153 
 RUS  HZ EP   2   2357 20.89                             141    -0.2 5  101 168 
 RUS  HN ES   2   2357 38.83                             141     0.2 5  101 168 
 RUS  HZ I        2357 39.97         4.7 0.25                           101 168 
 GRA  SZ EP   1   2357 23.40                             132     0.1 7  133  23 
 GRA  SZ ES   2   2357 42.50                             132    -0.1 5  133  23 
 GRA  SZ I        2357 44.08         7.3 0.42                           133  23 
                                                                                
