 2016  3 7 2216 17.1 L   6.684 -73.243139.4  RSN 10 0.5 2.0LRSN                1
 GAP=107        1.14       5.9     5.6  8.5  0.6651E+01  0.2198E+02  0.1644E+02E
 Epicentro: BARICHARA - SANTANDER                                              3
 ACTION:UPD 16-05-13 21:22 OP:cam  STATUS:               ID:20160307221618 L   I
 OLDACT:UP  16-03-14 19:49 OP:cam  STATUS:               ID:20160307221618 L   3
 OLDACT:UP  16-03-14 19:48 OP:cam  STATUS:               ID:20160307221618 L   3
 OLDACT:UP  16-03-14 19:46 OP:cam  STATUS:               ID:20160307221618 L   3
 OLDACT:UP  16-03-14 19:45 OP:cam  STATUS:               ID:20160307221618 L   3
 OLDACT:UP  16-03-14 10:33 OP:Ak   STATUS:               ID:20160307221618 L   3
 OLDACT:UP  16-03-08 10:05 OP:mh   STATUS:               ID:20160307220750     3
 OLDACT:REG 16-03-08 08:46 OP:mh   STATUS:               ID:20160307220750     3
 2016-03-07-2207-50M.COL___304                                                 6
 STAT SP IPHASW D HRMM SECON CODA AMPLIT PERI AZIMU VELO AIN AR TRES W  DIS CAZ7
 BAR2 EZ EP   1   2216 35.01                             175   -0.77 7 12.2 147 
 BAR2 EZ ES       2216 49.96                             175   -0.3910 12.2 147 
 BAR2 EZ I        2216 51.29        22.2 0.20            169           12.2 147 
 RUS  HZ EP     C 2216 38.94                             146   -0.4810 89.3 169 
 RUS  HE ES       2216 56.99                             146    0.1610 89.3 169 
 RUS  HZ I        2216 58.93         5.8 0.26            146           89.3 169 
 PAM  EZ EP   4   2216 41.83                             144    2.08 0 94.1  40 
 PAM  EN ES       2216 58.01                             144    0.6010 94.1  40 
 PAM  EE I        2217  0.82        29.3 0.42            156           94.1  40 
 PTB  HZ EP       2216 41.77                             133   -0.6310  135 263 
 PTB  HN ES       2217  2.53                             133    0.4010  135 263 
 PTB  HZ I        2217  8.22        13.9 0.58            133            135 263 
 SPBC HZ EP       2216 43.90                             131    0.37 9  146 219 
 SPBC HE ES   4   2217  6.88                             131    2.74 0  146 219 
 SPBC HZ I        2217 13.32        23.8 0.20            130            146 219 
 ZAR  HZ EP   4   2216 50.27                             121    1.62 0  199 297 
 ZAR  HN ES       2217 13.08                             121   -0.19 9  199 297 
 ZAR  HZ I        2217 18.29        20.9 0.34            124            199 297 
 NOR  HN EP       2216 51.20                             119    0.48 8  219 236 
 NOR  HE ES   4   2217 19.31                             119    2.37 0  219 236 
 NOR  HZ I        2217 27.69         9.0 0.11            120            219 236 
 CHI  HZ EP       2216 53.14                             117    0.34 8  234 193 
 CHI  HN ES   4   2217 23.13                             117    2.47 0  234 193 
 CHI  HZ I        2217 29.70         6.1 0.68            119            234 193 
 HEL  HZ EP   4   2216 57.92                             115    2.43 0  259 258 
 HEL  HN ES   4   2217 26.62                             115    1.18 0  259 258 
 HEL  HZ I        2217 31.36         7.2 0.32            116            259 258 
 GUY2CHZ EP   4   2216 59.56                             112    0.98 0  285 236 
 GUY2CHN ES   4   2217 34.19                             112    3.25 0  285 236 
 GUY2CHZ I        2217 41.40         5.5 0.30                           285 236 
                                                                                
