 2017  8 7 2033  8.7 L   6.794 -73.167147.6  RSN  7 0.3 1.3LRSN                1
 GAP=134        0.88       3.7     4.0  6.4  0.1036E+01  0.5721E+01  0.3361E+01E
 Epicentro: LOS SANTOS - SANTANDER                                             3
 ACTION:UPD 17-09-04 20:17 OP:rebc STATUS:               ID:20170807203308 L   I
 OLDACT:UP  17-08-08 05:37 OP:edw  STATUS:               ID:20170807202737     3
 OLDACT:REG 17-08-08 04:38 OP:edw  STATUS:               ID:20170807202737     3
 2017-08-07-2028-00M.COL___396                                                 6
 STAT SP IPHASW D HRMM SECON CODA AMPLIT PERI AZIMU VELO AIN AR TRES W  DIS CAZ7
 BAR2 EZ ES       2033 43.77                             171   -0.2310 22.3 184 
 BRR  HZ IP     D 2033 30.11                             153    0.1710 69.4 300 
 BRR  HE ES       2033 47.30                             153    0.7810 69.4 300 
 BRR  HZ I        2033 50.50         4.5 0.14            152           69.4 300 
 PAM  EZ IP     C 2033 31.33                             150    0.1010 79.5  41 
 PAM  EE ES       2033 48.54                             150   -0.2710 79.5  41 
 PAM  EZ I        2033 50.36         5.6 0.52            154           79.5  41 
 RUS  HZ EP       2033 32.71                             144    0.1210  100 175 
 RUS  HN ES       2033 51.09                             144   -0.1410  100 175 
 RUS  HZ I        2033 51.91         3.6 0.28            147            100 175 
 PTB  HZ EP       2033 35.26                             133   -0.33 9  145 259 
 PTB  HN ES       2033 56.17                             133   -0.39 9  145 259 
 PTB  HZ I        2034  3.35         1.8 0.36            133            145 259 
 ZAR  HN ES       2034  6.11                             123   -0.19 9  202 293 
 CHI  HN ES       2034 16.11                             118    0.38 8  247 195 
                                                                                
