 2012  1 7 2010 25.2 L   6.783 -73.114145.9  RSN  5 0.1 1.8LRSN                1
 GAP=141        0.36       2.0     3.1  3.7 -0.8780E+00 -0.1735E+01  0.2552E+01E
 Epicentro: LOS SANTOS - SANTANDER                                             3
 ACTION:UP  12-02-03 08:15 OP:REBC STATUS:               ID:20120107201025 L   I
 2012-01-07-2010-00M.COL___186                                                 6
 STAT SP IPHASW D HRMM SECON CODA AMPLIT PERI AZIMU VELO SNR AR TRES W  DIS CAZ7
 GIR2 SZ EP   1   2010 44.86                             166    -0.1 7   34 345 
 BRR  HZ EP       2010 46.47                             151    -0.110   75 298 
 BRR  HZ I        2010 46.71        15.2 0.12                            75 298 
 BRR  HE ES       2011  3.31                             151     0.110   75 298 
 PAM  SZ EP       2010 47.47                             151     0.110   77  37 
 PAM  SE ES   1   2011  4.51                             151    -0.1 7   77  37 
 RUS  HZ EP   1   2010 48.98                             144     0.2 7   99 178 
 RUS  HE ES   1   2011  7.20                             144     0.0 7   99 178 
 RUS  HZ I        2011  8.50         3.9 0.33                            99 178 
 CHI  HN EP   1   2011  2.63                             117    -0.2 6  248 196 
 CHI  HE ES   1   2011 32.07                             117    -0.1 6  248 196 
 CHI  HN I        2011 34.88         8.0 0.58                           248 196 
                                                                                
