 2016  5 7 2119  6.3 L   6.739 -73.131143.5  RSN  5 0.4 1.8LRSN                1
 GAP=164        0.96       5.7     4.9  7.6 -0.9705E+01  0.1446E+02 -0.1122E+02E
 Epicentro: LOS SANTOS - SANTANDER                                             3
 ACTION:UPD 16-08-18 17:43 OP:cam  STATUS:               ID:20160507211906 L   I
 OLDACT:REG 16-05-08 02:37 OP:ar   STATUS:               ID:20160507211743     3
 2016-05-07-2117-43M.COL___307                                                 6
 STAT SP IPHASW D HRMM SECON CODA AMPLIT PERI AZIMU VELO AIN AR TRES W  DIS CAZ7
 BAR2 EZ EP       2119 25.93                             173    0.4210 17.2 199 
 BAR2 EZ ES       2119 40.27                             173   -0.2610 17.2 199 
 BAR2 EZ I        2119 41.98         8.3 0.22            173           17.2 199 
 PAM  EZ EP       2119 28.87                             149    0.3610 81.7  36 
 PAM  EN ES       2119 45.55                             149   -0.3010 81.7  36 
 PAM  EZ I        2119 47.93        13.2 0.54            150           81.7  36 
 PTB  HZ EP       2119 33.34                             131    0.24 9  148 262 
 PTB  HN ES       2119 54.11                             131    0.09 9  148 262 
 PTB  HZ I        2119 55.64         5.9 0.12            132            148 262 
 OCA  HZ EP       2119 34.62                             128   -0.44 9  167 353 
 OCA  HN ES       2119 57.94                             128    0.42 9  167 353 
 OCA  HZ I        2119 59.90        16.5 0.18            128            167 353 
 ZAR  HZ EP       2119 38.22                             121   -0.78 8  208 294 
 ZAR  HN ES       2120  4.61                             121    0.08 8  208 294 
 ZAR  HZ I        2120 12.43         6.0 0.50            122            208 294 
                                                                                
