 2010  7 7 2105 50.1 L   6.764 -73.148153.4  RSN  5 0.4 1.4LRSN                1
 GAP=159        1.08       8.1    16.9 15.4  0.3377E+02 -0.1563E+03 -0.4497E+02E
 Epicentro: LOS SANTOS - SANTANDER                                             3
 ACTION:UPD 10-12-01 15:16 OP:pat  STATUS:               ID:20100707210550 L   I
 2010-07-07-2102-59S.COL___117                                                 6
 STAT SP IPHASW D HRMM SECON CODA AMPLIT PERI AZIMU VELO AIN AR TRES W  DIS CAZ7
 BAR2 SZ EP   2   21 6 10.33                             172    -0.2 5   19 192 
 BAR2 SZ ES   2   21 6 26.38                             172    -0.1 5   19 192 
 BAR2 SZ I        21 6 27.01        12.7 0.17                            19 192 
 BRR  HZ EP       21 6 12.00                             153    -0.110   73 301 
 BRR  HN ES   1   21 6 29.59                             153     0.2 7   73 301 
 RUS  HZ EP       21 6 14.46                             146     0.210   97 176 
 RUS  HN ES   2   21 6 32.96                             146    -0.2 5   97 176 
 RUS  HZ I        21 6 34.14         3.7 0.23                            97 176 
 GUE  SZ EP       21 6 15.11                             140    -0.710  120  12 
 GUE  SZ I        21 6 16.24         1.3 0.09                           120  12 
 GRA  SZ EP       21 6 16.98                             138     0.710  130  17 
                                                                                
