 2013  3 7 2326 30.1 L   6.795 -73.186139.6  RSN  8 0.4 2.1LRSN                1
 GAP=132        0.79       3.4     4.7  6.9  0.1201E+01  0.1134E+02 -0.1950E+01E
 Epicentro: LOS SANTOS - SANTANDER                                             3
 ACTION:UPD 13-04-09 14:00 OP:ep   STATUS:               ID:20130307232630 L   I
 2013-03-07-2320-00M.COL___231                                                 6
 STAT SP IPHASW D HRMM SECON CODA AMPLIT PERI AZIMU VELO AIN AR TRES W  DIS CAZ7
 BAR2 SZ EP   1   2326 49.08                             170    0.10 7 22.4 179 
 BAR2 SZ ES   1   2327  3.83                             170    0.14 7 22.4 179 
 BAR2 SZ I        2327  5.22        41.6 0.30            169           22.4 179 
 BRR  HZ EP     C 2326 50.86                             153    0.4710 67.7 301 
 BRR  HE ES   4   2327  8.09                             153    1.88 0 67.7 301 
 BRR  HZ I        2327 12.21        22.0 0.20            150           67.7 301 
 PAM  SZ EP   1   2326 51.99                             148    0.11 7 80.7  42 
 PAM  SN ES   1   2327  8.74                             148   -0.12 7 80.7  42 
 PAM  SZ I        2327 11.26        12.1 0.50            156           80.7  42 
 RUS  HZ EP   1   2326 53.06                             142   -0.18 7  100 174 
 RUS  HN ES   1   2327 11.22                             142   -0.06 7  100 174 
 RUS  HZ I        2327 12.73        16.9 0.52            148            100 174 
 PTB  HZ EP   1   2326 55.86                             131   -0.31 7  143 259 
 PTB  HN ES   1   2327 15.85                             131   -0.64 7  143 259 
 PTB  HZ I        2327 24.18         9.3 0.24            132            143 259 
 ZAR  HZ EP   1   2327  2.50                             121    0.75 6  200 293 
 ZAR  HN ES   1   2327 27.00                             121    0.56 6  200 293 
 ZAR  HZ I        2327 32.83        19.4 0.22            123            200 293 
 SML  HZ EP   1   2327  5.62                             116   -0.64 6  242 336 
 SML  HE ES   1   2327 33.73                             116   -0.72 6  242 336 
 SML  HZ I        2327 38.34        14.8 0.10            119            242 336 
 CHI  HZ EP   1   2327  7.32                             116    0.04 6  247 194 
 CHI  HN ES   1   2327 36.10                             116   -0.18 6  247 194 
 CHI  HZ I        2327 38.90         5.6 0.36            120            247 194 
                                                                                
