 2013  6 7 2243 39.3 L   6.804 -73.140144.0  RSN  7 0.6 1.8LRSN                1
 GAP=137        1.45       5.9     7.4 10.4 -0.4425E+01  0.8720E+01 -0.1550E+00E
 Epicentro: LOS SANTOS - SANTANDER                                             3
 ACTION:UPD 14-01-08 09:53 OP:ep   STATUS:               ID:20130607224339 L   I
 OLDACT:DUP 13-06-08 01:59 OP:stll STATUS:               ID:20130607223844d    3
 2013-06-07-2238-43M.COL___235                                                 6
 STAT SP IPHASW D HRMM SECON CODA AMPLIT PERI AZIMU VELO AIN AR TRES W  DIS CAZ7
 BAR2 SZ EP       2243 58.45                             170   -0.3210 23.9 191 
 BAR2 SZ ES       2244 14.30                             170    0.3810 23.9 191 
 BAR2 SZ I        2244 14.69         5.2 0.42            171           23.9 191 
 GIR2 SZ EP       2243 58.88                             167    0.0910 30.9 349 
 BRR  HZ EP       2244  0.65                             152    0.3310 71.6 298 
 BRR  HN ES       2244 17.63                             152    0.9510 71.6 298 
 BRR  HE I        2244 18.10        25.1 0.26            152           71.6 298 
 PAM  SZ EP       2244  1.68                             151    0.3610 76.6  39 
 PAM  SZ I        2244  1.90         8.2 0.26            151           76.6  39 
 PAM  SN ES       2244 18.33                             151   -0.1310 76.6  39 
 RUS  HZ EP       2244  3.17                             143    0.2210  101 176 
 RUS  HN ES       2244 20.65                             143   -0.7110  101 176 
 RUS  HE I        2244 22.57         6.4 0.22            144            101 176 
 PTB  HZ EP       2244  6.64                             131    0.41 9  149 259 
 PTB  HN ES       2244 26.39                             131   -0.81 9  149 259 
 PTB  HE I        2244 28.40         5.4 0.36            132            149 259 
 OCA  HN ES       2244 28.42                             129   -1.00 9  160 353 
 OCA  HN I        2244 31.29        23.1 0.44            130            160 353 
                                                                                
