 2013  6 7 2254  5.8 L   6.816 -73.146144.0  RSN 10 0.5 2.2LRSN                1
 GAP= 71        1.33       4.6     4.8  7.1 -0.1370E+01  0.2678E+01  0.1083E+01E
 Epicentro: LOS SANTOS - SANTANDER                                             3
 ACTION:UPD 14-01-08 09:53 OP:ep   STATUS:               ID:20130607225405 L   I
 OLDACT:REG 13-06-07 23:33 OP:stll STATUS:               ID:20130607224849     3
 2013-06-07-2248-49M.COL___235                                                 6
 STAT SP IPHASW D HRMM SECON CODA AMPLIT PERI AZIMU VELO AIN AR TRES W  DIS CAZ7
 BAR2 SZ EP       2254 25.16                             170   -0.1210 25.1 189 
 BAR2 SZ ES       2254 40.11                             170   -0.3410 25.1 189 
 BAR2 SZ I        2254 41.65        22.9 0.24            171           25.1 189 
 GIR2 SZ EP       2254 25.31                             168    0.0710 29.5 350 
 GIR2 SZ ES       2254 40.92                             168    0.5410 29.5 350 
 BRR  HZ IP     D 2254 27.09                             152    0.3510 70.4 297 
 BRR  HN ES       2254 43.88                             152    0.8410 70.4 297 
 BRR  HE I        2254 45.13        34.0 0.24            153           70.4 297 
 PAM  SZ IP     C 2254 28.29                             151    0.5210 76.0  40 
 PAM  SN ES       2254 44.76                             151   -0.1310 76.0  40 
 PAM  SE I        2254 46.45        10.5 0.40            152           76.0  40 
 RUS  HZ EP       2254 29.28                             143   -0.2610  102 176 
 RUS  HN ES       2254 48.03                             143    0.0110  102 176 
 RUS  HE I        2254 49.15        22.0 0.46            145            102 176 
 GRA  SZ EP       2254 30.86                             137    0.0910  124  18 
 GRA  SZ ES       2254 50.03                             137   -0.2010  124  18 
 PTB  HZ EP       2254 32.19                             132   -0.49 9  148 258 
 PTB  HN ES       2254 52.72                             132   -0.91 9  148 258 
 TAM  HZ EP       2254 33.54                             130    0.13 9  156 106 
 OCA  HN ES       2254 54.44                             130   -1.24 9  159 353 
 OCA  HE I        2254 58.22        51.8 0.30            130            159 353 
 ZAR  HZ EP       2254 38.67                             122    0.58 9  203 292 
 ZAR  HE ES       2255  3.75                             122    0.50 9  203 292 
                                                                                
