 2015  8 7 2131 51.7 L   6.750 -73.093141.8  RSN  4 0.2 1.3LRSN                1
 GAP=146        0.60       3.2     4.7  5.1 -0.2849E+00 -0.1691E+01  0.9877E-01E
 Epicentro: LOS SANTOS - SANTANDER                                             3
 ACTION:UPD 15-09-15 23:00 OP:cam  STATUS:               ID:20150807213151 L   I
 OLDACT:REG 15-08-08 03:34 OP:stll STATUS:               ID:20150807212747     3
 2015-08-07-2127-47M.COL___361                                                 6
 STAT SP IPHASW D HRMM SECON CODA AMPLIT PERI AZIMU VELO AIN AR TRES W  DIS CAZ7
 BAR2 EZ ES       2132 25.45                             172   -0.2110 20.1 210 
 BAR2 EZ I        2132 27.48         4.5 0.16            170           20.1 210 
 PAM  EZ EP       2132 13.81                             150    0.2810 78.3  34 
 PAM  EN ES       2132 30.48                             150   -0.1010 78.3  34 
 PAM  EZ I        2132 31.57         2.9 0.22            150           78.3  34 
 BRR  HZ EP     D 2132 12.56                             149   -0.3110 79.0 300 
 BRR  HZ I        2132 17.94        11.8 0.28            146           79.0 300 
 BRR  HE ES       2132 29.65                             149    0.2510 79.0 300 
 RUS  HZ EP       2132 14.58                             145   -0.0510 94.8 179 
 RUS  HN ES       2132 32.68                             145    0.1510 94.8 179 
 RUS  HZ I        2132 34.59         1.9 0.18            143           94.8 179 
                                                                                
