 2016  1 7 2352 45.9 L   6.773 -73.186137.7  RSN 10 0.5 1.8LRSN                1
 GAP=133        0.82       3.7     4.5  7.9  0.2145E+01  0.1755E+02  0.3669E+01E
 Epicentro: LOS SANTOS - SANTANDER                                             3
 ACTION:UPD 16-03-09 23:23 OP:cam  STATUS:               ID:20160107235245 L   I
 OLDACT:UP  16-01-08 05:52 OP:dnl  STATUS:               ID:20160107234748     3
 OLDACT:REG 16-01-08 01:54 OP:dnl  STATUS:               ID:20160107234748     3
 2016-01-07-2347-48M.COL___292                                                 6
 STAT SP IPHASW D HRMM SECON CODA AMPLIT PERI AZIMU VELO AIN AR TRES W  DIS CAZ7
 BAR2 EZ EP   2   2353  4.51                             171   -0.02 5 20.0 179 
 BAR2 EZ ES   2   2353 18.76                             171   -0.27 5 20.0 179 
 BAR2 EZ I        2353 21.05        18.0 0.22            153           20.0 179 
 BRR  HZ EP   2   2353  6.45                             152    0.37 5 68.9 303 
 BRR  HE ES   2   2353 22.16                             152    0.37 5 68.9 303 
 PAM  EZ EP   2   2353  7.31                             148   -0.32 5 82.6  41 
 PAM  EN ES       2353 24.49                             148   -0.0610 82.6  41 
 PAM  EZ I        2353 26.93         7.3 0.25            111           82.6  41 
 RUS  HZ EP       2353  8.97                             143    0.2610 98.0 173 
 RUS  HE ES       2353 26.59                             143    0.1210 98.0 173 
 RUS  HZ I        2353 28.12         7.2 0.28            110           98.0 173 
 PTB  HZ EP       2353 11.32                             131   -0.47 9  143 260 
 PTB  HN ES   2   2353 31.12                             131   -0.85 5  143 260 
 PTB  HZ I        2353 34.73         6.0 0.22            104            143 260 
 SPBC HZ EP   2   2353 13.69                             128    0.36 5  158 218 
 SPBC HE ES   2   2353 33.76                             128   -0.93 5  158 218 
 SPBC HZ I        2353 39.14         6.9 0.19            101            158 218 
 ZAR  HZ EP   2   2353 18.08                             121    0.53 4  201 293 
 ZAR  HE ES       2353 42.89                             121    0.67 9  201 293 
 ZAR  HZ I        2353 48.86         9.5 0.15             98            201 293 
 SML  HZ EP   4   2353 20.86                             116   -1.36 0  245 337 
 SML  HN ES   2   2353 49.04                             116   -1.48 4  245 337 
 SML  HZ I        2353 57.82        10.2 0.07             95            245 337 
 CHI  HZ EP   2   2353 22.88                             116    0.13 4  245 194 
 CHI  HE ES   4   2353 50.02                             116   -1.45 0  245 194 
 CHI  HZ I        2353 59.18         1.7 0.30             95            245 194 
 GUY2CHZ EP   4   2353 29.94                             111    1.38 0  296 235 
 GUY2CHE ES   2   2354  1.72                             111   -0.10 4  296 235 
 GUY2CHZ I        2354 13.77         2.8 0.47                           296 235 
                                                                                
