 2017 10 7 2019 58.7 L   6.081 -73.678119.2  RSN  9 0.4 1.6LRSN                1
 GAP= 78        0.94       2.9     3.3  5.9 -0.3390E+01  0.1627E+01  0.7330E+00E
 Epicentro: CHIPATA - SANTANDER                                                3
 ACTION:UPD 17-11-07 19:29 OP:rebc STATUS:               ID:20171007201958 L   I
 OLDACT:UP  17-10-08 03:25 OP:edw  STATUS:               ID:20171007201741     3
 OLDACT:REG 17-10-08 02:55 OP:edw  STATUS:               ID:20171007201741     3
 2017-10-07-2018-00M.COL___414                                                 6
 STAT SP IPHASW D HRMM SECON CODA AMPLIT PERI AZIMU VELO AIN AR TRES W  DIS CAZ7
 SPBC HN ES       2020 30.79                             150   -0.0510 64.5 223 
 RUS  HZ EP     D 2020 17.66                             148    0.0410 69.0 108 
 RUS  HE ES       2020 32.04                             148   -0.3310 69.0 108 
 RUS  HZ I        2020 33.05         8.6 0.36            147           69.0 108 
 BAR2 EZ EP       2020 18.26                             144    0.3510 78.7  44 
 BAR2 EZ ES       2020 33.21                             144    0.3210 78.7  44 
 BAR2 EZ I        2020 36.26        11.1 0.40            145           78.7  44 
 NOR  HZ EP   2   2020 23.71                             126    0.40 5  144 247 
 NOR  HN ES       2020 42.74                             126    0.23 9  144 247 
 NOR  HZ I        2020 44.35         4.7 0.48            127            144 247 
 CHI  HZ EP       2020 25.46                             123   -0.02 9  161 182 
 CHI  HN ES       2020 46.13                             123   -0.23 9  161 182 
 CHI  HZ I        2020 48.71         2.0 0.22            123            161 182 
 YPLC HZ EP       2020 24.83                             122   -0.39 9  162 118 
 YPLC HE ES   4   2020 47.30                             122    1.40 0  162 118 
 YPLC HZ I        2020 50.84        10.3 0.28            122            162 118 
 PAM  EZ EP       2020 26.65                             120   -0.55 9  176  38 
 PAM  EN ES       2020 49.97                             120    0.55 9  176  38 
 PAM  EZ I        2020 51.56         2.7 0.18            121            176  38 
 ZAR  HE ES       2020 52.84                             116   -0.69 9  203 320 
 GUY2CHN ES   4   2020 57.38                             115    1.59 0  210 243 
 PRA  HZ EP       2020 40.69                             107    0.83 7  294 207 
 PRA  HE ES       2021 11.89                             107   -0.06 7  294 207 
 PRA  HZ I        2021 17.57         3.6 0.32            107            294 207 
                                                                                
