 2017  8 7 2237 41.6 L   6.779 -73.141145.9  RSN  8 0.4 1.6LRSN                1
 GAP=236        1.00       4.6     5.4  7.1  0.8883E+01  0.1043E+02  0.1109E+02E
 Epicentro: LOS SANTOS - SANTANDER                                             3
 ACTION:UPD 17-09-04 20:17 OP:rebc STATUS:               ID:20170807223741 L   I
 OLDACT:UP  17-08-08 07:49 OP:edw  STATUS:               ID:20170807222741d    3
 OLDACT:DUP 17-08-08 07:44 OP:edw  STATUS:               ID:20170807222741d    3
 OLDACT:UP  17-08-08 07:44 OP:edw  STATUS:               ID:20170807222740     3
 OLDACT:UP  17-08-08 07:43 OP:edw  STATUS:               ID:20170807222740     3
 OLDACT:REG 17-08-08 04:54 OP:edw  STATUS:               ID:20170807222740     3
 2017-08-07-2228-00M.COL___396                                                 6
 STAT SP IPHASW D HRMM SECON CODA AMPLIT PERI AZIMU VELO AIN AR TRES W  DIS CAZ7
 BAR2 EZ EP       2238  0.68                             172   -0.4710 21.1 193 
 BAR2 EZ ES       2238 16.29                             172   -0.1510 21.1 193 
 BAR2 EZ I        2238 18.99        12.0 0.28            164           21.1 193 
 BRR  HZ EP       2238  3.04                             152    0.2310 72.8 300 
 BRR  HN ES       2238 20.06                             152    0.6810 72.8 300 
 RUS  HZ EP       2238  5.46                             145    0.3210 98.2 176 
 RUS  HN ES       2238 23.48                             145   -0.0610 98.2 176 
 RUS  HZ I        2238 25.05         5.6 0.34            142           98.2 176 
 PTB  HZ EP       2238  8.02                             132   -0.52 9  148 260 
 PTB  HE ES       2238 29.23                             132   -0.36 9  148 260 
 PTB  HZ I        2238 35.56         2.8 0.34            130            148 260 
 ZAR  HN ES       2238 39.37                             122   -0.21 8  205 293 
 NOR  HN ES       2238 45.25                             119    0.26 8  234 235 
 NOR  HZ I        2238 53.10         2.0 0.38            118            234 235 
 CHI  HZ EP       2238 19.51                             117    0.49 8  246 195 
 CHI  HN ES       2238 47.71                             117   -0.54 8  246 195 
 CHI  HZ I        2238 52.29         1.6 0.30            117            246 195 
 PRA  HZ EP   4   2238 33.10                             107   -1.77 0  390 210 
 PRA  HE ES       2239 17.12                             107    0.67 6  390 210 
 PRA  HZ I        2239 23.56         2.2 0.30            107            390 210 
                                                                                
