 2016 11 7 2346 31.3 L   6.801 -73.122152.0  RSN  5 0.3 1.7LRSN                1
 GAP=158        0.73       6.3     3.6  5.8 -0.4742E+01  0.4380E+01  0.8435E+00E
 Epicentro: LOS SANTOS - SANTANDER                                             3
 ACTION:UPD 17-10-26 21:05 OP:lp   STATUS:               ID:20161107234631 L   I
 OLDACT:REG 16-11-08 03:32 OP:cog  STATUS:               ID:20161107233745     3
 2016-11-07-2338-00M.COL___352                                                 6
 STAT SP IPHASW D HRMM SECON CODA AMPLIT PERI AZIMU VELO AIN AR TRES W  DIS CAZ7
 BAR2 EZ EP       2346 51.58                             171   -0.0710 24.0 196 
 BAR2 EZ ES       2347  7.75                             171    0.1910 24.0 196 
 BAR2 EZ I        2347 11.49         5.8 0.28            171           24.0 196 
 BRR  HZ EP       2346 53.35                             153    0.1410 73.4 298 
 BRR  HE ES       2347 10.75                             153    0.4210 73.4 298 
 BRR  HZ I        2347 14.27         8.7 0.12            152           73.4 298 
 PAM  EZ EP       2346 54.30                             153    0.2610 75.7  38 
 PAM  EE ES       2347 11.36                             153   -0.4610 75.7  38 
 PAM  EZ I        2347 12.18         5.7 0.21            155           75.7  38 
 PTB  HZ EP       2346 58.72                             133   -0.25 9  150 259 
 PTB  HE ES       2347 20.30                             133   -0.28 9  150 259 
 PTB  HZ I        2347 22.36         5.5 0.18            134            150 259 
 ZAR  HZ EP   3   2347  5.37                             123    1.01 2  206 292 
 ZAR  HN ES       2347 30.06                             123   -0.11 8  206 292 
 ZAR  HZ I        2347 35.50        10.2 0.32            125            206 292 
                                                                                
