 2010  9 7 2213 47.8 L   6.770 -73.094150.7  RSN  7 0.3 1.8LRSN                1
 GAP=165        0.65       4.0     8.3  5.6 -0.6094E+01 -0.9879E+01  0.5250E+01E
 Epicentro: LOS SANTOS - SANTANDER                                             3
 ACTION:UP  11-02-18 11:01 OP:tino STATUS:               ID:20100907221347 L   I
 2010-09-07-2210-48S.COL___120                                                 6
 STAT SP IPHASW D HRMM SECON CODA AMPLIT PERI AZIMU VELO SNR AR TRES W  DIS CAZ7
 BAR2 SZ EP       2214  8.03                             171     0.010   22 207 
 BAR2 SZ ES   1   2214 23.90                             171     0.1 7   22 207 
 BAR2 SZ I        2214 24.77        23.4 0.28                            22 207 
 BTL  SZ EP       2214  8.30                             170     0.210   25 311 
 BTL  SZ ES   1   2214 23.21                             170    -0.7 7   25 311 
 BRR  HZ EP   1   2214 10.03                             151     0.2 7   78 299 
 BRR  HN ES   1   2214 27.21                             151     0.1 7   78 299 
 BRR  HZ I        2214 28.99        14.7 0.24                            78 299 
 RUS  HZ EP   1   2214 11.79                             146     0.0 7   97 179 
 RUS  HZ I        2214 13.09         4.9 0.16                            97 179 
 RUS  HN ES   2   2214 30.69                             146     0.2 5   97 179 
 GRA  SZ EP   1   2214 13.76                             137     0.1 7  127  15 
 GRA  SZ ES   2   2214 33.47                             137    -0.3 5  127  15 
 GRA  SZ I        2214 34.64         5.6 0.37                           127  15 
 CHI  HZ EP   2   2214 24.86                             118    -0.7 4  247 197 
 CHI  HN ES   2   2214 55.44                             118     0.3 4  247 197 
 CHI  HZ I        2215  4.03         3.5 0.52                           247 197 
 PRA  HZ EP   2   2214 41.17                             107    -0.3 3  392 211 
 PRA  HN ES   2   2215 22.81                             107    -0.6 3  392 211 
 PRA  HZ I        2215 29.22         3.6 0.71                           392 211 
                                                                                
