 2011  5 7 2110 53.6 L   6.802 -73.169140.1  RSN  6 0.2 1.6LRSN                1
 GAP=153        0.59       3.1     6.5  5.6 -0.5246E+01 -0.9091E+01  0.5554E+00E
 Epicentro: LOS SANTOS - SANTANDER                                             3
 ACTION:UP  11-06-29 08:51 OP:tino STATUS:               ID:20110507211053 L   I
 2011-05-07-2108-36S.COL___133                                                 6
 STAT SP IPHASW D HRMM SECON CODA AMPLIT PERI AZIMU VELO SNR AR TRES W  DIS CAZ7
 BTL  SZ EP   1   2111 12.71                             173     0.3 7   17 320 
 BTL  SZ ES   1   2111 26.98                             173    -0.1 7   17 320 
 BAR2 SZ EP   1   2111 12.44                             170    -0.1 7   23 184 
 BAR2 SZ ES   2   2111 27.33                             170     0.0 5   23 184 
 BAR2 SZ I        2111 28.88        10.2 0.35                            23 184 
 BRR  HZ EP   1   2111 14.26                             152     0.3 7   69 299 
 BRR  HN ES   1   2111 29.77                             152    -0.1 7   69 299 
 RUS  HZ EP   1   2111 16.50                             142    -0.3 7  101 175 
 RUS  HN ES   1   2111 35.18                             142     0.2 7  101 175 
 RUS  HZ I        2111 36.44         5.5 0.24                           101 175 
 BRI  SZ EP   1   2111 17.01                             140     0.0 7  109  22 
 BRI  SZ ES   1   2111 34.94                             140    -0.3 7  109  22 
 BRI  SZ I        2111 38.75         5.5 0.39                           109  22 
 GRA  SZ EP   1   2111 18.22                             136    -0.2 7  126  19 
 GRA  SZ ES   1   2111 38.19                             136     0.5 7  126  19 
 GRA  SZ I        2111 38.90         5.6 0.31                           126  19 
                                                                                
