 2013  1 7 2000 34.5 L   6.784 -73.144145.5  RSN 10 0.4 2.8LRSN                1
 GAP=183        0.79       2.9     4.0  4.9  0.5592E+00  0.5182E+01  0.1112E+00E
 Epicentro: LOS SANTOS - SANTANDER                                             3
 ACTION:UPD 13-02-15 09:12 OP:ep   STATUS:               ID:20130107200034 L   I
 2013-01-07-2000-00M.COL___242                                                 6
 STAT SP IPHASW D HRMM SECON CODA AMPLIT PERI AZIMU VELO AIN AR TRES W  DIS CAZ7
 BAR2 SZ IP       20 0 54.34                             171    0.2310 21.6 191 
 BAR2 SZ I        20 0 54.52       170.5 0.18            168           21.6 191 
 BAR2 SZ ES       20 1  9.22                             171   -0.1510 21.6 191 
 BRR  HZ IP     C 20 0 56.23                             152    0.5110 72.2 300 
 BRR  HZ I        20 0 56.53       126.7 0.25            148           72.2 300 
 BRR  HN ES   1   20 1 13.08                             152    0.84 7 72.2 300 
 RUS  HZ EP       20 0 58.22                             144    0.0810 98.8 176 
 RUS  HN ES       20 1 16.38                             144   -0.1610 98.8 176 
 RUS  HN I        20 1 18.89       163.5 0.41            146           98.8 176 
 PTB  HZ EP       20 1  1.05                             132   -0.43 9  148 260 
 PTB  HN ES   1   20 1 22.21                             132   -0.27 7  148 260 
 PTB  HZ I        20 1 28.31        47.8 0.42            130            148 260 
 OCA  HZ EP       20 1  2.84                             129   -0.16 9  162 353 
 OCA  HE ES   1   20 1 24.57                             129   -0.63 7  162 353 
 ZAR  HZ EP   1   20 1  7.00                             122   -0.06 6  205 293 
 ZAR  HE ES   1   20 1 32.33                             122   -0.09 6  205 293 
 ZAR  HZ I        20 1 39.41        64.9 0.27            122            205 293 
 NOR  HZ EP   1   20 1  9.69                             119   -0.47 6  234 235 
 NOR  HE ES       20 1 37.53                             119   -0.41 8  234 235 
 NOR  HZ I        20 1 40.72        41.6 0.32            119            234 235 
 CHI  HZ EP       20 1 12.29                             117    0.24 8  247 195 
 CHI  HN ES   1   20 1 41.21                             117   -0.09 6  247 195 
 HEL  HZ EP   1   20 1 14.98                             115    0.26 6  272 256 
 HEL  HN ES   1   20 1 46.39                             115    0.34 6  272 256 
 HEL  HZ I        20 1 52.66        27.0 0.47            115            272 256 
 TOL  SZ EP   1   20 1 23.27                             109    0.61 5  342 225 
                                                                                
