 2015  8 7 2334 46.6 L   6.824 -73.127143.6  RSN 13 0.6 2.2LRSN                1
 GAP=138        1.32       3.4     4.8  6.7 -0.2748E+01  0.1005E+02  0.2385E+01E
 Epicentro: LOS SANTOS - SANTANDER                                             3
 ACTION:UPD 15-09-15 23:00 OP:cam  STATUS:               ID:20150807233446 L   I
 OLDACT:REG 15-08-08 03:39 OP:stll STATUS:               ID:20150807232735     3
 2015-08-07-2327-35M.COL___358                                                 6
 STAT SP IPHASW D HRMM SECON CODA AMPLIT PERI AZIMU VELO AIN AR TRES W  DIS CAZ7
 BAR2 EZ EP     C 2335  6.18                             169    0.1610 26.4 193 
 BAR2 EZ I        2335  6.52        55.8 0.10            167           26.4 193 
 BAR2 EZ ES       2335 20.88                             169   -0.3010 26.4 193 
 BRR  HZ IP     C 2335  8.06                             152    0.5310 71.8 296 
 BRR  HE ES       2335 24.81                             152    0.9410 71.8 296 
 BRR  HZ I        2335 29.09        23.3 0.42            149           71.8 296 
 PAM  EZ EP       2335  9.09                             152    0.7210 74.0  40 
 PAM  EN ES       2335 25.35                             152   -0.0010 74.0  40 
 PAM  EZ I        2335 26.86        17.5 0.20            156           74.0  40 
 RUS  HZ EP     C 2335 10.08                             143   -0.2310  103 177 
 RUS  HZ I        2335 10.96        12.1 0.46            144            103 177 
 RUS  HN ES       2335 28.83                             143    0.0210  103 177 
 CPBEREZ EP       2335 13.26                             131   -0.36 9  150 258 
 CPBEREN ES       2335 33.84                             131   -0.86 9  150 258 
 OCA  HZ EP       2335 14.45                             130   -0.05 9  158 352 
 OCA  HN ES       2335 36.01                             130   -0.26 9  158 352 
 OCA  HZ I        2335 39.61        27.8 0.42            131            158 352 
 ZAR  HE ES       2335 44.29                             122    0.03 9  205 291 
 ZAR  HZ I        2335 50.32        14.0 0.14            122            205 291 
 NOR  HZ EP       2335 22.55                             118    0.01 8  238 234 
 NOR  HN ES       2335 50.26                             118   -0.33 8  238 234 
 NOR  HZ I        2335 56.25        16.0 0.20            118            238 234 
 SML  HZ EP       2335 22.50                             117   -0.42 8  242 335 
 SML  HE ES       2335 50.00                             117   -1.26 8  242 335 
 SML  HZ I        2335 53.09        12.0 0.10            118            242 335 
 CHI  HZ EP       2335 24.24                             116   -0.27 8  252 195 
 CHI  HN ES       2335 53.52                             116   -0.56 8  252 195 
 CHI  HZ I        2335 59.16         7.1 0.40            118            252 195 
 HEL  HZ EP       2335 27.51                             114    0.52 8  275 255 
 HEL  HN ES       2335 59.92                             114    1.42 8  275 255 
 HEL  HZ I        2336  8.10         8.2 0.22            115            275 255 
 GUY2CHZ EP     C 2335 31.24                             112    0.78 7  304 235 
 GUY2CHN ES       2336  4.47                             112   -0.22 7  304 235 
 GUY2CHZ I        2336 12.71        12.3 0.40                           304 235 
 TOL  SZ EP       2335 35.25                             109    0.11 6  347 225 
 TOL  SN ES       2336 12.61                             109   -0.41 6  347 225 
 TOL  SZ I        2336 22.63         8.7 0.44            110            347 225 
                                                                                
