 2012  5 7 2032 10.8 L   6.773 -73.181146.3  RSN  5 0.3 1.5LRSN                1
 GAP=133        0.72       5.0     4.3  8.4  0.1506E+01  0.5798E+01  0.3959E+01E
 Epicentro: LOS SANTOS - SANTANDER                                             3
 ACTION:UP  12-07-05 12:03 OP:pat  STATUS:               ID:20120507203210 L   I
 2012-05-07-2030-38M.COL___187                                                 6
 STAT SP IPHASW D HRMM SECON CODA AMPLIT PERI AZIMU VELO SNR AR TRES W  DIS CAZ7
 BRR  HZ EP   1   2032 32.42                             153     0.5 7   69 302 
 BRR  HZ I        2032 41.45        11.7 0.55                            69 302 
 BRR  HE ES   1   2032 48.59                             153     0.2 7   69 302 
 PAM  SZ EP   1   2032 33.34                             149     0.0 7   82  40 
 PAM  SN ES   1   2032 50.61                             149    -0.3 7   82  40 
 RUS  HZ EP   1   2032 34.29                             145    -0.1 7   98 174 
 RUS  HZ I        2032 35.10         1.8 0.33                            98 174 
 RUS  HN ES   1   2032 53.05                             145     0.2 7   98 174 
 PTB  HZ EP   1   2032 37.17                             133    -0.2 7  143 260 
 PTB  HN ES   1   2032 57.71                             133    -0.5 7  143 260 
 PTB  HZ I        2033  4.59         3.3 0.32                           143 260 
 ZAR  HE ES   1   2033  8.29                             123     0.1 6  202 293 
 ZAR  HZ I        2033 14.73         3.7 0.43                           202 293 
                                                                                
