 2010  3 7 2318 47.6 L   6.759 -73.174148.7  RSN  5 0.3 1.5LRSN                1
 GAP=180        0.64       5.2    12.6  8.3  0.2863E+02 -0.7975E+01  0.4410E+00E
 Epicentro: VILLANUEVA - SANTANDER                                             3
 ACTION:UP  10-08-24 09:52 OP:vdl  STATUS:               ID:20100307231847 L   I
 2010-03-07-2317-50S.COL___100                                                 6
 STAT SP IPHASW D HRMM SECON CODA AMPLIT PERI AZIMU VELO SNR AR TRES W  DIS CAZ7
 BAR2 SZ EP       2319  7.36                             173    -0.110   18 183 
 BAR2 SZ ES   2   2319 22.37                             173    -0.6 5   18 183 
 BRR  HZ EP       2319  8.88                             153    -0.110   71 303 
 BRR  HZ I        2319 10.76         9.2 0.34                            71 303 
 BRR  HE ES   2   2319 26.37                             153     0.6 5   71 303 
 RUS  BZ EP       2319 11.54                             146     0.210   96 174 
 RUS  BN ES   2   2319 30.23                             146     0.4 5   96 174 
 RUS  BZ I        2319 31.50         2.8 0.36                            96 174 
 OCA  SZ EP   2   2319 16.76                             129     0.2 5  164 354 
 OCA  SZ ES   3   2319 38.66                             129    -0.4 2  164 354 
 OCA  SZ I        2319 43.06         5.6 0.25                           164 354 
 CHI  HZ EP   2   2319 24.88                             118     0.0 4  243 195 
 CHI  HZ I        2319 26.37         1.8 0.20                           243 195 
 CHI  HE ES   2   2319 53.50                             118    -0.5 4  243 195 
                                                                                
