 2015  9 7 2246 13.5 L   6.802 -73.142146.3  RSN 18 0.5 2.4LRSN                1
 GAP=137        1.11       2.5     3.7  5.3 -0.1892E+01  0.6447E+01  0.1137E+01E
 Epicentro: LOS SANTOS - SANTANDER                                             3
 ACTION:UPD 15-10-28 16:24 OP:cam  STATUS:               ID:20150907224613 L   I
 OLDACT:REG 15-09-08 06:13 OP:ak   STATUS:               ID:20150907223750     3
 2015-09-07-2237-50M.COL___359                                                 6
 STAT SP IPHASW D HRMM SECON CODA AMPLIT PERI AZIMU VELO AIN AR TRES W  DIS CAZ7
 BAR2 EZ IP     C 2246 33.17                             170   -0.0110 23.6 191 
 BAR2 EZ ES       2246 48.30                             170   -0.2410 23.6 191 
 BAR2 EZ I        2246 50.14        35.9 0.14            168           23.6 191 
 BRR  HZ EP     C 2246 35.21                             152    0.5110 71.5 298 
 BRR  HN ES       2246 52.11                             152    0.8610 71.5 298 
 BRR  HZ I        2246 55.48        40.3 0.14            150           71.5 298 
 PAM  EZ EP       2246 36.30                             151    0.5810 77.0  39 
 PAM  EN ES       2246 53.54                             151    0.4610 77.0  39 
 PAM  EZ I        2246 57.55        20.4 0.28            156           77.0  39 
 RUS  HZ EP       2246 36.93                             144   -0.3610  101 176 
 RUS  HN ES       2246 55.68                             144   -0.1910  101 176 
 RUS  HZ I        2247  0.21        12.0 0.34            146            101 176 
 PTB  HZ EP       2246 39.94                             132   -0.59 9  148 259 
 PTB  HN ES       2247  1.01                             132   -0.62 9  148 259 
 PTB  HZ I        2247  6.90        34.7 0.14            132            148 259 
 OCA  HZ EP       2246 41.77                             130   -0.05 9  160 353 
 OCA  HN ES       2247  3.09                             130   -0.83 9  160 353 
 OCA  HZ I        2247  8.02        42.1 0.30            132            160 353 
 SPBC HZ EP       2246 42.01                             129   -0.05 9  164 219 
 SPBC HN ES       2247  4.14                             129   -0.21 9  164 219 
 SPBC HZ I        2247  8.86        51.1 0.15            130            164 219 
 ZAR  HZ EP       2246 46.15                             122    0.16 9  204 292 
 ZAR  HE ES       2247 11.81                             122    0.46 9  204 292 
 ZAR  HZ I        2247 17.12        35.4 0.34            123            204 292 
 NOR  HZ EP       2246 49.36                             119    0.07 8  235 234 
 NOR  HN ES       2247 17.73                             119    0.51 8  235 234 
 NOR  HZ I        2247 23.75        26.6 0.20            120            235 234 
 SML  HZ EP       2246 50.01                             118   -0.12 8  244 335 
 SML  HN ES       2247 18.15                             118   -0.58 8  244 335 
 SML  HZ I        2247 22.46        24.3 0.08            119            244 335 
 CHI  HZ EP       2246 51.29                             117    0.05 8  249 195 
 CHI  HN ES       2247 19.97                             117   -0.72 8  249 195 
 CHI  HZ I        2247 27.08        10.3 0.20            119            249 195 
 ROSC BZ EP       2246 51.96                             117    0.29 8  253 211 
 ROSC BN ES       2247 20.78                             117   -0.68 8  253 211 
 HEL  HZ EP   1   2246 54.06                             115    0.29 6  273 256 
 HEL  HN ES       2247 24.67                             115   -0.53 8  273 256 
 HEL  HZ I        2247 32.05        13.6 0.38            116            273 256 
 GUY2CHZ EP   1   2246 57.87                             112    0.71 5  302 235 
 GUY2CHN ES       2247 32.07                             112    0.83 7  302 235 
 GUY2CHZ I        2247 39.28        18.2 0.26                           302 235 
 ELA  HZ EP   4   2246 53.92                             110   -6.48 0  330 229 
 ELA  HN ES       2247 37.15                             110    0.15 7  330 229 
 ELA  HZ I        2247 48.34        13.9 0.46            112            330 229 
 DBB  SZ EP       2247  0.74                             109   -0.28 7  340 274 
 DBB  SZ ES       2247 37.51                             109   -0.60 7  340 274 
 DBB  SZ I        2247 56.37        25.0 0.62            111            340 274 
 TOL  SZ EP   1   2247  2.28                             109    0.48 5  344 225 
 TOL  SN ES       2247 40.30                             109    0.80 7  344 225 
 TOL  SZ I        2247 46.07         9.6 0.36            111            344 225 
 PRA  HZ EP   4   2247 13.56                             107    6.50 0  392 210 
 PRA  HN ES       2247 49.10                             107    0.25 6  392 210 
 PRA  HZ I        2247 53.46         9.6 0.28            108            392 210 
                                                                                
