 2011  1 7 2234 23.7 L   6.806 -73.183139.1  RSN  7 0.3 2.1LRSN                1
 GAP=154        0.81       5.9    13.0  9.8 -0.2742E+02  0.3058E+02 -0.1431E+02E
 Epicentro: LOS SANTOS - SANTANDER                                             3
 ACTION:UP  11-02-08 08:39 OP:pat  STATUS:               ID:20110107223423 L   I
 2011-01-07-2220-00M.COL___136                                                 6
 STAT SP IPHASW D HRMM SECON CODA AMPLIT PERI AZIMU VELO SNR AR TRES W  DIS CAZ7
 BTL  SZ IP       2234 42.95                             173     0.610   16 323 
 BAR2 SZ EP       2234 42.39                             170    -0.110   24 180 
 BAR2 SZ ES   1   2234 57.09                             170    -0.1 7   24 180 
 BAR2 SZ I        2234 58.35        36.3 0.21                            24 180 
 GIR2 SZ IP       2234 42.51                             167     0.010   30 358 
 RUS  HZ EP       2234 46.67                             142    -0.210  102 174 
 RUS  HZ I        2235  5.59        13.2 0.26                           102 174 
 GRA  SZ ES   2   2235  7.04                             135    -0.6 5  126  19 
 OCA  SZ EP       2234 51.27                             128    -0.1 9  159 355 
 OCA  SZ I        2235 15.30        17.7 0.40                           159 355 
 NOR  SN ES   2   2235 25.63                             117    -0.4 4  232 234 
                                                                                
