 2016 12 7 2237 47.4 L   6.798 -73.137147.4  RSN 17 0.6 2.6LRSN                1
 GAP= 66        1.04       3.5     3.1  5.4 -0.6910E+00  0.3207E+01  0.4602E+01E
 Epicentro: LOS SANTOS - SANTANDER                                             3
 ACTION:UPD 17-01-11 20:13 OP:rebc STATUS:               ID:20161207223747 L   I
 OLDACT:UP  16-12-08 04:40 OP:dani STATUS:               ID:20161207222750d    3
 OLDACT:UP  16-12-08 04:40 OP:dani STATUS:               ID:20161207222750d    3
 OLDACT:UP  16-12-08 04:38 OP:dani STATUS:               ID:20161207222750d    3
 OLDACT:UP  16-12-08 04:38 OP:dani STATUS:               ID:20161207222750d    3
 OLDACT:UP  16-12-08 04:35 OP:dani STATUS:               ID:20161207222750d    3
 OLDACT:DUP 16-12-08 04:27 OP:dani STATUS:               ID:20161207222750d    3
 OLDACT:UP  16-12-08 04:25 OP:dani STATUS:               ID:20161207222749     3
 OLDACT:UP  16-12-08 04:25 OP:dani STATUS:               ID:20161207222749     3
 OLDACT:UP  16-12-08 04:24 OP:dani STATUS:               ID:20161207222749     3
 OLDACT:UP  16-12-08 04:17 OP:dani STATUS:               ID:20161207222749     3
 OLDACT:UP  16-12-08 04:17 OP:dani STATUS:               ID:20161207222749     3
 OLDACT:REG 16-12-08 02:49 OP:dani STATUS:               ID:20161207222749     3
 2016-12-07-2228-00M.COL___370                                                 6
 STAT SP IPHASW D HRMM SECON CODA AMPLIT PERI AZIMU VELO AIN AR TRES W  DIS CAZ7
 BAR2 EZ EP     C 2238  7.20                             171   -0.0710 23.3 192 
 BAR2 HE ES       2238 22.68                             171   -0.0510 23.3 192 
 BAR2 EZ I        2238 23.88        62.3 0.22            168           23.3 192 
 BRR  HZ EP     C 2238  9.05                             152    0.2310 72.1 298 
 BRR  HE ES       2238 26.49                             152    1.0010 72.1 298 
 BRR  HZ I        2238 30.63        61.0 0.12            150           72.1 298 
 PAM  EZ EP     C 2238  9.97                             151    0.1610 77.0  39 
 PAM  EN ES       2238 26.89                             151   -0.3610 77.0  39 
 PAM  EZ I        2238 29.54       116.6 0.66            155           77.0  39 
 RUS  HZ EP     C 2238 11.07                             144   -0.2710  100 177 
 RUS  HN ES       2238 29.73                             144   -0.2410  100 177 
 RUS  HZ I        2238 30.47        29.5 0.26            145            100 177 
 PTB  HZ EP       2238 13.75                             132   -0.87 9  149 259 
 PTB  HN ES       2238 34.93                             132   -0.89 9  149 259 
 PTB  HZ I        2238 42.40        63.1 0.34            131            149 259 
 TAM  HZ EP     C 2238 15.39                             131    0.23 9  154 105 
 TAM  HN ES       2238 36.99                             131    0.21 9  154 105 
 TAM  HZ I        2238 38.15        18.9 0.36            135            154 105 
 ZAR  HZ EP       2238 19.96                             123   -0.13 9  205 292 
 ZAR  HN ES       2238 45.57                             123    0.01 9  205 292 
 ZAR  HZ I        2238 51.25        81.4 0.34            122            205 292 
 NOR  HZ EP       2238 23.20                             119   -0.13 8  235 235 
 NOR  HN ES       2238 51.69                             119    0.36 8  235 235 
 NOR  HZ I        2238 59.93        21.2 0.16            118            235 235 
 CHI  HZ EP       2238 25.64                             117    0.40 8  249 195 
 CHI  HN ES       2238 54.46                             117   -0.25 8  249 195 
 CHI  HZ I        2238 58.48        10.3 0.32            118            249 195 
 ROSC BZ EP   9   2238 27.36                             117    1.68 0  253 211 
 ROSC BE ES       2238 57.02                                   -0.17 8  253 211 
 ROSC BZ I        2239  4.86        49.1 0.52            117            253 211 
 URE  HZ EP   3   2238 27.43                             114   -1.27 2  285 292 
 URE  HN ES   4   2238 58.19                             114   -2.68 0  285 292 
 URE  HZ I        2239 11.20        35.1 0.22            114            285 292 
 GUY2CHZ EP   3   2238 32.24                             113    1.04 2  302 235 
 GUY2CHE ES   3   2239  6.91                             113    1.58 2  302 235 
 GUY2CHZ I        2239 16.02        17.2 0.60                           302 235 
 PTGC HZ EP   3   2238 30.19                             112   -1.12 2  308 159 
 PTGC HE ES   4   2239  3.36                             112   -2.17 0  308 159 
 PTGC HZ I        2239  5.39        27.5 0.22            113            308 159 
 LL6C HZ EP   9   2238 12.24                             111   -21.0 0  325 357 
 LL6C HE ES       2238 48.07                                    0.11 7  325 357 
 ELA  HZ EP   4   2238 38.23                             111    3.80 0  330 230 
 ELA  HN ES       2239 12.07                             111    1.00 7  330 230 
 ORTC HZ EP       2238 42.20                             107    0.74 6  396 216 
 ORTC HE ES       2239 23.42                             107   -0.18 6  396 216 
 ORTC HZ I        2239 31.72        10.6 0.57            107            396 216 
 SJC  HZ EP   3   2238 41.09                             106   -2.05 1  410 327 
 SJC  HE ES   4   2239 23.09                             106   -3.49 0  410 327 
 SJC  HZ I        2239 26.98         9.8 0.23            106            410 327 
                                                                                
