 2010  4 7 2231 28.6 L   6.881 -73.223121.2  RSN  7 0.2 2.5LRSN                1
 GAP=176        0.39       2.4     5.0  4.2 -0.2524E+01  0.5674E+01  0.2473E+01E
 Epicentro: BETULIA - SANTANDER                                                3
 ACTION:UPD 10-08-24 09:58 OP:vdl  STATUS:               ID:20100407223128 L   I
 2010-04-07-2229-00S.COL___097                                                 6
 STAT SP IPHASW D HRMM SECON CODA AMPLIT PERI AZIMU VELO AIN AR TRES W  DIS CAZ7
 BAR2 SZ EP   1   2231 45.71                             163     0.2 7   32 172 
 BAR2 SZ ES   2   2231 58.66                             163    -0.1 5   32 172 
 BRR  HZ EP   1   2231 46.33                             154    -0.1 7   60 295 
 BRR  HE ES   2   2232  0.28                             154    -0.1 5   60 295 
 BRR  HZ I        2232  1.18       161.3 0.13                            60 295 
 OCA  SZ EP   1   2231 54.12                             126     0.0 7  151 356 
 OCA  SZ ES   2   2232 14.38                             126     0.3 5  151 356 
 CHI  HZ EP   1   2232  5.68                             111    -0.1 6  255 193 
 CHI  HZ I        2232  7.85        11.3 0.34                           255 193 
 CHI  HE ES   2   2232 34.73                             111    -0.1 4  255 193 
 HEL  HZ EP   1   2232  6.84                             110    -0.2 6  266 253 
 RREF BZ EP   1   2232 13.77                             106     0.0 5  321 227 
 RREF BE ES   2   2232 49.24                             106     0.3 3  321 227 
 RREF BZ I        2232 55.87        10.3 0.28                           321 227 
 PRA  HZ EP   1   2232 21.80                             102     0.0 4  396 208 
 PRA  HN ES   2   2233  4.31                             102     1.0 3  396 208 
 PRA  HZ I        2233  7.75        11.2 0.44                           396 208 
                                                                                
