 2010  9 7 2149 41.6 L   6.819 -73.094142.9  RSN 12 0.4 2.3LRSN                1
 GAP=164        0.80       3.3     6.4  6.1 -0.4877E+01  0.4079E+01  0.1723E+01E
 Epicentro: LOS SANTOS - SANTANDER                                             3
 ACTION:UP  11-02-18 11:01 OP:tino STATUS:               ID:20100907214941 L   I
 2010-09-07-2146-43S.COL___120                                                 6
 STAT SP IPHASW D HRMM SECON CODA AMPLIT PERI AZIMU VELO SNR AR TRES W  DIS CAZ7
 BTL  SZ EP       2150  1.13                             171     0.210   22 300 
 BAR2 SZ IP       2150  1.00                             169     0.010   27 201 
 BAR2 SZ ES   1   2150 15.34                             169    -0.8 7   27 201 
 BAR2 SZ I        2150 18.55        37.1 0.38                            27 201 
 GIR2 SZ EP   2   2150  1.31                             167     0.4 5   31 339 
 GIR2 SZ ES   3   2150 16.57                             167     0.6 2   31 339 
 BRR  HZ EP   1   2150  2.85                             150     0.1 7   75 295 
 BRR  HN ES   1   2150 19.70                             150     0.5 7   75 295 
 BRR  HZ I        2150 23.67        33.9 0.12                            75 295 
 RUS  HZ IP     C 2150  5.08                             143    -0.210  102 179 
 RUS  HN ES   1   2150 23.94                             143     0.3 7  102 179 
 RUS  HZ I        2150 25.55        20.6 0.27                           102 179 
 GRA  SZ IP       2150  6.57                             137     0.310  122  15 
 GRA  SZ ES   2   2150 25.50                             137    -0.1 5  122  15 
 GRA  SZ I        2150 28.62        17.5 0.38                           122  15 
 OCA  SZ EP   1   2150  9.23                             129    -0.4 7  159 351 
 OCA  SZ ES   1   2150 30.81                             129    -0.6 7  159 351 
 OCA  SZ I        2150 36.51        17.7 0.35                           159 351 
 CHI  HZ EP   2   2150 19.23                             116    -0.3 4  252 196 
 CHI  HZ I        2150 20.74         8.4 0.25                           252 196 
 CHI  HN ES   2   2150 48.79                             116    -0.4 4  252 196 
 HEL  HZ EP   2   2150 22.90                             113     0.5 4  278 256 
 HEL  HE ES   2   2150 53.42                             113    -0.7 4  278 256 
 HEL  HZ I        2150 59.92         9.9 0.29                           278 256 
 GUY  SZ EP   2   2150 25.94                             111     0.2 4  307 235 
 GUY  SZ I        2151 10.07        39.4 0.45                           307 235 
 RREF HZ EP   2   2150 28.94                             110     0.6 3  327 230 
 RREF HE ES   2   2151  4.26                             110    -0.4 3  327 230 
 RREF HZ I        2151 13.48        12.2 0.44                           327 230 
 PRA  HZ EP   1   2150 35.11                             106    -0.5 4  397 210 
 PRA  HE ES   1   2151 18.08                             106     0.4 4  397 210 
 PRA  HZ I        2151 24.03        12.5 0.37                           397 210 
                                                                                
