 2016  8 7 2206 49.8 L   6.841 -73.154139.4  RSN  6 0.4 1.3LRSN                1
 GAP=133        0.90       4.7     5.0  7.4 -0.9058E+01  0.1652E+02 -0.8559E+01E
 Epicentro: LOS SANTOS - SANTANDER                                             3
 ACTION:UPD 16-10-29 15:33 OP:rebc STATUS:               ID:20160807220649 L   I
 OLDACT:DUP 16-08-08 21:03 OP:cara STATUS:               ID:20160807215734d    3
 OLDACT:REG 16-08-08 12:20 OP:dnl  STATUS:               ID:20160807215733     3
 2016-08-07-2158-00M.COL___359                                                 6
 STAT SP IPHASW D HRMM SECON CODA AMPLIT PERI AZIMU VELO AIN AR TRES W  DIS CAZ7
 BAR2 HE ES       22 7 23.98                             168    0.4410 27.7 187 
 BAR2 EZ I        22 7 25.17         6.1 0.20                          27.7 187 
 PAM  EZ EP       22 7 11.56                             151    0.4110 74.6  42 
 PAM  EN ES       22 7 27.36                             151   -0.4610 74.6  42 
 PAM  EZ I        22 7 31.46         2.1 0.48                          74.6  42 
 RUS  HZ EP       22 7 13.14                             141   -0.1110  105 176 
 RUS  HN ES       22 7 31.46                             141   -0.1110  105 176 
 RUS  HZ I        22 7 33.24         2.1 0.42                           105 176 
 PTB  HZ EP       22 7 15.71                             130   -0.53 9  148 257 
 PTB  HN ES       22 7 36.73                             130   -0.15 9  148 257 
 PTB  HZ I        22 7 37.33         3.3 0.16                           148 257 
 SPBC HN ES       22 7 40.29                             127    0.12 9  166 218 
 SPBC HZ I        22 7 44.59         6.1 0.22                           166 218 
 ZAR  HZ EP       22 7 21.99                             121    0.44 9  202 291 
 ZAR  HN ES   4   22 7 48.71                             121    2.37 0  202 291 
 ZAR  HZ I        22 7 59.32         2.2 0.24                           202 291 
                                                                                
