 2015  6 7 2328 30.3 L   6.800 -73.112144.0  RSN 13 0.4 1.9LRSN                1
 GAP=141        0.88       2.8     4.2  5.8 -0.2962E+01  0.8096E+01  0.5392E+00E
 Epicentro: LOS SANTOS - SANTANDER                                             3
 ACTION:UPD 15-09-10 22:10 OP:cam  STATUS:               ID:20150607232830 L   I
 OLDACT:REG 15-06-08 03:12 OP:spq  STATUS:               ID:20150607231750     3
 2015-06-07-2317-50M.COL___300                                                 6
 STAT SP IPHASW D HRMM SECON CODA AMPLIT PERI AZIMU VELO AIN AR TRES W  DIS CAZ7
 BAR2 EZ EP       2328 49.68                             170   -0.0410 24.3 199 
 BAR2 EZ ES   1   2329  4.62                             170   -0.26 7 24.3 199 
 BAR2 EZ I        2329  6.63        14.2 0.18            167           24.3 199 
 BRR  HZ EP     C 2328 51.56                             151    0.1210 74.5 297 
 BRR  HE ES       2329  8.75                             151    0.8210 74.5 297 
 BRR  HZ I        2329 12.70        13.0 0.46            150           74.5 297 
 PAM  SN ES       2329  9.59                             152    0.3410 75.0  37 
 PAM  SZ I        2329 11.92        12.3 0.39            157           75.0  37 
 RUS  HZ EP   1   2328 54.17                             144    0.32 7  100 178 
 RUS  HE ES   1   2329 11.80                             144   -0.43 7  100 178 
 OCA  HZ EP       2328 58.31                             129   -0.20 9  161 352 
 OCA  HN ES       2329 20.05                             129   -0.47 9  161 352 
 OCA  HZ I        2329 23.29        22.1 0.30            132            161 352 
 SPBC HN ES       2329 20.67                             128   -0.51 9  166 220 
 SPBC HZ I        2329 28.60         8.7 0.10            129            166 220 
 ZAR  HZ EP   4   2329  4.11                             122    1.13 0  208 292 
 ZAR  HN ES       2329 28.29                             122   -0.19 8  208 292 
 ZAR  HZ I        2329 34.05         9.5 0.36            123            208 292 
 NOR  HZ EP   1   2329  5.64                             118   -0.60 6  238 235 
 NOR  HE ES       2329 34.12                             118   -0.17 8  238 235 
 NOR  HZ I        2329 40.30         5.0 0.16            119            238 235 
 SML  HZ EP   1   2329  6.95                             117   -0.04 6  245 334 
 SML  HE ES   1   2329 35.22                             117   -0.39 6  245 334 
 SML  HZ I        2329 37.69         6.0 0.10            119            245 334 
 HEL  HN ES   1   2329 42.80                             114    0.37 6  276 256 
 HEL  HZ I        2329 49.11         4.0 0.62            115            276 256 
 GUY2CHZ EP   4   2329 15.32                             112    1.16 0  304 235 
 GUY2CHN ES   1   2329 48.95                             112    0.57 5  304 235 
 GUY2CHZ I        2329 54.79         3.6 0.34                           304 235 
 MON  HZ EP   4   2329 17.51                             108   -2.05 0  357 308 
 MON  HE ES   4   2329 56.50                             108   -1.50 0  357 308 
 MON  HZ I        2329 56.88         1.7 0.18            110            357 308 
 PRA  HZ EP       2329 24.44                             106    0.48 6  394 210 
 PRA  HE ES   1   2330  6.40                             106    0.57 4  394 210 
 PRA  HZ I        2330 12.00         2.5 0.62            108            394 210 
                                                                                
