 2014  1 7 2311 23.4 L   6.762 -73.152143.5  RSN  7 0.4 1.6LRSN                1
 GAP=137        0.78       3.6     4.6  8.1  0.9792E+00  0.1065E+02 -0.4467E+01E
 Epicentro: LOS SANTOS - SANTANDER                                             3
 ACTION:UPD 14-03-13 09:52 OP:ep   STATUS:               ID:20140107231123 L   I
 OLDACT:DUP 14-01-08 05:59 OP:mh   STATUS:               ID:20140107230738d    3
 2014-01-07-2307-37M.COL___243                                                 6
 STAT SP IPHASW D HRMM SECON CODA AMPLIT PERI AZIMU VELO AIN AR TRES W  DIS CAZ7
 PAM  SZ EP   1   2311 46.26                             149    0.61 7 81.1  38 
 PAM  SN ES   1   2312  2.81                             149   -0.16 7 81.1  38 
 PAM  SZ I        2312  5.76         8.3 0.44            157           81.1  38 
 RUS  HZ EP       2311 46.64                             144   -0.0310 96.4 175 
 RUS  HN ES       2312  4.79                             144   -0.0010 96.4 175 
 RUS  HZ I        2312  6.85         6.0 0.42            148           96.4 175 
 PTB  HZ EP   1   2311 49.53                             132   -0.56 7  146 260 
 PTB  HN ES   1   2312 10.45                             132   -0.43 7  146 260 
 PTB  HZ I        2312 17.72         2.5 0.11            133            146 260 
 ZAR  HN ES   1   2312 21.97                             122    0.86 6  205 293 
 NOR  HZ EP   4   2312  0.10                             118    1.39 0  232 235 
 NOR  HN ES   2   2312 26.67                             118    0.45 4  232 235 
 NOR  HZ I        2312 33.97         3.9 0.21            121            232 235 
 CHI  HZ EP   1   2312  0.70                             117    0.15 6  244 195 
 SML  HZ EP   1   2312  0.10                             116   -0.23 6  247 336 
 SML  HN ES   1   2312 28.72                             116   -0.38 6  247 336 
                                                                                
