 2010 10 7 2319 48.8 L   6.777 -73.121146.9  RSN 17 0.4 3.2LRSN                1
 GAP=138        0.99       3.2     4.6  6.1 -0.3728E+01  0.2103E+01  0.6271E+01E
 Epicentro: LOS SANTOS - SANTANDER                                             3
 ACTION:UP  11-02-18 11:08 OP:tino STATUS:               ID:20101007231948 L   I
 2010-10-07-2318-15S.COL___122                                                 6
 STAT SP IPHASW D HRMM SECON CODA AMPLIT PERI AZIMU VELO SNR AR TRES W  DIS CAZ7
 BAR2 SZ IP       2320  8.42                             171    -0.110   22 199 
 BAR2 SZ I        2320  9.07       210.4 0.22                            22 199 
 BAR2 SZ ES   1   2320 23.51                             171    -0.4 7   22 199 
 BTL  SZ EP       2320  8.94                             171     0.410   23 314 
 URB  SZ EP       2320 10.10                             158     0.610   56 335 
 BRR  HZ IP     D 2320 10.30                             152     0.010   75 299 
 BRR  HN ES       2320 27.64                             152     0.610   75 299 
 BRR  HZ I        2320 30.26       290.3 0.14                            75 299 
 GUE  SZ EP       2320 14.40                             139     0.610  118  11 
 GRA  SZ IP       2320 14.25                             137    -0.110  127  16 
 GRA  SZ ES   2   2320 33.70                             137    -0.5 5  127  16 
 GRA  SZ I        2320 34.99       150.4 0.33                           127  16 
 OCA  SZ EP       2320 16.94                             129    -0.6 9  163 352 
 OCA  SZ ES       2320 39.18                             129    -0.7 9  163 352 
 OCA  SZ I        2320 43.73       220.4 0.38                           163 352 
 YOP  SZ IP     D 2320 18.91                             127     0.3 9  176 154 
 YOP  SN ES   1   2320 41.40                             127    -0.5 7  176 154 
 NOR  SZ EP       2320 24.28                             119    -0.4 8  236 235 
 NOR  SN ES       2320 52.37                             119    -0.3 8  236 235 
 CHI  HZ EP       2320 26.41                             118     0.0 8  247 196 
 CHI  HE ES   2   2320 55.27                             118    -0.4 4  247 196 
 CHI  HZ I        2321  5.58        52.8 0.39                           247 196 
 CVER SZ EP   2   2320 29.15                             115     0.0 4  271 203 
 CVER SZ I        2320 31.55       107.2 0.73                           271 203 
 HEL  HZ EP   1   2320 29.66                             115     0.3 6  274 256 
 HEL  HN ES   2   2321  0.84                             115    -0.1 4  274 256 
 HEL  HZ I        2321  7.74       113.9 0.55                           274 256 
 RREF HZ EP       2320 35.42                             111     0.3 7  322 230 
 RREF HN ES   1   2321 11.11                             111     0.0 5  322 230 
 RREF HZ I        2321 21.17        80.3 0.36                           322 230 
 DBB  SZ EP       2320 36.18                             110    -0.5 7  342 275 
 TOL  SZ EP   1   2320 38.00                             110     0.8 5  344 225 
 TOL  SZ ES   2   2321 14.86                             110     0.0 3  344 225 
 ANIL HZ EP   2   2320 38.38                             109    -0.3 3  357 225 
 ANIL HN ES   2   2321 17.53                             109    -0.1 3  357 225 
 PRA  HZ EP       2320 41.85                             107    -0.4 6  391 210 
 PRA  HN ES   2   2321 24.63                             107     0.6 3  391 210 
                                                                                
