 2016  4 7 2123 22.6 L   6.826 -73.197142.2  RSN  7 0.2 1.8LRSN                1
 GAP=129        0.46       2.1     2.0  3.3 -0.8314E+00  0.2494E+01  0.2720E+00E
 Epicentro: ZAPATOCA - SANTANDER                                               3
 ACTION:UPD 16-05-05 14:19 OP:rebc STATUS:               ID:20160407212322 L   I
 OLDACT:REG 16-04-08 03:39 OP:cara STATUS:               ID:20160407211745     3
 2016-04-07-2117-45M.COL___328                                                 6
 STAT SP IPHASW D HRMM SECON CODA AMPLIT PERI AZIMU VELO AIN AR TRES W  DIS CAZ7
 BAR2 EZ IP       2123 42.00                             169    0.1110 25.9 176 
 BAR2 EZ ES       2123 56.77                             169   -0.1410 25.9 176 
 BAR2 EZ I        2123 58.06         8.3 0.26            171           25.9 176 
 PAM  EZ EP       2123 44.80                             150    0.2310 79.0  44 
 PAM  EE ES       2124  1.54                             150   -0.1410 79.0  44 
 PAM  EZ I        2124  3.68        13.8 0.56            153           79.0  44 
 RUS  HZ EP       2123 46.11                             142   -0.1810  104 173 
 RUS  HE ES       2124  4.82                             142    0.0810  104 173 
 RUS  HZ I        2124  6.47         6.5 0.30            145            104 173 
 PTB  HZ EP       2123 49.01                             132    0.15 9  143 257 
 PTB  HN ES       2124  9.58                             132    0.26 9  143 257 
 PTB  HZ I        2124 12.30         7.8 0.24            133            143 257 
 SPBC HZ EP       2123 50.82                             128    0.07 9  162 217 
 SPBC HN ES       2124 12.62                             128   -0.05 9  162 217 
 SPBC HZ I        2124 17.12        14.6 0.26            130            162 217 
 ZAR  HE ES       2124 18.61                             122   -0.20 9  198 292 
 ZAR  HZ I        2124 24.60         5.5 0.44            123            198 292 
 GUY2CHZ EP       2124  5.42                             112   -0.33 7  298 234 
 GUY2CHE ES       2124 39.34                             112   -0.04 7  298 234 
 GUY2CHZ I        2124 49.64         2.7 0.72                           298 234 
                                                                                
