 2012  8 7 2310 54.5 L   6.759 -73.156146.0  RSN  6 0.3 1.6LRSN                1
 GAP=137        0.60       4.2     4.7  5.9 -0.2279E+01  0.4291E+01  0.8885E+00E
 Epicentro: LOS SANTOS - SANTANDER                                             3
 ACTION:UPD 12-09-10 11:55 OP:ep   STATUS:               ID:20120807231054 L   I
 2012-08-07-2310-00M.COL___216                                                 6
 STAT SP IPHASW D HRMM SECON CODA AMPLIT PERI AZIMU VELO AIN AR TRES W  DIS CAZ7
 BAR2 SZ EP       2311 14.14                             172    0.0210 18.7 189 
 BAR2 SZ ES   1   2311 28.72                             172   -0.67 7 18.7 189 
 BAR2 SZ I        2311 31.44         8.9 0.22                          18.7 189 
 BRR  HZ EP       2311 15.95                             152    0.1610 72.5 302 
 BRR  HN ES   2   2311 33.05                             152    0.69 5 72.5 302 
 BRR  HZ I        2311 38.32        12.6 0.26                          72.5 302 
 PAM  SZ EP       2311 17.02                             149   -0.0310 81.6  38 
 PAM  SZ I        2311 17.37         4.9 0.24                          81.6  38 
 PAM  SN ES   2   2311 34.43                             149   -0.16 5 81.6  38 
 RUS  HZ EP       2311 18.19                             145    0.1810 96.1 175 
 RUS  HN ES   2   2311 36.82                             145    0.52 5 96.1 175 
 RUS  HZ I        2311 38.29         6.1 0.44                          96.1 175 
 PTB  HZ EP       2311 21.20                             132   -0.15 9  146 260 
 PTB  HN ES   2   2311 42.02                             132   -0.24 5  146 260 
 PTB  HZ I        2311 44.78         4.6 0.36                           146 260 
 CHI  HZ EP   3   2311 31.60                             117   -0.15 2  244 195 
 CHI  HN ES   2   2312  0.59                             117   -0.18 4  244 195 
 CHI  HZ I        2312  9.81         2.1 0.42                           244 195 
                                                                                
