 2013 12 7 2024 17.7 L   6.832 -73.213134.4  RSN  5 0.3 1.4LRSN                1
 GAP=176        0.64       2.8     5.4  8.8  0.4030E+01  0.1162E+02 -0.4453E+01E
 Epicentro: ZAPATOCA - SANTANDER                                               3
 ACTION:UPD 14-01-13 10:16 OP:ep   STATUS:               ID:20131207202417 L   I
 OLDACT:UP  13-12-07 22:58 OP:mh   STATUS:               ID:20131207202000     3
 OLDACT:UP  13-12-07 22:58 OP:mh   STATUS:               ID:20131207202000     3
 OLDACT:UP  13-12-07 22:58 OP:mh   STATUS:               ID:20131207202000     3
 OLDACT:UP  13-12-07 22:55 OP:mh   STATUS:               ID:20131207202000     3
 OLDACT:REG 13-12-07 22:45 OP:mh   STATUS:               ID:20131207202000     3
 2013-12-07-2020-00M.COL___285                                                 6
 STAT SP IPHASW D HRMM SECON CODA AMPLIT PERI AZIMU VELO AIN AR TRES W  DIS CAZ7
 RUS  HZ EP       2024 40.77                             140    0.0610  105 172 
 RUS  HN ES       2024 58.48                             140   -0.1610  105 172 
 RUS  HZ I        2025  0.08         4.3 0.23            142            105 172 
 PTB  HZ EP   1   2024 43.37                             131    0.19 7  141 257 
 PTB  HN ES   1   2025  3.17                             131    0.13 7  141 257 
 PTB  HZ I        2025  5.84         3.9 0.09            132            141 257 
 OCA  HN ES   1   2025  6.39                             128    0.54 7  156 356 
 SML  HN ES       2025 20.09                             116   -0.50 8  237 337 
 GUY2CHZ EP   1   2025  0.45                             110    0.06 5  297 233 
                                                                                
