 2011 12 7 2245 19.8 L   6.773 -73.134142.9  RSN  4 0.3 1.2LRSN                1
 GAP=139        0.58       5.0     7.7  9.9 -0.8317E+01  0.2924E+02  0.3365E+01E
 Epicentro: LOS SANTOS - SANTANDER                                             3
 ACTION:UPD 12-07-13 16:14 OP:ep   STATUS:               ID:20111207224519 L   I
 2011-12-07-2240-00M.COL___170                                                 6
 STAT SP IPHASW D HRMM SECON CODA AMPLIT PERI AZIMU VELO AIN AR TRES W  DIS CAZ7
 BAR2 SZ EP   2   2245 38.78                             171   -0.22 5 20.7 195 
 BRR  HZ EP       2245 40.66                             151   -0.0910 73.8 300 
 BRR  HE ES   3   2245 57.58                             151    0.46 2 73.8 300 
 PAM  SZ EP       2245 42.15                             149    0.3810 78.9  37 
 PAM  SN ES   1   2245 58.55                             149   -0.38 7 78.9  37 
 RUS  HZ EP   1   2245 42.84                             143   -0.17 7 97.5 177 
 RUS  HN ES   2   2246  1.34                             143    0.20 5 97.5 177 
 RUS  HZ I        2246  3.59         2.9 0.56                          97.5 177 
                                                                                
