 2017  1 7 2243 55.0 L   6.589 -73.511 13.8  RSN  6 0.4 1.2LRSN                1
 GAP=119        1.09       3.1     3.0  7.5  0.3789E+01  0.1032E+02  0.1195E+01E
 Epicentro: EL CARMEN - SANTANDER                                              3
 ACTION:UPD 17-05-22 15:56 OP:jn   STATUS:               ID:20170107224355 L   I
 OLDACT:REG 17-01-08 02:54 OP:cog  STATUS:               ID:20170107223744     3
 2017-01-07-2238-00M.COL___374                                                 6
 STAT SP IPHASW D HRMM SECON CODA AMPLIT PERI AZIMU VELO AIN AR TRES W  DIS CAZ7
 BAR2 EZ ES       2244  6.38                             108   -0.3310 36.3  89 
 BRR  HZ EP       2244  5.21                             100    0.1810 61.5 339 
 BRR  HN ES       2244 12.85                             100   -0.0110 61.5 339 
 BRR  HZ I        2244 13.53        16.2 0.12             93           61.5 339 
 RUS  HZ EP       2244 10.72                              97    0.8310 90.4 148 
 RUS  HE ES       2244 21.05                              97   -0.4510 90.4 148 
 RUS  HZ I        2244 22.29         2.8 0.12             92           90.4 148 
 PTB  HZ EP       2244 11.90                              96    0.3610  105 267 
 PTB  HN ES       2244 24.03                              96   -0.4210  105 267 
 PTB  HZ I        2244 24.76         5.2 0.18             92            105 267 
 PAM  EZ EP   4   2244 13.82                              95   -0.86 0  122  47 
 PAM  EE ES   4   2244 34.98                              95    4.96 0  122  47 
 PAM  EZ I        2244 35.21         5.3 0.28             92            122  47 
 ZAR  HZ EP   4   2244 19.30                              56   -2.53 0  179 304 
 ZAR  HE ES       2244 42.55                              56   -0.20 9  179 304 
 ZAR  HZ I        2244 45.39         4.2 0.28             56            179 304 
                                                                                
