 2013  2 7 2207  6.1 L   6.808 -73.124146.0  RSN  9 0.5 1.9LRSN                1
 GAP=139        1.13       4.5     4.9  8.3  0.6907E+00  0.1535E+02  0.5044E+01E
 Epicentro: LOS SANTOS - SANTANDER                                             3
 ACTION:UPD 13-03-12 09:31 OP:ep   STATUS:               ID:20130207220706 L   I
 2013-02-07-2158-36M.COL___190                                                 6
 STAT SP IPHASW D HRMM SECON CODA AMPLIT PERI AZIMU VELO AIN AR TRES W  DIS CAZ7
 BAR2 SZ ES   1   22 7 41.04                             170   -0.14 7 24.7 195 
 BRR  HZ EP       22 7 27.53                             152    0.1210 72.9 297 
 BRR  HN ES       22 7 44.44                             152    0.4410 72.9 297 
 BRR  HN I        22 7 44.78        41.6 0.30            151           72.9 297 
 PAM  SZ IP     C 22 7 28.43                             152    0.1810 75.2  39 
 PAM  SN ES       22 7 45.46                             152   -0.0410 75.2  39 
 PAM  SZ I        22 7 47.18        12.7 0.48            152           75.2  39 
 RUS  HZ EP       22 7 29.63                             144   -0.3410  101 177 
 RUS  HN ES       22 7 48.74                             144    0.1810  101 177 
 RUS  HZ I        22 7 49.56         4.7 0.30            145            101 177 
 PTB  HZ EP       22 7 32.49                             132   -0.87 9  150 259 
 PTB  HN ES   1   22 7 53.30                             132   -1.28 7  150 259 
 PTB  HZ I        22 7 54.73         7.2 0.16            132            150 259 
 ZAR  HZ EP   1   22 7 39.40                             122    0.61 6  206 292 
 ZAR  HN ES       22 8  4.11                             122   -0.15 8  206 292 
 ZAR  HZ I        22 8 10.01         6.9 0.32            122            206 292 
 NOR  HN ES       22 8 10.93                             118    0.70 8  237 235 
 CHI  HN ES       22 8 13.73                             117    0.18 8  250 196 
 DBB  SZ ES       22 8 31.63                             109    0.49 7  342 274 
                                                                                
