 2011 10 7 2354 56.4 L   6.757 -73.101145.8  RSN 11 0.3 2.3LRSN                1
 GAP=144        0.62       2.3     3.5  3.7 -0.1977E+01  0.3139E+01  0.1596E+01E
 Epicentro: LOS SANTOS - SANTANDER                                             3
 ACTION:UPD 12-07-13 16:02 OP:ep   STATUS:               ID:20111007235456 L   I
 2011-10-07-2351-26S.COL___168                                                 6
 STAT SP IPHASW D HRMM SECON CODA AMPLIT PERI AZIMU VELO AIN AR TRES W  DIS CAZ7
 BAR2 SZ EP       2355 15.98                             172   -0.0110 20.3 206 
 BAR2 SZ ES       2355 31.06                             172   -0.2010 20.3 206 
 BAR2 SZ I        2355 32.79        32.9 0.16                          20.3 206 
 BRR  HZ EP       2355 17.96                             150    0.0010 77.8 300 
 BRR  HZ I        2355 19.37        38.9 0.11                          77.8 300 
 BRR  HE ES       2355 35.18                             150    0.4310 77.8 300 
 PAM  SZ EP       2355 18.82                             150    0.1310 78.3  35 
 PAM  SN ES       2355 35.70                             150   -0.3610 78.3  35 
 RUS  HZ EP       2355 20.06                             145    0.2410 95.6 179 
 RUS  HE ES   1   2355 37.96                             145   -0.10 7 95.6 179 
 OCA  SZ EP       2355 25.14                             128   -0.10 9  166 352 
 OCA  SZ ES   1   2355 47.97                             128    0.25 7  166 352 
 OCA  SZ I        2355 51.39        28.8 0.21                           166 352 
 ZAR  HZ EP   2   2355 28.69                             121   -0.84 4  210 293 
 ZAR  HE ES   2   2355 54.69                             121   -0.65 4  210 293 
 ZAR  HZ I        2355 59.81        21.4 0.42                           210 293 
 NOR  SZ EP   1   2355 32.06                             118   -0.23 6  236 236 
 NOR  SE ES   1   2355 59.99                             118   -0.27 6  236 236 
 CHI  HZ EP   1   2355 34.03                             117    0.27 6  245 197 
 CHI  HZ I        2355 37.02         6.3 0.27                           245 197 
 CHI  HE ES   1   2356  2.92                             117    0.03 6  245 197 
 RREF HZ EP   1   2355 43.56                             111    0.92 5  322 231 
 RREF HN ES   1   2356 18.80                             111    0.11 5  322 231 
 RREF HZ I        2356 25.82        10.6 0.23                           322 231 
 TOL  SZ EP   1   2355 44.27                             109   -0.42 5  344 226 
 PRA  HZ EP   1   2355 49.72                             106   -0.02 4  390 211 
 PRA  HN ES   2   2356 31.08                             106   -0.25 3  390 211 
                                                                                
