 2016  1 7 2345 34.5 L   7.445 -73.211129.6  RSN 23 0.5 2.8LRSN                1
 GAP=103        0.97       2.4     4.1  4.8 -0.8483E+00  0.4201E+01  0.9933E+00E
 Epicentro: EL PLAYON - SANTANDER                                              3
 ACTION:UPD 16-03-09 23:23 OP:cam  STATUS:               ID:20160107234534 L   I
 OLDACT:UP  16-01-08 05:06 OP:dnl  STATUS:               ID:20160107233751     3
 OLDACT:REG 16-01-08 01:54 OP:dnl  STATUS:               ID:20160107233751     3
 2016-01-07-2337-51M.COL___290                                                 6
 STAT SP IPHASW D HRMM SECON CODA AMPLIT PERI AZIMU VELO AIN AR TRES W  DIS CAZ7
 PAM  EZ EP       2345 54.40                             155    0.4910 57.7 102 
 PAM  EE ES   2   2346  8.32                             155   -0.69 5 57.7 102 
 PAM  EZ I        2346 13.24        74.9 0.41            157           57.7 102 
 BRR  HZ IP     D 2345 54.11                             151    0.4110 66.8 236 
 BRR  HN ES       2346  8.89                             151    0.2410 66.8 236 
 BRR  HZ I        2346 10.06       259.9 0.12            147           66.8 236 
 OCA  HZ EP       2345 55.99                             144    0.6310 88.5 352 
 OCA  HE ES       2346 11.87                             144    0.2710 88.5 352 
 OCA  HZ I        2346 14.33       363.7 0.19            146           88.5 352 
 BAR2 EZ EP   2   2345 55.92                             142    0.01 5 94.4 178 
 BAR2 EZ ES       2346 12.23                             142   -0.3510 94.4 178 
 BAR2 EZ I        2346 13.64       177.8 0.13            140           94.4 178 
 PTB  HZ EP       2346  2.19                             124   -0.28 9  170 234 
 PTB  HN ES       2346 23.58                             124   -0.67 9  170 234 
 PTB  HZ I        2346 28.38        98.6 0.18            122            170 234 
 RUS  HZ EP       2346  2.47                             124   -0.83 9  172 175 
 RUS  HE ES   2   2346 24.82                             124   -0.92 4  172 175 
 RUS  HZ I        2346 28.88        22.6 0.37            123            172 175 
 SML  HZ EP       2346  2.96                             123   -0.21 9  177 328 
 SML  HE ES       2346 24.97                             123   -0.53 9  177 328 
 SML  HZ I        2346 27.34       261.9 0.08            123            177 328 
 ZAR  HZ EP     D 2346  4.05                             122    0.40 9  182 272 
 ZAR  HN ES   1   2346 26.53                             122    0.17 7  182 272 
 ZAR  HZ I        2346 30.42        96.6 0.30            121            182 272 
 SPBC HZ EP       2346  8.04                             117    0.22 8  220 206 
 SPBC HE ES       2346 34.45                             117    0.67 8  220 206 
 SPBC HZ I        2346 42.00        59.3 0.24            116            220 206 
 LL6C HZ EP       2346 10.96                             113   -0.44 8  253 359 
 LL6C HN ES   4   2346 38.19                             113   -1.96 0  253 359 
 LL6C HZ I        2346 44.15        25.3 0.44            114            253 359 
 URE  HZ EP   4   2346 11.07                             112   -0.92 0  258 278 
 URE  HN ES   4   2346 39.31                             112   -1.89 0  258 278 
 URE  HZ I        2346 46.02        38.0 0.15            112            258 278 
 SOCV BZ EP   4   2346 12.85                             111   -1.12 0  276  70 
 SOCV BE ES   4   2346 42.14                             111   -2.58 0  276  70 
 NOR  HZ EP       2346 14.48                             111    0.29 7  277 221 
 NOR  HN ES       2346 44.62                             111   -0.50 7  277 221 
 NOR  HZ I        2346 50.51        46.7 0.15            110            277 221 
 HEL  HZ EP       2346 16.57                             110    0.38 7  291 242 
 HEL  HN ES   4   2346 46.51                             110   -2.16 0  291 242 
 HEL  HZ I        2346 56.94        41.3 0.31            109            291 242 
 MON  HZ EP       2346 16.68                             108   -0.96 7  308 299 
 MON  HE ES   4   2346 48.98                             108   -2.28 0  308 299 
 MON  HZ I        2346 52.05         6.0 0.16            108            308 299 
 ROSC BZ EP   9   2346 20.23                             108    1.50 0  313 203 
 ROSC BN ES   2   2346 54.58                                   -0.12 3  313 203 
 ROSC BZ I        2347  4.28        30.1 0.37            108            313 203 
 CHI  HZ EP       2346 19.18                             108    0.01 7  317 191 
 CHI  HE ES   2   2346 54.33                             108    0.35 3  317 191 
 CHI  HZ I        2347  4.93        12.8 0.61            108            317 191 
 DBB  SZ EP       2346 20.85                             107    0.01 7  335 262 
 DBB  SZ ES   4   2346 50.01                             107   -6.94 0  335 262 
 DBB  SZ I        2347  0.78        99.6 0.41            106            335 262 
 GUY2CHZ EP   2   2346 23.15                             106    0.92 3  342 224 
 GUY2CHN ES   4   2346 57.60                             106   -1.82 0  342 224 
 GUY2CHZ I        2347  8.75        38.2 0.22                           342 224 
 SJC  HZ EP   4   2346 28.51                             106    6.24 0  347 322 
 SJC  HN ES   4   2346 55.22                             106   -4.28 0  347 322 
 SJC  HZ I        2347  1.82        13.1 0.25            106            347 322 
 CRJC HZ EP   4   2346 26.76                             103   -1.45 0  397   5 
 CRJC HE ES   4   2347  7.42                             103   -2.64 0  397   5 
 CRJC HZ I        2347 10.25        22.6 0.18            104            397   5 
 PAL  HZ EP       2346 34.17                             102    0.75 5  441 231 
 PAL  HE ES   2   2347 19.09                             102   -0.25 3  441 231 
 PAL  HZ I        2347 28.81        12.0 0.44            101            441 231 
 ORTC HZ EP       2346 34.68                             101    0.06 5  451 210 
 ORTC HE ES   2   2347 21.20                             101   -0.28 2  451 210 
 ORTC HZ I        2347 34.47        14.5 0.67            101            451 210 
 PRA  HZ EP       2346 34.82                             101    0.07 5  452 204 
 PRA  HN ES   2   2347 21.83                             101    0.12 2  452 204 
 PRA  HZ I        2347 30.67        18.1 0.30            101            452 204 
                                                                                
