 2015 12 7 2209 38.5 L   6.763 -73.135144.7  RSN 16 0.5 2.3LRSN                1
 GAP=140        1.10       3.9     4.3  6.0 -0.3563E+01  0.8970E+01  0.2578E+01E
 Epicentro: LOS SANTOS - SANTANDER                                             3
 ACTION:UPD 16-02-04 15:03 OP:cam  STATUS:               ID:20151207220938 L   I
 OLDACT:UP  15-12-08 03:41 OP:drio STATUS:               ID:20151207220748     3
 OLDACT:REG 15-12-08 02:36 OP:drio STATUS:               ID:20151207220748     3
 2015-12-07-2207-48M.COL___329                                                 6
 STAT SP IPHASW D HRMM SECON CODA AMPLIT PERI AZIMU VELO AIN AR TRES W  DIS CAZ7
 BAR2 EZ EP       22 9 58.14                             172    0.1710 19.6 196 
 BAR2 EZ ES       2210 12.91                             172   -0.2210 19.6 196 
 BAR2 EZ I        2210 15.72        32.9 0.38            168           19.6 196 
 BRR  HZ EP     C 2210  0.09                             151    0.3410 74.3 301 
 BRR  HN ES       2210 17.05                             151    0.7610 74.3 301 
 PAM  EZ EP       2210  0.91                             150    0.1210 79.8  37 
 PAM  EN ES       2210 18.33                             150    0.1910 79.8  37 
 PAM  EZ I        2210 23.12        19.5 0.50            154           79.8  37 
 RUS  HZ EP       2210  1.64                             145   -0.2510 96.5 177 
 RUS  HN ES       2210 19.59                             145   -0.5110 96.5 177 
 RUS  HZ I        2210 22.38        14.6 0.20            145           96.5 177 
 PTB  HZ EP       2210  4.82                             132   -0.64 9  148 260 
 PTB  HE ES       2210 26.06                             132   -0.40 9  148 260 
 PTB  HZ I        2210 33.40        41.6 0.30            130            148 260 
 SPBC HZ EP       2210  7.06                             129    0.32 9  161 220 
 SPBC HE ES       2210 28.58                             129   -0.14 9  161 220 
 SPBC HZ I        2210 32.41        36.0 0.18            128            161 220 
 ZAR  HZ EP       2210 10.90                             122   -0.30 8  207 293 
 ZAR  HE ES       2210 36.44                             122   -0.22 8  207 293 
 ZAR  HZ I        2210 41.91        19.0 0.34            121            207 293 
 NOR  HE ES       2210 41.87                             118    0.10 8  233 235 
 NOR  HZ I        2210 46.77        17.5 0.22            118            233 235 
 SML  HZ EP   4   2210 14.28                             117   -1.28 0  248 335 
 SML  HE ES   4   2210 42.57                             117   -1.87 0  248 335 
 SML  HZ I        2210 50.97        23.0 0.40            117            248 335 
 HEL  HZ EP   4   2210 20.20                             114    1.47 0  272 257 
 HEL  HE ES   4   2210 48.22                             114   -1.84 0  272 257 
 HEL  HZ I        2210 56.44        15.7 0.34            114            272 257 
 URE  HZ EP       2210 18.84                             113   -1.02 7  286 293 
 GUY2CHZ EP   4   2210 22.93                             112    0.98 0  300 236 
 GUY2CHN ES       2210 55.77                             112   -0.04 7  300 236 
 GUY2CHZ I        2211  3.98        11.5 0.54                           300 236 
 ELA  HZ EP   4   2210 27.98                             110    2.82 0  327 230 
 ELA  HN ES       2211  2.15                             110    0.64 7  327 230 
 ELA  HZ I        2211 18.13         8.2 0.50            110            327 230 
 ANIL HZ EP       2210 29.31                             108    1.24 6  355 225 
 ANIL HN ES       2211  7.28                             108    0.58 6  355 225 
 ANIL HZ I        2211 22.07        18.9 0.36            109            355 225 
 PRA  HZ EP       2210 31.76                             106    0.07 6  389 210 
 PRA  HN ES   4   2211  9.84                             106   -3.29 0  389 210 
 PRA  HZ I        2211 21.43         6.3 0.32            107            389 210 
 SJC  HZ EP   4   2210 32.51                             105   -2.04 0  413 327 
 SJC  HN ES   4   2211 13.77                             105   -4.46 0  413 327 
 SJC  HZ I        2211 18.46         5.3 0.42            106            413 327 
                                                                                
