 2013  6 7 2246 20.6 L   6.730 -73.185148.8  RSN  4 0.6 1.4LRSN                1
 GAP=227        1.54      12.2    11.5 12.3  0.6877E+02  0.1487E+02  0.4259E+01E
 Epicentro: VILLANUEVA - SANTANDER                                             3
 ACTION:UPD 14-01-08 09:53 OP:ep   STATUS:               ID:20130607224620 L   I
 OLDACT:DUP 13-06-08 02:07 OP:stll STATUS:               ID:20130607223845d    3
 2013-06-07-2238-43M.COL___235                                                 6
 STAT SP IPHASW D HRMM SECON CODA AMPLIT PERI AZIMU VELO AIN AR TRES W  DIS CAZ7
 BAR2 SZ EP       2246 39.89                             174   -0.6110 15.3 179 
 BAR2 SZ ES       2246 55.31                             174   -0.6810 15.3 179 
 BAR2 SZ I        2246 56.53         3.3 0.14            177           15.3 179 
 BRR  HZ EP       2246 43.12                             153    0.9910 71.6 306 
 BRR  HE ES       2246 59.16                             153    0.2510 71.6 306 
 BRR  HN I        2247  4.44         6.0 0.14            153           71.6 306 
 RUS  HZ EP       2246 44.33                             146    0.1510 93.3 173 
 RUS  HN ES       2247  3.12                             146    0.5710 93.3 173 
 RUS  HE I        2247  3.66         4.6 0.46            151           93.3 173 
 PTB  HZ EP       2246 46.56                             134   -0.79 9  142 262 
 PTB  HN ES       2247  8.23                             134    0.04 9  142 262 
                                                                                
