 2011 12 7 2350  2.9 L   6.758 -73.108147.9  RSN  6 0.4 1.9LRSN                1
 GAP=143        0.71       4.4     6.2  6.0 -0.3667E+01  0.7127E+01  0.4788E+01E
 Epicentro: LOS SANTOS - SANTANDER                                             3
 ACTION:UPD 12-07-13 16:14 OP:ep   STATUS:               ID:20111207235003dL   I
 2011-12-07-2350-00M.COL___170                                                 6
 STAT SP IPHASW D HRMM SECON CODA AMPLIT PERI AZIMU VELO AIN AR TRES W  DIS CAZ7
 BAR2 SZ EP       2350 22.58                             172   -0.1110 20.1 204 
 BAR2 SZ ES   1   2350 37.36                             172   -0.79 7 20.1 204 
 BAR2 SZ I        2350 40.43        29.3 0.30                          20.1 204 
 BRR  HZ EP       2350 24.61                             151    0.0310 77.1 300 
 BRR  HE ES   1   2350 41.90                             151    0.38 7 77.1 300 
 BRR  HZ I        2350 44.52        19.7 0.14                          77.1 300 
 PAM  SZ EP       2350 25.54                             151    0.1610 78.6  35 
 PAM  SN ES   1   2350 42.82                             151   -0.12 7 78.6  35 
 RUS  HZ EP       2350 26.66                             145    0.1710 95.7 178 
 RUS  HE ES   1   2350 45.37                             145    0.46 7 95.7 178 
 RUS  HZ I        2350 46.50         8.6 0.20                          95.7 178 
 NOR  SZ EP       2350 38.63                             119   -0.17 8  235 236 
 CHI  HZ EP   2   2350 39.64                             118   -0.68 4  245 196 
 CHI  HE ES   3   2351  9.89                             118    0.35 2  245 196 
 CHI  HZ I        2351 14.40         4.5 0.29                           245 196 
                                                                                
