 2012  2 7 2218 32.3 L   6.687 -73.188153.6  RSN  4 0.1 1.9LRSN                1
 GAP=177        0.37       5.9     4.2  3.9 -0.2996E+01  0.2292E+01  0.4266E+01E
 ACTION:UP  12-03-07 16:28 OP:epov STATUS:               ID:20120207221832 L   I
 2012-02-07-2210-00M.COL___188                                                 6
 STAT SP IPHASW D HRMM SECON CODA AMPLIT PERI AZIMU VELO AIN AR TRES W  DIS CAZ7
 BAR2 SZ ES   1   2219  8.63                             176    0.02 7 10.5 176 
 BAR2 SZ I        2219  9.43        11.7 0.26                          10.5 176 
 GIR2 SZ EP   2   2218 52.93                             163   -0.35 5 43.4 359 
 BRR  HZ EP       2218 54.51                             153    0.0410 74.2 309 
 BRR  HE ES       2219 11.80                             153    0.0310 74.2 309 
 BRR  HZ I        2219 15.85        15.8 0.39                          74.2 309 
 PTB  HZ EP       2218 59.44                             135    0.09 9  141 263 
 PTB  HE ES   1   2219 20.29                             135   -0.15 7  141 263 
                                                                                
