 2012 10 7 2017 13.9 L   6.790 -73.148145.7  RSN  6 0.4 1.8LRSN                1
 GAP=137        0.82       7.6     5.6  7.8  0.6370E+01  0.6882E+01  0.5251E+01E
 Epicentro: LOS SANTOS - SANTANDER                                             3
 ACTION:UPD 12-11-22 17:02 OP:ep   STATUS:               ID:20121007201713 L   I
 2012-10-07-2010-00M.COL___222                                                 6
 STAT SP IPHASW D HRMM SECON CODA AMPLIT PERI AZIMU VELO AIN AR TRES W  DIS CAZ7
 BAR2 SZ EP   1   2017 33.06                             171   -0.47 7 22.2 190 
 BAR2 SZ ES   1   2017 48.84                             171    0.02 7 22.2 190 
 BAR2 SZ I        2017 49.86        18.1 0.38                          22.2 190 
 GIR2 SZ EP   1   2017 33.12                             167   -0.50 7 32.3 351 
 BRR  HZ EP   1   2017 35.34                             152    0.25 7 71.5 299 
 BRR  HZ I        2017 38.21         7.7 0.32                          71.5 299 
 BRR  HN ES   1   2017 52.14                             152    0.55 7 71.5 299 
 PAM  SZ EP       2017 36.39                             150    0.1910 78.4  39 
 PAM  SN ES   1   2017 53.40                             150   -0.16 7 78.4  39 
 PAM  SN I        2017 55.45        15.6 0.40                          78.4  39 
 RUS  HZ EP   1   2017 37.71                             144    0.11 7 99.5 176 
 ZAR  HZ EP   1   2017 46.97                             122    0.58 6  204 292 
 ZAR  HN ES   1   2018 10.95                             122   -0.76 6  204 292 
                                                                                
