 2016  3 7 2219 17.2 L   6.815 -73.131145.0  RSN 18 0.5 2.4LRSN                1
 GAP= 61        1.07       2.8     3.0  5.1 -0.1465E+01  0.3742E+01  0.4862E+00E
 Epicentro: LOS SANTOS - SANTANDER                                             3
 ACTION:UPD 16-05-13 21:22 OP:cam  STATUS:               ID:20160307221917 L   I
 OLDACT:UP  16-03-14 10:33 OP:Ak   STATUS:               ID:20160307221917 L   3
 OLDACT:UP  16-03-08 10:28 OP:mh   STATUS:               ID:20160307221750     3
 OLDACT:UP  16-03-08 10:28 OP:mh   STATUS:               ID:20160307221750     3
 OLDACT:UP  16-03-08 10:28 OP:mh   STATUS:               ID:20160307221750     3
 OLDACT:UP  16-03-08 10:24 OP:mh   STATUS:               ID:20160307221750     3
 OLDACT:REG 16-03-08 08:46 OP:mh   STATUS:               ID:20160307221750     3
 2016-03-07-2217-50M.COL___295                                                 6
 STAT SP IPHASW D HRMM SECON CODA AMPLIT PERI AZIMU VELO AIN AR TRES W  DIS CAZ7
 BAR2 EZ EP     D 2219 36.80                             170    0.0310 25.2 193 
 BAR2 EZ ES       2219 52.14                             170    0.1010 25.2 193 
 BAR2 EZ I        2219 54.82        29.9 0.31            169           25.2 193 
 PAM  EZ EP     C 2219 39.70                             151    0.5110 75.1  39 
 PAM  EN ES       2219 56.51                             151    0.1510 75.1  39 
 PAM  EZ I        2219 58.48        62.2 0.52            151           75.1  39 
 RUS  HZ EP       2219 40.63                             143   -0.3510  102 177 
 RUS  HN ES       2219 59.38                             143   -0.1510  102 177 
 RUS  HZ I        2220  1.16        16.9 0.32            143            102 177 
 PTB  HZ EP       2219 43.38                             131   -0.89 9  150 258 
 PTB  HN ES       2220  4.98                             131   -0.41 9  150 258 
 PTB  HZ I        2220 10.50        37.9 0.58            128            150 258 
 TAM  HZ EP       2219 44.95                             130    0.25 9  154 106 
 TAM  HN ES       2220  6.81                             130    0.64 9  154 106 
 TAM  HZ I        2220  7.21        12.6 0.23            132            154 106 
 OCA  HZ EP       2219 45.49                             130    0.18 9  159 353 
 OCA  HN ES       2220  6.43                             130   -0.82 9  159 353 
 OCA  HZ I        2220 12.48        65.0 0.22            127            159 353 
 SPBC HZ EP       2219 45.77                             128   -0.07 9  165 219 
 SPBC HN ES       2220  8.17                             128   -0.03 9  165 219 
 SPBC HZ I        2220  9.58        62.8 0.10            126            165 219 
 ZAR  HZ EP       2219 50.07                             122    0.39 9  205 292 
 ZAR  HN ES       2220 15.72                             122    0.70 9  205 292 
 ZAR  HZ I        2220 21.03        33.8 0.44            119            205 292 
 NOR  HZ EP       2219 52.79                             118   -0.32 8  237 234 
 NOR  HE ES       2220 21.09                             118   -0.05 8  237 234 
 NOR  HZ I        2220 23.93        29.1 0.40            116            237 234 
 CHI  HZ EP       2219 54.81                             117   -0.25 8  251 195 
 CHI  HN ES       2220 23.95                             117   -0.65 8  251 195 
 CHI  HZ I        2220 26.92         8.1 0.24            116            251 195 
 ROSC BZ EP   9   2219 57.69                             116    2.18 0  255 211 
 ROSC BN ES       2220 27.23                                   -0.35 8  255 211 
 ROSC BZ I        2220 34.43        28.7 0.50            115            255 211 
 HEL  HZ EP       2219 58.60                             114    1.02 8  274 256 
 HEL  HN ES       2220 29.46                             114    0.38 8  274 256 
 HEL  HZ I        2220 35.36        16.7 0.28            112            274 256 
 GUY2CHZ EP       2220  1.05                             112    0.04 7  303 235 
 GUY2CHN ES   4   2220 37.92                             112    2.72 0  303 235 
 GUY2CHZ I        2220 43.53        18.1 0.66                           303 235 
 VIL  SZ EP       2220  1.37                             112    0.58 7  305 192 
 VIL  SN ES   1   2220 34.82                             112    0.03 5  305 192 
 PTGC HZ EP   9   2219 58.82                             111   -2.30 0  310 159 
 PTGC HN ES       2220 33.22                             111    0.14 7  310 159 
 DBB  SZ EP       2220  4.29                             109   -0.51 7  341 274 
 DBB  SZ I        2220 43.68        29.3 0.27            108            341 274 
 SDV  BZ EP     C 2220  6.06                             108   -0.88 6  358  50 
 SDV  BN ES   4   2220 44.43                             108   -1.31 0  358  50 
 SDV  BZ I        2220 45.36         3.7 0.40            108            358  50 
 ORTC HZ EP       2220 10.98                             106   -0.36 6  398 216 
 ORTC HN ES       2220 54.41                             106    0.82 6  398 216 
 ORTC HZ I        2221  1.40        10.5 0.28            105            398 216 
                                                                                
