 2012  7 7 2159 11.0 L   6.789 -73.157146.0  RSN  6 0.4 1.9LRSN                1
 GAP=136        1.04       6.7     6.6 10.3  0.3194E+01  0.1595E+02  0.6158E+01E
 Epicentro: LOS SANTOS - SANTANDER                                             3
 ACTION:UPD 12-08-14 11:43 OP:ep   STATUS:               ID:20120707215911 L   I
 2012-07-07-2149-50M.COL___208                                                 6
 STAT SP IPHASW D HRMM SECON CODA AMPLIT PERI AZIMU VELO AIN AR TRES W  DIS CAZ7
 BAR2 SZ EP       2159 30.75                             171     0.110   22 187 
 BAR2 SZ I        2159 46.54        30.5 0.28                            22 187 
 BRR  HZ EP       2159 32.24                             153     0.110   71 300 
 BRR  HZ I        2159 32.42        51.8 0.12                            71 300 
 BRR  HN ES   1   2159 49.30                             153     0.7 7   71 300 
 PAM  SZ EP       2159 33.27                             151     0.010   79  40 
 PAM  SN ES   1   2159 50.31                             151    -0.4 7   79  40 
 PAM  SZ I        2159 52.43         8.8 0.46                            79  40 
 RUS  HZ EP       2159 34.57                             144    -0.110   99 175 
 RUS  HN ES   1   2159 53.37                             144     0.2 7   99 175 
 RUS  HZ I        2159 54.15         8.5 0.30                            99 175 
 PTB  HZ EP       2159 37.43                             133    -0.4 9  146 259 
 PTB  HN ES   2   2159 57.90                             133    -0.9 5  146 259 
 PTB  HZ I        22 0  0.49         5.5 0.26                           146 259 
 ZAR  HZ EP   1   2159 44.04                             123     0.7 6  203 293 
 ZAR  HE ES   2   22 0  7.84                             123    -0.8 4  203 293 
 ZAR  HZ I        22 0 13.68        10.5 0.56                           203 293 
