 2015 12 7 2132 39.2 L   6.738 -73.112142.7  RSN  6 0.1 1.6LRSN                1
 GAP=144        0.42       3.4     1.9  5.1 -0.5410E+00 -0.3575E+00  0.8724E+01E
 Epicentro: JORDAN - SANTANDER                                                 3
 ACTION:UPD 16-02-04 15:03 OP:cam  STATUS:               ID:20151207213239 L   I
 OLDACT:DUP 15-12-08 03:00 OP:drio STATUS:               ID:20151207212749d    3
 2015-12-07-2127-48M.COL___308                                                 6
 STAT SP IPHASW D HRMM SECON CODA AMPLIT PERI AZIMU VELO AIN AR TRES W  DIS CAZ7
 BAR2 EZ EP       2132 58.53                             173    0.1210 17.9 206 
 BAR2 EZ I        2133 16.42         6.0 0.24            148           17.9 206 
 BRR  HZ EP       2133  0.43                             150   -0.0310 77.9 302 
 BRR  HE ES       2133 17.22                             150    0.2110 77.9 302 
 PAM  EZ EP       2133  1.33                             149   -0.0110 80.6  34 
 PAM  EE ES       2133 18.42                             149   -0.1510 80.6  34 
 PAM  EZ I        2133 20.67        10.8 0.60            148           80.6  34 
 RUS  HZ EP       2133  2.23                             145    0.0410 93.5 178 
 RUS  HZ I        2133 23.97         5.6 0.38            123           93.5 178 
 PTB  HZ EP   4   2133  5.31                             131   -0.89 0  150 262 
 PTB  HE ES       2133 26.98                             131   -0.24 9  150 262 
 PTB  HZ I        2133 32.30         6.0 0.24            121            150 262 
 ZAR  HZ EP   4   2133 13.70                             121    1.57 0  210 293 
 ZAR  HE ES       2133 37.81                             121    0.03 8  210 293 
 ZAR  HZ I        2133 43.56         6.4 0.28            115            210 293 
                                                                                
