 2017  8 7 2010 22.5 L   6.726 -73.230146.8  RSN  5 0.4 1.1LRSN                1
 GAP=212        1.05       8.2     7.8  8.7  0.4174E+02  0.1791E+02  0.7369E+01E
 Epicentro: VILLANUEVA - SANTANDER                                             3
 ACTION:UPD 17-09-04 20:17 OP:rebc STATUS:               ID:20170807201022 L   I
 OLDACT:REG 17-08-08 04:37 OP:edw  STATUS:               ID:20170807200739     3
 2017-08-07-2008-00M.COL___396                                                 6
 STAT SP IPHASW D HRMM SECON CODA AMPLIT PERI AZIMU VELO AIN AR TRES W  DIS CAZ7
 BAR2 EZ ES       2010 57.16                             174   -0.2310 15.7 160 
 BRR  HZ EP       2010 43.55                             154    0.0210 67.9 308 
 BRR  HN ES       2011  0.50                             154    0.5310 67.9 308 
 RUS  HZ EP     C 2010 46.03                             146    0.2210 93.6 170 
 RUS  HN ES       2011  3.70                             146   -0.3410 93.6 170 
 RUS  HZ I        2011  5.08         2.6 0.22            145           93.6 170 
 PTB  HZ EP     C 2010 48.71                             134    0.15 9  137 261 
 PTB  HN ES       2011  9.31                             134    0.38 9  137 261 
 PTB  HZ I        2011 11.91         1.1 0.16            133            137 261 
 ZAR  HE ES       2011 18.46                             123   -0.91 9  199 295 
                                                                                
