 2010  3 7 2349 24.2 L   6.854 -72.957130.0  RSN  4 0.3 1.5LRSN                1
 GAP=202        0.64       6.0    13.0 11.0  0.5435E+02 -0.9779E+02 -0.4644E+02E
 Epicentro: CEPITA - SANTANDER                                                 3
 ACTION:UP  10-08-24 09:52 OP:vdl  STATUS:               ID:20100307234924 L   I
 2010-03-07-2346-52S.COL___100                                                 6
 STAT SP IPHASW D HRMM SECON CODA AMPLIT PERI AZIMU VELO SNR AR TRES W  DIS CAZ7
 BAR2 SZ EP       2349 42.69                             164     0.310   38 221 
 BAR2 SZ ES   2   2349 56.18                             164    -0.4 5   38 221 
 BRR  HZ EP       2349 44.49                             145    -0.310   88 289 
 BRR  HZ I        2349 45.02         9.9 0.11                            88 289 
 BRR  HN ES   1   2350  1.08                             145     0.2 7   88 289 
 RUS  BZ EP   1   2349 46.83                             139    -0.1 7  107 187 
 RUS  BE ES   1   2350  4.72                             139     0.0 7  107 187 
 RUS  BZ I        2350  6.66         3.1 0.30                           107 187 
 OCA  SZ EP       2349 51.32                             126     0.2 9  158 345 
 OCA  SZ ES   3   2350 11.63                             126    -0.5 2  158 345 
 OCA  SZ I        2350 16.17         6.6 0.28                           158 345 
                                                                                
