 2012  1 7 2330 10.4 L   6.721 -73.111137.6  RSN  6 0.3 1.5LRSN                1
 GAP=144        0.73       4.4     4.7  5.6 -0.2325E+01  0.2468E+01  0.1588E+01E
 Epicentro: JORDAN - SANTANDER                                                 3
 ACTION:UP  12-02-03 08:15 OP:REBC STATUS:               ID:20120107233010 L   I
 2012-01-07-2330-00M.COL___186                                                 6
 STAT SP IPHASW D HRMM SECON CODA AMPLIT PERI AZIMU VELO SNR AR TRES W  DIS CAZ7
 BAR2 SZ EP       2330 28.84                             173    -0.110   16 209 
 BAR2 SZ ES       2330 43.21                             173    -0.110   16 209 
 BAR2 SZ I        2330 45.45        11.8 0.18                            16 209 
 BRR  HZ EP       2330 31.22                             148     0.110   79 303 
 BRR  HN ES   1   2330 47.73                             148     0.4 7   79 303 
 BRR  HZ I        2330 52.71        10.9 0.13                            79 303 
 PAM  SZ EP       2330 32.10                             148     0.110   82  34 
 PAM  SN ES   1   2330 48.80                             148    -0.1 7   82  34 
 RUS  HZ EP   1   2330 32.95                             145     0.3 7   92 178 
 RUS  HZ I        2330 34.07         2.9 0.10                            92 178 
 RUS  HN ES   1   2330 50.01                             145    -0.1 7   92 178 
 PTB  HZ EP   1   2330 36.11                             129    -0.8 7  150 262 
 PTB  HE ES   1   2330 57.70                             129     0.1 7  150 262 
 CHI  HZ EP   1   2330 47.22                             116     0.4 6  241 197 
 CHI  HZ I        2331 22.50         1.5 0.27                           241 197 
                                                                                
