 2014 12 7 2052 11.9 L   6.797 -73.167149.0  RSN  7 0.3 1.7LRSN                1
 GAP=134        0.75       2.6     3.5  5.3  0.6492E+00  0.5745E+01 -0.9164E+00E
 Epicentro: LOS SANTOS - SANTANDER                                             3
 ACTION:UPD 15-02-10 17:01 OP:nd   STATUS:               ID:20141207205211 L   I
 OLDACT:UP  14-12-08 06:26 OP:mh   STATUS:               ID:20141207204744     3
 OLDACT:REG 14-12-08 03:04 OP:mh   STATUS:               ID:20141207204744     3
 2014-12-07-2047-44M.COL___312                                                 6
 STAT SP IPHASW D HRMM SECON CODA AMPLIT PERI AZIMU VELO AIN AR TRES W  DIS CAZ7
 BAR2 SZ EP       2052 31.73                             171   -0.1510 22.7 184 
 BAR2 SZ ES       2052 47.60                             171    0.1110 22.7 184 
 PAM  SZ EP       2052 34.96                             151    0.4110 79.2  41 
 PAM  SN ES       2052 52.21                             151   -0.0210 79.2  41 
 PAM  SZ I        2052 54.10         8.6 0.52            152           79.2  41 
 RUS  HZ EP       2052 36.17                             144    0.2410  100 175 
 RUS  HN ES       2052 54.45                             144   -0.2510  100 175 
 RUS  HZ I        2052 55.60         5.7 0.18            143            100 175 
 PTB  HZ EP   1   2052 39.05                             133    0.15 7  145 259 
 PTB  HN ES       2052 59.89                             133   -0.09 9  145 259 
 PTB  HZ I        2053  1.64         6.7 0.14            132            145 259 
 ZAR  HZ EP   1   2052 44.77                             123    0.44 6  202 292 
 ZAR  HN ES       2053 10.03                             123    0.39 9  202 292 
 ZAR  HZ I        2053 12.97         4.7 0.14            123            202 292 
 SML  HZ EP   1   2052 47.75                             118   -0.87 6  243 336 
 SML  HN ES       2053 16.74                             118   -0.54 8  243 336 
 SML  HZ I        2053 19.70         8.9 0.10            118            243 336 
 CHI  HZ EP   1   2052 49.70                             118    0.05 6  248 195 
 CHI  HN ES       2053 18.84                             118   -0.28 8  248 195 
 CHI  HZ I        2053 27.64         1.3 0.28            117            248 195 
                                                                                
