 2014  6 7 2343 40.3 L   6.837 -73.169145.2  RSN  5 0.2 1.7LRSN                1
 GAP=199        0.55       2.7     3.6  5.4  0.1497E+01  0.3777E+01 -0.4282E+01E
 Epicentro: LOS SANTOS - SANTANDER                                             3
 ACTION:UPD 14-07-01 22:51 OP:nd   STATUS:               ID:20140607234340 L   I
 OLDACT:UP  14-06-08 03:09 OP:cam  STATUS:               ID:20140607234002d    3
 OLDACT:DUP 14-06-08 03:07 OP:cam  STATUS:               ID:20140607234002d    3
 OLDACT:UP  14-06-08 03:06 OP:cam  STATUS:               ID:20140607234000     3
 OLDACT:REG 14-06-08 02:22 OP:cam  STATUS:               ID:20140607234000     3
 2014-06-07-2340-00M.COL___276                                                 6
 STAT SP IPHASW D HRMM SECON CODA AMPLIT PERI AZIMU VELO AIN AR TRES W  DIS CAZ7
 BAR2 SZ EP       2344  0.07                             169    0.1610 27.1 183 
 BAR2 SZ ES       2344 15.41                             169    0.1810 27.1 183 
 BAR2 SZ I        2344 17.56        10.4 0.26            164           27.1 183 
 RUS  HZ EP       2344  4.17                             142   -0.1010  105 175 
 RUS  HN ES       2344 22.77                             142   -0.2210  105 175 
 RUS  HZ I        2344 23.77         4.6 0.28            143            105 175 
 PTB  HZ EP       2344  7.36                             132    0.33 9  146 257 
 PTB  HE ES       2344 27.91                             132    0.00 9  146 257 
 PTB  HZ I        2344 35.18         3.4 0.22            130            146 257 
 SPBC HN ES       2344 31.02                             129   -0.16 9  165 217 
 SPBC HN I        2344 37.36        14.1 0.22            128            165 217 
 SML  HN ES       2344 44.19                             118   -0.29 8  239 335 
                                                                                
