 2014  9 7 2043 57.2 L   6.823 -73.165139.9  RSN 15 0.6 2.5LRSN                1
 GAP=133        1.44       3.7     5.0  7.0 -0.4032E+01  0.1215E+02  0.8892E-01E
 Epicentro: LOS SANTOS - SANTANDER                                             3
 ACTION:UPD 14-10-03 23:03 OP:nd   STATUS:               ID:20140907204357 L   I
 OLDACT:REG 14-09-08 03:35 OP:stll STATUS:               ID:20140907203820     3
 2014-09-07-2038-20M.COL___263                                                 6
 STAT SP IPHASW D HRMM SECON CODA AMPLIT PERI AZIMU VELO AIN AR TRES W  DIS CAZ7
 BAR2 SZ EP       2044 16.36                             169    0.1810 25.5 184 
 BAR2 SZ ES       2044 31.02                             169    0.0410 25.5 184 
 BAR2 SZ I        2044 32.35        63.3 0.22            169           25.5 184 
 BRR  HZ EP       2044 18.34                             152    0.7910 68.2 298 
 BRR  HN ES       2044 34.60                             152    1.1810 68.2 298 
 BRR  HZ I        2044 39.47        73.0 0.14            150           68.2 298 
 PAM  SZ IP     D 2044 19.11                             150    0.3410 76.9  42 
 PAM  SZ I        2044 19.56       120.9 0.22            153           76.9  42 
 PAM  SN ES       2044 35.80                             150    0.2110 76.9  42 
 RUS  HZ EP       2044 20.39                             142   -0.1910  103 175 
 RUS  HN ES       2044 37.97                             142   -0.8510  103 175 
 RUS  HZ I        2044 39.53        25.7 0.24            145            103 175 
 PTB  HZ EP       2044 23.51                             131   -0.05 9  146 258 
 PTB  HN ES       2044 43.89                             131   -0.22 9  146 258 
 PTB  HZ I        2044 47.11        42.5 0.16            131            146 258 
 OCA  HZ EP       2044 24.89                             129    0.08 9  158 354 
 OCA  HN ES       2044 45.12                             129   -1.22 9  158 354 
 OCA  HZ I        2044 49.62        47.6 0.28            130            158 354 
 SPBC HZ EP       2044 25.25                             127   -0.08 9  164 218 
 SPBC HE ES       2044 46.77                             127   -0.49 9  164 218 
 ZAR  HZ EP       2044 29.13                             121    0.15 9  201 292 
 ZAR  HN ES       2044 53.76                             121    0.00 9  201 292 
 ZAR  HZ I        2045  0.33        38.8 0.42            122            201 292 
 NOR  HZ EP       2044 32.88                             117    0.30 8  234 234 
 NOR  HN ES       2045  0.09                             117   -0.08 8  234 234 
 NOR  HZ I        2045  5.48        20.3 0.36            118            234 234 
 SML  HZ EP       2044 32.84                             116   -0.33 8  241 335 
 SML  HE ES       2045  0.20                             116   -1.01 8  241 335 
 SML  HZ I        2045  4.55        47.9 0.26            118            241 335 
 HEL  HZ EP       2044 38.11                             114    1.14 8  271 255 
 HEL  HN ES       2045  7.70                             114   -0.29 8  271 255 
 HEL  HZ I        2045 14.54         9.7 0.30            114            271 255 
 GUY2CHZ EP       2044 41.18                             111    0.66 7  301 234 
 GUY2CHN ES       2045 14.61                             111    0.30 7  301 234 
 GUY2CHZ I        2045 21.65        12.2 0.28                           301 234 
 DBB  SZ EP       2044 44.26                             108    0.07 7  337 274 
 MON  HZ EP   9   2044 44.24                             108   -1.38 0  350 308 
 MON  HN ES       2045 20.65                                   -1.35 6  350 308 
 MON  HZ I        2045 25.34         5.4 0.50            109            350 308 
 ORTC HZ EP       2044 50.95                             105   -0.07 6  396 216 
 ORTC HN ES       2045 31.68                             105   -1.32 6  396 216 
 ORTC HZ I        2045 41.24         7.7 0.42            107            396 216 
                                                                                
