 2010 10 7 2033 16.4 L   6.758 -73.079148.1  RSN  8 0.2 2.1LRSN                1
 GAP=183        0.47       3.9     5.1  5.0 -0.1362E+02 -0.1172E+02  0.9277E+01E
 Epicentro: LOS SANTOS - SANTANDER                                             3
 ACTION:UP  11-02-18 11:08 OP:tino STATUS:               ID:20101007203316 L   I
 2010-10-07-2030-38S.COL___122                                                 6
 STAT SP IPHASW D HRMM SECON CODA AMPLIT PERI AZIMU VELO SNR AR TRES W  DIS CAZ7
 BAR2 SZ EP   1   2033 36.26                             171    -0.1 7   22 212 
 BAR2 SZ ES   2   2033 51.58                             171    -0.2 5   22 212 
 BAR2 SZ I        2033 53.10        40.4 0.20                            22 212 
 BTL  SZ EP   1   2033 36.69                             169     0.3 7   27 310 
 BRR  HZ IP     C 2033 38.19                             150    -0.210   80 299 
 BRR  HZ I        2033 38.45        48.2 0.14                            80 299 
 BRR  HN ES       2033 55.65                             150     0.210   80 299 
 GUE  SZ EP       2033 41.69                             139     0.110  120   8 
 GRA  SZ EP       2033 42.03                             137    -0.110  128  14 
 GRA  SZ ES   2   2034  1.74                             137    -0.4 5  128  14 
 GRA  SZ I        2034  7.70         9.8 0.36                           128  14 
 NOR  SZ EP   1   2033 52.76                             119     0.1 6  238 237 
 NOR  SN ES   1   2034 20.49                             119    -0.5 6  238 237 
 CHI  HZ EP   2   2033 54.25                             118     0.2 4  246 197 
 CHI  HE ES   3   2034 23.39                             118     0.1 2  246 197 
 CHI  HZ I        2034 33.29         3.6 0.27                           246 197 
 PRA  HZ EP   2   2034 10.27                             107     0.3 3  392 211 
 PRA  HN ES   2   2034 52.23                             107     0.5 3  392 211 
                                                                                
