 2012  8 7 2054 31.1 L   6.802 -73.178137.2  RSN  9 0.5 1.7LRSN                1
 GAP=132        0.69       4.8     5.1  9.6  0.3855E+01  0.8971E+01 -0.4190E+01E
 Epicentro: LOS SANTOS - SANTANDER                                             3
 ACTION:UPD 12-09-10 11:55 OP:ep   STATUS:               ID:20120807205431 L   I
 2012-08-07-2050-00M.COL___216                                                 6
 STAT SP IPHASW D HRMM SECON CODA AMPLIT PERI AZIMU VELO AIN AR TRES W  DIS CAZ7
 BAR2 SZ EP       2054 49.56                             170   -0.1010 23.2 181 
 BAR2 SZ ES   3   2055  4.40                             170    0.24 2 23.2 181 
 BAR2 SZ I        2055  6.02        19.0 0.22                          23.2 181 
 BRR  HZ EP       2054 51.62                             152    0.5210 67.9 300 
 BRR  HZ I        2054 53.78        21.8 0.30                          67.9 300 
 BRR  HE ES   3   2055  7.65                             152    0.93 2 67.9 300 
 PAM  SZ EP   3   2054 52.74                             148    0.23 2 79.6  42 
 PAM  SN ES   3   2055  9.38                             148    0.15 2 79.6  42 
 PAM  SZ I        2055 11.56         3.5 0.56                          79.6  42 
 RUS  HZ EP       2054 53.84                             142   -0.1810  101 174 
 RUS  HN ES   1   2055 11.89                             142   -0.03 7  101 174 
 RUS  HZ I        2055 12.95         4.6 0.48                           101 174 
 PTB  HZ EP       2054 56.72                             131   -0.30 9  144 258 
 PTB  HN ES   1   2055 16.52                             131   -0.74 7  144 258 
 PTB  HZ I        2055 21.69         6.9 0.18                           144 258 
 OCA  HE ES   3   2055 20.05                             127   -0.13 2  160 354 
 ZAR  HZ EP   3   2055  2.63                             121    0.03 2  201 292 
 ZAR  HE ES   3   2055 27.45                             121    0.24 2  201 292 
 ZAR  HZ I        2055 33.25         9.2 0.36                           201 292 
 NOR  SZ EP   3   2055  6.95                             117    0.95 2  232 234 
 NOR  SN ES   2   2055 34.41                             117    1.15 4  232 234 
 CHI  HZ EP   3   2055  7.73                             115   -0.49 2  248 194 
 CHI  HZ I        2055 10.23         2.6 0.68                           248 194 
 CHI  HN ES   2   2055 37.77                             115    0.57 4  248 194 
                                                                                
