 2015  1 7 2134 43.5 L   6.801 -73.190144.5  RSN  8 0.4 2.1LRSN                1
 GAP= 69        0.90       3.2     3.7  5.3 -0.8488E+00  0.9163E+00 -0.1584E+01E
 Epicentro: ZAPATOCA - SANTANDER                                               3
 OLDACT:REG 15-01-08 02:05 OP:stll STATUS:               ID:20150107212745     3
 ACTION:UPD 15-03-02 15:37 OP:nd   STATUS:               ID:20150107213443 L   I
 OLDACT:DUP 15-01-08 05:50 OP:stll STATUS:               ID:20150107212746d    3
 OLDACT:UP  15-01-08 05:46 OP:stll STATUS:               ID:20150107212745     3
 2015-01-07-2127-45M.COL___274                                                 6
 STAT SP IPHASW D HRMM SECON CODA AMPLIT PERI AZIMU VELO AIN AR TRES W  DIS CAZ7
 BAR2 EZ EP       2135  3.15                             171    0.1810 23.1 178 
 BAR2 EZ ES       2135 18.42                             171    0.2610 23.1 178 
 BAR2 EZ I        2135 20.74        23.0 0.30            172           23.1 178 
 BRR  HZ EP       2135  4.99                             154    0.7210 66.9 300 
 BRR  HE ES       2135 20.82                             154    0.3510 66.9 300 
 BRR  HZ I        2135 27.83        22.7 0.24            152           66.9 300 
 PAM  SZ EP       2135  5.81                             150    0.0410 80.5  42 
 PAM  SZ I        2135  6.18        40.4 0.20            153           80.5  42 
 PAM  SN ES       2135 22.96                             150   -0.1710 80.5  42 
 RUS  HZ EP       2135  7.26                             143    0.0910  101 173 
 RUS  HN ES       2135 25.10                             143   -0.5310  101 173 
 RUS  HZ I        2135 26.88        11.4 0.34            147            101 173 
 PTB  HZ EP       2135  9.76                             133   -0.17 9  143 258 
 PTB  HE ES       2135 30.44                             133   -0.11 9  143 258 
 PTB  HZ I        2135 37.76         9.6 0.40            133            143 258 
 TAM  HZ EP       2135 11.45                             129   -0.07 9  160 105 
 TAM  HZ I        2135 11.86        13.9 0.44            135            160 105 
 SPBC HZ EP       2135 11.81                             129    0.19 9  160 218 
 SPBC HN ES       2135 33.22                             129   -0.34 9  160 218 
 SPBC HZ I        2135 35.73        14.2 0.14            131            160 218 
 SML  HZ EP       2135 19.84                             117    0.02 8  242 336 
 SML  HE ES       2135 47.35                             117   -0.81 8  242 336 
 SML  HZ I        2135 51.34        15.5 0.10            119            242 336 
                                                                                
