 2014 11 7 2303 52.7 L   6.814 -73.135146.3  RSN 12 0.4 2.0LRSN                1
 GAP=137        0.74       2.9     3.3  4.7 -0.3198E+01  0.1318E+01  0.5292E+01E
 Epicentro: LOS SANTOS - SANTANDER                                             3
 ACTION:UPD 14-12-19 15:40 OP:nd   STATUS:               ID:20141107230352 L   I
 OLDACT:REG 14-11-08 05:34 OP:spq  STATUS:               ID:20141107225746     3
 2014-11-07-2257-46M.COL___295                                                 6
 STAT SP IPHASW D HRMM SECON CODA AMPLIT PERI AZIMU VELO AIN AR TRES W  DIS CAZ7
 BAR2 SZ EP   1   23 4 12.41                             170   -0.06 7 25.1 192 
 BAR2 SZ ES   1   23 4 27.39                             170   -0.46 7 25.1 192 
 BAR2 SZ I        23 4 28.77        18.8 0.24            167           25.1 192 
 BRR  HZ EP       23 4 14.19                             152    0.2310 71.5 297 
 BRR  HN ES       23 4 31.01                             152    0.4910 71.5 297 
 BRR  HZ I        23 4 31.61        25.9 0.10            151           71.5 297 
 PAM  SZ EP       23 4 15.07                             151    0.1710 75.4  40 
 PAM  SN ES       23 4 32.14                             151   -0.0410 75.4  40 
 PAM  SZ I        23 4 34.41        10.5 0.44            156           75.4  40 
 RUS  HZ EP       23 4 16.45                             143   -0.2010  102 177 
 RUS  HN ES   1   23 4 35.59                             143    0.30 7  102 177 
 RUS  HZ I        23 4 36.97        10.1 0.32            143            102 177 
 PTB  HZ EP   1   23 4 19.25                             132   -0.63 7  149 258 
 PTB  HE ES       23 4 40.84                             132   -0.21 9  149 258 
 PTB  HZ I        23 4 47.34        14.7 0.42            131            149 258 
 OCA  HE ES   1   23 4 42.44                             130   -0.53 7  159 353 
 OCA  HZ I        23 4 46.00        11.1 0.36            132            159 353 
 SPBC HZ EP       23 4 21.73                             129    0.27 9  165 219 
 SPBC HN ES       23 4 43.59                             129   -0.27 9  165 219 
 SPBC HZ I        23 4 49.54        15.5 0.26            128            165 219 
 NOR  HZ EP       23 4 28.77                             118    0.07 8  237 234 
 NOR  HN ES       23 4 56.35                             118   -0.39 8  237 234 
 NOR  HZ I        23 5  2.55         5.9 0.22            118            237 234 
 CHI  HZ EP       23 4 30.84                             117    0.18 8  250 195 
 CHI  HN ES   1   23 5  0.34                             117    0.10 6  250 195 
 CHI  HZ I        23 5  9.21         4.5 0.36            117            250 195 
 HEL  HZ EP   4   23 4 34.80                             115    1.65 0  274 256 
 HEL  HN ES   1   23 5  4.97                             115    0.30 6  274 256 
 HEL  HZ I        23 5 12.26         4.6 0.28            115            274 256 
 GUY2CHZ EP   4   23 4 38.01                             112    1.43 0  303 235 
 GUY2CHE ES   1   23 5 11.73                             112    0.95 5  303 235 
 GUY2CHZ I        23 5 18.81         4.5 0.32                           303 235 
 PRA  HZ EP       23 4 46.47                             106   -0.03 6  394 210 
 PRA  HN ES   1   23 5 27.99                             106   -0.45 4  394 210 
 PRA  HZ I        23 5 35.94         5.2 0.42            107            394 210 
                                                                                
