 2011  2 7 2009  9.8 L   6.804 -73.170142.9  RSN  6 0.4 1.7LRSN                1
 GAP=156        0.66       6.8    11.2 10.4 -0.3471E+02  0.4400E+02 -0.1338E+02E
 Epicentro: LOS SANTOS - SANTANDER                                             3
 ACTION:UP  11-03-28 15:06 OP:jfem STATUS:               ID:20110207200909 L   I
 2011-02-07-2004-14S.COL___137                                                 6
 STAT SP IPHASW D HRMM SECON CODA AMPLIT PERI AZIMU VELO SNR AR TRES W  DIS CAZ7
 BTL  SZ EP   1   20 9 29.49                             173     0.5 7   17 320 
 BAR2 SZ ES   2   20 9 43.46                             170    -0.6 5   24 184 
 RUS  HZ EP   2   20 9 33.33                             143     0.0 5  101 175 
 RUS  HN ES   2   20 9 51.91                             143     0.3 5  101 175 
 RUS  HZ I        20 9 54.15         5.7 0.37                           101 175 
 GRA  SZ EP   2   20 9 34.35                             136    -0.4 5  126  19 
 GRA  SZ I        20 9 59.28         8.5 0.45                           126  19 
 NOR  SZ EP   2   20 9 44.92                             118    -0.2 4  233 234 
 NOR  SN ES   2   2010 12.80                             118     0.1 4  233 234 
 CHI  HZ EP   2   20 9 46.88                             116    -0.4 4  248 195 
 CHI  HZ I        20 9 49.53         3.1 0.39                           248 195 
 CHI  HE ES   2   2010 16.38                             116    -0.2 4  248 195 
                                                                                
