 2012  2 7 2237 54.8 L   6.780 -73.127140.9  RSN  8 0.3 2.4LRSN                1
 GAP=140        0.79       3.6     4.1  5.3 -0.1135E+01  0.6223E+01  0.8950E-01E
 ACTION:UP  12-03-07 16:28 OP:epov STATUS:               ID:20120207223754 L   I
 2012-02-07-2230-00M.COL___188                                                 6
 STAT SP IPHASW D HRMM SECON CODA AMPLIT PERI AZIMU VELO AIN AR TRES W  DIS CAZ7
 BAR2 SZ EP       2238 13.81                             171   -0.0210 21.7 196 
 BAR2 SZ ES       2238 28.45                             171   -0.2010 21.7 196 
 BAR2 SZ I        2238 30.28        52.4 0.35                          21.7 196 
 BRR  HZ EP       2238 15.82                             151    0.2110 74.0 299 
 BRR  HN ES       2238 32.33                             151    0.5110 74.0 299 
 BRR  HZ I        2238 36.14        39.9 0.16                          74.0 299 
 PAM  SZ EP       2238 16.78                             150    0.2410 77.8  37 
 PAM  SN ES       2238 33.01                             150   -0.4810 77.8  37 
 RUS  HZ EP       2238 17.98                             143    0.0510 98.3 177 
 RUS  HE ES       2238 36.14                             143    0.1910 98.3 177 
 RUS  HZ I        2238 38.38        35.7 0.26                          98.3 177 
 PTB  HZ EP       2238 20.95                             130   -0.59 9  149 260 
 OCA  SZ EP   1   2238 23.35                             128    0.36 7  163 353 
 ZAR  HE ES   1   2238 52.25                             121   -0.27 6  207 292 
 ZAR  HZ I        2238 58.39        45.1 0.24                           207 292 
 NOR  SZ EP   1   2238 30.21                             117   -0.11 6  235 235 
 NOR  SE ES   1   2238 57.96                             117   -0.04 6  235 235 
                                                                                
