 2016  8 7 2328 14.3 L   6.768 -73.130139.3  RSN  6 0.3 1.7LRSN                1
 GAP=140        0.81       3.9     3.6  5.5  0.1298E+01  0.5223E+01 -0.9994E+00E
 Epicentro: LOS SANTOS - SANTANDER                                             3
 ACTION:UPD 16-10-29 15:33 OP:rebc STATUS:               ID:20160807232814 L   I
 OLDACT:REG 16-08-08 12:24 OP:dnl  STATUS:               ID:20160807231734     3
 2016-08-07-2318-00M.COL___365                                                 6
 STAT SP IPHASW D HRMM SECON CODA AMPLIT PERI AZIMU VELO AIN AR TRES W  DIS CAZ7
 BAR2 EZ IP       2328 32.95                             171   -0.1810 20.3 197 
 BAR2 HE ES       2328 48.17                             171    0.3910 20.3 197 
 BAR2 EZ I        2328 50.08         8.8 0.28                          20.3 197 
 BRR  HZ EP       2328 34.99                             150    0.0110 74.5 300 
 BRR  HN ES       2328 51.53                             150    0.4410 74.5 300 
 BRR  HZ I        2328 55.59         8.8 0.28                          74.5 300 
 PAM  EZ IP       2328 35.96                             149   -0.0110 79.1  37 
 PAM  HE ES       2328 52.46                             149   -0.3810 79.1  37 
 PAM  EZ I        2328 54.90        13.0 0.58                          79.1  37 
 RUS  HZ EP       2328 37.29                             143    0.1010 96.9 177 
 RUS  HE ES       2328 54.89                             143   -0.1210 96.9 177 
 RUS  HZ I        2328 56.48         4.9 0.26                          96.9 177 
 PTB  HZ EP       2328 41.10                             130    0.21 9  149 260 
 PTB  HE ES       2329  0.97                             130   -0.62 9  149 260 
 PTB  HZ I        2329  4.32         5.0 0.52                           149 260 
 ZAR  HZ EP       2328 47.03                             120    0.35 8  207 293 
 ZAR  HN ES       2329 11.71                             120   -0.20 8  207 293 
 ZAR  HZ I        2329 17.74         8.9 0.38                           207 293 
                                                                                
