 2015  4 7 2310 32.3 L   6.844 -73.340124.8  RSN  8 0.5 2.0LRSN                1
 GAP= 96        1.20       3.9     4.4  7.3  0.7302E+00  0.6915E+01 -0.7100E+01E
 Epicentro: ZAPATOCA - SANTANDER                                               3
 ACTION:UPD 15-06-03 16:53 OP:cam  STATUS:               ID:20150407231032 L   I
 OLDACT:REG 15-04-08 02:53 OP:fm   STATUS:               ID:20150407230749     3
 2015-04-07-2307-49M.COL___261                                                 6
 STAT SP IPHASW D HRMM SECON CODA AMPLIT PERI AZIMU VELO AIN AR TRES W  DIS CAZ7
 BAR2 EZ EP       2310 50.03                             164    0.3210 32.9 148 
 BAR2 EZ ES       2311  3.74                             164    0.4710 32.9 148 
 BAR2 EZ I        2311  4.52        28.0 0.28            169           32.9 148 
 BRR  HZ EP       2310 50.49                             157    0.4210 50.3 305 
 BRR  HN ES       2311  4.32                             157    0.4110 50.3 305 
 BRR  HZ I        2311  5.55        14.3 0.32            155           50.3 305 
 PAM  SZ EP       2310 53.47                             142    0.2510 89.5  52 
 PAM  SN ES       2311  9.34                             142   -0.1710 89.5  52 
 PAM  SZ I        2311 11.74        12.1 0.28            144           89.5  52 
 RUS  HZ EP       2310 55.02                             136    0.2510  109 165 
 RUS  HE ES       2311 11.58                             136   -0.6910  109 165 
 PTB  HZ EP       2310 55.32                             131   -0.4710  128 255 
 PTB  HN ES       2311 13.32                             131   -0.7610  128 255 
 PTB  HZ I        2311 17.14        11.1 0.42            132            128 255 
 OCA  HZ EP       2310 58.21                             125   -0.29 9  154   1 
 OCA  HE ES       2311 18.20                             125   -0.71 9  154   1 
 OCA  HZ I        2311 20.98        25.2 0.44            126            154   1 
 ZAR  HZ EP       2311  1.99                             120    0.81 9  182 293 
 ZAR  HN ES       2311 24.01                             120    0.33 9  182 293 
 ZAR  HZ I        2311 27.69         7.5 0.40            121            182 293 
 SML  HZ EP       2311  6.34                             114   -0.10 8  231 340 
 SML  HN ES       2311 32.90                             114   -0.15 8  231 340 
 SML  HZ I        2311 38.93        13.7 0.10            115            231 340 
                                                                                
