 2016 10 7 2344 59.1 L   6.806 -73.148142.0  RSN 14 0.4 1.9LRSN                1
 GAP=136        0.97       2.9     4.2  5.5 -0.2513E+01  0.7495E+01  0.2632E+01E
 Epicentro: LOS SANTOS - SANTANDER                                             3
 ACTION:UPD 16-11-09 19:17 OP:rebc STATUS:               ID:20161007234459 L   I
 OLDACT:UP  16-10-08 03:57 OP:edw  STATUS:               ID:20161007233743     3
 OLDACT:UP  16-10-08 03:53 OP:edw  STATUS:               ID:20161007233743     3
 OLDACT:UP  16-10-08 03:52 OP:edw  STATUS:               ID:20161007233743     3
 OLDACT:REG 16-10-08 03:41 OP:cara STATUS:               ID:20161007233743     3
 2016-10-07-2338-00M.COL___354                                                 6
 STAT SP IPHASW D HRMM SECON CODA AMPLIT PERI AZIMU VELO AIN AR TRES W  DIS CAZ7
 BAR2 EZ EP       2345 18.12                             170   -0.1710 24.0 189 
 BAR2 EZ ES       2345 33.36                             170    0.1010 24.0 189 
 BAR2 EZ I        2345 34.28        31.4 0.24            168           24.0 189 
 PAM  EZ IP     C 2345 21.04                             150    0.1510 77.0  40 
 PAM  EN ES       2345 38.23                             150    0.3410 77.0  40 
 PAM  EZ I        2345 40.23        13.4 0.48            155           77.0  40 
 RUS  HZ EP       2345 22.11                             143   -0.4210  101 176 
 RUS  HN ES       2345 40.89                             143    0.0810  101 176 
 RUS  HZ I        2345 41.82        12.3 0.30            145            101 176 
 PTB  HZ EP   9   2345 24.60                             131   -1.15 0  148 259 
 PTB  HN ES       2345 45.94                             131    0.55 9  148 259 
 PTB  HZ I        2345 47.76         9.7 0.18            130            148 259 
 OCA  HN ES       2345 48.64                             129   -0.21 9  160 353 
 SPBC HZ EP       2345 27.21                             128   -0.14 9  164 219 
 SPBC HN ES       2345 49.33                             128   -0.05 9  164 219 
 SPBC HZ I        2345 54.73        14.2 0.18            128            164 219 
 ZAR  HZ EP       2345 31.69                             122    0.44 9  204 292 
 ZAR  HN ES       2345 56.06                             122   -0.26 9  204 292 
 ZAR  HZ I        2346  3.31         6.4 0.10            122            204 292 
 NOR  HZ EP       2345 34.32                             118   -0.31 8  235 234 
 NOR  HE ES       2346  1.60                             118   -0.75 8  235 234 
 NOR  HZ I        2346  9.30         6.4 0.18            118            235 234 
 CHI  HZ EP       2345 36.31                             116   -0.35 8  249 195 
 CHI  HN ES       2346  5.89                             116   -0.06 8  249 195 
 CHI  HZ I        2346  7.94         5.4 0.40            118            249 195 
 HEL  HZ EP   4   2345 40.99                             114    1.88 0  272 256 
 HEL  HN ES   4   2346  8.85                             114   -1.47 0  272 256 
 HEL  HZ I        2346 17.67         4.3 0.32            114            272 256 
 GUY2CHZ EP       2345 43.65                             112    1.09 7  301 235 
 GUY2CHN ES   4   2346 19.91                             112    3.46 0  301 235 
 GUY2CHZ I        2346 26.60         3.5 0.36                           301 235 
 ANIL HN ES       2346 28.68                             108    1.12 6  358 224 
 PRA  HZ EP       2345 52.46                             106   -0.09 6  392 209 
 PRA  HE ES       2346 34.49                             106    0.25 6  392 209 
 PRA  HZ I        2346 38.45         2.8 0.32            107            392 209 
 SJC  HZ EP   9   2345 52.33                             105   -2.12 0  408 327 
 SJC  HN ES       2346 34.88                             105   -0.63 6  408 327 
 SJC  HZ I        2346 37.94         1.4 0.30            106            408 327 
                                                                                
