 2016 10 7 2307 38.3 L   6.836 -73.152147.5  RSN 21 0.3 2.6LRSN                1
 GAP= 69        0.72       2.2     2.2  3.8 -0.2793E+00  0.1640E+01  0.4378E+00E
 Epicentro: LOS SANTOS - SANTANDER                                             3
 ACTION:UPD 16-11-09 19:17 OP:rebc STATUS:               ID:20161007230738 L   I
 OLDACT:UP  16-10-08 05:14 OP:edw  STATUS:               ID:20161007225746     3
 OLDACT:UP  16-10-08 05:12 OP:edw  STATUS:               ID:20161007225746     3
 OLDACT:REG 16-10-08 03:37 OP:cara STATUS:               ID:20161007225746     3
 2016-10-07-2258-00M.COL___360                                                 6
 STAT SP IPHASW D HRMM SECON CODA AMPLIT PERI AZIMU VELO AIN AR TRES W  DIS CAZ7
 BAR2 EZ IP     C 23 7 58.22                             169    0.0010 27.2 187 
 BAR2 EZ ES       23 8 13.79                             169    0.0410 27.2 187 
 BAR2 EZ I        23 8 14.48       102.9 0.24            167           27.2 187 
 PAM  EZ EP       23 8  1.08                             152    0.5310 74.8  42 
 PAM  EN ES   4   23 8 18.43                             152    0.53 0 74.8  42 
 PAM  EZ I        23 8 20.41        75.6 0.50            155           74.8  42 
 RUS  HZ EP       23 8  2.22                             143   -0.2910  105 176 
 RUS  HN ES       23 8 21.23                             143   -0.1710  105 176 
 RUS  HZ I        23 8 22.01        58.9 0.24            143            105 176 
 PTB  HZ EP   9   23 8  4.84                             132   -0.58 0  148 257 
 PTB  HN ES       23 8 25.42                             131   -0.57 9  148 257 
 PTB  HZ I        23 8 28.95        37.3 0.15            130            148 257 
 OCA  HZ EP   4   23 8  7.30                             130    0.93 0  156 353 
 OCA  HN ES       23 8 28.31                             130    0.05 9  156 353 
 OCA  HZ I        23 8 31.66        67.5 0.24            131            156 353 
 TAM  HZ IP     D 23 8  6.59                             130    0.31 9  157 106 
 TAM  HN ES       23 8 28.01                             130   -0.09 9  157 106 
 SPBC HZ EP       23 8  7.17                             129   -0.02 9  166 218 
 SPBC HN ES       23 8 29.50                             129   -0.21 9  166 218 
 SPBC HZ I        23 8 31.04        64.6 0.09            127            166 218 
 ZAR  HZ EP       23 8 10.51                             123   -0.13 9  202 291 
 ZAR  HN ES       23 8 35.56                             123   -0.30 9  202 291 
 ZAR  HZ I        23 8 40.70        23.4 0.26            122            202 291 
 NOR  HZ EP       23 8 14.39                             118    0.07 8  236 234 
 NOR  HN ES       23 8 42.54                             118    0.13 8  236 234 
 NOR  HZ I        23 8 47.88        38.9 0.16            118            236 234 
 CHI  HZ EP       23 8 16.41                             117   -0.08 8  252 195 
 CHI  HN ES   4   23 8 45.60                             117   -0.68 0  252 195 
 CHI  HZ I        23 8 49.01        24.2 0.42            117            252 195 
 ROSC BZ EP   4   23 8 18.45                             116    1.60 0  256 210 
 ROSC BN ES   4   23 8 49.21                             116    2.30 0  256 210 
 ROSC BZ I        23 8 56.44        30.9 0.30            116            256 210 
 HEL  HZ EP   4   23 8 20.28                             115    1.64 0  272 255 
 HEL  HN ES       23 8 50.18                             115    0.08 8  272 255 
 HEL  HZ I        23 8 56.32        21.5 0.26            114            272 255 
 GUY2CHZ EP   4   23 8 23.66                             112    1.47 0  303 234 
 GUY2CHN ES   4   23 9  0.55                             112    4.14 0  303 234 
 GUY2CHZ I        23 9  3.47        18.2 0.64                           303 234 
 VIL  EZ EP       23 8 22.09                             112   -0.13 7  307 191 
 VIL  EN ES       23 8 56.61                             112    0.13 7  307 191 
 VIL  EZ I        23 8 58.92        29.0 0.46            112            307 191 
 PTGC HZ EP   4   23 8 21.46                             111   -1.23 0  313 159 
 PTGC HN ES   4   23 8 55.03                             111   -2.28 0  313 159 
 ELA  HZ EP   4   23 8 27.98                             110    2.52 0  331 229 
 ELA  HN ES   4   23 9  4.68                             110    2.44 0  331 229 
 ELA  HZ I        23 9 12.84        14.3 0.32            110            331 229 
 ANIL HZ EP   4   23 8 29.98                             108    1.54 0  360 224 
 ANIL HN ES   4   23 9  9.68                             108    2.12 0  360 224 
 ANIL HZ I        23 9 15.12        45.2 0.32            108            360 224 
 PRA  HZ EP       23 8 32.20                             106   -0.05 6  395 209 
 PRA  HN ES   4   23 9 13.81                             106   -0.51 0  395 209 
 PRA  HZ I        23 9 18.22        15.2 0.25            106            395 209 
 SJC  HZ IP     C 23 8 32.43                             106   -1.05 6  405 327 
 SJC  HN ES   4   23 9 13.62                             106   -2.90 0  405 327 
 SJC  HZ I        23 9 20.31         5.8 0.58            106            405 327 
 PAL  HZ EP       23 8 33.94                             106    0.25 6  407 239 
 PAL  HN ES       23 9 17.86                             106    0.97 6  407 239 
 PAL  HZ I        23 9 20.10         5.4 0.18            106            407 239 
 CRJC HZ EP   9   23 8 38.45                             103   -1.93 0  464   4 
 CRJC HN ES       23 9 27.29                             103    0.42 5  464   4 
 CRJC HZ I        23 9 30.71        10.7 0.12            104            464   4 
 URI  HZ EP   9   23 8 49.01                             101   -1.89 0  553  13 
 URI  HN ES       23 9 46.01                             101    0.38 4  553  13 
                                                                                
