 2016  3 7 2143 11.4 L   7.410 -73.405143.5  RSN  6 0.3 1.9LRSN                1
 GAP=225        0.71       6.2     4.2  6.9 -0.1167E+02  0.6517E+01 -0.8151E+00E
 Epicentro: SABANA DE TORRES - SANTANDER                                       3
 ACTION:UPD 16-05-13 21:22 OP:cam  STATUS:               ID:20160307214311 L   I
 OLDACT:UP  16-03-14 19:44 OP:cam  STATUS:               ID:20160307214311 L   3
 OLDACT:UP  16-03-14 10:33 OP:Ak   STATUS:               ID:20160307214311 L   3
 OLDACT:UP  16-03-08 09:56 OP:mh   STATUS:               ID:20160307213752     3
 OLDACT:UP  16-03-08 09:56 OP:mh   STATUS:               ID:20160307213752     3
 OLDACT:UP  16-03-08 09:54 OP:mh   STATUS:               ID:20160307213752     3
 OLDACT:REG 16-03-08 05:52 OP:mh   STATUS:               ID:20160307213752     3
 2016-03-07-2137-52M.COL___295                                                 6
 STAT SP IPHASW D HRMM SECON CODA AMPLIT PERI AZIMU VELO AIN AR TRES W  DIS CAZ7
 PAM  EZ EP       2143 33.68                             150    0.2710 78.3  96 
 PAM  EN ES       2143 50.34                             150   -0.2410 78.3  96 
 PAM  EZ I        2143 53.08        14.6 0.23             47           78.3  96 
 PTB  HZ EP   1   2143 37.90                             131   -0.55 7  151 230 
 PTB  HE ES       2143 59.89                             131    0.33 9  151 230 
 ZAR  HZ I        2144 28.52         9.1 0.18             37            161 273 
 RUS  HN EP   4   2143 45.76                             127    4.72 0  171 168 
 RUS  HE ES       2144  4.05                             127   -0.13 9  171 168 
 TAM  HZ EP       2143 44.42                             121    0.25 8  208 121 
 TAM  HZ I        2144  5.21         6.3 0.38             47            208 121 
 TAM  HN ES   4   2144  8.11                             121   -1.63 0  208 121 
 GUY2CHZ EP       2143 57.29                             110   -0.27 7  325 222 
 GUY2CHN ES   4   2144 30.58                             110   -3.00 0  325 222 
 GUY2CHZ I        2144 35.05         5.3 0.52                           325 222 
                                                                                
