 2014  2 7 2351  7.2 L   6.792 -73.127146.0  RSN  4 0.3 1.7LRSN                1
 GAP=239        0.83       5.2     7.9  8.6  0.1896E+02  0.9316E+00  0.1307E+02E
 Epicentro: LOS SANTOS - SANTANDER                                             3
 ACTION:UPD 14-03-10 08:08 OP:ep   STATUS:               ID:20140207235107 L   I
 OLDACT:REG 14-02-08 00:10 OP:stll STATUS:               ID:20140207234818     3
 2014-02-07-2348-18M.COL___226                                                 6
 STAT SP IPHASW D HRMM SECON CODA AMPLIT PERI AZIMU VELO AIN AR TRES W  DIS CAZ7
 BRR  HZ EP       2351 28.10                             152   -0.3610 73.4 298 
 BRR  HZ I        2351 29.95         8.5 0.42            151           73.4 298 
 BRR  HE ES       2351 45.56                             152    0.4910 73.4 298 
 RUS  HN ES       2351 49.14                             144   -0.2110 99.6 177 
 PTB  HN ES       2351 55.19                             132   -0.30 9  150 259 
 CHI  HZ EP       2351 45.09                             117    0.25 8  248 196 
 CHI  HN ES       2352 14.50                             117    0.28 8  248 196 
                                                                                
