 2011  2 7 2324 37.0 L   6.759 -73.270143.6  RSN  5 0.1 1.7LRSN                1
 GAP=169        0.30       2.9    11.7  5.1 -0.1944E+02  0.2930E+02 -0.7795E+01E
 Epicentro: ZAPATOCA - SANTANDER                                               3
 ACTION:UP  11-03-28 15:06 OP:jfem STATUS:               ID:20110207232437 L   I
 2011-02-07-2319-51S.COL___137                                                 6
 STAT SP IPHASW D HRMM SECON CODA AMPLIT PERI AZIMU VELO SNR AR TRES W  DIS CAZ7
 BTL  SZ EP   1   2324 56.35                             173     0.1 7   18   1 
 BAR2 SZ EP   2   2324 56.12                             171    -0.2 5   21 153 
 BAR2 SZ ES   2   2325 11.39                             171     0.0 5   21 153 
 BAR2 SZ I        2325 12.96        17.3 0.29                            21 153 
 RUS  HZ EP   2   2325  0.34                             144     0.0 5   98 168 
 RUS  HE ES   1   2325 18.61                             144     0.0 7   98 168 
 RUS  HZ I        2325 20.04         5.2 0.26                            98 168 
 GRA  SZ EP   1   2325  2.81                             134     0.0 7  135  22 
 GRA  SZ I        2325  4.04        10.9 0.79                           135  22 
 CHI  HZ EP   2   2325 13.91                             117     0.2 4  241 192 
 CHI  HE ES   2   2325 42.29                             117    -0.1 4  241 192 
 CHI  HZ I        2325 53.06         2.4 0.73                           241 192 
                                                                                
