 2011  5 7 2103 12.8 L   6.772 -73.113152.5  RSN 21 0.3 4.2LRSN                1
 GAP=129        0.62       2.2     3.1  3.1 -0.3234E+01  0.1752E+01  0.1341E+01E
 Epicentro: LOS SANTOS - SANTANDER                                             3
 ACTION:UP  11-06-29 08:51 OP:tino STATUS:               ID:20110507210312 L   I
 2011-05-07-2101-32S.COL___133                                                 6
 STAT SP IPHASW D HRMM SECON CODA AMPLIT PERI AZIMU VELO SNR AR TRES W  DIS CAZ7
 BAR2 SZ IP       21 3 33.20                             172     0.010   21 201 
 BAR2 SZ ES   1   21 3 48.96                             172    -0.2 7   21 201 
 BAR2 SZ I        21 3 51.37      4573.0 0.37                            21 201 
 BTL  SZ EP   1   21 3 33.38                             171     0.1 7   24 313 
 BTL  SZ ES   1   21 3 49.18                             171    -0.1 7   24 313 
 GIR2 SZ IP       21 3 33.30                             166    -0.110   35 345 
 GIR2 SZ ES   1   21 3 48.91                             166    -0.6 7   35 345 
 BRR  HZ IP     C 21 3 35.11                             152     0.110   76 299 
 BRR  HE ES   1   21 3 52.48                             152     0.2 7   76 299 
 BRR  HZ I        21 3 55.01      2099.1 0.15                            76 299 
 PAM  SZ IP     D 21 3 36.02                             152     0.210   78  36 
 PAM  SE ES   1   21 3 53.57                             152    -0.1 7   78  36 
 RUS  HZ IP     D 21 3 37.06                             146     0.010   97 178 
 RUS  HN ES   1   21 3 55.82                             146    -0.1 7   97 178 
 RUS  HZ I        21 3 57.21      1963.3 0.36                            97 178 
 BRI  SZ IP       21 3 37.75                             142     0.310  110  18 
 BRI  SZ ES   1   21 3 56.72                             142     0.0 7  110  18 
 BRI  SZ I        21 4  1.83      1367.8 0.39                           110  18 
 GUE  SZ EP   1   21 3 38.31                             140     0.0 7  119  10 
 GRA  SZ IP       21 3 39.03                             138     0.210  128  16 
 GRA  SZ I        21 3 40.63      1603.2 0.42                           128  16 
 GRA  SZ ES   1   21 3 59.12                             138     0.0 7  128  16 
 OCA  SZ EP   1   21 3 41.73                             130    -0.3 7  164 352 
 OCA  SZ ES   1   21 4  4.93                             130     0.2 7  164 352 
 OCA  SZ I        21 4 11.11      2247.4 0.48                           164 352 
 NOR  SZ EP   1   21 3 48.95                             120    -0.1 6  236 236 
 NOR  SN ES   1   21 4 17.09                             120    -0.3 6  236 236 
 HEL  HZ EP   1   21 3 54.01                             116     0.3 6  275 257 
 HEL  HZ I        21 4 31.65       703.1 0.33                           275 257 
 VIL  SZ EP   1   21 3 56.05                             113    -0.3 5  301 192 
 VIL  SN ES   1   21 4 30.76                             113     0.5 5  301 192 
 VIL  SZ I        21 4 41.21       737.9 0.45                           301 192 
 GUY  SZ EP   1   21 3 57.27                             113     0.1 5  305 236 
 GUY  SZ I        21 4 44.17      1669.2 0.48                           305 236 
 RREF HZ EP   1   21 3 59.42                             112     0.1 5  323 230 
 RREF HN ES   1   21 4 35.17                             112    -0.5 5  323 230 
 RREF HZ I        21 4 40.51       869.6 0.61                           323 230 
 DBB  SZ EP   1   21 4  1.13                             110     0.1 5  343 275 
 DBB  SZ ES   1   21 4 37.88                             110    -0.7 5  343 275 
 TOL  SZ EP   1   21 4  1.91                             110     0.5 5  344 225 
 TOL  SZ ES   1   21 4 40.15                             110     0.8 5  344 225 
 SDV  BZ EP   1   21 4  2.34                             109    -0.7 5  360  49 
 SDV  BZ I        21 4  3.77       204.2 0.46                           360  49 
 PRA  HZ EP   1   21 4  6.37                             107    -0.1 4  391 210 
 PRA  HN ES   1   21 4 48.58                             107     0.2 4  391 210 
 SJA  SZ EP   1   21 4  6.69                             107    -0.7 4  398 194 
 SJA  SZ I        21 5  1.13      1862.4 0.43                           398 194 
 BET  SZ EP   1   21 4 21.12                             102    -0.7 3  521 210 
                                                                                
