 2014  7 7 2207 49.2 L   6.813 -73.203143.3  RSN 12 0.4 1.7LRSN                1
 GAP=129        0.93       2.7     3.5  5.0 -0.1700E+01  0.5488E+01  0.1217E+01E
 Epicentro: ZAPATOCA - SANTANDER                                               3
 ACTION:UPD 15-03-16 20:42 OP:nd   STATUS:               ID:20140707220750dL   I
 OLDACT:REG 14-07-08 02:50 OP:spq  STATUS:               ID:20140707215819     3
 2014-07-07-2158-19M.COL___268                                                 6
 STAT SP IPHASW D HRMM SECON CODA AMPLIT PERI AZIMU VELO AIN AR TRES W  DIS CAZ7
 BAR2 SZ EP       22 8  9.37                             170    0.8210 24.6 175 
 BAR2 SZ ES   1   22 8 23.24                             170   -0.40 7 24.6 175 
 BAR2 SZ I        22 8 26.32         9.3 0.27            169           24.6 175 
 BRR  HZ EP       22 8 10.23                             154    0.5010 64.9 300 
 BRR  HE ES       22 8 25.55                             154   -0.1910 64.9 300 
 BRR  HZ I        22 8 34.92         8.3 0.30            153           64.9 300 
 PAM  SZ EP       22 8 10.92                             149   -0.4110 80.5  44 
 PAM  SN ES       22 8 28.74                             149    0.1410 80.5  44 
 PAM  SZ I        22 8 32.52         6.3 0.19            157           80.5  44 
 RUS  HZ EP       22 8 12.61                             143   -0.2410  103 173 
 RUS  HN ES       22 8 31.08                             143   -0.2310  103 173 
 RUS  HZ I        22 8 33.05         7.2 0.30            147            103 173 
 PTB  HZ EP       22 8 15.75                             133    0.33 9  142 258 
 PTB  HE ES       22 8 35.95                             133    0.07 9  142 258 
 PTB  HZ I        22 8 39.92         6.8 0.14            134            142 258 
 SPBC HZ EP       22 8 16.91                             129   -0.33 9  160 217 
 SPBC HN ES       22 8 39.46                             129    0.34 9  160 217 
 SPBC HZ I        22 8 46.74         7.3 0.18            132            160 217 
 ZAR  HZ EP       22 8 20.86                             123    0.05 9  198 292 
 ZAR  HN ES       22 8 45.64                             123    0.16 9  198 292 
 ZAR  HZ I        22 8 53.58         5.8 0.25            125            198 292 
 NOR  HZ EP       22 8 24.92                             118    0.60 8  230 233 
 NOR  HE ES       22 8 51.82                             118    0.10 8  230 233 
 NOR  HZ I        22 8 58.70         3.6 0.31            121            230 233 
 SML  HZ EP       22 8 24.74                             117   -0.51 8  240 337 
 SML  HE ES       22 8 52.91                             117   -0.47 8  240 337 
 SML  HZ I        22 8 55.45         5.2 0.08            121            240 337 
 GUY2CHZ EP       22 8 32.28                             112    0.08 7  297 234 
 GUY2CHN ES       22 9  5.07                             112   -0.68 7  297 234 
 GUY2CHZ I        22 9 15.03         2.2 0.54                           297 234 
 RREF HZ EP       22 8 35.23                             111    0.44 7  318 228 
 RREF HN ES       22 9 10.01                             111   -0.35 7  318 228 
 RREF HZ I        22 9 20.90         2.2 0.48            114            318 228 
 PRA  HZ EP       22 8 42.29                             106   -0.13 6  390 209 
 PRA  HN ES       22 9 23.32                             106   -0.61 6  390 209 
 PRA  HZ I        22 9 31.46         2.9 0.43            109            390 209 
                                                                                
