 2010  6 7 2130 30.4 L   6.721 -72.589126.0  RSN  4 0.4 1.7LRSN                1
 GAP=219        0.64      28.1   104.3 46.2 -0.2880E+04 -0.4628E+04  0.1266E+04E
 Epicentro: CARCASI - SANTANDER                                                3
 ACTION:UP  10-08-24 10:08 OP:vdl  STATUS:               ID:20100607213030 L   I
 2010-06-07-2127-10S.COL___111                                                 6
 STAT SP IPHASW D HRMM SECON CODA AMPLIT PERI AZIMU VELO SNR AR TRES W  DIS CAZ7
 BAR2 SZ EP   1   2130 49.98                             153     0.5 7   67 258 
 BAR2 SZ ES   2   2131  4.48                             153     0.0 5   67 258 
 GUE  SZ ES   2   2131 13.18                             133     0.1 5  128 343 
 GRA  SZ ES   2   2131 12.46                             132    -0.7 5  131 350 
 CHI  HZ EP   1   2131  8.68                             112    -0.1 6  264 209 
 CHI  HN ES   1   2131 38.34                             112    -0.4 6  264 209 
 CHI  HZ I        2131 42.97         3.3 0.41                           264 209 
                                                                                
