 2015 12 7 2231 14.2 L   6.759 -73.138137.1  RSN 15 0.4 2.3LRSN                1
 GAP=139        0.90       3.4     3.9  5.2 -0.2298E+01  0.7792E+01  0.3662E+01E
 Epicentro: LOS SANTOS - SANTANDER                                             3
 ACTION:UPD 16-02-04 15:03 OP:cam  STATUS:               ID:20151207223114 L   I
 OLDACT:REG 15-12-08 02:37 OP:drio STATUS:               ID:20151207222748     3
 2015-12-07-2227-48M.COL___329                                                 6
 STAT SP IPHASW D HRMM SECON CODA AMPLIT PERI AZIMU VELO AIN AR TRES W  DIS CAZ7
 BAR2 EZ IP     C 2231 32.62                             172   -0.1310 19.0 195 
 BAR2 EZ ES       2231 47.15                             172   -0.0310 19.0 195 
 BAR2 EZ I        2231 50.90        35.8 0.44            168           19.0 195 
 BRR  HZ IP     C 2231 34.46                             150   -0.1810 74.2 301 
 BRR  HE ES       2231 51.15                             150    0.6010 74.2 301 
 BRR  HZ I        2231 56.76        45.5 0.26            148           74.2 301 
 PAM  EZ EP       2231 35.40                             148   -0.3410 80.4  37 
 PAM  EN ES       2231 52.39                             148   -0.1110 80.4  37 
 PAM  EZ I        2231 54.59        63.5 0.48            155           80.4  37 
 RUS  HZ EP       2231 36.82                             143    0.0110 96.0 176 
 RUS  HE ES       2231 54.47                             143    0.0610 96.0 176 
 RUS  HZ I        2231 56.51        12.1 0.22            146           96.0 176 
 PTB  HZ EP       2231 39.78                             130   -0.73 9  148 261 
 PTB  HN ES   4   2231 59.65                             130   -1.36 0  148 261 
 PTB  HZ I        2232  5.50        34.3 0.36            130            148 261 
 SPBC HZ EP       2231 42.38                             128    0.58 9  160 220 
 SPBC HN ES       2232  3.38                             128    0.08 9  160 220 
 SPBC HZ I        2232  6.02        23.6 0.20            129            160 220 
 OCA  HZ EP   4   2231 40.67                             127   -1.67 0  165 353 
 OCA  HN ES   4   2232  2.15                             127   -2.11 0  165 353 
 ZAR  HZ EP   4   2231 46.97                             120    0.57 0  207 293 
 ZAR  HE ES       2232 11.55                             120    0.06 8  207 293 
 ZAR  HZ I        2232 16.50        44.6 0.32            121            207 293 
 NOR  HZ EP       2231 49.31                             117    0.04 8  233 235 
 NOR  HE ES       2232 15.95                             117   -0.64 8  233 235 
 NOR  HZ I        2232 26.82        11.6 0.16            118            233 235 
 SML  HZ EP   4   2231 48.66                             115   -2.23 0  248 336 
 SML  HN ES   4   2232 16.35                             115   -3.13 0  248 336 
 SML  HZ I        2232 25.58        27.0 0.26            118            248 336 
 HEL  HZ EP       2231 54.34                             113    0.35 8  272 257 
 HEL  HE ES   4   2232 23.18                             113   -1.82 0  272 257 
 HEL  HZ I        2232 32.24         9.8 0.34            115            272 257 
 URE  HZ EP   4   2231 56.87                             112    1.69 0  286 293 
 URE  HN ES   4   2232 22.80                             112   -4.32 0  286 293 
 URE  HZ I        2232 26.15        21.1 0.12            113            286 293 
 GUY2CHZ EP       2231 57.87                             111    0.63 7  299 236 
 GUY2CHN ES       2232 30.38                             111   -0.40 7  299 236 
 GUY2CHZ I        2232 39.27         6.5 0.42                           299 236 
 ELA  HZ EP   4   2232  0.24                             109   -0.23 0  327 230 
 ELA  HN ES   4   2232 34.81                             109   -1.72 0  327 230 
 ELA  HZ I        2232 46.38         6.6 0.40            111            327 230 
 PRA  HZ EP       2232  7.56                             105    0.51 6  388 210 
 PRA  HN ES       2232 48.45                             105    0.20 6  388 210 
 PRA  HZ I        2232 54.71         8.1 0.20            107            388 210 
 SJC  HZ EP   4   2232  7.38                             104   -2.65 0  414 327 
 SJC  HN ES   4   2232 48.55                             104   -5.01 0  414 327 
 SJC  HZ I        2232 51.99         6.6 0.42            106            414 327 
                                                                                
