 2016  4 7 2141 36.1 L   6.795 -73.130140.6  RSN  8 0.2 1.9LRSN                1
 GAP=139        0.56       2.3     2.3  3.7 -0.6511E+00  0.3284E+01  0.1677E+01E
 Epicentro: LOS SANTOS - SANTANDER                                             3
 ACTION:UPD 16-05-05 14:19 OP:rebc STATUS:               ID:20160407214136 L   I
 OLDACT:REG 16-04-08 03:40 OP:cara STATUS:               ID:20160407213740     3
 2016-04-07-2137-40M.COL___325                                                 6
 STAT SP IPHASW D HRMM SECON CODA AMPLIT PERI AZIMU VELO AIN AR TRES W  DIS CAZ7
 BAR2 EZ EP       2141 55.57                             170    0.4610 23.1 195 
 BAR2 EZ ES       2142 10.07                             170    0.1410 23.1 195 
 BAR2 EZ I        2142 11.24        33.5 0.18            169           23.1 195 
 PAM  EZ EP       2141 57.87                             150    0.1410 76.7  38 
 PAM  EZ I        2141 58.16        26.1 0.22            153           76.7  38 
 PAM  EN ES       2142 14.28                             150   -0.3210 76.7  38 
 RUS  HZ EP       2141 59.02                             143   -0.2810 99.9 177 
 RUS  HN ES       2142 17.29                             143   -0.1010 99.9 177 
 RUS  HZ I        2142 18.75         9.9 0.32            143           99.9 177 
 PTB  HZ EP       2142  2.92                             130    0.11 9  149 259 
 PTB  HN ES       2142 23.61                             130   -0.02 9  149 259 
 PTB  HZ I        2142 25.22        11.2 0.24            130            149 259 
 ZAR  HN ES       2142 33.66                             121    0.05 8  206 292 
 ZAR  HZ I        2142 39.06         8.9 0.52            121            206 292 
 NOR  HZ EP       2142 11.63                             117   -0.03 8  236 235 
 NOR  HE ES       2142 39.40                             117    0.01 8  236 235 
 NOR  HZ I        2142 42.79         5.2 0.24            117            236 235 
 CHI  HZ EP       2142 13.52                             116    0.01 8  249 196 
 CHI  HN ES       2142 42.92                             116    0.23 8  249 196 
 CHI  HZ I        2142 48.27         2.7 0.30            116            249 196 
 GUY2CHZ EP       2142 19.35                             111   -0.26 7  302 235 
 GUY2CHN ES       2142 53.24                             111   -0.29 7  302 235 
 GUY2CHZ I        2143  5.88         2.5 0.48                           302 235 
                                                                                
