 2012  3 7 2033 45.1 L   5.804 -73.786100.0  RSN  7 2.0 2.1LRSN                1
 GAP= 95        4.30      21.4    18.1 50.4 -0.3484E+02  0.2942E+03  0.4296E+02E
 ACTION:UP  12-03-31 23:18 OP:EP   STATUS:               ID:20120307203345 L   I
 2012-03-07-2030-00M.COL___184                                                 6
 STAT SP IPHASW D HRMM SECON CODA AMPLIT PERI AZIMU VELO SNR AR TRES W  DIS CAZ7
 RUS  HZ EP   1   2034  1.80                             148    -1.0 8   78  83 
 RUS  HN ES   1   2034 16.40                             148    -0.2 8   78  83 
 PTB  HZ EP   1   2034  2.67                             137    -2.3 7  110 318 
 PTB  HN ES   1   2034 20.24                             137    -0.2 7  110 318 
 BAR2 SZ ES   1   2034 20.01                             139    -0.9 7  110  37 
 BAR2 SZ I   L    2034 21.18        48.9 0.40                    0.210  110  37 
 NOR  SN ES   1   2034 24.28                             131     1.5 7  123 258 
 CHI  HZ EP   1   2034  6.66                             129    -0.8 7  130 177 
 BRR  HZ EP   1   2034  6.33                             129    -2.1 7  144   3 
 BRR  HZ I   L    2034 13.03        11.3 0.37                    4.610  144   3 
 ZAR  HN ES   1   2034 39.19                             116    -2.7 6  221 328 
                                                                                
