 2016 11 7 2248 30.6 L   6.714 -73.168136.2  RSN  8 0.4 1.7LRSN                1
 GAP=150        1.04       3.9     4.5  6.4 -0.2651E+01  0.4904E+01  0.8382E+01E
 Epicentro: VILLANUEVA - SANTANDER                                             3
 OLDACT:REG 16-11-08 03:24 OP:cog  STATUS:               ID:20161107224750     3
 ACTION:UPD 17-10-26 21:05 OP:lp   STATUS:               ID:20161107224830 L   I
 2016-11-07-2248-00M.COL___349                                                 6
 STAT SP IPHASW D HRMM SECON CODA AMPLIT PERI AZIMU VELO AIN AR TRES W  DIS CAZ7
 BAR2 EZ EP       2248 48.84                             174   -0.0510 13.5 187 
 BAR2 EZ ES       2249  3.43                             174    0.2610 13.5 187 
 BAR2 EZ I        2249  5.09        16.4 0.36            167           13.5 187 
 BRR  HZ EP       2248 50.85                             150   -0.0310 74.2 306 
 BRR  HN ES       2249  6.97                             150    0.2610 74.2 306 
 BRR  HZ I        2249 11.00        10.3 0.28            148           74.2 306 
 PAM  EZ EP       2248 52.02                             146   -0.3510 86.4  37 
 PAM  EN ES       2249  9.17                             146   -0.2010 86.4  37 
 PAM  EZ I        2249  9.91         3.6 0.22            155           86.4  37 
 PTB  HZ EP       2248 55.76                             131   -0.65 9  144 262 
 PTB  HN ES       2249 16.92                             131    0.37 9  144 262 
 PTB  HZ I        2249 31.43         4.2 2.24            130            144 262 
 SPBC HZ EP       2248 58.16                             128    0.66 9  154 220 
 SPBC HN ES       2249 18.39                             128   -0.10 9  154 220 
 SPBC HZ I        2249 22.49         8.9 0.10            128            154 220 
 ZAR  HZ EP       2249  2.87                             120    0.29 8  206 295 
 ZAR  HN ES       2249 26.97                             120   -0.57 8  206 295 
 ZAR  HZ I        2249 32.08         4.7 0.16            121            206 295 
 CHI  HZ EP       2249  7.36                             116    0.68 8  239 195 
 CHI  HN ES       2249 34.29                             116   -0.54 8  239 195 
 CHI  HZ I        2249 41.69         3.2 0.40            118            239 195 
 PRA  HZ EP       2249 23.35                             105    0.69 6  382 210 
 PRA  HN ES       2250  2.54                             105   -0.75 6  382 210 
 PRA  HZ I        2250 16.70         5.9 1.98            107            382 210 
                                                                                
