 2011 12 7 2056  5.4 L   6.739 -73.096141.0  RSN  4 0.1 1.6LRSN                1
 GAP=146        0.36       2.8     4.0  5.2 -0.1335E+01  0.2627E+01  0.3667E+01E
 Epicentro: JORDAN - SANTANDER                                                 3
 ACTION:UPD 12-07-13 16:14 OP:ep   STATUS:               ID:20111207205605 L   I
 2011-12-07-2050-00M.COL___170                                                 6
 STAT SP IPHASW D HRMM SECON CODA AMPLIT PERI AZIMU VELO AIN AR TRES W  DIS CAZ7
 BAR2 SZ EP       2056 24.35                             172   -0.0210 18.8 211 
 BAR2 SZ I        2056 45.06         9.3 0.74                          18.8 211 
 BRR  HZ EP       2056 26.39                             149   -0.1310 79.3 301 
 BRR  HZ I        2056 26.68        17.4 0.12                          79.3 301 
 BRR  HN ES   2   2056 43.29                             149    0.29 5 79.3 301 
 PAM  SZ EP       2056 27.32                             149    0.0810 79.6  33 
 PAM  SN ES   1   2056 44.16                             149   -0.12 7 79.6  33 
 RUS  HZ EP       2056 28.26                             145    0.0810 93.6 179 
 RUS  HN ES   2   2056 45.87                             145   -0.07 5 93.6 179 
 RUS  HZ I        2056 47.40         2.3 0.48                          93.6 179 
                                                                                
