 2016  8 7 2305 10.0 L   6.190 -73.674108.0  RSN  7 0.3 1.6LRSN                1
 GAP=159        0.67       3.5     2.4  4.9  0.1825E+00  0.3886E+01 -0.3994E+01E
 Epicentro: LA PAZ - SANTANDER                                                 3
 ACTION:UPD 16-10-29 15:33 OP:rebc STATUS:               ID:20160807230510 L   I
 OLDACT:REG 16-08-08 12:22 OP:dnl  STATUS:               ID:20160807225733     3
 2016-08-07-2258-00M.COL___365                                                 6
 STAT SP IPHASW D HRMM SECON CODA AMPLIT PERI AZIMU VELO AIN AR TRES W  DIS CAZ7
 RUS  HZ IP       23 5 27.92                             144   -0.1010 73.2 117 
 RUS  HE ES       23 5 42.29                             144    0.1810 73.2 117 
 RUS  HZ I        23 5 43.59         7.2 0.26                          73.2 117 
 SPBC HZ IP       23 5 27.51                             143   -0.0110 74.0 217 
 SPBC HN ES       23 5 41.04                             143   -0.1710 74.0 217 
 SPBC HZ I        23 5 43.22        21.1 0.30                          74.0 217 
 PTB  HZ EP       23 5 28.70                             135   -0.3710 94.8 294 
 PTB  HE ES       23 5 44.08                             135    0.1010 94.8 294 
 PTB  HZ I        23 5 46.61         6.7 0.18                          94.8 294 
 NOR  HZ EP       23 5 34.00                             121   -0.37 9  149 242 
 NOR  HE ES       23 5 53.70                             121    0.29 9  149 242 
 NOR  HZ I        23 5 55.50         9.6 0.12                           149 242 
 ZAR  HZ IP       23 5 39.69                             114    0.48 9  195 318 
 ZAR  HN ES   4   23 6  3.58                             114    1.56 0  195 318 
 ZAR  HZ I        23 6  5.28         7.9 0.24                           195 318 
 HEL  HZ EP       23 5 40.75                             113   -0.11 8  205 270 
 HEL  HE ES       23 6  4.71                             113   -0.26 8  205 270 
 HEL  HZ I        23 6  9.01         4.3 0.46                           205 270 
 GUY2CHZ IP       23 5 42.36                             112    0.19 8  216 240 
 GUY2CHE ES       23 6  7.59                             112    0.31 8  216 240 
 GUY2CHZ I        23 6 13.84         2.8 0.30                           216 240 
                                                                                
