 2014 11 7 2110 54.7 L   6.796 -73.137148.4  RSN 18 0.4 2.2LRSN                1
 GAP= 72        0.87       2.8     2.9  4.4 -0.2666E+01  0.8694E+00  0.3053E+01E
 Epicentro: LOS SANTOS - SANTANDER                                             3
 ACTION:UPD 14-12-19 15:40 OP:nd   STATUS:               ID:20141107211054 L   I
 OLDACT:REG 14-11-08 04:30 OP:spq  STATUS:               ID:20141107210748     3
 2014-11-07-2107-48M.COL___295                                                 6
 STAT SP IPHASW D HRMM SECON CODA AMPLIT PERI AZIMU VELO AIN AR TRES W  DIS CAZ7
 BAR2 SZ EP       2111 14.63                             171   -0.0410 23.1 193 
 BAR2 SZ ES   1   2111 29.73                             171   -0.50 7 23.1 193 
 BRR  HZ EP     C 2111 16.39                             153    0.1710 72.3 298 
 BRR  HE ES       2111 33.75                             153    0.7610 72.3 298 
 BRR  HZ I        2111 34.78        39.3 0.16            143           72.3 298 
 PAM  SZ EP     C 2111 17.36                             151    0.1510 77.1  39 
 PAM  SN ES       2111 34.70                             151   -0.0410 77.1  39 
 PAM  SZ I        2111 36.90        18.7 0.30            147           77.1  39 
 RUS  HZ EP     D 2111 18.50                             144   -0.2110  100 177 
 RUS  HN ES       2111 37.36                             144   -0.0510  100 177 
 RUS  HZ I        2111 38.59        37.3 0.17            141            100 177 
 PTB  HZ EP       2111 21.38                             132   -0.61 9  149 259 
 PTB  HE ES       2111 42.70                             132   -0.56 9  149 259 
 PTB  HZ I        2111 48.07        28.0 0.30            124            149 259 
 TAM  HZ EP       2111 22.92                             131    0.40 9  154 105 
 TAM  HN ES   1   2111 44.47                             131    0.28 7  154 105 
 TAM  HZ I        2111 45.16        11.4 0.24            128            154 105 
 OCA  HZ EP   1   2111 22.72                             130   -0.57 7  161 353 
 OCA  HN ES   1   2111 45.68                             130    0.11 7  161 353 
 OCA  HZ I        2111 48.20        19.4 0.47            123            161 353 
 SPBC HZ EP     C 2111 23.62                             130    0.16 9  163 219 
 SPBC HN ES   1   2111 45.46                             130   -0.41 7  163 219 
 SPBC HZ I        2111 46.92        34.6 0.20            123            163 219 
 NOR  HZ EP       2111 30.82                             119    0.15 8  235 235 
 NOR  HE ES       2111 58.48                             119   -0.23 8  235 235 
 NOR  HZ I        2112  3.49        15.5 0.16            113            235 235 
 CHI  HZ EP       2111 32.58                             118    0.02 8  249 195 
 CHI  HN ES       2112  2.01                             118   -0.06 8  249 195 
 CHI  HZ I        2112  5.70         9.9 0.32            113            249 195 
 HEL  HZ EP   4   2111 30.56                             115   -4.61 0  273 256 
 GUY2CHN ES   1   2112 13.18                             113    0.49 5  302 235 
 GUY2CHZ I        2112 26.81        10.2 0.58                           302 235 
 CBOC HZ EP       2111 42.69                             110    0.84 7  334 252 
 CBOC HZ I        2112 27.09         2.9 0.22            105            334 252 
 TOL  SZ EP   4   2111 44.33                             110    1.19 0  344 225 
 TOL  SN ES   4   2112 22.24                             110    1.34 0  344 225 
 MON  HZ EP   4   2111 48.39                             109    4.44 0  355 308 
 MON  HN ES   4   2112 20.18                             109   -2.17 0  355 308 
 MON  HZ I        2112 36.74         5.8 0.48            104            355 308 
 ANIL HZ EP   4   2111 46.76                             109    2.08 0  358 225 
 ANIL HE ES   4   2112 25.36                             109    1.71 0  358 225 
 ANIL HZ I        2112 28.56         3.2 0.40            104            358 225 
 SDV  BZ EP       2111 43.99                             109   -0.82 6  360  50 
 SDV  BE ES   4   2112 21.43                             109   -2.45 0  360  50 
 SDV  BZ I        2112 26.58         2.7 0.55            104            360  50 
 PRA  HZ EP       2111 48.33                             107   -0.03 6  392 210 
 PRA  HN ES       2112 30.13                             107   -0.06 6  392 210 
 PRA  HZ I        2112 36.69        13.7 0.38            103            392 210 
 ORTC HZ EP       2111 49.13                             107    0.36 6  396 216 
 ORTC HE ES       2112 31.40                             107    0.48 6  396 216 
 ORTC HZ I        2112 37.92         9.8 0.68            102            396 216 
 SJC  HZ EP   4   2111 48.72                             106   -1.76 0  410 327 
 SJC  HE ES   4   2112 29.75                             106   -4.22 0  410 327 
 SJC  HZ I        2112 34.01         3.9 0.58            101            410 327 
                                                                                
