 2016  7 7 2050 48.7 L   6.713 -73.205134.7  RSN  6 0.5 1.8LRSN                1
 GAP=221        1.16       6.9     6.8  9.5  0.2176E+02  0.2697E+02  0.1588E+02E
 Epicentro: VILLANUEVA - SANTANDER                                             3
 ACTION:UPD 17-03-29 16:48 OP:lp   STATUS:               ID:20160707205048 L   I
 OLDACT:REG 16-07-08 03:40 OP:ak   STATUS:               ID:20160707204744     3
 2016-07-07-2047-44M.COL___338                                                 6
 STAT SP IPHASW D HRMM SECON CODA AMPLIT PERI AZIMU VELO AIN AR TRES W  DIS CAZ7
 BAR2 EZ EP   1   2051  6.20                             174   -0.66 7 13.6 169 
 BAR2 EZ ES       2051 20.28                             174   -0.7210 13.6 169 
 BAR2 EZ I        2051 22.33        16.9 0.15            174           13.6 169 
 BRR  HE EP   1   2051  9.05                             151    0.38 7 70.9 308 
 BRR  HE ES       2051 24.92                             151    0.6910 70.9 308 
 BRR  HE I        2051 25.64        40.7 0.22            150           70.9 308 
 RUS  HZ EP       2051 10.62                             144   -0.1310 91.8 172 
 RUS  HN ES       2051 28.65                             144    0.7210 91.8 172 
 RUS  HZ I        2051 30.78         8.2 0.28            145           91.8 172 
 PTB  HZ EP   2   2051 13.40                             131   -0.66 5  140 262 
 PTB  HN ES       2051 33.39                             131   -0.43 9  140 262 
 PTB  HZ I        2051 36.26         7.7 0.18            131            140 262 
 ZAR  HZ EP   2   2051 20.97                             120    0.73 4  202 295 
 ZAR  HN ES       2051 44.75                             120   -0.08 9  202 295 
 ZAR  HZ I        2051 51.08         5.1 0.06            121            202 295 
 GUY2CHZ EP   2   2051 30.56                             111   -0.04 4  290 236 
 GUY2CHN ES       2052  3.37                             111    0.10 7  290 236 
 GUY2CHZ I        2052 15.29         2.0 0.62                           290 236 
                                                                                
