 2011  3 7 2020 39.3 L   6.776 -73.068144.8  RSN 11 0.4 2.5LRSN                1
 GAP=142        0.95       3.7     7.1  7.7 -0.5998E+01  0.2428E+02 -0.2331E+01E
 Epicentro: LOS SANTOS - SANTANDER                                             3
 ACTION:UP  11-06-16 14:32 OP:jfem STATUS:               ID:20110307202039 L   I
 2011-03-07-2018-37S.COL___135                                                 6
 STAT SP IPHASW D HRMM SECON CODA AMPLIT PERI AZIMU VELO SNR AR TRES W  DIS CAZ7
 BAR2 SZ EP       2020 58.99                             170     0.210   24 212 
 BAR2 SZ ES   1   2021 13.40                             170    -0.6 7   24 212 
 BAR2 SZ I        2021 15.49        96.6 0.21                            24 212 
 RUS  HZ EP       2021  2.85                             144     0.110   98 181 
 RUS  HE ES   1   2021 21.49                             144     0.5 7   98 181 
 RUS  HZ I        2021 23.33        41.7 0.44                            98 181 
 GRA  SZ EP       2021  3.90                             137    -0.510  126  13 
 GRA  SZ ES   1   2021 24.47                             137     0.4 7  126  13 
 GRA  SZ I        2021 26.03        36.0 0.38                           126  13 
 OCA  SZ EP       2021  7.99                             129     0.1 9  164 350 
 OCA  SZ I        2021 33.81        41.2 0.26                           164 350 
 YOP  SZ EP   1   2021  9.35                             127     0.7 7  173 155 
 YOP  SE ES   1   2021 31.00                             127    -0.6 7  173 155 
 YOP  SZ I        2021 37.61        13.0 0.33                           173 155 
 CHI  HZ EP   1   2021 16.73                             117    -0.2 6  248 197 
 CHI  HE ES   2   2021 45.58                             117    -0.7 4  248 197 
 CHI  HZ I        2021 54.41        14.3 0.58                           248 197 
 HEL  HZ EP   1   2021 20.29                             114     0.0 6  280 257 
 HEL  HZ I        2021 56.92        15.5 0.23                           280 257 
 GUY  SZ EP   1   2021 23.59                             112     0.1 5  307 236 
 GUY  SE ES   1   2021 58.45                             112     0.5 5  307 236 
 GUY  SZ I        2022  6.37        31.8 0.45                           307 236 
 DBB  SZ EP   1   2021 27.14                             109    -0.6 5  348 275 
 TOL  SZ EP   1   2021 28.37                             109     0.4 5  348 226 
 PRA  HZ EP   1   2021 32.46                             106    -0.5 4  394 211 
 PRA  HE ES   1   2022 14.43                             106    -0.4 4  394 211 
                                                                                
