 2016 11 7 2316 44.1 L   6.747 -73.159136.0  RSN 15 0.6 2.4LRSN                1
 GAP= 95        1.04       4.3     3.1  5.8 -0.1664E+01  0.3091E+01  0.9240E+01E
 Epicentro: LOS SANTOS - SANTANDER                                             3
 ACTION:UPD 17-10-26 21:05 OP:lp   STATUS:               ID:20161107231644 L   I
 OLDACT:UP  16-11-08 04:36 OP:cog  STATUS:               ID:20161107230749     3
 OLDACT:REG 16-11-08 03:27 OP:cog  STATUS:               ID:20161107230749     3
 2016-11-07-2308-00M.COL___349                                                 6
 STAT SP IPHASW D HRMM SECON CODA AMPLIT PERI AZIMU VELO AIN AR TRES W  DIS CAZ7
 BAR2 EZ IP     C 2317  2.64                             172    0.1610 17.3 189 
 BAR2 EZ ES       2317 17.36                             172    0.5710 17.3 189 
 BAR2 EZ I        2317 18.83        94.2 0.18            166           17.3 189 
 BRR  HZ EP       2317  4.47                             150    0.1310 72.9 303 
 BRR  HE ES       2317 20.86                             150    0.7610 72.9 303 
 BRR  HZ I        2317 24.30        35.1 0.26            152           72.9 303 
 PAM  EZ EP       2317  5.39                             147   -0.2910 82.9  38 
 PAM  EN ES       2317 21.79                             147   -0.6910 82.9  38 
 PAM  EZ I        2317 25.21        21.2 0.53            156           82.9  38 
 PTB  HZ EP       2317  9.28                             130   -0.81 9  145 261 
 PTB  HN ES       2317 29.89                             130   -0.45 9  145 261 
 PTB  HZ I        2317 33.74        29.6 0.20            131            145 261 
 TAM  HZ EP       2317 10.91                             128   -0.15 9  155 103 
 TAM  HE ES       2317 32.39                             128    0.33 9  155 103 
 TAM  HZ I        2317 33.79        16.4 0.42            132            155 103 
 SPBC HZ EP       2317 11.62                             128    0.25 9  158 220 
 SPBC HE ES       2317 31.88                             128   -0.74 9  158 220 
 SPBC HZ I        2317 38.29        41.5 0.14            127            158 220 
 ZAR  HZ EP       2317 15.84                             120   -0.22 9  205 294 
 ZAR  HE ES       2317 41.43                             120    0.46 9  205 294 
 ZAR  HZ I        2317 44.85        19.2 0.10            122            205 294 
 NOR  HZ EP       2317 19.04                             117    0.22 8  230 235 
 NOR  HN ES   3   2317 44.61                             117   -1.26 2  230 235 
 NOR  HZ I        2317 53.33        19.6 0.26            118            230 235 
 CHI  HZ EP   2   2317 20.90                             116    0.25 4  243 195 
 CHI  HN ES   2   2317 48.95                             116   -0.17 4  243 195 
 CHI  HZ I        2317 56.63        11.1 0.26            116            243 195 
 ROSC BZ EP   3   2317 22.73                             115    1.63 2  247 211 
 ROSC BN ES   3   2317 52.26                             115    2.32 2  247 211 
 ROSC BZ I        2317 58.50        21.5 0.30            116            247 211 
 URE  HZ EP   4   2317 23.31                             112   -1.54 0  285 293 
 URE  HN ES   4   2317 53.77                             112   -2.84 0  285 293 
 URE  HZ I        2318  1.07        13.6 0.10            114            285 293 
 ELA  HZ EP   4   2317 32.60                             109    2.57 0  324 230 
 ELA  HN ES   4   2318  4.34                             109   -1.48 0  324 230 
 ELA  HZ I        2318 18.01         8.8 0.30            110            324 230 
 PRA  HZ EP       2317 37.13                             105    0.48 6  386 210 
 PRA  HN ES   3   2318 19.45                             105    1.84 1  386 210 
 PRA  HZ I        2318 24.38        14.3 0.26            106            386 210 
 ORTC HZ EP       2317 37.40                             105    0.32 6  390 217 
 ORTC HE ES       2318 18.08                             105   -0.29 6  390 217 
 ORTC HZ I        2318 25.21         8.4 0.24            106            390 217 
 PAL  HZ EP       2317 38.59                             105    0.10 6  401 240 
 PAL  HE ES       2318 21.04                             105    0.16 6  401 240 
 PAL  HZ I        2318 25.71         5.8 0.38            106            401 240 
                                                                                
