 2012  5 7 2322 53.4 L   6.813 -73.174141.2  RSN  4 0.2 1.3LRSN                1
 GAP=144        0.43       3.4     3.3  4.8 -0.3544E+01  0.4476E+01 -0.1525E+01E
 Epicentro: LOS SANTOS - SANTANDER                                             3
 ACTION:UP  12-07-05 12:03 OP:pat  STATUS:               ID:20120507232253 L   I
 2012-05-07-2320-51M.COL___187                                                 6
 STAT SP IPHASW D HRMM SECON CODA AMPLIT PERI AZIMU VELO SNR AR TRES W  DIS CAZ7
 BAR2 SZ EP   1   2323 12.39                             170    -0.1 7   24 182 
 BAR2 SZ ES   1   2323 27.43                             170     0.0 7   24 182 
 PAM  SZ EP   1   2323 15.51                             150     0.3 7   78  42 
 PAM  SN ES   1   2323 32.06                             150    -0.1 7   78  42 
 RUS  HZ EP   1   2323 16.63                             142    -0.2 7  102 174 
 RUS  HN ES   1   2323 35.27                             142     0.2 7  102 174 
 RUS  HZ I        2323 36.74         3.1 0.31                           102 174 
 PTB  HZ EP   1   2323 19.76                             131     0.0 7  145 258 
 PTB  HN ES   1   2323 40.32                             131     0.0 7  145 258 
 PTB  HZ I        2323 42.60         2.6 0.20                           145 258 
                                                                                
