 2014  2 8 0243 40.1 L   7.225 -73.883 22.6  RSN  5 0.4 1.0LRSN                1
 GAP=104        0.90       4.0     3.2  4.0 -0.2625E+01  0.3650E+01 -0.7694E+01E
 Epicentro: PUERTO WILCHES - SANTANDER                                         3
 ACTION:UPD 14-03-10 08:08 OP:ep   STATUS:               ID:20140208024340 L   I
 OLDACT:REG 14-02-08 07:32 OP:mh   STATUS:               ID:20140208024000     3
 2014-02-08-0240-00M.COL___291                                                 6
 STAT SP IPHASW D HRMM SECON CODA AMPLIT PERI AZIMU VELO AIN AR TRES W  DIS CAZ7
 BRR  HZ IP     C  243 45.35                             132    0.0210 22.9 125 
 BRR  HN ES   1    243 49.74                             132    0.36 7 22.9 125 
 BRR  HZ I         243 50.47        18.6 0.17            131           22.9 125 
 PTB  HZ EP        243 55.81                             101   -0.1810 98.8 220 
 PTB  HE ES   1    244  7.81                             101   -0.55 7 98.8 220 
 PTB  HZ I         244  8.74         4.7 0.16            100           98.8 220 
 ZAR  HZ EP   4    243 54.69                              56   -3.07 0  112 285 
 ZAR  HN ES   1    244 12.17                              56    0.66 7  112 285 
 ZAR  HZ I         244 13.78         4.9 0.17             56            112 285 
 OCA  HN ES   1    244 14.91                              56   -0.59 7  128  29 
 RUS  HZ EP   1    244  6.50                              56    0.63 7  172 149 
 RUS  HE ES   1    244 25.76                              56   -0.18 7  172 149 
 RUS  HZ I         244 27.60         1.0 0.17             56            172 149 
                                                                                
