 2015  2 8 0738 35.4 L   6.821 -73.139145.2  RSN 26 0.7 2.9LRSN                1
 GAP= 53        1.79       4.1     4.4  7.3 -0.4188E+01  0.5978E+01  0.4803E+01E
 Epicentro: LOS SANTOS - SANTANDER                                             3
 ACTION:UPD 15-04-30 21:23 OP:nd   STATUS:               ID:20150208073835 L   I
 OLDACT:ARG 15-02-08 13:48 OP:stll STATUS:               ID:20150208073743     3
 2015-02-08-0737-43M.COL___293                                                 6
 STAT SP IPHASW D HRMM SECON CODA AMPLIT PERI AZIMU VELO AIN AR TRES W  DIS CAZ7
 BAR2 EZ IP     D  738 55.26                             169    0.2910 25.7 191 
 BAR2 EZ ES        739  9.81                             169   -0.4610 25.7 191 
 BAR2 EZ I         739 11.96       179.8 0.34            167           25.7 191 
 BRR  HZ IP     C  738 57.18                             152    0.7510 70.8 297 
 BRR  HN ES        739 13.75                             152    0.9010 70.8 297 
 BRR  HZ I         739 18.34       148.6 0.14            146           70.8 297 
 PAM  SZ IP     C  738 58.07                             151    0.6810 75.2  40 
 PAM  SZ I         738 58.42       299.2 0.20            152           75.2  40 
 PAM  SN ES        739 14.77                             151    0.2110 75.2  40 
 RUS  HZ IP     D  738 59.26                             143    0.0410  103 177 
 RUS  HN ES        739 17.91                             143    0.0810  103 177 
 RUS  HZ I         739 19.02        54.5 0.26            143            103 177 
 PTB  HZ EP        739  1.71                             131   -0.68 9  149 258 
 PTB  HE ES        739 23.58                             131    0.11 9  149 258 
 PTB  HZ I         739 29.70       117.5 0.80            127            149 258 
 TAM  HZ IP     D  739  3.75                             130    0.76 9  155 106 
 TAM  HZ I         739  3.88        82.2 0.38            133            155 106 
 TAM  HN ES        739 24.78                             130    0.25 9  155 106 
 OCA  HZ EP     C  739  3.26                             130   -0.17 9  158 353 
 OCA  HE ES        739 24.42                             130   -0.89 9  158 353 
 OCA  HZ I         739 30.77        63.0 0.14            127            158 353 
 SPBC HZ EP        739  4.12                             128    0.09 9  165 219 
 SPBC HE ES        739 25.93                             128   -0.46 9  165 219 
 SPBC HZ I         739 34.69       117.0 0.24            126            165 219 
 NOR  HZ EP        739 11.41                             118    0.14 8  237 234 
 NOR  HN ES        739 38.45                             118   -0.82 8  237 234 
 NOR  HZ I         739 44.79        53.8 0.44            116            237 234 
 SML  HZ EP        739 11.16                             117   -0.61 8  242 335 
 SML  HN ES        739 39.96                             117   -0.20 8  242 335 
 SML  HZ I         739 42.21        94.9 0.24            115            242 335 
 CHI  HZ EP        739 13.27                             117   -0.02 8  251 195 
 CHI  HN ES        739 42.38                             117   -0.49 8  251 195 
 CHI  HZ I         739 46.11        60.4 0.58            116            251 195 
 ROSC BZ EP        739 14.88                             116    1.17 8  255 211 
 ROSC BN ES        739 42.25                             116   -1.36 8  255 211 
 ROSC BZ I         739 49.59       119.1 0.45            115            255 211 
 HEL  HZ EP        739 15.84                             114    0.15 8  273 255 
 HEL  HN ES        739 47.12                             114   -0.02 8  273 255 
 HEL  HZ I         739 53.42        41.4 0.28            112            273 255 
 GUY2CHZ EP        739 19.03                             112   -0.13 7  303 234 
 GUY2CHE ES        739 53.41                             112    0.09 7  303 234 
 GUY2CHZ I         740  1.47        41.1 0.34                           303 234 
 PTGC HZ EP   9    739 18.36                             111   -1.05 0  311 159 
 PTGC HZ I         739 18.85       128.4 0.24            111            311 159 
 PTGC HN ES        739 51.42                                   -1.29 7  311 159 
 RREF HZ EP        739 21.94                             110    0.23 7  324 229 
 RREF HE ES        739 56.86                             110   -1.00 7  324 229 
 RREF HZ I         740 12.42        22.1 0.60            109            324 229 
 CBOC HZ EP        739 22.87                             110    0.46 7  335 252 
 CBOC HZ I         739 26.02        12.6 0.14            108            335 252 
 DBB  SZ EP        739 23.41                             109    0.53 7  340 274 
 DBB  SZ I         740  0.82        94.5 0.28            107            340 274 
 TOL  SZ EP        739 24.05                             109    0.21 6  346 224 
 TOL  SE ES        740  3.12                             109    1.47 6  346 224 
 MON  HZ EP   9    739 22.45                             108   -1.80 0  353 308 
 MON  HE ES        739 59.86                                   -0.71 6  353 308 
 MON  HZ I         740 16.08        13.9 0.26            107            353 308 
 ARGC HZ EP   9    739 25.46                             108    0.68 0  357 340 
 ARGC HE ES        740  3.43                                   -0.57 6  357 340 
 ARGC HZ I         740 11.16        12.7 0.22            107            357 340 
 SDV  BZ EP   9    739 24.66                             108   -0.49 0  358  50 
 ANIL HZ EP        739 26.21                             108    0.82 6  359 224 
 ANIL HN ES        740  3.99                             108   -0.42 6  359 224 
 ANIL HZ I         740 15.36        14.6 0.34            107            359 224 
 ORTC HZ EP        739 29.52                             106   -0.01 6  398 216 
 ORTC HN ES        740 11.44                             106   -0.34 6  398 216 
 ORTC HZ I         740 16.59        32.9 0.28            105            398 216 
 ELOV BZ EP        739 29.34                             106   -0.93 6  405  87 
 ELOV BN ES        740 10.37                             106   -2.73 6  405  87 
 CRJC HZ EP   9    739 35.53                             103   -2.04 0  465   3 
 CRJC HE ES        740 21.18                                   -2.87 5  465   3 
 CRJC HZ I         740 30.44        27.6 0.38            102            465   3 
 SMAR HZ EP   9    739 39.79                             102   -1.19 0  495 346 
 SMAR HN ES        740 26.16                                   -4.81 4  495 346 
                                                                                
