 2013  9 8 0636 52.0 L   6.819 -73.192154.5  RSN  5 0.3 1.5LRSN                1
 GAP=201        0.63       4.3     7.5 10.0 -0.3894E+01 -0.3471E+02 -0.4837E+01E
 Epicentro: ZAPATOCA - SANTANDER                                               3
 ACTION:UPD 13-10-22 09:21 OP:ep   STATUS:               ID:20130908063652 L   I
 OLDACT:UP  13-09-08 10:49 OP:mh   STATUS:               ID:20130908062959     3
 OLDACT:REG 13-09-08 08:05 OP:mh   STATUS:               ID:20130908062959     3
 2013-09-08-0629-59M.COL___269                                                 6
 STAT SP IPHASW D HRMM SECON CODA AMPLIT PERI AZIMU VELO AIN AR TRES W  DIS CAZ7
 BAR2 SZ EP   1    637 12.45                             170   -0.29 8 25.1 178 
 BRR  HZ EP   1    637 14.50                             156    0.66 8 65.7 299 
 BRR  HN ES   2    637 30.79                             156   -0.06 5 65.7 299 
 BRR  HZ I         637 35.03         4.7 0.84            155           65.7 299 
 PTB  HZ EP   1    637 19.34                             135    0.02 7  143 258 
 PTB  HN ES        637 40.51                             135   -0.1010  143 258 
 PTB  HZ I         637 47.52         2.0 0.40            136            143 258 
 SPBC HZ EP   1    637 20.71                             131   -0.36 7  162 217 
 SPBC HN ES   2    637 44.21                             131    0.48 5  162 217 
 SPBC HZ I         637 50.63         2.6 0.20            134            162 217 
 SML  HZ EP   1    637 28.89                             120    0.17 6  240 336 
 SML  HN ES   1    637 57.05                             120   -0.30 6  240 336 
 SML  HE I         638  0.04         4.9 0.10            124            240 336 
                                                                                
