 2014 10 8 0830 19.6 L   6.789 -73.150144.0  RSN 20 0.7 2.3LRSN                1
 GAP= 54        2.56       5.5     7.2 11.5 -0.1765E+01  0.2656E+02  0.1029E+02E
 Epicentro: LOS SANTOS - SANTANDER                                             3
 ACTION:UPD 14-11-29 23:47 OP:nd   STATUS:               ID:20141008083019 L   I
 OLDACT:REG 14-10-08 15:02 OP:stll STATUS:               ID:20141008082743     3
 2014-10-08-0827-43M.COL___292                                                 6
 STAT SP IPHASW D HRMM SECON CODA AMPLIT PERI AZIMU VELO AIN AR TRES W  DIS CAZ7
 BAR2 SZ IP     C  830 39.44                             171    0.4810 22.0 189 
 BAR2 SZ ES        830 54.19                             171    0.1110 22.0 189 
 BAR2 SZ I         830 55.44        74.6 0.38            170           22.0 189 
 BRR  HZ IP     D  830 41.36                             152    0.8210 71.4 300 
 BRR  HZ I         830 41.55        46.8 0.26            149           71.4 300 
 BRR  HE ES        830 57.38                             152    0.4910 71.4 300 
 PAM  SZ IP     D  830 42.19                             149    0.5210 78.6  39 
 PAM  SZ I         830 42.55        77.8 0.26            149           78.6  39 
 PAM  SN ES        830 58.99                             149    0.0810 78.6  39 
 RUS  HZ EP        830 43.40                             143    0.3410 99.4 176 
 RUS  HN ES        831  0.92                             143   -0.4610 99.4 176 
 RUS  HZ I         831  2.55        19.9 0.48            142           99.4 176 
 PTB  HZ EP        830 46.03                             131   -0.30 9  147 259 
 PTB  HN ES        831  7.02                             131   -0.18 9  147 259 
 PTB  HZ I         831 10.01        20.1 0.14            129            147 259 
 TAM  HZ EP        830 47.52                             129    0.41 9  155 104 
 TAM  HN ES        831  8.25                             129   -0.35 9  155 104 
 TAM  HZ I         831 11.11        13.7 0.56            129            155 104 
 OCA  HZ EP        830 47.67                             128   -0.18 9  161 353 
 OCA  HN ES        831  9.31                             128   -0.61 9  161 353 
 OCA  HZ I         831 16.62        25.5 0.34            127            161 353 
 SPBC HZ EP        830 48.20                             128    0.39 9  162 219 
 SPBC HZ I         831 11.46        27.5 0.18            126            162 219 
 ZAR  HZ EP        830 52.11                             121    0.21 9  204 293 
 ZAR  HN ES        831 16.25                             121   -0.88 9  204 293 
 ZAR  HZ I         831 23.56        21.0 0.30            119            204 293 
 SML  HZ EP        830 55.94                             116   -0.26 8  245 336 
 SML  HE ES        831 24.38                             116   -0.39 8  245 336 
 SML  HZ I         831 28.29        21.5 0.22            115            245 336 
 CHI  HZ EP        830 57.60                             116    0.58 8  247 195 
 CHI  HN ES        831 24.74                             116   -1.50 8  247 195 
 CHI  HZ I         831 32.54         7.5 0.26            115            247 195 
 ROSC BZ EP        830 56.59                             116   -0.86 8  251 211 
 ROSC BE ES        831 28.24                             116    1.25 8  251 211 
 GUY2CHZ EP        831  4.04                             112    1.07 7  300 235 
 GUY2CHN ES        831 37.24                             112    0.41 7  300 235 
 GUY2CHZ I         831 44.73         6.8 0.46                           300 235 
 SOCV BZ EP   9    831  2.25                             111   -0.40 0  302  57 
 SOCV BN ES        831 33.67                                   -2.19 7  302  57 
 PTGC HZ EP   9    831  2.36                             111   -0.87 0  308 158 
 PTGC HE ES        831 30.34                                   -6.08 7  308 158 
 TOL  SZ EP        831  8.18                             109    0.57 7  342 225 
 TOL  SE ES        831 43.40                             109   -1.69 7  342 225 
 MON  HZ EP        831  6.88                             108   -1.67 6  354 309 
 MON  HN ES        831 45.53                             108   -1.23 6  354 309 
 MON  HZ I         832  0.71         7.6 0.48            106            354 309 
 ANIL HE ES        831 47.79                             108   -0.06 6  356 225 
 PRA  HZ EP        831 12.92                             106    0.05 6  391 210 
 PRA  HN ES        831 55.13                             106    0.68 6  391 210 
 PRA  HZ I         832  1.80         7.3 0.26            105            391 210 
 ORTC HZ EP        831 14.06                             106    0.78 6  394 216 
 ORTC HE ES        831 55.04                             106   -0.13 6  394 216 
 ORTC HZ I         832  2.16         6.2 0.34            104            394 216 
                                                                                
