 2015  6 8 0445 36.3 L   6.780 -73.092144.7  RSN  5 0.3 1.5LRSN                1
 GAP=242        0.69       4.2     6.3  5.5  0.5721E+01  0.1715E+01  0.2814E+01E
 Epicentro: LOS SANTOS - SANTANDER                                             3
 ACTION:UPD 15-09-10 22:10 OP:cam  STATUS:               ID:20150608044536 L   I
 OLDACT:UP  15-06-08 16:09 OP:drio STATUS:               ID:20150608043750     3
 OLDACT:REG 15-06-08 12:15 OP:drio STATUS:               ID:20150608043750     3
 2015-06-08-0437-50M.COL___294                                                 6
 STAT SP IPHASW D HRMM SECON CODA AMPLIT PERI AZIMU VELO AIN AR TRES W  DIS CAZ7
 BAR2 EZ EP        445 55.79                             171   -0.0310 23.0 206 
 BAR2 EZ ES        446 10.58                             171   -0.4510 23.0 206 
 BAR2 EZ I         446 11.89         6.7 0.24            166           23.0 206 
 BRR  HZ EP        445 57.58                             150   -0.1510 77.5 298 
 BRR  HN ES        446 14.78                             150    0.3610 77.5 298 
 BRR  HZ I         446 19.52         5.3 0.14            144           77.5 298 
 RUS  HZ EP        446  0.00                             144    0.2010 98.1 179 
 RUS  HN ES        446 18.38                             144    0.2810 98.1 179 
 RUS  HZ I         446 19.48         3.0 0.30            146           98.1 179 
 SPBC HZ EP        446  4.82                             128   -0.13 9  165 221 
 SPBC HN ES        446 27.14                             128   -0.13 9  165 221 
 SPBC HZ I         446 31.79         4.3 0.20            127            165 221 
 SML  HZ EP   4    446 14.30                             117    0.91 0  248 334 
 SML  HN ES   4    446 41.24                             117   -1.05 0  248 334 
 SML  HZ I         446 47.76         2.7 0.10            116            248 334 
                                                                                
