 2011  9 8 0336 25.5 L   6.772 -73.229144.9  RSN  5 0.3 1.4LRSN                1
 GAP=123        0.46       6.1     6.7  6.6  0.2646E+02 -0.1582E+01 -0.6446E+01E
 Epicentro: ZAPATOCA - SANTANDER                                               3
 ACTION:UPD 12-07-13 15:56 OP:ep   STATUS:               ID:20110908033448 L   I
 2011-09-08-0334-48S.COL___170                                                 6
 STAT SP IPHASW D HRMM SECON CODA AMPLIT PERI AZIMU VELO AIN AR TRES W  DIS CAZ7
 BAR2 SZ ES   2    337  0.12                             172   -0.08 5 20.5 165 
 BAR2 SZ I         337  0.72         7.1 0.42                          20.5 165 
 BRR  HZ EP   1    336 46.51                             154    0.25 7 65.0 305 
 BRR  HZ I         336 47.15         8.2 0.34                          65.0 305 
 BRR  HN ES   2    337  2.70                             154    0.28 5 65.0 305 
 PAM  SZ EP   2    336 47.80                             148   -0.39 5 85.8  43 
 RUS  HZ EP   1    336 49.24                             144    0.18 7 98.5 171 
 RUS  HE ES   2    337  7.06                             144   -0.35 5 98.5 171 
 RUS  HZ I         337  9.12         1.9 0.39                          98.5 171 
 ZAR  HZ EP   2    336 57.03                             123   -0.16 4  197 294 
 ZAR  HE ES   2    337 21.46                             123   -0.41 4  197 294 
 ZAR  HZ I         337 26.36         3.1 0.17                           197 294 
                                                                                
