 2015  9 8 0831 30.2 L   6.790 -73.097152.0  RSN 19 0.5 2.2LRSN                1
 GAP=114        1.00       2.7     3.1  5.8 -0.4045E+00  0.2725E+01  0.2666E+01E
 Epicentro: LOS SANTOS - SANTANDER                                             3
 ACTION:UPD 15-10-28 16:25 OP:cam  STATUS:               ID:20150908083130 L   I
 OLDACT:UP  15-09-08 19:02 OP:mh   STATUS:               ID:20150908082751     3
 OLDACT:REG 15-09-08 14:03 OP:mh   STATUS:               ID:20150908082751     3
 2015-09-08-0827-51M.COL___350                                                 6
 STAT SP IPHASW D HRMM SECON CODA AMPLIT PERI AZIMU VELO AIN AR TRES W  DIS CAZ7
 BAR2 EZ EP     D  831 50.58                             171   -0.0110 23.8 203 
 BAR2 EZ I         832  8.78        24.2 0.59            170           23.8 203 
 BRR  HZ EP        831 52.53                             152    0.2110 76.4 297 
 BRR  HN ES        832  9.81                             152    0.2410 76.4 297 
 BRR  HZ I         832 12.04        19.6 0.26            156           76.4 297 
 RUS  HZ EP        831 54.52                             145    0.0410 99.2 179 
 RUS  HN ES   1    832 13.72                             145    0.31 7 99.2 179 
 TAM  HZ EP   1    831 57.97                             133    0.08 7  150 105 
 TAM  HZ I         832 19.25        13.4 0.44            131            150 105 
 TAM  HN ES        832 19.48                             133   -0.01 9  150 105 
 PTB  HZ EP        831 57.23                             132   -0.91 9  153 260 
 PTB  HN ES        832 19.40                             132   -0.52 9  153 260 
 PTB  HZ I         832 25.58        26.9 0.42            135            153 260 
 OCA  HZ EP        831 58.58                             131   -0.59 9  162 351 
 OCA  HN ES        832 22.49                             131    0.72 9  162 351 
 OCA  HZ I         832 29.25        20.9 0.38            132            162 351 
 SPBC HZ EP   1    831 59.48                             130    0.05 7  166 221 
 SPBC HN ES        832 22.05                             130   -0.17 9  166 221 
 SPBC HZ I         832 24.97        23.1 0.12            132            166 221 
 ZAR  HZ EP        832  3.43                             123   -0.18 8  209 292 
 ZAR  HN ES        832 29.89                             123    0.22 8  209 292 
 ZAR  HZ I         832 35.22        16.2 0.48            126            209 292 
 NOR  HZ EP        832  6.52                             119   -0.18 8  238 235 
 NOR  HN ES   1    832 34.69                             119   -0.47 6  238 235 
 NOR  HZ I         832 41.97        10.1 0.18            121            238 235 
 SML  HZ EP        832  6.77                             118   -0.77 8  247 334 
 SML  HN ES   1    832 36.50                             118   -0.16 6  247 334 
 SML  HZ I         832 41.86        18.9 0.10            120            247 334 
 CHI  HZ EP   1    832  8.05                             118   -0.25 6  249 196 
 CHI  HN ES        832 37.57                             118   -0.44 8  249 196 
 CHI  HZ I         832 45.69         7.1 0.57            119            249 196 
 ROSC BZ EP   1    832 10.02                             118    1.15 6  255 212 
 ROSC BN ES   4    832 40.66                             118    1.63 0  255 212 
 ROSC BZ I         832 47.62        12.3 0.40            119            255 212 
 HEL  HZ EP        832 12.51                             115    1.23 7  277 256 
 HEL  HN ES        832 43.63                             115    0.31 7  277 256 
 HEL  HZ I         832 48.90         7.8 0.11            117            277 256 
 GUY2CHZ EP   4    832 15.13                             113    0.60 0  305 236 
 GUY2CHN ES   4    832 50.94                             113    1.84 0  305 236 
 GUY2CHZ I         832 57.56         7.3 0.32                           305 236 
 CBOC HZ EP   1    832 17.61                             111   -0.31 5  338 253 
 CBOC HN ES   1    832 55.51                             111    0.36 5  338 253 
 CBOC HZ I         833  1.24         1.9 0.20            112            338 253 
 TOL  SZ EP        832 18.97                             110   -0.09 6  346 225 
 TOL  SN ES        832 57.70                             110    0.53 6  346 225 
 TOL  SZ I         833  2.59         5.5 0.32            111            346 225 
 PRA  HZ EP        832 24.85                             107    0.71 6  394 210 
 PRA  HN ES        833  6.31                             107    0.09 6  394 210 
 PRA  HZ I         833 10.46         5.0 0.38            108            394 210 
 ORTC HZ EP        832 24.64                             107    0.03 6  398 217 
 ORTC HN ES        833  6.95                             107   -0.09 6  398 217 
 ORTC HZ I         833 13.96         4.4 0.42            108            398 217 
 SJC  HZ EP   4    832 24.73                             106   -1.70 0  413 326 
 SJC  HN ES   4    833  5.63                             106   -4.65 0  413 326 
 SJC  HZ I         833 10.59         2.7 0.63            108            413 326 
                                                                                
