 2017  6 8 0149 25.2 L   6.790 -73.184151.1  RSN  5 0.4 1.4LRSN                1
 GAP=233        0.88       5.1     5.6  7.8  0.3622E+01  0.3896E+00  0.4122E+01E
 Epicentro: LOS SANTOS - SANTANDER                                             3
 ACTION:UPD 17-09-14 16:50 OP:jn   STATUS:               ID:20170608014925 L   I
 OLDACT:UP  17-06-08 14:25 OP:edw  STATUS:               ID:20170608014740     3
 OLDACT:REG 17-06-08 12:37 OP:edw  STATUS:               ID:20170608014740     3
 2017-06-08-0148-00M.COL___365                                                 6
 STAT SP IPHASW D HRMM SECON CODA AMPLIT PERI AZIMU VELO AIN AR TRES W  DIS CAZ7
 BRR  HZ EP     D  149 46.89                             154    0.1410 68.1 301 
 BRR  HN ES        150  3.79                             154    0.2210 68.1 301 
 BRR  HZ I         150  9.30         6.0 0.36            153           68.1 301 
 RUS  HZ EP        149 49.23                             145   -0.1810 99.9 174 
 RUS  HN ES        150  8.38                             145    0.0610 99.9 174 
 RUS  HZ I         150  8.78         3.4 0.24            148           99.9 174 
 PTB  HZ EP        149 51.79                             134   -0.42 9  143 259 
 PTB  HN ES        150 12.89                             134   -0.40 9  143 259 
 PTB  HZ I         150 16.42         2.7 0.18            135            143 259 
 SPBC HZ EP        149 54.19                             131    0.41 9  160 218 
 SPBC HN ES        150 15.72                             131   -0.36 9  160 218 
 SPBC HZ I         150 21.87         5.3 0.12            133            160 218 
 YPLC HE ES   4    150 11.62                             128   -7.49 0  178 150 
 ZAR  HN ES   4    150 20.50                             124   -2.44 0  201 293 
 NOR  HN ES        150 29.24                             120    0.66 8  231 234 
 NOR  HZ I         150 31.99         1.7 0.32            122            231 234 
                                                                                
