 2016 10 8 0311 51.2 L   6.802 -73.164141.3  RSN 16 0.4 2.3LRSN                1
 GAP=134        0.88       2.5     3.4  4.7 -0.1592E+01  0.6051E+01  0.7862E+00E
 Epicentro: LOS SANTOS - SANTANDER                                             3
 ACTION:UPD 16-11-09 19:17 OP:rebc STATUS:               ID:20161008031151 L   I
 OLDACT:UP  16-10-08 14:04 OP:dnl  STATUS:               ID:20161008030745     3
 OLDACT:UP  16-10-08 14:04 OP:dnl  STATUS:               ID:20161008030745     3
 OLDACT:UP  16-10-08 14:03 OP:dnl  STATUS:               ID:20161008030745     3
 OLDACT:REG 16-10-08 12:23 OP:dnl  STATUS:               ID:20161008030745     3
 2016-10-08-0308-00M.COL___354                                                 6
 STAT SP IPHASW D HRMM SECON CODA AMPLIT PERI AZIMU VELO AIN AR TRES W  DIS CAZ7
 BAR2 EZ EP        312 10.22                             170   -0.0610 23.2 185 
 BAR2 EZ ES        312 25.47                             170    0.3010 23.2 185 
 BAR2 EZ I         312 28.05        49.5 0.32            169           23.2 185 
 PAM  EZ EP        312 13.22                             150    0.2110 78.6  41 
 PAM  EN ES        312 30.39                             150    0.3710 78.6  41 
 PAM  EZ I         312 33.34        29.8 0.30            154           78.6  41 
 RUS  HZ EP        312 14.21                             143   -0.3210  101 175 
 RUS  HN ES        312 32.49                             143   -0.2410  101 175 
 RUS  HZ I         312 34.34        16.2 0.28            145            101 175 
 PTB  HZ EP        312 16.88                             131   -0.74 9  146 259 
 PTB  HN ES        312 37.93                             131   -0.30 9  146 259 
 PTB  HZ I         312 40.56        22.6 0.18            131            146 259 
 OCA  HZ EP        312 18.43                             129   -0.69 9  160 354 
 OCA  HE ES        312 40.88                             129   -0.03 9  160 354 
 OCA  HZ I         312 44.76        48.5 0.54            130            160 354 
 SPBC HZ EP        312 19.13                             128   -0.11 9  162 218 
 SPBC HN ES        312 41.06                             128   -0.06 9  162 218 
 SPBC HZ I         312 45.43        36.7 0.38            129            162 218 
 ZAR  HZ EP        312 23.38                             122    0.23 9  202 292 
 ZAR  HN ES        312 48.05                             122   -0.02 9  202 292 
 ZAR  HZ I         312 53.38        24.3 0.40            122            202 292 
 NOR  HZ EP        312 26.38                             118   -0.12 8  233 234 
 NOR  HN ES        312 54.06                             118    0.02 8  233 234 
 NOR  HZ I         312 59.74        15.1 0.24            118            233 234 
 CHI  HZ EP        312 28.69                             116    0.08 8  248 195 
 CHI  HN ES        312 57.83                             116    0.04 8  248 195 
 CHI  HZ I         313  2.88        12.0 0.36            118            248 195 
 ROSC BZ EP        312 29.60                             116    0.62 8  252 211 
 ROSC BN ES   4    313  0.42                             116    1.98 0  252 211 
 ROSC BZ I         313  4.91        33.8 0.45            117            252 211 
 HEL  HZ EP        312 31.82                             114    0.85 8  270 256 
 HEL  HE ES   4    313  3.98                             114    1.99 0  270 256 
 HEL  HZ I         313  8.87        10.4 0.24            115            270 256 
 GUY2CHZ EP        312 34.61                             112    0.19 7  300 235 
 GUY2CHE ES   4    313 11.07                             112    2.93 0  300 235 
 GUY2CHZ I         313 16.62        13.3 0.64                           300 235 
 CBOC HZ EP        312 38.29                             109    0.58 7  332 252 
 CBOC HN ES        313 14.36                             109    0.37 7  332 252 
 CBOC HZ I         313 27.80         3.7 0.24            110            332 252 
 ANIL HZ EP   4    312 42.10                             108    1.42 0  356 224 
 ANIL HN ES   4    313 21.17                             108    1.89 0  356 224 
 PRA  HZ EP        312 44.02                             106   -0.44 6  391 209 
 PRA  HE ES   4    313 25.46                             106   -0.55 0  391 209 
 PRA  HZ I         313 30.46        10.9 0.48            107            391 209 
 SJC  HZ EP   4    312 44.22                             105   -2.25 0  408 327 
 SJC  HN ES   4    313 25.53                             105   -4.05 0  408 327 
 SJC  HZ I         313 34.25         3.4 0.42            106            408 327 
 CRJC HZ EP   4    312 50.63                             103   -2.94 0  468   4 
 CRJC HN ES   4    313 38.83                             103   -3.39 0  468   4 
 CRJC HZ I         313 46.23         4.1 0.18            104            468   4 
                                                                                
