 2014 10 8 0735 45.3 L   6.446 -73.767 94.7  RSN  4 0.3 1.3LRSN                1
 GAP=149        0.88       4.8     3.7  8.9  0.6144E+01  0.4161E+01  0.1183E+02E
 Epicentro: SANTA HELENA DEL OPON - SANTANDER                                  3
 ACTION:UPD 14-11-29 23:47 OP:nd   STATUS:               ID:20141008073545 L   I
 OLDACT:DUP 14-10-08 19:30 OP:stll STATUS:               ID:20141008072747d    3
 2014-10-08-0727-46M.COL___292                                                 6
 STAT SP IPHASW D HRMM SECON CODA AMPLIT PERI AZIMU VELO AIN AR TRES W  DIS CAZ7
 BAR2 SZ EP        736  0.62                             142   -0.6510 66.6  76 
 BAR2 SZ ES        736 13.62                             142   -0.0610 66.6  76 
 BAR2 SZ I         736 15.28        16.1 0.22            144           66.6  76 
 BRR  HZ EP        736  1.39                             139   -0.0710 73.4   5 
 BRR  HN ES        736 14.38                             139    0.3510 73.4   5 
 BRR  HZ I         736 15.53         3.6 0.46            141           73.4   5 
 PTB  HZ EP        736  2.15                             138    0.3710 77.0 278 
 PTB  HN ES        736 14.27                             138   -0.3210 77.0 278 
 PTB  HZ I         736 15.87         3.7 0.12            140           77.0 278 
 RUS  HZ EP        736  4.43                             131    0.2210 97.3 129 
 RUS  HZ I         736  4.69         3.6 0.12            133           97.3 129 
 RUS  HN ES        736 19.08                             131    0.1510 97.3 129 
                                                                                
