 2013  2 8 0726 58.0 L   6.781 -73.162137.8  RSN  6 0.3 1.5LRSN                1
 GAP=135        0.73       5.0     6.1  6.3  0.1320E+02 -0.5831E+01 -0.7522E+01E
 Epicentro: LOS SANTOS - SANTANDER                                             3
 ACTION:UPD 13-03-12 09:31 OP:ep   STATUS:               ID:20130208072658 L   I
 2013-02-08-0720-00M.COL___241                                                 6
 STAT SP IPHASW D HRMM SECON CODA AMPLIT PERI AZIMU VELO AIN AR TRES W  DIS CAZ7
 BAR2 SZ EP        727 16.58                             171   -0.0310 21.0 186 
 BAR2 SZ ES        727 31.66                             171    0.5310 21.0 186 
 BAR2 SZ I         727 32.90         6.7 0.20            171           21.0 186 
 BRR  HZ EP   1    727 18.15                             151   -0.09 7 70.7 301 
 BRR  HN ES        727 33.73                             151   -0.3110 70.7 301 
 BRR  HN I         727 36.02        10.4 0.32            131           70.7 301 
 PAM  SZ EP        727 19.48                             148   -0.0510 80.1  40 
 PAM  SN I         727 37.46         4.1 0.46            128           80.1  40 
 RUS  HZ EP   1    727 21.09                             143    0.28 7 98.6 175 
 RUS  HN ES        727 38.21                             143   -0.4110 98.6 175 
 RUS  HN I         727 40.10         4.2 0.20            127           98.6 175 
 PTB  HZ EP   1    727 24.30                             131    0.19 7  146 260 
 PTB  HN I         727 48.67         2.8 0.42            113            146 260 
 ZAR  HN ES   2    727 55.04                             121    0.37 4  203 293 
 ZAR  HN I         728  2.33         3.5 0.36            105            203 293 
                                                                                
