 2014  2 8 0401 29.2 L   6.808 -73.132150.0  RSN 19 0.5 2.4LRSN                1
 GAP= 66        0.97       2.8     3.3  5.1 -0.7880E+00  0.1673E+01  0.1122E+01E
 Epicentro: LOS SANTOS - SANTANDER                                             3
 ACTION:UPD 14-03-10 08:08 OP:ep   STATUS:               ID:20140208040129 L   I
 OLDACT:UP  14-02-08 12:07 OP:mh   STATUS:               ID:20140208040000     3
 OLDACT:UP  14-02-08 12:04 OP:mh   STATUS:               ID:20140208040000     3
 OLDACT:REG 14-02-08 07:36 OP:mh   STATUS:               ID:20140208040000     3
 2014-02-08-0400-00M.COL___291                                                 6
 STAT SP IPHASW D HRMM SECON CODA AMPLIT PERI AZIMU VELO AIN AR TRES W  DIS CAZ7
 BAR2 SZ IP     C  4 1 49.50                             170    0.1510 24.5 193 
 BAR2 SZ ES        4 2  5.01                             170   -0.0610 24.5 193 
 BAR2 SZ I         4 2  6.43        59.5 0.15            168           24.5 193 
 BRR  HZ EP        4 1 49.89                             153   -0.9610 72.1 297 
 BRR  HN ES        4 2  8.42                             153    0.6810 72.1 297 
 BRR  HZ I         4 2 12.60       573.3 0.17            146           72.1 297 
 PAM  SZ EP     C  4 1 52.25                             152    0.4910 75.7  39 
 PAM  SZ I         4 2 11.70        32.2 0.17            142           75.7  39 
 RUS  HZ EP   1    4 1 53.33                             144   -0.08 7  101 177 
 RUS  HZ I         4 2 13.88        15.3 0.17            135            101 177 
 PTB  HZ EP   1    4 1 56.37                             133   -0.29 7  149 259 
 PTB  HZ I         4 2 23.34        26.8 0.25            124            149 259 
 TAM  HZ IP     D  4 1 57.66                             132    0.57 9  154 105 
 TAM  HN ES        4 2 18.87                             132    0.02 9  154 105 
 TAM  HZ I         4 2 30.59        13.2 0.48            121            154 105 
 OCA  HZ EP        4 1 57.54                             131   -0.23 9  160 353 
 OCA  HN ES        4 2 19.77                             131   -0.29 9  160 353 
 OCA  HZ I         4 2 24.67        18.8 0.23            120            160 353 
 SPBC HZ EP   1    4 1 58.41                             130    0.24 7  165 219 
 SPBC HN ES        4 2 20.32                             130   -0.45 9  165 219 
 SPBC HZ I         4 2 25.68        42.8 0.24            120            165 219 
 ZAR  HZ EP   1    4 2  2.19                             123    0.16 6  205 292 
 ZAR  HN ES   1    4 2 27.34                             123   -0.30 6  205 292 
 ZAR  HZ I         4 2 33.84        22.0 0.29            114            205 292 
 NOR  HZ EP        4 2  5.56                             119    0.20 8  236 235 
 NOR  HN ES   1    4 2 33.51                             119   -0.05 6  236 235 
 NOR  HZ I         4 2 36.18        14.2 0.31            111            236 235 
 SML  HZ EP   1    4 2  5.86                             118   -0.18 6  244 335 
 SML  HZ I         4 2 37.44        37.3 0.07            109            244 335 
 CHI  HZ EP        4 2  7.49                             118    0.23 8  250 195 
 CHI  HN ES        4 2 36.46                             118   -0.50 8  250 195 
 CHI  HZ I         4 2 40.95         8.7 0.42            109            250 195 
 HEL  HZ EP   4    4 2 11.97                             115    2.16 0  274 256 
 HEL  HN ES   4    4 2 39.96                             115   -1.53 0  274 256 
 HEL  HZ I         4 2 48.42         9.1 0.39            107            274 256 
 URE  HZ EP   4    4 2  7.94                             114   -2.65 0  285 292 
 URE  HN ES   4    4 2 37.10                             114   -5.78 0  285 292 
 GUY2CHZ EP   1    4 2 13.88                             113    0.68 5  303 235 
 GUY2CHN ES   4    4 2 51.88                             113    4.36 0  303 235 
 GUY2CHZ I         4 2 56.45        12.9 0.47                           303 235 
 PTGC HZ EP   1    4 2 12.28                             112   -0.99 5  309 159 
 PTGC HE ES   4    4 2 45.71                             112   -1.94 0  309 159 
 PTGC HZ I         4 2 51.36        10.4 0.18            104            309 159 
 CBOC HZ EP        4 2 16.93                             111    0.45 7  335 252 
 CBOC HN ES   1    4 2 54.19                             111    0.82 5  335 252 
 CBOC HZ I         4 3  0.12         3.9 0.14            103            335 252 
 COD  HZ EP        4 2 17.01                             110   -0.65 6  348 354 
 COD  HN ES   1    4 2 55.97                             110    0.52 5  348 354 
 COD  HZ I         4 2 59.67         3.9 0.23            102            348 354 
 PRA  HZ EP   1    4 2 23.18                             107    0.14 4  394 210 
 PRA  HZ I         4 3 10.84         9.8 0.20            100            394 210 
 ORTC HZ EP   1    4 2 23.78                             107    0.33 4  397 216 
 ORTC HN ES   4    4 3  8.87                             107    3.10 0  397 216 
 ORTC HZ I         4 3 14.16         6.8 0.18            100            397 216 
 PAL  HZ EP   4    4 2 23.82                             106   -0.88 0  407 239 
 SJC  HZ EP   4    4 2 23.12                             106   -1.79 0  409 327 
 SJC  HN ES   4    4 3  3.85                             106   -4.52 0  409 327 
                                                                                
