 2015  2 8 0823 24.1 L   6.805 -73.174137.6  RSN 12 0.7 2.0LRSN                1
 GAP=133        1.76       4.6     7.0  8.9 -0.7322E+01  0.2105E+02  0.2979E+00E
 Epicentro: LOS SANTOS - SANTANDER                                             3
 ACTION:UPD 15-04-30 21:23 OP:nd   STATUS:               ID:20150208082324 L   I
 OLDACT:ARG 15-02-08 13:48 OP:stll STATUS:               ID:20150208081742     3
 2015-02-08-0817-42M.COL___290                                                 6
 STAT SP IPHASW D HRMM SECON CODA AMPLIT PERI AZIMU VELO AIN AR TRES W  DIS CAZ7
 BAR2 EZ EP        823 42.99                             170    0.2710 23.6 182 
 BAR2 EZ ES        823 57.42                             170    0.1510 23.6 182 
 BAR2 EZ I         823 58.81        35.3 0.36            167           23.6 182 
 BRR  HZ EP        823 44.77                             152    0.6110 68.2 299 
 BRR  HZ I         823 44.97        31.8 0.22            144           68.2 299 
 BRR  HE ES        824  1.55                             152    1.7110 68.2 299 
 PAM  SZ EP        823 45.69                             149    0.1710 78.9  42 
 PAM  SN ES        824  2.28                             149    0.0410 78.9  42 
 PAM  SZ I         824  5.11        28.7 0.64            147           78.9  42 
 RUS  HZ EP        823 47.01                             142   -0.0810  101 174 
 RUS  HN ES        824  4.27                             142   -0.7710  101 174 
 RUS  HZ I         824  6.07         9.0 0.22            138            101 174 
 PTB  HZ EP        823 49.51                             131   -0.60 9  145 258 
 PTB  HN ES        824  9.40                             131   -1.02 9  145 258 
 PTB  HZ I         824 12.35        18.4 0.46            124            145 258 
 OCA  HZ EP        823 51.09                             128   -0.58 9  159 354 
 OCA  HN ES        824 12.77                             128   -0.42 9  159 354 
 OCA  HZ I         824 16.51        14.0 0.24            123            159 354 
 SPBC HZ EP        823 51.92                             127    0.11 9  162 218 
 SPBC HN ES        824 13.17                             127   -0.28 9  162 218 
 SPBC HZ I         824 15.73        13.7 0.22            122            162 218 
 SML  HZ EP        823 59.30                             116   -0.75 8  242 336 
 SML  HN ES        824 27.34                             116   -0.77 8  242 336 
 SML  HZ I         824 34.31        17.0 0.10            111            242 336 
 CHI  HZ EP        824  1.72                             116    0.42 8  248 194 
 CHI  HN ES        824 29.65                             116   -0.69 8  248 194 
 CHI  HZ I         824 37.06         3.1 0.52            111            248 194 
 HEL  HZ EP        824  4.48                             113    0.92 8  269 256 
 HEL  HZ I         824 43.63         4.0 0.24            108            269 256 
 GUY2CHZ EP        824  8.72                             111    1.66 7  299 234 
 GUY2CHN ES        824 40.90                             111    0.30 7  299 234 
 GUY2CHZ I         824 49.17         4.4 0.36                           299 234 
 CBOC HZ EP        824 11.09                             109    0.75 7  331 252 
 CBOC HN ES        824 45.44                             109   -0.99 7  331 252 
 CBOC HZ I         824 59.56         1.5 0.50            104            331 252 
                                                                                
