 2013  2 8 0751 54.0 L   6.804 -73.164146.7  RSN 11 0.5 2.1LRSN                1
 GAP=134        1.06       3.5     5.0  7.1  0.5106E-01  0.1030E+02  0.1684E+01E
 Epicentro: LOS SANTOS - SANTANDER                                             3
 ACTION:UPD 13-03-12 09:31 OP:ep   STATUS:               ID:20130208075154 L   I
 2013-02-08-0750-00M.COL___241                                                 6
 STAT SP IPHASW D HRMM SECON CODA AMPLIT PERI AZIMU VELO AIN AR TRES W  DIS CAZ7
 BAR2 SZ EP        752 13.86                             170    0.1010 23.5 185 
 BAR2 SZ ES   1    752 28.63                             170   -0.53 7 23.5 185 
 BAR2 SZ I         752 29.85        32.4 0.32            168           23.5 185 
 BRR  HZ EP     C  752 15.65                             153    0.5010 69.2 299 
 BRR  HN ES   1    752 32.71                             153    1.08 7 69.2 299 
 BRR  HN I         752 33.31        66.1 0.24            141           69.2 299 
 PAM  SZ EP        752 16.68                             151    0.3010 78.3  41 
 PAM  SN ES        752 33.20                             151   -0.6310 78.3  41 
 PAM  SN I         752 35.06         8.8 0.60            144           78.3  41 
 RUS  HZ EP        752 17.91                             144    0.0110  101 175 
 RUS  HN ES   1    752 36.43                             144   -0.10 7  101 175 
 RUS  HN I         752 38.04        16.0 0.40            139            101 175 
 PTB  HZ EP        752 20.55                             133   -0.33 9  146 258 
 PTB  HN ES        752 41.73                             133   -0.11 9  146 258 
 PTB  HN I         752 46.68        14.2 0.38            122            146 258 
 OCA  HN ES        752 44.85                             130    0.44 9  160 354 
 OCA  HN I         752 52.23        25.4 0.38            120            160 354 
 ZAR  HZ EP   1    752 27.02                             123    0.72 6  202 292 
 ZAR  HN ES   1    752 50.88                             123   -0.61 6  202 292 
 ZAR  HN I         752 56.95        16.9 0.20            113            202 292 
 SML  HZ EP   1    752 30.02                             118   -0.53 6  242 336 
 SML  HE ES   1    752 58.66                             118   -0.39 6  242 336 
 SML  HE I         753  3.73        14.0 0.10            109            242 336 
 CHI  HZ EP   1    752 32.00                             117    0.25 6  249 195 
 CHI  HN ES        753  1.32                             117    0.13 8  249 195 
 CHI  HN I         753  3.70         9.4 0.50            110            249 195 
 HEL  HN I         753 12.36         3.0 0.34            107            270 256 
 URE  HZ EP        752 34.14                             114   -0.75 7  282 292 
 URE  HN I         753 18.35        11.1 0.24            106            282 292 
                                                                                
