 2015 10 8 0341 37.8 L   6.385 -73.509117.4  RSN 25 0.4 2.5LRSN                1
 GAP= 51        0.90       1.8     2.2  4.4 -0.8560E+00  0.2481E+01 -0.1186E+00E
 Epicentro: CONTRATACION - SANTANDER                                           3
 ACTION:UPD 15-12-22 20:38 OP:cam  STATUS:               ID:20151008034137 L   I
 OLDACT:UP  15-10-29 04:29 OP:DRIO STATUS:               ID:20151008034137 L   3
 OLDACT:REG 15-10-08 12:36 OP:spq  STATUS:               ID:20151008033748     3
 2015-10-08-0337-48M.COL___337                                                 6
 STAT SP IPHASW D HRMM SECON CODA AMPLIT PERI AZIMU VELO AIN AR TRES W  DIS CAZ7
 BAR2 EZ IP     C  341 54.79                             159    0.0810 42.7  58 
 BAR2 EZ ES   1    342  8.03                             159    0.13 7 42.7  58 
 RUS  HZ IP     D  341 56.45                             147   -0.2710 72.0 139 
 RUS  HE ES        342 11.35                             147   -0.1410 72.0 139 
 RUS  HZ I         342 15.03        34.1 0.39            151           72.0 139 
 BRR  HZ EP     C  341 56.55                             142   -0.2510 82.9 344 
 BRR  HE ES        342 11.83                             142    0.2110 82.9 344 
 BRR  HZ I         342 18.56        55.1 0.14            144           82.9 344 
 SPBC HZ IP     D  341 58.26                             136   -0.2210  102 218 
 SPBC HE ES        342 14.21                             136   -0.4010  102 218 
 SPBC HZ I         342 18.07        90.3 0.10            137            102 218 
 PAM  EZ EP        342  2.33                             127    0.02 9  138  40 
 PAM  EN ES        342 21.80                             127    0.37 9  138  40 
 PAM  EZ I         342 22.31        30.3 0.18            131            138  40 
 NOR  HZ EP        342  5.06                             119   -0.53 9  176 239 
 NOR  HN ES        342 26.52                             119   -0.74 9  176 239 
 NOR  HZ I         342 29.01        33.2 0.68            121            176 239 
 TAM  HZ EP        342  7.15                             117    0.06 9  190  88 
 TAM  HE ES        342 29.82                             117   -0.11 9  190  88 
 TAM  HZ I         342 31.41        30.3 0.16            121            190  88 
 ZAR  HZ EP        342  7.28                             117   -0.08 9  193 309 
 ZAR  HN ES        342 30.70                             117    0.29 9  193 309 
 ZAR  HZ I         342 37.19        62.2 0.48            119            193 309 
 ROSC BZ EP   4    342  9.29                             117    1.42 0  193 208 
 ROSC BE ES        342 31.97                             117    0.65 9  193 208 
 ROSC BZ I         342 37.35        20.7 0.25            119            193 208 
 CHI  HZ EP     C  342  8.35                             117    0.17 9  196 187 
 CHI  HE ES        342 32.27                             117    0.39 9  196 187 
 CHI  HZ I         342 36.38        15.5 0.17            119            196 187 
 OCA  HZ EP     C  342  8.40                             115   -0.58 8  206   6 
 OCA  HE ES   1    342 34.08                             115    0.78 6  206   6 
 HEL  HZ EP        342 11.90                             113    0.58 8  225 265 
 HEL  HE ES   1    342 37.44                             113   -0.02 6  225 265 
 HEL  HZ I         342 43.16        18.7 0.22            115            225 265 
 GUY2CHZ EP        342 13.73                             111    0.26 8  242 238 
 GUY2CHE ES   4    342 42.43                             111    1.14 0  242 238 
 GUY2CHZ I         342 50.49        15.4 0.42                           242 238 
 VIL  SZ EP        342 14.22                             110    0.07 8  252 185 
 VIL  SE ES        342 42.45                             110   -0.06 8  252 185 
 ELA  HE ES   4    342 48.49                             109    1.66 0  269 231 
 ELA  HZ I         342 51.93        11.3 0.60            111            269 231 
 URE  HZ EP   4    342 14.54                             108   -1.50 0  270 304 
 URE  HN ES   4    342 44.22                             108   -1.65 0  270 304 
 URE  HZ I         342 53.73        22.4 0.40            110            270 304 
 SML  HZ EP        342 15.81                             108   -0.71 8  274 347 
 SML  HE ES   1    342 47.21                             108    0.49 6  274 347 
 SML  HZ I         342 51.68        51.5 0.08            110            274 347 
 CBOC HZ EP        342 18.34                             107    0.58 7  283 258 
 CBOC HE ES        342 48.28                             107   -0.66 7  283 258 
 CBOC HZ I         342 50.76         5.4 0.18            109            283 258 
 PTGC HZ EP   4    342 16.91                             107   -0.96 0  286 148 
 PTGC HN ES   4    342 47.62                             107   -1.50 0  286 148 
 PTGC HZ I         342 50.22        20.1 0.40            110            286 148 
 ANIL HZ EP   4    342 20.81                             106    1.32 0  297 225 
 ANIL HN ES   4    342 53.56                             106    1.55 0  297 225 
 ANIL HZ I         342 59.14        40.4 0.48            108            297 225 
 DBB  SZ EP   1    342 20.44                             106    0.02 5  307 283 
 DBB  SZ ES   1    342 53.86                             106    0.20 5  307 283 
 DBB  SZ I         342 57.02        43.5 0.38            107            307 283 
 ORTC HZ EP        342 23.89                             104    0.21 7  335 215 
 ORTC HE ES        343  0.32                             104    0.86 7  335 215 
 ORTC HZ I         343  7.75        11.4 0.68            106            335 215 
 SDV  BZ EP        342 33.59                             100   -0.54 5  421  49 
 SDV  BE ES   4    343 16.66                             100   -1.40 0  421  49 
 SDV  BZ I         343 19.62         4.6 0.40            102            421  49 
 SJC  HZ EP   4    342 33.95                             100   -1.09 0  430 335 
 SJC  HN ES   4    343 16.74                             100   -2.95 0  430 335 
 SJC  HZ I         343 21.15         4.7 0.65            102            430 335 
 CRJC HZ EP   4    342 45.13                              97   -0.50 0  517   8 
 CRJC HN ES   4    343 36.51                              97   -2.03 0  517   8 
 CRJC HZ I         343 46.01         8.2 0.18             99            517   8 
                                                                                
