 2010 11 8 0206 34.0 L   6.788 -73.059146.0  RSN  8 0.3 1.6LRSN                1
 GAP=169        0.55       3.9     6.5  7.1 -0.7848E+01 -0.7571E+01  0.5436E+01E
 Epicentro: LOS SANTOS - SANTANDER                                             3
 ACTION:UP  10-12-17 16:51 OP:REBC STATUS:               ID:20101108020634 L   I
 2010-11-08-0205-13S.COL___128                                                 6
 STAT SP IPHASW D HRMM SECON CODA AMPLIT PERI AZIMU VELO SNR AR TRES W  DIS CAZ7
 GIR2 SZ EP   2    2 6 53.73                             166    -0.1 5   35 335 
 BRR  HZ EP   1    2 6 55.28                             150    -0.4 7   80 296 
 BRR  HZ I         2 6 55.83        11.5 0.11                            80 296 
 BRR  HE ES   1    2 7 12.85                             150     0.2 7   80 296 
 RUS  HZ EP   2    2 6 57.74                             144     0.1 5   99 182 
 RUS  HN ES   2    2 7 15.95                             144    -0.2 5   99 182 
 RUS  HZ I         2 7 17.01         2.2 0.41                            99 182 
 GUE  SZ EP   2    2 6 59.50                             140     0.8 5  116   7 
 GRA  SZ EP   2    2 6 59.21                             137     0.0 5  125  13 
 GRA  SZ ES   2    2 7 18.87                             137     0.1 5  125  13 
 GRA  SZ I         2 7 21.97         5.6 0.32                           125  13 
 OCA  SZ EP   2    2 7  2.29                             129    -0.3 5  163 350 
 OCA  SZ ES   2    2 7 24.63                             129    -0.3 5  163 350 
 OCA  SZ I         2 7 30.49         4.9 0.25                           163 350 
 GUY  SZ EP   2    2 7 18.84                             112     0.4 4  308 236 
 GUY  SN ES   2    2 7 53.29                             112     0.2 4  308 236 
 GUY  SZ I         2 8  0.73         4.5 0.08                           308 236 
 PRA  HZ EP   2    2 7 27.95                             106     0.0 3  396 211 
                                                                                
