 2017  2 8 0431 44.3 L   6.809 -73.134148.7  RSN 16 0.5 2.1LRSN                1
 GAP=168        1.07       4.2     4.6  5.8  0.4648E+01  0.5845E+01  0.7944E+01E
 Epicentro: LOS SANTOS - SANTANDER                                             3
 ACTION:UPD 17-05-24 15:33 OP:jn   STATUS:               ID:20170208043144 L   I
 OLDACT:UP  17-02-08 17:05 OP:edw  STATUS:               ID:20170208042748     3
 OLDACT:UP  17-02-08 17:03 OP:edw  STATUS:               ID:20170208042748     3
 OLDACT:REG 17-02-08 12:29 OP:edw  STATUS:               ID:20170208042748     3
 2017-02-08-0428-00M.COL___319                                                 6
 STAT SP IPHASW D HRMM SECON CODA AMPLIT PERI AZIMU VELO AIN AR TRES W  DIS CAZ7
 BAR2 EZ IP     D  432  4.41                             170    0.0610 24.5 193 
 BAR2 EZ ES        432 20.18                             170    0.2210 24.5 193 
 BAR2 EZ I         432 20.48        39.9 0.34            165           24.5 193 
 BRR  HZ IP     C  432  6.22                             153    0.3710 71.9 297 
 BRR  HN ES        432 23.21                             153    0.5910 71.9 297 
 BRR  HZ I         432 26.44        24.9 0.28            150           71.9 297 
 RUS  HZ EP        432  8.49                             144    0.0410  101 177 
 RUS  HN ES        432 27.01                             144   -0.2410  101 177 
 RUS  HZ I         432 28.17        14.5 0.30            143            101 177 
 PTB  HZ EP        432 11.20                             132   -0.48 9  149 259 
 PTB  HN ES        432 32.26                             132   -0.74 9  149 259 
 PTB  HZ I         432 39.41        15.7 0.42            130            149 259 
 TAM  HZ EP   2    432 12.78                             131    0.61 5  154 105 
 ZAR  HZ EP   4    432 18.47                             123    1.41 0  205 292 
 ZAR  HN ES        432 42.18                             123   -0.41 9  205 292 
 ZAR  HZ I         432 48.48        16.2 0.30            123            205 292 
 NOR  HZ EP        432 20.68                             119    0.27 8  236 234 
 NOR  HN ES   4    432 47.72                             119   -0.83 0  236 234 
 NOR  HZ I         432 52.55         5.0 0.18            118            236 234 
 CHI  HZ EP        432 22.64                             118    0.30 8  250 195 
 CHI  HN ES        432 51.36                             118   -0.62 8  250 195 
 CHI  HZ I         432 55.45         5.5 0.40            118            250 195 
 ROSC BZ EP   4    432 24.98                             117    2.19 0  254 211 
 ROSC BN ES        432 52.30                             117   -0.47 8  254 211 
 ROSC BZ I         433  0.59         9.0 0.40            117            254 211 
 URE  HZ EP        432 25.24                             114   -0.41 7  285 292 
 PTGC HZ EP        432 27.66                             112   -0.72 7  309 159 
 PTGC HN ES   4    433  1.74                             112   -0.99 0  309 159 
 PTGC HZ I         433  3.63         8.5 0.42            113            309 159 
 LL6C HN EP   4    432 11.34                             111   -18.7 0  324 357 
 LL6C HN ES   4    432 46.24                             111   -19.5 0  324 357 
 CBOC HZ EP   4    432 33.27                             110    1.72 0  335 252 
 CBOC HN ES        433  8.40                             110    0.02 7  335 252 
 ANIL HN ES        433 14.52                             109    1.00 6  359 225 
 PRA  HZ EP        432 38.40                             107    0.26 6  393 210 
 PRA  HN ES        433 20.34                             107    0.24 6  393 210 
 PRA  HZ I         433 25.39         5.5 0.52            107            393 210 
 ORTC HZ EP        432 38.70                             107    0.16 6  397 216 
 ORTC HN ES        433 22.13                             107    1.31 6  397 216 
 ORTC HZ I         433 27.79         2.8 0.50            107            397 216 
 SJC  HZ EP   4    432 38.62                             106   -1.37 0  409 327 
 SJC  HN ES   4    433 19.88                             106   -3.51 0  409 327 
 SJC  HZ I         433 23.47         2.7 0.68            107            409 327 
                                                                                
