 2017  4 8 0155 30.1 L   6.603 -73.515106.5  RSN  6 0.3 1.2LRSN                1
 GAP=118        0.61       3.2     2.5  5.8  0.2903E+00  0.4665E+01 -0.3778E+01E
 Epicentro: EL CARMEN - SANTANDER                                              3
 ACTION:UPD 17-05-30 21:09 OP:jn   STATUS:               ID:20170408015530 L   I
 OLDACT:UP  17-04-08 13:50 OP:and  STATUS:               ID:20170408014745     3
 OLDACT:UP  17-04-08 13:49 OP:and  STATUS:               ID:20170408014745     3
 OLDACT:UP  17-04-08 13:48 OP:and  STATUS:               ID:20170408014745     3
 OLDACT:UP  17-04-08 13:48 OP:and  STATUS:               ID:20170408014745     3
 OLDACT:UP  17-04-08 13:48 OP:and  STATUS:               ID:20170408014745     3
 OLDACT:REG 17-04-08 12:38 OP:and  STATUS:               ID:20170408014745     3
 2017-04-08-0148-00M.COL___371                                                 6
 STAT SP IPHASW D HRMM SECON CODA AMPLIT PERI AZIMU VELO AIN AR TRES W  DIS CAZ7
 BAR2 EZ EP     C  155 45.64                             160    0.1010 36.8  92 
 BAR2 EZ ES        155 57.91                             160    0.3510 36.8  92 
 BAR2 EZ I         155 58.61         9.1 0.09            163           36.8  92 
 BRR  HZ EP   2    155 45.96                             148   -0.47 5 59.8 339 
 RUS  HZ EP        155 49.55                             136    0.0210 92.0 149 
 RUS  HN ES        156  4.58                             136   -0.0810 92.0 149 
 RUS  HZ I         156  7.24         3.3 0.34            138           92.0 149 
 PTB  HZ EP   4    155 48.36                             132   -1.60 0  104 266 
 PTB  HN ES        156  5.14                             132   -0.2810  104 266 
 PTB  HZ I         156  7.52         1.6 0.16            133            104 266 
 PAM  EN ES        156  9.15                             128   -0.2710  121  48 
 ZAR  HZ EP        155 57.66                             116    0.20 9  178 304 
 ZAR  HN ES   2    156 19.30                             116    0.53 4  178 304 
 ZAR  HZ I         156 21.33         2.6 0.40            117            178 304 
                                                                                
