 2010  5 8 0607 31.6 L   6.799 -73.025140.6  RSN 10 0.4 1.9LRSN                1
 GAP=135        0.89       4.0     7.3  6.7 -0.9467E+01 -0.1445E+02 -0.2382E+01E
 Epicentro: CEPITA - SANTANDER                                                 3
 ACTION:UP  10-08-24 10:03 OP:vdl  STATUS:               ID:20100508060731 L   I
 2010-05-08-0605-58S.COL___105                                                 6
 STAT SP IPHASW D HRMM SECON CODA AMPLIT PERI AZIMU VELO SNR AR TRES W  DIS CAZ7
 BAR2 SZ EP   1    6 7 50.63                             168    -0.1 7   29 217 
 BAR2 SZ ES   1    6 8  5.38                             168    -0.3 7   29 217 
 GIR2 SZ EP        6 7 50.71                             165    -0.110   36 329 
 GIR2 SZ ES   3    6 8  5.70                             165    -0.1 2   36 329 
 BRR  HZ IP     D  6 7 53.20                             148     0.310   83 294 
 BRR  HZ I         6 7 53.38        19.7 0.11                            83 294 
 BRR  HN ES   1    6 8  9.75                             148     0.2 7   83 294 
 RUS  HZ EP        6 7 54.98                             143     0.210  100 184 
 RUS  HE ES   1    6 8 12.79                             143    -0.2 7  100 184 
 RUS  HZ I         6 8 14.31         6.0 0.30                           100 184 
 BRI  SZ EP        6 7 55.18                             141     0.510  105  14 
 BRI  SZ ES   2    6 8 12.96                             141     0.3 5  105  14 
 GUE  SZ IP     D  6 7 55.66                             139     0.010  115   6 
 GRA  SZ IP     D  6 7 56.47                             137     0.410  123  12 
 GRA  SZ ES   2    6 8 14.68                             137    -0.5 5  123  12 
 OCA  SZ EP        6 7 58.76                             128    -0.9 9  163 348 
 OCA  SZ I         6 8 24.11        11.0 0.17                           163 348 
 SDV  BZ EP        6 8 20.29                             108     0.0 6  350  49 
 SDV  BN ES   2    6 8 57.53                             108    -0.7 3  350  49 
 SDV  BZ I         6 9  0.75         1.5 0.38                           350  49 
 PRA  HZ EP        6 8 25.42                             105    -0.3 6  399 211 
 PRA  HN ES   2    6 9  7.72                             105    -0.2 3  399 211 
 PRA  HZ I         6 9 13.09         4.2 0.29                           399 211 
                                                                                
