 2016  1 8 0703 56.2 L   7.470 -73.202129.6  RSN  6 0.4 1.3LRSN                1
 GAP=138        0.92       4.0     4.0  7.5  0.8366E+00  0.8653E+01 -0.8251E+01E
 Epicentro: EL PLAYON - SANTANDER                                              3
 ACTION:UPD 16-03-09 23:23 OP:cam  STATUS:               ID:20160108070356 L   I
 OLDACT:REG 16-01-08 12:35 OP:drio STATUS:               ID:20160108065748     3
 2016-01-08-0657-48M.COL___272                                                 6
 STAT SP IPHASW D HRMM SECON CODA AMPLIT PERI AZIMU VELO AIN AR TRES W  DIS CAZ7
 PAM  EZ EP        7 4 15.97                             155    0.4010 57.3 105 
 PAM  EE ES        7 4 31.05                             155    0.3910 57.3 105 
 PAM  EZ I         7 4 33.13         4.3 0.44            158           57.3 105 
 BRR  HZ EP        7 4 15.68                             150    0.1510 69.1 235 
 BRR  HN ES        7 4 30.51                             150   -0.0710 69.1 235 
 BRR  HZ I         7 4 31.55         4.4 0.24            150           69.1 235 
 BAR2 EZ EP        7 4 17.74                             141   -0.0610 97.1 179 
 BAR2 EZ ES        7 4 33.88                             141   -0.7510 97.1 179 
 BAR2 EZ I         7 4 35.04         5.1 0.14            143           97.1 179 
 PTB  HZ EP        7 4 24.42                             123    0.02 9  173 233 
 PTB  HN ES        7 4 46.59                             123    0.23 9  173 233 
 PTB  HZ I         7 4 49.79         1.4 0.24            125            173 233 
 SML  HZ EP        7 4 24.31                             123   -0.37 9  176 327 
 SML  HN ES        7 4 46.53                             123   -0.34 9  176 327 
 SML  HZ I         7 4 48.09         3.9 0.10            124            176 327 
 ZAR  HN ES        7 4 48.61                             122    0.40 9  183 271 
 ZAR  HZ I         7 4 52.04         2.4 0.56            123            183 271 
                                                                                
