 2013 12 8 0210 41.1 L   6.829 -73.159141.5  RSN 11 0.4 1.7LRSN                1
 GAP=133        0.98       3.1     3.9  6.2 -0.1544E+01  0.6206E+01  0.3528E+01E
 Epicentro: LOS SANTOS - SANTANDER                                             3
 ACTION:UPD 14-01-13 10:16 OP:ep   STATUS:               ID:20131208021041 L   I
 OLDACT:REG 13-12-08 07:21 OP:carl STATUS:               ID:20131208021000     3
 2013-12-08-0210-00M.COL___285                                                 6
 STAT SP IPHASW D HRMM SECON CODA AMPLIT PERI AZIMU VELO AIN AR TRES W  DIS CAZ7
 BAR2 SZ EP        211  0.22                             169   -0.0510 26.3 186 
 BAR2 SZ ES        211 15.24                             169    0.0110 26.3 186 
 BAR2 SZ I         211 16.23        13.5 0.26            166           26.3 186 
 BRR  HZ IP        211  1.98                             153    0.3610 68.4 297 
 BRR  HN ES        211 17.89                             153    0.2610 68.4 297 
 BRR  HZ I         211 22.75         8.9 0.26            150           68.4 297 
 PAM  SZ EP        211  3.17                             150    0.4110 75.9  42 
 PAM  SE ES        211 19.76                             150    0.0910 75.9  42 
 PAM  SZ I         211 21.59         6.0 0.38            157           75.9  42 
 RUS  HZ EP        211  4.27                             142   -0.3910  104 175 
 RUS  HN ES        211 22.88                             142   -0.1710  104 175 
 RUS  HZ I         211 24.73         4.6 0.18            144            104 175 
 PTB  HZ EP        211  6.88                             131   -0.76 9  147 258 
 PTB  HN ES        211 27.92                             131   -0.43 9  147 258 
 PTB  HZ I         211 35.05         4.7 0.22            131            147 258 
 OCA  HN ES        211 29.95                             129   -0.38 9  157 354 
 SPBC HZ EP        211  9.27                             128   -0.14 9  165 218 
 SPBC HN ES        211 31.11                             128   -0.39 9  165 218 
 SPBC HZ I         211 40.15         5.5 0.24            129            165 218 
 ZAR  HN ES        211 38.24                             122    0.36 9  202 291 
 ZAR  HN I         211 43.25        10.8 0.40            123            202 291 
 NOR  HZ EP        211 16.91                             117    0.27 8  235 234 
 NOR  HN ES        211 44.96                             117    0.58 8  235 234 
 NOR  HZ I         211 52.17         2.8 0.34            119            235 234 
 CHI  HN ES        211 49.02                             116    0.73 8  251 195 
 CHI  HN I         211 50.65         6.4 0.32            118            251 195 
 GUY2CHZ EP   4    211 25.92                             111    1.35 0  302 234 
 GUY2CHE ES   4    211 59.92                             111    1.43 0  302 234 
 GUY2CHZ I         212  8.25         2.4 0.42                           302 234 
                                                                                
