 2012  6 8 0651 18.3 L   6.110 -73.983 21.3  RSN  5 0.3 1.5LRSN                1
 GAP=135        0.66       7.3     3.8  8.8  0.2304E+02  0.2877E+02  0.5570E+02E
 Epicentro: CIMITARRA - SANTANDER                                              3
 ACTION:UPD 12-08-06 17:48 OP:ep   STATUS:               ID:20120608065119 L   I
 2012-06-08-0650-00M.COL___201                                                 6
 STAT SP IPHASW D HRMM SECON CODA AMPLIT PERI AZIMU VELO AIN AR TRES W  DIS CAZ7
 PTB  HZ IP     D  651 29.99                             105    0.0010 70.7 312 
 PTB  HN ES   1    651 38.98                             105   -0.11 7 70.7 312 
 PTB  HZ I         651 39.65        33.0 0.10             98           70.7 312 
 RUS  HZ EP        651 35.36                             100    0.1610  102 103 
 RUS  HN ES   1    651 47.86                             100   -0.50 7  102 103 
 RUS  HZ I         651 48.86        11.0 0.31             96            102 103 
 BAR2 SZ EP   1    651 35.37                             100    0.30 7  103  59 
 BAR2 SZ I         651 49.49         5.5 0.18             95            103  59 
 NOR  SN ES   1    651 50.98                              56    0.18 7  115 238 
 HEL  HZ EP   1    651 44.35                              56    0.39 7  171 273 
 HEL  HN ES   1    652  3.40                              56   -0.56 7  171 273 
 HEL  HZ I         652  4.58         4.3 0.37             56            171 273 
                                                                                
