 2011  6 8 0413 41.1 L   6.753 -73.064134.8  RSN  5 0.3 1.6LRSN                1
 GAP=166        0.68       5.0    14.0 10.7 -0.2907E+02  0.2143E+02 -0.7558E+01E
 Epicentro: LOS SANTOS - SANTANDER                                             3
 ACTION:UP  11-07-14 19:03 OP:ep   STATUS:               ID:20110608041341 L   I
 2011-06-08-0410-39S.COL___129                                                 6
 STAT SP IPHASW D HRMM SECON CODA AMPLIT PERI AZIMU VELO SNR AR TRES W  DIS CAZ7
 BAR2 SZ EP   1    413 59.70                             170     0.3 7   22 216 
 BAR2 SZ ES   2    414 14.04                             170     0.4 5   22 216 
 BAR2 SZ I         414 16.11        16.7 0.18                            22 216 
 BRR  HZ EP   1    414  1.55                             147    -0.2 7   82 299 
 BRR  HZ I         414 20.24        10.0 0.13                            82 299 
 RUS  HZ EP   1    414  3.56                             143     0.2 7   95 181 
 RUS  HN ES   2    414 20.05                             143    -0.7 5   95 181 
 BRI  SZ EP   1    414  4.17                             138     0.0 7  111  15 
 BRI  SZ I         414 20.63         4.6 0.54                           111  15 
 GRA  SZ ES   1    414 24.58                             134    -0.2 7  128  13 
 GRA  SZ I         414 28.08         5.6 0.24                           128  13 
                                                                                
