 2016  5 8 0052 42.5 L   6.752 -73.143153.9  RSN  6 0.3 1.3LRSN                1
 GAP=200        0.83       4.6     5.8  6.4  0.1302E+02  0.3506E+01 -0.6135E+01E
 Epicentro: LOS SANTOS - SANTANDER                                             3
 ACTION:UPD 16-08-18 17:43 OP:cam  STATUS:               ID:20160508005242 L   I
 OLDACT:REG 16-05-08 13:22 OP:ak   STATUS:               ID:20160508004745     3
 2016-05-08-0047-45M.COL___310                                                 6
 STAT SP IPHASW D HRMM SECON CODA AMPLIT PERI AZIMU VELO AIN AR TRES W  DIS CAZ7
 BAR2 EZ ES        053 18.79                             173   -0.2510 18.2 194 
 BRR  HZ EP        053  5.02                             153    0.3110 74.1 302 
 BRR  HE ES        053 22.53                             153    0.5210 74.1 302 
 RUS  HZ EP        053  6.99                             147    0.2810 95.3 176 
 RUS  HN ES        053 25.36                             147   -0.2310 95.3 176 
 RUS  HZ I         053 27.35         1.3 0.18            144           95.3 176 
 PTB  HZ EP        053 10.06                             134   -0.04 9  147 261 
 PTB  HN ES        053 31.11                             134   -0.50 9  147 261 
 PTB  HZ I         053 38.58         3.6 0.38            129            147 261 
 ZAR  HZ EP   2    053 15.90                             124    0.16 4  206 293 
 ZAR  HN ES        053 41.92                             124    0.27 8  206 293 
 ZAR  HZ I         053 47.67         2.0 0.22            121            206 293 
 SML  HZ EP   2    053 19.77                             118   -0.37 4  249 336 
 SML  HN ES        053 48.96                             118   -0.52 8  249 336 
                                                                                
