 2013  9 8 0157 33.7 L   6.816 -73.099159.4  RSN  5 0.3 1.4LRSN                1
 GAP=205        0.66       6.6     8.3  7.9  0.4024E+02 -0.3037E+02 -0.2150E+02E
 Epicentro: LOS SANTOS - SANTANDER                                             3
 ACTION:UPD 13-10-22 09:21 OP:ep   STATUS:               ID:20130908015733 L   I
 OLDACT:REG 13-09-08 07:28 OP:mh   STATUS:               ID:20130908014959     3
 2013-09-08-0149-59M.COL___269                                                 6
 STAT SP IPHASW D HRMM SECON CODA AMPLIT PERI AZIMU VELO AIN AR TRES W  DIS CAZ7
 BAR2 SZ EP   1    157 55.17                             171    0.13 7 26.4 201 
 BAR2 SZ I         158 19.95         3.0 0.28            171           26.4 201 
 BRR  HZ EP   1    157 57.13                             154    0.58 7 75.0 295 
 BRR  HN ES        158 14.36                             154   -0.0110 75.0 295 
 BRR  HZ I         158 21.19         5.2 0.42            159           75.0 295 
 RUS  HZ EP        157 58.63                             146   -0.2910  102 179 
 RUS  HN ES   2    158 18.66                             146    0.06 5  102 179 
 RUS  HZ I         158 18.92         1.0 0.38            147            102 179 
 ZAR  HE ES        158 33.65                             125   -0.20 8  208 291 
 ZAR  HZ I         158 39.39         4.7 0.24            127            208 291 
 SML  HZ EP        158 11.43                             120    0.23 8  244 334 
 SML  HN ES   2    158 39.65                             120   -0.79 4  244 334 
 SML  HZ I         158 43.75         4.1 0.10            120            244 334 
                                                                                
