 2011  2 8 0916 37.2 L   7.538 -73.632 88.8  RSN  6 0.3 2.1LRSN                1
 GAP=149        0.68       3.7     8.9 14.6 -0.4016E+01  0.9244E+02 -0.7257E-01E
 Epicentro: SABANA DE TORRES - SANTANDER                                       3
 ACTION:UP  11-03-28 15:06 OP:jfem STATUS:               ID:20110208091637 L   I
 2011-02-08-0900-00M.COL___140                                                 6
 STAT SP IPHASW D HRMM SECON CODA AMPLIT PERI AZIMU VELO SNR AR TRES W  DIS CAZ7
 GIR2 SZ EP   1    916 52.56                             138    -0.1 7   70 136 
 GIR2 SZ ES   2    917  4.98                             138     0.2 5   70 136 
 BTL  SZ EP   1    916 53.01                             134    -0.6 7   79 150 
 OCA  SZ IP        916 53.99                             132     0.010   85  24 
 OCA  SZ ES   2    917  7.06                             132     0.0 5   85  24 
 OCA  SZ I         917  8.90        60.1 0.33                            85  24 
 GRA  SZ EP   1    916 55.74                             127     0.4 7   99  67 
 GRA  SZ ES   2    917  8.85                             127    -0.6 5   99  67 
 GRA  SZ I         917 10.75        40.8 0.23                            99  67 
 BAR2 SZ EP   1    916 57.19                             123     0.1 7  116 155 
 BAR2 SZ ES   2    917 13.05                             123     0.4 5  116 155 
 HEL  HZ EP   1    917 13.38                             104     0.0 6  257 235 
 HEL  HZ I         917 51.56         4.6 0.49                           257 235 
                                                                                
