 2013  5 8 0705 31.1 L   7.447 -73.207132.0  RSN 15 0.5 2.1LRSN                1
 GAP=107        0.84       2.6     4.1  5.5 -0.1997E-01  0.8974E+01 -0.1687E+01E
 Epicentro: EL PLAYON - SANTANDER                                              3
 ACTION:UPD 13-06-20 09:48 OP:ep   STATUS:               ID:20130508070531 L   I
 2013-05-08-0700-00M.COL___256                                                 6
 STAT SP IPHASW D HRMM SECON CODA AMPLIT PERI AZIMU VELO AIN AR TRES W  DIS CAZ7
 GIR2 SZ IP     C  7 5 49.46                             162    0.0010 40.7 178 
 GIR2 SZ ES   2    7 6  3.02                             162   -0.76 5 40.7 178 
 GIR2 SZ I         7 6  3.84        17.4 0.26            157           40.7 178 
 PAM  SZ EP        7 5 50.97                             156    0.2710 57.2 102 
 PAM  SN ES   1    7 6  6.36                             156    0.37 7 57.2 102 
 PAM  SZ I         7 6  8.59        28.1 0.54            153           57.2 102 
 BRR  HZ IP     C  7 5 50.69                             151    0.1510 67.3 236 
 BRR  HN ES   1    7 6  6.03                             151    0.33 7 67.3 236 
 BRR  HZ I         7 6  6.33        32.0 0.34            145           67.3 236 
 OCA  HZ EP   1    7 5 52.22                             144    0.07 7 88.4 352 
 OCA  HN ES   1    7 6  8.81                             144    0.25 7 88.4 352 
 OCA  HZ I         7 6 11.25        21.1 0.20            142           88.4 352 
 BAR2 SZ EP        7 5 52.68                             143   -0.0310 94.5 178 
 BAR2 SZ ES   1    7 6  9.09                             143   -0.47 7 94.5 178 
 BAR2 SZ I         7 6 10.82        20.2 0.46            136           94.5 178 
 PTB  HZ EP        7 5 59.02                             124   -0.21 9  171 234 
 PTB  HZ I         7 6 24.06        16.6 0.16            119            171 234 
 RUS  HN ES   1    7 6 22.23                             125   -0.37 7  172 175 
 RUS  HZ I         7 6 29.24         3.0 0.18            119            172 175 
 SML  HZ EP        7 5 59.42                             123   -0.47 9  177 328 
 SML  HN ES   1    7 6 21.76                             123   -0.60 7  177 328 
 SML  HZ I         7 6 23.21        39.2 0.10            119            177 328 
 ZAR  HZ EP        7 6  0.81                             123    0.40 9  182 272 
 ZAR  HN ES   1    7 6 24.11                             123    0.84 7  182 272 
 ZAR  HZ I         7 6 25.23        32.1 0.22            118            182 272 
 URE  HZ EP   4    7 6  7.82                             113   -0.89 0  259 278 
 URE  HN ES   4    7 6 36.43                             113   -1.61 0  259 278 
 URE  HZ I         7 6 39.40         8.2 0.32            109            259 278 
 COD  HZ EP   1    7 6 11.87                             112    1.20 6  276 355 
 COD  HN ES   1    7 6 41.12                             112   -0.41 6  276 355 
 NOR  HZ EP   1    7 6 11.06                             111    0.16 6  278 222 
 NOR  HN ES   1    7 6 41.50                             111   -0.44 6  278 222 
 NOR  HZ I         7 6 47.23         7.0 0.38            107            278 222 
 HEL  HZ EP   2    7 6 12.83                             110   -0.07 4  292 242 
 HEL  HN ES   1    7 6 45.71                             110    0.21 5  292 242 
 SJC  HZ EP        7 6 18.16                             107   -0.76 6  347 321 
 SJC  HE ES   2    7 6 55.31                             107   -0.92 3  347 321 
 SJC  HZ I         7 7  5.41         2.0 0.46            103            347 321 
 PRA  HZ EP        7 6 31.20                             102   -0.20 5  453 204 
 PRA  HN ES   2    7 7 19.02                             102    0.58 2  453 204 
                                                                                
