 2014 11 8 0147 27.8 L   6.744 -73.129149.2  RSN  4 0.5 1.2LRSN                1
 GAP=141        1.28       8.5     8.4 13.1  0.1678E+02 -0.2472E+02 -0.2138E+02E
 Epicentro: LOS SANTOS - SANTANDER                                             3
 ACTION:UPD 14-12-19 15:40 OP:nd   STATUS:               ID:20141108014727 L   I
 OLDACT:UP  14-11-08 13:48 OP:cam  STATUS:               ID:20141108013817     3
 OLDACT:REG 14-11-08 13:16 OP:cam  STATUS:               ID:20141108013817     3
 2014-11-08-0138-17M.COL___289                                                 6
 STAT SP IPHASW D HRMM SECON CODA AMPLIT PERI AZIMU VELO AIN AR TRES W  DIS CAZ7
 BRR  HZ EP        147 49.91                             152    0.3510 75.9 302 
 BRR  HN ES        148  7.05                             152    0.5010 75.9 302 
 BRR  HZ I         148  9.95         4.8 0.40            153           75.9 302 
 PAM  SZ EP        147 49.84                             150   -0.7410 81.2  36 
 RUS  HZ EP        147 52.07                             146    0.6410 94.3 177 
 RUS  HE ES        148  9.65                             146   -0.2210 94.3 177 
 RUS  HZ I         148 11.63         2.2 0.24            149           94.3 177 
 PTB  HZ EP        147 55.10                             133    0.01 9  148 261 
 PTB  HN ES        148 15.78                             133   -0.61 9  148 261 
 PTB  HZ I         148 18.37         1.8 0.10            135            148 261 
                                                                                
