 2015 12 8 0210 18.2 L   6.797 -73.150146.6  RSN  6 0.5 1.4LRSN                1
 GAP=136        0.67       5.9     6.3  8.9 -0.1642E+02  0.1372E+02  0.1164E+02E
 Epicentro: LOS SANTOS - SANTANDER                                             3
 ACTION:UPD 16-02-04 15:03 OP:cam  STATUS:               ID:20151208021018 L   I
 OLDACT:UP  15-12-08 13:46 OP:ar   STATUS:               ID:20151208020750     3
 OLDACT:REG 15-12-08 13:08 OP:ar   STATUS:               ID:20151208020750     3
 2015-12-08-0207-50M.COL___325                                                 6
 STAT SP IPHASW D HRMM SECON CODA AMPLIT PERI AZIMU VELO AIN AR TRES W  DIS CAZ7
 BAR2 EZ EP   2    210 37.36                             171   -0.57 5 22.9 189 
 BAR2 EZ ES   2    210 53.59                             171    0.28 5 22.9 189 
 BAR2 EZ I         210 55.46         3.8 0.15            169           22.9 189 
 BRR  HZ EP   2    210 39.31                             153   -0.12 5 71.0 299 
 BRR  HN ES   2    210 56.84                             153    0.85 5 71.0 299 
 PAM  EZ EP   2    210 40.69                             151    0.15 5 77.9  40 
 PAM  EN ES        210 57.87                             151   -0.1010 77.9  40 
 PAM  EZ I         210 59.73         5.8 0.44            156           77.9  40 
 RUS  HZ EP   2    210 42.26                             144    0.25 5  100 176 
 RUS  HN ES   2    211  0.24                             144   -0.34 5  100 176 
 RUS  HZ I         211  1.58         3.6 0.28            147            100 176 
 PTB  HZ EP   2    210 44.88                             132   -0.31 5  147 259 
 PTB  HN ES   2    211  5.42                             132   -0.83 5  147 259 
 PTB  HZ I         211 10.63         1.7 0.36            132            147 259 
 SPBC HZ EP   2    210 47.63                             129    0.92 5  163 219 
 SPBC HE ES   2    211  9.11                             129    0.16 5  163 219 
 SPBC HZ I         211 12.90         4.2 0.32            131            163 219 
                                                                                
