 2016 12 8 0138 48.7 L   6.634 -73.217 25.4  RSN  5 0.3 1.2LRSN                1
 GAP=105        0.85       2.0     2.6  3.1  0.1660E+00  0.3685E+01 -0.5640E+00E
 Epicentro: BARICHARA - SANTANDER                                              3
 ACTION:UPD 17-01-11 20:13 OP:rebc STATUS:               ID:20161208013848 L   I
 OLDACT:REG 16-12-08 12:45 OP:ar   STATUS:               ID:20161208012742     3
 2016-12-08-0128-00M.COL___370                                                 6
 STAT SP IPHASW D HRMM SECON CODA AMPLIT PERI AZIMU VELO AIN AR TRES W  DIS CAZ7
 BAR2 EZ IP     C  138 53.41                             166    0.1310 6.01 141 
 BAR2 EZ ES        138 57.02                             166    0.1810 6.01 141 
 BAR2 EZ I         138 57.36        18.1 0.10            166           6.01 141 
 BRR  HZ IP     D  139  1.07                              92   -0.1510 75.7 314 
 BRR  HE ES        139 10.50                              92   -0.4810 75.7 314 
 BRR  HZ I         139 11.19         8.9 0.14            106           75.7 314 
 RUS  HZ EP        139  2.96                              91    0.1010 83.3 170 
 RUS  HN ES        139 13.36                              91   -0.5210 83.3 170 
 RUS  HZ I         139 14.40         8.0 0.30            105           83.3 170 
 PAM  EZ EP        139  4.89                              91    0.1410 96.7  36 
 PAM  EE ES        139 17.20                              91   -0.0610 96.7  36 
 PAM  EZ I         139 17.90         5.3 0.24             71           96.7  36 
 PTB  HZ EP        139  9.98                              61    0.62 9  138 266 
 PTB  HN ES        139 25.58                              61    0.12 9  138 266 
 PTB  HZ I         139 26.77         7.8 0.30             56            138 266 
                                                                                
