 2016  6 8 0354 34.4 L   6.769 -73.133149.0  RSN  7 0.6 1.6LRSN                1
 GAP=140        1.44       5.5     7.3  9.8 -0.9493E+01  0.9906E+01  0.3822E+01E
 Epicentro: LOS SANTOS - SANTANDER                                             3
 ACTION:UPD 16-07-21 22:16 OP:rebc STATUS:               ID:20160608035434 L   I
 OLDACT:DUP 16-06-08 17:12 OP:dani STATUS:               ID:20160608034742d    3
 OLDACT:UP  16-06-08 17:08 OP:dani STATUS:               ID:20160608034741     3
 OLDACT:UP  16-06-08 17:07 OP:dani STATUS:               ID:20160608034741     3
 OLDACT:UP  16-06-08 17:04 OP:dani STATUS:               ID:20160608034741     3
 OLDACT:REG 16-06-08 12:59 OP:dani STATUS:               ID:20160608034741     3
 2016-06-08-0347-41M.COL___334                                                 6
 STAT SP IPHASW D HRMM SECON CODA AMPLIT PERI AZIMU VELO AIN AR TRES W  DIS CAZ7
 BAR2 EZ EP        354 54.27                             172   -0.1010 20.3 195 
 BAR2 EZ ES        355  9.28                             172   -0.6610 20.3 195 
 BAR2 EZ I         355 11.83         9.6 0.26                          20.3 195 
 BRR  HZ EP        354 55.86                             152   -0.2010 74.1 300 
 BRR  HE ES        355 13.12                             152    0.1610 74.1 300 
 BRR  HZ I         355 16.88         6.9 0.17                          74.1 300 
 PAM  EZ EP     D  354 56.98                             151   -0.0910 79.2  37 
 PAM  EE ES        355 14.18                             151   -0.5810 79.2  37 
 PAM  EZ I         355 16.22         7.1 0.38                          79.2  37 
 RUS  HZ EP        354 58.30                             145    0.0710 97.1 177 
 RUS  HE ES        355 17.58                             145    0.7710 97.1 177 
 RUS  HZ I         355 17.92         5.3 0.30                          97.1 177 
 PTB  HZ EP        355  1.26                             133   -0.44 9  148 260 
 PTB  HN ES        355 22.43                             133   -0.56 9  148 260 
 PTB  HZ I         355 22.84         3.9 0.18                           148 260 
 SPBC HZ EP        355  2.75                             130   -0.23 9  161 220 
 SPBC HN ES        355 26.03                             130    0.75 9  161 220 
 SPBC HZ I         355 31.94         7.1 0.23                           161 220 
 OCA  HN ES        355 27.12                             130    1.28 9  164 353 
                                                                                
