 2012 11 8 0203 49.0 L   6.818 -73.163140.7  RSN 21 0.5 3.3LRSN 3.2WRSN        1
 SPEC AVERAGE  MO 13.9 ST  4.9 OM  2.4 f0 3.26 R0.5361 AL 2.54 WI  7.5 MW  3.2 3
 SPEC SD       MO  0.1 ST  3.9 OM  0.4 f0 1.27 R0.2239 AL      WI      MW  0.0 3
 GAP= 70        1.20       2.8     3.5  5.1 -0.1320E+01  0.6497E+01  0.1235E+01E
 Epicentro: LOS SANTOS - SANTANDER                                             3
 SPEC RREFHH Z MO 13.9 ST  8.5 OM  2.0 f0 4.12 R0.3568 AL 2.36 WI  9.7 MW  3.2 3
 SPEC RREFHH Z T 2 512 K 0.000 GD  351 VS 4.20 DE 3.20 Q0300.0 QA 0.60 VS 4.20 3
 SPEC ROSCBH Z MO 13.9 ST0.773 OM  2.0 f0 1.98 R0.7424 AL 2.53 WI  9.7 MW  3.2 3
 SPEC ROSCBH Z T 2 459 K 0.000 GD  289 VS 4.20 DE 3.20 Q0300.0 QA 0.60 VS 4.20 3
 SPEC TAM HH N MO 13.9 ST0.575 OM  2.2 f0 1.71 R0.8596 AL 1.83 WI  5.0 MW  3.2 3
 SPEC TAM HH N T 2 437 K 0.000 GD  210 VS 4.20 DE 3.20 Q0300.0 QA 0.60 VS 4.20 3
 SPEC PRA HH N MO 13.9 ST  4.5 OM  1.9 f0 3.41 R0.4311 AL 2.06 WI  6.9 MW  3.2 3
 SPEC PRA HH N T 2 524 K 0.000 GD  417 VS 4.20 DE 3.20 Q0300.0 QA 0.60 VS 4.20 3
 SPEC CHI HH N MO 13.8 ST 10.2 OM  1.9 f0 5.06 R0.2905 AL 3.93 WI  6.2 MW  3.1 3
 SPEC CHI HH N T 2 456 K 0.000 GD  286 VS 4.20 DE 3.20 Q0300.0 QA 0.60 VS 4.20 3
 ACTION:UPD 12-12-05 15:31 OP:}ep  STATUS:               ID:20121108020348 L   I
 2012-11-08-0200-00M.COL___230                                                 6
 STAT SP IPHASW D HRMM SECON CODA AMPLIT PERI AZIMU VELO AIN AR TRES W  DIS CAZ7
 BAR2 SZ IP     C  2 4  8.16                             169    0.1010 25.0 185 
 BAR2 SZ ES        2 4 22.41                             169   -0.5210 25.0 185 
 GIR2 SZ IP     D  2 4  8.25                             168    0.2310 29.1 353 
 GIR2 SZ ES        2 4 23.40                             168    0.5610 29.1 353 
 BRR  HZ IP     C  2 4 10.08                             152    0.6210 68.6 298 
 BRR  HN ES   4    2 4 27.12                             152    1.71 0 68.6 298 
 BRR  HN I         2 4 27.70       877.7 0.14                          68.6 298 
 PAM  SZ IP     C  2 4 11.01                             150    0.3410 77.2  42 
 PAM  SZ I         2 4 11.35       403.5 0.24                          77.2  42 
 PAM  SN ES        2 4 28.00                             150    0.4310 77.2  42 
 RUS  HZ IP     D  2 4 12.10                             142   -0.3210  103 175 
 RUS  HN ES        2 4 30.58                             142   -0.1010  103 175 
 RUS  HN I         2 4 32.23       274.7 0.28                           103 175 
 PTB  HZ EP        2 4 14.70                             131   -0.73 9  146 258 
 PTB  HN ES        2 4 35.56                             131   -0.47 9  146 258 
 PTB  HN I         2 4 41.50       453.9 0.26                           146 258 
 TAM  HZ IP     D  2 4 16.45                             129   -0.06 9  157 105 
 TAM  HZ I         2 4 16.57       287.9 0.20                           157 105 
 TAM  HN ES        2 4 37.77                             129   -0.19 9  157 105 
 OCA  HZ EP        2 4 16.48                             129   -0.24 9  158 354 
 OCA  HN ES        2 4 37.77                             129   -0.57 9  158 354 
 OCA  HN I         2 4 43.23       694.2 0.22                           158 354 
 ZAR  HZ EP        2 4 21.00                             122    0.13 9  202 292 
 ZAR  HN ES        2 4 46.60                             122    0.89 9  202 292 
 ZAR  HZ I         2 4 55.05       180.7 0.32                           202 292 
 NOR  HZ EP        2 4 24.07                             117   -0.33 8  234 234 
 NOR  HN ES        2 4 50.96                             117   -1.05 8  234 234 
 NOR  HN I         2 4 56.82       286.7 0.18                           234 234 
 SML  HZ EP        2 4 24.68                             117   -0.39 8  241 336 
 SML  HN ES   4    2 4 51.81                             117   -1.39 0  241 336 
 CHI  HZ EP        2 4 26.42                             116   -0.16 8  250 195 
 CHI  HN ES        2 4 55.56                             116   -0.33 8  250 195 
 CHI  HN I         2 5  0.88        70.4 0.42                           250 195 
 ROSC BZ EP        2 4 28.21                             115    1.28 8  253 210 
 ROSC BN ES   1    2 4 57.31                             115    0.80 6  253 210 
 ROSC BZ I         2 5  3.78        78.0 0.50                           253 210 
 HEL  HZ EP        2 4 29.70                             114    0.89 8  271 255 
 HEL  HN I         2 5  6.91        67.5 0.46                           271 255 
 RREF HZ EP   4    2 4 36.01                             110    1.10 0  322 229 
 DBB  SZ EP        2 4 36.60                             109    0.55 7  337 274 
 DBB  SZ ES   1    2 5 12.42                             109   -0.31 5  337 274 
 DBB  SZ I         2 5 16.40        98.8 0.52                           337 274 
 TOL  SZ EP        2 4 37.68                             108    0.61 7  344 224 
 COD  HZ EP        2 4 36.27                             108   -0.67 6  346 355 
 COD  HN ES        2 5 13.65                             108   -0.68 6  346 355 
 COD  HN I         2 5 23.60        15.7 0.18                           346 355 
 MON  HZ EP   4    2 4 35.80                             108   -1.70 0  351 308 
 MON  HN ES   4    2 5 14.04                             108   -1.29 0  351 308 
 ANIL HZ EP        2 4 39.08                             107    0.45 6  357 224 
 ANIL HN ES        2 5 17.23                             107   -0.10 6  357 224 
 PRA  HZ EP        2 4 41.75                             106   -0.70 6  393 209 
 PRA  HN ES        2 5 24.36                             106    0.23 6  393 209 
 PRA  HN I         2 5 29.58        41.6 0.58                           393 209 
 PAL  HZ EP        2 4 44.24                             105    0.31 6  405 239 
 YOT  HZ EP        2 4 51.05                             102   -0.85 5  472 229 
                                                                                
