 2011  4 8 0859 36.5 L   6.848 -73.110145.8  RSN 16 0.5 2.5LRSN                1
 GAP=105        0.92       3.7     5.2  5.7 -0.6837E+01  0.2861E+01  0.6752E+01E
 Epicentro: LOS SANTOS - SANTANDER                                             3
 ACTION:UP  11-06-22 15:29 OP:REBC STATUS:               ID:20110408085936 L   I
 2011-04-08-0857-14S.COL___138                                                 6
 STAT SP IPHASW D HRMM SECON CODA AMPLIT PERI AZIMU VELO SNR AR TRES W  DIS CAZ7
 BTL  SZ IP        859 56.24                             172     0.210   19 294 
 BTL  SZ ES   1    9 0 11.51                             172     0.2 7   19 294 
 BAR2 SZ IP        859 55.99                             168    -0.210   29 196 
 BAR2 SZ ES   2    9 0 10.85                             168    -0.8 5   29 196 
 BAR2 SZ I         9 0 14.42        55.0 0.65                            29 196 
 PAM  SZ EP   1    859 58.46                             153     0.2 7   71  40 
 PAM  SZ I         859 58.92        52.3 0.18                            71  40 
 PAM  SN ES   1    9 0 15.49                             153     0.2 7   71  40 
 BRR  HZ IP     D  859 57.64                             152     0.010   72 293 
 BRR  HZ I         859 57.84        61.6 0.10                            72 293 
 BRR  HN ES   1    9 0 14.69                             152     0.5 7   72 293 
 GRA  SZ IP        9 0  1.39                             139     0.210  119  16 
 GRA  SZ ES   1    9 0 20.33                             139    -0.1 7  119  16 
 GRA  SZ I         9 0 21.69        80.9 0.30                           119  16 
 OCA  SZ EP        9 0  4.22                             131    -0.1 9  156 351 
 OCA  SZ ES   1    9 0 25.24                             131    -0.8 7  156 351 
 OCA  SZ I         9 0 27.16        47.4 0.17                           156 351 
 YOP  SZ EP   1    9 0  6.97                             126     0.2 7  182 155 
 YOP  SN ES   2    9 0 31.25                             126     0.8 4  182 155 
 YOP  SZ I         9 0 32.04        18.5 0.60                           182 155 
 NOR  SZ EP   1    9 0 12.60                             118    -0.3 6  241 234 
 NOR  SN ES   2    9 0 39.91                             118    -1.4 4  241 234 
 CHI  HZ EP   1    9 0 14.49                             116    -0.3 6  255 196 
 CHI  HZ I         9 0 15.99        18.3 0.39                           255 196 
 CHI  HN ES   1    9 0 44.28                             116    -0.5 6  255 196 
 ROSC BZ IP   4    9 0 16.50                             116     1.2 0  259 211 
 HEL  HZ EP   1    9 0 17.59                             114     0.3 6  277 255 
 HEL  HN ES   2    9 0 49.71                             114     0.7 4  277 255 
 HEL  HZ I         9 0 55.10        23.9 0.48                           277 255 
 VIL  SZ EP   3    9 0 20.29                             112    -0.3 2  309 192 
 GUY  SZ EP   1    9 0 21.55                             112     0.5 5  310 235 
 GUY  SN ES   2    9 0 55.36                             112    -0.5 4  310 235 
 GUY  SZ I         9 1  2.87        18.5 0.41                           310 235 
 RREF HZ EP   1    9 0 24.06                             110     0.7 5  328 229 
 RREF HZ I         9 1  8.46        16.0 0.36                           328 229 
 TOL  SZ EP        9 0 26.08                             109     0.6 6  350 224 
 SDV  BZ EP   1    9 0 25.15                             109    -0.6 5  354  50 
 SDV  BZ I         9 1  5.33         9.2 0.44                           354  50 
 PRA  HZ EP   1    9 0 29.78                             106    -1.0 4  399 210 
 PRA  HN ES   2    9 1 12.75                             106    -0.3 3  399 210 
                                                                                
