 2011  5 8 0028 25.0 L   6.769 -73.109148.9  RSN  6 0.3 1.5LRSN                1
 GAP=160        0.60       4.1     8.2  6.1 -0.8360E+01 -0.1055E+02 -0.3665E+00E
 Epicentro: LOS SANTOS - SANTANDER                                             3
 ACTION:UP  11-06-29 08:51 OP:tino STATUS:               ID:20110508002825 L   I
 2011-05-08-0027-45S.COL___133                                                 6
 STAT SP IPHASW D HRMM SECON CODA AMPLIT PERI AZIMU VELO SNR AR TRES W  DIS CAZ7
 BAR2 SZ EP   1    028 44.82                             171    -0.2 7   21 202 
 BAR2 SZ I         028 45.28         6.7 0.44                            21 202 
 BAR2 SZ ES   2    029  0.24                             171    -0.3 5   21 202 
 BTL  SZ EP   1    028 45.06                             170     0.0 7   24 313 
 BTL  SZ ES   1    029  0.95                             170     0.3 7   24 313 
 BRR  HZ EP        028 47.03                             151     0.210   76 299 
 BRR  HZ I         028 48.82        10.1 0.14                            76 299 
 BRR  HN ES   2    029  3.38                             151    -0.4 5   76 299 
 RUS  HZ EP   1    028 48.51                             145    -0.3 7   97 178 
 RUS  HZ I         029  7.57         3.8 0.48                            97 178 
 RUS  HN ES   2    029  7.86                             145     0.4 5   97 178 
 BRI  SZ EP   1    028 49.63                             142     0.3 7  110  18 
 GRA  SZ EP   1    028 50.74                             137     0.0 7  128  15 
 GRA  SZ ES   1    029 10.53                             137    -0.3 7  128  15 
 GRA  SZ I         029 11.55         4.8 0.29                           128  15 
                                                                                
