 2013  8 8 0629 24.2 L   6.765 -73.162144.4  RSN 11 0.4 2.0LRSN                1
 GAP=136        0.89       3.2     4.2  5.3 -0.3985E+01  0.3005E+01  0.4855E+01E
 Epicentro: LOS SANTOS - SANTANDER                                             3
 ACTION:UPD 14-01-14 09:00 OP:ep   STATUS:               ID:20130808062924 L   I
 OLDACT:UP  13-08-08 10:23 OP:jn   STATUS:               ID:20130808062747     3
 OLDACT:REG 13-08-08 07:41 OP:jn   STATUS:               ID:20130808062747     3
 2013-08-08-0627-47M.COL___223                                                 6
 STAT SP IPHASW D HRMM SECON CODA AMPLIT PERI AZIMU VELO AIN AR TRES W  DIS CAZ7
 BAR2 SZ EP        629 43.59                             172    0.0410 19.3 187 
 BAR2 SZ ES        629 58.44                             172   -0.2410 19.3 187 
 BAR2 SZ I         630  0.29        21.9 0.18            172           19.3 187 
 GIR2 SZ EP        629 44.03                             166    0.2610 34.8 354 
 GIR2 SZ ES        629 59.43                             166    0.3610 34.8 354 
 GIR2 SZ I         630  0.51        27.2 0.44            165           34.8 354 
 BRR  HZ EP        629 45.35                             152    0.1710 71.5 302 
 BRR  HN ES        630  2.31                             152    0.7310 71.5 302 
 BRR  HZ I         630  6.27        18.3 0.14            151           71.5 302 
 PAM  SZ EP        629 46.51                             149    0.0310 81.5  39 
 PAM  SN ES        630  3.53                             149   -0.3710 81.5  39 
 PAM  SZ I         630  5.71        30.3 0.50            151           81.5  39 
 RUS  HZ EP        629 47.42                             145   -0.1010 96.9 175 
 RUS  HN ES        630  5.63                             145   -0.1010 96.9 175 
 RUS  HZ I         630  7.49        10.2 0.30            146           96.9 175 
 PTB  HZ EP   1    629 50.98                             132    0.19 7  145 260 
 PTB  HN ES        630 10.77                             132   -0.79 9  145 260 
 PTB  HZ I         630 14.38         5.6 0.20            132            145 260 
 SPBC HZ EP   1    629 52.51                             129    0.35 7  159 219 
 SPBC HN ES   1    630 13.88                             129   -0.13 7  159 219 
 SPBC HZ I         630 17.04         9.1 0.30            130            159 219 
 OCA  HN ES   1    630 14.18                             129   -0.79 7  164 354 
 OCA  HZ I         630 18.86         8.2 0.24            129            164 354 
 NOR  HE ES   1    630 27.06                             119    0.15 6  231 235 
 CHI  HN ES   1    630 30.67                             117    0.35 6  244 195 
 PRA  HZ EP        630 17.28                             106    0.14 6  388 210 
 PRA  HN ES        630 58.10                             106   -0.36 6  388 210 
 PRA  HZ I         631  4.46         4.5 0.40            107            388 210 
                                                                                
