 2015  1 8 0458 20.7 L   6.814 -73.202153.4  RSN  5 0.4 1.2LRSN                1
 GAP=131        1.12      16.3    10.8 17.0 -0.1136E+03 -0.1179E+03  0.1923E+03E
 Epicentro: ZAPATOCA - SANTANDER                                               3
 ACTION:UPD 15-03-02 15:37 OP:nd   STATUS:               ID:20150108045820 L   I
 OLDACT:UP  15-01-08 16:27 OP:cam  STATUS:               ID:20150108045812     3
 OLDACT:REG 15-01-08 13:10 OP:cam  STATUS:               ID:20150108045812     3
 2015-01-08-0458-12M.COL___268                                                 6
 STAT SP IPHASW D HRMM SECON CODA AMPLIT PERI AZIMU VELO AIN AR TRES W  DIS CAZ7
 BAR2 EZ EP        458 40.80                             171   -0.4310 24.6 175 
 BRR  HZ EP     C  458 42.71                             156    0.4010 65.0 300 
 BRR  HN ES        458 59.59                             156    0.3910 65.0 300 
 BRR  HZ I         459  3.81         3.4 0.36            158           65.0 300 
 PAM  SZ EP        458 43.63                             151   -0.2310 80.4  44 
 PTB  HZ EP        458 47.43                             135   -0.32 9  142 258 
 PTB  HN ES        459  8.37                             135   -0.51 9  142 258 
 PTB  HZ I         459 11.83         1.7 0.18            138            142 258 
 SPBC HZ EP        458 50.21                             131    0.70 9  161 217 
                                                                                
