 2014  8 8 0915 31.6 L   6.810 -73.165136.0  RSN 13 0.4 1.5LRSN                1
 GAP=134        0.96       2.6     3.7  5.6 -0.1728E+01  0.4798E+01  0.4196E+00E
 Epicentro: LOS SANTOS - SANTANDER                                             3
 ACTION:UPD 14-09-15 21:47 OP:nd   STATUS:               ID:20140808091531 L   I
 OLDACT:UP  14-08-08 15:02 OP:spq  STATUS:               ID:20140808090812     3
 OLDACT:REG 14-08-08 13:42 OP:spq  STATUS:               ID:20140808090812     3
 2014-08-08-0908-12M.COL___251                                                 6
 STAT SP IPHASW D HRMM SECON CODA AMPLIT PERI AZIMU VELO AIN AR TRES W  DIS CAZ7
 BAR2 SZ EP        915 50.53                             169    0.4910 24.2 184 
 BAR2 SZ ES   1    916  4.77                             169    0.31 7 24.2 184 
 BAR2 SZ I         916  6.85         8.4 0.21            168           24.2 184 
 BRR  HZ EP        915 51.86                             152    0.3310 68.8 299 
 BRR  HE ES        916  7.42                             152    0.3210 68.8 299 
 BRR  HZ I         916 10.60         5.6 0.10            150           68.8 299 
 PAM  SZ EP        915 53.35                             149    0.5610 77.9  41 
 PAM  SN ES        916  8.91                             149   -0.4410 77.9  41 
 PAM  SZ I         916 12.58        10.5 0.50            154           77.9  41 
 RUS  HZ EP   1    915 54.07                             141   -0.40 7  102 175 
 RUS  HE ES   1    916 12.12                             141   -0.21 7  102 175 
 RUS  HZ I         916 14.23         2.5 0.32            144            102 175 
 PTB  HZ EP        915 57.46                             130   -0.12 9  146 258 
 PTB  HN ES        916 17.32                             130   -0.55 9  146 258 
 PTB  HZ I         916 25.67         4.3 0.32            130            146 258 
 OCA  HZ EP        915 59.16                             128    0.15 9  159 354 
 OCA  HN ES        916 19.50                             128   -0.91 9  159 354 
 OCA  HZ I         916 26.46         3.4 0.16            130            159 354 
 SPBC HZ EP        915 59.60                             127    0.31 9  163 218 
 SPBC HN ES        916 20.86                             127   -0.05 9  163 218 
 SPBC HZ I         916 27.43         3.3 0.26            128            163 218 
 ZAR  HZ EP   1    916  3.32                             120    0.18 6  202 292 
 ZAR  HN ES        916 28.37                             120    0.60 9  202 292 
 ZAR  HZ I         916 34.76         4.5 0.36            122            202 292 
 SML  HZ EP        916  7.23                             115   -0.22 8  242 336 
 SML  HE ES        916 35.33                             115   -0.12 8  242 336 
 SML  HZ I         916 40.33         5.1 0.09            118            242 336 
 CHI  HE ES   1    916 37.81                             115   -0.03 6  249 195 
 CHI  HZ I         916 42.32         1.4 0.23            117            249 195 
 HEL  HE ES        916 41.71                             113   -0.21 8  270 255 
 HEL  HZ I         916 49.47         1.9 0.46            114            270 255 
 PRA  HZ EP        916 24.27                             105   -0.48 6  392 209 
 PRA  HE ES        917  5.93                             105   -0.31 6  392 209 
 PRA  HZ I         917 11.33         1.7 0.28            107            392 209 
 SJC  HZ EP   4    916 24.94                             104   -1.63 0  407 327 
 SJC  HN ES   4    917  7.08                             104   -2.40 0  407 327 
 SJC  HZ I         917 10.42         1.7 0.54            106            407 327 
                                                                                
