 2016  8 8 0452 49.8 L   6.796 -73.076150.0  RSN  7 0.4 1.8LRSN                1
 GAP=244        0.83       4.8     5.8  6.7  0.4614E+01  0.1190E+02  0.6336E+01E
 Epicentro: LOS SANTOS - SANTANDER                                             3
 ACTION:UPD 16-10-29 15:33 OP:rebc STATUS:               ID:20160808045249 L   I
 OLDACT:REG 16-08-08 12:42 OP:dnl  STATUS:               ID:20160808044730     3
 2016-08-08-0448-00M.COL___365                                                 6
 STAT SP IPHASW D HRMM SECON CODA AMPLIT PERI AZIMU VELO AIN AR TRES W  DIS CAZ7
 BAR2 EZ EP        453 10.18                             170    0.1810 25.4 207 
 BAR2 EZ ES        453 25.46                             170   -0.2910 25.4 207 
 BAR2 EZ I         453 26.40        11.3 0.16                          25.4 207 
 BRR  HZ EP        453 12.12                             151    0.2910 78.2 296 
 BRR  HN ES        453 29.34                             151    0.3410 78.2 296 
 BRR  HZ I         453 33.52         7.7 0.28                          78.2 296 
 RUS  HZ EP   2    453 14.14                             145    0.20 5 99.9 180 
 RUS  HN ES   2    453 32.75                             145   -0.01 5 99.9 180 
 RUS  HZ I         453 33.93         4.7 0.30                          99.9 180 
 PTB  HZ EP        453 17.10                             131   -0.71 9  155 260 
 PTB  HN ES   4    453 37.99                             131   -1.65 0  155 260 
 PTB  HZ I         453 41.48         6.7 0.12                           155 260 
 SPBC HZ EP        453 19.14                             129    0.06 9  168 221 
 SPBC HN ES        453 41.73                             129   -0.17 9  168 221 
 SPBC HZ I         453 46.67        11.9 0.24                           168 221 
 ZAR  HZ EP   4    453 21.63                             122   -1.66 0  211 291 
 ZAR  HE ES        453 49.13                             122   -0.27 8  211 291 
 ZAR  HZ I         453 55.28         7.1 0.40                           211 291 
 GUY2CHZ EP   4    453 35.38                             113    1.08 0  307 236 
 GUY2CHN ES        454  9.62                             113    0.62 7  307 236 
 GUY2CHZ I         454 16.70         4.0 0.56                           307 236 
                                                                                
