 2017  6 8 0315 36.1 L   6.680 -73.264157.0  RSN  5 0.3 1.0LRSN                1
 GAP=213        0.70       5.5     5.7  6.3  0.1745E+02  0.2856E+01  0.4944E+01E
 Epicentro: GALAN - SANTANDER                                                  3
 ACTION:UPD 17-09-14 16:50 OP:jn   STATUS:               ID:20170608031536 L   I
 OLDACT:UP  17-06-08 15:13 OP:edw  STATUS:               ID:20170608030743d    3
 OLDACT:UP  17-06-08 15:13 OP:edw  STATUS:               ID:20170608030743d    3
 OLDACT:DUP 17-06-08 15:11 OP:edw  STATUS:               ID:20170608030743d    3
 OLDACT:UP  17-06-08 15:10 OP:edw  STATUS:               ID:20170608030742     3
 OLDACT:REG 17-06-08 12:53 OP:edw  STATUS:               ID:20170608030742     3
 2017-06-08-0308-00M.COL___365                                                 6
 STAT SP IPHASW D HRMM SECON CODA AMPLIT PERI AZIMU VELO AIN AR TRES W  DIS CAZ7
 BRR  HZ EP        315 58.11                             155   -0.2110 68.4 314 
 BRR  HN ES        316 15.90                             155    0.2410 68.4 314 
 RUS  HZ EP        316  0.18                             149   -0.0510 89.3 167 
 RUS  HE ES     C  316 18.99                             149   -0.0710 89.3 167 
 RUS  HZ I         316 20.15         1.7 0.24            148           89.3 167 
 PTB  HZ EP        316  2.48                             138   -0.2510  133 263 
 PTB  HE ES        316 23.25                             138   -0.2510  133 263 
 PTB  HZ I         316 26.76         1.3 0.16            136            133 263 
 SPBC HZ EP        316  4.38                             135    0.55 9  145 218 
 SPBC HE ES   4    316 27.84                             135    2.38 0  145 218 
 ZAR  HN ES   2    316 34.41                             126    0.35 4  198 297 
                                                                                
