 2014 11 8 0628 49.5 L   6.793 -73.110148.1  RSN 12 0.4 2.1LRSN                1
 GAP=141        1.01       3.1     4.6  5.2 -0.4752E+01  0.5046E+01  0.3027E+01E
 Epicentro: LOS SANTOS - SANTANDER                                             3
 ACTION:UPD 14-12-19 15:40 OP:nd   STATUS:               ID:20141108062849 L   I
 OLDACT:UP  14-11-08 15:01 OP:cam  STATUS:               ID:20141108062812     3
 OLDACT:REG 14-11-08 13:26 OP:cam  STATUS:               ID:20141108062812     3
 2014-11-08-0628-12M.COL___292                                                 6
 STAT SP IPHASW D HRMM SECON CODA AMPLIT PERI AZIMU VELO AIN AR TRES W  DIS CAZ7
 BAR2 SZ EP        629  9.42                             171   -0.0110 23.5 200 
 BAR2 SZ ES        629 24.93                             171   -0.0410 23.5 200 
 BAR2 SZ I         629 26.13        36.1 0.28            169           23.5 200 
 BRR  HZ EP        629 11.40                             152    0.2610 75.0 298 
 BRR  HN ES        629 28.74                             152    0.7410 75.0 298 
 BRR  HZ I         629 30.98         9.9 0.14            149           75.0 298 
 PAM  SZ EP     C  629 12.23                             152    0.3510 75.6  37 
 PAM  SE ES        629 29.53                             152    0.2110 75.6  37 
 PAM  SZ I         629 31.62        18.1 0.20            155           75.6  37 
 RUS  HZ EP     D  629 13.34                             145   -0.0910 99.6 178 
 RUS  HE ES        629 31.70                             145   -0.3810 99.6 178 
 RUS  HZ I         629 33.30         8.5 0.44            146           99.6 178 
 PTB  HZ EP        629 16.39                             132   -0.62 9  151 259 
 PTB  HN ES        629 37.73                             132   -0.73 9  151 259 
 PTB  HZ I         629 43.32        18.2 0.22            131            151 259 
 OCA  HZ EP        629 18.36                             130    0.23 9  162 352 
 OCA  HN ES        629 39.76                             130   -0.69 9  162 352 
 OCA  HZ I         629 47.73        11.1 0.32            131            162 352 
 SPBC HZ EP        629 18.13                             129   -0.24 9  165 220 
 SPBC HN ES        629 41.22                             129    0.34 9  165 220 
 SPBC HZ I         629 45.26        20.8 0.18            129            165 220 
 NOR  HZ EP        629 25.52                             119   -0.15 8  237 235 
 NOR  HN ES        629 53.69                             119   -0.19 8  237 235 
 NOR  HZ I         630  0.46        10.6 0.22            119            237 235 
 CHI  HZ EP        629 27.22                             118   -0.15 8  249 196 
 CHI  HN ES        629 56.72                             118   -0.18 8  249 196 
 CHI  HZ I         630  2.77         4.9 0.28            119            249 196 
 HEL  HZ EP   4    629 31.36                             115    1.11 0  276 256 
 GUY2CHZ EP   4    629 34.62                             113    1.08 0  304 235 
 CBOC HZ EP        629 37.22                             110    0.29 7  337 252 
 TOL  SZ EP        629 38.78                             110    0.66 6  346 225 
 TOL  SN ES        630 17.00                             110    0.97 6  346 225 
 TOL  SZ I         630 23.43        16.1 0.38            110            346 225 
 MON  HZ EP   4    629 36.35                             109   -2.67 0  357 308 
 PRA  HZ EP        629 42.91                             107   -0.35 6  393 210 
 PRA  HN ES        630 25.66                             107    0.47 6  393 210 
 PRA  HZ I         630 30.82         6.7 0.58            108            393 210 
                                                                                
