 2015 10 8 0902 45.0 L   6.811 -73.113145.1  RSN 13 0.4 1.7LRSN                1
 GAP=140        1.02       3.0     4.1  6.1  0.1994E+00  0.7865E+01  0.6441E+00E
 Epicentro: LOS SANTOS - SANTANDER                                             3
 ACTION:UPD 15-12-22 20:38 OP:cam  STATUS:               ID:20151008090245 L   I
 OLDACT:REG 15-10-08 13:19 OP:spq  STATUS:               ID:20151008085745     3
 2015-10-08-0857-45M.COL___336                                                 6
 STAT SP IPHASW D HRMM SECON CODA AMPLIT PERI AZIMU VELO AIN AR TRES W  DIS CAZ7
 BAR2 EZ EP     C  9 3  4.51                             170   -0.0310 25.4 198 
 BAR2 EZ ES   1    9 3 19.29                             170   -0.53 7 25.4 198 
 BAR2 EZ I         9 3 20.06        11.1 0.32            167           25.4 198 
 BRR  HZ EP     C  9 3  6.41                             151    0.2310 73.8 296 
 BRR  HE ES        9 3 23.35                             151    0.6210 73.8 296 
 BRR  HZ I         9 3 26.21         8.8 0.39            149           73.8 296 
 PAM  EZ EP        9 3  7.51                             152    0.6110 74.1  38 
 PAM  EN ES        9 3 24.13                             152    0.1110 74.1  38 
 PAM  EZ I         9 3 25.84         5.8 0.20            155           74.1  38 
 RUS  HZ EP        9 3  8.51                             143   -0.2010  102 178 
 RUS  HN ES        9 3 26.86                             143   -0.3910  102 178 
 RUS  HZ I         9 3 28.15         7.8 0.26            144            102 178 
 OCA  HZ EP        9 3 13.24                             130    0.10 9  159 352 
 OCA  HN ES        9 3 34.51                             130   -0.61 9  159 352 
 OCA  HZ I         9 3 36.49        19.3 0.60            131            159 352 
 SPBC HZ EP        9 3 13.78                             128    0.07 9  166 220 
 SPBC HE ES   4    9 3 35.02                             128   -1.12 0  166 220 
 SPBC HZ I         9 3 37.41         7.9 0.13            128            166 220 
 ZAR  HZ EP   4    9 3 19.10                             122    1.45 0  207 291 
 ZAR  HE ES        9 3 43.88                             122    0.72 8  207 291 
 ZAR  HZ I         9 3 50.08         4.9 0.34            121            207 291 
 NOR  HE ES        9 3 49.25                             118    0.07 8  238 235 
 NOR  HZ I         9 3 54.17         4.3 0.18            118            238 235 
 SML  HZ EP        9 3 21.16                             117   -0.42 8  244 334 
 SML  HE ES   1    9 3 49.50                             117   -0.65 6  244 334 
 SML  HZ I         9 3 51.66         9.0 0.30            118            244 334 
 CHI  HZ EP        9 3 22.87                             117    0.02 8  251 196 
 CHI  HE ES   1    9 3 52.61                             117    0.20 6  251 196 
 CHI  HZ I         9 3 59.36         1.4 0.62            117            251 196 
 HEL  HN ES   1    9 3 56.58                             114   -0.64 6  276 256 
 HEL  HZ I         9 4  4.23         2.6 0.26            114            276 256 
 URE  HZ EP        9 3 26.75                             113    0.44 7  287 291 
 URE  HN ES        9 3 57.72                             113   -0.85 7  287 291 
 URE  HZ I         9 3 58.57         3.4 0.38            113            287 291 
 SJC  HZ EP   4    9 3 39.52                             106   -1.08 0  410 326 
 SJC  HN ES   4    9 4 21.83                             106   -2.18 0  410 326 
 SJC  HZ I         9 4 28.72         1.2 0.32            106            410 326 
                                                                                
