 2017  3 8 0539 11.7 L   7.413 -73.188130.0  RSN  6 0.3 1.5LRSN                1
 GAP=186        0.62       4.7     2.9  5.0 -0.5648E-01  0.4909E+01 -0.1740E+01E
 Epicentro: EL PLAYON - SANTANDER                                              3
 ACTION:UPD 17-05-25 18:37 OP:jn   STATUS:               ID:20170308053911 L   I
 OLDACT:UP  17-03-08 18:13 OP:and  STATUS:               ID:20170308053746     3
 OLDACT:UP  17-03-08 18:13 OP:and  STATUS:               ID:20170308053746     3
 OLDACT:UP  17-03-08 18:13 OP:and  STATUS:               ID:20170308053746     3
 OLDACT:REG 17-03-08 12:56 OP:and  STATUS:               ID:20170308053746     3
 2017-03-08-0538-00M.COL___330                                                 6
 STAT SP IPHASW D HRMM SECON CODA AMPLIT PERI AZIMU VELO AIN AR TRES W  DIS CAZ7
 PAM  EZ EP        539 30.99                             157    0.0710 54.6  99 
 PAM  EN ES        539 45.96                             157    0.0310 54.6  99 
 PAM  EZ I         539 47.12         5.8 0.19            157           54.6  99 
 BRR  HZ EP        539 30.71                             151   -0.1710 67.0 240 
 BRR  HN ES        539 46.02                             151    0.1510 67.0 240 
 BRR  HZ I         539 46.52         8.0 0.12            146           67.0 240 
 BAR2 EZ EP        539 32.64                             144   -0.1610 90.7 180 
 BAR2 EZ ES        539 49.44                             144    0.1510 90.7 180 
 BAR2 EZ I         539 49.97         7.8 0.14            138           90.7 180 
 PTB  HZ EP        539 39.19                             124   -0.42 9  170 236 
 PTB  HN ES   2    540  0.58                             124   -0.83 4  170 236 
 PTB  HZ I         540  5.32         2.7 0.16            121            170 236 
 ZAR  HZ EP   2    539 41.36                             122    0.28 4  185 273 
 ZAR  HN ES        540  4.26                             122    0.25 9  185 273 
 ZAR  HZ I         540  6.71         5.4 0.12            120            185 273 
 SPBC HZ EP   2    539 45.28                             117    0.54 4  218 207 
 SPBC HN ES   2    540 11.14                             117    0.61 4  218 207 
 SPBC HZ I         540 18.53         2.7 0.24            115            218 207 
                                                                                
