 2013  6 8 0701 56.5 L   6.782 -73.169152.4  RSN  5 0.3 1.8LRSN                1
 GAP=190        0.63       5.0     5.6  5.7 -0.5045E+01 -0.1886E+00 -0.8416E+01E
 Epicentro: LOS SANTOS - SANTANDER                                             3
 ACTION:UPD 14-01-08 09:53 OP:ep   STATUS:               ID:20130608070156 L   I
 OLDACT:REG 13-06-08 07:03 OP:mh   STATUS:               ID:20130608070000     3
 2013-06-08-0700-00M.COL___257                                                 6
 STAT SP IPHASW D HRMM SECON CODA AMPLIT PERI AZIMU VELO AIN AR TRES W  DIS CAZ7
 BAR2 SZ EP   1    7 2 16.74                             172   -0.10 7 21.1 184 
 BAR2 SZ ES   1    7 2 32.39                             172   -0.35 7 21.1 184 
 BAR2 SZ I         7 2 33.28         4.5 0.28            173           21.1 184 
 BRR  HZ EP     C  7 2 18.69                             154    0.4310 69.9 301 
 BRR  HN ES        7 2 35.44                             154    0.1810 69.9 301 
 BRR  HN I         7 2 36.76        10.3 0.20            149           69.9 301 
 PTB  HZ EP   1    7 2 23.61                             134   -0.11 7  145 259 
 PTB  HN ES        7 2 44.84                             134   -0.14 9  145 259 
 PTB  HN I         7 2 49.62         6.8 0.30            132            145 259 
 OCA  HN ES   2    7 2 48.35                             131    0.30 5  162 354 
 OCA  HN I         7 2 50.52        10.3 0.16            129            162 354 
 SML  HZ EP        7 2 33.35                             119   -0.19 8  244 336 
 SML  HN ES   2    7 3  1.73                             119   -0.73 4  244 336 
 SML  HN I         7 3  7.54         8.4 0.10            118            244 336 
                                                                                
