 2012  4 8 0950 35.6 L   6.731 -73.195135.6  RSN  6 0.4 1.3LRSN                1
 GAP=133        1.05       7.0     6.3 11.6 -0.1353E+01  0.2423E+02 -0.1235E+02E
 Epicentro: VILLANUEVA - SANTANDER                                             3
 ACTION:UPD 12-07-05 11:51 OP:tino STATUS:               ID:20120408095035 L   I
 2012-04-08-0950-00M.COL___196                                                 6
 STAT SP IPHASW D HRMM SECON CODA AMPLIT PERI AZIMU VELO AIN AR TRES W  DIS CAZ7
 BAR2 SZ EP   1    950 53.92                             173     0.1 7   15 175 
 BAR2 SZ ES   1    951  7.63                             173    -0.4 7   15 175 
 BAR2 SZ I         951 11.36         8.1 0.49                            15 175 
 BRR  HZ EP   1    950 56.28                             151     0.7 7   71 306 
 BRR  HZ I         950 56.73         6.1 0.11                            71 306 
 PAM  SZ EP   1    950 56.96                             146    -0.4 7   87  39 
 PAM  SZ I         950 57.28         2.4 0.17                            87  39 
 PAM  SN ES   1    951 14.36                             146     0.1 7   87  39 
 RUS  HZ EP   1    950 57.50                             144    -0.3 7   94 172 
 RUS  HN ES   1    951 15.79                             144     0.6 7   94 172 
 RUS  HZ I         951 17.66         2.9 0.34                            94 172 
 PTB  HZ EP   1    951  0.78                             131    -0.3 7  141 261 
 PTB  HN ES   1    951 20.57                             131    -0.4 7  141 261 
 PTB  HZ I         951 22.60         2.8 0.13                           141 261 
 ZAR  HN ES   1    951 32.20                             120     0.4 6  202 295 
 ZAR  HZ I         951 38.04         3.0 0.28                           202 295 
                                                                                
