 2013  3 8 0216 44.4 L   6.806 -73.183138.4  RSN  8 0.4 1.8LRSN                1
 GAP=132        1.16       4.4     4.9  7.7  0.3857E+00  0.7361E+01 -0.4252E+01E
 Epicentro: LOS SANTOS - SANTANDER                                             3
 ACTION:UPD 13-04-09 14:00 OP:ep   STATUS:               ID:20130308021644 L   I
 2013-03-08-0208-50M.COL___206                                                 6
 STAT SP IPHASW D HRMM SECON CODA AMPLIT PERI AZIMU VELO AIN AR TRES W  DIS CAZ7
 BAR2 SZ EP        217  3.33                             170    0.1710 23.7 180 
 BAR2 SZ ES        217 17.76                             170   -0.0310 23.7 180 
 BAR2 SZ I         217 18.70        14.3 0.28            169           23.7 180 
 BRR  HZ EP        217  5.10                             152    0.5610 67.2 300 
 BRR  HN ES        217 20.89                             152    0.6510 67.2 300 
 BRR  HE I         217 22.29        16.2 0.28            153           67.2 300 
 PAM  SZ EP        217  6.13                             149    0.1410 79.6  42 
 PAM  SN ES        217 22.84                             149    0.0210 79.6  42 
 RUS  HZ EP        217  7.31                             142   -0.2110  102 174 
 RUS  HN ES        217 25.00                             142   -0.5510  102 174 
 RUS  HN I         217 27.30         3.8 0.34            143            102 174 
 PTB  HZ EP        217 11.21                             131    0.79 9  144 258 
 PTB  HN ES        217 30.39                             131   -0.32 9  144 258 
 PTB  HN I         217 33.42        16.5 0.24            131            144 258 
 OCA  HN ES        217 33.09                             128   -0.52 9  159 355 
 ZAR  HN ES        217 39.99                             121   -0.57 9  200 292 
 SML  HZ EP        217 19.91                             116   -0.47 8  241 336 
                                                                                
