 2011  9 8 0433 52.4 L   6.774 -73.097146.4  RSN  7 0.2 1.6LRSN                1
 GAP=144        0.31       2.7     4.1  3.9  0.1463E+01  0.4219E+00 -0.3312E+00E
 Epicentro: LOS SANTOS - SANTANDER                                             3
 ACTION:UPD 12-07-13 15:56 OP:ep   STATUS:               ID:20110908043243 L   I
 2011-09-08-0432-43S.COL___171                                                 6
 STAT SP IPHASW D HRMM SECON CODA AMPLIT PERI AZIMU VELO AIN AR TRES W  DIS CAZ7
 BAR2 SZ EP   1    434 11.99                             171   -0.07 7 22.2 205 
 BAR2 SZ ES   2    434 27.21                             171   -0.20 5 22.2 205 
 BAR2 SZ I         434 28.80         9.7 0.27                          22.2 205 
 GIR2 SZ EP   3    434 12.22                             166   -0.02 2 35.3 342 
 GIR2 SZ ES   3    434 27.84                             166    0.11 2 35.3 342 
 PAM  SZ EP   2    434 14.89                             151    0.29 5 76.4  35 
 PAM  SN ES   2    434 31.78                             151   -0.16 5 76.4  35 
 BRR  HZ EP   1    434 13.83                             151   -0.12 7 77.3 298 
 BRR  HZ I         434 25.44        11.0 0.35                          77.3 298 
 BRR  HN ES   2    434 31.04                             151    0.27 5 77.3 298 
 RUS  HZ EP   1    434 15.96                             145   -0.01 7 97.5 179 
 RUS  HN ES   2    434 34.56                             145    0.19 5 97.5 179 
 RUS  HZ I         434 35.90         3.1 0.45                          97.5 179 
 OCA  SZ EP   2    434 21.18                             129    0.11 5  164 351 
 OCA  SZ I         434 47.80         4.7 0.63                           164 351 
 ZAR  HE ES   3    434 51.05                             122   -0.26 2  210 292 
 ZAR  HZ I         434 57.98         2.6 0.16                           210 292 
                                                                                
