 2015  7 8 0550 52.4 L   6.825 -73.106148.2  RSN 14 0.4 1.9LRSN                1
 GAP=121        0.78       2.5     3.8  5.3  0.4105E+00  0.7249E+01  0.3217E+01E
 Epicentro: LOS SANTOS - SANTANDER                                             3
 ACTION:UPD 15-09-08 21:47 OP:cam  STATUS:               ID:20150708055052 L   I
 OLDACT:REG 15-07-08 16:50 OP:spq  STATUS:               ID:20150708054740     3
 2015-07-08-0547-40M.COL___340                                                 6
 STAT SP IPHASW D HRMM SECON CODA AMPLIT PERI AZIMU VELO AIN AR TRES W  DIS CAZ7
 BAR2 EZ EP        551 12.43                             169    0.0710 27.0 198 
 BAR2 EZ ES   1    551 27.72                             169   -0.24 7 27.0 198 
 BAR2 EZ I         551 30.22        12.7 0.26            168           27.0 198 
 PAM  EE ES   1    551 32.62                             153    0.75 7 72.5  38 
 PAM  EZ I         551 35.48        11.6 0.36            157           72.5  38 
 RUS  HZ EP        551 16.67                             144    0.1410  103 179 
 RUS  HE ES   1    551 35.37                             144   -0.01 7  103 179 
 RUS  HZ I         551 36.49         5.8 0.30            147            103 179 
 OCA  HZ EP   1    551 20.21                             131   -0.45 7  158 351 
 OCA  HN ES        551 42.55                             131   -0.19 9  158 351 
 OCA  HZ I         551 50.90        14.3 0.24            133            158 351 
 ZAR  HZ EP   1    551 25.99                             122    0.71 6  207 291 
 ZAR  HE ES        551 50.65                             122   -0.30 8  207 291 
 ZAR  HZ I         551 57.16         9.9 0.24            124            207 291 
 NOR  HZ EP        551 28.64                             118   -0.14 8  240 235 
 NOR  HN ES        551 57.00                             118   -0.19 8  240 235 
 NOR  HZ I         552  1.63         4.7 0.30            120            240 235 
 SML  HZ EP   1    551 29.09                             118    0.03 6  243 334 
 SML  HE ES   1    551 57.19                             118   -0.49 6  243 334 
 SML  HZ I         552  0.81         9.1 0.10            120            243 334 
 CHI  HZ EP   1    551 30.38                             117   -0.22 6  252 196 
 CHI  HN ES   1    552  0.15                             117   -0.28 6  252 196 
 CHI  HZ I         552  6.21         5.1 0.42            120            252 196 
 ROSC BZ EP   4    551 32.84                             117    1.73 0  257 212 
 ROSC BN ES   4    552  2.94                             117    1.60 0  257 212 
 ROSC BZ I         552  7.02         9.3 0.45            119            257 212 
 HEL  HZ EP   4    551 34.59                             115    1.35 0  277 255 
 HEL  HE ES   1    552  5.24                             115    0.12 6  277 255 
 HEL  HZ I         552 11.20         3.9 0.48            116            277 255 
 GUY2CHZ EP        551 37.57                             112    0.91 7  306 235 
 GUY2CHE ES   4    552 13.31                             112    2.10 0  306 235 
 GUY2CHZ I         552 19.18         4.3 0.76                           306 235 
 PTGC HZ EP        551 35.74                             112   -0.69 7  310 160 
 CBOC HZ EP        551 40.31                             110    0.37 7  339 252 
 PRA  HZ EP        551 46.48                             107   -0.01 6  397 210 
 PRA  HE ES        552 28.83                             107    0.12 6  397 210 
 PRA  HZ I         552 34.98         4.5 0.26            109            397 210 
                                                                                
