 2014  7 8 0308 21.4 L   6.785 -73.146141.8  RSN 14 0.5 2.1LRSN                1
 GAP=137        1.23       3.5     4.6  6.2 -0.5080E+01  0.9194E+01  0.1850E+00E
 Epicentro: LOS SANTOS - SANTANDER                                             3
 ACTION:UPD 15-03-16 20:42 OP:nd   STATUS:               ID:20140708030821 L   I
 OLDACT:UP  14-07-09 09:00 OP:SPQ  STATUS:               ID:20140708030821 L   3
 OLDACT:REG 14-07-08 12:23 OP:stll STATUS:               ID:20140708030818     3
 2014-07-08-0308-18M.COL___268                                                 6
 STAT SP IPHASW D HRMM SECON CODA AMPLIT PERI AZIMU VELO AIN AR TRES W  DIS CAZ7
 BAR2 SZ IP     D  3 8 40.94                             171    0.3710 21.7 191 
 BAR2 SZ ES        3 8 55.68                             171    0.1910 21.7 191 
 BAR2 SZ I         3 8 57.65        15.5 0.48            172           21.7 191 
 BRR  HZ IP     C  3 8 42.80                             152    0.5810 72.0 300 
 BRR  HN ES        3 8 59.39                             152    0.9710 72.0 300 
 BRR  HZ I         3 9  2.31        53.2 0.92            147           72.0 300 
 PAM  SZ EP        3 8 43.82                             150    0.5010 78.6  39 
 PAM  SE ES        3 9  0.12                             150   -0.2610 78.6  39 
 PAM  SZ I         3 9  3.05        13.1 0.50            142           78.6  39 
 RUS  HZ EP   1    3 8 44.73                             143    0.04 7 99.0 176 
 RUS  HN ES   1    3 9  1.51                             143   -1.32 7 99.0 176 
 RUS  HZ I         3 9  4.28        11.3 0.44            139           99.0 176 
 PTB  HZ EP        3 8 47.51                             131   -0.56 9  147 259 
 PTB  HN ES        3 9  8.68                             131   -0.15 9  147 259 
 PTB  HZ I         3 9 11.01        16.3 0.16            126            147 259 
 SPBC HZ EP        3 8 49.76                             128    0.23 9  162 219 
 SPBC HN ES        3 9 11.25                             128   -0.18 9  162 219 
 SPBC HZ I         3 9 13.22        17.1 0.22            123            162 219 
 OCA  HZ EP        3 8 49.58                             128   -0.03 9  162 353 
 OCA  HN ES        3 9 11.10                             128   -0.47 9  162 353 
 OCA  HZ I         3 9 16.81        12.9 0.20            121            162 353 
 ZAR  HZ EP        3 8 53.50                             121   -0.20 9  205 293 
 ZAR  HN ES        3 9 18.98                             121    0.12 9  205 293 
 ZAR  HZ I         3 9 25.08        19.3 0.30            116            205 293 
 NOR  HZ EP        3 8 56.70                             118   -0.15 8  234 235 
 NOR  HN ES        3 9 24.21                             118   -0.25 8  234 235 
 NOR  HZ I         3 9 28.05         8.4 0.26            113            234 235 
 SML  HZ EP        3 8 57.29                             117   -0.73 8  245 335 
 SML  HE ES        3 9 25.92                             117   -0.62 8  245 335 
 SML  HZ I         3 9 34.82        16.2 0.22            110            245 335 
 HEL  HZ EP        3 9  2.78                             114    1.36 8  272 256 
 HEL  HN ES        3 9 32.09                             114   -0.51 8  272 256 
 HEL  HZ I         3 9 41.33         4.4 0.32            109            272 256 
 GUY2CHZ EP        3 9  4.95                             112    0.18 7  300 235 
 GUY2CHN ES        3 9 38.43                             112   -0.13 7  300 235 
 GUY2CHZ I         3 9 49.67         6.4 0.54                           300 235 
 TOL  SZ EP   4    3 9 10.90                             109    1.49 0  342 225 
 TOL  SN ES        3 9 46.82                             109   -0.01 7  342 225 
 PRA  HZ EP        3 9 14.74                             106    0.07 6  391 210 
 PRA  HN ES   4    3 9 54.59                             106   -1.59 0  391 210 
 PRA  HZ I         310  0.88         4.5 0.52            102            391 210 
                                                                                
