 2010 11 8 0559 21.0 L   6.775 -73.026143.8  RSN  4 0.2 1.4LRSN                1
 GAP=178        0.43       4.4    11.6 11.0  0.2772E+02 -0.9861E+02 -0.2755E+02E
 Epicentro: CEPITA - SANTANDER                                                 3
 ACTION:UP  10-12-17 16:51 OP:REBC STATUS:               ID:20101108055921 L   I
 2010-11-08-0558-05S.COL___128                                                 6
 STAT SP IPHASW D HRMM SECON CODA AMPLIT PERI AZIMU VELO SNR AR TRES W  DIS CAZ7
 BRR  HZ EP   2    559 42.48                             148    -0.2 5   84 296 
 BRR  HE ES   1    559 59.67                             148     0.0 7   84 296 
 BRR  HZ I         6 0  2.10         5.0 0.18                            84 296 
 RUS  HZ EP   2    559 44.25                             144    -0.1 5   98 184 
 RUS  HN ES   2    6 0  2.68                             144     0.1 5   98 184 
 RUS  HZ I         6 0  4.06         3.3 0.30                            98 184 
 GUE  SZ EP   2    559 45.29                             139    -0.3 5  117   5 
 OCA  SZ EP   1    559 49.91                             128     0.3 7  165 349 
 OCA  SZ ES   2    6 0 11.81                             128    -0.1 5  165 349 
 OCA  SZ I         6 0 15.99         3.2 0.27                           165 349 
                                                                                
