 2010 11 8 0328 53.9 L   6.762 -73.098140.0  RSN 10 0.5 2.1LRSN                1
 GAP=164        0.90       4.3     7.9  8.0 -0.9650E+01  0.7534E+01 -0.3236E+01E
 Epicentro: LOS SANTOS - SANTANDER                                             3
 ACTION:UP  10-12-17 16:51 OP:REBC STATUS:               ID:20101108032853 L   I
 2010-11-08-0325-21S.COL___128                                                 6
 STAT SP IPHASW D HRMM SECON CODA AMPLIT PERI AZIMU VELO SNR AR TRES W  DIS CAZ7
 BAR2 SZ EP   1    329 12.91                             171     0.1 7   21 207 
 BAR2 SZ ES   2    329 26.82                             171    -0.7 5   21 207 
 BAR2 SZ I         329 28.78        36.4 0.13                            21 207 
 BRR  HZ IP     C  329 14.78                             149     0.010   78 299 
 BRR  HZ I         329 15.24        39.9 0.11                            78 299 
 BRR  HN ES   1    329 31.69                             149     0.5 7   78 299 
 RUS  HZ EP   1    329 16.75                             144     0.0 7   96 179 
 RUS  HE ES   1    329 34.66                             144     0.1 7   96 179 
 RUS  HZ I         329 36.37        11.0 0.19                            96 179 
 GUE  SZ EP   1    329 19.20                             137     0.9 7  120   9 
 GRA  SZ EP   2    329 18.71                             135    -0.1 5  128  15 
 GRA  SZ ES   2    329 38.32                             135     0.0 5  128  15 
 GRA  SZ I         329 39.46        17.8 0.40                           128  15 
 OCA  SZ EP        329 21.59                             128    -0.6 9  165 352 
 OCA  SZ ES   2    329 44.16                             128    -0.2 5  165 352 
 OCA  SZ I         329 46.65        11.6 0.29                           165 352 
 NOR  SZ EP   2    329 28.81                             117    -0.7 4  237 236 
 NOR  SN ES   2    329 56.42                             117    -0.9 4  237 236 
 HEL  HZ EP   2    329 35.01                             113     0.7 4  276 257 
 HEL  HZ I         330 11.71         5.5 0.22                           276 257 
 RREF HZ EP   2    329 40.56                             110     0.6 3  323 231 
 RREF HN ES   2    330 15.98                             110     0.1 3  323 231 
 RREF HZ I         330 21.91         7.1 0.17                           323 231 
 PRA  HZ EP   2    329 47.24                             106     0.1 3  391 211 
 PRA  HE ES   2    330 28.88                             106     0.3 3  391 211 
                                                                                
