 2016 12 8 0740 28.1 L   6.777 -73.154144.7  RSN  7 0.4 1.6LRSN                1
 GAP= 98        1.13       4.8     5.1  7.1 -0.3287E+01 -0.2179E+01  0.9199E+01E
 Epicentro: LOS SANTOS - SANTANDER                                             3
 ACTION:UPD 17-01-11 20:13 OP:rebc STATUS:               ID:20161208074028 L   I
 OLDACT:REG 16-12-08 13:37 OP:ar   STATUS:               ID:20161208073741     3
 2016-12-08-0738-00M.COL___355                                                 6
 STAT SP IPHASW D HRMM SECON CODA AMPLIT PERI AZIMU VELO AIN AR TRES W  DIS CAZ7
 BAR2 EZ EP        740 47.57                             171   -0.0310 20.7 189 
 BAR2 EZ ES        741  2.07                             171   -0.7110 20.7 189 
 BAR2 EZ I         741  4.02        18.6 0.30            170           20.7 189 
 BRR  HZ EP        740 49.36                             152    0.1510 71.6 301 
 BRR  HE ES        741  6.60                             152    0.9610 71.6 301 
 BRR  HZ I         741 10.40         8.3 0.30            151           71.6 301 
 PAM  EZ EP        740 50.47                             150    0.0710 79.9  39 
 PAM  EN ES        741  7.67                             150   -0.0910 79.9  39 
 PAM  EZ I         741 10.29         5.0 0.18            153           79.9  39 
 RUS  HZ EP        740 51.49                             144   -0.1310 98.2 175 
 RUS  HN ES        741 10.17                             144    0.2410 98.2 175 
 RUS  HZ I         741 11.55         5.8 0.40            146           98.2 175 
 PTB  HZ EP        740 54.29                             132   -0.62 9  146 260 
 PTB  HN ES        741 15.32                             132   -0.46 9  146 260 
 PTB  HZ I         741 21.93         4.5 0.48            132            146 260 
 TAM  HZ EP        740 55.74                             130   -0.03 9  155 104 
 CHI  HZ EP        741  5.93                             117    0.43 8  246 195 
 CHI  HN ES        741 35.01                             117    0.37 8  246 195 
 CHI  HZ I         741 38.73         2.6 0.42            119            246 195 
                                                                                
