 2017  2 8 0821 26.9 L   6.696 -73.190130.0  RSN  5 0.4 1.2LRSN                1
 GAP=224        0.91       6.5     6.4  7.3  0.2137E+02  0.1443E+02 -0.5322E+01E
 Epicentro: VILLANUEVA - SANTANDER                                             3
 ACTION:UPD 17-05-24 15:34 OP:jn   STATUS:               ID:20170208082126 L   I
 OLDACT:UP  17-02-08 18:48 OP:edw  STATUS:               ID:20170208081742     3
 OLDACT:REG 17-02-08 12:49 OP:edw  STATUS:               ID:20170208081742     3
 2017-02-08-0818-00M.COL___316                                                 6
 STAT SP IPHASW D HRMM SECON CODA AMPLIT PERI AZIMU VELO AIN AR TRES W  DIS CAZ7
 BAR2 EZ IP        821 44.32                             175   -0.1210 11.5 176 
 BAR2 EZ ES        821 58.43                             175    0.3210 11.5 176 
 BRR  HZ IP     D  821 46.08                             149   -0.4310 73.4 308 
 BRR  HE ES        822  1.89                             149    0.0910 73.4 308 
 BRR  HZ I         822  6.22         3.9 0.52            147           73.4 308 
 RUS  HN ES        822  4.84                             144   -0.1710 89.6 172 
 PTB  HZ EP        821 51.94                             130   -0.05 9  141 263 
 PTB  HN ES        822 11.72                             130    0.16 9  141 263 
 PTB  HZ I         822 17.62         1.8 0.48            130            141 263 
 ZAR  HZ EP        821 59.20                             119    0.82 9  204 296 
 ZAR  HN ES        822 22.42                             119   -0.52 9  204 296 
                                                                                
