 2016 11 8 0438 50.8 L   6.716 -73.133152.8  RSN  4 0.3 1.1LRSN                1
 GAP=167        0.90       9.6     5.8  7.3 -0.2785E+02  0.2123E+01  0.8827E+01E
 Epicentro: JORDAN - SANTANDER                                                 3
 ACTION:UPD 17-10-26 21:05 OP:lp   STATUS:               ID:20161108043850 L   I
 OLDACT:DUP 16-11-08 14:43 OP:lv   STATUS:               ID:20161108043741d    3
 2016-11-08-0438-00M.COL___349                                                 6
 STAT SP IPHASW D HRMM SECON CODA AMPLIT PERI AZIMU VELO AIN AR TRES W  DIS CAZ7
 BAR2 EZ EP        439 11.36                             174    0.2610 14.8 202 
 BAR2 EZ ES        439 27.05                             174    0.0910 14.8 202 
 BRR  HZ EP        439 13.30                             152    0.3010 77.2 304 
 BRR  HN ES        439 30.83                             152    0.4710 77.2 304 
 BRR  HZ I         439 35.55         2.0 0.28            147           77.2 304 
 PAM  EZ EP        439 14.12                             150    0.0110 83.9  35 
 PAM  EE ES        439 31.82                             150   -0.5010 83.9  35 
 PAM  EZ I         439 33.96         1.4 0.21            148           83.9  35 
 PTB  HZ EP        439 18.07                             134   -0.22 9  148 262 
 PTB  HE ES        439 39.28                             134   -0.50 9  148 262 
 PTB  HZ I         439 41.24         2.7 0.10            133            148 262 
                                                                                
