 2017 12 8 0923 20.9 L   6.380 -73.755 95.4  RSN  4 0.3 1.1LRSN                1
 GAP=134        0.73       3.7     3.1  7.5 -0.2480E+00  0.5713E+01 -0.1060E+02E
 Epicentro: SANTA HELENA DEL OPON - SANTANDER                                  3
 ACTION:UPD 18-01-04 13:18 OP:rebc STATUS:               ID:20171208092320 L   I
 OLDACT:REG 17-12-08 13:41 OP:dani STATUS:               ID:20171208091736     3
 2017-12-08-0918-00M.COL___464                                                 6
 STAT SP IPHASW D HRMM SECON CODA AMPLIT PERI AZIMU VELO AIN AR TRES W  DIS CAZ7
 BAR2 EZ EP        923 36.97                             142   -0.0110 67.5  70 
 BAR2 EZ ES        923 49.52                             142    0.0110 67.5  70 
 BAR2 EZ I         923 50.89         8.9 0.30            148           67.5  70 
 PTB  HZ EP        923 37.04                             137   -0.6010 79.6 283 
 PTB  HN ES        923 50.59                             137   -0.0810 79.6 283 
 PTB  HZ I         923 53.61         2.2 0.32            139           79.6 283 
 SPBC HZ EP   2    923 38.86                             134    0.41 5 87.8 204 
 SPBC HN ES        923 52.29                             134    0.1710 87.8 204 
 SPBC HZ I         923 54.69         2.8 0.22            138           87.8 204 
 ZAR  HZ EP        923 47.26                             114    0.11 9  173 315 
 ZAR  HN ES        924  8.00                             114    0.40 9  173 315 
 ZAR  HZ I         924 11.59         1.5 0.48            116            173 315 
                                                                                
