 2010  8 8 0508 37.2 L   6.048 -73.660114.0  RSN 13 0.4 2.0LRSN                1
 GAP= 83        0.85       2.9     4.4  6.6 -0.6228E+01  0.1448E+02 -0.1440E+01E
 Epicentro: CHIPATA - SANTANDER                                                3
 ACTION:UP  10-09-07 10:53 OP:vdl  STATUS:               ID:20100808050837 L   I
 2010-08-08-0506-09S.COL___124                                                 6
 STAT SP IPHASW D HRMM SECON CODA AMPLIT PERI AZIMU VELO SNR AR TRES W  DIS CAZ7
 RUS  HZ EP        5 8 55.44                             148     0.110   66 105 
 RUS  HN ES   1    5 9  9.74                             148     0.2 7   66 105 
 RUS  HZ I         5 9 13.52        16.1 0.94                            66 105 
 BAR2 SZ EP        5 8 56.20                             143     0.210   80  41 
 BAR2 SZ ES   1    5 9 10.44                             143    -0.2 7   80  41 
 BAR2 SZ I         5 9 12.41        64.6 0.31                            80  41 
 BTL  SZ IP        5 8 58.23                             134     0.210  106  24 
 BTL  SZ ES   1    5 9 14.38                             134     0.1 7  106  24 
 BRR  HZ EP        5 8 58.38                             131    -0.410  117 357 
 BRR  HZ I         5 9 11.49        14.3 0.11                           117 357 
 BRR  HN ES   1    5 9 15.31                             131    -0.3 7  117 357 
 GIR2 SZ EP        5 8 59.86                             129     0.210  125  24 
 GIR2 SZ ES   2    5 9 16.93                             129    -0.3 5  125  24 
 CHI  HZ EP        5 9  2.87                             122    -0.4 9  157 183 
 CHI  HN ES   2    5 9 23.06                             122    -0.5 5  157 183 
 CHI  HZ I         5 9 29.52         7.2 0.12                           157 183 
 HEL  HZ EP        5 9  8.29                             114    -0.3 8  207 274 
 HEL  HZ I         5 9 36.45         9.4 0.28                           207 274 
 GUY  SZ EP        5 9  9.04                             114     0.0 8  210 244 
 GUY  SN ES   1    5 9 34.43                             114     0.6 6  210 244 
 GUY  SZ I         5 9 38.76        27.2 0.50                           210 244 
 GUE  SZ IP        5 9  8.89                             114    -0.3 8  213  22 
 GRA  SZ EP        5 9  9.94                             112    -0.3 8  224  25 
 GRA  SZ I         5 9 40.65         4.8 0.36                           224  25 
 RREF HZ EP        5 9 11.25                             112     0.2 8  226 236 
 RREF HN ES   2    5 9 36.88                             112    -0.5 4  226 236 
 RREF HZ I         5 9 42.03         7.2 0.28                           226 236 
 OCA  SZ EP        5 9 12.88                             110     0.3 8  245   9 
 OCA  SZ ES   1    5 9 40.99                             110     0.8 6  245   9 
 OCA  SZ I         5 9 50.42         9.6 0.41                           245   9 
 PRA  HZ EP        5 9 17.61                             106    -0.2 7  292 208 
 PRA  HN ES   2    5 9 51.04                             106     1.5 4  292 208 
 PRA  HZ I         5 9 54.84         5.5 0.40                           292 208 
                                                                                
