 2014  6 8 0309 34.8 L   6.797 -73.161145.9  RSN 11 0.5 1.9LRSN                1
 GAP=181        1.11       4.2     5.6  8.6 -0.2209E+00  0.1319E+02 -0.5462E+01E
 Epicentro: LOS SANTOS - SANTANDER                                             3
 ACTION:UPD 14-07-01 22:51 OP:nd   STATUS:               ID:20140608030934 L   I
 OLDACT:REG 14-06-08 12:59 OP:fm   STATUS:               ID:20140608030806     3
 2014-06-08-0308-06M.COL___253                                                 6
 STAT SP IPHASW D HRMM SECON CODA AMPLIT PERI AZIMU VELO AIN AR TRES W  DIS CAZ7
 BAR2 SZ EP        3 9 54.25                             171   -0.1810 22.8 186 
 BAR2 SZ ES   1    310  9.21                             171   -0.53 7 22.8 186 
 BAR2 SZ I         310 10.68        10.1 0.14            170           22.8 186 
 RUS  HZ EP        3 9 58.37                             144   -0.1710  100 175 
 RUS  HN ES        310 17.69                             144    0.6210  100 175 
 PTB  HZ EP        310  1.05                             133   -0.57 9  146 259 
 PTB  HN ES        310 21.99                             133   -0.55 9  146 259 
 PTB  HZ I         310 26.89        10.2 0.12            131            146 259 
 OCA  HZ EP   1    310  2.53                             130   -0.59 7  160 354 
 OCA  HN ES        310 25.94                             130    0.73 9  160 354 
 OCA  HZ I         310 28.66         7.6 0.36            129            160 354 
 SPBC HZ EP        310  2.65                             130   -0.53 9  162 219 
 SPBC HN ES   1    310 25.92                             130    0.60 7  162 219 
 ZAR  HZ EP        310  7.34                             123    0.24 9  203 292 
 ZAR  HN ES        310 32.39                             123    0.10 9  203 292 
 ZAR  HZ I         310 37.75         8.0 0.34            122            203 292 
 NOR  HN ES        310 38.44                             119    0.33 8  233 234 
 NOR  HZ I         310 45.15         5.8 0.14            119            233 234 
 SML  HE ES   4    310 38.56                             118   -1.35 0  243 336 
 SML  HZ I         310 48.13         6.6 0.22            118            243 336 
 HEL  HZ EP   1    310 15.52                             115    0.70 6  270 256 
 HEL  HE ES   4    310 43.57                             115   -2.48 0  270 256 
 HEL  HZ I         310 52.45         4.1 0.36            115            270 256 
 GUY2CHZ EP   4    310 20.81                             113    2.58 0  300 235 
 GUY2CHN ES   4    310 57.58                             113    5.46 0  300 235 
 GUY2CHZ I         311  1.05         2.6 0.36                           300 235 
 CBOC HZ EP   1    310 22.06                             110    0.54 5  332 252 
                                                                                
