 2012  5 8 0836 26.2 L   6.744 -73.186147.9  RSN  6 0.2 1.3LRSN                1
 GAP=134        0.55       3.9     3.5  4.9  0.4808E+01 -0.2651E+01 -0.2246E+01E
 Epicentro: VILLANUEVA - SANTANDER                                             3
 ACTION:UP  12-07-05 12:03 OP:pat  STATUS:               ID:20120508083626 L   I
 2012-05-08-0830-00M.COL___192                                                 6
 STAT SP IPHASW D HRMM SECON CODA AMPLIT PERI AZIMU VELO SNR AR TRES W  DIS CAZ7
 BAR2 SZ EP   1    836 45.88                             173    -0.1 7   17 179 
 BAR2 SZ ES   1    837  1.34                             173    -0.1 7   17 179 
 BAR2 SZ I         837 16.13         8.0 0.71                            17 179 
 BRR  HZ EP        836 47.79                             153     0.210   71 305 
 BRR  HZ I         836 48.26         3.0 0.10                            71 305 
 BRR  HE ES        837  4.35                             153     0.110   71 305 
 PAM  SZ EP        836 48.92                             149    -0.210   85  39 
 RUS  HZ EP        836 49.97                             146     0.210   95 173 
 RUS  HN ES   1    837  8.24                             146     0.1 7   95 173 
 PTB  HZ EP   1    836 52.74                             134    -0.1 7  142 261 
 PTB  HN ES   1    837 13.25                             134    -0.4 7  142 261 
 ZAR  HN ES   1    837 24.14                             123     0.2 6  202 294 
 ZAR  HZ I         837 29.29         1.3 0.22                           202 294 
                                                                                
