 2011  8 8 0325 58.2 L   6.748 -73.141144.8  RSN  7 0.4 2.0LRSN                1
 GAP=139        0.70       4.0     5.4  5.9 -0.5809E+01  0.7165E+01  0.6932E+01E
 Epicentro: LOS SANTOS - SANTANDER                                             3
 ACTION:UPD 12-07-25 14:06 OP:epov STATUS:               ID:20110808032558 L   I
 2011-08-08-0323-03S.COL___144                                                 6
 STAT SP IPHASW D HRMM SECON CODA AMPLIT PERI AZIMU VELO AIN AR TRES W  DIS CAZ7
 BAR2 SZ EP        326 17.55                             173   -0.0710 17.8 195 
 BAR2 SZ ES   1    326 32.81                             173    0.05 7 17.8 195 
 BAR2 SZ I         326 34.09        32.8 0.24                          17.8 195 
 BRR  HZ EP        326 19.37                             151   -0.0710 74.5 302 
 BRR  HE ES   1    326 36.44                             151    0.44 7 74.5 302 
 BRR  HZ I         326 39.35        33.9 0.17                          74.5 302 
 PAM  SZ EP   1    326 21.32                             149    0.75 7 81.6  37 
 PAM  SN ES   1    326 37.30                             149   -0.72 7 81.6  37 
 PAM  SZ I         326 39.81        11.6 0.51                          81.6  37 
 RUS  HZ EP   1    326 21.40                             145   -0.05 7 94.8 176 
 RUS  HN ES   1    326 39.70                             145    0.11 7 94.8 176 
 RUS  HZ I         326 43.11        15.7 0.34                          94.8 176 
 NOR  SZ EP   1    326 33.00                             119   -0.57 6  232 236 
 NOR  SE ES   1    327  0.92                             119   -0.23 6  232 236 
 CHI  HZ EP   1    326 35.44                             117    0.18 6  243 196 
 CHI  HE ES   2    327  4.35                             117    0.18 4  243 196 
 CHI  HZ I         327  8.39         6.7 0.45                           243 196 
 PRA  HZ EP   1    326 51.32                             107    0.18 4  387 210 
 PRA  HN ES   1    327 32.39                             107   -0.04 4  387 210 
                                                                                
