 2014  8 8 0227 25.6 L   6.764 -73.155144.7  RSN  7 0.3 1.3LRSN                1
 GAP=234        0.80       4.4     4.7  6.5  0.5120E+01  0.5142E+01  0.4146E+01E
 Epicentro: LOS SANTOS - SANTANDER                                             3
 ACTION:UPD 14-09-15 21:47 OP:nd   STATUS:               ID:20140808022725 L   I
 OLDACT:REG 14-08-08 12:42 OP:spq  STATUS:               ID:20140808021810     3
 2014-08-08-0218-10M.COL___254                                                 6
 STAT SP IPHASW D HRMM SECON CODA AMPLIT PERI AZIMU VELO AIN AR TRES W  DIS CAZ7
 BAR2 SZ EP        227 44.71                             172   -0.2810 19.3 189 
 BAR2 SZ ES   1    228  0.34                             172    0.20 7 19.3 189 
 BAR2 SZ I         228  2.22         3.4 0.24            171           19.3 189 
 BRR  HZ IP     C  227 47.01                             152    0.3510 72.3 302 
 BRR  HN ES        228  3.11                             152   -0.0010 72.3 302 
 BRR  HZ I         228  9.36         5.6 0.46            151           72.3 302 
 RUS  HZ EP   1    227 49.19                             145    0.26 7 96.7 175 
 RUS  HN ES   1    228  6.69                             145   -0.47 7 96.7 175 
 RUS  HZ I         228  8.47         1.6 0.24            148           96.7 175 
 PTB  HZ EP        227 51.62                             132   -0.66 9  146 260 
 PTB  HN ES        228 13.01                             132   -0.12 9  146 260 
 PTB  HZ I         228 16.19         1.9 0.20            133            146 260 
 SPBC HZ EP        227 54.05                             129    0.42 9  159 220 
 SPBC HE ES        228 15.82                             129    0.30 9  159 220 
 SPBC HZ I         228 21.36         3.1 0.20            132            159 220 
 ZAR  HE ES        228 23.38                             122    0.08 9  205 293 
 ZAR  HZ I         228 29.60         2.0 0.28            124            205 293 
 GUY2CHE ES   1    228 42.30                             112   -0.17 5  298 235 
 GUY2CHZ I         228 51.80         1.5 0.32                           298 235 
                                                                                
