 2011  8 8 0349 49.5 L   6.733 -73.113143.1  RSN  6 0.4 1.7LRSN                1
 GAP=236        0.72       5.3     8.4  6.7  0.1407E+02  0.1617E+02  0.1011E+02E
 Epicentro: JORDAN - SANTANDER                                                 3
 ACTION:UPD 12-07-25 14:06 OP:epov STATUS:               ID:20110808034949 L   I
 2011-08-08-0348-11S.COL___144                                                 6
 STAT SP IPHASW D HRMM SECON CODA AMPLIT PERI AZIMU VELO AIN AR TRES W  DIS CAZ7
 BAR2 SZ EP        350  8.75                             173    0.0410 17.3 206 
 BAR2 SZ ES   1    350 22.81                             173   -0.88 7 17.3 206 
 BAR2 SZ I         350 25.72        12.2 0.68                          17.3 206 
 BRR  HZ EP        350 10.83                             150    0.0510 78.1 302 
 BRR  HN ES   1    350 27.74                             150    0.37 7 78.1 302 
 BRR  HZ I         350 32.69        13.3 0.16                          78.1 302 
 RUS  HZ EP   1    350 12.55                             145    0.10 7 93.0 178 
 RUS  HE ES   1    350 30.87                             145    0.52 7 93.0 178 
 RUS  HZ I         350 32.78         4.9 0.27                          93.0 178 
 NOR  SZ EP   1    350 24.81                             118   -0.14 6  233 236 
 NOR  SN ES   2    350 52.45                             118   -0.14 4  233 236 
 CHI  HZ EP   2    350 26.37                             117   -0.01 4  242 196 
 CHI  HN ES   2    350 55.32                             117    0.17 4  242 196 
 CHI  HZ I         351  2.21         3.2 0.28                           242 196 
 PRA  HZ EP   1    350 41.84                             106   -0.55 4  387 211 
                                                                                
