 2012  4 8 0624 52.7 L   6.775 -73.130146.0  RSN 16 0.4 2.4LRSN 3.2WRSN        1
 SPEC AVERAGE  MO 13.9 ST  2.2 OM  2.1 f0 2.42 R0.6749 AL 1.72 WI 21.0 MW  3.2 3
 GAP=140        0.95       3.9     4.9  5.9 -0.1296E+01  0.7405E+01  0.3561E+01E
 Epicentro: LOS SANTOS - SANTANDER                                             3
 SPEC NOR SH E MO 13.8 ST  6.0 OM  2.0 f0 3.99 R0.3684 AL 2.66 WI 27.5 MW  3.2 3
 SPEC NOR SH E T 62555 K 0.020 GD  276 VS 4.20 DE 3.20 Q0230.0 QA 0.60 VS 4.20 3
 SPEC PAM SH N MO 13.7 ST0.440 OM  2.1 f0 1.83 R0.8033 AL 1.78 WI 13.8 MW  3.1 3
 SPEC PAM SH N T 62532 K 0.020 GD  165 VS 4.20 DE 3.20 Q0230.0 QA 0.60 VS 4.20 3
 SPEC HEL HH E MO 14.0 ST0.905 OM  2.1 f0 1.89 R0.7778 AL 1.10 WI 26.1 MW  3.3 3
 SPEC HEL HH E T 626 6 K 0.020 GD  309 VS 4.20 DE 3.20 Q0230.0 QA 0.60 VS 4.20 3
 SPEC CHI HH N MO 14.2 ST  1.5 OM  2.3 f0 1.96 R0.7500 AL 1.33 WI 16.4 MW  3.4 3
 SPEC CHI HH N T 62559 K 0.020 GD  286 VS 4.20 DE 3.20 Q0230.0 QA 0.60 VS 4.20 3
 ACTION:UP  12-07-05 13:57 OP:tino STATUS:               ID:20120408062452 L   I
 2012-04-08-0620-00M.COL___196                                                 6
 STAT SP IPHASW D HRMM SECON CODA AMPLIT PERI AZIMU VELO AIN AR TRES W  DIS CAZ7
 BAR2 SZ EP   1    625 12.13                             171   -0.22 7 21.1 196 
 BAR2 SZ ES   1    625 27.09                             171   -0.56 7 21.1 196 
 BAR2 SZ I         625 30.26        68.1 0.39                          21.1 196 
 BRR  HZ EP   1    625 14.33                             152    0.26 7 74.0 300 
 BRR  HN ES   1    625 31.69                             152    0.97 7 74.0 300 
 BRR  HZ I         625 36.62        61.3 0.13                          74.0 300 
 PAM  SZ EP   1    625 15.20                             151    0.16 7 78.4  37 
 PAM  SZ I         625 15.58        48.3 0.18                          78.4  37 
 PAM  SN ES   1    625 32.57                             151    0.13 7 78.4  37 
 RUS  HZ EP        625 16.25                             145   -0.0610 97.7 177 
 RUS  HN ES   1    625 34.78                             145    0.08 7 97.7 177 
 RUS  HZ I         625 35.73        21.3 0.38                          97.7 177 
 PTB  HZ EP   1    625 18.99                             132   -0.84 7  149 260 
 PTB  HE ES   1    625 40.49                             132   -0.48 7  149 260 
 PTB  HZ I         625 46.24        27.7 0.32                           149 260 
 OCA  SZ EP   1    625 21.03                             129   -0.31 7  163 353 
 OCA  SZ ES   1    625 43.88                             129    0.23 7  163 353 
 ZAR  HZ EP   1    625 24.91                             122   -0.56 6  207 293 
 ZAR  HN ES   1    625 50.88                             122   -0.12 6  207 293 
 ZAR  HZ I         625 56.81        20.6 0.17                           207 293 
 NOR  SZ EP   1    625 28.20                             119   -0.26 6  235 235 
 NOR  SE ES   1    625 56.51                             119    0.18 6  235 235 
 CHI  HZ EP   1    625 30.52                             117    0.31 6  246 196 
 CHI  HZ I         626  7.48        12.8 0.30                           246 196 
 HEL  HZ EP   1    625 33.16                             115    0.08 6  273 256 
 HEL  HZ I         626 11.01         9.5 0.25                           273 256 
 VIL  SZ EP   1    625 35.99                             112    0.09 5  301 192 
 VIL  SZ I         626 20.67        11.1 0.52                           301 192 
 GUY  SZ EP   1    625 37.33                             112    0.72 5  303 236 
 DBB  SZ EP   1    625 41.03                             109    0.58 5  341 275 
 TOL  SZ EP   1    625 41.75                             109    0.83 5  343 225 
 COD  HZ EP   1    625 40.94                             109   -0.52 5  351 354 
 COD  HZ I         625 42.67        15.8 0.41                           351 354 
 PRA  HZ EP   1    625 46.10                             107    0.01 4  391 210 
                                                                                
