 2012  5 8 0712 57.1 L   6.560 -73.075170.6  RSN  5 0.4 1.6LRSN                1
 GAP=155        1.20       8.8     8.6 10.3 -0.6986E+01  0.5908E+01  0.9109E+00E
 Epicentro: CURITI - SANTANDER                                                 3
 ACTION:UP  12-07-05 12:03 OP:pat  STATUS:               ID:20120508071257 L   I
 2012-05-08-0710-00M.COL___192                                                 6
 STAT SP IPHASW D HRMM SECON CODA AMPLIT PERI AZIMU VELO SNR AR TRES W  DIS CAZ7
 BAR2 SZ EP        713 19.53                             176    -0.110   12 287 
 BAR2 SZ ES   1    713 36.82                             176    -0.3 7   12 287 
 BAR2 SZ I         713 38.22        14.8 0.38                            12 287 
 RUS  HZ EP        713 22.00                             156     0.210   74 181 
 RUS  HN ES   1    713 41.32                             156     0.2 7   74 181 
 RUS  HZ I         713 42.39         9.9 0.32                            74 181 
 BRR  HZ EP        713 22.65                             150     0.510   93 311 
 BRR  HZ I         713 23.43         8.1 0.64                            93 311 
 BRR  HN ES   1    713 42.51                             150     0.8 7   93 311 
 PAM  SZ EP        713 23.20                             150     0.110   96  26 
 PAM  SN ES   1    713 42.63                             150    -0.7 7   96  26 
 PAM  SZ I         713 43.63         1.9 0.24                            96  26 
 PTB  HZ EP        713 25.97                             136    -0.7 9  153 269 
 PTB  HN ES   1    713 49.31                             136    -0.3 7  153 269 
 PTB  HZ I         713 50.79         2.7 0.12                           153 269 
                                                                                
