 2012  8 8 0620 55.1 L   6.766 -73.144145.6  RSN 17 0.4 3.0LRSN 3.2WRSN        1
 SPEC AVERAGE  MO 13.9 ST  7.5 OM  2.7 f0 3.61 R0.4129 AL 2.97 WI 13.5 MW  3.2 3
 SPEC SD       MO  0.2 ST  5.1 OM  0.6 f00.409 R0.0529 AL      WI      MW  0.2 3
 GAP= 66        0.97       2.8     2.6  4.8  0.6591E+00  0.3189E+01  0.2955E+01E
 Epicentro: LOS SANTOS - SANTANDER                                             3
 SPEC TAM HH Z MO 13.7 ST  1.7 OM  2.0 f0 2.92 R0.5034 AL 2.45 WI  6.1 MW  3.1 3
 SPEC TAM HH Z T 62141 K 0.000 GD  211 VS 4.20 DE 3.00 Q0230.0 QA 0.60 VS 4.20 3
 SPEC PRA HH Z MO 14.3 ST 14.7 OM  2.3 f0 3.80 R0.3868 AL 3.29 WI 25.1 MW  3.5 3
 SPEC PRA HH Z T 62226 K 0.000 GD  415 VS 4.20 DE 3.00 Q0230.0 QA 0.60 VS 4.20 3
 SPEC HEL HH Z MO 14.1 ST  9.9 OM  2.2 f0 3.98 R0.3693 AL 3.52 WI 12.9 MW  3.3 3
 SPEC HEL HH Z T 622 7 K 0.000 GD  307 VS 4.20 DE 3.00 Q0230.0 QA 0.60 VS 4.20 3
 SPEC CHI HH Z MO 13.7 ST  3.8 OM  1.9 f0 3.75 R0.3920 AL 2.63 WI  9.9 MW  3.1 3
 SPEC CHI HH Z T 622 3 K 0.000 GD  284 VS 4.20 DE 3.00 Q0230.0 QA 0.60 VS 4.20 3
 ACTION:UPD 12-09-10 11:55 OP:ep   STATUS:               ID:20120808062055 L   I
 2012-08-08-0620-00M.COL___216                                                 6
 STAT SP IPHASW D HRMM SECON CODA AMPLIT PERI AZIMU VELO AIN AR TRES W  DIS CAZ7
 BAR2 SZ IP        621 14.84                             172    0.2310 19.7 192 
 BAR2 SZ ES   1    621 30.34                             172    0.49 7 19.7 192 
 BAR2 SZ I         621 32.89       389.0 0.30                          19.7 192 
 BRR  HZ EP        621 16.80                             152    0.4910 73.2 301 
 BRR  HE ES        621 33.65                             152    0.7710 73.2 301 
 BRR  HZ I         621 37.63       252.9 0.16                          73.2 301 
 PAM  SZ EP        621 17.64                             150    0.2110 80.2  38 
 PAM  SE ES        621 34.44                             150   -0.4410 80.2  38 
 RUS  HZ EP        621 18.68                             145    0.1510 96.8 176 
 RUS  HN ES        621 36.27                             145   -0.5710 96.8 176 
 RUS  HZ I         621 38.74        79.8 0.38                          96.8 176 
 PTB  HZ EP        621 21.77                             132   -0.20 9  147 260 
 PTB  HN ES        621 42.32                             132   -0.64 9  147 260 
 PTB  HZ I         621 48.76       136.1 0.23                           147 260 
 TAM  HZ EP        621 22.95                             131    0.32 9  154 104 
 TAM  HE ES        621 43.89                             131   -0.23 9  154 104 
 TAM  HZ I         621 43.90       120.9 0.36                           154 104 
 OCA  HZ EP        621 23.08                             129   -0.63 9  164 353 
 YOP  SZ EP        621 25.14                             127    0.38 9  176 153 
 YOP  SN ES        621 47.73                             127   -0.19 9  176 153 
 YOP  SZ I         621 49.94        91.6 0.29                           176 153 
 ZAR  HZ EP        621 27.18                             122   -0.48 8  206 293 
 ZAR  HN ES        621 53.15                             122    0.06 8  206 293 
 ZAR  HZ I         621 59.35       153.6 0.43                           206 293 
 NOR  SZ EP        621 30.66                             119    0.09 8  233 235 
 NOR  SN ES        621 58.25                             119   -0.01 8  233 235 
 CHI  HZ EP        621 32.71                             117    0.34 8  245 195 
 CHI  HN ES        622  1.36                             117   -0.10 8  245 195 
 CHI  HZ I         622 11.05        54.6 0.69                           245 195 
 HEL  HZ EP        621 34.74                             115   -0.45 8  271 257 
 HEL  HN ES   1    622  7.09                             115    0.61 6  271 257 
 HEL  HZ I         622 14.15        58.1 0.43                           271 257 
 VIL  SZ EP   1    621 37.67                             112   -0.40 5  300 192 
 VIL  SN ES   1    622 11.94                             112    0.33 5  300 192 
 VIL  SZ I         622 23.27        58.9 0.52                           300 192 
 GUY  SZ EP   1    621 39.11                             112    0.40 5  302 236 
 GUY  SE ES   1    622 12.03                             112   -0.71 5  302 236 
 DBB  SZ EP        621 42.27                             109   -0.32 7  340 275 
 ANIL HZ EP        621 45.52                             108    0.95 6  355 225 
 PRA  HZ EP        621 48.14                             107   -0.07 6  389 210 
 PRA  HN ES   1    622 29.44                             107   -0.22 4  389 210 
                                                                                
