 2010  7 8 0312  5.7 L   6.751 -73.081141.2  RSN 11 0.4 2.0LRSN                1
 GAP=164        0.88       4.8     9.3  7.5 -0.2179E+02  0.6258E+01  0.3515E+01E
 Epicentro: LOS SANTOS - SANTANDER                                             3
 ACTION:UPD 10-12-01 15:16 OP:pat  STATUS:               ID:20100708031205 L   I
 2010-07-08-0310-41S.COL___116                                                 6
 STAT SP IPHASW D HRMM SECON CODA AMPLIT PERI AZIMU VELO AIN AR TRES W  DIS CAZ7
 BAR2 SZ IP     C  312 24.74                             171     0.010   21 213 
 BAR2 SZ ES   2    312 39.73                             171     0.1 5   21 213 
 GIR2 SZ EP   1    312 24.78                             164    -0.3 7   38 341 
 GIR2 SZ ES   2    312 40.05                             164    -0.1 5   38 341 
 BRR  HZ EP   1    312 26.57                             149    -0.4 7   80 300 
 BRR  HE ES   2    312 43.54                             149     0.1 5   80 300 
 BRR  HZ I         312 46.00        26.3 0.33                            80 300 
 RUS  HZ EP   1    312 28.67                             144     0.0 7   95 180 
 RUS  HN ES   2    312 46.76                             144     0.3 5   95 180 
 RUS  HZ I         312 48.93         6.9 0.36                            95 180 
 BRI  SZ EP        312 29.21                             140    -0.210  111  16 
 GUE  SZ EP   1    312 29.51                             137    -0.8 7  121   8 
 GRA  SZ IP     D  312 31.57                             135     0.710  129  14 
 GRA  SZ ES   2    312 51.05                             135     0.6 5  129  14 
 CHI  HZ EP   1    312 42.78                             116     0.0 6  245 197 
 CHI  HE ES   2    313 11.38                             116    -0.4 4  245 197 
 CHI  HZ I         313 19.81         4.0 0.49                           245 197 
 HEL  HZ EP   1    312 46.47                             113     0.1 6  278 257 
 HEL  HZ I         313 23.93         6.0 0.41                           278 257 
 RREF HZ EP   1    312 52.78                             110     0.9 5  324 231 
 RREF HZ I         313 38.89         6.4 0.38                           324 231 
 PRA  HZ EP   1    312 58.74                             106    -0.2 4  391 211 
 PRA  HE ES   2    313 40.34                             106    -0.2 3  391 211 
 PRA  HZ I         313 45.69         4.2 0.71                           391 211 
                                                                                
