 2011  1 8 0817  3.2 L   6.808 -73.234141.7  RSN  6 0.3 1.4LRSN                1
 GAP=150        0.67       4.1    19.7 10.4 -0.2839E+02  0.5737E+02  0.4880E+00E
 Epicentro: ZAPATOCA - SANTANDER                                               3
 ACTION:UP  11-02-08 08:39 OP:pat  STATUS:               ID:20110108081703 L   I
 2011-01-08-0815-00S.COL___134                                                 6
 STAT SP IPHASW D HRMM SECON CODA AMPLIT PERI AZIMU VELO SNR AR TRES W  DIS CAZ7
 BTL  SZ EP        817 22.38                             175     0.210   13 343 
 BAR2 SZ EP   1    817 21.76                             170    -0.6 7   25 167 
 BAR2 SZ I         817 22.68         4.8 0.14                            25 167 
 BAR2 SZ ES   2    817 37.36                             170     0.1 5   25 167 
 RUS  HZ EP   2    817 26.53                             142    -0.2 5  103 171 
 RUS  HZ I         817 46.44         2.3 0.23                           103 171 
 GRA  SZ EP   2    817 28.79                             135     0.5 5  128  22 
 GRA  SZ ES   2    817 48.00                             135     0.2 5  128  22 
 GRA  SZ I         817 49.80         5.4 0.44                           128  22 
 OCA  SZ EP   1    817 30.78                             129    -0.2 7  158 357 
 OCA  SZ ES   1    817 52.72                             129     0.0 7  158 357 
 OCA  SZ I         817 54.20         3.8 0.31                           158 357 
 CHI  HZ EP   2    817 40.79                             116     0.3 4  247 193 
 CHI  HE ES   2    818  9.99                             116     0.4 4  247 193 
 CHI  HZ I         818 11.92         1.2 0.64                           247 193 
                                                                                
