 2016  7 8 0059  3.8 L   6.695 -72.968138.1  RSN  6 0.5 1.6LRSN                1
 GAP=249        1.36       7.8     8.8  9.1  0.4655E+01  0.1582E+02  0.5144E+00E
 Epicentro: ARATOCA - SANTANDER                                                3
 ACTION:UPD 17-03-29 16:48 OP:lp   STATUS:               ID:20160708005903 L   I
 OLDACT:UP  16-07-08 14:05 OP:dani STATUS:               ID:20160708005746     3
 OLDACT:UP  16-07-08 14:05 OP:dani STATUS:               ID:20160708005746     3
 OLDACT:UP  16-07-08 14:05 OP:dani STATUS:               ID:20160708005746     3
 OLDACT:REG 16-07-08 12:36 OP:dani STATUS:               ID:20160708005746     3
 2016-07-08-0057-46M.COL___333                                                 6
 STAT SP IPHASW D HRMM SECON CODA AMPLIT PERI AZIMU VELO AIN AR TRES W  DIS CAZ7
 BAR2 EZ EP        059 23.29                             169    0.7110 26.3 244 
 BAR2 EZ ES        059 38.02                             169    0.7910 26.3 244 
 BAR2 EZ I         059 39.25        13.0 0.16            165           26.3 244 
 RUS  HE ES        059 42.44                             146   -0.9110 89.7 188 
 RUS  HZ I         059 46.66         6.0 0.22            146           89.7 188 
 BRR  HZ EP        059 25.16                             144   -0.4710 94.0 299 
 BRR  HN ES        059 42.27                             144   -0.3810 94.0 299 
 BRR  HZ I         059 47.30         7.4 0.16            143           94.0 299 
 PTB  HZ EP   9    059 29.70                             127   -2.15 0  165 264 
 PTB  HN ES        059 51.12                             129   -0.46 9  165 264 
 PTB  HZ I         059 54.29         4.5 0.18            127            165 264 
 SPBC HZ EP        059 32.13                             126   -0.07 9  168 227 
 SPBC HN ES        059 54.68                             126    0.33 9  168 227 
 SPBC HZ I         059 57.86         6.9 0.18            127            168 227 
 NOR  HN ES   4    1 0  6.04                             116   -2.56 0  245 239 
 HEL  HZ EP        059 45.48                             112   -0.03 7  289 259 
 HEL  HN ES        1 0 18.15                             112    0.11 7  289 259 
 HEL  HZ I         1 0 24.59         2.4 0.52            113            289 259 
                                                                                
