 2014  2 8 0954 49.7 L   6.800 -73.154150.0  RSN  9 0.5 1.9LRSN                1
 GAP=182        0.93       3.5     6.1  8.2  0.1559E+01  0.1196E+02 -0.3688E+01E
 Epicentro: LOS SANTOS - SANTANDER                                             3
 ACTION:UPD 14-03-10 08:08 OP:ep   STATUS:               ID:20140208095449 L   I
 OLDACT:UP  14-02-08 13:55 OP:mh   STATUS:               ID:20140208095000     3
 OLDACT:UP  14-02-08 13:55 OP:mh   STATUS:               ID:20140208095000     3
 OLDACT:UP  14-02-08 13:55 OP:mh   STATUS:               ID:20140208095000     3
 OLDACT:UP  14-02-08 13:54 OP:mh   STATUS:               ID:20140208095000     3
 OLDACT:REG 14-02-08 09:06 OP:mh   STATUS:               ID:20140208095000     3
 2014-02-08-0950-00M.COL___291                                                 6
 STAT SP IPHASW D HRMM SECON CODA AMPLIT PERI AZIMU VELO AIN AR TRES W  DIS CAZ7
 BAR2 SZ EP   1    955 10.18                             171    0.32 8 23.2 188 
 BAR2 SZ ES   1    955 25.11                             171   -0.46 8 23.2 188 
 BAR2 SZ I         955 26.70        38.2 0.15            168           23.2 188 
 RUS  HZ EP        955 13.60                             145   -0.3010  101 176 
 RUS  HN ES   1    955 32.89                             145    0.14 7  101 176 
 RUS  HZ I         955 34.12         8.3 0.24            146            101 176 
 PTB  HZ EP   1    955 16.96                             133   -0.00 7  147 259 
 PTB  HN ES   1    955 37.80                             133   -0.41 7  147 259 
 PTB  HZ I         955 40.83         4.9 0.26            132            147 259 
 OCA  HN ES        955 41.53                             131    0.83 9  160 353 
 SPBC HE ES   4    955 39.66                             130   -1.28 0  163 219 
 ZAR  HZ EP   1    955 22.61                             123    0.24 6  203 292 
 ZAR  HN ES   1    955 48.15                             123    0.32 6  203 292 
 ZAR  HZ I         955 54.14         5.6 0.28            123            203 292 
 NOR  HN ES   1    955 54.06                             120    0.43 6  234 234 
 NOR  HZ I         955 58.84         5.2 0.17            120            234 234 
 SML  HZ EP        955 25.79                             118   -0.76 8  243 335 
 SML  HN ES        955 54.88                             118   -0.40 8  243 335 
 SML  HZ I         955 59.39         8.1 0.08            119            243 335 
 GUY2CHZ EP   4    955 37.14                             113    3.69 0  300 235 
 GUY2CHN ES   4    956 10.16                             113    2.61 0  300 235 
 GUY2CHZ I         956 17.76         2.3 0.39                           300 235 
 PRA  HZ EP   1    955 43.88                             107    0.54 4  392 209 
 PRA  HN ES   2    956 25.67                             107    0.51 3  392 209 
 SJC  HZ EP   4    955 43.65                             106   -1.72 0  409 327 
 SJC  HN ES   4    956 24.98                             106   -3.80 0  409 327 
                                                                                
