 2012  3 8 0635 40.4 L   6.697 -73.197151.0  RSN  5 0.4 1.3LRSN                1
 GAP=223        0.87       9.1     8.4  9.3  0.4250E+02  0.1077E+02  0.1991E+01E
 ACTION:UP  12-03-31 23:18 OP:EP   STATUS:               ID:20120308063540 L   I
 2012-03-08-0630-00M.COL___193                                                 6
 STAT SP IPHASW D HRMM SECON CODA AMPLIT PERI AZIMU VELO SNR AR TRES W  DIS CAZ7
 BAR2 SZ EP   1    636  0.09                             175    -0.4 7   12 172 
 BAR2 SZ ES   1    636 15.58                             175    -0.6 7   12 172 
 BAR2 SZ I         636 16.77         7.2 0.21                            12 172 
 BRR  HZ EP   1    636  2.23                             153     0.0 7   73 309 
 BRR  HN ES   1    636 19.84                             153     0.6 7   73 309 
 RUS  HZ EP   1    636  4.15                             148     0.2 7   90 172 
 RUS  HZ I         636  5.35         2.1 0.14                            90 172 
 RUS  HN ES   1    636 22.75                             148     0.4 7   90 172 
 PTB  HZ EP   1    636  7.19                             135     0.0 7  140 263 
 PTB  HN ES   1    636 27.65                             135    -0.4 7  140 263 
 PTB  HZ I         636 35.62         0.0 0.34                           140 263 
 ZAR  HN ES   2    636 38.75                             124     0.1 4  203 296 
                                                                                
