 2017 11 8 0823 35.6 L   6.737 -73.135147.3  RSN  7 0.5 1.1LRSN                1
 GAP=141        1.06       4.8     4.8  8.5 -0.2902E+01  0.8640E+01 -0.3381E+01E
 Epicentro: LOS SANTOS - SANTANDER                                             3
 ACTION:UPD 17-12-12 19:53 OP:rebc STATUS:               ID:20171108082335 L   I
 OLDACT:UP  17-11-08 17:12 OP:dnl  STATUS:               ID:20171108081743     3
 OLDACT:UP  17-11-08 17:12 OP:dnl  STATUS:               ID:20171108081743     3
 OLDACT:REG 17-11-08 15:05 OP:dnl  STATUS:               ID:20171108081743     3
 2017-11-08-0818-00M.COL___384                                                 6
 STAT SP IPHASW D HRMM SECON CODA AMPLIT PERI AZIMU VELO AIN AR TRES W  DIS CAZ7
 BAR2 EZ EP        823 55.27                             173   -0.0610 16.8 198 
 BAR2 EZ ES        824 11.19                             173    0.4910 16.8 198 
 BRR  HZ EP        823 57.25                             151    0.0410 75.8 303 
 BRR  HN ES        824 14.37                             151    0.3410 75.8 303 
 BRR  HZ I         824 16.36         3.3 0.30            148           75.8 303 
 PAM  EZ EP        823 58.28                             150   -0.0210 82.2  36 
 PAM  EE ES        824 15.43                             150   -0.5410 82.2  36 
 PAM  EZ I         824 17.97         1.7 0.74            151           82.2  36 
 RUS  HZ EP   2    823 59.60                             146    0.56 5 93.6 176 
 RUS  HN ES        824 17.38                             146    0.0810 93.6 176 
 RUS  HZ I         824 18.05         0.9 0.42            147           93.6 176 
 PTB  HZ EP   2    824  2.02                             132   -0.70 5  148 262 
 PTB  HN ES        824 23.00                             132   -0.85 9  148 262 
 PTB  HZ I         824 25.42         1.0 0.16            130            148 262 
 SPBC HZ EP   2    824  4.58                             130    0.76 5  159 221 
 SPBC HN ES        824 25.53                             130   -0.27 9  159 221 
 SPBC HZ I         824 31.24         2.2 0.32            130            159 221 
 ZAR  HZ EP   4    824  6.95                             122   -1.62 0  208 294 
 ZAR  HE ES        824 34.95                             122    0.69 8  208 294 
 ZAR  HZ I         824 43.75         1.4 0.42            121            208 294 
                                                                                
