 2011  9 8 0435  5.0 L   6.772 -73.115149.5  RSN 13 0.3 2.2LRSN                1
 GAP=142        0.40       2.0     3.1  3.5 -0.1425E+01  0.3612E+01  0.3861E+00E
 Epicentro: LOS SANTOS - SANTANDER                                             3
 ACTION:UPD 12-07-13 15:56 OP:ep   STATUS:               ID:20110908043244dL   I
 2011-09-08-0432-43S.COL___171                                                 6
 STAT SP IPHASW D HRMM SECON CODA AMPLIT PERI AZIMU VELO AIN AR TRES W  DIS CAZ7
 BAR2 SZ IP        435 25.01                             172    0.0110 21.2 201 
 BAR2 SZ ES   2    435 40.24                             172   -0.40 5 21.2 201 
 BAR2 SZ I         435 41.81        38.5 0.37                          21.2 201 
 GIR2 SZ EP   2    435 25.43                             166    0.25 5 35.0 346 
 GIR2 SZ ES   2    435 41.40                             166    0.44 5 35.0 346 
 BRR  HZ IP     C  435 26.93                             152    0.1610 75.7 299 
 BRR  HZ I         435 27.18        45.2 0.22                          75.7 299 
 BRR  HE ES   2    435 44.06                             152    0.28 5 75.7 299 
 PAM  SZ EP   2    435 27.93                             151    0.33 5 77.8  36 
 PAM  SN ES   2    435 45.20                             151   -0.06 5 77.8  36 
 RUS  HZ EP   2    435 28.83                             145   -0.02 5 97.3 178 
 RUS  HN ES   2    435 47.03                             145   -0.46 5 97.3 178 
 RUS  HZ I         435 48.87         8.7 0.27                          97.3 178 
 OCA  SZ EP   1    435 33.59                             130   -0.30 7  164 352 
 OCA  SZ ES   2    435 56.34                             130   -0.12 5  164 352 
 OCA  SZ I         436  1.98        12.8 0.53                           164 352 
 ZAR  HZ EP   2    435 37.80                             122   -0.30 4  208 293 
 ZAR  HN ES   2    436  3.63                             122   -0.31 4  208 293 
 ZAR  HZ I         436  9.34        13.7 0.68                           208 293 
 NOR  SZ EP   1    435 41.39                             119    0.37 6  236 236 
 NOR  SN ES   2    436  8.70                             119   -0.44 4  236 236 
 CHI  HZ EP   2    435 42.62                             118   -0.02 4  247 196 
 CHI  HE ES   2    436 11.76                             118   -0.28 4  247 196 
 HEL  HZ EP   2    435 45.99                             115    0.34 4  275 257 
 HEL  HN ES   2    436 17.49                             115    0.10 4  275 257 
 HEL  HZ I         436 24.60         7.0 0.44                           275 257 
 RREF HZ EP   2    435 51.40                             111    0.07 3  322 230 
 RREF HN ES   2    436 27.44                             111   -0.07 3  322 230 
 RREF HZ I         436 36.48         6.1 0.51                           322 230 
 COD  HZ EP   2    435 53.59                             109   -0.29 3  352 354 
 COD  HN ES   2    436 31.48                             109   -0.56 3  352 354 
 COD  HZ I         436 39.69         7.1 0.60                           352 354 
 PRA  HZ EP   2    435 58.58                             107    0.09 3  391 210 
 PRA  HN ES   2    436 40.47                             107    0.22 3  391 210 
                                                                                
