 2011  5 8 0622 57.1 L   6.844 -72.985144.0  RSN  6 0.4 1.5LRSN                1
 GAP=176        0.88       4.8    10.4  8.5 -0.1531E+01 -0.2641E+02 -0.2403E+00E
 Epicentro: CEPITA - SANTANDER                                                 3
 ACTION:UP  11-06-29 08:51 OP:tino STATUS:               ID:20110508062257 L   I
 2011-05-08-0621-46S.COL___133                                                 6
 STAT SP IPHASW D HRMM SECON CODA AMPLIT PERI AZIMU VELO SNR AR TRES W  DIS CAZ7
 BTL  SZ EP   1    623 17.02                             167     0.3 7   32 285 
 BTL  SZ ES   1    623 32.54                             167     0.5 7   32 285 
 BAR2 SZ EP   1    623 16.38                             166    -0.4 7   35 218 
 BAR2 SZ ES   2    623 32.13                             166    -0.1 5   35 218 
 BAR2 SZ I         623 33.43        10.6 0.25                            35 218 
 BRR  HZ IP     C  623 18.52                             148    -0.410   85 290 
 BRR  HZ I         623 18.81        16.6 0.16                            85 290 
 BRR  HN ES   1    623 36.09                             148     0.1 7   85 290 
 RUS  HZ EP        623 21.13                             142     0.110  106 186 
 RUS  HN ES   1    623 39.71                             142     0.0 7  106 186 
 RUS  HZ I         623 40.52         1.7 0.24                           106 186 
 GRA  SZ EP   1    623 22.04                             139     0.6 7  117  10 
 GRA  SZ ES   1    623 39.99                             139    -0.5 7  117  10 
 GRA  SZ I         623 44.09         2.7 0.37                           117  10 
 OCA  SZ EP   2    623 25.41                             130     0.3 5  159 347 
 OCA  SZ I         624 44.14         5.3 0.29                           159 347 
                                                                                
