 2014  6 8 0453 46.4 L   6.807 -73.137136.5  RSN 11 0.4 1.5LRSN                1
 GAP=137        1.07       3.3     4.3  7.4 -0.4113E+01  0.1360E+02 -0.1782E+01E
 Epicentro: LOS SANTOS - SANTANDER                                             3
 ACTION:UPD 14-07-01 22:51 OP:nd   STATUS:               ID:20140608045346 L   I
 OLDACT:DUP 14-06-08 15:39 OP:fm   STATUS:               ID:20140608044819d    3
 2014-06-08-0448-18M.COL___253                                                 6
 STAT SP IPHASW D HRMM SECON CODA AMPLIT PERI AZIMU VELO AIN AR TRES W  DIS CAZ7
 BAR2 SZ EP        454  5.18                             169    0.2210 24.2 192 
 BAR2 SZ ES   1    454 19.65                             169    0.23 7 24.2 192 
 BAR2 SZ I         454 21.38         8.8 0.22            171           24.2 192 
 PAM  SZ EP        454  8.28                             149    0.6910 76.2  39 
 PAM  SN ES        454 23.79                             149   -0.3110 76.2  39 
 PAM  SZ I         454 27.75         6.1 0.40            152           76.2  39 
 RUS  HZ EP        454  9.14                             142   -0.1910  101 177 
 RUS  HN ES        454 27.55                             142    0.3610  101 177 
 RUS  HZ I         454 28.89         4.7 0.32            146            101 177 
 PTB  HZ EP        454 12.09                             130   -0.66 9  149 259 
 PTB  HN ES        454 32.77                             130   -0.51 9  149 259 
 PTB  HZ I         454 33.82         5.2 0.12            131            149 259 
 OCA  HZ EP        454 13.67                             128   -0.30 9  160 353 
 OCA  HE ES        454 35.15                             128   -0.31 9  160 353 
 OCA  HZ I         454 39.36         3.0 0.46            129            160 353 
 SPBC HZ EP        454 14.13                             127   -0.21 9  164 219 
 SPBC HN ES        454 35.84                             127   -0.27 9  164 219 
 SPBC HZ I         454 38.13         5.3 0.36            129            164 219 
 ZAR  HN ES        454 44.18                             120    0.94 9  205 292 
 ZAR  HZ I         454 49.85         5.0 0.38            122            205 292 
 NOR  HZ EP        454 21.45                             116   -0.31 8  236 234 
 NOR  HE ES        454 49.38                             116    0.06 8  236 234 
 NOR  HZ I         454 50.63         2.4 0.28            119            236 234 
 SML  HE ES   1    454 50.52                             115   -0.15 6  243 335 
 HEL  HZ EP        454 27.24                             113    0.94 8  273 256 
 HEL  HN ES   1    454 57.64                             113    0.24 6  273 256 
 HEL  HZ I         455  4.08         2.2 0.24            115            273 256 
 GUY2CHN ES        455  3.43                             110   -0.12 7  302 235 
 RREF HN ES   4    455  9.56                             109    1.45 0  323 229 
                                                                                
