 2011 11 8 0918  1.1 L   6.729 -73.137135.1  RSN  5 0.4 1.8LRSN                1
 GAP=141        0.76       4.9     5.3  7.6  0.2314E+01  0.1104E+02 -0.6627E+01E
 Epicentro: JORDAN - SANTANDER                                                 3
 ACTION:UPD 12-07-13 16:08 OP:ep   STATUS:               ID:20111108091801 L   I
 2011-11-08-0914-43S.COL___175                                                 6
 STAT SP IPHASW D HRMM SECON CODA AMPLIT PERI AZIMU VELO AIN AR TRES W  DIS CAZ7
 BAR2 SZ EP   1    918 19.46                             173    0.16 7 15.9 198 
 BAR2 SZ ES   1    918 33.59                             173    0.08 7 15.9 198 
 BAR2 SZ I         918 35.38        14.2 0.20                          15.9 198 
 BRR  HZ EP   1    918 21.33                             149   -0.06 7 76.1 303 
 BRR  HZ I         918 21.70        37.2 0.13                          76.1 303 
 BRR  HE ES   2    918 38.15                             149    0.92 5 76.1 303 
 PAM  SZ EP        918 22.42                             147   -0.1210 83.0  36 
 PAM  SN ES   1    918 39.15                             147   -0.13 7 83.0  36 
 PAM  SZ I         918 41.25         4.7 0.57                          83.0  36 
 RUS  HZ EP   1    918 23.28                             144    0.06 7 92.7 176 
 RUS  HE ES   1    918 40.27                             144   -0.21 7 92.7 176 
 RUS  HZ I         918 43.22         3.4 0.15                          92.7 176 
 ZAR  HZ EP   1    918 33.99                             119    0.71 6  208 294 
 ZAR  HN ES   1    918 57.56                             119   -0.83 6  208 294 
 ZAR  HZ I         919  4.18        12.3 0.44                           208 294 
                                                                                
