 2013  1 8 0015 30.3 L   6.772 -73.109139.7  RSN  6 0.5 2.3LRSN                1
 GAP=204        1.11       4.2     6.5  7.3  0.8259E+00  0.2053E+01  0.2692E+01E
 Epicentro: LOS SANTOS - SANTANDER                                             3
 ACTION:UPD 13-02-15 09:12 OP:ep   STATUS:               ID:20130108001530 L   I
 2013-01-08-0010-00M.COL___242                                                 6
 STAT SP IPHASW D HRMM SECON CODA AMPLIT PERI AZIMU VELO AIN AR TRES W  DIS CAZ7
 BAR2 SZ EP        015 48.99                             171   -0.2210 21.5 202 
 BAR2 SZ ES        016  3.64                             171   -0.2810 21.5 202 
 BAR2 SZ I         016  5.47        23.2 0.18            168           21.5 202 
 BRR  HZ EP        015 51.29                             150    0.1410 76.3 299 
 BRR  HN ES        016  7.86                             150    0.4910 76.3 299 
 BRR  HN I         016 11.59        76.3 0.16            149           76.3 299 
 PTB  HZ EP        015 56.54                             130   -0.61 9  151 260 
 PTB  HN ES        016 17.63                             130   -0.42 9  151 260 
 PTB  HN I         016 20.69        18.2 0.20            129            151 260 
 OCA  HZ EP        015 57.80                             127   -0.74 9  164 352 
 OCA  HN ES        016 21.01                             127    0.48 9  164 352 
 OCA  HN I         016 23.29        55.7 0.24            129            164 352 
 ZAR  HZ EP        016  3.25                             120    0.33 8  209 293 
 ZAR  HN ES        016 28.41                             120    0.08 8  209 293 
 ZAR  HN I         016 34.00        19.7 0.28            121            209 293 
 CHI  HZ EP        016  8.29                             116    0.78 8  247 196 
 CHI  HN ES        016 36.79                             116    0.29 8  247 196 
 CHI  HN I         016 45.69         8.3 0.54            116            247 196 
                                                                                
