 2017  1 8 0459 45.9 L   6.772 -73.136140.8  RSN 15 0.4 2.0LRSN                1
 GAP= 97        0.76       3.0     2.4  4.4  0.1142E+01  0.3535E+01  0.1940E+01E
 Epicentro: LOS SANTOS - SANTANDER                                             3
 ACTION:UPD 17-05-22 15:56 OP:jn   STATUS:               ID:20170108045945 L   I
 OLDACT:UP  17-01-08 16:04 OP:dnl  STATUS:               ID:20170108045644     3
 OLDACT:UP  17-01-08 16:03 OP:dnl  STATUS:               ID:20170108045644     3
 OLDACT:REG 17-01-08 12:39 OP:dnl  STATUS:               ID:20170108045644     3
 2017-01-08-0457-00M.COL___374                                                 6
 STAT SP IPHASW D HRMM SECON CODA AMPLIT PERI AZIMU VELO AIN AR TRES W  DIS CAZ7
 BAR2 EZ IP     C  5 0  4.70                             171   -0.1810 20.5 194 
 BAR2 EZ ES        5 0 19.68                             171    0.0010 20.5 194 
 BAR2 EZ I         5 0 20.69        49.5 0.24            166           20.5 194 
 BRR  HZ IP     C  5 0  6.60                             151   -0.0610 73.7 300 
 BRR  HN ES        5 0 23.24                             151    0.3910 73.7 300 
 BRR  HZ I         5 0 27.95        18.7 0.14            148           73.7 300 
 PAM  EZ IP     C  5 0  7.56                             149   -0.1410 79.1  38 
 PAM  EN ES        5 0 24.38                             149   -0.3210 79.1  38 
 PAM  EZ I         5 0 25.08        16.4 0.40            148           79.1  38 
 RUS  HZ EP        5 0  8.71                             144   -0.2210 97.4 177 
 RUS  HE ES        5 0 27.07                             144    0.1710 97.4 177 
 RUS  HZ I         5 0 28.39        16.3 0.24            137           97.4 177 
 PTB  HZ EP        5 0 11.74                             131   -0.77 9  148 260 
 PTB  HE ES   4    5 0 32.20                             131   -1.07 0  148 260 
 PTB  HZ I         5 0 36.83        19.7 0.18            125            148 260 
 TAM  HZ IP     C  5 0 13.11                             130    0.09 9  153 104 
 TAM  HE ES        5 0 34.45                             130    0.28 9  153 104 
 TAM  HZ I         5 0 36.56         5.1 0.28            125            153 104 
 ZAR  HZ EP        5 0 18.85                             121    0.60 8  206 293 
 ZAR  HN ES        5 0 43.70                             121    0.21 8  206 293 
 ZAR  HZ I         5 0 53.01        14.9 0.32            117            206 293 
 CHI  HZ EP   2    5 0 22.58                             116   -0.45 4  246 196 
 CHI  HN ES        5 0 52.10                             116    0.11 8  246 196 
 CHI  HZ I         5 1  1.78         3.4 0.60            112            246 196 
 URE  HZ EP   2    5 0 27.86                             112    0.88 4  286 292 
 URE  HN ES   4    5 0 56.77                             112   -2.25 0  286 292 
 URE  HZ I         5 1  8.35         8.8 0.28            109            286 292 
 GUY2CHZ EP   2    5 0 29.74                             111    0.56 4  300 235 
 GUY2CHN ES   4    5 1  4.63                             111    1.69 0  300 235 
 GUY2CHZ I         5 1  7.89         4.0 0.32                           300 235 
 PTGC HZ EP   4    5 0 27.56                             111   -1.60 0  305 159 
 PTGC HZ I         5 0 56.22         8.1 0.36            107            305 159 
 PTGC HN ES   4    5 1  1.33                             111   -1.58 0  305 159 
 CBOC HZ EP   2    5 0 33.39                             109    0.77 3  334 253 
 CBOC HN ES        5 1  9.10                             109    0.03 7  334 253 
 CBOC HZ I         5 1  9.38         2.5 0.36            105            334 253 
 DBB  EN ES        5 1  9.91                             109   -0.42 7  341 275 
 DBB  EZ I         5 1 11.23         5.6 0.32            105            341 275 
 ORTC HZ EP   2    5 0 39.41                             106   -0.02 3  394 217 
 ORTC HN ES   4    5 1 24.76                             106    3.57 0  394 217 
 ORTC HZ I         5 1 28.19         2.6 0.52            102            394 217 
 SJC  HZ EP   4    5 0 39.67                             105   -2.01 0  412 327 
 SJC  HN ES   4    5 1 18.90                             105   -6.28 0  412 327 
 SJC  HZ I         5 1 25.01         3.6 0.42            102            412 327 
                                                                                
