 2016  6 8 0932 33.0 L   6.890 -73.161150.1  RSN  7 0.5 1.8LRSN                1
 GAP=130        1.25       4.5     6.3  7.9 -0.7342E+01  0.6510E+01 -0.1480E+00E
 Epicentro: BETULIA - SANTANDER                                                3
 ACTION:UPD 16-07-21 22:16 OP:rebc STATUS:               ID:20160608093233 L   I
 OLDACT:REG 16-06-08 14:19 OP:dani STATUS:               ID:20160608092742     3
 2016-06-08-0927-42M.COL___325                                                 6
 STAT SP IPHASW D HRMM SECON CODA AMPLIT PERI AZIMU VELO AIN AR TRES W  DIS CAZ7
 BAR2 EZ EP        932 53.36                             167    0.0310 33.0 184 
 BAR2 EZ ES        933  8.66                             167   -0.5610 33.0 184 
 BAR2 EZ I         933 10.38        12.3 0.26                          33.0 184 
 BRR  HZ EP        932 54.73                             155    0.4710 65.5 292 
 BRR  HE ES        933 11.65                             155    0.7710 65.5 292 
 BRR  HZ I         933 15.25        12.8 0.48                          65.5 292 
 PAM  EZ EP        932 55.84                             154    0.5610 71.2  46 
 PAM  EE ES        933 12.72                             154    0.0310 71.2  46 
 PAM  EZ I         933 13.70        14.1 0.28                          71.2  46 
 RUS  HZ EP        932 57.68                             142   -0.1810  111 176 
 RUS  HE ES        933 17.04                             142   -0.2510  111 176 
 RUS  HZ I         933 19.10         3.3 0.36                           111 176 
 PTB  HZ EP        933  0.13                             133   -0.20 9  148 255 
 PTB  HN ES        933 20.94                             133   -0.74 9  148 255 
 PTB  HZ I         933 23.18         9.7 0.48                           148 255 
 OCA  HZ EP        932 59.84                             132   -0.84 9  150 353 
 OCA  HE ES        933 22.22                             132   -0.09 9  150 353 
 OCA  HZ I         933 25.21        16.7 0.50                           150 353 
 SPBC HZ EP        933  2.84                             129    0.41 9  170 216 
 SPBC HN ES        933 25.92                             129    0.50 9  170 216 
 SPBC HZ I         933 32.64         7.0 0.14                           170 216 
 SJC  HZ EP   4    933 26.76                             107   -0.82 0  400 326 
 SJC  HN ES   4    934  5.83                             107   -4.36 0  400 326 
                                                                                
