 2013  9 8 0550 26.6 L   6.187 -73.355147.8  RSN 13 0.5 2.1LRSN                1
 GAP=108        0.91       3.2     3.8  7.2 -0.2945E+01  0.6119E+01  0.2243E+01E
 Epicentro: OIBA - SANTANDER                                                   3
 ACTION:UPD 13-10-22 09:21 OP:ep   STATUS:               ID:20130908055026 L   I
 OLDACT:REG 13-09-08 07:48 OP:mh   STATUS:               ID:20130908054959     3
 2013-09-08-0549-59M.COL___269                                                 6
 STAT SP IPHASW D HRMM SECON CODA AMPLIT PERI AZIMU VELO AIN AR TRES W  DIS CAZ7
 RUS  HZ EP   1    550 47.22                             163   -0.19 8 44.3 137 
 RUS  HN ES   2    551  3.78                             163    0.11 5 44.3 137 
 RUS  HZ I         551  6.88         8.8 0.32            170           44.3 137 
 BAR2 SZ EP   1    550 46.95                             161   -0.25 8 48.6  23 
 BAR2 SZ ES   1    551  3.08                             161   -0.22 8 48.6  23 
 BAR2 SZ I         551  5.03        21.6 0.22            163           48.6  23 
 SPBC HZ EP   1    550 50.24                             144    0.41 8 99.1 233 
 SPBC HN ES   4    551  9.87                             144    1.88 0 99.1 233 
 SPBC HZ I         551 13.41        23.0 0.36            144           99.1 233 
 BRR  HZ EP   1    550 50.63                             142    0.19 8  109 339 
 BRR  HN ES   1    551 10.01                             142    0.93 8  109 339 
 BRR  HN I         551 11.97        55.4 0.18            142            109 339 
 PTB  HZ EP        550 51.52                             137   -0.4510  128 288 
 PTB  HN ES   2    551 11.86                             137    0.06 5  128 288 
 PTB  HZ I         551 16.25        12.1 0.30            136            128 288 
 PAM  SZ EP        550 54.31                             133    0.0810  147  30 
 PAM  SN ES        551 16.05                             133    0.2410  147  30 
 PAM  SZ I         551 17.25        13.1 0.26            138            147  30 
 CHI  HZ EP        550 56.93                             127   -0.06 9  177 194 
 CHI  HN ES   1    551 20.31                             127   -0.43 7  177 194 
 CHI  HZ I         551 23.52         4.5 0.24            131            177 194 
 NOR  HZ EP   1    550 57.83                             126    0.92 7  181 248 
 NOR  HN ES   1    551 20.55                             126   -0.04 7  181 248 
 NOR  HZ I         551 26.83        13.9 0.36            128            181 248 
 ROSC BN ES   4    551 24.79                             126    3.04 0  183 216 
 ZAR  HZ EP   1    551  0.83                             121    0.03 6  220 311 
 ZAR  HN ES        551 27.36                             121   -0.15 9  220 311 
 ZAR  HZ I         551 34.70        15.3 0.24            122            220 311 
 OCA  HZ EP   1    551  1.29                             120   -0.42 6  227   1 
 OCA  HN ES        551 28.69                             120   -0.44 9  227   1 
 OCA  HZ I         551 33.23        12.4 0.54            123            227   1 
 HEL  HZ EP   1    551  4.58                             118    1.13 6  241 270 
 HEL  HE ES        551 31.60                             118   -0.62 8  241 270 
 HEL  HZ I         551 40.39         5.0 0.60            120            241 270 
 GUY2CHZ EP   4    551  5.62                             118    1.37 0  247 245 
 GUY2CHN ES   4    551 37.18                             118    3.52 0  247 245 
 GUY2CHZ I         551 40.51         7.5 0.40                           247 245 
 URE  HZ EP   4    551  7.21                             113   -1.92 0  296 306 
 URE  HN ES   4    551 38.21                             113   -4.13 0  296 306 
 URE  HZ I         551 52.77         9.2 0.36            115            296 306 
 SML  HZ EP   4    551  7.77                             113   -1.71 0  300 345 
 SML  HN ES   4    551 41.32                             113   -1.63 0  300 345 
                                                                                
