 2015  4 8 0031 30.7 L   6.795 -73.117145.5  RSN  8 0.3 1.6LRSN                1
 GAP=140        0.77       3.3     3.4  5.7 -0.2267E+01  0.5848E+01  0.1098E+01E
 Epicentro: LOS SANTOS - SANTANDER                                             3
 ACTION:UPD 15-06-03 16:53 OP:cam  STATUS:               ID:20150408003130 L   I
 OLDACT:REG 15-04-08 12:24 OP:ak   STATUS:               ID:20150408002749     3
 2015-04-08-0027-49M.COL___261                                                 6
 STAT SP IPHASW D HRMM SECON CODA AMPLIT PERI AZIMU VELO AIN AR TRES W  DIS CAZ7
 BAR2 EZ EP        031 50.36                             170    0.1010 23.5 198 
 BAR2 EZ ES        032  5.45                             170   -0.1110 23.5 198 
 BAR2 EZ I         032  6.95         9.1 0.16            169           23.5 198 
 BRR  HZ EP   1    031 51.76                             151   -0.20 7 74.3 298 
 BRR  HN ES        032  8.69                             151    0.1210 74.3 298 
 BRR  HZ I         032 23.68         9.2 0.48            148           74.3 298 
 PAM  SZ EP        031 52.95                             151    0.1910 75.9  37 
 PAM  SN ES        032 10.09                             151    0.0910 75.9  37 
 PAM  SZ I         032 12.06         5.7 0.44            155           75.9  37 
 RUS  HE ES        032 12.55                             144   -0.2510 99.8 178 
 RUS  HZ I         032 14.39         1.9 0.24            151           99.8 178 
 PTB  HZ EP   1    031 57.25                             131   -0.63 7  151 259 
 PTB  HE ES        032 18.55                             131   -0.56 9  151 259 
 PTB  HZ I         032 21.06         6.0 0.05            133            151 259 
 SPBC HZ EP        031 59.20                             129   -0.09 9  165 220 
 SPBC HN ES        032 22.21                             129    0.59 9  165 220 
 SPBC HZ I         032 27.94         4.5 0.10            133            165 220 
 ZAR  HN ES        032 29.18                             122    0.21 8  207 292 
 ZAR  HZ I         032 37.34         3.8 0.28            124            207 292 
 NOR  HE ES        032 34.95                             118    0.29 8  237 235 
 NOR  HZ I         032 37.81         3.9 0.16            122            237 235 
                                                                                
