 2017 10 8 0645 41.4 L   6.916 -73.253123.6  RSN  4 0.2 1.2LRSN                1
 GAP=123        0.57       2.8     3.1  5.2  0.1059E+01  0.7398E+01 -0.1506E+01E
 Epicentro: BETULIA - SANTANDER                                                3
 ACTION:UPD 17-11-07 19:29 OP:rebc STATUS:               ID:20171008064541 L   I
 OLDACT:REG 17-10-08 12:47 OP:dhb  STATUS:               ID:20171008063738     3
 2017-10-08-0638-00M.COL___405                                                 6
 STAT SP IPHASW D HRMM SECON CODA AMPLIT PERI AZIMU VELO AIN AR TRES W  DIS CAZ7
 BAR2 EZ IP     C  645 59.11                             163    0.3810 36.6 168 
 BAR2 EZ ES        646 12.18                             163   -0.0910 36.6 168 
 PAM  EZ EP        646  0.95                             146   -0.2910 77.0  52 
 PAM  EE ES        646 16.85                             146    0.1110 77.0  52 
 PAM  EZ I         646 22.41         3.2 0.24            149           77.0  52 
 RUS  HZ EP        646  4.02                             135   -0.1610  115 171 
 RUS  HN ES        646 21.97                             135   -0.0010  115 171 
 RUS  HZ I         646 22.68         2.0 0.24            142            115 171 
 ZAR  HZ EP        646 10.97                             119    0.19 9  188 290 
 ZAR  HN ES        646 33.59                             119   -0.14 9  188 290 
 ZAR  HZ I         646 39.19         2.3 0.09            122            188 290 
                                                                                
