 2015  9 8 0535 39.6 L   6.768 -73.140150.0  RSN  4 0.4 1.0LRSN                1
 GAP=236        0.93       5.9     8.1  9.1  0.1451E+02  0.1859E+01 -0.4271E+00E
 Epicentro: LOS SANTOS - SANTANDER                                             3
 ACTION:UPD 15-10-28 16:25 OP:cam  STATUS:               ID:20150908053539 L   I
 OLDACT:DUP 15-09-08 17:28 OP:mh   STATUS:               ID:20150908052751d    3
 OLDACT:DUP 15-09-08 17:16 OP:mh   STATUS:               ID:20150908052750d    3
 OLDACT:UP  15-09-08 17:16 OP:mh   STATUS:               ID:20150908052749d    3
 OLDACT:UP  15-09-08 17:14 OP:mh   STATUS:               ID:20150908052749d    3
 OLDACT:DUP 15-09-08 17:10 OP:mh   STATUS:               ID:20150908052749d    3
 2015-09-08-0527-48M.COL___353                                                 6
 STAT SP IPHASW D HRMM SECON CODA AMPLIT PERI AZIMU VELO AIN AR TRES W  DIS CAZ7
 BRR  HZ EP        536  1.70                             152    0.3610 73.5 301 
 BRR  HN ES        536 18.18                             152   -0.1210 73.5 301 
 BRR  HZ I         536 22.18         1.8 0.13            142           73.5 301 
 RUS  HZ EP   1    536  3.35                             146   -0.18 7 97.0 176 
 RUS  HE ES        536 22.11                             146   -0.0810 97.0 176 
 RUS  HZ I         536 23.98         1.2 0.42            133           97.0 176 
 PTB  HZ EP        536  7.19                             133    0.26 9  148 260 
 PTB  HN ES   1    536 27.58                             133   -0.65 7  148 260 
 PTB  HZ I         536 30.20         1.2 0.15            121            148 260 
 SPBC HZ EP   1    536  7.39                             130   -0.83 7  161 220 
 SPBC HZ I         536 30.96         2.3 0.24            118            161 220 
 SPBC HN ES        536 31.05                             130    0.51 9  161 220 
                                                                                
