 2014  4 8 0931 50.2 L   6.824 -73.189138.2  RSN  7 0.2 1.6LRSN                1
 GAP=130        0.45       1.9     2.8  5.1 -0.5063E+00  0.6394E+01  0.1826E+01E
 Epicentro: ZAPATOCA - SANTANDER                                               3
 2014-04-08-0928-15M.COL___244                                                 6
 ACTION:UPD 14-05-13 23:07 OP:nd   STATUS:               ID:20140408093150 L   I
 OLDACT:UP  14-04-11 04:45 OP:CF   STATUS:               ID:20140408093150 L   3
 OLDACT:DUP 14-04-08 19:01 OP:stll STATUS:               ID:20140408092816d    3
 STAT SP IPHASW D HRMM SECON CODA AMPLIT PERI AZIMU VELO AIN AR TRES W  DIS CAZ7
 PAM  SN ES        932 28.30                             149   -0.1810 78.6  44 
 RUS  HZ EP        932 13.55                             141    0.0710  104 173 
 RUS  HN ES        932 31.70                             141    0.0810  104 173 
 RUS  HZ I         932 37.57         3.7 0.98            108            104 173 
 PTB  HZ EP        932 15.95                             131   -0.26 9  144 257 
 PTB  HN ES        932 36.49                             131    0.02 9  144 257 
 PTB  HZ I         932 46.25         6.4 2.12             97            144 257 
 OCA  HN ES        932 39.26                             128    0.21 9  157 355 
 SPBC HZ EP        932 18.15                             127    0.07 9  162 217 
 SPBC HZ I         932 18.52         4.4 0.10             96            162 217 
 ZAR  HZ EP   4    932 23.02                             121    1.40 0  199 292 
 ZAR  HZ I         932 53.40         5.2 0.36             93            199 292 
 SML  HZ EP   4    932 24.84                             116   -1.12 0  239 336 
 SML  HZ I         933  0.13         6.1 0.10             93            239 336 
                                                                                
