 2011  7 8 0516 21.1 L   6.719 -73.216148.5  RSN  6 0.4 1.5LRSN                1
 GAP=146        0.83       8.6     7.4  8.6 -0.1561E+02  0.1963E+02 -0.1747E+02E
 Epicentro: VILLANUEVA - SANTANDER                                             3
 ACTION:UPD 12-07-25 13:59 OP:epov STATUS:               ID:20110708051621 L   I
 2011-07-08-0511-26S.COL___140                                                 6
 STAT SP IPHASW D HRMM SECON CODA AMPLIT PERI AZIMU VELO AIN AR TRES W  DIS CAZ7
 BAR2 SZ ES   1    516 55.68                             175   -0.67 7 14.5 165 
 BAR2 SZ I         516 57.96         5.0 0.21                          14.5 165 
 BTL  SZ EP   1    516 41.60                             170    0.58 7 22.8 345 
 BRR  HZ EP   1    516 42.79                             153    0.36 7 69.7 308 
 BRR  HN ES   1    516 59.41                             153    0.32 7 69.7 308 
 BRR  HZ I         517  0.65         6.5 0.13                          69.7 308 
 RUS  HN ES   2    517  3.15                             147    0.31 5 92.5 171 
 GRA  SZ EP   1    516 46.99                             135   -0.49 7  137  19 
 GRA  SZ I         517  6.52         3.2 0.24                           137  19 
 HEL  HZ EP   1    517  0.05                             116   -0.32 6  262 257 
 HEL  HN ES   1    517 30.87                             116   -0.15 6  262 257 
 HEL  HZ I         517 40.34         2.1 0.56                           262 257 
                                                                                
