 2012  7 8 0947 29.9 L   6.788 -73.122145.0  RSN  9 0.4 1.9LRSN                1
 GAP=140        0.93       3.8     6.2  7.3  0.3056E+00  0.1774E+02  0.4046E+01E
 Epicentro: LOS SANTOS - SANTANDER                                             3
 ACTION:UPD 12-08-14 11:43 OP:ep   STATUS:               ID:20120708094729 L   I
 2012-07-08-0940-00M.COL___201                                                 6
 STAT SP IPHASW D HRMM SECON CODA AMPLIT PERI AZIMU VELO AIN AR TRES W  DIS CAZ7
 BAR2 SZ EP   1    947 49.34                             171    -0.1 7   23 197 
 BAR2 SZ ES   1    948  4.15                             171    -0.5 7   23 197 
 BAR2 SZ I         948  5.42        19.4 0.33                            23 197 
 BRR  HZ EP   1    947 51.13                             151     0.0 7   74 298 
 BRR  HZ I         947 51.40        36.0 0.15                            74 298 
 BRR  HN ES   1    948  8.16                             151     0.5 7   74 298 
 PAM  SN ES   1    948  9.67                             151     0.4 7   77  37 
 RUS  HZ EP   1    947 52.86                             144    -0.6 7   99 177 
 RUS  HN ES   1    948 12.12                             144     0.3 7   99 177 
 RUS  HZ I         948 13.18         8.7 0.24                            99 177 
 OCA  HZ EP   1    947 58.31                             129     0.0 7  162 352 
 OCA  HN ES   1    948 20.17                             129    -0.3 7  162 352 
 ZAR  HZ EP   1    948  2.94                             122     0.4 6  207 292 
 ZAR  HN ES   1    948 27.19                             122    -0.9 6  207 292 
 NOR  SZ EP   1    948  5.52                             118    -0.2 6  236 235 
 NOR  SE ES   1    948 34.05                             118     0.4 6  236 235 
 CHI  HZ EP   1    948  7.42                             117    -0.1 6  248 196 
 CHI  HN ES   1    948 36.69                             117    -0.1 6  248 196 
 CHI  HZ I         948 40.18         6.1 0.37                           248 196 
 HEL  HZ EP   1    948 11.25                             114     0.9 6  274 256 
 HEL  HZ I         948 47.44         3.5 0.37                           274 256 
