 2015 10 8 0941 30.2 L   6.829 -73.123146.3  RSN  6 0.3 1.5LRSN                1
 GAP=203        0.59       3.0     4.3  6.0  0.4443E+01 -0.4175E+00 -0.6421E+01E
 Epicentro: LOS SANTOS - SANTANDER                                             3
 ACTION:UPD 15-12-22 20:38 OP:cam  STATUS:               ID:20151008094130 L   I
 OLDACT:REG 15-10-08 13:21 OP:spq  STATUS:               ID:20151008093743     3
 2015-10-08-0937-43M.COL___336                                                 6
 STAT SP IPHASW D HRMM SECON CODA AMPLIT PERI AZIMU VELO AIN AR TRES W  DIS CAZ7
 BAR2 EZ EP        941 50.05                             169    0.0410 27.0 194 
 BAR2 EZ ES   1    942  5.14                             169   -0.30 7 27.0 194 
 BAR2 EZ I         942  6.28         6.2 0.16            167           27.0 194 
 RUS  HZ EP        941 54.56                             143    0.3010  104 178 
 RUS  HN ES   1    942 12.93                             143   -0.08 7  104 178 
 RUS  HZ I         942 13.76         2.6 0.40            144            104 178 
 SPBC HN ES        942 21.91                             128    0.18 9  167 219 
 SPBC HZ I         942 25.51         4.2 0.12            128            167 219 
 ZAR  HE ES        942 28.12                             122   -0.14 8  205 291 
 ZAR  HZ I         942 33.22         3.7 0.40            121            205 291 
 SML  HZ EP        942  6.30                             118   -0.39 8  242 334 
 SML  HN ES   1    942 35.60                             118    0.47 6  242 334 
 SML  HZ I         942 39.25         3.4 0.10            118            242 334 
 CHI  HZ EP   1    942  8.14                             117   -0.23 6  252 196 
                                                                                
