 2013  8 8 0100 18.5 L   6.006 -74.015 10.0  RSN  5 0.5 0.9LRSN                1
 GAP=143        1.06       5.1     3.3  8.8  0.4517E+01  0.1383E+02  0.2073E+02E
 Epicentro: LA BELLEZA - SANTANDER                                             3
 ACTION:UPD 14-01-14 09:00 OP:ep   STATUS:               ID:20130808010018 L   I
 OLDACT:REG 13-08-08 07:13 OP:jn   STATUS:               ID:20130808005959     3
 2013-08-08-0059-59M.COL___269                                                 6
 STAT SP IPHASW D HRMM SECON CODA AMPLIT PERI AZIMU VELO AIN AR TRES W  DIS CAZ7
 PTB  HZ EP        1 0 30.89                              94    0.1710 76.6 320 
 PTB  HN ES   1    1 0 40.23                              94   -0.05 7 76.6 320 
 PTB  HZ I         1 0 43.44         9.4 0.10             96           76.6 320 
 RUS  HZ EP   1    1 0 35.82                              93    0.48 7  104  97 
 RUS  HN ES   1    1 0 47.81                              93   -0.69 7  104  97 
 RUS  HZ I         1 0 48.86         1.6 0.22             94            104  97 
 NOR  HE ES   1    1 0 47.92                              93   -0.48 7  107 243 
 HEL  HN ES   1    1 1  4.43                              56   -0.84 7  169 277 
 GUY2CHZ EP        1 0 46.08                              56    0.70 9  173 240 
 GUY2CHE ES   1    1 1  6.52                              56    0.15 7  173 240 
 GUY2CHZ I         1 1 13.06         1.2 0.32                           173 240 
                                                                                
