 2013  2 8 0956 56.4 L   6.819 -73.244126.2  RSN  6 0.3 1.6LRSN                1
 GAP=119        0.59       3.4     4.4  9.3 -0.2192E+01  0.1812E+02 -0.1439E+02E
 Epicentro: ZAPATOCA - SANTANDER                                               3
 ACTION:UPD 13-03-12 09:31 OP:ep   STATUS:               ID:20130208095656 L   I
 2013-02-08-0950-00M.COL___241                                                 6
 STAT SP IPHASW D HRMM SECON CODA AMPLIT PERI AZIMU VELO AIN AR TRES W  DIS CAZ7
 BAR2 SZ EP   1    957 13.79                             168    0.01 8 26.0 165 
 BAR2 SZ ES   1    957 27.34                             168    0.03 8 26.0 165 
 BAR2 SZ I         957 29.71        14.5 0.72            171           26.0 165 
 BRR  HZ EP   1    957 15.53                             152    0.65 8 60.7 302 
 PAM  SZ EP   2    957 16.54                             145   -0.47 5 83.3  46 
 PAM  SN ES   1    957 33.03                             145   -0.03 8 83.3  46 
 PAM  SN I         957 34.54         6.4 0.70            151           83.3  46 
 RUS  HN ES        957 35.79                             138   -0.0710  104 170 
 RUS  HN I         957 37.29         5.5 0.20            144            104 170 
 PTB  HN ES   1    957 39.74                             129   -0.25 7  138 257 
 PTB  HN I         957 46.18         4.6 0.40            130            138 257 
 SML  HN ES   1    957 58.40                             113   -0.16 6  237 337 
 SML  HN I         958  3.56         7.9 0.28            116            237 337 
                                                                                
