 2017  8 8 0158  5.0 L   6.775 -73.133142.0  RSN  6 0.6 1.4LRSN                1
 GAP=237        1.16       6.9     6.6 10.0  0.1784E+02  0.1544E+02  0.5427E+01E
 Epicentro: LOS SANTOS - SANTANDER                                             3
 ACTION:UPD 17-09-04 20:17 OP:rebc STATUS:               ID:20170808015805 L   I
 OLDACT:UP  17-08-08 14:31 OP:dani STATUS:               ID:20170808014734     3
 OLDACT:REG 17-08-08 13:00 OP:dani STATUS:               ID:20170808014734     3
 2017-08-08-0148-00M.COL___390                                                 6
 STAT SP IPHASW D HRMM SECON CODA AMPLIT PERI AZIMU VELO AIN AR TRES W  DIS CAZ7
 BAR2 EZ EP        158 23.83                             171   -0.3510 20.9 195 
 BAR2 EZ ES        158 38.82                             171   -0.2810 20.9 195 
 BAR2 EZ I         158 41.32         5.0 0.34            172           20.9 195 
 BRR  HZ EP        158 25.79                             151   -0.1510 73.8 300 
 BRR  HN ES        158 42.91                             151    0.6710 73.8 300 
 BRR  HZ I         158 44.58         4.6 0.24            150           73.8 300 
 RUS  HZ EP        158 28.29                             144    0.0710 97.7 177 
 RUS  HE ES        158 46.62                             144    0.3310 97.7 177 
 RUS  HZ I         158 47.49         3.1 0.24            147           97.7 177 
 PTB  HZ EP   3    158 30.64                             131   -1.15 2  149 260 
 PTB  HN ES        158 51.69                             131   -0.97 9  149 260 
 PTB  HZ I         158 55.32         2.1 0.22            132            149 260 
 ZAR  HZ EP   3    158 39.47                             121    1.97 2  206 293 
 ZAR  HN ES        159  3.05                             121    0.24 8  206 293 
 ZAR  HZ I         159  8.28         4.1 0.14            122            206 293 
 NOR  HN ES        159  8.73                             118    0.55 8  234 235 
                                                                                
