 2015 12 8 0007 29.6 L   6.731 -73.163146.9  RSN  8 0.5 1.7LRSN                1
 GAP=137        0.88       6.2     4.7  6.8 -0.9788E+01  0.5859E+01  0.3246E+01E
 Epicentro: VILLANUEVA - SANTANDER                                             3
 ACTION:UPD 16-02-04 15:03 OP:cam  STATUS:               ID:20151208000729 L   I
 OLDACT:REG 15-12-08 13:00 OP:ar   STATUS:               ID:20151208000005     3
 2015-12-08-0000-05M.COL___326                                                 6
 STAT SP IPHASW D HRMM SECON CODA AMPLIT PERI AZIMU VELO AIN AR TRES W  DIS CAZ7
 BAR2 EZ EP   2    0 7 49.49                             174    0.21 5 15.5 188 
 BAR2 EZ ES        0 8  4.15                             174   -0.4410 15.5 188 
 BAR2 EZ I         0 8  5.60        19.7 0.20            171           15.5 188 
 BRR  HZ EP        0 7 51.24                             152    0.1910 73.5 304 
 BRR  HN ES        0 8  8.37                             152    0.6310 73.5 304 
 BRR  HZ I         0 8 14.90         9.0 0.44            150           73.5 304 
 PAM  EZ EP        0 7 52.38                             149   -0.0410 84.5  37 
 PAM  EN ES        0 8 10.02                             149   -0.1510 84.5  37 
 PAM  EZ I         0 8 11.59         8.3 0.58            155           84.5  37 
 RUS  HZ EP   2    0 7 52.57                             146   -0.42 5 93.2 175 
 RUS  HN ES   2    0 8 12.16                             146    0.97 5 93.2 175 
 RUS  HZ I         0 8 13.06         6.9 0.34            149           93.2 175 
 PTB  HZ EP        0 7 56.04                             133   -0.38 9  145 262 
 PTB  HN ES        0 8 17.13                             133   -0.17 9  145 262 
 PTB  HZ I         0 8 24.07         6.0 0.56            133            145 262 
 ZAR  HE ES   2    0 8 27.06                             122   -0.69 4  205 294 
 NOR  HZ EP   2    0 8  5.62                             119    0.81 4  229 236 
 NOR  HE ES   2    0 8 32.74                             119    0.51 4  229 236 
 NOR  HZ I         0 8 38.16         4.6 0.20            121            229 236 
 GUY2CHZ EP   4    0 8 15.13                             113    2.49 0  295 236 
 GUY2CHN ES   4    0 8 50.92                             113    4.74 0  295 236 
 GUY2CHZ I         0 8 55.59         2.8 0.26                           295 236 
                                                                                
