 2011 11 8 0553 38.5 L   6.288 -73.600113.9  RSN  5 0.3 1.7LRSN                1
 GAP=113        0.57       4.0     3.9  7.4  0.4432E+01  0.2003E+02  0.1246E+02E
 Epicentro: SANTA HELENA DEL OPON - SANTANDER                                  3
 ACTION:UPD 12-07-13 16:08 OP:ep   STATUS:               ID:20111108055338 L   I
 2011-11-08-0548-45S.COL___175                                                 6
 STAT SP IPHASW D HRMM SECON CODA AMPLIT PERI AZIMU VELO AIN AR TRES W  DIS CAZ7
 BAR2 SZ EP        553 56.06                             151    0.3110 57.1  54 
 BAR2 SZ ES        554  9.26                             151    0.0510 57.1  54 
 BAR2 SZ I         554 10.75        28.3 0.26                          57.1  54 
 RUS  HZ EP        553 56.97                             146   -0.0910 72.0 127 
 RUS  HN ES   1    554 11.52                             146   -0.02 7 72.0 127 
 BRR  HZ EP   1    553 57.59                             138   -0.23 7 91.4 352 
 BRR  HZ I         554  6.41        10.0 0.09                          91.4 352 
 BRR  HN ES   1    554 12.69                             138   -0.21 7 91.4 352 
 NOR  SZ EP   1    554  4.06                             121   -0.51 7  162 240 
 HEL  HZ EP   1    554 10.99                             113    0.36 6  214 267 
 HEL  HN ES   1    554 35.90                             113    0.21 6  214 267 
 HEL  HZ I         554 40.93         2.6 0.30                           214 267 
                                                                                
