 2012 11 8 0149 25.9 L   6.778 -73.153146.8  RSN 13 0.6 2.1LRSN 3.0WRSN        1
 SPEC AVERAGE  MO 13.5 ST 12.6 OM  1.9 f0 6.15 R0.2753 AL 3.46 WI 29.6 MW  3.0 3
 SPEC SD       MO  0.2 ST  7.7 OM  0.4 f0 1.99 R0.1166 AL      WI      MW  0.1 3
 GAP= 71        1.44       4.2     4.3  6.8  0.2037E+01  0.6777E+01  0.3800E+01E
 Epicentro: LOS SANTOS - SANTANDER                                             3
 SPEC ZAR HH N MO 13.4 ST 21.2 OM  1.6 f0 8.69 R0.1692 AL 3.45 WI 19.4 MW  2.9 3
 SPEC ZAR HH N T 15024 K 0.000 GD  251 VS 4.20 DE 3.00 Q0230.0 QA 0.60 VS 4.20 3
 SPEC TAM HH Z MO 13.7 ST  1.9 OM  1.2 f0 3.11 R0.4727 AL 3.25 WI 23.0 MW  3.1 3
 SPEC TAM HH Z T 14953 K 0.000 GD  213 VP 7.60 DE 3.00 Q0230.0 QA 0.60 VS 4.20 3
 SPEC OCA HH N MO 13.7 ST 18.5 OM  2.0 f0 6.40 R0.2297 AL 3.64 WI 33.8 MW  3.1 3
 SPEC OCA HH N T 15013 K 0.000 GD  219 VS 4.20 DE 3.00 Q0230.0 QA 0.60 VS 4.20 3
 SPEC BRR HH N MO 13.4 ST  8.7 OM  1.8 f0 6.40 R0.2297 AL 3.51 WI 42.4 MW  2.9 3
 SPEC BRR HH N T 150 1 K 0.000 GD  163 VS 4.20 DE 3.00 Q0230.0 QA 0.60 VS 4.20 3
 ACTION:UPD 12-12-05 15:31 OP:}ep  STATUS:               ID:20121108014925 L   I
 2012-11-08-0148-07M.COL___213                                                 6
 STAT SP IPHASW D HRMM SECON CODA AMPLIT PERI AZIMU VELO AIN AR TRES W  DIS CAZ7
 BAR2 SZ EP        149 45.75                             172    0.1210 20.8 189 
 BAR2 SZ ES        150  0.29                             172   -0.7110 20.8 189 
 BAR2 SZ I         150  1.63        31.9 0.24                          20.8 189 
 GIR2 SZ EP        149 46.23                             166    0.4510 33.6 352 
 GIR2 SZ ES        150  1.28                             166    0.0010 33.6 352 
 BRR  HZ EP        149 47.80                             152    0.5810 71.8 301 
 BRR  HN ES        150  4.86                             152    1.0310 71.8 301 
 BRR  HN I         150  8.71        39.1 0.18                          71.8 301 
 PAM  SZ EP        149 48.90                             150    0.5110 79.8  39 
 PAM  SZ I         149 49.09        12.8 0.22                          79.8  39 
 PAM  SN ES        150  5.69                             150   -0.2310 79.8  39 
 RUS  HZ EP        149 49.50                             145   -0.1110 98.2 176 
 RUS  HN ES        150  8.14                             145    0.0610 98.2 176 
 RUS  HN I         150  9.49        33.2 0.30                          98.2 176 
 PTB  HZ EP        149 52.37                             132   -0.50 9  147 260 
 PTB  HN ES        150 13.16                             132   -0.72 9  147 260 
 PTB  HN I         150 18.70        15.2 0.18                           147 260 
 TAM  HZ IP     D  149 53.91                             131    0.22 9  155 104 
 TAM  HZ I         149 54.05        17.5 0.20                           155 104 
 TAM  HN ES        150 15.51                             131    0.16 9  155 104 
 OCA  HN ES        150 16.03                             129   -0.83 9  163 354 
 ZAR  HZ EP        149 57.03                             123   -1.43 9  204 293 
 ZAR  HE ES        150 24.21                             123    0.37 9  204 293 
 ZAR  HN I         150 27.59        16.3 0.16                           204 293 
 CHI  HZ EP        150  2.98                             118   -0.42 8  246 195 
 CHI  HZ I         150  4.87         3.2 0.42                           246 195 
 CHI  HN ES   1    150 32.18                             118   -0.45 6  246 195 
 SML  HZ EP        150  2.77                             117   -0.05 8  246 336 
 SML  HN ES        150 31.48                             117   -0.12 8  246 336 
 HEL  HZ EP        150  7.16                             115    1.12 8  271 256 
 HEL  HN ES        150 38.12                             115    0.79 8  271 256 
 HEL  HN I         150 44.93         5.5 0.58                           271 256 
 PRA  HZ EP        150 18.99                             107   -0.19 6  389 210 
                                                                                
