 2011 10 8 0254 42.3 L   6.776 -73.134142.6  RSN 10 0.4 2.3LRSN                1
 GAP=157        0.65       3.1     4.1  5.5 -0.2459E+01  0.2497E+01  0.4168E+01E
 Epicentro: LOS SANTOS - SANTANDER                                             3
 ACTION:UPD 12-07-13 16:02 OP:ep   STATUS:               ID:20111008025442 L   I
 2011-10-08-0240-00M.COL___171                                                 6
 STAT SP IPHASW D HRMM SECON CODA AMPLIT PERI AZIMU VELO AIN AR TRES W  DIS CAZ7
 BAR2 SZ EP   1    255  1.41                             171   -0.06 7 21.0 195 
 BAR2 SZ I         255  1.88        36.5 0.35                          21.0 195 
 BAR2 SZ ES   1    255 16.06                             171   -0.38 7 21.0 195 
 GIR2 SZ EP   1    255  1.58                             166   -0.06 7 34.1 349 
 BRR  HZ EP        255  3.37                             151    0.1610 73.7 300 
 BRR  HN ES   1    255 19.78                             151    0.23 7 73.7 300 
 BRR  HZ I         255 23.12        32.7 0.20                          73.7 300 
 PAM  SZ EP   1    255  4.31                             150    0.09 7 78.6  38 
 PAM  SZ I         255 23.60        11.5 0.27                          78.6  38 
 OCA  SZ EP   1    255 10.46                             128   -0.13 7  163 353 
 OCA  SZ ES   1    255 32.94                             128    0.25 7  163 353 
 OCA  SZ I         255 37.27        15.1 0.28                           163 353 
 ZAR  HN ES   1    255 39.58                             121   -0.49 6  206 293 
 ZAR  HZ I         255 45.96        31.6 0.40                           206 293 
 NOR  SZ EP   1    255 17.23                             118   -0.54 6  234 235 
 NOR  SN ES   1    255 45.65                             118    0.19 6  234 235 
 CHI  HZ EP   1    255 19.06                             117   -0.49 6  246 196 
 CHI  HN ES   1    255 49.31                             117    0.68 6  246 196 
 CHI  HZ I         255 57.65         9.4 0.62                           246 196 
 HEL  HZ EP   1    255 23.17                             114    0.78 6  273 256 
 HEL  HN ES   1    255 53.56                             114   -0.13 6  273 256 
 HEL  HZ I         256  2.05         8.5 0.32                           273 256 
 PRA  HZ EP   1    255 35.16                             106   -0.33 4  390 210 
 PRA  HZ I         256 22.41        28.3 0.22                           390 210 
                                                                                
