 2016  8 8 0508 11.4 L   6.707 -73.171143.5  RSN  7 0.4 1.7LRSN                1
 GAP=227        0.81       4.7     4.5  6.4  0.2668E+01  0.9488E+01  0.1494E+01E
 Epicentro: VILLANUEVA - SANTANDER                                             3
 ACTION:UPD 16-10-29 15:33 OP:rebc STATUS:               ID:20160808050811 L   I
 OLDACT:REG 16-08-08 12:42 OP:dnl  STATUS:               ID:20160808050735     3
 2016-08-08-0508-00M.COL___365                                                 6
 STAT SP IPHASW D HRMM SECON CODA AMPLIT PERI AZIMU VELO AIN AR TRES W  DIS CAZ7
 BAR2 EZ EP        5 8 30.49                             175   -0.0710 12.8 186 
 BAR2 EZ ES        5 8 45.10                             175   -0.4310 12.8 186 
 BAR2 EZ I         5 8 47.36        13.1 0.30                          12.8 186 
 BRR  HZ EP        5 8 32.56                             151    0.0910 74.4 307 
 BRR  HN ES        5 8 49.44                             151    0.5310 74.4 307 
 BRR  HZ I         5 8 50.53         7.1 0.16                          74.4 307 
 RUS  HZ EP   2    5 8 34.36                             146    0.16 5 90.6 174 
 RUS  HN ES   2    5 8 52.70                             146    0.70 5 90.6 174 
 RUS  HZ I         5 8 53.71         5.6 0.54                          90.6 174 
 PTB  HZ EP        5 8 37.27                             132   -0.49 9  143 263 
 PTB  HN ES        5 8 57.87                             132   -0.47 9  143 263 
 PTB  HZ I         5 8 59.26         6.1 0.14                           143 263 
 SPBC HZ EP   2    5 8 39.24                             130    0.45 5  154 221 
 SPBC HN ES        5 9  0.46                             130    0.29 9  154 221 
 SPBC HZ I         5 9  3.36         6.8 0.28                           154 221 
 ZAR  HZ EP   2    5 8 43.86                             122    0.02 4  206 295 
 ZAR  HN ES        5 9  9.25                             122    0.09 8  206 295 
 ZAR  HZ I         5 9 11.39         5.1 0.42                           206 295 
 HEL  HZ EP   2    5 8 51.58                             115    0.66 4  267 258 
 HEL  HN ES        5 9 21.78                             115    0.02 8  267 258 
 HEL  HZ I         5 9 30.03         2.2 0.36                           267 258 
                                                                                
