 2014 11 8 0937 55.1 L   6.761 -73.167149.7  RSN  7 0.5 1.8LRSN                1
 GAP=136        1.15       6.3     5.9  7.4 -0.5910E+01  0.1316E+02  0.3298E+01E
 Epicentro: LOS SANTOS - SANTANDER                                             3
 ACTION:UPD 14-12-19 15:40 OP:nd   STATUS:               ID:20141108093755 L   I
 OLDACT:UP  14-11-08 15:25 OP:cam  STATUS:               ID:20141108093747     3
 OLDACT:REG 14-11-08 15:23 OP:cam  STATUS:               ID:20141108093747     3
 2014-11-08-0937-47M.COL___289                                                 6
 STAT SP IPHASW D HRMM SECON CODA AMPLIT PERI AZIMU VELO AIN AR TRES W  DIS CAZ7
 BAR2 SZ EP        938 15.06                             173   -0.0510 18.7 185 
 BAR2 SZ ES        938 30.23                             173   -0.5010 18.7 185 
 BAR2 SZ I         938 31.49        21.0 0.14            172           18.7 185 
 BRR  HZ EP     C  938 17.01                             153    0.3310 71.3 303 
 BRR  HN ES        938 34.44                             153    0.9310 71.3 303 
 BRR  HZ I         938 36.09         9.1 0.10            151           71.3 303 
 PAM  SZ EP        938 18.02                             150    0.0010 82.3  39 
 PAM  SN ES        938 35.45                             150   -0.4510 82.3  39 
 PAM  SZ I         938 37.56        13.3 0.62            153           82.3  39 
 RUS  HZ EP   1    938 19.48                             146    0.54 7 96.5 174 
 RUS  HN ES        938 37.77                             146    0.2210 96.5 174 
 RUS  HZ I         938 38.42         4.3 0.30            148           96.5 174 
 PTB  HZ EP        938 21.92                             133   -0.18 9  145 260 
 PTB  HN ES        938 42.65                             133   -0.52 9  145 260 
 PTB  HZ I         938 50.41         8.4 0.46            133            145 260 
 OCA  HZ EP   4    938 23.15                             130   -0.94 0  164 354 
 NOR  HZ EP   4    938 29.62                             120   -0.96 0  230 235 
 HEL  HZ EP        938 34.54                             116   -0.60 8  269 257 
 GUY2CHZ EP        938 38.74                             113    0.35 7  297 235 
 MON  HZ EP   4    938 42.13                             109   -2.22 0  355 309 
                                                                                
