 2014 11 8 0327  0.3 L   6.775 -73.127143.1  RSN  4 0.5 1.6LRSN                1
 GAP=185        1.21       5.6     8.7 12.5  0.9419E+01 -0.6029E+01 -0.9076E+00E
 Epicentro: LOS SANTOS - SANTANDER                                             3
 ACTION:UPD 14-12-19 15:40 OP:nd   STATUS:               ID:20141108032700 L   I
 OLDACT:UP  14-11-08 14:22 OP:cam  STATUS:               ID:20141108031815     3
 OLDACT:REG 14-11-08 13:21 OP:cam  STATUS:               ID:20141108031815     3
 2014-11-08-0318-15M.COL___295                                                 6
 STAT SP IPHASW D HRMM SECON CODA AMPLIT PERI AZIMU VELO AIN AR TRES W  DIS CAZ7
 BRR  HZ EP        327 21.72                             151    0.3410 74.4 300 
 BRR  HN ES        327 38.55                             151    0.7510 74.4 300 
 BRR  HZ I         327 43.93         9.9 0.48            152           74.4 300 
 RUS  HZ EP        327 23.68                             144    0.0610 97.7 177 
 RUS  HN ES        327 41.50                             144   -0.2710 97.7 177 
 RUS  HZ I         327 42.98         3.2 0.26            149           97.7 177 
 PTB  HZ EP        327 27.47                             131    0.24 9  149 260 
 PTB  HN ES        327 47.55                             131   -0.66 9  149 260 
 PTB  HZ I         327 50.10         6.1 0.32            135            149 260 
 OCA  HN ES        327 50.25                             128   -0.63 9  163 353 
                                                                                
