 2017 11 8 0247 23.0 L   6.780 -73.155142.6  RSN  5 0.3 1.1LRSN                1
 GAP=136        0.65       3.3     3.7  6.6 -0.2711E+01  0.7002E+01  0.1710E+01E
 Epicentro: LOS SANTOS - SANTANDER                                             3
 ACTION:UPD 17-12-12 19:53 OP:rebc STATUS:               ID:20171108024723 L   I
 OLDACT:DUP 17-11-08 15:59 OP:dnl  STATUS:               ID:20171108023749d    3
 OLDACT:UP  17-11-08 15:58 OP:dnl  STATUS:               ID:20171108023748     3
 OLDACT:UP  17-11-08 15:58 OP:dnl  STATUS:               ID:20171108023748     3
 OLDACT:REG 17-11-08 14:54 OP:dnl  STATUS:               ID:20171108023748     3
 2017-11-08-0238-00M.COL___412                                                 6
 STAT SP IPHASW D HRMM SECON CODA AMPLIT PERI AZIMU VELO AIN AR TRES W  DIS CAZ7
 BRR  HZ EP        247 44.18                             152    0.3810 71.3 300 
 BRR  HE ES        248  0.29                             152    0.2510 71.3 300 
 BRR  HZ I         248  1.60         3.5 0.32            153           71.3 300 
 PAM  EZ EP   2    247 45.36                             149    0.35 5 79.7  39 
 PAM  EN ES        248  1.85                             149   -0.3310 79.7  39 
 PAM  EZ I         248  3.81         1.5 0.34            152           79.7  39 
 RUS  HZ EP   2    247 46.27                             144   -0.01 5 98.5 175 
 RUS  HN ES        248  4.55                             144    0.1110 98.5 175 
 RUS  HZ I         248  5.93         1.5 0.36            145           98.5 175 
 PTB  HZ EP        247 49.27                             132   -0.29 9  146 260 
 PTB  HE ES        248 10.07                             132   -0.23 9  146 260 
 PTB  HZ I         248 11.81         1.0 0.22            133            146 260 
 SPBC HZ EP   4    247 48.65                             129   -2.37 0  161 219 
 SPBC HN ES        248 12.84                             129   -0.05 9  161 219 
 SPBC HZ I         248 15.69         3.4 0.20            130            161 219 
                                                                                
