 2017  6 8 0023  6.2 L   6.470 -73.489130.0  RSN  4 0.3 0.7LRSN                1
 GAP=164        0.71       9.3     6.2  8.4  0.4381E+02 -0.1746E+01 -0.1442E+02E
 Epicentro: SIMACOTA - SANTANDER                                               3
 ACTION:UPD 17-09-14 16:50 OP:jn   STATUS:               ID:20170608002306 L   I
 OLDACT:DUP 17-06-08 13:22 OP:edw  STATUS:               ID:20170608001741d    3
 2017-06-08-0018-00M.COL___365                                                 6
 STAT SP IPHASW D HRMM SECON CODA AMPLIT PERI AZIMU VELO AIN AR TRES W  DIS CAZ7
 BRR  HN ES   2    023 41.30                             148    0.04 5 74.6 341 
 RUS  HZ EP        023 27.27                             147    0.4410 78.1 145 
 RUS  HN ES        023 42.61                             147   -0.3010 78.1 145 
 RUS  HZ I         023 44.22         0.7 0.56            148           78.1 145 
 PTB  HZ EP        023 28.11                             138   -0.2210  107 274 
 PTB  HE ES        023 45.73                             138    0.1610  107 274 
 PTB  HZ I         023 46.66         1.1 0.42            138            107 274 
 ZAR  HZ EP   2    023 35.59                             121   -0.49 4  189 307 
                                                                                
