 2013  2 8 0214 45.5 L   6.152 -73.686114.4  RSN  6 0.4 1.5LRSN                1
 GAP=115        0.75       3.7     4.9  9.4  0.7778E+01  0.2126E+02  0.1338E+02E
 Epicentro: LANDAZURI - SANTANDER                                              3
 ACTION:UPD 13-03-12 09:31 OP:ep   STATUS:               ID:20130208021445 L   I
 2013-02-08-0210-00M.COL___240                                                 6
 STAT SP IPHASW D HRMM SECON CODA AMPLIT PERI AZIMU VELO AIN AR TRES W  DIS CAZ7
 RUS  HZ EP   1    215  4.29                             146    0.12 7 72.7 113 
 RUS  HN ES   1    215 18.17                             146   -0.56 7 72.7 113 
 RUS  HN I         215 19.26         2.4 0.34            148           72.7 113 
 BAR2 SZ ES   1    215 18.47                             145    0.22 7 74.0  49 
 BAR2 SZ I         215 19.64        21.6 0.54            144           74.0  49 
 PTB  HZ EP   1    215  4.79                             137   -0.44 7 95.4 297 
 PTB  HN ES   1    215 21.08                             137    0.46 7 95.4 297 
 PTB  HN I         215 22.43         3.6 0.14            135           95.4 297 
 BRR  HZ EP   1    215  6.56                             134    0.47 7  106 358 
 BRR  HN ES   1    215 22.18                             134    0.04 7  106 358 
 BRR  HN I         215 24.57        13.4 0.40            132            106 358 
 CHI  HZ EP   1    215 12.92                             120    0.14 7  168 182 
 CHI  HN ES   1    215 34.15                             120    0.09 7  168 182 
 ZAR  HN ES   1    215 37.94                             115   -0.65 6  197 319 
 ZAR  HN I         215 45.16         2.8 0.12            114            197 319 
                                                                                
