 2017 12 8 0247 10.0 L   6.813 -73.157143.8  RSN  8 0.5 1.8LRSN                1
 GAP= 81        1.01       3.5     4.1  6.7 -0.3360E+01  0.1250E+01  0.4012E+01E
 Epicentro: LOS SANTOS - SANTANDER                                             3
 ACTION:UPD 18-01-04 13:18 OP:rebc STATUS:               ID:20171208024710 L   I
 OLDACT:UP  17-12-08 14:19 OP:dani STATUS:               ID:20171208023739d    3
 OLDACT:UP  17-12-08 14:18 OP:dani STATUS:               ID:20171208023739d    3
 OLDACT:DUP 17-12-08 14:15 OP:dani STATUS:               ID:20171208023739d    3
 OLDACT:UP  17-12-08 14:15 OP:dani STATUS:               ID:20171208023738     3
 OLDACT:UP  17-12-08 14:14 OP:dani STATUS:               ID:20171208023738     3
 OLDACT:REG 17-12-08 13:14 OP:dani STATUS:               ID:20171208023738     3
 2017-12-08-0238-00M.COL___491                                                 6
 STAT SP IPHASW D HRMM SECON CODA AMPLIT PERI AZIMU VELO AIN AR TRES W  DIS CAZ7
 BAR2 EZ EP        247 29.29                             170   -0.1310 24.5 187 
 BAR2 EZ ES        247 44.31                             170   -0.2510 24.5 187 
 BAR2 EZ I         247 45.90        18.6 0.50            168           24.5 187 
 PAM  EZ EP        247 32.06                             151    0.0710 77.1  41 
 PAM  EN ES        247 49.45                             151    0.3110 77.1  41 
 PAM  EZ I         247 51.43        13.5 0.54            155           77.1  41 
 PTB  HZ EP        247 36.10                             132   -0.62 9  147 258 
 PTB  HN ES        247 57.16                             132   -0.40 9  147 258 
 PTB  HZ I         248  2.79         4.8 0.44            132            147 258 
 TAM  HZ EP        247 37.51                             130   -0.15 9  157 105 
 OCA  HZ EP        247 37.48                             129   -0.53 9  159 354 
 OCA  HN ES        248  0.29                             129    0.43 9  159 354 
 SPBC HZ EP        247 38.22                             128   -0.16 9  163 218 
 SPBC HE ES        248  0.74                             128    0.23 9  163 218 
 SPBC HZ I         248  2.77         9.2 0.12            129            163 218 
 ZAR  HZ EP   3    247 44.82                             122    2.68 2  202 292 
 ZAR  HN ES        248  7.60                             122    0.39 9  202 292 
 ZAR  HZ I         248 13.28         5.7 0.44            123            202 292 
 CHI  HZ EP        247 47.85                             117    0.15 8  250 195 
 CHI  HN ES        248 17.97                             117    0.87 8  250 195 
 CHI  HZ I         248 24.98         2.1 0.48            118            250 195 
                                                                                
