 2012  9 8 0135 17.4 L   7.051 -73.549 14.8  RSN  6 0.3 1.2LRSN                1
 GAP=157        0.66       3.7     2.4  4.0  0.4194E+01  0.7512E+00  0.1671E+01E
 Epicentro: SAN VICENTE DE CHUCURI - SANTANDER                                 3
 ACTION:UPD 12-10-22 14:17 OP:ep   STATUS:               ID:20120908013517 L   I
 2012-09-08-0130-00M.COL___227                                                 6
 STAT SP IPHASW D HRMM SECON CODA AMPLIT PERI AZIMU VELO AIN AR TRES W  DIS CAZ7
 BRR  HZ EP        135 21.80                             124    0.3810 19.0 289 
 BRR  HN ES   1    135 24.31                             124   -0.23 7 19.0 289 
 BRR  HZ I         135 25.20        62.0 0.10                          19.0 289 
 GIR2 SZ EP   1    135 24.00                             107   -0.40 7 39.4  86 
 BAR2 SZ EP   1    135 28.08                             100   -0.19 7 65.0 141 
 BAR2 SZ ES   2    135 36.86                             100    0.14 5 65.0 141 
 BAR2 SZ I         135 37.85        12.8 0.52                          65.0 141 
 PTB  HN ES   1    135 49.39                              96   -0.32 7  115 241 
 RUS  HZ EP   1    135 39.98                              95    0.45 7  138 158 
 RUS  HZ I         135 40.21         1.6 0.14                           138 158 
 ZAR  HN ES   1    135 59.09                              56   -0.01 7  153 289 
                                                                                
