 2015  4 8 0101 23.2 L   6.826 -73.128149.4  RSN 12 0.5 1.8LRSN                1
 GAP=137        1.13       3.9     4.5  6.8 -0.3609E+01  0.1182E+02 -0.1822E+01E
 Epicentro: LOS SANTOS - SANTANDER                                             3
 ACTION:UPD 15-06-03 16:53 OP:cam  STATUS:               ID:20150408010123 L   I
 OLDACT:UP  15-04-08 18:35 OP:kat  STATUS:               ID:20150408005749     3
 OLDACT:UP  15-04-08 18:34 OP:kat  STATUS:               ID:20150408005749     3
 OLDACT:REG 15-04-08 12:27 OP:ak   STATUS:               ID:20150408005749     3
 2015-04-08-0057-49M.COL___260                                                 6
 STAT SP IPHASW D HRMM SECON CODA AMPLIT PERI AZIMU VELO AIN AR TRES W  DIS CAZ7
 BAR2 EZ EP   4    1 1 43.49                             170    0.19 0 26.5 193 
 BAR2 EZ ES        1 1 58.61                             170   -0.3910 26.5 193 
 BAR2 EZ I         1 2  0.63        13.7 0.32            170           26.5 193 
 BRR  HZ EP     C  1 1 45.15                             153    0.4210 71.6 296 
 BRR  HZ IP        1 1 45.15                             153    0.4210 71.6 296 
 BRR  HN ES        1 2  1.94                             153    0.3910 71.6 296 
 BRR  HZ I         1 2  5.06        11.3 0.18            148           71.6 296 
 PAM  SZ EP     C  1 1 46.04                             152    0.4610 74.0  40 
 PAM  SE ES        1 2  3.44                             152    0.3910 74.0  40 
 PAM  SZ I         1 2  5.78         8.7 0.60            154           74.0  40 
 RUS  HZ EP        1 1 47.13                             144   -0.3410  103 177 
 RUS  HN ES        1 2  6.26                             144   -0.1710  103 177 
 RUS  HZ I         1 2  7.08         5.5 0.32            149            103 177 
 PTB  HZ EP        1 1 49.81                             132   -0.84 9  150 258 
 PTB  HN ES        1 2 11.33                             132   -0.76 9  150 258 
 PTB  HZ I         1 2 17.12        13.0 0.22            131            150 258 
 ZAR  HZ EP   1    1 1 55.73                             123   -0.20 6  205 291 
 ZAR  HN ES        1 2 21.35                             123   -0.13 9  205 291 
 ZAR  HZ I         1 2 30.25         6.1 0.34            122            205 291 
 NOR  HZ EP   2    1 1 59.46                             119    0.01 4  238 234 
 NOR  HN ES        1 2 27.45                             119   -0.31 8  238 234 
 NOR  HZ I         1 2 32.28         3.6 0.24            120            238 234 
 SML  HZ E         1 1 59.60                                            242 335 
 SML  HZ EP        1 1 59.60                             118   -0.21 8  242 335 
 SML  HN ES        1 2 27.97                             118   -0.42 8  242 335 
 SML  HZ I         1 2 33.53         9.6 0.22            118            242 335 
 HEL  HN ES        1 2 36.26                             115    0.68 8  275 255 
 HEL  HZ I         1 2 41.60         3.5 0.32            116            275 255 
 GUY2CHZ EP   1    1 2  6.82                             113   -0.49 5  304 235 
 GUY2CHN ES        1 2 42.36                             113    0.62 7  304 235 
 GUY2CHZ I         1 2 49.41         2.2 0.26                           304 235 
 RREF HN ES        1 2 47.19                             111    0.93 7  325 229 
 MON  HZ EP   4    1 2 10.75                             109   -1.53 0  353 308 
 MON  HE ES   4    1 2 48.96                             109   -1.63 0  353 308 
 MON  HZ I         1 3  5.82         2.1 0.80            110            353 308 
 SJC  HZ EP   4    1 2 17.57                             106   -1.13 0  408 327 
 SJC  HE ES   4    1 2 59.93                             106   -2.08 0  408 327 
                                                                                
