 2014  8 8 0350 32.1 L   6.388 -73.648 99.1  RSN 24 0.4 2.1LRSN                1
 GAP= 65        0.98       1.7     2.2  4.6 -0.9546E+00  0.2576E+01  0.7255E+00E
 Epicentro: SANTA HELENA DEL OPON - SANTANDER                                  3
 ACTION:UPD 14-09-15 21:47 OP:nd   STATUS:               ID:20140808035032 L   I
 OLDACT:REG 14-08-08 12:54 OP:spq  STATUS:               ID:20140808034805     3
 2014-08-08-0348-05M.COL___254                                                 6
 STAT SP IPHASW D HRMM SECON CODA AMPLIT PERI AZIMU VELO AIN AR TRES W  DIS CAZ7
 BAR2 SZ IP     D  350 48.37                             148    0.6710 56.2  66 
 BAR2 SZ ES   1    351  0.46                             148    0.56 7 56.2  66 
 BAR2 SZ I         351  2.29       207.6 0.14            150           56.2  66 
 BRR  HZ IP     C  350 49.38                             138    0.2810 79.8 355 
 BRR  HN ES        351  1.93                             138   -0.4710 79.8 355 
 BRR  HZ I         351 10.90        25.4 0.10            137           79.8 355 
 RUS  HZ EP        350 50.15                             137    0.0910 83.1 131 
 RUS  HE ES        351  4.08                             137   -0.0110 83.1 131 
 RUS  HZ I         351  6.24        16.2 0.23            140           83.1 131 
 PTB  HZ EP        350 49.30                             134   -0.7810 91.0 281 
 PTB  HN ES        351  3.26                             134   -0.8710 91.0 281 
 PTB  HZ I         351  7.22        28.7 0.13            133           91.0 281 
 SPBC HZ EP        350 50.40                             133   -0.0410 93.9 210 
 SPBC HE ES        351  4.85                             133    0.0710 93.9 210 
 SPBC HZ I         351  7.07        29.1 0.19            133           93.9 210 
 PAM  SZ EP        350 56.53                             120    0.13 9  149  45 
 PAM  SN ES        351 15.16                             120   -0.22 9  149  45 
 PAM  SZ I         351 17.32         8.6 0.20            120            149  45 
 NOR  HZ EP        350 56.69                             117   -0.73 9  163 236 
 NOR  HE ES        351 17.51                             117    0.32 9  163 236 
 NOR  HZ I         351 21.73        19.5 0.14            116            163 236 
 ZAR  HZ EP     C  350 59.52                             114    0.16 9  181 312 
 ZAR  HN ES        351 20.95                             114    0.30 9  181 312 
 ZAR  HZ I         351 24.96        15.3 0.28            113            181 312 
 ROSC BZ EP   4    351  1.94                             114    1.47 0  187 204 
 ROSC BN ES        351 23.19                             114    0.55 9  187 204 
 ROSC BZ I         351 30.84        11.0 0.30            113            187 204 
 CHI  HZ EP        351  1.25                             113   -0.16 9  195 183 
 CHI  HE ES        351 24.06                             113   -0.24 9  195 183 
 CHI  HZ I         351 28.17        10.5 0.24            112            195 183 
 OCA  HZ EP        351  2.38                             111   -0.21 8  208  10 
 OCA  HN ES        351 26.90                             111    0.50 8  208  10 
 OCA  HZ I         351 33.36        32.6 0.22            110            208  10 
 HEL  HZ EP        351  3.21                             111    0.19 8  209 264 
 HEL  HN ES        351 27.57                             111    0.40 8  209 264 
 HEL  HZ I         351 31.31        12.0 0.36            110            209 264 
 GUY2CHZ EP        351  5.83                             109    0.32 8  230 236 
 GUY2CHE ES        351 31.74                             109    0.14 8  230 236 
 GUY2CHZ I         351 40.32         7.3 0.32                           230 236 
 VIL  SZ EP        351  7.53                             107   -0.15 8  252 181 
 VIL  SN ES        351 35.16                             107   -0.30 8  252 181 
 VIL  SZ I         351 39.28        14.9 0.24            106            252 181 
 URE  HN ES   4    351 34.14                             107   -2.18 0  257 306 
 URE  HZ I         351 42.18        10.2 0.20            105            257 306 
 CBOC HZ EP        351 10.49                             106    0.84 8  268 258 
 CBOC HN ES        351 39.16                             106    0.18 8  268 258 
 CBOC HZ I         351 43.20         3.6 0.22            104            268 258 
 SML  HZ EP        351  9.72                             106   -0.06 8  271 350 
 SML  HE ES   1    351 39.14                             106   -0.05 6  271 350 
 SML  HZ I         351 44.65        19.0 0.10            104            271 350 
 TOL  SZ EP        351 10.35                             106    0.00 8  272 223 
 TOL  SN ES        351 40.26                             106    0.05 8  272 223 
 TOL  SZ I         351 45.02        15.9 0.36            104            272 223 
 ANIL HZ EP        351 11.15                             105   -0.80 7  286 223 
 ANIL HE ES        351 43.55                             105    0.49 7  286 223 
 ANIL HZ I         351 49.94        23.4 0.32            103            286 223 
 PTGC HZ EP   4    351 11.41                             104   -1.19 0  295 145 
 PTGC HN ES   4    351 40.91                             104   -3.31 0  295 145 
 PTGC HZ I         351 47.23        10.1 0.50            103            295 145 
 PRA  HZ EP        351 16.03                             103   -0.39 7  326 205 
 PRA  HE ES        351 50.69                             103   -0.34 7  326 205 
 PRA  HZ I         351 59.36         6.6 0.24            100            326 205 
 ORTC HZ EP        351 16.04                             103   -0.43 7  326 213 
 ORTC HE ES        351 51.57                             103    0.47 7  326 213 
 ORTC HZ I         351 57.90         5.3 0.44            100            326 213 
 ARGC HN ES   1    352  4.22                             101   -0.35 4  389 350 
 ARGC HZ I         352 18.22         3.4 0.43             97            389 350 
 SJC  HZ EP   4    351 26.93                             100   -1.28 0  423 337 
 SJC  HN ES   4    352  7.37                             100   -4.63 0  423 337 
 SJC  HZ I         352 17.06         1.8 0.44             95            423 337 
                                                                                
