 2015  1 8 0514 52.6 L   6.794 -73.150149.0  RSN 13 0.4 2.2LRSN                1
 GAP= 71        0.99       2.6     2.8  4.9  0.3698E+00  0.3106E+01 -0.3157E+00E
 Epicentro: LOS SANTOS - SANTANDER                                             3
 ACTION:UPD 15-03-02 15:37 OP:nd   STATUS:               ID:20150108051452 L   I
 OLDACT:UP  15-01-08 16:38 OP:cam  STATUS:               ID:20150108050820     3
 OLDACT:UP  15-01-08 16:37 OP:cam  STATUS:               ID:20150108050820     3
 OLDACT:UP  15-01-08 16:37 OP:cam  STATUS:               ID:20150108050820     3
 OLDACT:REG 15-01-08 13:11 OP:cam  STATUS:               ID:20150108050820     3
 2015-01-08-0508-20M.COL___268                                                 6
 STAT SP IPHASW D HRMM SECON CODA AMPLIT PERI AZIMU VELO AIN AR TRES W  DIS CAZ7
 BAR2 EZ EP     D  515 12.55                             171   -0.0110 22.5 189 
 BAR2 EZ ES        515 27.88                             171   -0.2810 22.5 189 
 BAR2 EZ I         515 29.35        19.9 0.34            171           22.5 189 
 BRR  HZ EP     D  515 14.39                             153    0.3410 71.2 299 
 BRR  HN ES        515 31.96                             153    1.1410 71.2 299 
 BRR  HZ I         515 34.13        18.0 0.16            152           71.2 299 
 PAM  SZ EP     D  515 15.25                             151    0.0910 78.2  39 
 PAM  SN ES        515 32.78                             151   -0.0110 78.2  39 
 PAM  SZ I         515 34.74        22.3 0.52            154           78.2  39 
 RUS  HZ EP     D  515 16.35                             145   -0.2310 99.9 176 
 RUS  HN ES        515 34.95                             145   -0.3610 99.9 176 
 PTB  HZ EP        515 19.42                             133   -0.32 9  147 259 
 PTB  HN ES        515 40.88                             133   -0.06 9  147 259 
 TAM  HZ EP     D  515 20.66                             131    0.15 9  155 105 
 TAM  HN ES        515 42.58                             131    0.26 9  155 105 
 TAM  HN I         515 43.26        26.6 0.30            135            155 105 
 OCA  HZ EP        515 21.47                             130    0.29 9  161 353 
 OCA  HN ES        515 42.84                             130   -0.66 9  161 353 
 OCA  HZ I         515 48.50        17.8 0.28            132            161 353 
 SPBC HZ EP        515 21.47                             130    0.24 9  162 219 
 SPBC HN ES        515 43.06                             130   -0.53 9  162 219 
 SPBC HZ I         515 50.59        35.0 0.38            131            162 219 
 ZAR  HZ EP        515 25.16                             123   -0.04 9  204 292 
 ZAR  HN ES        515 50.34                             123   -0.32 9  204 292 
 ZAR  HZ I         515 57.05        23.2 0.54            124            204 292 
 SML  HZ EP        515 29.81                             118    0.39 8  244 335 
 SML  HN ES        515 57.53                             118   -0.63 8  244 335 
 SML  HZ I         516  2.30        24.0 0.10            119            244 335 
 CHI  HZ EP        515 30.14                             118   -0.21 8  248 195 
 CHI  HN ES        516  0.04                             118    0.22 8  248 195 
 CHI  HZ I         516  3.90         6.2 0.40            119            248 195 
 HEL  HZ EP        515 33.13                             115    0.26 8  271 256 
 HEL  HN ES        516  4.75                             115    0.44 8  271 256 
 HEL  HZ I         516 11.13         7.7 0.32            116            271 256 
 URE  HZ EP        515 33.27                             114   -0.50 7  284 292 
 URE  HN ES        516  6.14                             114    0.23 7  284 292 
 URE  HZ I         516  9.14         8.1 0.12            115            284 292 
                                                                                
