 2013  5 8 0906 40.3 L   6.793 -73.160144.6  RSN 12 0.5 1.8LRSN                1
 GAP=135        0.88       3.5     4.2  6.4 -0.1790E+01  0.9203E+01 -0.7946E+00E
 Epicentro: LOS SANTOS - SANTANDER                                             3
 ACTION:UPD 13-06-20 09:48 OP:ep   STATUS:               ID:20130508090640 L   I
 2013-05-08-0900-00M.COL___256                                                 6
 STAT SP IPHASW D HRMM SECON CODA AMPLIT PERI AZIMU VELO AIN AR TRES W  DIS CAZ7
 BAR2 SZ EP        9 6 59.77                             171   -0.0310 22.4 186 
 BAR2 SZ ES   1    9 7 14.30                             171   -0.69 7 22.4 186 
 BAR2 SZ I         9 7 15.66        20.6 0.34            168           22.4 186 
 BRR  HZ IP     D  9 7  1.58                             153    0.2910 70.2 300 
 BRR  HN ES   1    9 7 18.65                             153    1.00 7 70.2 300 
 BRR  HZ I         9 7 19.33        10.5 0.14            148           70.2 300 
 PAM  SZ EP        9 7  2.68                             150    0.1710 78.9  40 
 PAM  SN ES   1    9 7 19.81                             150   -0.01 7 78.9  40 
 PAM  SZ I         9 7 21.34         7.4 0.64            154           78.9  40 
 RUS  HZ EP   1    9 7  4.15                             144    0.23 7100.0 175 
 RUS  HN ES   1    9 7 22.15                             144   -0.17 7100.0 175 
 RUS  HZ I         9 7 23.99         7.6 0.52            145          100.0 175 
 PTB  HZ EP   1    9 7  6.34                             132   -0.71 7  146 259 
 PTB  HN ES   1    9 7 27.44                             132   -0.45 7  146 259 
 PTB  HZ I         9 7 30.39         6.4 0.24            130            146 259 
 OCA  HN ES   1    9 7 30.85                             129    0.20 7  161 354 
 ZAR  HZ EP   1    9 7 12.73                             122    0.15 6  203 292 
 ZAR  HN ES   1    9 7 37.96                             122    0.23 6  203 292 
 ZAR  HZ I         9 7 43.53         8.0 0.70            121            203 292 
 NOR  HZ EP        9 7 16.15                             118    0.34 8  233 234 
 NOR  HN ES   1    9 7 43.20                             118   -0.28 6  233 234 
 NOR  HZ I         9 7 53.92         4.5 0.18            118            233 234 
 SML  HZ EP   1    9 7 16.20                             117   -0.69 6  244 336 
 SML  HN ES   1    9 7 44.54                             117   -0.87 6  244 336 
 SML  HZ I         9 7 51.60         8.0 0.24            117            244 336 
 CHI  HN ES   2    9 7 47.26                             117    0.16 4  248 195 
 HEL  HZ EP   2    9 7 21.30                             115    1.01 4  270 256 
 HEL  HN ES   1    9 7 51.63                             115    0.16 6  270 256 
 HEL  HZ I         9 8  0.05         2.8 0.56            114            270 256 
 URE  HZ EP   2    9 7 20.54                             113   -0.67 4  283 292 
 URE  HE ES   4    9 7 50.87                             113   -2.23 0  283 292 
 SJC  HZ EP   4    9 7 34.16                             105   -1.66 0  409 327 
 SJC  HN ES   4    9 8 16.66                             105   -2.45 0  409 327 
                                                                                
