 2013  6 8 0919 42.6 L   6.829 -73.117154.0  RSN  8 0.4 2.4LRSN                1
 GAP=204        0.77       5.2     7.2  6.0 -0.4962E+01 -0.9584E+00  0.6683E+01E
 Epicentro: LOS SANTOS - SANTANDER                                             3
 ACTION:UPD 14-01-08 09:53 OP:ep   STATUS:               ID:20130608091942 L   I
 OLDACT:UP  13-06-08 15:56 OP:mh   STATUS:               ID:20130608091851     3
 OLDACT:REG 13-06-08 15:38 OP:mh   STATUS:               ID:20130608091851     3
 2013-06-08-0918-51M.COL___235                                                 6
 STAT SP IPHASW D HRMM SECON CODA AMPLIT PERI AZIMU VELO AIN AR TRES W  DIS CAZ7
 BAR2 SZ EP   1    920  3.30                             170    0.04 7 27.2 195 
 BAR2 SZ I         920 19.28        17.1 0.22            167           27.2 195 
 GIR2 SZ EP   1    920  3.32                             169    0.17 7 28.9 343 
 GIR2 SZ ES   1    920 18.75                             169   -0.47 7 28.9 343 
 GIR2 SZ I         920 19.74        11.5 0.34            170           28.9 343 
 BRR  HZ EP   1    920  5.09                             154    0.41 7 72.6 295 
 BRR  HN ES        920 22.50                             154    0.5710 72.6 295 
 BRR  HN I         920 22.90        51.8 0.30            154           72.6 295 
 PTB  HZ EP   1    920  9.86                             133   -0.69 7  152 258 
 PTB  HN ES   2    920 31.39                             133   -0.98 5  152 258 
 PTB  HN I         920 36.75        33.8 0.38            131            152 258 
 OCA  HZ EP   1    920 11.32                             132    0.05 7  157 352 
 OCA  HN ES   2    920 32.86                             132   -0.80 5  157 352 
 OCA  HN I         920 37.83        61.9 0.22            130            157 352 
 ZAR  HZ EP   1    920 15.82                             124    0.09 6  206 291 
 ZAR  HE ES   2    920 41.77                             124    0.16 4  206 291 
 ZAR  HN I         920 47.81        29.0 0.18            122            206 291 
 SML  HZ EP   1    920 19.49                             119   -0.00 6  242 334 
 SML  HN ES   2    920 48.00                             119   -0.30 4  242 334 
 SML  HN I         920 54.89        42.1 0.10            117            242 334 
 PRA  HZ EP        920 36.86                             108   -0.03 6  396 210 
 PRA  HN ES   2    921 19.55                             108    0.29 3  396 210 
 PRA  HN I         921 24.96         5.4 0.24            105            396 210 
                                                                                
