 2017  3 8 0759 36.5 L   6.748 -73.155114.0  RSN  6 0.5 1.1LRSN                1
 GAP=232        0.82       4.1     4.7  8.2  0.8610E+01  0.4551E+01  0.3548E+01E
 Epicentro: LOS SANTOS - SANTANDER                                             3
 ACTION:UPD 17-05-25 18:37 OP:jn   STATUS:               ID:20170308075937dL   I
 OLDACT:UP  17-03-08 20:17 OP:and  STATUS:               ID:20170308075741     3
 OLDACT:UP  17-03-08 20:17 OP:and  STATUS:               ID:20170308075741     3
 OLDACT:UP  17-03-08 20:17 OP:and  STATUS:               ID:20170308075741     3
 OLDACT:UP  17-03-08 20:16 OP:and  STATUS:               ID:20170308075741     3
 OLDACT:UP  17-03-08 20:15 OP:and  STATUS:               ID:20170308075741     3
 OLDACT:UP  17-03-08 20:15 OP:and  STATUS:               ID:20170308075741     3
 OLDACT:UP  17-03-08 20:14 OP:and  STATUS:               ID:20170308075741     3
 OLDACT:UP  17-03-08 20:13 OP:and  STATUS:               ID:20170308075741     3
 OLDACT:UP  17-03-08 20:13 OP:and  STATUS:               ID:20170308075741     3
 OLDACT:REG 17-03-08 13:05 OP:and  STATUS:               ID:20170308075741     3
 2017-03-08-0758-00M.COL___326                                                 6
 STAT SP IPHASW D HRMM SECON CODA AMPLIT PERI AZIMU VELO AIN AR TRES W  DIS CAZ7
 BAR2 EZ EP        759 52.52                             171    0.3710 17.5 190 
 BAR2 EZ ES   3    8 0  2.38                             171   -2.01 2 17.5 190 
 BRR  HZ EP        759 54.70                             145    0.2810 73.2 303 
 BRR  HN ES        8 0  8.29                             145   -0.1410 73.2 303 
 BRR  HZ I         8 0 12.51         2.8 0.20            146           73.2 303 
 RUS  HZ EP        759 56.63                             138   -0.1410 94.9 175 
 RUS  HN ES        8 0 12.62                             138    0.0110 94.9 175 
 RUS  HZ I         8 0 13.12         2.3 0.34            141           94.9 175 
 PTB  HZ EP   3    759 59.62                             124   -1.22 2  146 261 
 PTB  HN ES        8 0 19.94                             124    0.09 9  146 261 
 PTB  HZ I         8 0 21.59         1.9 0.19            126            146 261 
 SPBC HZ EP        8 0  1.61                             122   -0.59 9  158 220 
 SPBC HN ES        8 0 22.63                             122    0.35 9  158 220 
 SPBC HZ I         8 0 26.41         2.7 0.12            124            158 220 
 ZAR  HZ EP   4    8 0  4.59                             115   -2.61 0  205 294 
 ZAR  HN ES        8 0 31.08                             115   -0.09 8  205 294 
                                                                                
