 2013  3 8 0809 58.1 L   6.715 -73.174144.9  RSN  6 0.4 1.1LRSN                1
 GAP=137        1.05       6.5     5.6  8.1  0.1404E+02 -0.9976E+00 -0.9992E+01E
 Epicentro: VILLANUEVA - SANTANDER                                             3
 ACTION:UPD 13-04-09 14:00 OP:ep   STATUS:               ID:20130308080958 L   I
 2013-03-08-0808-46M.COL___200                                                 6
 STAT SP IPHASW D HRMM SECON CODA AMPLIT PERI AZIMU VELO AIN AR TRES W  DIS CAZ7
 BAR2 SZ EP        810 17.36                             174   -0.1410 13.7 184 
 BAR2 SZ ES        810 32.44                             174   -0.1710 13.7 184 
 BRR  HZ EP        810 19.45                             152    0.1210 73.6 306 
 BRR  HN ES        810 36.19                             152    0.3310 73.6 306 
 PAM  SZ EP        810 20.37                             148   -0.4710 86.6  37 
 RUS  HZ EP        810 21.70                             146    0.5310 91.5 174 
 RUS  HN ES        810 39.31                             146    0.1810 91.5 174 
 RUS  HZ I         810 40.78         1.7 0.42            145           91.5 174 
 PTB  HZ EP        810 24.42                             133   -0.20 9  143 262 
 PTB  HN ES        810 44.51                             133   -0.76 9  143 262 
 PTB  HZ I         810 47.91         2.5 0.44            132            143 262 
 ZAR  HN ES        810 56.58                             122    0.63 9  205 295 
                                                                                
