 2013  1 8 0924 28.9 L   6.732 -73.172130.6  RSN  4 0.4 1.6LRSN                1
 GAP=239        1.00      10.6     7.1  9.0  0.2922E+02  0.2088E+02  0.4791E+01E
 Epicentro: VILLANUEVA - SANTANDER                                             3
 ACTION:UPD 13-02-15 09:12 OP:ep   STATUS:               ID:20130108092428 L   I
 2013-01-08-0920-00M.COL___238                                                 6
 STAT SP IPHASW D HRMM SECON CODA AMPLIT PERI AZIMU VELO AIN AR TRES W  DIS CAZ7
 BAR2 SZ EP        924 46.82                             173    0.3010 15.5 184 
 BAR2 SZ ES        924 59.86                             173   -0.4410 15.5 184 
 BAR2 SZ I         925  3.01         9.0 0.16            165           15.5 184 
 BRR  HZ EP        924 48.81                             149    0.3210 72.7 305 
 BRR  HN ES        925  4.02                             149    0.2310 72.7 305 
 BRR  HN I         925  5.82         8.2 0.20            150           72.7 305 
 PTB  HZ EP        924 53.73                             129   -0.52 9  144 262 
 PTB  HN ES        925 14.49                             129    0.45 9  144 262 
 PTB  HN I         925 19.90         4.9 0.26            129            144 262 
 ZAR  HN ES        925 24.53                             119   -0.48 9  204 294 
                                                                                
