 2010  8 8 0313 30.5 L   6.766 -73.111140.5  RSN  6 0.3 1.0LRSN                1
 GAP=163        0.69       5.7    12.4  8.4  0.3654E+02 -0.5409E+02 -0.1250E+02E
 Epicentro: LOS SANTOS - SANTANDER                                             3
 ACTION:UP  10-09-07 10:53 OP:vdl  STATUS:               ID:20100808031330 L   I
 2010-08-08-0311-34S.COL___125                                                 6
 STAT SP IPHASW D HRMM SECON CODA AMPLIT PERI AZIMU VELO SNR AR TRES W  DIS CAZ7
 BAR2 SZ EP   1    313 49.12                             171    -0.3 7   21 202 
 BTL  SZ EP        313 49.47                             170     0.010   24 314 
 BTL  SZ ES   1    314  4.58                             170     0.2 7   24 314 
 BRR  HZ EP   1    313 51.10                             150    -0.3 7   76 300 
 BRR  HN ES   1    314  7.74                             150     0.1 7   76 300 
 BRR  HZ I         314 12.06         2.2 0.08                            76 300 
 RUS  HZ EP        313 53.87                             144     0.410   97 178 
 RUS  HN ES   1    314 10.93                             144    -0.4 7   97 178 
 GUE  SZ EP   2    313 55.20                             138     0.2 5  119  10 
 GRA  SZ EP   2    313 55.18                             136    -0.3 5  128  15 
 GRA  SZ I         314 18.47         1.4 0.28                           128  15 
                                                                                
