 2014  5 8 0850 46.8 L   6.774 -73.169144.5  RSN  9 0.4 1.6LRSN                1
 GAP=135        0.95       2.6     4.6  7.5  0.4880E+00  0.1139E+01 -0.9997E+00E
 Epicentro: LOS SANTOS - SANTANDER                                             3
 ACTION:UPD 15-03-16 16:56 OP:nd   STATUS:               ID:20140508085046 L   I
 OLDACT:REG 14-05-08 13:15 OP:carl STATUS:               ID:20140508084805     3
 2014-05-08-0848-05M.COL___233                                                 6
 STAT SP IPHASW D HRMM SECON CODA AMPLIT PERI AZIMU VELO AIN AR TRES W  DIS CAZ7
 PAM  SZ EP        851  9.42                             149    0.3210 81.2  40 
 RUS  HZ EP        851 10.29                             144    0.0710 98.0 174 
 RUS  HN ES        851 28.69                             144    0.1910 98.0 174 
 RUS  HZ I         851 29.79         4.5 0.30            147           98.0 174 
 PTB  HZ EP        851 13.60                             132    0.23 9  145 260 
 PTB  HN ES        851 33.78                             132   -0.33 9  145 260 
 PTB  HZ I         851 37.20         4.3 0.20            132            145 260 
 SPBC HZ EP        851 14.86                             129    0.04 9  159 219 
 SPBC HN ES        851 36.97                             129    0.28 9  159 219 
 SPBC HZ I         851 43.85         5.5 0.38            131            159 219 
 OCA  HN ES        851 37.15                             129   -0.28 9  163 354 
 OCA  HZ I         851 43.47         5.1 0.28            130            163 354 
 ZAR  HZ EP        851 19.48                             122    0.47 9  203 293 
 ZAR  HN ES        851 44.50                             122    0.35 9  203 293 
 ZAR  HZ I         851 50.22         4.0 0.22            123            203 293 
 SML  HZ EP        851 23.11                             117   -0.39 8  245 336 
 SML  HE ES        851 51.69                             117   -0.46 8  245 336 
 SML  HZ I         852  0.07         6.0 0.24            118            245 336 
 CHI  HZ EP        851 24.38                             117    0.34 8  245 195 
 CHI  HN ES        851 51.91                             117   -1.19 8  245 195 
 CHI  HZ I         851 58.54         1.3 0.68            119            245 195 
 PRA  HZ EP        851 39.48                             106   -0.34 6  388 209 
 PRA  HE ES        852 21.40                             106    0.21 6  388 209 
 PRA  HZ I         852 30.20         1.7 0.34            108            388 209 
                                                                                
