 2011 11 8 0436 50.7 L   6.871 -73.253146.2  RSN  4 0.4 1.4LRSN                1
 GAP=127        0.87       6.8    11.8 10.8 -0.2424E+02  0.5005E+02 -0.1996E+02E
 Epicentro: BETULIA - SANTANDER                                                3
 ACTION:UPD 12-07-13 16:08 OP:ep   STATUS:               ID:20111108043650 L   I
 2011-11-08-0433-12S.COL___175                                                 6
 STAT SP IPHASW D HRMM SECON CODA AMPLIT PERI AZIMU VELO AIN AR TRES W  DIS CAZ7
 BAR2 SZ EP   1    437 10.90                             167    0.29 7 31.8 166 
 BAR2 SZ I         437 11.31         5.6 0.05                          31.8 166 
 BAR2 SZ ES   1    437 26.75                             167    0.63 7 31.8 166 
 BRR  HZ EP        437 10.92                             158   -0.2710 57.0 297 
 BRR  HZ I         437 14.24        10.8 0.15                          57.0 297 
 PAM  SZ EP        437 13.50                             150    0.3510 80.1  50 
 PAM  SN ES   1    437 30.11                             150   -0.53 7 80.1  50 
 RUS  HZ EP   1    437 15.11                             141   -0.10 7  110 170 
 RUS  HZ I         437 15.87         2.0 0.09                           110 170 
 RUS  HE ES   1    437 33.85                             141   -0.45 7  110 170 
                                                                                
