 2015 10 8 0108  3.1 L   6.786 -73.137144.0  RSN 16 0.4 2.0LRSN                1
 GAP=138        0.86       2.5     4.1  5.0 -0.1890E+00  0.6699E+01  0.1905E+01E
 Epicentro: LOS SANTOS - SANTANDER                                             3
 ACTION:UPD 15-12-22 20:38 OP:cam  STATUS:               ID:20151008010803 L   I
 OLDACT:REG 15-10-08 12:25 OP:spq  STATUS:               ID:20151008005748     3
 2015-10-08-0057-48M.COL___337                                                 6
 STAT SP IPHASW D HRMM SECON CODA AMPLIT PERI AZIMU VELO AIN AR TRES W  DIS CAZ7
 BAR2 EZ EP        1 8 22.25                             171   -0.2410 22.0 193 
 BAR2 EZ ES   1    1 8 37.44                             171   -0.17 7 22.0 193 
 BAR2 EZ I         1 8 38.30        23.3 0.26            169           22.0 193 
 BRR  HZ EP     C  1 8 24.02                             152   -0.1210 72.7 299 
 BRR  HE ES        1 8 41.30                             152    0.7410 72.7 299 
 BRR  HZ I         1 8 44.37        17.6 0.26            150           72.7 299 
 PAM  EN ES   1    1 8 42.06                             151   -0.31 7 78.0  38 
 PAM  EZ I         1 8 44.55         8.2 0.35            154           78.0  38 
 RUS  HZ EP        1 8 26.34                             144   -0.2210 99.0 177 
 RUS  HE ES   1    1 8 44.94                             144    0.08 7 99.0 177 
 RUS  HZ I         1 8 45.92         5.9 0.26            145           99.0 177 
 OCA  HN ES        1 8 53.97                             129    0.45 9  162 353 
 OCA  HZ I         1 8 56.59        24.0 0.58            131            162 353 
 SPBC HZ EP        1 8 31.27                             129   -0.14 9  163 220 
 SPBC HN ES        1 8 53.59                             129    0.10 9  163 220 
 SPBC HZ I         1 9  0.30        16.6 0.32            129            163 220 
 ZAR  HZ EP        1 8 35.52                             122   -0.06 8  205 292 
 ZAR  HE ES        1 9  0.09                             122   -0.82 8  205 292 
 ZAR  HZ I         1 9  6.41         9.3 0.32            122            205 292 
 NOR  HZ EP        1 8 38.66                             118   -0.05 8  235 235 
 NOR  HN ES        1 9  6.28                             118   -0.21 8  235 235 
 NOR  HZ I         1 9  8.92         6.7 0.16            119            235 235 
 SML  HZ EP        1 8 39.33                             117   -0.49 8  245 335 
 SML  HE ES   1    1 9  8.81                             117    0.35 6  245 335 
 SML  HZ I         1 9 13.00        11.7 0.10            118            245 335 
 CHI  HZ EP        1 8 40.71                             117    0.14 8  247 195 
 CHI  HN ES        1 9  9.99                             117    0.20 8  247 195 
 CHI  HZ I         1 9 16.20         4.4 0.34            118            247 195 
 HEL  HZ EP        1 8 43.29                             115    0.01 8  273 256 
 HEL  HN ES   1    1 9 14.51                             115   -0.11 6  273 256 
 HEL  HZ I         1 9 21.10         7.6 0.30            115            273 256 
 URE  HZ EP   4    1 8 42.62                             113   -1.62 0  285 292 
 URE  HE ES   4    1 9 13.46                             113   -2.87 0  285 292 
 URE  HZ I         1 9 23.52         6.1 0.34            114            285 292 
 GUY2CHZ EP        1 8 47.53                             112    0.92 7  301 235 
 GUY2CHN ES   4    1 9 23.75                             112    3.19 0  301 235 
 GUY2CHZ I         1 9 30.63         5.4 0.56                           301 235 
 PTGC HZ EP   4    1 8 45.61                             112   -1.07 0  307 159 
 PTGC HN ES   4    1 9 19.37                             112   -1.30 0  307 159 
 PTGC HZ I         1 9 24.03        15.6 0.46            113            307 159 
 CBOC HZ EP   1    1 8 50.23                             110    0.24 5  334 252 
 SJC  HZ EP   4    1 8 56.91                             105   -1.90 0  411 327 
 SJC  HN ES   4    1 9 37.93                             105   -4.34 0  411 327 
 SJC  HZ I         1 9 43.22         2.2 0.28            106            411 327 
                                                                                
