 2012  8 8 0311 44.1 L   6.780 -73.167142.0  RSN 10 0.4 1.9LRSN                1
 GAP=135        0.90       3.4     4.2  5.9 -0.2107E+01  0.4982E+01  0.2297E+01E
 Epicentro: LOS SANTOS - SANTANDER                                             3
 ACTION:UPD 12-09-10 11:55 OP:ep   STATUS:               ID:20120808031144 L   I
 2012-08-08-0310-00M.COL___216                                                 6
 STAT SP IPHASW D HRMM SECON CODA AMPLIT PERI AZIMU VELO AIN AR TRES W  DIS CAZ7
 BAR2 SZ EP   1    312  3.34                             171    0.16 7 20.8 185 
 BAR2 SZ ES   1    312 17.74                             171   -0.36 7 20.8 185 
 BAR2 SZ I         312 19.30        46.5 0.35                          20.8 185 
 BRR  HZ EP        312  5.08                             152    0.3410 70.3 301 
 BRR  HZ I         312  5.42        32.7 0.16                          70.3 301 
 BRR  HE ES        312 21.73                             152    0.8510 70.3 301 
 PAM  SZ EP        312  6.22                             149    0.1510 80.6  40 
 PAM  SN ES        312 22.99                             149   -0.2510 80.6  40 
 RUS  HZ EP   1    312  7.51                             144    0.22 7 98.5 175 
 RUS  HN ES        312 25.34                             144   -0.0710 98.5 175 
 RUS  HZ I         312 27.64         5.2 0.27                          98.5 175 
 PTB  HZ EP        312 10.15                             132   -0.32 9  145 260 
 PTB  HN ES   1    312 30.29                             132   -0.78 7  145 260 
 PTB  HZ I         312 33.47         5.0 0.14                           145 260 
 OCA  HZ EP        312 11.92                             129   -0.34 9  162 354 
 ZAR  HN ES   1    312 40.51                             122   -0.63 6  203 293 
 ZAR  HZ I         312 47.08         8.4 0.10                           203 293 
 NOR  SN ES   1    312 47.17                             118    0.52 6  232 235 
 CHI  HZ EP   1    312 21.18                             117   -0.06 6  246 195 
 CHI  HE ES   1    312 50.04                             117   -0.21 6  246 195 
 CHI  HZ I         312 55.85         2.4 0.45                           246 195 
 PRA  HZ EP   1    312 37.34                             106    0.26 4  389 209 
 PRA  HE ES   1    313 18.62                             106    0.17 4  389 209 
                                                                                
