 2017  8 8 0627 15.2 L   6.759 -73.176145.8  RSN  7 0.5 1.5LRSN                1
 GAP=231        1.10       5.9     7.0  8.2  0.2118E+02  0.1551E+02  0.1209E+02E
 Epicentro: LOS SANTOS - SANTANDER                                             3
 ACTION:UPD 17-09-04 20:17 OP:rebc STATUS:               ID:20170808062715 L   I
 OLDACT:UP  17-08-08 16:11 OP:dani STATUS:               ID:20170808061743d    3
 OLDACT:UP  17-08-08 16:10 OP:dani STATUS:               ID:20170808061743d    3
 OLDACT:DUP 17-08-08 16:07 OP:dani STATUS:               ID:20170808061743d    3
 2017-08-08-0618-00M.COL___381                                                 6
 STAT SP IPHASW D HRMM SECON CODA AMPLIT PERI AZIMU VELO AIN AR TRES W  DIS CAZ7
 BAR2 EZ EP        627 34.48                             173   -0.2610 18.4 182 
 BAR2 EZ ES        627 49.73                             173   -0.2510 18.4 182 
 BAR2 EZ I         627 51.72         5.8 0.36            172           18.4 182 
 BRR  HZ EP        627 36.44                             153    0.1310 70.6 303 
 BRR  HN ES        627 53.48                             153    0.6910 70.6 303 
 BRR  HZ I         627 57.39         5.9 0.13            151           70.6 303 
 RUS  HZ EP        627 38.69                             145    0.0510 96.3 174 
 RUS  HE ES        627 56.97                             145    0.0310 96.3 174 
 RUS  HZ I         627 57.91         3.1 0.23            148           96.3 174 
 PTB  HZ EP        627 41.53                             133   -0.26 9  144 260 
 PTB  HE ES        628  1.48                             133   -1.05 9  144 260 
 PTB  HZ I         628  4.91         3.1 0.46            133            144 260 
 SPBC HZ EP        627 43.37                             130    0.21 9  158 219 
 SPBC HE ES   3    628  6.47                             130    1.50 2  158 219 
 SPBC HZ I         628  7.49         4.8 0.22            132            158 219 
 ZAR  HZ EP   4    627 50.18                             122    2.68 0  203 294 
 ZAR  HN ES        628 13.05                             122    0.35 9  203 294 
 ZAR  HZ I         628 18.68         3.2 0.12            123            203 294 
 CHI  HN ES        628 21.68                             118    0.40 8  243 195 
                                                                                
