 2013  3 8 0140 39.4 L   6.767 -73.143148.2  RSN  7 0.4 2.0LRSN                1
 GAP=138        0.99       5.3     5.1  6.4 -0.6408E+00  0.2633E+01  0.4548E+01E
 Epicentro: LOS SANTOS - SANTANDER                                             3
 ACTION:UPD 13-04-09 14:00 OP:ep   STATUS:               ID:20130308014039 L   I
 2013-03-08-0138-40M.COL___209                                                 6
 STAT SP IPHASW D HRMM SECON CODA AMPLIT PERI AZIMU VELO AIN AR TRES W  DIS CAZ7
 BAR2 SZ EP        140 59.16                             172   -0.1410 19.8 193 
 BAR2 SZ ES        141 14.20                             172   -0.5910 19.8 193 
 BAR2 SZ I         141 17.08        12.7 0.40            170           19.8 193 
 BRR  HZ EP        141  1.14                             152    0.1710 73.3 301 
 BRR  HN ES        141 18.46                             152    0.6910 73.3 301 
 BRR  HN I         141 19.54        18.5 0.22            152           73.3 301 
 PAM  SZ EP        141  2.13                             150    0.0510 80.1  38 
 RUS  HZ EP        141  3.26                             145    0.0810 96.9 176 
 RUS  HN ES        141 21.94                             145    0.2510 96.9 176 
 PTB  HZ EP        141  5.96                             133   -0.62 9  147 260 
 PTB  HN ES        141 27.27                             133   -0.47 9  147 260 
 NOR  HZ EP        141 15.32                             119    0.21 8  233 235 
 NOR  HE ES        141 43.32                             119    0.38 8  233 235 
 NOR  HE I         141 48.03         7.4 0.26            120            233 235 
 NOR  HN I         141 48.08        10.6 0.18                           233 235 
 CHI  HZ EP        141 16.98                             118    0.08 8  245 195 
                                                                                
