 2014  1 8 0810 30.2 L   6.846 -73.147144.1  RSN 11 0.5 1.8LRSN                1
 GAP=134        1.19       3.1     4.9  7.1 -0.2054E+01  0.1394E+02  0.3317E+00E
 Epicentro: LOS SANTOS - SANTANDER                                             3
 ACTION:UPD 14-03-13 09:52 OP:ep   STATUS:               ID:20140108081030 L   I
 OLDACT:REG 14-01-08 07:38 OP:carl STATUS:               ID:20140108081000     3
 2014-01-08-0810-00M.COL___285                                                 6
 STAT SP IPHASW D HRMM SECON CODA AMPLIT PERI AZIMU VELO AIN AR TRES W  DIS CAZ7
 BAR2 SZ EP        810 49.76                             168    0.0310 28.3 188 
 BAR2 SZ ES        811  5.43                             168    0.4610 28.3 188 
 BAR2 SZ I         811  6.17        16.3 0.26            167           28.3 188 
 PAM  SZ EP        810 52.56                             152    0.5510 73.7  42 
 PAM  SN ES        811  9.43                             152    0.4010 73.7  42 
 PAM  SZ I         811 10.08         8.1 0.20            157           73.7  42 
 RUS  HZ IP     D  810 53.84                             142   -0.3110  106 176 
 RUS  HN ES        811 12.48                             142   -0.3610  106 176 
 RUS  HZ I         811 14.33         3.4 0.36            144            106 176 
 PTB  HZ EP        810 56.41                             131   -0.70 9  149 257 
 PTB  HN ES        811 17.38                             131   -0.72 9  149 257 
 PTB  HZ I         811 24.85         6.9 0.36            131            149 257 
 OCA  HN ES        811 18.98                             130   -0.53 9  155 353 
 OCA  HN I         811 23.56        21.8 0.30            132            155 353 
 SPBC HZ EP        810 58.90                             128   -0.03 9  167 218 
 SPBC HN ES        811 21.23                             128   -0.12 9  167 218 
 SPBC HZ I         811 28.03         7.5 0.28            129            167 218 
 ZAR  HZ EP        811  2.93                             122    0.61 9  202 291 
 ZAR  HN ES        811 28.06                             122    0.68 9  202 291 
 ZAR  HZ I         811 32.93         5.8 0.26            123            202 291 
 SML  HZ EP        811  5.91                             118   -0.31 8  239 335 
 SML  HN ES        811 33.88                             118   -0.44 8  239 335 
 SML  HZ I         811 37.56         6.8 0.24            119            239 335 
 CHI  HZ EP        811  7.97                             116   -0.36 8  253 195 
 CHI  HN ES        811 37.97                             116   -0.10 8  253 195 
 CHI  HZ I         811 42.58         2.4 0.52            118            253 195 
 GUY2CHZ EP        811 15.05                             112    1.01 7  304 234 
 GUY2CHN ES        811 48.11                             112   -0.13 7  304 234 
 GUY2CHZ I         811 57.69         2.8 0.62                           304 234 
 RREF HN ES        811 53.73                             110    0.89 7  325 229 
 RREF HZ I         812  1.58         2.7 0.26            112            325 229 
                                                                                
