 2015  7 8 0244 21.4 L   6.821 -73.135143.6  RSN  9 0.4 1.9LRSN                1
 GAP=137        0.83       2.8     4.4  6.0 -0.4432E+00  0.1383E+02  0.1365E+01E
 Epicentro: LOS SANTOS - SANTANDER                                             3
 ACTION:UPD 15-09-08 21:47 OP:cam  STATUS:               ID:20150708024421 L   I
 OLDACT:REG 15-07-08 16:49 OP:spq  STATUS:               ID:20150708023748     3
 2015-07-08-0237-48M.COL___343                                                 6
 STAT SP IPHASW D HRMM SECON CODA AMPLIT PERI AZIMU VELO AIN AR TRES W  DIS CAZ7
 BAR2 EZ EP        244 40.53                             169   -0.3410 25.9 192 
 BAR2 EZ ES   1    244 56.29                             169    0.27 7 25.9 192 
 BAR2 EZ I         244 57.37        14.5 0.42            168           25.9 192 
 PAM  EZ EP        244 43.33                             151    0.0510 74.8  40 
 PAM  EN ES        245  0.75                             151    0.4410 74.8  40 
 PAM  EZ I         245  1.78         6.4 0.16            155           74.8  40 
 RUS  HZ EP        244 44.89                             143   -0.2610  103 177 
 RUS  HN ES   1    245  3.38                             143   -0.26 7  103 177 
 RUS  HZ I         245  4.35         6.6 0.30            147            103 177 
 OCA  HZ EP        244 49.30                             130   -0.08 9  158 353 
 OCA  HE ES        245 10.79                             130   -0.38 9  158 353 
 OCA  HZ I         245 16.49        24.7 0.20            131            158 353 
 ZAR  HZ EP        244 54.67                             122    0.90 9  204 291 
 ZAR  HE ES        245 18.91                             122   -0.07 9  204 291 
 ZAR  HZ I         245 25.61        14.5 0.30            122            204 291 
 SML  HZ EP        244 57.44                             117   -0.32 8  242 335 
 SML  HE ES   1    245 25.78                             117   -0.32 6  242 335 
 SML  HZ I         245 33.31        12.5 0.24            118            242 335 
 HEL  HZ EP        245  2.03                             114    0.30 8  274 255 
 HEL  HN ES   1    245 32.70                             114   -0.46 6  274 255 
 HEL  HZ I         245 40.70         3.2 0.36            115            274 255 
 GUY2CHZ EP        245  5.74                             112    0.53 7  303 235 
 GUY2CHE ES   4    245 41.13                             112    1.78 0  303 235 
 GUY2CHZ I         245 48.47         2.9 0.46                           303 235 
 PRA  HZ EP        245 15.08                             106   -0.11 6  395 210 
 PRA  HN ES        245 56.94                             106   -0.18 6  395 210 
 PRA  HZ I         246  0.35         3.0 0.46            108            395 210 
                                                                                
