 2015  9 8 0742 27.2 L   6.786 -73.167142.7  RSN  5 0.4 1.3LRSN                1
 GAP=234        0.96       5.7     6.1  7.3  0.7648E+01  0.4727E+01  0.5088E+01E
 Epicentro: LOS SANTOS - SANTANDER                                             3
 ACTION:UPD 15-10-28 16:25 OP:cam  STATUS:               ID:20150908074227 L   I
 OLDACT:DUP 15-09-08 18:42 OP:mh   STATUS:               ID:20150908073751d    3
 2015-09-08-0737-50M.COL___350                                                 6
 STAT SP IPHASW D HRMM SECON CODA AMPLIT PERI AZIMU VELO AIN AR TRES W  DIS CAZ7
 BAR2 EZ EP        742 46.39                             171   -0.0310 21.5 185 
 BAR2 EZ ES        743  1.31                             171   -0.1110 21.5 185 
 BAR2 EZ I         743  3.45         3.3 0.24            171           21.5 185 
 BRR  HZ EP        742 47.33                             152   -0.6110 69.9 301 
 BRR  HN ES        743  4.67                             152    0.5510 69.9 301 
 BRR  HZ I         743  9.36         5.8 0.12            152           69.9 301 
 RUS  HZ EP        742 51.10                             144    0.5510 99.2 175 
 RUS  HN ES        743  8.41                             144   -0.3510 99.2 175 
 RUS  HZ I         743 10.05         3.0 0.30            146           99.2 175 
 PTB  HZ EP   1    742 53.34                             132   -0.34 7  145 259 
 PTB  HN ES        743 14.18                             132   -0.16 9  145 259 
 PTB  HZ I         743 16.41         3.5 0.28            133            145 259 
 SPBC HZ EP        742 55.52                             129    0.31 9  161 219 
 SPBC HN ES        743 17.11                             129    0.05 9  161 219 
 SPBC HZ I         743 21.30         3.2 0.20            131            161 219 
                                                                                
