 2012  2 8 0550  6.8 L   6.786 -73.145147.1  RSN 12 0.4 2.2LRSN                1
 GAP=137        0.79       3.5     4.1  5.2 -0.1388E+01  0.6498E+01  0.3355E+01E
 ACTION:UP  12-03-07 16:28 OP:epov STATUS:               ID:20120208055006 L   I
 2012-02-08-0550-00M.COL___188                                                 6
 STAT SP IPHASW D HRMM SECON CODA AMPLIT PERI AZIMU VELO AIN AR TRES W  DIS CAZ7
 BAR2 SZ EP        550 26.67                             171    0.0710 21.8 191 
 BAR2 SZ ES   1    550 41.87                             171   -0.14 7 21.8 191 
 BAR2 SZ I         550 43.42        68.3 0.27                          21.8 191 
 GIR2 SZ EP   1    550 26.78                             167    0.07 7 32.8 351 
 GIR2 SZ ES   1    550 42.97                             167    0.76 7 32.8 351 
 BRR  HZ IP     C  550 28.54                             152    0.3710 72.0 300 
 BRR  HE ES   1    550 44.98                             152    0.16 7 72.0 300 
 BRR  HZ I         550 49.08        35.5 0.28                          72.0 300 
 PAM  SZ EP   2    550 29.58                             151    0.32 5 78.5  39 
 PAM  SN ES   1    550 46.09                             151   -0.66 7 78.5  39 
 RUS  HZ EP   1    550 30.49                             144   -0.12 7 99.0 176 
 RUS  HN ES   1    550 49.07                             144   -0.08 7 99.0 176 
 RUS  HZ I         550 50.50        13.0 0.26                          99.0 176 
 PTB  HZ EP   1    550 33.15                             132   -0.74 7  148 259 
 PTB  HN ES   1    550 54.42                             132   -0.57 7  148 259 
 OCA  SZ EP   1    550 35.37                             130   -0.02 7  162 353 
 ZAR  HZ EP   1    550 39.24                             123   -0.19 6  205 293 
 ZAR  HN ES   1    551  4.44                             123   -0.42 6  205 293 
 ZAR  HZ I         551 11.07        12.7 0.18                           205 293 
 NOR  SZ EP   1    550 42.81                             119    0.26 6  234 235 
 NOR  SE ES        551 10.67                             119    0.26 8  234 235 
 CHI  HZ EP   1    550 43.84                             118   -0.61 6  247 195 
 CHI  HN ES   1    551 13.86                             118    0.08 6  247 195 
 CHI  HZ I         551 17.63         5.6 0.37                           247 195 
 HEL  HZ EP   1    550 47.90                             115    0.82 6  272 256 
 HEL  HZ I         551 25.24        10.2 0.41                           272 256 
 PRA  HZ EP   1    551  0.46                             107    0.21 4  391 210 
                                                                                
