 2013  8 8 0206 23.9 L   6.805 -73.166148.0  RSN  7 0.5 1.5LRSN                1
 GAP=181        1.31       5.6     7.9  8.4  0.5023E+01  0.9095E+01 -0.1798E+01E
 Epicentro: LOS SANTOS - SANTANDER                                             3
 ACTION:UPD 14-01-14 09:00 OP:ep   STATUS:               ID:20130808020623 L   I
 OLDACT:REG 13-08-08 07:15 OP:jn   STATUS:               ID:20130808015959     3
 2013-08-08-0159-59M.COL___270                                                 6
 STAT SP IPHASW D HRMM SECON CODA AMPLIT PERI AZIMU VELO AIN AR TRES W  DIS CAZ7
 BAR2 SZ EP        2 6 44.12                             171    0.3410 23.5 185 
 BAR2 SZ ES        2 6 58.34                             171   -0.9610 23.5 185 
 BAR2 SZ I         2 6 59.90         8.3 0.24            169           23.5 185 
 GIR2 SZ EP   1    2 6 44.03                             168    0.24 7 30.5 354 
 GIR2 SZ ES   1    2 6 59.36                             168    0.03 7 30.5 354 
 GIR2 SZ I         2 7  0.15         4.2 0.12            168           30.5 354 
 BRR  HZ EP     C  2 6 45.54                             154    0.3910 69.0 299 
 BRR  HN ES        2 7  2.58                             154    0.8410 69.0 299 
 BRR  HZ I         2 7  6.32         4.6 0.36            152           69.0 299 
 RUS  HZ EP        2 6 47.98                             144    0.0910  101 175 
 RUS  HN ES        2 7  6.56                             144   -0.0710  101 175 
 RUS  HZ I         2 7  7.49         4.2 0.26            145            101 175 
 PTB  HZ EP        2 6 50.45                             133   -0.39 9  146 258 
 PTB  HN ES        2 7 11.12                             133   -0.75 9  146 258 
 PTB  HZ I         2 7 13.64         3.8 0.48            133            146 258 
 SPBC HZ EP        2 6 52.23                             130   -0.22 9  162 218 
 SPBC HN ES        2 7 15.55                             130    0.81 9  162 218 
 SPBC HZ I         2 7 19.14         4.2 0.22            130            162 218 
 SML  HZ EP   1    2 6 59.84                             118   -0.64 6  242 336 
 SML  HE ES   1    2 7 28.88                             118   -0.15 6  242 336 
                                                                                
