 2016 12 8 0540  0.6 L   6.777 -73.206146.6  RSN  4 0.5 1.5LRSN                1
 GAP=239        1.12      11.5     8.4 10.7  0.6414E+02  0.1013E+02 -0.1832E+02E
 Epicentro: ZAPATOCA - SANTANDER                                               3
 ACTION:UPD 17-01-11 20:13 OP:rebc STATUS:               ID:20161208054000 L   I
 OLDACT:REG 16-12-08 13:23 OP:ar   STATUS:               ID:20161208053748     3
 2016-12-08-0538-00M.COL___367                                                 6
 STAT SP IPHASW D HRMM SECON CODA AMPLIT PERI AZIMU VELO AIN AR TRES W  DIS CAZ7
 BAR2 EZ EP        540 19.97                             172   -0.2510 20.6 173 
 BAR2 EZ ES        540 35.29                             172   -0.2810 20.6 173 
 BAR2 EZ I         540 36.58         7.5 0.28            173           20.6 173 
 RUS  HZ EP        540 24.52                             144    0.2710 98.7 172 
 RUS  HN ES        540 43.21                             144    0.4810 98.7 172 
 PTB  HZ EP        540 26.47                             134   -0.49 9  141 259 
 PTB  HN ES        540 47.14                             134   -0.42 9  141 259 
 ZAR  HZ EP   4    540 34.98                             123    2.45 0  199 294 
 ZAR  HN ES        540 58.26                             123    0.79 9  199 294 
                                                                                
