 2011  2 8 0017 15.5 L   6.750 -73.148146.0  RSN  5 0.4 1.4LRSN                1
 GAP=159        0.83       7.6    30.9  9.7 -0.1682E+03  0.1340E+02  0.6639E+01E
 Epicentro: LOS SANTOS - SANTANDER                                             3
 ACTION:UP  11-03-28 15:06 OP:jfem STATUS:               ID:20110208001715 L   I
 2011-02-08-0000-00M.COL___140                                                 6
 STAT SP IPHASW D HRMM SECON CODA AMPLIT PERI AZIMU VELO SNR AR TRES W  DIS CAZ7
 BAR2 SZ EP   1    017 34.55                             173    -0.5 7   18 193 
 BAR2 SZ ES   2    017 50.37                             173     0.1 5   18 193 
 BAR2 SZ I         017 51.39         6.3 0.44                            18 193 
 GIR2 SZ EP   1    017 35.03                             165    -0.3 7   37 352 
 GIR2 SZ ES   2    017 50.86                             165     0.0 5   37 352 
 RUS  HZ EP   1    017 38.54                             145    -0.3 7   95 176 
 RUS  HN ES   2    017 57.32                             145     0.2 5   95 176 
 RUS  HZ I         017 59.02         3.0 0.46                            95 176 
 GRA  SZ EP   1    017 41.76                             136     0.6 7  131  17 
 GRA  SZ ES   2    018  1.55                             136     0.3 5  131  17 
 GRA  SZ I         018  3.90         3.7 0.31                           131  17 
 CHI  HZ EP   1    017 52.70                             118     0.1 6  243 195 
 CHI  HN ES   2    018 22.74                             118     1.2 4  243 195 
 CHI  HZ I         018 30.80         1.6 0.72                           243 195 
                                                                                
