 2012  7 8 0725 18.6 L   6.837 -73.141129.2  RSN  5 0.3 1.6LRSN                1
 GAP=184        0.65       4.1     7.1  8.3  0.1245E+02  0.2087E+02 -0.4439E+01E
 Epicentro: LOS SANTOS - SANTANDER                                             3
 ACTION:UPD 12-08-14 11:43 OP:ep   STATUS:               ID:20120708072518 L   I
 2012-07-08-0720-00M.COL___201                                                 6
 STAT SP IPHASW D HRMM SECON CODA AMPLIT PERI AZIMU VELO AIN AR TRES W  DIS CAZ7
 BAR2 SZ EP   1    725 36.58                             167     0.2 7   27 190 
 BAR2 SZ ES   1    725 49.95                             167    -0.2 7   27 190 
 BAR2 SZ I         725 52.60        12.0 0.28                            27 190 
 BRR  HZ EP   1    725 38.33                             150     0.4 7   70 295 
 BRR  HZ I         725 59.12         9.9 0.15                            70 295 
 RUS  HZ EP   1    725 41.00                             139    -0.1 7  105 176 
 RUS  HE ES   1    725 58.58                             139     0.0 7  105 176 
 RUS  HZ I         726  1.15         5.5 0.39                           105 176 
 OCA  HN ES   1    726  6.00                             126    -0.1 7  156 353 
 ZAR  HZ EP   1    725 49.35                             119    -0.6 6  203 291 
 ZAR  HN ES   1    726 14.48                             119     0.2 6  203 291 
