 2012  5 8 0750 13.1 L   6.691 -73.215151.9  RSN  4 0.2 1.2LRSN                1
 GAP=221        0.55       5.7     5.8  7.2  0.2079E+02 -0.2771E+01 -0.5865E+01E
 Epicentro: VILLANUEVA - SANTANDER                                             3
 ACTION:UP  12-07-05 12:03 OP:pat  STATUS:               ID:20120508075013 L   I
 2012-05-08-0750-00M.COL___192                                                 6
 STAT SP IPHASW D HRMM SECON CODA AMPLIT PERI AZIMU VELO SNR AR TRES W  DIS CAZ7
 BRR  HZ EP        750 34.79                             153    -0.110   72 310 
 BRR  HZ I         750 41.97         3.1 0.45                            72 310 
 BRR  HE ES   1    750 52.13                             153     0.2 7   72 310 
 RUS  HZ EP   1    750 37.01                             148     0.3 7   89 171 
 RUS  HE ES   1    750 54.81                             148    -0.3 7   89 171 
 RUS  HZ I         750 57.32         1.6 0.35                            89 171 
 PTB  HZ EP   1    750 39.66                             135     0.0 7  138 263 
 PTB  HE ES   1    751  0.66                             135     0.2 7  138 263 
 ZAR  HN ES   1    751 10.94                             124    -0.2 6  202 296 
 ZAR  HZ I         751 17.12         2.6 0.45                           202 296 
                                                                                
