 2017 10 8 0604 12.7 L   6.788 -73.078144.3  RSN  5 0.5 1.1LRSN                1
 GAP=249        0.90       5.9     6.7  7.7  0.1337E+02  0.1576E+02 -0.6851E+01E
 Epicentro: LOS SANTOS - SANTANDER                                             3
 ACTION:UPD 17-11-07 19:29 OP:rebc STATUS:               ID:20171008060412 L   I
 OLDACT:UP  17-10-08 16:19 OP:dhb  STATUS:               ID:20171008055744d    3
 OLDACT:DUP 17-10-08 16:14 OP:dhb  STATUS:               ID:20171008055744d    3
 OLDACT:REG 17-10-08 12:45 OP:dhb  STATUS:               ID:20171008055742     3
 2017-10-08-0558-00M.COL___405                                                 6
 STAT SP IPHASW D HRMM SECON CODA AMPLIT PERI AZIMU VELO AIN AR TRES W  DIS CAZ7
 BAR2 EZ EP        6 4 31.59                             170   -0.5410 24.5 208 
 BAR2 EZ ES        6 4 47.17                             170   -0.1610 24.5 208 
 BAR2 EZ I         6 4 49.06         2.0 0.10            167           24.5 208 
 RUS  HZ EP        6 4 36.26                             144    0.1110 99.0 180 
 RUS  HN ES        6 4 54.99                             144    0.5210 99.0 180 
 RUS  HZ I         6 4 56.26         3.4 0.30            146           99.0 180 
 SPBC HZ EP        6 4 41.07                             128   -0.33 9  167 221 
 SPBC HN ES        6 5  3.78                             128   -0.05 9  167 221 
 SPBC HZ I         6 5  6.92         1.9 0.13            129            167 221 
 ZAR  HZ EP        6 4 46.11                             121    0.34 8  211 292 
 ZAR  HE ES        6 5 11.94                             121    0.33 8  211 292 
 ZAR  HZ I         6 5 16.38         1.0 0.12            122            211 292 
 GUY2CHZ EP   3    6 4 58.47                             112    1.67 2  307 236 
 GUY2CHE ES   2    6 5 30.10                             112   -1.14 4  307 236 
 GUY2CHZ I         6 5 39.18         0.4 0.25                           307 236 
                                                                                
