 2015  3 8 0546 25.6 L   6.647 -73.094150.7  RSN  4 0.3 1.0LRSN                1
 GAP=209        0.69      10.0     5.6  6.5 -0.3182E+02 -0.3224E+01  0.1624E+02E
 Epicentro: CURITI - SANTANDER                                                 3
 ACTION:UPD 15-04-30 16:24 OP:nd   STATUS:               ID:20150308054625 L   I
 OLDACT:REG 15-03-08 12:30 OP:spq  STATUS:               ID:20150308053747     3
 2015-03-08-0537-47M.COL___284                                                 6
 STAT SP IPHASW D HRMM SECON CODA AMPLIT PERI AZIMU VELO AIN AR TRES W  DIS CAZ7
 BAR2 EZ ES   1    547  1.50                             175    0.17 7 11.5 238 
 BAR2 EZ I         547  3.30         2.6 0.28            174           11.5 238 
 BRR  HZ EP        546 48.13                             149   -0.0210 85.2 307 
 BRR  HN ES        547  6.01                             149    0.3010 85.2 307 
 BRR  HZ I         547 10.06         1.4 0.62            148           85.2 307 
 PAM  SZ EP        546 49.19                             148    0.1610 88.1  30 
 PAM  SE ES   1    547  6.75                             148   -0.54 7 88.1  30 
 PAM  SZ I         547  8.44         1.4 0.24            149           88.1  30 
 PTB  HZ EP        546 53.35                             132    0.03 9  151 266 
 PTB  HN ES   1    547 14.37                             132   -0.54 7  151 266 
 PTB  HZ I         547 15.83         1.2 0.46            134            151 266 
                                                                                
