 2010  8 8 0404  5.8 L   6.766 -73.061139.8  RSN 11 0.4 1.9LRSN                1
 GAP=169        0.67       2.8     5.6  5.1 -0.5439E+01  0.6504E+00  0.8490E+00E
 Epicentro: LOS SANTOS - SANTANDER                                             3
 ACTION:UP  10-09-07 10:53 OP:vdl  STATUS:               ID:20100808040405 L   I
 2010-08-08-0401-03S.COL___125                                                 6
 STAT SP IPHASW D HRMM SECON CODA AMPLIT PERI AZIMU VELO SNR AR TRES W  DIS CAZ7
 BAR2 SZ EP        4 4 24.77                             170     0.110   24 215 
 BAR2 SZ ES   1    4 4 39.26                             170    -0.2 7   24 215 
 BAR2 SZ I         4 4 41.49        32.9 0.17                            24 215 
 BRR  HZ EP        4 4 26.62                             148    -0.310   81 298 
 BRR  HN ES   1    4 4 43.42                             148     0.1 7   81 298 
 BRR  HZ I         4 4 45.86        14.7 0.10                            81 298 
 RUS  HZ EP        4 4 28.67                             144     0.010   97 181 
 RUS  HN ES   1    4 4 46.61                             144     0.1 7   97 181 
 RUS  HZ I         4 4 48.60         7.6 0.29                            97 181 
 GUE  SZ EP        4 4 30.61                             137     0.510  119   7 
 GRA  SZ EP        4 4 30.50                             135    -0.110  127  13 
 GRA  SZ ES   1    4 4 49.92                             135     0.0 7  127  13 
 GRA  SZ I         4 4 51.76         7.6 0.34                           127  13 
 OCA  SZ EP   2    4 4 33.62                             127    -0.5 5  165 350 
 OCA  SZ ES   2    4 4 55.79                             127    -0.4 5  165 350 
 OCA  SZ I         4 5  1.76         9.0 0.69                           165 350 
 CHI  HZ EP   1    4 4 42.61                             116    -0.4 6  248 198 
 CHI  HE ES   3    4 5 11.05                             116    -1.0 2  248 198 
 CHI  HZ I         4 5 18.02         3.9 0.33                           248 198 
 ROSC BZ EP   2    4 4 43.54                             115    -0.2 4  255 213 
 ROSC BE ES   2    4 5 14.21                             115     0.8 4  255 213 
 ROSC BZ I         4 5 19.42         7.2 0.75                           255 213 
 HEL  HZ EP   2    4 4 46.83                                     0.2 4  280 257 
 HEL  HE ES   3    4 5 18.58                                     0.1 2  280 257 
 HEL  HZ I         4 5 23.08         3.3 0.33                           280 257 
 RREF HZ EP   2    4 4 52.70                             109     0.5 3  327 231 
 RREF HE ES   2    4 5 29.05                             109     0.6 3  327 231 
 RREF HZ I         4 5 36.09         5.0 0.58                           327 231 
 PRA  HZ EP   2    4 4 58.60                             105    -0.7 3  393 211 
 PRA  HN ES   2    4 5 40.17                             105    -0.8 3  393 211 
 PRA  HZ I         4 5 46.47         6.5 0.39                           393 211 
                                                                                
