 2015 10 8 0026 51.9 L   6.791 -73.117153.1  RSN  8 0.4 1.7LRSN                1
 GAP=203        0.95       3.7     5.8  6.8  0.5486E+01  0.2981E+01  0.9021E+00E
 Epicentro: LOS SANTOS - SANTANDER                                             3
 ACTION:UPD 15-12-22 20:38 OP:cam  STATUS:               ID:20151008002651 L   I
 OLDACT:REG 15-10-08 12:24 OP:spq  STATUS:               ID:20151008001749     3
 2015-10-08-0017-49M.COL___337                                                 6
 STAT SP IPHASW D HRMM SECON CODA AMPLIT PERI AZIMU VELO AIN AR TRES W  DIS CAZ7
 BAR2 EZ EP   1    027 12.02                             171   -0.36 7 23.1 198 
 BAR2 EZ ES   1    027 27.93                             171   -0.45 7 23.1 198 
 BAR2 EZ I         027 29.81         9.1 0.22            164           23.1 198 
 BRR  HZ EP        027 14.06                             153    0.0610 74.5 298 
 BRR  HN ES        027 32.13                             153    0.8710 74.5 298 
 BRR  HZ I         027 32.62        11.1 0.36            147           74.5 298 
 RUS  HZ EP        027 16.56                             146    0.2910 99.4 178 
 RUS  HN ES        027 35.09                             146   -0.2110 99.4 178 
 RUS  HZ I         027 35.97         3.0 0.24            144           99.4 178 
 SPBC HZ EP        027 21.08                             131    0.02 9  164 220 
 SPBC HN ES        027 43.31                             131   -0.52 9  164 220 
 SPBC HZ I         027 50.36         7.7 0.12            127            164 220 
 ZAR  HN ES        027 51.03                             124   -0.08 8  207 292 
 ZAR  HZ I         027 59.23         4.4 0.32            121            207 292 
 NOR  HN ES        027 56.40                             120   -0.23 8  237 235 
 NOR  HZ I         028  1.41         3.4 0.22            118            237 235 
 SML  HZ EP   1    027 29.07                             119   -0.10 6  246 335 
 SML  HN ES   1    027 57.50                             119   -0.76 6  246 335 
 SML  HZ I         027 58.83         8.3 0.10            119            246 335 
 CHI  HZ EP        027 30.28                             119    0.30 8  249 196 
 CHI  HE ES   1    028  0.24                             119    0.54 6  249 196 
 CHI  HZ I         028  5.09         1.2 0.36            118            249 196 
                                                                                
