 2015  1 8 0210  2.8 L   6.826 -73.168142.9  RSN 15 0.4 2.2LRSN                1
 GAP=132        0.95       2.7     3.8  4.8 -0.2213E+01  0.5667E+01 -0.2733E-02E
 Epicentro: LOS SANTOS - SANTANDER                                             3
 ACTION:UPD 15-03-02 15:37 OP:nd   STATUS:               ID:20150108021002 L   I
 OLDACT:UP  15-01-08 14:30 OP:cam  STATUS:               ID:20150108020815     3
 OLDACT:REG 15-01-08 13:03 OP:cam  STATUS:               ID:20150108020815     3
 2015-01-08-0208-15M.COL___271                                                 6
 STAT SP IPHASW D HRMM SECON CODA AMPLIT PERI AZIMU VELO AIN AR TRES W  DIS CAZ7
 BAR2 EZ EP        210 22.32                             169    0.1410 25.9 184 
 BAR2 EZ ES        210 37.04                             169   -0.2410 25.9 184 
 BAR2 EZ I         210 38.66        35.9 0.22            168           25.9 184 
 BRR  HZ EP        210 23.98                             153    0.5010 67.7 297 
 BRR  HN ES        210 40.46                             153    0.8710 67.7 297 
 BRR  HZ I         210 44.80        33.4 0.24            149           67.7 297 
 PAM  SZ EP     D  210 25.02                             150    0.3010 76.8  42 
 PAM  SE ES        210 41.99                             150    0.2110 76.8  42 
 PAM  SZ I         210 42.73        20.1 0.20            155           76.8  42 
 RUS  HZ EP        210 26.38                             142   -0.1610  104 175 
 RUS  HE ES        210 44.43                             142   -0.6010  104 175 
 RUS  HE I         210 46.39        23.1 0.28            146            104 175 
 PTB  HZ EP        210 29.17                             132   -0.24 9  146 258 
 PTB  HN ES        210 49.83                             132   -0.31 9  146 258 
 PTB  HN I         210 55.40        56.7 0.26            131            146 258 
 OCA  HZ EP   1    210 30.25                             130   -0.38 7  157 354 
 OCA  HN ES        210 51.91                             130   -0.40 9  157 354 
 OCA  HZ I         210 55.14        21.8 0.24            131            157 354 
 SPBC HZ EP        210 31.51                             128    0.32 9  164 218 
 SPBC HN ES        210 53.18                             128   -0.13 9  164 218 
 SPBC HZ I         210 57.21        17.7 0.16            129            164 218 
 ZAR  HZ EP        210 34.31                             122   -0.44 9  201 292 
 ZAR  HN ES   4    211  0.87                             122    1.22 0  201 292 
 ZAR  HZ I         211  7.68        17.8 0.28            122            201 292 
 NOR  HZ EP        210 38.92                             118    0.55 8  234 234 
 NOR  HN ES        211  6.20                             118    0.11 8  234 234 
 SML  HZ EP        210 38.58                             117   -0.33 8  240 336 
 SML  HN ES        211  6.68                             117   -0.36 8  240 336 
 SML  HZ I         211 11.98        22.9 0.26            118            240 336 
 CHI  HZ EP        210 40.75                             116    0.13 8  251 194 
 HEL  HZ EP   4    210 44.17                             114    1.44 0  270 255 
 HEL  HN ES        211 13.59                             114   -0.25 8  270 255 
 HEL  HZ I         211 21.79         7.7 0.24            115            270 255 
 CBOC HZ EP        210 50.10                             109    0.63 7  332 251 
 MON  HZ EP   4    210 49.68                             108   -1.62 0  350 308 
 MON  HN ES   4    211 27.22                             108   -1.88 0  350 308 
 MON  HZ I         211 30.19         2.3 0.64            109            350 308 
 ORTC HZ EP        210 56.59                             106   -0.18 6  396 216 
 ORTC HN ES   4    211 40.50                             106    1.66 0  396 216 
 ORTC HZ I         211 46.48         5.4 0.42            107            396 216 
                                                                                
