 2015  1 8 0735 11.4 L   6.779 -73.155146.9  RSN  9 0.6 1.5LRSN                1
 GAP=149        1.55       4.9     7.1 10.1 -0.6898E+01  0.1450E+02  0.1065E+00E
 Epicentro: LOS SANTOS - SANTANDER                                             3
 ACTION:UPD 15-03-02 15:37 OP:nd   STATUS:               ID:20150108073511 L   I
 OLDACT:DUP 15-01-08 17:13 OP:carl STATUS:               ID:20150108072822d    3
 2015-01-08-0728-20M.COL___260                                                 6
 STAT SP IPHASW D HRMM SECON CODA AMPLIT PERI AZIMU VELO AIN AR TRES W  DIS CAZ7
 BAR2 EZ EP        735 31.38                             172    0.2910 20.9 188 
 BAR2 EZ ES        735 45.92                             172   -0.5510 20.9 188 
 BAR2 EZ I         735 47.42         7.4 0.18            171           20.9 188 
 BRR  HZ EP        735 33.52                             153    0.8610 71.5 301 
 BRR  HN ES        735 50.16                             153    0.9010 71.5 301 
 BRR  HZ I         735 52.98         7.4 0.18            153           71.5 301 
 PAM  SZ EP        735 34.32                             150    0.4610 79.8  39 
 PAM  SN ES        735 50.88                             150   -0.5110 79.8  39 
 PAM  SZ I         735 53.40         4.5 0.44            153           79.8  39 
 PTB  HZ EP        735 38.11                             132   -0.20 9  146 260 
 PTB  HN ES        735 58.51                             132   -0.80 9  146 260 
 PTB  HZ I         736  1.68         2.8 0.24            134            146 260 
 SPBC HZ EP        735 40.37                             130    0.64 9  161 219 
 SPBC HN ES        736  2.27                             130    0.43 9  161 219 
 SPBC HZ I         736  5.54         2.9 0.22            131            161 219 
 OCA  HN ES        736  2.39                             129    0.10 9  162 354 
 ZAR  HN ES        736  9.38                             123    0.13 9  204 293 
 SML  HZ EP        735 47.28                             117   -0.97 8  245 336 
 SML  HN ES        736 16.32                             117   -0.69 8  245 336 
 CHI  HN ES        736 17.14                             118   -0.96 8  246 195 
                                                                                
