 2017 12 8 0552 14.0 L   6.850 -73.157142.5  RSN 10 0.5 2.6LRSN                1
 GAP= 64        1.23       3.6     4.3  7.3 -0.2200E+00  0.2207E+01  0.3378E+01E
 Epicentro: LOS SANTOS - SANTANDER                                             3
 ACTION:UPD 18-01-04 13:18 OP:rebc STATUS:               ID:20171208055214 L   I
 OLDACT:REG 17-12-08 13:28 OP:dani STATUS:               ID:20171208054738     3
 2017-12-08-0548-00M.COL___476                                                 6
 STAT SP IPHASW D HRMM SECON CODA AMPLIT PERI AZIMU VELO AIN AR TRES W  DIS CAZ7
 BAR2 EZ EP     D  552 33.24                             168   -0.1010 28.6 186 
 BAR2 EZ ES        552 48.28                             168   -0.1710 28.6 186 
 BAR2 EZ I         552 50.10        85.7 0.34            165           28.6 186 
 PAM  EZ EP        552 35.87                             151    0.2210 74.0  43 
 PAM  EN ES        552 52.74                             151    0.1810 74.0  43 
 PAM  EZ I         552 54.79       108.7 0.48            158           74.0  43 
 PTB  HZ EP        552 39.93                             131   -0.75 9  148 257 
 PTB  HN ES        553  1.07                             131   -0.44 9  148 257 
 PTB  HZ I         553  7.18        36.7 0.40            131            148 257 
 OCA  HZ EP        552 40.91                             130   -0.60 9  155 353 
 OCA  HN E         552 45.51                                            155 353 
 OCA  HN IS        553  2.95                             130   -0.04 9  155 353 
 OCA  HN ES        553  2.95                             130            155 353 
 OCA  HZ I         553  5.04        79.9 0.28            134            155 353 
 TAM  HZ EP     D  552 41.66                             129    0.00 9  158 107 
 SPBC HZ EP        552 42.32                             128   -0.26 9  167 217 
 SPBC HN ES        553  5.39                             128    0.51 9  167 217 
 SPBC HZ I         553 12.66        45.1 0.24            127            167 217 
 YPLC HZ EP     D  552 44.01                             125   -0.07 9  182 152 
 YPLC HN ES        553  8.00                             125    0.44 9  182 152 
 YPLC HZ I         553 10.85        31.0 0.34            127            182 152 
 ZAR  HZ EP        552 47.30                             122    1.41 9  201 291 
 ZAR  HN ES        553 11.10                             122    0.32 9  201 291 
 ZAR  HZ I         553 16.45        63.0 0.32            123            201 291 
 CHI  HZ EP        552 51.96                             116   -0.09 8  254 195 
 CHI  HN ES        553 21.33                             116   -0.42 8  254 195 
 CHI  HZ I         553 29.29        14.5 0.34            117            254 195 
 ROSC BZ EP   9    552 54.02                             116    1.64 0  257 210 
 ROSC BN ES        553 24.88                                    0.91 8  257 210 
 ROSC BZ I         553 32.30        23.4 0.35            116            257 210 
                                                                                
