 2015  3 8 0450 21.7 L   6.739 -73.476117.6  RSN  4 0.3 1.1LRSN                1
 GAP=149        0.65       4.0     6.1  7.2  0.7419E+01  0.1022E+01  0.7723E+01E
 Epicentro: EL CARMEN - SANTANDER                                              3
 ACTION:UPD 15-04-30 16:24 OP:nd   STATUS:               ID:20150308045021 L   I
 OLDACT:DUP 15-03-08 17:40 OP:spq  STATUS:               ID:20150308044747d    3
 2015-03-08-0447-46M.COL___284                                                 6
 STAT SP IPHASW D HRMM SECON CODA AMPLIT PERI AZIMU VELO AIN AR TRES W  DIS CAZ7
 BAR2 EZ EP        450 38.46                             162    0.0910 36.3 117 
 BAR2 EZ ES   1    450 50.85                             162   -0.52 7 36.3 117 
 BAR2 EZ I         450 52.00         9.1 0.28            164           36.3 117 
 BRR  HZ IP     D  450 38.51                             156   -0.0410 48.3 327 
 BRR  HN ES        450 51.84                             156    0.1610 48.3 327 
 BRR  HZ I         450 53.59         2.7 0.20            158           48.3 327 
 RUS  HZ EP   1    450 42.81                             136   -0.22 7  103 155 
 RUS  HE ES   1    451  0.18                             136    0.52 7  103 155 
 RUS  HZ I         451  1.69         0.9 0.36            138            103 155 
 SPBC HN ES   1    451  4.04                             127   -0.17 7  137 209 
 SPBC HZ I         451  7.02         2.3 0.10            127            137 209 
                                                                                
