 2012  6 8 0305 53.1 L   6.802 -73.177133.1  RSN  5 0.4 1.8LRSN                1
 GAP=180        0.81       4.7     6.0 10.1  0.7994E+01  0.1579E+02 -0.9425E+01E
 Epicentro: LOS SANTOS - SANTANDER                                             3
 ACTION:UPD 12-08-06 17:48 OP:ep   STATUS:               ID:20120608030552 L   I
 2012-06-08-0300-00M.COL___200                                                 6
 STAT SP IPHASW D HRMM SECON CODA AMPLIT PERI AZIMU VELO AIN AR TRES W  DIS CAZ7
 BAR2 SZ EP        3 6 11.26                             170    0.0710 23.2 181 
 BAR2 SZ ES   1    3 6 25.69                             170    0.38 7 23.2 181 
 BAR2 SZ I         3 6 27.77        18.9 0.22            172           23.2 181 
 RUS  HZ EP   1    3 6 15.64                             141   -0.01 7  101 174 
 RUS  HE ES        3 6 33.17                             141   -0.0810  101 174 
 RUS  HZ I         3 6 34.79         5.1 0.22            147            101 174 
 PTB  HZ EP   1    3 6 18.86                             130    0.13 7  144 258 
 PTB  HN ES   1    3 6 37.95                             130   -0.78 7  144 258 
 PTB  HZ I         3 6 41.90         4.7 0.19            131            144 258 
 OCA  HE ES   1    3 6 41.25                             127   -0.43 7  160 354 
 OCA  HZ I         3 6 45.69        18.4 0.26            128            160 354 
 ZAR  HN ES   1    3 6 49.55                             120    0.75 6  201 292 
 ZAR  HZ I         3 6 55.21         5.2 0.11            121            201 292 
                                                                                
