 2014  2 8 0106 39.8 L   6.814 -73.143147.0  RSN 22 0.5 2.6LRSN                1
 GAP= 71        0.84       2.2     2.9  4.9 -0.7207E+00  0.8762E+00  0.4192E+00E
 Epicentro: LOS SANTOS - SANTANDER                                             3
 ACTION:UPD 14-03-10 08:08 OP:ep   STATUS:               ID:20140208010639 L   I
 OLDACT:UP  14-02-08 10:41 OP:mh   STATUS:               ID:20140208010547     3
 OLDACT:UP  14-02-08 10:40 OP:mh   STATUS:               ID:20140208010547     3
 OLDACT:UP  14-02-08 10:38 OP:mh   STATUS:               ID:20140208010547     3
 OLDACT:UP  14-02-08 10:38 OP:mh   STATUS:               ID:20140208010547     3
 OLDACT:REG 14-02-08 09:47 OP:mh   STATUS:               ID:20140208010547     3
 2014-02-08-0105-47M.COL___226                                                 6
 STAT SP IPHASW D HRMM SECON CODA AMPLIT PERI AZIMU VELO AIN AR TRES W  DIS CAZ7
 BAR2 SZ IP     C  1 6 59.70                             170    0.0910 24.9 190 
 BAR2 SZ ES   1    1 7 14.89                             170   -0.18 7 24.9 190 
 BAR2 SZ I         1 7 16.06       191.9 0.26            168           24.9 190 
 BRR  HZ IP     D  1 7  1.52                             153    0.4710 70.7 297 
 BRR  HN ES   1    1 7 18.21                             153    0.58 7 70.7 297 
 BRR  HZ I         1 7 21.76        76.1 0.24            143           70.7 297 
 PAM  SZ EP   1    1 7  2.65                             151    0.59 7 76.0  40 
 PAM  SZ I         1 7 21.87       131.9 0.46            140           76.0  40 
 RUS  HZ EP     D  1 7  3.65                             144   -0.1310  102 176 
 RUS  HZ I         1 7 23.45        66.9 0.35            133            102 176 
 PTB  HZ EP   1    1 7  6.43                             132   -0.49 7  148 258 
 PTB  HZ I         1 7 30.42        48.2 0.16            121            148 258 
 TAM  HZ IP     D  1 7  8.11                             131    0.52 9  155 106 
 TAM  HN ES   1    1 7 29.29                             131    0.02 7  155 106 
 TAM  HZ I         1 7 29.36        15.2 0.44            119            155 106 
 OCA  HZ EP   1    1 7  7.56                             130   -0.50 7  159 353 
 OCA  HN ES   1    1 7 29.67                             130   -0.44 7  159 353 
 OCA  HZ I         1 7 34.52        51.1 0.54            118            159 353 
 SPBC HZ EP        1 7  8.59                             129    0.07 9  165 219 
 SPBC HN ES        1 7 30.30                             129   -0.63 9  165 219 
 SPBC HZ I         1 7 33.30        91.6 0.35            118            165 219 
 ZAR  HZ EP   1    1 7 12.24                             123   -0.05 6  204 292 
 ZAR  HN ES        1 7 37.50                             123   -0.13 9  204 292 
 ZAR  HZ I         1 7 42.90        35.0 0.26            111            204 292 
 NOR  HZ EP     D  1 7 15.85                             119    0.13 8  236 234 
 NOR  HZ I         1 7 46.29        34.8 0.18            108            236 234 
 SML  HZ EP   1    1 7 16.05                             118   -0.30 6  242 335 
 SML  HN ES   1    1 7 45.49                             118    0.63 6  242 335 
 CHI  HZ EP   1    1 7 17.87                             117    0.13 6  250 195 
 CHI  HN ES        1 7 46.94                             117   -0.39 8  250 195 
 CHI  HZ I         1 7 50.74        33.8 0.53            107            250 195 
 HEL  HZ EP   1    1 7 20.92                             115    0.78 6  273 255 
 HEL  HN ES   1    1 7 50.95                             115   -0.67 6  273 255 
 HEL  HZ I         1 7 57.85        28.6 0.23            105            273 255 
 URE  HZ EP   4    1 7 19.61                             114   -1.28 0  283 292 
 URE  HN ES   4    1 7 51.98                             114   -0.96 0  283 292 
 URE  HZ I         1 8  2.45        29.2 0.15            104            283 292 
 GUY2CHZ EP   1    1 7 24.07                             112    0.48 5  302 235 
 GUY2CHE ES   1    1 7 58.63                             112    0.88 5  302 235 
 GUY2CHZ I         1 8  6.04        25.0 0.27                           302 235 
 VIL  SZ EP   1    1 7 23.03                             112   -0.42 5  305 192 
 VIL  SN ES   2    1 7 56.98                             112   -0.53 4  305 192 
 CBOC HZ EP   1    1 7 27.70                             110    0.85 5  334 252 
 CBOC HZ I         1 8  8.28         5.7 0.30            101            334 252 
 DBB  SZ EP   1    1 7 27.17                             110   -0.17 5  340 274 
 COD  HZ EP        1 7 27.26                             109   -0.78 6  347 355 
 COD  HN ES        1 8  5.41                             109   -0.26 6  347 355 
 COD  HZ I         1 8 10.27         9.0 0.34            100            347 355 
 SDV  BZ EP     C  1 7 29.24                             109   -0.50 6  359  50 
 SDV  BZ I         1 8 10.06        12.3 0.36             99            359  50 
 PRA  HZ EP   1    1 7 33.30                             107   -0.24 4  394 209 
 PRA  HN ES   1    1 8 16.03                             107    0.58 4  394 209 
 PRA  HZ I         1 8 21.68        24.3 0.30             98            394 209 
 ORTC HZ EP   1    1 7 34.09                             106    0.16 4  397 216 
 ORTC HN ES   1    1 8 15.96                             106   -0.19 4  397 216 
 ORTC HZ I         1 8 21.09        17.8 0.27             98            397 216 
 SJC  HZ EP   4    1 7 33.36                             106   -1.90 0  408 327 
 SJC  HN ES   4    1 8 14.61                             106   -3.91 0  408 327 
                                                                                
