 2017  7 8 0210 47.4 L   6.733 -73.157146.5  RSN 10 0.5 1.7LRSN                1
 GAP=206        0.98       4.9     4.2  6.3  0.8432E+01  0.1830E+01  0.9591E+01E
 Epicentro: LOS SANTOS - SANTANDER                                             3
 ACTION:UPD 17-08-30 15:30 OP:rebc STATUS:               ID:20170708021047 L   I
 OLDACT:UP  17-07-08 14:05 OP:edw  STATUS:               ID:20170708020740d    3
 OLDACT:UP  17-07-08 14:05 OP:edw  STATUS:               ID:20170708020740d    3
 OLDACT:UP  17-07-08 13:57 OP:edw  STATUS:               ID:20170708020740d    3
 OLDACT:DUP 17-07-08 13:48 OP:edw  STATUS:               ID:20170708020740d    3
 2017-07-08-0208-00M.COL___374                                                 6
 STAT SP IPHASW D HRMM SECON CODA AMPLIT PERI AZIMU VELO AIN AR TRES W  DIS CAZ7
 BAR2 EZ EP        211  6.93                             174   -0.1010 15.8 190 
 BAR2 EZ ES        211 22.60                             174    0.2910 15.8 190 
 BAR2 EZ I         211 24.68        18.0 0.32            164           15.8 190 
 BRR  HZ EP     C  211  8.87                             152    0.0410 73.9 304 
 BRR  HN ES        211 25.88                             152    0.3810 73.9 304 
 PTB  HZ EP        211 14.12                             133   -0.12 9  145 262 
 PTB  HN ES        211 34.70                             133   -0.44 9  145 262 
 PTB  HZ I         211 41.04         4.7 0.46            126            145 262 
 SPBC HZ EP        211 15.85                             131    0.46 9  157 220 
 SPBC HN ES        211 37.11                             131   -0.07 9  157 220 
 SPBC HZ I         211 42.70        11.0 0.20            123            157 220 
 YPLC HZ IP     D  211 17.32                             128    0.59 9  171 150 
 YPLC HE ES        211 39.14                             128   -0.43 9  171 150 
 YPLC HZ I         211 43.83         3.6 0.48            123            171 150 
 ZAR  HN ES        211 44.80                             122   -0.79 8  206 294 
 NOR  HZ EP   4    211 23.68                             119    1.03 0  229 236 
 NOR  HN ES        211 50.28                             119    0.17 8  229 236 
 NOR  HZ I         212  0.19         2.9 0.56            114            229 236 
 GUY2CHZ EP        211 30.94                             113    0.45 7  296 236 
 GUY2CHE ES   4    212  5.44                             113    1.37 0  296 236 
 GUY2CHZ I         212 13.08         3.0 0.36                           296 236 
 PTGC HZ EP        211 29.95                             112   -0.66 7  302 158 
 PTGC HN ES   2    212  3.40                             112   -0.88 4  302 158 
 CBOC HZ EP   2    211 34.97                             110    0.97 3  330 253 
 CBOC HZ I         212  2.55         1.5 0.10            106            330 253 
 SJC  HZ EP   4    211 40.66                             106   -3.02 0  415 328 
 SJC  HN ES   4    212 24.16                             106   -3.38 0  415 328 
                                                                                
