 2015  4 8 0345 33.9 L   6.505 -73.545113.5  RSN  7 0.3 1.4LRSN                1
 GAP= 69        0.74       2.4     2.9  5.8  0.7567E+00  0.3548E+01 -0.7744E+00E
 Epicentro: SANTA HELENA DEL OPON - SANTANDER                                  3
 ACTION:UPD 15-06-03 16:53 OP:cam  STATUS:               ID:20150408034533 L   I
 OLDACT:UP  15-04-08 18:35 OP:mh   STATUS:               ID:20150408033749     3
 OLDACT:UP  15-04-08 18:02 OP:mh   STATUS:               ID:20150408033749     3
 OLDACT:UP  15-04-08 18:00 OP:mh   STATUS:               ID:20150408033749     3
 OLDACT:REG 15-04-08 12:48 OP:akv  STATUS:               ID:20150408033749     3
 2015-04-08-0337-49M.COL___260                                                 6
 STAT SP IPHASW D HRMM SECON CODA AMPLIT PERI AZIMU VELO AIN AR TRES W  DIS CAZ7
 BAR2 EZ EP        345 50.22                             159   -0.0610 41.2  76 
 BAR2 EZ ES        346  3.15                             159    0.0810 41.2  76 
 BRR  HZ EP        345 51.74                             146    0.2310 69.1 345 
 BRR  HN ES        346  5.24                             146   -0.0110 69.1 345 
 BRR  HZ I         346 14.90         5.7 0.24            149           69.1 345 
 RUS  HZ EP        345 53.08                             141   -0.2610 84.9 143 
 RUS  HN ES        346  8.37                             141   -0.1510 84.9 143 
 RUS  HZ I         346 11.05         2.2 0.26            150           84.9 143 
 PTB  HZ EP   1    345 53.18                             135   -0.81 7  101 272 
 PTB  HN ES        346  9.43                             135   -0.2510  101 272 
 PTB  HZ I         346 13.27         6.4 0.14            140            101 272 
 SPBC HZ EP        345 55.38                             132    0.4010  111 212 
 SPBC HN ES        346 11.74                             132    0.3110  111 212 
 ZAR  HN ES        346 24.02                             117    0.12 9  182 307 
 ZAR  HZ I         346 27.82         6.6 0.28            123            182 307 
 OCA  HE ES        346 26.65                             116    0.13 9  193   7 
                                                                                
