 2010  2 8 0710 32.4 L   6.724 -72.926145.1  RSN  8 0.4 2.2LRSN                1
 GAP=195        0.76       5.6    11.5  6.8 -0.5013E+02  0.1647E+02  0.1582E+01E
 Epicentro: CEPITA - SANTANDER                                                 3
 ACTION:DUP 10-08-24 09:48 OP:vdl  STATUS:               ID:20100208071033dL   I
 2010-02-08-0659-50S.COL___088                                                 6
 STAT SP IPHASW D HRMM SECON CODA AMPLIT PERI AZIMU VELO SNR AR TRES W  DIS CAZ7
 BAR2 SZ EP        710 52.39                             167     0.210   32 243 
 BAR2 SZ ES   1    711  7.24                             167    -0.4 7   32 243 
 GUE  SZ EP        710 57.25                             138    -0.310  122   0 
 GRA  SZ IP        710 58.17                             136     0.310  129   6 
 GRA  SZ ES   1    711 17.93                             136     0.2 7  129   6 
 CHI  HZ EP   1    711 10.34                             117     0.3 6  248 201 
 CHI  HE ES   1    711 39.34                             117     0.0 6  248 201 
 CHI  HZ I         711 45.65         6.1 0.39                           248 201 
 HEL  HZ EP   1    711 14.42                             113    -0.6 5  294 259 
 HEL  HZ I         711 51.08         5.5 0.37                           294 259 
 RREF HZ EP   1    711 20.34                             110     0.2 5  335 233 
 RREF HE ES   1    711 58.10                             110     0.8 5  335 233 
 RREF HZ I         712  4.01         7.6 0.12                           335 233 
 TOL  SZ EP        711 21.86                                    -0.2 6  355 228 
 PRA  HZ EP        711 26.09                             106    -0.5 6  397 213 
 PRA  HZ I         712 14.19         7.3 0.44                           397 213 
                                                                                
