 2013  2 8 0331 30.0 L   6.763 -73.139144.6  RSN  7 0.3 1.8LRSN                1
 GAP=139        0.60       3.2     3.3  6.1  0.9294E-01  0.2797E+00  0.1764E+01E
 Epicentro: LOS SANTOS - SANTANDER                                             3
 ACTION:UPD 13-03-12 09:31 OP:ep   STATUS:               ID:20130208033130 L   I
 2013-02-08-0330-00M.COL___241                                                 6
 STAT SP IPHASW D HRMM SECON CODA AMPLIT PERI AZIMU VELO AIN AR TRES W  DIS CAZ7
 BAR2 SZ EP   1    331 49.41                             172    0.04 7 19.4 194 
 BAR2 SZ I         332  8.20         6.8 0.42            169           19.4 194 
 BRR  HZ IP     D  331 51.22                             151    0.0910 73.9 301 
 BRR  HN ES        332  7.86                             151    0.2110 73.9 301 
 BRR  HN I         332 12.79        17.8 0.16            150           73.9 301 
 PAM  SZ EP        331 52.33                             150    0.1110 80.2  37 
 PAM  SE ES   1    332  8.99                             150   -0.59 7 80.2  37 
 PAM  SE I         332 10.98         7.3 0.30            149           80.2  37 
 RUS  HZ EP   1    331 53.50                             145    0.21 7 96.4 176 
 RUS  HN ES   1    332 11.60                             145    0.10 7 96.4 176 
 RUS  HN I         332 12.84         7.8 0.22            141           96.4 176 
 PTB  HZ EP   1    331 56.27                             132   -0.56 7  148 260 
 PTB  HN ES   1    332 17.55                             132   -0.23 7  148 260 
 OCA  HN ES   1    332 21.13                             129    0.24 7  164 353 
 OCA  HN I         332 22.27        18.3 0.48            127            164 353 
 ZAR  HN ES   1    332 28.01                             122    0.02 6  206 293 
 ZAR  HN I         332 34.32         9.9 0.50            119            206 293 
                                                                                
