 2010  9 8 0324  0.1 L   6.805 -72.986142.6  RSN 10 0.4 2.3LRSN                1
 GAP=199        0.85       3.5     7.9  6.6 -0.2276E+01  0.8490E+01  0.3894E+01E
 Epicentro: CEPITA - SANTANDER                                                 3
 ACTION:UP  11-02-18 11:01 OP:tino STATUS:               ID:20100908032400 L   I
 2010-09-08-0323-04S.COL___120                                                 6
 STAT SP IPHASW D HRMM SECON CODA AMPLIT PERI AZIMU VELO SNR AR TRES W  DIS CAZ7
 BAR2 SZ EP   1    324 19.53                             167     0.0 7   32 223 
 BAR2 SZ ES   1    324 34.56                             167    -0.2 7   32 223 
 BAR2 SZ I         324 36.31        41.9 0.39                            32 223 
 GIR2 SZ EP   1    324 19.73                             164     0.2 7   38 323 
 BRR  HZ IP     C  324 21.45                             147    -0.410   87 293 
 BRR  HZ I         324 21.77        94.9 0.18                            87 293 
 BRR  HE ES   1    324 38.78                             147    -0.1 7   87 293 
 RUS  HZ EP        324 23.50                             143    -0.110  101 186 
 RUS  HN ES   1    324 42.09                             143     0.2 7  101 186 
 RUS  HZ I         324 43.47        18.2 0.49                           101 186 
 OCA  SZ EP   1    324 28.58                             128     0.2 7  163 347 
 OCA  SZ ES   1    324 50.85                             128     0.4 7  163 347 
 OCA  SZ I         324 55.88        40.6 0.33                           163 347 
 CHI  HZ EP   1    324 37.62                             116    -0.6 6  254 199 
 CHI  HZ I         324 40.21         6.5 0.40                           254 199 
 CHI  HN ES   1    325  7.79                             116    -0.2 6  254 199 
 ROSC BZ EP   1    324 39.92                             115     0.8 6  263 214 
 ROSC BE ES   1    325  9.96                             115     0.4 6  263 214 
 ROSC BZ I         325 14.51        12.4 0.71                           263 214 
 HEL  HZ EP   1    324 41.22                             113    -0.8 5  289 257 
 HEL  HZ I         325 18.27         8.4 0.27                           289 257 
 RREF HZ EP   1    324 48.34                             109     0.7 5  336 231 
 RREF HN ES   1    325 25.07                             109     0.3 5  336 231 
 RREF HZ I         325 28.99        11.7 0.61                           336 231 
 PRA  HZ EP   2    324 54.37                             105    -0.2 3  401 212 
 PRA  HZ I         325 38.87         6.2 0.19                           401 212 
                                                                                
