 2012  7 8 0608  6.6 L   6.799 -73.175140.3  RSN 14 0.4 2.9LRSN                1
 GAP=111        0.95       3.1     4.5  6.8  0.1696E+00  0.1100E+02  0.1778E+01E
 Epicentro: LOS SANTOS - SANTANDER                                             3
 ACTION:UPD 12-08-14 11:43 OP:ep   STATUS:               ID:20120708060806 L   I
 2012-07-08-0607-59S.COL___215                                                 6
 STAT SP IPHASW D HRMM SECON CODA AMPLIT PERI AZIMU VELO AIN AR TRES W  DIS CAZ7
 BAR2 SZ EP        6 8 25.68                             170     0.210   23 182 
 BAR2 SZ ES   1    6 8 40.02                             170    -0.3 7   23 182 
 BAR2 SZ I         6 8 41.57       367.8 0.29                            23 182 
 BRR  HZ EP        6 8 27.59                             152     0.610   68 300 
 BRR  HZ I         6 8 27.93       362.0 0.21                            68 300 
 PAM  SZ EP        6 8 28.59                             149     0.310   80  41 
 PAM  SN ES   1    6 8 45.48                             149     0.2 7   80  41 
 RUS  HZ EP        6 8 29.57                             142    -0.210  101 174 
 RUS  HN ES   1    6 8 47.50                             142    -0.4 7  101 174 
 RUS  HZ I         6 8 48.99       114.0 0.26                           101 174 
 OCA  HZ EP        6 8 33.93                             128    -0.5 9  160 354 
 OCA  HN ES   1    6 8 55.54                             128    -0.6 7  160 354 
 YOP  SZ EP   1    6 8 36.45                             125     0.1 7  180 152 
 YOP  SE ES   1    6 8 59.89                             125     0.3 7  180 152 
 YOP  SZ I         6 9  3.38        62.5 0.35                           180 152 
 ZAR  HZ EP   1    6 8 38.64                             121     0.3 6  201 293 
 ZAR  HN ES   1    6 9  3.42                             121     0.3 6  201 293 
 ZAR  HZ I         6 9 10.77       152.7 0.33                           201 293 
 NOR  SZ EP   1    6 8 41.67                             118     0.0 6  232 234 
 NOR  SN ES   1    6 9  9.15                             118     0.1 6  232 234 
 CHI  HZ EP   1    6 8 44.12                             116     0.3 6  248 194 
 CHI  HN ES   1    6 9 12.39                             116    -0.6 6  248 194 
 CHI  HZ I         6 9 20.02        34.7 0.45                           248 194 
 ROSC BZ EP   1    6 8 44.85                             116     0.7 6  251 210 
 ROSC BZ I         6 9 23.40        88.7 0.36                           251 210 
 HEL  HZ EP   1    6 8 46.32                             114     0.2 6  269 256 
 HEL  HN ES   1    6 9 16.54                             114    -0.5 6  269 256 
 HEL  HZ I         6 9 27.13        42.3 0.32                           269 256 
 VIL  SZ EP   1    6 8 49.15                             111    -0.5 5  303 191 
 VIL  SZ I         6 9 29.52        28.2 0.36                           303 191 
 COD  HZ EP   1    6 8 53.93                             108    -0.8 5  348 355 
 COD  HZ I         6 9 43.39        18.9 0.38                           348 355 
 YOT  HZ EP   1    6 9  8.48                             102    -0.7 4  469 229 
 YOT  HZ I         6 9 14.28         5.0 0.54                           469 229 
