 2017  7 8 0507 56.0 L   6.412 -73.544117.1  RSN  7 0.2 1.5LRSN                1
 GAP=126        0.88       3.6     3.7  5.7 -0.2796E+01  0.3122E+01  0.1211E+01E
 Epicentro: SANTA HELENA DEL OPON - SANTANDER                                  3
 ACTION:UPD 17-08-30 15:30 OP:rebc STATUS:               ID:20170708050756 L   I
 OLDACT:UP  17-07-08 16:22 OP:edw  STATUS:               ID:20170708050739     3
 OLDACT:REG 17-07-08 13:09 OP:edw  STATUS:               ID:20170708050739     3
 2017-07-08-0508-00M.COL___374                                                 6
 STAT SP IPHASW D HRMM SECON CODA AMPLIT PERI AZIMU VELO AIN AR TRES W  DIS CAZ7
 BAR2 EZ IP     C  5 8 13.04                             157    0.1310 44.6  64 
 BAR2 EZ ES        5 8 26.09                             157   -0.0510 44.6  64 
 BRR  HZ EP        5 8 14.23                             143   -0.4110 79.0 346 
 BRR  HE ES        5 8 29.13                             143   -0.0810 79.0 346 
 BRR  HZ I         5 8 34.76         5.3 0.10            145           79.0 346 
 SPBC HZ EP   2    5 8 16.61                             135   -0.00 5  102 215 
 SPBC HN ES        5 8 32.88                             135    0.1610  102 215 
 SPBC HZ I         5 8 38.88         8.5 0.30            138            102 215 
 PTB  HZ EP   9    5 8 15.60                             135   -0.87 0  102 278 
 PTB  HN ES        5 8 30.73                             137   -0.8710  102 278 
 PTB  HZ I         5 8 32.08         4.7 0.28            137            102 278 
 NOR  HZ EP        5 8 23.26                             119   -0.28 9  174 237 
 NOR  HN ES        5 8 45.00                             119   -0.05 9  174 237 
 NOR  HZ I         5 8 47.33         3.4 0.16            121            174 237 
 ZAR  HZ EP        5 8 24.97                             117    0.01 9  188 310 
 ZAR  HN ES        5 8 48.07                             117    0.49 9  188 310 
 ZAR  HZ I         5 8 52.94         7.1 0.24            119            188 310 
 TAM  HZ EP   1    5 8 25.93                             116    0.29 6  194  89 
 TAM  HN ES   4    5 8 47.76                             116   -1.03 0  194  89 
                                                                                
