 2010  5 8 0913 50.2 L   6.820 -73.099130.1  RSN  7 0.4 1.4LRSN                1
 GAP=160        0.97       4.8    12.6 11.4 -0.1619E+02  0.4050E+00  0.2130E+00E
 Epicentro: LOS SANTOS - SANTANDER                                             3
 ACTION:UP  10-08-24 10:03 OP:vdl  STATUS:               ID:20100508091350 L   I
 2010-05-08-0911-48S.COL___105                                                 6
 STAT SP IPHASW D HRMM SECON CODA AMPLIT PERI AZIMU VELO SNR AR TRES W  DIS CAZ7
 BAR2 SZ EP        914  7.85                             167    -0.210   27 200 
 BAR2 SZ ES   2    914 22.12                             167     0.2 5   27 200 
 BRR  HZ EP        914 10.41                             148     0.510   75 295 
 BRR  HZ I         914 17.12         6.5 0.11                            75 295 
 RUS  HZ EP        914 12.28                             140    -0.310  103 179 
 RUS  HZ I         914 31.59         2.3 0.38                           103 179 
 BRI  SZ EP        914 12.39                             139     0.110  105  19 
 BRI  SZ ES   2    914 30.00                             139     0.4 5  105  19 
 GUE  SZ EP        914 13.50                             137     0.310  113  10 
 GUE  SZ ES   2    914 31.68                             137     0.5 5  113  10 
 GRA  SZ EP        914 13.56                             134    -0.210  122  15 
 GRA  SZ ES   2    914 32.01                             134    -0.1 5  122  15 
 OCA  SZ EP        914 17.28                             126     0.1 9  159 351 
 OCA  SZ ES   1    914 37.12                             126    -1.1 7  159 351 
 OCA  SZ I         914 41.19         4.3 0.27                           159 351 
                                                                                
