 2016  1 8 0808 49.8 L   6.763 -73.223154.8  RSN  5 0.5 1.2LRSN                1
 GAP=193        1.16       6.2     8.2 10.6  0.2544E+02 -0.1856E+02 -0.2472E+02E
 Epicentro: ZAPATOCA - SANTANDER                                               3
 ACTION:UPD 16-03-09 23:23 OP:cam  STATUS:               ID:20160108080849 L   I
 OLDACT:REG 16-01-08 12:37 OP:drio STATUS:               ID:20160108075745     3
 2016-01-08-0757-45M.COL___272                                                 6
 STAT SP IPHASW D HRMM SECON CODA AMPLIT PERI AZIMU VELO AIN AR TRES W  DIS CAZ7
 BRR  HZ EP        8 9 11.80                             156    0.1410 66.1 305 
 BRR  HE ES        8 9 29.45                             156    0.7310 66.1 305 
 BRR  HZ I         8 9 36.15         2.0 0.28            153           66.1 305 
 RUS  HZ EP        8 9 14.32                             146    0.0910 97.5 171 
 RUS  HN ES        8 9 32.68                             146   -0.6210 97.5 171 
 RUS  HZ I         8 9 34.28         1.1 0.36            152           97.5 171 
 PTB  HZ EP        8 9 17.40                             136    0.68 9  139 260 
 PTB  HN ES        8 9 37.45                             136   -0.28 9  139 260 
 PTB  HZ I         8 9 45.01         1.3 0.24            137            139 260 
 ZAR  HZ EP   4    8 9 24.41                             125    2.19 0  198 294 
 ZAR  HE ES        8 9 47.11                             125   -0.40 9  198 294 
 ZAR  HZ I         8 9 54.67         2.1 0.28            127            198 294 
 SML  HZ EP        8 9 26.86                             119   -0.11 8  244 337 
 SML  HN ES        8 9 55.45                             119   -0.53 8  244 337 
 SML  HZ I         8 9 59.31         2.6 0.10            122            244 337 
                                                                                
