 2011 12 8 0738 17.0 L   6.754 -73.083148.0  RSN  6 0.5 1.4LRSN                1
 GAP=147        0.75       6.0     7.8 11.8 -0.6937E+01  0.9396E+01  0.1936E+02E
 Epicentro: LOS SANTOS - SANTANDER                                             3
 ACTION:UPD 12-07-13 16:14 OP:ep   STATUS:               ID:20111208073817 L   I
 2011-12-08-0737-00S.MAN___170                                                 6
 STAT SP IPHASW D HRMM SECON CODA AMPLIT PERI AZIMU VELO AIN AR TRES W  DIS CAZ7
 BAR2 SZ EP   1    738 36.27                             172   -0.62 7 21.0 212 
 BAR2 SZ I         738 53.46         6.0 0.34                          21.0 212 
 PAM  SZ EP   1    738 39.54                             151    0.05 7 77.3  33 
 PAM  SN ES   2    738 56.83                             151   -0.17 5 77.3  33 
 BRR  HZ EP   1    738 39.19                             150    0.26 7 79.7 299 
 BRR  HZ I         738 40.80         8.7 0.16                          79.7 299 
 BRR  HE ES   2    738 56.21                             150    0.21 5 79.7 299 
 RUS  HZ EP   1    738 41.32                             146    0.68 7 95.3 180 
 RUS  HN ES   2    738 58.66                             146   -0.38 5 95.3 180 
 RUS  HZ I         739  1.39         2.6 0.16                          95.3 180 
 CHI  HZ EP   2    738 53.67                             118   -0.87 4  246 197 
 CHI  HN ES   2    739 24.22                             118    0.42 4  246 197 
 HEL  HN ES   2    739 29.53                             114   -0.39 4  278 257 
                                                                                
