 2014 11 8 0250 51.8 L   6.769 -73.206153.8  RSN  4 0.5 1.5LRSN                1
 GAP=223        1.06       8.2     9.2  9.1  0.4856E+02 -0.6434E+01 -0.2176E+02E
 Epicentro: ZAPATOCA - SANTANDER                                               3
 ACTION:UPD 14-12-19 15:40 OP:nd   STATUS:               ID:20141108025051 L   I
 OLDACT:REG 14-11-08 13:18 OP:cam  STATUS:               ID:20141108024814     3
 2014-11-08-0248-14M.COL___292                                                 6
 STAT SP IPHASW D HRMM SECON CODA AMPLIT PERI AZIMU VELO AIN AR TRES W  DIS CAZ7
 BRR  HZ EP        251 14.12                             155    0.5010 67.3 304 
 BRR  HN ES        251 30.86                             155    0.2210 67.3 304 
 BRR  HZ I         251 36.67         5.3 0.30            156           67.3 304 
 RUS  HZ EP        251 16.26                             146    0.0910 97.9 172 
 RUS  HN ES        251 34.57                             146   -0.6110 97.9 172 
 RUS  HN I         251 36.08         6.1 0.22            152           97.9 172 
 PTB  HZ EP        251 19.30                             136    0.49 9  141 260 
 PTB  HN ES        251 39.78                             136   -0.10 9  141 260 
 PTB  HZ I         251 42.69         3.3 0.34            140            141 260 
 MON  HZ EP        251 40.21                             110   -0.57 6  351 309 
 MON  HN ES        252 18.21                             110   -0.77 6  351 309 
 MON  HZ I         252 19.34         0.8 0.20            113            351 309 
                                                                                
