 2012  1 8 0309 26.1 L   6.765 -73.106146.0  RSN 10 0.3 1.9LRSN                1
 GAP=143        0.64       3.4     4.0  4.9  0.1276E+01  0.2933E+01  0.7046E+00E
 Epicentro: LOS SANTOS - SANTANDER                                             3
 ACTION:UP  12-02-03 08:15 OP:REBC STATUS:               ID:20120108030926 L   I
 2012-01-08-0308-59S.COL___186                                                 6
 STAT SP IPHASW D HRMM SECON CODA AMPLIT PERI AZIMU VELO SNR AR TRES W  DIS CAZ7
 BAR2 SZ EP        3 9 45.59                             172    -0.110   21 204 
 BAR2 SZ ES   1    310  0.77                             172    -0.2 7   21 204 
 BAR2 SZ I         310  2.04        15.4 0.18                            21 204 
 GIR2 SZ EP   1    3 9 45.69                             165    -0.2 7   36 345 
 GIR2 SZ ES   2    310  1.80                             165     0.4 5   36 345 
 BRR  HZ EP        3 9 47.40                             151    -0.210   77 300 
 BRR  HN ES   1    310  4.76                             151     0.4 7   77 300 
 BRR  HZ I         310  8.18        14.4 0.21                            77 300 
 PAM  SZ EP   1    3 9 48.50                             151     0.2 7   78  35 
 PAM  SN ES   2    310  5.66                             151     0.0 5   78  35 
 RUS  HZ EP   1    3 9 49.57                             145     0.0 7   96 178 
 RUS  HN ES   1    310  7.86                             145     0.0 7   96 178 
 RUS  HZ I         310  9.16         8.8 0.26                            96 178 
 PTB  HE ES   2    310 14.87                             131     0.2 5  151 261 
 OCA  SZ EP   1    3 9 54.98                             129     0.2 7  165 352 
 OCA  SZ I         310 22.83         8.3 0.24                           165 352 
 ZAR  HN ES   1    310 24.13                             122    -0.7 6  210 293 
 ZAR  HZ I         310 29.46        11.1 0.32                           210 293 
 CHI  HZ EP   1    310  3.46                             117     0.0 6  246 196 
 CHI  HN ES   2    310 32.55                             117    -0.1 4  246 196 
 CHI  HZ I         310 35.40         4.1 0.40                           246 196 
 HEL  HZ EP   1    310  7.24                             114     0.6 6  275 257 
 HEL  HN ES   2    310 38.78                             114     0.5 4  275 257 
 HEL  HZ I         310 46.06         4.4 0.34                           275 257 
                                                                                
