 2011  8 8 0109 26.7 L   6.779 -73.137148.3  RSN  7 0.3 1.9LRSN                1
 GAP=139        0.53       3.5     4.4  4.6 -0.3605E+01  0.3756E+00  0.2777E+01E
 Epicentro: LOS SANTOS - SANTANDER                                             3
 ACTION:UPD 12-07-13 15:50 OP:ep   STATUS:               ID:20110808010926 L   I
 2011-08-08-0106-29S.COL___143                                                 6
 STAT SP IPHASW D HRMM SECON CODA AMPLIT PERI AZIMU VELO AIN AR TRES W  DIS CAZ7
 BAR2 SZ EP   1    1 9 46.42                             172   -0.22 7 21.3 194 
 BAR2 SZ ES   1    110  1.98                             172   -0.18 7 21.3 194 
 BAR2 SZ I         110  4.32        15.8 0.13                          21.3 194 
 BRR  HZ EP   2    1 9 48.31                             152    0.03 5 73.2 300 
 BRR  HZ I         1 9 48.75        25.1 0.22                          73.2 300 
 BRR  HE ES   1    110  5.50                             152    0.42 7 73.2 300 
 PAM  SZ EP        1 9 49.28                             151   -0.0210 78.6  38 
 RUS  HZ EP   1    1 9 50.56                             145   -0.01 7 98.2 177 
 RUS  HN ES   1    110  9.09                             145   -0.07 7 98.2 177 
 RUS  HZ I         110 11.12         7.6 0.39                          98.2 177 
 NOR  SZ EP   1    110  2.44                             119   -0.12 6  234 235 
 NOR  SN ES   1    110 30.02                             119   -0.48 6  234 235 
 CHI  HZ EP   1    110  4.60                             118    0.23 6  247 196 
 CHI  HZ I         110  7.25         4.2 0.47                           247 196 
 CHI  HN ES   2    110 34.60                             118    0.89 4  247 196 
 PRA  HZ EP   2    110 20.67                             107    0.50 3  390 210 
                                                                                
