 2017 12 8 0833 15.7 L   6.809 -73.210128.4  RSN  6 0.6 1.4LRSN                1
 GAP=177        1.06       4.3     6.8  9.8 -0.9970E+00  0.2488E+02  0.2955E+01E
 Epicentro: ZAPATOCA - SANTANDER                                               3
 ACTION:UPD 18-01-04 13:18 OP:rebc STATUS:               ID:20171208083315 L   I
 OLDACT:UP  17-12-08 15:25 OP:dnl  STATUS:               ID:20171208082735     3
 OLDACT:UP  17-12-08 15:24 OP:dnl  STATUS:               ID:20171208082735     3
 OLDACT:UP  17-12-08 15:24 OP:dnl  STATUS:               ID:20171208082735     3
 OLDACT:REG 17-12-08 13:37 OP:dani STATUS:               ID:20171208082735     3
 2017-12-08-0828-00M.COL___461                                                 6
 STAT SP IPHASW D HRMM SECON CODA AMPLIT PERI AZIMU VELO AIN AR TRES W  DIS CAZ7
 BAR2 EZ EP   2    833 32.40                             169   -0.88 5 24.1 173 
 BAR2 EZ ES        833 47.45                             169    0.4810 24.1 173 
 BAR2 EZ I         833 49.94         7.0 0.50            168           24.1 173 
 PTB  HZ EP   3    833 39.19                             129   -1.48 2  141 258 
 PTB  HN ES        833 59.30                             129   -0.84 9  141 258 
 PTB  HZ I         834  0.77         5.3 0.34            129            141 258 
 OCA  HZ EP   2    833 41.87                             126   -0.70 5  159 356 
 OCA  HE ES        834  3.63                             126    0.11 9  159 356 
 OCA  HZ I         834  3.80         7.3 0.46            127            159 356 
 ZAR  HZ EP   4    833 48.90                             119    2.55 0  197 293 
 ZAR  HN ES        834 10.66                             119    0.42 9  197 293 
 ZAR  HZ I         834 17.51         1.8 0.26            120            197 293 
 CHI  HZ EP   4    833 50.19                             113   -2.23 0  248 194 
 CHI  HN ES        834 21.03                             113   -0.02 8  248 194 
 CHI  HZ I         834 25.37         1.0 0.32            114            248 194 
 GUY2CHZ EP        833 58.42                             109    0.44 7  296 234 
 GUY2CHE ES   2    834 31.61                             109    0.67 4  296 234 
 GUY2CHZ I         834 38.76         1.4 0.60                           296 234 
                                                                                
