 2010 12 8 0503 48.1 L   6.380 -73.591116.5  RSN  9 0.4 2.2LRSN                1
 GAP= 99        0.72       4.6     4.0  7.8 -0.3268E+01  0.1364E+02  0.5793E+01E
 Epicentro: SANTA HELENA DEL OPON - SANTANDER                                  3
 ACTION:UP  11-01-14 15:23 OP:pat  STATUS:               ID:20101208050348 L   I
 2010-12-08-0503-30S.COL___135                                                 6
 STAT SP IPHASW D HRMM SECON CODA AMPLIT PERI AZIMU VELO SNR AR TRES W  DIS CAZ7
 BAR2 SZ IP        5 4  5.40                             155     0.110   51  63 
 BAR2 SZ ES   1    5 4 18.32                             155    -0.4 7   51  63 
 BAR2 SZ I         5 4 19.78        89.0 0.12                            51  63 
 BTL  SZ EP        5 4  6.83                             147     0.410   69  31 
 BTL  SZ ES   2    5 4 20.95                             147     0.3 5   69  31 
 NOR  SN ES   2    5 4 36.05                             121     0.1 5  168 238 
 YOP  SZ EP   1    5 4 15.18                             120    -0.3 7  172 131 
 YOP  SN ES   2    5 4 36.46                             120    -0.5 4  172 131 
 YOP  SZ I         5 4 38.10        26.3 0.08                           172 131 
 GUE  SZ EP   2    5 4 16.61                             119     0.4 4  176  25 
 HEL  HZ EP   2    5 4 20.91                             114     0.3 4  215 265 
 HEL  HE ES   2    5 4 45.88                             114     0.0 4  215 265 
 HEL  HZ I         5 4 52.54         9.1 0.45                           215 265 
 GUY  SZ EP   2    5 4 23.32                             112     0.5 4  235 237 
 GUY  SN ES   2    5 4 49.58                             112    -0.4 4  235 237 
 RREF HZ EP   2    5 4 25.74                             110     0.4 4  254 230 
 RREF HE ES   2    5 4 54.09                             110    -0.2 4  254 230 
 RREF HZ I         5 4 59.79        12.9 0.26                           254 230 
 MON  HZ EP   1    5 4 34.75                             103    -1.0 5  349 319 
 MON  HE ES   2    5 5 12.01                             103    -0.8 3  349 319 
 MON  HZ I         5 5 15.00         4.2 0.69                           349 319 
                                                                                
