 2017  9 8 0528 24.1 L   6.837 -73.318117.7  RSN  4 0.4 1.5LRSN                1
 GAP=207        0.82       5.2     6.8  8.9  0.9228E+01  0.1268E+02  0.1898E+02E
 Epicentro: ZAPATOCA - SANTANDER                                               3
 ACTION:UPD 17-10-05 19:10 OP:rebc STATUS:               ID:20170908052824 L   I
 OLDACT:REG 17-09-08 13:18 OP:dnl  STATUS:               ID:20170908052749     3
 2017-09-08-0528-00M.COL___422                                                 6
 STAT SP IPHASW D HRMM SECON CODA AMPLIT PERI AZIMU VELO AIN AR TRES W  DIS CAZ7
 BAR2 EZ EP        528 40.41                             164   -0.1910 31.0 151 
 BAR2 EZ ES        528 53.21                             164   -0.2510 31.0 151 
 BRR  HZ EP   2    528 40.68                             154   -0.51 5 52.8 304 
 BRR  HN ES        528 54.81                             154    0.2910 52.8 304 
 BRR  HZ I         528 55.69         7.9 0.12            153           52.8 304 
 RUS  HZ EP   2    528 45.75                             135   -0.07 5  108 166 
 RUS  HN ES        529  3.15                             135    0.4010  108 166 
 SPBC HZ EP   2    528 50.84                             123    1.02 5  155 213 
 SPBC HN ES        529  9.51                             123   -0.36 9  155 213 
 SPBC HZ I         529 11.55         6.0 0.62            123            155 213 
                                                                                
