 2013  7 8 0343 14.5 L   6.794 -73.160146.6  RSN  6 0.4 1.5LRSN                1
 GAP=181        0.92       3.8     6.3  6.8 -0.1368E+01  0.1260E+02 -0.1029E+02E
 Epicentro: LOS SANTOS - SANTANDER                                             3
 ACTION:UPD 13-08-12 10:36 OP:ep   STATUS:               ID:20130708034314 L   I
 OLDACT:REG 13-07-08 08:03 OP:nd   STATUS:               ID:20130708033959     3
 2013-07-08-0339-59M.COL___267                                                 6
 STAT SP IPHASW D HRMM SECON CODA AMPLIT PERI AZIMU VELO AIN AR TRES W  DIS CAZ7
 BAR2 SZ EP        343 34.29                             171    0.0810 22.4 186 
 BAR2 SZ ES        343 49.34                             171   -0.2510 22.4 186 
 BAR2 SZ I         343 52.67         6.0 0.18            173           22.4 186 
 GIR2 SZ EP        343 34.19                             167   -0.0910 31.7 353 
 GIR2 SZ ES        343 49.97                             167    0.2610 31.7 353 
 GIR2 SZ I         343 50.61         7.0 0.10            161           31.7 353 
 RUS  HN ES        343 57.11                             144    0.2610  100 175 
 PTB  HZ EP        343 41.51                             133    0.13 9  146 259 
 PTB  HN ES        344  2.06                             133   -0.29 9  146 259 
 PTB  HZ I         344  7.62         2.6 0.18            133            146 259 
 OCA  HZ EP        343 42.89                             130   -0.03 9  161 354 
 OCA  HN ES        344  4.53                             130   -0.56 9  161 354 
 OCA  HZ I         344 16.50         2.8 0.16            130            161 354 
 SML  HZ EP        343 50.79                             118   -0.38 8  244 336 
 SML  HN ES        344 20.75                             118    0.98 8  244 336 
 SML  HZ I         344 26.23         3.9 0.10            118            244 336 
                                                                                
