 2016  3 8 0502 16.6 L   6.841 -73.138135.6  RSN  6 0.3 1.4LRSN                1
 GAP=246        0.81       5.1     4.5  6.2  0.7192E+01  0.9834E+01  0.9803E+00E
 Epicentro: LOS SANTOS - SANTANDER                                             3
 ACTION:UPD 16-05-13 21:22 OP:cam  STATUS:               ID:20160308050216 L   I
 OLDACT:DUP 16-03-08 18:18 OP:cara STATUS:               ID:20160308045750d    3
 OLDACT:DUP 16-03-08 18:13 OP:cara STATUS:               ID:20160308045749d    3
 2016-03-08-0457-48M.COL___289                                                 6
 STAT SP IPHASW D HRMM SECON CODA AMPLIT PERI AZIMU VELO AIN AR TRES W  DIS CAZ7
 BAR2 EZ EP        5 2 35.44                             168    0.2810 27.9 190 
 BAR2 EZ ES        5 2 49.77                             168    0.1710 27.9 190 
 BAR2 EZ I         5 2 51.85         8.1 0.28            168           27.9 190 
 RUS  HZ EP        5 2 39.40                             140   -0.3510  105 177 
 RUS  HN ES        5 2 57.91                             140    0.1410  105 177 
 RUS  HZ I         5 2 59.37         2.5 0.24            143            105 177 
 PTB  HZ EP        5 2 42.71                             129   -0.25 9  149 257 
 PTB  HN ES        5 3  3.04                             129   -0.45 9  149 257 
 PTB  HZ I         5 3  5.68         2.5 0.14            130            149 257 
 SPBC HZ EP        5 2 44.53                             126   -0.25 9  167 218 
 SPBC HE ES        5 3  6.47                             126   -0.25 9  167 218 
 SPBC HZ I         5 3 11.20         4.4 0.20            128            167 218 
 ZAR  HE ES        5 3 13.30                             120    0.23 9  203 291 
 ZAR  HZ I         5 3 18.53         3.0 0.30            122            203 291 
 GUY2CHZ EP        5 3  0.73                             110    0.55 7  304 234 
 GUY2CHE ES        5 3 34.76                             110    0.63 7  304 234 
 GUY2CHZ I         5 3 41.56         1.4 0.38                           304 234 
                                                                                
