 2012  6 8 0052 55.9 L   7.024 -73.203162.1  RSN  5 0.4 2.9LRSN                1
 GAP=211        0.77      13.2    31.1  9.6 -0.3737E+03  0.1696E+03 -0.4573E+02E
 Epicentro: GIRON - SANTANDER                                                  3
 ACTION:UPD 12-08-06 17:48 OP:ep   STATUS:               ID:20120608005254 L   I
 2012-06-08-0050-00M.COL___201                                                 6
 STAT SP IPHASW D HRMM SECON CODA AMPLIT PERI AZIMU VELO AIN AR TRES W  DIS CAZ7
 BAR2 SZ EP        053 18.22                             162    0.0610 47.8 177 
 BAR2 SZ ES   1    053 35.16                             162   -0.36 7 47.8 177 
 BAR2 SZ I         053 36.11       159.5 0.39            141           47.8 177 
 PAM  SZ EP        053 18.88                             156   -0.3910 65.7  58 
 PAM  SE ES   1    053 38.14                             156    0.64 7 65.7  58 
 CHI  HZ EP   1    053 36.61                             118   -0.34 6  271 193 
 CHI  HN ES   1    054  8.88                             118   -0.09 6  271 193 
 CHI  HZ I         054 14.57        32.6 0.31            111            271 193 
 VIL  SZ EP   1    053 43.08                             113    0.39 5  327 190 
 VIL  SN ES   1    054 19.30                             113    0.12 5  327 190 
 VIL  SZ I         054 28.10        33.8 0.44            107            327 190 
 PRA  HZ EP   1    053 53.21                             108    1.01 4  411 207 
                                                                                
