 2016  5 8 0309 13.3 L   6.821 -73.136145.6  RSN 29 0.5 2.8LRSN                1
 GAP=126        1.01       2.1     3.0  4.1 -0.1111E+01  0.2861E+01 -0.6577E-02E
 Epicentro: LOS SANTOS - SANTANDER                                             3
 ACTION:UPD 16-08-18 17:43 OP:cam  STATUS:               ID:20160508030913 L   I
 OLDACT:REG 16-05-08 13:33 OP:ak   STATUS:               ID:20160508030748     3
 2016-05-08-0307-48M.COL___304                                                 6
 STAT SP IPHASW D HRMM SECON CODA AMPLIT PERI AZIMU VELO AIN AR TRES W  DIS CAZ7
 BAR2 EZ IP     D  3 9 33.13                             170    0.1110 25.9 192 
 BAR2 EZ ES        3 9 47.98                             170   -0.3810 25.9 192 
 BAR2 EZ I         3 9 49.09       186.4 0.18            167           25.9 192 
 BRR  HZ IP     C  3 9 35.02                             153    0.5410 71.1 296 
 BRR  HN ES        3 9 51.78                             153    0.8210 71.1 296 
 BRR  HZ I         3 9 53.61       147.8 0.14            145           71.1 296 
 PAM  EZ IP     D  3 9 35.95                             151    0.5510 74.9  40 
 PAM  EN ES        3 9 52.64                             151    0.0410 74.9  40 
 PAM  EZ I         3 9 55.41       181.0 0.66            148           74.9  40 
 RUS  HZ EP        3 9 37.11                             143   -0.1410  103 177 
 RUS  HN ES        3 9 55.76                             143   -0.1410  103 177 
 RUS  HZ I         3 9 56.70        46.3 0.34            139            103 177 
 PTB  HZ EP        3 9 39.71                             132   -0.74 9  149 258 
 PTB  HN ES        310  0.63                             132   -0.95 9  149 258 
 PTB  HZ I         310  2.71       119.7 0.46            125            149 258 
 OCA  HZ IP     C  3 9 41.35                             130   -0.09 9  158 353 
 OCA  HN ES        310  3.07                             130   -0.28 9  158 353 
 OCA  HZ I         310  6.62       172.6 0.30            124            158 353 
 SPBC HZ EP        3 9 42.12                             129    0.04 9  166 219 
 SPBC HN ES        310  4.92                             129    0.43 9  166 219 
 SPBC HZ I         310  7.53        72.6 0.13            123            166 219 
 ZAR  HZ EP        3 9 46.23                             122    0.43 9  204 291 
 ZAR  HN ES        310 11.42                             122    0.31 9  204 291 
 ZAR  HZ I         310 17.87       104.6 0.38            116            204 291 
 NOR  HZ EP        3 9 49.46                             118    0.15 8  237 234 
 NOR  HE ES        310 17.02                             118   -0.35 8  237 234 
 NOR  HZ I         310 22.38        49.8 0.18            113            237 234 
 SML  HZ EP        3 9 49.62                             118   -0.16 8  242 335 
 SML  HN ES        310 18.27                             118    0.07 8  242 335 
 SML  HZ I         310 24.75        94.0 0.07            112            242 335 
 CHI  HZ EP        3 9 51.44                             117    0.12 8  251 195 
 CHI  HN ES        310 19.97                             117   -0.96 8  251 195 
 CHI  HZ I         310 26.64        17.0 0.26            112            251 195 
 ROSC BZ EP   9    3 9 54.19                             116    2.45 0  255 211 
 ROSC BN ES        310 23.96                                   -0.18 8  255 211 
 ROSC BZ I         310 27.39        30.3 0.30            111            255 211 
 HEL  HZ EP   2    3 9 54.68                             115    0.94 4  274 255 
 HEL  HE ES        310 25.38                             115    0.14 8  274 255 
 HEL  HZ I         310 33.92        33.2 0.26            109            274 255 
 URE  HZ EP   2    3 9 54.17                             113   -0.26 4  284 291 
 URE  HE ES        310 25.50                             113   -0.97 7  284 291 
 URE  HZ I         310 28.55        42.3 0.18            108            284 291 
 VIL  SZ EP   2    3 9 56.45                             112   -0.60 4  306 192 
 VIL  SN ES        310 31.91                             112    0.78 7  306 192 
 PTGC HZ EP   4    3 9 56.29                             111   -1.11 0  310 159 
 PTGC HN ES   4    310 29.31                             111   -2.45 0  310 159 
 PTGC HZ I         310 32.05        22.5 0.32            107            310 159 
 LL6C HZ EP        3 9 57.93                             110   -0.85 7  323 357 
 LL6C HZ ES   4    310 32.53                             110   -1.68 0  323 357 
 LL6C HZ I         310 39.37         8.6 0.22            106            323 357 
 ELA  HZ EP   2    310  0.70                             110    0.24 3  332 229 
 ELA  HN ES        310 37.39                             110    0.17 7  332 229 
 ELA  HZ I         310 46.54        20.2 0.58            106            332 229 
 CBOC HZ EP        310  1.24                             110    0.78 7  335 252 
 CBOC HN ES        310 37.64                             110    0.43 7  335 252 
 CBOC HZ I         310 48.87        11.9 0.46            105            335 252 
 DBB  SZ EP        310  1.19                             109    0.26 7  340 274 
 DBB  SZ ES        310 37.62                             109   -0.42 7  340 274 
 ARGC HZ EP   2    310  3.54                             108    0.76 3  357 340 
 ARGC HN ES        310 42.00                             108    0.66 6  357 340 
 ARGC HZ I         310 49.14         8.2 0.16            104            357 340 
 SDV  BZ EP        310  2.71                             108   -0.40 6  358  50 
 SDV  BN ES   4    310 40.21                             108   -1.71 0  358  50 
 SDV  BZ I         310 44.54         9.5 0.65            105            358  50 
 ANIL HZ EP   2    310  3.36                             108   -0.07 3  360 224 
 ANIL HE ES        310 42.63                             108    0.13 6  360 224 
 ANIL HZ I         310 52.29        46.7 0.34            104            360 224 
 PRA  HZ EP        310  7.50                             106    0.33 6  395 210 
 PRA  HN ES        310 48.69                             106   -0.46 6  395 210 
 PRA  HZ I         310 55.89        23.6 0.24            102            395 210 
 ORTC HZ EP        310  7.64                             106    0.08 6  398 216 
 ORTC HN ES   4    310 52.13                             106    2.28 0  398 216 
 ORTC HZ I         310 56.16        14.7 0.52            102            398 216 
 SJC  HZ EP   4    310  7.27                             106   -1.47 0  408 327 
 PAL  HE ES   4    310 50.57                             106   -1.41 0  408 239 
 SJC  HN ES   4    310 49.27                             106   -2.68 0  408 327 
 PAL  HZ EP        310  8.55                             106   -0.21 6  408 239 
 PAL  HZ I         310 58.95        10.3 0.38            102            408 239 
 SJC  HZ I         310 53.14        15.2 0.52            102            408 327 
 CRJC HZ EP   9    310 13.64                             103   -1.91 0  465   3 
 CRJC HE ES        311  1.97                                   -0.19 5  465   3 
 CRJC HZ I         311  5.82         9.2 0.20            100            465   3 
 SMAR HZ EP        310 18.14                             102   -0.83 4  495 346 
 SMAR HE ES   4    311  6.78                             102   -3.38 0  495 346 
                                                                                
