 2017  1 8 0359 56.7 L   6.763 -73.148147.3  RSN  8 0.3 1.7LRSN                1
 GAP=138        0.76       3.9     3.5  5.6  0.1029E+01  0.4072E+01 -0.9702E-02E
 Epicentro: LOS SANTOS - SANTANDER                                             3
 ACTION:UPD 17-05-22 15:56 OP:jn   STATUS:               ID:20170108035956 L   I
 OLDACT:UP  17-01-08 15:46 OP:dnl  STATUS:               ID:20170108035740     3
 OLDACT:UP  17-01-08 15:46 OP:dnl  STATUS:               ID:20170108035740     3
 OLDACT:REG 17-01-08 12:36 OP:dnl  STATUS:               ID:20170108035740     3
 2017-01-08-0358-00M.COL___374                                                 6
 STAT SP IPHASW D HRMM SECON CODA AMPLIT PERI AZIMU VELO AIN AR TRES W  DIS CAZ7
 BAR2 EZ EP   2    4 0 16.44                             172    0.02 5 19.3 191 
 BAR2 EZ ES        4 0 31.56                             172   -0.2510 19.3 191 
 BAR2 EZ I         4 0 33.05        12.4 0.18            174           19.3 191 
 BRR  HZ EP        4 0 18.24                             152    0.1510 73.0 301 
 BRR  HN ES        4 0 35.38                             152    0.5910 73.0 301 
 BRR  HZ I         4 0 39.57         6.9 0.16            150           73.0 301 
 PAM  EZ EP        4 0 19.31                             150    0.0510 80.7  38 
 PAM  EN ES        4 0 36.54                             150   -0.3310 80.7  38 
 PAM  EZ I         4 0 38.57         4.9 0.44            150           80.7  38 
 RUS  HZ EP        4 0 20.55                             145    0.2510 96.6 176 
 RUS  HN ES        4 0 38.84                             145    0.1210 96.6 176 
 RUS  HZ I         4 0 40.82         3.5 0.46            149           96.6 176 
 PTB  HZ EP        4 0 23.32                             133   -0.36 9  147 260 
 PTB  HN ES        4 0 44.39                             133   -0.35 9  147 260 
 PTB  HZ I         4 0 46.14         4.6 0.40            133            147 260 
 ZAR  HZ EP   4    4 0 34.43                             122    5.07 0  205 293 
 ZAR  HN ES        4 0 54.88                             122    0.04 8  205 293 
 ZAR  HZ I         4 0 59.64         6.0 0.24            122            205 293 
 GUY2CHZ EP   4    4 0 41.77                             113    1.70 0  299 235 
 GUY2CHN ES   4    4 1 18.68                             113    4.77 0  299 235 
 GUY2CHZ I         4 1 22.62         2.1 0.28                           299 235 
 SJC  HZ EP   4    4 0 50.49                             106   -2.18 0  412 327 
 SJC  HN ES   4    4 1 33.57                             106   -2.77 0  412 327 
 SJC  HZ I         4 1 44.45         3.4 0.88            106            412 327 
                                                                                
