 2013 10 8 0016 33.0 L   6.830 -73.144146.6  RSN  9 0.4 1.8LRSN                1
 GAP=201        0.87       3.2     4.6  6.1  0.3511E+01  0.1927E+01 -0.6766E+00E
 Epicentro: LOS SANTOS - SANTANDER                                             3
 ACTION:UPD 13-11-25 09:20 OP:ep   STATUS:               ID:20131008001633 L   I
 OLDACT:UP  13-10-08 09:21 OP:mh   STATUS:               ID:20131008000960d    3
 OLDACT:UP  13-10-08 09:20 OP:mh   STATUS:               ID:20131008000960d    3
 OLDACT:UP  13-10-08 09:20 OP:mh   STATUS:               ID:20131008000960d    3
 OLDACT:DUP 13-10-08 09:18 OP:mh   STATUS:               ID:20131008000960d    3
 OLDACT:REG 13-10-08 07:39 OP:mh   STATUS:               ID:20131008000959     3
 2013-10-08-0009-59M.COL___273                                                 6
 STAT SP IPHASW D HRMM SECON CODA AMPLIT PERI AZIMU VELO AIN AR TRES W  DIS CAZ7
 BAR2 SZ EP   1    016 53.15                             169    0.34 7 26.6 189 
 BAR2 SZ ES   1    017  8.04                             169   -0.21 7 26.6 189 
 BAR2 SZ I         017  9.14        29.7 0.24            167           26.6 189 
 BRR  HZ EP   1    016 54.33                             153    0.16 7 69.8 296 
 BRR  HN ES        017 11.30                             153    0.6210 69.8 296 
 BRR  HZ I         017 12.95         9.1 0.26            149           69.8 296 
 RUS  HZ EP        016 57.17                             143    0.0910  104 176 
 RUS  HN ES        017 15.58                             143   -0.2810  104 176 
 RUS  HZ I         017 16.72         7.2 0.26            143            104 176 
 PTB  HZ EP   1    016 59.64                             132   -0.48 7  149 258 
 PTB  HN ES        017 20.50                             132   -0.77 9  149 258 
 PTB  HZ I         017 22.69         6.5 0.48            129            149 258 
 SPBC HZ EP   1    017  2.02                             129    0.19 7  166 218 
 SPBC HN ES        017 24.39                             129    0.08 9  166 218 
 SPBC HZ I         017 29.76         7.2 0.18            127            166 218 
 ZAR  HN ES        017 30.84                             123    0.18 9  203 291 
 ZAR  HZ I         017 36.52         6.1 0.54            121            203 291 
 NOR  HZ EP   1    017  9.13                             118    0.12 6  237 234 
 NOR  HN ES        017 37.64                             118    0.55 8  237 234 
 NOR  HZ I         017 44.32         3.2 0.22            117            237 234 
 SML  HZ EP   1    017  9.53                             118    0.17 6  241 335 
 SML  HN ES        017 37.19                             118   -0.53 8  241 335 
 SML  HZ I         017 42.73         7.1 0.24            117            241 335 
 CHI  HZ EP   1    017 11.12                             117    0.01 6  252 195 
 CHI  HN ES   2    017 40.21                             117   -0.62 4  252 195 
 CHI  HZ I         017 43.79         3.7 0.38            116            252 195 
                                                                                
