 2010  3 8 0455 16.3 L   6.565 -73.478116.7  RSN  4 0.2 1.4LRSN                1
 GAP=110        0.46       2.8     9.6  7.3  0.2696E+01  0.4830E+02 -0.4387E+01E
 Epicentro: EL CARMEN DE CHUCURI - SANTANDER                                   3
 ACTION:UP  10-08-24 09:52 OP:vdl  STATUS:               ID:20100308045516 L   I
 2010-03-08-0450-25S.COL___101                                                 6
 STAT SP IPHASW D HRMM SECON CODA AMPLIT PERI AZIMU VELO SNR AR TRES W  DIS CAZ7
 BAR2 SZ IP        455 32.66                             163    -0.110   33  85 
 BAR2 SZ ES   1    455 45.46                             163    -0.1 7   33  85 
 RUS  BZ EP   1    455 36.00                             141    -0.2 7   86 150 
 RUS  BN ES   1    455 52.02                             141     0.3 7   86 150 
 RUS  BZ I         455 53.06         1.7 0.34                            86 150 
 OCA  SZ EP   1    455 45.45                             118     0.2 7  186   5 
 OCA  SZ ES   1    456  7.93                             118     0.1 7  186   5 
 OCA  SZ I         456 15.07         8.2 0.28                           186   5 
 HEL  HZ EP   2    455 50.56                             112     0.1 4  231 260 
                                                                                
