 2017  6 8 0331 37.2 L   6.698 -73.226151.6  RSN  5 0.1 1.2LRSN                1
 GAP=220        0.41       2.5     2.9  4.1  0.2458E+01 -0.6098E+00 -0.8144E+00E
 Epicentro: VILLANUEVA - SANTANDER                                             3
 ACTION:UPD 17-09-14 16:50 OP:jn   STATUS:               ID:20170608033137 L   I
 OLDACT:UP  17-06-08 15:55 OP:edw  STATUS:               ID:20170608032740     3
 OLDACT:UP  17-06-08 15:55 OP:edw  STATUS:               ID:20170608032740     3
 OLDACT:REG 17-06-08 12:54 OP:edw  STATUS:               ID:20170608032740     3
 2017-06-08-0328-00M.COL___365                                                 6
 STAT SP IPHASW D HRMM SECON CODA AMPLIT PERI AZIMU VELO AIN AR TRES W  DIS CAZ7
 BRR  HZ EP        331 59.03                             154    0.0810 70.3 310 
 BRR  HN ES        332 15.94                             154    0.0410 70.3 310 
 RUS  HZ EP        332  0.77                             148   -0.1010 90.4 170 
 RUS  HN ES        332 19.30                             148   -0.0110 90.4 170 
 RUS  HZ I         332 20.67         3.0 0.34            148           90.4 170 
 PTB  HZ EP        332  3.75                             136   -0.00 9  137 263 
 PTB  HE ES        332 24.20                             136   -0.25 9  137 263 
 PTB  HZ I         332 25.66         2.0 0.12            136            137 263 
 SPBC HN ES        332 26.62                             133    0.18 9  149 219 
 ZAR  HN ES   2    332 35.36                             124    0.32 4  201 296 
 NOR  HN ES   4    332 42.22                             121    3.35 0  221 236 
                                                                                
