 2016  3 8 0826 41.2 L   6.811 -73.179146.0  RSN  8 0.2 1.3LRSN                1
 GAP=132        0.64       2.5     2.9  4.3 -0.3212E+00  0.3964E+01  0.7468E+00E
 Epicentro: ZAPATOCA - SANTANDER                                               3
 ACTION:UPD 16-05-13 21:22 OP:cam  STATUS:               ID:20160308082641 L   I
 OLDACT:REG 16-03-08 14:44 OP:cara STATUS:               ID:20160308081747     3
 2016-03-08-0817-47M.COL___288                                                 6
 STAT SP IPHASW D HRMM SECON CODA AMPLIT PERI AZIMU VELO AIN AR TRES W  DIS CAZ7
 BAR2 EZ ES        827 15.84                             170   -0.3610 24.1 181 
 BAR2 EZ I         827 17.03         4.1 0.46            169           24.1 181 
 PAM  EZ EP        827  3.70                             150    0.1910 78.9  42 
 PAM  EE ES        827 21.06                             150    0.1310 78.9  42 
 PAM  EZ I         827 22.88         4.4 0.44            154           78.9  42 
 RUS  HZ EP        827  4.77                             143   -0.2910  102 174 
 RUS  HN ES        827 23.88                             143    0.1910  102 174 
 RUS  HZ I         827 24.63         2.8 0.22            144            102 174 
 PTB  HZ EP        827  7.87                             133    0.00 9  144 258 
 PTB  HN ES        827 28.43                             133   -0.25 9  144 258 
 PTB  HZ I         827 31.77         2.1 0.34            131            144 258 
 SPBC HZ EP        827  9.71                             129    0.14 9  162 218 
 SPBC HE ES        827 31.94                             129    0.23 9  162 218 
 SPBC HZ I         827 35.60         4.6 0.20            129            162 218 
 ZAR  HZ EP        827 12.82                             123   -0.43 9  200 292 
 ZAR  HE ES        827 38.67                             123    0.41 9  200 292 
 ZAR  HZ I         827 47.04         1.5 0.48            122            200 292 
 CHI  HZ EP        827 18.93                             117    0.01 8  249 194 
 CHI  HN ES        827 48.42                             117    0.07 8  249 194 
 CHI  HZ I         827 58.18         1.0 0.42            117            249 194 
 GUY2CHZ EP   4    827 25.80                             112    1.26 0  299 234 
 GUY2CHN ES   4    828  1.17                             112    2.81 0  299 234 
 GUY2CHZ I         828  6.84         1.3 0.36                           299 234 
                                                                                
