 2010 12 8 0152 52.0 L   6.778 -73.146150.6  RSN 16 0.5 3.5LRSN                1
 GAP=136        0.92       3.6     4.8  6.1 -0.5171E+01  0.5111E+01  0.8104E+01E
 Epicentro: LOS SANTOS - SANTANDER                                             3
 ACTION:UP  11-01-14 15:23 OP:pat  STATUS:               ID:20101208015252 L   I
 2010-12-08-0151-00S.COL___135                                                 6
 STAT SP IPHASW D HRMM SECON CODA AMPLIT PERI AZIMU VELO SNR AR TRES W  DIS CAZ7
 BTL  SZ IP        153 12.00                             172    -0.210   21 319 
 BTL  SZ ES   1    153 27.52                             172    -0.4 7   21 319 
 BAR2 SZ IP        153 11.74                             172    -0.410   21 191 
 BAR2 SZ ES   2    153 27.31                             172    -0.6 5   21 191 
 BAR2 SZ I         153 28.61       468.8 0.33                            21 191 
 GIR2 SZ EP        153 12.80                             167     0.510   34 351 
 GIR2 SZ ES   1    153 28.50                             167     0.3 7   34 351 
 GRA  SZ IP        153 18.56                             137     0.710  128  17 
 GRA  SZ ES   1    153 37.93                             137    -0.1 7  128  17 
 GRA  SZ I         153 41.46       337.3 0.41                           128  17 
 OCA  SZ EP   1    153 20.28                             130    -0.6 7  163 353 
 OCA  SZ ES   2    153 43.13                             130    -0.3 5  163 353 
 OCA  SZ I         153 48.70       225.0 0.21                           163 353 
 YOP  SZ IP        153 22.19                             128     0.0 9  177 153 
 YOP  SE ES   2    153 46.54                             128     0.8 4  177 153 
 YOP  SZ I         153 50.46       132.3 0.50                           177 153 
 NOR  SZ EP   1    153 27.84                             120     0.0 6  233 235 
 NOR  SE ES   1    153 56.27                             120     0.4 6  233 235 
 CHI  HZ EP   1    153 29.61                             118    -0.1 6  246 195 
 CHI  HE ES   1    153 58.88                             118    -0.2 6  246 195 
 CHI  HZ I         154  5.17       185.8 0.14                           246 195 
 HEL  HZ EP   2    153 32.24                             116    -0.2 4  271 256 
 HEL  HN ES   1    154  3.71                             116    -0.2 6  271 256 
 HEL  HZ I         154 10.29       193.7 0.63                           271 256 
 VIL  SZ EP   1    153 34.89                             113    -0.3 5  299 190 
 VIL  SN ES   2    154  8.48                             113    -0.4 4  299 190 
 VIL  SZ I         154 16.87       124.3 0.72                           299 190 
 GUY  SZ EP   2    153 36.59                             113     0.9 4  300 235 
 GUY  SE ES   2    154 10.63                             113     0.9 4  300 235 
 RREF HZ EP   1    153 37.66                             112    -0.5 5  320 230 
 RREF HN ES   1    154 15.16                             112     1.0 5  320 230 
 RREF HZ I         154 23.35       270.1 0.33                           320 230 
 DBB  SZ EP   1    153 39.31                             110    -0.4 5  340 275 
 DBB  SZ ES   2    154 16.11                             110    -0.8 3  340 275 
 TOL  SZ EP   1    153 40.81                             110     0.6 5  342 225 
 PRA  HZ EP   1    153 45.17                             107    -0.3 4  390 210 
 PRA  HN ES   1    154 27.13                             107     0.0 4  390 210 
 SJA  SZ EP   1    153 45.38                             107    -1.1 4  398 193 
 SJA  SZ I         154 39.62       207.8 0.28                           398 193 
                                                                                
