 2017  1 8 0239 32.4 L   6.280 -73.666111.2  RSN  4 0.1 1.2LRSN                1
 GAP=165        0.30       3.6     2.5  4.8  0.2840E+01  0.4618E+01  0.6473E+01E
 Epicentro: SANTA HELENA DEL OPON - SANTANDER                                  3
 ACTION:UPD 17-05-22 15:56 OP:jn   STATUS:               ID:20170108023932 L   I
 OLDACT:UP  17-01-08 14:28 OP:dln  STATUS:               ID:20170108023743     3
 OLDACT:REG 17-01-08 12:31 OP:dnl  STATUS:               ID:20170108023743     3
 2017-01-08-0238-00M.COL___374                                                 6
 STAT SP IPHASW D HRMM SECON CODA AMPLIT PERI AZIMU VELO AIN AR TRES W  DIS CAZ7
 BAR2 EZ IP     C  239 49.67                             148   -0.0510 63.7  57 
 BAR2 EZ ES        240  3.25                             148   -0.0210 63.7  57 
 BAR2 EZ I         240  5.59         4.4 0.38            117           63.7  57 
 RUS  HZ EP   2    239 51.17                             143    0.14 5 77.5 124 
 RUS  HN ES   2    240  5.65                             143    0.04 5 77.5 124 
 RUS  HZ I         240  6.81         1.6 0.24            130           77.5 124 
 BRR  HZ EP   4    239 54.37                             137    2.92 0 91.6 357 
 BRR  HE ES   2    240  6.50                             137    0.15 5 91.6 357 
 BRR  HZ I         240 38.61         8.8 0.46            111           91.6 357 
 PTB  HZ EP   2    239 51.53                             137    0.02 5 92.0 288 
 PTB  HN ES   2    240  6.39                             137   -0.06 5 92.0 288 
 PTB  HZ I         240  8.76         2.7 0.30            118           92.0 288 
                                                                                
