 2015  4 8 0909 10.3 L   6.754 -73.144139.9  RSN  7 0.4 1.7LRSN                1
 GAP=139        1.08       4.6     5.1  7.4 -0.3367E+01  0.1671E+02 -0.2375E+01E
 Epicentro: LOS SANTOS - SANTANDER                                             3
 ACTION:UPD 15-06-03 16:53 OP:cam  STATUS:               ID:20150408090910 L   I
 OLDACT:UP  15-04-08 17:15 OP:mh   STATUS:               ID:20150408090746     3
 OLDACT:REG 15-04-08 13:25 OP:akv  STATUS:               ID:20150408090746     3
 2015-04-08-0907-46M.COL___257                                                 6
 STAT SP IPHASW D HRMM SECON CODA AMPLIT PERI AZIMU VELO AIN AR TRES W  DIS CAZ7
 BAR2 EZ EP   1    9 9 29.31                             172    0.21 7 18.4 193 
 BAR2 EZ ES        9 9 43.11                             172   -0.6810 18.4 193 
 BAR2 EZ I         9 9 45.58        13.5 0.09            169           18.4 193 
 BRR  HZ EP        9 9 31.21                             150    0.2710 73.9 302 
 BRR  HN ES        9 9 47.62                             150    0.5510 73.9 302 
 BRR  HZ I         9 9 52.72         9.7 0.16            148           73.9 302 
 PAM  SZ EP        9 9 32.12                             148    0.0110 81.2  37 
 PAM  SN ES        9 9 49.12                             148   -0.0210 81.2  37 
 PAM  SZ I         9 9 51.23         8.6 0.44            154           81.2  37 
 RUS  HN ES        9 9 50.69                             144   -0.1810 95.5 176 
 RUS  HZ I         9 9 52.39         5.1 0.24            147           95.5 176 
 SPBC HZ EP        9 9 37.91                             128   -0.05 9  159 220 
 SPBC HN ES        910  0.33                             128    0.77 9  159 220 
 SPBC HZ I         910  6.48         4.5 0.10            130            159 220 
 ZAR  HZ EP        9 9 42.14                             121   -0.42 8  206 293 
 ZAR  HN ES        910  7.72                             121   -0.02 8  206 293 
 ZAR  HZ I         910 15.59         8.1 0.54            122            206 293 
 HEL  HZ EP   1    9 9 50.55                             114    0.48 6  271 257 
 HEL  HE ES        910 20.22                             114   -0.90 8  271 257 
 HEL  HZ I         910 28.04         2.9 0.36            115            271 257 
                                                                                
