 2013  6 8 0958 29.7 L   6.817 -73.365114.2  RSN  7 0.3 2.2LRSN                1
 GAP=139        0.63       3.1     4.1  5.0  0.2196E+00  0.8301E+01 -0.2830E+01E
 Epicentro: ZAPATOCA - SANTANDER                                               3
 ACTION:UPD 14-01-08 09:53 OP:ep   STATUS:               ID:20130608095829 L   I
 OLDACT:UP  13-06-08 15:19 OP:mh   STATUS:               ID:20130608095000     3
 OLDACT:UP  13-06-08 15:19 OP:mh   STATUS:               ID:20130608095000     3
 OLDACT:REG 13-06-08 07:08 OP:mh   STATUS:               ID:20130608095000     3
 2013-06-08-0950-00M.COL___257                                                 6
 STAT SP IPHASW D HRMM SECON CODA AMPLIT PERI AZIMU VELO AIN AR TRES W  DIS CAZ7
 BAR2 SZ EP   1    958 46.22                             164    0.42 7 32.0 141 
 BAR2 SZ ES        958 58.34                             164   -0.0310 32.0 141 
 BAR2 SZ I         958 59.19        38.9 0.54            153           32.0 141 
 BRR  HZ EP        958 46.20                             154   -0.0410 50.0 310 
 BRR  HN ES        958 59.02                             154   -0.1310 50.0 310 
 BRR  HN I         958 59.41        80.1 0.16            149           50.0 310 
 PTB  HZ IP   4    958 49.99                             129   -2.00 0  124 256 
 PTB  HN I         959  9.68        13.7 0.30            118            124 256 
 OCA  HN ES        959 15.35                             122   -0.20 9  157   2 
 OCA  HN I         959 17.14        24.5 0.20            114            157   2 
 ZAR  HZ EP   1    958 58.15                             118    0.38 7  181 294 
 ZAR  HN ES        959 20.12                             118    0.45 9  181 294 
 ZAR  HN I         959 21.45        19.4 0.14            110            181 294 
 NOR  HZ EP   1    959  1.39                             113   -0.36 6  217 230 
 NOR  HN ES   2    959 26.11                             113   -0.65 4  217 230 
 NOR  HN I         959 29.53        12.5 0.14            105            217 230 
 SML  HZ EP   1    959  3.40                             111   -0.11 6  233 341 
 SML  HN ES   2    959 29.33                             111   -0.57 4  233 341 
 SML  HN I         959 35.81        17.6 0.30            105            233 341 
                                                                                
