 2017 12 8 0442 52.3 L   6.800 -73.126142.1  RSN  4 0.3 1.3LRSN                1
 GAP=263        0.79       6.1     5.6  7.5  0.7636E+01  0.1223E+02  0.7002E+00E
 Epicentro: LOS SANTOS - SANTANDER                                             3
 ACTION:UPD 18-01-04 13:18 OP:rebc STATUS:               ID:20171208044252 L   I
 OLDACT:REG 17-12-08 13:24 OP:dani STATUS:               ID:20171208043743     3
 2017-12-08-0438-00M.COL___485                                                 6
 STAT SP IPHASW D HRMM SECON CODA AMPLIT PERI AZIMU VELO AIN AR TRES W  DIS CAZ7
 BAR2 EZ EP        443 11.71                             170    0.1910 23.8 195 
 BAR2 EZ ES        443 26.40                             170   -0.1010 23.8 195 
 BAR2 EZ I         443 28.24         5.2 0.38            163           23.8 195 
 PTB  HZ EP        443 18.82                             131   -0.37 9  150 259 
 PTB  HN ES        443 39.70                             131   -0.44 9  150 259 
 PTB  HZ I         443 42.12         2.0 0.14            130            150 259 
 SPBC HZ EP        443 20.64                             128   -0.03 9  165 220 
 SPBC HN ES        443 43.17                             128    0.39 9  165 220 
 SPBC HZ I         443 48.65         3.1 0.42            127            165 220 
 ZAR  HN ES        443 50.46                             121    0.43 8  206 292 
                                                                                
