 2010  6 8 0922 18.1 L   6.831 -73.266126.0  RSN  5 0.5 1.6LRSN                1
 GAP=137        0.92       8.6    25.0 12.4 -0.1273E+03  0.8637E+02 -0.5056E+02E
 Epicentro: ZAPATOCA - SANTANDER                                               3
 ACTION:UP  10-08-24 10:09 OP:vdl  STATUS:               ID:20100608092218 L   I
 2010-06-08-0918-07S.COL___111                                                 6
 STAT SP IPHASW D HRMM SECON CODA AMPLIT PERI AZIMU VELO SNR AR TRES W  DIS CAZ7
 BAR2 SZ IP        922 35.02                             167    -0.510   28 161 
 BAR2 SZ ES   1    922 49.56                             167     0.5 7   28 161 
 GUE  SZ EP   1    922 40.65                             135    -0.4 7  117  19 
 GRA  SZ EP        922 42.06                             132     0.310  127  24 
 GRA  SZ ES   1    923  0.54                             132     0.3 7  127  24 
 OCA  SZ ES   2    923  4.86                             126    -0.3 5  156 358 
 OCA  SZ I         923  8.83         4.9 0.44                           156 358 
 HEL  HZ EP   3    922 57.42                             112     1.4 2  260 254 
 HEL  HZ I         923 34.03         2.4 0.45                           260 254 
                                                                                
