 2010  7 8 0903 32.5 L   6.769 -73.099152.6  RSN  6 0.2 1.6LRSN                1
 GAP=164        0.40       3.0     4.2  4.7 -0.2866E+01  0.3881E+01 -0.2728E+01E
 Epicentro: LOS SANTOS - SANTANDER                                             3
 ACTION:UPD 10-12-01 15:16 OP:pat  STATUS:               ID:20100708090332 L   I
 2010-07-08-0900-11S.COL___116                                                 6
 STAT SP IPHASW D HRMM SECON CODA AMPLIT PERI AZIMU VELO AIN AR TRES W  DIS CAZ7
 BAR2 SZ EP   1    9 3 52.87                             172    -0.1 7   22 206 
 BAR2 SZ ES   2    9 4  8.35                             172    -0.5 5   22 206 
 BRR  HZ EP   1    9 3 54.81                             152     0.1 7   77 299 
 BRR  HN ES   2    9 4 12.26                             152     0.2 5   77 299 
 BRR  HZ I         9 4 15.26        11.6 0.43                            77 299 
 RUS  HZ EP   1    9 3 56.78                             146     0.1 7   97 179 
 RUS  HN ES   2    9 4 15.73                             146     0.2 5   97 179 
 RUS  HZ I         9 4 17.45         3.7 0.51                            97 179 
 GRA  SZ EP   1    9 3 58.65                             138     0.1 7  128  15 
 GRA  SZ ES   2    9 4 18.98                             138     0.2 5  128  15 
 OCA  SZ EP   1    9 4  1.55                             130    -0.2 7  164 351 
 HEL  HZ EP   1    9 4 13.36                             116    -0.2 6  276 257 
 HEL  HN ES   2    9 4 45.75                             116     0.2 4  276 257 
 HEL  HZ I         9 4 50.48         2.1 0.79                           276 257 
                                                                                
