 2017 11 8 0239 29.6 L   6.780 -73.140148.0  RSN  8 0.4 1.4LRSN                1
 GAP=138        1.00       4.7     5.2  8.0 -0.7640E+01  0.1914E+00  0.1228E+02E
 Epicentro: LOS SANTOS - SANTANDER                                             3
 ACTION:UPD 17-12-12 19:53 OP:rebc STATUS:               ID:20171108023929 L   I
 OLDACT:UP  17-11-08 15:58 OP:dnl  STATUS:               ID:20171108023748     3
 OLDACT:UP  17-11-08 15:58 OP:dnl  STATUS:               ID:20171108023748     3
 OLDACT:REG 17-11-08 14:54 OP:dnl  STATUS:               ID:20171108023748     3
 2017-11-08-0238-00M.COL___412                                                 6
 STAT SP IPHASW D HRMM SECON CODA AMPLIT PERI AZIMU VELO AIN AR TRES W  DIS CAZ7
 BRR  HZ EP        239 51.35                             152    0.2310 72.9 300 
 BRR  HE ES        240  8.63                             152    0.7610 72.9 300 
 BRR  HZ I         240 19.68         6.1 0.44            145           72.9 300 
 PAM  EZ EP        239 52.14                             151   -0.0310 78.7  38 
 PAM  EN ES        240  9.16                             151   -0.5810 78.7  38 
 PAM  EZ I         240 11.48         4.5 0.48            148           78.7  38 
 RUS  HZ EP        239 53.55                             145    0.1110 98.3 176 
 RUS  HN ES        240 12.19                             145    0.1810 98.3 176 
 RUS  HZ I         240 12.95         2.7 0.26            142           98.3 176 
 PTB  HZ EP   2    239 56.43                             133   -0.37 5  148 260 
 PTB  HE ES        240 17.26                             133   -0.73 9  148 260 
 PTB  HZ I         240 23.79         1.7 0.32            126            148 260 
 SPBC HZ EP        239 58.33                             130    0.15 9  162 220 
 SPBC HN ES        240 20.49                             130    0.05 9  162 220 
 SPBC HZ I         240 22.79         6.8 0.22            125            162 220 
 ZAR  HE ES   4    240 26.48                             123   -1.43 0  206 293 
 CHI  HZ EP   2    240  7.64                             118    0.40 4  247 195 
 CHI  HZ I         240 28.57         0.9 0.48            114            247 195 
 GUY2CHZ EP   4    240 14.54                             113    1.28 0  300 235 
 GUY2CHE ES   4    240 50.89                             113    3.60 0  300 235 
 GUY2CHZ I         240 56.22         1.6 0.72                           300 235 
 PRA  HZ EP   2    240 23.72                             107    0.68 3  390 210 
 PRA  HN ES        241  4.01                             107   -0.68 6  390 210 
 PRA  HZ I         241 11.14         2.1 0.40            104            390 210 
                                                                                
