 2010  9 8 0136  3.1 L   6.772 -73.055142.6  RSN  9 0.4 2.0LRSN                1
 GAP=169        0.92       4.6     8.0 12.4 -0.1820E+02 -0.3272E+02  0.2932E+02E
 Epicentro: LOS SANTOS - SANTANDER                                             3
 ACTION:UP  11-02-18 11:01 OP:tino STATUS:               ID:20100908013603 L   I
 2010-09-08-0133-08S.COL___120                                                 6
 STAT SP IPHASW D HRMM SECON CODA AMPLIT PERI AZIMU VELO SNR AR TRES W  DIS CAZ7
 GIR2 SZ EP   2    136 22.56                             164     0.0 5   37 336 
 BRR  HZ IP     D  136 24.11                             148    -0.410   82 297 
 BRR  HE ES   1    136 41.18                             148    -0.1 7   82 297 
 BRR  HZ I         136 43.08        21.5 0.23                            82 297 
 RUS  HZ EP        136 26.06                             144    -0.210   97 182 
 RUS  HZ I         136 46.04        10.9 0.28                            97 182 
 GUE  SZ EP   1    136 28.29                             138     0.7 7  118   7 
 GRA  SZ IP        136 27.97                             136    -0.110  126  13 
 GRA  SZ ES   1    136 47.72                             136     0.1 7  126  13 
 OCA  SZ EP   1    136 32.06                             128     0.5 7  165 350 
 OCA  SZ ES   1    136 53.84                             128     0.0 7  165 350 
 OCA  SZ I         136 56.07        12.2 0.27                           165 350 
 CHI  HZ EP   1    136 40.03                             116    -0.6 6  249 198 
 CHI  HN ES   1    137 10.73                             116     0.9 6  249 198 
 CHI  HZ I         137 18.11         6.6 0.43                           249 198 
 HEL  HN ES   2    137 16.34                             113     0.1 4  281 257 
 HEL  HZ I         137 21.71         4.3 0.06                           281 257 
 RREF HN ES   1    137 26.47                             110     0.3 5  328 231 
 RREF HZ I         137 33.66         6.7 0.46                           328 231 
                                                                                
