 2011  7 8 0930 33.6 L   6.668 -73.041148.9  RSN  6 0.2 1.3LRSN                1
 GAP=228        0.50       6.2     6.4  5.0 -0.1320E+02 -0.5269E+01  0.1143E+01E
 Epicentro: ARATOCA - SANTANDER                                                3
 *BAR2-BRR-GRA-NOR                                                             3
 ACTION:UPD 12-07-25 13:59 OP:epov STATUS:               ID:20110708092000 L   I
 2011-07-08-0920-00M.COL___130                                                 6
 STAT SP IPHASW D HRMM SECON CODA AMPLIT PERI AZIMU VELO AIN AR TRES W  DIS CAZ7
 BAR2 SZ EP   1    930 53.06                             173   -0.40 7 17.7 242 
 BAR2 SZ ES   1    931  9.04                             173    0.06 7 17.7 242 
 BAR2 SZ I         931 10.73         4.1 0.32                          17.7 242 
 BTL  SZ ES   2    931  9.91                             165    0.11 5 37.4 318 
 GIR2 SZ EP   1    930 54.39                             161    0.23 7 48.5 340 
 GIR2 SZ ES   1    931 10.42                             161    0.18 7 48.5 340 
 BRR  HZ EP   1    930 56.33                             148    0.23 7 88.7 303 
 BRR  HZ I         930 59.59         3.3 0.11                          88.7 303 
 BRR  HN ES   1    931 13.32                             148   -0.36 7 88.7 303 
 GRA  SZ EP   1    930 59.98                             135   -0.05 7  137  11 
 GRA  SZ I         931 20.68         2.8 0.34                           137  11 
 NOR  SN ES   2    931 38.01                             119    0.22 4  236 239 
                                                                                
