 2013 12 8 0529 17.0 L   5.870 -73.792115.7  RSN  7 0.4 1.4LRSN                1
 GAP= 89        1.07       3.6     3.7  7.8 -0.2638E+01  0.2332E+01 -0.4291E+01E
 Epicentro: JESUS MARIA - SANTANDER                                            3
 ACTION:UPD 14-01-13 10:16 OP:ep   STATUS:               ID:20131208052917 L   I
 OLDACT:REG 13-12-08 07:33 OP:carl STATUS:               ID:20131208052738     3
 2013-12-08-0527-38M.COL___244                                                 6
 STAT SP IPHASW D HRMM SECON CODA AMPLIT PERI AZIMU VELO AIN AR TRES W  DIS CAZ7
 SPBC HZ EP        529 33.50                             160    0.1810 39.3 232 
 SPBC HN ES        529 46.33                             160    0.2610 39.3 232 
 SPBC HZ I         529 49.03        10.0 0.26            164           39.3 232 
 RUS  HZ EP        529 36.16                             144   -0.0110 78.5  88 
 RUS  HN ES        529 51.10                             144   -0.0510 78.5  88 
 RUS  HZ I         529 56.85         0.9 0.14            145           78.5  88 
 PTB  HZ EP        529 36.80                             135   -0.7710  104 315 
 PTB  HE ES        529 52.92                             135   -0.7110  104 315 
 PTB  HZ I         529 53.48         3.8 0.14            140            104 315 
 BAR2 SZ EP        529 38.17                             135    0.2810  105  40 
 BAR2 SZ ES        529 54.16                             135   -0.0410  105  40 
 BAR2 SZ I         529 55.53        20.2 0.36            138            105  40 
 NOR  HZ EP        529 39.67                             129    0.2610  124 254 
 NOR  HN ES        529 57.46                             129    0.5610  124 254 
 CHI  HN ES        529 59.53                             127   -0.50 9  137 177 
 BRR  HZ EP        529 40.79                             126    0.21 9  137   4 
 BRR  HN ES        529 59.37                             126    0.37 9  137   4 
 BRR  HZ I         530  2.48         4.7 0.12            130            137   4 
                                                                                
