 2015 12 8 0926 33.6 L   6.813 -73.145146.9  RSN  9 0.3 2.0LRSN                1
 GAP=136        0.85       2.7     4.4  5.6 -0.1995E+01  0.7767E+01  0.4805E+00E
 Epicentro: LOS SANTOS - SANTANDER                                             3
 ACTION:UPD 16-02-04 15:03 OP:cam  STATUS:               ID:20151208092633 L   I
 OLDACT:REG 15-12-08 13:27 OP:ar   STATUS:               ID:20151208091743     3
 2015-12-08-0917-43M.COL___319                                                 6
 STAT SP IPHASW D HRMM SECON CODA AMPLIT PERI AZIMU VELO AIN AR TRES W  DIS CAZ7
 BAR2 EZ EP        926 53.40                             170   -0.0310 24.7 190 
 BAR2 EZ ES        927  8.45                             170   -0.4310 24.7 190 
 BAR2 EZ I         927  9.63        20.4 0.42            170           24.7 190 
 BRR  HZ EP        926 55.12                             153    0.2410 70.6 297 
 BRR  HN ES        927 12.29                             153    0.8510 70.6 297 
 BRR  HZ I         927 12.95         9.7 0.12            150           70.6 297 
 PAM  EZ EP        926 56.19                             151    0.2810 76.3  40 
 PAM  EN ES        927 13.20                             151   -0.0810 76.3  40 
 PAM  EZ I         927 15.34        12.9 0.46            154           76.3  40 
 RUS  HZ EP        926 57.55                             144   -0.0510  102 176 
 RUS  HN ES        927 16.34                             144    0.0510  102 176 
 RUS  HZ I         927 16.99         9.6 0.22            146            102 176 
 OCA  HE ES        927 23.64                             130   -0.32 9  159 353 
 OCA  HZ I         927 26.51        14.2 0.14            130            159 353 
 SPBC HZ EP        927  2.46                             129    0.13 9  164 219 
 SPBC HN ES        927 24.47                             129   -0.24 9  164 219 
 SPBC HZ I         927 26.96        21.9 0.20            129            164 219 
 ZAR  HZ EP   2    927  6.38                             123    0.27 4  204 292 
 ZAR  HE ES   2    927 31.39                             123   -0.05 4  204 292 
 ZAR  HZ I         927 37.54         6.3 0.32            122            204 292 
 NOR  HZ EP        927  9.69                             119    0.16 8  236 234 
 NOR  HE ES        927 37.12                             119   -0.40 8  236 234 
 NOR  HZ I         927 42.19         6.7 0.18            119            236 234 
 SML  HN ES        927 38.13                             118   -0.57 8  242 335 
 SML  HZ I         927 41.27         8.3 0.10            118            242 335 
                                                                                
