 2017  6 8 0533 31.6 L   6.701 -73.217140.2  RSN  4 0.3 1.0LRSN                1
 GAP=221        0.75       6.0     6.4  9.2  0.2363E+02 -0.8929E+01 -0.5392E+01E
 Epicentro: VILLANUEVA - SANTANDER                                             3
 ACTION:UPD 17-09-14 16:50 OP:jn   STATUS:               ID:20170608053331 L   I
 OLDACT:REG 17-06-08 13:09 OP:edw  STATUS:               ID:20170608052733     3
 2017-06-08-0528-00M.COL___359                                                 6
 STAT SP IPHASW D HRMM SECON CODA AMPLIT PERI AZIMU VELO AIN AR TRES W  DIS CAZ7
 BRR  HZ EP        533 51.80                             152   -0.3410 70.8 309 
 BRR  HN ES        534  8.36                             152    0.2110 70.8 309 
 RUS  HZ EP        533 54.52                             145    0.4210 90.6 171 
 RUS  HN ES        534 11.36                             145   -0.2910 90.6 171 
 RUS  HZ I         534 13.14         1.9 0.36            145           90.6 171 
 PTB  HN ES        534 17.36                             133    0.10 9  138 263 
 ZAR  HN ES   2    534 27.75                             121   -0.47 4  201 296 
                                                                                
