 2017  8 8 0320 35.8 L   7.484 -73.209132.6  RSN  5 0.4 1.0LRSN                1
 GAP=195        0.80       8.1     4.7  7.4 -0.6799E+01  0.1454E+02 -0.4593E+01E
 Epicentro: EL PLAYON - SANTANDER                                              3
 ACTION:UPD 17-09-04 20:17 OP:rebc STATUS:               ID:20170808032035 L   I
 OLDACT:UP  17-08-08 15:00 OP:dani STATUS:               ID:20170808031737     3
 OLDACT:UP  17-08-08 15:00 OP:dani STATUS:               ID:20170808031737     3
 OLDACT:UP  17-08-08 14:59 OP:dani STATUS:               ID:20170808031737     3
 OLDACT:REG 17-08-08 13:06 OP:dani STATUS:               ID:20170808031737     3
 2017-08-08-0318-00M.COL___390                                                 6
 STAT SP IPHASW D HRMM SECON CODA AMPLIT PERI AZIMU VELO AIN AR TRES W  DIS CAZ7
 PAM  EN ES        321 10.98                             155    0.0410 58.5 106 
 BRR  HZ EP        320 55.71                             151    0.2710 69.4 233 
 BRR  HN ES        321 10.95                             151    0.1910 69.4 233 
 BRR  HZ I         321 11.38         2.3 0.36            148           69.4 233 
 BAR2 EZ EP        320 57.68                             142   -0.1110 98.7 178 
 BAR2 EZ ES        321 14.49                             142   -0.4510 98.7 178 
 BAR2 EZ I         321 15.32         2.8 0.11            140           98.7 178 
 PTB  HZ EP        321  4.42                             124    0.21 9  173 233 
 PTB  HE ES        321 26.52                             124    0.17 9  173 233 
 PTB  HZ I         321 30.07         0.8 0.21            123            173 233 
 ZAR  HE ES   2    321 26.72                             122   -1.26 4  182 270 
                                                                                
