 2017  5 8 0329 54.4 L   6.756 -73.135145.6  RSN 19 0.5 2.3LRSN                1
 GAP=114        1.07       3.0     3.2  5.5  0.1646E+01  0.5266E+01  0.3305E+01E
 Epicentro: LOS SANTOS - SANTANDER                                             3
 ACTION:UPD 17-06-16 13:33 OP:jn   STATUS:               ID:20170508032954 L   I
 OLDACT:UP  17-05-08 15:21 OP:edw  STATUS:               ID:20170508032747     3
 OLDACT:UP  17-05-08 15:20 OP:edw  STATUS:               ID:20170508032747     3
 OLDACT:REG 17-05-08 12:29 OP:edw  STATUS:               ID:20170508032747     3
 2017-05-08-0328-00M.COL___362                                                 6
 STAT SP IPHASW D HRMM SECON CODA AMPLIT PERI AZIMU VELO AIN AR TRES W  DIS CAZ7
 BRR  HZ IP     C  330 15.93                             151    0.1610 74.7 301 
 BRR  HN ES        330 33.20                             151    0.7910 74.7 301 
 BRR  HZ I         330 36.01        41.1 0.12            151           74.7 301 
 PAM  EZ EP     C  330 16.95                             149    0.1210 80.5  37 
 PAM  EN ES        330 34.32                             149    0.0410 80.5  37 
 PAM  EZ I         330 37.80        21.6 0.60            154           80.5  37 
 RUS  HZ EP     C  330 17.55                             145   -0.2710 95.6 177 
 RUS  HN ES        330 35.62                             145   -0.4410 95.6 177 
 RUS  HZ I         330 37.17       103.3 0.32            145           95.6 177 
 PTB  HZ EP   9    330 20.56                             132   -0.86 0  148 261 
 PTB  HN ES        330 41.04                             132   -0.56 9  148 261 
 PTB  HZ I         330 42.02        25.3 0.20            131            148 261 
 SPBC HZ EP        330 22.67                             129    0.03 9  160 220 
 SPBC HN ES        330 44.01                             129   -0.63 9  160 220 
 SPBC HZ I         330 47.58        36.9 0.10            129            160 220 
 YPLC HZ IP     D  330 23.91                             127    0.16 9  172 151 
 YPLC HE ES        330 46.85                             127    0.25 9  172 151 
 YPLC HZ I         330 48.99        21.0 0.26            128            172 151 
 ZAR  HZ EP        330 26.81                             122   -0.38 8  207 293 
 ZAR  HN ES        330 52.52                             122   -0.21 8  207 293 
 ZAR  HZ I         330 57.98        44.5 0.22            122            207 293 
 NOR  HZ EP        330 29.77                             119   -0.20 8  233 236 
 NOR  HN ES        330 56.88                             119   -0.79 8  233 236 
 NOR  HZ I         330 59.58        17.4 0.72            119            233 236 
 CHI  HZ EP        330 31.64                             117   -0.01 8  244 196 
 CHI  HN ES        331  0.45                             117   -0.23 8  244 196 
 CHI  HZ I         331  3.53         7.0 0.32            118            244 196 
 ROSC BZ EP   4    330 33.64                             117    1.47 0  249 212 
 ROSC BN ES   4    331  3.69                             117    2.10 0  249 212 
 ROSC BZ I         331  9.15        13.9 0.40            117            249 212 
 HEL  HZ EP        330 35.01                             115    0.36 8  272 257 
 HEL  HN ES        331  7.00                             115    0.99 8  272 257 
 HEL  HZ I         331 13.43        10.2 0.44            115            272 257 
 VIL  EZ EP        330 37.13                             112   -0.21 7  299 192 
 VIL  EN ES        331 10.93                             112    0.14 7  299 192 
 VIL  EZ I         331 23.77        11.5 0.42            113            299 192 
 PTGC HZ EP   4 D  330 36.52                             112   -1.20 0  304 159 
 PTGC HN ES   4    331  9.60                             112   -1.88 0  304 159 
 PTGC HZ I         331 11.92         7.9 0.28            113            304 159 
 ELA  HZ EP   4    330 43.80                             110    2.77 0  327 230 
 ELA  HN ES        331 17.92                             110    0.55 7  327 230 
 ELA  HZ I         331 25.42        10.7 0.66            111            327 230 
 LL6C HN EP   4    330 21.29                             110   -19.4 0  330 357 
 LL6C HE ES   4    330 55.34                             110   -21.4 0  330 357 
 CBOC HZ EP        330 41.71                             110    0.40 7  333 253 
 CBOC HN ES        331 18.88                             110    1.01 7  333 253 
 CBOC HZ I         331 28.76         3.6 0.26            110            333 253 
 DBB  EZ EP        330 41.67                             109   -0.43 7  341 275 
 DBB  EN ES        331 18.57                             109   -0.69 7  341 275 
 DBB  EZ I         331 20.94         5.8 0.36            110            341 275 
 ORTC HZ EP        330 48.69                             106    0.71 6  392 217 
 ORTC HN ES   4    331 31.86                             106    2.13 0  392 217 
 ORTC HZ I         331 37.23         4.0 0.34            107            392 217 
 APAC HZ EP        330 48.33                             106   -0.61 6  401 289 
 APAC HN ES        331 30.91                             106   -0.54 6  401 289 
 APAC HZ I         331 39.89         5.3 0.34            107            401 289 
 SJC  HZ EP   9    330 48.30                             105   -2.26 0  414 327 
 SJC  HN ES        331 31.15                             106   -0.92 6  414 327 
 SJC  HZ I         331 35.46         5.5 0.38            106            414 327 
 SMAR HZ EP   4    330 59.81                             102   -1.10 0  502 346 
 SMAR HN ES   4    331 48.00                             102   -4.76 0  502 346 
 CAP2 HZ EP   4    330 59.29                             102   -2.69 0  511 294 
 CAP2 HE ES   4    331 50.99                             102   -3.66 0  511 294 
                                                                                
