 2015 12 8 0803 11.1 L   6.825 -73.140149.6  RSN 25 0.5 2.5LRSN                1
 GAP= 53        1.12       2.7     2.7  4.7 -0.1259E+01  0.1348E+01  0.1122E+01E
 Epicentro: LOS SANTOS - SANTANDER                                             3
 ACTION:UPD 16-02-04 15:03 OP:cam  STATUS:               ID:20151208080311 L   I
 OLDACT:UP  15-12-08 15:26 OP:ar   STATUS:               ID:20151208075735     3
 OLDACT:REG 15-12-08 13:25 OP:ar   STATUS:               ID:20151208075735     3
 2015-12-08-0757-35M.COL___319                                                 6
 STAT SP IPHASW D HRMM SECON CODA AMPLIT PERI AZIMU VELO AIN AR TRES W  DIS CAZ7
 BAR2 EZ EP     D  8 3 31.19                             170   -0.0110 26.1 190 
 BAR2 EZ ES        8 3 46.62                             170   -0.3010 26.1 190 
 BAR2 EZ I         8 3 47.35        67.0 0.24            170           26.1 190 
 BRR  HZ EP        8 3 33.03                             153    0.4510 70.4 296 
 BRR  HN ES        8 3 50.04                             153    0.6810 70.4 296 
 BRR  HZ I         8 3 54.19        43.0 0.14            151           70.4 296 
 PAM  EZ EP        8 3 34.21                             152    0.6710 74.9  41 
 PAM  EN ES        8 3 51.12                             152    0.0510 74.9  41 
 PAM  EZ I         8 3 53.35        65.9 0.50            151           74.9  41 
 RUS  HZ EP        8 3 35.38                             144    0.0010  103 176 
 RUS  HN ES        8 3 54.11                             144   -0.2410  103 176 
 RUS  HZ I         8 3 54.89        27.4 0.26            144            103 176 
 PTB  HZ EP        8 3 37.90                             133   -0.54 9  149 258 
 PTB  HN ES        8 3 58.88                             133   -0.92 9  149 258 
 PTB  HZ I         8 4  0.81        31.1 0.40            131            149 258 
 TAM  HZ EP        8 3 39.66                             131    0.61 9  155 106 
 TAM  HZ I         8 4  0.57        16.5 0.32            130            155 106 
 TAM  HN ES        8 4  1.44                             131    0.55 9  155 106 
 OCA  HZ EP        8 3 39.26                             131   -0.16 9  158 353 
 OCA  HN ES        8 4  1.40                             131   -0.14 9  158 353 
 OCA  HZ I         8 4  9.66        63.3 0.22            129            158 353 
 SPBC HZ EP        8 3 40.19                             129    0.10 9  166 219 
 SPBC HN ES        8 4  2.43                             129   -0.30 9  166 219 
 SPBC HZ I         8 4  4.70        55.0 0.38            128            166 219 
 ZAR  HZ EP   4    8 3 45.31                             123    1.60 0  204 291 
 ZAR  HN ES        8 4  9.17                             123    0.00 9  204 291 
 ZAR  HZ I         8 4 14.33        33.9 0.32            121            204 291 
 NOR  HZ EP        8 3 47.37                             119    0.14 8  237 234 
 NOR  HN ES        8 4 15.73                             119    0.28 8  237 234 
 NOR  HZ I         8 4 23.16        20.4 0.14            118            237 234 
 SML  HZ EP        8 3 47.94                             118    0.28 8  241 335 
 SML  HE ES        8 4 15.87                             118   -0.34 8  241 335 
 SML  HZ I         8 4 20.08        43.8 0.10            117            241 335 
 ROSC BZ EP   9    8 3 51.50                             117    1.82 0  255 211 
 ROSC BN ES        8 4 21.63                             118    0.01 8  255 211 
 ROSC BZ I         8 4 25.54        46.3 0.45            116            255 211 
 HEL  HZ EPg  4    8 3 52.72                             115    1.11 0  273 255 
 HEL  HZ EP        8 3 52.72                             115    1.11 8  273 255 
 HEL  HN ES        8 4 23.16                             115   -0.07 8  273 255 
 HEL  HZ I         8 4 29.25        18.5 0.30            114            273 255 
 URE  HZ EP        8 3 51.64                             114   -0.62 7  283 291 
 URE  HN ES   4    8 4 21.58                             114   -2.82 0  283 291 
 URE  HZ I         8 4 35.06        20.1 0.16            113            283 291 
 SOCV BZ EP        8 3 52.94                             113   -1.12 7  299  57 
 SOCV BN ES        8 4 26.76                             113   -0.84 7  299  57 
 GUY2CHZ EP        8 3 55.82                             113    0.74 7  303 234 
 GUY2CHN ES   4    8 4 32.93                             113    3.52 0  303 234 
 GUY2CHZ I         8 4 37.43        14.6 0.34                           303 234 
 VIL  SZ EP        8 3 55.28                             112    0.31 7  306 192 
 VIL  SN ES        8 4 28.77                             112   -0.45 7  306 192 
 PTGC HZ EP        8 3 54.37                             112   -0.98 7  311 159 
 PTGC HN ES   4    8 4 28.03                             112   -1.87 0  311 159 
 PTGC HZ I         8 4 29.58        17.3 0.20            111            311 159 
 CBOC HZ EP   4    8 3 59.59                             110    1.30 0  335 252 
 CBOC HE ES        8 4 35.25                             110    0.11 7  335 252 
 CBOC HZ I         8 4 40.89         4.4 0.46            109            335 252 
 DBB  SZ EP   4    8 3 49.33                             110   -9.41 0  340 274 
 DBB  SZ ES   4    8 4 34.11                             110   -1.82 0  340 274 
 DBB  SZ I         8 4 36.70        42.5 0.32            109            340 274 
 ANIL HZ EP   4    8 4  2.71                             109    1.42 0  360 224 
 ANIL HE ES   4    8 4 42.41                             109    1.95 0  360 224 
 PRA  HZ EP        8 4  5.06                             107    0.03 6  395 209 
 PRA  HN ES        8 4 46.77                             107   -0.35 6  395 209 
 PRA  HZ I         8 4 51.41        14.5 0.46            106            395 209 
 ORTC HZ EP   2    8 4  5.57                             107    0.16 3  398 216 
 ORTC HN ES   2    8 4 48.76                             107    0.96 3  398 216 
 ORTC HZ I         8 4 52.51        11.4 0.24            106            398 216 
 PAL  HZ EP        8 4  6.69                             106    0.12 6  408 239 
 PAL  HE ES   4    8 4 47.54                             106   -2.33 0  408 239 
 PAL  HZ I         8 4 54.65         3.7 0.20            105            408 239 
 CRJC HZ EP   4    8 4 11.53                             104   -1.81 0  465   3 
 CRJC HE ES   4    8 4 59.48                             104   -2.43 0  465   3 
 CRJC HZ I         8 5  6.29        12.3 0.36            103            465   3 
 MACC HZ EP   4    8 4 18.21                             102   -1.99 0  523 189 
 MACC HN ES   4    8 5  9.88                             102   -4.25 0  523 189 
 MACC HZ I         8 5 15.51         3.5 0.72            101            523 189 
                                                                                
