 2017  6 8 0115 26.0 L   6.728 -73.241152.0  RSN  6 0.3 1.4LRSN                1
 GAP=220        0.87       4.3     5.0  6.8  0.6002E+01  0.3479E+01 -0.1454E+01E
 Epicentro: VILLANUEVA - SANTANDER                                             3
 ACTION:UPD 17-09-14 16:50 OP:jn   STATUS:               ID:20170608011526 L   I
 OLDACT:UP  17-06-08 14:13 OP:edw  STATUS:               ID:20170608010745d    3
 OLDACT:DUP 17-06-08 13:59 OP:edw  STATUS:               ID:20170608010745d    3
 OLDACT:UP  17-06-08 13:58 OP:edw  STATUS:               ID:20170608010744     3
 OLDACT:REG 17-06-08 12:20 OP:edw  STATUS:               ID:20170608010744     3
 2017-06-08-0108-00M.COL___365                                                 6
 STAT SP IPHASW D HRMM SECON CODA AMPLIT PERI AZIMU VELO AIN AR TRES W  DIS CAZ7
 BRR  HZ IP     D  115 47.62                             155   -0.0110 66.8 309 
 BRR  HN ES        116  4.91                             155    0.4410 66.8 309 
 RUS  HZ EP        115 49.70                             147   -0.2510 94.0 169 
 RUS  HN ES        116  8.63                             147    0.0210 94.0 169 
 RUS  HZ I         116  9.51         4.0 0.44            147           94.0 169 
 PTB  HZ EP        115 51.97                             136   -0.52 9  136 261 
 PTB  HN ES        116 12.79                             136   -0.34 9  136 261 
 PTB  HZ I         116 15.53         2.4 0.14            133            136 261 
 SPBC HN ES        116 15.42                             133   -0.13 9  150 218 
 ZAR  HZ EP        115 58.38                             125    0.14 9  198 295 
 ZAR  HE ES        116 23.13                             125   -0.23 9  198 295 
 ZAR  HZ I         116 30.57         3.2 0.30            124            198 295 
 NOR  HZ EP        116  1.46                             121    0.72 8  221 235 
 NOR  HN ES        116 28.19                             121    0.37 8  221 235 
 NOR  HZ I         116 34.27         1.5 0.16            120            221 235 
                                                                                
