 2012  3 8 0651 59.5 L   6.700 -73.201139.0  RSN  6 0.3 1.4LRSN                1
 GAP=221        0.61       4.0     5.3  7.7  0.6220E+01  0.4953E+01  0.9416E+01E
 ACTION:UP  12-03-31 23:18 OP:EP   STATUS:               ID:20120308065159 L   I
 2012-03-08-0650-00M.COL___194                                                 6
 STAT SP IPHASW D HRMM SECON CODA AMPLIT PERI AZIMU VELO SNR AR TRES W  DIS CAZ7
 BAR2 SZ EP   1    652 18.00                             175    -0.1 7   12 170 
 BAR2 SZ I         652 36.00         9.9 0.27                            12 170 
 BRR  HZ EP   1    652 19.98                             151     0.1 7   72 309 
 BRR  HN ES   1    652 35.90                             151     0.0 7   72 309 
 BRR  HZ I         652 38.01         5.2 0.14                            72 309 
 RUS  HZ EP   1    652 22.11                             145     0.3 7   90 172 
 RUS  HN ES   1    652 39.24                             145     0.0 7   90 172 
 RUS  HZ I         652 42.11         3.2 0.34                            90 172 
 PTB  HZ EP   1    652 24.86                             132    -0.3 7  140 263 
 PTB  HN ES   1    652 45.26                             132     0.1 7  140 263 
 CHI  HN ES   1    653  2.95                             117    -0.6 6  236 194 
 PRA  HE ES   1    653 32.32                             106     0.7 5  379 210 
                                                                                
