 2016  3 8 0310 49.0 L   6.796 -73.165146.0  RSN  7 0.3 1.5LRSN                1
 GAP=242        0.68       3.8     4.4  4.6  0.8653E+01  0.4793E+01  0.7321E+00E
 Epicentro: LOS SANTOS - SANTANDER                                             3
 ACTION:UPD 16-05-13 21:22 OP:cam  STATUS:               ID:20160308031049 L   I
 OLDACT:REG 16-03-08 13:55 OP:cara STATUS:               ID:20160308030749     3
 2016-03-08-0307-49M.COL___295                                                 6
 STAT SP IPHASW D HRMM SECON CODA AMPLIT PERI AZIMU VELO AIN AR TRES W  DIS CAZ7
 BAR2 EZ ES        311 24.04                             171    0.0510 22.6 185 
 BAR2 EZ I         311 24.84         9.8 0.18            172           22.6 185 
 RUS  HZ EP        311 12.59                             144   -0.1810  100 175 
 RUS  HN ES        311 31.49                             144    0.1910  100 175 
 RUS  HZ I         311 32.66         4.2 0.28            147            100 175 
 PTB  HZ EP        311 15.58                             132   -0.24 9  146 259 
 PTB  HN ES        311 36.39                             132   -0.32 9  146 259 
 PTB  HZ I         311 38.22         4.1 0.36            132            146 259 
 SPBC HZ EP        311 17.42                             129    0.04 9  161 219 
 SPBC HN ES        311 39.80                             129    0.30 9  161 219 
 SPBC HZ I         311 42.13         8.6 0.18            130            161 219 
 ZAR  HZ EP        311 21.34                             123    0.04 9  202 292 
 ZAR  HE ES        311 46.57                             123    0.09 9  202 292 
 ZAR  HZ I         311 56.99         2.8 0.36            122            202 292 
 CHI  HZ EP        311 26.48                             117   -0.14 8  248 195 
 CHI  HZ I         311 27.42         1.7 0.14            119            248 195 
 CHI  HN ES        311 55.55                             117   -0.40 8  248 195 
 GUY2CHZ EP        311 33.18                             113    0.76 7  299 235 
 GUY2CHN ES   4    312  9.80                             113    3.54 0  299 235 
 GUY2CHZ I         312 13.56         1.5 0.28                           299 235 
                                                                                
