 2011  8 8 0844 30.7 L   6.788 -73.106142.9  RSN  8 0.3 2.5LRSN                1
 GAP=187        0.66       2.7     5.8  5.1 -0.2569E+01  0.5631E+01  0.2907E+01E
 Epicentro: LOS SANTOS - SANTANDER                                             3
 ACTION:UPD 12-07-25 14:06 OP:epov STATUS:               ID:20110808084430 L   I
 2011-08-08-0842-25S.COL___144                                                 6
 STAT SP IPHASW D HRMM SECON CODA AMPLIT PERI AZIMU VELO AIN AR TRES W  DIS CAZ7
 BAR2 SZ EP        844 49.99                             170    0.0110 23.2 201 
 BAR2 SZ ES   1    845  4.90                             170   -0.12 7 23.2 201 
 BAR2 SZ I         845  6.55        85.2 0.07                          23.2 201 
 BRR  HZ EP        844 51.81                             150    0.0110 75.8 298 
 BRR  HE ES   1    845  8.48                             150    0.21 7 75.8 298 
 BRR  HZ I         845 12.53        56.0 0.17                          75.8 298 
 RUS  HZ EP   1    844 53.90                             143   -0.15 7 99.0 179 
 RUS  HN ES   1    845 12.11                             143   -0.16 7 99.0 179 
 RUS  HZ I         845 14.38        49.1 0.27                          99.0 179 
 OCA  SZ EP   1    844 58.60                             128   -0.37 7  162 352 
 OCA  SZ ES   1    845 21.07                             128    0.05 7  162 352 
 OCA  SZ I         845 25.04        37.9 0.34                           162 352 
 NOR  SZ EP   1    845  6.43                             117   -0.14 6  238 235 
 NOR  SN ES   1    845 34.01                             117   -0.54 6  238 235 
 CHI  HZ EP   1    845  8.12                             116   -0.10 6  249 196 
 CHI  HE ES   1    845 37.45                             116   -0.04 6  249 196 
 CHI  HZ I         845 41.10        19.1 0.50                           249 196 
 ROSC BZ EP        845  9.74                             116    0.95 8  254 212 
 ROSC BE ES   1    845 38.83                             116    0.33 6  254 212 
 ROSC BZ I         845 45.45        24.1 0.38                           254 212 
 PRA  HZ EP   1    845 23.87                             106   -0.37 4  393 210 
 PRA  HN ES   1    846  5.62                             106   -0.38 4  393 210 
                                                                                
