 2017  1 8 0343 36.3 L   6.738 -73.147142.0  RSN  6 0.3 1.4LRSN                1
 GAP=139        0.75       4.2     3.9  7.3 -0.1785E+01  0.3191E+01 -0.2342E+01E
 Epicentro: LOS SANTOS - SANTANDER                                             3
 ACTION:UPD 17-05-22 15:56 OP:jn   STATUS:               ID:20170108034336 L   I
 OLDACT:UP  17-01-08 15:24 OP:dln  STATUS:               ID:20170108033743     3
 OLDACT:REG 17-01-08 12:35 OP:dnl  STATUS:               ID:20170108033743     3
 2017-01-08-0338-00M.COL___374                                                 6
 STAT SP IPHASW D HRMM SECON CODA AMPLIT PERI AZIMU VELO AIN AR TRES W  DIS CAZ7
 BAR2 EZ EP   2    343 55.23                             173   -0.08 5 16.6 194 
 BAR2 EZ ES   2    344  9.82                             173   -0.35 5 16.6 194 
 BAR2 EZ I         344 11.28         8.5 0.28            173           16.6 194 
 BRR  HZ EP        343 57.19                             151   -0.0010 74.6 303 
 BRR  HN ES        344 14.14                             151    0.6210 74.6 303 
 BRR  HZ I         344 19.79         4.6 0.12            148           74.6 303 
 PAM  EZ EP        343 58.26                             149   -0.1510 82.9  37 
 PAM  EN ES        344 15.50                             149   -0.1910 82.9  37 
 PAM  EZ I         344 17.36         5.5 0.44            150           82.9  37 
 RUS  HZ EP   2    343 59.52                             145    0.38 5 93.8 176 
 RUS  HN ES        344 17.15                             145    0.1510 93.8 176 
 RUS  HZ I         344 18.35         2.2 0.26            150           93.8 176 
 PTB  HZ EP   2    344  3.06                             132    0.27 5  146 261 
 PTB  HN ES        344 22.94                             132   -0.55 9  146 261 
 PTB  HZ I         344 25.21         2.3 0.14            132            146 261 
 ZAR  HZ EP   4    344 12.02                             121    3.30 0  207 294 
 ZAR  HN ES   2    344 34.09                             121    0.05 4  207 294 
 ZAR  HZ I         344 41.81         3.7 0.26            122            207 294 
                                                                                
