 2012  4 8 0013 25.6 L   6.743 -73.182155.1  RSN  5 0.2 1.5LRSN                1
 GAP=229        0.58       6.3     5.8  7.7  0.2345E+02 -0.4583E+01 -0.5930E+01E
 Epicentro: VILLANUEVA - SANTANDER                                             3
 ACTION:UPD 12-07-05 11:51 OP:tino STATUS:               ID:20120408001325 L   I
 2012-04-08-0010-00M.COL___196                                                 6
 STAT SP IPHASW D HRMM SECON CODA AMPLIT PERI AZIMU VELO AIN AR TRES W  DIS CAZ7
 BAR2 SZ EP   1    013 45.81                             174    -0.5 7   17 180 
 BAR2 SZ I         014  3.38         8.8 0.38                            17 180 
 BRR  HZ EP   1    013 48.05                             154     0.3 7   71 305 
 BRR  HE ES   1    014  5.19                             154     0.1 7   71 305 
 BRR  HZ I         014  9.53         6.7 0.13                            71 305 
 RUS  HZ EP   1    013 50.00                             147     0.1 7   95 173 
 RUS  HE ES   1    014  8.89                             147     0.0 7   95 173 
 RUS  HZ I         014 10.08         3.9 0.29                            95 173 
 PTB  HZ EP   1    013 53.09                             135     0.2 7  143 261 
 PTB  HN ES   1    014 14.15                             135    -0.1 7  143 261 
 PTB  HZ I         014 17.26         3.2 0.12                           143 261 
 ZAR  HN ES   1    014 24.10                             125    -0.2 6  203 294 
 ZAR  HZ I         014 30.45         3.9 0.22                           203 294 
                                                                                
