 2017  4 8 0917  1.4 L   6.772 -73.127143.8  RSN  6 0.3 1.1LRSN                1
 GAP=140        0.54       3.3     3.4  5.9  0.3265E+01  0.5109E+01 -0.4709E+01E
 Epicentro: LOS SANTOS - SANTANDER                                             3
 ACTION:UPD 17-05-30 21:09 OP:jn   STATUS:               ID:20170408091701 L   I
 OLDACT:UP  17-04-08 17:58 OP:and  STATUS:               ID:20170408090741d    3
 OLDACT:UP  17-04-08 17:58 OP:and  STATUS:               ID:20170408090741d    3
 OLDACT:UP  17-04-08 17:57 OP:and  STATUS:               ID:20170408090741d    3
 OLDACT:DUP 17-04-08 17:54 OP:and  STATUS:               ID:20170408090741d    3
 OLDACT:UP  17-04-08 17:53 OP:and  STATUS:               ID:20170408090740d    3
 OLDACT:UP  17-04-08 17:53 OP:and  STATUS:               ID:20170408090740d    3
 OLDACT:UP  17-04-08 17:53 OP:and  STATUS:               ID:20170408090740d    3
 OLDACT:UP  17-04-08 17:53 OP:and  STATUS:               ID:20170408090740d    3
 OLDACT:UP  17-04-08 17:52 OP:and  STATUS:               ID:20170408090740d    3
 OLDACT:UP  17-04-08 17:52 OP:and  STATUS:               ID:20170408090740d    3
 OLDACT:UP  17-04-08 17:51 OP:and  STATUS:               ID:20170408090740d    3
 OLDACT:UP  17-04-08 17:51 OP:and  STATUS:               ID:20170408090740d    3
 OLDACT:UP  17-04-08 17:51 OP:and  STATUS:               ID:20170408090740d    3
 OLDACT:UP  17-04-08 17:50 OP:and  STATUS:               ID:20170408090740d    3
 OLDACT:UP  17-04-08 17:50 OP:and  STATUS:               ID:20170408090740d    3
 OLDACT:UP  17-04-08 17:49 OP:and  STATUS:               ID:20170408090740d    3
 OLDACT:UP  17-04-08 17:49 OP:and  STATUS:               ID:20170408090740d    3
 OLDACT:DUP 17-04-08 17:48 OP:and  STATUS:               ID:20170408090740d    3
 2017-04-08-0908-00M.COL___365                                                 6
 STAT SP IPHASW D HRMM SECON CODA AMPLIT PERI AZIMU VELO AIN AR TRES W  DIS CAZ7
 BAR2 EZ EP        917 20.80                             171    0.0110 20.8 197 
 BRR  HZ EP        917 22.65                             151    0.0810 74.5 300 
 BRR  HN ES   2    917 39.43                             151    0.38 5 74.5 300 
 PAM  EZ EP        917 23.74                             150    0.2210 78.5  37 
 PAM  EN ES   2    917 39.91                             150   -0.83 5 78.5  37 
 PAM  EZ I         917 42.79         1.9 0.46            152           78.5  37 
 RUS  HZ EP        917 24.77                             144   -0.0010 97.4 177 
 RUS  HN ES        917 42.99                             144    0.0210 97.4 177 
 PTB  HZ EP        917 28.20                             131   -0.18 9  149 260 
 PTB  HN ES   3    917 48.62                             131   -0.78 2  149 260 
 ZAR  HZ EP        917 33.87                             122   -0.21 8  207 293 
 ZAR  HN ES        917 59.72                             122    0.18 8  207 293 
 ZAR  HZ I         918  4.54         1.5 0.34            123            207 293 
                                                                                
