 2017 11 8 0131 54.8 L   6.811 -73.137146.2  RSN  9 0.2 1.8LRSN                1
 GAP=112        0.61       2.3     2.8  5.1  0.5134E+00  0.4399E+01  0.2556E+01E
 Epicentro: LOS SANTOS - SANTANDER                                             3
 ACTION:UPD 17-12-12 19:53 OP:rebc STATUS:               ID:20171108013154 L   I
 OLDACT:UP  17-11-08 15:38 OP:dnl  STATUS:               ID:20171108012738     3
 OLDACT:UP  17-11-08 15:37 OP:dnl  STATUS:               ID:20171108012738     3
 OLDACT:REG 17-11-08 14:52 OP:dnl  STATUS:               ID:20171108012738     3
 2017-11-08-0128-00M.COL___417                                                 6
 STAT SP IPHASW D HRMM SECON CODA AMPLIT PERI AZIMU VELO AIN AR TRES W  DIS CAZ7
 BAR2 EZ EP        132 14.44                             170   -0.1210 24.7 192 
 BAR2 EZ I         132 30.66        15.6 0.30            170           24.7 192 
 PAM  EZ EP        132 17.38                             151    0.3710 75.8  40 
 PAM  EE ES        132 34.30                             151   -0.0110 75.8  40 
 PAM  EZ I         132 36.57        10.8 0.54            153           75.8  40 
 RUS  HZ EP        132 18.35                             144   -0.3710  102 177 
 RUS  HN ES        132 37.31                             144   -0.0410  102 177 
 RUS  HZ I         132 38.68         7.4 0.50            145            102 177 
 PTB  HZ EP        132 21.91                             132   -0.05 9  149 258 
 PTB  HN ES   4    132 41.59                             132   -1.51 0  149 258 
 PTB  HZ I         132 48.62         4.4 0.40            133            149 258 
 SPBC HZ EP        132 23.39                             129   -0.14 9  165 219 
 SPBC HE ES        132 46.38                             129    0.48 9  165 219 
 SPBC HZ I         132 49.84         9.7 0.18            130            165 219 
 YPLC HZ EP        132 24.87                             127    0.14 9  177 152 
 YPLC HE ES        132 47.90                             127   -0.14 9  177 152 
 YPLC HZ I         132 58.86         4.0 0.46            128            177 152 
 ZAR  HZ EP   4    132 30.49                             122    3.13 0  204 292 
 ZAR  HE ES        132 52.52                             122   -0.21 9  204 292 
 ZAR  HZ I         132 57.75         7.0 0.42            124            204 292 
 CHI  HZ EP        132 32.97                             117    0.25 8  250 195 
 CHI  HN ES        133  2.16                             117   -0.11 8  250 195 
 CHI  HZ I         133  5.45         4.3 0.64            119            250 195 
 GUY2CHZ EP   4    132 40.69                             112    2.05 0  303 235 
 GUY2CHE ES   4    133 15.84                             112    3.03 0  303 235 
 GUY2CHZ I         133 20.69         2.9 0.34                           303 235 
 GUY2CHN I         133 23.47         3.5 0.48                           303 235 
                                                                                
