 2016 11 8 0551 21.4 L   6.706 -73.119139.0  RSN  5 0.4 1.4LRSN                1
 GAP=176        0.97       7.9     4.7  7.1 -0.8566E+01  0.9618E+01 -0.2054E+01E
 Epicentro: JORDAN - SANTANDER                                                 3
 ACTION:UPD 17-10-26 21:05 OP:lp   STATUS:               ID:20161108055121 L   I
 OLDACT:REG 16-11-08 12:25 OP:lv   STATUS:               ID:20161108054742     3
 2016-11-08-0548-00M.COL___349                                                 6
 STAT SP IPHASW D HRMM SECON CODA AMPLIT PERI AZIMU VELO AIN AR TRES W  DIS CAZ7
 BAR2 EZ EP        551 40.46                             174    0.3710 14.5 209 
 BAR2 EZ ES        551 54.60                             174   -0.0410 14.5 209 
 BAR2 EZ I         551 56.80         5.5 0.21            172           14.5 209 
 BRR  HZ IP     C  551 42.23                             149   -0.1010 79.1 304 
 BRR  HE ES        551 59.13                             149    0.4910 79.1 304 
 BRR  HZ I         552  0.42         3.9 0.14            147           79.1 304 
 PAM  EZ EP        551 43.41                             147    0.0710 83.9  33 
 PAM  EN ES        552  0.06                             147   -0.3710 83.9  33 
 PAM  EZ I         552  2.20         5.7 0.40            150           83.9  33 
 PTB  HZ EP        551 47.35                             130   -0.62 9  149 263 
 PTB  HE ES        552  8.57                             130   -0.11 9  149 263 
 PTB  HZ I         552 13.59         3.1 0.17            131            149 263 
 ZAR  HZ EP        551 54.83                             120    0.67 8  211 294 
 ZAR  HE ES        552 19.31                             120   -0.38 8  211 294 
 ZAR  HZ I         552 24.63         3.6 0.42            121            211 294 
                                                                                
