 2017  6 8 0225 28.4 L   6.772 -73.183149.4  RSN  8 0.4 1.6LRSN                1
 GAP=207        0.93       5.1     4.5  6.6  0.4878E+01  0.1139E+01  0.4590E+01E
 Epicentro: LOS SANTOS - SANTANDER                                             3
 ACTION:UPD 17-09-14 16:50 OP:jn   STATUS:               ID:20170608022528 L   I
 OLDACT:UP  17-06-08 14:56 OP:edw  STATUS:               ID:20170608021735     3
 OLDACT:UP  17-06-08 14:55 OP:edw  STATUS:               ID:20170608021735     3
 OLDACT:REG 17-06-08 12:49 OP:edw  STATUS:               ID:20170608021735     3
 2017-06-08-0218-00M.COL___365                                                 6
 STAT SP IPHASW D HRMM SECON CODA AMPLIT PERI AZIMU VELO AIN AR TRES W  DIS CAZ7
 BRR  HZ EP     C  225 49.85                             154    0.0310 69.3 302 
 BRR  HN ES        226  6.86                             154    0.3110 69.3 302 
 RUS  HZ EP        225 51.82                             145   -0.4810 97.8 174 
 RUS  HN ES        226 10.81                             145   -0.1510 97.8 174 
 RUS  HZ I         226 11.49         4.8 0.26            145           97.8 174 
 PTB  HZ EP        225 54.95                             134   -0.29 9  143 260 
 PTB  HN ES        226 15.75                             134   -0.45 9  143 260 
 PTB  HZ I         226 21.93         3.4 0.20            132            143 260 
 SPBC HZ EP        225 57.34                             131    0.64 9  158 219 
 SPBC HN ES        226 19.47                             131    0.68 9  158 219 
 SPBC HZ I         226 26.26         5.9 0.28            129            158 219 
 YPLC HZ EP     D  225 58.30                             128   -0.08 9  176 150 
 ZAR  HZ EP   4    226  3.43                             124    2.62 0  201 293 
 ZAR  HN ES   2    226 26.04                             124   -0.06 4  201 293 
 ZAR  HZ I         226 31.22         5.7 0.40            123            201 293 
 NOR  HZ EP        226  4.16                             120    0.38 8  230 234 
 NOR  HN ES        226 30.92                             120   -0.47 8  230 234 
 NOR  HZ I         226 37.33         2.2 0.14            119            230 234 
 CBOC HZ EP        226 15.09                             111    0.19 7  329 252 
 CBOC HN ES        226 50.91                             111   -0.27 7  329 252 
                                                                                
