 2014  1 8 0455 16.6 L   6.829 -73.155144.9  RSN 14 0.5 1.9LRSN                1
 GAP=134        1.08       2.7     3.8  5.7 -0.2528E+01  0.9119E+01 -0.4028E+00E
 Epicentro: LOS SANTOS - SANTANDER                                             3
 ACTION:UPD 14-03-13 09:52 OP:ep   STATUS:               ID:20140108045516 L   I
 OLDACT:REG 14-01-08 07:28 OP:carl STATUS:               ID:20140108045000     3
 2014-01-08-0450-00M.COL___285                                                 6
 STAT SP IPHASW D HRMM SECON CODA AMPLIT PERI AZIMU VELO AIN AR TRES W  DIS CAZ7
 BAR2 SZ EP        455 36.26                             169    0.0410 26.4 186 
 BAR2 SZ ES        455 51.56                             169    0.0610 26.4 186 
 BAR2 SZ I         455 53.06        25.0 0.46            168           26.4 186 
 PAM  SZ EP        455 39.25                             151    0.6010 75.6  42 
 PAM  SN ES        455 56.50                             151    0.6810 75.6  42 
 PAM  SZ I         455 58.33        16.0 0.18            157           75.6  42 
 RUS  HZ EP        455 40.13                             143   -0.4110  104 176 
 RUS  HN ES        455 59.21                             143    0.0310  104 176 
 RUS  HZ I         456  0.59         8.7 0.22            146            104 176 
 PTB  HZ EP        455 43.23                             132   -0.26 9  147 258 
 PTB  HN ES        456  4.48                             132    0.04 9  147 258 
 PTB  HZ I         456 11.79        10.1 0.42            132            147 258 
 OCA  HZ EP        455 44.53                             130   -0.03 9  157 353 
 OCA  HN ES        456  5.45                             130   -0.90 9  157 353 
 OCA  HZ I         456 10.18         9.4 0.24            133            157 353 
 SPBC HZ EP        455 45.26                             128    0.02 9  165 218 
 SPBC HN ES        456  7.21                             128   -0.34 9  165 218 
 SPBC HZ I         456 12.26        17.6 0.24            130            165 218 
 ZAR  HZ EP        455 48.95                             122    0.15 9  202 291 
 ZAR  HN ES        456 14.63                             122    0.75 9  202 291 
 ZAR  HZ I         456 21.79         8.0 0.32            124            202 291 
 NOR  HZ EP        455 52.26                             118   -0.16 8  236 234 
 NOR  HE ES        456 19.48                             118   -0.86 8  236 234 
 NOR  HZ I         456 23.91         5.4 0.18            120            236 234 
 SML  HZ EP        455 52.40                             118   -0.45 8  240 335 
 SML  HN ES        456 20.59                             118   -0.50 8  240 335 
 SML  HZ I         456 24.12        17.6 0.10            120            240 335 
 CHI  HZ EP        455 54.23                             117   -0.36 8  251 195 
 CHI  HN ES        456 23.87                             117   -0.33 8  251 195 
 CHI  HZ I         456 28.14         2.9 0.20            120            251 195 
 HEL  HZ EP        455 57.53                             115    0.75 8  272 255 
 HEL  HN ES        456 27.55                             115   -0.54 8  272 255 
 HEL  HZ I         456 34.64         4.4 0.56            116            272 255 
 GUY2CHZ EP        456  0.75                             112    0.43 7  302 234 
 GUY2CHN ES        456 35.16                             112    0.77 7  302 234 
 RREF HZ EP        456  3.26                             111    0.37 7  323 229 
 RREF HE ES        456 39.06                             111    0.10 7  323 229 
 RREF HZ I         456 47.20         6.2 0.26            113            323 229 
 CBOC HZ EP        456  4.01                             110    0.50 7  334 252 
 CBOC HE ES        456 40.34                             110    0.27 7  334 252 
 CBOC HZ I         456 46.69         2.0 0.44            112            334 252 
                                                                                
