 2015 12 8 0739 14.7 L   6.774 -73.155150.1  RSN  8 0.4 1.5LRSN                1
 GAP=137        0.94       5.0     4.4  6.3 -0.4844E+01  0.5812E+01  0.2634E+01E
 Epicentro: LOS SANTOS - SANTANDER                                             3
 ACTION:UPD 16-02-04 15:03 OP:cam  STATUS:               ID:20151208073914 L   I
 OLDACT:REG 15-12-08 13:25 OP:ar   STATUS:               ID:20151208073739     3
 2015-12-08-0737-39M.COL___322                                                 6
 STAT SP IPHASW D HRMM SECON CODA AMPLIT PERI AZIMU VELO AIN AR TRES W  DIS CAZ7
 BAR2 EZ EP        739 34.65                             172   -0.1110 20.3 189 
 BAR2 EZ ES        739 49.97                             172   -0.4710 20.3 189 
 BAR2 EZ I         739 51.49         6.0 0.20            171           20.3 189 
 BRR  HZ EP        739 36.69                             153    0.3710 71.7 301 
 BRR  HN ES        739 53.96                             153    0.7610 71.7 301 
 BRR  HZ I         739 55.45         6.6 0.32            152           71.7 301 
 PAM  EZ EP        739 37.76                             151    0.2410 80.3  39 
 PAM  EN ES        739 55.09                             151   -0.2410 80.3  39 
 PAM  EZ I         739 56.97         3.9 0.68            154           80.3  39 
 RUS  HZ EP   2    739 38.44                             145   -0.21 5 97.8 175 
 RUS  HN ES   4    739 57.51                             145    0.15 0 97.8 175 
 RUS  HZ I         739 58.22         2.7 0.52            147           97.8 175 
 PTB  HZ EP        739 41.55                             133   -0.31 9  146 260 
 PTB  HN ES        740  2.69                             133   -0.37 9  146 260 
 PTB  HZ I         740  5.11         4.6 0.30            133            146 260 
 SPBC HZ EP        739 43.37                             130    0.13 9  160 219 
 SPBC HN ES        740  5.92                             130    0.40 9  160 219 
 SPBC HZ I         740 10.66         5.4 0.16            131            160 219 
 ZAR  HZ EP        739 47.27                             123   -0.15 9  204 293 
 ZAR  HN ES        740 12.60                             123   -0.36 9  204 293 
 ZAR  HZ I         740 19.71         4.6 0.26            124            204 293 
 GUY2CHZ EP   4    740  0.74                             113    2.54 0  299 235 
 GUY2CHN ES   4    740 35.49                             113    3.33 0  299 235 
 GUY2CHZ I         740 40.66         1.6 0.28                           299 235 
                                                                                
