 2017 12 8 0311 57.2 L   6.725 -73.104141.9  RSN  5 0.3 1.5LRSN                1
 GAP=163        0.65       3.7     4.1  5.0 -0.8248E+01  0.1115E+01  0.5565E+01E
 Epicentro: JORDAN - SANTANDER                                                 3
 ACTION:UPD 18-01-04 13:18 OP:rebc STATUS:               ID:20171208031157 L   I
 OLDACT:UP  17-12-08 14:24 OP:dani STATUS:               ID:20171208030739     3
 OLDACT:REG 17-12-08 13:17 OP:dani STATUS:               ID:20171208030739     3
 2017-12-08-0308-00M.COL___491                                                 6
 STAT SP IPHASW D HRMM SECON CODA AMPLIT PERI AZIMU VELO AIN AR TRES W  DIS CAZ7
 BAR2 EZ EP        312 16.15                             173   -0.0810 17.0 210 
 BAR2 EZ ES        312 31.22                             173    0.1310 17.0 210 
 BAR2 EZ I         312 32.44         7.4 0.18            169           17.0 210 
 PAM  EZ EP        312 19.06                             149   -0.1710 81.4  33 
 PAM  EE ES        312 36.47                             149    0.0410 81.4  33 
 PAM  EZ I         312 38.10         9.0 0.54            154           81.4  33 
 PTB  HZ EP        312 23.82                             130   -0.30 9  151 262 
 PTB  HE ES        312 45.18                             130    0.04 9  151 262 
 PTB  HZ I         312 48.64         2.1 0.16            132            151 262 
 SPBC HZ EP        312 25.38                             129    0.32 9  160 222 
 SPBC HN ES        312 46.80                             129   -0.01 9  160 222 
 SPBC HZ I         312 50.97         4.9 0.13            129            160 222 
 CHI  HZ EP        312 34.45                             117    0.52 8  242 197 
 CHI  HN ES        313  2.12                             117   -0.47 8  242 197 
 CHI  HZ I         313  9.95         1.9 0.26            118            242 197 
                                                                                
