 2015  5 8 0607 33.8 L   6.796 -73.152143.0  RSN  7 0.4 1.8LRSN                1
 GAP=182        1.12       3.6     6.9  7.4  0.3299E+01  0.2294E+01  0.2347E+01E
 Epicentro: LOS SANTOS - SANTANDER                                             3
 ACTION:UPD 15-09-10 22:02 OP:cam  STATUS:               ID:20150508060733 L   I
 OLDACT:REG 15-05-08 13:14 OP:drio STATUS:               ID:20150508055747     3
 2015-05-08-0557-47M.COL___276                                                 6
 STAT SP IPHASW D HRMM SECON CODA AMPLIT PERI AZIMU VELO AIN AR TRES W  DIS CAZ7
 BAR2 EZ EP        6 7 53.27                             171    0.1410 22.8 189 
 BAR2 EZ ES        6 8  7.97                             171   -0.2010 22.8 189 
 BAR2 EZ I         6 8  9.52        17.0 0.18            165           22.8 189 
 BRR  HN ES        6 8 11.61                             152    0.6910 70.8 299 
 RUS  HZ EP        6 7 57.36                             143    0.0710  100 176 
 RUS  HN ES        6 8 15.81                             143    0.2310  100 176 
 RUS  HZ I         6 8 17.03         6.3 0.30            142            100 176 
 OCA  HZ EP        6 8  2.38                             129    0.41 9  161 353 
 OCA  HN ES        6 8 22.96                             129   -0.96 9  161 353 
 OCA  HZ I         6 8 26.43        13.9 0.20            128            161 353 
 SPBC HZ EP        6 8  2.35                             129    0.30 9  162 219 
 SPBC HN ES        6 8 23.32                             129   -0.74 9  162 219 
 SPBC HZ I         6 8 30.04         8.3 0.32            125            162 219 
 ZAR  HN ES        6 8 31.29                             122    0.10 9  204 292 
 ZAR  HZ I         6 8 40.26         5.6 0.36            119            204 292 
 CHI  HZ EP        6 8 11.22                             117   -0.10 8  248 195 
 CHI  HN ES        6 8 40.34                             117   -0.21 8  248 195 
 CHI  HZ I         6 8 47.75         2.4 0.46            115            248 195 
                                                                                
