 2016  3 8 0658 57.8 L   6.806 -73.151149.3  RSN  9 0.2 1.5LRSN                1
 GAP=136        0.81       2.6     3.5  5.2 -0.1031E+01  0.4745E+01  0.9215E+00E
 Epicentro: LOS SANTOS - SANTANDER                                             3
 ACTION:UPD 16-05-13 21:22 OP:cam  STATUS:               ID:20160308065857 L   I
 OLDACT:REG 16-03-08 14:33 OP:cara STATUS:               ID:20160308065746     3
 2016-03-08-0657-46M.COL___273                                                 6
 STAT SP IPHASW D HRMM SECON CODA AMPLIT PERI AZIMU VELO AIN AR TRES W  DIS CAZ7
 BAR2 EZ EP        659 17.68                             170   -0.1510 23.9 188 
 BAR2 EZ ES        659 33.31                             170   -0.1710 23.9 188 
 BAR2 EZ I         659 35.23         5.0 0.20            171           23.9 188 
 PAM  EZ EP        659 20.42                             152    0.0810 77.2  40 
 PAM  EN ES        659 37.94                             152   -0.0210 77.2  40 
 PAM  EZ I         659 42.25         3.3 0.46            154           77.2  40 
 RUS  HZ EP        659 21.89                             145   -0.0210  101 176 
 RUS  HN ES        659 40.79                             145    0.0410  101 176 
 RUS  HZ I         659 41.94         2.4 0.38            148            101 176 
 PTB  HZ EP        659 24.65                             133   -0.33 9  147 259 
 PTB  HN ES        659 45.92                             133   -0.29 9  147 259 
 PTB  HZ I         659 47.95         3.4 0.14            133            147 259 
 OCA  HN ES        659 48.90                             131    0.38 9  160 353 
 OCA  HZ I         659 53.20         6.5 0.20            132            160 353 
 SPBC HZ EP        659 26.51                             130   -0.04 9  163 219 
 SPBC HN ES        659 49.12                             130    0.12 9  163 219 
 SPBC HZ I         659 55.74         6.3 0.24            132            163 219 
 ZAR  HZ EP        659 30.19                             123   -0.16 9  203 292 
 ZAR  HE ES        659 56.12                             123    0.34 9  203 292 
 ZAR  HZ I         7 0  6.53         2.8 0.34            124            203 292 
 CHI  HZ EP        659 35.61                             118   -0.10 8  249 195 
 CHI  HZ I         659 36.44         1.3 0.34            120            249 195 
 CHI  HN ES        7 0  5.82                             118    0.51 8  249 195 
 GUY2CHZ EP   9    659 43.99                             113    2.47 0  301 235 
 GUY2CHN ES        7 0 19.34                                    1.22 7  301 235 
 GUY2CHZ I         7 0 24.50         2.3 0.76                           301 235 
                                                                                
