 2010 11 8 0910 58.1 L   6.796 -73.062148.0  RSN  7 0.2 1.8LRSN                1
 GAP=168        0.50       3.1     7.7  6.4  0.2510E+01 -0.1000E+02 -0.2600E+01E
 Epicentro: LOS SANTOS - SANTANDER                                             3
 ACTION:UP  10-12-17 16:51 OP:REBC STATUS:               ID:20101108091058 L   I
 2010-11-08-0906-21S.COL___128                                                 6
 STAT SP IPHASW D HRMM SECON CODA AMPLIT PERI AZIMU VELO SNR AR TRES W  DIS CAZ7
 BAR2 SZ EP   1    911 17.95                             170    -0.1 7   26 211 
 BAR2 SZ ES   2    911 33.22                             170    -0.4 5   26 211 
 BAR2 SZ I         911 34.53        12.7 0.28                            26 211 
 BTL  SZ EP   1    911 18.46                             169     0.4 7   26 301 
 BRR  HZ EP        911 19.91                             150     0.010   80 296 
 BRR  HN ES   2    911 37.25                             150     0.2 5   80 296 
 BRR  HZ I         911 38.62        14.6 0.09                            80 296 
 RUS  HZ EP        911 21.88                             145    -0.110  100 181 
 RUS  HN ES   2    911 40.89                             145     0.2 5  100 181 
 RUS  HZ I         911 43.51         4.6 0.36                           100 181 
 GUE  SZ EP   2    911 23.03                             140     0.1 5  115   8 
 GRA  SZ EP   2    911 23.59                             138     0.2 5  124  13 
 GRA  SZ ES   2    911 43.13                             138     0.1 5  124  13 
 GRA  SZ I         911 44.66         9.1 0.51                           124  13 
 OCA  SZ EP   1    911 26.48                             130    -0.2 7  162 350 
 OCA  SZ ES   2    911 48.80                             130    -0.3 5  162 350 
 OCA  SZ I         911 53.12         7.9 0.18                           162 350 
                                                                                
