 2011 12 8 0812 57.6 L   6.756 -73.072138.7  RSN  4 0.2 1.4LRSN                1
 GAP=148        0.50       3.6     6.2  7.2 -0.3267E+01  0.7426E+01  0.1178E+01E
 Epicentro: LOS SANTOS - SANTANDER                                             3
 ACTION:UPD 12-07-13 16:14 OP:ep   STATUS:               ID:20111208081257 L   I
 2011-12-08-0810-00M.COL___170                                                 6
 STAT SP IPHASW D HRMM SECON CODA AMPLIT PERI AZIMU VELO AIN AR TRES W  DIS CAZ7
 BAR2 SZ EP   1    813 16.10                             171   -0.28 7 21.9 214 
 BAR2 SZ I         813 25.59         6.5 0.61                          21.9 214 
 PAM  SZ EP   1    813 19.20                             150    0.16 7 76.5  32 
 PAM  SN ES   1    813 35.71                             150   -0.04 7 76.5  32 
 BRR  HZ EP   1    813 18.37                             148   -0.24 7 80.7 299 
 BRR  HZ I         813 18.83         9.6 0.14                          80.7 299 
 BRR  HN ES   2    813 35.37                             148    0.40 5 80.7 299 
 RUS  HZ EP   1    813 20.63                             144    0.31 7 95.5 181 
 RUS  HN ES   1    813 37.92                             144   -0.09 7 95.5 181 
 RUS  HZ I         813 39.53         2.9 0.36                          95.5 181 
                                                                                
