 2017  8 8 0112 46.2 L   6.670 -73.230144.7  RSN  4 0.4 1.1LRSN                1
 GAP=217        0.96       7.6     7.7  9.7  0.3905E+02  0.2646E+01 -0.3222E+01E
 Epicentro: BARICHARA - SANTANDER                                              3
 ACTION:UPD 17-09-04 20:17 OP:rebc STATUS:               ID:20170808011246 L   I
 OLDACT:REG 17-08-08 12:57 OP:dani STATUS:               ID:20170808010739     3
 2017-08-08-0108-00M.COL___390                                                 6
 STAT SP IPHASW D HRMM SECON CODA AMPLIT PERI AZIMU VELO AIN AR TRES W  DIS CAZ7
 BRR  HZ EP        113  6.73                             152   -0.5510 72.0 312 
 BRR  HE ES        113 24.05                             152    0.3310 72.0 312 
 BRR  HZ I         113 28.83         6.0 0.31            153           72.0 312 
 RUS  HZ EP        113  8.92                             147   -0.0210 87.4 169 
 RUS  HE ES        113 26.67                             147   -0.0110 87.4 169 
 RUS  HZ I         113 27.37         2.6 0.36            153           87.4 169 
 PTB  HZ EP        113 12.74                             134    0.67 9  136 264 
 PTB  HE ES        113 31.90                             134   -0.34 9  136 264 
 PTB  HZ I         113 35.54         0.7 0.16            138            136 264 
 ZAR  HN ES        113 43.32                             122   -0.05 9  202 297 
                                                                                
