 2010 12 8 0856 42.9 L   6.781 -73.144142.0  RSN 13 0.4 2.5LRSN                1
 GAP=136        0.72       3.3     6.6  7.5 -0.9619E+01  0.1568E+02  0.5384E+01E
 Epicentro: LOS SANTOS - SANTANDER                                             3
 ACTION:UP  11-01-14 15:23 OP:pat  STATUS:               ID:20101208085642 L   I
 2010-12-08-0852-46S.COL___135                                                 6
 STAT SP IPHASW D HRMM SECON CODA AMPLIT PERI AZIMU VELO SNR AR TRES W  DIS CAZ7
 BTL  SZ EP        857  2.47                             171     0.410   20 318 
 BAR2 SZ EP        857  2.09                             171     0.010   21 192 
 BAR2 SZ ES   2    857 16.25                             171    -0.7 5   21 192 
 BAR2 SZ I         857 18.90        65.1 0.30                            21 192 
 GIR2 SZ EP   1    857  2.34                             166     0.1 7   33 350 
 GRA  SZ EP   1    857  7.74                             136    -0.2 7  128  17 
 GRA  SZ ES   1    857 27.68                             136     0.1 7  128  17 
 GRA  SZ I         857 29.84        35.7 0.31                           128  17 
 OCA  SZ EP        857 10.61                             129    -0.5 9  162 353 
 OCA  SZ ES   1    857 33.47                             129     0.3 7  162 353 
 OCA  SZ I         857 38.38        62.9 0.24                           162 353 
 YOP  SZ EP   1    857 12.49                             126     0.0 7  177 153 
 YOP  SZ I         857 13.29        13.7 0.51                           177 153 
 NOR  SZ EP   1    857 18.08                             118    -0.2 6  234 235 
 NOR  SN ES   2    857 45.69                             118    -0.3 4  234 235 
 CHI  HZ EP   1    857 19.80                             117    -0.4 6  247 195 
 CHI  HN ES   2    857 49.97                             117     0.7 4  247 195 
 CHI  HZ I         857 55.42        10.9 0.40                           247 195 
 ROSC BZ EP   2    857 21.32                             116     0.7 4  251 211 
 ROSC BN ES   1    857 50.08                             116     0.0 6  251 211 
 ROSC BZ I         857 57.07        30.9 0.30                           251 211 
 HEL  HZ EP   1    857 23.20                             114     0.3 6  272 256 
 HEL  HZ I         858  1.83        19.0 0.47                           272 256 
 RREF HZ EP   1    857 28.73                             110     0.0 5  321 230 
 RREF HZ I         858 11.15        19.5 0.18                           321 230 
 DBB  SZ EP   2    857 30.20                             109    -0.1 3  340 275 
 PRA  HZ EP   1    857 35.71                             106    -0.4 4  390 210 
 PRA  HN ES   1    858 17.61                             106     0.0 4  390 210 
                                                                                
