 2017  7 8 0856  6.7 L   6.730 -73.188156.3  RSN  5 0.1 1.4LRSN                1
 GAP=232        0.42       2.8     2.8  4.4  0.6584E+00  0.2236E+01 -0.7540E+00E
 Epicentro: VILLANUEVA - SANTANDER                                             3
 ACTION:UPD 17-08-30 15:31 OP:rebc STATUS:               ID:20170708085606 L   I
 OLDACT:UP  17-07-08 20:34 OP:edw  STATUS:               ID:20170708084746d    3
 OLDACT:DUP 17-07-08 20:31 OP:edw  STATUS:               ID:20170708084746d    3
 OLDACT:UP  17-07-08 20:30 OP:edw  STATUS:               ID:20170708084745d    3
 OLDACT:DUP 17-07-08 20:25 OP:edw  STATUS:               ID:20170708084745d    3
 OLDACT:UP  17-07-08 20:24 OP:edw  STATUS:               ID:20170708084744     3
 OLDACT:UP  17-07-08 20:23 OP:edw  STATUS:               ID:20170708084744     3
 OLDACT:REG 17-07-08 13:34 OP:edw  STATUS:               ID:20170708084744     3
 2017-07-08-0848-00M.COL___368                                                 6
 STAT SP IPHASW D HRMM SECON CODA AMPLIT PERI AZIMU VELO AIN AR TRES W  DIS CAZ7
 BAR2 EZ EP        856 27.54                             174    0.0910 15.2 178 
 BAR2 EZ ES        856 43.47                             174   -0.1810 15.2 178 
 BAR2 EZ I         856 45.12         6.1 0.24            172           15.2 178 
 BRR  HZ EP        856 28.92                             154   -0.0610 71.4 306 
 BRR  HN ES        856 46.60                             154    0.2210 71.4 306 
 PTB  HN ES        856 55.27                             136   -0.06 9  142 262 
 PTB  HZ I         857  1.27         2.0 0.28            135            142 262 
 SPBC HN ES        856 57.51                             133    0.08 9  154 219 
 ZAR  HN ES        857  5.36                             125   -0.11 9  203 295 
                                                                                
