 2017 10 8 0928 10.3 L   6.846 -73.136140.0  RSN  7 0.4 1.1LRSN                1
 GAP=135        0.86       3.7     4.7  6.4 -0.2359E+01  0.1447E+02 -0.1207E+01E
 Epicentro: LOS SANTOS - SANTANDER                                             3
 ACTION:UPD 17-11-07 19:29 OP:rebc STATUS:               ID:20171008092810 L   I
 OLDACT:REG 17-10-08 13:02 OP:dhb  STATUS:               ID:20171008092739     3
 2017-10-08-0928-00M.COL___383                                                 6
 STAT SP IPHASW D HRMM SECON CODA AMPLIT PERI AZIMU VELO AIN AR TRES W  DIS CAZ7
 BAR2 EZ EP        928 28.95                             168   -0.3910 28.5 190 
 BAR2 EZ ES        928 44.18                             168   -0.0310 28.5 190 
 BAR2 EZ I         928 45.59         1.7 0.01            174           28.5 190 
 PAM  EZ IP     D  928 31.87                             151    0.2610 72.8  41 
 PAM  EN ES        928 48.35                             151    0.1110 72.8  41 
 PAM  EZ I         928 51.32         2.5 0.48            150           72.8  41 
 RUS  HZ EP        928 33.55                             141   -0.3010  106 177 
 RUS  HE ES        928 52.44                             141    0.2110  106 177 
 RUS  HZ I         928 53.66         3.5 0.30            156            106 177 
 SPBC HZ EP        928 38.14                             127   -0.66 9  168 218 
 SPBC HN ES        929  1.32                             127    0.28 9  168 218 
 SPBC HZ I         929  3.74         2.4 0.27            136            168 218 
 ZAR  HZ EP        928 42.55                             121    0.28 9  203 291 
 ZAR  HN ES        929  7.01                             121   -0.21 9  203 291 
 ZAR  HZ I         929  9.59         1.1 0.14            124            203 291 
 CHI  HZ I         928 49.16         0.4 0.15            125            254 195 
 CHI  HE ES   3    929 19.16                             115    1.31 2  254 195 
 GUY2CHZ EP        928 54.76                             111    0.69 7  305 234 
 GUY2CHE ES   4    929 32.02                             111    3.80 0  305 234 
 GUY2CHZ I         929 37.24         0.9 0.46                           305 234 
                                                                                
