 2013  2 8 0643 51.0 L   5.907 -73.686113.5  RSN  5 0.5 1.5LRSN                1
 GAP=127        0.85       4.1     8.1 13.9  0.4210E+01  0.1546E+02  0.3495E+01E
 Epicentro: PUENTE NACIONAL - SANTANDER                                        3
 ACTION:UPD 13-03-12 09:31 OP:ep   STATUS:               ID:20130208064351 L   I
 2013-02-08-0640-00M.COL___241                                                 6
 STAT SP IPHASW D HRMM SECON CODA AMPLIT PERI AZIMU VELO AIN AR TRES W  DIS CAZ7
 RUS  HZ EP   1    644  8.77                             148   -0.46 7 66.8  91 
 RUS  HN ES   2    644 22.79                             148   -0.61 5 66.8  91 
 BAR2 SZ EP   1    644 11.66                             138    0.77 7 94.1  36 
 BAR2 SZ I         644 27.53        12.0 0.44                          94.1  36 
 PTB  HZ EP   2    644 11.37                             133   -0.61 5  110 309 
 PTB  HN ES   2    644 28.14                             133   -0.17 5  110 309 
 PTB  HN I         644 35.69         4.1 0.18            125            110 309 
 BRR  HZ EP   1    644 13.79                             127   -0.29 7  133 359 
 BRR  HN ES   1    644 32.39                             127    0.35 7  133 359 
 BRR  HN I         644 33.06         6.6 0.16            119            133 359 
 CHI  HZ EP   1    644 15.26                             125   -0.22 7  141 182 
 CHI  HN ES   1    644 35.04                             125    0.50 7  141 182 
 CHI  HN I         644 37.98         2.3 0.26            120            141 182 
                                                                                
