 2012 11 8 0450 24.7 L   6.795 -73.161149.6  RSN  6 0.5 1.6LRSN                1
 GAP=182        1.39       6.7     9.2  9.6  0.1972E+02  0.1221E+02 -0.2157E+01E
 Epicentro: LOS SANTOS - SANTANDER                                             3
 ACTION:UPD 12-12-05 15:32 OP:}ep  STATUS:               ID:20121108045025 L   I
 2012-11-08-0450-00M.COL___230                                                 6
 STAT SP IPHASW D HRMM SECON CODA AMPLIT PERI AZIMU VELO AIN AR TRES W  DIS CAZ7
 BAR2 SZ EP        450 44.29                             171   -0.4610 22.6 186 
 BAR2 SZ ES        450 59.95                             171   -0.4610 22.6 186 
 BAR2 SZ I         451  2.23         8.3 0.20                          22.6 186 
 GIR2 SZ EP        450 44.76                             167   -0.0510 31.6 353 
 GIR2 SZ ES        451  0.85                             167    0.3410 31.6 353 
 BRR  HZ EP        450 46.35                             153    0.1810 70.0 300 
 BRR  HZ I         450 46.61         6.8 0.24                          70.0 300 
 BRR  HN ES        451  3.78                             153    0.8410 70.0 300 
 RUS  HZ EP        450 49.75                             145    0.9810  100 175 
 RUS  HN ES        451  6.92                             145   -0.6510  100 175 
 RUS  HN I         451  8.72         3.8 0.16                           100 175 
 PTB  HZ EP        450 51.67                             133   -0.13 9  146 259 
 PTB  HN ES        451 12.76                             133   -0.20 9  146 259 
 PTB  HN I         451 17.57         9.5 0.34                           146 259 
 SML  HN ES        451 29.52                             118   -0.69 8  243 336 
                                                                                
