 2010  7 8 0529 49.5 L   6.744 -73.099146.8  RSN  5 0.5 1.4LRSN                1
 GAP=162        1.10       7.6    15.8 14.8 -0.2548E+01 -0.6217E+02 -0.1687E+02E
 Epicentro: JORDAN - SANTANDER                                                 3
 ACTION:UPD 10-12-01 15:16 OP:pat  STATUS:               ID:20100708052949 L   I
 2010-07-08-0527-06S.COL___116                                                 6
 STAT SP IPHASW D HRMM SECON CODA AMPLIT PERI AZIMU VELO AIN AR TRES W  DIS CAZ7
 BAR2 SZ EP   1    530  8.76                             172    -0.4 7   19 209 
 BAR2 SZ ES   2    530 24.40                             172    -0.1 5   19 209 
 BRR  HZ IP     C  530 11.03                             150    -0.110   79 301 
 BRR  HZ I         530 11.37         7.7 0.10                            79 301 
 BRR  HN ES   2    530 28.45                             150     0.3 5   79 301 
 RUS  HZ EP        530 13.27                             146     0.410   94 179 
 RUS  HN ES   2    530 30.69                             146    -0.4 5   94 179 
 RUS  HZ I         530 33.08         2.2 0.34                            94 179 
 BRI  SZ EP   1    530 12.81                             140    -1.0 7  113  17 
 GRA  SZ EP   1    530 16.03                             136     0.8 7  130  14 
 GRA  SZ ES   2    530 35.65                             136     0.4 5  130  14 
                                                                                
