 2015 12 8 0505 47.5 L   6.865 -73.168150.0  RSN  6 0.4 1.6LRSN                1
 GAP=241        0.77       4.5     4.7  7.4  0.7440E+01  0.2025E+01 -0.1009E+01E
 Epicentro: ZAPATOCA - SANTANDER                                               3
 ACTION:UPD 16-02-04 15:03 OP:cam  STATUS:               ID:20151208050547 L   I
 OLDACT:REG 15-12-08 13:16 OP:ar   STATUS:               ID:20151208045746     3
 2015-12-08-0457-46M.COL___322                                                 6
 STAT SP IPHASW D HRMM SECON CODA AMPLIT PERI AZIMU VELO AIN AR TRES W  DIS CAZ7
 BRR  HZ EP        5 6  8.87                             155   -0.0010 65.8 294 
 BRR  HE ES   2    5 6 26.11                             155    0.61 5 65.8 294 
 BRR  HZ I         5 6 28.73         5.8 0.14            155           65.8 294 
 RUS  HZ EP        5 6 12.19                             142   -0.0610  108 175 
 RUS  HN ES        5 6 31.28                             142   -0.2310  108 175 
 RUS  HZ I         5 6 33.15         2.1 0.26            146            108 175 
 PTB  HZ EP   2    5 6 14.01                             133   -0.78 5  147 256 
 PTB  HN ES        5 6 35.54                             133   -0.50 9  147 256 
 PTB  HZ I         5 6 38.26         4.7 0.12            135            147 256 
 SPBC HZ EP        5 6 16.96                             129    0.20 9  167 217 
 SPBC HE ES        5 6 40.09                             129    0.54 9  167 217 
 SPBC HZ I         5 6 45.01         6.0 0.30            132            167 217 
 ZAR  HZ EP   4    5 6 35.28                             124   15.50 0  199 291 
 ZAR  HN ES        5 6 45.07                             124    0.15 9  199 291 
 ZAR  HZ I         5 6 49.84         5.6 0.32            126            199 291 
 GUY2CHZ EP        5 6 31.89                             113    0.29 7  303 233 
 GUY2CHN ES        5 7  5.73                             113   -0.24 7  303 233 
 GUY2CHZ I         5 7 15.37         1.9 0.74                           303 233 
                                                                                
