 2015  6 8 0920 14.4 L   6.792 -73.131144.5  RSN 19 0.4 2.5LRSN                1
 GAP=139        0.91       2.8     3.4  4.4 -0.2329E+01  0.5695E+01  0.4182E+00E
 Epicentro: LOS SANTOS - SANTANDER                                             3
 ACTION:UPD 15-09-10 22:10 OP:cam  STATUS:               ID:20150608092014 L   I
 OLDACT:UP  15-06-08 18:41 OP:drio STATUS:               ID:20150608091746     3
 OLDACT:UP  15-06-08 18:40 OP:drio STATUS:               ID:20150608091746     3
 OLDACT:REG 15-06-08 12:29 OP:drio STATUS:               ID:20150608091746     3
 2015-06-08-0917-46M.COL___288                                                 6
 STAT SP IPHASW D HRMM SECON CODA AMPLIT PERI AZIMU VELO AIN AR TRES W  DIS CAZ7
 BAR2 EZ IP     C  920 33.78                             171   -0.0810 22.8 194 
 BAR2 EZ ES        920 48.83                             171   -0.2110 22.8 194 
 BAR2 EZ I         920 49.81        86.2 0.16            168           22.8 194 
 BRR  HZ IP     C  920 35.68                             152    0.1710 73.0 299 
 BRR  HN ES        920 52.61                             152    0.6310 73.0 299 
 BRR  HZ I         920 57.02        80.7 0.12            148           73.0 299 
 PAM  SZ EP        920 36.71                             151    0.2610 77.1  38 
 PAM  SN ES        920 53.80                             151    0.1410 77.1  38 
 PAM  SZ I         920 55.97        73.7 0.60            155           77.1  38 
 RUS  HZ EP        920 37.85                             144   -0.1010 99.6 177 
 RUS  HE ES        920 55.83                             144   -0.4910 99.6 177 
 RUS  HZ I         920 57.40        50.6 0.30            146           99.6 177 
 OCA  HZ EP        920 42.23                             129   -0.48 9  161 353 
 OCA  HN ES   4    921  3.61                             129   -1.18 0  161 353 
 OCA  HZ I         921  7.04       106.8 0.32            130            161 353 
 SPBC HZ EP        920 42.95                             129    0.12 9  164 220 
 SPBC HN ES        921  5.11                             129    0.11 9  164 220 
 SPBC HZ I         921  8.09        45.2 0.32            129            164 220 
 ZAR  HZ EP        920 47.18                             122    0.24 8  206 292 
 ZAR  HN ES        921 12.53                             122    0.20 8  206 292 
 ZAR  HZ I         921 18.34        47.3 0.22            121            206 292 
 NOR  HZ EP        920 50.57                             118    0.43 8  235 235 
 NOR  HN ES        921 17.83                             118   -0.18 8  235 235 
 NOR  HZ I         921 21.47        15.8 0.30            118            235 235 
 SML  HZ EP        920 50.20                             117   -0.91 8  245 335 
 SML  HN ES   4    921 16.81                             117   -2.93 0  245 335 
 SML  HZ I         921 26.07        37.9 0.10            118            245 335 
 CHI  HZ EP        920 52.09                             117    0.11 8  248 196 
 CHI  HN ES   4    921 19.24                             117   -2.05 0  248 196 
 CHI  HZ I         921 28.44         7.8 0.38            118            248 196 
 HEL  HZ EP        920 55.23                             114    0.54 8  273 256 
 HEL  HN ES        921 25.47                             114   -0.65 8  273 256 
 HEL  HZ I         921 35.43         8.9 0.26            115            273 256 
 URE  HZ EP        920 55.26                             113   -0.35 7  286 292 
 URE  HN ES   4    921 25.08                             113   -2.67 0  286 292 
 URE  HZ I         921 39.61        21.4 0.28            113            286 292 
 GUY2CHZ EP        920 58.60                             112    0.56 7  302 235 
 GUY2CHN ES        921 31.79                             112   -0.28 7  302 235 
 GUY2CHZ I         921 40.46        11.4 0.72                           302 235 
 CBOC HZ EP        921  1.70                             110    0.30 7  335 252 
 CBOC HN ES        921 37.35                             110   -0.71 7  335 252 
 CBOC HZ I         921 47.53         4.0 0.38            110            335 252 
 TOL  SZ EP   4    921  3.92                             109    1.26 0  344 225 
 TOL  SN ES        921 40.76                             109    0.46 7  344 225 
 TOL  SZ I         921 45.87         8.5 0.44            110            344 225 
 MON  HZ EP   4    921  1.75                             108   -1.81 0  355 308 
 MON  HN ES   4    921 40.50                             108   -1.40 0  355 308 
 MON  HZ I         921 40.95         7.4 0.22            109            355 308 
 PRA  HZ EP        921  7.73                             106   -0.14 6  392 210 
 PRA  HN ES        921 49.08                             106   -0.51 6  392 210 
 PRA  HZ I         921 56.69        10.4 0.30            107            392 210 
 ORTC HZ EP        921  8.96                             106    0.66 6  396 216 
 ORTC HN ES   4    921 51.63                             106    1.29 0  396 216 
 ORTC HZ I         921 56.92         7.2 0.30            107            396 216 
 SJC  HZ EP   4    921  8.25                             105   -1.86 0  411 327 
 SJC  HE ES   4    921 50.08                             105   -3.48 0  411 327 
 SJC  HZ I         921 54.08         5.6 0.46            106            411 327 
                                                                                
