 2010  7 8 0259 37.4 L   6.768 -73.117143.1  RSN  4 0.3 1.1LRSN                1
 GAP=159        0.63       6.6    12.5 10.6  0.3070E+02 -0.5997E+02 -0.2695E+02E
 Epicentro: LOS SANTOS - SANTANDER                                             3
 ACTION:UPD 10-12-01 15:16 OP:pat  STATUS:               ID:20100708025937 L   I
 2010-07-08-0256-15S.COL___116                                                 6
 STAT SP IPHASW D HRMM SECON CODA AMPLIT PERI AZIMU VELO AIN AR TRES W  DIS CAZ7
 BAR2 SZ EP   1    259 56.08                             171    -0.6 7   21 201 
 BAR2 SZ ES   2    3 0 11.57                             171    -0.1 5   21 201 
 BRR  HZ EP   1    259 58.50                             151     0.0 7   76 300 
 BRR  HE ES   2    3 0 15.25                             151     0.2 5   76 300 
 BRR  HZ I         3 0 22.95         4.5 0.46                            76 300 
 RUS  HZ EP   1    3 0  0.84                             144     0.2 7   97 178 
 RUS  HN ES   2    3 0 18.99                             144     0.3 5   97 178 
 RUS  HZ I         3 0 20.54         1.2 0.52                            97 178 
 BRI  SZ EP   1    3 0  1.43                             140     0.2 7  111  19 
                                                                                
