 2016  6 8 0713 38.8 L   6.792 -73.131146.0  RSN 17 0.4 2.2LRSN                1
 GAP=139        1.03       3.0     4.5  4.9 -0.3539E+01  0.6561E+01  0.6880E+00E
 Epicentro: LOS SANTOS - SANTANDER                                             3
 ACTION:UPD 16-07-21 22:16 OP:rebc STATUS:               ID:20160608071338 L   I
 OLDACT:UP  16-06-08 18:03 OP:dani STATUS:               ID:20160608070742     3
 OLDACT:UP  16-06-08 18:01 OP:dani STATUS:               ID:20160608070742     3
 OLDACT:UP  16-06-08 18:00 OP:dani STATUS:               ID:20160608070742     3
 OLDACT:UP  16-06-08 18:00 OP:dani STATUS:               ID:20160608070742     3
 OLDACT:REG 16-06-08 13:32 OP:dani STATUS:               ID:20160608070742     3
 2016-06-08-0707-42M.COL___328                                                 6
 STAT SP IPHASW D HRMM SECON CODA AMPLIT PERI AZIMU VELO AIN AR TRES W  DIS CAZ7
 BAR2 EZ EP        713 58.34                             171   -0.0710 22.8 195 
 BAR2 EZ ES        714 13.22                             171   -0.5210 22.8 195 
 BAR2 EZ I         714 16.72        31.5 0.26                          22.8 195 
 BRR  HZ EP     D  714  0.18                             152    0.1310 73.1 299 
 BRR  HE ES        714 17.66                             152    1.0210 73.1 299 
 BRR  HZ I         714 21.91        21.1 0.28                          73.1 299 
 PAM  EZ EP        714  1.24                             151    0.2610 77.0  38 
 PAM  EN ES        714 18.48                             151    0.1610 77.0  38 
 PAM  EZ I         714 20.44        46.2 0.56                          77.0  38 
 RUS  HZ EP        714  2.18                             144   -0.2910 99.6 177 
 RUS  HE ES        714 21.09                             144    0.1410 99.6 177 
 RUS  HZ I         714 23.10         9.3 0.34                          99.6 177 
 PTB  HZ EP        714  5.19                             132   -0.69 9  149 259 
 PTB  HN ES        714 26.50                             132   -0.53 9  149 259 
 PTB  HZ I         714 32.78        19.4 0.50                           149 259 
 OCA  HZ EP        714  6.41                             130   -0.79 9  161 353 
 OCA  HE ES   4    714 27.80                             130   -1.57 0  161 353 
 OCA  HZ I         714 31.76        51.1 0.40                           161 353 
 SPBC HZ EP        714  7.37                             129    0.06 9  164 220 
 SPBC HE ES        714 29.65                             129    0.07 9  164 220 
 SPBC HZ I         714 32.06        23.7 0.22                           164 220 
 NOR  HZ EP        714 14.62                             119    0.02 8  236 235 
 NOR  HN ES   4    714 41.47                             119   -1.07 0  236 235 
 NOR  HZ I         714 48.53        12.0 0.18                           236 235 
 CHI  HZ EP        714 16.45                             117    0.02 8  248 196 
 CHI  HN ES        714 45.73                             117   -0.08 8  248 196 
 CHI  HZ I         714 53.61         5.5 0.30                           248 196 
 HEL  HZ EP   4    714 20.76                             115    1.62 0  273 256 
 HEL  HN ES   4    714 52.94                             115    2.30 0  273 256 
 HEL  HZ I         714 57.38         8.2 0.46                           273 256 
 PTGC HZ EP   4    714 21.36                             112   -1.11 0  307 159 
 PTGC HN ES   4    714 54.91                             112   -1.65 0  307 159 
 PTGC HZ I         714 57.24         8.1 0.40                           307 159 
 CBOC HZ EP        714 26.18                             110    0.34 7  335 252 
 CBOC HN ES        715  2.06                             110   -0.49 7  335 252 
 CBOC HZ I         715  7.87         2.1 0.22                           335 252 
 ARGC HZ EP        714 28.40                             108   -0.19 6  361 340 
 ARGC HN ES        715  8.04                             108    0.58 6  361 340 
 PRA  HZ EP        714 32.91                             107    0.61 6  392 210 
 PRA  HE ES        715 14.52                             107    0.47 6  392 210 
 PRA  HZ I         715 17.91         6.3 0.46                           392 210 
 ORTC HZ EP        714 33.05                             106    0.33 6  396 216 
 ORTC HN ES        715 15.62                             106    0.81 6  396 216 
 ORTC HZ I         715 21.31         3.2 0.20                           396 216 
 PAL  HZ EP        714 33.94                             106   -0.10 6  407 239 
 PAL  HE ES   4    715 16.04                             106   -1.12 0  407 239 
 PAL  HZ I         715 29.15         1.8 0.40                           407 239 
 SJC  HZ EP   4    714 32.18                             106   -2.35 0  411 327 
 SJC  HE ES   4    715 13.51                             106   -4.51 0  411 327 
 SJC  HZ I         715 18.02         5.8 0.36                           411 327 
                                                                                
