 2014  2 8 0030 11.9 L   6.832 -73.145150.2  RSN 16 0.4 2.4LRSN                1
 GAP= 70        0.96       2.5     3.6  5.1 -0.1731E+00  0.3346E+01 -0.1451E+01E
 Epicentro: LOS SANTOS - SANTANDER                                             3
 ACTION:UPD 14-03-10 08:08 OP:ep   STATUS:               ID:20140208003011 L   I
 OLDACT:UP  14-02-08 10:13 OP:mh   STATUS:               ID:20140208002850     3
 OLDACT:UP  14-02-08 10:12 OP:mh   STATUS:               ID:20140208002850     3
 OLDACT:UP  14-02-08 10:12 OP:mh   STATUS:               ID:20140208002850     3
 OLDACT:REG 14-02-08 09:47 OP:mh   STATUS:               ID:20140208002850     3
 2014-02-08-0028-50M.COL___226                                                 6
 STAT SP IPHASW D HRMM SECON CODA AMPLIT PERI AZIMU VELO AIN AR TRES W  DIS CAZ7
 BAR2 SZ EP        030 32.25                             170    0.0910 26.9 189 
 BAR2 SZ ES   1    030 47.47                             170   -0.47 7 26.9 189 
 BAR2 SZ I         030 48.61       109.9 0.29            163           26.9 189 
 BRR  HZ EP        030 34.07                             154    0.6010 69.7 296 
 BRR  HN ES        030 50.85                             154    0.5810 69.7 296 
 PAM  SZ EP   1    030 35.16                             152    0.71 7 74.6  41 
 PAM  SN ES        030 51.90                             152   -0.1210 74.6  41 
 PAM  SZ I         030 54.41        65.0 0.49            151           74.6  41 
 RUS  HZ EP     D  030 36.21                             144   -0.1510  104 176 
 RUS  HN ES        030 55.20                             144   -0.2310  104 176 
 RUS  HZ I         030 56.05        29.9 0.15            136            104 176 
 PTB  HZ EP        030 38.97                             133   -0.36 9  149 257 
 PTB  HZ I         031  7.32        27.6 0.18            123            149 257 
 TAM  HZ IP     D  030 40.65                             131    0.62 9  156 106 
 TAM  HN ES   1    031  2.02                             131    0.06 7  156 106 
 TAM  HZ I         031  2.96        10.6 0.20            127            156 106 
 OCA  HZ EP        030 40.31                             131    0.06 9  157 353 
 OCA  HN ES   1    031  1.61                             131   -0.74 7  157 353 
 OCA  HZ I         031  7.76        24.6 0.18            124            157 353 
 SPBC HZ EP        030 41.17                             130    0.14 9  166 218 
 SPBC HN ES        031  3.07                             130   -0.67 9  166 218 
 SPBC HZ I         031  5.86        48.9 0.31            121            166 218 
 ZAR  HZ EP   1    030 44.74                             123    0.21 6  203 291 
 ZAR  HN ES   1    031 10.22                             123    0.25 6  203 291 
 ZAR  HZ I         031 15.42        23.2 0.24            115            203 291 
 NOR  HZ EP   1    030 48.39                             119    0.25 6  237 234 
 NOR  HZ I         031 21.75        19.0 0.17            111            237 234 
 SML  HZ EP        030 48.27                             119   -0.19 8  241 335 
 SML  HN ES        031 17.19                             119    0.24 8  241 335 
 SML  HZ I         031 20.62        32.1 0.11            112            241 335 
 CHI  HZ EP   1    030 50.44                             118    0.20 6  252 195 
 CHI  HN ES        031 19.62                             118   -0.52 8  252 195 
 CHI  HZ I         031 23.36        19.9 0.36            111            252 195 
 HEL  HZ EP   4    030 54.42                             116    1.95 0  273 255 
 HEL  HN ES   1    031 24.72                             116    0.62 6  273 255 
 HEL  HZ I         031 30.37        17.3 0.22            108            273 255 
 COD  HZ EP        030 59.32                             110   -0.75 7  345 355 
 COD  HN ES        031 37.15                             110   -0.47 7  345 355 
 COD  HZ I         031 44.20         5.2 0.21            104            345 355 
 PRA  HZ EP   4    031  6.35                             107    0.38 0  395 209 
 PRA  HN ES   4    031 47.68                             107   -0.44 0  395 209 
 PRA  HZ I         031 54.25        14.9 0.26            102            395 209 
 SJC  HZ EP   1    031  6.46                             106   -0.83 4  406 327 
                                                                                
