 2012  9 8 0825  3.9 L   6.760 -73.152149.8  RSN  8 0.4 2.1LRSN                1
 GAP=183        0.80       6.0     5.7  6.3  0.1275E+02  0.1350E+02  0.8082E+01E
 Epicentro: LOS SANTOS - SANTANDER                                             3
 ACTION:UP  12-10-22 14:17 OP:ep   STATUS:               ID:20120908082503 L   I
 2012-09-08-0820-00M.COL___227                                                 6
 STAT SP IPHASW D HRMM SECON CODA AMPLIT PERI AZIMU VELO AIN AR TRES W  DIS CAZ7
 BAR2 SZ EP   1    825 23.71                             173   -0.21 7 18.9 190 
 BAR2 SZ ES   1    825 39.31                             173   -0.24 7 18.9 190 
 BAR2 SZ I         825 40.61        34.9 0.38                          18.9 190 
 GIR2 SZ EP   1    825 23.77                             166   -0.39 7 35.5 353 
 GIR2 SZ ES   1    825 40.44                             166    0.47 7 35.5 353 
 BRR  HZ EP   1    825 25.58                             153    0.02 7 72.8 302 
 BRR  HE ES   1    825 42.93                             153    0.46 7 72.8 302 
 BRR  HN I         825 47.06        72.4 0.18                          72.8 302 
 RUS  HZ EP   1    825 27.78                             146    0.05 7 96.3 175 
 RUS  HN ES   1    825 46.28                             146   -0.06 7 96.3 175 
 RUS  HZ I         825 47.37         9.6 0.42                          96.3 175 
 PTB  HZ EP   1    825 30.41                             133   -0.64 7  146 260 
 PTB  HE ES   1    825 52.06                             133   -0.18 7  146 260 
 PTB  HE I         825 53.25        12.1 0.44                           146 260 
 ZAR  HZ EP   1    825 37.45                             123    0.75 6  205 293 
 ZAR  HE ES   1    826  1.54                             123   -0.76 6  205 293 
 ZAR  HZ I         826  8.65        15.4 0.36                           205 293 
 HEL  HZ EP   1    825 44.56                             116    0.45 6  270 257 
 HEL  HN ES   2    826 16.03                             116    0.54 4  270 257 
 HEL  HZ I         826 22.23         4.1 0.28                           270 257 
 PRA  HZ EP   1    825 57.73                             107    0.67 4  388 210 
 PRA  HE I         826 42.89         4.3 0.38                           388 210 
                                                                                
