 2013  9 8 0537 41.6 L   6.782 -73.133150.7  RSN  6 0.4 1.3LRSN                1
 GAP=139        0.63       4.7     4.3  7.9 -0.9523E+00  0.9266E+01  0.1025E+02E
 Epicentro: LOS SANTOS - SANTANDER                                             3
 ACTION:UPD 13-10-22 09:21 OP:ep   STATUS:               ID:20130908053741 L   I
 OLDACT:REG 13-09-08 07:47 OP:mh   STATUS:               ID:20130908052959     3
 2013-09-08-0529-59M.COL___269                                                 6
 STAT SP IPHASW D HRMM SECON CODA AMPLIT PERI AZIMU VELO AIN AR TRES W  DIS CAZ7
 BRR  HZ EP   1    538  3.88                             153    0.45 8 73.4 299 
 BRR  HN ES   2    538 21.03                             153    0.59 5 73.4 299 
 BRR  HZ I         538 24.15         3.8 0.36            150           73.4 299 
 PAM  SZ EP   1    538  4.02                             152   -0.39 8 78.1  38 
 PAM  SN ES   1    538 22.18                             152    0.00 8 78.1  38 
 PAM  SZ I         538 23.89         3.3 0.50            155           78.1  38 
 RUS  HZ EP   1    538  5.68                             145   -0.04 8 98.5 177 
 RUS  HN ES   2    538 24.26                             145   -0.25 5 98.5 177 
 RUS  HZ I         538 26.30         1.4 0.40            150           98.5 177 
 PTB  HZ EP        538  8.87                             133   -0.2210  149 260 
 PTB  HN ES   2    538 29.94                             133   -0.57 5  149 260 
 PTB  HZ I         538 31.97         3.2 0.16            133            149 260 
 SPBC HZ EP   1    538 10.98                             130    0.53 7  163 220 
 SPBC HN ES   2    538 33.03                             130    0.10 5  163 220 
 SPBC HZ I         538 35.99         3.4 0.16            133            163 220 
 ZAR  HN ES   1    538 40.19                             123   -0.14 7  206 293 
 ZAR  HZ I         538 50.75         2.4 0.22            124            206 293 
                                                                                
