 2017  4 8 0211 55.6 L   6.767 -73.116139.2  RSN  5 0.3 1.1LRSN                1
 GAP=142        0.43       3.0     3.1  4.5  0.3285E+01 -0.2871E+00 -0.4996E+01E
 Epicentro: LOS SANTOS - SANTANDER                                             3
 ACTION:UPD 17-05-30 21:09 OP:jn   STATUS:               ID:20170408021155 L   I
 OLDACT:UP  17-04-08 13:54 OP:and  STATUS:               ID:20170408020741     3
 OLDACT:UP  17-04-08 13:53 OP:and  STATUS:               ID:20170408020741     3
 OLDACT:UP  17-04-08 13:53 OP:and  STATUS:               ID:20170408020741     3
 OLDACT:REG 17-04-08 12:39 OP:and  STATUS:               ID:20170408020741     3
 2017-04-08-0208-00M.COL___371                                                 6
 STAT SP IPHASW D HRMM SECON CODA AMPLIT PERI AZIMU VELO AIN AR TRES W  DIS CAZ7
 BAR2 EZ EP        212 14.42                             171    0.0610 20.7 201 
 BAR2 EZ ES        212 29.18                             171    0.1710 20.7 201 
 BAR2 EZ I         212 30.55         4.7 0.20            171           20.7 201 
 PAM  EZ EP        212 17.17                             149    0.0210 78.2  36 
 PAM  EN ES   3    212 32.98                             149   -0.99 2 78.2  36 
 PAM  EZ I         212 36.36         2.6 0.56            151           78.2  36 
 RUS  HZ EP        212 18.44                             144    0.0310 96.8 178 
 RUS  HN ES        212 36.05                             144   -0.1610 96.8 178 
 RUS  HZ I         212 37.66         1.1 0.40            147           96.8 178 
 SPBC HN ES   3    212 44.63                             128   -0.67 2  163 221 
 SPBC HZ I         212 47.39         1.8 0.10            129            163 221 
 ZAR  HN ES        212 53.38                             120   -0.03 8  208 293 
 ZAR  HZ I         212 58.90         1.5 0.36            121            208 293 
                                                                                
