 2012  6 8 0227 58.4 L   6.820 -73.123141.1  RSN 13 0.5 2.6LRSN                1
 GAP=127        0.89       3.3     4.3  5.8 -0.2718E+01  0.6168E+01 -0.6994E+00E
 Epicentro: LOS SANTOS - SANTANDER                                             3
 ACTION:UPD 12-08-06 17:48 OP:ep   STATUS:               ID:20120608022802 L   I
 2012-06-08-0220-00M.COL___201                                                 6
 STAT SP IPHASW D HRMM SECON CODA AMPLIT PERI AZIMU VELO AIN AR TRES W  DIS CAZ7
 BAR2 SZ IP     D  228 17.53                             169    0.0210 26.0 195 
 BAR2 SZ I         228 17.69       129.1 0.22            161           26.0 195 
 BAR2 SZ ES   1    228 32.12                             169   -0.31 7 26.0 195 
 PAM  SZ EP        228 20.48                             151    0.5810 74.1  39 
 PAM  SN ES   1    228 37.12                             151    0.43 7 74.1  39 
 RUS  HZ EP        228 21.57                             142   -0.2610  103 178 
 RUS  HZ I         228 23.11        23.0 0.18            132            103 178 
 RUS  HE ES        228 40.30                             142    0.1810  103 178 
 PTB  HZ EP   1    228 24.25                             130   -0.99 7  151 258 
 PTB  HN ES   1    228 45.86                             130   -0.33 7  151 258 
 OCA  HZ EP   1    228 26.11                             129   -0.05 7  158 352 
 OCA  HN ES   1    228 47.16                             129   -0.66 7  158 352 
 OCA  HZ I         228 50.63       102.7 0.37            122            158 352 
 ZAR  HZ EP   1    228 30.93                             121    0.24 6  206 291 
 ZAR  HN ES   1    228 56.45                             121    0.57 6  206 291 
 ZAR  HZ I         229  2.08        55.3 0.25            112            206 291 
 NOR  SZ EP   1    228 34.02                             117   -0.18 6  238 234 
 NOR  SN ES   1    229  2.20                             117    0.06 6  238 234 
 CHI  HZ EP   1    228 36.05                             116   -0.08 6  251 196 
 CHI  HN ES   1    229  5.02                             116   -0.55 6  251 196 
 CHI  HZ I         229 11.19        16.7 0.22            108            251 196 
 ROSC BZ EP   1    228 37.51                             115    0.91 6  256 211 
 ROSC BZ I         229 12.49        36.1 0.32            107            256 211 
 DBB  SZ EP   1    228 45.88                             108   -0.06 5  342 274 
 TOL  SZ EP   1    228 47.75                             108    0.91 5  347 225 
 SDV  BZ EP        228 47.30                             108   -0.56 6  357  50 
 PRA  HZ EP   1    228 52.28                             106    0.17 4  395 210 
                                                                                
