 2011 11 8 0205 42.2 L   6.804 -73.089142.1  RSN  4 0.2 1.3LRSN                1
 GAP=144        0.53       3.7     5.3  5.5  0.2878E+00  0.5270E+00  0.5436E-01E
 Epicentro: LOS SANTOS - SANTANDER                                             3
 ACTION:UPD 12-07-13 16:08 OP:ep   STATUS:               ID:20111108020542 L   I
 2011-11-08-0202-56S.COL___175                                                 6
 STAT SP IPHASW D HRMM SECON CODA AMPLIT PERI AZIMU VELO AIN AR TRES W  DIS CAZ7
 BAR2 SZ EP   1    2 6  0.95                             169   -0.52 7 25.5 204 
 BAR2 SZ ES   1    2 6 16.45                             169   -0.02 7 25.5 204 
 BAR2 SZ I         2 6 17.48         6.0 0.18                          25.5 204 
 PAM  SZ EP   1    2 6  4.17                             151    0.36 7 73.2  36 
 PAM  SN ES   1    2 6 20.52                             151   -0.12 7 73.2  36 
 BRR  HZ EP        2 6  3.35                             150    0.0510 76.6 296 
 BRR  HE ES   1    2 6 19.80                             150    0.06 7 76.6 296 
 BRR  HZ I         2 6 21.44         4.9 0.06                          76.6 296 
 RUS  HZ EP   1    2 6  5.59                             143   -0.04 7  101 180 
 RUS  HE ES   1    2 6 24.09                             143    0.20 7  101 180 
 RUS  HZ I         2 6 26.11         2.0 0.27                           101 180 
                                                                                
