 2012  7 8 0027 57.1 L   6.405 -73.736 95.3  RSN  6 0.3 1.4LRSN                1
 GAP=105        0.86       5.1     3.9 10.2  0.1063E+01  0.1261E+02  0.1462E+02E
 Epicentro: SANTA HELENA DEL OPON - SANTANDER                                  3
 ACTION:UPD 12-08-14 11:43 OP:ep   STATUS:               ID:20120708002757 L   I
 2012-07-08-0020-09M.COL___208                                                 6
 STAT SP IPHASW D HRMM SECON CODA AMPLIT PERI AZIMU VELO AIN AR TRES W  DIS CAZ7
 BAR2 SZ EP   1    028 13.22                             144     0.3 7   65  71 
 BAR2 SZ ES   1    028 24.74                             144    -0.5 7   65  71 
 BAR2 SZ I         028 27.17        20.7 0.21                            65  71 
 BRR  HZ EP   1    028 13.71                             138     0.1 7   78   2 
 BRR  HZ I         028 14.48        10.5 0.11                            78   2 
 BRR  HN ES   1    028 26.87                             138     0.4 7   78   2 
 PTB  HZ EP   1    028 13.35                             137    -0.6 7   81 281 
 PTB  HN ES   1    028 26.94                             137    -0.1 7   81 281 
 PTB  HZ I         028 29.14         3.4 0.20                            81 281 
 RUS  HZ EP   1    028 15.15                             133    -0.4 7   92 128 
 RUS  HN ES   1    028 30.27                             133     0.4 7   92 128 
 RUS  HZ I         028 32.69         3.0 0.40                            92 128 
 NOR  SE ES   1    028 40.67                             117     0.2 7  156 233 
 HEL  HZ EP   1    028 26.99                             111     0.2 6  200 263 
 HEL  HZ I         028 54.48         2.5 0.35                           200 263 
