 2014  1 8 0951 46.3 L   6.809 -73.171145.7  RSN  5 0.1 1.4LRSN                1
 GAP=143        0.39       1.9     2.3  2.9 -0.1261E+01  0.1461E+01  0.8929E+00E
 Epicentro: LOS SANTOS - SANTANDER                                             3
 ACTION:UPD 14-03-13 09:52 OP:ep   STATUS:               ID:20140108095146 L   I
 OLDACT:DUP 14-01-08 12:17 OP:carl STATUS:               ID:20140108095001d    3
 2014-01-08-0950-00M.COL___285                                                 6
 STAT SP IPHASW D HRMM SECON CODA AMPLIT PERI AZIMU VELO AIN AR TRES W  DIS CAZ7
 BAR2 SZ EP        952  6.05                             170    0.1010 24.0 183 
 BAR2 SZ ES        952 21.28                             170    0.0110 24.0 183 
 BAR2 SZ I         952 24.40         9.2 0.26            167           24.0 183 
 PAM  SZ EP        952  8.84                             150    0.2510 78.4  42 
 PAM  SN ES        952 25.81                             150   -0.1510 78.4  42 
 PAM  SZ I         952 28.18         5.4 0.54            154           78.4  42 
 RUS  HZ EP        952 10.00                             143   -0.1510  102 175 
 RUS  HE ES        952 28.75                             143    0.0110  102 175 
 RUS  HZ I         952 29.88         4.1 0.28            142            102 175 
 PTB  HZ EP        952 12.91                             132   -0.14 9  145 258 
 PTB  HN ES        952 33.95                             132    0.05 9  145 258 
 PTB  HZ I         952 35.68         3.5 0.12            134            145 258 
 CHI  HZ EP        952 23.96                             117   -0.08 8  249 194 
 CHI  HN ES        952 53.56                             117    0.10 8  249 194 
 CHI  HZ I         953  3.25         1.2 0.58            117            249 194 
                                                                                
