 2011  3 8 0234 16.2 L   6.832 -73.179141.7  RSN  6 0.4 2.3LRSN                1
 GAP=133        0.79       3.6     9.0  7.9  0.7334E+01  0.1894E+02  0.3992E+01E
 Epicentro: ZAPATOCA - SANTANDER                                               3
 ACTION:UP  11-06-16 14:32 OP:jfem STATUS:               ID:20110308023416 L   I
 2011-03-08-0231-55S.COL___135                                                 6
 STAT SP IPHASW D HRMM SECON CODA AMPLIT PERI AZIMU VELO SNR AR TRES W  DIS CAZ7
 BAR2 SZ EP   1    234 35.65                             169     0.2 7   27 181 
 BAR2 SZ ES   1    234 50.50                             169     0.1 7   27 181 
 BAR2 SZ I         234 51.97        63.1 0.31                            27 181 
 GRA  SZ EP   1    234 41.51                             137     0.6 7  124  20 
 GRA  SZ ES   2    235  0.25                             137     0.1 5  124  20 
 GRA  SZ I         235  3.76        31.5 0.40                           124  20 
 OCA  SZ EP   1    234 43.83                             129     0.0 7  156 354 
 OCA  SZ ES   1    235  4.91                             129    -0.5 7  156 354 
 OCA  SZ I         235  8.98        39.5 0.23                           156 354 
 YOP  SZ EP   1    234 46.42                             124    -0.1 7  184 153 
 YOP  SZ I         234 46.99        14.8 0.17                           184 153 
 YOP  SN ES   1    235  9.52                             124    -0.5 7  184 153 
 CHI  HZ EP   1    234 53.96                             116     0.0 6  251 194 
 CHI  HE ES   2    235 24.18                             116     0.8 4  251 194 
 CHI  HZ I         235 30.54        14.0 0.58                           251 194 
 DBB  SZ EP   1    235  2.62                             109    -0.5 5  336 274 
 DBB  SZ I         235 49.08         3.3 0.49                           336 274 
                                                                                
