 2017 10 8 0412 39.3 L   6.797 -73.125136.0  RSN 11 0.5 1.6LRSN                1
 GAP=114        1.15       3.8     4.4  6.8  0.4747E+00  0.1233E+02  0.1791E+01E
 Epicentro: LOS SANTOS - SANTANDER                                             3
 ACTION:UPD 17-11-07 19:29 OP:rebc STATUS:               ID:20171008041239 L   I
 OLDACT:REG 17-10-08 12:36 OP:dhb  STATUS:               ID:20171008040741     3
 2017-10-08-0408-00M.COL___405                                                 6
 STAT SP IPHASW D HRMM SECON CODA AMPLIT PERI AZIMU VELO AIN AR TRES W  DIS CAZ7
 BAR2 EZ IP     C  412 57.56                             170   -0.2410 23.5 196 
 BAR2 EZ ES        413 12.37                             170    0.1810 23.5 196 
 BAR2 EZ I         413 13.69        11.5 0.23            170           23.5 196 
 PAM  EZ EP        413  0.57                             150    0.1210 76.2  38 
 PAM  EN ES        413 17.39                             150    0.4710 76.2  38 
 PAM  EZ I         413 19.22         7.1 0.70            151           76.2  38 
 RUS  HZ EP        413  1.52                             142   -0.5810  100 177 
 RUS  HN ES        413 19.99                             142    0.1310  100 177 
 RUS  HZ I         413 20.99         4.0 0.26            144            100 177 
 SPBC HZ IP     D  413  6.57                             127   -0.65 9  164 220 
 SPBC HN ES        413 28.19                             127   -0.77 9  164 220 
 SPBC HZ I         413 32.02         6.2 0.26            127            164 220 
 YPLC HZ EP        413  7.57                             125   -0.73 9  175 152 
 YPLC HN ES        413 31.34                             125    0.45 9  175 152 
 YPLC HZ I         413 34.32         3.2 0.28            127            175 152 
 ZAR  HN ES        413 36.02                             120   -0.39 8  206 292 
 ZAR  HZ I         413 42.27         6.9 0.30            119            206 292 
 NOR  HZ EP        413 15.20                             116    0.50 8  236 235 
 NOR  HE ES        413 42.86                             116    0.58 8  236 235 
 NOR  HZ I         413 45.63         3.3 0.20            116            236 235 
 CHI  HZ EP        413 16.93                             115    0.39 8  249 196 
 CHI  HE ES   4    413 49.29                             115    3.73 0  249 196 
 CHI  HZ I         413 50.77         1.1 0.22            116            249 196 
 URE  HZ EP        413 20.06                             112   -0.14 7  286 292 
 URE  HN ES   4    413 48.29                             112   -3.78 0  286 292 
 URE  HZ I         414  0.73         2.6 0.18            111            286 292 
 GUY2CHZ EP        413 23.23                             110    0.53 7  303 235 
 GUY2CHE ES        413 57.48                             110    0.96 7  303 235 
 GUY2CHZ I         414  6.53         2.1 0.48                           303 235 
 SJC  HZ E         413 36.30                                            411 327 
 SJC  HZ EP   3    413 36.51                             104    1.74 1  411 327 
 SJC  HN ES        414 17.82                             104   -0.20 6  411 327 
 SJC  HZ I         414 28.09         1.6 0.76            104            411 327 
                                                                                
