 2017  6 8 0450 11.4 L   6.689 -73.337147.6  RSN  6 0.4 1.3LRSN                1
 GAP=185        0.85       4.7     5.7  8.0  0.1242E+02  0.6856E+01  0.1936E+01E
 Epicentro: GALAN - SANTANDER                                                  3
 ACTION:UPD 17-09-14 16:50 OP:jn   STATUS:               ID:20170608045011 L   I
 OLDACT:UP  17-06-08 18:44 OP:cog  STATUS:               ID:20170608044730     3
 OLDACT:UP  17-06-08 18:42 OP:cog  STATUS:               ID:20170608044730     3
 OLDACT:UP  17-06-08 18:39 OP:cog  STATUS:               ID:20170608044730     3
 OLDACT:REG 17-06-08 13:06 OP:edw  STATUS:               ID:20170608044730     3
 2017-06-08-0448-00M.COL___362                                                 6
 STAT SP IPHASW D HRMM SECON CODA AMPLIT PERI AZIMU VELO AIN AR TRES W  DIS CAZ7
 BRR  HZ EP        450 31.55                             156   -0.6810 62.1 318 
 BRR  HE ES        450 48.81                             156    0.3110 62.1 318 
 BRR  HZ I         450 53.13        10.9 0.28            157           62.1 318 
 RUS  HZ EP   4    450 33.37                             147   -1.36 0 92.5 162 
 RUS  HN ES        450 52.83                             147   -0.1310 92.5 162 
 RUS  HZ I         450 53.66         1.0 0.24            149           92.5 162 
 PTB  HZ EP        450 36.52                             137    0.0210  125 262 
 PTB  HN ES        450 56.16                             137    0.0410  125 262 
 PTB  HZ I         451  0.23         1.9 0.20            138            125 262 
 SPBC HZ EP        450 38.36                             134    0.41 9  141 215 
 SPBC HN ES        450 58.47                             134   -0.22 9  141 215 
 SPBC HZ I         451  6.02         4.0 0.12            135            141 215 
 TAM  HN ES   4    451  6.94                             128    3.02 0  173  99 
 YPLC HN ES   2    451  5.57                             127    0.75 4  178 143 
 ZAR  HE ES        451  6.96                             125    0.16 9  190 298 
                                                                                
