 2013  1 8 0649 17.6 L   6.816 -73.127140.4  RSN  8 0.5 2.4LRSN                1
 GAP=202        1.11       4.1     5.7  6.8 -0.4584E+00  0.4235E+01  0.5198E+01E
 Epicentro: LOS SANTOS - SANTANDER                                             3
 ACTION:UPD 13-02-15 09:12 OP:ep   STATUS:               ID:20130108064917 L   I
 2013-01-08-0647-45M.COL___149                                                 6
 STAT SP IPHASW D HRMM SECON CODA AMPLIT PERI AZIMU VELO AIN AR TRES W  DIS CAZ7
 BAR2 SZ EP        649 36.66                             169    0.0210 25.4 194 
 BAR2 SZ ES        649 51.35                             169   -0.1310 25.4 194 
 BAR2 SZ I         649 53.20        29.7 0.42            169           25.4 194 
 BRR  HZ IP     C  649 38.49                             151    0.2510 72.2 297 
 BRR  HN ES        649 55.16                             151    0.8310 72.2 297 
 BRR  HN I         649 59.19        84.3 0.16            147           72.2 297 
 PTB  HZ EP   2    649 43.54                             130   -0.82 5  150 258 
 PTB  HN ES        650  4.62                             130   -0.61 9  150 258 
 PTB  HN I         650  9.67        17.1 0.62            130            150 258 
 OCA  HZ EP        649 45.09                             129   -0.27 9  159 352 
 OCA  HN ES        650  6.58                             129   -0.44 9  159 352 
 OCA  HN I         650 13.43        91.7 0.20            129            159 352 
 ZAR  HZ EP        649 49.87                             121    0.03 8  205 291 
 ZAR  HN ES        650 14.89                             121   -0.09 8  205 291 
 ZAR  HN I         650 22.35        32.4 0.26            121            205 291 
 CHI  HZ EP        649 54.81                             116   -0.44 8  251 196 
 CHI  HN ES        650 24.33                             116   -0.29 8  251 196 
 ROSC BZ EP        649 56.51                             115    0.79 8  255 211 
 HEL  HZ EP        649 58.70                             113    0.88 8  275 256 
 HEL  HN ES        650 28.89                             113   -0.30 8  275 256 
 HEL  HN I         650 34.83         5.1 0.24            114            275 256 
                                                                                
