 2014  5 8 0252 26.0 L   6.775 -73.186137.1  RSN  4 0.2 1.4LRSN                1
 GAP=178        0.61       3.9     3.3  7.0 -0.6262E+01  0.8745E+01 -0.3498E+01E
 Epicentro: LOS SANTOS - SANTANDER                                             3
 ACTION:UPD 15-03-16 16:55 OP:nd   STATUS:               ID:20140508025226 L   I
 OLDACT:REG 14-05-08 13:10 OP:carl STATUS:               ID:20140508024820     3
 2014-05-08-0248-20M.COL___233                                                 6
 STAT SP IPHASW D HRMM SECON CODA AMPLIT PERI AZIMU VELO AIN AR TRES W  DIS CAZ7
 PAM  SZ EP        252 47.71                             148    0.1110 82.3  41 
 PAM  SN ES        253  4.39                             148   -0.0710 82.3  41 
 PAM  SZ I         253  6.69         3.6 0.50            150           82.3  41 
 PTB  HZ EP        252 51.85                             131    0.05 9  143 260 
 PTB  HN ES        253 12.38                             131    0.43 9  143 260 
 PTB  HZ I         253 15.31         4.0 0.36            133            143 260 
 SPBC HN ES        253 14.44                             128   -0.27 9  158 218 
 ZAR  HZ EP        252 57.55                             121   -0.01 9  201 293 
 ZAR  HN ES        253 21.87                             121   -0.32 9  201 293 
 ZAR  HZ I         253 25.74         2.3 0.14            123            201 293 
                                                                                
