 2016  1 8 0020 28.7 L   6.824 -73.147143.6  RSN  9 0.4 1.8LRSN                1
 GAP=135        1.07       3.6     4.6  7.1 -0.2842E+01  0.1315E+02 -0.3917E+01E
 Epicentro: LOS SANTOS - SANTANDER                                             3
 ACTION:UPD 16-03-09 23:23 OP:cam  STATUS:               ID:20160108002028 L   I
 OLDACT:UP  16-01-08 12:45 OP:drio STATUS:               ID:20160108001737     3
 OLDACT:REG 16-01-08 12:21 OP:drio STATUS:               ID:20160108001737     3
 2016-01-08-0017-37M.COL___299                                                 6
 STAT SP IPHASW D HRMM SECON CODA AMPLIT PERI AZIMU VELO AIN AR TRES W  DIS CAZ7
 BAR2 EZ EP        020 48.08                             169   -0.0410 26.0 189 
 BAR2 EZ ES        021  3.41                             169    0.1410 26.0 189 
 BAR2 EZ I         021  4.37         9.4 0.26            171           26.0 189 
 BRR  HZ EP        020 50.25                             153    0.7210 69.8 297 
 BRR  HZ I         021 14.45         7.5 0.50            149           69.8 297 
 PAM  EZ EP        020 51.10                             151    0.5410 75.4  41 
 PAM  EN ES        021  7.56                             151   -0.0610 75.4  41 
 RUS  HZ EP        020 52.16                             143   -0.2710  103 176 
 RUS  HN ES        021 10.91                             143   -0.0310  103 176 
 RUS  HZ I         021 12.28         2.8 0.34            144            103 176 
 PTB  HZ EP        020 55.05                             131   -0.47 9  148 258 
 PTB  HN ES        021 15.96                             131   -0.48 9  148 258 
 PTB  HZ I         021 21.95         6.5 0.36            130            148 258 
 SPBC HZ EP        020 57.01                             128   -0.21 9  165 218 
 SPBC HN ES        021 19.01                             128   -0.46 9  165 218 
 SPBC HZ I         021 21.71        12.1 0.20            128            165 218 
 ZAR  HE ES        021 26.46                             122    0.48 9  203 291 
 SML  HZ EP        021  4.38                             117   -0.54 8  241 335 
 SML  HN ES        021 32.72                             117   -0.46 8  241 335 
 SML  HZ I         021 36.68         9.5 0.10            115            241 335 
 GUY2CHZ EP        021 12.83                             112    0.47 7  303 234 
 GUY2CHN ES        021 47.25                             112    0.83 7  303 234 
 GUY2CHZ I         021 55.09         4.4 0.74                           303 234 
                                                                                
