 2013  9 8 0245 27.7 L   6.729 -73.468114.3  RSN  8 0.4 1.7LRSN                1
 GAP= 68        0.94       3.7     4.7  6.5 -0.2042E+01  0.9485E+01 -0.2405E+01E
 Epicentro: EL CARMEN DE CHUCURI - SANTANDER                                   3
 ACTION:UPD 13-10-22 09:21 OP:ep   STATUS:               ID:20130908024527 L   I
 OLDACT:REG 13-09-08 07:35 OP:mh   STATUS:               ID:20130908023959     3
 2013-09-08-0239-59M.COL___269                                                 6
 STAT SP IPHASW D HRMM SECON CODA AMPLIT PERI AZIMU VELO AIN AR TRES W  DIS CAZ7
 BAR2 SZ EP        245 44.37                             162    0.4510 35.0 116 
 BAR2 SZ ES        245 56.65                             162    0.0710 35.0 116 
 BAR2 SZ I         245 57.26        15.0 0.56            161           35.0 116 
 BRR  HZ EP   1    245 44.39                             155    0.16 7 49.7 327 
 BRR  HN ES        245 57.19                             155    0.0610 49.7 327 
 BRR  HZ I         245 57.62        27.0 0.12            156           49.7 327 
 RUS  HZ EP   1    245 49.07                             136    0.47 7  102 155 
 RUS  HN ES        246  4.86                             136   -0.0510  102 155 
 RUS  HN I         246  8.21         5.8 0.44            135            102 155 
 PAM  SZ EP        245 48.79                             134   -0.3810  108  51 
 PAM  SN ES   1    246  5.68                             134   -0.24 7  108  51 
 PAM  SZ I         246  9.35         3.5 0.26            134            108  51 
 PTB  HZ EP        245 48.15                             132   -0.6210  111 259 
 PTB  HN ES   4    246  3.32                             132   -1.91 0  111 259 
 PTB  HZ I         246  4.28         9.2 0.30            133            111 259 
 SPBC HZ EP   1    245 51.56                             126    0.29 7  137 209 
 SPBC HN ES        246  9.38                             126   -0.29 9  137 209 
 SPBC HZ I         246 12.83         7.4 0.80            126            137 209 
 ZAR  HZ EP   1    245 56.16                             119    1.02 7  175 299 
 ZAR  HN ES   4    246 18.72                             119    2.15 0  175 299 
 ZAR  HZ I         246 20.14         9.8 0.28            119            175 299 
 SML  HZ EP   1    246  1.81                             111   -0.36 6  239 344 
 SML  HN ES   4    246 30.18                             111    1.11 0  239 344 
                                                                                
