 2012  7 8 0918 51.3 L   6.793 -73.133146.0  RSN 12 0.4 2.7LRSN                1
 GAP=115        0.88       3.1     4.7  6.1  0.1989E+01  0.7605E+01  0.5476E+01E
 Epicentro: LOS SANTOS - SANTANDER                                             3
 ACTION:UPD 12-08-14 11:43 OP:ep   STATUS:               ID:20120708091851 L   I
 2012-07-08-0917-59S.COL___214                                                 6
 STAT SP IPHASW D HRMM SECON CODA AMPLIT PERI AZIMU VELO AIN AR TRES W  DIS CAZ7
 BAR2 SZ EP   1    919 10.98                             171     0.1 7   23 194 
 BAR2 SZ ES   1    919 25.90                             171    -0.3 7   23 194 
 BAR2 SZ I         919 28.56       140.7 0.24                            23 194 
 BRR  HZ EP   1    919 12.77                             152     0.2 7   73 299 
 BRR  HZ I         919 13.07        86.3 0.16                            73 299 
 BRR  HN ES   1    919 29.93                             152     0.8 7   73 299 
 PAM  SZ EP   1    919 13.65                             151     0.2 7   77  38 
 PAM  SN ES   1    919 30.59                             151    -0.2 7   77  38 
 RUS  HZ EP   1    919 14.83                             144    -0.1 7  100 177 
 RUS  HE ES   1    919 33.41                             144    -0.1 7  100 177 
 RUS  HZ I         919 34.83        34.5 0.28                           100 177 
 OCA  HZ EP   1    919 18.99                             130    -0.7 7  161 353 
 OCA  HN ES   1    919 41.46                             130    -0.4 7  161 353 
 YOP  SZ EP   1    919 21.39                             127     0.2 7  178 154 
 YOP  SN ES   1    919 45.24                             127     0.7 7  178 154 
 ZAR  HZ EP   1    919 23.85                             122     0.0 6  206 292 
 ZAR  HN ES   1    919 49.40                             122     0.1 6  206 292 
 NOR  SZ EP   1    919 26.89                             118    -0.2 6  235 235 
 NOR  SN ES   1    919 54.72                             118    -0.3 6  235 235 
 CHI  HZ EP   1    919 28.95                             117     0.0 6  248 196 
 CHI  HN ES   1    919 57.53                             117    -0.8 6  248 196 
 CHI  HZ I         920  8.15        25.7 0.76                           248 196 
 ROSC BZ EP   1    919 30.29                             117     0.9 6  253 211 
 ROSC BZ I         920  8.93        55.3 0.36                           253 211 
 VIL  SZ EP   1    919 34.63                             112     0.0 5  303 192 
 VIL  SE ES   1    920  7.79                             112    -0.7 5  303 192 
 TOL  SZ EP   1    919 40.14                             109     0.6 5  344 225 
