 2010  3 8 0611 52.5 L   6.839 -73.095138.6  RSN  5 0.4 1.6LRSN                1
 GAP=188        0.72       3.8     8.5  7.9  0.3946E+01  0.7354E+01 -0.1200E+02E
 Epicentro: LOS SANTOS - SANTANDER                                             3
 ACTION:UP  10-08-24 09:52 OP:vdl  STATUS:               ID:20100308061151 L   I
 2010-03-08-0607-59S.COL___101                                                 6
 STAT SP IPHASW D HRMM SECON CODA AMPLIT PERI AZIMU VELO SNR AR TRES W  DIS CAZ7
 BAR2 SZ IP        612 11.32                             167    -0.110   29 200 
 BAR2 SZ ES   1    612 25.98                             167    -0.2 7   29 200 
 BRR  HE ES   2    612 29.87                             150     0.7 5   74 294 
 RUS  BZ EP   2    612 15.54                             141    -0.4 5  105 179 
 RUS  BN ES        612 34.28                             141     0.210  105 179 
 RUS  BZ I         612 34.68         3.9 0.31                           105 179 
 OCA  SZ EP        612 20.29                             128     0.3 9  157 351 
 OCA  SZ ES   1    612 40.97                             128    -0.4 7  157 351 
 OCA  SZ I         612 49.29        10.5 0.23                           157 351 
 HEL  HZ EP   2    612 33.43                             113     0.3 4  279 255 
 HEL  HN ES   2    613  4.15                             113    -0.6 4  279 255 
 HEL  HZ I         613 10.84         2.1 0.29                           279 255 
                                                                                
