 2011  4 8 0636 58.5 L   6.767 -73.148146.1  RSN 10 0.4 2.1LRSN                1
 GAP=153        1.09       5.7     8.7  8.3 -0.2786E+02  0.7471E+00  0.8262E+01E
 Epicentro: LOS SANTOS - SANTANDER                                             3
 ACTION:UP  11-06-22 15:29 OP:REBC STATUS:               ID:20110408063658 L   I
 2011-04-08-0635-23S.COL___138                                                 6
 STAT SP IPHASW D HRMM SECON CODA AMPLIT PERI AZIMU VELO SNR AR TRES W  DIS CAZ7
 BAR2 SZ IP        637 18.00                             172    -0.110   20 191 
 BAR2 SZ ES   1    637 33.03                             172    -0.4 7   20 191 
 BAR2 SZ I         637 34.80        31.9 0.26                            20 191 
 BTL  SZ EP        637 18.21                             171     0.010   21 322 
 GIR2 SZ EP        637 17.99                             166    -0.410   35 352 
 GIR2 SZ ES   3    637 33.32                             166    -0.5 2   35 352 
 BRR  HZ IP     C  637 19.89                             152     0.110   73 301 
 BRR  HN ES   1    637 37.12                             152     0.7 7   73 301 
 BRR  HZ I         637 38.99        28.8 0.18                            73 301 
 PAM  SZ IP        637 20.93                             150     0.010   80  38 
 PAM  SZ I         637 21.06         9.9 0.18                            80  38 
 PAM  SN ES   1    637 38.15                             150    -0.3 7   80  38 
 GRA  SZ IP        637 24.79                             136     0.710  129  17 
 GRA  SZ I         637 25.94        19.2 0.30                           129  17 
 GRA  SZ ES   1    637 44.51                             136     0.5 7  129  17 
 OCA  SZ EP        637 26.46                             129    -0.7 9  164 353 
 OCA  SZ I         637 53.31        17.4 0.40                           164 353 
 NOR  SZ EP   2    637 33.76                             119    -0.3 4  232 235 
 NOR  SN ES   1    638  1.28                             119    -0.4 6  232 235 
 CHI  HZ EP        637 36.15                             118     0.3 8  245 195 
 CHI  HN ES   1    638  5.50                             118     0.5 6  245 195 
 CHI  HZ I         638 14.92         5.8 0.51                           245 195 
 RREF HN ES   3    638 19.82                             111    -0.3 2  319 230 
 MON  HZ EP   4    637 45.22                             109    -2.6 0  356 309 
 SDV  BZ EP   4    637 47.36                             108    -1.5 0  363  50 
                                                                                
