 2017  1 8 0256 42.0 L   6.803 -73.150143.5  RSN 18 0.5 2.5LRSN                1
 GAP=101        1.08       4.0     3.4  5.9  0.1041E+01  0.3989E+01  0.6304E+01E
 Epicentro: LOS SANTOS - SANTANDER                                             3
 ACTION:UPD 17-05-22 15:56 OP:jn   STATUS:               ID:20170108025642 L   I
 OLDACT:UP  17-01-08 14:36 OP:dln  STATUS:               ID:20170108024742     3
 OLDACT:UP  17-01-08 14:35 OP:dln  STATUS:               ID:20170108024742     3
 OLDACT:UP  17-01-08 14:34 OP:dln  STATUS:               ID:20170108024742     3
 OLDACT:UP  17-01-08 14:34 OP:dln  STATUS:               ID:20170108024742     3
 OLDACT:REG 17-01-08 12:31 OP:dnl  STATUS:               ID:20170108024742     3
 2017-01-08-0248-00M.COL___374                                                 6
 STAT SP IPHASW D HRMM SECON CODA AMPLIT PERI AZIMU VELO AIN AR TRES W  DIS CAZ7
 BAR2 EZ IP     D  257  1.03                             170   -0.2910 23.5 189 
 BAR2 EZ ES        257 15.74                             170   -0.6910 23.5 189 
 BAR2 EZ I         257 17.28       126.2 0.28            166           23.5 189 
 BRR  HZ IP     C  257  2.84                             152    0.0110 70.6 299 
 BRR  HN ES        257 19.88                             152    0.7710 70.6 299 
 BRR  HZ I         257 23.07        89.5 0.28            151           70.6 299 
 PAM  EZ IP        257  4.04                             150    0.1010 77.5  40 
 PAM  EN ES        257 21.31                             150    0.2210 77.5  40 
 PAM  EZ I         257 23.24       108.4 0.54            153           77.5  40 
 RUS  HZ IP     D  257  4.98                             143   -0.5310  101 176 
 RUS  HN ES        257 23.91                             143    0.0310  101 176 
 RUS  HZ I         257 24.79        16.9 0.34            140            101 176 
 PTB  HZ EP        257  7.80                             132   -0.90 9  147 259 
 PTB  HE ES        257 29.42                             132   -0.14 9  147 259 
 PTB  HZ I         257 36.03        52.3 0.46            129            147 259 
 TAM  HZ IP     D  257  9.49                             130   -0.02 9  156 105 
 TAM  HZ I         257 30.37        11.7 0.40            129            156 105 
 TAM  HE ES        257 31.31                             130    0.31 9  156 105 
 ZAR  HZ EP        257 14.20                             122    0.00 9  203 292 
 ZAR  HN ES        257 39.48                             122    0.14 9  203 292 
 ZAR  HZ I         257 45.10        45.5 0.34            121            203 292 
 CHI  HZ EP        257 19.35                             117   -0.20 8  249 195 
 CHI  HE ES        257 49.39                             117    0.52 8  249 195 
 CHI  HZ I         257 52.11        20.6 0.44            115            249 195 
 ROSC BZ EP        257 20.86                             116    0.91 8  253 211 
 ROSC BN ES   4    257 51.53                             116    1.94 0  253 211 
 ROSC BZ I         257 57.26        40.4 0.35            114            253 211 
 URE  HZ EP   4    257 20.93                             113   -1.93 0  283 292 
 URE  HN ES   4    257 52.01                             113   -2.74 0  283 292 
 URE  HZ I         258  2.59        30.0 0.28            112            283 292 
 GUY2CHZ EP   4    257 27.35                             112    1.91 0  301 235 
 GUY2CHN ES   4    258  2.38                             112    3.04 0  301 235 
 GUY2CHZ I         258  6.25         9.3 0.26                           301 235 
 PTGC HZ IP   4 D  257 24.18                             111   -1.59 0  309 159 
 PTGC HN ES   4    257 57.80                             111   -2.14 0  309 159 
 PTGC HZ I         258  0.29        29.3 0.40            110            309 159 
 LL6C HZ EP   4    257  7.11                             110   -20.4 0  325 358 
 LL6C HE ES   4    257 41.97                             110   -21.1 0  325 358 
 LL6C HZ I         257 45.62        11.8 0.68            110            325 358 
 CBOC HZ EP   2    257 28.86                             109    0.12 3  333 252 
 CBOC HN ES   2    258  4.67                             109   -0.55 3  333 252 
 CBOC HZ I         258 13.85         4.0 0.72            108            333 252 
 DBB  EZ EP   4    257 30.61                             109    1.33 0  339 274 
 DBB  EN ES   4    258  4.35                             109   -1.85 0  339 274 
 DBB  EZ I         258  9.58         7.5 0.30            108            339 274 
 ORTC HZ EP   2    257 35.90                             106    0.11 3  395 216 
 ORTC HN ES        258 18.55                             106    0.77 6  395 216 
 ORTC HZ I         258 21.90        12.1 0.28            105            395 216 
 SJC  HZ EP   4    257 35.40                             105   -1.99 0  409 327 
 SJC  HN ES   4    258 16.41                             105   -4.21 0  409 327 
 SJC  HZ I         258 20.95         6.5 0.28            105            409 327 
 CRJC HZ EP   4    257 41.29                             103   -3.08 0  467   4 
 CRJC HN ES   4    258 28.52                             103   -4.53 0  467   4 
 CRJC HZ I         258 34.66         9.6 0.18            103            467   4 
                                                                                
