 2012  1 8 0119 52.0 L   6.738 -73.111144.5  RSN  6 0.4 1.1LRSN                1
 GAP=144        0.70       6.3     6.4  8.4 -0.2026E+01 -0.5231E+01  0.1207E+02E
 Epicentro: JORDAN - SANTANDER                                                 3
 ACTION:UP  12-02-03 08:15 OP:REBC STATUS:               ID:20120108011952 L   I
 2012-01-08-0120-00M.COL___186                                                 6
 STAT SP IPHASW D HRMM SECON CODA AMPLIT PERI AZIMU VELO SNR AR TRES W  DIS CAZ7
 BAR2 SZ ES   2    120 25.72                             173    -0.8 5   18 206 
 BAR2 SZ I         120 27.19         4.5 0.25                            18 206 
 GIR2 SZ ES   2    120 27.04                             164    -0.1 5   39 346 
 BRR  HZ EP   2    120 13.41                             150     0.0 5   78 302 
 BRR  HE ES   1    120 30.70                             150     0.6 7   78 302 
 PAM  SZ EP   1    120 14.32                             150     0.0 7   81  34 
 PAM  SN ES   2    120 31.39                             150    -0.3 5   81  34 
 RUS  HZ EP   1    120 15.28                             146     0.1 7   94 178 
 RUS  HE ES   2    120 33.64                             146     0.4 5   94 178 
 RUS  HZ I         120 34.97         1.5 0.30                            94 178 
 PTB  HZ EP   2    120 18.80                             131    -0.3 5  150 262 
 PTB  HE ES   2    120 39.66                             131    -0.6 5  150 262 
                                                                                
