 2012  6 8 0403 45.8 L   6.785 -73.138146.6  RSN 14 0.5 2.7LRSN                1
 GAP=127        0.81       3.3     3.7  5.3 -0.2748E+01  0.6015E+01  0.4047E+00E
 Epicentro: LOS SANTOS - SANTANDER                                             3
 ACTION:UPD 12-08-06 17:48 OP:ep   STATUS:               ID:20120608040354 L   I
 2012-06-08-0400-00M.COL___201                                                 6
 STAT SP IPHASW D HRMM SECON CODA AMPLIT PERI AZIMU VELO AIN AR TRES W  DIS CAZ7
 BAR2 SZ EP        4 4  5.52                             171    0.0510 21.8 193 
 BAR2 SZ ES   1    4 4 20.88                             171    0.05 7 21.8 193 
 BAR2 SZ I         4 4 22.12       105.0 0.20            155           21.8 193 
 PAM  SZ EP        4 4  8.39                             151    0.2710 78.2  38 
 PAM  SN ES   1    4 4 25.76                             151    0.21 7 78.2  38 
 RUS  HZ EP        4 4  9.30                             144   -0.1810 98.8 176 
 RUS  HN ES   1    4 4 27.73                             144   -0.24 7 98.8 176 
 RUS  HZ I         4 4 29.47        38.3 0.32            126           98.8 176 
 PTB  HZ EP   1    4 4 12.03                             132   -0.82 7  148 260 
 PTB  HN ES   1    4 4 33.56                             132   -0.41 7  148 260 
 PTB  HZ I         4 4 36.93        43.4 0.20            120            148 260 
 OCA  HZ EP        4 4 14.33                             129    0.02 9  162 353 
 OCA  HN ES   1    4 4 36.80                             129    0.23 7  162 353 
 OCA  HZ I         4 4 42.42       109.2 0.20            121            162 353 
 ZAR  HZ EP   1    4 4 18.28                             122   -0.13 6  205 292 
 ZAR  HE ES   1    4 4 44.06                             122    0.19 6  205 292 
 ZAR  HZ I         4 4 50.73        57.2 0.37            113            205 292 
 NOR  SZ EP        4 4 21.32                             119   -0.19 8  234 235 
 NOR  SN ES   1    4 4 49.83                             119    0.44 6  234 235 
 CHI  HZ EP   1    4 4 23.48                             117    0.12 6  247 195 
 CHI  HZ I         4 5  0.74        21.3 0.26            106            247 195 
 ROSC BZ EP   1    4 4 25.05                             117    1.23 6  252 211 
 ROSC BZ I         4 5  3.35        66.1 0.38            106            252 211 
 HEL  HZ EP   1    4 4 26.66                             115    0.59 6  272 256 
 HEL  HN ES   1    4 4 56.89                             115   -0.61 6  272 256 
 HEL  HZ I         4 5  4.64        28.6 0.23            106            272 256 
 DBB  SZ EP        4 4 33.26                             110   -0.13 7  340 275 
 TOL  SZ EP   1    4 4 34.68                             109    0.69 5  343 225 
 SDV  BZ EP   1    4 4 34.81                             108   -1.08 5  361  50 
 PRA  HZ EP   1    4 4 38.82                             107   -0.37 4  391 210 
                                                                                
