 2016  3 8 0457 57.3 L   6.797 -73.171139.1  RSN  6 0.3 1.3LRSN                1
 GAP=242        0.74       4.6     4.4  5.4  0.8146E+01  0.6004E+01 -0.3288E+01E
 Epicentro: LOS SANTOS - SANTANDER                                             3
 ACTION:UPD 16-05-13 21:22 OP:cam  STATUS:               ID:20160308045757 L   I
 OLDACT:DUP 16-03-08 18:13 OP:cara STATUS:               ID:20160308045749d    3
 2016-03-08-0457-48M.COL___289                                                 6
 STAT SP IPHASW D HRMM SECON CODA AMPLIT PERI AZIMU VELO AIN AR TRES W  DIS CAZ7
 BAR2 EZ IP        458 16.10                             170   -0.0410 22.7 183 
 BAR2 EZ ES        458 30.99                             170    0.1710 22.7 183 
 BAR2 EZ I         458 31.80         3.8 0.24            168           22.7 183 
 RUS  HZ EP     D  458 20.29                             142   -0.1210  100 174 
 RUS  HE ES        458 38.35                             142   -0.0810  100 174 
 RUS  HZ I         458 39.73         1.8 0.42            143            100 174 
 PTB  HZ EP        458 22.88                             131   -0.62 9  145 259 
 PTB  HN ES        458 43.60                             131   -0.31 9  145 259 
 PTB  HZ I         458 46.37         2.5 0.18            130            145 259 
 SPBC HZ EP        458 25.16                             128    0.04 9  161 218 
 SPBC HN ES        458 47.14                             128    0.33 9  161 218 
 SPBC HZ I         458 52.02         3.0 0.20            128            161 218 
 ZAR  HZ EP        458 29.56                             121    0.47 9  202 293 
 ZAR  HN ES        458 53.96                             121    0.10 9  202 293 
 ZAR  HZ I         459  0.07         2.9 0.28            121            202 293 
 GUY2CHZ EP        458 40.65                             111    0.30 7  299 235 
 GUY2CHE ES   4    459 16.76                             111    2.85 0  299 235 
 GUY2CHZ I         459 24.02         1.0 0.60                           299 235 
                                                                                
