 2017  4 8 0645 31.9 L   6.762 -73.221142.0  RSN  5 0.3 1.1LRSN                1
 GAP=125        0.46       5.0     3.1  3.7 -0.2720E+01 -0.2794E+01  0.1536E+01E
 Epicentro: ZAPATOCA - SANTANDER                                               3
 ACTION:UPD 17-05-30 21:09 OP:jn   STATUS:               ID:20170408064531 L   I
 OLDACT:UP  17-04-08 16:23 OP:and  STATUS:               ID:20170408063742     3
 OLDACT:UP  17-04-08 16:23 OP:and  STATUS:               ID:20170408063742     3
 OLDACT:UP  17-04-08 16:23 OP:and  STATUS:               ID:20170408063742     3
 OLDACT:REG 17-04-08 12:58 OP:and  STATUS:               ID:20170408063742     3
 2017-04-08-0638-00M.COL___371                                                 6
 STAT SP IPHASW D HRMM SECON CODA AMPLIT PERI AZIMU VELO AIN AR TRES W  DIS CAZ7
 BAR2 EZ EP   2    645 51.39                             172    0.35 5 19.2 167 
 BAR2 EZ ES        646  5.86                             172   -0.0710 19.2 167 
 BAR2 EZ I         646  7.01         3.7 0.18            168           19.2 167 
 BRR  HZ EP   9    645 53.30                             154    0.89 0 66.4 305 
 BRR  HN ES        646  9.39                             154    0.1210 66.4 305 
 PAM  EZ IP     C  645 54.27                             147   -0.0310 86.0  42 
 RUS  HZ EP        645 55.02                             144   -0.0610 97.3 171 
 RUS  HN ES   3    646 14.07                             144    0.94 2 97.3 171 
 RUS  HZ I         646 15.31         2.6 0.38            142           97.3 171 
 PTB  HZ EP   2    645 58.30                             133    0.51 5  139 260 
 PTB  HN ES        646 17.84                             133   -0.11 9  139 260 
 PTB  HZ I         646 22.01         1.3 0.18            131            139 260 
                                                                                
