 2012  9 8 0132  9.6 L   6.723 -73.158145.0  RSN  7 0.4 1.9LRSN                1
 GAP=138        0.78       4.8     4.5  6.6  0.2186E+01  0.5150E+01  0.4751E+01E
 Epicentro: VILLANUEVA - SANTANDER                                             3
 ACTION:UPD 12-10-22 14:17 OP:ep   STATUS:               ID:20120908013209 L   I
 2012-09-08-0130-00M.COL___227                                                 6
 STAT SP IPHASW D HRMM SECON CODA AMPLIT PERI AZIMU VELO AIN AR TRES W  DIS CAZ7
 BAR2 SZ EP   1    132 28.96                             174   -0.02 7 14.7 191 
 BAR2 SZ I         132 29.23        21.0 0.20                          14.7 191 
 BAR2 SZ ES   1    132 43.72                             174   -0.39 7 14.7 191 
 GIR2 SZ EP   1    132 29.26                             164   -0.15 7 39.5 354 
 GIR2 SZ ES   1    132 44.46                             164   -0.43 7 39.5 354 
 BRR  HZ EP   1    132 30.93                             151    0.09 7 74.5 305 
 BRR  HZ I         132 32.55        15.9 0.10                          74.5 305 
 BRR  HN ES   1    132 48.18                             151    0.76 7 74.5 305 
 PAM  SZ EP   1    132 32.16                             148   -0.02 7 84.9  37 
 PAM  SZ I         132 32.32        10.9 0.18                          84.9  37 
 PAM  SE ES   1    132 49.81                             148    0.00 7 84.9  37 
 RUS  HZ EP        132 32.72                             146    0.0510 92.2 175 
 RUS  HZ I         132 33.91         6.8 0.14                          92.2 175 
 RUS  HE ES   1    132 51.24                             146    0.56 7 92.2 175 
 PTB  HZ EP   1    132 36.00                             132   -0.24 7  145 262 
 PTB  HN ES   1    132 56.35                             132   -0.68 7  145 262 
 ZAR  HE ES   1    133  8.09                             122    0.46 6  206 294 
 ZAR  HZ I         133 13.06         8.5 0.36                           206 294 
                                                                                
