 2013 11 8 0653  3.8 L   6.810 -73.152140.6  RSN 14 0.5 2.2LRSN                1
 GAP= 70        1.22       3.4     3.9  6.1 -0.2848E+01  0.7220E+01 -0.1363E+01E
 Epicentro: LOS SANTOS - SANTANDER                                             3
 ACTION:UPD 14-01-09 16:26 OP:ep   STATUS:               ID:20131108065303 L   I
 OLDACT:REG 13-11-08 07:37 OP:jn   STATUS:               ID:20131108065000     3
 2013-11-08-0650-00M.COL___273                                                 6
 STAT SP IPHASW D HRMM SECON CODA AMPLIT PERI AZIMU VELO AIN AR TRES W  DIS CAZ7
 BAR2 SZ EP        653 22.92                             170    0.1110 24.3 188 
 BAR2 SZ ES        653 37.42                             170   -0.2310 24.3 188 
 BAR2 SZ I         653 38.93        72.1 0.14            169           24.3 188 
 BRR  HZ EP        653 24.82                             152    0.5210 70.1 298 
 BRR  HN ES   1    653 41.36                             152    1.05 7 70.1 298 
 BRR  HZ I         653 44.79        44.8 0.38            150           70.1 298 
 PAM  SZ EP        653 25.77                             150    0.3510 76.9  40 
 PAM  SN ES        653 42.38                             150    0.0910 76.9  40 
 PAM  SZ I         653 45.11        45.6 0.60            150           76.9  40 
 RUS  HZ EP        653 26.88                             142   -0.2310  102 176 
 RUS  HN ES        653 44.96                             142   -0.3510  102 176 
 RUS  HZ I         653 46.54        16.8 0.34            142            102 176 
 PTB  HZ EP        653 29.55                             131   -0.74 9  147 258 
 PTB  HN ES        653 50.13                             131   -0.83 9  147 258 
 PTB  HZ I         653 54.73        18.1 0.36            129            147 258 
 TAM  HZ EP        653 31.22                             129    0.08 9  156 105 
 TAM  HZ I         653 46.20        17.6 0.14            129            156 105 
 OCA  HZ EP        653 31.07                             129   -0.51 9  159 353 
 OCA  HN ES   1    653 52.98                             129   -0.28 7  159 353 
 OCA  HZ I         653 55.41        15.6 0.18            128            159 353 
 SPBC HZ EP        653 31.92                             128   -0.01 9  164 219 
 SPBC HN ES        653 54.26                             128    0.38 9  164 219 
 SPBC HZ I         654  0.89        15.8 0.30            127            164 219 
 ZAR  HZ EP        653 35.70                             121   -0.08 9  203 292 
 ZAR  HE ES        654  1.67                             121    0.92 9  203 292 
 ZAR  HZ I         654  7.70        27.1 0.36            120            203 292 
 NOR  HZ EP        653 39.52                             117    0.30 8  235 234 
 NOR  HN ES        654  6.76                             117   -0.11 8  235 234 
 NOR  HZ I         654 12.17        11.8 0.24            116            235 234 
 SML  HZ EP        653 39.08                             116   -0.90 8  242 335 
 SML  HE ES        654  7.93                             116   -0.28 8  242 335 
 SML  HZ I         654 16.03        28.5 0.22            116            242 335 
 ROSC BZ EP   4    653 43.33                             115    1.64 0  253 211 
 ROSC BN ES   4    654 12.66                             115    1.40 0  253 211 
 HEL  HZ EP        653 44.84                             114    1.15 8  272 256 
 HEL  HN ES        654 14.48                             114   -0.34 8  272 256 
 HEL  HZ I         654 23.74         7.0 0.28            113            272 256 
 GUY2CHZ EP        653 47.61                             111    0.45 7  301 235 
 GUY2CHN ES        654 20.76                             111   -0.24 7  301 235 
 GUY2CHZ I         654 28.02         9.0 0.36                           301 235 
 PTGC HN ES   4    654 19.03                             110   -2.67 0  310 159 
 CBOC HZ EP        653 51.10                             109    0.65 7  333 252 
 CBOC HE ES   2    654 25.55                             109   -1.30 3  333 252 
 CBOC HZ I         654 38.69         2.7 0.50            108            333 252 
                                                                                
