 2012  4 8 0002 10.4 L   6.671 -73.230148.3  RSN  4 0.1 1.5LRSN                1
 GAP=217        0.37       4.4     4.5  4.5  0.1456E+02  0.1558E+01 -0.9203E+00E
 Epicentro: BARICHARA - SANTANDER                                              3
 ACTION:UPD 12-07-05 11:51 OP:tino STATUS:               ID:20120408000210 L   I
 2012-04-08-0000-00M.COL___196                                                 6
 STAT SP IPHASW D HRMM SECON CODA AMPLIT PERI AZIMU VELO AIN AR TRES W  DIS CAZ7
 BRR  HN ES   1    0 2 48.68                             153     0.0 7   72 312 
 RUS  HZ EP   1    0 2 33.52                             148     0.0 7   88 169 
 RUS  HZ I         0 2 34.07         5.3 0.76                            88 169 
 RUS  HN ES   1    0 2 51.58                             148     0.0 7   88 169 
 PTB  HZ EP   1    0 2 36.87                             135     0.2 7  136 264 
 PTB  HN ES   1    0 2 56.96                             135    -0.1 7  136 264 
 PTB  HZ I         0 3  0.84         2.6 0.46                           136 264 
 ZAR  HZ EP   1    0 2 42.62                             123    -0.2 6  202 297 
 ZAR  HN ES   1    0 3  8.03                             123     0.0 6  202 297 
 ZAR  HZ I         0 3  8.51         3.6 0.64                           202 297 
                                                                                
