 2016  6 8 0226 24.7 L   6.876 -73.140154.0  RSN 22 0.6 2.5LRSN                1
 GAP= 69        1.34       3.9     4.2  6.5 -0.3732E+01  0.4104E+01  0.1169E+01E
 Epicentro: LOS SANTOS - SANTANDER                                             3
 ACTION:UPD 16-07-21 22:16 OP:rebc STATUS:               ID:20160608022624 L   I
 OLDACT:UP  16-06-08 16:15 OP:dani STATUS:               ID:20160608021746d    3
 OLDACT:DUP 16-06-08 15:46 OP:dani STATUS:               ID:20160608021746d    3
 OLDACT:UP  16-06-08 15:44 OP:dani STATUS:               ID:20160608021745     3
 OLDACT:REG 16-06-08 12:43 OP:dani STATUS:               ID:20160608021745     3
 2016-06-08-0217-45M.COL___337                                                 6
 STAT SP IPHASW D HRMM SECON CODA AMPLIT PERI AZIMU VELO AIN AR TRES W  DIS CAZ7
 BAR2 EZ EP     D  226 45.27                             168   -0.2610 31.8 189 
 BAR2 EZ I         227  2.64        52.8 0.22                          31.8 189 
 BRR  HZ EP     C  226 47.06                             155    0.4510 68.2 292 
 BRR  HN ES        227  4.14                             155    0.4610 68.2 292 
 BRR  HZ I         227  6.91        41.3 0.18                          68.2 292 
 PAM  EZ EP     D  226 48.21                             155    0.7610 70.6  43 
 PAM  EE ES        227  5.49                             155    0.3210 70.6  43 
 PAM  EZ I         227  7.31        62.6 0.50                          70.6  43 
 RUS  HZ EP        226 49.39                             143   -0.5010  109 177 
 RUS  HT ES        227  8.64                             143   -0.8810  109 177 
 RUS  HZ I         227  9.17        44.1 0.36                           109 177 
 PTB  HZ EP   4    226 51.57                             133   -1.02 0  150 256 
 PTB  HN ES        227 14.29                             133   -0.04 9  150 256 
 PTB  HZ I         227 15.11        51.3 0.12                           150 256 
 TAM  HZ IP     C  226 53.66                             132    0.44 9  157 108 
 SPBC HZ EP        226 54.24                             130   -0.28 9  170 217 
 SPBC HN ES        227 17.07                             130   -0.69 9  170 217 
 SPBC HZ I         227 23.25        44.2 0.28                           170 217 
 NOR  HZ EP        227  1.37                             120   -0.16 8  240 233 
 NOR  HE ES        227 29.96                             120   -0.28 8  240 233 
 NOR  HZ I         227 36.14        31.9 0.18                           240 233 
 CHI  HZ EP        227  3.61                             118   -0.17 8  257 195 
 CHI  HN ES        227 34.72                             118    0.47 8  257 195 
 CHI  HZ I         227 36.16        18.5 0.38                           257 195 
 ROSC BZ EP   9    227  5.18                             118    1.06 0  260 210 
 ROSC BN ES        227 37.59                             118    1.68 8  260 210 
 ROSC BZ I         227 43.60        25.0 0.35                           260 210 
 HEL  HZ EP   4    227  7.43                             116    1.75 0  275 254 
 HEL  HN ES        227 37.97                             116    0.35 8  275 254 
 HEL  HZ I         227 44.79        15.7 0.32                           275 254 
 URE  HZ EP        227  5.79                             115   -0.15 7  281 290 
 URE  HN ES        227 36.58                             115   -1.50 7  281 290 
 URE  HZ I         227 48.39        17.0 0.18                           281 290 
 VIL  SZ EP        227  9.15                             113   -0.32 7  312 191 
 VIL  ST ES   4    227 45.88                             113    1.51 0  312 191 
 ELA  HZ EP   4    227 15.66                             111    3.04 0  335 228 
 ELA  HN ES   4    227 51.98                             111    2.00 0  335 228 
 ELA  HZ I         227 59.92         9.1 0.32                           335 228 
 CBOC HZ EP        227 13.53                             111    1.16 7  337 251 
 CBOC HN ES        227 50.36                             111    0.83 7  337 251 
 CBOC HZ I         228  6.48         5.1 0.48                           337 251 
 DBB  SZ EP        227 12.77                             111    0.21 7  340 273 
 DBB  SZ ES   4    227 48.46                             111   -1.41 0  340 273 
 DBB  SZ I         227 57.26        28.2 0.62                           340 273 
 ANIL HZ EP   9    227 16.74                             110    1.14 0  364 224 
 ANIL HE ES        227 56.77                                    0.34 6  364 224 
 ANIL HZ I         228  2.28        33.5 0.26                           364 224 
 PRA  HZ EP        227 19.19                             108   -0.24 6  400 209 
 PRA  HN ES        228  2.60                             108    0.50 6  400 209 
 PRA  HZ I         228  7.68        12.9 0.56                           400 209 
 ORTC HZ EP        227 19.96                             107    0.19 6  403 216 
 ORTC HN ES        228  3.33                             107    0.61 6  403 216 
 ORTC HZ I         228  9.36         6.1 0.20                           403 216 
 SJC  HZ EP        227 19.43                             107   -0.35 6  403 326 
 SJC  HT ES   4    228  3.72                             107    0.99 0  403 326 
 SJC  HZ I         228  4.84         3.8 0.60                           403 326 
 PAL  HN ES        228  4.78                             107    0.34 6  411 238 
 CRJC HZ EP        227 25.48                             105   -0.98 5  459   4 
 CRJC HN ES        228 14.42                             105   -0.20 5  459   4 
 CRJC HZ I         228 20.23         7.6 0.65                           459   4 
 SMAR HZ EP   4    227 31.30                             104    1.44 0  489 346 
 SMAR HZ ES   4    228 18.79                             104   -1.88 0  489 346 
                                                                                
