 2016  3 8 0253 56.8 L   6.777 -73.186145.5  RSN  6 0.1 1.3LRSN                1
 GAP=141        0.37       2.1     2.1  3.0 -0.2041E+01  0.1353E+01 -0.9013E+00E
 Epicentro: LOS SANTOS - SANTANDER                                             3
 ACTION:UPD 16-05-13 21:22 OP:cam  STATUS:               ID:20160308025356 L   I
 OLDACT:REG 16-03-08 13:52 OP:cara STATUS:               ID:20160308024748     3
 2016-03-08-0247-48M.COL___295                                                 6
 STAT SP IPHASW D HRMM SECON CODA AMPLIT PERI AZIMU VELO AIN AR TRES W  DIS CAZ7
 BAR2 EZ IP     D  254 16.32                             172   -0.0210 20.5 179 
 BAR2 EZ ES        254 31.65                             172    0.0610 20.5 179 
 BAR2 EZ I         254 33.14         3.2 0.38            170           20.5 179 
 PAM  EZ EP        254 19.36                             149    0.0810 82.1  41 
 PAM  EN ES        254 36.67                             149   -0.1410 82.1  41 
 PAM  EZ I         254 38.07         4.3 0.50            152           82.1  41 
 RUS  HZ EP        254 20.34                             144   -0.0310 98.5 173 
 RUS  HN ES        254 38.90                             144    0.1410 98.5 173 
 RUS  HZ I         254 40.37         2.9 0.30            144           98.5 173 
 PTB  HZ EP        254 23.39                             133    0.08 9  143 259 
 PTB  HN ES        254 44.06                             133    0.07 9  143 259 
 PTB  HZ I         254 45.38         2.2 0.34            133            143 259 
 SPBC HN ES        254 46.43                             130   -0.27 9  158 218 
 SPBC HZ I         254 53.21         3.2 0.34            130            158 218 
 GUY2CHZ EP   9    254 42.05                             113    2.23 0  296 235 
 GUY2CHE ES        255 15.68                                    0.07 7  296 235 
 GUY2CHZ I         255 21.19         0.6 0.30                           296 235 
                                                                                
