 2015  3 8 0144 23.5 L   6.745 -73.190152.0  RSN  5 0.3 1.1LRSN                1
 GAP=228        0.67       5.9     6.2  5.7  0.1755E+02  0.4566E+01  0.7841E+01E
 Epicentro: VILLANUEVA - SANTANDER                                             3
 ACTION:UPD 15-04-30 16:24 OP:nd   STATUS:               ID:20150308014423 L   I
 OLDACT:DUP 15-03-08 16:27 OP:spq  STATUS:               ID:20150308013750d    3
 2015-03-08-0137-49M.COL___284                                                 6
 STAT SP IPHASW D HRMM SECON CODA AMPLIT PERI AZIMU VELO AIN AR TRES W  DIS CAZ7
 BAR2 EZ EP        144 43.50                             173   -0.2410 16.9 177 
 BAR2 EZ ES   1    144 59.34                             173   -0.22 7 16.9 177 
 BAR2 EZ I         144 59.99         4.8 0.23            168           16.9 177 
 BRR  HZ EP        144 45.18                             154   -0.0610 70.2 305 
 BRR  HE ES        145  2.62                             154    0.3910 70.2 305 
 BRR  HZ I         145  4.63         2.8 0.20            151           70.2 305 
 RUS  HZ EP   1    144 47.66                             147    0.20 7 95.0 173 
 RUS  HE ES   1    145  6.14                             147   -0.02 7 95.0 173 
 RUS  HZ I         145  7.31         1.2 0.44            146           95.0 173 
 PTB  HZ EP        144 50.20                             135   -0.24 9  142 261 
 PTB  HN ES   1    145 11.25                             135   -0.22 7  142 261 
 PTB  HZ I         145 16.51         1.3 0.40            132            142 261 
 CHI  HZ EP   1    145  1.45                             119    0.69 6  241 194 
                                                                                
