 2014 11 8 0906 43.7 L   6.794 -73.134149.0  RSN 13 0.4 1.9LRSN                1
 GAP=138        0.99       3.1     4.5  5.0 -0.4103E+01  0.5010E+01  0.2412E+01E
 Epicentro: LOS SANTOS - SANTANDER                                             3
 ACTION:UPD 14-12-19 15:40 OP:nd   STATUS:               ID:20141108090643 L   I
 OLDACT:UP  14-11-08 15:18 OP:cam  STATUS:               ID:20141108085814     3
 OLDACT:UP  14-11-08 15:17 OP:cam  STATUS:               ID:20141108085814     3
 OLDACT:REG 14-11-08 13:29 OP:cam  STATUS:               ID:20141108085814     3
 2014-11-08-0858-14M.COL___286                                                 6
 STAT SP IPHASW D HRMM SECON CODA AMPLIT PERI AZIMU VELO AIN AR TRES W  DIS CAZ7
 BAR2 SZ EP        9 7  3.70                             171    0.0310 22.9 193 
 BAR2 SZ ES        9 7 19.29                             171    0.0010 22.9 193 
 BAR2 SZ I         9 7 21.40        19.9 0.28            170           22.9 193 
 BRR  HZ EP        9 7  5.62                             153    0.3810 72.6 299 
 BRR  HE ES        9 7 22.90                             153    0.8210 72.6 299 
 BRR  HZ I         9 7 26.56        12.7 0.50            151           72.6 299 
 PAM  SZ EP     C  9 7  6.49                             151    0.2910 77.1  38 
 PAM  SN ES        9 7 23.89                             151    0.1010 77.1  38 
 PAM  SZ I         9 7 25.88        17.8 0.46            155           77.1  38 
 RUS  HZ EP     D  9 7  7.59                             145   -0.0910 99.8 177 
 RUS  HN ES        9 7 26.20                             145   -0.2210 99.8 177 
 RUS  HZ I         9 7 27.74         6.9 0.38            148           99.8 177 
 PTB  HZ EP        9 7 10.51                             132   -0.48 9  149 259 
 PTB  HN ES        9 7 31.82                             132   -0.49 9  149 259 
 PTB  HZ I         9 7 39.30        14.5 0.28            133            149 259 
 OCA  HZ EP        9 7 11.80                             130   -0.50 9  161 353 
 OCA  HN ES        9 7 34.04                             130   -0.60 9  161 353 
 OCA  HZ I         9 7 42.30         9.8 0.18            132            161 353 
 SPBC HZ EP        9 7 12.52                             130    0.09 9  163 219 
 SPBC HN ES        9 7 34.41                             130   -0.47 9  163 219 
 SPBC HZ I         9 7 39.80        18.1 0.40            131            163 219 
 NOR  HZ EP        9 7 19.41                             119   -0.24 8  235 235 
 NOR  HN ES        9 7 47.88                             119    0.16 8  235 235 
 NOR  HZ I         9 7 51.40         8.7 0.36            121            235 235 
 CHI  HZ EP        9 7 21.80                             118    0.30 8  248 195 
 CHI  HN ES        9 7 51.02                             118   -0.01 8  248 195 
 CHI  HZ I         9 7 57.13         3.3 0.48            120            248 195 
 HEL  HZ EP        9 7 24.68                             115    0.53 8  273 256 
 GUY2CHZ EP        9 7 28.25                             113    0.76 7  302 235 
 TOL  SZ EP        9 7 32.49                             110    0.40 7  344 225 
 PRA  HZ EP        9 7 36.66                             107   -0.64 6  392 210 
                                                                                
