 2015  4 8 0610 46.4 L   6.814 -73.152142.1  RSN 14 0.5 2.4LRSN                1
 GAP=135        1.08       2.8     4.1  5.8 -0.1282E+01  0.5820E+01  0.1307E+01E
 Epicentro: LOS SANTOS - SANTANDER                                             3
 ACTION:UPD 15-06-03 16:53 OP:cam  STATUS:               ID:20150408061046 L   I
 OLDACT:UP  15-04-08 16:30 OP:mh   STATUS:               ID:20150408060748     3
 OLDACT:UP  15-04-08 16:29 OP:mh   STATUS:               ID:20150408060748     3
 OLDACT:REG 15-04-08 13:07 OP:akv  STATUS:               ID:20150408060748     3
 2015-04-08-0607-48M.COL___260                                                 6
 STAT SP IPHASW D HRMM SECON CODA AMPLIT PERI AZIMU VELO AIN AR TRES W  DIS CAZ7
 BAR2 EZ EP   1    611  5.65                             170    0.09 7 24.7 188 
 BAR2 EZ ES        611 20.36                             170   -0.1910 24.7 188 
 BAR2 EZ I         611 23.75        57.7 0.56            170           24.7 188 
 BRR  HZ EP        611  7.44                             152    0.4210 69.8 298 
 BRR  HN ES        611 23.93                             152    0.7910 69.8 298 
 BRR  HZ I         611 28.48        41.1 0.31            150           69.8 298 
 PAM  SZ EP        611  8.53                             150    0.4010 76.7  41 
 PAM  SN ES   1    611 25.68                             150    0.56 7 76.7  41 
 PAM  SZ I         611 26.53        28.7 0.15            154           76.7  41 
 RUS  HZ EP   1    611  9.71                             143   -0.15 7  102 176 
 RUS  HN ES        611 27.80                             143   -0.3910  102 176 
 RUS  HZ I         611 29.74        14.7 0.38            146            102 176 
 PTB  HZ EP   1    611 12.19                             131   -0.79 7  147 258 
 PTB  HN ES        611 33.10                             131   -0.65 9  147 258 
 PTB  HZ I         611 39.23        21.7 0.24            131            147 258 
 OCA  HZ EP   1    611 13.69                             129   -0.53 7  159 353 
 OCA  HN ES        611 35.51                             129   -0.45 9  159 353 
 OCA  HZ I         611 43.87        52.4 0.22            131            159 353 
 SPBC HZ EP   1    611 14.58                             128   -0.06 7  164 218 
 SPBC HN ES        611 36.70                             128   -0.00 9  164 218 
 SPBC HZ I    1    611 41.29        37.1 0.11            130            164 218 
 ZAR  HZ EP   1    611 18.07                             122   -0.35 6  203 292 
 ZAR  HN ES        611 43.42                             122   -0.02 9  203 292 
 ZAR  HZ I         611 48.69        28.4 0.28            122            203 292 
 NOR  HZ EP   1    611 21.88                             118   -0.02 6  235 234 
 NOR  HN ES        611 49.01                             118   -0.62 8  235 234 
 NOR  HZ I         611 54.69        16.9 0.20            119            235 234 
 SML  HZ EP   1    611 22.09                             117   -0.49 6  242 335 
 SML  HN ES        611 50.54                             117   -0.30 8  242 335 
 SML  HZ I         611 57.29        23.0 0.32            118            242 335 
 ROSC BZ EP   1    611 25.32                             116    0.95 6  254 211 
 ROSC BN ES   4    611 55.96                             116    1.93 0  254 211 
 ROSC BZ I         612  0.17        38.5 0.40            118            254 211 
 HEL  HZ EP        611 27.16                             114    0.82 8  272 255 
 HEL  HN ES        611 58.25                             114    0.72 8  272 255 
 HEL  HZ I         612  3.99        11.5 0.34            115            272 255 
 URE  HN ES   4    611 54.92                             113   -3.96 0  283 292 
 VIL  SZ EP        611 29.32                             111   -0.44 7  305 191 
 VIL  SN ES        612  3.58                             111   -0.03 7  305 191 
 VIL  SZ I         612  6.19        21.6 0.38            113            305 191 
 PTGC HZ EP   4    611 28.78                             111   -1.46 0  310 159 
 PTGC HN ES   4    612  2.07                             111   -2.40 0  310 159 
 ORTC HN ES        612 23.03                             106    0.76 6  396 216 
                                                                                
