 2011  7 8 0302  7.6 L   6.805 -73.031147.2  RSN  4 0.3 1.5LRSN                1
 GAP=171        0.67       4.1     8.7  9.8 -0.2680E+01 -0.2823E+02  0.3885E+00E
 Epicentro: CEPITA - SANTANDER                                                 3
 ACTION:UPD 12-07-25 13:59 OP:epov STATUS:               ID:20110708030207 L   I
 2011-07-08-0300-27S.COL___140                                                 6
 STAT SP IPHASW D HRMM SECON CODA AMPLIT PERI AZIMU VELO AIN AR TRES W  DIS CAZ7
 BAR2 SZ EP   1    3 2 27.14                             168   -0.43 7 28.9 215 
 BAR2 SZ I         3 2 43.75         4.9 0.32                          28.9 215 
 BRR  HZ EP   1    3 2 29.21                             149   -0.40 7 82.3 294 
 BRR  HZ I         3 2 29.60        10.0 0.13                          82.3 294 
 BRR  HN ES   1    3 2 47.02                             149    0.29 7 82.3 294 
 RUS  HZ EP   1    3 2 31.86                             144    0.29 7  101 183 
 RUS  HN ES   1    3 2 50.24                             144    0.00 7  101 183 
 GRA  SZ EP   1    3 2 33.15                             138    0.44 7  122  12 
 GRA  SZ I         3 2 34.38         2.6 0.32                           122  12 
 GRA  SZ ES   1    3 2 52.07                             138   -0.18 7  122  12 
                                                                                
