 2015  1 8 0736 37.6 L   6.870 -73.158146.4  RSN  7 0.5 1.5LRSN                1
 GAP=141        1.17       5.4     5.4  7.9 -0.4678E+01  0.1313E+02 -0.9225E+01E
 Epicentro: ZAPATOCA - SANTANDER                                               3
 ACTION:UPD 15-03-02 15:37 OP:nd   STATUS:               ID:20150108073637 L   I
 OLDACT:DUP 15-01-08 17:20 OP:carl STATUS:               ID:20150108072823d    3
 2015-01-08-0728-20M.COL___260                                                 6
 STAT SP IPHASW D HRMM SECON CODA AMPLIT PERI AZIMU VELO AIN AR TRES W  DIS CAZ7
 BAR2 EZ EP        736 57.46                             168   -0.0510 30.9 185 
 BAR2 EZ ES        737 12.38                             168   -0.6410 30.9 185 
 BAR2 EZ I         737 14.38         4.1 0.20            170           30.9 185 
 BRR  HZ EP        736 59.05                             154    0.4510 66.6 293 
 BRR  HN ES        737 15.62                             154    0.6710 66.6 293 
 BRR  HZ I         737 22.28         4.3 0.38            151           66.6 293 
 PAM  SZ EP        737  0.09                             152    0.4610 72.5  44 
 PAM  SN ES        737 16.92                             152    0.1310 72.5  44 
 PAM  SZ I         737 18.00         4.8 0.24            156           72.5  44 
 PTB  HZ EP        737  4.09                             132   -0.60 9  148 256 
 PTB  HN ES        737 25.51                             132   -0.28 9  148 256 
 PTB  HZ I         737 28.44         4.4 0.24            133            148 256 
 OCA  HN ES        737 26.49                             131   -0.32 9  152 353 
 OCA  HZ I         737 30.91         4.0 0.24            133            152 353 
 ZAR  HZ EP        737 10.04                             123    0.34 9  200 290 
 ZAR  HN ES        737 35.17                             123    0.46 9  200 290 
 ZAR  HZ I         737 41.50         5.3 0.50            124            200 290 
 SML  HZ EP        737 13.39                             118   -0.08 8  236 335 
 SML  HN ES        737 40.60                             118   -0.83 8  236 335 
 SML  HZ I         737 44.62         4.5 0.28            120            236 335 
                                                                                
