 2013  7 8 0937 47.3 L   6.070 -73.854 25.0  RSN  7 0.4 1.9LRSN                1
 GAP=138        1.09       3.1     2.4  7.1 -0.7263E+00  0.9244E+01  0.3226E+01E
 Epicentro: EL PEON - SANTANDER                                                3
 ACTION:UPD 13-08-12 10:36 OP:ep   STATUS:               ID:20130708093747 L   I
 OLDACT:REG 13-07-08 08:31 OP:nd   STATUS:               ID:20130708092959     3
 2013-07-08-0929-59M.COL___267                                                 6
 STAT SP IPHASW D HRMM SECON CODA AMPLIT PERI AZIMU VELO AIN AR TRES W  DIS CAZ7
 PTB  HZ IP     C  938  1.04                              90   -0.0110 84.4 308 
 PTB  HN ES        938 11.67                              90   -0.1210 84.4 308 
 PTB  HZ I         938 11.93       154.4 0.20            103           84.4 308 
 RUS  HZ EP        938  2.04                              90    0.0210 87.6 103 
 RUS  HN ES        938 13.24                              90   -0.2810 87.6 103 
 RUS  HZ I         938 15.50        25.4 0.28            103           87.6 103 
 BAR2 SZ IP     D  938  2.95                              90    0.2710 94.1  52 
 BAR2 SZ ES        938 14.39                              90   -0.3010 94.1  52 
 BAR2 SZ I         938 15.79        26.1 0.14            102           94.1  52 
 BRR  HZ IP     D  938  5.19                              61   -0.0210  116   8 
 BRR  HN ES        938 19.52                              61    0.3310  116   8 
 BRR  HZ I         938 20.82        22.2 0.42             56            116   8 
 NOR  HZ EP        938  6.48                              61   -0.0210  126 244 
 NOR  HN ES        938 20.83                              61   -0.6610  126 244 
 NOR  HZ I         938 21.68        16.9 0.16             56            126 244 
 HEL  HZ IP     C  938 14.37                              61   -0.04 9  186 274 
 HEL  HN ES        938 34.96                              61   -0.61 9  186 274 
 HEL  HZ I         938 37.44         7.9 0.22             56            186 274 
 GUY2CHZ IP     D  938 16.45                              61    1.18 9  192 241 
 GUY2CHN ES        938 37.59                              61    0.48 9  192 241 
 GUY2CHZ I         938 39.80        10.4 0.24                           192 241 
                                                                                
