 2016  8 8 0545  1.7 L   6.764 -73.156146.3  RSN  6 0.4 1.4LRSN                1
 GAP=233        0.87       4.9     5.4  7.6  0.9074E+01  0.9269E+01 -0.2371E+01E
 Epicentro: LOS SANTOS - SANTANDER                                             3
 ACTION:UPD 16-10-29 15:33 OP:rebc STATUS:               ID:20160808054501 L   I
 OLDACT:REG 16-08-08 12:45 OP:dnl  STATUS:               ID:20160808053727     3
 2016-08-08-0538-00M.COL___365                                                 6
 STAT SP IPHASW D HRMM SECON CODA AMPLIT PERI AZIMU VELO AIN AR TRES W  DIS CAZ7
 BAR2 EZ EP        545 21.29                             172   -0.0710 19.2 189 
 BAR2 EZ ES        545 36.42                             172   -0.2410 19.2 189 
 BAR2 EZ I         545 40.56         4.2 0.10                          19.2 189 
 BRR  HZ EP        545 23.16                             152    0.1510 72.2 302 
 BRR  HN ES        545 40.21                             152    0.6210 72.2 302 
 BRR  HZ I         545 43.99         3.6 0.36                          72.2 302 
 RUS  HZ EP   2    545 24.72                             145   -0.55 5 96.6 175 
 RUS  HN ES        545 43.46                             145   -0.1510 96.6 175 
 RUS  HZ I         545 45.11         2.4 0.18                          96.6 175 
 PTB  HZ EP   2    545 29.19                             133    0.61 5  146 260 
 PTB  HE ES        545 49.00                             133   -0.52 9  146 260 
 PTB  HZ I         545 56.09         3.4 0.66                           146 260 
 SPBC HZ EP   2    545 30.42                             130    0.50 5  159 220 
 SPBC HN ES        545 52.32                             130    0.43 9  159 220 
 SPBC HZ I         545 54.92         5.1 0.34                           159 220 
 ZAR  HZ EP   2    545 34.19                             122   -0.08 4  205 293 
 ZAR  HN ES        545 59.23                             122   -0.41 9  205 293 
 ZAR  HZ I         546  4.67         3.2 0.38                           205 293 
                                                                                
