 2010  5 8 0406 23.5 L   6.781 -73.059146.2  RSN 13 0.4 1.9LRSN                1
 GAP=166        0.71       3.1     6.2  5.6 -0.1074E+02 -0.1333E+01  0.4644E+01E
 Epicentro: LOS SANTOS - SANTANDER                                             3
 ACTION:UP  10-08-24 10:03 OP:vdl  STATUS:               ID:20100508040623 L   I
 2010-05-08-0405-31S.COL___105                                                 6
 STAT SP IPHASW D HRMM SECON CODA AMPLIT PERI AZIMU VELO SNR AR TRES W  DIS CAZ7
 BAR2 SZ EP        4 6 43.08                             170    -0.210   25 213 
 BAR2 SZ ES   2    4 6 57.93                             170    -0.7 5   25 213 
 GIR2 SZ EP   3    4 6 44.28                             165     0.9 2   36 336 
 BRR  HZ EP        4 6 45.69                             149     0.410   81 297 
 BRR  HN ES   1    4 7  2.59                             149     0.3 7   81 297 
 BRR  HZ I         4 7  6.05        18.9 0.15                            81 297 
 RUS  HZ EP   2    4 6 47.69                             144     0.5 5   98 182 
 RUS  HN ES   2    4 7  6.21                             144     0.6 5   98 182 
 RUS  HZ I         4 7  8.88         8.0 0.51                            98 182 
 BRI  SZ EP        4 6 47.61                             142     0.210  107  16 
 BRI  SZ ES   1    4 7  5.98                             142     0.0 7  107  16 
 GUE  SZ EP        4 6 48.16                             139    -0.210  117   7 
 GRA  SZ EP        4 6 48.87                             137     0.110  125  13 
 GRA  SZ ES   1    4 7  8.12                             137    -0.4 7  125  13 
 OCA  SZ EP        4 6 52.02                             129    -0.2 9  164 350 
 OCA  SZ ES   1    4 7 14.18                             129    -0.4 7  164 350 
 OCA  SZ I         4 7 17.62         9.2 0.10                           164 350 
 CHI  HZ EP   1    4 7  1.49                             117     0.2 6  249 197 
 CHI  HN ES   2    4 7 30.16                             117    -0.6 4  249 197 
 CHI  HZ I         4 7 36.45         2.9 0.34                           249 197 
 ROSC BZ EP   3    4 7  2.54                             116     0.5 2  256 213 
 ROSC BE ES   2    4 7 31.75                             116    -0.3 4  256 213 
 ROSC BZ I         4 7 38.06         7.7 0.11                           256 213 
 HEL  HZ EP   2    4 7  5.51                             114     0.8 4  281 257 
 HEL  HZ I         4 7 42.78         4.9 0.53                           281 257 
 RREF BZ EP   2    4 7 10.29                             110    -0.1 3  328 231 
 RREF BN ES   2    4 7 46.03                             110    -0.9 3  328 231 
 RREF BZ I         4 7 55.67         4.3 0.33                           328 231 
 PRA  HZ EP        4 7 17.29                             106    -0.1 6  395 211 
 PRA  HN ES   1    4 7 59.34                             106    -0.1 4  395 211 
 PRA  HZ I         4 8  5.75         3.4 0.38                           395 211 
                                                                                
