 2015  6 8 0752 36.6 L   6.861 -73.149144.6  RSN 20 0.4 2.4LRSN                1
 GAP=133        0.90       2.1     3.3  4.2 -0.2061E+01  0.4954E+01  0.8142E-01E
 Epicentro: LOS SANTOS - SANTANDER                                             3
 ACTION:UPD 15-09-10 22:10 OP:cam  STATUS:               ID:20150608075236 L   I
 OLDACT:UP  15-06-08 17:45 OP:drio STATUS:               ID:20150608074749     3
 OLDACT:UP  15-06-08 17:44 OP:drio STATUS:               ID:20150608074749     3
 OLDACT:REG 15-06-08 12:26 OP:drio STATUS:               ID:20150608074749     3
 2015-06-08-0747-49M.COL___294                                                 6
 STAT SP IPHASW D HRMM SECON CODA AMPLIT PERI AZIMU VELO AIN AR TRES W  DIS CAZ7
 BAR2 EZ EP        752 56.11                             168   -0.0810 29.9 187 
 BAR2 EZ ES        753 11.33                             168   -0.1810 29.9 187 
 BAR2 EZ I         753 14.41        30.7 0.14            165           29.9 187 
 BRR  HZ EP        752 57.78                             153    0.3910 68.0 294 
 BRR  HE ES        753 13.80                             153    0.1510 68.0 294 
 BRR  HZ I         753 18.17        56.3 0.10            150           68.0 294 
 PAM  SZ EP        752 58.65                             152    0.2910 72.5  43 
 PAM  SN ES        753 15.73                             152    0.3610 72.5  43 
 PAM  SZ I         753 17.58        60.7 0.50            159           72.5  43 
 RUS  HZ EP        753  0.31                             142   -0.3710  107 176 
 RUS  HN ES        753 19.64                             142    0.1310  107 176 
 RUS  HZ I         753 20.90        14.7 0.18            144            107 176 
 OCA  HZ EP        753  3.89                             131   -0.25 9  154 353 
 OCA  HN ES        753 25.37                             131   -0.29 9  154 353 
 OCA  HZ I         753 26.33        62.0 0.18            133            154 353 
 SPBC HZ EP        753  5.16                             128   -0.29 9  168 217 
 SPBC HN ES        753 27.53                             128   -0.45 9  168 217 
 SPBC HZ I         753 35.62        39.9 0.38            128            168 217 
 ZAR  HZ EP        753  8.68                             122    0.04 9  201 290 
 ZAR  HN ES        753 34.37                             122    0.71 9  201 290 
 ZAR  HZ I         753 40.71        51.0 0.54            123            201 290 
 SML  HZ EP        753 11.96                             118   -0.48 8  237 335 
 SML  HN ES   4    753 38.88                             118   -1.55 0  237 335 
 SML  HZ I         753 46.74        37.0 0.10            120            237 335 
 NOR  HZ EP   4    753 13.97                             118    1.36 0  238 233 
 NOR  HE ES        753 40.27                             118   -0.47 8  238 233 
 NOR  HZ I         753 46.35        19.8 0.18            118            238 233 
 CHI  HZ EP        753 14.93                             116    0.05 8  255 195 
 CHI  HN ES        753 44.37                             116   -0.41 8  255 195 
 CHI  HZ I         753 50.03         9.6 0.24            118            255 195 
 HEL  HZ EP        753 16.66                             114   -0.20 8  273 254 
 HEL  HE ES        753 48.35                             114    0.05 8  273 254 
 HEL  HZ I         753 54.91        15.2 0.28            115            273 254 
 LL2C HZ EP        753 19.45                             112    0.13 7  300 354 
 LL2C HN ES        753 52.26                             112   -0.42 7  300 354 
 GUY2CHZ EP        753 20.57                             112    0.05 7  305 234 
 GUY2CHE ES        753 54.98                             112    0.16 7  305 234 
 GUY2CHZ I         754  3.26        10.5 0.56                           305 234 
 CBOC HZ EP        753 24.29                             110    0.66 7  335 251 
 CBOC HE ES        753 59.72                             110   -0.62 7  335 251 
 CBOC HZ I         754 17.19         4.3 0.62            110            335 251 
 TOL  SZ EP   4    753 26.88                             109    1.59 0  348 224 
 TOL  SN ES        754  4.32                             109    1.02 6  348 224 
 TOL  SZ I         754 13.08         9.2 0.72            110            348 224 
 MON  HZ EP   4    753 22.76                             109   -2.24 0  349 308 
 MON  HN ES   4    754  1.92                             109   -0.87 0  349 308 
 MON  HZ I         754  2.05         7.4 0.18            110            349 308 
 PRA  HZ EP        753 31.36                             106    0.66 6  398 209 
 PRA  HN ES        754 14.07                             106    1.14 6  398 209 
 PRA  HZ I         754 19.43        10.7 0.40            107            398 209 
 ORTC HZ EP        753 30.70                             106   -0.35 6  401 216 
 ORTC HN ES   4    754 15.64                             106    2.09 0  401 216 
 ORTC HZ I         754 21.18         7.8 0.56            107            401 216 
 SJC  HZ EP   4    753 29.81                             106   -1.59 0  403 326 
 SJC  HN ES   4    754 10.52                             106   -3.65 0  403 326 
 SJC  HZ I         754 18.00         4.5 0.34            107            403 326 
 PAL  HZ EP        753 32.23                             106    0.18 6  409 238 
 PAL  HN ES        754 14.74                             106   -0.60 6  409 238 
 PAL  HZ I         754 20.30         4.0 0.24            107            409 238 
                                                                                
