 2012 11 8 0004 19.7 L   6.837 -73.132143.3  RSN 16 0.5 2.3LRSN 3.0WRSN        1
 SPEC AVERAGE  MO 13.5 ST 17.9 OM  2.0 f0 6.74 R0.2254 AL 2.73 WI 22.0 MW  3.0 3
 SPEC SD       MO  0.2 ST 12.0 OM  0.5 f0 1.29 R0.0388 AL      WI      MW  0.1 3
 GAP= 70        1.30       3.3     3.8  6.2 -0.4112E+00  0.7188E+01  0.4890E+01E
 Epicentro: LOS SANTOS - SANTANDER                                             3
 SPEC ZAR HH N MO 13.5 ST 31.5 OM  1.7 f0 9.21 R0.1596 AL 3.46 WI 21.5 MW  2.9 3
 SPEC ZAR HH N T 0 515 K 0.000 GD  249 VS 4.20 DE 3.00 Q0230.0 QA 0.60 VS 4.20 3
 SPEC TAM HH Z MO 13.5 ST  7.0 OM  1.0 f0 5.59 R0.2630 AL 1.28 WI  6.8 MW  2.9 3
 SPEC TAM HH Z T 0 447 K 0.000 GD  211 VP 7.60 DE 3.00 Q0230.0 QA 0.60 VS 4.20 3
 SPEC HEL HH N MO 13.2 ST  3.0 OM  1.3 f0 5.33 R0.2758 AL 1.84 WI 15.3 MW  2.7 3
 SPEC HEL HH N T 0 531 K 0.000 GD  310 VS 4.20 DE 3.00 Q0230.0 QA 0.60 VS 4.20 3
 SPEC NOR HH N MO 13.8 ST 34.1 OM  2.0 f0 7.25 R0.2028 AL 3.77 WI 29.7 MW  3.2 3
 SPEC NOR HH N T 0 523 K 0.000 GD  277 VS 4.20 DE 3.00 Q0230.0 QA 0.60 VS 4.20 3
 SPEC OCA HH N MO 13.7 ST 22.0 OM  2.0 f0 6.86 R0.2143 AL 2.68 WI 28.9 MW  3.1 3
 SPEC OCA HH N T 0 5 8 K 0.000 GD  211 VS 4.20 DE 3.00 Q0230.0 QA 0.60 VS 4.20 3
 SPEC BRR HH N MO 13.5 ST  9.8 OM  1.9 f0 6.20 R0.2371 AL 3.38 WI 29.9 MW  2.9 3
 SPEC BRR HH N T 0 456 K 0.000 GD  159 VS 4.20 DE 3.00 Q0230.0 QA 0.60 VS 4.20 3
 ACTION:UPD 12-12-05 15:31 OP:}ep  STATUS:               ID:20121108000420 L   I
 2012-11-08-0000-00M.COL___230                                                 6
 STAT SP IPHASW D HRMM SECON CODA AMPLIT PERI AZIMU VELO AIN AR TRES W  DIS CAZ7
 GIR2 SZ EP        0 4 39.25                             168    0.2310 27.6 346 
 BAR2 SZ EP        0 4 39.09                             169   -0.0810 27.6 192 
 BAR2 SZ ES        0 4 52.93                             169   -1.3910 27.6 192 
 BAR2 SZ I         0 4 56.26        37.2 0.16                          27.6 192 
 GIR2 SZ ES        0 4 54.31                             168    0.2510 27.6 346 
 BRR  HZ IP     D  0 4 40.90                             152    0.3110 70.8 295 
 BRR  HN ES        0 4 57.59                             152    0.7310 70.8 295 
 BRR  HN I         0 4 58.24        94.5 0.30                          70.8 295 
 PAM  SZ EP        0 4 41.44                             152   -0.0110 73.3  41 
 PAM  SN ES        0 4 58.83                             152    0.4510 73.3  41 
 PAM  SN I         0 4 59.88        45.7 0.46                          73.3  41 
 RUS  HZ EP        0 4 43.29                             142   -0.2510  105 177 
 RUS  HN ES        0 5  2.24                             142    0.1310  105 177 
 RUS  HN I         0 5  3.64        16.3 0.14                           105 177 
 PTB  HZ EP        0 4 45.87                             131   -0.85 9  150 257 
 PTB  HN I         0 5  8.06        39.1 0.32                           150 257 
 TAM  HZ IP     C  0 4 47.56                             130    0.38 9  155 107 
 TAM  HZ I         0 4 47.86        16.8 0.40                           155 107 
 TAM  HN ES        0 5  8.59                             130    0.00 9  155 107 
 OCA  HN ES        0 5  9.32                             130    0.18 9  156 352 
 OCA  HN I         0 5 17.69        39.7 0.18                           156 352 
 ZAR  HN ES        0 5 16.95                             122   -0.25 9  204 291 
 NOR  HZ EP        0 4 55.26                             117   -0.46 8  238 234 
 NOR  HN ES        0 5 23.56                             117   -0.22 8  238 234 
 NOR  HN I         0 5 31.29        28.9 0.16                           238 234 
 SML  HZ EP        0 4 55.46                             117   -0.43 8  241 335 
 SML  HN ES        0 5 23.43                             117   -0.67 8  241 335 
 CHI  HZ EP        0 4 57.76                             116   -0.01 8  253 195 
 CHI  HZ I         0 4 58.00         3.8 0.16                           253 195 
 CHI  HN ES        0 5 26.86                             116   -0.58 8  253 195 
 ROSC BN ES        0 5 29.26                             116    1.07 8  257 211 
 HEL  HZ EP        0 5  0.96                             114    0.85 8  275 255 
 HEL  HN ES        0 5 31.70                             114    0.11 8  275 255 
 GUY  SN ES        0 5 39.21                             111    0.85 7  307 235 
 PRA  HZ EP        0 5 13.83                             106    0.15 6  396 209 
 PRA  HN ES        0 5 55.51                             106   -0.24 6  396 209 
 PRA  HN I         0 6  1.53         3.3 0.46                           396 209 
                                                                                
