 2010  3 8 0848 42.5 L   6.825 -73.058138.3  RSN 12 0.5 2.3LRSN                1
 GAP=132        0.95       3.8     6.1  5.5 -0.3320E+01  0.9253E+00  0.3905E+00E
 Epicentro: LOS SANTOS - SANTANDER                                             3
 ACTION:UP  10-08-24 09:52 OP:vdl  STATUS:               ID:20100308084842 L   I
 2010-03-08-0847-24S.COL___101                                                 6
 STAT SP IPHASW D HRMM SECON CODA AMPLIT PERI AZIMU VELO SNR AR TRES W  DIS CAZ7
 BAR2 SZ IP        849  1.61                             167     0.310   29 208 
 BAR2 SZ ES        849 15.47                             167    -0.610   29 208 
 BRR  HZ IP        849  3.43                             148     0.210   79 293 
 BRR  HZ I         849  5.64        49.9 0.11                            79 293 
 BRR  HE ES        849 20.12                             148     0.610   79 293 
 RUS  BZ EP   1    849  5.63                             142     0.0 7  103 182 
 RUS  BN ES   1    849 23.83                             142     0.1 7  103 182 
 RUS  BZ I         849 25.86        12.2 0.27                           103 182 
 OCA  SZ IP        849 10.05                             128     0.0 9  159 350 
 OCA  SZ ES   1    849 31.23                             128    -0.4 7  159 350 
 OCA  SZ I         849 35.03        74.7 0.13                           159 350 
 CHI  HZ EP   2    849 20.15                             115    -0.2 4  254 197 
 CHI  HN ES   2    849 49.66                             115    -0.2 4  254 197 
 CHI  HZ I         849 52.54         7.0 0.33                           254 197 
 ROSC BE ES   2    849 51.85                             114     0.8 4  260 213 
 ROSC BZ I         849 57.63        14.3 0.66                           260 213 
 HEL  HZ EP   1    849 23.55                             112     0.1 6  282 256 
 HEL  HN ES   2    849 53.97                             112    -1.4 4  282 256 
 HEL  HZ I         850  1.98        10.5 0.50                           282 256 
 RREF BN ES   2    850  6.35                             109     0.4 3  331 230 
 RREF BZ I         850 13.79         9.9 0.32                           331 230 
 DBB  SZ IP        849 30.07                             107    -0.7 6  349 274 
 SDV  BZ IP        849 31.30                             107     0.1 6  351  50 
 TOL  SZ EP   1    849 31.95                             107     0.5 5  352 225 
 PRA  HZ EP        849 36.35                             105    -0.2 6  399 211 
 PRA  HN ES   1    850 18.56                             105    -0.2 4  399 211 
 PRA  HZ I         850 23.15        10.6 0.61                           399 211 
                                                                                
