 2012  2 8 0002 40.1 L   6.797 -73.172145.6  RSN  7 0.4 2.1LRSN                1
 GAP=133        0.83       4.3     4.6  7.0  0.4096E+00  0.4199E+01  0.5045E+01E
 ACTION:UP  12-03-07 16:28 OP:epov STATUS:               ID:20120208000240 L   I
 2012-02-08-0000-00M.COL___188                                                 6
 STAT SP IPHASW D HRMM SECON CODA AMPLIT PERI AZIMU VELO AIN AR TRES W  DIS CAZ7
 BAR2 SZ EP   1    0 2 59.45                             171   -0.29 7 22.6 183 
 BAR2 SZ ES   1    0 3 14.59                             171   -0.44 7 22.6 183 
 BAR2 SZ I         0 3 16.36        36.6 0.15                          22.6 183 
 BRR  HZ IP     D  0 3  1.61                             153    0.4710 68.8 300 
 BRR  HN ES   1    0 3 18.26                             153    0.73 7 68.8 300 
 BRR  HZ I         0 3 23.20        25.2 0.22                          68.8 300 
 PAM  SZ EP        0 3  2.67                             150    0.2010 79.5  41 
 PAM  SN ES   1    0 3 19.50                             150   -0.39 7 79.5  41 
 RUS  HZ EP   1    0 3  3.69                             144   -0.18 7  100 174 
 RUS  HN ES   1    0 3 22.50                             144    0.12 7  100 174 
 RUS  HZ I         0 3 24.13        10.1 0.47                           100 174 
 PTB  HZ EP   1    0 3  6.23                             132   -0.60 7  145 259 
 PTB  HN ES   1    0 3 27.34                             132   -0.31 7  145 259 
 ZAR  HE ES   1    0 3 37.07                             123   -0.34 6  202 293 
 ZAR  HZ I         0 3 43.49        14.2 0.26                           202 293 
 CHI  HZ EP   1    0 3 17.75                             117    0.04 6  248 195 
 CHI  HN ES   1    0 3 47.48                             117    0.46 6  248 195 
 CHI  HZ I         0 3 50.97         8.5 0.55                           248 195 
                                                                                
