 2011  7 8 0513 37.7 L   6.776 -73.104140.9  RSN 10 0.4 2.0LRSN                1
 GAP=161        0.72       4.1     5.6  6.2 -0.1208E+02  0.1049E+02 -0.6183E+01E
 Epicentro: LOS SANTOS - SANTANDER                                             3
 ACTION:UPD 12-07-25 13:59 OP:epov STATUS:               ID:20110708051337 L   I
 2011-07-08-0511-26S.COL___140                                                 6
 STAT SP IPHASW D HRMM SECON CODA AMPLIT PERI AZIMU VELO AIN AR TRES W  DIS CAZ7
 BAR2 SZ EP   1    513 56.72                             171    0.00 7 22.1 203 
 BAR2 SZ ES   1    514 11.51                             171   -0.05 7 22.1 203 
 BAR2 SZ I         514 12.84        29.5 0.27                          22.1 203 
 BTL  SZ EP   1    513 57.29                             170    0.53 7 24.0 311 
 GIR2 SZ EP   1    513 56.98                             165    0.08 7 34.9 344 
 BRR  HZ IP     D  513 58.74                             150    0.1010 76.5 299 
 BRR  HZ I         513 59.86        20.6 0.08                          76.5 299 
 BRR  HN ES   1    514 15.43                             150    0.45 7 76.5 299 
 RUS  HN ES   1    514 18.43                             144   -0.33 7 97.7 179 
 RUS  HZ I         514 21.67         8.8 0.33                          97.7 179 
 BRI  SZ EP   1    514  1.53                             140    0.33 7  109  18 
 BRI  SZ ES   1    514 19.58                             140    0.04 7  109  18 
 BRI  SZ I         514 24.94        14.5 0.64                           109  18 
 GRA  SZ EP   1    514  2.69                             136    0.07 7  127  15 
 GRA  SZ ES   1    514 21.50                             136   -0.56 7  127  15 
 GRA  SZ I         514 23.04        13.0 0.37                           127  15 
 OCA  SZ EP   1    514  5.25                             128   -0.70 7  164 352 
 NOR  SN ES   1    514 40.83                             117   -0.41 6  237 236 
 HEL  HZ EP   1    514 18.53                             113    0.43 6  276 257 
 HEL  HN ES   2    514 48.86                             113   -0.75 4  276 257 
 HEL  HZ I         514 55.20         7.6 0.32                           276 257 
                                                                                
