 2014  6 8 0752 23.6 L   6.828 -73.120137.0  RSN 16 0.5 2.1LRSN                1
 GAP=186        0.97       3.0     4.2  6.0 -0.5378E+00  0.8955E+01  0.5600E+00E
 Epicentro: LOS SANTOS - SANTANDER                                             3
 OLDACT:REG 14-06-08 13:17 OP:fm   STATUS:               ID:20140608074806     3
 ACTION:UPD 14-07-01 22:52 OP:nd   STATUS:               ID:20140608075223 L   I
 OLDACT:UP  14-06-08 17:41 OP:fm   STATUS:               ID:20140608074806     3
 2014-06-08-0748-06M.COL___250                                                 6
 STAT SP IPHASW D HRMM SECON CODA AMPLIT PERI AZIMU VELO AIN AR TRES W  DIS CAZ7
 BAR2 SZ EP        752 42.60                             168    0.3110 27.0 195 
 BAR2 SZ ES   1    752 57.24                             168    0.40 7 27.0 195 
 BAR2 SZ I         752 59.72        16.1 0.24            165           27.0 195 
 RUS  HZ EP        752 46.59                             141   -0.1610  104 178 
 RUS  HE ES        753  4.69                             141   -0.0910  104 178 
 RUS  SZ I         753  6.01        14.5 0.84            134            104 178 
 PTB  HZ EP        752 49.34                             129   -0.88 9  151 258 
 PTB  HN ES        753 10.38                             129   -0.58 9  151 258 
 PTB  SZ I         753 13.23        19.0 0.18            122            151 258 
 OCA  HN ES        753 12.37                             128    0.00 9  158 352 
 SPBC HZ EP        752 51.63                             126   -0.25 9  167 219 
 SPBC HE ES        753 14.07                             126    0.15 9  167 219 
 SPBC SZ I         753 19.60        11.6 0.24            119            167 219 
 ZAR  HZ EP        752 55.68                             120   -0.00 8  206 291 
 ZAR  HE ES        753 21.52                             120    0.84 8  206 291 
 ZAR  SZ I         753 26.70        10.7 0.38            114            206 291 
 NOR  HZ EP        752 59.05                             116   -0.27 8  239 234 
 NOR  HN ES        753 27.27                             116    0.12 8  239 234 
 NOR  SZ I         753 33.21         6.1 0.18            110            239 234 
 SML  HZ EP   2    752 59.63                             116    0.02 4  242 334 
 SML  HN ES   1    753 26.88                             116   -0.79 6  242 334 
 SML  SZ I         753 34.06        13.9 0.08            110            242 334 
 HEL  HZ EP        753  4.75                             113    0.94 7  276 255 
 HEL  HN ES        753 35.40                             113    0.25 7  276 255 
 HEL  SZ I         753 42.49         5.0 0.58            107            276 255 
 GUY2CHZ EP        753  7.22                             110   -0.10 7  305 235 
 GUY2CHN ES        753 41.47                             110    0.07 7  305 235 
 GUY2CSZ I         753 47.64         5.0 0.32                           305 235 
 RREF HZ EP   1    753 10.84                             109    0.95 5  326 229 
 RREF HN ES   4    753 48.36                             109    2.39 0  326 229 
 RREF SZ I         753 57.04         3.2 1.22            104            326 229 
 CBOC HZ EP        753 10.66                             108    0.03 7  337 252 
 CBOC HN ES        753 46.65                             108   -0.63 7  337 252 
 CBOC SZ I         753 48.21         3.8 1.38            103            337 252 
 TOL  SZ EP        753 12.76                             107    0.72 6  348 225 
 TOL  SN ES        753 49.63                             107   -0.17 6  348 225 
 TOL  SZ I         753 56.74         6.6 0.40            102            348 225 
 PRA  HZ EP        753 17.17                             105   -0.18 6  396 210 
 PRA  HN ES   4    753 57.95                             105   -1.29 0  396 210 
 PRA  SZ I         754  3.87         8.9 3.26            100            396 210 
 ORTC HZ EP   2    753 17.92                             105    0.16 3  400 216 
 ORTC SZ I         754 10.10         3.2 1.66            100            400 216 
 SJC  HZ EP   4    753 16.62                             104   -2.18 0  408 326 
 SJC  HN ES   4    753 57.47                             104   -4.36 0  408 326 
 SJC  SZ I         754 14.33        10.1 1.62            100            408 326 
                                                                                
