 2011  5 8 0549 12.5 L   6.813 -73.064143.8  RSN  5 0.4 1.4LRSN                1
 GAP=207        0.79      11.9    22.1 11.1  0.1832E+03 -0.9909E+02 -0.5248E+02E
 Epicentro: LOS SANTOS - SANTANDER                                             3
 ACTION:UP  11-06-29 08:51 OP:tino STATUS:               ID:20110508054912 L   I
 2011-05-08-0540-00M.COL___140                                                 6
 STAT SP IPHASW D HRMM SECON CODA AMPLIT PERI AZIMU VELO SNR AR TRES W  DIS CAZ7
 BTL  SZ EP   1    549 32.50                             170     0.6 7   25 297 
 BAR2 SZ EP   1    549 31.34                             169    -0.6 7   28 208 
 BAR2 SZ ES   1    549 47.02                             169    -0.2 7   28 208 
 BAR2 SZ I         549 49.54         5.4 0.38                            28 208 
 GIR2 SZ EP   1    549 32.08                             167     0.1 7   33 334 
 BRR  HZ EP   1    549 33.78                             150    -0.1 7   79 294 
 BRR  HN ES   2    549 50.51                             150     0.0 5   79 294 
 BRR  HZ I         549 51.44         6.7 0.20                            79 294 
 RUS  HZ EP   1    549 36.09                             143     0.0 7  102 181 
 RUS  HN ES   2    549 55.02                             143     0.4 5  102 181 
 RUS  HZ I         549 56.98         2.8 0.33                           102 181 
                                                                                
