 2015  3 8 0742 19.1 L   6.743 -73.158146.0  RSN  5 0.5 1.1LRSN                1
 GAP=246        1.00       7.3     8.5  9.4 -0.9213E+01 -0.9919E+01  0.2380E+02E
 Epicentro: LOS SANTOS - SANTANDER                                             3
 ACTION:UPD 15-04-30 16:24 OP:nd   STATUS:               ID:20150308074219 L   I
 OLDACT:DUP 15-03-08 15:12 OP:spq  STATUS:               ID:20150308073748d    3
 2015-03-08-0737-47M.COL___284                                                 6
 STAT SP IPHASW D HRMM SECON CODA AMPLIT PERI AZIMU VELO AIN AR TRES W  DIS CAZ7
 BAR2 EZ EP   1    742 38.32                             173   -0.35 7 16.8 189 
 BAR2 EZ ES   1    742 53.47                             173   -0.44 7 16.8 189 
 BAR2 EZ I         742 55.20         2.3 0.32            169           16.8 189 
 BRR  HZ EP        742 40.23                             152   -0.1910 73.3 303 
 BRR  HN ES        742 57.71                             152    0.6910 73.3 303 
 BRR  HZ I         743  3.97         2.3 0.50            147           73.3 303 
 PTB  HZ EP   1    742 45.42                             133   -0.47 7  145 261 
 PTB  HN ES        743  6.28                             133   -0.48 9  145 261 
 PTB  HZ I         743 13.49         1.4 0.44            131            145 261 
 SPBC HZ EP   1    742 47.71                             130    0.61 7  157 220 
 SPBC HN ES        743  9.10                             130    0.19 9  157 220 
 SPBC HZ I         743 12.14         2.5 0.24            131            157 220 
 CHI  HZ EP   1    742 56.53                             118    0.40 6  242 195 
                                                                                
