 2010  4 8 0313 15.0 L   6.084 -73.829108.7  RSN 10 0.5 2.1LRSN                1
 GAP=124        1.07       4.7     6.4 11.1 -0.1709E+02  0.2511E+02  0.1055E+02E
 Epicentro: EL PEON - SANTANDER                                                3
 ACTION:UPD 10-08-24 09:58 OP:vdl  STATUS:               ID:20100408031314 L   I
 2010-04-08-0311-48S.COL___097                                                 6
 STAT SP IPHASW D HRMM SECON CODA AMPLIT PERI AZIMU VELO AIN AR TRES W  DIS CAZ7
 BAR2 SZ IP        313 34.36                             138     0.210   91  52 
 BAR2 SZ ES        313 48.41                             138    -0.710   91  52 
 BRR  HZ EP        313 35.94                             130     0.110  114   6 
 BRR  HN ES        313 52.44                             130     0.310  114   6 
 BRR  HZ I         313 53.56        27.4 0.15                           114   6 
 ROSC BZ EP        313 39.82                             122     0.1 9  148 202 
 ROSC BN ES   1    313 59.91                             122     0.9 7  148 202 
 ROSC BZ I         314  4.27         7.9 0.27                           148 202 
 CHI  HN ES   3    314  1.32                             120    -0.2 2  161 176 
 CHI  HZ I         314 11.57         6.5 0.49                           161 176 
 HEL  HZ EP   1    313 43.77                             115    -0.3 7  189 274 
 HEL  HN ES   2    314  6.41                             115    -0.3 4  189 274 
 HEL  HZ I         314  8.69        13.5 0.34                           189 274 
 RREF BZ EP        313 46.37                             112    -0.8 8  213 232 
 RREF BE ES        314 12.63                             112     0.4 8  213 232 
 RREF BZ I         314 14.75        19.3 0.24                           213 232 
 TOL  SZ EP   1    313 48.63                             110    -0.5 6  234 225 
 TOL  SZ ES   2    314 15.33                             110    -0.5 4  234 225 
 OCA  SZ EP   1    313 50.99                             109     0.8 6  245  13 
 OCA  SZ I         314 26.48        21.0 0.07                           245  13 
 ANIL BZ EP   2    313 50.59                             108    -0.1 4  248 225 
 ANIL BE ES   3    314 19.32                             108     0.8 2  248 225 
 PRA  HZ EP        313 54.77                             105    -0.2 7  287 204 
 PRA  HN ES   2    314 26.58                             105     0.4 4  287 204 
 PRA  HZ I         314 31.29         7.5 0.44                           287 204 
                                                                                
