 2011  7 8 0924 12.4 L   6.775 -73.096154.0  RSN 13 0.4 2.3LRSN                1
 GAP=162        0.68       3.0     4.5  5.0 -0.6161E+01  0.2697E+01  0.1919E+01E
 Epicentro: LOS SANTOS - SANTANDER                                             3
 ACTION:UPD 12-07-25 13:59 OP:epov STATUS:               ID:20110708092412 L   I
 2011-07-08-0920-00M.COL___130                                                 6
 STAT SP IPHASW D HRMM SECON CODA AMPLIT PERI AZIMU VELO AIN AR TRES W  DIS CAZ7
 BAR2 SZ IP     C  924 32.93                             171   -0.0810 22.4 205 
 BAR2 SZ ES   1    924 48.45                             171   -0.63 7 22.4 205 
 BAR2 SZ I         924 50.99        44.2 0.30                          22.4 205 
 BRR  HZ EP   1    924 34.84                             152    0.04 7 77.4 298 
 BRR  HZ I         924 36.48        47.8 0.14                          77.4 298 
 BRR  HN ES   1    924 52.44                             152    0.18 7 77.4 298 
 RUS  HZ EP   1    924 36.43                             146   -0.35 7 97.6 179 
 RUS  HZ I         924 38.01        12.9 0.47                          97.6 179 
 RUS  HN ES   2    924 56.24                             146    0.46 5 97.6 179 
 BRI  SZ EP   1    924 37.27                             143    0.12 7  109  18 
 BRI  SZ I         925  1.52        19.6 0.69                           109  18 
 GRA  SZ EP        924 38.69                             138    0.2010  127  15 
 GRA  SZ ES   1    924 58.62                             138   -0.20 7  127  15 
 GRA  SZ I         925  1.09        24.2 0.39                           127  15 
 OCA  SZ EP   1    924 41.94                             130    0.25 7  164 351 
 OCA  SZ I         925  8.95        35.2 0.39                           164 351 
 NOR  SZ EP   1    924 48.44                             120   -0.50 6  238 236 
 NOR  SE ES   1    925 17.09                             120   -0.35 6  238 236 
 NOR  SZ I         925 20.78         4.4 0.18                           238 236 
 CHI  HZ EP   1    924 50.97                             119    0.51 6  248 197 
 CHI  HN ES   1    925 21.04                             119    0.91 6  248 197 
 CHI  HZ I         925 28.17        11.1 0.37                           248 197 
 ROSC BE ES   1    925 21.49                             118    0.29 6  253 212 
 HEL  HZ EP   1    924 53.94                             116    0.37 6  277 257 
 HEL  HN ES   1    925 25.61                             116   -0.06 6  277 257 
 HEL  HZ I         925 30.28        18.2 0.38                           277 257 
 DBB  SZ EP   1    925  1.08                             110    0.20 5  345 275 
 DBB  SZ I         925  4.60         2.2 0.22                           345 275 
 PRA  HZ EP   1    925  5.87                             108   -0.40 4  392 210 
 PRA  HZ I         925  8.64        35.0 0.16                           392 210 
 PRA  HE ES   1    925 47.91                             108   -0.37 4  392 210 
 SJA  SZ EP   1    925  6.25                             107   -0.84 4  399 194 
                                                                                
