 2011  4 8 0649 41.8 L   6.751 -73.165138.0  RSN  7 0.3 2.2LRSN                1
 GAP=148        0.80       6.9     8.9 10.6 -0.3530E+02  0.2755E+01  0.1519E+02E
 Epicentro: VILLANUEVA - SANTANDER                                             3
 ACTION:UP  11-06-22 15:29 OP:REBC STATUS:               ID:20110408064941 L   I
 2011-04-08-0646-55S.COL___138                                                 6
 STAT SP IPHASW D HRMM SECON CODA AMPLIT PERI AZIMU VELO SNR AR TRES W  DIS CAZ7
 BAR2 SZ EP        650  0.22                             172    -0.210   18 186 
 GIR2 SZ EP        650  0.91                             165     0.210   36 355 
 BRR  HZ IP     C  650  2.50                             151     0.310   72 303 
 BRR  HN ES   2    650 17.79                             151    -0.3 5   72 303 
 BRR  HZ I         650 18.06        37.8 0.12                            72 303 
 PAM  SZ EP        650  3.41                             148    -0.210   83  38 
 GRA  SZ EP        650  7.15                             134     0.210  132  18 
 GRA  SZ ES   1    650 26.87                             134     0.4 7  132  18 
 GRA  SZ I         650 29.55        16.1 0.29                           132  18 
 OCA  SZ EP        650  9.48                             127    -0.6 9  165 354 
 OCA  SZ ES   3    650 31.45                             127    -0.6 2  165 354 
 OCA  SZ I         650 35.97        23.0 0.28                           165 354 
 NOR  SZ EP        650 16.71                             118     0.1 8  230 235 
                                                                                
