 2011 11 8 0928 53.4 L   6.786 -73.095137.0  RSN  4 0.2 1.3LRSN                1
 GAP=144        0.56       3.8     5.4  5.8  0.3647E+00  0.5538E+00 -0.3819E-01E
 Epicentro: LOS SANTOS - SANTANDER                                             3
 ACTION:UPD 12-07-13 16:09 OP:ep   STATUS:               ID:20111108092853 L   I
 2011-11-08-0925-16S.COL___175                                                 6
 STAT SP IPHASW D HRMM SECON CODA AMPLIT PERI AZIMU VELO AIN AR TRES W  DIS CAZ7
 BAR2 SZ EP   1    929 11.90                             170   -0.03 7 23.5 204 
 BAR2 SZ ES   1    929 25.97                             170   -0.45 7 23.5 204 
 BAR2 SZ I         929 27.83         9.7 0.28                          23.5 204 
 PAM  SZ EP   1    929 14.40                             150   -0.10 7 75.2  36 
 PAM  SN ES   1    929 31.18                             150    0.18 7 75.2  36 
 PAM  SZ I         929 33.77         2.9 0.40                          75.2  36 
 BRR  HZ EP        929 13.70                             149   -0.2010 76.8 298 
 BRR  HE ES   1    929 30.29                             149    0.36 7 76.8 298 
 RUS  HZ EP   1    929 16.35                             142    0.23 7 98.9 179 
 RUS  HE ES   1    929 34.04                             142    0.16 7 98.9 179 
 RUS  HZ I         929 35.64         2.4 0.26                          98.9 179 
                                                                                
