 2016 12 8 0612 21.6 L   6.783 -73.152145.1  RSN 30 0.5 3.1LRSN 3.7WRSN        1
 SPEC AVERAGE  MO 14.6 ST0.317 OM  2.6 f00.976 R2.0676 AL 0.00 WI 30.0 MW  3.7 3
 SPEC SD       MO  0.2 ST0.317 OM  0.3 f00.221 R0.4335 AL      WI      MW  0.1 3
 GAP= 65        1.01       2.9     2.9  4.3  0.1276E+00  0.3321E+01  0.2728E+01E
 Epicentro: LOS SANTOS - SANTANDER                                             3
 SPEC RUS HH Z MO 14.6 ST0.338 OM  2.6 f0 1.15 R1.6730 AL-0.00 WI 30.0 MW  3.6 3
 SPEC RUS HH Z T 613 1 K 0.000 GD  175 VS 5.20 DE 3.50 Q0750.0 QA 1.50 Q1 0.00 3
 SPEC CHI HH Z MO 14.6 ST0.208 OM  2.4 f00.969 R1.9856 AL-0.00 WI 30.0 MW  3.7 3
 SPEC CHI HH Z T 61326 K 0.000 GD  286 VS 5.20 DE 3.50 Q0750.0 QA 1.50 Q1 0.00 3
 SPEC ROSCBH Z MO 14.8 ST0.211 OM  2.6 f00.831 R2.3153 AL-0.00 WI 30.0 MW  3.8 3
 SPEC ROSCBH Z T 61329 K 0.000 GD  289 VS 5.20 DE 3.50 Q0750.0 QA 1.50 Q1 0.00 3
 SPECGUY2CHH Z MO 14.8 ST0.144 OM  2.6 f00.699 R2.7525 AL-0.00 WI 30.0 MW  3.8 3
 SPECGUY2CHH Z T 61340 K 0.000 GD  333 VS 5.20 DE 3.50 Q0750.0 QA 1.50 Q1 0.00 3
 SPEC LL1CHH Z MO 14.9 ST  1.3 OM  2.7 f0 1.34 R1.4358 AL-0.00 WI 30.0 MW  3.9 3
 SPEC LL1CHH Z T 61339 K 0.000 GD  340 VS 5.20 DE 3.50 Q0750.0 QA 1.50 Q1 0.00 3
 SPEC ELA HH Z MO 14.8 ST0.150 OM  2.5 f00.746 R2.5791 AL-0.00 WI 30.0 MW  3.8 3
 SPEC ELA HH Z T 61344 K 0.000 GD  357 VS 5.20 DE 3.50 Q0750.0 QA 1.50 Q1 0.00 3
 SPEC CBOCHH Z MO 14.5 ST0.093 OM  2.2 f00.797 R2.4141 AL-0.00 WI 30.0 MW  3.6 3
 SPEC CBOCHH Z T 61344 K 0.000 GD  362 VS 5.20 DE 3.50 Q0750.0 QA 1.50 Q1 0.00 3
 SPEC ANILHH Z MO 14.5 ST0.498 OM  2.2 f0 1.37 R1.4044 AL-0.00 WI 30.0 MW  3.6 3
 SPEC ANILHH Z T 61349 K 0.000 GD  383 VS 5.20 DE 3.50 Q0750.0 QA 1.50 Q1 0.00 3
 SPEC PRA HH Z MO 14.8 ST0.272 OM  2.5 f00.866 R2.2217 AL-0.00 WI 30.0 MW  3.8 3
 SPEC PRA HH Z T 61354 K 0.000 GD  416 VS 5.20 DE 3.50 Q0750.0 QA 1.50 Q1 0.00 3
 SPEC ORTCHH Z MO 14.6 ST0.242 OM  2.3 f00.969 R1.9856 AL-0.00 WI 30.0 MW  3.7 3
 SPEC ORTCHH Z T 61356 K 0.000 GD  418 VS 5.20 DE 3.50 Q0750.0 QA 1.50 Q1 0.00 3
 SPEC SJC HH Z MO 14.4 ST0.228 OM  2.0 f0 1.18 R1.6305 AL-0.00 WI 30.0 MW  3.5 3
 SPEC SJC HH Z T 61354 K 0.000 GD  434 VS 5.20 DE 3.50 Q0750.0 QA 1.50 Q1 0.00 3
 SPEC MACCHH Z MO 14.5 ST0.109 OM  2.1 f00.797 R2.4141 AL-0.00 WI 30.0 MW  3.6 3
 SPEC MACCHH Z T 61417 K 0.000 GD  538 VS 5.20 DE 3.50 Q0750.0 QA 1.50 Q1 0.00 3
 OLDACT:UP  16-12-08 20:16 OP:ar   STATUS:               ID:20161208060743     3
 OLDACT:UP  16-12-08 20:13 OP:ar   STATUS:               ID:20161208060743     3
 OLDACT:UP  16-12-08 20:11 OP:ar   STATUS:               ID:20161208060743     3
 OLDACT:REG 16-12-08 13:25 OP:ar   STATUS:               ID:20161208060743     3
 ACTION:UPD 17-01-11 20:13 OP:rebc STATUS:               ID:20161208061221 L   I
 OLDACT:UP  16-12-08 20:17 OP:ar   STATUS:               ID:20161208060743     3
 2016-12-08-0608-00M.COL___367                                                 6
 STAT SP IPHASW D HRMM SECON CODA AMPLIT PERI AZIMU VELO AIN AR TRES W  DIS CAZ7
 BAR2 EZ IP     D  612 41.17                             171    0.0810 21.3 189 
 BAR2 EZ ES        612 56.24                             171   -0.0710 21.3 189 
 BAR2 EZ I         612 57.38       549.6 0.78            170           21.3 189 
 BRR  HZ IP     C  612 42.91                             152    0.2310 71.5 300 
 BRR  HN ES        612 59.78                             152    0.6510 71.5 300 
 BRR  HZ I         613  4.00       186.2 0.24            151           71.5 300 
 PAM  EZ IP     C  612 43.97                             150    0.1310 79.3  39 
 PAM  EN ES        613  0.90                             150   -0.3010 79.3  39 
 PAM  EZ I         613  4.40       154.8 0.48            150           79.3  39 
 RUS  HZ IP     D  612 45.11                             144   -0.0310 98.7 176 
 RUS  HN ES        613  3.47                             144   -0.0310 98.7 176 
 RUS  HZ I         613  5.23       144.7 0.26            142           98.7 176 
 PTB  HZ EP        612 47.47                             132   -0.93 9  147 260 
 PTB  HN ES        613  8.78                             132   -0.53 9  147 260 
 PTB  HZ I         613 16.24       106.2 0.28            130            147 260 
 TAM  HZ EP        612 49.53                             130    0.30 9  155 104 
 TAM  HZ I         613 10.48        88.0 0.42            130            155 104 
 TAM  HN ES        613 10.88                             130    0.09 9  155 104 
 ZAR  HZ EP        612 53.74                             122   -0.25 9  204 293 
 ZAR  HN ES        613 18.82                             122   -0.45 9  204 293 
 ZAR  HZ I         613 24.19       158.9 0.38            121            204 293 
 NOR  HZ EP        612 56.67                             118   -0.42 8  233 235 
 NOR  HN ES        613 24.74                             118   -0.05 8  233 235 
 NOR  HZ I         613 30.46        91.1 0.24            117            233 235 
 CHI  HZ EP        612 59.27                             117    0.24 8  247 195 
 CHI  HN ES        613 28.46                             117    0.23 8  247 195 
 CHI  HZ I         613 33.80        84.8 0.32            116            247 195 
 ROSC BZ EP   4    613  0.93                             117    1.48 0  251 211 
 ROSC BN ES   4    613 31.32                             117    2.34 0  251 211 
 ROSC BZ I         613 35.71       292.8 0.40            115            251 211 
 URE  HZ EP   4    613  1.20                             113   -1.43 0  284 292 
 URE  HN ES   4    613 31.69                             113   -2.95 0  284 292 
 URE  HZ I         613 43.13        85.8 0.20            112            284 292 
 GUY2CHZ EP        613  5.33                             112    0.36 7  300 235 
 GUY2CHN ES   4    613 41.54                             112    2.73 0  300 235 
 GUY2CHZ I         613 47.34        95.5 0.36                           300 235 
 PTGC HZ IP     D  613  4.29                             112   -0.95 7  307 158 
 PTGC HN ES   4    613 37.69                             112   -1.60 0  307 158 
 PTGC HZ I         613 42.61        43.2 0.30            110            307 158 
 LL1C HZ EP   4    613  6.08                             111    0.73 0  308 352 
 LL1C HN ES   4    613 41.14                             111    1.65 0  308 352 
 ELA  HZ EP        613  9.38                             110    1.18 7  327 230 
 ELA  HE ES   4    613 46.35                             110    1.79 0  327 230 
 ELA  HZ I         613 53.66        64.5 0.60            109            327 230 
 CBOC HZ EP        613  8.69                             110    0.36 7  332 252 
 CBOC HN ES   4    613 46.13                             110    1.35 0  332 252 
 CBOC HZ I         613 54.01        20.6 0.50            109            332 252 
 ANIL HZ EP   4    613 12.37                             108    1.22 0  355 225 
 ANIL HN ES        613 51.09                             108    1.28 6  355 225 
 ARGC HZ EP        613 11.10                             108   -0.30 6  361 341 
 ARGC HE ES        613 50.81                             108    0.56 6  361 341 
 ARGC HZ I         613 51.50        22.6 0.34            107            361 341 
 PRA  HZ EP        613 14.72                             106   -0.13 6  390 210 
 PRA  HN ES        613 55.99                             106   -0.40 6  390 210 
 PRA  HZ I         614  3.29        89.0 0.36            105            390 210 
 ORTC HZ EP        613 15.40                             106    0.15 6  393 216 
 ORTC HN ES   4    613 58.45                             106    1.34 0  393 216 
 ORTC HZ I         614  2.44        48.8 0.22            105            393 216 
 APAC HZ EP        613 16.29                             106    0.55 6  398 288 
 APAC HN ES   4    613 55.75                             106   -2.23 0  398 288 
 APAC HZ I         614 10.84        22.2 0.38            105            398 288 
 PAL  HZ EP        613 16.61                             106    0.07 6  404 239 
 PAL  HN ES   4    614  1.23                             106    1.83 0  404 239 
 PAL  HZ I         614  6.48        20.7 0.28            105            404 239 
 SJC  HZ EP   4    613 14.83                             105   -2.44 0  410 327 
 SJC  HN ES   4    613 56.33                             105   -4.37 0  410 327 
 SJC  HZ I         614  0.54        24.2 0.34            105            410 327 
 YOT  HZ EP        613 23.81                             103   -0.59 5  470 229 
 CRJC HZ EP   4    613 21.42                             103   -2.88 0  470   4 
 CRJC HN ES   4    614  8.54                             103   -4.67 0  470   4 
 CRJC HZ I         614 19.78        37.1 0.76            102            470   4 
 GUA  EZ EP        613 23.74                             103   -0.77 5  472 173 
 GUA  EN ES   4    614 11.72                             103   -1.86 0  472 173 
 GUA  EZ I         614 18.28        21.8 0.24            102            472 173 
 SMAR HZ EP   4    613 26.14                             102   -1.50 0  499 346 
 SMAR HN ES   4    614 13.17                             102   -5.99 0  499 346 
 SMAR HZ I         614 18.55        15.1 0.28            101            499 346 
 BET  EZ EP        613 29.29                             102   -0.31 4  514 209 
 BET  EN ES   4    614 18.86                             102   -3.80 0  514 209 
 BET  EZ I         614 33.16        12.3 0.54            101            514 209 
 MACC HZ EP   4    613 28.15                             102   -1.89 0  519 189 
 MACC HN ES   4    614 19.46                             102   -3.97 0  519 189 
 MACC HZ I         614 25.45        27.1 0.84            101            519 189 
 MAL  EZ EP   4    613 36.54                             101    2.10 0  556 237 
 GARC HZ EP   4    613 35.37                             100   -1.21 0  571 207 
 GARC HE ES   4    614 31.59                             100   -3.49 0  571 207 
 GARC HZ I         614 34.14        19.5 0.26             99            571 207 
 CONO HZ EP        613 42.30                              99    0.59 3  610 216 
                                                                                
