 2013  6 8 0004 56.1 L   6.816 -73.201143.0  RSN 11 0.4 2.2LRSN                1
 GAP=177        0.85       3.0     4.3  5.7  0.5729E+00  0.4691E+01 -0.1296E+00E
 Epicentro: ZAPATOCA - SANTANDER                                               3
 ACTION:UPD 14-01-08 09:53 OP:ep   STATUS:               ID:20130608000456 L   I
 OLDACT:UP  13-06-08 07:35 OP:mh   STATUS:               ID:20130608000001d    3
 OLDACT:UP  13-06-08 07:35 OP:mh   STATUS:               ID:20130608000001d    3
 OLDACT:UP  13-06-08 07:34 OP:mh   STATUS:               ID:20130608000001d    3
 OLDACT:DUP 13-06-08 07:29 OP:mh   STATUS:               ID:20130608000001d    3
 2013-06-08-0000-00M.COL___257                                                 6
 STAT SP IPHASW D HRMM SECON CODA AMPLIT PERI AZIMU VELO AIN AR TRES W  DIS CAZ7
 BAR2 SZ EP   1    0 5 15.69                             170    0.23 7 24.8 175 
 BAR2 SZ ES        0 5 30.71                             170    0.1810 24.8 175 
 BAR2 SZ I         0 5 31.56        14.8 0.24            169           24.8 175 
 BRR  HZ EP   1    0 5 17.51                             154    0.88 7 65.0 300 
 BRR  HN ES   1    0 5 32.18                             154   -0.45 7 65.0 300 
 RUS  HZ EP        0 5 19.35                             143   -0.4310  103 173 
 RUS  HN ES   1    0 5 38.24                             143    0.01 7  103 173 
 RUS  HN I         0 5 39.75        12.6 0.42            146            103 173 
 PTB  HZ EP   1    0 5 22.26                             133   -0.10 7  142 258 
 PTB  HN ES        0 5 42.98                             133    0.16 9  142 258 
 PTB  HN I         0 5 48.98        42.0 0.48            129            142 258 
 OCA  HZ EP        0 5 24.31                             129    0.31 9  158 355 
 OCA  HN ES   2    0 5 45.15                             129   -0.58 5  158 355 
 OCA  HN I         0 5 51.03        47.2 0.30            128            158 355 
 ZAR  HZ EP   4    0 5 29.54                             123    1.80 0  198 292 
 ZAR  HE ES        0 5 52.41                             123    0.01 9  198 292 
 ZAR  HE I         0 6  5.49        19.0 0.18            120            198 292 
 NOR  HZ EP   1    0 5 31.74                             118    0.46 6  231 233 
 NOR  HN ES        0 5 58.63                             118   -0.07 8  231 233 
 NOR  HN I         0 6  1.36        18.1 0.14            118            231 233 
 SML  HN ES        0 5 59.69                             117   -0.56 8  240 336 
 SML  HN I         0 6  8.00        20.7 0.10            116            240 336 
 HEL  HZ EP   1    0 5 36.26                             115    0.66 6  267 255 
 HEL  HN ES   4    0 6  6.84                             115    0.46 0  267 255 
 HEL  HN I         0 6 14.37         6.2 0.32            114            267 255 
 GUY2CHZ EP   4    0 5 40.09                             112    0.92 0  297 234 
 GUY2CHN ES   4    0 6 15.46                             112    2.72 0  297 234 
 GUY2CHN I         0 6 22.47         4.2 0.72                           297 234 
 PRA  HZ EP   1    0 5 48.63                             106   -0.76 4  391 209 
 PRA  HN ES        0 6 30.35                             106   -0.58 6  391 209 
 PRA  HN I         0 6 37.05         9.2 0.94            107            391 209 
                                                                                
