 2016  6 8 0646  2.5 L   6.808 -73.124141.6  RSN 10 0.6 1.7LRSN                1
 GAP=139        1.36       4.5     6.7  8.5 -0.7767E+01  0.7960E+01  0.5177E+01E
 Epicentro: LOS SANTOS - SANTANDER                                             3
 ACTION:UPD 16-07-21 22:16 OP:rebc STATUS:               ID:20160608064602 L   I
 OLDACT:UP  16-06-08 18:39 OP:dani STATUS:               ID:20160608063748     3
 OLDACT:REG 16-06-08 13:26 OP:dani STATUS:               ID:20160608063748     3
 2016-06-08-0637-48M.COL___328                                                 6
 STAT SP IPHASW D HRMM SECON CODA AMPLIT PERI AZIMU VELO AIN AR TRES W  DIS CAZ7
 BAR2 EZ EP     C  646 21.49                             170   -0.1910 24.7 195 
 BAR2 EZ ES        646 36.32                             170   -0.3110 24.7 195 
 BAR2 EZ I         646 37.67        11.7 0.16                          24.7 195 
 BRR  HZ EP     C  646 23.40                             151    0.0810 72.9 297 
 BRR  HE ES        646 40.61                             151    1.0610 72.9 297 
 BRR  HZ I         646 44.43        14.3 0.12                          72.9 297 
 PAM  EN ES        646 41.51                             151    0.4610 75.2  39 
 RUS  HZ EP        646 25.64                             143   -0.2810  101 177 
 RUS  HN ES        646 43.80                             143   -0.3710  101 177 
 RUS  HZ I         646 44.82         4.2 0.22                           101 177 
 RUS  HZ I         647 17.22         4.8 0.36                           101 177 
 PTB  HZ EP   4    646 28.23                             130   -1.15 0  150 259 
 PTB  HN ES        646 49.42                             130   -0.91 9  150 259 
 PTB  HZ I         646 52.89         9.0 0.10                           150 259 
 OCA  HZ EP        646 30.19                             129   -0.27 9  160 352 
 OCA  HE ES        646 51.82                             129   -0.43 9  160 352 
 OCA  HZ I         646 54.97        19.9 0.34                           160 352 
 SPBC HZ EP        646 30.74                             128   -0.17 9  165 219 
 SPBC HE ES        646 52.87                             128   -0.19 9  165 219 
 SPBC HZ I         646 56.17         7.9 0.10                           165 219 
 NOR  HN ES        647  6.76                             117    0.60 8  237 235 
 NOR  HZ I         647 10.85         5.6 0.46                           237 235 
 CHI  HZ EP        646 41.21                             116    1.06 8  250 196 
 CHI  HN ES   2    647 10.67                             116    1.17 4  250 196 
 CHI  HZ I         647 15.65         2.1 0.38                           250 196 
 SJC  HZ EP   4    647  1.57                             105    3.56 0  410 327 
 SJC  HE ES   4    647 39.78                             105   -1.52 0  410 327 
 SJC  HZ I         647 41.18         1.0 0.44                           410 327 
                                                                                
