 2017 10 8 0703 38.5 L   6.793 -73.140142.6  RSN  8 0.4 1.3LRSN                1
 GAP=113        0.87       3.1     3.6  5.7  0.3989E+00  0.6643E+01  0.2792E+01E
 Epicentro: LOS SANTOS - SANTANDER                                             3
 ACTION:UPD 17-11-07 19:29 OP:rebc STATUS:               ID:20171008070338 L   I
 OLDACT:DUP 17-10-08 16:43 OP:dhb  STATUS:               ID:20171008065737d    3
 2017-10-08-0658-00M.COL___399                                                 6
 STAT SP IPHASW D HRMM SECON CODA AMPLIT PERI AZIMU VELO AIN AR TRES W  DIS CAZ7
 BAR2 EZ EP        7 3 57.35                             170   -0.3710 22.7 192 
 BAR2 EZ ES        7 4 12.35                             170   -0.3710 22.7 192 
 BAR2 EZ I         7 4 13.47         6.5 0.34            170           22.7 192 
 PAM  EZ EP        7 4  0.39                             150    0.0210 77.5  39 
 PAM  EN ES        7 4 17.38                             150   -0.0610 77.5  39 
 PAM  EZ I         7 4 19.61         5.9 0.48            153           77.5  39 
 RUS  HZ EP        7 4  1.70                             143   -0.1710 99.8 176 
 RUS  HN ES        7 4 20.62                             143    0.5110 99.8 176 
 RUS  HZ I         7 4 21.62         1.3 0.18            144           99.8 176 
 SPBC HZ EP        7 4  6.56                             128   -0.17 9  163 219 
 SPBC HN ES        7 4 28.97                             128    0.22 9  163 219 
 SPBC HZ I         7 4 33.07         3.4 0.28            129            163 219 
 YPLC HZ EP        7 4  7.83                             126   -0.12 9  176 151 
 YPLC HN ES        7 4 31.55                             126    0.61 9  176 151 
 YPLC HZ I         7 4 34.59         3.4 0.32            128            176 151 
 ZAR  HZ EP        7 4 11.41                             121    0.59 9  205 292 
 ZAR  HN ES        7 4 36.19                             121    0.16 9  205 292 
 ZAR  HZ I         7 4 42.20         1.8 0.18            122            205 292 
 CHI  HZ EP        7 4 15.83                             116   -0.12 8  248 195 
 CHI  HE ES        7 4 44.49                             116   -0.68 8  248 195 
 CHI  HZ I         7 4 48.43         1.2 0.36            117            248 195 
 GUY2CHZ EP   4    7 4 23.34                             112    1.38 0  301 235 
 GUY2CHE ES        7 4 55.81                             112   -0.06 7  301 235 
 GUY2CHZ I         7 5  1.36         0.6 0.54                           301 235 
                                                                                
