 2010  8 8 0217 35.0 L   6.789 -73.070142.0  RSN  6 0.3 1.3LRSN                1
 GAP=167        0.69       4.7     8.7  8.1  0.4048E+01 -0.2610E+02 -0.1335E+02E
 Epicentro: LOS SANTOS - SANTANDER                                             3
 ACTION:UP  10-09-07 10:53 OP:vdl  STATUS:               ID:20100808021734 L   I
 2010-08-08-0214-50S.COL___125                                                 6
 STAT SP IPHASW D HRMM SECON CODA AMPLIT PERI AZIMU VELO SNR AR TRES W  DIS CAZ7
 BAR2 SZ EP   1    217 53.97                             170    -0.2 7   25 210 
 BAR2 SZ ES   2    218  8.84                             170    -0.3 5   25 210 
 BAR2 SZ I         218 11.74         5.1 0.33                            25 210 
 BTL  SZ ES   2    218  9.20                             169     0.0 5   26 303 
 BRR  HZ EP        217 55.80                             149    -0.410   79 296 
 BRR  HN ES   1    218 13.21                             149     0.5 7   79 296 
 BRR  HZ I         218 17.66         6.3 0.47                            79 296 
 RUS  HZ EP   2    217 58.52                             144     0.3 5   99 181 
 RUS  HN ES   1    218 16.60                             144     0.2 7   99 181 
 RUS  HZ I         218 18.30         2.0 0.45                            99 181 
 GUE  SZ EP   2    217 59.84                             139     0.5 5  116   8 
 GRA  SZ EP        217 59.79                             137     0.010  125  14 
 GRA  SZ ES   2    218 19.16                             137     0.0 5  125  14 
 GRA  SZ I         218 24.22         2.5 0.48                           125  14 
                                                                                
