 2017  5 8 0852 33.6 L   6.741 -73.183153.7  RSN  4 0.2 1.1LRSN                1
 GAP=228        0.63       5.3     5.3  6.3  0.1871E+02 -0.1111E+01 -0.2667E+01E
 Epicentro: VILLANUEVA - SANTANDER                                             3
 ACTION:UPD 17-06-16 13:34 OP:jn   STATUS:               ID:20170508085233 L   I
 OLDACT:DUP 17-05-08 18:57 OP:edw  STATUS:               ID:20170508084736d    3
 2017-05-08-0848-00M.COL___359                                                 6
 STAT SP IPHASW D HRMM SECON CODA AMPLIT PERI AZIMU VELO AIN AR TRES W  DIS CAZ7
 BRR  HZ EP        852 55.15                             154   -0.4210 71.1 305 
 BRR  HN ES        853 12.96                             154    0.2210 71.1 305 
 RUS  HZ EP        852 57.89                             147    0.2010 94.4 173 
 RUS  HN ES        853 16.40                             147   -0.1010 94.4 173 
 RUS  HZ I         853 17.56         1.9 0.34            147           94.4 173 
 PTB  HZ EP        853  0.96                             135    0.23 9  143 261 
 PTB  HN ES        853 21.77                             135   -0.15 9  143 261 
 ZAR  HN ES        853 32.07                             124    0.03 9  203 294 
                                                                                
