 2013  6 8 0323 29.8 L   6.820 -73.107148.5  RSN 10 0.4 2.2LRSN                1
 GAP=187        0.74       3.8     5.9  5.9  0.7694E+00  0.4398E+01 -0.3214E+01E
 Epicentro: LOS SANTOS - SANTANDER                                             3
 ACTION:UPD 14-01-08 09:53 OP:ep   STATUS:               ID:20130608032329 L   I
 OLDACT:UP  13-06-08 07:54 OP:mh   STATUS:               ID:20130608032000     3
 OLDACT:REG 13-06-08 06:52 OP:mh   STATUS:               ID:20130608032000     3
 2013-06-08-0320-00M.COL___257                                                 6
 STAT SP IPHASW D HRMM SECON CODA AMPLIT PERI AZIMU VELO AIN AR TRES W  DIS CAZ7
 BAR2 SZ EP   1    323 49.81                             169    0.04 7 26.5 198 
 BAR2 SZ ES   1    324  4.89                             169   -0.50 7 26.5 198 
 BAR2 SZ I         324  7.67        11.2 0.22            165           26.5 198 
 BRR  HZ EP   1    323 51.85                             152    0.50 7 74.0 295 
 BRR  HN ES   1    324  8.93                             152    0.73 7 74.0 295 
 BRR  HN I         324  9.69        28.1 0.18            146           74.0 295 
 RUS  HZ EP   1    323 54.18                             144    0.27 7  103 179 
 RUS  HN ES   1    324 12.71                             144   -0.04 7  103 179 
 RUS  HN I         324 14.24        13.8 0.28            144            103 179 
 PTB  HZ EP   1    323 56.53                             132   -0.83 7  152 258 
 PTB  HN ES   1    324 18.75                             132   -0.14 7  152 258 
 PTB  HN I         324 23.29        31.8 0.28            128            152 258 
 OCA  HZ EP   1    323 57.99                             131   -0.13 7  159 352 
 OCA  HN ES   2    324 20.15                             131   -0.10 5  159 352 
 OCA  HN I         324 23.77        44.1 0.24            130            159 352 
 NOR  HN ES   2    324 34.32                             119   -0.21 4  239 235 
 NOR  HN I         324 38.57        24.0 0.16            117            239 235 
 SML  HZ EP   1    324  6.51                             118   -0.00 6  244 334 
 SML  HN ES   2    324 34.38                             118   -0.80 4  244 334 
 SML  HN I         324 40.08        22.6 0.10            117            244 334 
 HEL  HZ EP   1    324 11.06                             115    0.44 6  277 256 
 HEL  HN ES   4    324 40.19                             115   -2.31 0  277 256 
 HEL  HN I         324 51.53         3.7 0.28            113            277 256 
 GUY2CHZ EP   4    324 15.12                             112    1.10 0  306 235 
 GUY2CHN ES   4    324 51.90                             112    3.35 0  306 235 
 GUY2CHN I         324 55.86         5.1 0.56                           306 235 
 PRA  HZ EP   1    324 23.97                             107    0.13 4  396 210 
 PRA  HN ES   2    325  5.80                             107   -0.22 3  396 210 
 PRA  HN I         325 11.42         2.5 0.32            107            396 210 
                                                                                
