 2015  6 8 0256 41.0 L   6.765 -73.089143.7  RSN 13 0.4 1.8LRSN                1
 GAP=146        0.94       2.4     3.6  4.7 -0.5778E+00  0.6678E+01 -0.3785E+00E
 Epicentro: LOS SANTOS - SANTANDER                                             3
 ACTION:UPD 15-09-10 22:10 OP:cam  STATUS:               ID:20150608025641 L   I
 OLDACT:REG 15-06-08 12:09 OP:drio STATUS:               ID:20150608024749     3
 2015-06-08-0247-49M.COL___297                                                 6
 STAT SP IPHASW D HRMM SECON CODA AMPLIT PERI AZIMU VELO AIN AR TRES W  DIS CAZ7
 BAR2 EZ EP        257  0.27                             171   -0.0610 21.7 208 
 BAR2 EZ ES        257 15.70                             171    0.2810 21.7 208 
 BAR2 EZ I         257 17.72        12.3 0.22            170           21.7 208 
 PAM  SZ EP        257  3.04                             151    0.1010 76.7  34 
 PAM  SN ES        257 20.13                             151    0.0710 76.7  34 
 PAM  SZ I         257 22.81        13.3 0.62            153           76.7  34 
 BRR  HZ EP        257  2.19                             150   -0.1610 78.6 299 
 BRR  HE ES        257 19.10                             150    0.0910 78.6 299 
 BRR  HZ I         257 20.59         9.0 0.14            149           78.6 299 
 RUS  HZ EP        257  3.83                             145   -0.4110 96.5 180 
 RUS  HE ES        257 22.83                             145    0.4610 96.5 180 
 RUS  HZ I         257 24.42         5.4 0.18            146           96.5 180 
 SPBC HZ EP        257  9.21                             128   -0.22 9  164 222 
 SPBC HN ES        257 31.48                             128   -0.14 9  164 222 
 SPBC HZ I         257 34.61        12.5 0.12            129            164 222 
 OCA  HZ EP        257  9.46                             128   -0.12 9  165 351 
 OCA  HN ES        257 31.61                             128   -0.28 9  165 351 
 OCA  HZ I         257 34.75        14.2 0.22            129            165 351 
 ZAR  HZ EP        257 14.10                             121    0.04 8  211 292 
 ZAR  HN ES        257 39.85                             121   -0.00 8  211 292 
 ZAR  HZ I         257 43.90         8.0 0.40            122            211 292 
 NOR  HZ EP   4    257 18.25                             118    1.33 0  238 236 
 NOR  HN ES   4    257 42.89                             118   -2.05 0  238 236 
 CHI  HZ EP        257 18.34                             117   -0.01 8  247 197 
 CHI  HE ES        257 46.63                             117   -0.87 8  247 197 
 CHI  HZ I         257 55.13         2.3 0.30            118            247 197 
 SML  HZ EP        257 17.79                             116   -0.38 8  250 334 
 SML  HN ES        257 46.83                             116   -0.34 8  250 334 
 SML  HZ I         257 58.84         7.7 0.24            117            250 334 
 HEL  HZ EP        257 22.48                             114    0.80 7  277 257 
 HEL  HN ES        257 52.87                             114   -0.54 7  277 257 
 HEL  HZ I         257 58.49         4.0 0.40            115            277 257 
 URE  HZ EP        257 23.49                             113    0.71 7  291 292 
 URE  HE ES        257 55.01                             113   -0.36 7  291 292 
 URE  HZ I         257 59.23         6.4 0.82            113            291 292 
 GUY2CHZ EP        257 25.54                             112    0.70 7  304 236 
 GUY2CHN ES        257 59.28                             112    0.24 7  304 236 
 GUY2CHZ I         258  5.00         3.2 0.26                           304 236 
 MON  HZ EP        257 31.85                             108    1.09 6  361 308 
 MON  HN ES   4    258  6.22                             108   -3.36 0  361 308 
 MON  HZ I         258  8.29         1.3 0.28            109            361 308 
 SJC  HZ EP   4    257 36.25                             105   -1.02 0  416 327 
                                                                                
