 2011  9 8 0635 36.3 L   6.771 -73.042156.3  RSN 13 0.2 2.2LRSN                1
 GAP=152        0.34       1.7     2.7  3.0 -0.8684E+00  0.2033E+01  0.6194E+00E
 Epicentro: LOS SANTOS - SANTANDER                                             3
 ACTION:UPD 12-07-13 15:56 OP:ep   STATUS:               ID:20110908063400 L   I
 2011-09-08-0634-00S.COL___169                                                 6
 STAT SP IPHASW D HRMM SECON CODA AMPLIT PERI AZIMU VELO AIN AR TRES W  DIS CAZ7
 BAR2 SZ EP   1    635 57.40                             170    0.12 7 25.2 218 
 BAR2 SZ ES   2    636 13.55                             170   -0.05 5 25.2 218 
 BAR2 SZ I         636 14.24        24.1 0.24                          25.2 218 
 GIR2 SZ EP   2    635 57.51                             166    0.06 5 37.9 334 
 GIR2 SZ ES   2    636 13.84                             166   -0.08 5 37.9 334 
 PAM  SZ EP   2    635 59.24                             154   -0.23 5 73.3  31 
 PAM  SN ES   2    636 17.47                             154   -0.03 5 73.3  31 
 BRR  HZ EP   1    635 59.42                             151    0.12 7 82.9 297 
 BRR  HZ I         636 10.92        75.4 0.16                          82.9 297 
 BRR  HN ES   2    636 16.82                             151   -0.38 5 82.9 297 
 RUS  HZ EP   1    636  1.25                             147    0.33 7 97.3 183 
 RUS  HN ES   2    636 20.22                             147    0.13 5 97.3 183 
 RUS  HZ I         636 21.28         6.4 0.26                          97.3 183 
 OCA  SZ EP   1    636  5.96                             131    0.02 7  165 349 
 OCA  SZ ES   2    636 29.24                             131    0.22 5  165 349 
 OCA  SZ I         636 34.38        14.3 0.45                           165 349 
 ZAR  HZ EP   2    636 10.60                             123   -0.10 4  216 292 
 ZAR  HN ES   2    636 37.56                             123    0.06 4  216 292 
 ZAR  HZ I         636 41.22        14.3 0.35                           216 292 
 NOR  SZ EP   2    636 13.45                             120   -0.07 4  242 237 
 NOR  SN ES   2    636 42.33                             120   -0.18 4  242 237 
 CHI  HZ EP   1    636 14.10                             119   -0.57 6  249 198 
 CHI  HN ES   2    636 44.43                             119   -0.14 4  249 198 
 CHI  HZ I         636 52.63         6.2 0.44                           249 198 
 HEL  HZ EP   2    636 18.72                             116    0.46 4  283 257 
 HEL  HN ES   2    636 50.92                             116   -0.02 4  283 257 
 HEL  HZ I         636 56.08         8.4 0.38                           283 257 
 RREF HZ EP   2    636 23.48                             112   -0.25 3  329 231 
 RREF HN ES   2    637  0.98                             112    0.29 3  329 231 
 RREF HZ I         637  9.60         6.9 0.48                           329 231 
 COD  HZ EP   2    636 25.36                             110   -0.30 3  353 353 
 COD  HN ES   2    637  3.93                             110   -0.20 3  353 353 
 COD  HZ I         637  4.12        13.1 0.90                           353 353 
 PRA  HZ EP   2    636 30.83                             108    0.23 3  395 211 
 PRA  HN ES   2    637 12.98                             108    0.05 3  395 211 
                                                                                
