 2013 11 8 0956 41.5 L   6.714 -73.158132.6  RSN  7 0.5 1.4LRSN                1
 GAP=198        1.29       5.2     8.9  9.0  0.1469E+02  0.2258E+02 -0.1020E+02E
 Epicentro: VILLANUEVA - SANTANDER                                             3
 ACTION:UPD 14-01-09 16:26 OP:ep   STATUS:               ID:20131108095641 L   I
 OLDACT:UP  13-11-08 09:21 OP:jn   STATUS:               ID:20131108095000     3
 OLDACT:REG 13-11-08 07:41 OP:jn   STATUS:               ID:20131108095000     3
 2013-11-08-0950-00M.COL___273                                                 6
 STAT SP IPHASW D HRMM SECON CODA AMPLIT PERI AZIMU VELO AIN AR TRES W  DIS CAZ7
 BAR2 SZ ES        957 12.94                             174   -0.4010 13.7 191 
 BAR2 SZ I         957 15.73        10.9 0.20            175           13.7 191 
 BRR  HZ EP        957  2.33                             149    0.8310 75.1 305 
 BRR  HN ES   1    957 17.46                             149    0.38 7 75.1 305 
 BRR  HZ I         957 20.50         4.3 0.26            150           75.1 305 
 RUS  HZ EP        957  3.39                             144    0.0910 91.2 175 
 RUS  HN ES        957 20.48                             144    0.1910 91.2 175 
 RUS  HZ I         957 22.63         2.5 0.22            147           91.2 175 
 PTB  HZ EP        957  6.22                             129   -0.95 9  145 262 
 PTB  HN ES   4    957 25.46                             129   -1.71 0  145 262 
 PTB  HZ I         957 27.25         5.7 0.42            132            145 262 
 SPBC HZ EP        957  8.26                             127    0.02 9  155 221 
 SPBC HN ES        957 28.77                             127   -0.31 9  155 221 
 ZAR  HZ EP        957 13.80                             119    0.39 8  207 295 
 ZAR  HN ES        957 38.77                             119    0.49 8  207 295 
 ZAR  HZ I         957 41.41         2.9 0.38            121            207 295 
 SML  HZ EP        957 18.55                             114    0.21 8  252 336 
 SML  HN ES        957 46.07                             114   -0.99 8  252 336 
                                                                                
