 2012  3 8 0702 22.0 L   6.769 -73.105146.2  RSN  6 0.5 1.6LRSN                1
 GAP=143        1.24       9.3     8.7 15.6  0.1242E+02  0.4679E+02  0.2284E+02E
 ACTION:UP  12-03-31 23:18 OP:EP   STATUS:               ID:20120308070222 L   I
 2012-03-08-0700-00M.COL___193                                                 6
 STAT SP IPHASW D HRMM SECON CODA AMPLIT PERI AZIMU VELO SNR AR TRES W  DIS CAZ7
 BAR2 SZ EP   1    7 2 42.10                             171     0.5 7   21 204 
 BAR2 SZ I         7 2 42.64         5.0 0.17                            21 204 
 PAM  SN ES   1    7 3  0.83                             151    -0.8 7   77  35 
 BRR  HZ EP   1    7 2 43.86                             151     0.4 7   77 299 
 BRR  HZ I         7 2 44.14        11.8 0.15                            77 299 
 BRR  HE ES        7 3  0.80                             151     0.510   77 299 
 RUS  HN ES   1    7 3  3.93                             145     0.1 7   97 179 
 PTB  HZ EP   1    7 2 48.94                             131    -0.4 7  152 260 
 PTB  HN ES   1    7 3  9.74                             131    -0.9 7  152 260 
 PTB  HZ I         7 3 12.44                                            152 260 
 ZAR  HN ES   1    7 3 20.87                             122     0.1 6  209 293 
                                                                                
