 2013 12 8 0443 34.5 L   6.773 -73.146139.3  RSN 10 0.4 1.6LRSN                1
 GAP=138        1.00       3.9     4.4  6.3 -0.5316E+01  0.6594E+01  0.6092E+01E
 Epicentro: LOS SANTOS - SANTANDER                                             3
 ACTION:UPD 14-01-13 10:16 OP:ep   STATUS:               ID:20131208044334 L   I
 OLDACT:REG 13-12-08 07:23 OP:carl STATUS:               ID:20131208044000     3
 2013-12-08-0440-00M.COL___285                                                 6
 STAT SP IPHASW D HRMM SECON CODA AMPLIT PERI AZIMU VELO AIN AR TRES W  DIS CAZ7
 BAR2 SZ IP     D  443 53.17                             171   -0.1010 20.4 191 
 BAR2 SZ ES        444  7.84                             171   -0.0910 20.4 191 
 BAR2 SZ I         444  9.36        13.8 0.16            170           20.4 191 
 BRR  HZ IP     C  443 55.04                             151    0.0210 72.7 301 
 BRR  HN ES        444 11.86                             151    0.8210 72.7 301 
 BRR  HZ I         444 15.85         5.0 0.20            150           72.7 301 
 PAM  SZ EP        443 56.21                             149    0.0610 79.7  38 
 PAM  SN ES        444 13.09                             149    0.0310 79.7  38 
 PAM  SZ I         444 13.88         5.0 0.16            153           79.7  38 
 RUS  HZ EP        443 57.08                             143   -0.3010 97.6 176 
 RUS  HN ES        444 15.04                             143   -0.2110 97.6 176 
 RUS  HZ I         444 16.61         2.5 0.30            146           97.6 176 
 PTB  HZ EP        444  0.24                             131   -0.64 9  147 260 
 PTB  HN ES        444 20.77                             131   -0.70 9  147 260 
 PTB  HZ I         444 23.81         4.5 0.30            131            147 260 
 SPBC HZ EP        444  2.24                             128   -0.03 9  161 220 
 SPBC HN ES        444 24.07                             128    0.13 9  161 220 
 SPBC HZ I         444 25.67         5.4 0.12            129            161 220 
 NOR  HN ES        444 36.93                             117   -0.16 8  233 235 
 NOR  HN I         444 44.63         6.6 0.18            119            233 235 
 CHI  HE ES        444 40.90                             116    0.50 8  246 195 
 GUY2CHZ EP        444 18.33                             111    0.73 7  299 235 
 GUY2CHE ES        444 51.26                             111    0.02 7  299 235 
 GUY2CHZ I         444 59.69         2.0 0.44                           299 235 
 PRA  HN ES        445  9.62                             106    0.80 6  389 210 
                                                                                
