 2010  9 8 0038 51.7 L   5.729 -73.882107.6  RSN  7 0.4 1.5LRSN                1
 GAP= 94        0.76       3.6     4.6 11.8 -0.7471E+01  0.3135E+02 -0.1227E+02E
 Epicentro: ALBANIA - SANTANDER                                                3
 ACTION:UP  11-02-18 11:01 OP:tino STATUS:               ID:20100908003851 L   I
 2010-09-08-0036-34S.COL___120                                                 6
 STAT SP IPHASW D HRMM SECON CODA AMPLIT PERI AZIMU VELO SNR AR TRES W  DIS CAZ7
 RUS  HZ EP   1    039 11.03                             138    -0.1 7   90  78 
 RUS  HZ I         039 13.83         3.2 0.35                            90  78 
 RUS  HN ES   1    039 25.96                             138    -0.2 7   90  78 
 BAR2 SZ ES   1    039 31.14                             128     0.3 7  123  39 
 CHI  HZ EP   2    039 14.06                             128     0.2 5  123 172 
 CHI  HN ES   1    039 30.98                             128    -0.2 7  123 172 
 CHI  HZ I         039 34.14         4.5 0.28                           123 172 
 BAR2 SZ EP   1    039 13.74                             128     0.1 7  123  39 
 BAR2 SZ I         039 33.06         9.0 0.30                           123  39 
 BRR  HZ EP   1    039 16.33                             121    -0.2 7  154   7 
 BRR  HZ I         039 29.49         6.0 0.38                           154   7 
 BRR  HE ES   1    039 35.86                             121     0.1 7  154   7 
 GIR2 SZ EP   2    039 18.31                             118     0.1 5  168  27 
 RREF HZ EP   1    039 20.38                             116    -0.5 7  186 241 
 RREF HN ES   1    039 44.36                             116     0.8 7  186 241 
 RREF HZ I         039 47.20         5.7 0.42                           186 241 
 HEL  HZ EP   2    039 21.13                             115     0.3 4  189 286 
 HEL  HN ES   2    039 42.64                             115    -0.9 4  189 286 
 HEL  HZ I         039 45.87         3.7 0.49                           189 286 
                                                                                
