 2017  1 8 0816 25.1 L   6.791 -73.148147.7  RSN  9 0.4 1.7LRSN                1
 GAP=137        0.83       3.7     3.7  5.6  0.4400E+00  0.4798E+01  0.5145E+01E
 Epicentro: LOS SANTOS - SANTANDER                                             3
 ACTION:UPD 17-05-22 15:56 OP:jn   STATUS:               ID:20170108081625 L   I
 OLDACT:REG 17-01-08 12:50 OP:dnl  STATUS:               ID:20170108080744     3
 2017-01-08-0808-00M.COL___368                                                 6
 STAT SP IPHASW D HRMM SECON CODA AMPLIT PERI AZIMU VELO AIN AR TRES W  DIS CAZ7
 BAR2 EZ EP        816 44.93                             171   -0.0210 22.3 190 
 BAR2 EZ ES        816 59.93                             171   -0.4910 22.3 190 
 BAR2 EZ I         817  1.51        11.6 0.20            169           22.3 190 
 BRR  HZ EP   2    816 45.87                             153   -0.61 5 71.5 299 
 BRR  HN ES        817  3.85                             153    0.7110 71.5 299 
 BRR  HZ I         817  6.23         7.2 0.28            152           71.5 299 
 PAM  EZ EP        816 47.83                             151    0.2510 78.3  39 
 PAM  EN ES        817  5.11                             151    0.0010 78.3  39 
 PAM  EZ I         817  7.97         5.6 0.34            154           78.3  39 
 RUS  HZ EP        816 48.91                             144   -0.0710 99.6 176 
 RUS  HN ES   2    817  7.49                             144   -0.11 5 99.6 176 
 RUS  HZ I         817  8.97         4.0 0.32            144           99.6 176 
 PTB  HZ EP        816 51.68                             132   -0.51 9  147 259 
 PTB  HE ES        817 13.24                             132   -0.08 9  147 259 
 PTB  HZ I         817 15.25         5.5 0.18            132            147 259 
 ZAR  HZ EP        816 57.66                             123   -0.03 9  204 292 
 ZAR  HE ES        817 22.93                             123   -0.18 9  204 292 
 ZAR  HZ I         817 28.02         6.3 0.36            123            204 292 
 CHI  HZ EP   2    817  3.05                             118    0.25 4  248 195 
 CHI  HN ES        817 32.58                             118    0.37 8  248 195 
 CHI  HZ I         817 37.47         2.6 0.50            118            248 195 
 GUY2CHZ EP   2    817  9.69                             113    0.97 4  300 235 
 GUY2CHE ES   4    817 47.25                             113    4.51 0  300 235 
 GUY2CHZ I         817 51.29         3.3 0.62                           300 235 
 ORTC HN ES   2    818  1.83                             107    0.82 3  395 216 
 ORTC HZ I         818  8.77         1.7 0.38            107            395 216 
                                                                                
