 2017 10 8 0803 55.4 L   6.745 -73.135144.2  RSN  5 0.4 1.4LRSN                1
 GAP=140        0.98       4.4     5.5  7.7 -0.4116E+01  0.1785E+02 -0.4512E+01E
 Epicentro: LOS SANTOS - SANTANDER                                             3
 ACTION:UPD 17-11-07 19:29 OP:rebc STATUS:               ID:20171008080355 L   I
 OLDACT:REG 17-10-08 12:55 OP:dhb  STATUS:               ID:20171008075740     3
 2017-10-08-0758-00M.COL___399                                                 6
 STAT SP IPHASW D HRMM SECON CODA AMPLIT PERI AZIMU VELO AIN AR TRES W  DIS CAZ7
 BAR2 EZ EP        8 4 14.59                             173   -0.1610 17.7 197 
 BAR2 EZ ES        8 4 29.83                             173   -0.0110 17.7 197 
 BAR2 EZ I         8 4 32.94         3.9 0.27            170           17.7 197 
 PAM  EZ IP     D  8 4 17.74                             149    0.0310 81.4  36 
 PAM  EE ES        8 4 34.75                             149   -0.3510 81.4  36 
 PAM  EZ I         8 4 36.64         5.6 0.44            155           81.4  36 
 RUS  HZ EP        8 4 19.18                             145    0.6110 94.4 177 
 RUS  HN ES        8 4 37.06                             145    0.4310 94.4 177 
 RUS  HZ I         8 4 38.39         4.0 0.24            148           94.4 177 
 SPBC HZ EP        8 4 22.90                             129   -0.52 9  159 221 
 SPBC HN ES        8 4 44.74                             129   -0.53 9  159 221 
 SPBC HZ I         8 4 52.36         2.8 0.19            131            159 221 
 ZAR  HZ EP        8 4 28.06                             121   -0.05 8  208 294 
 ZAR  HE ES        8 4 54.11                             121    0.49 8  208 294 
 ZAR  HZ I         8 4 59.09         1.9 0.21            123            208 294 
                                                                                
