 2017  9 8 0344  8.5 L   6.765 -73.132144.0  RSN  4 0.2 1.1LRSN                1
 GAP=236        0.60       3.7     5.8  6.1  0.4247E+01  0.2871E+01 -0.1588E+00E
 Epicentro: LOS SANTOS - SANTANDER                                             3
 ACTION:UPD 17-10-05 19:10 OP:rebc STATUS:               ID:20170908034408 L   I
 OLDACT:DUP 17-09-08 14:37 OP:dnl  STATUS:               ID:20170908033737d    3
 2017-09-08-0338-00M.COL___425                                                 6
 STAT SP IPHASW D HRMM SECON CODA AMPLIT PERI AZIMU VELO AIN AR TRES W  DIS CAZ7
 BAR2 EZ EP        344 27.93                             172    0.0710 19.9 196 
 BAR2 EZ ES        344 42.59                             172   -0.3710 19.9 196 
 BAR2 EZ I         344 45.31         2.3 0.28            162           19.9 196 
 BRR  HZ EP        344 29.52                             151   -0.1310 74.4 301 
 BRR  HE ES        344 46.41                             151    0.2610 74.4 301 
 BRR  HZ I         344 48.87         4.5 0.18            146           74.4 301 
 RUS  HZ EP   2    344 31.80                             145   -0.00 5 96.6 177 
 RUS  HN ES        344 50.25                             145    0.2810 96.6 177 
 RUS  HZ I         344 52.56         1.5 0.28            141           96.6 177 
 SPBC HN ES        344 58.53                             129   -0.13 9  161 220 
 SPBC HZ I         345  7.06         1.8 0.24            125            161 220 
                                                                                
