 2010  4 8 0128 24.6 L   6.850 -73.032153.8  RSN  4 0.4 2.0LRSN                1
 GAP=264        0.77       8.2     9.0  8.7  0.8790E+01  0.4496E+01  0.1818E+02E
 Epicentro: CEPITA - SANTANDER                                                 3
 ACTION:UPD 10-08-24 09:58 OP:vdl  STATUS:               ID:20100408012825 L   I
 2010-04-08-0127-12S.COL___097                                                 6
 STAT SP IPHASW D HRMM SECON CODA AMPLIT PERI AZIMU VELO AIN AR TRES W  DIS CAZ7
 BAR2 SZ EP        128 45.12                             167    -0.310   33 210 
 BAR2 SZ ES   2    129  1.12                             167    -0.5 5   33 210 
 BRR  HZ EP        128 47.49                             152     0.410   80 291 
 BRR  HE ES        129  4.84                             152     0.210   80 291 
 BRR  HZ I         129  6.42        24.9 0.14                            80 291 
 RREF BZ EP   2    129 13.00                             111     0.5 3  335 230 
 RREF BN ES   1    129 49.67                             111    -0.3 5  335 230 
 RREF BZ I         129 54.75         4.5 0.17                           335 230 
 MON  HZ EP   2    129 13.99                             110    -0.6 3  359 306 
 MON  HE ES   2    129 52.82                             110    -0.8 3  359 306 
 MON  HZ I         130  7.62         2.2 0.81                           359 306 
                                                                                
