 2015  4 8 0945 22.3 L   6.795 -73.149143.7  RSN  8 0.5 1.8LRSN                1
 GAP=136        1.20       4.0     5.1  7.4 -0.2508E+01  0.7944E+01 -0.2663E+01E
 Epicentro: LOS SANTOS - SANTANDER                                             3
 ACTION:UPD 15-06-03 16:53 OP:cam  STATUS:               ID:20150408094522 L   I
 OLDACT:UP  15-04-08 17:38 OP:mh   STATUS:               ID:20150408093744     3
 OLDACT:UP  15-04-08 17:38 OP:mh   STATUS:               ID:20150408093744     3
 OLDACT:REG 15-04-08 13:27 OP:akv  STATUS:               ID:20150408093744     3
 2015-04-08-0937-44M.COL___257                                                 6
 STAT SP IPHASW D HRMM SECON CODA AMPLIT PERI AZIMU VELO AIN AR TRES W  DIS CAZ7
 BAR2 EZ EP   1    945 40.94                             171   -0.71 7 22.8 189 
 BAR2 EZ ES        945 56.74                             171   -0.0110 22.8 189 
 BAR2 EZ I         945 58.29        17.0 0.14            170           22.8 189 
 BRR  HZ EP        945 43.72                             152    0.5210 71.1 299 
 BRR  HN ES        946  0.31                             152    0.7910 71.1 299 
 BRR  HZ I         946  1.47        12.7 0.32            150           71.1 299 
 PAM  SZ EP        945 44.62                             150    0.3110 78.0  39 
 PAM  SN ES        946  1.48                             150   -0.0110 78.0  39 
 PAM  SZ I         946  2.20         5.0 0.20            153           78.0  39 
 RUS  HZ EP        945 46.09                             143    0.3010  100 176 
 RUS  HN ES        946  3.63                             143   -0.5010  100 176 
 RUS  HZ I         946  5.45         5.5 0.26            145            100 176 
 PTB  HZ EP   1    945 48.45                             132   -0.59 7  147 259 
 PTB  HN ES        946  9.12                             132   -0.79 9  147 259 
 PTB  HZ I         946 12.51         5.5 0.12            131            147 259 
 OCA  HZ EP        945 50.58                             129    0.11 9  161 353 
 OCA  HN ES        946 11.69                             129   -0.77 9  161 353 
 OCA  HZ I         946 14.91        15.2 0.20            130            161 353 
 SPBC HZ EP        945 50.43                             129   -0.13 9  163 219 
 SPBC HN ES        946 13.15                             129    0.53 9  163 219 
 SPBC HZ I         946 17.71         8.7 0.22            129            163 219 
 ZAR  HZ EP        945 54.80                             122    0.22 9  204 292 
 ZAR  HN ES        946 19.82                             122    0.05 9  204 292 
 ZAR  HZ I         946 26.33         5.3 0.14            122            204 292 
                                                                                
