 2017  2 8 0334 38.5 L   6.792 -73.142147.1  RSN 16 0.4 2.2LRSN                1
 GAP=100        0.86       3.1     2.6  4.6  0.1389E+00  0.2803E+01  0.2940E+01E
 Epicentro: LOS SANTOS - SANTANDER                                             3
 ACTION:UPD 17-05-24 15:33 OP:jn   STATUS:               ID:20170208033438 L   I
 OLDACT:UP  17-02-08 16:38 OP:edw  STATUS:               ID:20170208032453d    3
 OLDACT:DUP 17-02-08 16:19 OP:edw  STATUS:               ID:20170208032453d    3
 2017-02-08-0328-00M.COL___328                                                 6
 STAT SP IPHASW D HRMM SECON CODA AMPLIT PERI AZIMU VELO AIN AR TRES W  DIS CAZ7
 BAR2 EZ IP     C  334 58.10                             171   -0.1710 22.5 191 
 BAR2 EZ ES        335 13.41                             171   -0.2810 22.5 191 
 BAR2 EZ I         335 16.58        34.4 0.28            167           22.5 191 
 BRR  HZ IP     D  335  0.02                             152    0.1910 72.0 299 
 BRR  HN ES        335 17.23                             152    0.7610 72.0 299 
 BRR  HZ I         335 20.51        20.2 0.48            152           72.0 299 
 PAM  EZ EP        335  1.00                             151    0.1210 77.8  39 
 PAM  EN ES        335 18.22                             151   -0.1210 77.8  39 
 PAM  EZ I         335 20.25        57.8 0.56            156           77.8  39 
 RUS  HZ EP        335  2.17                             144   -0.1410 99.7 176 
 RUS  HN ES        335 20.83                             144   -0.0510 99.7 176 
 RUS  HZ I         335 23.31        24.8 0.66            144           99.7 176 
 PTB  HZ EP        335  4.82                             132   -0.77 9  148 259 
 PTB  HN ES        335 26.23                             132   -0.49 9  148 259 
 PTB  HZ I         335 27.33        11.4 0.18            132            148 259 
 TAM  HZ IP     C  335  6.30                             131    0.08 9  155 105 
 TAM  HN ES        335 27.86                             131    0.01 9  155 105 
 ZAR  HZ EP        335 11.39                             122    0.29 9  205 292 
 ZAR  HN ES        335 36.62                             122    0.09 9  205 292 
 ZAR  HZ I         335 43.00        17.2 0.42            123            205 292 
 NOR  HZ EP        335 14.24                             119   -0.04 8  234 235 
 NOR  HN ES        335 42.00                             119   -0.19 8  234 235 
 NOR  HZ I         335 47.62         9.4 0.42            119            234 235 
 CHI  HZ EP        335 16.46                             117    0.28 8  248 195 
 CHI  HN ES        335 45.82                             117    0.24 8  248 195 
 CHI  HZ I         335 54.43         6.0 0.46            118            248 195 
 ROSC BZ EP   4    335 19.26                             117    2.64 0  252 211 
 ROSC BN ES   4    335 48.09                             117    1.73 0  252 211 
 ROSC BZ I         335 54.09        18.7 0.40            117            252 211 
 URE  HZ EP   4    335 22.25                             114    2.54 0  285 292 
 URE  HE ES   4    335 49.38                             114   -2.47 0  285 292 
 URE  HZ I         335 55.66         7.2 0.28            115            285 292 
 PTGC HZ EP   4    335 21.09                             112   -1.21 0  308 159 
 PTGC HN ES   4    335 54.01                             112   -2.46 0  308 159 
 PTGC HZ I         335 57.06         8.9 0.42            113            308 159 
 LL6C HN EP   4    335  5.06                             110   -19.3 0  326 358 
 LL6C HN ES   4    335 41.92                             110   -18.2 0  326 358 
 CBOC HZ EP   4    335 26.58                             110    1.11 0  334 252 
 CBOC HN ES   4    336  0.87                             110   -1.25 0  334 252 
 CBOC HZ I         336  9.36         2.8 0.70            111            334 252 
 DBB  EZ EP        335 25.97                             110   -0.11 7  340 274 
 DBB  EN ES   4    336  0.65                             110   -2.54 0  340 274 
 DBB  EZ I         336  5.13         3.0 0.16            110            340 274 
 ORTC HZ EP   4    335 28.92                             106   -3.48 0  395 216 
 ORTC HN ES        336 15.34                             106    0.89 6  395 216 
 SJC  HZ EP   4    335 32.26                             106   -1.95 0  410 327 
 SJC  HN ES   4    336 13.90                             106   -3.77 0  410 327 
 SJC  HZ I         336 17.88         5.8 0.36            107            410 327 
                                                                                
