 2012  9 8 0942 57.2 L   6.758 -73.147143.1  RSN  6 0.3 1.9LRSN                1
 GAP=138        0.58       4.3     4.5  5.5  0.2412E+01  0.5120E+01  0.4314E+01E
 Epicentro: LOS SANTOS - SANTANDER                                             3
 ACTION:UPD 12-10-22 14:17 OP:ep   STATUS:               ID:20120908094257 L   I
 2012-09-08-0940-00M.COL___227                                                 6
 STAT SP IPHASW D HRMM SECON CODA AMPLIT PERI AZIMU VELO AIN AR TRES W  DIS CAZ7
 BAR2 SZ EP   1    943 16.25                             172   -0.14 7 18.7 192 
 BAR2 SZ ES   1    943 31.04                             172   -0.35 7 18.7 192 
 BAR2 SZ I         943 37.90        10.6 0.31                          18.7 192 
 GIR2 SZ EP   1    943 16.84                             165    0.18 7 35.9 352 
 GIR2 SZ ES   1    943 31.91                             165    0.04 7 35.9 352 
 BRR  HZ EP   1    943 18.23                             151    0.07 7 73.4 302 
 BRR  HE ES   1    943 34.99                             151    0.45 7 73.4 302 
 BRR  HE I         943 35.42        39.9 0.28                          73.4 302 
 PAM  SN ES   2    943 36.17                             149   -0.45 5 81.1  38 
 RUS  HZ EP   1    943 20.67                             145    0.35 7 95.9 176 
 RUS  HN ES   1    943 38.49                             145    0.10 7 95.9 176 
 RUS  HZ I         943 39.79         5.7 0.36                          95.9 176 
 PTB  HZ EP   1    943 23.39                             132   -0.44 7  147 261 
 PTB  HN ES   1    943 44.50                             132   -0.13 7  147 261 
 PTB  HN I         943 46.21        10.6 0.22                           147 261 
                                                                                
