 2010  8 8 0653 55.2 L   6.794 -73.082142.0  RSN 10 0.4 1.9LRSN                1
 GAP=166        0.79       3.9     5.6  8.1 -0.9658E+01 -0.1378E+01  0.8066E+01E
 Epicentro: LOS SANTOS - SANTANDER                                             3
 ACTION:UP  10-09-07 10:53 OP:vdl  STATUS:               ID:20100808065355 L   I
 2010-08-08-0650-46S.COL___124                                                 6
 STAT SP IPHASW D HRMM SECON CODA AMPLIT PERI AZIMU VELO SNR AR TRES W  DIS CAZ7
 BRR  HZ EP        654 16.17                             150    -0.110   78 297 
 BRR  HN ES   1    654 33.24                             150     0.5 7   78 297 
 BRR  HZ I         654 37.28        18.2 0.04                            78 297 
 RUS  HZ EP        654 18.43                             144    -0.110  100 180 
 RUS  HZ I         654 19.09         6.3 0.29                           100 180 
 RUS  HE ES   2    654 36.39                             144    -0.3 5  100 180 
 GUE  SZ EP        654 19.28                             139    -0.210  116   9 
 GRA  SZ EP        654 20.17                             137     0.210  124  14 
 GRA  SZ ES   2    654 39.49                             137     0.2 5  124  14 
 GRA  SZ I         654 40.75         6.0 0.46                           124  14 
 OCA  SZ EP   1    654 23.56                             129     0.2 7  162 351 
 OCA  SZ ES   2    654 44.68                             129    -0.6 5  162 351 
 OCA  SZ I         654 47.84        12.9 0.19                           162 351 
 CHI  HZ EP   3    654 32.81                             117     0.0 2  250 197 
 CHI  HE ES   3    655  1.87                             117    -0.3 2  250 197 
 CHI  HZ I         655  9.22         3.9 0.50                           250 197 
 HEL  HZ EP   1    654 36.10                             114     0.2 6  279 256 
 HEL  HN ES   1    655  6.70                             114    -1.0 6  279 256 
 HEL  HZ I         655 13.47         4.2 0.57                           279 256 
 GUY  SZ EP   2    654 39.73                                     0.5 4  307 236 
 RREF HZ EP   2    654 41.72                             110     0.0 3  327 230 
 RREF HE ES   1    655 19.05                             110     1.0 5  327 230 
 RREF HZ I         655 28.47         3.3 0.45                           327 230 
 PRA  HZ EP   1    654 48.51                             106    -0.4 4  395 211 
 PRA  HE ES   1    655 30.79                             106     0.0 4  395 211 
 PRA  HZ I         655 35.01         5.4 0.68                           395 211 
                                                                                
