 2013  1 8 0549 38.4 L   6.835 -73.194152.4  RSN  4 0.4 1.8LRSN                1
 GAP=182        1.06       6.7     8.4  9.6 -0.1189E+02  0.1025E+02 -0.2152E+01E
 Epicentro: ZAPATOCA - SANTANDER                                               3
 ACTION:UPD 13-02-15 09:12 OP:ep   STATUS:               ID:20130108054938 L   I
 2013-01-08-0547-50M.COL___143                                                 6
 STAT SP IPHASW D HRMM SECON CODA AMPLIT PERI AZIMU VELO AIN AR TRES W  DIS CAZ7
 BAR2 SZ EP        549 59.46                             170    0.5410 26.9 177 
 BAR2 SZ ES        550 14.42                             170   -0.5010 26.9 177 
 BAR2 SZ I         550 15.70        10.5 0.52            170           26.9 177 
 BRR  HZ EP        550  0.09                             156    0.1410 64.7 298 
 BRR  HN ES        550 17.31                             156    0.5710 64.7 298 
 BRR  HN I         550 21.22        14.4 0.18            154           64.7 298 
 PTB  HZ EP        550  5.13                             134   -0.42 9  143 257 
 PTB  HN ES        550 26.60                             134   -0.12 9  143 257 
 PTB  HN I         550 29.56         6.0 0.34            135            143 257 
 OCA  HN ES        550 28.69                             132   -0.33 9  156 355 
                                                                                
