 2012  5 8 0039 50.8 L   5.925 -73.662116.9  RSN 14 0.4 2.3LRSN                1
 GAP= 88        0.86       3.0     3.2  6.9 -0.2625E+01  0.7143E+01  0.2365E+01E
 Epicentro: PUENTE NACIONAL - SANTANDER                                        3
 ACTION:UP  12-07-05 12:03 OP:pat  STATUS:               ID:20120508003950 L   I
 2012-05-08-0040-00M.COL___192                                                 6
 STAT SP IPHASW D HRMM SECON CODA AMPLIT PERI AZIMU VELO SNR AR TRES W  DIS CAZ7
 RUS  HZ IP     D  040  9.09                             149     0.010   64  93 
 RUS  HZ I         040  9.89        20.1 0.32                            64  93 
 RUS  HN ES   1    040 23.64                             149     0.2 7   64  93 
 BAR2 SZ IP        040 10.87                             139     0.210   91  36 
 BAR2 SZ ES   1    040 26.15                             139     0.0 7   91  36 
 BAR2 SZ I         040 27.91       224.1 0.48                            91  36 
 PTB  HZ EP        040 11.27                             133    -0.810  111 308 
 PTB  HZ I         040 12.90        25.5 0.10                           111 308 
 PTB  HN ES   2    040 28.70                             133     0.0 5  111 308 
 BRR  HZ IP     C  040 13.99                             128     0.110  131 358 
 BRR  HZ I         040 15.19        66.1 0.12                           131 358 
 BRR  HN ES   2    040 31.88                             128     0.0 5  131 358 
 NOR  SN ES   1    040 33.28                             126    -0.2 7  140 253 
 ROSC BZ EP   3    040 15.05                             126    -0.3 2  140 211 
 ROSC BN ES   2    040 34.45                             126     0.0 5  140 211 
 ROSC BZ I         040 40.32        18.9 0.35                           140 211 
 NOR  SZ EP        040 14.93                             126     0.2 9  140 253 
 CHI  HZ EP        040 15.92                             126     0.3 9  143 183 
 CHI  HN ES   2    040 34.79                             126    -0.3 5  143 183 
 PAM  SZ EP        040 20.25                             117    -0.2 9  189  34 
 PAM  SN ES   3    040 43.34                             117    -0.3 2  189  34 
 VIL  SZ EP   2    040 20.73                             116    -0.5 4  200 181 
 VIL  SN ES   2    040 44.76                             116    -0.3 4  200 181 
 GUY  SZ EP        040 23.05                             115     0.7 8  207 248 
 GUY  SE ES   2    040 47.86                             115     0.8 4  207 248 
 GUY  SZ I         040 52.99        26.6 0.54                           207 248 
 HEL  HZ EP        040 23.18                             115     0.7 8  209 278 
 HEL  HN ES   1    040 46.92                             115    -0.3 6  209 278 
 ZAR  HE ES   3    040 48.52                             113     0.3 2  218 323 
 RREF HN ES   2    040 48.90                             114    -0.8 4  218 239 
 RREF HZ I         040 55.25        17.7 0.22                           218 239 
 ZAR  HZ EP   3    040 22.97                             113    -0.1 2  218 323 
 ZAR  HZ I         040 24.28        20.5 0.32                           218 323 
 RREF HZ EP        040 23.69                             114    -0.2 8  218 239 
 PRA  HZ EP        040 29.60                             107    -0.5 7  280 209 
 PRA  HN ES   1    041  0.96                             107     0.1 6  280 209 
                                                                                
