 2017 11 8 0634  0.5 L   6.811 -73.139145.8  RSN  8 0.3 1.4LRSN                1
 GAP=137        0.89       4.2     4.4  6.0 -0.4297E+01  0.4394E+01  0.2059E+01E
 Epicentro: LOS SANTOS - SANTANDER                                             3
 ACTION:UPD 17-12-12 19:53 OP:rebc STATUS:               ID:20171108063400 L   I
 OLDACT:UP  17-11-08 16:32 OP:dnl  STATUS:               ID:20171108062735     3
 OLDACT:REG 17-11-08 15:02 OP:dnl  STATUS:               ID:20171108062735     3
 2017-11-08-0628-00M.COL___393                                                 6
 STAT SP IPHASW D HRMM SECON CODA AMPLIT PERI AZIMU VELO AIN AR TRES W  DIS CAZ7
 BAR2 EZ EP        634 20.05                             170   -0.1410 24.7 191 
 BAR2 EZ ES        634 35.23                             170   -0.2910 24.7 191 
 BAR2 EZ I         634 36.76        10.2 0.60            169           24.7 191 
 BRR  HZ IP     C  634 21.95                             152    0.2710 71.3 297 
 BRR  HN ES        634 38.76                             152    0.5810 71.3 297 
 BRR  HZ I         634 39.45         5.5 0.14            154           71.3 297 
 PAM  EZ EP        634 23.06                             151    0.4010 76.0  40 
 PAM  EE ES        634 39.55                             151   -0.3810 76.0  40 
 PAM  EZ I         634 42.62         3.3 0.34            154           76.0  40 
 RUS  HZ EP        634 24.24                             143   -0.1310  102 177 
 RUS  HN ES        634 43.20                             143    0.2410  102 177 
 RUS  HZ I         634 44.61         2.9 0.18            144            102 177 
 PTB  HZ EP        634 27.08                             132   -0.50 9  149 258 
 PTB  HE ES        634 48.22                             132   -0.47 9  149 258 
 PTB  HZ I         634 49.42         2.4 0.48            133            149 258 
 SPBC HZ EP        634 29.16                             129   -0.00 9  165 219 
 SPBC HE ES        634 51.81                             129    0.32 9  165 219 
 SPBC HZ I         634 56.43         4.1 0.10            130            165 219 
 ZAR  HZ EP   2    634 33.25                             122    0.25 4  204 292 
 ZAR  HN ES   4    634 57.07                             122   -1.25 0  204 292 
 ZAR  HZ I         634 59.21         2.8 0.48            124            204 292 
 GUY2CHZ EP   4    634 47.03                             112    2.75 0  302 235 
 GUY2CHE ES   4    635 19.73                             112    1.32 0  302 235 
 GUY2CHZ I         635 30.77         1.2 0.70                           302 235 
                                                                                
