 2011  3 8 0151 51.0 L   6.812 -73.132139.0  RSN  9 0.3 2.1LRSN                1
 GAP=137        0.64       2.3     4.1  5.8 -0.7405E+00  0.9123E+01  0.3223E+01E
 Epicentro: LOS SANTOS - SANTANDER                                             3
 ACTION:UP  11-06-16 14:32 OP:jfem STATUS:               ID:20110308015151 L   I
 2011-03-08-0150-47S.COL___135                                                 6
 STAT SP IPHASW D HRMM SECON CODA AMPLIT PERI AZIMU VELO SNR AR TRES W  DIS CAZ7
 BAR2 SZ IP        152  9.90                             169     0.010   25 193 
 BAR2 SZ ES   1    152 24.71                             169     0.1 7   25 193 
 BAR2 SZ I         152 27.09        37.8 0.23                            25 193 
 GRA  SZ EP   1    152 15.73                             136     0.2 7  124  17 
 GRA  SZ ES   1    152 34.25                             136    -0.4 7  124  17 
 GRA  SZ I         152 36.60        17.7 0.34                           124  17 
 OCA  SZ EP   1    152 18.58                             128    -0.1 7  159 353 
 OCA  SZ ES        152 40.22                             128    -0.1 9  159 353 
 OCA  SZ I         152 47.25        14.2 0.34                           159 353 
 YOP  SZ EP   1    152 20.56                             125    -0.1 7  180 154 
 YOP  SN ES   1    152 44.13                             125     0.4 7  180 154 
 YOP  SZ I         152 48.84        13.0 0.67                           180 154 
 CHI  HZ EP   1    152 28.24                             115    -0.3 6  250 195 
 CHI  HE ES   1    152 57.29                             115    -0.5 6  250 195 
 CHI  HZ I         153  0.50         7.6 0.33                           250 195 
 HEL  HZ EP   1    152 31.76                             113     0.7 6  274 256 
 HEL  HE ES   1    153  2.56                             113     0.2 6  274 256 
 HEL  HZ I         153  8.75         7.7 0.39                           274 256 
 RREF HZ EP   1    152 36.95                             109    -0.1 5  324 229 
 RREF HN ES   1    153 12.52                             109    -0.5 5  324 229 
 RREF HZ I         153 21.52         8.6 0.32                           324 229 
 DBB  SZ EP   1    152 38.70                             108     0.3 5  341 274 
 DBB  SZ I         153 18.15         2.2 0.33                           341 274 
 PRA  HZ EP   1    152 44.19                             105    -0.3 4  394 210 
 PRA  HN ES   2    153 26.65                             105     0.4 3  394 210 
                                                                                
