 2013  2 8 0307 36.4 L   6.776 -73.152146.6  RSN  7 0.5 2.0LRSN                1
 GAP=137        1.17       6.0     5.9  9.7 -0.2168E+01  0.1205E+02 -0.4608E+00E
 Epicentro: LOS SANTOS - SANTANDER                                             3
 ACTION:UPD 13-03-12 09:31 OP:ep   STATUS:               ID:20130208030736 L   I
 2013-02-08-0300-00M.COL___240                                                 6
 STAT SP IPHASW D HRMM SECON CODA AMPLIT PERI AZIMU VELO AIN AR TRES W  DIS CAZ7
 BAR2 SZ EP   1    3 7 56.18                             172    0.07 7 20.5 189 
 BAR2 SZ ES        3 8 11.01                             172   -0.4410 20.5 189 
 BAR2 SZ I         3 8 12.18        23.5 0.24            171           20.5 189 
 BRR  HZ EP        3 7 58.16                             152    0.4510 71.9 301 
 BRR  HN ES        3 8 15.21                             152    0.9110 71.9 301 
 BRR  HN I         3 8 15.75        22.3 0.32            151           71.9 301 
 PAM  SZ EP   1    3 7 59.23                             150    0.34 7 79.9  39 
 PAM  SN ES        3 8 16.22                             150   -0.1810 79.9  39 
 PAM  SN I         3 8 17.21        14.8 0.28            152           79.9  39 
 RUS  HZ EP   1    3 8  0.17                             145    0.09 7 97.9 176 
 RUS  HN ES   1    3 8 18.74                             145    0.22 7 97.9 176 
 RUS  HN I         3 8 20.24         9.3 0.22            145           97.9 176 
 PTB  HZ EP   1    3 8  2.84                             132   -0.52 7  147 260 
 PTB  HN ES        3 8 23.73                             132   -0.63 9  147 260 
 PTB  HN I         3 8 29.20        17.5 0.26            132            147 260 
 OCA  HE ES   1    3 8 26.42                             129   -0.95 7  163 354 
 OCA  HE I         3 8 28.76        15.8 0.28            130            163 354 
 ZAR  HN ES   1    3 8 34.63                             122    0.28 6  204 293 
 ZAR  HN I         3 8 36.76         8.4 0.14            122            204 293 
                                                                                
