 2010 11 8 0244  5.6 L   7.444 -73.219128.3  RSN  5 0.2 1.5LRSN                1
 GAP=134        0.44       3.6     6.3  6.3 -0.1085E+02  0.8614E+01  0.9116E+00E
 Epicentro: EL PLAYON - SANTANDER                                              3
 ACTION:UP  10-12-17 16:51 OP:REBC STATUS:               ID:20101108024405 L   I
 2010-11-08-0241-55S.COL___128                                                 6
 STAT SP IPHASW D HRMM SECON CODA AMPLIT PERI AZIMU VELO SNR AR TRES W  DIS CAZ7
 BRR  HZ EP   2    244 24.71                             151     0.1 5   66 236 
 BRR  HE ES   2    244 39.67                             151     0.3 5   66 236 
 BRR  HZ I         244 43.45         4.8 0.04                            66 236 
 GRA  SZ EP   2    244 24.66                             151    -0.2 5   67  43 
 GRA  SZ ES   2    244 40.06                             151     0.2 5   67  43 
 GRA  SZ I         244 41.69        16.9 0.36                            67  43 
 OCA  SZ EP   1    244 26.49                             143     0.2 7   89 353 
 OCA  SZ ES   2    244 42.03                             143    -0.4 5   89 353 
 OCA  SZ I         244 46.18         5.7 0.26                            89 353 
 BAR2 SZ EP   2    244 26.75                             141    -0.1 5   94 178 
 BAR2 SZ ES   2    244 43.31                             141    -0.1 5   94 178 
 BAR2 SZ I         244 44.30         5.6 0.05                            94 178 
 NOR  SZ EP   2    244 45.41                             110     0.3 4  277 221 
 NOR  SN ES   2    245 15.56                             110    -0.4 4  277 221 
                                                                                
