 2015  9 8 0622 40.3 L   6.840 -73.133145.3  RSN 17 0.5 2.3LRSN                1
 GAP=114        0.95       2.6     3.0  5.0  0.1112E+00  0.2990E+01  0.1042E+01E
 Epicentro: LOS SANTOS - SANTANDER                                             3
 ACTION:UPD 15-10-28 16:25 OP:cam  STATUS:               ID:20150908062240 L   I
 OLDACT:UP  15-09-08 18:31 OP:mh   STATUS:               ID:20150908061751     3
 OLDACT:UP  15-09-08 18:30 OP:mh   STATUS:               ID:20150908061751     3
 OLDACT:UP  15-09-08 18:30 OP:mh   STATUS:               ID:20150908061751     3
 OLDACT:REG 15-09-08 13:59 OP:mh   STATUS:               ID:20150908061751     3
 2015-09-08-0617-51M.COL___353                                                 6
 STAT SP IPHASW D HRMM SECON CODA AMPLIT PERI AZIMU VELO AIN AR TRES W  DIS CAZ7
 BAR2 EZ EP        622 59.91                             169   -0.1010 27.9 191 
 BAR2 EZ ES        623 15.60                             169    0.2410 27.9 191 
 BAR2 EZ I         623 17.69        32.6 0.28            166           27.9 191 
 BRR  HZ IP        623  1.90                             153    0.5010 70.5 295 
 BRR  HN ES        623 18.34                             153    0.5210 70.5 295 
 BRR  HZ I         623 22.93        32.4 0.12            153           70.5 295 
 RUS  HZ EP   1    623  4.20                             142   -0.16 7  105 177 
 RUS  HN ES        623 22.95                             142   -0.1410  105 177 
 RUS  HZ I         623 23.65        20.0 0.24            141            105 177 
 PTB  HZ EP   1    623  6.85                             131   -0.63 7  150 257 
 PTB  HN ES   1    623 27.98                             131   -0.67 7  150 257 
 PTB  HZ I         623 33.86        13.7 0.52            131            150 257 
 TAM  HZ IP     D  623  8.19                             130    0.23 9  155 107 
 TAM  HN ES        623 29.39                             130   -0.12 9  155 107 
 TAM  HZ I         623 35.58        13.1 0.38            131            155 107 
 OCA  HZ EP   1    623  7.91                             130   -0.31 7  156 352 
 OCA  HE ES        623 29.69                             130   -0.28 9  156 352 
 OCA  HZ I         623 31.51        42.8 0.28            132            156 352 
 SPBC HZ EP   1    623  9.19                             128   -0.02 7  167 218 
 SPBC HN ES        623 31.26                             128   -0.48 9  167 218 
 SPBC HZ I         623 36.41        28.5 0.26            127            167 218 
 ZAR  HZ EP   1    623 13.05                             122    0.33 6  204 291 
 ZAR  HN ES        623 38.58                             122    0.59 9  204 291 
 ZAR  HZ I         623 43.77        38.7 0.22            123            204 291 
 NOR  HZ EP        623 16.59                             118    0.15 8  238 234 
 NOR  HN ES        623 44.49                             118   -0.11 8  238 234 
 NOR  HZ I         623 51.49        11.8 0.24            118            238 234 
 SML  HZ EP   1    623 16.25                             118   -0.32 6  240 335 
 SML  HN ES        623 44.04                             118   -0.80 8  240 335 
 SML  HZ I         623 47.49        36.6 0.26            119            240 335 
 ROSC BZ EP   1    623 19.94                             116    1.02 6  257 211 
 ROSC BN ES   4    623 52.10                             116    3.08 0  257 211 
 ROSC BZ I         623 55.92        15.7 0.45            116            257 211 
 HEL  HZ EP        623 21.72                             114    0.92 8  275 255 
 HEL  HN ES        623 52.19                             114   -0.18 8  275 255 
 HEL  HZ I         624  0.27         4.9 0.20            114            275 255 
 GUY2CHZ EP   4    623 25.69                             112    1.35 0  305 234 
 GUY2CHN ES   4    624  0.82                             112    2.15 0  305 234 
 GUY2CHZ I         624  9.23         7.1 0.56                           305 234 
 PTGC HZ EP   4    623 23.11                             111   -1.47 0  312 159 
 PTGC HN ES   4    623 55.98                             111   -3.11 0  312 159 
 PTGC HZ I         624 15.07        14.4 0.36            111            312 159 
 PRA  HZ EP   1    623 33.80                             106   -0.57 4  397 209 
 PRA  HN ES        624 16.69                             106    0.17 6  397 209 
 PRA  HZ I         624 20.46         5.4 0.56            106            397 209 
 ORTC HZ EP        623 34.59                             106   -0.16 6  400 216 
 ORTC HN ES        624 16.50                             106   -0.70 6  400 216 
 ORTC HZ I         624 22.85         4.2 0.52            106            400 216 
 SJC  HZ EP   4    623 33.66                             106   -1.89 0  406 326 
 SJC  HN ES   4    624 14.80                             106   -3.81 0  406 326 
 SJC  HZ I         624 20.44         4.8 0.40            106            406 326 
                                                                                
