 2016 12 8 0002 28.2 L   6.784 -73.138144.7  RSN  7 0.5 1.4LRSN                1
 GAP=138        1.26       6.1     6.5  8.5 -0.3266E+01  0.6494E+01  0.1121E+02E
 Epicentro: LOS SANTOS - SANTANDER                                             3
 ACTION:UPD 17-01-11 20:13 OP:rebc STATUS:               ID:20161208000228 L   I
 OLDACT:UP  16-12-08 13:58 OP:ar   STATUS:               ID:20161207235959     3
 OLDACT:REG 16-12-08 12:13 OP:ar   STATUS:               ID:20161207235959     3
 2016-12-08-0000-15M.COL___370                                                 6
 STAT SP IPHASW D HRMM SECON CODA AMPLIT PERI AZIMU VELO AIN AR TRES W  DIS CAZ7
 BAR2 EZ EP   2    0 2 47.54                             171   -0.11 5 21.8 193 
 BAR2 EZ ES        0 3  2.10                             171   -0.7410 21.8 193 
 BAR2 EZ I         0 3  3.46         7.1 0.46            172           21.8 193 
 BRR  HZ EP        0 2 49.59                             152    0.2810 72.8 299 
 BRR  HZ I         0 3  1.63         8.4 0.46            148           72.8 299 
 BRR  HN ES        0 3  6.66                             152    0.8810 72.8 299 
 PAM  EZ EP        0 2 50.75                             150    0.4210 78.2  38 
 PAM  EN ES        0 3  7.13                             150   -0.4810 78.2  38 
 PAM  EZ I         0 3  9.89         4.7 0.44            147           78.2  38 
 RUS  HZ EP        0 2 51.77                             144    0.0710 98.8 177 
 RUS  HN ES        0 3 10.54                             144    0.5010 98.8 177 
 RUS  HZ I         0 3 11.52         3.4 0.36            143           98.8 177 
 PTB  HZ EP        0 2 54.47                             132   -0.64 9  148 260 
 PTB  HN ES        0 3 15.75                             132   -0.37 9  148 260 
 PTB  HZ I         0 3 18.01         2.3 0.07            128            148 260 
 CHI  HZ EP        0 3  5.41                             117   -0.25 8  247 195 
 CHI  HE ES   2    0 3 35.66                             117    0.76 4  247 195 
 CHI  HZ I         0 3 38.77         1.0 0.14            115            247 195 
 GUY2CHZ EP   4    0 3 13.12                             112    1.41 0  301 235 
 GUY2CHN ES   4    0 3 47.43                             112    1.77 0  301 235 
 GUY2CHZ I         0 3 51.84         1.2 0.31                           301 235 
                                                                                
