 2013  1 8 0821 16.5 L   6.866 -73.222150.0  RSN  4 0.3 1.5LRSN                1
 GAP=259        0.82       6.8     8.1 10.0 -0.3022E+02 -0.1197E+02  0.1794E+02E
 Epicentro: ZAPATOCA - SANTANDER                                               3
 ACTION:UPD 13-02-15 09:12 OP:ep   STATUS:               ID:20130108082116 L   I
 2013-01-08-0820-00M.COL___238                                                 6
 STAT SP IPHASW D HRMM SECON CODA AMPLIT PERI AZIMU VELO AIN AR TRES W  DIS CAZ7
 BRR  HZ EP        821 37.09                             157   -0.4110 60.3 296 
 BRR  HN ES        821 54.21                             157    0.2910 60.3 296 
 BRR  HN I         821 57.65         5.6 0.22            150           60.3 296 
 PTB  HZ EP        821 43.67                             134    0.49 9  141 255 
 PTB  HN ES        822  3.69                             134   -0.34 9  141 255 
 PTB  HN I         822  9.48         5.1 0.38            132            141 255 
 OCA  HN ES        822  6.08                             132   -0.05 9  152 356 
 ZAR  HN ES        822 12.84                             125    0.04 9  194 291 
 ZAR  HN I         822 19.53         2.6 0.12            123            194 291 
                                                                                
