 2013  7 8 0657  7.7 L   6.806 -73.168146.0  RSN 10 0.5 2.0LRSN                1
 GAP=180        1.21       4.1     6.2  6.4  0.1884E+01  0.1158E+02  0.2856E+01E
 Epicentro: LOS SANTOS - SANTANDER                                             3
 ACTION:UPD 13-08-12 10:36 OP:ep   STATUS:               ID:20130708065707 L   I
 OLDACT:DUP 13-07-08 09:56 OP:nd   STATUS:               ID:20130708064960d    3
 2013-07-08-0649-59M.COL___267                                                 6
 STAT SP IPHASW D HRMM SECON CODA AMPLIT PERI AZIMU VELO AIN AR TRES W  DIS CAZ7
 BAR2 SZ IP     D  657 27.19                             170   -0.1310 23.7 184 
 BAR2 SZ ES        657 42.13                             170   -0.5310 23.7 184 
 BAR2 SZ I         657 44.74        35.0 0.26            167           23.7 184 
 GIR2 SZ EP        657 27.13                             168   -0.2010 30.3 355 
 GIR2 SZ ES        657 43.52                             168    0.8510 30.3 355 
 GIR2 SZ I         657 44.06        15.4 0.10            167           30.3 355 
 BRR  HZ IP     C  657 29.04                             153    0.3510 68.7 299 
 BRR  HN ES        657 45.77                             153    0.6810 68.7 299 
 BRR  HZ I         657 48.87        13.5 0.16            150           68.7 299 
 RUS  HZ EP        657 31.09                             144   -0.4010  101 175 
 RUS  HN ES        657 49.70                             144   -0.3910  101 175 
 RUS  HZ I         657 51.38         9.2 0.24            144            101 175 
 PTB  HZ EP        657 34.22                             133   -0.21 9  145 258 
 PTB  HN ES        657 54.82                             133   -0.50 9  145 258 
 PTB  HZ I         657 56.74        13.9 0.28            130            145 258 
 NOR  HZ IP     D  657 43.62                             119    0.40 8  233 234 
 NOR  HN ES        658 10.66                             119   -0.31 8  233 234 
 NOR  HZ I         658 17.04         9.7 0.18            118            233 234 
 SML  HZ EP        657 43.98                             118   -0.13 8  242 336 
 SML  HE ES        658 11.79                             118   -0.76 8  242 336 
 SML  HZ I         658 16.48        10.4 0.24            118            242 336 
 CHI  HZ EP        657 45.38                             117    0.01 8  249 195 
 CHI  HN ES        658 15.44                             117    0.65 8  249 195 
 CHI  HZ I         658 21.50         4.6 0.32            117            249 195 
 HEL  HZ EP        657 48.58                             115    0.95 8  270 256 
 HEL  HN ES   2    658 18.32                             115   -0.49 4  270 256 
 HEL  HZ I         658 28.07         5.9 0.20            115            270 256 
 GUY2CHZ EP   4    657 52.50                             113    1.41 0  300 234 
 GUY2CHN ES   4    658 25.40                             113    0.43 0  300 234 
 GUY2CHZ I         658 33.75        12.9 0.36                           300 234 
                                                                                
