 2010  7 8 0717  3.7 L   6.711 -73.121146.6  RSN  4 0.3 1.4LRSN                1
 GAP=162        0.68       5.3    11.6 12.3 -0.1892E+01 -0.5185E+02 -0.1202E+02E
 Epicentro: JORDAN - SANTANDER                                                 3
 ACTION:UPD 10-12-01 15:16 OP:pat  STATUS:               ID:20100708071703 L   I
 2010-07-08-0712-39S.COL___116                                                 6
 STAT SP IPHASW D HRMM SECON CODA AMPLIT PERI AZIMU VELO AIN AR TRES W  DIS CAZ7
 BRR  HZ EP   1    717 25.38                             150     0.0 7   79 304 
 BRR  HZ I         717 25.69         8.6 0.11                            79 304 
 BRR  HN ES   2    717 42.38                             150     0.1 5   79 304 
 RUS  HZ EP   1    717 26.86                             147     0.0 7   91 177 
 RUS  HN ES   2    717 44.88                             147     0.0 5   91 177 
 RUS  HZ I         717 46.56         2.4 0.19                            91 177 
 GUE  SZ EP   1    717 28.69                             137    -0.6 7  126  10 
 GRA  SZ EP   1    717 30.33                             135     0.6 7  134  15 
 GRA  SZ ES   2    717 50.03                             135    -0.1 5  134  15 
                                                                                
