 2015  7 8 0623 40.0 L   6.815 -73.110145.8  RSN 14 0.4 2.1LRSN                1
 GAP=140        0.80       2.4     3.8  5.2 -0.9223E+00  0.9237E+01  0.2246E+01E
 Epicentro: LOS SANTOS - SANTANDER                                             3
 ACTION:UPD 15-09-08 21:47 OP:cam  STATUS:               ID:20150708062340 L   I
 OLDACT:REG 15-07-08 16:50 OP:spq  STATUS:               ID:20150708061739     3
 2015-07-08-0617-39M.COL___340                                                 6
 STAT SP IPHASW D HRMM SECON CODA AMPLIT PERI AZIMU VELO AIN AR TRES W  DIS CAZ7
 BAR2 EZ IP     C  623 59.59                             169   -0.1110 25.9 198 
 BAR2 EZ ES   1    624 15.40                             169    0.34 7 25.9 198 
 BAR2 EZ I         624 16.00        34.4 0.14            165           25.9 198 
 PAM  EN ES        624 19.66                             152    0.4810 73.6  38 
 PAM  EZ I         624 21.51        15.3 0.30            159           73.6  38 
 RUS  HZ EP        624  3.52                             143   -0.3510  102 178 
 RUS  HN ES   1    624 22.32                             143   -0.16 7  102 178 
 RUS  HZ I         624 23.21         5.8 0.32            144            102 178 
 OCA  HZ EP        624  8.23                             130    0.01 9  159 352 
 OCA  HE ES        624 29.65                             130   -0.58 9  159 352 
 OCA  HZ I         624 33.03        20.3 0.44            133            159 352 
 ZAR  HE ES        624 37.96                             122   -0.37 8  207 291 
 ZAR  HZ I         624 43.71        10.9 0.14            122            207 291 
 NOR  HZ EP        624 15.93                             118   -0.26 8  239 235 
 NOR  HE ES        624 44.53                             118    0.12 8  239 235 
 NOR  HZ I         624 49.72        12.4 0.16            118            239 235 
 SML  HZ EP        624 17.14                             117    0.48 8  244 334 
 SML  HE ES   1    624 45.14                             117   -0.11 6  244 334 
 SML  HZ I         624 46.85         8.4 0.52            119            244 334 
 CHI  HZ EP        624 17.60                             117   -0.40 8  251 196 
 CHI  HE ES   1    624 47.38                             117   -0.25 6  251 196 
 CHI  HZ I         624 50.77         4.1 0.42            118            251 196 
 ROSC BZ EP   4    624 19.39                             116    0.88 0  256 212 
 ROSC BE ES   4    624 48.78                             116    0.24 0  256 212 
 ROSC BZ I         624 57.29        16.9 0.35            117            256 212 
 HEL  HZ EP        624 21.37                             114    0.67 7  276 256 
 HEL  HN ES        624 52.61                             114    0.18 7  276 256 
 HEL  HZ I         624 58.15         6.6 0.34            115            276 256 
 GUY2CHZ EP        624 24.22                             112    0.13 7  305 235 
 GUY2CHN ES   4    625  1.41                             112    2.93 0  305 235 
 GUY2CHZ I         625  6.14         8.7 0.50                           305 235 
 CBOC HZ EP        624 27.70                             110    0.28 7  338 252 
 CBOC HE ES   1    625  4.06                             110   -0.33 5  338 252 
 CBOC HZ I         625 16.33         2.2 0.52            110            338 252 
 TOL  SZ EP        624 29.47                             109    0.75 6  347 225 
 TOL  SE ES   4    625  8.81                             109    2.09 0  347 225 
 TOL  SZ I         625 16.33         6.6 0.62            110            347 225 
 PRA  HZ EP        624 33.41                             106   -0.52 6  395 210 
 PRA  HN ES        625 16.18                             106    0.20 6  395 210 
 PRA  HZ I         625 22.05         6.0 0.26            108            395 210 
                                                                                
