 2013 11 8 0944 21.3 L   6.788 -73.157148.7  RSN  8 0.3 1.6LRSN                1
 GAP=136        0.84       3.6     3.6  5.4 -0.3630E+00  0.4811E+01  0.1579E+00E
 Epicentro: LOS SANTOS - SANTANDER                                             3
 ACTION:UPD 14-01-09 16:26 OP:ep   STATUS:               ID:20131108094421 L   I
 OLDACT:DUP 13-11-08 09:03 OP:jn   STATUS:               ID:20131108094001d    3
 OLDACT:REG 13-11-08 07:41 OP:jn   STATUS:               ID:20131108094000     3
 2013-11-08-0940-00M.COL___273                                                 6
 STAT SP IPHASW D HRMM SECON CODA AMPLIT PERI AZIMU VELO AIN AR TRES W  DIS CAZ7
kkk                                                                             
 BAR2 SZ EP        944 41.17                             171   -0.0510 21.8 188 
 BAR2 SZ ES        944 56.77                             171   -0.0210 21.8 188 
 BAR2 SZ I         944 59.11        14.1 0.46            169           21.8 188 
 BRR  HZ EP        944 43.15                             153    0.4410 70.8 300 
 BRR  HE ES        944 59.98                             153    0.5410 70.8 300 
 BRR  HZ I         945  5.30         5.5 0.18            153           70.8 300 
 PAM  SZ EP        944 43.99                             151    0.0910 79.2  40 
 PAM  SN ES        945  1.09                             151   -0.4710 79.2  40 
 PAM  SZ I         945  2.82         5.6 0.20            157           79.2  40 
 RUS  HZ EP        944 45.31                             145    0.0910 99.3 175 
 RUS  HN ES        945  3.96                             145    0.0610 99.3 175 
 RUS  HZ I         945  6.78         3.1 0.40            147           99.3 175 
 PTB  HZ EP        944 47.83                             133   -0.52 9  146 259 
 PTB  HN ES        945  8.99                             133   -0.48 9  146 259 
 PTB  HZ I         945 14.91         7.0 0.34            134            146 259 
 SPBC HZ EP        944 50.20                             130    0.38 9  161 219 
 SPBC HN ES        945 12.01                             130   -0.09 9  161 219 
 SPBC HZ I         945 18.66         8.5 0.28            132            161 219 
 ZAR  HZ EP        944 53.66                             123   -0.18 9  203 293 
 ZAR  HN ES        945 19.38                             123    0.13 9  203 293 
 ZAR  HZ I         945 22.96         5.2 0.26            125            203 293 
                                                                                
