 2014 12 8 0747 25.3 L   6.778 -73.162144.1  RSN  4 0.1 1.0LRSN                1
 GAP=140        0.42       2.6     2.5  4.6 -0.1956E+01  0.3318E+01 -0.5651E+00E
 Epicentro: LOS SANTOS - SANTANDER                                             3
 ACTION:UPD 15-02-10 17:01 OP:nd   STATUS:               ID:20141208074725 L   I
 OLDACT:ARG 14-12-08 13:49 OP:stll STATUS:               ID:20141208073745     3
 2014-12-08-0737-45M.COL___303                                                 6
 STAT SP IPHASW D HRMM SECON CODA AMPLIT PERI AZIMU VELO AIN AR TRES W  DIS CAZ7
 BAR2 SZ EP        747 44.49                             171   -0.1710 20.6 186 
 BAR2 SZ I         747 45.07         3.4 0.10            171           20.6 186 
 PAM  SZ EP        747 47.72                             150    0.2210 80.4  39 
 PAM  SZ I         747 47.90         2.3 0.26            153           80.4  39 
 PAM  SN ES        748  4.76                             150   -0.0810 80.4  39 
 RUS  HZ EP        747 48.57                             144   -0.1310 98.3 175 
 RUS  HN ES        748  7.09                             144    0.1210 98.3 175 
 RUS  HZ I         748  8.40         0.9 0.32            146           98.3 175 
 PTB  HZ EP        747 51.95                             132    0.04 9  146 260 
 PTB  HN ES        748 12.69                             132    0.01 9  146 260 
 PTB  HZ I         748 16.55         1.7 0.14            132            146 260 
                                                                                
