 2013  4 8 0410 56.7 L   6.718 -73.144147.5  RSN  5 0.5 1.4LRSN                1
 GAP=184        0.98       7.9     9.2  9.6  0.3113E+02  0.3661E+01  0.1580E+02E
 Epicentro: JORDAN - SANTANDER                                                 3
 ACTION:UPD 13-05-22 14:36 OP:EP   STATUS:               ID:20130408041056 L   I
 2013-04-08-0408-42M.COL___217                                                 6
 STAT SP IPHASW D HRMM SECON CODA AMPLIT PERI AZIMU VELO AIN AR TRES W  DIS CAZ7
 BAR2 SZ ES   1    411 31.87                             174    0.10 7 14.6 197 
 BAR2 SZ I         411 32.81         9.5 0.38            168           14.6 197 
 GIR2 SZ EP   2    411 17.29                             164    0.43 5 40.2 352 
 GIR2 SZ ES   1    411 31.63                             164   -0.95 7 40.2 352 
 GIR2 SZ I         411 33.55         2.5 0.12            164           40.2 352 
 BRR  HZ EP        411 18.34                             151    0.0110 76.1 304 
 BRR  HE ES        411 35.75                             151    0.5610 76.1 304 
 BRR  HE I         411 39.44         7.9 0.26            148           76.1 304 
 RUS  HZ EP        411 19.92                             147   -0.0910 91.5 176 
 RUS  HN ES   1    411 38.47                             147    0.29 7 91.5 176 
 RUS  HN I         411 39.77         3.0 0.32            146           91.5 176 
 PTB  HN ES   1    411 44.20                             133   -0.56 7  146 262 
 PTB  HN I         411 49.92         3.9 0.66            130            146 262 
                                                                                
