 2010  5 8 0840 14.6 L   6.703 -73.017146.0  RSN  5 0.5 1.0LRSN                1
 GAP=224        1.18      15.2    19.7 26.9 -0.2909E+02 -0.3818E+03 -0.8674E+02E
 Epicentro: ARATOCA - SANTANDER                                                3
 ACTION:UP  10-08-24 10:03 OP:vdl  STATUS:               ID:20100508084014 L   I
 2010-05-08-0837-59S.COL___105                                                 6
 STAT SP IPHASW D HRMM SECON CODA AMPLIT PERI AZIMU VELO SNR AR TRES W  DIS CAZ7
 BAR2 SZ EP        840 34.10                             170    -0.110   22 236 
 BAR2 SZ ES   3    840 49.84                             170     0.3 2   22 236 
 BRR  HZ EP        840 37.10                             146     0.310   89 300 
 BRR  HE ES   1    840 54.08                             146    -0.1 7   89 300 
 BRR  HZ I         840 56.27         1.9 0.24                            89 300 
 BRI  SZ EP        840 38.97                             139     0.010  115  12 
 GUE  SZ EP        840 39.20                             137    -0.810  125   5 
 GRA  SZ EP        840 41.21                             135     0.810  133  10 
                                                                                
