 2016  3 8 0720 13.8 L   6.822 -73.151143.4  RSN  9 0.4 1.6LRSN                1
 GAP=135        1.05       3.2     4.7  6.9 -0.2393E+01  0.7724E+01  0.9515E+00E
 Epicentro: LOS SANTOS - SANTANDER                                             3
 ACTION:UPD 16-05-13 21:22 OP:cam  STATUS:               ID:20160308072013 L   I
 OLDACT:UP  16-03-08 17:13 OP:cara STATUS:               ID:20160308071750     3
 OLDACT:REG 16-03-08 14:36 OP:cara STATUS:               ID:20160308071750     3
 2016-03-08-0717-50M.COL___282                                                 6
 STAT SP IPHASW D HRMM SECON CODA AMPLIT PERI AZIMU VELO AIN AR TRES W  DIS CAZ7
 BAR2 EZ EP        720 33.27                             169    0.0810 25.7 188 
 BAR2 EZ ES        720 48.47                             169    0.1610 25.7 188 
 BAR2 EZ I         720 49.57         6.6 0.18            169           25.7 188 
 PAM  EZ EP        720 36.08                             151    0.4110 75.9  41 
 PAM  EN ES        720 53.13                             151    0.4010 75.9  41 
 PAM  EZ I         720 55.03         6.4 0.48            153           75.9  41 
 RUS  HZ EP        720 37.36                             143   -0.1310  103 176 
 RUS  HE ES        720 55.34                             143   -0.6410  103 176 
 RUS  HZ I         720 57.27         5.5 0.24            144            103 176 
 PTB  HZ EP        720 40.32                             131   -0.24 9  148 258 
 PTB  HN ES        721  0.78                             131   -0.66 9  148 258 
 PTB  HZ I         721  4.81         4.2 0.14            131            148 258 
 OCA  HZ EP        720 41.09                             129   -0.59 9  158 353 
 OCA  HE ES        721  3.10                             129   -0.34 9  158 353 
 OCA  HZ I         721  7.20         9.7 0.16            130            158 353 
 SPBC HZ EP        720 42.38                             128    0.12 9  165 218 
 SPBC HE ES        721  4.74                             128    0.28 9  165 218 
 SPBC HZ I         721  6.83         5.7 0.14            129            165 218 
 ZAR  HN ES        721 11.79                             122    0.79 9  203 292 
 ZAR  HZ I         721 17.08         5.5 0.32            122            203 292 
 CHI  HZ EP        720 51.81                             116    0.21 8  251 195 
 CHI  HN ES        721 21.47                             116    0.38 8  251 195 
 CHI  HZ I         721 28.20         1.9 0.48            117            251 195 
 GUY2CHZ EP   4    720 59.04                             112    1.64 0  302 234 
 GUY2CHN ES   4    721 35.19                             112    3.78 0  302 234 
 GUY2CHZ I         721 37.53         1.3 0.30                           302 234 
                                                                                
