 2016  8 8 0925 34.1 L   6.816 -73.171146.4  RSN 13 0.5 2.2LRSN                1
 GAP=133        1.20       4.7     4.5  7.7 -0.3915E+00  0.1648E+02  0.4624E+01E
 Epicentro: LOS SANTOS - SANTANDER                                             3
 ACTION:UPD 16-10-29 15:33 OP:rebc STATUS:               ID:20160808092534 L   I
 OLDACT:REG 16-08-08 12:53 OP:dnl  STATUS:               ID:20160808091743     3
 2016-08-08-0918-00M.COL___353                                                 6
 STAT SP IPHASW D HRMM SECON CODA AMPLIT PERI AZIMU VELO AIN AR TRES W  DIS CAZ7
 BAR2 EZ EP        925 53.69                             170   -0.0910 24.7 183 
 BAR2 EZ ES        926  8.36                             170   -0.8110 24.7 183 
 BAR2 EZ I         926  9.94        53.3 0.22                          24.7 183 
 BRR  HZ EP        925 55.51                             154    0.4210 68.0 298 
 BRR  HE ES        926 12.71                             154    1.2110 68.0 298 
 BRR  HZ I         926 13.61        23.1 0.20                          68.0 298 
 PAM  EZ EP   2    925 56.42                             151    0.06 5 77.9  42 
 PAM  EE ES        926 13.87                             151    0.1110 77.9  42 
 PAM  EZ I         926 15.86        42.7 0.50                          77.9  42 
 RUS  HZ EP        925 57.96                             143   -0.0410  103 175 
 RUS  HN ES        926 16.83                             143    0.1510  103 175 
 RUS  HZ I         926 17.99        23.5 0.44                           103 175 
 PTB  HZ EP        926  0.45                             133   -0.41 9  145 258 
 PTB  HN ES        926 21.35                             133   -0.41 9  145 258 
 PTB  HZ I         926 28.48        22.5 0.66                           145 258 
 SPBC HZ EP   2    926  2.74                             129    0.18 5  163 218 
 SPBC HE ES        926 24.39                             129   -0.41 9  163 218 
 SPBC HZ I         926 27.14        41.2 0.26                           163 218 
 ZAR  HZ EP   2    926  6.27                             123    0.06 4  201 292 
 ZAR  HN ES        926 30.93                             123   -0.36 9  201 292 
 ZAR  HZ I         926 37.24        12.0 0.32                           201 292 
 NOR  HZ EP        926  9.79                             119    0.11 8  233 234 
 NOR  HN ES        926 37.38                             119   -0.10 8  233 234 
 NOR  HZ I         926 40.24        13.1 0.16                           233 234 
 ROSC BZ EP   4    926 13.53                             117    1.32 0  253 210 
 ROSC BN ES   4    926 43.86                             117    1.88 0  253 210 
 HEL  HZ EP   2    926 14.78                             115    0.73 4  270 255 
 HEL  HN ES        926 45.21                             115   -0.03 8  270 255 
 HEL  HZ I         926 51.79        10.2 0.26                           270 255 
 URE  HZ EP   2    926 14.00                             114   -0.79 4  281 292 
 URE  HN ES        926 45.55                             114   -1.02 7  281 292 
 URE  HZ I         926 51.17         8.9 0.18                           281 292 
 GUY2CHZ EP   2    926 18.04                             112    0.49 4  300 234 
 GUY2CHN ES        926 52.36                             112    0.89 7  300 234 
 GUY2CHZ I         926 59.86         9.7 0.26                           300 234 
 LL6C HZ EP   4    926 18.83                             111   -0.74 0  323 358 
 LL6C HN ES   4    926 54.02                             111   -1.05 0  323 358 
 CBOC HZ EP   4    926 21.75                             110    1.00 0  332 252 
 CBOC HN ES        926 58.03                             110    0.85 7  332 252 
 CBOC HZ I         927  1.70         2.8 0.46                           332 252 
 SJC  HZ EP   4    926 27.51                             106   -1.78 0  406 327 
 SJC  HN ES   4    927  8.40                             106   -3.97 0  406 327 
 SJC  HZ I         927 15.32         2.4 0.32                           406 327 
                                                                                
