 2013  6 8 0617 50.9 L   6.858 -73.311155.7  RSN  4 0.3 1.6LRSN                1
 GAP=252        0.56       5.4     9.4  9.9 -0.2807E+02 -0.3915E+02  0.8972E+01E
 Epicentro: ZAPATOCA - SANTANDER                                               3
 ACTION:UPD 14-01-08 09:53 OP:ep   STATUS:               ID:20130608061751dL   I
 OLDACT:REG 13-06-08 07:01 OP:mh   STATUS:               ID:20130608061000     3
 2013-06-08-0610-00M.COL___257                                                 6
 STAT SP IPHASW D HRMM SECON CODA AMPLIT PERI AZIMU VELO AIN AR TRES W  DIS CAZ7
 BRR  HZ EP        618 12.10                             160   -0.0910 52.2 302 
 BRR  HN ES   2    618 29.11                             160    0.28 5 52.2 302 
 BRR  HN I         618 29.82         9.3 0.16            154           52.2 302 
 PTB  HZ EP        618 17.34                             137    0.0710  131 255 
 PTB  HN ES        618 37.59                             137   -0.2810  131 255 
 PTB  HN I         618 43.25         4.7 0.54            132            131 255 
 NOR  HN ES   2    618 54.36                             121    0.81 4  224 230 
 NOR  HN I         618 59.42         3.5 0.16            119            224 230 
 SML  HE ES   1    618 54.81                             121    0.18 6  231 339 
                                                                                
