 2010 11 8 0717 48.8 L   6.783 -73.100148.7  RSN  4 0.1 1.6LRSN                1
 GAP=169        0.29       2.4     6.5  5.4  0.7476E+01 -0.2421E+02 -0.6134E+01E
 Epicentro: LOS SANTOS - SANTANDER                                             3
 ACTION:UP  10-12-17 16:51 OP:REBC STATUS:               ID:20101108071748 L   I
 2010-11-08-0715-23S.COL___127                                                 6
 STAT SP IPHASW D HRMM SECON CODA AMPLIT PERI AZIMU VELO SNR AR TRES W  DIS CAZ7
 BRR  HZ EP        718 10.57                             151     0.010   77 298 
 BRR  HN ES   1    718 27.62                             151     0.0 7   77 298 
 BRR  HZ I         718 31.53         8.4 0.31                            77 298 
 RUS  HZ EP   1    718 12.69                             145     0.0 7   98 179 
 RUS  HN ES   2    718 31.36                             145     0.0 5   98 179 
 RUS  HZ I         718 33.12         5.9 0.45                            98 179 
 GUE  SZ EP   2    718 13.96                             140     0.1 5  117   9 
 OCA  SZ EP        718 17.64                             130     0.0 9  163 351 
 OCA  SZ ES   2    718 39.90                             130    -0.1 5  163 351 
 OCA  SZ I         718 45.73         4.8 0.40                           163 351 
                                                                                
