 2016  6 8 0823 25.7 L   6.823 -73.180142.9  RSN  7 0.6 1.7LRSN                1
 GAP=131        1.49       5.2     7.2  9.5 -0.9863E+01  0.9445E+01 -0.1470E+01E
 Epicentro: ZAPATOCA - SANTANDER                                               3
 ACTION:UPD 16-07-21 22:16 OP:rebc STATUS:               ID:20160608082325 L   I
 OLDACT:UP  16-06-13 16:17 OP:nlst STATUS:               ID:20160608082325 L   3
 OLDACT:UP  16-06-08 18:34 OP:dani STATUS:               ID:20160608081745     3
 OLDACT:REG 16-06-08 13:41 OP:dani STATUS:               ID:20160608081745     3
 2016-06-08-0817-45M.COL___328                                                 6
 STAT SP IPHASW D HRMM SECON CODA AMPLIT PERI AZIMU VELO AIN AR TRES W  DIS CAZ7
 BAR2 EZ EP        823 45.06                             169    0.0110 25.5 180 
 BAR2 EZ ES        823 59.61                             169   -0.5210 25.5 180 
 BAR2 EZ I         824  0.72         7.2 0.22                          25.5 180 
 BRR  HZ EP        823 46.69                             154    0.3910 66.6 298 
 BRR  HE ES        824  3.65                             154    1.2910 66.6 298 
 PAM  EZ EP        823 47.99                             150    0.3210 78.0  43 
 PAM  EN ES        824  4.76                             150   -0.0310 78.0  43 
 PAM  EZ I         824  6.36         7.8 0.20                          78.0  43 
 RUS  HZ EP        823 49.54                             142    0.1410  103 174 
 RUS  HE ES        824  7.45                             142   -0.4210  103 174 
 PTB  HZ EP        823 51.72                             132   -0.44 9  145 258 
 PTB  HN ES        824 11.70                             132   -1.08 9  145 258 
 PTB  HZ I         824 15.94         4.5 0.20                           145 258 
 OCA  HZ EP        823 53.12                             129   -0.41 9  157 354 
 OCA  HE ES        824 14.82                             129   -0.40 9  157 354 
 OCA  HZ I         824 19.62        10.4 0.26                           157 354 
 SPBC HZ EP        823 54.41                             128    0.45 9  163 217 
 SPBC HE ES        824 16.56                             128    0.57 9  163 217 
 SPBC HZ I         824 22.22         5.3 0.22                           163 217 
                                                                                
