 2011  5 8 0438 48.8 L   6.831 -72.974149.3  RSN  5 0.1 1.4LRSN                1
 GAP=178        0.38       3.6     6.5  4.5  0.8550E+01 -0.1611E+02 -0.5015E+01E
 Epicentro: CEPITA - SANTANDER                                                 3
 ACTION:UP  11-06-29 08:51 OP:tino STATUS:               ID:20110508043848 L   I
 2011-05-08-0433-37S.COL___133                                                 6
 STAT SP IPHASW D HRMM SECON CODA AMPLIT PERI AZIMU VELO SNR AR TRES W  DIS CAZ7
 BTL  SZ EP   1    439  9.22                             167     0.1 7   34 287 
 BTL  SZ ES   1    439 24.79                             167    -0.1 7   34 287 
 BAR2 SZ EP   1    439  9.17                             166     0.0 7   35 221 
 BAR2 SZ ES   1    439 25.13                             166     0.1 7   35 221 
 BAR2 SZ I         439 27.68         6.5 0.42                            35 221 
 BRR  HZ EP   1    439 11.09                             148    -0.2 7   87 291 
 BRR  HZ I         439 11.27         8.2 0.25                            87 291 
 BRR  HN ES   1    439 28.90                             148     0.1 7   87 291 
 RUS  HZ EP   1    439 13.24                             143     0.1 7  104 187 
 RUS  HN ES   2    439 31.91                             143    -0.3 5  104 187 
 RUS  HZ I         439 33.50         3.3 0.67                           104 187 
 GRA  SZ EP   1    439 13.69                             140     0.0 7  118   9 
 GRA  SZ I         439 35.74         2.2 0.16                           118   9 
                                                                                
