 2016  6 8 0428  8.9 L   6.813 -73.178144.2  RSN  6 0.4 1.5LRSN                1
 GAP=180        1.03       4.1     6.8  8.1 -0.1285E+01  0.1247E+02 -0.2182E+00E
 Epicentro: ZAPATOCA - SANTANDER                                               3
 ACTION:UPD 16-07-21 22:16 OP:rebc STATUS:               ID:20160608042808 L   I
 OLDACT:UP  16-06-08 17:55 OP:dani STATUS:               ID:20160608041744d    3
 OLDACT:DUP 16-06-08 17:51 OP:dani STATUS:               ID:20160608041744d    3
 OLDACT:UP  16-06-08 17:47 OP:dani STATUS:               ID:20160608041743     3
 OLDACT:REG 16-06-08 13:05 OP:dani STATUS:               ID:20160608041743     3
 2016-06-08-0417-43M.COL___334                                                 6
 STAT SP IPHASW D HRMM SECON CODA AMPLIT PERI AZIMU VELO AIN AR TRES W  DIS CAZ7
 BAR2 EZ EP        428 28.23                             170   -0.0810 24.4 181 
 BAR2 EZ ES        428 43.34                             170   -0.1510 24.4 181 
 BAR2 EZ I         428 43.99         7.0 0.26                          24.4 181 
 BRR  HZ EP        428 30.11                             154    0.4910 67.4 299 
 BRR  HE ES        428 46.54                             154    0.7210 67.4 299 
 BRR  HZ I         428 50.48         6.7 0.12                          67.4 299 
 RUS  HN ES        428 50.98                             143   -0.0910  102 174 
 RUS  HZ I         428 52.46         2.5 0.26                           102 174 
 PTB  HZ EP        428 35.13                             132   -0.27 9  145 258 
 PTB  HN ES        428 55.67                             132   -0.44 9  145 258 
 PTB  HZ I         428 58.80         6.0 0.12                           145 258 
 OCA  HN ES        428 58.18                             130   -0.55 9  159 354 
 SPBC HZ EP        428 37.54                             129    0.42 9  162 218 
 SPBC HN ES        428 58.98                             129   -0.19 9  162 218 
 SPBC HZ I         429  2.77         3.5 0.24                           162 218 
                                                                                
