 2011  7 8 0530 38.8 L   6.778 -73.130142.8  RSN 10 0.3 2.0LRSN                1
 GAP=157        0.52       2.6     3.7  4.2 -0.3917E+01  0.9040E+00 -0.1790E+00E
 Epicentro: LOS SANTOS - SANTANDER                                             3
 ACTION:UPD 12-07-25 13:59 OP:epov STATUS:               ID:20110708053038 L   I
 2011-07-08-0529-22S.COL___140                                                 6
 STAT SP IPHASW D HRMM SECON CODA AMPLIT PERI AZIMU VELO AIN AR TRES W  DIS CAZ7
 BAR2 SZ EP   1    530 57.56                             171   -0.48 7 21.4 196 
 BAR2 SZ ES   1    531 12.71                             171   -0.33 7 21.4 196 
 BAR2 SZ I         531 14.01        15.0 0.16                          21.4 196 
 BTL  SZ EP   1    530 58.33                             171    0.28 7 21.7 316 
 BTL  SZ ES   2    531 13.11                             171    0.05 5 21.7 316 
 BRR  HZ EP        531  0.02                             151    0.2310 73.9 300 
 BRR  HN ES   1    531 16.40                             151    0.24 7 73.9 300 
 BRR  HZ I         531 20.92        18.0 0.13                          73.9 300 
 RUS  HZ EP   1    531  1.80                             144   -0.29 7 98.1 177 
 RUS  HN ES   2    531 20.67                             144    0.43 5 98.1 177 
 BRI  SZ EP   1    531  2.71                             140    0.16 7  110  20 
 BRI  SZ ES   1    531 21.30                             140    0.24 7  110  20 
 BRI  SZ I         531 26.05        16.2 0.39                           110  20 
 GRA  SZ EP        531  3.99                             136    0.0510  128  16 
 GRA  SZ ES   1    531 23.32                             136   -0.22 7  128  16 
 GRA  SZ I         531 24.49        14.0 0.36                           128  16 
 OCA  SZ EP   1    531  7.09                             128   -0.05 7  163 353 
 OCA  SZ ES   1    531 28.98                             128   -0.25 7  163 353 
 OCA  SZ I         531 31.75        12.5 0.25                           163 353 
 NOR  SN ES   2    531 42.00                             118   -0.11 4  235 235 
 HEL  HN ES   1    531 50.14                             114   -0.20 6  273 256 
 HEL  HZ I         531 57.50         7.3 0.44                           273 256 
 PRA  HZ EP   2    531 32.68                             106    0.59 3  391 210 
                                                                                
