 2012  6 8 0122  8.4 L   6.825 -73.169143.4  RSN 13 0.4 2.4LRSN                1
 GAP=124        0.72       2.8     3.6  5.0 -0.2009E+01  0.4871E+01  0.7430E+00E
 Epicentro: LOS SANTOS - SANTANDER                                             3
 ACTION:UPD 12-08-06 17:48 OP:ep   STATUS:               ID:20120608012212 L   I
 2012-06-08-0120-00M.COL___201                                                 6
 STAT SP IPHASW D HRMM SECON CODA AMPLIT PERI AZIMU VELO AIN AR TRES W  DIS CAZ7
 BAR2 SZ EP        122 27.69                             169   -0.0810 25.8 183 
 BAR2 SZ ES   1    122 42.97                             169    0.06 7 25.8 183 
 BAR2 SZ I         122 44.12        61.1 0.11            162           25.8 183 
 PAM  SZ EP        122 30.50                             150    0.1810 77.0  42 
 PAM  SN ES   1    122 47.68                             150    0.25 7 77.0  42 
 RUS  HZ EP   1    122 31.67                             142   -0.44 7  104 175 
 RUS  HN ES   1    122 50.65                             142    0.02 7  104 175 
 RUS  HZ I         122 51.63        51.7 0.19            134            104 175 
 PTB  HZ EP   1    122 35.53                             132    0.56 7  146 258 
 PTB  HN ES   1    122 55.40                             132   -0.32 7  146 258 
 PTB  HZ I         122 59.48        25.1 0.30            123            146 258 
 OCA  HZ EP   1    122 36.20                             130   -0.02 7  157 354 
 OCA  HN ES   1    122 57.94                             130    0.00 7  157 354 
 OCA  HZ I         123  0.34        34.6 0.07            124            157 354 
 ZAR  HZ EP   1    122 40.28                             122   -0.03 6  201 292 
 ZAR  HN ES   1    123  5.13                             122   -0.10 6  201 292 
 ZAR  HZ I         123 13.78        18.8 0.16            115            201 292 
 NOR  SZ EP   1    122 43.77                             118   -0.15 6  234 234 
 NOR  SN ES   1    123 10.87                             118   -0.77 6  234 234 
 CHI  HZ EP   1    122 46.01                             116   -0.15 6  251 194 
 CHI  HN ES   1    123 15.79                             116    0.16 6  251 194 
 CHI  HZ I         123 18.52        14.4 0.46            109            251 194 
 ROSC BZ EP   1    122 47.58                             116    1.10 6  254 210 
 ROSC BZ I         123 26.02        24.4 0.41            109            254 210 
 DBB  SZ EP   1    122 55.80                             109    0.36 5  337 274 
 TOL  SZ EP   1    122 56.82                             109    0.27 5  344 224 
 SDV  BZ EP   1    122 57.25                             108   -1.10 5  361  51 
 PRA  HZ EP   1    123  1.66                             106   -0.28 4  393 209 
                                                                                
