 2017  5 8 0758 38.2 L   6.769 -73.168147.3  RSN 10 0.4 1.7LRSN                1
 GAP=111        1.05       3.8     3.9  6.9  0.1573E+01  0.1314E+01  0.3208E+01E
 Epicentro: LOS SANTOS - SANTANDER                                             3
 ACTION:UPD 17-06-16 13:34 OP:jn   STATUS:               ID:20170508075838 L   I
 OLDACT:UP  17-05-08 18:26 OP:edw  STATUS:               ID:20170508075745     3
 OLDACT:UP  17-05-08 18:25 OP:edw  STATUS:               ID:20170508075745     3
 OLDACT:REG 17-05-08 12:57 OP:edw  STATUS:               ID:20170508075745     3
 2017-05-08-0758-00M.COL___359                                                 6
 STAT SP IPHASW D HRMM SECON CODA AMPLIT PERI AZIMU VELO AIN AR TRES W  DIS CAZ7
 BRR  HZ IP     C  758 59.62                             153    0.1610 70.8 302 
 BRR  HN ES        759 16.66                             153    0.5910 70.8 302 
 BRR  HZ I         759 17.69         9.5 0.14            150           70.8 302 
 PAM  EZ IP        759  0.72                             150   -0.0810 81.6  39 
 PAM  EN ES        759 17.80                             150   -0.6510 81.6  39 
 PAM  EZ I         759 22.20         5.6 0.30            151           81.6  39 
 RUS  HZ EP        759  1.79                             145   -0.0510 97.4 174 
 RUS  HN ES        759 20.05                             145   -0.2610 97.4 174 
 RUS  HZ I         759 21.06         4.8 0.22            146           97.4 174 
 PTB  HZ EP   9    759  4.64                             133   -0.35 0  145 260 
 PTB  HN ES        759 25.53                             133   -0.03 9  145 260 
 PTB  HZ I         759 27.77         6.3 0.16            131            145 260 
 SPBC HZ EP        759  6.28                             130   -0.11 9  159 219 
 SPBC HN ES        759 28.61                             130    0.21 9  159 219 
 SPBC HZ I         759 31.16        11.2 0.40            129            159 219 
 YPLC HZ EP        759  8.12                             127    0.22 9  175 150 
 YPLC HN ES        759 31.73                             127    0.64 9  175 150 
 ZAR  HZ EP        759 10.56                             123   -0.06 9  203 293 
 ZAR  HN ES        759 36.27                             123    0.35 9  203 293 
 ZAR  HZ I         759 42.70        10.0 0.64            121            203 293 
 NOR  HZ EP   4 C  759 14.26                             119    0.70 0  231 235 
 NOR  HN ES        759 40.14                             119   -1.02 8  231 235 
 NOR  HZ I         759 43.49         4.0 0.20            118            231 235 
 PTGC HE ES   4    759 54.25                             112   -1.65 0  306 158 
 CBOC HZ EP   4    759 25.93                             110    1.17 0  330 253 
 CBOC HE ES   4    759 58.73                             110   -2.37 0  330 253 
 CBOC HZ I         8 0 14.70         1.1 0.32            110            330 253 
 SJC  HZ EP   4    759 31.94                             106   -2.02 0  411 327 
 SJC  HN ES   4    8 0 13.50                             106   -3.98 0  411 327 
 SJC  HZ I         8 0 17.88         1.6 0.44            106            411 327 
                                                                                
