 2016  8 8 0238 24.1 L   6.759 -73.183140.0  RSN  6 0.5 1.4LRSN                1
 GAP=230        1.08       6.0     6.7 10.5  0.1471E+02  0.9456E+01 -0.5923E+01E
 Epicentro: LOS SANTOS - SANTANDER                                             3
 ACTION:UPD 16-10-29 15:33 OP:rebc STATUS:               ID:20160808023824 L   I
 OLDACT:REG 16-08-08 12:36 OP:dnl  STATUS:               ID:20160808022732     3
 2016-08-08-0228-00M.COL___365                                                 6
 STAT SP IPHASW D HRMM SECON CODA AMPLIT PERI AZIMU VELO AIN AR TRES W  DIS CAZ7
 BAR2 EZ EP        238 42.47                             172   -0.5210 18.4 180 
 BAR2 EZ ES   2    238 57.48                             172   -0.21 5 18.4 180 
 BAR2 EZ I         238 59.20         8.9 0.18                          18.4 180 
 BRR  HZ EP        238 44.78                             152    0.1710 70.0 303 
 BRR  HN ES        239  0.89                             152    0.3210 70.0 303 
 BRR  HZ I         239  4.54         5.1 0.48                          70.0 303 
 RUS  HZ EP   2    238 47.49                             144    0.46 5 96.4 173 
 RUS  HE ES        239  4.99                             144    0.1110 96.4 173 
 RUS  HZ I         239  7.35         2.8 0.30                          96.4 173 
 PTB  HZ EP        238 49.96                             132   -0.25 9  143 260 
 PTB  HN ES        239  9.55                             132   -0.98 9  143 260 
 PTB  HZ I         239 12.68         2.6 0.26                           143 260 
 SPBC HZ EP   3    238 51.93                             129    0.30 2  157 219 
 SPBC HE ES        239 13.67                             129    0.61 9  157 219 
 SPBC HZ I         239 17.55         3.5 0.30                           157 219 
 ZAR  HZ EP   3    238 56.16                             122    0.14 2  202 294 
 ZAR  HN ES        239 21.42                             122    0.55 9  202 294 
 ZAR  HZ I         239 27.61         4.1 0.34                           202 294 
                                                                                
