 2015  6 8 0810 57.6 L   6.804 -73.091147.2  RSN 19 0.4 2.1LRSN                1
 GAP=124        0.97       2.3     3.5  4.6 -0.1113E+01  0.4610E+01  0.1696E+01E
 Epicentro: LOS SANTOS - SANTANDER                                             3
 ACTION:UPD 15-09-10 22:10 OP:cam  STATUS:               ID:20150608081057 L   I
 OLDACT:UP  15-06-08 18:03 OP:drio STATUS:               ID:20150608080750     3
 OLDACT:UP  15-06-08 18:01 OP:drio STATUS:               ID:20150608080750     3
 OLDACT:REG 15-06-08 12:26 OP:drio STATUS:               ID:20150608080750     3
 2015-06-08-0807-50M.COL___294                                                 6
 STAT SP IPHASW D HRMM SECON CODA AMPLIT PERI AZIMU VELO AIN AR TRES W  DIS CAZ7
 BAR2 EZ EP        811 17.67                             170    0.1710 25.5 203 
 BAR2 EZ ES        811 32.19                             170   -0.7910 25.5 203 
 BAR2 EZ I         811 35.35        20.6 0.34            167           25.5 203 
 PAM  SZ EP        811 19.70                             152   -0.0810 73.3  36 
 PAM  SN ES        811 37.79                             152    0.7410 73.3  36 
 PAM  SZ I         811 39.78        21.0 0.50            156           73.3  36 
 BRR  HZ EP        811 19.60                             151    0.3510 76.4 296 
 BRR  HE ES        811 36.12                             151    0.0210 76.4 296 
 BRR  HZ I         811 40.29        15.8 0.10            147           76.4 296 
 RUS  HZ EP        811 21.63                             144    0.0710  101 179 
 RUS  HE ES        811 40.60                             144    0.4010  101 179 
 RUS  HZ I         811 43.10         8.3 0.42            146            101 179 
 OCA  HZ EP        811 25.80                             130   -0.31 9  161 351 
 OCA  HE ES        811 48.09                             130   -0.22 9  161 351 
 OCA  HZ I         811 57.41        22.7 0.30            131            161 351 
 SPBC HZ EP        811 26.74                             129    0.09 9  167 221 
 SPBC HE ES        811 49.17                             129   -0.11 9  167 221 
 SPBC HZ I         811 56.22        17.4 0.12            129            167 221 
 ZAR  HZ EP        811 30.53                             122   -0.22 8  209 291 
 ZAR  HE ES        811 56.30                             122   -0.27 8  209 291 
 ZAR  HZ I         812  1.41        23.0 0.36            121            209 291 
 NOR  HZ EP        811 33.73                             118   -0.29 8  240 235 
 NOR  HN ES        812  1.65                             118   -0.73 8  240 235 
 NOR  HZ I         812  7.69        10.5 0.18            118            240 235 
 SML  HZ EP        811 34.21                             117   -0.38 8  246 334 
 SML  HE ES        812  3.51                             117    0.10 8  246 334 
 SML  HZ I         812 13.20        14.7 0.24            118            246 334 
 CHI  HZ EP        811 36.06                             117    0.41 8  251 196 
 CHI  HN ES        812  5.10                             117   -0.19 8  251 196 
 CHI  HZ I         812 14.89         5.5 0.32            119            251 196 
 HEL  HZ EP        811 38.68                             114    0.09 7  278 256 
 HEL  HN ES        812 10.87                             114    0.34 7  278 256 
 HEL  HZ I         812 16.65         8.1 0.34            115            278 256 
 GUY2CHZ EP   4    811 43.82                             112    1.91 0  306 235 
 GUY2CHN ES   4    812 21.55                             112    5.12 0  306 235 
 GUY2CHZ I         812 26.41         7.0 0.52                           306 235 
 PTGC HZ EP        811 40.61                             112   -0.76 7  307 160 
 PTGC HN ES   4    812 14.12                             112   -1.36 0  307 160 
 PTGC HZ I         812 14.60        11.4 0.52            114            307 160 
 CBOC HZ EP   4    811 46.65                             110    1.35 0  339 252 
 CBOC HN ES        812 23.41                             110    0.95 7  339 252 
 CBOC HZ I         812 38.86         2.8 0.74            110            339 252 
 TOL  SZ EP   4    811 48.08                             109    1.59 0  348 225 
 TOL  SE ES        812 24.33                             109   -0.25 6  348 225 
 TOL  SZ I         812 28.82         5.2 0.42            110            348 225 
 MON  HZ EP   4    811 44.88                             109   -2.34 0  358 308 
 MON  HE ES   4    812 23.92                             109   -1.97 0  358 308 
 MON  HZ I         812 38.58         3.0 0.70            109            358 308 
 PRA  HZ EP        811 51.74                             107    0.13 6  395 210 
 PRA  HE ES        812 33.48                             107   -0.23 6  395 210 
 PRA  HZ I         812 37.69         5.9 0.50            108            395 210 
 ORTC HZ EP        811 53.15                             106    1.07 6  399 217 
 ORTC HN ES        812 34.88                             106    0.35 6  399 217 
 ORTC HZ I         812 40.57         3.2 0.56            107            399 217 
 SJC  HZ EP   4    811 51.86                             106   -1.75 0  412 326 
 SJC  HN ES   4    812 33.00                             106   -4.25 0  412 326 
 SJC  HZ I         812 37.29         2.6 0.46            107            412 326 
                                                                                
