 2011  7 8 0027 56.6 L   6.800 -73.134145.4  RSN 12 0.5 2.3LRSN                1
 GAP=157        0.92       3.9     5.9  6.7 -0.9239E+01  0.1319E+02 -0.9221E+00E
 Epicentro: LOS SANTOS - SANTANDER                                             3
 ACTION:UPD 12-07-25 13:59 OP:epov STATUS:               ID:20110708002756 L   I
 2011-07-08-0025-07S.COL___140                                                 6
 STAT SP IPHASW D HRMM SECON CODA AMPLIT PERI AZIMU VELO AIN AR TRES W  DIS CAZ7
 BAR2 SZ EP        028 16.19                             170   -0.0110 23.6 193 
 BAR2 SZ ES   1    028 30.99                             170   -0.49 7 23.6 193 
 BAR2 SZ I         028 32.55        37.2 0.24                          23.6 193 
 GIR2 SZ EP   1    028 16.52                             167    0.28 7 31.5 348 
 BRR  HZ EP   1    028 17.96                             152    0.18 7 72.3 298 
 BRR  HN ES   1    028 35.23                             152    0.94 7 72.3 298 
 RUS  HZ EP   1    028 20.31                             144    0.00 7  101 177 
 RUS  HN ES   1    028 38.55                             144   -0.26 7  101 177 
 RUS  HZ I         028 39.46        11.5 0.30                           101 177 
 BRI  SZ EP   1    028 21.01                             141    0.58 7  108  20 
 BRI  SZ I         028 21.79        20.6 0.09                           108  20 
 BRI  SZ ES   1    028 39.19                             141    0.18 7  108  20 
 GRA  SZ EP   1    028 22.23                             137    0.45 7  125  17 
 GRA  SZ I         028 23.73        24.5 0.22                           125  17 
 GRA  SZ ES   1    028 40.47                             137   -0.96 7  125  17 
 OCA  SZ EP   1    028 25.16                             129    0.26 7  160 353 
 OCA  SZ ES   1    028 46.44                             129   -0.53 7  160 353 
 OCA  SZ I         028 50.36        26.6 0.35                           160 353 
 NOR  SZ EP   1    028 31.61                             118   -0.81 6  236 235 
 NOR  SN ES   1    029  0.72                             118    0.36 6  236 235 
 HEL  HZ EP   1    028 37.27                             114    0.34 6  273 256 
 HEL  HN ES   1    029  7.82                             114   -0.57 6  273 256 
 DBB  SZ EP   1    028 43.87                             109   -0.34 5  341 274 
 PRA  HZ EP   1    028 50.67                             106    0.49 4  393 210 
 PRA  HN ES   2    029 32.13                             106    0.16 3  393 210 
 PRA  HZ I         029 37.27        16.3 0.35                           393 210 
 SJC  HZ EP   1    028 51.24                             106   -0.99 4  410 327 
                                                                                
