 2010  5 8 0712 27.6 L   6.778 -73.060135.7  RSN  8 0.5 1.6LRSN                1
 GAP=166        1.23       6.3    14.2  9.8 -0.3450E+02 -0.2709E+02 -0.3213E-01E
 Epicentro: LOS SANTOS - SANTANDER                                             3
 ACTION:UP  10-08-24 10:03 OP:vdl  STATUS:               ID:20100508071227 L   I
 2010-05-08-0711-38S.COL___105                                                 6
 STAT SP IPHASW D HRMM SECON CODA AMPLIT PERI AZIMU VELO SNR AR TRES W  DIS CAZ7
 BAR2 SZ IP     D  712 46.03                             169    -0.110   25 213 
 BAR2 SZ ES   1    713  0.58                             169     0.1 7   25 213 
 GIR2 SZ EP        712 46.01                             164    -0.310   36 336 
 GIR2 SZ ES   1    713  0.07                             164    -0.7 7   36 336 
 BRR  HZ IP     C  712 48.53                             147     0.210   81 297 
 BRR  HZ I         712 48.86        16.3 0.10                            81 297 
 BRR  HE ES   2    713  4.91                             147     0.5 5   81 297 
 RUS  HZ EP        712 50.09                             142    -0.110   98 181 
 RUS  HE ES   2    713  8.49                             142     0.7 5   98 181 
 RUS  HZ I         713  9.81         4.0 0.31                            98 181 
 BRI  SZ EP        712 50.53                             139     0.010  108  16 
 BRI  SZ ES   1    713  7.83                             139    -0.5 7  108  16 
 GUE  SZ EP        712 50.93                             137    -0.610  117   7 
 GRA  SZ EP        712 52.82                             134     0.810  126  13 
 GRA  SZ ES   1    713 11.92                             134     1.0 7  126  13 
 OCA  SZ EP   2    712 54.62                             126    -0.9 5  164 350 
 OCA  SZ I         713 21.16         5.2 0.07                           164 350 
                                                                                
