 2014  6 8 0500 26.7 L   6.808 -73.155137.0  RSN 12 0.5 1.9LRSN                1
 GAP=135        1.09       3.6     4.3  7.1 -0.2698E+01  0.1523E+02 -0.9911E+00E
 Epicentro: LOS SANTOS - SANTANDER                                             3
 ACTION:UPD 14-07-01 22:52 OP:nd   STATUS:               ID:20140608050026 L   I
 OLDACT:REG 14-06-08 13:08 OP:fm   STATUS:               ID:20140608045814     3
 2014-06-08-0458-14M.COL___253                                                 6
 STAT SP IPHASW D HRMM SECON CODA AMPLIT PERI AZIMU VELO AIN AR TRES W  DIS CAZ7
 BAR2 SZ EP        5 0 44.97                             169   -0.2710 24.1 187 
 BAR2 SZ ES        5 0 59.18                             169   -0.5610 24.1 187 
 BAR2 SZ I         5 1  0.75        15.3 0.36            169           24.1 187 
 PAM  SZ EP        5 0 47.94                             149    0.0110 77.3  41 
 PAM  SN ES        5 1  5.07                             149    0.5410 77.3  41 
 PAM  SZ I         5 1  6.84        30.5 0.42            151           77.3  41 
 RUS  HZ EP        5 0 49.79                             142    0.1710  102 176 
 RUS  HE ES        5 1  7.61                             142    0.0710  102 176 
 RUS  HZ I         5 1  9.26         9.7 0.24            143            102 176 
 PTB  HZ EP        5 0 52.22                             130   -0.62 9  147 258 
 PTB  HN ES        5 1 13.19                             130   -0.08 9  147 258 
 PTB  HZ I         5 1 15.76         7.7 0.52            129            147 258 
 SPBC HZ EP        5 0 54.92                             127    0.42 9  163 219 
 SPBC HN ES        5 1 16.46                             127    0.24 9  163 219 
 SPBC HZ I         5 1 21.38         9.0 0.16            127            163 219 
 ZAR  HZ EP        5 0 59.01                             120    0.61 9  203 292 
 ZAR  HN ES        5 1 23.80                             120    0.63 9  203 292 
 ZAR  HZ I         5 1 28.82        11.3 0.28            120            203 292 
 NOR  HE ES   1    5 1 29.39                             116    0.08 6  234 234 
 NOR  HZ I         5 1 31.37         6.6 0.14            116            234 234 
 SML  HE ES        5 1 29.94                             116   -0.81 8  242 335 
 SML  HZ I         5 1 39.27        10.3 0.10            115            242 335 
 HEL  HZ EP   2    5 1  6.08                             113   -0.27 4  271 256 
 HEL  HN ES   1    5 1 36.54                             113   -0.77 6  271 256 
 HEL  HZ I         5 1 44.74         3.2 0.26            113            271 256 
 GUY2CHZ EP        5 1  9.15                             111   -0.69 7  301 235 
 GUY2CHN ES        5 1 44.24                             111    0.72 7  301 235 
 GUY2CHZ I         5 1 52.56         2.7 0.58                           301 235 
 CBOC HZ EP   1    5 1 13.95                             108    0.81 5  333 252 
 CBOC HN ES   1    5 1 49.52                             108    0.12 5  333 252 
 CBOC HZ I         5 1 57.81         0.9 0.38            108            333 252 
 PRA  HZ EP   4    5 1 18.15                             105   -1.77 0  392 209 
 PRA  HN ES        5 2  0.63                             105   -0.84 6  392 209 
 PRA  HZ I         5 2 11.42         2.4 0.56            105            392 209 
                                                                                
