 2014  6 8 0438 21.1 L   6.825 -73.143149.0  RSN  9 0.4 1.8LRSN                1
 GAP=183        0.93       3.1     4.9  7.5 -0.1651E+00  0.2803E+01 -0.6194E+01E
 Epicentro: LOS SANTOS - SANTANDER                                             3
 ACTION:UPD 14-07-01 22:51 OP:nd   STATUS:               ID:20140608043821 L   I
 OLDACT:REG 14-06-08 13:07 OP:fm   STATUS:               ID:20140608042809     3
 2014-06-08-0428-09M.COL___253                                                 6
 STAT SP IPHASW D HRMM SECON CODA AMPLIT PERI AZIMU VELO AIN AR TRES W  DIS CAZ7
 BAR2 SZ EP        438 41.38                             170    0.1710 26.1 189 
 BAR2 SZ ES   1    438 56.46                             170   -0.41 7 26.1 189 
 BAR2 SZ I         438 57.16         7.2 0.52            169           26.1 189 
 RUS  HZ EP        438 45.41                             144    0.0110  103 176 
 RUS  HE ES   1    439  4.33                             144    0.00 7  103 176 
 RUS  HZ I         439  6.28         4.2 0.20            146            103 176 
 PTB  HZ EP        438 47.89                             133   -0.55 9  149 258 
 PTB  HE ES        439  9.12                             133   -0.62 9  149 258 
 PTB  HZ I         439 10.54         8.7 0.14            132            149 258 
 OCA  HZ EP        438 49.60                             131    0.15 9  158 353 
 OCA  HN ES        439 12.01                             131    0.48 9  158 353 
 OCA  HZ I         439 15.93         7.4 0.22            132            158 353 
 SPBC HZ EP        438 50.42                             129    0.32 9  165 218 
 SPBC HN ES        439 13.12                             129    0.43 9  165 218 
 SPBC HZ I         439 19.36         8.6 0.34            130            165 218 
 ZAR  HZ EP        438 53.91                             123    0.19 9  203 291 
 ZAR  HE ES        439 19.57                             123    0.45 9  203 291 
 ZAR  HZ I         439 27.09         6.0 0.14            123            203 291 
 NOR  HE ES   2    439 25.71                             119    0.29 4  237 234 
 NOR  HZ I         439 30.92         5.4 0.18            120            237 234 
 SML  HZ EP        438 56.92                             118   -0.77 8  241 335 
 SML  HN ES        439 26.05                             118   -0.15 8  241 335 
 SML  HZ I         439 33.44         8.5 0.24            119            241 335 
 GUY2CHZ EP   4    439  6.64                             113    1.54 0  303 234 
 GUY2CHN ES   4    439 43.73                             113    4.34 0  303 234 
 GUY2CHZ I         439 49.25         3.5 0.66                           303 234 
                                                                                
