 2017  7 8 0522 48.5 L   6.955 -73.345128.0  RSN  5 0.4 1.2LRSN                1
 GAP=223        0.90       5.6     5.3  8.2  0.6956E+01  0.1366E+02  0.4348E+01E
 Epicentro: BETULIA - SANTANDER                                                3
 ACTION:UPD 17-08-30 15:30 OP:rebc STATUS:               ID:20170708052248 L   I
 OLDACT:REG 17-07-08 13:09 OP:edw  STATUS:               ID:20170708051737     3
 2017-07-08-0518-00M.COL___368                                                 6
 STAT SP IPHASW D HRMM SECON CODA AMPLIT PERI AZIMU VELO AIN AR TRES W  DIS CAZ7
 BRR  HZ EP     C  523  6.02                             160   -0.3010 43.9 293 
 BRR  HN ES        523 20.11                             160   -0.1110 43.9 293 
 BAR2 EZ IP     C  523  6.77                             160    0.0910 44.0 156 
 BAR2 EZ ES        523 21.04                             160    0.1810 44.0 156 
 BAR2 EZ I         523 21.79         5.3 0.34            160           44.0 156 
 PTB  HZ EP     C  523 12.37                             131   -0.1510  131 250 
 PTB  HN ES        523 30.69                             131   -0.5710  131 250 
 PTB  HZ I         523 32.24         2.2 0.36            132            131 250 
 SPBC HN ES        523 37.60                             124    0.35 9  165 209 
 ZAR  HN ES        523 39.95                             122    0.65 9  177 290 
                                                                                
