 2010  5 8 0333 35.9 L   6.732 -73.012126.0  RSN  5 0.2 0.9LRSN                1
 GAP=173        0.37       4.7     6.1 11.0  0.3560E+01 -0.3839E+02 -0.2381E+02E
 Epicentro: ARATOCA - SANTANDER                                                3
 ACTION:UP  10-08-24 10:03 OP:vdl  STATUS:               ID:20100508033335 L   I
 2010-05-08-0328-36S.COL___105                                                 6
 STAT SP IPHASW D HRMM SECON CODA AMPLIT PERI AZIMU VELO SNR AR TRES W  DIS CAZ7
 BAR2 SZ EP        333 53.23                             169     0.110   25 231 
 BRR  HZ EP        333 55.95                             144    -0.110   88 298 
 BRR  HE ES   2    334 11.98                             144     0.2 5   88 298 
 RUS  HZ EP   3    333 57.48                             142     0.3 2   93 185 
 RUS  HE ES   3    334 13.15                             142    -0.6 2   93 185 
 RUS  HZ I         334 16.17         1.6 0.58                            93 185 
 BRI  SZ EP        333 58.20                             136     0.010  111  12 
 GRA  SZ EP   2    333 59.61                             132    -0.1 5  130  10 
                                                                                
