 2013  8 8 0841 47.5 L   6.816 -73.165148.3  RSN  5 0.4 1.1LRSN                1
 GAP=237        0.89       6.9     8.2  8.1  0.1909E+02  0.1096E+02  0.1589E+02E
 Epicentro: LOS SANTOS - SANTANDER                                             3
 ACTION:UPD 14-01-14 09:00 OP:ep   STATUS:               ID:20130808084147 L   I
 OLDACT:REG 13-08-08 07:29 OP:jn   STATUS:               ID:20130808083959     3
 2013-08-08-0839-59M.COL___270                                                 6
 STAT SP IPHASW D HRMM SECON CODA AMPLIT PERI AZIMU VELO AIN AR TRES W  DIS CAZ7
 BAR2 SZ ES   1    842 22.85                             170   -0.16 7 24.8 184 
 BRR  HZ EP   1    842  9.05                             154    0.30 7 68.5 298 
 BRR  HN ES        842 25.62                             154    0.2810 68.5 298 
 BRR  HZ I         842 30.11         2.8 0.26            152           68.5 298 
 RUS  HZ EP   1    842 11.62                             144    0.01 7  103 175 
 RUS  HN ES   1    842 30.05                             144   -0.39 7  103 175 
 RUS  HZ I         842 32.04         1.5 0.26            144            103 175 
 PTB  HZ EP   1    842 13.92                             133   -0.57 7  146 258 
 PTB  HN ES   1    842 34.84                             133   -0.73 7  146 258 
 PTB  HZ I         842 37.56         1.7 0.19            132            146 258 
 SPBC HZ EP        842 16.32                             130    0.15 9  163 218 
 SPBC HN ES   1    842 39.36                             130    0.80 7  163 218 
 SPBC HZ I         842 45.47         1.8 0.34            129            163 218 
                                                                                
