 2010  8 8 0234 56.9 L   6.797 -73.076131.9  RSN  6 0.3 1.5LRSN                1
 GAP=166        0.64       3.8     8.6  7.1  0.3447E+01 -0.1247E+02 -0.7633E+01E
 Epicentro: LOS SANTOS - SANTANDER                                             3
 ACTION:UP  10-09-07 10:53 OP:vdl  STATUS:               ID:20100808023457 L   I
 2010-08-08-0233-45S.COL___125                                                 6
 STAT SP IPHASW D HRMM SECON CODA AMPLIT PERI AZIMU VELO SNR AR TRES W  DIS CAZ7
 BTL  SZ EP   1    235 15.09                             169     0.2 7   25 302 
 BAR2 SZ EP   1    235 14.94                             168     0.0 7   26 208 
 BAR2 SZ ES   1    235 28.50                             168    -0.5 7   26 208 
 BAR2 SZ I         235 30.54         8.9 0.30                            26 208 
 BRR  HZ EP        235 16.81                             147    -0.210   78 296 
 BRR  HZ I         235 17.17        10.7 0.12                            78 296 
 BRR  HN ES   2    235 33.27                             147     0.6 5   78 296 
 RUS  HZ EP        235 19.19                             141    -0.110  100 180 
 RUS  HE ES   1    235 37.06                             141     0.3 7  100 180 
 RUS  HZ I         235 38.38         2.9 0.55                           100 180 
 GUE  SZ EP   2    235 20.58                             136     0.3 5  115   8 
 GRA  SZ EP   1    235 20.82                             134     0.0 7  124  14 
 GRA  SZ ES   2    235 39.49                             134     0.1 5  124  14 
 GRA  SZ I         235 41.57         3.6 0.15                           124  14 
                                                                                
