 2015  4 8 0831 55.5 L   6.787 -73.153146.0  RSN  9 0.4 1.7LRSN                1
 GAP=136        1.08       3.9     5.1  7.0  0.2187E+01  0.1129E+02 -0.9437E+00E
 Epicentro: LOS SANTOS - SANTANDER                                             3
 ACTION:UPD 15-06-03 16:53 OP:cam  STATUS:               ID:20150408083155 L   I
 OLDACT:UP  15-04-08 17:05 OP:mh   STATUS:               ID:20150408082736     3
 OLDACT:UP  15-04-08 17:05 OP:mh   STATUS:               ID:20150408082736     3
 OLDACT:REG 15-04-08 13:24 OP:akv  STATUS:               ID:20150408082736     3
 2015-04-08-0827-36M.COL___257                                                 6
 STAT SP IPHASW D HRMM SECON CODA AMPLIT PERI AZIMU VELO AIN AR TRES W  DIS CAZ7
 BAR2 EZ EP        832 15.24                             171    0.1010 21.8 188 
 BAR2 EZ ES        832 30.35                             171   -0.1010 21.8 188 
 BAR2 EZ I         832 32.49        18.8 0.46            171           21.8 188 
 BRR  HZ EP        832 16.96                             153    0.2810 71.1 300 
 BRR  HN ES        832 34.04                             153    0.8510 71.1 300 
 BRR  HZ I         832 36.68         8.6 0.11            151           71.1 300 
 PAM  SZ EP        832 17.91                             150    0.0610 79.0  39 
 PAM  SN ES        832 35.18                             150   -0.0910 79.0  39 
 PAM  SZ I         832 40.03         5.1 0.62            155           79.0  39 
 RUS  HZ EP        832 19.10                             144   -0.0910 99.2 176 
 RUS  HN ES        832 37.59                             144   -0.0710 99.2 176 
 RUS  HZ I         832 38.61         5.1 0.22            148           99.2 176 
 PTB  HZ EP        832 21.77                             132   -0.63 9  147 259 
 PTB  HN ES   1    832 42.38                             132   -0.99 7  147 259 
 PTB  HZ I         832 50.00         9.2 0.44            133            147 259 
 OCA  HN ES        832 45.83                             130   -0.32 9  162 353 
 ZAR  HZ EP        832 28.66                             123    0.72 9  204 293 
 ZAR  HN ES        832 53.38                             123    0.14 9  204 293 
 ZAR  HZ I         833  1.44         6.4 0.42            124            204 293 
 SML  HE ES        833  0.35                             117   -0.55 8  245 336 
 GUY2CHZ EP   1    832 39.23                             113    0.27 5  300 235 
 GUY2CHE ES   4    833 14.24                             113    1.39 0  300 235 
                                                                                
