 2014  8 8 0544 37.9 L   6.303 -73.749 92.0  RSN  6 0.4 1.0LRSN                1
 GAP= 85        0.93       3.3     3.7  8.7  0.9547E+00  0.6539E+01 -0.4797E+01E
 Epicentro: LANDAZURI - SANTANDER                                              3
 ACTION:UPD 14-09-15 21:47 OP:nd   STATUS:               ID:20140808054437 L   I
 2014-08-08-0538-15M.COL___254                                                 6
 STAT SP IPHASW D HRMM SECON CODA AMPLIT PERI AZIMU VELO AIN AR TRES W  DIS CAZ7
 BAR2 SZ EP        544 54.02                             140    0.1410 70.4  63 
 BAR2 SZ ES   1    545  6.51                             140    0.19 7 70.4  63 
 BAR2 SZ I         545  8.74        10.2 0.50            149           70.4  63 
 SPBC HZ EP        544 55.03                             136    0.5210 80.4 206 
 SPBC HN ES        545  7.73                             136    0.3010 80.4 206 
 SPBC HZ I         545 13.44         1.4 0.10            142           80.4 206 
 PTB  HZ EP        544 54.09                             135   -0.5010 82.4 289 
 PTB  HE ES   1    545  7.03                             135   -0.54 7 82.4 289 
 PTB  HZ I         545 10.95         1.7 0.12            141           82.4 289 
 RUS  HZ EP   1    544 54.83                             134   -0.77 7 86.6 122 
 RUS  HE ES   1    545  8.87                             134   -0.51 7 86.6 122 
 RUS  HZ I         545 13.63         1.0 0.46            143           86.6 122 
 BRR  HZ EP        544 55.35                             133    0.2010 89.0   3 
 BRR  HN ES        545  8.80                             133    0.2210 89.0   3 
 BRR  HZ I         545 12.28         5.4 0.46            141           89.0   3 
 ZAR  HZ EP   1    545  4.89                             113    0.16 7  180 317 
 ZAR  HN ES        545 25.58                             113   -0.05 9  180 317 
 ZAR  HZ I         545 29.02         1.1 0.31            119            180 317 
                                                                                
