 2013  2 8 0512 49.5 L   6.820 -73.151144.1  RSN  8 0.5 1.8LRSN                1
 GAP=135        1.10       4.4     6.0  9.1  0.2968E+00  0.7924E+01 -0.8543E+01E
 Epicentro: LOS SANTOS - SANTANDER                                             3
 ACTION:UPD 13-03-12 09:31 OP:ep   STATUS:               ID:20130208051249 L   I
 2013-02-08-0510-00M.COL___241                                                 6
 STAT SP IPHASW D HRMM SECON CODA AMPLIT PERI AZIMU VELO AIN AR TRES W  DIS CAZ7
 BAR2 SZ ES   1    513 23.96                             170   -0.17 7 25.4 188 
 BAR2 SZ I         513 25.37        12.6 0.26            171           25.4 188 
 BRR  HZ EP   1    513 10.82                             153    0.46 7 69.7 297 
 BRR  HN ES        513 27.54                             153    0.9010 69.7 297 
 BRR  HN I         513 28.00        16.1 0.22            150           69.7 297 
 PAM  SZ EP   1    513 11.94                             151    0.51 7 76.1  41 
 PAM  SN ES   1    513 28.11                             151   -0.45 7 76.1  41 
 PAM  SN I         513 29.82         7.9 0.46            151           76.1  41 
 RUS  HZ EP   1    513 13.05                             143   -0.17 7  103 176 
 RUS  HN ES        513 31.47                             143   -0.2710  103 176 
 RUS  HN I         513 33.36         4.6 0.36            145            103 176 
 PTB  HZ EP   1    513 16.30                             132    0.00 7  148 258 
 PTB  HN ES        513 36.65                             132   -0.56 9  148 258 
 PTB  HN I         513 39.36         5.9 0.32            131            148 258 
 OCA  HN ES        513 39.18                             130   -0.08 9  158 353 
 OCA  HN I         513 43.89        17.9 0.32            129            158 353 
 ZAR  HE ES   2    513 46.84                             122    0.05 4  203 292 
 ZAR  HE I         513 52.88         9.6 0.22            122            203 292 
 SML  HZ EP   1    513 26.37                             117    0.60 6  242 335 
 SML  HN ES   1    513 52.98                             117   -1.10 6  242 335 
 SML  HN I         513 56.84         9.1 0.10            117            242 335 
                                                                                
