 2017  5 8 0256  2.7 L   7.527 -73.145143.3  RSN 24 0.5 2.5LRSN                1
 GAP= 98        0.99       3.1     3.3  4.9  0.2159E+01  0.3759E+01  0.5127E+00E
 Epicentro: EL PLAYON - SANTANDER                                              3
 ACTION:UPD 17-06-16 13:33 OP:jn   STATUS:               ID:20170508025602 L   I
 OLDACT:UP  17-05-08 14:38 OP:edw  STATUS:               ID:20170508024742     3
 OLDACT:REG 17-05-08 12:26 OP:edw  STATUS:               ID:20170508024742     3
 2017-05-08-0248-00M.COL___362                                                 6
 STAT SP IPHASW D HRMM SECON CODA AMPLIT PERI AZIMU VELO AIN AR TRES W  DIS CAZ7
 PAM  EZ EP     D  256 23.81                             159    0.4310 53.3 113 
 PAM  EN ES        256 39.50                             159   -0.0210 53.3 113 
 PAM  EZ I         256 40.61       118.9 0.28            157           53.3 113 
 BRR  HZ IP     D  256 23.98                             150    0.0010 78.0 233 
 BRR  HE ES        256 40.34                             150   -0.2410 78.0 233 
 BRR  HZ I         256 41.33        97.1 0.10            143           78.0 233 
 RUS  HZ EP        256 32.38                             126   -0.88 9  181 178 
 RUS  HE ES        256 57.74                             126    0.63 9  181 178 
 RUS  HZ I         257  0.08         9.6 0.26            120            181 178 
 PTB  HZ EP   9 C  256 32.08                             125   -0.61 0  181 233 
 PTB  HN ES        256 55.45                             125   -0.03 9  181 233 
 PTB  HZ I         256 57.89        67.3 0.38            120            181 233 
 ZAR  HZ EP     D  256 33.57                             124    0.12 9  189 269 
 ZAR  HN ES        256 58.36                             124    0.92 9  189 269 
 ZAR  HZ I         257  1.20        90.5 0.26            119            189 269 
 SPBC HZ EP        256 37.76                             118   -0.21 8  231 206 
 SPBC HN ES        257  4.58                             118   -0.90 8  231 206 
 SPBC HZ I         257 10.45        47.6 0.30            113            231 206 
 LL6C HN EP   9    256 20.43                             117   -18.9 0  245 357 
 LL6C HE ES        256 48.75                                   -0.22 8  245 357 
 YPLC HZ EP     C  256 39.80                             116   -0.21 8  250 160 
 YPLC HN ES        257  8.71                             116   -0.40 8  250 160 
 YPLC HZ I         257 14.46        18.9 0.28            112            250 160 
 LL5C HZ EP   9    256 41.48                             116    1.20 0  254 346 
 LL5C HN ES        257 11.41                                    0.61 8  254 346 
 ARGC HZ EP   4    256 45.73                             113    1.99 0  285 335 
 ARGC HN ES   4    257 18.66                             113    2.90 0  285 335 
 ARGC HZ I         257 24.63         7.8 0.28            109            285 335 
 NOR  HZ EP        256 44.14                             113   -0.13 7  289 221 
 NOR  HN ES        257 17.11                             113    0.40 7  289 221 
 NOR  HZ I         257 22.30        32.3 0.16            108            289 221 
 TABC EZ EP   4    256 47.95                             112    1.70 0  302 203 
 HEL  HZ EP        256 46.27                             112    0.12 7  302 241 
 HEL  HN ES        257 19.57                             112   -0.48 7  302 241 
 HEL  HZ I         257 28.28        16.9 0.26            107            302 241 
 ROSC BZ EP   4    256 50.67                             110    1.95 0  324 204 
 ROSC BN ES   4    257 29.54                             110    4.92 0  324 204 
 ROSC BZ I         257 34.26        19.0 0.30            106            324 204 
 CHI  HZ EP        256 49.51                             110    0.47 7  327 191 
 CHI  HN ES        257 24.52                             110   -0.68 7  327 191 
 CHI  HZ I         257 28.90         8.4 0.26            106            327 191 
 DBB  EZ EP     D  256 50.56                             109    0.07 7  343 261 
 DBB  EN ES   4    257 26.67                             109   -1.10 0  343 261 
 DBB  EZ I         257 29.44        15.2 0.30            105            343 261 
 SJC  HZ EP     C  256 50.84                             109    0.20 7  345 320 
 SJC  HN ES        257 27.24                             109   -0.80 7  345 320 
 SJC  HZ I         257 30.07         7.6 0.38            105            345 320 
 CBOC HZ EP        256 53.64                             107    0.33 6  367 240 
 CBOC HN ES        257 33.03                             107    0.24 6  367 240 
 CBOC HZ I         257 34.87         6.2 0.22            104            367 240 
 APAC HZ EP        256 55.12                             107    0.32 6  381 276 
 APAC HN ES        257 35.09                             107   -0.36 6  381 276 
 APAC HZ I         257 38.68         6.5 0.42            103            381 276 
 VIL  EZ EP   2    256 55.39                             107    0.26 3  383 189 
 VIL  HN ES   2    257 37.40                             107    1.37 3  383 189 
 VIL  EZ I         257 43.30        19.1 0.38            103            383 189 
 LCBC HZ EP   4    256 53.71                             106   -1.46 0  384 293 
 LCBC HN ES   4    257 32.81                             106   -3.29 0  384 293 
 PTGC HZ EP   4    256 53.60                             106   -1.62 0  385 163 
 PTGC HN ES   4    257 33.62                             106   -2.57 0  385 163 
 PTGC HZ I         257 41.25         7.0 0.26            103            385 163 
 ELA  HZ EP   4    256 59.00                             107    2.93 0  386 220 
 ELA  HN ES   4    257 41.09                             107    3.38 0  386 220 
 ELA  HZ I         257 48.56        13.8 0.48            103            386 220 
 PAL  HZ EP        257  3.83                             104    0.54 5  452 230 
 PAL  HN ES   4    257 48.31                             104   -2.24 0  452 230 
 PAL  HZ I         257 58.10         6.3 0.22            100            452 230 
 ORTC HZ EP        257  5.57                             103    1.08 5  463 210 
 ORTC HN ES   4    257 55.51                             103    2.82 0  463 210 
 ORTC HZ I         258  3.37         9.1 0.34            100            463 210 
 URI  HZ EP        257  6.20                             103   -0.11 5  479  15 
 URI  HN ES   4    257 53.69                             103   -2.24 0  479  15 
 CAP2 HZ EP   4    257  4.00                             102   -2.58 0  481 285 
 CAP2 HN ES   4    257 52.41                             102   -4.00 0  481 285 
                                                                                
