 2015 11 8 0652 48.3 L   6.824 -73.132137.2  RSN  9 0.4 1.7LRSN                1
 GAP=137        0.98       3.0     4.7  6.6  0.5512E+00  0.9649E+01 -0.7622E+00E
 Epicentro: LOS SANTOS - SANTANDER                                             3
 ACTION:UPD 15-12-28 16:09 OP:cam  STATUS:               ID:20151108065248 L   I
 OLDACT:REG 15-11-08 15:29 OP:cara STATUS:               ID:20151108064737     3
 2015-11-08-0647-37M.COL___298                                                 6
 STAT SP IPHASW D HRMM SECON CODA AMPLIT PERI AZIMU VELO AIN AR TRES W  DIS CAZ7
 BAR2 EZ EP        653  7.03                             169    0.0510 26.2 192 
 BAR2 EZ ES        653 21.21                             169   -0.3310 26.2 192 
 BAR2 EZ I         653 24.90        11.4 0.26            171           26.2 192 
 BRR  HZ EP        653  9.01                             151    0.4610 71.3 296 
 BRR  HN ES        653 24.68                             151    0.3410 71.3 296 
 BRR  HZ I         653 31.43         4.9 0.40            150           71.3 296 
 PAM  EZ EP        653  9.82                             150    0.3810 74.4  40 
 PAM  EN ES        653 26.10                             150    0.1810 74.4  40 
 PAM  EZ I         653 29.72         6.2 0.50            154           74.4  40 
 RUS  HZ EP        653 11.05                             141   -0.3810  103 177 
 RUS  HN ES        653 29.69                             141    0.2310  103 177 
 OCA  HE ES        653 36.43                             128   -0.69 9  158 352 
 OCA  HZ I         653 42.68        15.2 0.26            131            158 352 
 SPBC HZ EP        653 16.15                             126   -0.31 9  166 219 
 SPBC HE ES        653 38.04                             126   -0.38 9  166 219 
 ZAR  HZ EP        653 20.81                             120    0.55 9  204 291 
 ZAR  HN ES        653 45.36                             120    0.18 9  204 291 
 ZAR  HZ I         653 53.40         5.8 0.42            123            204 291 
 SML  HZ EP   4    653 23.71                             116   -0.57 0  242 335 
 SML  HN ES        653 51.83                             116   -0.50 8  242 335 
 SJC  HZ EP   4    653 39.89                             104   -3.55 0  408 327 
 SJC  HE ES   4    654 23.58                             104   -2.86 0  408 327 
 SJC  HZ I         654 25.66         1.1 0.60            107            408 327 
                                                                                
