 2012  5 8 0920  1.1 L   6.754 -73.131150.3  RSN  7 0.4 1.8LRSN                1
 GAP=140        0.99       5.1     4.8  7.0  0.8854E+00  0.6653E+01  0.2637E+01E
 Epicentro: LOS SANTOS - SANTANDER                                             3
 ACTION:UP  12-07-05 12:03 OP:pat  STATUS:               ID:20120508092001 L   I
 2012-05-08-0920-00M.COL___192                                                 6
 STAT SP IPHASW D HRMM SECON CODA AMPLIT PERI AZIMU VELO SNR AR TRES W  DIS CAZ7
 BAR2 SZ EP        920 21.27                             173     0.110   19 197 
 BAR2 SZ ES   1    920 36.85                             173     0.0 7   19 197 
 BAR2 SZ I         920 38.14        14.0 0.37                            19 197 
 BRR  HZ EP        920 23.24                             152     0.310   75 301 
 BRR  HZ I         920 23.55        25.6 0.17                            75 301 
 BRR  HN ES        920 40.71                             152     0.710   75 301 
 PAM  SZ EP        920 24.12                             151     0.210   80  36 
 PAM  SE ES        920 41.23                             151    -0.610   80  36 
 RUS  HZ EP        920 25.06                             146     0.110   95 177 
 RUS  HE ES        920 43.44                             146    -0.110   95 177 
 RUS  HZ I         920 45.64         4.4 0.17                            95 177 
 PTB  HZ EP        920 28.12                             133    -0.4 9  148 261 
 PTB  HE ES        920 49.44                             133    -0.4 9  148 261 
 ZAR  HZ EP   1    920 34.03                             123    -0.1 6  207 293 
 ZAR  HE ES   1    920 59.65                             123    -0.3 6  207 293 
 ZAR  HZ I         921  5.16         7.2 0.27                           207 293 
 PRA  HZ EP   1    920 54.65                             107     0.3 4  388 210 
                                                                                
