 2016  6 8 0211  6.0 L   6.850 -73.153152.0  RSN 24 0.6 2.8LRSN                1
 GAP= 56        1.33       4.0     3.9  6.9 -0.1240E+01  0.4179E+01  0.6840E+01E
 Epicentro: LOS SANTOS - SANTANDER                                             3
 ACTION:UPD 16-07-21 22:16 OP:rebc STATUS:               ID:20160608021106 L   I
 OLDACT:UP  16-06-13 16:16 OP:nlst STATUS:               ID:20160608021106 L   3
 OLDACT:UP  16-06-08 15:15 OP:dani STATUS:               ID:20160608020743     3
 OLDACT:UP  16-06-08 15:09 OP:dani STATUS:               ID:20160608020743     3
 OLDACT:UP  16-06-08 15:07 OP:dani STATUS:               ID:20160608020743     3
 OLDACT:UP  16-06-08 15:04 OP:dani STATUS:               ID:20160608020743     3
 OLDACT:REG 16-06-08 12:41 OP:dani STATUS:               ID:20160608020743     3
 2016-06-08-0207-43M.COL___334                                                 6
 STAT SP IPHASW D HRMM SECON CODA AMPLIT PERI AZIMU VELO AIN AR TRES W  DIS CAZ7
 BAR2 EZ IP     D  211 26.43                             169   -0.0910 28.6 186 
 BAR2 EZ I         211 42.44       170.2 0.18                          28.6 186 
 BRR  HZ IP     D  211 28.30                             155    0.6210 68.0 295 
 BRR  HE ES        211 45.31                             155    0.7410 68.0 295 
 BRR  HZ I         211 49.58        95.1 0.14                          68.0 295 
 PAM  EZ EP        211 29.27                             153    0.5610 73.8  43 
 PAM  EE ES        211 46.17                             153   -0.2310 73.8  43 
 PAM  EZ I         211 48.55       121.7 0.60                          73.8  43 
 RUS  HZ EP        211 30.39                             144   -0.4010  106 176 
 RUS  HN ES   4    211 48.82                             144   -1.29 0  106 176 
 RUS  HZ I         211 50.09        70.8 0.26                           106 176 
 PTB  HZ EP        211 33.07                             133   -0.47 9  148 257 
 PTB  HE ES   4    211 53.65                             133   -1.35 0  148 257 
 PTB  HZ I         211 56.47        55.1 0.16                           148 257 
 OCA  HZ EP        211 35.02                             132    0.70 9  155 353 
 OCA  HN ES        211 56.28                             132   -0.11 9  155 353 
 OCA  HZ I         212  0.12       155.8 0.30                           155 353 
 TAM  HZ IP     D  211 34.75                             132    0.33 9  157 107 
 TAM  HT ES        211 56.14                             132   -0.42 9  157 107 
 TAM  HZ I         212  2.66        31.5 0.52                           157 107 
 SPBC HZ EP        211 35.48                             130    0.12 9  167 218 
 SPBC HE ES        211 57.43                             130   -0.82 9  167 218 
 SPBC HZ I         212  1.21        83.1 0.20                           167 218 
 NOR  HZ EP        211 42.85                             120    0.46 8  237 233 
 NOR  HN ES        212 10.68                             120   -0.08 8  237 233 
 NOR  HZ I         212 14.01        40.2 0.24                           237 233 
 CHI  HZ EP        211 44.71                             118    0.09 8  254 195 
 CHI  HN ES   4    212 16.23                             118    1.50 0  254 195 
 CHI  HZ I         212 21.33        12.8 0.64                           254 195 
 ROSC BZ EP   4    211 46.21                             118    1.26 0  257 210 
 ROSC BN ES   4    212 18.66                             118    3.34 0  257 210 
 ROSC BZ I         212 24.20        31.5 0.40                           257 210 
 HEL  HZ EP   9    211 48.37                             116    1.74 0  273 255 
 HEL  HT ES        212 20.22                             115    0.18 8  273 255 
 HEL  HZ I         212 24.91       110.8 0.98                           273 255 
 URE  HZ EP        211 47.07                             115   -0.03 7  281 291 
 URE  HE ES        212 17.84                             115   -1.29 7  281 291 
 VIL  SZ EP        211 50.09                             113   -0.23 7  309 191 
 VIL  ST ES   4    212 27.00                             113    2.13 0  309 191 
 PTGC HZ EP        211 49.72                             112   -1.06 7  314 159 
 PTGC HN ES   4    212 23.07                             112   -2.61 0  314 159 
 PTGC HZ I         212 25.25        22.0 0.32                           314 159 
 ELA  HZ EP   4    211 55.00                             111    1.52 0  332 229 
 ELA  HT ES   4    212 34.10                             111    3.60 0  332 229 
 ELA  HZ I         212 40.33        17.9 0.38                           332 229 
 CBOC HZ EP   4    211 54.55                             111    1.24 0  335 251 
 CBOC HN ES   4    212 33.10                             111    2.91 0  335 251 
 DBB  SZ EP        211 54.46                             111    0.84 7  338 273 
 DBB  SZ I         212 34.80        66.6 0.66                           338 273 
 SDV  BZ EP        211 56.16                             109    0.17 6  358  51 
 SDV  BN ES   4    212 33.38                             109   -1.58 0  358  51 
 SDV  BZ I         212 35.73        12.6 0.35                           358  51 
 ANIL HZ EP   9    211 57.96                             109    1.50 0  361 224 
 ANIL HN ES        212 38.58                             109    1.28 6  361 224 
 ANIL HZ I         212 44.42        40.0 0.34                           361 224 
 PRA  HZ EP        212  0.26                             107   -0.01 6  396 209 
 PRA  HN ES   4    212 43.92                             107    1.33 0  396 209 
 PRA  HZ I         212 48.33        22.7 0.26                           396 209 
 ORTC HZ EP        212  1.57                             107    0.95 6  399 216 
 ORTC HN ES   4    212 45.11                             107    1.90 0  399 216 
 ORTC HZ I         212 49.78        11.0 0.35                           399 216 
 SJC  HZ EP        212  0.76                             107   -0.45 6  404 327 
 SJC  HE ES        212 42.56                             107   -1.69 6  404 327 
 SJC  HZ I         212 46.63        11.5 0.48                           404 327 
 PAL  HZ EP        212  2.62                             107    0.98 6  408 238 
 PAL  HZ I         212 23.16        18.3 0.18                           408 238 
 PAL  HN ES        212 45.17                             107    0.14 6  408 238 
 LCBC HN ES   4    212 50.02                             106    3.00 0  418 302 
 MACC HZ EP   4    212 13.64                             102   -1.88 0  526 188 
 MACC HZ I         212 24.90         8.2 0.40                           526 188 
 MACC HE ES   4    213  6.52                             102   -3.21 0  526 188 
                                                                                
