 2013 11 8 0120  7.6 L   6.774 -73.149145.6  RSN  7 0.5 1.6LRSN                1
 GAP=137        1.36       5.9     5.8  9.9 -0.1976E+01  0.1116E+02 -0.1145E+00E
 Epicentro: LOS SANTOS - SANTANDER                                             3
 ACTION:UPD 14-01-09 16:26 OP:ep   STATUS:               ID:20131108012007 L   I
 OLDACT:REG 13-11-08 07:32 OP:jn   STATUS:               ID:20131108012000     3
 2013-11-08-0120-00M.COL___273                                                 6
 STAT SP IPHASW D HRMM SECON CODA AMPLIT PERI AZIMU VELO AIN AR TRES W  DIS CAZ7
 BAR2 SZ EP        120 27.42                             172    0.2810 20.4 190 
 BAR2 SZ ES        120 41.95                             172   -0.4410 20.4 190 
 BAR2 SZ I         120 43.68        12.0 0.32            171           20.4 190 
 BRR  HZ EP        120 29.23                             152    0.4510 72.3 301 
 BRR  HN ES        120 45.91                             152    0.6010 72.3 301 
 BRR  HZ I         120 48.91         8.6 0.34            150           72.3 301 
 PAM  SZ EP        120 30.17                             150    0.2410 79.8  38 
 PAM  SN ES        120 46.86                             150   -0.5010 79.8  38 
 PAM  SZ I         120 49.57         4.6 0.58            153           79.8  38 
 RUS  HZ EP        120 31.39                             145    0.2710 97.7 176 
 RUS  HN ES        120 49.63                             145    0.1610 97.7 176 
 RUS  HZ I         120 50.98         4.0 0.34            147           97.7 176 
 PTB  HZ EP        120 33.16                             132   -1.30 9  147 260 
 PTB  HN ES        120 54.94                             132   -0.48 9  147 260 
 PTB  HZ I         121  1.21         5.4 0.40            132            147 260 
 SPBC HN ES        120 58.17                             129    0.29 9  161 220 
 SPBC HZ I         121  1.09         9.1 0.28            131            161 220 
 ZAR  HE ES        121  5.82                             122    0.36 9  205 293 
 ZAR  HZ I         121 11.76         4.0 0.54            123            205 293 
                                                                                
