 2011 10 8 0035  4.4 L   5.824 -73.828109.1  RSN 12 0.4 2.1LRSN                1
 GAP= 67        0.76       2.3     2.4  6.8 -0.1228E+01  0.4415E+01 -0.1185E+01E
 Epicentro: JESUS MARIA - SANTANDER                                            3
 ACTION:UPD 12-07-13 16:02 OP:ep   STATUS:               ID:20111008003504 L   I
 2011-10-08-0033-25S.COL___168                                                 6
 STAT SP IPHASW D HRMM SECON CODA AMPLIT PERI AZIMU VELO AIN AR TRES W  DIS CAZ7
 RUS  HZ EP        035 23.62                             140    0.3610 82.8  85 
 RUS  HN ES   1    035 37.76                             140   -0.24 7 82.8  85 
 RUS  HZ I         035 40.24        13.4 0.18                          82.8  85 
 BAR2 SZ EP   1    035 25.82                             131    0.49 7  111  40 
 BAR2 SZ I         035 26.08        50.6 0.19                           111  40 
 BAR2 SZ ES   1    035 42.06                             131    0.40 7  111  40 
 NOR  SZ EP   1    035 25.86                             129    0.04 7  119 256 
 NOR  SE ES   1    035 42.61                             129    0.07 7  119 256 
 NOR  SZ I         035 44.38         2.0 0.20                           119 256 
 CHI  HZ EP   1    035 27.93                             126    0.32 7  132 175 
 CHI  HZ I         035 28.95        14.0 0.18                           132 175 
 CHI  HN ES   1    035 45.77                             126    0.03 7  132 175 
 BRR  HZ EP        035 28.18                             123    0.10 9  143   5 
 BRR  HZ I         035 29.63        43.1 0.12                           143   5 
 BRR  HN ES   1    035 46.70                             123    0.14 7  143   5 
 YOP  SZ EP   1    035 29.57                             119   -0.93 7  164 108 
 YOP  SZ ES   1    035 50.13                             119   -0.75 7  164 108 
 HEL  HZ EP   1    035 34.08                             115    0.16 7  193 282 
 HEL  HN ES   1    035 56.38                             115   -0.59 7  193 282 
 HEL  HZ I         035 57.67         9.5 0.27                           193 282 
 RREF HZ EP   1    035 35.01                             114    0.28 6  197 239 
 RREF HN ES   1    035 58.44                             114    0.03 6  197 239 
 PAM  SZ EP   1    035 36.01                             113    0.12 6  209  37 
 PAM  SZ I         035 38.09        12.1 0.18                           209  37 
 PAM  SN ES   1    036  0.35                             113   -0.13 6  209  37 
 ZAR  HZ EP   1    035 35.76                             111   -0.42 6  217 328 
 ZAR  HN ES   1    036  0.25                             111   -0.74 6  217 328 
 ZAR  HZ I         036  1.67         9.8 0.12                           217 328 
 PRA  HZ EP   1    035 41.06                             107   -0.27 6  261 207 
 PRA  HN ES   1    036 10.47                             107    0.32 6  261 207 
 PRA  HZ I         036 15.91        40.5 0.19                           261 207 
 OCA  SZ EP   1    035 43.37                             106    0.53 6  273  12 
 OCA  SZ I         036 21.35        15.1 0.44                           273  12 
                                                                                
