 2010  7 8 0327 57.3 L   7.378 -73.200131.4  RSN  5 0.4 1.8LRSN                1
 GAP=149        0.80       8.1    12.1 10.1 -0.6299E+02 -0.1400E+01  0.1423E+02E
 Epicentro: EL PLAYON - SANTANDER                                              3
 ACTION:UPD 10-12-01 15:16 OP:pat  STATUS:               ID:20100708032757 L   I
 2010-07-08-0325-39S.COL___116                                                 6
 STAT SP IPHASW D HRMM SECON CODA AMPLIT PERI AZIMU VELO AIN AR TRES W  DIS CAZ7
 BRI  SZ EP   1    328 16.43                             155     0.0 7   58  50 
 BRI  SZ ES   2    328 31.48                             155     0.1 5   58  50 
 GUE  SZ EP   1    328 16.02                             155    -0.6 7   59  31 
 GUE  SZ ES   2    328 30.98                             155    -0.8 5   59  31 
 BRR  HZ EP   1    328 16.56                             152     0.1 7   64 242 
 BRR  HE ES   2    328 31.64                             152     0.2 5   64 242 
 BRR  HZ I         328 32.55        12.7 0.66                            64 242 
 GRA  SZ EP   1    328 17.89                             150     0.7 7   71  38 
 GRA  SZ ES   2    328 33.07                             150     0.5 5   71  38 
 BAR2 SZ EP        328 18.20                             145    -0.110   87 179 
 BAR2 SZ ES   2    328 34.78                             145     0.1 5   87 179 
                                                                                
