 2016  7 8 0343  2.5 L   6.762 -73.117142.3  RSN 18 0.5 2.1LRSN                1
 GAP=123        1.23       4.1     5.0  6.3 -0.1129E+01  0.1034E+02  0.6879E+01E
 Epicentro: LOS SANTOS - SANTANDER                                             3
 ACTION:UPD 17-03-29 16:48 OP:lp   STATUS:               ID:20160708034302 L   I
 OLDACT:UP  16-07-08 15:12 OP:dani STATUS:               ID:20160708033742     3
 OLDACT:UP  16-07-08 15:11 OP:dani STATUS:               ID:20160708033742     3
 OLDACT:UP  16-07-08 15:10 OP:dani STATUS:               ID:20160708033742     3
 OLDACT:UP  16-07-08 15:00 OP:dani STATUS:               ID:20160708033742     3
 OLDACT:UP  16-07-08 15:00 OP:dani STATUS:               ID:20160708033742     3
 OLDACT:UP  16-07-08 15:00 OP:dani STATUS:               ID:20160708033742     3
 OLDACT:REG 16-07-08 13:04 OP:dani STATUS:               ID:20160708033742     3
 2016-07-08-0337-42M.COL___329                                                 6
 STAT SP IPHASW D HRMM SECON CODA AMPLIT PERI AZIMU VELO AIN AR TRES W  DIS CAZ7
 BAR2 EZ EP        343 21.95                             172    0.2910 20.1 201 
 BAR2 EZ ES        343 35.63                             172   -0.9710 20.1 201 
 BAR2 EZ I         343 38.26        47.1 0.20            167           20.1 201 
 BRR  HZ EP        343 23.67                             150    0.1110 76.0 300 
 BRR  HN ES        343 40.68                             150    0.7010 76.0 300 
 BRR  HZ I         343 41.65        15.9 0.14            148           76.0 300 
 PAM  EZ EP        343 24.75                             150    0.3210 78.8  36 
 PAM  EN ES        343 41.83                             150    0.2910 78.8  36 
 PAM  EZ I         343 44.18        16.7 0.60            155           78.8  36 
 RUS  HZ EP   4    343 24.46                             144   -1.14 0 96.3 178 
 RUS  HN ES        343 43.39                             144   -0.2310 96.3 178 
 RUS  HZ I         343 45.67        15.0 0.30            143           96.3 178 
 PTB  HZ EP        343 28.52                             131   -0.89 9  150 261 
 PTB  HE ES   4    343 48.92                             131   -1.47 0  150 261 
 PTB  HZ I         343 51.35        13.0 0.22            129            150 261 
 SPBC HZ EP        343 30.77                             128    0.14 9  162 221 
 SPBC HE ES        343 53.39                             128    0.83 9  162 221 
 SPBC HZ I         343 55.51        26.5 0.18            127            162 221 
 ZAR  HZ EP        343 34.45                             121   -0.74 8  209 293 
 ZAR  HN ES        344  0.02                             121   -0.67 8  209 293 
 NOR  HZ EP        343 38.22                             118    0.17 8  235 236 
 NOR  HN ES        344  5.91                             118    0.13 8  235 236 
 NOR  HZ I         344  7.11        11.1 0.12            117            235 236 
 CHI  HZ EP        343 40.17                             117    0.50 8  245 196 
 CHI  HE ES        344  8.37                             117   -0.29 8  245 196 
 CHI  HZ I         344 13.90         4.9 0.68            116            245 196 
 ROSC BZ EP   4    343 42.09                             116    1.86 0  251 212 
 ROSC BE ES   4    344 13.97                             116    4.32 0  251 212 
 ROSC BZ I         344 17.79        13.0 0.35            116            251 212 
 HEL  HZ EP        343 43.50                             114    0.73 8  274 257 
 HEL  HE ES   4    344 13.25                             114   -0.93 0  274 257 
 HEL  HZ I         344 21.71         6.1 0.30            113            274 257 
 GUY2CHZ EP   4    343 47.21                             112    1.23 0  301 236 
 GUY2CHN ES   4    344 23.88                             112    4.00 0  301 236 
 GUY2CHZ I         344 28.22         8.2 0.28                           301 236 
 PTGC HZ EP        343 44.97                             111   -0.67 7  304 159 
 PTGC HE ES   4    344 18.22                             111   -1.06 0  304 159 
 PTGC HZ I         344 20.21         5.3 0.42            112            304 159 
 CBOC HZ EP   4    343 48.22                             109   -1.26 0  335 253 
 CBOC HN ES        344 26.21                             109    0.10 7  335 253 
 CBOC HZ I         344 42.83         2.0 0.64            109            335 253 
 PRA  HZ EP        343 55.58                             106   -0.09 6  390 210 
 PRA  HN ES        344 36.99                             106   -0.14 6  390 210 
 PRA  HZ I         344 44.25         5.6 0.30            106            390 210 
 ORTC HZ EP        343 56.73                             106    0.60 6  394 217 
 ORTC HN ES   4    344 40.79                             106    2.83 0  394 217 
 ORTC HZ I         344 45.74         4.0 0.68            106            394 217 
 PAL  HZ EP        343 57.25                             105   -0.37 6  406 240 
 PAL  HE ES   4    344 39.34                             105   -1.27 0  406 240 
 PAL  HZ I         344 46.43         2.3 0.50            105            406 240 
 SJC  HZ EP   4    343 56.40                             105   -2.16 0  414 327 
 SJC  HN ES   4    344 37.60                             105   -4.69 0  414 327 
 SJC  HZ I         344 44.15         1.7 0.64            106            414 327 
                                                                                
