 2013  2 8 0704 17.9 L   6.800 -73.150150.5  RSN 15 0.5 3.5LRSN 3.5WRSN        1
 SPEC AVERAGE  MO 14.3 ST 20.6 OM  2.9 f0 3.51 R0.4982 AL 2.69 WI 22.0 MW  3.5 3
 SPEC SD       MO  0.2 ST 23.0 OM  0.4 f0 1.36 R0.2268 AL      WI      MW  0.1 3
 GAP= 71        1.14       3.2     4.0  5.4  0.1246E+01  0.4054E+01 -0.1982E+00E
 Epicentro: LOS SANTOS - SANTANDER                                             3
 SPEC URE HH N MO 14.3 ST 17.6 OM  2.4 f0 3.99 R0.3684 AL 2.67 WI 31.7 MW  3.5 3
 SPEC URE HH N T 7 527 K 0.000 GD  320 VS 4.20 DE 3.20 Q0300.0 QA 0.60 VS 4.20 3
 SPEC ZAR HH E MO 14.6 ST 81.9 OM  2.8 f0 5.30 R0.2774 AL 2.48 WI 13.7 MW  3.7 3
 SPEC ZAR HH E T 7 515 K 0.000 GD  253 VS 4.20 DE 3.20 Q0300.0 QA 0.60 VS 4.20 3
 SPEC TAM HH N MO 14.5 ST  4.0 OM  2.8 f0 2.04 R0.7206 AL 3.09 WI 23.3 MW  3.6 3
 SPEC TAM HH N T 7 5 4 K 0.000 GD  216 VS 4.20 DE 3.20 Q0300.0 QA 0.60 VS 4.20 3
 SPEC PTB HH N MO 14.2 ST  7.6 OM  2.5 f0 3.21 R0.4579 AL 1.56 WI 20.2 MW  3.4 3
 SPEC PTB HH N T 7 5 4 K 0.000 GD  210 VS 4.20 DE 3.20 Q0300.0 QA 0.60 VS 4.20 3
 SPEC RUS HH N MO 14.0 ST  3.3 OM  2.3 f0 2.99 R0.4916 AL 1.84 WI 18.4 MW  3.2 3
 SPEC RUS HH N T 7 456 K 0.000 GD  181 VS 4.20 DE 3.20 Q0300.0 QA 0.60 VS 4.20 3
 SPEC HEL HH N MO 14.3 ST 16.4 OM  2.4 f0 3.94 R0.3731 AL 3.59 WI 30.5 MW  3.5 3
 SPEC HEL HH N T 7 528 K 0.000 GD  310 VS 4.20 DE 3.20 Q0300.0 QA 0.60 VS 4.20 3
 SPEC OCA HH N MO 14.6 ST 29.4 OM  2.9 f0 3.66 R0.4016 AL 2.50 WI 17.4 MW  3.7 3
 SPEC OCA HH N T 7 5 5 K 0.000 GD  219 VS 4.20 DE 3.20 Q0300.0 QA 0.60 VS 4.20 3
 SPEC PAM SH N MO 14.4 ST  2.7 OM  2.8 f0 1.94 R0.7577 AL 2.67 WI 19.5 MW  3.6 3
 SPEC PAM SH N T 7 456 K 0.000 GD  169 VS 4.20 DE 3.20 Q0300.0 QA 0.60 VS 4.20 3
 SPEC COD HH N MO 14.3 ST0.777 OM  2.3 f0 1.44 R1.0208 AL 1.34 WI 26.3 MW  3.5 3
 SPEC COD HH N T 7 541 K 0.000 GD  379 VS 4.20 DE 3.20 Q0300.0 QA 0.60 VS 4.20 3
 SPEC CHI HH N MO 14.4 ST 19.1 OM  2.5 f0 3.93 R0.3740 AL 3.97 WI 15.8 MW  3.5 3
 SPEC CHI HH N T 7 523 K 0.000 GD  290 VS 4.20 DE 3.20 Q0300.0 QA 0.60 VS 4.20 3
 SPEC BRR HH N MO 14.1 ST 43.3 OM  2.5 f0 6.21 R0.2367 AL 3.93 WI 25.3 MW  3.4 3
 SPEC BRR HH N T 7 452 K 0.000 GD  166 VS 4.20 DE 3.20 Q0300.0 QA 0.60 VS 4.20 3
 ACTION:UPD 13-03-12 09:31 OP:ep   STATUS:               ID:20130208070417 L   I
 2013-02-08-0700-00M.COL___241                                                 6
 STAT SP IPHASW D HRMM SECON CODA AMPLIT PERI AZIMU VELO AIN AR TRES W  DIS CAZ7
 BAR2 SZ EP        7 4 38.25                             171    0.1610 23.2 189 
 BAR2 SZ ES        7 4 53.67                             171   -0.1810 23.2 189 
 BAR2 SZ I         7 4 55.91       427.2 0.28            158           23.2 189 
 BRR  HZ IP     C  7 4 40.12                             153    0.5910 70.8 299 
 BRR  HN ES        7 4 57.27                             153    0.8510 70.8 299 
 BRR  HN I         7 4 59.92       521.8 0.20            140           70.8 299 
 PAM  SZ EP     D  7 4 41.01                             152    0.3810 77.7  40 
 PAM  SN ES        7 4 58.07                             152   -0.3010 77.7  40 
 PAM  SN I         7 4 59.27       425.8 0.50            148           77.7  40 
 RUS  HZ EP     D  7 4 42.06                             145   -0.0510  101 176 
 RUS  HN ES        7 5  0.36                             145   -0.6410  101 176 
 RUS  HN I         7 5  2.37       399.8 0.40            129            101 176 
 PTB  HZ EP        7 4 44.68                             133   -0.53 9  147 259 
 PTB  HN ES   1    7 5  5.88                             133   -0.64 7  147 259 
 PTB  HN I         7 5 11.49       417.5 0.46            118            147 259 
 TAM  HZ IP     C  7 4 46.37                             132    0.39 9  156 105 
 TAM  HN ES   1    7 5  7.66                             132   -0.24 7  156 105 
 TAM  HN I         7 5  8.62       422.7 0.36            120            156 105 
 OCA  HZ EP        7 4 46.76                             131    0.19 9  160 353 
 OCA  HN ES   1    7 5  8.86                             131   -0.08 7  160 353 
 OCA  HN I         7 5 11.62       838.0 0.30            120            160 353 
 ZAR  HZ EP        7 4 50.64                             123    0.03 9  204 292 
 ZAR  HN ES        7 5 16.24       219.5 0.18            123    0.11 9  204 292 
 ZAR  HN I         7 5 22.43       219.5 0.18            111            204 292 
 SML  HZ EP        7 4 54.51                             118   -0.26 8  244 335 
 SML  HN ES   1    7 5 23.79                             118    0.25 6  244 335 
 SML  HN I         7 5 25.28       436.8 0.28            108            244 335 
 CHI  HZ EP        7 4 56.15                             118    0.31 8  248 195 
 CHI  HN ES        7 5 25.17                             118   -0.27 8  248 195 
 CHI  HN I         7 5 33.07       125.0 0.50            105            248 195 
 ROSC BZ EP   1    7 4 57.73                             118    1.49 6  252 211 
 ROSC BZ I         7 5 35.93       154.5 0.45            105            252 211 
 HEL  HZ EP   1    7 4 58.72                             116    0.42 6  272 256 
 HEL  HN ES   2    7 5 30.73                             116    0.91 4  272 256 
 HEL  HN I         7 5 36.64        72.7 0.42            104            272 256 
 URE  HZ EP        7 4 57.98                             114   -1.17 7  283 292 
 URE  HN I         7 5 40.55       170.8 0.28            103            283 292 
 VIL  SZ EP        7 5  1.30                             113   -0.21 7  303 191 
 VIL  SN I         7 5 42.80       280.7 0.56            101            303 191 
 COD  HZ EP        7 5  5.90                             110   -0.56 6  348 355 
 COD  HN ES   1    7 5 43.31                             110   -1.03 5  348 355 
 COD  HN I         7 5 49.28        57.6 0.34            100            348 355 
 SJA  SZ EP   4    7 5 14.96                             107    2.37 0  400 193 
                                                                                
