 2014  7 8 0101 33.7 L   6.795 -73.202140.5  RSN  5 0.3 1.4LRSN                1
 GAP=177        0.84       4.5     5.6  7.0  0.2853E+00 -0.1608E+00  0.3957E+01E
 Epicentro: ZAPATOCA - SANTANDER                                               3
 ACTION:UPD 15-03-16 20:42 OP:nd   STATUS:               ID:20140708010133 L   I
 OLDACT:REG 14-07-08 12:19 OP:stll STATUS:               ID:20140708005818     3
 2014-07-08-0058-18M.COL___268                                                 6
 STAT SP IPHASW D HRMM SECON CODA AMPLIT PERI AZIMU VELO AIN AR TRES W  DIS CAZ7
 BAR2 SZ EP        1 1 52.87                             170    0.1410 22.5 174 
 BAR2 SZ ES        1 2  7.15                             170   -0.3810 22.5 174 
 BAR2 SZ I         1 2  8.77         6.1 0.16            176           22.5 174 
 BRR  HZ EP        1 1 54.38                             153    0.3410 66.0 302 
 BRR  HN ES        1 2 10.35                             153    0.4910 66.0 302 
 RUS  HZ EP        1 1 57.13                             143    0.1410  101 172 
 RUS  HZ I         1 1 58.04         2.6 0.18            151            101 172 
 PTB  HZ EP        1 1 59.35                             132   -0.37 9  141 259 
 PTB  HN ES        1 2 19.81                             132   -0.16 9  141 259 
 PTB  HZ I         1 2 26.11         2.7 0.28            130            141 259 
 OCA  HN ES        1 2 23.09                             128   -0.32 9  160 355 
 OCA  HZ I         1 2 41.34         4.6 0.10            121            160 355 
                                                                                
