 2010 12 8 0911 24.8 L   6.803 -73.133139.7  RSN 10 0.3 2.1LRSN                1
 GAP=137        0.65       3.4     8.9  6.3 -0.1316E+02  0.1594E+02  0.1098E+01E
 Epicentro: LOS SANTOS - SANTANDER                                             3
 ACTION:UP  11-01-14 15:23 OP:pat  STATUS:               ID:20101208091124 L   I
 2010-12-08-0909-56S.COL___135                                                 6
 STAT SP IPHASW D HRMM SECON CODA AMPLIT PERI AZIMU VELO SNR AR TRES W  DIS CAZ7
 BTL  SZ EP        911 43.85                             172     0.310   20 311 
 BAR2 SZ EP   1    911 43.58                             170    -0.1 7   24 193 
 BAR2 SZ ES   1    911 58.13                             170    -0.3 7   24 193 
 BAR2 SZ I         911 59.81        43.8 0.39                            24 193 
 GIR2 SZ EP   1    911 43.70                             167     0.0 7   31 348 
 GUE  SZ EP   1    911 48.84                             138     0.0 7  116  11 
 GRA  SZ EP   1    911 49.46                             136     0.1 7  125  17 
 GRA  SZ ES   1    912  8.92                             136     0.3 7  125  17 
 GRA  SZ I         912 10.30        13.1 0.32                           125  17 
 OCA  SZ EP   1    911 51.80                             128    -0.8 7  160 353 
 OCA  SZ ES   1    912 14.33                             128     0.0 7  160 353 
 OCA  SZ I         912 17.09        23.7 0.20                           160 353 
 YOP  SZ EP   2    911 54.62                             125     0.3 4  179 154 
 YOP  SZ I         911 55.20         8.6 0.18                           179 154 
 CHI  HZ EP   1    912  2.07                             116    -0.1 6  249 195 
 CHI  HE ES   2    912 31.55                             116     0.2 4  249 195 
 CHI  HZ I         912 42.46         6.6 0.49                           249 195 
 HEL  HZ EP   1    912  5.32                             113     0.5 6  273 256 
 HEL  HZ I         912 42.10         6.5 0.26                           273 256 
 PRA  HZ EP   2    912 17.88                             105    -0.3 3  393 210 
 PRA  HN ES   2    912 59.58                             105    -0.3 3  393 210 
                                                                                
