 2010  1 8 0426 59.1 L   6.804 -73.076140.0  RSN  4 0.4 1.7LRSN                1
 GAP=206        0.89       6.4    65.9 11.9 -0.1160E+03  0.2804E+03 -0.3515E-01E
 Epicentro: LOS SANTOS - SANTANDER                                             3
 ACTION:UP  10-08-24 09:43 OP:vdl  STATUS:               ID:20100108042659 L   I
 2010-01-08-0421-22S.COL___097                                                 6
 STAT SP IPHASW D HRMM SECON CODA AMPLIT PERI AZIMU VELO SNR AR TRES W  DIS CAZ7
 BAR2 SZ EP        427 18.51                             169     0.410   26 207 
 BAR2 SZ ES   2    427 33.07                             169     0.2 5   26 207 
 GIR2 SZ EP        427 17.51                             166    -0.610   33 337 
 GIR2 SZ ES   3    427 32.44                             166    -0.5 2   33 337 
 OCA  SZ EP        427 27.16                             128     0.2 9  161 350 
 OCA  SZ ES   2    427 49.03                             128     0.3 5  161 350 
 OCA  SZ I         427 53.67        16.6 0.43                           161 350 
 CHI  HZ EP        427 36.64                             116    -0.1 8  251 197 
 CHI  HZ I         427 39.14         1.1 0.24                           251 197 
                                                                                
