 2014 11 8 0231 20.3 L   6.772 -73.115148.0  RSN 12 0.3 2.0LRSN                1
 GAP=142        0.80       3.2     3.7  4.2 -0.2950E+01  0.3526E+01  0.3425E+01E
 Epicentro: LOS SANTOS - SANTANDER                                             3
 ACTION:UPD 14-12-19 15:40 OP:nd   STATUS:               ID:20141108023120 L   I
 OLDACT:UP  14-11-08 14:05 OP:cam  STATUS:               ID:20141108022817     3
 OLDACT:REG 14-11-08 13:18 OP:cam  STATUS:               ID:20141108022817     3
 2014-11-08-0228-17M.COL___292                                                 6
 STAT SP IPHASW D HRMM SECON CODA AMPLIT PERI AZIMU VELO AIN AR TRES W  DIS CAZ7
 BAR2 SZ EP        231 40.08                             171   -0.0310 21.2 201 
 BAR2 SZ ES        231 55.51                             171   -0.0910 21.2 201 
 BAR2 SZ I         231 56.79        17.6 0.30            169           21.2 201 
 BRR  HZ EP        231 41.98                             151    0.0810 75.7 299 
 BRR  HN ES        231 59.45                             151    0.6610 75.7 299 
 BRR  HZ I         232  1.60        14.4 0.14            150           75.7 299 
 PAM  SZ EP        231 42.76                             151    0.0310 77.7  36 
 PAM  SN ES        232  0.20                             151   -0.0610 77.7  36 
 PAM  SZ I         232  2.25        17.6 0.20            153           77.7  36 
 RUS  HZ EP     D  231 43.95                             145   -0.0510 97.3 178 
 RUS  HE ES        232  2.40                             145   -0.1110 97.3 178 
 RUS  HZ I         232  3.93         7.7 0.38            144           97.3 178 
 PTB  HZ EP        231 47.12                             132   -0.54 9  151 260 
 PTB  HN ES        232  8.34                             132   -0.69 9  151 260 
 PTB  HZ I         232 13.78        19.6 0.20            131            151 260 
 SPBC HZ EP        231 48.98                             130    0.07 9  163 221 
 SPBC HZ I         232  1.86         7.5 0.14            128            163 221 
 SPBC HN ES        232 11.65                             130    0.39 9  163 221 
 NOR  HZ EP        231 56.06                             119   -0.17 8  236 236 
 NOR  HN ES        232 24.62                             119    0.34 8  236 236 
 NOR  HZ I         232 27.81        12.2 0.20            118            236 236 
 CHI  HZ EP        231 57.78                             118   -0.08 8  247 196 
 CHI  HN ES        232 27.10                             118   -0.09 8  247 196 
 CHI  HZ I         232 33.19         3.7 0.44            117            247 196 
 HEL  HZ EP        232  0.81                             115   -0.06 8  275 257 
 GUY2CHZ EP        232  3.80                             113   -0.29 7  302 236 
 TOL  SZ EP        232  9.01                             110    0.38 7  344 225 
 TOL  SN ES   4    232 47.62                             110    1.26 0  344 225 
 TOL  SZ I         232 51.10        14.0 0.24            109            344 225 
 MON  HZ EP   4    232  7.43                             109   -2.45 0  358 308 
 PRA  HZ EP        232 14.51                             107    0.77 6  391 210 
 SJC  HZ EP   4    232 14.34                             106   -2.07 0  414 327 
                                                                                
