 2010 11 8 0750 46.5 L   6.858 -73.105146.0  RSN  6 0.4 1.3LRSN                1
 GAP=168        0.62       5.8    15.3 14.3  0.3366E+02 -0.1152E+03 -0.3060E+02E
 Epicentro: LOS SANTOS - SANTANDER                                             3
 ACTION:UP  10-12-17 16:51 OP:REBC STATUS:               ID:20101108075046 L   I
 2010-11-08-0749-14S.COL___128                                                 6
 STAT SP IPHASW D HRMM SECON CODA AMPLIT PERI AZIMU VELO SNR AR TRES W  DIS CAZ7
 BTL  SZ EP   2    751  6.19                             172     0.1 5   19 291 
 GIR2 SZ EP   2    751  6.99                             169     0.9 5   26 338 
 BRR  HZ EP   1    751  7.49                             152    -0.3 7   73 292 
 BRR  HN ES   2    751 24.55                             152     0.2 5   73 292 
 BRR  HZ I         751 28.67         6.9 0.11                            73 292 
 RUS  HZ EP   2    751 10.86                             142     0.1 5  107 179 
 RUS  HE ES   2    751 29.20                             142    -0.4 5  107 179 
 RUS  HZ I         751 30.72         1.3 0.21                           107 179 
 GUE  SZ EP   2    751 10.61                             141    -0.1 5  109  10 
 OCA  SZ EP   2    751 14.20                             131    -0.1 5  155 351 
 OCA  SZ ES   2    751 35.70                             131    -0.3 5  155 351 
 OCA  SZ I         751 39.62         2.6 0.37                           155 351 
                                                                                
