 2015  3 8 0816 17.5 L   6.779 -73.167155.0  RSN  4 0.4 1.1LRSN                1
 GAP=244        0.90       7.5     8.2  9.0  0.9455E+01  0.2611E+01  0.3025E+02E
 Epicentro: LOS SANTOS - SANTANDER                                             3
 ACTION:UPD 15-04-30 16:24 OP:nd   STATUS:               ID:20150308081617 L   I
 OLDACT:REG 15-03-08 12:46 OP:spq  STATUS:               ID:20150308080750     3
 2015-03-08-0807-50M.COL___284                                                 6
 STAT SP IPHASW D HRMM SECON CODA AMPLIT PERI AZIMU VELO AIN AR TRES W  DIS CAZ7
 BAR2 EZ EP   1    816 37.90                             172   -0.28 7 20.7 185 
 BAR2 EZ ES   1    816 53.71                             172   -0.61 7 20.7 185 
 BAR2 EZ I         816 56.14         2.1 0.54            163           20.7 185 
 BRR  HZ EP   1    816 39.77                             154    0.17 7 70.3 301 
 BRR  HN ES        816 57.44                             154    0.6010 70.3 301 
 BRR  HZ I         816 59.44         3.0 0.48            152           70.3 301 
 PTB  HZ EP        816 44.84                             134   -0.14 9  145 260 
 PTB  HN ES        817  6.05                             134   -0.38 9  145 260 
 PTB  HZ I         817 13.38         1.4 0.44            132            145 260 
 CHI  HZ EP   1    816 55.64                             119    0.23 6  246 195 
 CHI  HN ES   1    817 25.52                             119    0.53 6  246 195 
 CHI  HZ I         817 31.27         0.6 0.60            119            246 195 
                                                                                
