 2013 10 8 0423  5.4 L   6.624 -73.174152.9  RSN  4 0.2 1.4LRSN                1
 GAP=242        0.41       5.5     4.4  4.8  0.3460E+01  0.3176E+01  0.1365E+02E
 Epicentro: BARICHARA - SANTANDER                                              3
 ACTION:UPD 13-11-25 09:20 OP:ep   STATUS:               ID:20131008042305 L   I
 OLDACT:DUP 13-10-08 10:08 OP:mh   STATUS:               ID:20131008042001d    3
 2013-10-08-0420-00M.COL___272                                                 6
 STAT SP IPHASW D HRMM SECON CODA AMPLIT PERI AZIMU VELO AIN AR TRES W  DIS CAZ7
 BAR2 SZ EP   1    423 25.52                             179   -0.18 7 3.63 194 
 BAR2 SZ ES   1    423 41.52                             179    0.02 7 3.63 194 
 BAR2 SZ I         423 42.98         8.0 0.46            167           3.63 194 
 BRR  HZ EP   1    423 28.09                             151    0.24 7 79.9 312 
 BRR  HN ES        423 45.32                             151   -0.0110 79.9 312 
 BRR  HZ I         423 51.56         3.2 0.30            148           79.9 312 
 PTB  HZ EP   1    423 32.23                             135   -0.26 7  142 266 
 PTB  HN ES   1    423 53.61                             135    0.01 7  142 266 
 PTB  HZ I         423 59.69         2.5 0.56            133            142 266 
 SPBC HZ EP   1    423 33.14                             134    0.17 7  146 223 
 SPBC HN ES   4    423 57.66                             134    3.21 0  146 223 
 SPBC HZ I         424  0.11         2.6 0.16            132            146 223 
                                                                                
