 2010  1 8 0252 38.1 L   6.788 -72.977140.0  RSN  6 0.3 1.8LRSN                1
 GAP=200        0.58       3.6    10.6  7.1 -0.6380E+01  0.1978E+02  0.9471E+00E
 Epicentro: CEPITA - SANTANDER                                                 3
 ACTION:UP  10-08-24 09:43 OP:vdl  STATUS:               ID:20100108025238 L   I
 2010-01-08-0251-03S.COL___097                                                 6
 STAT SP IPHASW D HRMM SECON CODA AMPLIT PERI AZIMU VELO SNR AR TRES W  DIS CAZ7
 BAR2 SZ EP   2    252 57.75                             167     0.5 5   32 227 
 BAR2 SZ ES   2    253 12.34                             167     0.2 5   32 227 
 RUS  BZ EP        253  1.46                             143     0.210  100 187 
 RUS  BN ES   2    253 18.90                             143    -0.4 5  100 187 
 RUS  BZ I         253 21.85         5.8 0.55                           100 187 
 OCA  SZ EP   1    253  6.23                             128    -0.2 7  165 347 
 OCA  SZ ES   2    253 28.18                             128    -0.3 5  165 347 
 OCA  SZ I         253 34.49        14.0 0.35                           165 347 
 CHI  HZ EP        253 15.73                             116    -0.2 8  253 199 
 CHI  HE ES   2    253 45.03                             116    -0.5 4  253 199 
 CHI  HZ I         253 50.88         3.3 0.29                           253 199 
 RREF BZ EP   2    253 26.19                             109     0.6 3  335 232 
 RREF BN ES   2    254  2.78                             109     0.2 3  335 232 
 RREF BZ I         254  8.29         3.6 0.24                           335 232 
 TOL  SZ EP   2    253 27.03                             108    -0.5 3  356 227 
                                                                                
