 2010  2 8 0314 36.8 L   6.818 -73.268139.5  RSN  7 0.5 1.9LRSN                1
 GAP=136        1.07       5.0    13.1 10.5 -0.2810E+02  0.4107E+02 -0.1556E+01E
 Epicentro: ZAPATOCA - SANTANDER                                               3
 ACTION:UP  10-08-24 09:48 OP:vdl  STATUS:               ID:20100208031436 L   I
 2010-02-08-0259-50S.COL___091                                                 6
 STAT SP IPHASW D HRMM SECON CODA AMPLIT PERI AZIMU VELO SNR AR TRES W  DIS CAZ7
 BAR2 SZ EP        314 55.94                             168     0.210   27 160 
 BAR2 SZ ES   1    315 10.24                             168    -0.3 7   27 160 
 GUE  SZ EP        315  1.93                             137     0.810  118  19 
 GRA  SZ IP        315  1.75                             134     0.010  129  23 
 GRA  SZ ES   2    315 21.16                             134     0.0 5  129  23 
 OCA  SZ EP   1    315  3.34                             128    -1.0 7  157 358 
 OCA  SZ ES   1    315 25.37                             128    -0.5 7  157 358 
 CHI  HZ EP        315 13.99                             115    -0.1 8  247 192 
 CHI  HE ES   1    315 42.95                             115    -0.1 6  247 192 
 CHI  HZ I         315 52.86         3.5 0.61                           247 192 
 DBB  SZ ES   2    315 59.03                             109     0.9 3  326 274 
 PRA  HZ EP   1    315 29.29                             105    -0.3 4  387 208 
 PRA  HZ I         316 15.37         3.3 0.39                           387 208 
                                                                                
