 2012  9 8 0746 31.7 L   6.689 -73.198144.1  RSN  5 0.4 1.2LRSN                1
 GAP=221        0.84       8.5     8.0  9.0  0.3775E+02  0.1199E+02  0.3099E+01E
 Epicentro: VILLANUEVA - SANTANDER                                             3
 ACTION:UPD 12-10-22 14:17 OP:ep   STATUS:               ID:20120908074631 L   I
 2012-09-08-0740-00M.COL___227                                                 6
 STAT SP IPHASW D HRMM SECON CODA AMPLIT PERI AZIMU VELO AIN AR TRES W  DIS CAZ7
 BAR2 SZ EP   1    746 50.66                             175   -0.31 7 10.8 171 
 BAR2 SZ ES   1    747  5.25                             175   -0.73 7 10.8 171 
 BAR2 SZ I         747  6.95         6.4 0.19                          10.8 171 
 BRR  HZ EP   1    746 52.76                             151   -0.06 7 73.3 309 
 BRR  HE ES   1    747 10.05                             151    0.79 7 73.3 309 
 RUS  HZ EP   1    746 54.79                             147    0.29 7 88.9 172 
 RUS  HE ES   1    747 12.63                             147    0.36 7 88.9 172 
 RUS  HZ I         747 14.49         1.6 0.40                          88.9 172 
 PTB  HZ EP   1    746 57.84                             133   -0.03 7  140 263 
 PTB  HN ES   1    747 18.03                             133   -0.23 7  140 263 
 PTB  HN I         747 19.07         2.1 0.18                           140 263 
 ZAR  HE ES   2    747 28.93                             122   -0.31 4  204 296 
                                                                                
