 2010 11 8 0121 46.7 L   6.779 -73.086143.4  RSN 15 0.5 2.3LRSN                1
 GAP=141        0.97       4.1     6.7  6.9 -0.1377E+02  0.7456E+01 -0.5992E+00E
 Epicentro: LOS SANTOS - SANTANDER                                             3
 ACTION:UP  10-12-17 16:50 OP:REBC STATUS:               ID:20101108012146 L   I
 2010-11-08-0119-58S.COL___127                                                 6
 STAT SP IPHASW D HRMM SECON CODA AMPLIT PERI AZIMU VELO SNR AR TRES W  DIS CAZ7
 BAR2 SZ EP   1    122  5.94                             170    -0.1 7   23 208 
 BAR2 SZ ES   1    122 20.42                             170    -0.7 7   23 208 
 BAR2 SZ I         122 24.05        57.3 0.39                            23 208 
 GIR2 SZ EP   2    122  6.24                             165     0.0 5   35 340 
 BRR  HZ IP     C  122  7.91                             150    -0.110   78 298 
 BRR  HE ES   1    122 25.30                             150     0.6 7   78 298 
 BRR  HZ I         122 27.88        41.1 0.14                            78 298 
 RUS  HZ EP   2    122  9.78                             144    -0.3 5   98 180 
 RUS  HE ES   1    122 28.56                             144     0.3 7   98 180 
 RUS  HZ I         122 29.90        15.8 0.21                            98 180 
 GUE  SZ EP        122 12.09                             138     0.810  118   9 
 GRA  SZ IP        122 11.84                             136     0.010  126  14 
 GRA  SZ ES   1    122 31.57                             136     0.2 7  126  14 
 GRA  SZ I         122 35.87        17.5 0.27                           126  14 
 OCA  SZ EP        122 14.51                             128    -0.7 9  163 351 
 OCA  SZ ES   2    122 36.88                             128    -0.5 5  163 351 
 OCA  SZ I         122 43.59        18.2 0.31                           163 351 
 YOP  SZ EP   2    122 16.23                             127     0.1 4  174 155 
 NOR  SZ EP   1    122 21.91                             117    -0.9 6  239 236 
 NOR  SN ES   1    122 50.60                             117    -0.3 6  239 236 
 ROSC BZ EP   2    122 25.54                             116     0.6 4  254 213 
 ROSC BE ES   2    122 53.98                             116    -0.7 4  254 213 
 ROSC BZ I         123  2.03        16.3 0.61                           254 213 
 HEL  HZ EP   2    122 27.67                             114     0.2 4  278 257 
 HEL  HE ES   2    122 59.44                             114     0.2 4  278 257 
 HEL  HZ I         123  4.38         7.2 0.24                           278 257 
 GUY  SZ EP   2    122 31.01                             111     0.3 4  305 236 
 GUY  SZ I         123 12.46        18.7 0.31                           305 236 
 RREF HZ EP   2    122 33.74                             110     0.6 3  325 230 
 RREF HN ES   2    123 10.09                             110     0.7 3  325 230 
 RREF HZ I         123 18.57        14.5 0.29                           325 230 
 TOL  SZ EP   2    122 35.53                             109     0.3 3  347 226 
 PRA  HZ EP   2    122 39.89                             106    -0.4 3  393 211 
 PRA  HE ES   1    123 22.70                             106     0.6 4  393 211 
                                                                                
