 2011  7 8 0450 59.7 L   6.758 -73.051140.8  RSN  5 0.3 1.5LRSN                1
 GAP=170        0.53       3.7     6.7  5.5 -0.3158E+01 -0.1106E+02 -0.1791E+01E
 Epicentro: LOS SANTOS - SANTANDER                                             3
 ACTION:UPD 12-07-25 13:59 OP:epov STATUS:               ID:20110708045059 L   I
 2011-07-08-0449-27S.COL___140                                                 6
 STAT SP IPHASW D HRMM SECON CODA AMPLIT PERI AZIMU VELO AIN AR TRES W  DIS CAZ7
 BAR2 SZ EP   1    451 18.74                             170    0.03 7 23.4 218 
 BAR2 SZ ES   1    451 33.46                             170   -0.10 7 23.4 218 
 BTL  SZ EP   1    451 19.23                             168    0.36 7 29.8 307 
 BTL  SZ ES   1    451 34.25                             168    0.41 7 29.8 307 
 BRR  HZ EP   1    451 20.73                             148   -0.26 7 82.6 298 
 BRR  HZ I         451 21.09         9.6 0.12                          82.6 298 
 BRR  HN ES   1    451 37.48                             148   -0.14 7 82.6 298 
 RUS  HZ EP   2    451 22.69                             144    0.10 5 95.8 182 
 RUS  HE ES   2    451 40.03                             144   -0.44 5 95.8 182 
 RUS  HZ I         451 43.23         3.6 0.33                          95.8 182 
 GRA  SZ EP   1    451 24.76                             135    0.12 7  128  12 
 GRA  SZ ES   1    451 43.83                             135   -0.27 7  128  12 
 GRA  SZ I         451 45.28         4.2 0.43                           128  12 
                                                                                
