 2016  8 8 0228  5.7 L   6.706 -73.238143.3  RSN  4 0.3 1.2LRSN                1
 GAP=219        0.54       4.8     5.2  7.7  0.1552E+02  0.9272E+01  0.4421E+01E
 Epicentro: BARICHARA - SANTANDER                                              3
 ACTION:UPD 16-10-29 15:33 OP:rebc STATUS:               ID:20160808022805 L   I
 OLDACT:DUP 16-08-08 14:20 OP:dnl  STATUS:               ID:20160808022734d    3
 OLDACT:REG 16-08-08 12:36 OP:dnl  STATUS:               ID:20160808022732     3
 2016-08-08-0228-00M.COL___365                                                 6
 STAT SP IPHASW D HRMM SECON CODA AMPLIT PERI AZIMU VELO AIN AR TRES W  DIS CAZ7
 BRR  HZ EP   2    228 25.95                             153   -0.49 5 68.6 310 
 BRR  HN ES        228 42.60                             153   -0.0210 68.6 310 
 BRR  HZ I         228 48.00         3.2 0.24                          68.6 310 
 RUS  HZ EP   2    228 28.63                             146    0.05 5 91.6 169 
 RUS  HE ES        228 46.52                             146    0.1010 91.6 169 
 RUS  HZ I         228 47.87         1.5 0.28                          91.6 169 
 PTB  HZ EP   2    228 31.63                             134    0.21 5  136 262 
 PTB  HN ES        228 51.27                             134   -0.21 9  136 262 
 PTB  HZ I         228 55.74         1.8 0.22                           136 262 
 ZAR  HZ EP   3    228 37.51                             122    0.04 2  199 296 
 ZAR  HN ES   2    229  3.14                             122    0.90 4  199 296 
 ZAR  HZ I         229  6.83         2.1 0.38                           199 296 
                                                                                
