 2013  3 8 0436 14.6 L   6.697 -73.197146.0  RSN  5 0.3 1.6LRSN                1
 GAP=223        0.65       5.5     7.1  7.4  0.2385E+02 -0.1211E+02 -0.3030E+01E
 Epicentro: VILLANUEVA - SANTANDER                                             3
 ACTION:UPD 13-04-09 14:00 OP:ep   STATUS:               ID:20130308043614 L   I
 2013-03-08-0428-41M.COL___200                                                 6
 STAT SP IPHASW D HRMM SECON CODA AMPLIT PERI AZIMU VELO AIN AR TRES W  DIS CAZ7
 BAR2 SZ EP   1    436 33.78                             175   -0.31 7 11.8 172 
 BAR2 SZ I         436 50.16         8.1 0.20            160           11.8 172 
 BRR  HZ EP        436 35.69                             153   -0.1810 72.7 309 
 BRR  HN ES        436 52.78                             153    0.3310 72.7 309 
 BRR  HN I         436 53.44         8.9 0.22            147           72.7 309 
 RUS  HZ EP        436 37.58                             147   -0.0610 89.9 172 
 RUS  HN ES        436 55.67                             147    0.0710 89.9 172 
 PTB  HN ES   1    437  1.17                             134   -0.29 7  140 263 
 CHI  HZ EP   2    436 51.90                             119    0.92 4  236 195 
                                                                                
