 2016  4 8 0601  7.8 L   6.801 -73.175139.7  RSN  8 0.2 1.5LRSN                1
 GAP=133        0.48       1.7     2.6  3.5 -0.1506E+01  0.2610E+01 -0.2129E+00E
 Epicentro: LOS SANTOS - SANTANDER                                             3
 ACTION:UPD 16-05-05 14:19 OP:rebc STATUS:               ID:20160408060107 L   I
 OLDACT:UP  16-04-11 18:34 OP:nlst STATUS:               ID:20160408060107 L   3
 OLDACT:UP  16-04-08 17:59 OP:mh   STATUS:               ID:20160408055741     3
 OLDACT:REG 16-04-08 12:43 OP:mh   STATUS:               ID:20160408055741     3
 2016-04-08-0557-41M.COL___324                                                 6
 STAT SP IPHASW D HRMM SECON CODA AMPLIT PERI AZIMU VELO AIN AR TRES W  DIS CAZ7
 BAR2 EZ EP        6 1 26.75                             170    0.0810 23.1 182 
 BAR2 EZ ES        6 1 41.60                             170    0.1910 23.1 182 
 BAR2 EZ I         6 1 42.36         8.8 0.68            168           23.1 182 
 PAM  EZ EP        6 1 29.59                             149    0.1210 79.4  41 
 PAM  EN ES        6 1 46.37                             149   -0.0210 79.4  41 
 PAM  EZ I         6 1 47.96         3.4 0.18            154           79.4  41 
 RUS  HZ EP        6 1 30.91                             142   -0.0610  101 174 
 RUS  HN ES        6 1 48.82                             142   -0.2310  101 174 
 RUS  HZ I         6 1 49.49         3.7 0.24            143            101 174 
 PTB  HZ EP        6 1 33.86                             131   -0.11 9  145 259 
 PTB  HN ES        6 1 54.31                             131   -0.08 9  145 259 
 PTB  HZ I         6 1 59.54         4.2 0.24            130            145 259 
 OCA  HZ EP   1    6 1 35.96                             128    0.39 7  160 354 
 OCA  HN ES        6 1 56.98                             128   -0.27 9  160 354 
 OCA  HZ I         6 1 59.86        11.2 0.34            130            160 354 
 SPBC HZ EP        6 1 35.64                             128    0.01 9  161 218 
 SPBC HE ES        6 1 57.65                             128    0.29 9  161 218 
 SPBC HZ I         6 2  7.55         3.7 0.09            128            161 218 
 CHI  HE ES        6 2 13.98                             116   -0.18 8  248 194 
 CHI  HN I         6 2 20.65         2.4 0.35            117            248 194 
 URE  HZ EP   4    6 1 41.56                             113   -6.65 0  281 292 
 URE  HE ES   4    6 2 18.00                             113   -1.75 0  281 292 
 URE  HZ I         6 2 20.42         2.8 0.35            113            281 292 
                                                                                
