 2010  3 8 0122 26.7 L   6.812 -73.239122.2  RSN  7 0.3 1.8LRSN                1
 GAP=169        0.55       2.5     3.8  4.0  0.1732E+01  0.3555E+01  0.6198E+00E
 Epicentro: ZAPATOCA - SANTANDER                                               3
 ACTION:UP  10-08-24 09:52 OP:vdl  STATUS:               ID:20100308012226 L   I
 2010-03-08-0118-11S.COL___100                                                 6
 STAT SP IPHASW D HRMM SECON CODA AMPLIT PERI AZIMU VELO SNR AR TRES W  DIS CAZ7
 BAR2 SZ IP        122 43.90                             168     0.310   25 166 
 BAR2 SZ ES        122 56.72                             168     0.010   25 166 
 BRR  HZ IP        122 44.71                             151    -0.110   62 302 
 BRR  HZ I         122 44.87        39.4 0.11                            62 302 
 BRR  HE ES        122 58.94                             151     0.110   62 302 
 RUS  BZ IP        122 48.31                             138    -0.110  103 170 
 RUS  BN ES   1    123  5.04                             138    -0.3 7  103 170 
 RUS  BZ I         123  7.24         3.9 0.32                           103 170 
 OCA  SZ EP   1    122 52.82                             124    -0.3 7  158 357 
 OCA  SZ ES   1    123 13.66                             124     0.0 7  158 357 
 OCA  SZ I         123 17.57        13.4 0.23                           158 357 
 HEL  HZ EP   1    123  4.94                             111     0.2 6  262 255 
 HEL  HN ES   1    123 34.07                             111    -0.3 6  262 255 
 HEL  HZ I         123 37.97         3.8 0.36                           262 255 
 TOL  SZ EP   2    123 13.28                             105    -0.1 3  337 223 
 TOL  SZ ES   3    123 49.41                             105    -0.4 2  337 223 
 PRA  HE ES   2    124  0.71                             102     0.8 3  388 208 
 PRA  HZ I         124  7.11         2.1 0.78                           388 208 
                                                                                
