 2016  4 8 0539 40.9 L   6.803 -73.154144.0  RSN 18 0.5 2.1LRSN                1
 GAP= 71        1.07       3.1     3.1  5.5 -0.1238E+01  0.5334E+01  0.1503E+01E
 Epicentro: LOS SANTOS - SANTANDER                                             3
 ACTION:UPD 16-05-05 14:19 OP:rebc STATUS:               ID:20160408053940 L   I
 OLDACT:UP  16-04-08 17:18 OP:mh   STATUS:               ID:20160408053748     3
 OLDACT:UP  16-04-08 17:13 OP:mh   STATUS:               ID:20160408053748     3
 OLDACT:UP  16-04-08 16:57 OP:mh   STATUS:               ID:20160408053748     3
 OLDACT:REG 16-04-08 12:42 OP:mh   STATUS:               ID:20160408053748     3
 2016-04-08-0537-48M.COL___324                                                 6
 STAT SP IPHASW D HRMM SECON CODA AMPLIT PERI AZIMU VELO AIN AR TRES W  DIS CAZ7
 BAR2 EZ EP        540  0.39                             170    0.1110 23.5 188 
 BAR2 EZ ES        540 15.76                             170    0.3310 23.5 188 
 BAR2 EZ I         540 17.27        28.8 0.22            170           23.5 188 
 PAM  EZ EP        540  3.05                             150    0.1410 77.8  40 
 PAM  EN ES        540 20.47                             150    0.3610 77.8  40 
 PAM  EZ I         540 23.04        11.5 0.37            148           77.8  40 
 RUS  HZ EP        540  4.25                             143   -0.2110  101 176 
 RUS  HN ES        540 22.63                             143   -0.2510  101 176 
 RUS  HZ I         540 23.67        13.8 0.26            141            101 176 
 PTB  HZ EP        540  6.85                             132   -0.75 9  147 259 
 PTB  HN ES        540 27.76                             132   -0.70 9  147 259 
 PTB  HZ I         540 31.33        17.8 0.12            128            147 259 
 TAM  HZ EP        540  8.44                             130   -0.05 9  156 105 
 TAM  HZ I         540 28.31         5.1 0.13            128            156 105 
 TAM  HN ES        540 29.58                             130   -0.46 9  156 105 
 OCA  HZ EP        540  8.39                             129   -0.60 9  160 353 
 OCA  HN ES        540 31.41                             129    0.47 9  160 353 
 OCA  HZ I         540 35.86        45.0 0.24            126            160 353 
 SPBC HZ EP        540  9.16                             129   -0.03 9  163 219 
 SPBC HN ES        540 31.60                             129    0.31 9  163 219 
 SPBC HZ I         540 33.98        25.5 0.15            126            163 219 
 ZAR  HZ EP        540 12.50                             122   -0.59 9  203 292 
 ZAR  HN ES        540 38.63                             122    0.40 9  203 292 
 ZAR  HZ I         540 43.70        20.0 0.40            119            203 292 
 NOR  HZ EP   1    540 16.07                             118   -0.35 6  234 234 
 NOR  HN ES        540 43.80                             118   -0.36 8  234 234 
 NOR  HZ I         540 51.20        12.5 0.20            115            234 234 
 CHI  HZ EP        540 18.47                             117    0.00 8  249 195 
 CHI  HN ES        540 48.11                             117    0.31 8  249 195 
 CHI  HZ I         540 56.89         5.0 0.38            114            249 195 
 ROSC BZ EP        540 19.71                             116    0.85 8  253 211 
 ROSC BN ES   4    540 50.78                             116    2.28 0  253 211 
 ROSC BZ I         540 53.93        13.9 0.40            114            253 211 
 HEL  HZ EP        540 20.83                             115   -0.06 8  271 256 
 HEL  HN ES        540 52.52                             115    0.41 8  271 256 
 HEL  HZ I         540 58.90         6.6 0.36            112            271 256 
 URE  HZ EP   4    540 20.21                             113   -1.52 0  283 292 
 URE  HN ES   4    540 51.14                             113   -2.47 0  283 292 
 URE  HZ I         541  1.47        11.7 0.56            110            283 292 
 GUY2CHZ EP        540 25.56                             112    1.24 7  301 235 
 GUY2CHN ES   4    541  2.07                             112    3.85 0  301 235 
 GUY2CHZ I         541  7.08         6.2 0.46                           301 235 
 PTGC HZ EP   4    540 23.08                             111   -1.63 0  309 159 
 PTGC HN ES   4    540 54.66                             111   -4.25 0  309 159 
 CBOC HZ EP        540 27.78                             110    0.17 7  333 252 
 CBOC HN ES   1 C  541  3.45                             110   -0.62 5  333 252 
 CBOC HZ I         541 16.30         2.8 0.52            107            333 252 
 MON  HZ EP   4    540 33.36                             108    3.67 0  353 308 
 MON  HN ES   4    541  5.28                             108   -2.49 0  353 308 
 MON  HZ I         541 21.79         5.3 0.51            106            353 308 
 ANIL HE ES   4    541 11.12                             108    1.82 0  357 224 
 SDV  BZ EP   4    540 29.81                             108   -1.09 0  361  50 
 SDV  BE ES   4    541  7.32                             108   -2.60 0  361  50 
 SDV  BZ I         541  8.54         1.6 0.35            106            361  50 
 ORTC HZ EP        540 35.06                             106    0.38 6  395 216 
 ORTC HN ES   4    541 17.89                             106    1.23 0  395 216 
 ORTC HZ I         541 21.24         4.2 0.72            104            395 216 
                                                                                
