 2013 12 8 0213 40.9 L   6.818 -73.140148.9  RSN 17 0.5 2.1LRSN                1
 GAP= 71        1.11       2.5     3.4  5.0 -0.1620E+01  0.4601E+01  0.8247E+00E
 Epicentro: LOS SANTOS - SANTANDER                                             3
 ACTION:UPD 14-01-13 10:16 OP:ep   STATUS:               ID:20131208021340 L   I
 OLDACT:DUP 13-12-08 11:35 OP:carl STATUS:               ID:20131208021001d    3
 2013-12-08-0210-00M.COL___285                                                 6
 STAT SP IPHASW D HRMM SECON CODA AMPLIT PERI AZIMU VELO AIN AR TRES W  DIS CAZ7
 BAR2 SZ EP        214  0.96                             170    0.0210 25.4 191 
 BAR2 SZ ES        214 15.97                             170   -0.6110 25.4 191 
 BAR2 SZ I         214 17.14        32.1 0.30            169           25.4 191 
 BRR  HZ EP        214  2.83                             153    0.4710 70.8 297 
 BRR  HN ES        214 20.13                             153    1.0310 70.8 297 
 BRR  HZ I         214 24.89        12.0 0.28            150           70.8 297 
 PAM  SZ EP        214  3.70                             152    0.3710 75.5  40 
 PAM  SN ES        214 21.01                             152    0.1710 75.5  40 
 RUS  HZ EP        214  4.87                             144   -0.2210  103 176 
 RUS  HN ES        214 23.23                             144   -0.7410  103 176 
 RUS  HZ I         214 24.76         8.2 0.42            145            103 176 
 PTB  HZ EP        214  7.44                             132   -0.76 9  149 258 
 PTB  HN ES        214 28.81                             132   -0.70 9  149 258 
 PTB  HZ I         214 34.61        14.1 0.24            131            149 258 
 TAM  HN ES        214 31.12                             131    0.52 9  155 106 
 OCA  HZ EP        214  9.24                             131   -0.03 9  158 353 
 OCA  HN ES        214 31.28                             131   -0.13 9  158 353 
 OCA  HZ I         214 39.35        13.5 0.36            132            158 353 
 SPBC HZ EP        214 10.13                             129    0.32 9  165 219 
 SPBC HN ES        214 32.44                             129    0.07 9  165 219 
 SPBC HZ I         214 37.03        19.1 0.40            129            165 219 
 ZAR  HE ES        214 39.30                             123    0.33 9  204 292 
 NOR  HZ EP        214 17.27                             119    0.29 8  236 234 
 NOR  HE ES        214 44.79                             119   -0.34 8  236 234 
 NOR  HZ I         214 53.15         8.9 0.16            119            236 234 
 SML  HZ EP        214 17.37                             118   -0.15 8  242 335 
 SML  HN ES        214 45.87                             118   -0.23 8  242 335 
 SML  HZ I         214 50.01        22.6 0.24            119            242 335 
 CHI  HZ EP        214 18.97                             117   -0.02 8  251 195 
 CHI  HN ES        214 48.59                             117   -0.12 8  251 195 
 CHI  HZ I         214 56.96         4.1 0.52            118            251 195 
 ROSC BZ EP   4    214 20.87                             117    1.47 0  255 211 
 ROSC BN ES   4    214 51.56                             117    2.12 0  255 211 
 GUY2CHZ EP        214 25.04                             113    0.21 7  303 235 
 GUY2CHN ES        214 59.07                             113   -0.03 7  303 235 
 GUY2CHZ I         215  7.64         6.2 0.38                           303 235 
 RREF HZ EP        214 27.95                             111    0.58 7  324 229 
 RREF HN ES        215  4.16                             111    0.54 7  324 229 
 RREF HZ I         215 12.66         5.5 0.48            112            324 229 
 COD  HZ EP        214 28.03                             109   -1.14 6  346 354 
 COD  HN ES        215  6.66                             109   -0.17 6  346 354 
 COD  HZ I         215 11.71         3.3 0.32            110            346 354 
 PRA  HZ EP        214 34.90                             107    0.15 6  394 209 
 PRA  HE ES        215 16.95                             107    0.18 6  394 209 
 PRA  HZ I         215 22.74         5.9 0.34            108            394 209 
 ORTC HZ EP        214 34.54                             107   -0.60 6  397 216 
 ORTC HN ES        215 18.29                             107    0.83 6  397 216 
 ORTC HZ I         215 25.64         4.0 0.26            107            397 216 
 SJC  HZ EP   4    214 35.03                             106   -1.37 0  408 327 
 SJC  HN ES   4    215 15.83                             106   -3.86 0  408 327 
                                                                                
