 2015 11 8 0718 17.8 L   6.774 -73.095143.9  RSN  5 0.4 1.1LRSN                1
 GAP=144        1.06       5.2     7.1  9.4 -0.1184E+02  0.1555E+01  0.1066E+02E
 Epicentro: LOS SANTOS - SANTANDER                                             3
 ACTION:UPD 15-12-28 16:09 OP:cam  STATUS:               ID:20151108071817 L   I
 OLDACT:REG 15-11-08 15:31 OP:cara STATUS:               ID:20151108070748     3
 2015-11-08-0707-48M.COL___298                                                 6
 STAT SP IPHASW D HRMM SECON CODA AMPLIT PERI AZIMU VELO AIN AR TRES W  DIS CAZ7
 BAR2 EZ EP        718 37.12                             171   -0.0210 22.3 206 
 PAM  EZ EP        718 40.03                             151    0.3310 76.2  35 
 PAM  EN ES        718 56.17                             151   -0.6610 76.2  35 
 PAM  EZ I         718 58.85         2.1 0.54            156           76.2  35 
 BRR  HZ EP        718 39.05                             150   -0.0210 77.5 298 
 BRR  HE ES        718 56.16                             150    0.4610 77.5 298 
 BRR  HZ I         718 59.34         3.1 0.40            149           77.5 298 
 RUS  HZ EP        718 41.18                             144    0.0810 97.5 179 
 RUS  HN ES        718 59.78                             144    0.4610 97.5 179 
 RUS  HZ I         719  0.77         0.8 0.32            146           97.5 179 
 SPBC HZ EP        718 46.21                             128   -0.04 9  165 221 
 SPBC HN ES        719  7.74                             128   -0.73 9  165 221 
 SPBC HZ I         719 16.25         2.9 0.22            130            165 221 
                                                                                
