 2015 11 8 0926 25.9 L   6.787 -73.155149.3  RSN  6 0.2 1.7LRSN                1
 GAP=136        0.67       2.8     3.3  4.5  0.7293E-01  0.3998E+01  0.2219E+00E
 Epicentro: LOS SANTOS - SANTANDER                                             3
 ACTION:UPD 15-12-28 16:09 OP:cam  STATUS:               ID:20151108092625 L   I
 OLDACT:DUP 15-11-08 20:12 OP:drio STATUS:               ID:20151108091745d    3
 2015-11-08-0917-44M.COL___295                                                 6
 STAT SP IPHASW D HRMM SECON CODA AMPLIT PERI AZIMU VELO AIN AR TRES W  DIS CAZ7
 BAR2 EZ EP        926 45.86                             171   -0.0510 21.8 188 
 BAR2 EZ ES        927  1.61                             171    0.0810 21.8 188 
 BAR2 EZ I         927  2.00         9.1 0.20            170           21.8 188 
 BRR  HZ EP        926 47.74                             153    0.3410 70.9 300 
 BRR  HN ES        927  4.53                             153    0.3410 70.9 300 
 BRR  HZ I         927 11.88         6.9 0.14            150           70.9 300 
 PAM  EZ EP        926 48.71                             151    0.1310 79.2  39 
 PAM  EE ES        927  5.84                             151   -0.4510 79.2  39 
 PAM  EZ I         927  8.34         8.4 0.66            155           79.2  39 
 RUS  HZ EP        926 49.95                             145    0.0610 99.3 175 
 RUS  HE ES        927  8.64                             145    0.0210 99.3 175 
 RUS  HZ I         927  9.91         7.6 0.42            149           99.3 175 
 SPBC HZ EP        926 54.67                             130    0.18 9  161 219 
 SPBC HN ES        927 16.43                             130   -0.37 9  161 219 
 SPBC HZ I         927 22.14         8.5 0.16            132            161 219 
 ZAR  HZ EP        926 58.21                             123   -0.30 9  204 293 
 ZAR  HN ES        927 23.83                             123   -0.14 9  204 293 
 ZAR  HZ I         927 30.74         7.0 0.28            124            204 293 
                                                                                
