 2016  9 8 0244 28.2 L   6.903 -73.127143.3  RSN 13 0.4 2.2LRSN                1
 GAP= 68        0.98       2.9     3.1  5.1 -0.2841E+01  0.1426E+01  0.2690E+00E
 Epicentro: PIEDECUESTA - SANTANDER                                            3
 ACTION:UPD 17-08-17 21:07 OP:lp   STATUS:               ID:20160908024428 L   I
 OLDACT:UP  16-09-08 14:23 OP:dani STATUS:               ID:20160908023735d    3
 OLDACT:DUP 16-09-08 14:05 OP:dani STATUS:               ID:20160908023735d    3
 2016-09-08-0238-00M.COL___351                                                 6
 STAT SP IPHASW D HRMM SECON CODA AMPLIT PERI AZIMU VELO AIN AR TRES W  DIS CAZ7
 BAR2 HZ EP        244 47.79                             166   -0.0710 34.9 190 
 BAR2 HZ ES        245  2.79                             166   -0.3910 34.9 190 
 BAR2 HZ I         245  3.97        23.8 0.42            164           34.9 190 
 PAM  HZ EP        244 50.12                             154    0.5010 67.5  44 
 PAM  EN ES        245  6.96                             154    0.6510 67.5  44 
 PAM  HZ I         245  7.88        29.7 0.42            150           67.5  44 
 RUS  HZ EP        244 52.14                             140   -0.4610  112 178 
 RUS  HE ES        245 11.49                             140   -0.1110  112 178 
 RUS  HZ I         245 13.26         8.7 0.22            137            112 178 
 OCA  HZ EP        244 55.43                             131    0.11 9  149 352 
 OCA  HE ES        245 16.26                             131   -0.20 9  149 352 
 OCA  HZ I         245 19.85        26.8 0.32            129            149 352 
 PTB  HZ EP   4    244 54.40                             131   -1.02 0  152 255 
 PTB  HE ES        245 16.12                             131   -0.51 9  152 255 
 PTB  HZ I         245 20.51        16.6 0.24            129            152 255 
 TAM  HZ EP        244 56.33                             130    0.48 9  157 109 
 TAM  HZ I         245 17.61        19.9 0.39            126            157 109 
 SPBC HZ EP        244 57.29                             127   -0.24 9  173 217 
 SPBC HN ES        245 21.03                             127    0.64 9  173 217 
 SPBC HZ I         245 22.75        28.7 0.18            124            173 217 
 ZAR  HZ EP        245  0.64                             122    0.34 9  202 289 
 ZAR  HN ES        245 25.02                             122   -0.30 9  202 289 
 ZAR  HZ I         245 30.80        17.1 0.40            120            202 289 
 NOR  HZ EP        245  4.16                             117   -0.57 8  243 233 
 NOR  HE ES        245 33.57                             117    0.37 8  243 233 
 NOR  HZ I         245 37.88        13.3 0.14            115            243 233 
 CHI  HZ EP        245  6.81                             115   -0.25 8  260 195 
 CHI  HN ES        245 37.35                             115    0.00 8  260 195 
 CHI  HZ I         245 43.19         8.7 0.33            113            260 195 
 SOCV BZ EP        245 10.24                             112   -0.04 7  293  58 
 SOCV BN ES        245 42.29                             112   -0.79 7  293  58 
 GUY2CHZ EP        245 12.97                             111    0.29 7  310 233 
 GUY2CHN ES   4    245 51.12                             111    3.78 0  310 233 
 GUY2CHZ I         245 58.03         6.4 0.40                           310 233 
 CBOC HZ EP        245 16.14                             109    0.45 7  339 250 
                                                                                
