 2017  6 8 0148 16.0 L   6.647 -73.240157.8  RSN  4 0.3 0.9LRSN                1
 GAP=214        0.80       6.8     6.9  7.9  0.2750E+02 -0.1192E+01 -0.2570E+01E
 Epicentro: BARICHARA - SANTANDER                                              3
 ACTION:UPD 17-09-14 16:50 OP:jn   STATUS:               ID:20170608014816 L   I
 OLDACT:UP  17-06-08 14:33 OP:edw  STATUS:               ID:20170608014741d    3
 OLDACT:DUP 17-06-08 14:26 OP:edw  STATUS:               ID:20170608014741d    3
 OLDACT:UP  17-06-08 14:25 OP:edw  STATUS:               ID:20170608014740     3
 OLDACT:REG 17-06-08 12:37 OP:edw  STATUS:               ID:20170608014740     3
 2017-06-08-0148-00M.COL___365                                                 6
 STAT SP IPHASW D HRMM SECON CODA AMPLIT PERI AZIMU VELO AIN AR TRES W  DIS CAZ7
 BRR  HZ EP        148 38.74                             154    0.1610 72.8 314 
 BRR  HN ES        148 56.07                             154   -0.1010 72.8 314 
 RUS  HZ EP        148 39.47                             150   -0.5310 85.2 168 
 RUS  HN ES        148 59.01                             150    0.3110 85.2 168 
 RUS  HZ I         149  1.32         1.2 0.36            150           85.2 168 
 PTB  HZ EP        148 43.32                             137    0.3910  135 265 
 PTB  HN ES        149  3.66                             137   -0.2510  135 265 
 PTB  HZ I         149  5.10         1.1 0.32            138            135 265 
 ZAR  HN ES   2    149 14.96                             125    0.15 4  202 298 
                                                                                
