 2014  1 8 0535  1.2 L   6.825 -73.141143.8  RSN 16 0.4 2.4LRSN                1
 GAP=136        0.99       2.3     3.5  4.9 -0.2416E+01  0.6671E+01 -0.9125E+00E
 Epicentro: LOS SANTOS - SANTANDER                                             3
 ACTION:UPD 14-03-13 09:52 OP:ep   STATUS:               ID:20140108053501 L   I
 OLDACT:REG 14-01-08 07:30 OP:carl STATUS:               ID:20140108053000     3
 2014-01-08-0530-00M.COL___285                                                 6
 STAT SP IPHASW D HRMM SECON CODA AMPLIT PERI AZIMU VELO AIN AR TRES W  DIS CAZ7
 BAR2 SZ EP     C  535 20.83                             169    0.1810 26.1 190 
 BAR2 SZ ES        535 35.48                             169   -0.3410 26.1 190 
 BAR2 SZ I         535 37.62        68.6 0.44            169           26.1 190 
 PAM  SZ IP     D  535 23.62                             151    0.5710 74.9  41 
 PAM  SN ES        535 40.81                             151    0.7110 74.9  41 
 PAM  SZ I         535 42.97        69.4 0.56            156           74.9  41 
 RUS  HZ IP     D  535 24.68                             143   -0.2710  103 176 
 RUS  HN ES        535 43.75                             143    0.2710  103 176 
 RUS  HZ I         535 46.04        28.0 0.48            146            103 176 
 PTB  HZ EP        535 27.66                             131   -0.44 9  149 258 
 PTB  HN IS        535 48.79                             131   -0.30 9  149 258 
 PTB  HN ES        535 48.79                             131            149 258 
 PTB  HZ I         535 56.35        32.0 0.28            132            149 258 
 OCA  HZ EP        535 28.70                             130   -0.40 9  158 353 
 OCA  HE ES        535 50.56                             130   -0.31 9  158 353 
 OCA  HZ I         535 55.63        31.1 0.28            132            158 353 
 SPBC HZ EP        535 29.74                             128   -0.04 9  166 219 
 SPBC HN ES        535 51.73                             128   -0.35 9  166 219 
 SPBC HZ I         535 56.83        47.8 0.24            130            166 219 
 ZAR  HZ EP        535 33.63                             122    0.17 9  204 291 
 ZAR  HN ES        535 58.88                             122    0.26 9  204 291 
 ZAR  HZ I         536  6.42        24.7 0.30            123            204 291 
 NOR  HZ EP        535 37.14                             118    0.11 8  237 234 
 NOR  HE ES        536  4.69                             118   -0.29 8  237 234 
 NOR  HZ I         536  7.00        19.6 0.30            120            237 234 
 SML  HZ EP        535 36.98                             117   -0.48 8  241 335 
 SML  HN ES        536  5.79                             117    0.04 8  241 335 
 SML  HZ I         536  8.64        36.1 0.10            119            241 335 
 CHI  HZ EP        535 38.90                             116   -0.19 8  251 195 
 CHI  HN ES        536  8.06                             116   -0.59 8  251 195 
 CHI  HZ I         536 12.88         8.1 0.34            119            251 195 
 ROSC BZ EP   4    535 41.27                             116    1.77 0  255 211 
 ROSC BN ES   4    536 11.40                             116    2.03 0  255 211 
 HEL  HZ EP        535 42.81                             114    1.37 8  273 255 
 HEL  HE ES        536 12.74                             114   -0.09 8  273 255 
 HEL  HZ I         536 19.08        14.7 0.32            116            273 255 
 URE  HZ EP   4    535 40.57                             113   -1.54 0  283 291 
 URE  HN ES   4    536 11.56                             113   -2.46 0  283 291 
 GUY2CHZ EP        535 44.95                             112    0.01 7  303 234 
 GUY2CHN ES        536 18.95                             112   -0.12 7  303 234 
 GUY2CHZ I         536 27.47        19.4 0.78                           303 234 
 RREF HZ EP        535 47.84                             110    0.34 7  324 229 
 RREF HN ES        536 23.74                             110    0.11 7  324 229 
 RREF HZ I         536 31.78        18.7 0.26            112            324 229 
 CBOC HZ EP        535 48.80                             109    0.61 7  335 252 
 CBOC HN ES        536 25.13                             109    0.29 7  335 252 
 CBOC HZ I         536 31.27         6.9 0.42            111            335 252 
 COD  HZ EP        535 48.16                             109   -1.02 6  346 354 
 COD  HN ES        536 26.58                             109   -0.03 6  346 354 
 COD  HZ I         536 33.67         4.8 0.60            111            346 354 
 ORTC HZ EP        535 55.23                             106   -0.12 6  398 216 
 ORTC HE ES        536 38.22                             106    0.64 6  398 216 
 ORTC HZ I         536 45.51         7.3 0.26            108            398 216 
 SJC  HZ EP   4    535 54.50                             105   -1.95 0  407 327 
 SJC  HN ES   4    536 35.68                             105   -3.88 0  407 327 
                                                                                
