 2011  6 8 0420 42.3 L   6.759 -73.106148.3  RSN  5 0.3 1.5LRSN                1
 GAP=164        0.65       5.9    11.4  9.9  0.3224E+02 -0.5516E+02 -0.3330E+02E
 Epicentro: LOS SANTOS - SANTANDER                                             3
 ACTION:UP  11-07-14 19:03 OP:ep   STATUS:               ID:20110608042042 L   I
 2011-06-08-0418-42S.COL___129                                                 6
 STAT SP IPHASW D HRMM SECON CODA AMPLIT PERI AZIMU VELO SNR AR TRES W  DIS CAZ7
 BAR2 SZ EP   1    421  2.05                             169    -0.1 7   20 205 
 BAR2 SZ ES   1    421 17.31                             169    -0.4 7   20 205 
 BAR2 SZ I         421 20.12        10.6 0.30                            20 205 
 BRR  HZ EP   1    421  4.05                             148     0.0 7   77 300 
 BRR  HE ES   1    421 21.12                                     0.1 7   77 300 
 BRR  HZ I         421 23.43         6.9 0.15                            77 300 
 RUS  HN ES   1    421 24.81                             146     0.4 7   96 179 
 RUS  HZ I         421 26.12         4.7 0.26                            96 179 
 GRA  SZ EP   1    421  8.01                             138     0.0 7  129  15 
 GRA  SZ I         421 31.42         2.8 0.29                           129  15 
 OCA  SZ ES   2    421 34.40                             129     0.5 5  165 352 
 OCA  SZ I         421 37.44         3.8 0.25                           165 352 
                                                                                
