 2012  9 8 0920 52.2 L   6.776 -73.128141.9  RSN 13 0.4 2.5LRSN                1
 GAP=116        0.76       3.7     3.4  5.3  0.2090E+01  0.6919E+01  0.5470E+01E
 Epicentro: LOS SANTOS - SANTANDER                                             3
 ACTION:UPD 12-10-22 14:17 OP:ep   STATUS:               ID:20120908092052 L   I
 2012-09-08-0920-00M.COL___227                                                 6
 STAT SP IPHASW D HRMM SECON CODA AMPLIT PERI AZIMU VELO AIN AR TRES W  DIS CAZ7
 BAR2 SZ EP        921 11.23                             171   -0.0610 21.2 197 
 BAR2 SZ ES   1    921 26.15                             171   -0.06 7 21.2 197 
 BAR2 SZ I         921 27.09        61.9 0.28                          21.2 197 
 GIR2 SZ EP   1    921 11.36                             166   -0.11 7 34.2 348 
 GIR2 SZ ES   1    921 26.10                             166   -0.42 7 34.2 348 
 BRR  HZ EP        921 13.27                             151    0.1910 74.2 300 
 BRR  HN ES   1    921 29.85                             151    0.46 7 74.2 300 
 BRR  HN I         921 34.83       134.0 0.16                          74.2 300 
 PAM  SZ EP   1    921 14.28                             150    0.25 7 78.2  37 
 PAM  SN ES   1    921 31.16                             150    0.09 7 78.2  37 
 PAM  SN I         921 32.33       158.4 0.46                          78.2  37 
 RUS  HZ EP   1    921 15.23                             144   -0.11 7 97.8 177 
 RUS  HN ES   1    921 33.56                             144    0.14 7 97.8 177 
 RUS  HZ I         921 34.97        32.6 0.26                          97.8 177 
 PTB  HZ EP   1    921 18.23                             131   -0.73 7  149 260 
 PTB  HN ES   1    921 39.91                             131    0.05 7  149 260 
 PTB  HN I         921 41.20        57.8 0.22                           149 260 
 YOP  SE ES   1    921 44.31                             126   -0.27 7  176 154 
 YOP  SZ I         921 48.00        26.8 0.15                           176 154 
 ZAR  HE ES   1    921 49.95                             121   -0.06 6  207 293 
 NOR  SN ES   1    921 56.15                             118    0.75 6  235 235 
 CHI  HZ EP   1    921 29.47                             116    0.03 6  247 196 
 CHI  HZ I         922  3.11         8.5 0.44                           247 196 
 HEL  HZ EP   1    921 33.52                             114    1.19 6  273 256 
 HEL  HE ES   1    922  2.97                             114   -0.69 6  273 256 
 HEL  HZ I         922  8.20         8.0 0.36                           273 256 
 DBB  SZ EP   1    921 39.45                             109   -0.29 5  342 275 
 DBB  SZ ES   1    922 16.18                             109   -0.67 5  342 275 
 PRA  HZ EP   1    921 45.43                             106    0.02 4  391 210 
 PRA  HZ I         922 34.28        10.8 0.70                           391 210 
                                                                                
