 2015  6 8 0231 49.9 L   6.819 -73.323114.8  RSN  8 0.4 1.5LRSN                1
 GAP=148        0.97       2.9     4.1  5.9  0.2131E+00  0.1012E+02  0.2060E+00E
 Epicentro: ZAPATOCA - SANTANDER                                               3
 ACTION:UPD 15-09-10 22:10 OP:cam  STATUS:               ID:20150608023149 L   I
 OLDACT:UP  15-06-08 14:29 OP:drio STATUS:               ID:20150608022750     3
 OLDACT:REG 15-06-08 12:07 OP:drio STATUS:               ID:20150608022750     3
 2015-06-08-0227-50M.COL___300                                                 6
 STAT SP IPHASW D HRMM SECON CODA AMPLIT PERI AZIMU VELO AIN AR TRES W  DIS CAZ7
 BAR2 EZ IP        232  6.74                             165    0.7610 29.5 148 
 BAR2 EZ ES        232 18.50                             165   -0.0410 29.5 148 
 BAR2 EZ I         232 20.21         9.1 0.26            165           29.5 148 
 BRR  HZ IP        232  6.83                             153    0.1410 53.5 307 
 BRR  HN ES        232 20.12                             153    0.3210 53.5 307 
 BRR  HZ I         232 22.18         9.3 0.14            155           53.5 307 
 RUS  HZ EP        232 10.49                             135   -0.7010  106 165 
 RUS  HE ES        232 27.84                             135    0.0410  106 165 
 RUS  HZ I         232 31.50         3.5 0.32            136            106 165 
 SPBC HZ EP        232 15.47                             123    0.27 9  153 213 
 SPBC HN ES        232 34.27                             123   -0.68 9  153 213 
 SPBC HZ I         232 40.97         8.0 0.34            124            153 213 
 OCA  HZ EP        232 15.70                             122    0.04 9  157   0 
 OCA  HE ES        232 35.36                             122   -0.40 9  157   0 
 ZAR  HZ EP        232 18.27                             117   -0.19 9  185 294 
 ZAR  HN ES        232 40.56                             117   -0.18 9  185 294 
 ZAR  HZ I         232 42.67         7.6 0.34            120            185 294 
 HEL  HZ EP        232 26.60                             109   -0.00 8  254 254 
 HEL  HN ES        232 55.14                             109   -0.10 8  254 254 
 GUY2CHZ EP        232 31.06                             107    0.49 7  287 232 
 GUY2CHN ES        233  2.65                             107    0.36 7  287 232 
 GUY2CHZ I         233 11.13         1.6 0.40                           287 232 
 MON  HN ES   4    233 10.56                             103   -1.25 0  337 310 
                                                                                
