 2016 10 8 0240 58.1 L   6.906 -73.155142.9  RSN  4 0.3 1.6LRSN                1
 GAP=282        0.79       7.1     5.2  6.9  0.4059E+01  0.7304E+01 -0.8056E+01E
 Epicentro: BETULIA - SANTANDER                                                3
 ACTION:UPD 16-11-09 19:17 OP:rebc STATUS:               ID:20161008024058 L   I
 OLDACT:REG 16-10-08 12:20 OP:dnl  STATUS:               ID:20161008023739     3
 2016-10-08-0238-00M.COL___354                                                 6
 STAT SP IPHASW D HRMM SECON CODA AMPLIT PERI AZIMU VELO AIN AR TRES W  DIS CAZ7
 BAR2 EZ EP        241 18.14                             166    0.5110 34.8 185 
 BAR2 EZ ES        241 32.90                             166    0.0010 34.8 185 
 BAR2 EZ I         241 34.37        11.2 0.26            161           34.8 185 
 RUS  HZ EP        241 22.20                             140   -0.2210  112 176 
 RUS  HN ES        241 41.11                             140   -0.3110  112 176 
 RUS  HZ I         241 42.60         3.6 0.36            138            112 176 
 PTB  HZ EP        241 24.79                             131   -0.16 9  149 254 
 PTB  HN ES        241 45.69                             131   -0.23 9  149 254 
 PTB  HZ I         241 48.40         4.6 0.40            130            149 254 
 SPBC HZ EP        241 27.10                             127   -0.07 9  172 216 
 SPBC HE ES        241 50.38                             127    0.50 9  172 216 
 SPBC HZ I         241 55.13         4.8 0.40            126            172 216 
                                                                                
