 2012  1 8 0958 24.5 L   5.913 -73.769109.5  RSN  5 0.2 1.2LRSN                1
 GAP=134        0.43       2.3     3.6  6.7  0.8993E+00  0.7077E+01  0.4601E+01E
 Epicentro: JESUS MARIA - SANTANDER                                            3
 ACTION:UP  12-02-03 08:15 OP:REBC STATUS:               ID:20120108095824 L   I
 2012-01-08-0950-00M.COL___186                                                 6
 STAT SP IPHASW D HRMM SECON CODA AMPLIT PERI AZIMU VELO SNR AR TRES W  DIS CAZ7
 RUS  HZ EP   1    958 43.13                             143     0.2 7   76  92 
 RUS  HN ES   2    958 57.14                             143    -0.1 5   76  92 
 RUS  HZ I         958 58.68         1.5 0.17                            76  92 
 BAR2 SZ EP        958 44.46                             135     0.010   99  41 
 BAR2 SZ ES   1    958 59.93                             135    -0.1 7   99  41 
 BAR2 SZ I         959  1.93         7.8 0.64                            99  41 
 PTB  HZ EP   2    958 44.03                             133    -0.4 5  103 312 
 PTB  HE ES   2    959  0.35                             133     0.4 5  103 312 
 BRR  HZ EP   1    958 47.12                             125    -0.1 7  132   3 
 BRR  HN ES   1    959  4.81                             125    -0.1 7  132   3 
 BRR  HZ I         959  8.92         5.2 0.16                           132   3 
 CHI  HZ EP   1    958 48.85                             124     0.1 7  142 178 
 CHI  HZ I         958 49.64         1.3 0.28                           142 178 
 CHI  HN ES   2    959  7.33                             124    -0.3 5  142 178 
                                                                                
