 2012  7 8 0907 54.5 L   6.793 -73.181142.9  RSN  4 0.4 1.0LRSN                1
 GAP=186        0.81      10.2     9.8 10.2  0.4566E+02  0.2709E+02 -0.1312E+02E
 Epicentro: LOS SANTOS - SANTANDER                                             3
 ACTION:UPD 12-08-14 11:43 OP:ep   STATUS:               ID:20120708090754 L   I
 2012-07-08-0900-00M.COL___201                                                 6
 STAT SP IPHASW D HRMM SECON CODA AMPLIT PERI AZIMU VELO AIN AR TRES W  DIS CAZ7
 BAR2 SZ EP   1    9 8 14.18                             171     0.4 7   22 180 
 BAR2 SZ ES   1    9 8 28.26                             171    -0.5 7   22 180 
 BAR2 SZ I         9 8 29.95         2.4 0.53                            22 180 
 BRR  HN ES   1    9 8 31.80                             153     0.5 7   68 301 
 OCA  HN ES   2    9 8 44.39                             129    -0.2 5  161 355 
 ZAR  HZ EP   1    9 8 26.07                             122    -0.3 6  201 293 
 ZAR  HN ES   1    9 8 51.14                             122    -0.2 6  201 293 
