 2012  5 8 0554 29.4 L   6.792 -73.146150.0  RSN 14 0.5 2.6LRSN 3.2WRSN        1
 SPEC AVERAGE  MO 13.9 ST  3.1 OM 15.4 f0 2.77 R  0.54 AL 1.71 WI 31.4 MW  3.2 3
 GAP=137        0.95       5.2     5.8  7.6 -0.4186E+00  0.1546E+02  0.1145E+02E
 Epicentro: LOS SANTOS - SANTANDER                                             3
 SPEC RREFHH Z MO 14.1 ST  5.8 OM  1.4 f0 3.17 R0.4637 AL 2.10 WI 36.2 MW  3.4 3
 SPEC RREFHH Z T 55514 K 0.020 GD  354 VP 7.60 DE 3.20 Q0230.0 QA 0.60 VS 4.20 3
 SPEC RUS HH Z MO 13.7 ST  1.3 OM  2.0 f0 2.75 R0.5345 AL 1.74 WI 23.6 MW  3.0 3
 SPEC RUS HH Z T 555 9 K 0.020 GD  180 VS 4.20 DE 3.20 Q0230.0 QA 0.60 VS 4.20 3
 SPEC HEL HH Z MO 14.1 ST  2.1 OM  1.4 f0 2.38 R0.6176 AL 1.28 WI 34.4 MW  3.3 3
 SPEC HEL HH Z T 55511 K 0.020 GD  310 VP 7.60 DE 3.20 Q0230.0 QA 0.60 VS 4.20 3
 ACTION:UP  12-07-05 12:03 OP:pat  STATUS:               ID:20120508055429 L   I
 2012-05-08-0550-00M.COL___192                                                 6
 STAT SP IPHASW D HRMM SECON CODA AMPLIT PERI AZIMU VELO SNR AR TRES W  DIS CAZ7
 OCA2 HZ EP        554 57.43                                                    
 OCA2 HN ES   2    555 19.58                                                    
 BAR2 SZ IP        554 49.58                             171     0.010   22 190 
 BAR2 SZ I         555  6.00        90.9 0.42                            22 190 
 BRR  HZ IP     C  554 51.41                             153     0.410   72 299 
 BRR  HZ I         554 51.70       109.3 0.32                            72 299 
 BRR  HN ES   1    555  8.59                             153     0.7 7   72 299 
 PAM  SZ IP     D  554 52.23                             151     0.110   78  39 
 PAM  SN ES   1    555  9.50                             151    -0.3 7   78  39 
 RUS  HZ EP        554 53.47                             145     0.010  100 176 
 RUS  HN ES   1    555 11.95                             145    -0.4 7  100 176 
 RUS  HZ I         555 13.23        44.8 0.42                           100 176 
 PTB  HZ EP        554 56.02                             133    -0.7 9  148 259 
 PTB  HZ I         554 58.80        30.6 0.32                           148 259 
 PTB  HN ES   2    555 17.12                             133    -0.9 5  148 259 
 ZAR  HZ EP        555  2.08                             123    -0.1 9  204 292 
 ZAR  HZ I         555 33.19        70.7 0.44                           204 292 
 NOR  SZ EP        555  5.48                             119     0.2 8  234 235 
 CHI  HZ EP        555  7.61                             118     0.4 8  248 195 
 HEL  HZ EP   3    555 11.32                             116     1.5 2  272 256 
 HEL  HN ES   2    555 41.29                             116     0.0 4  272 256 
 HEL  HZ I         555 48.76        27.4 0.44                           272 256 
 RREF HZ EP   1    555 15.80                             112     0.1 5  321 229 
 RREF HZ I         556  1.34        25.4 0.32                           321 229 
 DBB  SZ EP   3    555 15.80                             110    -1.3 2  339 274 
 COD  HZ EP   2    555 17.11                             109    -1.0 3  349 355 
 COD  HZ I         556  7.27        10.4 0.60                           349 355 
 PRA  HZ EP        555 23.32                             107     0.3 6  391 210 
                                                                                
