 2015 12 8 0854 32.9 L   6.824 -73.111152.2  RSN 21 0.5 3.0LRSN 3.5WRSN        1
 SPEC AVERAGE  MO 14.4 ST0.448 OM  2.4 f0 1.23 R1.9948 AL 0.00 WI 30.0 MW  3.5 3
 SPEC SD       MO  0.3 ST0.883 OM  0.4 f00.609 R0.9145 AL      WI      MW  0.2 3
 GAP= 87        0.89       3.9     4.1  4.5 -0.7437E+01  0.2284E+01  0.4038E+01E
 Epicentro: LOS SANTOS - SANTANDER                                             3
 SPEC BAR2EH Z MO 14.2 ST  1.4 OM  2.3 f0 2.45 R0.7853 AL-0.00 WI 30.0 MW  3.4 3
 SPEC BAR2EH Z T 855 7 K 0.000 GD  154 VS 5.20 DE 3.50 Q0750.0 QA 1.50 VS 3.50 3
 SPEC PAM EH Z MO 14.9 ST0.062 OM  3.0 f00.486 R3.9588 AL-0.00 WI 30.0 MW  3.9 3
 SPEC PAM EH Z T 85511 K 0.000 GD  168 VS 5.20 DE 3.50 Q0750.0 QA 1.50 VS 3.50 3
 SPEC OCA HH Z MO 14.5 ST  1.9 OM  2.4 f0 2.23 R0.8628 AL-0.00 WI 30.0 MW  3.6 3
 SPEC OCA HH Z T 85522 K 0.000 GD  219 VS 5.20 DE 3.50 Q0750.0 QA 1.50 VS 3.50 3
 SPEC HEL HH Z MO 14.2 ST0.191 OM  2.0 f0 1.24 R1.5516 AL-0.00 WI 30.0 MW  3.4 3
 SPEC HEL HH Z T 85543 K 0.000 GD  315 VS 5.20 DE 3.50 Q0750.0 QA 1.50 VS 3.50 3
 SPECGUY2CHH Z MO 14.6 ST0.113 OM  2.4 f00.746 R2.5791 AL-0.00 WI 30.0 MW  3.7 3
 SPECGUY2CHH Z T 85553 K 0.000 GD  341 VS 5.20 DE 3.50 Q0750.0 QA 1.50 Q1 0.00 3
 SPEC CBOCHH Z MO 14.4 ST0.062 OM  2.1 f00.746 R2.5791 AL-0.00 WI 30.0 MW  3.5 3
 SPEC CBOCHH Z T 85554 K 0.000 GD  370 VS 5.20 DE 3.50 Q0750.0 QA 1.50 VS 3.50 3
 SPEC MON HH Z MO 14.2 ST0.186 OM  1.9 f0 1.24 R1.5516 AL-0.00 WI 30.0 MW  3.4 3
 SPEC MON HH Z T 85557 K 0.000 GD  386 VS 5.20 DE 3.50 Q0750.0 QA 1.50 VS 3.50 3
 SPEC ANILHH Z MO 14.3 ST0.659 OM  2.0 f0 1.74 R1.1057 AL-0.00 WI 30.0 MW  3.5 3
 SPEC ANILHH Z T 856 2 K 0.000 GD  392 VS 5.20 DE 3.50 Q0750.0 QA 1.50 VS 3.50 3
 SPEC ORTCHH Z MO 14.4 ST0.193 OM  2.1 f0 1.04 R1.8500 AL-0.00 WI 30.0 MW  3.6 3
 SPEC ORTCHH Z T 856 9 K 0.000 GD  427 VS 5.20 DE 3.50 Q0750.0 QA 1.50 VS 3.50 3
 SPEC PAL HH Z MO 14.2 ST0.080 OM  1.8 f00.969 R1.9856 AL-0.00 WI 30.0 MW  3.4 3
 SPEC PAL HH Z T 85612 K 0.000 GD  437 VS 5.20 DE 3.50 Q0750.0 QA 1.50 VS 3.50 3
 SPEC MACCHH Z MO 14.4 ST0.072 OM  2.0 f00.746 R2.5791 AL-0.00 WI 30.0 MW  3.6 3
 SPEC MACCHH Z T 85631 K 0.000 GD  545 VS 5.20 DE 3.50 Q0750.0 QA 1.50 VS 3.50 3
 SPEC FLO2HH Z MO 14.3 ST0.031 OM  1.8 f00.614 R3.1336 AL-0.00 WI 30.0 MW  3.5 3
 SPEC FLO2HH Z T 85659 K 0.000 GD  662 VS 5.20 DE 3.50 Q0750.0 QA 1.50 VS 3.50 3
 OLDACT:UP  15-12-08 15:48 OP:ar   STATUS:               ID:20151208084748     3
 OLDACT:UP  15-12-08 15:46 OP:ar   STATUS:               ID:20151208084748     3
 OLDACT:REG 15-12-08 13:26 OP:ar   STATUS:               ID:20151208084748     3
 ACTION:UPD 16-02-04 15:03 OP:cam  STATUS:               ID:20151208085432 L   I
 OLDACT:UP  15-12-29 07:27 OP:CARA STATUS:               ID:20151208085432 L   3
 2015-12-08-0847-48M.COL___319                                                 6
 STAT SP IPHASW D HRMM SECON CODA AMPLIT PERI AZIMU VELO AIN AR TRES W  DIS CAZ7
 BAR2 EZ IP     D  854 53.30                             170   -0.1310 26.8 197 
 BAR2 EZ ES        855  8.71                             170   -0.6910 26.8 197 
 BAR2 EZ I         855  9.45       295.8 0.22            168           26.8 197 
 PAM  EZ EP        854 56.19                             153    0.5910 72.9  39 
 PAM  EN ES        855 13.43                             153    0.1610 72.9  39 
 PAM  EZ I         855 13.98       123.6 0.22            155           72.9  39 
 BRR  HZ IP     C  854 55.09                             153    0.1710 73.5 295 
 BRR  HN ES        855 12.34                             153    0.2810 73.5 295 
 BRR  HZ I         855 15.19       154.9 0.28            150           73.5 295 
 OCA  HZ EP        855  1.40                             131   -0.18 9  158 352 
 OCA  HN ES        855 24.06                             131    0.15 9  158 352 
 OCA  HZ I         855 31.77       262.6 0.26            131            158 352 
 NOR  HZ EP        855  9.51                             119   -0.05 8  239 234 
 NOR  HN ES        855 37.89                             119   -0.22 8  239 234 
 NOR  HZ I         855 46.96        50.1 0.16            118            239 234 
 HEL  HZ EP        855 14.60                             116    0.62 7  276 255 
 HEL  HN ES        855 45.37                             116   -0.62 7  276 255 
 HEL  HZ I         855 51.33        66.0 0.28            115            276 255 
 GUY2CHZ EP        855 17.32                             113   -0.07 7  306 235 
 GUY2CHN ES   4    855 55.30                             113    3.25 0  306 235 
 GUY2CHZ I         855 59.65        63.5 0.58                           306 235 
 CBOC HZ EP        855 20.87                             111    0.22 7  338 252 
 CBOC HN ES   4    855 56.30                             111   -1.56 0  338 252 
 CBOC HZ I         856  3.07        18.5 0.50            110            338 252 
 DBB  SZ EP        855 20.71                             110   -0.41 7  343 274 
 DBB  SZ ES   4    855 56.99                             110   -1.70 0  343 274 
 MON  HZ EP   9    855 20.49                             109   -1.88 0  355 308 
 MON  HE ES        855 59.25                             110    0.21 6  355 308 
 MON  HZ I         856  0.93        20.0 0.40            109            355 308 
 ARGC HZ EP   4    855 23.35                             109    0.62 0  358 340 
 ARGC HE ES   4    856  3.24                             109    1.69 0  358 340 
 ARGC HZ I         856  9.10        16.6 0.30            109            358 340 
 ANIL HZ EP   9    855 24.57                             109    1.03 0  362 225 
 ANIL HN ES        856  4.48                             110    0.45 6  362 225 
 ORTC HZ EP        855 27.77                             107    0.16 6  400 216 
 ORTC HN ES        856 10.95                             107    0.70 6  400 216 
 ORTC HZ I         856 17.28        32.7 0.54            107            400 216 
 ELOV BZ EP        855 27.49                             107   -0.23 6  401  87 
 ELOV BN ES   4    856  8.56                             107   -1.89 0  401  87 
 PAL  HZ EP   4    855 28.60                             107   -0.28 0  410 239 
 PAL  HN ES   4    856 13.85                             107    1.35 0  410 239 
 PAL  HZ I         856 16.86        11.8 0.22            106            410 239 
 CRJC HZ EP        855 33.65                             104   -1.65 5  465   3 
 CRJC HN ES   4    856 20.80                             104   -3.13 0  465   3 
 CRJC HZ I         856 24.49        23.4 0.16            104            465   3 
 GUA  SZ EP   2    855 36.65                             104    0.11 2  476 174 
 GUA  SN ES   4    856 24.40                             104   -1.74 0  476 174 
 GUA  SZ I         856 29.21        41.0 0.14            104            476 174 
 MACC HZ EP   4    855 40.45                             102   -1.75 0  524 189 
 MACC HN ES   4    856 32.70                             102   -3.52 0  524 189 
 MACC HZ I         856 56.02        10.9 0.54            102            524 189 
 MARA HZ EP        855 45.57                             102    0.92 4  542 216 
 MARA HN ES   4    856 38.07                             102   -2.51 0  542 216 
 GARC HZ EP   4    855 47.36                             101   -1.48 0  577 207 
 GARC HN ES   4    856 44.46                             101   -3.57 0  577 207 
 GARC HZ I         856 51.62        14.7 0.26            101            577 207 
 FLO2 HZ EP   2    855 55.61                              99   -1.07 1  645 206 
 FLO2 HE ES   2    857  1.33                              99   -0.67 1  645 206 
                                                                                
