 2015  7 8 0506 44.6 L   6.841 -73.138146.3  RSN  6 0.2 1.6LRSN                1
 GAP=184        0.47       2.4     3.5  6.7  0.1343E+01  0.8661E+01  0.5421E+01E
 Epicentro: LOS SANTOS - SANTANDER                                             3
 ACTION:UPD 15-09-08 21:47 OP:cam  STATUS:               ID:20150708050644 L   I
 OLDACT:DUP 15-07-08 15:05 OP:spq  STATUS:               ID:20150708045749d    3
 2015-07-08-0457-48M.COL___324                                                 6
 STAT SP IPHASW D HRMM SECON CODA AMPLIT PERI AZIMU VELO AIN AR TRES W  DIS CAZ7
 RUS  HZ EP   1    5 7  8.44                             143   -0.28 9  105 177 
 RUS  HN ES   1    5 7 27.64                             143    0.10 9  105 177 
 RUS  HZ I         5 7 28.84         3.2 0.34            148            105 177 
 OCA  HE ES   1    5 7 34.50                             131    0.18 8  156 353 
 OCA  HZ I         5 7 43.03         5.4 0.30            130            156 353 
 ZAR  HN ES        5 7 42.13                             123   -0.1210  203 291 
 ZAR  HZ I         5 7 48.77         4.6 0.18            123            203 291 
 NOR  HZ EP        5 7 20.79                             118    0.08 9  238 234 
 NOR  HE ES        5 7 48.64                             118   -0.25 9  238 234 
 NOR  HZ I         5 7 52.43         2.4 0.30            120            238 234 
 GUY2CHZ EP   4    5 7 29.96                             112    1.36 0  305 234 
 GUY2CHE ES   1    5 8  3.53                             112    0.60 6  305 234 
 GUY2CHZ I         5 8 10.72         2.1 0.52                           305 234 
 PRA  HZ EP   1    5 7 38.72                             106    0.08 5  396 209 
 PRA  HN ES        5 8 20.87                             106    0.07 7  396 209 
 PRA  HZ I         5 8 24.41         1.3 0.68            108            396 209 
                                                                                
