 2014  4 8 0411 23.7 L   6.814 -73.149140.4  RSN 10 0.4 1.8LRSN                1
 GAP=119        0.85       2.6     3.4  6.9 -0.1532E+01  0.8333E+00 -0.2131E+01E
 Epicentro: LOS SANTOS - SANTANDER                                             3
 2014-04-08-0408-06M.COL___253                                                 6
 ACTION:UPD 14-05-13 23:07 OP:nd   STATUS:               ID:20140408041123 L   I
 OLDACT:REG 14-04-08 12:50 OP:stll STATUS:               ID:20140408040806     3
 STAT SP IPHASW D HRMM SECON CODA AMPLIT PERI AZIMU VELO AIN AR TRES W  DIS CAZ7
 PAM  SZ EP        411 45.86                             150    0.5310 76.4  40 
 PAM  SZ I         411 46.23        24.3 0.24            152           76.4  40 
 RUS  HZ EP        411 47.02                             142   -0.0710  102 176 
 RUS  HN ES        412  5.40                             142    0.1010  102 176 
 RUS  HZ I         412  6.24         7.3 0.48            146            102 176 
 PTB  HZ EP        411 50.14                             131   -0.14 9  148 258 
 PTB  HN ES        412 10.72                             131   -0.25 9  148 258 
 PTB  HZ I         412 13.46         4.5 0.06            131            148 258 
 OCA  HN ES        412 13.33                             129    0.19 9  159 353 
 SPBC HZ EP        411 51.88                             128   -0.05 9  164 219 
 SPBC HN ES        412 13.73                             128   -0.19 9  164 219 
 SPBC HZ I         412 15.18        10.4 0.18            129            164 219 
 ZAR  HZ EP        411 55.89                             121    0.14 9  203 292 
 ZAR  HN ES        412 20.59                             121   -0.13 9  203 292 
 ZAR  HZ I         412 27.24         8.5 0.26            122            203 292 
 NOR  HZ EP        411 59.51                             117    0.28 8  235 234 
 NOR  HN ES        412 26.77                             117   -0.15 8  235 234 
 NOR  HZ I         412 32.20         5.6 1.28            119            235 234 
 SML  HZ EP   2    411 59.84                             116   -0.06 4  242 335 
 SML  HE ES        412 27.93                             116   -0.18 8  242 335 
 SML  HZ I         412 35.71         6.6 0.10            117            242 335 
 SOCV BZ EP        412  5.46                             111   -1.03 7  301  57 
 GUY2CHZ EP        412  8.18                             111    1.00 7  302 234 
 GUY2CHN ES        412 40.79                             111   -0.27 7  302 234 
 GUY2CHZ I         412 48.55         2.5 0.80                           302 234 
                                                                                
