 2014  2 8 0622 19.2 L   6.823 -73.128148.0  RSN  9 0.5 2.1LRSN                1
 GAP=185        0.96       4.2     6.5  9.3  0.4442E+01  0.9278E+01 -0.6239E+01E
 Epicentro: LOS SANTOS - SANTANDER                                             3
 ACTION:UPD 14-03-10 08:08 OP:ep   STATUS:               ID:20140208062219 L   I
 OLDACT:UP  14-02-08 13:06 OP:mh   STATUS:               ID:20140208062000     3
 OLDACT:UP  14-02-08 13:05 OP:mh   STATUS:               ID:20140208062000     3
 OLDACT:UP  14-02-08 13:05 OP:mh   STATUS:               ID:20140208062000     3
 OLDACT:UP  14-02-08 13:04 OP:mh   STATUS:               ID:20140208062000     3
 OLDACT:REG 14-02-08 07:54 OP:mh   STATUS:               ID:20140208062000     3
 2014-02-08-0620-00M.COL___291                                                 6
 STAT SP IPHASW D HRMM SECON CODA AMPLIT PERI AZIMU VELO AIN AR TRES W  DIS CAZ7
 RUS  HZ EP        622 43.09                             144   -0.2110  103 177 
 RUS  HN ES        623  2.32                             144    0.1910  103 177 
 RUS  HZ I         623  4.62        58.5 0.19            153            103 177 
 PTB  HZ EP        622 45.65                             132   -0.88 9  150 258 
 PTB  HN ES   1    623  7.36                             132   -0.51 7  150 258 
 PTB  HZ I         623 10.78         6.0 0.13            137            150 258 
 OCA  HN ES   2    623  9.72                             131    0.23 5  158 352 
 OCA  HZ I         623 20.48         4.3 0.16            134            158 352 
 SPBC HZ EP   1    622 48.66                             129    0.53 7  166 219 
 SPBC HN ES   1    623 11.05                             129    0.32 7  166 219 
 SPBC HZ I         623 15.81        10.2 0.20            136            166 219 
 ZAR  HN ES   1    623 18.00                             123    0.67 6  205 291 
 ZAR  HZ I         623 23.99         7.5 0.06            127            205 291 
 NOR  HZ EP   1    622 54.92                             119   -0.42 6  238 234 
 NOR  HE ES   1    623 23.56                             119   -0.01 6  238 234 
 NOR  HZ I         623 27.97         6.1 0.19            125            238 234 
 SML  HZ EP   1    622 55.71                             118   -0.04 6  242 335 
 SML  HN ES   1    623 24.55                             118    0.25 6  242 335 
 SML  HZ I         623 29.39         8.5 0.12            122            242 335 
 GUY2CHZ EP   1    623  4.56                             113    1.35 5  304 235 
 GUY2CHN ES   4    623 40.85                             113    3.27 0  304 235 
 GUY2CHZ  AMP      623 44.80        55.2 0.28                           304 235 
 PRA  HZ EP   1    623 13.19                             107    0.07 4  395 210 
 PRA  HN ES   1    623 55.24                             107    0.02 4  395 210 
                                                                                
