 2014  6 8 0451 41.2 L   6.808 -73.138139.5  RSN 18 0.5 2.4LRSN                1
 GAP= 71        1.09       3.0     3.5  5.6 -0.2178E+01  0.8281E+01  0.6479E+00E
 Epicentro: LOS SANTOS - SANTANDER                                             3
 ACTION:UPD 14-07-01 22:51 OP:nd   STATUS:               ID:20140608045141 L   I
 OLDACT:REG 14-06-08 13:08 OP:fm   STATUS:               ID:20140608044818     3
 2014-06-08-0448-18M.COL___253                                                 6
 STAT SP IPHASW D HRMM SECON CODA AMPLIT PERI AZIMU VELO AIN AR TRES W  DIS CAZ7
 BAR2 SZ IP     D  452  0.03                             170   -0.0610 24.4 192 
 BAR2 SZ ES        452 14.28                             170   -0.5510 24.4 192 
 BAR2 SZ I         452 17.80        35.9 0.22            167           24.4 192 
 PAM  SZ EP        452  2.99                             150    0.3210 76.1  39 
 PAM  SN ES        452 19.97                             150    0.5610 76.1  39 
 PAM  SZ I         452 20.59        22.5 0.32            156           76.1  39 
 RUS  HZ IP     C  452  3.91                             142   -0.4910  101 177 
 RUS  HE ES        452 22.60                             142    0.1110  101 177 
 PTB  HZ EP        452  6.73                             130   -1.02 9  149 259 
 PTB  HN ES        452 28.61                             130    0.15 9  149 259 
 PTB  HZ I         452 32.26        20.5 0.22            129            149 259 
 TAM  HE ES   1    452 29.74                             129    0.25 7  155 105 
 OCA  HZ EP        452  8.57                             128   -0.37 9  159 353 
 OCA  HN ES        452 30.48                             128   -0.11 9  159 353 
 OCA  HZ I         452 34.20        17.8 0.24            131            159 353 
 SPBC HZ EP        452  8.98                             127   -0.36 9  164 219 
 SPBC HN ES        452 31.63                             127    0.34 9  164 219 
 SPBC HZ I         452 37.80        27.8 0.26            128            164 219 
 ZAR  HZ EP        452 13.35                             121    0.07 9  204 292 
 ZAR  HE ES        452 38.90                             121    0.59 9  204 292 
 ZAR  HZ I         452 44.49        25.5 0.26            121            204 292 
 NOR  HZ EP        452 16.24                             117   -0.46 8  236 234 
 NOR  HN ES        452 44.27                             117   -0.12 8  236 234 
 NOR  HZ I         452 48.32        19.7 0.20            118            236 234 
 SML  HZ EP   1    452 16.60                             116   -0.82 6  243 335 
 SML  HE ES   1    452 46.18                             116    0.50 6  243 335 
 SML  HZ I         452 53.07        17.7 0.22            118            243 335 
 ROSC BZ EP        452 19.12                             115    0.01 8  254 211 
 ROSC BN ES   4    452 51.23                             115    2.54 0  254 211 
 ROSC BZ I         452 55.81        16.9 0.35            116            254 211 
 HEL  HZ EP        452 21.46                             113    0.25 8  273 256 
 HEL  HN ES        452 51.58                             113   -0.84 8  273 256 
 HEL  HZ I         452 59.80        10.0 0.32            114            273 256 
 GUY2CHZ EP        452 25.57                             111    0.91 7  302 235 
 GUY2CHE ES        452 59.53                             111    0.97 7  302 235 
 GUY2CHZ I         453  6.66        17.4 0.40                           302 235 
 RREF HZ EP        452 27.89                             110    0.68 7  323 229 
 RREF HN ES   4    453  4.79                             110    1.68 0  323 229 
 RREF HZ I         453 11.77        12.6 0.26            111            323 229 
 CBOC HZ EP        452 28.33                             109    0.35 7  335 252 
 CBOC HN ES        453  4.18                             109   -0.29 7  335 252 
 CBOC HZ I         453 16.70         5.1 0.60            110            335 252 
 TOL  SZ EP        452 29.96                             108    0.61 7  345 225 
 TOL  SN ES   4    453  8.61                             108    1.70 0  345 225 
 TOL  SZ I         453 16.82        25.8 0.52            109            345 225 
 PRA  HZ EP   1    452 34.25                             105   -0.40 4  393 210 
 PRA  HN ES   1    453 16.78                             105    0.44 4  393 210 
 PRA  HZ I         453 22.38         8.8 0.46            107            393 210 
 ORTC HZ EP        452 34.91                             105   -0.14 6  397 216 
 ORTC HN ES   4    453 19.00                             105    1.94 0  397 216 
 ORTC HZ I         453 24.20         6.3 0.44            106            397 216 
                                                                                
