 2015  9 8 0534 17.5 L   6.741 -73.189134.0  RSN  6 0.4 1.3LRSN                1
 GAP=228        0.85       7.4     6.3 10.1  0.2234E+02  0.8433E+00 -0.1949E+02E
 Epicentro: VILLANUEVA - SANTANDER                                             3
 ACTION:UPD 15-10-28 16:25 OP:cam  STATUS:               ID:20150908053417 L   I
 OLDACT:DUP 15-09-08 17:16 OP:mh   STATUS:               ID:20150908052750d    3
 OLDACT:UP  15-09-08 17:16 OP:mh   STATUS:               ID:20150908052749d    3
 OLDACT:UP  15-09-08 17:14 OP:mh   STATUS:               ID:20150908052749d    3
 OLDACT:DUP 15-09-08 17:10 OP:mh   STATUS:               ID:20150908052749d    3
 2015-09-08-0527-48M.COL___353                                                 6
 STAT SP IPHASW D HRMM SECON CODA AMPLIT PERI AZIMU VELO AIN AR TRES W  DIS CAZ7
 BAR2 EZ EP        534 35.70                             173    0.1310 16.5 178 
 BAR2 EZ I         534 50.85         5.9 0.36            173           16.5 178 
 BRR  HZ EP        534 36.69                             150   -0.6410 70.6 305 
 BRR  HN ES   1    534 53.18                             150    0.37 7 70.6 305 
 BRR  HZ I         534 57.40         2.7 0.07            152           70.6 305 
 RUS  HN ES   1    534 57.08                             143    0.15 7 94.6 173 
 RUS  HZ I         534 58.36         1.5 0.08            143           94.6 173 
 PTB  HZ EP        534 42.95                             130   -0.02 9  142 261 
 PTB  HN ES        535  2.68                             130   -0.17 9  142 261 
 PTB  HZ I         535  5.06         3.2 0.21            132            142 261 
 SPBC HN ES   4    535  7.94                             128    2.69 0  155 219 
 SPBC HZ I         535 10.81         2.0 0.17            129            155 219 
 ZAR  HZ EP   1    534 49.78                             120    0.79 6  202 294 
 ZAR  HN ES        535 13.65                             120    0.08 9  202 294 
 ZAR  HZ I         535 21.70         3.8 0.76            120            202 294 
                                                                                
