 2014 11 8 0057 16.0 L   6.529 -74.178 20.0  RSN  5 0.3 1.7LRSN                1
 GAP=136        0.75       4.1     2.1  3.8 -0.4705E+01 -0.4345E+01  0.1105E+02E
 Epicentro: PUERTO PARRA - SANTANDER                                           3
 ACTION:UPD 14-12-19 15:40 OP:nd   STATUS:               ID:20141108005716 L   I
 OLDACT:UP  14-11-08 13:44 OP:cam  STATUS:               ID:20141108004818     3
 OLDACT:REG 14-11-08 13:14 OP:cam  STATUS:               ID:20141108004818     3
 2014-11-08-0048-18M.COL___289                                                 6
 STAT SP IPHASW D HRMM SECON CODA AMPLIT PERI AZIMU VELO AIN AR TRES W  DIS CAZ7
 PTB  HZ EP     C  057 21.82                             120   -0.1210 30.8 272 
 PTB  HE ES        057 26.48                             120   -0.1010 30.8 272 
 PTB  HZ I         057 26.58        82.2 0.24            114           30.8 272 
 BRR  HZ EP        057 29.19                             102   -0.0910 82.1  39 
 BRR  HN ES        057 39.89                             102    0.2610 82.1  39 
 BRR  HN I         057 42.75        33.3 0.18             98           82.1  39 
 RUS  HZ EP        057 38.21                              56    0.21 9  140 120 
 RUS  HE ES        057 55.12                              56   -0.04 9  140 120 
 RUS  HE I         057 57.16        13.8 0.18             56            140 120 
 HEL  HZ EP        057 40.14                              56    0.55 9  154 256 
 HEL  HN ES        057 57.86                              56   -0.14 9  154 256 
 HEL  HZ I         057 59.81         3.6 0.20             56            154 256 
 PAM  SZ EP        057 43.18                              56   -0.59 9  186  61 
                                                                                
