 2017  2 8 0015 40.4 L   6.784 -73.150151.1  RSN 10 0.4 2.0LRSN                1
 GAP=236        0.83       3.6     4.5  5.2  0.5600E+01  0.6409E+01  0.4717E+01E
 Epicentro: LOS SANTOS - SANTANDER                                             3
 ACTION:UPD 17-05-24 15:33 OP:jn   STATUS:               ID:20170208001540 L   I
 OLDACT:UP  17-02-08 13:19 OP:edw  STATUS:               ID:20170208000744     3
 OLDACT:UP  17-02-08 13:18 OP:edw  STATUS:               ID:20170208000744     3
 OLDACT:UP  17-02-08 13:16 OP:edw  STATUS:               ID:20170208000744     3
 OLDACT:REG 17-02-08 11:58 OP:edw  STATUS:               ID:20170208000744     3
 2017-02-08-0008-00M.COL___343                                                 6
 STAT SP IPHASW D HRMM SECON CODA AMPLIT PERI AZIMU VELO AIN AR TRES W  DIS CAZ7
 BAR2 EZ EP        016  0.47                             172   -0.2110 21.5 190 
 BAR2 EZ ES        016 16.34                             172   -0.1310 21.5 190 
 BAR2 EZ I         016 17.19        20.4 0.18            160           21.5 190 
 BRR  HZ EP        016  2.32                             153    0.1210 71.6 300 
 BRR  HE ES        016 19.60                             153    0.4310 71.6 300 
 RUS  HZ EP        016  4.64                             145    0.0410 98.8 176 
 RUS  HN ES        016 23.48                             145    0.0310 98.8 176 
 RUS  HZ I         016 24.27        16.3 0.22            139           98.8 176 
 PTB  HZ EP        016  7.43                             133   -0.35 9  147 259 
 PTB  HE ES        016 29.34                             133    0.24 9  147 259 
 PTB  HZ I         016 31.92        10.6 0.14            127            147 259 
 ZAR  HZ EP        016 13.25                             123   -0.01 9  204 293 
 ZAR  HN ES        016 38.30                             123   -0.57 9  204 293 
 ZAR  HZ I         016 44.49        12.8 0.30            121            204 293 
 NOR  HZ EP        016 16.88                             120    0.54 8  233 235 
 NOR  HN ES        016 44.20                             120   -0.13 8  233 235 
 NOR  HZ I         016 50.06         6.8 0.18            116            233 235 
 CHI  HZ EP        016 18.65                             118    0.40 8  247 195 
 CHI  HN ES        016 47.03                             118   -0.70 8  247 195 
 CHI  HZ I         016 53.85         2.4 0.34            115            247 195 
 PTGC HZ EP   4    016 16.43                             113   -7.95 0  307 158 
 ANIL HZ EP   4    016 33.45                             109    3.18 0  356 225 
 ANIL HN ES   4    017 11.03                             109    1.89 0  356 225 
 ANIL HZ I         017 20.63         8.5 0.28            107            356 225 
 PRA  HZ EP   4    016 29.77                             107   -4.17 0  390 210 
 PRA  HN ES        017 16.31                             107    0.63 6  390 210 
 PRA  HZ I         017 25.07         2.6 0.44            106            390 210 
 ORTC HZ EP   2    016 33.67                             107   -0.68 3  394 216 
 ORTC HN ES   4    017 18.61                             107    2.21 0  394 216 
 ORTC HZ I         017 23.90         1.6 0.56            106            394 216 
 SJC  HZ EP   4    016 33.23                             106   -3.10 0  410 327 
 SJC  HN ES   4    017 14.88                             106   -5.04 0  410 327 
                                                                                
