 2016  3 8 0902  0.8 L   6.136 -73.753103.0  RSN  5 0.4 0.8LRSN                1
 GAP=104        1.12       5.3     4.1  9.6  0.3794E+01  0.6558E+01 -0.1767E+02E
 Epicentro: LANDAZURI - SANTANDER                                              3
 ACTION:UPD 16-05-13 21:22 OP:cam  STATUS:               ID:20160308090200 L   I
 OLDACT:REG 16-03-08 14:49 OP:cara STATUS:               ID:20160308085747     3
 2016-03-08-0857-47M.COL___285                                                 6
 STAT SP IPHASW D HRMM SECON CODA AMPLIT PERI AZIMU VELO AIN AR TRES W  DIS CAZ7
 SPBC HZ EP        9 2 17.27                             145    0.1410 64.2 213 
 SPBC HE ES        9 2 30.41                             145    0.5210 64.2 213 
 SPBC HZ I         9 2 32.00         2.4 0.36            148           64.2 213 
 RUS  HZ EP        9 2 18.71                             140   -0.0710 78.9 110 
 RUS  HE ES        9 2 32.62                             140   -0.2110 78.9 110 
 RUS  HZ I         9 2 33.49         0.7 0.28            145           78.9 110 
 BAR2 EZ EP        9 2 18.60                             139    0.0210 80.8  51 
 BAR2 EZ ES        9 2 32.67                             139    0.2010 80.8  51 
 BAR2 EZ I         9 2 33.49         5.1 0.36            142           80.8  51 
 PTB  HZ EP        9 2 18.49                             135   -0.5210 89.7 300 
 PTB  HE ES        9 2 32.51                             135   -0.7310 89.7 300 
 PTB  HZ I         9 2 35.95         0.9 0.10            137           89.7 300 
 ZAR  HZ EP        9 2 29.61                             112   -0.03 9  193 321 
 ZAR  HE ES        9 2 53.04                             112    0.88 9  193 321 
 ZAR  HZ I         9 2 55.75         1.0 0.32            115            193 321 
                                                                                
