 2011  1 8 0917 28.7 L   6.799 -73.132144.9  RSN 15 0.5 2.5LRSN                1
 GAP=161        0.82       3.3     5.7  6.5 -0.2563E+01  0.1443E+02  0.2781E+01E
 Epicentro: LOS SANTOS - SANTANDER                                             3
 ACTION:UP  11-02-08 08:39 OP:pat  STATUS:               ID:20110108091728 L   I
 2011-01-08-0917-23S.COL___135                                                 6
 STAT SP IPHASW D HRMM SECON CODA AMPLIT PERI AZIMU VELO SNR AR TRES W  DIS CAZ7
 BTL  SZ EP        917 48.32                             172     0.210   20 312 
 BAR2 SZ IP        917 48.13                             170    -0.110   24 194 
 BAR2 SZ ES   1    918  3.84                             170     0.4 7   24 194 
 BAR2 SZ I         918  5.96        80.1 0.24                            24 194 
 RUS  HZ IP     D  917 52.09                             144    -0.210  100 177 
 RUS  HN ES   1    918 10.42                             144    -0.3 7  100 177 
 RUS  HZ I         918 12.07        27.0 0.41                           100 177 
 OCA  SZ EP   1    917 56.40                             129    -0.5 7  161 353 
 OCA  SZ ES   1    918 19.14                             129     0.1 7  161 353 
 OCA  SZ I         918 21.83        23.8 0.32                           161 353 
 YOP  SZ EP   1    917 58.68                             126     0.1 7  178 154 
 YOP  SE ES   2    918 22.58                             126     0.7 4  178 154 
 YOP  SZ I         918 23.55        16.5 0.33                           178 154 
 NOR  SZ EP   1    918  4.04                             118    -0.4 6  236 235 
 NOR  SN ES   2    918 31.87                             118    -0.6 4  236 235 
 CHI  HZ IP     C  918  6.46                             117     0.1 8  249 196 
 CHI  HE ES   1    918 35.61                             117    -0.1 6  249 196 
 CHI  HZ I         918 39.38        13.9 0.64                           249 196 
 ROSC BZ EP   1    918  7.41                             116     0.6 6  253 211 
 ROSC BE ES   1    918 35.67                             116    -0.9 6  253 211 
 ROSC BZ I         918 42.74        48.1 0.54                           253 211 
 HEL  HZ EP   2    918  9.80                             114     0.8 4  273 256 
 HEL  HE ES   2    918 40.98                             114     0.5 4  273 256 
 HEL  HZ I         918 46.52        14.4 0.38                           273 256 
 GUY  SZ EP   2    918 13.18                             112     0.8 4  302 235 
 GUY  SZ I         918 54.34        31.5 0.37                           302 235 
 RREF HZ EP   1    918 15.33                             111     0.4 5  323 230 
 RREF HE ES   1    918 51.25                             111     0.3 5  323 230 
 RREF HZ I         918 55.33        15.0 0.11                           323 230 
 DBB  SZ EP   2    918 15.59                             109    -0.7 3  341 274 
 TOL  SZ EP   2    918 17.80                             109     0.8 3  344 225 
 PRA  HZ EP   1    918 21.58                             106    -0.7 4  393 210 
 PRA  HE ES   1    919  4.49                             106     0.5 4  393 210 
 SJA  SZ EP   2    918 23.09                             106    -0.1 3  400 193 
 SJA  SZ I         919  8.51        19.4 0.37                           400 193 
                                                                                
