 2017  6 8 0711  8.6 L   6.744 -73.229151.0  RSN  5 0.3 1.3LRSN                1
 GAP=223        0.87       4.9     5.8  7.1  0.1367E+02 -0.7416E+00 -0.3622E+01E
 Epicentro: ZAPATOCA - SANTANDER                                               3
 ACTION:UPD 17-09-14 16:50 OP:jn   STATUS:               ID:20170608071108 L   I
 OLDACT:REG 17-06-08 13:37 OP:dhb  STATUS:               ID:20170608070633     3
 2017-06-08-0707-00M.COL___359                                                 6
 STAT SP IPHASW D HRMM SECON CODA AMPLIT PERI AZIMU VELO AIN AR TRES W  DIS CAZ7
 BRR  HZ EP        711 29.72                             155   -0.3410 66.8 307 
 BRR  HN ES        711 47.05                             155    0.2410 66.8 307 
 BRR  HZ I         711 49.82         3.6 0.20            155           66.8 307 
 RUS  HZ EP        711 32.38                             146   -0.1110 95.5 170 
 RUS  HN ES        711 51.16                             146    0.0110 95.5 170 
 PTB  HZ EP        711 34.99                             135   -0.09 9  138 261 
 PTB  HN ES        711 56.00                             135    0.24 9  138 261 
 PTB  HZ I         711 58.17         1.9 0.13            136            138 261 
 SPBC HZ EP        711 36.54                             132    0.04 9  153 218 
 SPBC HN ES        711 58.21                             132   -0.08 9  153 218 
 SPBC HZ I         712  1.83         3.4 0.20            133            153 218 
 ZAR  HZ EP        711 41.55                             124    0.79 9  198 295 
 ZAR  HN ES        712  5.21                             124   -0.65 9  198 295 
                                                                                
