 2014  8 8 0542 18.8 L   6.778 -73.200128.0  RSN  8 0.3 1.2LRSN                1
 GAP=131        0.79       2.6     3.2  5.5 -0.8942E+00  0.5057E+01 -0.1413E+00E
 Epicentro: ZAPATOCA - SANTANDER                                               3
 ACTION:UPD 14-09-15 21:47 OP:nd   STATUS:               ID:20140808054218 L   I
 OLDACT:REG 14-08-08 13:08 OP:spq  STATUS:               ID:20140808053815     3
 2014-08-08-0538-15M.COL___254                                                 6
 STAT SP IPHASW D HRMM SECON CODA AMPLIT PERI AZIMU VELO AIN AR TRES W  DIS CAZ7
 BAR2 SZ EP        542 36.42                             170    0.1410 20.6 175 
 BAR2 SZ ES   1    542 49.48                             170   -0.41 7 20.6 175 
 BAR2 SZ I         542 52.76         2.5 0.14            172           20.6 175 
 BRR  HZ EP        542 38.25                             151    0.3910 67.3 303 
 BRR  HN ES        542 52.63                             151   -0.0610 67.3 303 
 BRR  HZ I         542 59.21         3.8 0.27            150           67.3 303 
 PAM  SZ EP        542 39.47                             145   -0.1210 83.2  42 
 PAM  SN ES        542 56.06                             145    0.2810 83.2  42 
 PAM  SZ I         542 57.55         2.4 0.32            151           83.2  42 
 RUS  HZ EP   1    542 40.57                             140   -0.18 7 98.7 172 
 RUS  HN ES        542 58.16                             140    0.3310 98.7 172 
 RUS  HZ I         542 59.97         2.2 0.34            146           98.7 172 
 PTB  HZ EP        542 43.55                             129   -0.26 9  141 259 
 PTB  HN ES        543  3.11                             129   -0.18 9  141 259 
 PTB  HZ I         543  7.12         3.2 0.17            131            141 259 
 SPBC HZ EP        542 45.07                             126   -0.41 9  158 218 
 SPBC HN ES        543  6.19                             126   -0.06 9  158 218 
 SPBC HZ I         543 10.64         2.1 0.20            130            158 218 
 OCA  HN ES        543  6.68                             125   -0.54 9  162 355 
 OCA  HZ I         543 11.00         2.3 0.30            129            162 355 
 ZAR  HZ EP        542 50.04                             119    0.34 9  199 293 
 ZAR  HN ES        543 14.28                             119    0.51 9  199 293 
 ZAR  HZ I         543 21.97         1.8 0.26            122            199 293 
                                                                                
