 2011 11 8 0724 30.3 L   6.763 -73.117148.5  RSN  6 0.2 1.7LRSN                1
 GAP=142        0.51       2.7     3.8  4.3  0.1933E+01  0.1065E+01 -0.1414E+01E
 Epicentro: LOS SANTOS - SANTANDER                                             3
 ACTION:UPD 12-07-13 16:08 OP:ep   STATUS:               ID:20111108072430 L   I
 2011-11-08-0720-54S.COL___174                                                 6
 STAT SP IPHASW D HRMM SECON CODA AMPLIT PERI AZIMU VELO AIN AR TRES W  DIS CAZ7
 BAR2 SZ EP        724 50.09                             172   -0.0610 20.2 201 
 BAR2 SZ ES        725  5.68                             172    0.0210 20.2 201 
 BAR2 SZ I         725  6.19        10.7 0.24                          20.2 201 
 BRR  HZ EP        724 52.23                             151    0.2710 76.0 300 
 BRR  HN ES   1    725  9.04                             151    0.14 7 76.0 300 
 BRR  HZ I         725 10.80        12.6 0.13                          76.0 300 
 PAM  SZ EP   1    724 53.25                             151    0.42 7 78.7  36 
 PAM  SE ES   1    725 10.40                             151   -0.04 7 78.7  36 
 RUS  HZ EP        724 53.94                             146   -0.0310 96.3 178 
 RUS  HE ES   1    725 12.21                             146   -0.26 7 96.3 178 
 RUS  HZ I         725 13.98         4.1 0.42                          96.3 178 
 OCA  SZ EP   1    724 58.75                             129   -0.44 7  165 352 
 OCA  SZ ES   1    725 21.56                             129   -0.20 7  165 352 
 OCA  SZ I         725 25.26         5.9 0.16                           165 352 
 ZAR  HN ES   1    725 29.01                             122   -0.13 6  209 293 
 ZAR  HZ I         725 34.30         6.5 0.29                           209 293 
                                                                                
