 2013  4 8 0710 53.6 L   6.725 -73.215148.3  RSN  4 0.3 1.4LRSN                1
 GAP=168        0.68       5.4     5.5  6.9  0.1501E+02 -0.2731E+01 -0.1817E+01E
 Epicentro: VILLANUEVA - SANTANDER                                             3
 ACTION:UPD 13-05-22 14:36 OP:EP   STATUS:               ID:20130408071053 L   I
 2013-04-08-0708-51M.COL___215                                                 6
 STAT SP IPHASW D HRMM SECON CODA AMPLIT PERI AZIMU VELO AIN AR TRES W  DIS CAZ7
 GIR2 SZ EP   2    711 13.14                             164   -0.70 5 39.2   3 
 BRR  HZ EP        711 14.92                             154   -0.0310 69.3 308 
 BRR  HZ I         711 15.10         3.3 0.26            150           69.3 308 
 BRR  HN ES        711 31.78                             154    0.2010 69.3 308 
 RUS  HZ EP        711 17.55                             146    0.4310 93.2 171 
 RUS  HN ES        711 35.21                             146   -0.2310 93.2 171 
 PTB  HZ EP        711 19.88                             135   -0.13 9  139 262 
 PTB  HN ES        711 40.50                             135   -0.09 9  139 262 
 PTB  HN I         711 46.25         4.3 0.48            130            139 262 
                                                                                
