 2010  9 8 0926 55.9 L   7.583 -73.214123.4  RSN  6 0.3 1.6LRSN                1
 GAP=125        0.86       5.2     8.4  9.9 -0.1852E+02 -0.2984E+01  0.9411E+01E
 Epicentro: EL PLAYON - SANTANDER                                              3
 ACTION:UP  11-02-18 11:01 OP:tino STATUS:               ID:20100908092655 L   I
 2010-09-08-0925-09S.COL___120                                                 6
 STAT SP IPHASW D HRMM SECON CODA AMPLIT PERI AZIMU VELO SNR AR TRES W  DIS CAZ7
 GUE  SZ EP        927 13.98                             160     0.410   42  49 
 GUE  SZ I         927 14.76         6.5 0.12                            42  49 
 GRA  SZ EP        927 13.63                             154    -0.410   56  54 
 GRA  SZ ES   1    927 28.03                             154    -0.1 7   56  54 
 GRA  SZ I         927 29.40        18.4 0.42                            56  54 
 OCA  SZ EP        927 15.25                             147     0.210   73 351 
 OCA  SZ I         927 33.27        12.9 0.49                            73 351 
 BRR  HZ EP        927 14.62                             146    -0.410   76 226 
 BRR  HN ES   1    927 30.06                             146     0.2 7   76 226 
 BRR  HZ I         927 32.33         9.5 0.07                            76 226 
 BAR2 SZ EP   2    927 17.93                             136     0.0 5  110 178 
 BAR2 SZ I         927 35.84        18.1 0.71                           110 178 
 RUS  HZ EP   1    927 26.06                             120     0.2 7  187 176 
 RUS  HE ES   1    927 49.20                             120     0.0 7  187 176 
 RUS  HZ I         927 52.22         1.8 0.53                           187 176 
                                                                                
