 2013  3 8 0259  9.2 L   6.748 -73.131144.7  RSN  5 0.3 1.7LRSN                1
 GAP=141        0.84       5.4     5.1  6.6  0.5860E+01 -0.2626E+01 -0.5077E+01E
 Epicentro: LOS SANTOS - SANTANDER                                             3
 ACTION:UPD 13-04-09 14:00 OP:ep   STATUS:               ID:20130308025914 L   I
 2013-03-08-0258-50M.COL___200                                                 6
 STAT SP IPHASW D HRMM SECON CODA AMPLIT PERI AZIMU VELO AIN AR TRES W  DIS CAZ7
 BAR2 SZ EP        259 28.54                             173   -0.0210 18.1 198 
 BAR2 SZ ES        259 43.08                             173   -0.6210 18.1 198 
 BAR2 SZ I         259 44.43        12.5 0.18            174           18.1 198 
 BRR  HZ EP   1    259 30.68                             151    0.24 7 75.5 302 
 BRR  HN ES        259 47.45                             151    0.4110 75.5 302 
 BRR  HN I         259 47.90        25.3 0.18            151           75.5 302 
 BRR  HZ I         259 49.40         6.3 0.16                          75.5 302 
 PAM  SZ EP        259 31.49                             149    0.0210 81.0  36 
 PAM  SZ I         259 31.79         6.6 0.26            149           81.0  36 
 RUS  HZ EP        259 32.46                             145    0.0810 94.7 177 
 RUS  HN ES        259 50.87                             145    0.3710 94.7 177 
 PTB  HZ EP        259 35.70                             132   -0.38 9  148 261 
 PTB  HN ES        259 57.06                             132   -0.03 9  148 261 
                                                                                
