 2015 10 8 0856 31.2 L   6.781 -73.107155.1  RSN  8 0.4 1.5LRSN                1
 GAP=142        0.86       3.4     5.2  6.6  0.3814E+00  0.2054E+01 -0.5634E+01E
 Epicentro: LOS SANTOS - SANTANDER                                             3
 ACTION:UPD 15-12-22 20:38 OP:cam  STATUS:               ID:20151008085631 L   I
 OLDACT:DUP 15-10-08 20:34 OP:spq  STATUS:               ID:20151008084748d    3
 2015-10-08-0847-47M.COL___333                                                 6
 STAT SP IPHASW D HRMM SECON CODA AMPLIT PERI AZIMU VELO AIN AR TRES W  DIS CAZ7
 BAR2 EZ EP        856 51.73                             171   -0.2110 22.5 202 
 BAR2 EZ ES   1    857  7.54                             171   -0.57 7 22.5 202 
 BAR2 EZ I         857  8.37         3.5 0.48            170           22.5 202 
 BRR  HZ EP        856 53.69                             153    0.0710 75.9 298 
 BRR  HN ES        857 11.76                             153    0.6510 75.9 298 
 BRR  HZ I         857 17.64         6.2 0.22            150           75.9 298 
 PAM  EZ EP        856 54.65                             153    0.2910 76.4  36 
 RUS  HN ES   1    857 14.50                             146   -0.35 7 98.3 178 
 RUS  HZ I         857 15.52         1.7 0.24            151           98.3 178 
 OCA  HE ES        857 23.17                             131   -0.16 9  163 352 
 OCA  HZ I         857 28.09         7.2 0.34            132            163 352 
 SPBC HZ EP   1    857  0.64                             131    0.11 7  164 221 
 SPBC HE ES        857 23.74                             131    0.33 9  164 221 
 SPBC HZ I         857 27.80         3.0 0.36            133            164 221 
 ZAR  HZ EP        857  4.56                             124   -0.19 8  209 292 
 ZAR  HE ES        857 30.27                             124   -0.64 8  209 292 
 ZAR  HZ I         857 35.83         3.1 0.24            124            209 292 
 SML  HZ EP        857  8.76                             119    0.00 8  247 335 
 SML  HE ES   1    857 38.37                             119    0.32 6  247 335 
 SML  HZ I         857 43.14         3.0 0.20            120            247 335 
                                                                                
