 2012 11 8 0559  6.6 L   5.899 -74.217 76.6  RSN  3 0.2 1.3LRSN                1
 GAP=179        0.46       3.5     4.0  9.0  0.9437E+01  0.1716E+02  0.2284E+02E
 Epicentro: FLORIAN - SANTANDER                                                3
 ACTION:UPD 12-12-05 15:32 OP:}ep  STATUS:               ID:20121108055906 L   I
 2012-11-08-0558-11M.COL___196                                                 6
 STAT SP IPHASW D HRMM SECON CODA AMPLIT PERI AZIMU VELO AIN AR TRES W  DIS CAZ7
 PTB  HZ EP        559 21.34                             131    0.0410 75.6 340 
 PTB  HE ES        559 32.76                             131   -0.0410 75.6 340 
 PTB  HN I         559 35.79         7.4 0.32                          75.6 340 
 HEL  HZ IP     C  559 29.74                             111    0.18 9  149 283 
 HEL  HE ES   1    559 47.31                             111   -0.18 7  149 283 
 HEL  HZ I         559 50.78         2.4 0.34                           149 283 
 CHI  HZ EP   1    559 29.44                             111   -0.35 7  150 159 
 CHI  HN ES   1    559 48.11                             111    0.20 7  150 159 
 CHI  HN I         559 53.07         5.4 0.32                           150 159 
                                                                                
