 2013  6 8 0417 33.6 L   6.831 -73.146147.1  RSN 16 0.5 2.8LRSN                1
 GAP= 65        0.95       3.0     3.1  5.6  0.1465E+01  0.2003E+01  0.2229E+01E
 Epicentro: LOS SANTOS - SANTANDER                                             3
 ACTION:UPD 14-01-08 09:53 OP:ep   STATUS:               ID:20130608041733 L   I
 OLDACT:UP  13-06-08 08:09 OP:mh   STATUS:               ID:20130608041000     3
 OLDACT:UP  13-06-08 08:09 OP:mh   STATUS:               ID:20130608041000     3
 OLDACT:REG 13-06-08 06:56 OP:mh   STATUS:               ID:20130608041000     3
 2013-06-08-0410-00M.COL___257                                                 6
 STAT SP IPHASW D HRMM SECON CODA AMPLIT PERI AZIMU VELO AIN AR TRES W  DIS CAZ7
 BAR2 SZ IP     C  417 53.48                             169    0.0310 26.7 189 
 BAR2 SZ ES   1    418  8.49                             169   -0.45 7 26.7 189 
 BAR2 SZ I         418 10.03        90.9 0.18            169           26.7 189 
 BRR  HZ IP     C  417 55.34                             153    0.5410 69.6 296 
 BRR  HN ES        418 12.25                             153    0.9210 69.6 296 
 BRR  HN I         418 15.23       154.1 0.26            152           69.6 296 
 PAM  SZ EP   1    417 56.46                             152    0.66 7 74.8  41 
 PAM  SN ES   2    418 13.10                             152   -0.02 5 74.8  41 
 PAM  SN I         418 14.80        76.9 0.26            155           74.8  41 
 RUS  HZ IP     D  417 57.49                             143   -0.2310  104 176 
 RUS  HN ES   1    418 16.55                             143    0.02 7  104 176 
 RUS  HN I         418 17.76        84.8 0.40            144            104 176 
 PTB  HZ EP   1    417 60.00                             132   -0.73 7  148 258 
 PTB  HN ES   1    418 21.09                             132   -0.80 7  148 258 
 PTB  HN I         418 26.14        71.4 0.54            132            148 258 
 TAM  HZ EP     D  418  1.91                             131    0.45 9  156 106 
 TAM  HN ES        418 22.64                             131   -0.56 9  156 106 
 TAM  HN I         418 24.22        47.3 0.38            134            156 106 
 OCA  HZ EP        418  1.65                             131   -0.04 9  157 353 
 OCA  HN ES   1    418 22.80                             131   -0.81 7  157 353 
 OCA  HN I         418 26.78       129.2 0.28            132            157 353 
 YOP  SN EP   1    418  3.90                             126   -0.13 7  182 154 
 YOP  SE ES   1    418 28.17                             126    0.40 7  182 154 
 YOP  SE I         418 31.70        36.3 0.58            128            182 154 
 ZAR  HZ EP   1    418  6.27                             123    0.28 6  203 291 
 ZAR  HN ES   1    418 30.59                             123   -0.67 6  203 291 
 ZAR  HN I         418 38.44        67.5 0.20            123            203 291 
 NOR  HZ EP        418  9.68                             119    0.07 8  237 234 
 NOR  HN ES   1    418 38.19                             119    0.49 6  237 234 
 SML  HZ EP   1    418  9.66                             118   -0.30 6  241 335 
 SML  HN ES   1    418 38.07                             118   -0.26 6  241 335 
 SML  HN I         418 44.99        98.8 0.30            119            241 335 
 CHI  HZ EP   1    418 11.77                             117    0.05 6  252 195 
 CHI  HN ES   1    418 40.97                             117   -0.48 6  252 195 
 CHI  HN I         418 43.70        67.9 0.62            118            252 195 
 ROSC BZ EP   4    418 13.72                             117    1.62 0  256 211 
 ROSC BN ES   4    418 43.60                             117    1.47 0  256 211 
 HEL  HZ EP   4    418 15.13                             115    1.17 0  273 255 
 HEL  HN ES   1    418 45.53                             115    0.08 6  273 255 
 HEL  HN I         418 51.61        22.8 0.40            115            273 255 
 GUY2CHZ EP   1    418 17.63                             112    0.15 5  303 234 
 GUY2CHN ES   4    418 53.68                             112    1.97 0  303 234 
 GUY2CHN I         419  5.01        23.9 0.64                           303 234 
 VIL  SZ EP   1    418 17.56                             112    0.12 5  307 191 
 VIL  SN ES   4    418 50.39                             112   -1.26 0  307 191 
 VIL  SN I         418 56.98        84.0 0.64            113            307 191 
 PRA  HZ EP   1    418 27.41                             107   -0.09 4  395 209 
 PRA  HN ES   2    419  8.95                             107   -0.60 3  395 209 
 PRA  HN I         419 15.27        19.9 0.32            107            395 209 
                                                                                
