 2017  6 8 0515 52.6 L   6.851 -73.066148.0  RSN  5 0.4 1.1LRSN                1
 GAP=249        0.80       6.7     7.4  7.4  0.2784E+02 -0.4340E+01  0.6669E+00E
 Epicentro: LOS SANTOS - SANTANDER                                             3
 ACTION:UPD 17-09-14 16:50 OP:jn   STATUS:               ID:20170608051552 L   I
 OLDACT:UP  17-06-08 17:57 OP:cog  STATUS:               ID:20170608050732     3
 OLDACT:UP  17-06-08 17:57 OP:cog  STATUS:               ID:20170608050732     3
 OLDACT:REG 17-06-08 13:07 OP:edw  STATUS:               ID:20170608050732     3
 2017-06-08-0508-00M.COL___359                                                 6
 STAT SP IPHASW D HRMM SECON CODA AMPLIT PERI AZIMU VELO AIN AR TRES W  DIS CAZ7
 BRR  HZ EP        516 14.42                             151    0.1010 76.8 292 
 BRR  HN ES        516 31.34                             151    0.0910 76.8 292 
 BRR  HZ I         516 38.30         3.4 0.44            152           76.8 292 
 RUS  HZ EP        516 17.02                             143    0.0510  106 181 
 RUS  HN ES        516 35.92                             143   -0.0510  106 181 
 RUS  HZ I         516 39.60         0.8 0.18            148            106 181 
 PTB  HZ EP        516 19.88                             131   -0.77 9  158 257 
 PTB  HE ES        516 42.69                             131    0.17 9  158 257 
 PTB  HZ I         516 48.42         2.1 0.22            134            158 257 
 SPBC HZ EP        516 22.53                             128    0.31 9  173 220 
 SPBC HN ES   4    516 43.71                             128   -1.61 0  173 220 
 ZAR  HZ EP   3    516 27.19                             122    1.35 2  210 290 
                                                                                
