 2016  1 8 0139 21.9 L   6.796 -73.132146.3  RSN 13 0.4 1.9LRSN                1
 GAP=138        1.01       3.5     3.7  5.4 -0.1315E+01  0.5624E+01  0.4817E+01E
 Epicentro: LOS SANTOS - SANTANDER                                             3
 ACTION:UPD 16-03-09 23:23 OP:cam  STATUS:               ID:20160108013921 L   I
 OLDACT:REG 16-01-08 12:23 OP:drio STATUS:               ID:20160108013742     3
 2016-01-08-0137-42M.COL___306                                                 6
 STAT SP IPHASW D HRMM SECON CODA AMPLIT PERI AZIMU VELO AIN AR TRES W  DIS CAZ7
 BAR2 EZ EP        139 41.59                             171    0.0210 23.2 194 
 BAR2 EZ ES        139 56.32                             171   -0.6110 23.2 194 
 BAR2 EZ I         140  0.73        10.1 0.18            168           23.2 194 
 BRR  HZ EP        139 43.41                             152    0.2410 72.8 298 
 BRR  HE ES        140  0.84                             152    1.0610 72.8 298 
 BRR  HZ I         140  3.98        10.8 0.20            151           72.8 298 
 PAM  EZ EP        139 44.36                             151    0.2510 76.8  38 
 PAM  EE ES        140  1.39                             151   -0.0710 76.8  38 
 PAM  EZ I         140  3.64        11.9 0.58            157           76.8  38 
 RUS  HZ EP        139 45.54                             144   -0.1010  100 177 
 RUS  HN ES        140  4.27                             144    0.0910  100 177 
 RUS  HZ I         140  5.83         5.4 0.32            145            100 177 
 PTB  HZ EP        139 48.37                             132   -0.64 9  149 259 
 PTB  HN ES        140  9.54                             132   -0.65 9  149 259 
 PTB  HZ I         140 15.38         8.9 0.26            132            149 259 
 SPBC HZ EP        139 50.37                             129   -0.10 9  164 220 
 SPBC HN ES        140 12.47                             129   -0.31 9  164 220 
 SPBC HZ I         140 15.06        15.9 0.26            130            164 220 
 ZAR  HZ EP        139 54.18                             122   -0.34 8  206 292 
 ZAR  HE ES        140 19.84                             122   -0.14 8  206 292 
 ZAR  HZ I         140 25.97        12.1 0.36            124            206 292 
 NOR  HZ EP        139 57.82                             118    0.08 8  236 235 
 NOR  HE ES        140 25.79                             118    0.07 8  236 235 
 NOR  HZ I         140 30.87         7.9 0.22            120            236 235 
 CHI  HZ EP        139 59.74                             117    0.14 8  249 196 
 CHI  HN ES        140 29.32                             117    0.29 8  249 196 
 CHI  HZ I         140 36.69         2.3 0.36            119            249 196 
 HEL  HZ EP   4    140  3.55                             115    1.28 0  273 256 
 HEL  HE ES        140 33.97                             115    0.20 8  273 256 
 HEL  HZ I         140 40.27         5.9 0.32            116            273 256 
 GUY2CHZ EP   4    140  6.63                             112    1.01 0  302 235 
 GUY2CHE ES        140 40.12                             112    0.38 7  302 235 
 GUY2CHZ I         140 48.48         7.8 0.72                           302 235 
 PRA  HZ EP        140 15.99                             107    0.53 6  392 210 
 PRA  HN ES   4    140 56.20                             107   -1.05 0  392 210 
 PRA  HZ I         141  5.91         3.6 0.66            108            392 210 
 ORTC HZ EP        140 15.34                             106   -0.53 6  396 216 
 ORTC HE ES        140 58.77                             106    0.77 6  396 216 
 ORTC HZ I         141  3.62         2.1 0.52            108            396 216 
                                                                                
