 2013  3 8 0249 52.2 L   6.792 -73.130151.6  RSN  6 0.6 1.8LRSN                1
 GAP=239        1.50       8.2    10.3 12.0  0.4699E+02  0.1559E-02  0.5143E+01E
 Epicentro: LOS SANTOS - SANTANDER                                             3
 ACTION:UPD 13-04-09 14:00 OP:ep   STATUS:               ID:20130308024952 L   I
 2013-03-08-0248-49M.COL___200                                                 6
 STAT SP IPHASW D HRMM SECON CODA AMPLIT PERI AZIMU VELO AIN AR TRES W  DIS CAZ7
 BAR2 SZ EP        250 12.39                             171   -0.1210 22.8 195 
 BAR2 SZ I         250 30.31        13.3 0.30            169           22.8 195 
 BRR  HZ IP     D  250 14.39                             153    0.3110 73.2 299 
 BRR  HZ I         250 14.56         9.2 0.20            157           73.2 299 
 BRR  HN ES        250 31.63                             153    0.4710 73.2 299 
 BRR  HE I         250 32.55        22.0 0.28            157           73.2 299 
 RUS  HZ EP        250 16.50                             145    0.0510 99.5 177 
 RUS  HN ES        250 34.91                             145   -0.4610 99.5 177 
 RUS  HN I         250 36.51         6.9 0.16            145           99.5 177 
 PTB  HZ EP        250 19.41                             133   -0.37 9  149 259 
 PTB  HN ES        250 40.22                             133   -1.08 9  149 259 
 ZAR  HZ EP        250 24.55                             123   -0.67 8  206 292 
 ZAR  HN ES        250 51.95                             123    0.96 8  206 292 
 CHI  HZ EP        250 30.32                             118    0.15 8  248 196 
 CHI  HN ES        251  0.94                             118    1.14 8  248 196 
 CHI  HN I         251  2.21         4.9 0.28            119            248 196 
                                                                                
