 2013  4 8 0414 37.5 L   6.810 -73.158144.1  RSN 14 0.5 2.4LRSN                1
 GAP= 70        1.28       3.3     4.2  5.9 -0.2522E+01  0.1465E-01  0.2399E+00E
 Epicentro: LOS SANTOS - SANTANDER                                             3
 ACTION:UPD 13-05-22 14:36 OP:EP   STATUS:               ID:20130408041437 L   I
 2013-04-08-0408-42M.COL___217                                                 6
 STAT SP IPHASW D HRMM SECON CODA AMPLIT PERI AZIMU VELO AIN AR TRES W  DIS CAZ7
 BAR2 SZ IP     D  414 57.21                             170    0.2410 24.3 186 
 BAR2 SZ ES        415 11.15                             170   -0.9810 24.3 186 
 BAR2 SZ I         415 13.11        75.2 0.22            170           24.3 186 
 GIR2 SZ EP        414 57.34                             168    0.3810 30.0 352 
 GIR2 SZ ES        415 12.04                             168   -0.0810 30.0 352 
 GIR2 SZ I         415 13.75        26.9 0.12            168           30.0 352 
 BRR  HZ IP     C  414 59.06                             153    0.6710 69.5 298 
 BRR  HN ES        415 15.94                             153    1.2710 69.5 298 
 BRR  HN I         415 16.72        80.4 0.34            152           69.5 298 
 RUS  HZ EP        415  1.03                             143   -0.1710  102 175 
 RUS  HE ES        415 19.90                             143    0.2410  102 175 
 RUS  HN I         415 21.27        23.8 0.22            143            102 175 
 PTB  HZ EP        415  3.86                             132   -0.39 9  147 258 
 PTB  HN ES        415 24.40                             132   -0.70 9  147 258 
 PTB  HE I         415 26.81        48.0 0.20            132            147 258 
 CAPV BZ IP     D  415  5.22                             131    0.45 9  149  39 
 CAPV BZ ES        415 25.89                             131   -0.14 9  149  39 
 TAM  HZ IP     D  415  5.48                             130    0.27 9  157 105 
 TAM  HZ I         415  5.62        33.4 0.20            131            157 105 
 TAM  HN ES        415 26.64                             130   -0.17 9  157 105 
 OCA  HZ EP        415  5.66                             129    0.08 9  159 354 
 OCA  HN ES        415 26.93                             129   -0.54 9  159 354 
 OCA  HN I         415 32.32        92.7 0.24            130            159 354 
 SML  HZ EP        415 13.71                             117   -0.17 8  242 335 
 SML  HN ES   2    415 41.99                             117   -0.25 4  242 335 
 CHI  HZ EP   2    415 15.57                             117    0.36 4  249 195 
 CHI  HN ES        415 44.10                             117   -0.50 8  249 195 
 CHI  HN I         415 49.34         9.4 0.36            117            249 195 
 ROSC BN ES        415 45.69                             116    0.42 8  253 211 
 SDV  BN EP        415 26.91                             108   -0.62 6  361  50 
 PRA  HZ EP        415 31.77                             106    0.75 6  392 209 
 PRA  HN ES        416 12.33                             106   -0.42 6  392 209 
 PRA  HE I         416 18.33         9.0 0.34            106            392 209 
 SJC  HZ EP        415 31.87                             105   -0.96 6  408 327 
                                                                                
