 2011  1 8 0723 27.2 L   6.771 -73.060148.4  RSN  6 0.5 1.7LRSN                1
 GAP=207        0.70       4.7     9.1 10.5 -0.1877E+02  0.2780E+02  0.2150E+01E
 Epicentro: LOS SANTOS - SANTANDER                                             3
 ACTION:UP  11-02-08 08:39 OP:pat  STATUS:               ID:20110108072327 L   I
 2011-01-08-0720-00M.COL___136                                                 6
 STAT SP IPHASW D HRMM SECON CODA AMPLIT PERI AZIMU VELO SNR AR TRES W  DIS CAZ7
 BAR2 SZ EP   1    723 47.06                             170    -0.1 7   24 215 
 BAR2 SZ ES   2    724  2.59                             170    -0.1 5   24 215 
 BAR2 SZ I         724  5.79         9.5 0.39                            24 215 
 OCA  SZ EP   1    723 55.72                             129    -0.4 7  165 350 
 OCA  SZ ES   1    724 19.06                             129     0.4 7  165 350 
 OCA  SZ I         724 22.36         8.4 0.40                           165 350 
 NOR  SZ EP   2    724  3.16                             118    -0.6 4  241 237 
 NOR  SN ES   2    724 31.35                             118    -0.9 4  241 237 
 CHI  HZ EP   2    724  5.68                             118     0.7 4  248 197 
 CHI  HE ES   2    724 34.84                             118     0.4 4  248 197 
 CHI  HZ I         724 40.49         2.3 0.25                           248 197 
 HEL  HZ EP   2    724  8.60                             115     0.1 4  281 257 
 HEL  HN ES   2    724 41.32                             115     0.7 4  281 257 
 HEL  HZ I         724 46.98         2.2 0.43                           281 257 
 RREF HE ES   2    724 50.91                             111     0.3 3  327 231 
 RREF HZ I         724 56.64         2.6 0.55                           327 231 
                                                                                
