 2017  9 8 0018 32.6 L   6.767 -73.109141.5  RSN  5 0.3 1.4LRSN                1
 GAP=143        0.55       3.1     3.1  5.5  0.1317E+01  0.3139E+01 -0.1806E+01E
 Epicentro: LOS SANTOS - SANTANDER                                             3
 ACTION:UPD 17-10-05 19:10 OP:rebc STATUS:               ID:20170908001832 L   I
 OLDACT:DUP 17-09-08 13:46 OP:dnl  STATUS:               ID:20170908000739d    3
 2017-09-08-0008-00M.COL___423                                                 6
 STAT SP IPHASW D HRMM SECON CODA AMPLIT PERI AZIMU VELO AIN AR TRES W  DIS CAZ7
 BAR2 EZ EP   2    018 51.43                             171   -0.20 5 20.9 203 
 BAR2 EZ ES   2    019  5.56                             171   -0.94 5 20.9 203 
 BAR2 EZ I         019  7.51         6.4 0.26            172           20.9 203 
 BRR  HZ EP        018 53.44                             150   -0.1210 76.5 299 
 BRR  HN ES        019 10.13                             150    0.1910 76.5 299 
 BRR  HZ I         019 12.22        12.3 0.52            150           76.5 299 
 PAM  EZ EP        018 54.38                             150    0.0310 77.8  36 
 PAM  EE ES        019 11.40                             150    0.0610 77.8  36 
 PAM  EZ I         019 13.49         3.6 0.38            151           77.8  36 
 RUS  HZ EP   2    018 55.63                             144    0.02 5 96.7 178 
 RUS  HN ES        019 13.77                             144    0.1810 96.7 178 
 RUS  HZ I         019 14.60         1.7 0.26            147           96.7 178 
 ZAR  HN ES        019 30.69                             121   -0.09 8  209 293 
 ZAR  HZ I         019 33.03         2.3 0.16            122            209 293 
                                                                                
