 2010  8 8 0523 47.1 L   6.789 -73.108145.4  RSN  5 0.2 1.2LRSN                1
 GAP=163        0.53       3.0     6.2  6.7 -0.1642E+01 -0.1471E+02 -0.3357E+01E
 Epicentro: LOS SANTOS - SANTANDER                                             3
 ACTION:UP  10-09-07 10:53 OP:vdl  STATUS:               ID:20100808052347 L   I
 2010-08-08-0523-03S.COL___124                                                 6
 STAT SP IPHASW D HRMM SECON CODA AMPLIT PERI AZIMU VELO SNR AR TRES W  DIS CAZ7
 BAR2 SZ EP        524  6.55                             170    -0.210   23 201 
 BAR2 SZ I         524  6.81         3.8 0.23                            23 201 
 BRR  HZ EP        524  8.45                             151    -0.110   75 298 
 BRR  HE ES   1    524 25.27                             151     0.1 7   75 298 
 BRR  HZ I         524 26.34         4.2 0.14                            75 298 
 RUS  HZ EP   1    524 11.18                             144     0.4 7   99 178 
 RUS  HE ES   1    524 29.05                             144    -0.1 7   99 178 
 RUS  HZ I         524 30.05         2.0 0.19                            99 178 
 GUE  SZ EP        524 11.71                             139    -0.110  117  10 
 GRA  SZ EP        524 12.44                             137     0.110  126  15 
 GRA  SZ ES   1    524 32.13                             137     0.1 7  126  15 
                                                                                
