 2014  9 8 0909  5.8 L   6.817 -73.177148.0  RSN  7 0.5 1.6LRSN                1
 GAP=187        1.06       4.4     7.6  9.2 -0.6582E+01 -0.7333E+01  0.4413E+00E
 Epicentro: ZAPATOCA - SANTANDER                                               3
 ACTION:UPD 14-10-03 23:03 OP:nd   STATUS:               ID:20140908090905 L   I
 OLDACT:UP  14-09-08 18:16 OP:mh   STATUS:               ID:20140908090817     3
 OLDACT:REG 14-09-08 13:43 OP:mh   STATUS:               ID:20140908090817     3
 2014-09-08-0908-17M.COL___257                                                 6
 STAT SP IPHASW D HRMM SECON CODA AMPLIT PERI AZIMU VELO AIN AR TRES W  DIS CAZ7
 BAR2 SZ EP        9 9 25.66                             170   -0.1010 24.8 181 
 BAR2 SZ I         9 9 42.45         4.6 0.21            148           24.8 181 
 BRR  HZ EP        9 9 27.35                             154    0.3510 67.3 299 
 BRR  HN ES        9 9 44.12                             154    0.6010 67.3 299 
 BRR  HZ I         9 9 47.07         4.8 0.44            161           67.3 299 
 PTB  HZ EP        9 9 32.26                             133   -0.45 9  145 258 
 PTB  HN ES   1    9 9 53.08                             133   -0.60 7  145 258 
 PTB  HZ I         9 9 56.93         3.1 0.09            139            145 258 
 OCA  HN ES        9 9 55.82                             131   -0.34 9  158 354 
 OCA  HZ I         9 9 58.29         3.6 0.31            161            158 354 
 SPBC HZ EP   1    9 9 35.03                             130    0.60 7  162 218 
 SPBC HN ES        9 9 56.33                             130   -0.41 9  162 218 
 SPBC HZ I         911 18.91         9.3 0.22            129            162 218 
 ZAR  HZ EP        9 9 38.74                             124    0.72 9  200 292 
 ZAR  HN ES        910  3.25                             124    0.12 9  200 292 
 SML  HZ EP        9 9 41.94                             118   -0.30 8  241 336 
 SML  HN ES   1    910 10.03                             118   -0.62 6  241 336 
 SML  HZ I         910 15.09         6.5 0.10            142            241 336 
 SJC  HZ EP   4    9 9 59.94                             106   -1.12 0  406 327 
 SJC  HN ES   4    910 40.73                             106   -3.42 0  406 327 
                                                                                
