 2013  8 8 0327 31.2 L   6.787 -73.119149.9  RSN  7 0.4 1.1LRSN                1
 GAP=141        0.92       4.1     5.1  6.7 -0.1290E+00  0.8609E+01  0.3332E+01E
 Epicentro: LOS SANTOS - SANTANDER                                             3
 ACTION:UPD 14-01-14 09:00 OP:ep   STATUS:               ID:20130808032731 L   I
 OLDACT:REG 13-08-08 07:19 OP:jn   STATUS:               ID:20130808031959     3
 2013-08-08-0319-59M.COL___269                                                 6
 STAT SP IPHASW D HRMM SECON CODA AMPLIT PERI AZIMU VELO AIN AR TRES W  DIS CAZ7
 BAR2 SZ EP        327 51.40                             171    0.0510 22.7 198 
 BAR2 SZ ES        328  6.99                             171   -0.0510 22.7 198 
 BAR2 SZ I         328  9.15         2.5 0.35            168           22.7 198 
 BRR  HZ EP        327 53.48                             152    0.4610 74.5 298 
 BRR  HN ES        328 10.65                             152    0.6410 74.5 298 
 BRR  HZ I         328 14.38         3.4 0.14            150           74.5 298 
 PAM  SN ES        328 11.24                             152   -0.2510 76.6  37 
 RUS  HZ EP        327 55.35                             145    0.0610 99.0 178 
 RUS  HN ES        328 13.80                             145   -0.2410 99.0 178 
 RUS  HZ I         328 15.04         0.9 0.44            147           99.0 178 
 PTB  HZ EP   1    327 58.48                             132   -0.31 7  150 260 
 PTB  HN ES        328 19.63                             132   -0.64 9  150 260 
 PTB  HZ I         328 26.83         3.1 0.44            132            150 260 
 SPBC HZ EP        328  0.32                             130    0.19 9  164 220 
 SPBC HN ES   1    328 22.90                             130    0.23 7  164 220 
 SPBC HZ I         328 25.10         1.6 0.13            130            164 220 
 SML  HN ES   1    328 36.68                             118   -0.66 6  246 335 
                                                                                
