 2011 12 8 0556 52.1 L   6.735 -73.131142.3  RSN 11 0.4 2.5LRSN                1
 GAP=141        0.73       4.3     5.5  5.8 -0.3469E+01  0.6558E+01  0.7391E+01E
 Epicentro: JORDAN - SANTANDER                                                 3
 ACTION:UPD 12-07-13 16:14 OP:ep   STATUS:               ID:20111208055652 L   I
 2011-12-08-0550-00M.COL___170                                                 6
 STAT SP IPHASW D HRMM SECON CODA AMPLIT PERI AZIMU VELO AIN AR TRES W  DIS CAZ7
 BAR2 SZ EP   1    557 11.37                             173    0.13 7 16.7 200 
 BAR2 SZ ES   1    557 25.76                             173   -0.38 7 16.7 200 
 BAR2 SZ I         557 27.55        95.9 0.15                          16.7 200 
 BRR  HZ EP        557 13.19                             150   -0.0310 76.3 303 
 BRR  HN ES   1    557 30.09                             150    0.43 7 76.3 303 
 BRR  HZ I         557 31.06        51.5 0.15                          76.3 303 
 PAM  SZ EP        557 14.16                             149   -0.1310 82.1  35 
 PAM  SZ I         557 14.53        47.4 0.14                          82.1  35 
 RUS  HZ EP   1    557 15.26                             145    0.22 7 93.3 177 
 RUS  HN ES   2    557 32.87                             145   -0.02 5 93.3 177 
 RUS  HZ I         557 34.83        32.4 0.18                          93.3 177 
 NOR  SZ EP   1    557 26.92                             118   -0.46 6  232 236 
 NOR  SN ES   2    557 54.10                             118   -0.75 4  232 236 
 CHI  HZ EP   1    557 28.73                             117   -0.21 6  242 196 
 CHI  HN ES   1    557 58.38                             117    0.74 6  242 196 
 CHI  HZ I         558  5.34         9.0 0.35                           242 196 
 ROSC BZ EP   1    557 29.75                             117    0.25 6  247 212 
 ROSC BZ I         558  7.53        18.7 0.56                           247 212 
 HEL  HZ EP   1    557 32.88                             114    0.71 6  272 257 
 HEL  HN ES   2    558  2.98                             114   -0.41 4  272 257 
 HEL  HZ I         558  9.79        15.5 0.46                           272 257 
 GUY  SZ EP   1    557 36.04                             112    0.49 5  301 236 
 RREF HZ EP   1    557 36.79                             110   -0.96 5  318 231 
 RREF HZ I         558 21.11         9.5 0.35                           318 231 
 PRA  HZ EP   1    557 44.45                             106   -0.46 4  387 210 
 PRA  HZ I         558 34.30        37.4 0.15                           387 210 
                                                                                
