 2017  8 8 0233 36.9 L   6.776 -73.112144.3  RSN  5 0.4 0.8LRSN                1
 GAP=239        0.96       6.2     5.8  8.4  0.7754E+01  0.7502E+01  0.7143E+01E
 Epicentro: LOS SANTOS - SANTANDER                                             3
 ACTION:UPD 17-09-04 20:17 OP:rebc STATUS:               ID:20170808023336 L   I
 OLDACT:UP  17-08-08 14:47 OP:dani STATUS:               ID:20170808022731d    3
 OLDACT:UP  17-08-08 14:47 OP:dani STATUS:               ID:20170808022731d    3
 OLDACT:DUP 17-08-08 14:44 OP:dani STATUS:               ID:20170808022731d    3
 OLDACT:UP  17-08-08 14:43 OP:dani STATUS:               ID:20170808022730     3
 OLDACT:REG 17-08-08 13:02 OP:dani STATUS:               ID:20170808022730     3
 2017-08-08-0228-00M.COL___390                                                 6
 STAT SP IPHASW D HRMM SECON CODA AMPLIT PERI AZIMU VELO AIN AR TRES W  DIS CAZ7
 BAR2 EZ EP        233 56.23                             171   -0.1410 21.8 201 
 BAR2 EZ ES        234 10.96                             171   -0.5610 21.8 201 
 BAR2 EZ I         234 13.20         2.4 0.18            173           21.8 201 
 BRR  HZ EP        233 58.24                             151    0.0410 75.7 299 
 BRR  HE ES        234 15.37                             151    0.5910 75.7 299 
 BRR  HZ I         234 19.24         1.6 0.14            152           75.7 299 
 RUS  HZ EP        234  0.50                             144    0.1510 97.8 178 
 RUS  HN ES        234 18.89                             144    0.2810 97.8 178 
 RUS  HZ I         234 20.82         0.5 0.06            148           97.8 178 
 PTB  HZ EP   3    234  2.64                             131   -1.45 2  151 260 
 PTB  HN ES        234 24.76                             131   -0.49 9  151 260 
 PTB  HZ I         234 26.20         0.9 0.27            134            151 260 
 NOR  HN ES        234 40.90                             118    0.21 8  236 236 
                                                                                
