 2017  3 8 0421 42.5 L   6.812 -73.132146.7  RSN 29 0.5 2.9LRSN                1
 GAP= 66        1.06       2.8     3.0  4.7 -0.6379E+00  0.4576E+01  0.4093E+00E
 Epicentro: LOS SANTOS - SANTANDER                                             3
 ACTION:UPD 17-05-25 18:37 OP:jn   STATUS:               ID:20170308042142 L   I
 OLDACT:UP  17-03-08 17:59 OP:and  STATUS:               ID:20170308041730     3
 OLDACT:UP  17-03-08 17:54 OP:and  STATUS:               ID:20170308041730     3
 OLDACT:UP  17-03-08 17:54 OP:and  STATUS:               ID:20170308041730     3
 OLDACT:UP  17-03-08 17:53 OP:and  STATUS:               ID:20170308041730     3
 OLDACT:UP  17-03-08 17:53 OP:and  STATUS:               ID:20170308041730     3
 OLDACT:UP  17-03-08 17:50 OP:and  STATUS:               ID:20170308041730     3
 OLDACT:UP  17-03-08 17:49 OP:and  STATUS:               ID:20170308041730     3
 OLDACT:UP  17-03-08 17:49 OP:and  STATUS:               ID:20170308041730     3
 OLDACT:UP  17-03-08 17:47 OP:and  STATUS:               ID:20170308041730     3
 OLDACT:UP  17-03-08 17:47 OP:and  STATUS:               ID:20170308041730     3
 OLDACT:UP  17-03-08 17:47 OP:and  STATUS:               ID:20170308041730     3
 OLDACT:UP  17-03-08 17:47 OP:and  STATUS:               ID:20170308041730     3
 OLDACT:UP  17-03-08 17:46 OP:and  STATUS:               ID:20170308041730     3
 OLDACT:UP  17-03-08 17:44 OP:and  STATUS:               ID:20170308041730     3
 OLDACT:UP  17-03-08 17:44 OP:and  STATUS:               ID:20170308041730     3
 OLDACT:REG 17-03-08 12:51 OP:and  STATUS:               ID:20170308041730     3
 2017-03-08-0418-00M.COL___259                                                 6
 STAT SP IPHASW D HRMM SECON CODA AMPLIT PERI AZIMU VELO AIN AR TRES W  DIS CAZ7
 BAR2 EZ IP     D  422  2.16                             170   -0.0710 24.9 193 
 BAR2 EZ ES        422 17.27                             170   -0.3910 24.9 193 
 BAR2 EZ I         422 18.90       190.7 0.28            169           24.9 193 
 BRR  HZ IP     D  422  4.00                             152    0.2510 72.0 297 
 BRR  HN ES   2    422 21.52                             152    1.16 5 72.0 297 
 BRR  HZ I         422 24.49       105.6 0.26            152           72.0 297 
 PAM  EZ EP        422  4.85                             151    0.1910 75.4  39 
 PAM  EN ES        422 21.97                             151   -0.0010 75.4  39 
 PAM  EZ I         422 24.33       124.6 0.23            152           75.4  39 
 RUS  HZ IP     D  422  5.93                             144   -0.4610  102 177 
 RUS  HN ES        422 24.84                             144   -0.2110  102 177 
 RUS  HZ I         422 29.45        71.0 0.25            143            102 177 
 PTB  HZ EP        422  8.71                             132   -0.95 9  150 258 
 PTB  HN ES        422 29.91                             132   -0.97 9  150 258 
 PTB  HZ I         422 37.59       154.5 0.44            131            150 258 
 TAM  HZ IP     D  422 10.30                             131    0.20 9  154 106 
 TAM  HZ I         422 31.18        71.4 0.36            131            154 106 
 TAM  HN ES        422 32.01                             131    0.34 9  154 106 
 SPBC HZ IP     D  422 10.99                             129   -0.22 9  165 219 
 SPBC HN ES        422 34.15                             129    0.50 9  165 219 
 SPBC HZ I         422 35.64       169.4 0.10            128            165 219 
 ZAR  HZ EP        422 14.82                             122   -0.24 9  205 292 
 ZAR  HN ES        422 40.98                             122    0.49 9  205 292 
 ZAR  HZ I         422 46.76       124.4 0.44            122            205 292 
 NOR  HZ EP        422 18.11                             118   -0.34 8  237 234 
 NOR  HN ES        422 47.08                             118    0.55 8  237 234 
 NOR  HZ I         422 49.92        68.0 0.28            118            237 234 
 CHI  HZ EP        422 20.00                             117   -0.38 8  250 195 
 CHI  HN ES        422 50.19                             117    0.22 8  250 195 
 CHI  HZ I         422 58.27        27.9 0.60            117            250 195 
 HEL  HZ EP        422 23.60                             115    0.68 8  274 256 
 HEL  HN ES   4    422 56.67                             115    2.19 0  274 256 
 HEL  HZ I         423  0.92        59.5 0.32            114            274 256 
 URE  HZ EP   9    422 22.00                             113   -1.68 0  285 292 
 URE  HN ES        422 53.40                             114   -0.75 7  285 292 
 URE  HZ I         423  2.97        45.7 0.28            113            285 292 
 GUY2CHZ EP        422 27.26                             112    0.93 7  303 235 
 GUY2CHN ES   4    423  3.90                             112    3.34 0  303 235 
 GUY2CHZ  IAML     423  9.56        63.4 0.21                           303 235 
 VIL  EZ EP        422 25.76                             112   -0.33 7  305 192 
 VIL  EN ES   4    423  1.80                             112    1.67 0  305 192 
 VIL  EZ I         423  5.77        38.6 0.46            112            305 192 
 PTGC HZ IP   9 D  422 25.06                             111   -1.37 0  309 159 
 PTGC HN ES        422 58.53                             112   -0.83 7  309 159 
 PTGC HZ I         423  0.29        22.9 0.24            111            309 159 
 CBOC HZ EP        422 29.91                             110    0.29 7  335 252 
 CBOC HN ES        423  6.98                             110    0.57 7  335 252 
 CBOC HZ I         423 14.34        15.3 0.30            109            335 252 
 DBB  EZ EP        422 29.74                             109   -0.39 7  341 274 
 DBB  EZ ES   3    423  6.05                             109   -1.28 2  341 274 
 DBB  EZ I         423 13.50        17.7 0.20            109            341 274 
 ARGC HZ EP        422 32.63                             108    0.56 6  359 340 
 ARGC HN ES        423 11.49                             108    0.73 6  359 340 
 PRA  HZ EP        422 35.46                             106   -0.77 6  394 210 
 PRA  HN ES        423 18.63                             106    0.46 6  394 210 
 PRA  HZ I         423 26.71        33.3 0.39            106            394 210 
 ORTC HZ EP        422 36.45                             106   -0.18 6  397 216 
 ORTC HN ES        423 19.76                             106    0.87 6  397 216 
 ORTC HZ I         423 26.95        26.0 0.22            106            397 216 
 APAC HZ EP        422 36.19                             106   -0.61 6  399 288 
 APAC HN ES   4    423 18.22                             106   -0.97 0  399 288 
 APAC HZ I         423 22.14        19.3 0.78            106            399 288 
 SJC  HZ EP   3    422 36.44                             106   -1.58 1  409 327 
 SJC  HN ES   4    423 17.62                             106   -3.74 0  409 327 
 SJC  HZ I         423 21.85        13.9 0.48            106            409 327 
 CRJC HZ EP   9    422 42.44                             103   -2.38 0  466   3 
 CRJC HE ES        423 30.94                             103   -0.14 5  466   3 
 CRJC HZ I         423 38.40        21.1 0.22            103            466   3 
 YOT  HZ EP        422 45.14                             103   -0.62 5  474 229 
 YOT  HN ES   4    423 40.65                             103    5.51 0  474 229 
 SMAR HZ EP        422 47.70                             102   -0.54 4  496 346 
 SMAR HN ES   4    423 35.12                             102   -4.44 0  496 346 
 MACC HZ EP   4    422 48.94                             102   -2.43 0  522 189 
 MACC HN ES   4    423 40.44                             102   -4.68 0  522 189 
 MAL  EZ EP        422 56.69                             101    0.91 3  559 237 
 GARC HZ EP   4    422 56.34                             100   -1.61 0  575 207 
 GARC HN ES   4    423 54.29                             100   -2.55 0  575 207 
 GARC HZ I         424  2.09         8.9 0.26            100            575 207 
 POP2 HZ EP   3    423  1.75                              99   -0.97 1  615 220 
 POP2 HN ES        424  5.29                              99   -0.04 3  615 220 
 SOTO HZ EP        423  7.29                              99    0.56 2  645 217 
 SOTO HN ES   4    424 14.12                              99    1.65 0  645 217 
                                                                                
