 2012 11 8 0716 19.6 L   6.805 -73.176147.5  RSN  8 0.4 1.8LRSN                1
 GAP= 77        1.14       4.0     5.0  7.0  0.1902E+01 -0.3884E-01 -0.3507E+01E
 Epicentro: LOS SANTOS - SANTANDER                                             3
 ACTION:UPD 12-12-05 15:32 OP:}ep  STATUS:               ID:20121108071619 L   I
 2012-11-08-0710-00M.COL___230                                                 6
 STAT SP IPHASW D HRMM SECON CODA AMPLIT PERI AZIMU VELO AIN AR TRES W  DIS CAZ7
 BAR2 SZ EP        716 39.64                             171    0.1510 23.6 182 
 BAR2 SZ ES        716 55.07                             171    0.1110 23.6 182 
 BAR2 SZ I         716 57.13         7.9 0.30                          23.6 182 
 BRR  HZ EP        716 41.37                             154    0.5610 68.0 299 
 BRR  HN ES        716 58.11                             154    0.8010 68.0 299 
 BRR  HN I         716 59.09        10.6 0.38                          68.0 299 
 PAM  SZ EP        716 42.47                             151    0.3210 79.1  42 
 PAM  SZ I         716 42.64         5.8 0.18                          79.1  42 
 PAM  SN ES        716 59.37                             151   -0.3310 79.1  42 
 RUS  HZ EP        716 43.80                             144    0.1710  101 174 
 RUS  HE ES        717  1.80                             144   -0.5310  101 174 
 RUS  HN I         717  3.15         6.5 0.18                           101 174 
 PTB  HZ EP        716 46.14                             133   -0.33 9  145 258 
 PTB  HN ES        717  6.94                             133   -0.46 9  145 258 
 PTB  HN I         717 12.44        10.4 0.18                           145 258 
 TAM  HZ EP        716 47.95                             130    0.18 9  158 105 
 TAM  HZ I         716 48.27        10.5 0.42                           158 105 
 OCA  HN ES        717  9.37                             130   -0.75 9  159 354 
 OCA  HN I         717 12.71        15.5 0.26                           159 354 
 SML  HZ EP        716 55.73                             118   -0.43 8  242 336 
 SML  HN ES        717 24.92                             118    0.28 8  242 336 
                                                                                
