 2016  7 8 0747 14.3 L   6.686 -73.549100.8  RSN  4 0.5 1.4LRSN                1
 GAP=228        1.35       5.8     9.8 12.4  0.2501E+01  0.1113E+02  0.1298E+02E
 Epicentro: EL CARMEN - SANTANDER                                              3
 ACTION:UPD 17-03-29 16:48 OP:lp   STATUS:               ID:20160708074714 L   I
 OLDACT:UP  16-07-08 16:47 OP:dani STATUS:               ID:20160708073745d    3
 OLDACT:UP  16-07-08 16:47 OP:dani STATUS:               ID:20160708073745d    3
 OLDACT:DUP 16-07-08 16:44 OP:dani STATUS:               ID:20160708073745d    3
 OLDACT:REG 16-07-08 13:28 OP:dani STATUS:               ID:20160708073744     3
 2016-07-08-0737-44M.COL___335                                                 6
 STAT SP IPHASW D HRMM SECON CODA AMPLIT PERI AZIMU VELO AIN AR TRES W  DIS CAZ7
 BRR  HZ EP        747 28.59                             151   -0.7510 49.9 339 
 BRR  HN ES        747 41.57                             151    0.4510 49.9 339 
 BRR  HZ I         747 42.03        14.2 0.12            151           49.9 339 
 PTB  HZ EP   4    747 32.26                             131   -1.12 0  102 261 
 PTB  HN ES        747 47.51                             131   -0.7910  102 261 
 PTB  HZ I         747 49.05         4.7 0.50            129            102 261 
 SPBC HZ EP        747 36.21                             124    0.1510  128 207 
 SPBC HN ES        747 53.51                             124    0.4310  128 207 
 SPBC HZ I         747 55.72         3.0 0.18            123            128 207 
 ZAR  HZ EP        747 40.49                             115    0.09 9  170 302 
 ZAR  HE ES        748  1.38                             115    0.59 9  170 302 
 ZAR  HZ I         748  4.41         5.3 0.24            115            170 302 
                                                                                
