 2012  9 8 0757  5.5 L   6.710 -73.255150.0  RSN  4 0.2 1.2LRSN                1
 GAP=197        0.42       4.6     4.9  6.6  0.9785E+01  0.7511E+01 -0.1770E+01E
 Epicentro: BARICHARA - SANTANDER                                              3
 ACTION:UPD 12-10-22 14:17 OP:ep   STATUS:               ID:20120908075705 L   I
 2012-09-08-0750-00M.COL___227                                                 6
 STAT SP IPHASW D HRMM SECON CODA AMPLIT PERI AZIMU VELO AIN AR TRES W  DIS CAZ7
 BAR2 SZ ES   2    757 40.81                             174   -0.29 5 15.2 148 
 BAR2 SZ I         757 42.02         4.7 0.23                          15.2 148 
 BRR  HZ EP   1    757 26.70                             155   -0.17 7 67.0 311 
 BRR  HN ES   1    757 43.77                             155    0.22 7 67.0 311 
 BRR  HZ I         757 44.21         4.8 0.14                          67.0 311 
 RUS  HN ES   1    757 47.60                             147    0.10 7 92.3 168 
 RUS  HZ I         757 49.81         1.6 0.38                          92.3 168 
 PTB  HZ EP   2    757 31.83                             136    0.21 5  134 262 
 PTB  HN ES   1    757 51.90                             136   -0.11 7  134 262 
                                                                                
