 2017  7 8 0842  6.1 L   6.738 -73.122150.3  RSN  8 0.3 1.7LRSN                1
 GAP=209        0.80       4.1     3.5  5.0  0.6087E+01  0.1458E+01  0.5259E+01E
 Epicentro: JORDAN - SANTANDER                                                 3
 ACTION:UPD 17-08-30 15:30 OP:rebc STATUS:               ID:20170708084206 L   I
 OLDACT:UP  17-07-08 20:08 OP:edw  STATUS:               ID:20170708083630     3
 OLDACT:UP  17-07-08 20:04 OP:edw  STATUS:               ID:20170708083630     3
 OLDACT:REG 17-07-08 13:33 OP:edw  STATUS:               ID:20170708083630     3
 2017-07-08-0838-00M.COL___356                                                 6
 STAT SP IPHASW D HRMM SECON CODA AMPLIT PERI AZIMU VELO AIN AR TRES W  DIS CAZ7
 BAR2 EZ EP     D  842 26.03                             173   -0.1110 17.5 202 
 BAR2 EZ ES        842 41.45                             173   -0.3510 17.5 202 
 BAR2 EZ I         842 42.73         8.6 0.28            171           17.5 202 
 BRR  HZ EP        842 28.15                             151    0.1210 76.9 302 
 BRR  HE ES        842 45.46                             151    0.2910 76.9 302 
 BRR  HZ I         842 50.58         6.0 0.14            151           76.9 302 
 PTB  HZ EP   9    842 32.93                             132   -0.61 0  149 262 
 PTB  HN ES        842 53.70                             132   -0.66 9  149 262 
 PTB  HZ I         842 58.79         4.0 0.10            133            149 262 
 YPLC HZ EP        842 35.98                             129    0.48 9  170 151 
 YPLC HN ES        842 58.45                             129   -0.01 9  170 151 
 ZAR  HZ EP        842 39.23                             122   -0.10 8  209 294 
 ZAR  HN ES        843  5.28                             122    0.00 8  209 294 
 ZAR  HZ I         843  6.78         4.8 0.22            123            209 294 
 NOR  HZ EP        842 41.75                             119   -0.13 8  233 236 
 NOR  HN ES        843  9.64                             119   -0.18 8  233 236 
 NOR  HZ I         843 15.01         5.6 0.30            120            233 236 
 HEL  HN ES   4    843 19.90                             115    1.64 0  273 257 
 GUY2CHZ EP   4    842 51.15                             113    1.45 0  299 236 
 GUY2CHN ES        843 24.17                             113    0.44 7  299 236 
 GUY2CHZ I         843 32.37         3.2 0.62                           299 236 
 PTGC HZ EP        842 48.76                             113   -0.55 7  301 159 
 PTGC HN ES   4    843 20.34                             113   -2.69 0  301 159 
 SJC  HZ EP   4    843  1.04                             106   -1.58 0  416 327 
 SJC  HN ES   4    843 42.75                             106   -3.98 0  416 327 
                                                                                
