 2017  1 8 0437 11.4 L   6.677 -73.245148.0  RSN  5 0.3 1.2LRSN                1
 GAP=191        0.64       5.4     5.7  8.1  0.1505E+02 -0.3295E+01 -0.6751E+01E
 Epicentro: BARICHARA - SANTANDER                                              3
 ACTION:UPD 17-05-22 15:56 OP:jn   STATUS:               ID:20170108043711 L   I
 OLDACT:UP  17-01-08 15:53 OP:dnl  STATUS:               ID:20170108042750d    3
 OLDACT:UP  17-01-08 15:52 OP:dnl  STATUS:               ID:20170108042750d    3
 OLDACT:DUP 17-01-08 15:47 OP:dnl  STATUS:               ID:20170108042750d    3
 2017-01-08-0428-00M.COL___374                                                 6
 STAT SP IPHASW D HRMM SECON CODA AMPLIT PERI AZIMU VELO AIN AR TRES W  DIS CAZ7
 BAR2 EZ EP   2    437 30.72                             175   -0.44 5 11.7 144 
 BAR2 EZ ES   4    437 43.50                             175   -3.05 0 11.7 144 
 BAR2 EZ I         437 49.18         6.9 0.48            178           11.7 144 
 BRR  HZ EP        437 32.46                             154   -0.3110 70.2 313 
 BRR  HE ES        437 49.70                             154    0.2910 70.2 313 
 BRR  HZ I         437 53.22         3.3 0.44            154           70.2 313 
 RUS  HZ EP   2    437 35.04                             148    0.45 5 88.6 168 
 RUS  HN ES        437 52.67                             148    0.0210 88.6 168 
 RUS  HZ I         437 55.33         1.3 0.30            153           88.6 168 
 PTB  HZ EP   2    437 38.03                             136    0.57 5  135 264 
 PTB  HN ES        437 57.62                             136   -0.1310  135 264 
 PTB  HZ I         437 59.30         1.3 0.16            138            135 264 
 ZAR  HZ EP   4    437 48.36                             124    4.77 0  200 297 
 ZAR  HE ES   4    438  7.82                             124   -0.84 0  200 297 
 ZAR  HZ I         438 13.37         1.6 0.26            126            200 297 
                                                                                
