 2017 12 8 0231 35.4 L   6.828 -73.192135.6  RSN  8 0.6 2.0LRSN                1
 GAP=134        1.32       4.1     5.3  8.5 -0.3311E+01  0.1651E+02  0.2116E+00E
 Epicentro: ZAPATOCA - SANTANDER                                               3
 ACTION:UPD 18-01-04 13:18 OP:rebc STATUS:               ID:20171208023135 L   I
 OLDACT:REG 17-12-08 13:13 OP:dani STATUS:               ID:20171208022741     3
 2017-12-08-0228-00M.COL___491                                                 6
 STAT SP IPHASW D HRMM SECON CODA AMPLIT PERI AZIMU VELO AIN AR TRES W  DIS CAZ7
 BAR2 EZ EP     C  231 53.58                             169   -0.3310 26.1 178 
 BAR2 EZ ES        232  8.40                             169    0.0810 26.1 178 
 BAR2 EZ I         232  9.56        28.0 0.22            170           26.1 178 
 PAM  EZ EP        231 56.57                             148   -0.0810 78.5  44 
 PAM  EE ES        232 13.52                             148    0.3210 78.5  44 
 PAM  EZ I         232 15.86        18.2 0.50            151           78.5  44 
 PTB  HZ EP        232  0.42                             130   -0.76 9  143 257 
 PTB  HN ES        232 21.14                             130   -0.12 9  143 257 
 PTB  HZ I         232 23.19         8.9 0.46            131            143 257 
 OCA  HZ EP        232  3.11                             128    0.49 9  157 355 
 OCA  HE ES        232 23.10                             128   -0.73 9  157 355 
 OCA  HZ I         232 28.04        22.2 0.18            130            157 355 
 SPBC HZ EP        232  2.76                             127   -0.34 9  162 217 
 SPBC HN ES        232 24.38                             127   -0.30 9  162 217 
 SPBC HZ I         232 28.10        13.9 0.16            128            162 217 
 ZAR  HZ EP        232  7.38                             121    0.77 9  198 292 
 ZAR  HN ES        232 32.18                             121    1.25 9  198 292 
 ZAR  HZ I         232 38.54        11.8 0.30            122            198 292 
 CHI  HZ EP        232 12.95                             115    0.17 8  250 194 
 CHI  HN ES        232 42.55                             115    0.64 8  250 194 
 CHI  HZ I         232 47.13         2.1 0.39            117            250 194 
 URE  HZ EP        232 15.25                             112   -0.10 7  278 292 
 URE  HE ES        232 45.72                             112   -0.77 7  278 292 
 URE  HZ I         232 49.02         5.8 0.14            113            278 292 
                                                                                
