 2017 12 8 0945 58.8 L   6.703 -73.610100.3  RSN 10 0.4 1.8LRSN                1
 GAP= 94        0.98       3.0     3.6  6.7 -0.6528E+00  0.5008E+01 -0.3032E+01E
 Epicentro: EL CARMEN - SANTANDER                                              3
 ACTION:UPD 18-01-04 13:18 OP:rebc STATUS:               ID:20171208094558 L   I
 OLDACT:UP  17-12-08 15:40 OP:dnl  STATUS:               ID:20171208093739d    3
 OLDACT:UP  17-12-08 15:39 OP:dnl  STATUS:               ID:20171208093739d    3
 OLDACT:UP  17-12-08 15:39 OP:dnl  STATUS:               ID:20171208093739d    3
 OLDACT:UP  17-12-08 15:38 OP:dnl  STATUS:               ID:20171208093739d    3
 OLDACT:UP  17-12-08 15:38 OP:dnl  STATUS:               ID:20171208093739d    3
 OLDACT:DUP 17-12-08 15:32 OP:dnl  STATUS:               ID:20171208093739d    3
 2017-12-08-0938-00M.COL___464                                                 6
 STAT SP IPHASW D HRMM SECON CODA AMPLIT PERI AZIMU VELO AIN AR TRES W  DIS CAZ7
 BAR2 EZ IP     C  946 14.11                             152    0.0310 48.9 104 
 BAR2 EZ ES        946 26.50                             152    0.4710 48.9 104 
 PTB  HZ EP        946 16.89                             133   -0.3810 95.3 259 
 PTB  HN ES        946 31.25                             133   -0.4510 95.3 259 
 PTB  HZ I         946 35.91        11.7 0.10            130           95.3 259 
 SPBC HZ EP   4    946 22.52                             124    2.11 0  127 204 
 SPBC HE ES        946 37.23                             124   -0.0610  127 204 
 SPBC HZ I         946 43.82        11.6 0.22            121            127 204 
 ZAR  HZ EP   4    946 25.40                             116    1.26 0  163 302 
 ZAR  HN ES   4    946 47.04                             116    3.11 0  163 302 
 ZAR  HZ I         946 48.79        11.3 0.34            117            163 302 
 OCA  HZ EP        946 24.99                             115   -0.41 9  173  11 
 OCA  HN ES        946 46.27                             115    0.10 9  173  11 
 OCA  HZ I         946 47.13        17.1 0.24            117            173  11 
 YPLC HZ EP        946 27.79                             111   -0.39 9  198 137 
 YPLC HE ES   4    946 49.13                             111   -1.99 0  198 137 
 YPLC HZ I         946 53.15         6.6 0.20            112            198 137 
 CHI  HZ EP   4    946 33.94                             107    1.75 0  230 183 
 CHI  HN ES        946 58.25                             107   -0.01 8  230 183 
 CHI  HZ I         947  8.26         1.9 0.46            108            230 183 
 URE  HZ EP        946 33.30                             106    0.17 8  242 299 
 URE  HN ES        947  0.21                             106    0.28 8  242 299 
 URE  HZ I         947  1.60        12.1 0.16            108            242 299 
 GUY2CHZ EP        946 36.16                             105    1.05 8  254 230 
 GUY2CHN ES   4    947  4.80                             105    1.34 0  254 230 
 GUY2CHZ I         947 13.72         2.6 0.48                           254 230 
 PRA  HZ EP   4    946 49.07                              98    1.88 0  359 203 
 PRA  HE ES   4    947 28.66                              98    3.69 0  359 203 
 PRA  HZ I         947 34.91         2.4 0.60            101            359 203 
                                                                                
