 2011  2 8 0930 26.6 L   6.800 -73.324142.0  RSN  4 0.3 1.0LRSN                1
 GAP=220        0.53       5.4    23.3  9.4 -0.7062E+02  0.7307E+02 -0.1889E+02E
 Epicentro: ZAPATOCA - SANTANDER                                               3
 ACTION:UP  11-03-28 15:06 OP:jfem STATUS:               ID:20110208093026 L   I
 2011-02-08-0920-00M.COL___140                                                 6
 STAT SP IPHASW D HRMM SECON CODA AMPLIT PERI AZIMU VELO SNR AR TRES W  DIS CAZ7
 BTL  SZ EP   1    930 45.62                             174     0.0 7   15  26 
 BAR2 SZ EP   1    930 45.66                             168    -0.3 7   28 146 
 BAR2 SZ ES   2    931  1.33                             168     0.4 5   28 146 
 BAR2 SZ I         931  3.46         3.2 0.65                            28 146 
 RUS  HZ EP   1    930 50.16                             142    -0.1 7  104 165 
 RUS  HN ES   2    931  8.71                             142     0.0 5  104 165 
 RUS  HZ I         931  9.37         1.3 0.50                           104 165 
 GRA  SZ EP   1    930 52.55                             134     0.4 7  133  26 
 GRA  SZ ES   2    931 11.75                             134    -0.3 5  133  26 
                                                                                
