 2010  7 8 0539 18.6 L   5.904 -73.667132.1  RSN  4 0.5 1.1LRSN                1
 GAP=267        0.82       9.6    19.8 14.3  0.7806E+02  0.1451E+03  0.7727E+01E
 Epicentro: PUENTE NACIONAL - SANTANDER                                        3
 ACTION:UPD 10-12-01 15:16 OP:pat  STATUS:               ID:20100708053918 L   I
 2010-07-08-0535-53S.COL___116                                                 6
 STAT SP IPHASW D HRMM SECON CODA AMPLIT PERI AZIMU VELO AIN AR TRES W  DIS CAZ7
 RUS  HZ EP   1    539 38.82                             152     0.2 7   65  91 
 RUS  HZ I         539 39.32         1.6 0.32                            65  91 
 RUS  HE ES   2    539 54.71                             152     0.5 5   65  91 
 BAR2 SZ EP   1    539 39.55                             143    -0.6 7   93  35 
 BAR2 SZ ES   2    539 56.20                             143    -0.7 5   93  35 
 BRR  HZ EP   1    539 42.93                             132    -0.2 7  133 358 
 BRR  HZ I         539 46.72         3.3 0.25                           133 358 
 BRR  HE ES   2    540  2.84                             132     0.6 5  133 358 
 GUE  SZ EP   1    539 53.78                             116     0.6 6  228  21 
 GUE  SZ ES   2    540 20.30                             116     0.1 4  228  21 
                                                                                
