 2014 12 8 0631 13.6 L   6.819 -73.170140.0  RSN  6 0.4 1.2LRSN                1
 GAP=133        1.09       5.2     5.3  8.9 -0.7039E+01  0.3046E+01  0.9740E+01E
 Epicentro: LOS SANTOS - SANTANDER                                             3
 ACTION:UPD 15-02-10 17:01 OP:nd   STATUS:               ID:20141208063113 L   I
 OLDACT:ARG 14-12-08 13:49 OP:stll STATUS:               ID:20141208062742     3
 2014-12-08-0627-42M.COL___303                                                 6
 STAT SP IPHASW D HRMM SECON CODA AMPLIT PERI AZIMU VELO AIN AR TRES W  DIS CAZ7
 BAR2 SZ EP        631 32.51                             169   -0.0410 25.1 183 
 BAR2 SZ I         631 50.31         4.6 0.22            171           25.1 183 
 BRR  HZ EP        631 34.70                             153    0.7910 67.8 298 
 BRR  HN ES        631 50.01                             153    0.2410 67.8 298 
 BRR  HZ I         631 56.87         2.8 0.58            152           67.8 298 
 PAM  SZ EP        631 35.40                             150    0.2110 77.5  42 
 PAM  SN ES        631 51.67                             150   -0.3810 77.5  42 
 PAM  SZ I         631 54.72         3.1 0.48            152           77.5  42 
 RUS  HZ EP        631 36.93                             142   -0.0010  103 175 
 RUS  HZ I         631 37.62         1.3 0.22            145            103 175 
 RUS  HN ES        631 55.01                             142   -0.1510  103 175 
 PTB  HZ EP        631 39.27                             131   -0.60 9  146 258 
 PTB  HN ES        631 59.88                             131   -0.51 9  146 258 
 PTB  HZ I         632  6.40         2.2 0.22            132            146 258 
 SPBC HZ EP        631 41.37                             128   -0.26 9  163 218 
 SPBC HN ES        632  4.14                             128    0.62 9  163 218 
 SPBC HZ I         632  8.54         2.9 0.38            129            163 218 
                                                                                
