 2017  9 8 0312 56.6 L   6.785 -73.125150.8  RSN  5 0.4 1.4LRSN                1
 GAP=239        0.97       5.9     7.2  8.4  0.1978E+02  0.6131E+01  0.1872E+00E
 Epicentro: LOS SANTOS - SANTANDER                                             3
 ACTION:UPD 17-10-05 19:10 OP:rebc STATUS:               ID:20170908031256 L   I
 OLDACT:REG 17-09-08 12:49 OP:dnl  STATUS:               ID:20170908030738     3
 2017-09-08-0308-00M.COL___425                                                 6
 STAT SP IPHASW D HRMM SECON CODA AMPLIT PERI AZIMU VELO AIN AR TRES W  DIS CAZ7
 BAR2 EZ EP        313 16.63                             171   -0.1910 22.2 197 
 BAR2 EZ ES        313 31.96                             171   -0.6310 22.2 197 
 BAR2 EZ I         313 35.15         5.1 0.28            167           22.2 197 
 BRR  HZ EP        313 18.42                             152   -0.0410 74.0 299 
 BRR  HE ES        313 36.22                             152    0.7110 74.0 299 
 BRR  HZ I         313 41.99         7.5 0.40            149           74.0 299 
 RUS  HZ EP        313 21.06                             145    0.3310 98.8 177 
 RUS  HN ES        313 39.66                             145    0.1210 98.8 177 
 RUS  HZ I         313 40.43         2.1 0.16            147           98.8 177 
 SPBC HZ EP   2    313 25.36                             130   -0.15 5  163 220 
 SPBC HN ES        313 48.05                             130   -0.01 9  163 220 
 SPBC HZ I         313 53.72         2.4 0.20            130            163 220 
 ZAR  HN ES        313 55.08                             123   -0.38 8  207 292 
 ZAR  HZ I         314  0.66         5.0 0.26            123            207 292 
                                                                                
