 2012  3 8 0826 51.5 L   6.695 -73.206144.4  RSN  4 0.2 0.9LRSN                1
 GAP=222        0.51       5.5     5.6  6.9  0.1910E+02 -0.2773E-01 -0.1549E+01E
 ACTION:UP  12-03-31 23:18 OP:EP   STATUS:               ID:20120308082651 L   I
 2012-03-08-0820-00M.COL___194                                                 6
 STAT SP IPHASW D HRMM SECON CODA AMPLIT PERI AZIMU VELO SNR AR TRES W  DIS CAZ7
 BRR  HZ EP   1    827 12.92                             152     0.3 7   72 309 
 BRR  HZ I         827 17.47         2.3 0.12                            72 309 
 BRR  HE ES   1    827 28.81                             152    -0.2 7   72 309 
 RUS  HZ EP   1    827 14.10                             147    -0.3 7   90 171 
 RUS  HN ES   1    827 32.41                             147     0.2 7   90 171 
 RUS  HZ I         827 34.87         1.0 0.17                            90 171 
 PTB  HZ EP   1    827 17.56                             133    -0.1 7  139 263 
 PTB  HN ES   1    827 37.99                             133     0.0 7  139 263 
 ZAR  HN ES   2    827 48.97                             122     0.1 4  203 296 
                                                                                
