 2016  9 8 0926 33.4 L   6.790 -73.107151.6  RSN 19 0.5 2.2LRSN                1
 GAP=103        1.05       2.7     3.0  4.8 -0.1773E+01  0.4226E+00  0.7740E+00E
 Epicentro: LOS SANTOS - SANTANDER                                             3
 ACTION:UPD 17-08-17 21:08 OP:lp   STATUS:               ID:20160908092633 L   I
 OLDACT:UP  16-09-08 15:41 OP:and  STATUS:               ID:20160908091737     3
 OLDACT:UP  16-09-08 15:39 OP:and  STATUS:               ID:20160908091737     3
 OLDACT:UP  16-09-08 15:23 OP:and  STATUS:               ID:20160908091737     3
 OLDACT:UP  16-09-08 15:12 OP:and  STATUS:               ID:20160908091737     3
 OLDACT:REG 16-09-08 12:46 OP:dani STATUS:               ID:20160908091737     3
 2016-09-08-0918-00M.COL___344                                                 6
 STAT SP IPHASW D HRMM SECON CODA AMPLIT PERI AZIMU VELO AIN AR TRES W  DIS CAZ7
 BAR2 EZ EP        926 54.02                             171    0.2610 23.4 201 
 BAR2 EZ ES        927  9.35                             171   -0.2610 23.4 201 
 BAR2 EZ I         927 10.23        56.5 0.17            168           23.4 201 
 BRR  HZ EP     C  926 55.95                             152    0.5010 75.5 298 
 BRR  HN ES        927 13.06                             152    0.4410 75.5 298 
 BRR  HZ I         927 13.71        37.1 0.15            148           75.5 298 
 PAM  EZ IP     C  926 56.88                             152    0.7110 75.7  37 
 PAM  EN ES        927 13.82                             152   -0.0810 75.7  37 
 PAM  EZ I         927 18.63        19.2 0.46            154           75.7  37 
 RUS  HZ EP        926 57.80                             145    0.1410 99.2 178 
 RUS  HN ES        927 16.90                             145    0.3410 99.2 178 
 RUS  HZ I         927 18.22        21.0 0.20            145           99.2 178 
 PTB  HZ EP        927  0.65                             133   -0.58 9  152 260 
 PTB  HN ES        927 21.94                             133   -0.97 9  152 260 
 PTB  HZ I         927 25.06        32.8 0.12            129            152 260 
 OCA  HZ EP        927  2.37                             131    0.02 9  162 352 
 OCA  HE ES        927 24.55                             131   -0.36 9  162 352 
 OCA  HZ I         927 27.67        38.1 0.18            129            162 352 
 SPBC HZ EP        927  2.93                             130    0.38 9  165 220 
 SPBC HE ES        927 24.84                             130   -0.42 9  165 220 
 SPBC HZ I         927 28.61        28.4 0.14            128            165 220 
 ZAR  HZ EP   2    927  7.22                             123    0.51 4  208 292 
 ZAR  HE ES        927 32.96                             123    0.30 8  208 292 
 ZAR  HZ I         927 35.02        16.9 0.15            120            208 292 
 NOR  HZ EP        927 10.00                             119    0.20 8  238 235 
 NOR  HE ES        927 37.92                             119   -0.25 8  238 235 
 NOR  HZ I         927 44.13        18.6 0.20            117            238 235 
 CHI  HZ EP   2    927 12.49                             118    1.03 4  249 196 
 CHI  HN ES        927 41.57                             118    0.44 8  249 196 
 CHI  HZ I         927 47.42         7.9 0.28            117            249 196 
 ROSC BZ EP   4    927 14.37                             118    2.36 0  254 212 
 ROSC BN ES   4    927 46.78                             118    4.68 0  254 212 
 ROSC BZ I         927 49.25        17.2 0.42            116            254 212 
 HEL  HZ EP   4    927 15.80                             116    1.43 0  276 256 
 HEL  HE ES        927 46.49                             116    0.19 7  276 256 
 HEL  HZ I         927 54.09         7.1 0.22            114            276 256 
 URE  HZ EP        927 15.12                             114   -0.15 7  288 292 
 URE  HN ES   4    927 46.28                             114   -1.63 0  288 292 
 URE  HZ I         927 56.46        10.6 0.14            112            288 292 
 SOCV BZ EP        927 16.85                             113    0.43 7  298  56 
 SOCV BN ES        927 49.09                             113   -0.87 7  298  56 
 GUY2CHZ EP   9    927 19.09                             113    1.46 0  304 235 
 GUY2CHE ES        927 53.72                             113    0.16 7  304 235 
 GUY2CHZ I         927 58.92         7.3 0.38                           304 235 
 PTGC HZ EP        927 17.10                             113   -0.16 7  306 159 
 PTGC HN ES        927 50.56                             113   -0.89 7  306 159 
 PTGC HZ I         927 52.16         5.6 0.44            112            306 159 
 ELA  HZ EP   4    927 22.92                             111    2.10 0  332 230 
 ELA  HN ES        927 57.59                             111   -0.19 7  332 230 
 ELA  HZ I         928  7.20         9.1 0.46            110            332 230 
 CBOC HZ EP        927 20.97                             111   -0.04 7  337 253 
 CBOC HE ES   4    927 56.67                             111   -1.46 0  337 253 
 CBOC HZ I         928  9.61         3.7 0.36            109            337 253 
 SJC  HZ EP        927 28.72                             106   -0.85 6  413 327 
 SJC  HN ES   4    928 10.53                             106   -2.83 0  413 327 
 SJC  HZ I         928 29.74         1.7 0.35            105            413 327 
                                                                                
