 2015 10 8 0118 17.4 L   6.813 -73.140148.0  RSN 12 0.4 1.9LRSN                1
 GAP= 71        0.89       2.5     3.5  5.0 -0.8172E+00  0.2501E+01  0.2063E+01E
 Epicentro: LOS SANTOS - SANTANDER                                             3
 ACTION:UPD 15-12-22 20:38 OP:cam  STATUS:               ID:20151008011817 L   I
 OLDACT:DUP 15-10-08 16:24 OP:spq  STATUS:               ID:20151008010751d    3
 2015-10-08-0107-48M.COL___337                                                 6
 STAT SP IPHASW D HRMM SECON CODA AMPLIT PERI AZIMU VELO AIN AR TRES W  DIS CAZ7
 BAR2 EZ EP        118 37.41                             170    0.0610 24.8 191 
 BAR2 EZ ES   1    118 52.59                             170   -0.30 7 24.8 191 
 BAR2 EZ I         118 54.93        22.1 0.28            168           24.8 191 
 BRR  HZ EP        118 38.96                             153    0.1610 71.0 297 
 BRR  HN ES        118 56.12                             153    0.6410 71.0 297 
 BRR  HZ I         119  0.00        11.0 0.14            152           71.0 297 
 PAM  EZ EP        118 39.94                             152    0.1510 75.9  40 
 PAM  EN ES        118 57.41                             152    0.1810 75.9  40 
 PAM  EZ I         118 59.29        10.9 0.42            156           75.9  40 
 RUS  HZ EP        118 41.08                             144   -0.4110  102 176 
 RUS  HN ES        119  0.08                             144   -0.1810  102 176 
 RUS  HZ I         119  1.02        10.4 0.30            145            102 176 
 TAM  HZ EP     C  118 45.50                             131    0.24 9  155 106 
 OCA  HN ES        119  7.72                             130   -0.18 9  159 353 
 OCA  HZ I         119 10.69        14.3 0.16            133            159 353 
 SPBC HZ EP        118 46.10                             129   -0.13 9  165 219 
 SPBC HN ES        119  8.01                             129   -0.69 9  165 219 
 SPBC HZ I         119 12.86        11.8 0.26            130            165 219 
 ZAR  HE ES        119 15.38                             123   -0.06 9  204 292 
 ZAR  HZ I         119 20.34         6.6 0.14            124            204 292 
 NOR  HZ EP        118 53.68                             119    0.26 8  236 234 
 NOR  HE ES        119 21.72                             119    0.22 8  236 234 
 NOR  HZ I         119 26.78         6.7 0.16            120            236 234 
 SML  HZ EP        118 53.36                             118   -0.70 8  243 335 
 SML  HN ES   1    119 22.10                             118   -0.54 6  243 335 
 SML  HZ I         119 24.31        10.2 0.10            120            243 335 
 CHI  HZ EP     C  118 55.42                             117    0.01 8  250 195 
 CHI  HN ES        119 25.32                             117    0.28 8  250 195 
 CHI  HZ I         119 34.55         3.2 0.42            119            250 195 
 GUY2CHZ EP        119  2.04                             113    0.76 7  302 235 
 GUY2CHN ES   4    119 37.12                             113    1.63 0  302 235 
 GUY2CHZ I         119 42.39         3.5 0.42                           302 235 
                                                                                
