 2017  2 8 0715 21.1 L   6.425 -73.705103.9  RSN  8 0.4 1.3LRSN                1
 GAP= 73        0.85       3.2     3.0  6.3  0.1454E+01  0.8971E+01  0.4850E+01E
 Epicentro: SANTA HELENA DEL OPON - SANTANDER                                  3
 ACTION:UPD 17-05-24 15:34 OP:jn   STATUS:               ID:20170208071521 L   I
 OLDACT:UP  17-02-08 17:55 OP:edw  STATUS:               ID:20170208070641     3
 OLDACT:REG 17-02-08 12:42 OP:edw  STATUS:               ID:20170208070641     3
 2017-02-08-0707-00M.COL___322                                                 6
 STAT SP IPHASW D HRMM SECON CODA AMPLIT PERI AZIMU VELO AIN AR TRES W  DIS CAZ7
 BAR2 EZ EP     D  715 37.32                             147   -0.1810 60.7  72 
 BAR2 EZ ES        715 50.51                             147    0.2010 60.7  72 
 BAR2 EZ I         715 51.49        11.8 0.36            151           60.7  72 
 BRR  HZ EP        715 37.89                             141   -0.3310 75.5 359 
 BRR  HN ES        715 51.50                             141   -0.0910 75.5 359 
 PTB  HZ EP   9    715 37.88                             138   -1.04 0 84.1 279 
 PTB  HN ES        715 51.77                             137   -0.0310 84.1 279 
 PTB  HZ I         715 53.52         5.6 0.26            137           84.1 279 
 RUS  HZ EP        715 40.02                             136   -0.1010 90.5 131 
 RUS  HN ES        715 55.27                             136    0.2910 90.5 131 
 RUS  HZ I         715 57.19         3.1 0.56            138           90.5 131 
 NOR  HZ EP        715 46.08                             118   -0.31 9  160 234 
 NOR  HN ES        716  5.57                             118   -0.57 9  160 234 
 NOR  HZ I         716  8.22         2.9 0.22            118            160 234 
 ZAR  HZ EP        715 47.95                             116    0.16 9  174 313 
 ZAR  HN ES        716  8.82                             116    0.18 9  174 313 
 ZAR  HZ I         716 12.43         5.1 0.42            116            174 313 
 CHI  HZ EP   2    715 51.86                             112    0.78 4  199 181 
 CHI  HE ES   4    716 16.77                             112    2.29 0  199 181 
 CBOC HZ EP   4    715 59.48                             105    1.28 0  263 256 
 CBOC HN ES        716 28.04                             105    0.88 8  263 256 
 CBOC HZ I         716 32.50         0.7 0.48            106            263 256 
                                                                                
