 2012  5 8 0602 57.3 L   6.352 -73.616106.9  RSN 11 0.4 2.1LRSN                1
 GAP= 70        0.95       5.0     5.0 11.0 -0.1512E+00  0.3070E+02  0.1752E+02E
 Epicentro: SANTA HELENA DEL OPON - SANTANDER                                  3
 ACTION:UP  12-07-05 12:03 OP:pat  STATUS:               ID:20120508060257 L   I
 2012-05-08-0600-00M.COL___192                                                 6
 STAT SP IPHASW D HRMM SECON CODA AMPLIT PERI AZIMU VELO SNR AR TRES W  DIS CAZ7
 OCA2 HZ EP        6 3 29.47                                                    
 BAR2 SZ IP        6 3 14.11                             151     0.410   55  61 
 BAR2 SZ ES   1    6 3 26.73                             151     0.3 7   55  61 
 BAR2 SZ I         6 3 28.68        49.0 0.54                            55  61 
 RUS  HZ EP        6 3 15.29                             142    -0.310   78 131 
 BRR  HZ EP        6 3 15.68                             139     0.210   84 353 
 BRR  HZ I         6 3 23.06        16.4 0.10                            84 353 
 PTB  HZ EP        6 3 15.85                             135    -0.510   95 283 
 PAM  SZ EP        6 3 22.23                             121     0.0 9  149  43 
 PAM  SE ES   2    6 3 40.80                             121    -0.8 5  149  43 
 ZAR  HZ EP        6 3 25.51                             115    -0.1 9  186 313 
 ZAR  HN ES   2    6 3 47.49                             115    -0.2 4  186 313 
 ZAR  HZ I         6 3 52.35        17.9 0.56                           186 313 
 CHI  HZ EP   2    6 3 26.68                             114     0.1 4  191 184 
 CHI  HZ I         6 3 53.57         3.7 0.24                           191 184 
 HEL  HZ EP        6 3 29.63                             112     0.6 8  212 265 
 HEL  HN ES   2    6 3 53.39                             112    -0.3 4  212 265 
 HEL  HZ I         6 3 57.96         8.2 0.22                           212 265 
 RREF HZ EP        6 3 33.43                             108    -0.2 8  250 230 
 RREF HZ I         6 4  8.27         9.5 0.28                           250 230 
 PRA  HZ EP        6 3 41.52                             102    -0.1 7  324 206 
 PRA  HN ES   2    6 4 16.97                             102     0.8 3  324 206 
 PRA  HZ I         6 4 23.34        20.1 0.24                           324 206 
                                                                                
