 2017  9 8 0533  0.6 L   6.846 -73.031149.5  RSN  5 0.3 1.4LRSN                1
 GAP=149        0.58       3.6     5.2  6.8 -0.2451E+00  0.4176E+01  0.5802E+01E
 Epicentro: CEPITA - SANTANDER                                                 3
 ACTION:UPD 17-10-05 19:10 OP:rebc STATUS:               ID:20170908053300 L   I
 OLDACT:DUP 17-09-08 16:41 OP:dnl  STATUS:               ID:20170908052751d    3
 OLDACT:UP  17-09-08 16:40 OP:dnl  STATUS:               ID:20170908052750d    3
 OLDACT:DUP 17-09-08 16:38 OP:dnl  STATUS:               ID:20170908052750d    3
 OLDACT:REG 17-09-08 13:18 OP:dnl  STATUS:               ID:20170908052749     3
 2017-09-08-0528-00M.COL___422                                                 6
 STAT SP IPHASW D HRMM SECON CODA AMPLIT PERI AZIMU VELO AIN AR TRES W  DIS CAZ7
 BAR2 EZ EP   2    533 21.24                             167    0.36 5 32.6 211 
 BAR2 EZ ES        533 36.35                             167   -0.3610 32.6 211 
 BAR2 EZ I         533 38.14         6.0 0.40            166           32.6 211 
 PAM  EZ EP   3    533 22.45                             155   -0.11 2 65.7  34 
 PAM  EN ES        533 39.65                             155   -0.0510 65.7  34 
 PAM  EZ I         533 43.31         3.9 0.50            155           65.7  34 
 BRR  HZ EP   2    533 22.79                             150    0.11 5 80.6 291 
 BRR  HN ES        533 40.07                             150    0.1510 80.6 291 
 BRR  HZ I         533 42.45         4.8 0.16            148           80.6 291 
 RUS  HZ EP   2    533 25.10                             143    0.04 5  106 183 
 RUS  HN ES        533 44.44                             143    0.2910  106 183 
 RUS  HZ I         533 44.81         2.8 0.24            143            106 183 
 SPBC HZ EP   2    533 29.83                             127   -0.68 4  175 221 
 SPBC HN ES   4    533 51.93                             127   -1.93 0  175 221 
 SPBC HZ I         533 58.23         4.8 0.24            127            175 221 
                                                                                
