 2011  5 8 0206  0.8 L   6.745 -73.071144.3  RSN  5 0.1 1.2LRSN                1
 GAP=201        0.36       5.0     9.5  6.0  0.3707E+02 -0.3442E+02 -0.1653E+02E
 Epicentro: JORDAN - SANTANDER                                                 3
 ACTION:UP  11-06-29 08:51 OP:tino STATUS:               ID:20110508020601 L   I
 2011-05-08-0203-39S.COL___133                                                 6
 STAT SP IPHASW D HRMM SECON CODA AMPLIT PERI AZIMU VELO SNR AR TRES W  DIS CAZ7
 BAR2 SZ EP   1    2 6 20.21                             171     0.0 7   21 216 
 BAR2 SZ ES   2    2 6 35.43                             171     0.1 5   21 216 
 BAR2 SZ I         2 6 38.17         4.4 0.55                            21 216 
 BTL  SZ EP   1    2 6 20.40                             168     0.0 7   29 311 
 GIR2 SZ EP   1    2 6 20.42                             164    -0.1 7   39 340 
 BRR  HZ EP   1    2 6 22.24                             149    -0.1 7   81 300 
 BRR  HN ES   1    2 6 39.29                             149     0.1 7   81 300 
 BRR  HZ I         2 6 41.47         5.6 0.46                            81 300 
 RUS  HZ EP   1    2 6 24.13                             145     0.2 7   94 181 
 RUS  HE ES   1    2 6 41.85                             145    -0.1 7   94 181 
 RUS  HZ I         2 6 43.93         1.6 0.31                            94 181 
                                                                                
