 2016  3 8 0304 35.5 L   5.904 -73.908 94.5  RSN  4 0.2 0.8LRSN                1
 GAP=122        0.51       2.9     2.0  5.1  0.6169E+00 -0.1308E+01 -0.4374E+01E
 Epicentro: LA BELLEZA - SANTANDER                                             3
 ACTION:UPD 16-05-13 21:22 OP:cam  STATUS:               ID:20160308030435 L   I
 OLDACT:DUP 16-03-08 16:49 OP:cara STATUS:               ID:20160308025748d    3
 2016-03-08-0257-46M.COL___295                                                 6
 STAT SP IPHASW D HRMM SECON CODA AMPLIT PERI AZIMU VELO AIN AR TRES W  DIS CAZ7
 SPBC HZ EP        3 4 49.41                             159    0.2510 33.2 213 
 SPBC HN ES        3 4 59.69                             159   -0.1210 33.2 213 
 SPBC HZ I         3 5  1.64         3.6 0.44            164           33.2 213 
 RUS  HZ EP        3 4 53.50                             133   -0.3110 91.4  91 
 RUS  HZ I         3 4 53.93         0.8 0.32            138           91.4  91 
 RUS  HE ES        3 5  8.22                             133    0.1310 91.4  91 
 PTB  HZ EP        3 4 53.36                             132    0.0610 92.9 319 
 PTB  HE ES        3 5  7.12                             132   -0.0610 92.9 319 
 PTB  HZ I         3 5 12.76         0.8 0.10            132           92.9 319 
 BAR2 EZ ES        3 5 10.77                             127    0.0410  111  46 
 BAR2 EZ I         3 5 13.32         3.0 0.16            129            111  46 
                                                                                
