 2017  6 8 0314 19.2 L   6.763 -73.079153.9  RSN  4 0.1 1.1LRSN                1
 GAP=242        0.44       2.8     4.7  4.5  0.3922E+01 -0.2626E+01  0.4472E+00E
 Epicentro: LOS SANTOS - SANTANDER                                             3
 ACTION:UPD 17-09-14 16:50 OP:jn   STATUS:               ID:20170608031419 L   I
 OLDACT:UP  17-06-08 15:10 OP:edw  STATUS:               ID:20170608030742     3
 OLDACT:REG 17-06-08 12:53 OP:edw  STATUS:               ID:20170608030742     3
 2017-06-08-0308-00M.COL___365                                                 6
 STAT SP IPHASW D HRMM SECON CODA AMPLIT PERI AZIMU VELO AIN AR TRES W  DIS CAZ7
 BRR  HZ EP     C  314 41.54                             151   -0.1810 79.6 299 
 BRR  HN ES        314 59.38                             151    0.1010 79.6 299 
 RUS  HZ EP        314 43.69                             147    0.2110 96.3 180 
 RUS  HN ES        315  2.29                             147   -0.1210 96.3 180 
 RUS  HZ I         315  3.69         1.0 0.18            145           96.3 180 
 TAM  HN ES   4    315  1.97                             134   -6.40 0  147 104 
 PTB  HN ES   4    315  7.54                             132   -1.91 0  154 261 
 PTB  HZ I         315 13.39         2.1 0.24            130            154 261 
 SPBC HZ EP        314 48.48                             131   -0.03 9  165 222 
 SPBC HN ES        315 11.36                             131    0.01 9  165 222 
 SPBC HZ I         315 13.53         2.6 0.22            129            165 222 
                                                                                
