 2011  5 8 0102 52.6 L   6.804 -73.114135.1  RSN  8 0.3 1.6LRSN                1
 GAP=140        0.63       4.3     7.6  6.2 -0.1318E+02 -0.5284E+01  0.1903E+01E
 Epicentro: LOS SANTOS - SANTANDER                                             3
 ACTION:UP  11-06-29 08:51 OP:tino STATUS:               ID:20110508010252 L   I
 2011-05-08-0057-19S.COL___133                                                 6
 STAT SP IPHASW D HRMM SECON CODA AMPLIT PERI AZIMU VELO SNR AR TRES W  DIS CAZ7
 BTL  SZ EP   1    1 3 10.97                             171     0.0 7   21 307 
 BAR2 SZ EP   1    1 3 10.89                             169    -0.1 7   25 198 
 BAR2 SZ ES   2    1 3 24.59                             169    -0.8 5   25 198 
 BAR2 SZ I         1 3 26.68        13.0 0.23                            25 198 
 GIR2 SZ EP   1    1 3 11.33                             166     0.3 7   32 344 
 GIR2 SZ ES   1    1 3 25.73                             166     0.3 7   32 344 
 BRR  HZ EP   1    1 3 12.78                             149     0.0 7   74 297 
 BRR  HZ I         1 3 14.90        14.7 0.64                            74 297 
 BRR  HN ES   2    1 3 28.66                             149     0.1 5   74 297 
 PAM  SZ EP   1    1 3 13.65                             150     0.1 7   75  38 
 PAM  SN ES   2    1 3 30.52                             150     0.6 5   75  38 
 RUS  HZ EP   2    1 3 15.60                             141     0.2 5  101 178 
 RUS  HN ES   2    1 3 33.01                             141    -0.1 5  101 178 
 RUS  HZ I         1 3 35.14         3.9 0.43                           101 178 
 BRI  SZ EP   2    1 3 15.39                             139     0.0 5  107  19 
 BRI  SZ ES   2    1 3 33.27                             139     0.1 5  107  19 
 BRI  SZ I         1 3 39.20         6.1 0.65                           107  19 
 GRA  SZ EP   1    1 3 16.77                             135    -0.1 7  124  16 
 GRA  SZ ES   1    1 3 35.09                             135    -0.6 7  124  16 
 GRA  SZ I         1 3 37.17         5.5 0.37                           124  16 
                                                                                
