 2012  4 8 0506 18.2 L   6.746 -73.151142.7  RSN  6 0.3 1.4LRSN                1
 GAP=138        0.84       5.5     4.9  8.1  0.2277E+01  0.8046E+01  0.1864E+00E
 Epicentro: JORDAN - SANTANDER                                                 3
 ACTION:UPD 12-07-05 11:51 OP:tino STATUS:               ID:20120408050618 L   I
 2012-04-08-0500-00M.COL___196                                                 6
 STAT SP IPHASW D HRMM SECON CODA AMPLIT PERI AZIMU VELO AIN AR TRES W  DIS CAZ7
 BAR2 SZ EP   1    5 6 37.47                             173     0.1 7   17 191 
 BAR2 SZ ES   1    5 6 51.98                             173    -0.3 7   17 191 
 BAR2 SZ I         5 6 53.73         7.0 0.18                            17 191 
 BRR  HZ EP   1    5 6 39.44                             151     0.3 7   74 303 
 BRR  HN ES   1    5 6 56.27                             151     0.7 7   74 303 
 BRR  HZ I         5 6 57.59         6.0 0.13                            74 303 
 PAM  SZ EP   1    5 6 40.28                             149    -0.1 7   82  37 
 PAM  SZ I         5 6 40.76         4.4 0.16                            82  37 
 PAM  SE ES   1    5 6 57.43                             149    -0.3 7   82  37 
 RUS  HZ EP   1    5 6 41.36                             145     0.1 7   95 175 
 RUS  HN ES   1    5 6 59.45                             145     0.2 7   95 175 
 RUS  HZ I         5 7  1.18         4.4 0.25                            95 175 
 PTB  HZ EP   1    5 6 44.71                             132    -0.1 7  146 261 
 PTB  HN ES   1    5 7  4.89                             132    -0.6 7  146 261 
 PTB  HZ I         5 7  7.63         2.2 0.17                           146 261 
 ZAR  HN ES   1    5 7 15.93                             121     0.0 6  206 294 
                                                                                
