 2017 11 8 0004 43.1 L   6.998 -73.140158.0  RSN  4 0.4 1.2LRSN                1
 GAP=131        0.77       5.5     5.1  9.3 -0.1335E+01  0.1314E+02  0.1152E+02E
 Epicentro: GIRON - SANTANDER                                                  3
 ACTION:UPD 17-12-12 19:53 OP:rebc STATUS:               ID:20171108000443 L   I
 OLDACT:DUP 17-11-08 15:15 OP:dnl  STATUS:               ID:20171107235956d    3
 OLDACT:UP  17-11-08 15:14 OP:dnl  STATUS:               ID:20171107235955     3
 OLDACT:REG 17-11-08 14:48 OP:dnl  STATUS:               ID:20171107235955     3
 2017-11-08-0000-15M.COL___417                                                 6
 STAT SP IPHASW D HRMM SECON CODA AMPLIT PERI AZIMU VELO AIN AR TRES W  DIS CAZ7
 PAM  EN ES        0 5 23.63                             158    0.1110 61.6  52 
 PAM  EZ I         0 5 25.43         4.6 0.68            163           61.6  52 
 BRR  HZ EP        0 5  4.63                             157   -0.5710 64.3 281 
 BRR  HE ES        0 5 22.71                             157    0.2510 64.3 281 
 BRR  HZ I         0 5 25.08         4.2 0.36            155           64.3 281 
 RUS  HZ EP   2    0 5 10.19                             141    0.57 5  122 177 
 RUS  HN ES        0 5 30.26                             141   -0.0810  122 177 
 RUS  HZ I         0 5 31.29         1.0 0.36            143            122 177 
 PTB  HZ EP   2    0 5 12.24                             134    0.63 5  154 251 
 PTB  HN ES        0 5 33.89                             134    0.02 9  154 251 
 PTB  HZ I         0 5 40.61         1.0 0.40            134            154 251 
                                                                                
