 2011  4 8 0918  9.5 L   6.885 -73.091133.2  RSN  5 0.4 1.5LRSN                1
 GAP=181        1.16      10.4    14.4 16.1 -0.6452E+02 -0.8571E+02  0.1652E+02E
 Epicentro: LOS SANTOS - SANTANDER                                             3
 ACTION:UP  11-06-22 15:29 OP:REBC STATUS:               ID:20110408091809 L   I
 2011-04-08-0900-00M.COL___139                                                 6
 STAT SP IPHASW D HRMM SECON CODA AMPLIT PERI AZIMU VELO SNR AR TRES W  DIS CAZ7
 GIR2 SZ EP        918 27.72                             169     0.210   24 332 
 BAR2 SZ EP        918 28.08                             165     0.210   34 197 
 BAR2 SZ I         918 44.42         8.4 0.42                            34 197 
 BRR  HZ EP        918 28.84                             150    -0.610   73 290 
 BRR  HZ I         918 30.99         9.5 0.17                            73 290 
 BRR  HN ES   1    918 45.05                             150     0.1 7   73 290 
 GRA  SZ EP        918 32.31                             137    -0.410  115  16 
 GRA  SZ ES   1    918 50.72                             137    -0.1 7  115  16 
 GRA  SZ I         918 54.64         4.1 0.18                           115  16 
 OCA  SZ EP        918 36.63                             128     0.6 9  152 350 
 OCA  SZ I         919  0.73         3.4 0.42                           152 350 
                                                                                
