 2013 10 8 0833  2.2 L   6.802 -73.221151.0  RSN  5 0.4 1.3LRSN                1
 GAP=192        0.80       4.3     8.6  8.7 -0.7261E+01 -0.2542E+02  0.8043E+00E
 Epicentro: ZAPATOCA - SANTANDER                                               3
 ACTION:UPD 13-11-25 09:20 OP:ep   STATUS:               ID:20131008083302 L   I
 OLDACT:DUP 13-10-08 12:16 OP:mh   STATUS:               ID:20131008082960d    3
 OLDACT:UP  13-10-08 12:16 OP:mh   STATUS:               ID:20131008082959     3
 OLDACT:REG 13-10-08 07:53 OP:mh   STATUS:               ID:20131008082959     3
 2013-10-08-0829-59M.COL___273                                                 6
 STAT SP IPHASW D HRMM SECON CODA AMPLIT PERI AZIMU VELO AIN AR TRES W  DIS CAZ7
 BAR2 SZ EP        833 22.02                             171   -0.4510 23.6 170 
 BAR2 SZ I         833 38.32         8.7 0.50            168           23.6 170 
 BRR  HZ EP        833 23.97                             156    0.4310 63.9 302 
 BRR  HN ES        833 40.44                             156    0.2610 63.9 302 
 BRR  HZ I         833 45.08         3.2 0.16            164           63.9 302 
 PTB  HZ EP   1    833 28.98                             135    0.09 7  140 258 
 PTB  HN ES   1    833 49.27                             135   -0.44 7  140 258 
 PTB  HZ I         833 56.98         1.7 0.30            143            140 258 
 SPBC HZ EP   1    833 30.85                             131    0.19 7  158 217 
 SPBC HN ES        833 52.82                             131   -0.03 9  158 217 
 SPBC HZ I         834  1.34         1.9 0.56            137            158 217 
 SML  HZ EP   1    833 39.05                             119    0.31 6  240 337 
 SML  HN ES   1    834  6.58                             119   -0.67 6  240 337 
 SML  HZ I         834 17.72         2.2 0.10            123            240 337 
                                                                                
