 2011  5 8 0651 56.3 L   6.775 -73.107145.1  RSN  9 0.4 1.8LRSN                1
 GAP=160        0.79       4.4     6.8  8.0 -0.1375E+02 -0.2580E+01  0.3282E+01E
 Epicentro: LOS SANTOS - SANTANDER                                             3
 ACTION:UP  11-06-29 08:51 OP:tino STATUS:               ID:20110508065156 L   I
 2011-05-08-0647-44S.COL___133                                                 6
 STAT SP IPHASW D HRMM SECON CODA AMPLIT PERI AZIMU VELO SNR AR TRES W  DIS CAZ7
 BAR2 SZ EP   1    652 15.84                             171     0.0 7   22 202 
 BAR2 SZ ES   2    652 30.63                             171    -0.4 5   22 202 
 BAR2 SZ I         652 31.73        16.7 0.26                            22 202 
 BTL  SZ EP   1    652 16.24                             170     0.4 7   24 312 
 GIR2 SZ EP   1    652 15.97                             166     0.0 7   35 344 
 BRR  HZ IP     C  652 17.77                             150     0.110   76 299 
 BRR  HZ I         652 18.20        27.2 0.11                            76 299 
 BRR  HN ES   1    652 34.74                             150     0.4 7   76 299 
 RUS  HZ EP   1    652 19.60                             144    -0.2 7   98 178 
 RUS  HN ES   2    652 38.49                             144     0.4 5   98 178 
 RUS  HZ I         652 40.00         4.0 0.38                            98 178 
 BRI  SZ EP   1    652 20.36                             141     0.1 7  110  18 
 BRI  SZ ES   1    652 39.07                             141     0.2 7  110  18 
 BRI  SZ I         652 43.22         8.5 0.50                           110  18 
 GRA  SZ EP   1    652 21.82                             136     0.2 7  127  15 
 GRA  SZ ES   1    652 40.43                             136    -0.9 7  127  15 
 GRA  SZ I         652 42.43        10.2 0.42                           127  15 
 OCA  SZ EP   1    652 24.79                             129    -0.1 7  164 352 
 OCA  SZ ES   2    652 47.46                             129     0.3 5  164 352 
 OCA  SZ I         652 49.71         9.9 0.21                           164 352 
 NOR  SE ES   1    652 59.74                             118    -0.5 6  237 236 
                                                                                
