 2013 12 8 0316 22.3 L   6.786 -73.136150.6  RSN  7 0.4 1.6LRSN                1
 GAP=138        1.00       4.7     4.8  6.4 -0.7674E+01  0.5923E+01  0.4010E+01E
 Epicentro: LOS SANTOS - SANTANDER                                             3
 ACTION:UPD 14-01-13 10:16 OP:ep   STATUS:               ID:20131208031622 L   I
 OLDACT:REG 13-12-08 07:22 OP:carl STATUS:               ID:20131208031000     3
 2013-12-08-0310-00M.COL___285                                                 6
 STAT SP IPHASW D HRMM SECON CODA AMPLIT PERI AZIMU VELO AIN AR TRES W  DIS CAZ7
 BAR2 SZ EP        316 42.47                             171   -0.0510 22.0 193 
 BAR2 SZ ES        316 57.92                             171   -0.3510 22.0 193 
 BAR2 SZ I         317  0.59        11.2 0.20            169           22.0 193 
 BRR  HZ EP        316 44.43                             153    0.3310 72.9 299 
 BRR  HN ES        317  1.50                             153    0.4210 72.9 299 
 BRR  HZ I         317  4.59         4.6 0.44            151           72.9 299 
 PAM  SZ EP        316 45.23                             151    0.1310 78.0  38 
 PAM  SN ES        317  2.93                             151    0.0710 78.0  38 
 RUS  HZ EP        316 46.32                             145   -0.1310 98.9 177 
 RUS  HE ES        317  5.12                             145   -0.1410 98.9 177 
 RUS  HZ I         317  6.76         2.1 0.40            147           98.9 177 
 PTB  HZ EP        316 49.36                             133   -0.41 9  148 260 
 PTB  HN ES        317 10.33                             133   -0.83 9  148 260 
 PTB  HZ I         317 18.06         5.4 0.36            133            148 260 
 SPBC HZ EP        316 51.46                             130    0.30 9  163 220 
 SPBC HE ES        317 14.22                             130    0.58 9  163 220 
 SPBC HZ I         317 19.23         7.1 0.14            131            163 220 
 NOR  HZ EP        316 57.92                             119   -0.43 8  235 235 
 NOR  HE ES        317 26.98                             119    0.55 8  235 235 
 NOR  HZ I         317 30.15         3.1 0.18            121            235 235 
                                                                                
