 2014  8 8 0630 49.1 L   6.976 -73.492 11.9  RSN  4 0.3 1.2LRSN                1
 GAP=200        0.78       3.5     2.8  4.2  0.6580E+01  0.1274E+01 -0.1168E+01E
 Epicentro: SAN VICENTE DE CHUCURI - SANTANDER                                 3
 ACTION:UPD 14-09-15 21:47 OP:nd   STATUS:               ID:20140808063049 L   I
 OLDACT:REG 14-08-08 13:23 OP:spq  STATUS:               ID:20140808062806     3
 2014-08-08-0628-06M.COL___254                                                 6
 STAT SP IPHASW D HRMM SECON CODA AMPLIT PERI AZIMU VELO AIN AR TRES W  DIS CAZ7
 BRR  HZ IP     D  630 54.02                             108   -0.1610 28.3 301 
 BRR  HN ES        630 58.10                             108   -0.0410 28.3 301 
 BRR  HZ I         630 58.65        37.3 0.10             47           28.3 301 
 BAR2 SZ EP        630 58.61                              99    0.3010 54.5 141 
 BAR2 SZ ES        631  5.14                              99   -0.3410 54.5 141 
 BAR2 SZ I         631  5.98         6.9 0.24             47           54.5 141 
 PTB  HZ EP        631  8.11                              94    0.6110  117 246 
 PTB  HN ES        631 21.60                              94   -0.2510  117 246 
 PTB  HZ I         631 24.49         6.9 0.38             47            117 246 
 ZAR  HZ EP        631 13.89                              56    0.02 9  161 291 
 ZAR  HN ES        631 33.04                              56   -0.14 9  161 291 
 ZAR  HZ I         631 35.68         3.9 0.44             47            161 291 
                                                                                
