 2015  3 8 0245 12.0 L   6.809 -73.156147.0  RSN 14 0.4 1.9LRSN                1
 GAP= 70        0.94       2.7     2.9  5.4 -0.1126E+01  0.1809E+01  0.2621E+01E
 Epicentro: LOS SANTOS - SANTANDER                                             3
 ACTION:UPD 15-04-30 16:24 OP:nd   STATUS:               ID:20150308024512 L   I
 OLDACT:DUP 15-03-08 16:42 OP:spq  STATUS:               ID:20150308023738d    3
 2015-03-08-0237-37M.COL___284                                                 6
 STAT SP IPHASW D HRMM SECON CODA AMPLIT PERI AZIMU VELO AIN AR TRES W  DIS CAZ7
 BAR2 EZ EP        245 31.57                             170   -0.2710 24.1 187 
 BAR2 EZ ES   1    245 46.86                             170   -0.42 7 24.1 187 
 BAR2 EZ I         245 48.12        14.4 0.20            171           24.1 187 
 BRR  HZ EP     C  245 33.36                             153    0.1210 69.8 298 
 BRR  HN ES        245 50.50                             153    0.7210 69.8 298 
 BRR  HZ I         245 54.41        16.2 0.24            148           69.8 298 
 PAM  SZ EP        245 34.72                             151    0.3410 77.3  41 
 PAM  SN ES        245 51.71                             151   -0.1010 77.3  41 
 PAM  SZ I         245 53.78         7.7 0.50            145           77.3  41 
 RUS  HZ EP        245 35.59                             144   -0.4010  102 175 
 RUS  HE ES        245 54.45                             144   -0.2210  102 175 
 RUS  HZ I         245 55.37         7.6 0.20            140            102 175 
 PTB  HZ EP   1    245 38.35                             132   -0.68 7  147 258 
 PTB  HN ES        245 59.36                             132   -0.72 9  147 258 
 PTB  HZ I         246  1.47        13.5 0.58            127            147 258 
 TAM  HZ EP        245 40.06                             131    0.12 9  156 105 
 TAM  HZ I         246  0.88         4.0 0.68            125            156 105 
 TAM  HE ES        246  1.86                             131    0.16 9  156 105 
 OCA  HN ES        246  2.34                             130   -0.08 9  159 353 
 OCA  HZ I         246  4.95         6.3 0.18            124            159 353 
 SPBC HZ EP        245 40.37                             129   -0.27 9  163 218 
 SPBC HN ES        246  3.48                             129    0.53 9  163 218 
 SPBC HZ I         246  8.76        12.8 0.38            125            163 218 
 NOR  HZ EP   1    245 48.33                             119    0.52 6  234 234 
 NOR  HN ES        246 15.88                             119    0.17 8  234 234 
 NOR  HZ I         246 22.43         6.8 0.16            114            234 234 
 SML  HZ EP   1    245 47.94                             118   -0.65 6  242 335 
 SML  HN ES   1    246 17.40                             118    0.30 6  242 335 
 SML  HZ I         246 22.12         9.9 0.10            113            242 335 
 CHI  HZ EP        245 49.84                             117   -0.04 8  249 195 
 CHI  HE ES        246 19.76                             117    0.37 8  249 195 
 CHI  HZ I         246 21.50         4.4 0.36            113            249 195 
 HEL  HZ EP   4    245 54.51                             115    2.29 0  271 256 
 HEL  HE ES   1    246 23.52                             115   -0.05 6  271 256 
 HEL  HZ I         246 30.90         4.4 0.56            111            271 256 
 GUY2CHZ EP   1    245 56.55                             113    0.88 5  301 234 
 GUY2CHE ES   4    246 32.65                             113    2.95 0  301 234 
 GUY2CHZ I         246 39.54         3.8 0.66                           301 234 
 MON  HE ES   4    246 37.65                             109   -1.39 0  352 308 
 MON  HZ I         246 52.74         2.7 0.34            105            352 308 
                                                                                
