 2011  3 8 0349 14.1 L   6.776 -73.046145.2  RSN 10 0.3 2.0LRSN                1
 GAP=149        0.47       2.9     4.0  4.6 -0.5821E+01  0.9137E+00  0.3649E+01E
 Epicentro: LOS SANTOS - SANTANDER                                             3
 ACTION:UP  11-06-16 14:32 OP:jfem STATUS:               ID:20110308034914 L   I
 2011-03-08-0348-28S.COL___135                                                 6
 STAT SP IPHASW D HRMM SECON CODA AMPLIT PERI AZIMU VELO SNR AR TRES W  DIS CAZ7
 BAR2 SZ EP        349 33.81                             170     0.110   25 217 
 BAR2 SZ ES   2    349 48.58                             170    -0.4 5   25 217 
 BAR2 SZ I         349 52.13        15.9 0.16                            25 217 
 GRA  SZ EP   1    349 39.60                             137     0.4 7  125  12 
 GRA  SZ ES   1    349 59.03                             137     0.2 7  125  12 
 GRA  SZ I         350  0.77        10.2 0.34                           125  12 
 OCA  SZ EP   1    349 42.49                             129    -0.3 7  165 349 
 OCA  SZ ES   1    350  4.93                             129    -0.2 7  165 349 
 OCA  SZ I         350  9.12        16.0 0.37                           165 349 
 CHI  HZ EP   1    349 51.91                             117     0.1 6  249 198 
 CHI  HZ I         350 29.00         4.5 0.30                           249 198 
 HEL  HZ EP   1    349 55.51                             114     0.1 6  282 257 
 HEL  HN ES   2    350 27.57                             114     0.0 4  282 257 
 HEL  HZ I         350 31.92         4.0 0.25                           282 257 
 GUY  SZ EP   3    349 59.23                             112     0.7 2  309 236 
 GUY  SN ES   3    350 33.87                             112     0.7 2  309 236 
 RREF HZ EP   2    350  0.69                             110    -0.3 3  329 231 
 RREF HN ES   2    350 37.68                             110     0.1 3  329 231 
 RREF HZ I         350 42.28         6.5 0.31                           329 231 
 DBB  SZ EP   1    350  2.34                             109    -0.5 5  351 275 
 SDV  BZ IP     D  350  3.20                             109    -0.1 6  354  49 
 PRA  HZ EP   1    350  7.76                             106    -0.2 4  395 211 
                                                                                
