 2011 11 8 0346 40.3 L   6.772 -73.063144.0  RSN  4 0.2 1.5LRSN                1
 GAP=149        0.41       3.1     4.2  5.4 -0.1676E+00  0.1576E+01  0.5803E-01E
 Epicentro: LOS SANTOS - SANTANDER                                             3
 ACTION:UPD 12-07-13 16:08 OP:ep   STATUS:               ID:20111108034640 L   I
 2011-11-08-0343-21S.COL___175                                                 6
 STAT SP IPHASW D HRMM SECON CODA AMPLIT PERI AZIMU VELO AIN AR TRES W  DIS CAZ7
 BAR2 SZ EP   2    346 59.74                             170    0.03 5 23.8 214 
 BAR2 SZ I         347 15.84         6.2 0.19                          23.8 214 
 PAM  SZ EP   1    347  2.39                             151    0.25 7 74.5  33 
 PAM  SN ES   1    347 19.05                             151   -0.14 7 74.5  33 
 BRR  HZ EP        347  1.62                             149   -0.1810 80.7 297 
 BRR  HZ I         347  2.04         8.4 0.07                          80.7 297 
 BRR  HE ES   1    347 18.78                             149    0.19 7 80.7 297 
 RUS  HZ EP   2    347  3.63                             144    0.01 5 97.3 181 
 RUS  HN ES   1    347 21.82                             144    0.00 7 97.3 181 
 RUS  HZ I         347 23.63         3.3 0.22                          97.3 181 
                                                                                
