 2011  7 8 0213 12.8 L   6.809 -73.030144.7  RSN  6 0.4 1.5LRSN                1
 GAP=171        0.82       6.0     8.6  8.5 -0.2662E+02 -0.7638E+01  0.2988E+01E
 Epicentro: CEPITA - SANTANDER                                                 3
 ACTION:UPD 12-07-25 13:59 OP:epov STATUS:               ID:20110708021312 L   I
 2011-07-08-0211-28S.COL___140                                                 6
 STAT SP IPHASW D HRMM SECON CODA AMPLIT PERI AZIMU VELO AIN AR TRES W  DIS CAZ7
 BAR2 SZ ES   1    213 48.10                             168    0.32 7 29.2 215 
 BRR  HZ EP   1    213 34.73                             149    0.21 7 82.3 294 
 BRR  HN ES   1    213 51.17                             149   -0.27 7 82.3 294 
 BRR  HZ I         213 54.05         6.6 0.08                          82.3 294 
 RUS  HZ EP   1    213 36.46                             143   -0.07 7  101 183 
 RUS  HZ I         213 57.51         5.0 0.46                           101 183 
 GRA  SZ EP   1    213 36.90                             138   -0.73 7  122  12 
 GRA  SZ ES   1    213 56.90                             138   -0.07 7  122  12 
 GRA  SZ I         213 58.03         3.5 0.30                           122  12 
 OCA  SZ EP   1    213 41.97                             129    0.82 7  161 349 
 NOR  SN ES   1    214 18.24                             117   -0.19 6  246 236 
                                                                                
