 2015  9 8 0532 49.4 L   6.713 -73.175130.0  RSN  7 0.5 1.5LRSN                1
 GAP=227        1.28       6.3     8.1 10.0  0.1813E+02  0.1501E+02 -0.9953E+00E
 Epicentro: VILLANUEVA - SANTANDER                                             3
 ACTION:UPD 15-10-28 16:24 OP:cam  STATUS:               ID:20150908053249 L   I
 OLDACT:UP  15-09-08 17:16 OP:mh   STATUS:               ID:20150908052749d    3
 OLDACT:UP  15-09-08 17:14 OP:mh   STATUS:               ID:20150908052749d    3
 OLDACT:DUP 15-09-08 17:10 OP:mh   STATUS:               ID:20150908052749d    3
 2015-09-08-0527-48M.COL___353                                                 6
 STAT SP IPHASW D HRMM SECON CODA AMPLIT PERI AZIMU VELO AIN AR TRES W  DIS CAZ7
 BAR2 EZ EP        533  6.74                             174   -0.2310 13.3 183 
 BAR2 EZ I         533 22.67         9.7 0.16            171           13.3 183 
 BRR  HZ EP        533  8.79                             149   -0.2410 73.6 306 
 BRR  HN ES        533 24.84                             149    0.5110 73.6 306 
 BRR  HZ I         533 27.24         5.5 0.16            153           73.6 306 
 RUS  HN ES        533 27.82                             143    0.0910 91.2 174 
 RUS  HZ I         533 30.62         3.2 0.30            144           91.2 174 
 PTB  HZ EP        533 14.10                             129   -0.58 9  143 262 
 PTB  HN ES        533 33.59                             129   -0.80 9  143 262 
 PTB  HZ I         533 37.54         4.3 0.18            135            143 262 
 SPBC HZ EP        533 15.28                             127   -0.53 9  154 220 
 SPBC HN ES        533 36.98                             127    0.58 9  154 220 
 SPBC HZ I         533 39.60         4.0 0.10            131            154 220 
 ZAR  HZ EP        533 21.59                             119    0.62 9  205 295 
 ZAR  HN ES        533 45.69                             119    0.10 9  205 295 
 ZAR  HZ I         533 46.65         3.6 0.36            121            205 295 
 GUY2CHZ EP        533 32.36                             110    0.97 7  293 236 
 GUY2CHE ES   4    534  6.07                             110    1.93 0  293 236 
 GUY2CHZ I         534 12.13         1.6 0.24                           293 236 
                                                                                
