 2016  9 8 0108 45.0 L   6.782 -73.109146.6  RSN  9 0.5 1.7LRSN                1
 GAP=142        0.99       4.7     5.2  6.1  0.5387E+01 -0.8922E+00 -0.7357E+01E
 Epicentro: LOS SANTOS - SANTANDER                                             3
 ACTION:UPD 17-08-17 21:07 OP:lp   STATUS:               ID:20160908010845 L   I
 OLDACT:UP  16-09-08 13:44 OP:dani STATUS:               ID:20160908005736     3
 OLDACT:UP  16-09-08 13:41 OP:dani STATUS:               ID:20160908005736     3
 OLDACT:UP  16-09-08 13:38 OP:dani STATUS:               ID:20160908005736     3
 OLDACT:UP  16-09-08 13:38 OP:dani STATUS:               ID:20160908005736     3
 OLDACT:UP  16-09-08 13:38 OP:dani STATUS:               ID:20160908005736     3
 OLDACT:REG 16-09-08 12:10 OP:dani STATUS:               ID:20160908005736     3
 2016-09-08-0058-00M.COL___354                                                 6
 STAT SP IPHASW D HRMM SECON CODA AMPLIT PERI AZIMU VELO AIN AR TRES W  DIS CAZ7
 BAR2 EZ EP        1 9  4.42                             171   -0.2410 22.5 201 
 BAR2 HE ES        1 9 19.91                             171   -0.1310 22.5 201 
 BAR2 EZ I         1 9 20.50        13.6 0.24            176           22.5 201 
 BRR  HZ EP        1 9  6.55                             151    0.1010 75.7 298 
 BRR  HN ES        1 9 23.68                             151    0.4610 75.7 298 
 BRR  HZ I         1 9 24.58        11.4 0.38            149           75.7 298 
 PAM  EZ EP        1 9  7.53                             151    0.3310 76.5  36 
 PAM  EZ I         1 9 26.73         6.4 0.56            142           76.5  36 
 RUS  HZ EP        1 9  8.30                             145   -0.3310 98.4 178 
 RUS  HE ES        1 9 27.11                             145    0.0110 98.4 178 
 RUS  HZ I         1 9 27.81         6.3 0.22            146           98.4 178 
 PTB  HZ EP   9    1 9 11.27                             131   -1.04 0  151 260 
 PTB  HN ES        1 9 32.31                             130   -0.30 9  151 260 
 PTB  HZ I         1 9 36.88         5.3 0.16            132            151 260 
 SPBC HZ EP   4    1 9 11.99                             129   -1.62 0  164 221 
 SPBC HE ES        1 9 35.69                             129   -0.28 9  164 221 
 SPBC HZ I         1 9 37.55        10.6 0.14            130            164 221 
 ZAR  HZ EP        1 9 17.88                             122   -0.03 8  209 292 
 ZAR  HE ES        1 9 43.37                             122   -0.25 8  209 292 
 ZAR  HZ I         1 9 48.74         5.9 0.58            120            209 292 
 GUY2CHZ EP        1 9 29.96                             112    1.12 7  303 236 
 GUY2CHE ES   4    110  7.35                             112    4.28 0  303 236 
 GUY2CHZ I         110 11.69         1.8 0.24                           303 236 
 SJC  HZ EP        1 9 39.89                             106   -1.10 6  413 327 
 SJC  HN ES   4    110 22.91                             106   -1.80 0  413 327 
                                                                                
