 2017 10 8 0629 48.9 L   6.811 -73.065141.5  RSN  8 0.5 1.4LRSN                1
 GAP=159        1.19       6.4    10.0  7.8 -0.3063E+02  0.2429E+02  0.6628E+01E
 Epicentro: LOS SANTOS - SANTANDER                                             3
 ACTION:UPD 17-11-07 19:29 OP:rebc STATUS:               ID:20171008062948 L   I
 OLDACT:REG 17-10-08 12:46 OP:dhb  STATUS:               ID:20171008062737     3
 2017-10-08-0628-00M.COL___405                                                 6
 STAT SP IPHASW D HRMM SECON CODA AMPLIT PERI AZIMU VELO AIN AR TRES W  DIS CAZ7
 BAR2 EZ EP        630  7.43                             168   -0.6510 27.5 208 
 BAR2 EZ ES        630 22.78                             168   -0.2910 27.5 208 
 BAR2 EZ I         630 24.35         5.7 0.50             47           27.5 208 
 PAM  EZ EP        630 10.22                             152   -0.0410 71.0  35 
 PAM  EN ES        630 27.58                             152    0.6410 71.0  35 
 PAM  EZ I         630 29.32         5.4 0.48             47           71.0  35 
 RUS  HZ EP        630 11.97                             143   -0.3110  102 181 
 RUS  HN ES        630 30.79                             143    0.2510  102 181 
 RUS  HZ I         630 32.28         4.2 0.34             47            102 181 
 SPBC HZ EP        630 17.06                             127   -0.64 9  170 221 
 SPBC HN ES   2    630 39.52                             127   -0.66 5  170 221 
 SPBC HZ I         630 43.74         4.6 0.22             47            170 221 
 YPLC HZ EP        630 17.80                             126   -0.26 9  174 154 
 YPLC HZ I         630 59.15         1.8 0.21             37            174 154 
 NOR  HZ EP        630 25.76                             117    0.53 8  243 235 
 NOR  HE ES   3    630 52.95                             117   -0.64 2  243 235 
 NOR  HZ I         630 56.96         2.2 0.32             37            243 235 
 CHI  HZ EP        630 26.63                             116   -0.11 8  252 197 
 CHI  HE ES     C  630 57.25                             116    0.97 8  252 197 
 CHI  HZ I         630 59.31         1.0 0.46             37            252 197 
 GUY2CHZ EP        630 34.07                             111    0.87 7  309 236 
 GUY2CHE ES   4    631 10.74                             111    2.96 0  309 236 
 GUY2CHZ I         631 14.01         1.0 0.54                           309 236 
                                                                                
