 2013  3 8 0803 19.2 L   6.808 -73.106145.7  RSN  5 0.5 1.4LRSN                1
 GAP=141        1.37       7.5     7.2 12.0 -0.5698E+01  0.7292E+01  0.1460E+02E
 Epicentro: LOS SANTOS - SANTANDER                                             3
 ACTION:UPD 13-04-09 14:00 OP:ep   STATUS:               ID:20130308080319 L   I
 2013-03-08-0758-50M.COL___200                                                 6
 STAT SP IPHASW D HRMM SECON CODA AMPLIT PERI AZIMU VELO AIN AR TRES W  DIS CAZ7
 BAR2 SZ EP        8 3 38.95                             170    0.0610 25.3 200 
 BAR2 SZ I         8 3 39.66         4.3 0.16            171           25.3 200 
 PAM  SZ EP        8 3 41.59                             152    0.3610 73.9  37 
 PAM  SZ I         8 3 41.76         4.6 0.16            153           73.9  37 
 PAM  SN ES        8 3 57.60                             152   -0.7910 73.9  37 
 BRR  HZ EP        8 3 40.70                             151    0.1410 74.7 296 
 BRR  HN ES        8 3 58.11                             151    0.9010 74.7 296 
 BRR  HN I         8 4  1.31         4.9 0.16            151           74.7 296 
 RUS  HZ EP        8 3 43.46                             144    0.4410  101 179 
 RUS  HN ES        8 4  1.50                             144   -0.0810  101 179 
 PTB  HZ EP        8 3 45.93                             131   -0.67 9  152 259 
 PTB  HN ES        8 4  7.40                             131   -0.55 9  152 259 
                                                                                
