 2011  2 8 0852 33.8 L   6.774 -73.317138.0  RSN  4 0.2 1.5LRSN                1
 GAP=214        0.41       3.7    15.7  5.4 -0.2625E+02  0.1600E+01 -0.2558E+01E
 Epicentro: ZAPATOCA - SANTANDER                                               3
 ACTION:UP  11-03-28 15:06 OP:jfem STATUS:               ID:20110208085233 L   I
 2011-02-08-0840-00M.COL___140                                                 6
 STAT SP IPHASW D HRMM SECON CODA AMPLIT PERI AZIMU VELO SNR AR TRES W  DIS CAZ7
 BTL  SZ EP   1    852 52.50                             173     0.2 7   17  19 
 BTL  SZ ES   2    853  6.69                             173    -0.2 5   17  19 
 BAR2 SZ IP        852 52.48                             169     0.010   25 144 
 BAR2 SZ I         852 52.86         7.5 0.16                            25 144 
 BAR2 SZ ES   2    853  7.17                             169     0.1 5   25 144 
 RUS  HZ EP   1    852 56.54                             142    -0.2 7  101 165 
 RUS  HN ES   2    853 15.01                             142     0.3 5  101 165 
 RUS  HZ I         853 16.45         3.7 0.35                           101 165 
 GRA  SZ EP   1    852 59.31                             133     0.1 7  135  25 
 GRA  SZ ES   2    853 18.77                             133    -0.2 5  135  25 
 GRA  SZ I         853 20.07         5.6 0.27                           135  25 
                                                                                
