 2017 11 8 0220  2.1 L   6.783 -73.155146.5  RSN 10 0.4 1.6LRSN                1
 GAP=111        0.83       3.3     3.5  5.3 -0.7808E+00  0.1938E+01  0.3970E+01E
 Epicentro: LOS SANTOS - SANTANDER                                             3
 ACTION:UPD 17-12-12 19:53 OP:rebc STATUS:               ID:20171108022002 L   I
 OLDACT:REG 17-11-08 14:53 OP:dnl  STATUS:               ID:20171108021736     3
 2017-11-08-0218-00M.COL___417                                                 6
 STAT SP IPHASW D HRMM SECON CODA AMPLIT PERI AZIMU VELO AIN AR TRES W  DIS CAZ7
 BAR2 EZ EP        220 21.64                             171   -0.1210 21.3 188 
 BAR2 EZ ES        220 36.89                             171   -0.2210 21.3 188 
 BAR2 EZ I         220 38.32         7.5 0.26            169           21.3 188 
 PAM  EZ EP        220 24.78                             150    0.2810 79.5  39 
 PAM  EN ES        220 41.91                             150   -0.0710 79.5  39 
 PAM  EZ I         220 44.83         4.5 0.24            155           79.5  39 
 RUS  HZ EP        220 25.68                             144   -0.1010 98.8 175 
 RUS  HE ES        220 44.65                             144    0.3910 98.8 175 
 RUS  HZ I         220 46.47         3.0 0.38            144           98.8 175 
 PTB  HZ EP   2    220 28.54                             132   -0.45 5  146 259 
 PTB  HN ES        220 49.69                             132   -0.27 9  146 259 
 PTB  HZ I         220 54.58         3.1 0.16            132            146 259 
 SPBC HZ EP        220 30.62                             130    0.18 9  161 219 
 SPBC HN ES        220 53.02                             130    0.47 9  161 219 
 SPBC HZ I         221  0.49         5.4 0.30            129            161 219 
 YPLC HZ EP   2    220 32.23                             127    0.41 4  176 151 
 YPLC HE ES   4    220 56.11                             127    1.09 0  176 151 
 YPLC HZ I         220 57.12         5.6 0.26            128            176 151 
 ZAR  HZ EP   2    220 35.15                             123    0.60 4  204 293 
 ZAR  HE ES        220 59.78                             123   -0.09 9  204 293 
 ZAR  HZ I         221  6.97         2.9 0.30            123            204 293 
 CHI  HZ EP        220 40.07                             117    0.47 8  247 195 
 CHI  HN ES        221  8.33                             117   -0.53 8  247 195 
 CHI  HZ I         221 15.31         1.9 0.34            118            247 195 
 GUY2CHZ EP   4    220 46.87                             113    1.36 0  299 235 
 GUY2CHN ES   4    221 22.40                             113    3.02 0  299 235 
 GUY2CHZ I         221 26.98         2.0 0.52                           299 235 
 PTGC HZ EP        220 44.92                             112   -0.90 7  307 158 
 PTGC HN ES   4    221 18.60                             112   -1.34 0  307 158 
 PTGC HZ I         221 23.40         5.1 0.42            113            307 158 
                                                                                
