 2014  8 8 0101 29.3 L   6.816 -73.173138.6  RSN  7 0.3 1.3LRSN                1
 GAP=132        0.68       3.6     3.1  5.2  0.1400E+01  0.1275E+01 -0.1145E+01E
 Epicentro: LOS SANTOS - SANTANDER                                             3
 ACTION:UPD 14-09-15 21:47 OP:nd   STATUS:               ID:20140808010129 L   I
 OLDACT:DUP 14-08-08 16:49 OP:spq  STATUS:               ID:20140808005819d    3
 2014-08-08-0058-18M.COL___257                                                 6
 STAT SP IPHASW D HRMM SECON CODA AMPLIT PERI AZIMU VELO AIN AR TRES W  DIS CAZ7
 BAR2 SZ EP   1    1 1 48.17                             169    0.11 7 24.8 182 
 BAR2 SZ ES   1    1 2  2.60                             169   -0.13 7 24.8 182 
 BAR2 SZ I         1 2  4.13         3.8 0.24            168           24.8 182 
 BRR  HZ EP        1 1 49.76                             152    0.3210 67.7 298 
 BRR  HN ES        1 2  5.12                             152   -0.0610 67.7 298 
 BRR  HZ I         1 2  9.90         5.0 0.46            151           67.7 298 
 PAM  SZ EP        1 1 50.34                             149   -0.4210 78.0  42 
 RUS  HZ EP        1 1 52.74                             142    0.2710  103 174 
 RUS  HN ES   1    1 2 10.70                             142    0.13 7  103 174 
 RUS  HZ I         1 2 12.80         1.5 0.44            144            103 174 
 PTB  HZ EP        1 1 55.17                             131   -0.25 9  145 258 
 PTB  HN ES        1 2 16.08                             131    0.26 9  145 258 
 PTB  HZ I         1 2 18.94         3.0 0.18            131            145 258 
 ZAR  HZ EP        1 2  1.15                             121    0.26 9  201 292 
 ZAR  HN ES        1 2 25.51                             121   -0.05 9  201 292 
 ZAR  HZ I         1 2 31.38         3.2 0.36            122            201 292 
 NOR  HN ES        1 2 31.37                             117   -0.50 8  233 234 
 NOR  HZ I         1 2 37.64         2.2 0.14            118            233 234 
                                                                                
