 2016  7 8 0819 51.3 L   6.872 -73.143135.9  RSN 11 0.6 1.9LRSN                1
 GAP=247        1.24       5.9     6.2  8.2  0.1240E+02  0.1971E+02  0.8701E+01E
 Epicentro: LOS SANTOS - SANTANDER                                             3
 ACTION:UPD 17-03-29 16:48 OP:lp   STATUS:               ID:20160708081951 L   I
 OLDACT:UP  16-07-08 17:31 OP:dani STATUS:               ID:20160708081742     3
 OLDACT:UP  16-07-08 17:31 OP:dani STATUS:               ID:20160708081742     3
 OLDACT:UP  16-07-08 17:31 OP:dani STATUS:               ID:20160708081742     3
 OLDACT:REG 16-07-08 13:34 OP:dani STATUS:               ID:20160708081742     3
 2016-07-08-0817-42M.COL___325                                                 6
 STAT SP IPHASW D HRMM SECON CODA AMPLIT PERI AZIMU VELO AIN AR TRES W  DIS CAZ7
 BAR2 EZ EP     C  820 10.26                             166    0.3610 31.2 188 
 BAR2 EZ ES        820 24.08                             166   -0.3610 31.2 188 
 BAR2 EZ I         820 26.66        15.6 0.18            162           31.2 188 
 RUS  HZ EP        820 14.84                             139    0.1810  108 177 
 RUS  HE ES        820 33.58                             139    0.6710  108 177 
 RUS  HZ I         820 34.03         6.4 0.16            140            108 177 
 PTB  HZ EP        820 16.82                             129   -0.81 9  150 256 
 PTB  HE ES        820 37.53                             129   -0.67 9  150 256 
 PTB  HZ I         820 41.46         9.4 0.16            129            150 256 
 SPBC HZ EP        820 19.24                             126   -0.41 9  170 217 
 SPBC HE ES   4    820 40.49                             126   -1.31 0  170 217 
 SPBC HZ I         820 48.74         8.8 0.20            126            170 217 
 ZAR  HZ EP        820 23.62                             120    0.81 9  202 290 
 ZAR  HN ES        820 47.43                             120    0.01 9  202 290 
 ZAR  HZ I         820 54.27         9.3 0.44            121            202 290 
 NOR  HN ES        820 55.44                             116    0.60 8  240 233 
 NOR  HZ I         821  0.73         6.3 0.28            117            240 233 
 CHI  HE ES        820 58.45                             114   -0.50 8  256 195 
 CHI  HZ I         821  1.18         2.9 0.24            116            256 195 
 HEL  HZ EP   4    820 29.85                             112   -1.40 0  274 254 
 HEL  HE ES        821  3.12                             112    0.67 8  274 254 
 GUY2CHZ EP        820 34.38                             110   -0.61 7  306 234 
 GUY2CHE ES   4    821 12.23                             110    3.13 0  306 234 
 GUY2CHZ I         821 18.48         4.3 0.74                           306 234 
 PRA  HZ EP        820 44.93                             104   -0.36 6  399 209 
 PRA  HN ES        821 26.86                             104   -0.57 6  399 209 
 PRA  HZ I         821 30.89         3.3 0.28            106            399 209 
 ORTC HZ EP        820 45.79                             104    0.15 6  402 216 
 ORTC HN ES        821 28.90                             104    0.85 6  402 216 
 ORTC HZ I         821 32.72         2.5 0.40            106            402 216 
                                                                                
