 2012  6 8 0318 51.3 L   6.810 -73.142143.9  RSN  6 0.4 2.1LRSN                1
 GAP=136        0.82       4.7     5.3 10.4 -0.4151E+01  0.2196E+02 -0.1157E+02E
 Epicentro: LOS SANTOS - SANTANDER                                             3
 ACTION:UPD 12-08-06 17:48 OP:ep   STATUS:               ID:20120608031855 L   I
 2012-06-08-0316-37M.COL___173                                                 6
 STAT SP IPHASW D HRMM SECON CODA AMPLIT PERI AZIMU VELO AIN AR TRES W  DIS CAZ7
 BAR2 SZ EP        319 10.69                             170   -0.0210 24.4 190 
 BAR2 SZ I         319 27.08        23.1 0.18            167           24.4 190 
 PAM  SZ EP   1    319 12.84                             151   -0.40 7 76.3  40 
 PAM  SE ES   1    319 30.79                             151    0.43 7 76.3  40 
 RUS  HN ES   1    319 33.51                             143    0.15 7  102 176 
 RUS  HZ I         319 34.81        14.1 0.25            139            102 176 
 PTB  HZ EP   1    319 18.06                             131   -0.09 7  148 258 
 PTB  HN ES   1    319 38.49                             131   -0.62 7  148 258 
 OCA  HZ EP   1    319 19.07                             129   -0.28 7  159 353 
 OCA  HN ES   1    319 40.94                             129   -0.31 7  159 353 
 OCA  HZ I         319 43.90        19.3 0.16            128            159 353 
 ZAR  HZ EP   1    319 24.53                             122    0.93 6  204 292 
 ZAR  HN ES   1    319 49.21                             122    0.40 6  204 292 
 ZAR  HZ I         319 55.24        12.5 0.27            120            204 292 
                                                                                
