 2014  7 8 0325 35.7 L   6.799 -73.147150.8  RSN  8 0.5 1.7LRSN                1
 GAP=112        1.16       4.5     5.1  7.4  0.4137E+01 -0.1029E+01 -0.1488E+01E
 Epicentro: LOS SANTOS - SANTANDER                                             3
 ACTION:UPD 15-03-16 20:42 OP:nd   STATUS:               ID:20140708032535 L   I
 OLDACT:DUP 14-07-08 16:21 OP:stll STATUS:               ID:20140708031818d    3
 2014-07-08-0318-17M.COL___268                                                 6
 STAT SP IPHASW D HRMM SECON CODA AMPLIT PERI AZIMU VELO AIN AR TRES W  DIS CAZ7
 BAR2 SZ EP        325 55.96                             171    0.0410 23.1 190 
 BAR2 SZ I         325 56.19        16.5 0.10            173           23.1 190 
 BAR2 SZ ES        326 11.95                             171    0.2510 23.1 190 
 BRR  HZ EP        325 57.84                             153    0.4610 71.1 299 
 BRR  HZ I         325 57.94         9.3 0.18            151           71.1 299 
 BRR  HN ES        326 14.84                             153    0.5510 71.1 299 
 RUS  HZ EP        325 59.70                             145   -0.2310  100 176 
 RUS  HZ I         326  0.49         3.9 0.20            148            100 176 
 RUS  HN ES        326 18.65                             145   -0.1810  100 176 
 PTB  HZ EP        326  2.55                             133   -0.50 9  148 259 
 PTB  HN ES        326 24.10                             133   -0.29 9  148 259 
 PTB  HZ I         326 27.20         5.7 0.18            133            148 259 
 TAM  HZ EP        326  4.16                             132    0.38 9  155 105 
 OCA  HN ES        326 25.77                             131   -1.03 9  160 353 
 OCA  HZ I         326 34.93         3.7 0.38            130            160 353 
 SPBC HZ EP        326  4.93                             130    0.37 9  163 219 
 SPBC HN ES        326 26.53                             130   -0.54 9  163 219 
 SPBC HZ I         326 30.49         7.7 0.20            132            163 219 
 ZAR  HZ EP        326  8.59                             123    0.14 9  204 292 
 ZAR  HN ES        326 34.55                             123    0.54 9  204 292 
 ZAR  HZ I         326 40.29         5.9 0.30            123            204 292 
                                                                                
