 2013  1 8 0326 17.2 L   6.806 -73.161152.6  RSN  8 0.4 2.6LRSN                1
 GAP=192        1.01       3.8     4.9  6.1  0.6071E+00  0.5887E+01  0.2023E+01E
 Epicentro: LOS SANTOS - SANTANDER                                             3
 ACTION:UPD 13-02-15 09:12 OP:ep   STATUS:               ID:20130108032617 L   I
 2013-01-08-0320-00M.COL___242                                                 6
 STAT SP IPHASW D HRMM SECON CODA AMPLIT PERI AZIMU VELO AIN AR TRES W  DIS CAZ7
 BAR2 SZ EP     C  326 37.65                             171   -0.0310 23.8 186 
 BAR2 SZ ES        326 53.05                             171   -0.5910 23.8 186 
 BAR2 SZ I         326 54.32        49.3 0.36            166           23.8 186 
 BRR  HZ EP     C  326 39.54                             154    0.5210 69.4 299 
 BRR  HN ES        326 56.43                             154    0.4110 69.4 299 
 BRR  HN I         326 58.09        72.8 0.22            148           69.4 299 
 PTB  HZ EP        326 44.54                             134   -0.08 9  146 258 
 PTB  HN ES        327  5.60                             134   -0.40 9  146 258 
 PTB  HN I         327 10.86        99.3 0.48            130            146 258 
 OCA  HZ EP        326 45.65                             131   -0.34 9  159 354 
 OCA  HN ES        327  8.49                             131    0.06 9  159 354 
 ZAR  HZ EP        326 50.15                             124    0.21 9  202 292 
 ZAR  HN ES        327 16.21                             124    0.75 9  202 292 
 ZAR  HN I         327 23.30        48.6 0.36            122            202 292 
 CHI  HZ EP        326 55.68                             118    0.35 8  249 195 
 CHI  HN ES        327 25.53                             118    0.47 8  249 195 
 CHI  HN I         327 27.43        16.7 0.26            118            249 195 
 HEL  HZ EP        326 57.56                             116   -0.08 8  271 256 
 HEL  HN ES        327 28.70                             116   -0.46 8  271 256 
 HEL  HN I         327 39.30        10.7 0.24            115            271 256 
 URE  HZ EP        326 57.60                             115   -0.83 7  282 292 
 URE  HN ES        327 30.42                             115   -0.16 7  282 292 
 URE  HN I         327 38.63        26.2 0.24            114            282 292 
                                                                                
