 2012 11 8 0743 47.1 L   6.805 -73.144146.4  RSN  9 0.5 2.1LRSN                1
 GAP= 71        1.20       4.2     4.4  7.3  0.3260E+01  0.3432E+00 -0.4090E+01E
 Epicentro: LOS SANTOS - SANTANDER                                             3
 ACTION:UPD 12-12-05 15:32 OP:}ep  STATUS:               ID:20121108074347 L   I
 2012-11-08-0740-00M.COL___230                                                 6
 STAT SP IPHASW D HRMM SECON CODA AMPLIT PERI AZIMU VELO AIN AR TRES W  DIS CAZ7
 BAR2 SZ EP        744  6.88                             170    0.0810 24.0 190 
 BAR2 SZ ES        744 21.95                             170   -0.2310 24.0 190 
 BAR2 SZ I         744 23.36        32.9 0.18                          24.0 190 
 GIR2 SZ EP        744  7.02                             167    0.2010 30.7 350 
 BRR  HZ EP        744  8.80                             153    0.5010 71.1 298 
 BRR  HE ES        744 25.83                             153    0.9910 71.1 298 
 BRR  HN I         744 26.16        32.1 0.20                          71.1 298 
 PAM  SZ EP        744  9.87                             151    0.5410 76.8  40 
 PAM  SZ I         744 10.01        15.6 0.20                          76.8  40 
 PAM  SN ES        744 26.74                             151    0.0510 76.8  40 
 RUS  HZ EP        744 11.00                             144    0.0610  101 176 
 RUS  HE ES        744 29.18                             144   -0.3710  101 176 
 RUS  HN I         744 30.39        15.5 0.26                           101 176 
 PTB  HZ EP        744 13.86                             132   -0.27 9  148 259 
 PTB  HN ES        744 34.70                             132   -0.53 9  148 259 
 PTB  HN I         744 40.06        20.4 0.22                           148 259 
 TAM  HZ IP     C  744 15.26                             131    0.45 9  155 105 
 TAM  HZ I         744 15.45         8.5 0.36                           155 105 
 TAM  HN ES        744 35.90                             131   -0.53 9  155 105 
 OCA  HN ES        744 36.67                             130   -0.80 9  160 353 
 OCA  HN I         744 41.73        50.8 0.32                           160 353 
 SML  HZ EP        744 23.40                             118   -0.30 8  243 335 
 SML  HE ES        744 51.93                             118   -0.32 8  243 335 
                                                                                
