 2015  4 8 0147 46.2 L   6.537 -73.495115.1  RSN 11 0.5 1.9LRSN                1
 GAP= 67        1.18       3.2     4.1  7.1 -0.3555E+01  0.9903E+01 -0.4266E+01E
 Epicentro: EL CARMEN - SANTANDER                                              3
 ACTION:UPD 15-06-03 16:53 OP:cam  STATUS:               ID:20150408014746 L   I
 OLDACT:UP  15-04-08 18:28 OP:mh   STATUS:               ID:20150408013748     3
 OLDACT:REG 15-04-08 12:34 OP:akv  STATUS:               ID:20150408013748     3
 2015-04-08-0137-48M.COL___257                                                 6
 STAT SP IPHASW D HRMM SECON CODA AMPLIT PERI AZIMU VELO AIN AR TRES W  DIS CAZ7
 BAR2 EZ EP        148  3.12                             162    0.6310 35.2  80 
 BAR2 EZ ES        148 14.71                             162   -0.5210 35.2  80 
 BAR2 EZ I         148 17.10        47.8 0.12            166           35.2  80 
 BRR  HZ EP        148  3.87                             147    0.0310 67.4 339 
 BRR  HN ES   1    148 18.41                             147    0.79 7 67.4 339 
 BRR  HZ I         148 23.50        11.7 0.10            148           67.4 339 
 RUS  HZ EP        148  5.99                             141    0.2310 84.6 147 
 RUS  HN ES   1    148 20.88                             141   -0.16 7 84.6 147 
 RUS  HZ I         148 22.98         6.3 0.42            148           84.6 147 
 PTB  HZ EP   1    148  5.92                             134   -0.96 7  106 270 
 PTB  HN ES        148 23.20                             134    0.1710  106 270 
 PTB  HZ I         148 25.45        12.2 0.38            136            106 270 
 SPBC HZ EP        148  8.23                             131    0.3010  117 213 
 SPBC HN ES        148 24.63                             131   -0.2710  117 213 
 SPBC HZ I         148 29.95        27.5 0.22            136            117 213 
 PAM  SN ES        148 27.53                             129    0.3310  125  45 
 PAM  SZ I         148 29.98         9.9 0.36            133            125  45 
 ZAR  HZ EP        148 15.05                             117    0.44 9  184 305 
 ZAR  HN ES        148 37.33                             117    0.54 9  184 305 
 ZAR  HZ I         148 41.03         9.2 0.30            120            184 305 
 NOR  HZ EP        148 14.77                             117   -0.16 9  186 235 
 NOR  HN ES        148 36.60                             117   -0.76 9  186 235 
 NOR  HZ I         148 40.58         8.9 0.18            121            186 235 
 OCA  HZ EP        148 14.96                             117   -0.41 9  189   6 
 OCA  HE ES        148 37.49                             117   -0.66 9  189   6 
 OCA  HZ I         148 44.79        22.4 0.30            120            189   6 
 GUY2CHZ EP        148 23.70                             109    0.78 8  253 235 
 GUY2CHN ES   4    148 51.92                             109    0.33 0  253 235 
 SML  HZ EP   1    148 22.70                             109   -0.25 6  258 346 
 SML  HN ES        148 51.08                             109   -0.56 8  258 346 
 SML  HZ I         148 58.33         9.9 0.12            112            258 346 
                                                                                
