 2017  6 8 0001 24.1 L   6.724 -73.294138.8  RSN  5 0.2 1.1LRSN                1
 GAP=213        0.53       4.1     3.5  8.3  0.7888E+01 -0.7473E+01 -0.1911E+02E
 Epicentro: GALAN - SANTANDER                                                  3
 ACTION:UPD 17-09-14 16:50 OP:jn   STATUS:               ID:20170608000124 L   I
 OLDACT:REG 17-06-08 12:14 OP:edw  STATUS:               ID:20170608000000     3
 2017-06-08-0000-15M.COL___365                                                 6
 STAT SP IPHASW D HRMM SECON CODA AMPLIT PERI AZIMU VELO AIN AR TRES W  DIS CAZ7
 BRR  HZ EP        0 1 44.10                             154    0.0510 62.7 313 
 RUS  HZ EP        0 1 46.50                             144   -0.2810 94.9 166 
 RUS  HN ES        0 2  4.58                             144    0.1310 94.9 166 
 RUS  HZ I         0 2  6.04         2.7 0.26            149           94.9 166 
 PTB  HZ EP        0 1 49.15                             134    0.2110  130 261 
 PTB  HN ES        0 2  8.03                             134   -0.2710  130 261 
 PTB  HZ I         0 2 14.30         1.3 0.32            137            130 261 
 SPBC HE ES        0 2 11.22                             131    0.11 9  147 216 
 ZAR  HE ES        0 2 19.03                             122    0.08 9  193 296 
                                                                                
