 2015  9 8 0954 50.8 L   6.824 -73.144148.0  RSN 12 0.5 2.2LRSN                1
 GAP=183        1.09       3.3     5.6  6.0 -0.4117E+00  0.2564E+01  0.1057E+01E
 Epicentro: LOS SANTOS - SANTANDER                                             3
 ACTION:UPD 15-10-28 16:25 OP:cam  STATUS:               ID:20150908095450 L   I
 OLDACT:UP  15-09-08 19:23 OP:mh   STATUS:               ID:20150908094749     3
 OLDACT:UP  15-09-08 19:23 OP:mh   STATUS:               ID:20150908094749     3
 OLDACT:UP  15-09-08 19:23 OP:mh   STATUS:               ID:20150908094749     3
 OLDACT:REG 15-09-08 14:05 OP:mh   STATUS:               ID:20150908094749     3
 2015-09-08-0947-49M.COL___350                                                 6
 STAT SP IPHASW D HRMM SECON CODA AMPLIT PERI AZIMU VELO AIN AR TRES W  DIS CAZ7
 BAR2 EZ EP        955 10.89                             170    0.1310 25.9 189 
 BAR2 EZ ES        955 26.07                             170   -0.2610 25.9 189 
 BAR2 EZ I         955 27.85        18.8 0.32            174           25.9 189 
 BRR  HZ IP     C  955 12.71                             153    0.5710 70.1 297 
 BRR  HN ES        955 29.62                             153    0.8410 70.1 297 
 BRR  HZ I         955 32.68        74.3 0.94            148           70.1 297 
 RUS  HZ EP   1    955 14.52                             144   -0.45 7  103 176 
 RUS  HN ES   1    955 33.62                             144   -0.19 7  103 176 
 RUS  HZ I         955 34.19        11.2 0.28            144            103 176 
 PTB  HZ EP        955 17.45                             132   -0.57 9  148 258 
 PTB  HN ES        955 38.69                             132   -0.55 9  148 258 
 PTB  HZ I         955 43.09        19.4 0.30            129            148 258 
 OCA  HZ EP        955 19.49                             131    0.43 9  158 353 
 OCA  HZ I         955 46.64        28.7 0.20            124            158 353 
 SPBC HZ EP        955 19.78                             129    0.10 9  165 218 
 SPBC HN ES   1    955 41.85                             129   -0.35 7  165 218 
 SPBC HZ I         955 46.48        17.0 0.20            127            165 218 
 ZAR  HN ES   1    955 48.28                             123   -0.39 6  203 291 
 ZAR  HZ I         955 55.43        25.6 0.36            118            203 291 
 NOR  HZ EP        955 26.61                             119   -0.23 8  236 234 
 NOR  HN ES        955 55.65                             119    0.70 8  236 234 
 NOR  HZ I         956  2.34        10.2 0.26            116            236 234 
 SML  HZ EP        955 26.84                             118   -0.47 8  241 335 
 SML  HN ES        955 55.15                             118   -0.64 8  241 335 
 SML  HZ I         956  4.06        15.7 0.24            113            241 335 
 CHI  HZ EP        955 28.87                             117   -0.04 8  251 195 
 CHI  HN ES        955 58.28                             117   -0.35 8  251 195 
 CHI  HZ I         956  3.75         6.0 0.32            115            251 195 
 TOL  SZ EP        955 40.31                             110    0.93 6  345 224 
 TOL  SN ES   1    956 17.63                             110    0.36 5  345 224 
 TOL  SZ I         956 23.72         4.4 0.24            107            345 224 
 PRA  HZ EP   1    955 45.48                             107    0.80 4  394 209 
 PRA  HN ES   1    956 26.39                             107   -0.31 4  394 209 
 PRA  HZ I         956 30.34         5.3 0.48            104            394 209 
                                                                                
