 2011  4 8 0059 25.5 L   6.849 -73.142144.0  RSN  4 0.1 1.5LRSN                1
 GAP=252        0.35       6.2     4.6  6.2 -0.1889E+02 -0.1412E+02  0.2246E+02E
 Epicentro: LOS SANTOS - SANTANDER                                             3
 ACTION:UP  11-06-22 15:29 OP:REBC STATUS:               ID:20110408005925 L   I
 2011-04-08-0055-45S.COL___138                                                 6
 STAT SP IPHASW D HRMM SECON CODA AMPLIT PERI AZIMU VELO SNR AR TRES W  DIS CAZ7
 BTL  SZ EP        059 44.88                             174     0.110   16 299 
 BRR  HZ EP        059 46.20                             153    -0.110   69 294 
 BRR  HN ES   1    1 0  2.68                             153     0.1 7   69 294 
 BRR  HZ I         1 0  6.45         7.4 0.12                            69 294 
 PAM  SZ EP        059 47.27                             152     0.010   73  42 
 PAM  SN ES   2    1 0  4.09                             152    -0.2 5   73  42 
 PAM  SZ I         1 0  6.13         3.4 0.51                            73  42 
 GRA  SZ EP   2    059 50.17                             138     0.0 5  120  18 
 GRA  SZ ES   1    1 0  9.40                             138     0.0 7  120  18 
 GRA  SZ I         1 0 10.55         7.5 0.22                           120  18 
                                                                                
