 2017  9 8 0726 30.6 L   6.796 -73.188140.2  RSN  5 0.1 1.1LRSN                1
 GAP=131        0.37       1.8     2.2  4.1 -0.9994E+00  0.3602E+01 -0.1743E+01E
 Epicentro: ZAPATOCA - SANTANDER                                               3
 ACTION:UPD 17-10-05 19:10 OP:rebc STATUS:               ID:20170908072630 L   I
 OLDACT:DUP 17-09-08 18:22 OP:dnl  STATUS:               ID:20170908071746d    3
 OLDACT:REG 17-09-08 13:24 OP:dnl  STATUS:               ID:20170908071745     3
 2017-09-08-0718-00M.COL___419                                                 6
 STAT SP IPHASW D HRMM SECON CODA AMPLIT PERI AZIMU VELO AIN AR TRES W  DIS CAZ7
 BAR2 EZ EP   2    726 49.72                             170    0.20 5 22.6 178 
 BAR2 EZ ES        727  4.14                             170   -0.1610 22.6 178 
 BAR2 EZ I         727  5.61         4.2 0.30            170           22.6 178 
 PAM  EZ EP        726 52.39                             149   -0.0310 80.8  42 
 PAM  EN ES        727  9.49                             149    0.0410 80.8  42 
 PAM  EZ I         727 11.56         1.8 0.54            151           80.8  42 
 RUS  HZ EP   2    726 53.43                             142   -0.36 5  101 173 
 RUS  HN ES        727 12.02                             142    0.1310  101 173 
 RUS  HZ I         727 12.86         0.9 0.20            144            101 173 
 SPBC HE ES        727 20.02                             128    0.02 9  160 218 
 SPBC HZ I         727 24.56         2.1 0.20            128            160 218 
 ZAR  HZ EP   4    727  5.17                             122    2.94 0  200 293 
 ZAR  HN ES        727 26.95                             122    0.03 9  200 293 
 ZAR  HZ I         727 30.02         1.3 0.30            122            200 293 
                                                                                
