 2010  5 8 0536  5.4 L   6.615 -73.432111.8  RSN  6 0.2 0.8LRSN                1
 GAP=176        0.53       3.9     7.8  6.4  0.1559E+02 -0.2383E+02 -0.8676E+01E
 Epicentro: EL CARMEN DE CHUCURI - SANTANDER                                   3
 ACTION:UP  10-08-24 10:03 OP:vdl  STATUS:               ID:20100508053605 L   I
 2010-05-08-0535-48S.COL___105                                                 6
 STAT SP IPHASW D HRMM SECON CODA AMPLIT PERI AZIMU VELO SNR AR TRES W  DIS CAZ7
 BAR2 SZ ES   2    536 33.17                             166    -0.1 5   28  95 
 BRR  HZ EP        536 22.46                             148     0.110   63 330 
 BRR  HN ES   1    536 35.71                             148     0.0 7   63 330 
 RUS  HZ EP        536 25.02                             139     0.110   89 154 
 RUS  HN ES   2    536 40.29                             139     0.0 5   89 154 
 RUS  HZ I         536 41.91         1.4 0.11                            89 154 
 BRI  SZ EP   2    536 29.70                             125     0.4 5  141  30 
 GUE  SZ EP        536 29.58                             124    -0.4 9  146  23 
 GRA  SZ EP   2    536 31.35                             121     0.5 5  157  26 
                                                                                
