 2012 11 8 0959 24.1 L   6.765 -73.162144.0  RSN  7 0.6 1.9LRSN                1
 GAP=136        1.41       7.0     7.2  8.7 -0.6202E+01  0.8122E+01  0.1264E+02E
 Epicentro: LOS SANTOS - SANTANDER                                             3
 ACTION:UPD 12-12-05 15:32 OP:}ep  STATUS:               ID:20121108095924 L   I
 2012-11-08-0958-11M.COL___193                                                 6
 STAT SP IPHASW D HRMM SECON CODA AMPLIT PERI AZIMU VELO AIN AR TRES W  DIS CAZ7
 BAR2 SZ EP        959 43.47                             172    0.0110 19.3 187 
 BAR2 SZ ES        959 58.48                             172   -0.0710 19.3 187 
 BAR2 SZ I        10 0  0.67        13.4 0.36                          19.3 187 
 GIR2 SZ EP        959 43.67                             166   -0.0110 34.8 354 
 GIR2 SZ ES        959 59.23                             166    0.2910 34.8 354 
 BRR  HZ EP        959 45.46                             152    0.3610 71.6 302 
 BRR  HE ES       10 0  2.59                             152    1.1310 71.6 302 
 BRR  HN I        10 0  7.05        16.6 0.16                          71.6 302 
 PAM  SZ EP        959 45.95                             149   -0.4510 81.5  39 
 PAM  SN ES       10 0  3.29                             149   -0.4810 81.5  39 
 PAM  SN I        10 0  3.83        12.4 0.44                          81.5  39 
 RUS  HZ EP        959 47.51                             145    0.0810 96.9 175 
 RUS  HN ES       10 0  5.73                             145    0.1110 96.9 175 
 RUS  HN I        10 0  7.51        15.5 0.28                          96.9 175 
 PTB  HZ EP        959 50.30                             132   -0.42 9  145 260 
 PTB  HN ES       10 0 10.35                             132   -1.11 9  145 260 
 PTB  HN I        10 0 13.81        12.3 0.20                           145 260 
 PRA  HZ EP       10 0 18.15                             107    1.07 6  388 210 
                                                                                
