 2010 10 8 0153  6.4 L   6.793 -73.090140.5  RSN 11 0.3 1.9LRSN                1
 GAP=182        0.64       3.3     5.1  5.2 -0.9383E+01  0.1415E+01  0.3701E+01E
 Epicentro: LOS SANTOS - SANTANDER                                             3
 ACTION:UP  11-02-18 11:08 OP:tino STATUS:               ID:20101008015306 L   I
 2010-10-08-0151-33S.COL___121                                                 6
 STAT SP IPHASW D HRMM SECON CODA AMPLIT PERI AZIMU VELO SNR AR TRES W  DIS CAZ7
 BTL  SZ EP        153 25.85                             170     0.410   24 305 
 BAR2 SZ IP        153 25.43                             170     0.010   25 205 
 BAR2 SZ ES   1    153 40.03                             170    -0.2 7   25 205 
 BAR2 SZ I         153 41.47        24.4 0.20                            25 205 
 BRR  HZ IP     C  153 27.30                             150     0.010   77 297 
 BRR  HZ I         153 27.64        21.1 0.12                            77 297 
 BRR  HN ES   1    153 43.94                             150     0.3 7   77 297 
 GRA  SZ EP        153 31.26                             136     0.210  125  15 
 GRA  SZ ES   1    153 50.29                             136    -0.1 7  125  15 
 GRA  SZ I         153 52.89        10.8 0.36                           125  15 
 OCA  SZ EP   1    153 34.18                             128    -0.3 7  162 351 
 OCA  SZ ES   1    153 55.97                             128    -0.4 7  162 351 
 OCA  SZ I         153 58.92         9.2 0.29                           162 351 
 NOR  SZ EP   1    153 41.96                             117    -0.4 6  239 236 
 NOR  SN ES   1    154 10.00                             117    -0.4 6  239 236 
 CHI  HZ EP   2    153 43.11                             116    -0.8 4  250 197 
 CHI  HE ES   2    154 13.42                             116     0.2 4  250 197 
 CHI  HZ I         154 20.48         3.1 0.37                           250 197 
 HEL  HZ EP   2    153 47.19                             113     0.2 4  278 256 
 HEL  HE ES   2    154 19.00                             113     0.3 4  278 256 
 HEL  HZ I         154 25.24         5.1 0.38                           278 256 
 RREF HZ EP   2    153 53.64                             110     0.8 3  326 230 
 RREF HE ES   2    154 29.23                             110     0.2 3  326 230 
 RREF HZ I         154 36.05         3.8 0.51                           326 230 
 TOL  SZ EP   2    153 55.44                             108     0.5 3  347 225 
 PRA  HZ EP   1    153 59.74                             105    -0.3 4  394 210 
 PRA  HN ES   2    154 42.10                             105     0.2 3  394 210 
                                                                                
