 2017  6 8 0805 49.0 L   6.739 -73.150149.4  RSN  5 0.3 1.3LRSN                1
 GAP=232        0.62       3.7     4.3  6.2  0.7470E+01 -0.7046E+00 -0.2451E+01E
 Epicentro: LOS SANTOS - SANTANDER                                             3
 ACTION:UPD 17-09-14 16:50 OP:jn   STATUS:               ID:20170608080549 L   I
 OLDACT:UP  17-06-08 17:30 OP:dhb  STATUS:               ID:20170608075730d    3
 OLDACT:DUP 17-06-08 15:42 OP:dhb  STATUS:               ID:20170608075730d    3
 2017-06-08-0758-00M.COL___359                                                 6
 STAT SP IPHASW D HRMM SECON CODA AMPLIT PERI AZIMU VELO AIN AR TRES W  DIS CAZ7
 BRR  HZ EP        8 6 10.73                             152   -0.0310 74.3 303 
 BRR  HN ES        8 6 27.49                             152   -0.2010 74.3 303 
 BRR  HZ I         8 6 32.38         2.7 0.30            153           74.3 303 
 RUS  HZ EP        8 6 13.00                             146    0.3110 93.8 176 
 RUS  HN ES        8 6 31.12                             146   -0.0010 93.8 176 
 RUS  HZ I         8 6 34.53         1.9 0.30            152           93.8 176 
 PTB  HZ EP        8 6 15.77                             133   -0.40 9  146 261 
 PTB  HN ES        8 6 37.26                             133   -0.06 9  146 261 
 PTB  HZ I         8 6 39.29         2.5 0.20            137            146 261 
 SPBC HZ EP   3    8 6 16.58                             131   -0.73 2  158 220 
 SPBC HN ES        8 6 39.44                             131    0.08 9  158 220 
 ZAR  HZ EP   4    8 6 23.82                             123    1.86 0  206 294 
 ZAR  HE ES        8 6 48.03                             123    0.40 8  206 294 
 ZAR  HZ I         8 6 53.18         2.6 0.28            126            206 294 
                                                                                
