 2011  5 8 0037 49.3 L   7.419 -73.054149.5  RSN  6 0.1 1.6LRSN                1
 GAP=140        0.38       2.7     8.1  4.5 -0.7496E+01  0.1058E+02  0.8492E+00E
 Epicentro: SURATA - SANTANDER                                                 3
 ACTION:UP  11-06-29 08:51 OP:tino STATUS:               ID:20110508003749 L   I
 2011-05-08-0032-36S.COL___133                                                 6
 STAT SP IPHASW D HRMM SECON CODA AMPLIT PERI AZIMU VELO SNR AR TRES W  DIS CAZ7
 BRI  SZ EP   1    038 10.13                             163     0.3 7   43  41 
 BRI  SZ ES   2    038 25.92                             163     0.0 5   43  41 
 BRI  SZ I         038 29.95         5.9 0.46                            43  41 
 GRA  SZ EP   1    038 10.26                             158    -0.2 7   58  28 
 GRA  SZ ES   1    038 26.81                             158    -0.1 7   58  28 
 GRA  SZ I         038 27.98        15.2 0.29                            58  28 
 BTL  SZ EP   1    038 10.71                             157     0.1 7   60 203 
 BAR2 SZ EP   1    038 12.35                             147    -0.1 7   93 189 
 BAR2 SZ ES   1    038 30.64                             147     0.0 7   93 189 
 BAR2 SZ I         038 31.91         9.5 0.43                            93 189 
 OCA  SZ EP   1    038 12.59                             146     0.0 7   95 342 
 OCA  SZ I         038 29.31         9.0 0.28                            95 342 
 OCA  SZ ES   2    038 30.67                             146     0.0 5   95 342 
 RUS  HZ EP   2    038 19.05                             129    -0.1 5  169 181 
 RUS  HZ I         038 43.02         1.4 1.05                           169 181 
                                                                                
