 2011 12 8 0922  7.8 L   6.770 -73.091144.7  RSN  4 0.4 1.5LRSN                1
 GAP=145        0.78       5.6     8.3  8.5 -0.1089E+01 -0.4896E+01  0.1609E+01E
 Epicentro: LOS SANTOS - SANTANDER                                             3
 ACTION:UPD 12-07-13 16:14 OP:ep   STATUS:               ID:20111208092207 L   I
 2011-12-08-0920-00M.COL___170                                                 6
 STAT SP IPHASW D HRMM SECON CODA AMPLIT PERI AZIMU VELO AIN AR TRES W  DIS CAZ7
 BAR2 SZ EP   1    922 27.02                             171   -0.21 7 22.1 207 
 BAR2 SZ ES   1    922 41.92                             171   -0.49 7 22.1 207 
 BAR2 SZ I         922 43.18         7.8 0.21                          22.1 207 
 PAM  SZ EP   1    922 29.95                             151    0.16 7 76.4  34 
 PAM  SZ I         922 30.37         7.3 0.14                          76.4  34 
 PAM  SN ES   1    922 47.05                             151    0.07 7 76.4  34 
 BRR  HZ EP   1    922 28.58                             150   -0.61 7 78.1 299 
 BRR  HZ I         922 29.38        13.4 0.18                          78.1 299 
 BRR  HN ES   1    922 46.46                             150    0.55 7 78.1 299 
 RUS  HZ EP   1    922 31.56                             145    0.42 7 97.0 180 
 RUS  HN ES   1    922 49.49                             145    0.11 7 97.0 180 
 RUS  HZ I         922 50.77         2.5 0.31                          97.0 180 
                                                                                
