 2015  6 8 0642 35.1 L   6.835 -73.095153.7  RSN  9 0.4 1.8LRSN                1
 GAP=188        0.92       3.1     4.4  5.4 -0.1479E+01  0.7318E+01 -0.1561E-01E
 Epicentro: LOS SANTOS - SANTANDER                                             3
 ACTION:UPD 15-09-10 22:10 OP:cam  STATUS:               ID:20150608064235 L   I
 OLDACT:REG 15-06-08 12:23 OP:drio STATUS:               ID:20150608063748     3
 2015-06-08-0637-48M.COL___294                                                 6
 STAT SP IPHASW D HRMM SECON CODA AMPLIT PERI AZIMU VELO AIN AR TRES W  DIS CAZ7
 BAR2 EZ EP        642 55.88                             169    0.0710 28.6 200 
 BAR2 EZ ES        643 11.97                             169    0.0210 28.6 200 
 BAR2 EZ I         643 12.70         6.1 0.20            168           28.6 200 
 BRR  HZ EP        642 57.87                             153    0.5610 74.5 294 
 BRR  HE ES        643 15.32                             153    0.7010 74.5 294 
 BRR  HZ I         643 20.10         7.4 0.12            150           74.5 294 
 RUS  HZ EP        642 59.84                             144   -0.0710  104 179 
 RUS  HN ES        643 18.82                             144   -0.4310  104 179 
 RUS  HZ I         643 21.34         3.1 0.40            148            104 179 
 OCA  HZ EP        643  3.22                             132   -0.56 9  157 351 
 OCA  HN ES        643 25.97                             132   -0.16 9  157 351 
 OCA  HZ I         643 31.86         8.5 0.20            134            157 351 
 SPBC HZ EP        643  4.91                             130    0.06 9  170 220 
 SPBC HE ES        643 27.86                             130   -0.18 9  170 220 
 SPBC HZ I         643 34.00        12.3 0.32            132            170 220 
 ZAR  HZ EP        643  8.33                             123   -0.15 8  208 291 
 ZAR  HE ES        643 34.03                             123   -0.47 8  208 291 
 ZAR  HZ I         643 40.38         8.8 0.58            124            208 291 
 NOR  HZ EP        643 12.15                             119    0.11 8  242 234 
 NOR  HE ES        643 40.41                             119   -0.43 8  242 234 
 NOR  HZ I         643 43.55         4.0 0.18            121            242 234 
 HEL  HZ EP        643 16.56                             116    0.11 7  278 255 
 HEL  HN ES        643 48.67                             116   -0.02 7  278 255 
 HEL  HZ I         643 54.51         3.9 0.36            117            278 255 
 GUY2CHZ EP        643 20.76                             113    0.89 7  308 235 
 GUY2CHN ES        643 54.80                             113    0.03 7  308 235 
 GUY2CHZ I         644  3.02         3.4 0.66                           308 235 
                                                                                
