 2013  2 8 0804 52.9 L   6.800 -73.148145.1  RSN 12 0.5 2.8LRSN                1
 GAP=136        1.02       3.0     4.6  5.7  0.7306E+00  0.7260E+01  0.1200E+01E
 Epicentro: LOS SANTOS - SANTANDER                                             3
 ACTION:UPD 13-03-12 09:31 OP:ep   STATUS:               ID:20130208080452 L   I
 2013-02-08-0800-00M.COL___241                                                 6
 STAT SP IPHASW D HRMM SECON CODA AMPLIT PERI AZIMU VELO AIN AR TRES W  DIS CAZ7
 BAR2 SZ EP        8 5 12.49                             170    0.0910 23.2 189 
 BAR2 SZ ES        8 5 27.42                             170   -0.2310 23.2 189 
 BAR2 SZ I         8 5 28.56       196.0 0.20            157           23.2 189 
 BRR  HZ EP        8 5 14.34                             152    0.4210 71.0 299 
 BRR  HN ES        8 5 31.22                             152    0.8710 71.0 299 
 BRR  HN I         8 5 34.63       149.3 0.16            133           71.0 299 
 PAM  SZ EP        8 5 15.26                             151    0.2510 77.6  40 
 PAM  SN ES        8 5 32.29                             151    0.0010 77.6  40 
 PAM  SN I         8 5 33.18        98.4 0.46            139           77.6  40 
 RUS  HZ EP        8 5 16.45                             144   -0.0910  101 176 
 RUS  HN ES        8 5 34.47                             144   -0.5410  101 176 
 RUS  HN I         8 5 36.56        75.0 0.30            124            101 176 
 PTB  HZ EP        8 5 19.24                             132   -0.51 9  148 259 
 PTB  HN ES        8 5 40.27                             132   -0.45 9  148 259 
 PTB  HN I         8 5 42.66        87.5 0.28            112            148 259 
 OCA  HZ EP   2    8 5 20.84                             129   -0.28 5  160 353 
 OCA  HN ES        8 5 43.10                             129   -0.06 9  160 353 
 OCA  HN I         8 5 45.24       167.3 0.22            113            160 353 
 ZAR  HZ EP   1    8 5 25.49                             122    0.25 6  204 292 
 ZAR  HN ES   1    8 5 50.60                             122    0.11 6  204 292 
 ZAR  HN I         8 5 56.60        65.2 0.42            106            204 292 
 SML  HZ EP   1    8 5 28.95                             117   -0.49 6  244 335 
 SML  HN ES        8 5 57.48                             117   -0.49 8  244 335 
 SML  HN I         8 6  3.74        57.9 0.12            104            244 335 
 CHI  HZ EP        8 5 30.38                             117   -0.13 8  249 195 
 CHI  HN ES        8 6  0.22                             117    0.35 8  249 195 
 CHI  HN I         8 6  5.63        39.5 0.38            103            249 195 
 ROSC BZ EP   1    8 5 32.20                             117    1.28 6  253 211 
 ROSC BZ I         8 6 10.93        26.8 0.35            103            253 211 
 HEL  HZ EP   1    8 5 33.49                             115    0.48 6  272 256 
 HEL  HN I         8 6 13.82        19.4 0.24            102            272 256 
 URE  HZ EP   1    8 5 33.17                             113   -0.70 6  284 292 
 URE  HN I         8 6 12.18        30.1 0.28            101            284 292 
                                                                                
