 2017  2 8 0246 36.9 L   6.763 -73.218144.5  RSN  8 0.4 1.4LRSN                1
 GAP=223        0.92       4.7     6.3  5.9  0.1409E+02  0.8988E+01  0.8596E+01E
 Epicentro: ZAPATOCA - SANTANDER                                               3
 ACTION:UPD 17-05-24 15:33 OP:jn   STATUS:               ID:20170208024636 L   I
 OLDACT:UP  17-02-08 15:49 OP:edw  STATUS:               ID:20170208023744     3
 OLDACT:UP  17-02-08 15:48 OP:edw  STATUS:               ID:20170208023744     3
 OLDACT:UP  17-02-08 15:44 OP:edw  STATUS:               ID:20170208023744     3
 OLDACT:REG 17-02-08 12:19 OP:edw  STATUS:               ID:20170208023744     3
 2017-02-08-0238-00M.COL___334                                                 6
 STAT SP IPHASW D HRMM SECON CODA AMPLIT PERI AZIMU VELO AIN AR TRES W  DIS CAZ7
 BAR2 EZ EP        246 55.87                             172   -0.4710 19.3 168 
 BAR2 EZ ES        247 11.46                             172   -0.0210 19.3 168 
 BAR2 EZ I         247 12.50         6.8 0.20            167           19.3 168 
 BRR  HZ IP        246 57.67                             154   -0.0210 66.6 305 
 BRR  HN ES        247 14.01                             154    0.1210 66.6 305 
 RUS  HZ EP   2    246 59.97                             145   -0.36 5 97.4 171 
 RUS  HN ES        247 19.20                             145    0.6110 97.4 171 
 RUS  HZ I         247 20.40         3.3 0.48            143           97.4 171 
 PTB  HZ EP   9    247  2.82                             134   -0.21 0  139 260 
 PTB  HN ES        247 22.64                             135   -0.53 9  139 260 
 PTB  HZ I         247 30.65         4.0 0.46            131            139 260 
 ZAR  HZ EP   4    247  5.55                             123   -3.16 0  198 294 
 ZAR  HN ES        247 33.60                             123    0.11 9  198 294 
 NOR  HZ EP        247 11.72                             119    0.08 8  226 234 
 NOR  HN ES   4    247 39.93                             119    1.22 0  226 234 
 NOR  HZ I         247 42.43         1.7 0.16            118            226 234 
 CHI  HZ EP        247 14.23                             118    0.31 8  243 194 
 CHI  HE ES        247 41.92                             118   -0.84 8  243 194 
 CHI  HZ I         247 46.52         1.2 0.34            117            243 194 
 PRA  HZ EP   2    247 30.30                             107    0.76 3  385 209 
 PRA  HE ES   2    248 10.63                             107    0.07 3  385 209 
                                                                                
