 2017  6 8 0802  1.8 L   6.806 -73.119154.0  RSN  5 0.4 1.3LRSN                1
 GAP=241        0.99       6.3     7.8  8.8  0.2683E+02 -0.2055E+02 -0.1929E+02E
 Epicentro: LOS SANTOS - SANTANDER                                             3
 ACTION:UPD 17-09-14 16:50 OP:jn   STATUS:               ID:20170608080201 L   I
 OLDACT:UP  17-06-08 17:23 OP:edw  STATUS:               ID:20170608075729     3
 OLDACT:UP  17-06-08 17:23 OP:edw  STATUS:               ID:20170608075729     3
 OLDACT:REG 17-06-08 14:13 OP:dhb  STATUS:               ID:20170608075729     3
 2017-06-08-0758-00M.COL___359                                                 6
 STAT SP IPHASW D HRMM SECON CODA AMPLIT PERI AZIMU VELO AIN AR TRES W  DIS CAZ7
 BRR  HZ EP        8 2 24.01                             153    0.0110 73.5 297 
 BRR  HN ES        8 2 41.64                             153    0.3410 73.5 297 
 BRR  HZ I         8 2 42.35         5.5 0.42            150           73.5 297 
 RUS  HZ EP        8 2 26.98                             146    0.5410  101 178 
 RUS  HN ES        8 2 45.15                             146   -0.4810  101 178 
 RUS  HZ I         8 2 45.81         1.6 0.20            146            101 178 
 PTB  HZ EP   9    8 2 29.10                             134   -0.65 0  151 259 
 PTB  HN ES        8 2 51.44                             133    0.56 9  151 259 
 PTB  HZ I         8 2 53.42         1.5 0.22            131            151 259 
 SPBC HE ES        8 2 54.14                             131    0.04 9  166 220 
 ZAR  HZ EP        8 2 34.95                             124   -0.13 8  207 292 
 ZAR  HN ES        8 3  0.53                             124   -0.48 8  207 292 
 ZAR  HZ I         8 3  5.91         3.4 0.58            123            207 292 
                                                                                
