 2015  2 8 0357 21.4 L   6.826 -73.187141.8  RSN 21 0.7 2.6LRSN                1
 GAP= 68        1.53       3.4     4.0  6.6 -0.2449E+01  0.8719E+01  0.2756E+01E
 Epicentro: ZAPATOCA - SANTANDER                                               3
 ACTION:UPD 15-04-30 21:23 OP:nd   STATUS:               ID:20150208035721 L   I
 OLDACT:DUP 15-02-08 16:59 OP:stll STATUS:               ID:20150208034746d    3
 2015-02-08-0347-45M.COL___287                                                 6
 STAT SP IPHASW D HRMM SECON CODA AMPLIT PERI AZIMU VELO AIN AR TRES W  DIS CAZ7
 BAR2 EZ EP        357 40.86                             169    0.2610 25.9 179 
 BAR2 EZ I         357 41.19       114.5 0.10            169           25.9 179 
 BAR2 EZ ES        357 55.86                             169    0.2810 25.9 179 
 BRR  HZ EP        357 42.66                             154    0.8510 65.8 298 
 BRR  HN ES        357 59.05                             154    1.3110 65.8 298 
 BRR  HZ I         358  3.79        62.3 0.12            148           65.8 298 
 PAM  SZ IP     C  357 43.71                             150    0.4710 78.2  43 
 PAM  SZ I         357 44.01       125.8 0.22            152           78.2  43 
 PAM  SN ES        358  0.53                             150    0.2510 78.2  43 
 RUS  HZ IP     C  357 44.79                             142   -0.2110  104 174 
 RUS  HN ES        358  2.45                             142   -0.9610  104 174 
 RUS  HZ I         358  6.74        24.5 0.16            143            104 174 
 PTB  HZ EP        357 47.55                             132   -0.14 9  144 257 
 PTB  HZ I         357 49.46        60.7 0.14            129            144 257 
 PTB  HN ES        358  8.27                             132    0.08 9  144 257 
 OCA  HZ EP        357 48.73                             129   -0.35 9  157 355 
 OCA  HN ES        358 10.52                             129   -0.16 9  157 355 
 OCA  HZ I         358 16.71        58.4 0.34            128            157 355 
 TAM  HZ IP     C  357 49.13                             129   -0.12 9  160 106 
 TAM  HE ES        358 10.21                             129   -0.76 9  160 106 
 TAM  HZ I         358 11.45        30.1 0.54            131            160 106 
 SPBC HZ EP        357 49.75                             128    0.21 9  163 217 
 SPBC HN ES        358 11.41                             128   -0.08 9  163 217 
 SPBC HZ I         358 18.29        79.6 0.40            127            163 217 
 NOR  HZ EP        357 57.18                             118    0.50 8  233 233 
 NOR  HE ES        358 23.93                             118   -0.28 8  233 233 
 NOR  HZ I         358 30.23        36.8 0.36            117            233 233 
 SML  HZ EP        357 57.14                             117   -0.17 8  239 336 
 SML  HE ES        358 24.43                             117   -0.89 8  239 336 
 SML  HZ I         358 30.50        44.5 0.28            116            239 336 
 CHI  HZ EP        357 59.01                             116   -0.05 8  250 194 
 CHI  HE ES        358 27.52                             116   -0.91 8  250 194 
 CHI  HZ I         358 31.33        12.3 0.34            116            250 194 
 ROSC BZ EP        358  0.17                             116    0.85 8  253 210 
 ROSC BN ES        358 28.45                             116   -0.45 8  253 210 
 ROSC BZ I         358 36.11        26.4 0.35            115            253 210 
 HEL  HZ EP        358  1.53                             114    0.53 8  268 255 
 HEL  HN ES        358 32.00                             114    0.11 8  268 255 
 HEL  HZ I         358 39.76        38.3 0.26            113            268 255 
 URE  HZ EP        358  0.73                             113   -0.95 7  279 292 
 URE  HE ES        358 30.95                             113   -2.15 7  279 292 
 URE  HZ I         358 42.51        42.4 0.22            112            279 292 
 GUY2CHZ EP        358  5.23                             112    0.64 7  299 234 
 GUY2CHN ES        358 39.81                             112    1.52 7  299 234 
 GUY2CHZ I         358 47.41        30.1 0.46                           299 234 
 RREF HZ EP        358  7.79                             110    0.60 7  320 228 
 RREF HN ES        358 42.37                             110   -0.54 7  320 228 
 RREF HZ I         358 52.29        15.5 0.24            109            320 228 
 CBOC HZ EP        358  7.86                             109    0.10 7  330 251 
 CBOC HN ES        358 43.00                             109   -0.91 7  330 251 
 CBOC HZ I         358 51.94         6.1 0.18            108            330 251 
 DBB  SZ EP        358  8.49                             109    0.32 7  335 274 
 DBB  SZ I         358 52.02        58.8 0.46            108            335 274 
 TOL  SZ EP        358 10.54                             109    1.17 7  342 224 
 TOL  SN ES        358 46.38                             109   -0.40 7  342 224 
 ANIL HZ EP        358 10.50                             108   -0.42 6  356 224 
 ANIL HN ES        358 49.45                             108   -0.10 6  356 224 
 ANIL HZ I         358 58.71         3.6 0.40            107            356 224 
 ORTC HZ EP        358 15.78                             106    0.64 6  395 215 
 ORTC HN ES        358 56.60                             106   -0.47 6  395 215 
 ORTC HZ I         359  2.74         8.9 0.44            105            395 215 
                                                                                
