 2010  5 8 0559 23.0 L   6.732 -73.018145.4  RSN  6 0.3 1.3LRSN                1
 GAP=174        0.65       7.7     9.7 10.6  0.6159E+01 -0.5925E+02 -0.3418E+02E
 Epicentro: ARATOCA - SANTANDER                                                3
 ACTION:UP  10-08-24 10:03 OP:vdl  STATUS:               ID:20100508055923 L   I
 2010-05-08-0557-33S.COL___105                                                 6
 STAT SP IPHASW D HRMM SECON CODA AMPLIT PERI AZIMU VELO SNR AR TRES W  DIS CAZ7
 BAR2 SZ EP        559 42.67                             170     0.110   24 230 
 BAR2 SZ ES   2    559 57.92                             170     0.0 5   24 230 
 GIR2 SZ EP        559 42.54                             163    -0.510   43 333 
 GIR2 SZ ES   3    559 58.26                             163    -0.3 2   43 333 
 BRR  HZ EP        559 45.13                             147     0.010   87 298 
 BRR  HZ I         559 45.34         4.2 0.25                            87 298 
 BRR  HE ES   1    6 0  2.35                             147     0.0 7   87 298 
 RUS  HN ES   3    6 0  4.96                             146     0.7 2   93 184 
 RUS  HZ I         6 0  6.74         2.9 0.18                            93 184 
 GUE  SZ EP        559 48.49                             138     0.410  122   5 
 GRA  SZ EP        559 48.46                             136    -0.110  130  11 
                                                                                
