 2017 11 8 0909 42.7 L   6.866 -73.156145.6  RSN 16 0.8 2.2LRSN                1
 GAP=132        1.71       4.9     5.8  8.2  0.9820E+00  0.1917E+02  0.3195E+01E
 Epicentro: LOS SANTOS - SANTANDER                                             3
 ACTION:UPD 17-12-12 19:53 OP:rebc STATUS:               ID:20171108090942 L   I
 OLDACT:REG 17-11-08 15:08 OP:dnl  STATUS:               ID:20171108090738     3
 2017-11-08-0908-00M.COL___384                                                 6
 STAT SP IPHASW D HRMM SECON CODA AMPLIT PERI AZIMU VELO AIN AR TRES W  DIS CAZ7
 BAR2 EZ EP        910  2.54                             168    0.0210 30.4 185 
 BAR2 EZ ES        910 17.72                             168   -0.2210 30.4 185 
 BAR2 EZ I         910 18.62        30.6 0.50            167           30.4 185 
 BRR  HZ EP     C  910  4.27                             154    0.6310 66.9 294 
 BRR  HN ES        910 21.15                             154    1.2110 66.9 294 
 BRR  HZ I         910 27.89        18.4 0.20            152           66.9 294 
 PAM  EZ EP        910  5.15                             152    0.4810 72.7  44 
 PAM  EN ES        910 22.27                             152    0.4910 72.7  44 
 PAM  EZ I         910 24.64        25.5 0.46            158           72.7  44 
 RUS  HZ EP        910  6.72                             142   -0.3010  108 176 
 RUS  HN ES        910 25.20                             142   -0.7610  108 176 
 RUS  HZ I         910 27.64        16.2 0.42            144            108 176 
 PTB  HZ EP        910  9.20                             132   -0.54 9  148 256 
 PTB  HN ES        910 30.27                             132   -0.52 9  148 256 
 PTB  HZ I         910 33.12        27.5 0.18            132            148 256 
 SPBC HZ EP        910 11.59                             128   -0.12 9  168 217 
 SPBC HN ES        910 33.35                             128   -0.95 9  168 217 
 SPBC HZ I         910 40.38        21.1 0.28            129            168 217 
 ZAR  HZ EP        910 15.03                             123    0.24 9  200 290 
 ZAR  HE ES        910 40.36                             123    0.57 9  200 290 
 ZAR  HZ I         910 46.43        32.6 0.34            124            200 290 
 NOR  HZ EP        910 19.22                             118    0.40 8  238 233 
 NOR  HN ES        910 46.73                             118   -0.24 8  238 233 
 NOR  HZ I         910 49.90        13.0 0.16            120            238 233 
 CHI  HZ EP        910 21.22                             116    0.06 8  255 194 
 CHI  HN ES        910 50.50                             116   -0.63 8  255 194 
 CHI  HZ I         910 56.68         4.9 0.24            119            255 194 
 URE  HZ EP        910 22.51                             114   -0.88 7  280 291 
 URE  HN ES        910 53.81                             114   -1.28 7  280 291 
 URE  HZ I         911  0.94        14.3 0.16            115            280 291 
 GUY2CHZ EP        910 28.21                             112    1.49 7  304 234 
 GUY2CHZ I         911 11.12        11.4 0.50                           304 234 
 ELA  HN ES        911  8.12                             110    1.20 7  333 228 
 CBOC HZ EP        910 31.25                             110    1.46 7  335 251 
 CBOC HE ES        911  6.64                             110    0.16 7  335 251 
 CBOC HZ I         911 23.43         3.0 0.44            111            335 251 
 DBB  EZ EP        910 30.11                             110    0.09 7  338 273 
 DBB  EN ES        911  7.29                             110    0.39 7  338 273 
 DBB  EZ I         911  9.91         5.0 0.28            111            338 273 
 PRA  HZ EP        910 37.52                             106    0.59 6  398 209 
 PRA  HN ES        911 18.80                             106   -0.40 6  398 209 
 PRA  HZ I         911 25.09         5.9 0.28            108            398 209 
 SJC  HZ EP        910 36.25                             106   -1.26 6  402 327 
 SJC  HN ES        911 17.74                             106   -2.49 6  402 327 
 SJC  HZ I         911 21.95         3.7 0.52            108            402 327 
                                                                                
