 2015  5 8 0049 43.3 L   6.786 -73.140139.9  RSN 13 0.4 1.9LRSN                1
 GAP= 72        0.96       2.6     3.3  4.9 -0.1206E+01  0.4369E+01  0.1469E+01E
 Epicentro: LOS SANTOS - SANTANDER                                             3
 ACTION:UPD 15-09-10 22:02 OP:cam  STATUS:               ID:20150508004943 L   I
 OLDACT:REG 15-05-08 12:15 OP:drio STATUS:               ID:20150508003749     3
 2015-05-08-0037-49M.COL___285                                                 6
 STAT SP IPHASW D HRMM SECON CODA AMPLIT PERI AZIMU VELO AIN AR TRES W  DIS CAZ7
 BAR2 EZ EP        050  2.09                             171   -0.1010 21.9 192 
 BAR2 EZ ES        050 16.65                             171   -0.2810 21.9 192 
 BAR2 EZ I         050 18.11        12.8 0.36            169           21.9 192 
 BRR  HZ EP        050  4.12                             151    0.2310 72.5 299 
 BRR  HN ES        050 20.38                             151    0.4310 72.5 299 
 PAM  SZ EP        050  4.97                             149    0.0310 78.2  38 
 PAM  SN ES        050 21.95                             149    0.1210 78.2  38 
 PAM  SZ I         050 24.07        12.2 0.54            153           78.2  38 
 RUS  HZ EP        050  6.26                             143   -0.0910 98.9 176 
 RUS  HE ES        050 24.98                             143    0.6410 98.9 176 
 RUS  HZ I         050 27.10         3.2 0.32            145           98.9 176 
 TAM  HZ EP        050 10.07                             129   -0.35 9  154 104 
 OCA  HN ES        050 32.65                             128   -0.52 9  162 353 
 OCA  HZ I         050 40.61        22.0 0.30            130            162 353 
 SPBC HZ EP        050 11.47                             128    0.20 9  162 220 
 SPBC HN ES        050 32.50                             128   -0.59 9  162 220 
 SPBC HZ I         050 40.31        14.6 0.12            129            162 220 
 ZAR  HZ EP        050 16.19                             121    0.71 9  205 292 
 ZAR  HE ES        050 40.90                             121    0.31 9  205 292 
 ZAR  HZ I         050 46.28        10.3 0.68            122            205 292 
 NOR  HZ EP        050 18.29                             117   -0.35 8  234 235 
 NOR  HN ES        050 46.11                             117   -0.10 8  234 235 
 NOR  HZ I         050 51.47         7.4 0.30            118            234 235 
 SML  HZ EP        050 19.75                             116   -0.03 8  245 335 
 SML  HN ES   2    050 47.05                             116   -1.20 4  245 335 
 CHI  HZ EP        050 20.28                             116   -0.24 8  247 195 
 CHI  HN ES        050 49.32                             116   -0.24 8  247 195 
 CHI  HZ I         050 59.33         1.9 0.34            117            247 195 
 HEL  HZ EP        050 24.03                             114    0.79 8  272 256 
 HEL  HE ES        050 53.74                             114   -0.65 8  272 256 
 HEL  HZ I         051  1.26         5.9 0.34            114            272 256 
 GUY2CHZ EP        050 26.98                             111    0.39 7  301 235 
 GUY2CHN ES        051  0.12                             111   -0.24 7  301 235 
 GUY2CHZ I         051  9.36         4.8 0.32                           301 235 
                                                                                
