 2017  4 8 0617 11.1 L   6.771 -73.145147.6  RSN  4 0.2 1.2LRSN                1
 GAP=243        0.39       5.1     5.3  5.3  0.6441E+01  0.5529E+01 -0.1893E+01E
 Epicentro: LOS SANTOS - SANTANDER                                             3
 ACTION:UPD 17-05-30 21:09 OP:jn   STATUS:               ID:20170408061711 L   I
 OLDACT:UP  17-04-08 16:17 OP:and  STATUS:               ID:20170408060739     3
 OLDACT:REG 17-04-08 12:55 OP:and  STATUS:               ID:20170408060739     3
 2017-04-08-0608-00M.COL___371                                                 6
 STAT SP IPHASW D HRMM SECON CODA AMPLIT PERI AZIMU VELO AIN AR TRES W  DIS CAZ7
 BAR2 EZ EP        617 30.74                             172   -0.1110 20.2 192 
 BAR2 EZ ES        617 46.38                             172    0.0910 20.2 192 
 BAR2 EZ I         617 47.45         4.0 0.22            169           20.2 192 
 RUS  HZ EP   2    617 35.10                             145    0.34 5 97.4 176 
 RUS  HN ES   2    617 52.97                             145   -0.29 5 97.4 176 
 RUS  HZ I         617 54.56         2.2 0.40            147           97.4 176 
 SPBC HN ES   2    618  1.67                             130    0.04 5  161 220 
 SPBC HZ I         618  3.26         2.8 0.10            129            161 220 
 ZAR  HN ES   2    618  9.27                             123    0.01 4  205 293 
 ZAR  HZ I         618 14.74         1.4 0.06            121            205 293 
                                                                                
