 2016  9 8 0117  3.9 L   6.787 -73.127150.8  RSN  5 0.3 1.3LRSN                1
 GAP=140        0.78       4.3     4.1  5.7 -0.1727E+01  0.2737E+01  0.1026E+01E
 Epicentro: LOS SANTOS - SANTANDER                                             3
 ACTION:UPD 17-08-17 21:07 OP:lp   STATUS:               ID:20160908011703 L   I
 OLDACT:REG 16-09-08 12:10 OP:dani STATUS:               ID:20160908010742     3
 2016-09-08-0108-00M.COL___348                                                 6
 STAT SP IPHASW D HRMM SECON CODA AMPLIT PERI AZIMU VELO AIN AR TRES W  DIS CAZ7
 BAR2 EZ EP        117 24.13                             171    0.0110 22.4 196 
 BAR2 EZ ES        117 39.56                             171   -0.3310 22.4 196 
 BAR2 EZ I         117 40.27         4.5 0.23            170           22.4 196 
 BRR  HZ EP        117 26.02                             153    0.2910 73.7 299 
 BRR  HE ES        117 42.77                             153    0.0010 73.7 299 
 BRR  HZ I         117 47.70         5.3 0.51            150           73.7 299 
 PAM  EZ EP        117 26.97                             152    0.3310 77.2  38 
 PAM  EE ES        117 44.24                             152   -0.1410 77.2  38 
 PAM  EZ I         117 46.22         4.0 0.44            154           77.2  38 
 RUS  HZ EP        117 27.58                             145   -0.4610 99.0 177 
 RUS  HE ES        117 47.31                             145    0.4410 99.0 177 
 RUS  HZ I         117 47.79         2.2 0.26            148           99.0 177 
 PTB  HZ EP        117 31.15                             133   -0.29 9  150 260 
 PTB  HE ES        117 53.03                             133    0.11 9  150 260 
 PTB  HZ I         117 59.14         1.6 0.30            132            150 260 
                                                                                
