 2017  1 8 0612 14.1 L   6.826 -73.076150.9  RSN  7 0.4 1.5LRSN                1
 GAP=247        0.97       6.5     7.5  8.7  0.2177E+02  0.2436E+02  0.3981E+01E
 Epicentro: LOS SANTOS - SANTANDER                                             3
 ACTION:UPD 17-05-22 15:56 OP:jn   STATUS:               ID:20170108061214 L   I
 OLDACT:REG 17-01-08 12:42 OP:dnl  STATUS:               ID:20170108060741     3
 2017-01-08-0608-00M.COL___365                                                 6
 STAT SP IPHASW D HRMM SECON CODA AMPLIT PERI AZIMU VELO AIN AR TRES W  DIS CAZ7
 BAR2 EZ EP        612 34.51                             169    0.0710 28.4 204 
 BAR2 EZ ES        612 49.95                             169   -0.3710 28.4 204 
 BAR2 EZ I         612 52.07         8.1 0.72            168           28.4 204 
 BRR  HZ IP     C  612 36.40                             152    0.2910 76.8 294 
 BRR  HN ES        612 53.96                             152    0.6710 76.8 294 
 BRR  HZ I         612 54.83         4.0 0.28            149           76.8 294 
 RUS  HZ EP   2    612 38.68                             144    0.15 5  103 180 
 RUS  HN ES        612 57.41                             144   -0.1910  103 180 
 RUS  HZ I         612 59.05         1.7 0.60            146            103 180 
 PTB  HZ EP   2    612 41.61                             132   -0.60 5  156 258 
 PTB  HN ES   4    613  2.63                             132   -1.52 0  156 258 
 PTB  HZ I         613  6.43         3.1 0.20            131            156 258 
 ZAR  HZ EP   2    612 47.21                             123   -0.29 4  210 291 
 ZAR  HE ES        613 12.81                             123   -0.75 8  210 291 
 ZAR  HZ I         613 19.66         3.0 0.30            122            210 291 
 GUY2CHZ EP   4    613  0.27                             113    1.44 0  309 235 
 GUY2CHN ES        613 34.16                             113    0.43 7  309 235 
 GUY2CHZ I         613 40.80         1.8 0.68                           309 235 
 SJC  HZ EP   4    613  8.26                             106   -1.78 0  411 326 
 SJC  HE ES   4    613 52.03                             106   -1.65 0  411 326 
 SJC  HZ I         613 56.57         2.3 0.88            107            411 326 
                                                                                
