 2012  4 8 0237 49.6 L   6.836 -73.343125.0  RSN  5 0.3 1.1LRSN                1
 GAP=200        0.71       6.7     6.0  8.7  0.2283E+02  0.1767E+02  0.4119E+01E
 Epicentro: ZAPATOCA - SANTANDER                                               3
 ACTION:UPD 12-07-05 11:51 OP:tino STATUS:               ID:20120408023749 L   I
 2012-04-08-0230-00M.COL___196                                                 6
 STAT SP IPHASW D HRMM SECON CODA AMPLIT PERI AZIMU VELO AIN AR TRES W  DIS CAZ7
 BAR2 SZ EP   1    238  7.17                             165     0.2 7   32 147 
 BAR2 SZ ES   1    238 20.06                             165    -0.5 7   32 147 
 BRR  HZ EP   1    238  7.43                             157     0.1 7   51 306 
 BRR  HZ I         238  7.64         2.7 0.08                            51 306 
 BRR  HE ES   1    238 21.41                             157     0.2 7   51 306 
 RUS  HE ES   1    238 29.82                             137     0.4 7  108 165 
 PTB  HZ EP   1    238 12.52                             131    -0.5 7  127 255 
 PTB  HE ES   1    238 31.29                             131     0.0 7  127 255 
 PTB  HZ I         238 33.60         1.3 0.18                           127 255 
 ZAR  HN ES   1    238 41.17                             121     0.2 7  182 294 
 ZAR  HZ I         238 43.18         2.9 0.13                           182 294 
                                                                                
