 2011  6 8 0159 51.5 L   6.794 -73.125142.3  RSN 11 0.5 1.8LRSN                1
 GAP=139        1.10       5.0     8.8  9.9 -0.1219E+02 -0.4666E+01 -0.6142E+01E
 Epicentro: LOS SANTOS - SANTANDER                                             3
 ACTION:UP  11-07-14 19:03 OP:ep   STATUS:               ID:20110608015951 L   I
 2011-06-08-0157-01S.COL___129                                                 6
 STAT SP IPHASW D HRMM SECON CODA AMPLIT PERI AZIMU VELO SNR AR TRES W  DIS CAZ7
 BTL  SZ EP   1    2 0 11.69                                     1.0 7   21 311 
 BAR2 SZ EP   1    2 0 10.65                             170     0.0 7   23 196 
 BAR2 SZ ES   1    2 0 24.95                             170    -0.7 7   23 196 
 BAR2 SZ I         2 0 27.00        15.0 0.14                            23 196 
 GIR2 SZ EP   1    2 0 10.57                             166    -0.2 7   32 346 
 BRR  HZ EP   1    2 0 12.38                             151     0.0 7   74 298 
 BRR  HN ES   1    2 0 29.21                             151     0.5 7   74 298 
 BRR  HZ I         2 0 29.96        20.8 0.11                            74 298 
 PAM  SZ EP   1    2 0 13.38                             150     0.1 7   77  38 
 RUS  HZ EP   1    2 0 14.78                             143     0.0 7  100 177 
 RUS  HN ES   1    2 0 33.02                             143     0.0 7  100 177 
 RUS  HZ I         2 0 35.44         5.0 0.21                           100 177 
 BRI  SZ EP   1    2 0 15.04                             141     0.0 7  108  20 
 GRA  SZ EP   1    2 0 16.33                             136    -0.1 7  126  16 
 GRA  SZ I         2 0 17.44        11.0 0.36                           126  16 
 GRA  SZ ES   2    2 0 34.77                             136    -1.1 5  126  16 
 OCA  SZ EP   1    2 0 19.19                             128    -0.4 7  161 352 
 OCA  SZ ES   1    2 0 42.17                             128     0.6 7  161 352 
 OCA  SZ I         2 0 44.62         9.4 0.19                           161 352 
 NOR  SZ EP   2    2 0 26.60                             117    -0.6 4  236 235 
 NOR  SN ES   1    2 0 54.28                             117    -0.7 6  236 235 
 CHI  HN ES   2    2 0 59.32                             116     1.1 4  249 196 
 CHI  HZ I         2 1  6.07         4.8 0.51                           249 196 
                                                                                
