 2017  9 8 0426 45.1 L   6.751 -73.120147.4  RSN  5 0.4 1.2LRSN                1
 GAP=142        1.00       5.1     7.0  8.3 -0.1240E+02  0.4143E+01 -0.4488E+00E
 Epicentro: LOS SANTOS - SANTANDER                                             3
 ACTION:UPD 17-10-05 19:10 OP:rebc STATUS:               ID:20170908042645 L   I
 OLDACT:REG 17-09-08 13:07 OP:dnl  STATUS:               ID:20170908041740     3
 2017-09-08-0418-00M.COL___425                                                 6
 STAT SP IPHASW D HRMM SECON CODA AMPLIT PERI AZIMU VELO AIN AR TRES W  DIS CAZ7
 BAR2 EZ EP        427  4.71                             172   -0.1810 18.8 201 
 BAR2 EZ ES        427 20.14                             172   -0.1510 18.8 201 
 BAR2 EZ I         427 21.53         4.2 0.38            171           18.8 201 
 BRR  HZ EP        427  6.92                             151    0.1610 76.4 301 
 BRR  HE ES        427 24.10                             151    0.4810 76.4 301 
 BRR  HZ I         427 26.88         4.6 0.52            151           76.4 301 
 PAM  EZ EP        427  7.78                             150    0.1010 80.0  35 
 PAM  EN ES        427 24.81                             150   -0.4610 80.0  35 
 PAM  EZ I         427 26.92         2.3 0.46            153           80.0  35 
 RUS  HZ EP   2    427  8.95                             146    0.29 5 95.0 178 
 RUS  HN ES        427 27.59                             146    0.5810 95.0 178 
 RUS  HZ I         427 28.59         1.9 0.34            148           95.0 178 
 SPBC HZ EP   2    427 13.68                             130    0.14 5  161 221 
 SPBC HN ES        427 34.93                             130   -0.77 9  161 221 
 SPBC HZ I         427 38.85         2.2 0.36            131            161 221 
                                                                                
