 2015 12 8 0416 31.4 L   6.808 -73.075147.6  RSN  5 0.3 1.3LRSN                1
 GAP=245        0.47       5.5     7.2  5.1  0.5750E+01  0.7445E+01  0.1179E+01E
 Epicentro: LOS SANTOS - SANTANDER                                             3
 ACTION:UPD 16-02-04 15:03 OP:cam  STATUS:               ID:20151208041631 L   I
 OLDACT:REG 15-12-08 13:14 OP:ar   STATUS:               ID:20151208040748     3
 2015-12-08-0407-48M.COL___322                                                 6
 STAT SP IPHASW D HRMM SECON CODA AMPLIT PERI AZIMU VELO AIN AR TRES W  DIS CAZ7
 BAR2 EZ EP        416 51.58                             169    0.2310 26.7 206 
 BAR2 EZ ES        417  6.73                             169   -0.1610 26.7 206 
 BAR2 EZ I         417  7.25         6.2 0.12            165           26.7 206 
 BRR  HZ EP   2    416 53.45                             151    0.29 5 77.7 295 
 BRR  HE ES   2    417 10.06                             151   -0.04 5 77.7 295 
 BRR  HZ I         417 11.69         9.5 0.32            149           77.7 295 
 RUS  HZ EP   2    416 55.06                             144   -0.35 5  101 181 
 RUS  HN ES   2    417 14.13                             144    0.01 5  101 181 
 RUS  HZ I         417 15.89         1.1 0.36            143            101 181 
 PTB  HZ EP   2    416 58.70                             131   -0.56 5  156 259 
 PTB  HN ES   4    417 18.91                             131   -2.06 0  156 259 
 SPBC HZ EP   2    417  0.73                             128    0.12 5  169 221 
 SPBC HE ES   2    417 23.62                             128    0.25 5  169 221 
 SPBC HZ I         417 25.49         2.2 0.38            127            169 221 
                                                                                
