 2014  1 8 0433 19.8 L   6.935 -73.186136.0  RSN  6 0.4 1.7LRSN                1
 GAP=124        1.00       3.9     4.5  8.0 -0.1151E+00  0.1480E+02 -0.1814E+01E
 Epicentro: BETULIA - SANTANDER                                                3
 ACTION:UPD 14-03-13 09:52 OP:ep   STATUS:               ID:20140108043319 L   I
 OLDACT:REG 14-01-08 07:27 OP:carl STATUS:               ID:20140108043000     3
 2014-01-08-0430-00M.COL___285                                                 6
 STAT SP IPHASW D HRMM SECON CODA AMPLIT PERI AZIMU VELO AIN AR TRES W  DIS CAZ7
 BAR2 SZ EP        433 38.49                             164   -0.1910 37.9 179 
 BAR2 SZ ES        433 53.35                             164   -0.0510 37.9 179 
 BAR2 SZ I         433 59.49        14.1 0.80            165           37.9 179 
 PAM  SZ EP        433 41.00                             151    0.4510 69.9  50 
 PAM  SE ES        433 56.82                             151    0.1010 69.9  50 
 PAM  SZ I         433 58.35         8.2 0.22            159           69.9  50 
 RUS  HZ EP        433 43.81                             137   -0.0210  116 174 
 RUS  HN ES        434  2.78                             137    0.2310  116 174 
 RUS  HZ I         434  4.23         2.5 0.42            142            116 174 
 OCA  HN ES        434  5.77                             130   -0.53 9  145 354 
 OCA  HN I         434  6.45        16.6 0.16            136            145 354 
 PTB  HZ EP        433 45.38                             130   -0.57 9  147 253 
 PTB  HN ES        434  5.96                             130   -0.37 9  147 253 
 PTB  HZ I         434 10.54         5.7 0.32            132            147 253 
 ZAR  HZ EP        433 50.84                             121    0.17 9  195 289 
 ZAR  HE ES        434 15.58                             121    0.85 9  195 289 
 ZAR  HZ I         434 20.81         5.7 0.26            125            195 289 
                                                                                
