 2017 11 8 0807 45.1 L   6.801 -73.170150.4  RSN 12 0.4 1.6LRSN                1
 GAP=109        0.92       3.0     3.3  5.5  0.1411E+01 -0.4168E+00  0.2775E+01E
 Epicentro: LOS SANTOS - SANTANDER                                             3
 ACTION:UPD 17-12-12 19:53 OP:rebc STATUS:               ID:20171108080745 L   I
 OLDACT:UP  17-11-08 17:08 OP:dnl  STATUS:               ID:20171108075735     3
 OLDACT:UP  17-11-08 17:08 OP:dnl  STATUS:               ID:20171108075735     3
 OLDACT:REG 17-11-08 15:05 OP:dnl  STATUS:               ID:20171108075735     3
 2017-11-08-0758-00M.COL___390                                                 6
 STAT SP IPHASW D HRMM SECON CODA AMPLIT PERI AZIMU VELO AIN AR TRES W  DIS CAZ7
 BRR  HZ IP     C  8 8  6.79                             154    0.2210 68.8 300 
 BRR  HN ES        8 8 23.88                             154    0.5310 68.8 300 
 BRR  HZ I         8 8 26.37         8.4 0.32            151           68.8 300 
 PAM  EZ EP        8 8  7.97                             151    0.1110 79.1  41 
 PAM  EE ES        8 8 25.44                             151   -0.2010 79.1  41 
 PAM  EZ I         8 8 27.49         5.7 0.72            153           79.1  41 
 RUS  HZ EP        8 8  9.20                             145   -0.0810  101 175 
 RUS  HE ES        8 8 27.60                             145   -0.5810  101 175 
 RUS  HZ I         8 8 28.74         4.3 0.28            146            101 175 
 PTB  HZ EP        8 8 11.68                             134   -0.49 9  145 259 
 PTB  HE ES        8 8 33.04                             134   -0.27 9  145 259 
 PTB  HZ I         8 8 34.70         2.4 0.34            132            145 259 
 SPBC HZ EP        8 8 13.94                             130    0.18 9  162 218 
 SPBC HN ES        8 8 36.28                             130    0.13 9  162 218 
 SPBC HZ I         8 8 39.45         5.2 0.22            130            162 218 
 YPLC HZ EP        8 8 15.51                             127    0.19 9  178 151 
 YPLC HE ES        8 8 39.43                             127    0.50 9  178 151 
 YPLC HZ I         8 8 40.38         5.0 0.30            129            178 151 
 ZAR  HZ EP        8 8 17.86                             124    0.32 9  202 292 
 ZAR  HN ES        8 8 42.53                             124   -0.36 9  202 292 
 ZAR  HZ I         8 8 53.31         5.3 0.40            123            202 292 
 CHI  HZ EP        8 8 23.31                             118    0.36 8  248 195 
 CHI  HE ES        8 8 52.76                             118    0.26 8  248 195 
 CHI  HZ I         8 8 54.86         2.9 0.36            118            248 195 
 ROSC BZ EP   9    8 8 25.29                             118    2.00 0  251 210 
 ROSC BE ES        8 8 54.78                             118   -0.33 8  251 210 
 ROSC BZ I         8 8 59.67         6.1 0.40            118            251 210 
 URE  HZ EP   4    8 8 24.53                             115   -1.54 0  281 292 
 URE  HN ES   4    8 8 55.44                             115   -2.62 0  281 292 
 URE  HZ I         8 9  4.01         2.1 0.26            114            281 292 
 GUY2CHZ EP   9    8 8 30.48                             113    1.84 0  299 234 
 GUY2CHN ES        8 9  4.59                             113    0.12 7  299 234 
 GUY2CHZ I         8 9 10.21         1.3 0.22                           299 234 
 PTGC HZ EP        8 8 28.23                             112   -1.01 7  310 158 
 PTGC HN ES   4    8 9  1.65                             112   -2.06 0  310 158 
 PTGC HZ I         8 9  2.88         3.1 0.34            113            310 158 
                                                                                
