 2012 10 8 0952 40.5 L   6.774 -73.124146.0  RSN  7 0.4 1.8LRSN                1
 GAP=190        0.81       5.9     7.4  6.7  0.2155E+02  0.1476E+02  0.8764E+01E
 Epicentro: LOS SANTOS - SANTANDER                                             3
 ACTION:UPD 12-11-22 17:02 OP:ep   STATUS:               ID:20121008095240 L   I
 2012-10-08-0950-00M.COL___222                                                 6
 STAT SP IPHASW D HRMM SECON CODA AMPLIT PERI AZIMU VELO AIN AR TRES W  DIS CAZ7
 BAR2 SZ EP        953  0.00                             171   -0.0710 21.1 198 
 BAR2 SZ I         953  0.37        23.9 0.10                          21.1 198 
 BAR2 SZ ES   1    953 15.29                             171   -0.07 7 21.1 198 
 GIR2 SZ EP   1    953  0.09                             166   -0.16 7 34.6 347 
 GIR2 SZ ES   1    953 15.31                             166   -0.37 7 34.6 347 
 BRR  HZ EP        953  1.89                             151    0.0610 74.7 300 
 BRR  HN ES   1    953 19.30                             151    0.80 7 74.7 300 
 RUS  HZ EP   1    953  3.86                             145   -0.15 7 97.5 177 
 RUS  HN ES   1    953 22.50                             145    0.12 7 97.5 177 
 RUS  HN I         953 23.31         5.7 0.44                          97.5 177 
 ZAR  HZ EP   1    953 13.99                             122    0.73 6  207 293 
 ZAR  HE ES   1    953 37.93                             122   -0.91 6  207 293 
 ZAR  HZ I         953 40.86         7.4 0.10                           207 293 
 NOR  SN ES   2    953 43.96                             118   -0.17 4  235 235 
 CHI  HZ EP   1    953 17.98                             117    0.05 6  246 196 
 CHI  HZ I         953 50.89         2.8 0.18                           246 196 
                                                                                
