 2013  3 8 0524 35.8 L   6.749 -73.139158.0  RSN  4 0.1 1.5LRSN                1
 GAP=234        0.45       3.8     3.7  4.0  0.5517E+01  0.2371E+01 -0.1800E+01E
 Epicentro: LOS SANTOS - SANTANDER                                             3
 ACTION:UPD 13-04-09 14:00 OP:ep   STATUS:               ID:20130308052435 L   I
 2013-03-08-0518-36M.COL___200                                                 6
 STAT SP IPHASW D HRMM SECON CODA AMPLIT PERI AZIMU VELO AIN AR TRES W  DIS CAZ7
 BAR2 SZ EP        524 56.85                             173   -0.0110 18.0 196 
 BAR2 SZ I         524 57.19         6.7 0.32            174           18.0 196 
 BAR2 SZ ES        525 13.11                             173   -0.1310 18.0 196 
 BRR  HZ IP     C  524 58.73                             153    0.2110 74.7 302 
 BRR  HZ I         524 59.08         5.0 0.44            153           74.7 302 
 BRR  HN ES        525 16.18                             153   -0.0210 74.7 302 
 RUS  HE ES        525 19.70                             148    0.0910 94.9 176 
 PTB  HZ EP        525  3.56                             135   -0.25 9  148 261 
 PTB  HE ES        525 25.72                             135    0.09 9  148 261 
                                                                                
