 2012  9 8 0656 34.6 L   6.749 -73.150144.3  RSN 12 0.4 2.5LRSN                1
 GAP= 73        0.70       3.4     2.9  4.7  0.8270E+00  0.2787E+01  0.4148E+01E
 Epicentro: LOS SANTOS - SANTANDER                                             3
 ACTION:UPD 12-10-22 14:17 OP:ep   STATUS:               ID:20120908065634 L   I
 2012-09-08-0650-00M.COL___227                                                 6
 STAT SP IPHASW D HRMM SECON CODA AMPLIT PERI AZIMU VELO AIN AR TRES W  DIS CAZ7
 BAR2 SZ EP        656 53.94                             173   -0.0410 17.7 191 
 BAR2 SZ ES   1    657  8.98                             173   -0.10 7 17.7 191 
 BAR2 SZ I         657 10.03       109.3 0.22                          17.7 191 
 GIR2 SZ EP   1    656 54.16                             165   -0.13 7 36.8 353 
 GIR2 SZ ES   1    657  9.29                             165   -0.34 7 36.8 353 
 BRR  HZ EP        656 55.99                             151    0.2310 73.6 303 
 BRR  HN ES   1    657 13.24                             151    1.00 7 73.6 303 
 BRR  HN I         657 13.53       173.5 0.20                          73.6 303 
 PAM  SZ EP   1    656 56.92                             149   -0.06 7 82.1  37 
 PAM  SZ I         656 57.30        99.6 0.26                          82.1  37 
 PAM  SN ES   1    657 14.40                             149   -0.02 7 82.1  37 
 RUS  HZ EP   1    656 57.85                             145    0.01 7 95.0 176 
 RUS  HN ES   1    657 15.94                             145   -0.01 7 95.0 176 
 RUS  HZ I         657 17.57        45.9 0.30                          95.0 176 
 PTB  HZ EP   1    657  0.51                             132   -0.83 7  146 261 
 PTB  HN ES   1    657 21.61                             132   -0.57 7  146 261 
 PTB  HN I         657 23.05        34.2 0.28                           146 261 
 TAM  HZ EP   1    657  2.17                             130    0.06 7  154 103 
 TAM  HN ES   1    657 23.43                             130   -0.12 7  154 103 
 TAM  HZ I         657 24.50        18.7 0.18                           154 103 
 ZAR  HZ EP   1    657  7.26                             122    0.10 6  206 294 
 ZAR  HE ES   1    657 32.42                             122   -0.11 6  206 294 
 ZAR  HZ I         657 40.35        33.2 0.30                           206 294 
 NOR  SN ES   2    657 37.25                             119   -0.13 4  231 236 
 CHI  HZ EP   1    657 11.99                             117    0.35 6  243 195 
 CHI  HN ES   1    657 40.86                             117    0.35 6  243 195 
 CHI  HZ I         657 46.88         7.3 0.28                           243 195 
 HEL  HZ EP   1    657 14.86                             115    0.30 6  270 257 
 PRA  HZ EP   1    657 27.59                             106    0.09 4  387 210 
 PRA  HZ I         658 16.07        13.2 0.30                           387 210 
                                                                                
