 2013  9 8 0307 44.2 L   6.778 -73.131147.5  RSN  6 0.4 1.4LRSN                1
 GAP=139        1.03       5.5     5.7  9.6 -0.6241E+01  0.5713E+01  0.1120E+02E
 Epicentro: LOS SANTOS - SANTANDER                                             3
 ACTION:UPD 13-10-22 09:21 OP:ep   STATUS:               ID:20130908030744 L   I
 OLDACT:UP  13-09-08 14:13 OP:mh   STATUS:               ID:20130908030748     3
 OLDACT:REG 13-09-08 12:33 OP:mh   STATUS:               ID:20130908030748     3
 2013-09-08-0307-48M.COL___244                                                 6
 STAT SP IPHASW D HRMM SECON CODA AMPLIT PERI AZIMU VELO AIN AR TRES W  DIS CAZ7
 BAR2 SZ EP   1    3 8  4.12                             171    0.08 7 21.4 196 
 BAR2 SZ I         3 8 21.71         8.5 0.34            172           21.4 196 
 BRR  HZ EP   1    3 8  5.93                             152    0.21 7 73.8 300 
 BRR  HN ES        3 8 23.28                             152    0.8010 73.8 300 
 BRR  HZ I         3 8 27.83         4.3 0.28            150           73.8 300 
 PAM  SZ EP   1    3 8  6.86                             151    0.18 7 78.2  37 
 PAM  SN ES        3 8 23.69                             151   -0.5010 78.2  37 
 PAM  SZ I         3 8 26.23         2.5 0.46            150           78.2  37 
 RUS  HZ EP   1    3 8  8.39                             145    0.41 7 98.1 177 
 RUS  HN ES        3 8 26.34                             145   -0.1610 98.1 177 
 RUS  HZ I         3 8 27.57         2.9 0.56            145           98.1 177 
 PTB  HZ EP   1    3 8 10.89                             132   -0.56 7  149 260 
 PTB  HN ES        3 8 32.04                             132   -0.64 9  149 260 
 PTB  HZ I         3 8 37.88         4.8 0.42            131            149 260 
 SPBC HZ EP   1    3 8 12.98                             130    0.19 7  162 220 
 SPBC HN ES   1    3 8 35.31                             130    0.24 7  162 220 
 SPBC HZ I         3 8 38.97         4.9 0.28            129            162 220 
                                                                                
