 2010  8 8 0210 51.4 L   6.135 -73.755 99.0  RSN  5 0.1 1.5LRSN                1
 GAP=253        0.39       4.5     7.5  7.7  0.2263E+02  0.4422E+02  0.1907E+02E
 Epicentro: LANDAZURI - SANTANDER                                              3
 ACTION:UP  10-09-07 10:53 OP:vdl  STATUS:               ID:20100808021051 L   I
 2010-08-08-0208-50S.COL___125                                                 6
 STAT SP IPHASW D HRMM SECON CODA AMPLIT PERI AZIMU VELO SNR AR TRES W  DIS CAZ7
 RUS  HZ EP   2    211  9.17                             139     0.1 5   79 110 
 RUS  HN ES   2    211 23.02                             139     0.2 5   79 110 
 BAR2 SZ ES   1    211 22.22                             138    -0.3 8   81  51 
 BAR2 SZ I         211 24.42        11.3 0.38                            81  51 
 BTL  SZ EP        211 10.72                             131     0.010  102  32 
 BTL  SZ ES   1    211 25.99                             131     0.2 7  102  32 
 BRR  HZ EP        211 10.87                             129    -0.110  108   3 
 BRR  HN ES   1    211 26.24                             129     0.1 7  108   3 
 BRR  HZ I         211 27.52         4.8 0.45                           108   3 
 GUE  SZ EP   2    211 22.36                             111     0.1 4  209  26 
                                                                                
