 2010  6 8 0728 58.7 L   6.833 -73.113139.4  RSN 12 0.5 2.2LRSN                1
 GAP=145        0.98       4.7     7.0  8.4 -0.1748E+02  0.9856E+01  0.1032E+02E
 Epicentro: LOS SANTOS - SANTANDER                                             3
 ACTION:UP  10-08-24 10:09 OP:vdl  STATUS:               ID:20100608072858 L   I
 2010-06-08-0727-09S.COL___111                                                 6
 STAT SP IPHASW D HRMM SECON CODA AMPLIT PERI AZIMU VELO SNR AR TRES W  DIS CAZ7
 BAR2 SZ EP        729 17.46                             168    -0.210   28 196 
 BAR2 SZ ES   2    729 31.90                             168    -0.6 5   28 196 
 GIR2 SZ EP   1    729 17.56                             168     0.0 7   29 342 
 GUE  SZ EP   1    729 22.35                             139    -0.2 7  112  11 
 GUE  SZ ES   1    729 41.61                             139     0.5 7  112  11 
 GRA  SZ IP        729 23.30                             137     0.310  121  16 
 GRA  SZ ES   1    729 42.62                             137     0.6 7  121  16 
 OCA  SZ IP        729 25.94                             129    -0.3 9  157 352 
 OCA  SZ ES   1    729 47.30                             129    -0.4 7  157 352 
 CHI  HZ EP   1    729 36.09                             115    -0.5 6  253 196 
 CHI  HN ES   2    730  5.46                             115    -0.6 4  253 196 
 CHI  HZ I         730  9.57         6.6 0.45                           253 196 
 ROSC BZ EP        729 37.81                             115     0.8 8  258 211 
 ROSC BN ES   2    730  7.08                             115     0.1 4  258 211 
 ROSC BZ I         730 12.38         8.7 0.35                           258 211 
 HEL  HZ EP   1    729 39.76                             113     0.6 6  276 255 
 HEL  HN ES   1    730  9.85                             113    -0.8 6  276 255 
 HEL  HZ I         730 17.84        15.8 0.50                           276 255 
 RREF BZ EP   1    729 46.01                             109     0.8 5  327 229 
 RREF BE ES   2    730 22.10                             109     0.7 3  327 229 
 RREF BZ I         730 30.00         8.9 0.35                           327 229 
 DBB  SZ EP        729 46.05                             108    -0.3 7  343 274 
 TOL  SZ EP   1    729 47.51                             108     0.2 5  349 225 
 SDV  BZ EP        729 47.22                             107    -0.7 6  355  50 
 SDV  BZ I         730 28.69         6.7 0.67                           355  50 
                                                                                
