 2017  5 8 0217 44.6 L   7.348 -73.125138.0  RSN  7 0.4 1.5LRSN                1
 GAP=176        0.91       4.6     4.2  7.0 -0.1660E+01  0.1178E+02  0.3429E+01E
 Epicentro: RIONEGRO - SANTANDER                                               3
 ACTION:UPD 17-06-16 13:33 OP:jn   STATUS:               ID:20170508021744 L   I
 OLDACT:UP  17-05-08 14:03 OP:edw  STATUS:               ID:20170508020736d    3
 OLDACT:DUP 17-05-08 13:49 OP:edw  STATUS:               ID:20170508020736d    3
 2017-05-08-0208-00M.COL___362                                                 6
 STAT SP IPHASW D HRMM SECON CODA AMPLIT PERI AZIMU VELO AIN AR TRES W  DIS CAZ7
 PAM  EZ EP     D  218  4.37                             160   -0.0810 47.0  91 
 PAM  HN ES        218 20.00                             160    0.1010 47.0  91 
 PAM  EZ I         218 22.14         5.4 0.50            165           47.0  91 
 BRR  HZ EP     C  218  4.52                             151   -0.3710 70.1 248 
 BRR  HN ES        218 20.77                             151    0.0910 70.1 248 
 BRR  HZ I         218 23.89         5.8 0.52            150           70.1 248 
 RUS  HN ES        218 34.96                             128    0.06 9  161 178 
 PTB  HZ EP        218 13.09                             126   -0.24 9  172 239 
 PTB  HN ES        218 36.37                             126    0.65 9  172 239 
 PTB  HZ I         218 37.97         3.4 0.20            126            172 239 
 ZAR  HZ EP        218 15.99                             122    0.66 9  192 275 
 ZAR  HE ES        218 38.71                             122   -0.57 9  192 275 
 ZAR  HZ I         218 43.82         3.5 0.24            123            192 275 
 SPBC HN ES        218 43.23                             119   -0.49 8  215 209 
 NOR  HZ EP        218 24.76                             113    0.26 7  276 224 
 NOR  HN ES        218 55.60                             113    0.00 7  276 224 
 NOR  HZ I         219  4.71         2.3 0.20            114            276 224 
 SJC  HZ EP   4    218 30.85                             107   -3.48 0  361 321 
 SJC  HN ES   4    219  5.40                             107   -7.70 0  361 321 
                                                                                
