 2017  6 8 0740 57.8 L   6.506 -73.586106.0  RSN  6 0.4 1.6LRSN                1
 GAP=144        1.12       4.4     3.8  8.9  0.3335E+01 -0.8488E+00  0.1100E+02E
 Epicentro: SANTA HELENA DEL OPON - SANTANDER                                  3
 ACTION:UPD 17-09-14 16:50 OP:jn   STATUS:               ID:20170608074057 L   I
 OLDACT:REG 17-06-08 13:58 OP:dhb  STATUS:               ID:20170608073727     3
 2017-06-08-0738-00M.COL___359                                                 6
 STAT SP IPHASW D HRMM SECON CODA AMPLIT PERI AZIMU VELO AIN AR TRES W  DIS CAZ7
 BRR  HZ EP        741 14.44                             145   -0.1710 67.9 348 
 BRR  HZ I         741 22.01         5.3 0.15            143           67.9 348 
 BRR  HN ES        741 28.25                             145    0.5510 67.9 348 
 RUS  HZ EP        741 16.74                             138   -0.0710 87.7 141 
 RUS  HN ES        741 31.27                             138   -0.3610 87.7 141 
 RUS  HZ I         741 32.57         7.5 0.28            137           87.7 141 
 PTB  HZ IP     D  741 16.43                             134   -0.4610 96.3 272 
 PTB  HN ES        741 31.27                             134   -0.5010 96.3 272 
 PTB  HZ I         741 32.64         6.9 0.15            133           96.3 272 
 SPBC HZ EP        741 18.49                             131    0.3910  109 210 
 SPBC HN ES        741 34.57                             131    0.6410  109 210 
 SPBC HZ I         741 37.20        13.0 0.09            130            109 210 
 NOR  HZ EP        741 25.68                             116    0.70 9  176 234 
 NOR  HN ES        741 45.66                             116   -0.51 9  176 234 
 NOR  HZ I         741 50.03         3.8 0.14            115            176 234 
 YPLC HZ EP        741 25.46                             115   -0.11 9  181 133 
 YPLC HN ES        741 47.16                             115   -0.06 9  181 133 
 YPLC HZ I         741 49.42        15.0 0.30            114            181 133 
                                                                                
