 2013  3 8 0706  1.2 L   6.800 -73.146149.9  RSN 13 0.4 2.4LRSN                1
 GAP= 71        0.93       2.9     3.0  4.6  0.4178E+00  0.3092E+01  0.5026E+00E
 Epicentro: LOS SANTOS - SANTANDER                                             3
 ACTION:UPD 13-04-09 14:00 OP:ep   STATUS:               ID:20130308070601 L   I
 2013-03-08-0658-43M.COL___200                                                 6
 STAT SP IPHASW D HRMM SECON CODA AMPLIT PERI AZIMU VELO AIN AR TRES W  DIS CAZ7
 BAR2 SZ IP        7 6 21.20                             171   -0.1210 23.4 190 
 BAR2 SZ ES        7 6 36.84                             171   -0.1810 23.4 190 
 BAR2 SZ I         7 6 39.15        49.6 0.36            163           23.4 190 
 BRR  HZ IP     D  7 6 23.11                             153    0.3210 71.2 299 
 BRR  HN ES        7 6 40.46                             153    0.8310 71.2 299 
 BRR  HN I         7 6 41.74       109.0 0.20            152           71.2 299 
 PAM  SZ EP        7 6 24.08                             152    0.2410 77.4  40 
 PAM  SN ES        7 6 41.17                             152   -0.3510 77.4  40 
 PAM  SZ I         7 6 43.38        14.6 0.18            153           77.4  40 
 RUS  HZ EP        7 6 25.08                             145   -0.2710  101 176 
 RUS  HN ES        7 6 43.97                             145   -0.2310  101 176 
 PTB  HZ EP        7 6 28.07                             133   -0.43 9  148 259 
 PTB  HN ES        7 6 49.50                             133   -0.30 9  148 259 
 TAM  HZ EP        7 6 29.34                             131    0.14 9  155 105 
 TAM  HN ES        7 6 51.15                             131    0.11 9  155 105 
 OCA  HZ EP        7 6 29.94                             131    0.12 9  160 353 
 OCA  HN ES        7 6 52.48                             131    0.33 9  160 353 
 OCA  HZ I         7 6 56.22        23.3 0.24            130            160 353 
 ZAR  HZ EP        7 6 33.82                             123   -0.09 9  204 292 
 SML  HZ EP        7 6 37.73                             118   -0.32 8  244 335 
 SML  HN ES        7 7  6.02                             118   -0.78 8  244 335 
 CHI  HZ EP        7 6 39.42                             118    0.30 8  249 195 
 CHI  HN I         7 7 12.10        20.2 0.48            113            249 195 
 HEL  HZ EP        7 6 41.77                             116    0.15 8  272 256 
 HEL  HN ES        7 7 13.20                             116    0.05 8  272 256 
 HEL  HN I         7 7 23.02        14.5 0.50            112            272 256 
 RREF HZ EP   1    7 6 48.82                             112    1.30 5  322 229 
 RREF HN ES   4    7 7 27.02                             112    3.37 0  322 229 
 RREF HZ I         7 7 30.94        11.8 0.28            108            322 229 
 PRA  HZ EP        7 6 54.58                             107   -0.28 6  392 210 
                                                                                
