 2013  2 8 0747 28.8 L   6.795 -73.136146.1  RSN 11 0.4 2.2LRSN                1
 GAP=138        0.89       2.8     3.8  6.1  0.4761E+00  0.6771E+01  0.3373E-01E
 Epicentro: LOS SANTOS - SANTANDER                                             3
 ACTION:UPD 13-03-12 09:31 OP:ep   STATUS:               ID:20130208074728 L   I
 2013-02-08-0740-00M.COL___241                                                 6
 STAT SP IPHASW D HRMM SECON CODA AMPLIT PERI AZIMU VELO AIN AR TRES W  DIS CAZ7
 BAR2 SZ EP   1    747 48.58                             171    0.15 7 23.0 193 
 BAR2 SZ ES   1    748  3.25                             171   -0.52 7 23.0 193 
 BAR2 SZ I         748  4.41        19.4 0.34            167           23.0 193 
 BRR  HZ EP        747 50.55                             152    0.5310 72.4 299 
 BRR  HN ES   1    748  7.20                             152    0.60 7 72.4 299 
 BRR  HN I         748 11.21        36.6 0.22            141           72.4 299 
 PAM  SZ EP        747 51.37                             151    0.3610 77.2  39 
 PAM  SN ES        748  8.26                             151   -0.0910 77.2  39 
 PAM  SN I         748  9.52        13.5 0.44            145           77.2  39 
 RUS  HZ EP        747 52.56                             144    0.0510 99.9 177 
 RUS  HN ES        748 10.98                             144   -0.0410 99.9 177 
 RUS  HN I         748 12.47        21.3 0.30            138           99.9 177 
 PTB  HZ EP   1    747 55.34                             132   -0.50 7  149 259 
 PTB  HN ES        748 17.11                             132    0.15 9  149 259 
 PTB  HN I         748 18.59        24.1 0.24            122            149 259 
 OCA  HN ES   1    748 18.42                             130   -0.90 7  161 353 
 OCA  HN I         748 21.75        45.7 0.26            120            161 353 
 ZAR  HZ EP   2    748  1.88                             122    0.53 4  205 292 
 ZAR  HN ES        748 27.11                             122    0.34 9  205 292 
 ZAR  HN I         748 35.96        14.3 0.12            113            205 292 
 SML  HZ EP   1    748  4.98                             117   -0.53 6  245 335 
 SML  HN ES        748 33.99                             117   -0.19 8  245 335 
 SML  HN I         748 38.55        26.0 0.12            109            245 335 
 CHI  HZ EP   1    748  6.91                             117    0.46 6  248 195 
 CHI  HN ES        748 35.43                             117   -0.42 8  248 195 
 CHI  HN I         748 42.04         5.9 0.34            110            248 195 
 HEL  HN ES   1    748 39.77                             115   -0.77 6  273 256 
 HEL  HN I         748 46.78         5.3 0.48            107            273 256 
 URE  HZ EP   1    748  9.70                             113   -0.28 6  285 292 
 URE  HN I         748 49.95        11.1 0.24            106            285 292 
                                                                                
