 2012  2 8 0922 27.8 L   6.740 -73.184151.0  RSN  7 0.3 1.4LRSN                1
 GAP=134        0.66       5.4     4.6  6.8  0.8420E+01 -0.2018E+01 -0.8328E+01E
 ACTION:UP  12-03-07 16:28 OP:epov STATUS:               ID:20120208092227 L   I
 2012-02-08-0920-00M.COL___188                                                 6
 STAT SP IPHASW D HRMM SECON CODA AMPLIT PERI AZIMU VELO AIN AR TRES W  DIS CAZ7
 BAR2 SZ EP   2    922 48.11                             174    0.15 5 16.3 180 
 BAR2 SZ ES   1    923  3.38                             174   -0.30 7 16.3 180 
 BAR2 SZ I         923  6.49         6.3 0.47                          16.3 180 
 GIR2 SZ EP   1    922 48.17                             165   -0.12 7 37.5 358 
 BRR  HZ EP   1    922 49.10                             153   -0.43 7 71.1 305 
 BRR  HN ES   1    923  6.97                             153    0.50 7 71.1 305 
 BRR  HZ I         923  9.68         6.4 0.19                          71.1 305 
 PAM  SZ EP   1    922 50.96                             149   -0.10 7 85.2  39 
 RUS  HZ EP   1    922 52.20                             147    0.54 7 94.3 173 
 RUS  HE ES   1    923 10.29                             147    0.03 7 94.3 173 
 RUS  HZ I         923 11.73         2.5 0.25                          94.3 173 
 PTB  HZ EP   1    922 54.65                             134   -0.10 7  142 261 
 PTB  HN ES   1    923 15.37                             134   -0.39 7  142 261 
 ZAR  HN ES   1    923 26.31                             124    0.34 6  203 294 
                                                                                
