 2013  4 8 0926  3.9 L   6.820 -73.150141.6  RSN 20 0.5 2.9LRSN                1
 GAP= 70        1.21       2.8     3.1  5.0 -0.1700E+01  0.1538E+01  0.1796E+01E
 Epicentro: LOS SANTOS - SANTANDER                                             3
 ACTION:UPD 13-05-22 14:36 OP:EP   STATUS:               ID:20130408092603 L   I
 2013-04-08-0918-51M.COL___218                                                 6
 STAT SP IPHASW D HRMM SECON CODA AMPLIT PERI AZIMU VELO AIN AR TRES W  DIS CAZ7
 BAR2 SZ IP        926 23.28                             169    0.1610 25.4 188 
 BAR2 SZ I         926 23.58       176.2 0.34            168           25.4 188 
 BAR2 SZ ES        926 37.70                             169   -0.3710 25.4 188 
 GIR2 SZ IP     C  926 23.27                             168    0.2110 29.0 351 
 GIR2 SZ ES        926 37.76                             168   -0.2110 29.0 351 
 BRR  HZ IP     C  926 25.07                             152    0.5110 69.7 297 
 BRR  HN ES   1    926 41.78                             152    1.14 7 69.7 297 
 RUS  HZ EP        926 27.35                             142   -0.1010  103 176 
 RUS  HN ES        926 45.82                             142    0.0310  103 176 
 RUS  HE I         926 48.90        70.4 0.50            143            103 176 
 CAPV BZ IP     D  926 31.34                             131    0.47 9  148  39 
 CAPV BZ ES        926 52.06                             131    0.18 9  148  39 
 PTB  HZ EP        926 29.89                             131   -0.68 9  148 258 
 PTB  HN ES        926 50.51                             131   -0.83 9  148 258 
 PTB  HE I         926 54.72        96.6 0.34            131            148 258 
 TAM  HZ IP        926 31.75                             129    0.35 9  156 106 
 TAM  HN ES        926 53.14                             129    0.33 9  156 106 
 OCA  HZ EP        926 31.41                             129   -0.31 9  158 353 
 OCA  HN ES        926 52.74                             129   -0.65 9  158 353 
 OCA  HN I         927  1.07       213.6 0.20            130            158 353 
 ZAR  HZ EP        926 36.14                             122    0.15 9  203 292 
 ZAR  HN ES        927  1.93                             122    0.95 9  203 292 
 NOR  HZ EP        926 39.99                             117    0.46 8  236 234 
 NOR  HN ES        927  8.01                             117    0.73 8  236 234 
 NOR  HN I         927 13.07       135.3 0.18            118            236 234 
 SML  HZ EP        926 39.45                             117   -0.65 8  242 335 
 CHI  HZ EP        926 41.76                             116    0.13 8  251 195 
 CHI  HN ES        927 10.73                             116   -0.30 8  251 195 
 CHI  HN I         927 14.55        40.2 0.38            117            251 195 
 ROSC BE ES        927 11.84                             116    0.13 8  254 211 
 ROSC BZ I         927 21.48        27.7 0.35            116            254 211 
 HEL  HZ EP        926 44.27                             114    0.32 8  272 255 
 HEL  HN ES        927 14.10                             114   -1.06 8  272 255 
 HEL  HN I         927 21.87        26.5 0.60            114            272 255 
 SOCV BZ EP        926 45.96                             111   -0.76 7  301  57 
 VIL  SZ EP        926 47.77                             111    0.36 7  305 191 
 VIL  SN ES        927 20.74                             111   -0.57 7  305 191 
 DBB  SZ EP        926 51.46                             109    0.28 7  339 274 
 SDV  BZ EP        926 52.97                             107   -0.74 6  359  50 
 PRA  HZ EP        926 57.46                             106   -0.06 6  394 209 
 PRA  HN ES        927 39.15                             106   -0.15 6  394 209 
 PRA  HN I         927 44.55        24.6 0.64            106            394 209 
 SJA  SZ EP        926 59.79                             105    1.19 6  402 193 
 SJA  SZ ES        927 40.40                             105   -0.83 6  402 193 
                                                                                
