 2017  3 8 0405 55.6 L   6.788 -73.160140.5  RSN 18 0.5 1.8LRSN                1
 GAP= 73        0.99       3.4     2.9  5.4 -0.4761E-01  0.1432E+01  0.3637E+01E
 Epicentro: LOS SANTOS - SANTANDER                                             3
 ACTION:UPD 17-05-25 18:37 OP:jn   STATUS:               ID:20170308040555 L   I
 OLDACT:UP  17-03-08 17:36 OP:and  STATUS:               ID:20170308035752     3
 OLDACT:UP  17-03-08 17:35 OP:and  STATUS:               ID:20170308035752     3
 OLDACT:UP  17-03-08 17:35 OP:and  STATUS:               ID:20170308035752     3
 OLDACT:UP  17-03-08 17:33 OP:and  STATUS:               ID:20170308035752     3
 OLDACT:UP  17-03-08 17:32 OP:and  STATUS:               ID:20170308035752     3
 OLDACT:UP  17-03-08 17:32 OP:and  STATUS:               ID:20170308035752     3
 OLDACT:UP  17-03-08 17:32 OP:and  STATUS:               ID:20170308035752     3
 OLDACT:UP  17-03-08 17:30 OP:and  STATUS:               ID:20170308035752     3
 OLDACT:UP  17-03-08 17:17 OP:and  STATUS:               ID:20170308035752     3
 OLDACT:UP  17-03-08 17:16 OP:and  STATUS:               ID:20170308035752     3
 OLDACT:UP  17-03-08 17:16 OP:and  STATUS:               ID:20170308035752     3
 OLDACT:UP  17-03-08 17:15 OP:and  STATUS:               ID:20170308035752     3
 OLDACT:REG 17-03-08 12:49 OP:and  STATUS:               ID:20170308035752     3
 2017-03-08-0358-00M.COL___259                                                 6
 STAT SP IPHASW D HRMM SECON CODA AMPLIT PERI AZIMU VELO AIN AR TRES W  DIS CAZ7
 BAR2 EZ EP        4 6 14.35                             171   -0.2010 21.8 186 
 BAR2 EZ ES        4 6 28.99                             171   -0.3510 21.8 186 
 BAR2 EZ I         4 6 30.56        24.5 0.32            169           21.8 186 
 BRR  HZ IP     C  4 6 16.16                             152    0.0410 70.4 300 
 BRR  HN ES        4 6 33.21                             152    1.0710 70.4 300 
 BRR  HZ I         4 6 33.70        10.7 0.11            148           70.4 300 
 PAM  EZ EP        4 6 17.13                             149   -0.2310 79.4  40 
 PAM  EN ES        4 6 34.53                             149    0.1810 79.4  40 
 PAM  EZ I         4 6 36.60         7.7 0.44            152           79.4  40 
 RUS  HZ EP        4 6 18.73                             143   -0.0010 99.4 175 
 RUS  HN ES        4 6 37.01                             143    0.2210 99.4 175 
 RUS  HZ I         4 6 37.96         7.6 0.48            143           99.4 175 
 PTB  HZ EP        4 6 21.36                             131   -0.60 9  146 259 
 PTB  HN ES        4 6 41.91                             131   -0.62 9  146 259 
 PTB  HZ I         4 6 47.77         6.7 0.15            129            146 259 
 TAM  HZ EP        4 6 22.74                             129   -0.22 9  156 104 
 TAM  HN ES        4 6 44.39                             129    0.07 9  156 104 
 SPBC HZ EP        4 6 23.53                             128    0.04 9  161 219 
 SPBC HN ES        4 6 45.10                             128   -0.15 9  161 219 
 SPBC HZ I         4 6 50.15        11.1 0.22            127            161 219 
 ZAR  HZ EP   4    4 6 29.34                             122    1.75 0  203 293 
 ZAR  HE ES        4 6 52.09                             122   -0.46 9  203 293 
 ZAR  HZ I         4 6 57.47         8.7 0.44            120            203 293 
 NOR  HN ES   2    4 6 58.59                             118    0.35 4  233 234 
 NOR  HZ I         4 7  1.16         4.0 0.20            117            233 234 
 CHI  HZ EP        4 6 32.90                             116    0.09 8  247 195 
 CHI  HN ES        4 7  2.28                             116    0.44 8  247 195 
 CHI  HZ I         4 7  5.33         4.4 0.66            116            247 195 
 HEL  HZ EP   4    4 6 37.51                             114    2.19 0  270 256 
 HEL  HN ES   3    4 7  7.68                             114    1.36 2  270 256 
 HEL  HZ I         4 7 13.50         2.4 0.24            113            270 256 
 URE  HZ EP   9    4 6 34.91                             113   -1.38 0  283 292 
 URE  HN ES        4 7  6.03                             113   -0.63 7  283 292 
 URE  HZ I         4 7 18.22         5.1 0.28            112            283 292 
 GUY2CHN ES   4    4 7 15.90                             112    3.54 0  299 235 
 GUY2CHZ  IAML     4 7 21.75         3.5 0.30                           299 235 
 PTGC HZ EP   9    4 6 37.45                             111   -1.68 0  308 158 
 PTGC HN ES        4 7 11.26                             111   -0.16 7  308 158 
 CBOC HZ EP        4 6 42.89                             109    0.83 7  332 252 
 CBOC HN ES   3    4 7 20.38                             109    2.07 2  332 252 
 PRA  HZ EP   9    4 6 46.38                             106   -2.32 0  390 209 
 PRA  HN ES        4 7 28.01                             106    0.20 6  390 209 
 PRA  HZ I         4 7 32.51         4.0 0.40            106            390 209 
 ORTC HN ES   4    4 7 33.83                             106    3.01 0  393 216 
 ORTC HZ I         4 7 35.73         2.0 0.26            105            393 216 
 SJC  HZ EP   9    4 6 48.44                             105   -2.56 0  409 327 
 SJC  HN ES        4 7 32.03                             105    0.36 6  409 327 
 SJC  HZ I         4 7 33.65         2.4 0.40            105            409 327 
                                                                                
