 2014  4 8 0553  7.1 L   6.818 -73.184137.0  RSN  8 0.4 1.8LRSN                1
 GAP=131        0.89       2.8     4.6  7.2 -0.3309E+01  0.1394E+02 -0.2343E+01E
 Epicentro: ZAPATOCA - SANTANDER                                               3
 ACTION:UPD 14-05-13 23:07 OP:nd   STATUS:               ID:20140408055307 L   I
 OLDACT:UP  14-04-11 04:45 OP:CF   STATUS:               ID:20140408055307 L   3
 OLDACT:REG 14-04-08 12:55 OP:stll STATUS:               ID:20140408054806     3
 2014-04-08-0548-06M.COL___250                                                 6
 STAT SP IPHASW D HRMM SECON CODA AMPLIT PERI AZIMU VELO AIN AR TRES W  DIS CAZ7
 PAM  SZ EP        553 28.72                             149    0.2710 78.7  43 
 PAM  SN ES        553 45.65                             149    0.5310 78.7  43 
 PAM  HZ I         553 47.83         8.7 0.34            160           78.7  43 
 RUS  HZ EP        553 29.86                             141   -0.3010  103 174 
 RUS  HE ES        553 47.78                             141   -0.3810  103 174 
 RUS  HZ I         553 59.75         4.1 1.04            147            103 174 
 PTB  HZ EP        553 32.94                             131   -0.06 9  144 258 
 PTB  HN ES        553 53.46                             131    0.25 9  144 258 
 PTB  HZ I         554  1.34         6.0 0.26            135            144 258 
 OCA  HN ES        553 55.27                             128   -0.60 9  158 355 
 SPBC HZ EP        553 34.84                             127    0.02 9  162 217 
 SPBC HN ES        553 56.41                             127   -0.04 9  162 217 
 SPBC HZ I         554  1.78        10.1 0.26            132            162 217 
 SML  HZ EP        553 42.62                             116   -0.22 8  240 336 
 SML  HN ES        554 10.74                             116    0.01 8  240 336 
 SML  HZ I         554 15.56         9.4 0.62            123            240 336 
 HEL  HZ EP   1    553 46.18                             113   -0.28 6  268 255 
 HEL  HN ES   4    554 15.76                             113   -1.41 0  268 255 
 HEL  HZ I         554 25.47         3.0 1.90            118            268 255 
 GUY2CHZ EP        553 50.90                             111    0.86 7  299 234 
 GUY2CHN ES   4    554 24.83                             111    1.29 0  299 234 
 GUY2CHZ I         554 37.86         5.5 2.70                           299 234 
                                                                                
