 2011  9 8 0510 11.5 L   6.807 -73.083153.2  RSN 16 0.3 2.5LRSN                1
 GAP=144        0.41       1.9     2.7  3.2 -0.1011E+01  0.1914E+01  0.1160E+01E
 Epicentro: LOS SANTOS - SANTANDER                                             3
 ACTION:UPD 12-07-13 15:56 OP:ep   STATUS:               ID:20110908050654 L   I
 2011-09-08-0506-54S.COL___171                                                 6
 STAT SP IPHASW D HRMM SECON CODA AMPLIT PERI AZIMU VELO AIN AR TRES W  DIS CAZ7
 BAR2 SZ IP        510 31.94                             170   -0.0910 26.2 205 
 BAR2 SZ ES   2    510 47.87                             170   -0.22 5 26.2 205 
 BAR2 SZ I         510 49.96        52.8 0.34                          26.2 205 
 GIR2 SZ EP   1    510 32.11                             168    0.07 7 32.4 338 
 GIR2 SZ ES   2    510 48.15                             168    0.06 5 32.4 338 
 PAM  SZ EP   1    510 34.70                             154    0.51 7 72.5  36 
 PAM  SN ES   2    510 51.92                             154   -0.01 5 72.5  36 
 BRR  HZ IP     C  510 33.83                             152    0.1010 77.0 296 
 BRR  HZ I         510 34.15        92.8 0.18                          77.0 296 
 BRR  HE ES   1    510 51.31                             152    0.20 7 77.0 296 
 RUS  HZ EP   1    510 35.78                             145   -0.20 7  101 180 
 RUS  HN ES   2    510 54.91                             145   -0.20 5  101 180 
 RUS  HZ I         510 55.59        17.1 0.27                           101 180 
 OCA  SZ EP   1    510 40.53                             131    0.16 7  160 351 
 OCA  SZ ES   2    511  2.50                             131   -0.42 5  160 351 
 OCA  SZ I         511  8.97        32.4 0.58                           160 351 
 ZAR  HZ EP   1    510 44.60                             123   -0.41 6  210 291 
 ZAR  HN ES   2    511 11.13                             123   -0.06 4  210 291 
 ZAR  HZ I         511 15.75        36.0 0.42                           210 291 
 NOR  SZ EP   1    510 47.86                             119   -0.41 6  241 235 
 NOR  SN ES   2    511 16.67                             119   -0.32 4  241 235 
 CHI  HZ EP   2    510 49.99                             118    0.13 4  251 197 
 CHI  HN ES   2    511 19.70                             118   -0.11 4  251 197 
 CHI  HZ I         511 27.23        13.1 0.25                           251 197 
 ROSC BZ EP   2    510 50.10                             118   -0.35 4  257 212 
 ROSC BZ I         511 29.26        22.1 0.50                           257 212 
 HEL  HZ EP   2    510 53.01                             116    0.20 4  279 256 
 HEL  HN ES   2    511 24.97                             116   -0.10 4  279 256 
 HEL  HZ I         511 30.62        19.5 0.44                           279 256 
 GUY  SZ EP   2    510 56.82                             113    0.46 4  310 236 
 GUY  SN ES   2    511 32.02                             113    0.63 4  310 236 
 GUY  SZ I         511 37.69        22.7 0.56                           310 236 
 RREF HZ EP   2    510 58.87                             112    0.29 3  328 230 
 RREF HN ES   2    511 35.34                             112    0.00 3  328 230 
 RREF HZ I         511 44.14        18.4 0.44                           328 230 
 COD  HZ EP   2    510 59.79                             110   -0.33 3  348 353 
 COD  HN ES   2    511 37.57                             110   -0.51 3  348 353 
 COD  HZ I         511 47.26        17.7 0.67                           348 353 
 PRA  HZ EP   2    511  6.17                             107    0.45 3  396 210 
 PRA  HN ES   2    511 48.63                             107    0.58 3  396 210 
 SJA  SZ EP   2    511  6.70                             107    0.16 3  402 194 
 SJA  SZ ES   2    511 49.45                             107   -0.06 3  402 194 
                                                                                
