 2017  3 8 0119 56.7 L   6.785 -73.113146.6  RSN 16 0.6 1.9LRSN                1
 GAP=123        1.04       3.8     4.0  5.3 -0.1052E+00  0.3414E+01  0.3849E+01E
 Epicentro: LOS SANTOS - SANTANDER                                             3
 ACTION:UPD 17-05-25 18:37 OP:jn   STATUS:               ID:20170308011956 L   I
 OLDACT:UP  17-03-08 14:49 OP:and  STATUS:               ID:20170308011748     3
 OLDACT:UP  17-03-08 14:49 OP:and  STATUS:               ID:20170308011748     3
 OLDACT:UP  17-03-08 14:48 OP:and  STATUS:               ID:20170308011748     3
 OLDACT:UP  17-03-08 14:48 OP:and  STATUS:               ID:20170308011748     3
 OLDACT:UP  17-03-08 14:46 OP:and  STATUS:               ID:20170308011748     3
 OLDACT:UP  17-03-08 14:46 OP:and  STATUS:               ID:20170308011748     3
 OLDACT:UP  17-03-08 14:44 OP:and  STATUS:               ID:20170308011748     3
 OLDACT:UP  17-03-08 14:43 OP:and  STATUS:               ID:20170308011748     3
 OLDACT:REG 17-03-08 12:27 OP:and  STATUS:               ID:20170308011748     3
 2017-03-08-0118-00M.COL___356                                                 6
 STAT SP IPHASW D HRMM SECON CODA AMPLIT PERI AZIMU VELO AIN AR TRES W  DIS CAZ7
 BAR2 EZ EP        120 16.51                             171    0.0510 22.6 200 
 BAR2 EZ ES        120 31.58                             171   -0.2710 22.6 200 
 BAR2 EZ I         120 33.10        18.6 0.32            166           22.6 200 
 BRR  HZ EP        120 18.41                             152    0.2010 75.2 298 
 BRR  HN ES        120 35.74                             152    0.7810 75.2 298 
 PAM  EZ IP     C  120 19.17                             151    0.1710 76.5  37 
 PAM  EN ES        120 36.27                             151   -0.0810 76.5  37 
 PAM  EZ I         120 37.71         8.0 0.16            156           76.5  37 
 RUS  HZ EP        120 20.72                             144    0.2710 98.7 178 
 RUS  HN ES        120 39.01                             144    0.0710 98.7 178 
 RUS  HZ I         120 40.36        11.9 0.30            142           98.7 178 
 PTB  HZ EP        120 23.51                             132   -0.57 9  151 260 
 PTB  HN ES        120 44.37                             132   -1.02 9  151 260 
 PTB  HZ I         120 47.77         6.7 0.16            129            151 260 
 SPBC HZ EP        120 25.43                             129    0.02 9  164 220 
 SPBC HN ES        120 48.08                             129    0.32 9  164 220 
 SPBC HZ I         120 48.70        11.4 0.26            127            164 220 
 ZAR  HZ EP        120 29.68                             122    0.02 8  208 292 
 ZAR  HN ES        120 55.06                             122   -0.26 8  208 292 
 ZAR  HZ I         120 59.97         7.2 0.34            121            208 292 
 NOR  HZ EP        120 32.80                             119    0.06 8  237 235 
 NOR  HN ES   2    120 59.98                             119   -0.83 4  237 235 
 NOR  HZ I         121  7.00         5.4 0.12            117            237 235 
 CHI  HZ EP        120 34.69                             117    0.27 8  248 196 
 CHI  HN ES   2    121  4.36                             117    0.55 4  248 196 
 CHI  HZ I         121  9.62         2.7 0.24            117            248 196 
 ROSC BZ EP   9    120 36.72                             117    1.76 0  253 212 
 ROSC BN ES        121  7.31                             116    0.78 8  253 212 
 ROSC BZ I         121 14.41        10.4 0.35            116            253 212 
 HEL  HZ EP   3    120 38.73                             115    1.39 2  275 256 
 HEL  HN ES   3    121 11.86                             115    2.85 2  275 256 
 HEL  HZ I         121 16.15         4.1 0.68            114            275 256 
 URE  HZ EP   2    120 37.21                             114   -1.09 4  288 292 
 URE  HN ES   4    121  7.84                             114   -2.87 0  288 292 
 URE  HZ I         121 12.83         4.0 0.14            113            288 292 
 GUY2CHZ EP   3    120 41.70                             112    1.08 2  303 235 
 GUY2CHN ES   4    121 18.89                             112    4.05 0  303 235 
 GUY2CHZ  IAML     121 23.16         4.3 0.50                           303 235 
 PTGC HZ EP        120 39.48                             112   -0.84 7  306 159 
 CBOC HZ EP   3    120 45.04                             110    1.01 2  337 253 
 CBOC HN ES   2    121 21.28                             110    0.37 3  337 253 
 CBOC HZ I         121 24.70         0.9 0.24            109            337 253 
 PRA  HZ EP        120 50.99                             107    0.65 6  392 210 
 PRA  HN ES   4    121 33.57                             107    1.43 0  392 210 
 PRA  HZ I         121 39.00         3.7 0.32            106            392 210 
 SJC  HZ EP   4    120 50.60                             106   -2.13 0  413 327 
 SJC  HN ES   4    121 32.76                             106   -3.64 0  413 327 
                                                                                
