 2011  2 8 0541 33.7 L   7.241 -74.301  0.0  RSN  4 0.6 1.7LRSN                1
 GAP=199        1.24       9.3     7.3 13.6  0.2427E+02 -0.5125E+01 -0.1304E+02E
 Epicentro: PUERTO WILCHES - SANTANDER                                         3
 *OCA-GRA-MON                                                                  3
 ACTION:UP  11-03-28 15:06 OP:jfem STATUS:               ID:20110208054000 L   I
 2011-02-08-0540-00M.COL___140                                                 6
 STAT SP IPHASW D HRMM SECON CODA AMPLIT PERI AZIMU VELO SNR AR TRES W  DIS CAZ7
 BAR2 SZ EP   2    541 56.42                              47    -0.4 5  143 120 
 BAR2 SZ I         542  5.15         3.5 0.65                           143 120 
 BAR2 SZ ES   2    542 14.77                              47     0.0 5  143 120 
 OCA  SZ EP        541 57.65                              47    -0.810  155  44 
 OCA  SZ ES   2    542 17.91                              47     0.1 5  155  44 
 OCA  SZ I         542 22.91        10.9 0.41                           155  44 
 GRA  SZ IP        542  3.11                              47     0.810  180  67 
 GRA  SZ ES   2    542 25.16                              47     0.5 5  180  67 
 GRA  SZ I         542 28.84        17.8 0.30                           180  67 
 MON  HZ EP   1    542  7.78                              37    -0.2 7  226 319 
 MON  HN ES   2    542 35.50                              37     0.8 4  226 319 
                                                                                
