 2014 12 8 0347 35.4 L   6.799 -73.149143.9  RSN 10 0.4 1.6LRSN                1
 GAP= 71        1.13       3.0     4.7  6.0 -0.1514E+01  0.9101E+00  0.1593E+00E
 Epicentro: LOS SANTOS - SANTANDER                                             3
 ACTION:UPD 15-02-10 17:01 OP:nd   STATUS:               ID:20141208034735 L   I
 OLDACT:ARG 14-12-08 13:49 OP:stll STATUS:               ID:20141208033743     3
 2014-12-08-0337-43M.COL___303                                                 6
 STAT SP IPHASW D HRMM SECON CODA AMPLIT PERI AZIMU VELO AIN AR TRES W  DIS CAZ7
 BAR2 SZ EP        347 55.07                             170    0.2410 23.1 189 
 BAR2 SZ ES        348 10.03                             170    0.0710 23.1 189 
 BAR2 SZ I         348 11.73         7.6 0.24            169           23.1 189 
 BRR  HZ EP     C  347 56.91                             152    0.5510 70.9 299 
 BRR  HZ I         347 57.27         7.3 0.16            151           70.9 299 
 BRR  HE ES        348 13.36                             152    0.6810 70.9 299 
 PAM  SZ EP     C  347 57.95                             150    0.4910 77.7  40 
 PAM  SN ES        348 14.34                             150   -0.3110 77.7  40 
 PAM  SZ I         348 17.18         8.7 0.52            154           77.7  40 
 RUS  HZ EP        347 58.34                             143   -0.6510  100 176 
 RUS  HZ I         347 59.78         2.6 0.46            145            100 176 
 RUS  HE ES        348 16.70                             143   -0.6610  100 176 
 PTB  HZ EP        348  2.11                             132   -0.10 9  147 259 
 PTB  HN ES        348 23.05                             132   -0.04 9  147 259 
 PTB  HZ I         348 30.23         5.9 0.40            131            147 259 
 TAM  HZ EP        348  3.24                             130    0.25 9  155 105 
 OCA  HN EP        348  3.79                             129    0.19 9  160 353 
 OCA  HN ES        348 25.62                             129    0.05 9  160 353 
 SPBC HZ EP        348  3.92                             129    0.17 9  163 219 
 SPBC HN ES        348 25.52                             129   -0.32 9  163 219 
 SPBC HZ I         348 33.12         6.0 0.32            129            163 219 
 SML  HZ EP        348 11.57                             117   -0.38 8  244 335 
 SML  HE ES        348 39.33                             117   -1.10 8  244 335 
 SML  HZ I         348 42.93         6.5 0.24            118            244 335 
 CHI  HZ EP        348 13.04                             117    0.04 8  248 195 
 CHI  HZ I         348 14.10         1.3 0.54            118            248 195 
 CHI  HN ES        348 42.84                             117    0.54 8  248 195 
                                                                                
