 2015  5 8 0744 58.4 L   6.834 -73.094143.0  RSN 11 0.4 1.9LRSN                1
 GAP=188        1.05       2.7     4.8  5.7 -0.4031E+00  0.6856E+01 -0.3399E-01E
 Epicentro: LOS SANTOS - SANTANDER                                             3
 ACTION:UPD 15-09-10 22:02 OP:cam  STATUS:               ID:20150508074458 L   I
 OLDACT:REG 15-05-08 13:51 OP:drio STATUS:               ID:20150508073736     3
 2015-05-08-0737-36M.COL___276                                                 6
 STAT SP IPHASW D HRMM SECON CODA AMPLIT PERI AZIMU VELO AIN AR TRES W  DIS CAZ7
 BAR2 EZ EP     D  745 17.77                             168   -0.0610 28.4 200 
 BAR2 EZ ES        745 33.46                             168    0.4910 28.4 200 
 BAR2 EZ I         745 34.16        13.2 0.22            166           28.4 200 
 BRR  HZ EP     D  745 19.52                             151    0.0510 74.7 294 
 BRR  HN ES        745 36.42                             151    0.5310 74.7 294 
 BRR  HZ I         745 40.75        15.4 0.12            149           74.7 294 
 RUS  HZ EP        745 21.88                             142   -0.2710  104 179 
 RUS  HN ES        745 40.49                             142   -0.1810  104 179 
 OCA  HZ EP        745 27.10                             130    0.86 9  157 351 
 OCA  HN ES        745 47.36                             130   -0.58 9  157 351 
 OCA  HZ I         745 50.60        18.6 0.26            132            157 351 
 SPBC HZ EP        745 26.90                             127   -0.43 9  170 220 
 SPBC HN ES        745 49.22                             127   -0.66 9  170 220 
 SPBC HZ I         745 55.67        11.0 0.14            128            170 220 
 ZAR  HZ EP        745 31.17                             121    0.08 8  208 291 
 ZAR  HN ES        745 55.97                             121   -0.61 8  208 291 
 NOR  HZ EP        745 34.63                             117   -0.09 8  242 235 
 NOR  HN ES        746  3.21                             117    0.17 8  242 235 
 NOR  HZ I         746  7.96         6.8 0.20            118            242 235 
 SML  HZ EP        745 34.82                             117    0.03 8  243 334 
 SML  HN ES        746  2.72                             117   -0.44 8  243 334 
 CHI  HZ EP        745 36.40                             116   -0.12 8  254 196 
 CHI  HN ES        746  6.09                             116   -0.15 8  254 196 
 CHI  HZ I         746 10.73         3.5 0.26            118            254 196 
 HEL  HZ EP        745 39.43                             114    0.22 7  279 255 
 HEL  HN ES        746 10.82                             114   -0.20 7  279 255 
 HEL  HZ I         746 17.30         5.2 0.38            115            279 255 
 GUY2CHZ EP        745 43.46                             111    0.79 7  308 235 
 GUY2CHN ES        746 18.01                             111    0.82 7  308 235 
 GUY2CHZ I         746 25.41         4.8 0.78                           308 235 
 PTGC HZ EP   4    745 41.05                             111   -1.26 0  310 160 
 PTGC HN ES   4    746 15.20                             111   -1.36 0  310 160 
                                                                                
