 2011  4 8 0237 16.1 L   6.776 -73.107138.9  RSN  6 0.4 1.6LRSN                1
 GAP=166        0.79       7.9     7.6  9.0 -0.1919E+02 -0.3174E+01  0.5980E+01E
 Epicentro: LOS SANTOS - SANTANDER                                             3
 ACTION:UP  11-06-22 15:29 OP:REBC STATUS:               ID:20110408023716 L   I
 2011-04-08-0233-48S.COL___138                                                 6
 STAT SP IPHASW D HRMM SECON CODA AMPLIT PERI AZIMU VELO SNR AR TRES W  DIS CAZ7
 BAR2 SZ EP        237 34.77                             171    -0.110   22 202 
 BAR2 SZ I         237 51.01         7.9 0.20                            22 202 
 BTL  SZ EP        237 34.84                             170    -0.110   24 312 
 BRR  HZ EP        237 36.59                             149    -0.210   76 299 
 BRR  HZ I         237 43.43         7.6 0.13                            76 299 
 BRR  HN ES   1    237 53.24                             149     0.3 7   76 299 
 PAM  SZ EP        237 37.76                             150     0.210   77  36 
 PAM  SN ES   1    237 54.55                             150     0.3 7   77  36 
 GRA  SZ EP   2    237 40.51                             135    -0.3 5  127  15 
 GRA  SZ ES   2    237 58.97                             135    -1.2 5  127  15 
 OCA  SZ EP        237 44.51                             127     0.3 9  163 352 
                                                                                
