 2016  9 8 0325  1.4 L   6.806 -73.158146.9  RSN  7 0.4 1.5LRSN                1
 GAP=135        0.97       4.1     4.1  6.2 -0.4029E+00  0.6403E+01  0.3473E+00E
 Epicentro: LOS SANTOS - SANTANDER                                             3
 ACTION:UPD 17-08-17 21:07 OP:lp   STATUS:               ID:20160908032501 L   I
 OLDACT:DUP 16-09-08 14:33 OP:dani STATUS:               ID:20160908031740d    3
 OLDACT:UP  16-09-08 14:31 OP:dani STATUS:               ID:20160908031739     3
 OLDACT:REG 16-09-08 12:20 OP:dani STATUS:               ID:20160908031739     3
 2016-09-08-0318-00M.COL___348                                                 6
 STAT SP IPHASW D HRMM SECON CODA AMPLIT PERI AZIMU VELO AIN AR TRES W  DIS CAZ7
 BAR2 EZ EP        325 20.91                             170   -0.2510 23.8 186 
 BAR2 HN ES        325 36.45                             170   -0.1310 23.8 186 
 BAR2 EZ I         325 38.99         5.1 0.18            169           23.8 186 
 BRR  HZ EP        325 22.70                             153    0.1310 69.7 299 
 BRR  HE ES        325 39.73                             153    0.6410 69.7 299 
 BRR  HZ I         325 40.01         8.3 0.32            152           69.7 299 
 PAM  EZ EP        325 23.82                             151    0.0710 77.8  41 
 PAM  EE ES        325 40.85                             151   -0.3410 77.8  41 
 PAM  EZ I         325 41.43         3.6 0.20            155           77.8  41 
 RUS  HZ EP        325 25.31                             144    0.0110  101 175 
 RUS  HN ES        325 44.24                             144    0.2810  101 175 
 RUS  HZ I         325 45.25         2.8 0.34            145            101 175 
 PTB  HZ EP        325 27.68                             132   -0.66 9  147 258 
 PTB  HN ES        325 48.72                             132   -0.63 9  147 258 
 PTB  HZ I         325 52.21         3.9 0.16            132            147 258 
 SPBC HZ EP        325 30.17                             129    0.23 9  163 218 
 SPBC HE ES        325 52.32                             129    0.12 9  163 218 
 SPBC HZ I         325 57.61         3.3 0.26            129            163 218 
 ZAR  HZ EP        325 34.37                             123    0.62 9  203 292 
 ZAR  HN ES        325 58.96                             123   -0.03 9  203 292 
 ZAR  HZ I         326  5.12         4.2 0.25            123            203 292 
                                                                                
