 2015  9 8 0739 11.1 L   6.714 -73.227143.6  RSN  5 0.5 1.2LRSN                1
 GAP=211        1.17       6.6     7.1  8.7  0.9577E+01  0.9947E+01  0.6770E+01E
 Epicentro: VILLANUEVA - SANTANDER                                             3
 ACTION:UPD 15-10-28 16:25 OP:cam  STATUS:               ID:20150908073911 L   I
 OLDACT:REG 15-09-08 14:01 OP:mh   STATUS:               ID:20150908073750     3
 2015-09-08-0737-50M.COL___350                                                 6
 STAT SP IPHASW D HRMM SECON CODA AMPLIT PERI AZIMU VELO AIN AR TRES W  DIS CAZ7
 BAR2 EZ EP        739 30.12                             174   -0.2110 14.4 160 
 BAR2 EZ ES        739 45.00                             174   -0.3210 14.4 160 
 BAR2 EZ I         739 46.12         4.9 0.18            174           14.4 160 
 BRR  HZ EP        739 31.24                             153   -0.6610 69.0 309 
 BRR  HN ES        739 48.68                             153    0.5710 69.0 309 
 BRR  HZ I         740  6.90         3.5 0.46            150           69.0 309 
 RUS  HZ EP        739 34.23                             146    0.1710 92.3 170 
 RUS  HN ES        739 52.27                             146    0.3110 92.3 170 
 RUS  HZ I         739 54.08         1.6 0.28            155           92.3 170 
 PTB  HZ EP        739 36.90                             134   -0.06 9  137 262 
 PTB  HN ES        739 57.26                             134    0.14 9  137 262 
 PTB  HZ I         739 59.31         2.6 0.50            136            137 262 
 SPBC HZ EP        739 38.97                             131    0.75 9  150 219 
 SPBC HN ES        739 58.69                             131   -0.68 9  150 219 
 SPBC HZ I         740  8.19         3.2 0.30            136            150 219 
                                                                                
