 2017 11 8 0008 18.0 L   6.762 -73.144141.0  RSN  9 0.5 1.4LRSN                1
 GAP=113        1.21       4.5     4.9  7.8 -0.3924E-02  0.2200E+01  0.9146E+01E
 Epicentro: LOS SANTOS - SANTANDER                                             3
 ACTION:UPD 17-12-12 19:53 OP:rebc STATUS:               ID:20171108000818 L   I
 OLDACT:UP  17-11-08 15:14 OP:dnl  STATUS:               ID:20171107235955     3
 OLDACT:REG 17-11-08 14:48 OP:dnl  STATUS:               ID:20171107235955     3
 2017-11-08-0000-15M.COL___417                                                 6
 STAT SP IPHASW D HRMM SECON CODA AMPLIT PERI AZIMU VELO AIN AR TRES W  DIS CAZ7
 BAR2 EZ EP   2    0 8 36.16                             172   -0.78 5 19.3 193 
 BAR2 EZ ES        0 8 51.29                             172   -0.4510 19.3 193 
 BAR2 EZ I         0 8 53.08         9.2 0.26            169           19.3 193 
 BRR  HZ EP        0 8 38.67                             151   -0.0610 73.4 301 
 BRR  HE ES        0 8 55.87                             151    0.9510 73.4 301 
 BRR  HZ I         0 8 58.85         6.9 0.34            151           73.4 301 
 PAM  EZ EP        0 8 39.85                             149   -0.0210 80.5  38 
 PAM  EN ES        0 8 57.03                             149    0.0810 80.5  38 
 PAM  EZ I         0 8 59.57         2.8 0.38            153           80.5  38 
 RUS  HZ EP        0 8 41.06                             144    0.1210 96.4 176 
 RUS  HN ES        0 8 58.45                             144   -0.4210 96.4 176 
 RUS  HZ I         0 9  0.97         2.4 0.26            144           96.4 176 
 PTB  HZ EP   2    0 8 43.75                             131   -0.74 5  147 260 
 PTB  HN ES        0 9  4.43                             131   -0.75 9  147 260 
 PTB  HZ I         0 9  8.25         2.0 0.16            131            147 260 
 SPBC HZ EP        0 8 45.69                             128   -0.11 9  160 220 
 SPBC HE ES        0 9  8.56                             128    1.05 9  160 220 
 SPBC HZ I         0 9 14.11         5.0 0.20            129            160 220 
 YPLC HZ EP        0 8 47.31                             126    0.26 9  173 151 
 YPLC HE ES   4    0 9 11.99                             126    2.26 0  173 151 
 YPLC HZ I         0 9 12.30         3.6 0.26            128            173 151 
 ZAR  HN ES        0 9 15.20                             121   -0.29 8  206 293 
 ZAR  HZ I         0 9 19.73         3.0 0.48            122            206 293 
 CHI  HZ EP   2    0 8 55.63                             116    0.66 4  245 195 
 CHI  HN ES        0 9 23.71                             116   -0.12 8  245 195 
 CHI  HZ I         0 9 30.66         1.6 0.32            117            245 195 
                                                                                
