 2016  9 8 0128 52.9 L   5.902 -73.723120.0  RSN  4 0.4 1.0LRSN                1
 GAP=150        0.93       9.0     6.8  8.0 -0.4274E+02  0.1861E+02 -0.1625E+02E
 Epicentro: PUENTE NACIONAL - SANTANDER                                        3
 ACTION:UPD 17-08-17 21:07 OP:lp   STATUS:               ID:20160908012852 L   I
 OLDACT:REG 16-09-08 12:12 OP:y    STATUS:               ID:20160908012733     3
 2016-09-08-0128-00M.COL___354                                                 6
 STAT SP IPHASW D HRMM SECON CODA AMPLIT PERI AZIMU VELO AIN AR TRES W  DIS CAZ7
 SPBC HZ EP        129  9.45                             157   -0.6810 47.5 235 
 SPBC HN ES        129 23.61                             157    0.0610 47.5 235 
 SPBC HZ I         129 28.23         3.3 0.10            157           47.5 235 
 RUS  HZ EP        129 11.83                             148   -0.2010 70.8  91 
 RUS  HE ES        129 27.23                             148    0.2910 70.8  91 
 RUS  HZ I         129 28.22         1.4 0.14            153           70.8  91 
 BAR2 EZ EP        129 13.72                             138    0.1310 97.0  38 
 BAR2 EZ ES        129 29.68                             138   -0.0410 97.0  38 
 GUY2CHZ EP        129 24.22                             117    0.58 9  197 248 
 GUY2CHZ I         129 56.02         1.3 0.47                           197 248 
                                                                                
