 2017 10 8 0814 37.2 L   6.804 -73.106135.4  RSN  9 0.5 1.2LRSN                1
 GAP=141        0.95       3.4     4.6  6.1 -0.2964E+01  0.1229E+02  0.2527E+01E
 Epicentro: LOS SANTOS - SANTANDER                                             3
 ACTION:UPD 17-11-07 19:29 OP:rebc STATUS:               ID:20171008081437 L   I
 OLDACT:DUP 17-10-08 17:20 OP:dhb  STATUS:               ID:20171008080743d    3
 2017-10-08-0808-00M.COL___399                                                 6
 STAT SP IPHASW D HRMM SECON CODA AMPLIT PERI AZIMU VELO AIN AR TRES W  DIS CAZ7
 BAR2 EZ EP        814 55.29                             169   -0.3710 24.9 200 
 BAR2 EZ ES        815 10.10                             169    0.0710 24.9 200 
 BAR2 EZ I         815 11.49         8.7 0.16            171           24.9 200 
 PAM  EZ EP        814 58.27                             150    0.0910 74.4  37 
 PAM  EN ES        815 14.55                             150    0.0510 74.4  37 
 PAM  EZ I         815 20.91         1.1 0.29            151           74.4  37 
 RUS  HZ EP        814 59.26                             141   -0.7410  101 179 
 RUS  HN ES        815 18.21                             141    0.4510  101 179 
 RUS  HZ I         815 19.15         1.9 0.11            145            101 179 
 SPBC HZ EP        815  5.50                             126    0.23 9  166 220 
 SPBC HN ES        815 26.73                             126   -0.40 9  166 220 
 SPBC HZ I         815 28.38         2.1 0.10            128            166 220 
 ZAR  HZ EP        815 10.02                             119    0.58 8  208 292 
 ZAR  HN ES        815 34.56                             119    0.00 8  208 292 
 ZAR  HZ I         815 40.49         1.8 0.17            121            208 292 
 NOR  HE ES        815 40.13                             116   -0.41 8  238 235 
 NOR  HZ I         815 41.26         1.8 0.08            118            238 235 
 CHI  HZ EP        815 15.09                             115    0.53 8  250 196 
 CHI  HE ES        815 43.76                             115    0.09 8  250 196 
 CHI  HZ I         815 48.73         0.9 0.28            117            250 196 
 GUY2CHZ EP        815 20.27                             110   -0.55 7  305 235 
 GUY2CHE ES   3    815 56.79                             110    1.97 2  305 235 
 GUY2CHZ I         816  1.90         1.3 0.44                           305 235 
 PRA  HZ EP        815 30.93                             104    0.21 6  395 210 
 PRA  HE ES        816 13.03                             104    0.60 6  395 210 
                                                                                
