 2017  9 8 0822 10.7 L   6.768 -73.125142.0  RSN  6 0.2 1.6LRSN                1
 GAP=141        0.58       2.6     3.0  4.9 -0.7418E+00  0.4133E+01 -0.1809E+01E
 Epicentro: LOS SANTOS - SANTANDER                                             3
 ACTION:UPD 17-10-05 19:10 OP:rebc STATUS:               ID:20170908082210 L   I
 OLDACT:UP  17-09-08 18:49 OP:dnl  STATUS:               ID:20170908081742     3
 OLDACT:UP  17-09-08 18:49 OP:dnl  STATUS:               ID:20170908081742     3
 OLDACT:REG 17-09-08 13:26 OP:dnl  STATUS:               ID:20170908081742     3
 2017-09-08-0818-00M.COL___419                                                 6
 STAT SP IPHASW D HRMM SECON CODA AMPLIT PERI AZIMU VELO AIN AR TRES W  DIS CAZ7
 BAR2 EZ EP   2    822 29.95                             171    0.14 5 20.4 198 
 BAR2 EZ ES        822 44.52                             171   -0.2010 20.4 198 
 BAR2 EZ I         822 45.52         9.7 0.30            170           20.4 198 
 BRR  HZ EP        822 31.70                             150    0.0510 75.0 300 
 BRR  HE ES        822 48.19                             150    0.1910 75.0 300 
 BRR  HZ I         822 52.74         6.5 0.10            150           75.0 300 
 PAM  EZ EP        822 32.67                             150    0.0810 78.8  37 
 PAM  EN ES        822 49.44                             150   -0.2310 78.8  37 
 PAM  EZ I         822 51.61        12.6 0.42            153           78.8  37 
 RUS  HZ EP   2    822 33.76                             144   -0.04 5 96.9 177 
 RUS  HN ES        822 52.22                             144    0.3910 96.9 177 
 RUS  HZ I         822 54.02         3.1 0.26            145           96.9 177 
 SPBC HZ EP   4    822 40.43                             128    1.65 0  162 220 
 SPBC HN ES        823  0.28                             128   -0.41 9  162 220 
 SPBC HZ I         823  6.02         4.3 0.36            129            162 220 
 ZAR  HZ EP   2    822 43.05                             121   -0.21 4  208 293 
 ZAR  HN ES        823  8.77                             121    0.11 8  208 293 
 ZAR  HZ I         823 10.51         4.7 0.26            122            208 293 
                                                                                
