 2012  1 8 0544 54.7 L   6.764 -73.169149.5  RSN  5 0.3 1.2LRSN                1
 GAP=179        0.56       6.2     6.7  7.8  0.1273E+02 -0.6748E+01  0.1149E+02E
 Epicentro: LOS SANTOS - SANTANDER                                             3
 ACTION:UP  12-02-03 08:15 OP:REBC STATUS:               ID:20120108054454 L   I
 2012-01-08-0540-00M.COL___186                                                 6
 STAT SP IPHASW D HRMM SECON CODA AMPLIT PERI AZIMU VELO SNR AR TRES W  DIS CAZ7
 BAR2 SZ EP   1    545 14.57                             172    -0.1 7   19 184 
 GIR2 SZ EP   1    545 14.63                             166    -0.2 7   35 356 
 GIR2 SZ ES   2    545 30.25                             166    -0.4 5   35 356 
 BRR  HZ EP   1    545 16.37                             153     0.2 7   71 302 
 BRR  HZ I         545 31.06         4.8 0.51                            71 302 
 BRR  HN ES   1    545 33.30                             153     0.3 7   71 302 
 RUS  HZ EP   1    545 18.84                             146     0.3 7   97 174 
 RUS  HN ES   2    545 36.95                             146    -0.2 5   97 174 
 RUS  HZ I         545 38.25         1.5 0.25                            97 174 
 PTB  HZ EP   2    545 21.15                             133    -0.5 5  144 260 
 PTB  HN ES   2    545 42.41                             133    -0.3 5  144 260 
                                                                                
