 2017  4 8 0258  2.8 L   7.376 -73.084138.0  RSN  5 0.3 1.2LRSN                1
 GAP=217        0.69       7.0     5.5  6.5 -0.2212E+02  0.7982E+01  0.9551E-01E
 Epicentro: MATANZA - SANTANDER                                                3
 ACTION:UPD 17-05-30 21:09 OP:jn   STATUS:               ID:20170408025802 L   I
 OLDACT:UP  17-04-08 14:14 OP:and  STATUS:               ID:20170408024745d    3
 OLDACT:UP  17-04-08 14:14 OP:and  STATUS:               ID:20170408024745d    3
 OLDACT:UP  17-04-08 14:14 OP:and  STATUS:               ID:20170408024745d    3
 OLDACT:UP  17-04-08 14:13 OP:and  STATUS:               ID:20170408024745d    3
 OLDACT:DUP 17-04-08 14:11 OP:and  STATUS:               ID:20170408024745d    3
 OLDACT:UP  17-04-08 14:09 OP:and  STATUS:               ID:20170408024743     3
 OLDACT:UP  17-04-08 14:09 OP:and  STATUS:               ID:20170408024743     3
 OLDACT:UP  17-04-08 14:08 OP:and  STATUS:               ID:20170408024743     3
 OLDACT:REG 17-04-08 12:42 OP:and  STATUS:               ID:20170408024743     3
 2017-04-08-0248-00M.COL___371                                                 6
 STAT SP IPHASW D HRMM SECON CODA AMPLIT PERI AZIMU VELO AIN AR TRES W  DIS CAZ7
 PAM  EZ IP     D  258 22.63                             162    0.1610 42.7  95 
 PAM  EN ES        258 37.80                             162    0.0110 42.7  95 
 PAM  EZ I         258 38.77         2.9 0.29            161           42.7  95 
 BAR2 EZ IP     C  258 24.39                             146   -0.1210 87.3 187 
 BAR2 EZ ES   2    258 40.77                             146   -0.66 5 87.3 187 
 BAR2 EZ I         258 42.43         3.5 0.30            142           87.3 187 
 RUS  HZ EP        258 31.37                             127    0.01 9  164 180 
 RUS  HN ES   2    258 53.97                             127    0.36 5  164 180 
 PTB  HZ EP   2    258 31.16                             125   -0.91 4  178 239 
 PTB  HN ES        258 55.14                             125    0.26 9  178 239 
 PTB  HZ I         258 56.13         1.7 0.23            124            178 239 
 SPBC HZ EP   9    258 37.58                             119    1.03 0  220 210 
 SPBC HN ES        259  4.37                             119    0.49 8  220 210 
 SPBC HZ I         259  9.47         1.7 0.08            117            220 210 
                                                                                
