 2012 11 8 0452 37.7 L   6.780 -73.167143.8  RSN  7 0.4 1.9LRSN                1
 GAP= 75        1.17       6.3     5.3  7.3 -0.3831E+01 -0.1405E+01  0.3312E+01E
 Epicentro: LOS SANTOS - SANTANDER                                             3
 ACTION:UPD 12-12-05 15:32 OP:}ep  STATUS:               ID:20121108045237 L   I
 2012-11-08-0450-00M.COL___230                                                 6
 STAT SP IPHASW D HRMM SECON CODA AMPLIT PERI AZIMU VELO AIN AR TRES W  DIS CAZ7
 BAR2 SZ EP        452 57.22                             171    0.1610 20.8 185 
 BAR2 SZ ES        453 11.90                             171   -0.2410 20.8 185 
 BAR2 SZ I         453 14.41        17.1 0.28                          20.8 185 
 GIR2 SZ EP        452 57.02                             166   -0.1810 33.1 355 
 GIR2 SZ ES        453 12.34                             166   -0.0610 33.1 355 
 BRR  HZ EP        452 59.16                             152    0.5710 70.2 301 
 BRR  HN ES        453 15.69                             152    0.8110 70.2 301 
 BRR  HN I         453 16.23        17.5 0.24                          70.2 301 
 PAM  SZ EP        453  0.19                             149    0.2810 80.6  40 
 PAM  SN ES        453 16.59                             149   -0.6410 80.6  40 
 RUS  HN ES        453 19.67                             144    0.2810 98.6 175 
 PTB  HZ EP        453  3.65                             132   -0.62 9  145 259 
 PTB  HN ES        453 24.44                             132   -0.54 9  145 259 
 TAM  HZ IP        453  5.44                             130    0.04 9  157 104 
                                                                                
