 2016 11 8 0753  8.1 L   6.791 -73.135145.3  RSN 10 0.4 1.5LRSN                1
 GAP=155        1.00       4.0     4.1  5.8 -0.3232E+01  0.5366E+01  0.6885E+01E
 Epicentro: LOS SANTOS - SANTANDER                                             3
 ACTION:UPD 17-10-26 21:05 OP:lp   STATUS:               ID:20161108075308 L   I
 OLDACT:DUP 16-11-08 17:46 OP:lv   STATUS:               ID:20161108074743d    3
 2016-11-08-0748-00M.COL___349                                                 6
 STAT SP IPHASW D HRMM SECON CODA AMPLIT PERI AZIMU VELO AIN AR TRES W  DIS CAZ7
 BAR2 EZ EP        753 27.49                             171   -0.1710 22.6 193 
 BAR2 EZ ES        753 42.37                             171   -0.5510 22.6 193 
 BAR2 EZ I         753 45.37         9.9 0.38            167           22.6 193 
 BRR  HZ EP        753 29.51                             152    0.2210 72.7 299 
 BRR  HN ES        753 46.47                             152    0.6610 72.7 299 
 BRR  HZ I         753 51.74         3.5 0.14            152           72.7 299 
 PAM  EZ EP        753 30.35                             151    0.0810 77.4  38 
 PAM  EN ES        753 47.53                             151   -0.0310 77.4  38 
 PAM  EZ I         753 48.54         4.1 0.16            158           77.4  38 
 PTB  HZ EP        753 35.12                             132   -0.00 9  149 259 
 PTB  HN ES        753 55.74                             132   -0.46 9  149 259 
 PTB  HZ I         754  2.86         5.8 0.50            132            149 259 
 SPBC HZ EP        753 36.56                             129   -0.00 9  163 220 
 SPBC HE ES        753 59.17                             129    0.41 9  163 220 
 SPBC HZ I         754  5.06         6.7 0.11            130            163 220 
 ZAR  HZ EP        753 40.02                             122   -0.65 8  206 292 
 ZAR  HE ES        754  6.52                             122    0.44 8  206 292 
 ZAR  HZ I         754 14.29         2.2 0.14            124            206 292 
 NOR  HZ EP        753 42.98                             118   -0.86 8  235 235 
 NOR  HN ES        754 11.49                             118   -0.23 8  235 235 
 NOR  HZ I         754 16.41         2.3 0.15            120            235 235 
 CHI  HZ EP        753 45.99                             117    0.29 8  248 196 
 CHI  HN ES        754 15.36                             117    0.33 8  248 196 
 CHI  HZ I         754 23.08         1.3 0.31            119            248 196 
 CBOC HZ EP        753 55.46                             110    0.37 7  334 252 
 CBOC HE ES        754 31.47                             110   -0.27 7  334 252 
 CBOC HZ I         754 33.86         0.6 0.21            112            334 252 
 PRA  HZ EP        754  2.39                             106    0.82 6  392 210 
 PRA  HN ES   4    754 44.75                             106    1.47 0  392 210 
 PRA  HZ I         754 49.79         1.2 0.24            109            392 210 
                                                                                
