 2016  4 8 0414 41.0 L   6.846 -73.188140.8  RSN  9 0.2 1.8LRSN                1
 GAP=129        0.55       2.1     2.4  3.9 -0.1305E+01  0.3675E+01 -0.6282E+00E
 Epicentro: ZAPATOCA - SANTANDER                                               3
 ACTION:UPD 16-05-05 14:19 OP:rebc STATUS:               ID:20160408041441 L   I
 OLDACT:UP  16-04-08 16:35 OP:mh   STATUS:               ID:20160408040746     3
 OLDACT:REG 16-04-08 12:40 OP:mh   STATUS:               ID:20160408040746     3
 2016-04-08-0407-46M.COL___324                                                 6
 STAT SP IPHASW D HRMM SECON CODA AMPLIT PERI AZIMU VELO AIN AR TRES W  DIS CAZ7
 BAR2 EZ EP        415  0.13                             168    0.0410 28.0 179 
 BAR2 EZ ES        415 14.71                             168   -0.3110 28.0 179 
 BAR2 EZ I         415 16.37        16.4 0.34            171           28.0 179 
 PAM  EZ EP        415  2.99                             150    0.3810 76.8  45 
 PAM  EN ES        415 19.63                             150    0.1410 76.8  45 
 PAM  EZ I         415 22.35        16.4 0.29            152           76.8  45 
 RUS  HZ EP   1    415  4.42                             141   -0.21 7  106 174 
 RUS  HN ES        415 23.11                             141    0.0210  106 174 
 RUS  HZ I         415 23.49         7.1 0.28            145            106 174 
 PTB  HZ EP        415  6.89                             132   -0.31 9  144 257 
 PTB  HN ES        415 27.78                             132    0.11 9  144 257 
 PTB  HZ I         415 29.81         4.5 0.58            132            144 257 
 OCA  HZ EP   1    415  8.00                             129   -0.36 7  155 355 
 OCA  HN ES   1    415 29.70                             129   -0.04 7  155 355 
 OCA  HZ I         415 33.51        12.1 0.16            130            155 355 
 SPBC HZ EP   1    415  9.23                             128    0.05 7  164 217 
 SPBC HN ES        415 31.39                             128    0.19 9  164 217 
 ZAR  HN ES        415 37.02                             122    0.03 9  198 291 
 ZAR  HZ I         415 43.97         6.0 0.26            122            198 291 
 NOR  HZ EP        415 16.06                             117   -0.25 8  234 233 
 NOR  HN ES   1    415 44.00                             117    0.10 6  234 233 
 NOR  HZ I         415 49.74         4.2 0.27            119            234 233 
 GUY2CHZ EP   1    415 24.76                             111    0.52 5  300 233 
 GUY2CHN ES   4    416  1.79                             111    3.79 0  300 233 
 GUY2CHZ I         416  6.45         3.1 0.32                           300 233 
                                                                                
