 2013  5 8 0316 21.7 L   6.816 -73.125146.1  RSN 12 0.5 2.1LRSN                1
 GAP=138        0.93       3.5     4.4  5.8 -0.2705E+01  0.8090E+01 -0.3610E+00E
 Epicentro: LOS SANTOS - SANTANDER                                             3
 ACTION:UPD 13-06-20 09:48 OP:ep   STATUS:               ID:20130508031621 L   I
 2013-05-08-0310-00M.COL___256                                                 6
 STAT SP IPHASW D HRMM SECON CODA AMPLIT PERI AZIMU VELO AIN AR TRES W  DIS CAZ7
 BAR2 SZ EP        316 41.44                             170    0.0310 25.6 194 
 BAR2 SZ ES   1    316 56.96                             170    0.18 7 25.6 194 
 BAR2 SZ I         316 57.44        28.3 0.18            168           25.6 194 
 GIR2 SZ EP   1    316 41.47                             168    0.10 7 30.0 345 
 GIR2 SZ ES   1    316 56.31                             168   -0.40 7 30.0 345 
 GIR2 SZ I         316 58.42        21.6 0.36            164           30.0 345 
 BRR  HZ EP        316 43.40                             152    0.4610 72.4 296 
 BRR  HN ES   1    317  0.16                             152    0.65 7 72.4 296 
 BRR  HZ I         317  4.15        29.2 0.10            148           72.4 296 
 PAM  SZ EP        316 44.22                             152    0.4410 74.6  39 
 PAM  SN ES   1    317  1.11                             152    0.11 7 74.6  39 
 PAM  SZ I         317  3.18        37.1 0.46            154           74.6  39 
 RUS  HZ EP   1    316 45.38                             143   -0.22 7  102 177 
 RUS  HE ES   1    317  3.84                             143   -0.40 7  102 177 
 RUS  HZ I         317  5.55        16.4 0.26            146            102 177 
 PTB  HZ EP   1    316 48.44                             132   -0.48 7  150 258 
 PTB  HN ES   1    317  8.98                             132   -1.17 7  150 258 
 PTB  HZ I         317 12.02        11.5 0.22            130            150 258 
 OCA  HZ EP   1    316 49.68                             130   -0.21 7  159 352 
 OCA  HE ES   1    317 11.28                             130   -0.59 7  159 352 
 OCA  HZ I         317 14.94        13.0 0.26            130            159 352 
 ZAR  HZ EP   1    316 54.80                             122    0.49 6  205 291 
 ZAR  HN ES   1    317 20.76                             122    1.02 6  205 291 
 ZAR  HZ I         317 25.27        16.7 0.32            121            205 291 
 NOR  HZ EP   1    316 57.98                             118    0.23 6  238 234 
 NOR  HE ES   1    317 26.07                             118    0.20 6  238 234 
 NOR  HZ I         317 31.07         8.5 0.16            118            238 234 
 SML  HZ EP        316 57.66                             118   -0.60 8  243 335 
 SML  HE ES   1    317 26.28                             118   -0.50 6  243 335 
 SML  HZ I         317 35.97        12.6 0.10            118            243 335 
 ROSC BZ EP   4    317  1.84                             116    1.71 0  255 211 
 ROSC BN ES   4    317 31.36                             116    1.26 0  255 211 
 HEL  HZ EP   1    317  2.39                             115    0.18 6  275 256 
 HEL  HN ES   1    317 33.73                             115   -0.09 6  275 256 
 HEL  HZ I         317 40.46         6.3 0.42            114            275 256 
 PRA  HZ EP   1 C  317 15.63                             106    0.09 4  395 210 
 PRA  HN ES   1    317 57.43                             106   -0.11 4  395 210 
 PRA  HZ I         318  4.20         3.9 0.74            107            395 210 
 SJC  HZ EP   4    317 15.69                             106   -1.54 0  409 327 
 SJC  HN ES   4    317 57.19                             106   -3.36 0  409 327 
                                                                                
