 2015  3 8 0832 44.0 L   6.794 -73.158145.9  RSN  8 0.4 1.4LRSN                1
 GAP=135        0.75       3.3     3.7  5.4  0.6750E+00  0.2950E+01  0.3455E+01E
 Epicentro: LOS SANTOS - SANTANDER                                             3
 ACTION:UPD 15-04-30 16:24 OP:nd   STATUS:               ID:20150308083244 L   I
 OLDACT:REG 15-03-08 12:48 OP:spq  STATUS:               ID:20150308082748     3
 2015-03-08-0827-48M.COL___284                                                 6
 STAT SP IPHASW D HRMM SECON CODA AMPLIT PERI AZIMU VELO AIN AR TRES W  DIS CAZ7
 BAR2 EZ EP   1    833  3.24                             171   -0.37 7 22.5 187 
 BAR2 EZ ES   1    833 18.64                             171   -0.28 7 22.5 187 
 BAR2 EZ I         833 19.64         7.3 0.22            169           22.5 187 
 BRR  HZ EP        833  5.14                             153    0.0510 70.3 300 
 BRR  HN ES        833 22.12                             153    0.5610 70.3 300 
 BRR  HZ I         833 24.58         4.8 0.22            152           70.3 300 
 PAM  SZ EP        833  6.31                             150    0.0210 78.7  40 
 PAM  SN ES   1    833 23.32                             150   -0.37 7 78.7  40 
 PAM  SZ I         833 25.27         3.5 0.57            155           78.7  40 
 RUS  HZ EP   1    833  8.06                             144    0.36 7  100 175 
 RUS  HN ES   1    833 26.38                             144    0.17 7  100 175 
 RUS  HZ I         833 27.89         2.8 0.26            145            100 175 
 PTB  HZ EP   1    833 10.30                             132   -0.52 7  146 259 
 PTB  HN ES   1    833 31.09                             132   -0.67 7  146 259 
 PTB  HZ I         833 33.95         3.2 0.12            132            146 259 
 SPBC HZ EP        833 12.36                             129    0.00 9  162 219 
 SPBC HN ES   1    833 34.81                             129    0.31 7  162 219 
 SPBC HZ I         833 40.49         3.3 0.30            130            162 219 
 ZAR  HZ EP   1    833 16.81                             123    0.48 6  203 292 
 ZAR  HN ES        833 41.41                             123   -0.15 9  203 292 
 ZAR  HZ I         833 46.96         2.9 0.30            123            203 292 
 CHI  HZ EP   1    833 21.87                             117    0.29 6  248 195 
 CHI  HE ES   1    833 50.62                             117   -0.28 6  248 195 
 CHI  HZ I         833 54.04         0.7 0.32            118            248 195 
                                                                                
