 2017  9 8 0723  0.8 L   6.814 -73.127146.8  RSN  5 0.3 1.1LRSN                1
 GAP=138        0.63       3.2     4.1  6.7 -0.1728E+01  0.1422E+02 -0.1860E+01E
 Epicentro: LOS SANTOS - SANTANDER                                             3
 ACTION:UPD 17-10-05 19:10 OP:rebc STATUS:               ID:20170908072300 L   I
 OLDACT:REG 17-09-08 13:24 OP:dnl  STATUS:               ID:20170908071745     3
 2017-09-08-0718-00M.COL___419                                                 6
 STAT SP IPHASW D HRMM SECON CODA AMPLIT PERI AZIMU VELO AIN AR TRES W  DIS CAZ7
 BAR2 EZ EP        723 20.41                             170   -0.2210 25.2 194 
 BAR2 EZ ES        723 35.67                             170   -0.3910 25.2 194 
 BAR2 EZ I         723 36.92         5.3 0.46            169           25.2 194 
 PAM  EZ EP   2    723 23.62                             152    0.60 5 74.9  39 
 PAM  EN ES        723 40.47                             152    0.1610 74.9  39 
 PAM  EZ I         723 41.15         1.1 0.24            154           74.9  39 
 RUS  HZ EP   2    723 24.43                             143   -0.36 5  102 177 
 RUS  HN ES        723 43.65                             143    0.1810  102 177 
 RUS  HZ I         723 44.95         0.8 0.40            147            102 177 
 SPBC HZ EP   2    723 29.61                             129   -0.04 5  166 219 
 SPBC HE ES        723 52.37                             129    0.25 9  166 219 
 ZAR  HZ EP   2    723 32.99                             122   -0.50 4  205 292 
 ZAR  HN ES        723 59.09                             122    0.14 8  205 292 
 ZAR  HZ I         724  7.63         2.5 0.50            121            205 292 
                                                                                
