 2016  3 8 0743 52.9 L   5.964 -73.730112.5  RSN  4 0.3 0.8LRSN                1
 GAP=148        0.71       3.4     3.6  6.1  0.3810E+01  0.8637E+00  0.2031E+01E
 Epicentro: GUAVATA - SANTANDER                                                3
 ACTION:UPD 16-05-13 21:22 OP:cam  STATUS:               ID:20160308074352 L   I
 OLDACT:REG 16-03-08 17:33 OP:cara STATUS:               ID:20160308073748     3
 2016-03-08-0737-48M.COL___285                                                 6
 STAT SP IPHASW D HRMM SECON CODA AMPLIT PERI AZIMU VELO AIN AR TRES W  DIS CAZ7
 SPBC HZ EP        744  9.47                             154   -0.0410 51.2 228 
 SPBC HE ES        744 22.46                             154    0.0310 51.2 228 
 SPBC HZ I         744 23.25         2.4 0.44            158           51.2 228 
 RUS  HZ EP        744 11.91                             145    0.5310 72.1  96 
 RUS  HE ES        744 25.45                             145   -0.3010 72.1  96 
 RUS  HZ I         744 30.94         1.7 0.34            145           72.1  96 
 PTB  HZ EP        744 12.83                             134   -0.2810  102 308 
 PTB  HE ES        744 29.00                             134    0.1610  102 308 
 PTB  HZ I         744 29.75         1.2 0.42            139            102 308 
 CHI  HZ EP        744 17.72                             123   -0.22 9  148 180 
 CHI  HE ES        744 37.55                             123    0.12 9  148 180 
 CHI  HZ I         744 40.18         0.9 0.30            127            148 180 
                                                                                
