 2014  9 8 0424 45.9 L   6.812 -73.139142.6  RSN 11 0.4 1.9LRSN                1
 GAP=198        0.91       3.3     5.4  7.2 -0.6873E+01 -0.7184E+01  0.6002E+01E
 Epicentro: LOS SANTOS - SANTANDER                                             3
 ACTION:UPD 14-10-03 23:03 OP:nd   STATUS:               ID:20140908042445 L   I
 OLDACT:UP  14-09-08 16:31 OP:mh   STATUS:               ID:20140908041816     3
 OLDACT:REG 14-09-08 13:09 OP:mh   STATUS:               ID:20140908041816     3
 2014-09-08-0418-16M.COL___257                                                 6
 STAT SP IPHASW D HRMM SECON CODA AMPLIT PERI AZIMU VELO AIN AR TRES W  DIS CAZ7
 BAR2 SZ EP        425  5.35                             170    0.1510 24.7 191 
 BAR2 SZ I         425 22.46        15.3 0.20            171           24.7 191 
 BRR  HZ EP     C  425  7.33                             152    0.6110 71.2 297 
 BRR  HN ES   1    425 23.61                             152    0.66 7 71.2 297 
 BRR  HZ I         425 25.35         7.9 0.14            157           71.2 297 
 PTB  HZ EP   1    425 12.10                             131   -0.61 7  149 258 
 PTB  HN ES        425 33.15                             131   -0.46 9  149 258 
 PTB  HZ I         425 35.70        17.0 0.28            136            149 258 
 OCA  HZ EP        425 13.54                             129   -0.33 9  159 353 
 OCA  HN ES        425 35.49                             129   -0.18 9  159 353 
 OCA  HZ I         425 42.64         9.1 0.30            132            159 353 
 SPBC HZ EP        425 14.25                             128   -0.06 9  165 219 
 SPBC HN ES        425 36.08                             128   -0.38 9  165 219 
 SPBC HZ I         425 43.01        10.3 0.18            132            165 219 
 ZAR  HZ EP        425 18.32                             122    0.15 9  204 292 
 ZAR  HN ES        425 43.83                             122    0.50 9  204 292 
 ZAR  HZ I         425 51.88         8.1 0.28            126            204 292 
 NOR  HZ EP        425 21.18                             118   -0.42 8  236 234 
 NOR  HN ES        425 49.31                             118   -0.13 8  236 234 
 NOR  HZ I         425 55.15         7.7 0.17            121            236 234 
 SML  HZ EP   1    425 22.71                             117    0.44 6  243 335 
 SML  HE ES   1    425 49.71                             117   -0.92 6  243 335 
 SML  HZ I         426  2.26         9.3 0.57            120            243 335 
 HEL  HZ EP   1    425 26.09                             114    0.01 6  273 256 
 HEL  HN ES   1    425 57.56                             114    0.16 6  273 256 
 HEL  HZ I         426  4.34         5.9 0.16            118            273 256 
 GUY2CHZ EP        425 30.25                             112    0.72 7  302 235 
 GUY2CHN ES   4    426  3.44                             112   -0.10 0  302 235 
 PRA  HZ EP        425 39.50                             106    0.00 6  393 210 
 PRA  HN ES   1    426 21.26                             106   -0.03 4  393 210 
 PRA  HZ I         426 29.93         1.9 0.16            108            393 210 
                                                                                
