 2012  8 8 0329 46.0 L   6.782 -73.141145.3  RSN 11 0.3 2.2LRSN                1
 GAP=138        0.71       2.6     3.5  3.8 -0.2047E+01  0.3788E+01  0.7638E+00E
 Epicentro: LOS SANTOS - SANTANDER                                             3
 ACTION:UPD 12-09-10 11:55 OP:ep   STATUS:               ID:20120808032946 L   I
 2012-08-08-0330-00M.COL___216                                                 6
 STAT SP IPHASW D HRMM SECON CODA AMPLIT PERI AZIMU VELO AIN AR TRES W  DIS CAZ7
 BAR2 SZ EP        330  5.68                             171    0.1710 21.5 192 
 BAR2 SZ ES        330 20.32                             171   -0.4310 21.5 192 
 BAR2 SZ I         330 22.17       121.9 0.17                          21.5 192 
 BRR  HZ EP        330  7.57                             152    0.4110 72.7 300 
 BRR  HE ES        330 24.13                             152    0.4510 72.7 300 
 BRR  HZ I         330 27.13        32.0 0.20                          72.7 300 
 PAM  SZ EP        330  8.41                             150    0.2010 78.6  38 
 PAM  SN ES        330 25.43                             150   -0.1310 78.6  38 
 RUS  HZ EP        330  9.72                             144    0.1910 98.5 176 
 RUS  HE ES        330 27.74                             144   -0.1710 98.5 176 
 RUS  HZ I         330 29.76        19.2 0.31                          98.5 176 
 PTB  HZ EP        330 12.52                             132   -0.40 9  148 260 
 PTB  HE ES   1    330 33.66                             132   -0.28 7  148 260 
 PTB  HZ I         330 38.11         9.8 0.26                           148 260 
 OCA  HZ EP        330 14.05                             129   -0.39 9  162 353 
 NOR  SZ EP   1    330 21.52                             118   -0.08 6  234 235 
 NOR  SN ES        330 49.48                             118    0.09 8  234 235 
 CHI  HZ EP        330 23.76                             117    0.31 8  247 195 
 CHI  HN ES   1    330 52.87                             117    0.19 6  247 195 
 CHI  HZ I         331  0.26         6.2 0.46                           247 195 
 HEL  HZ EP   1    330 26.49                             115    0.32 6  272 256 
 HEL  HZ I         331  5.47         6.3 0.29                           272 256 
 MON  HZ EP        330 34.84                             108   -0.31 6  355 309 
 PRA  HZ EP        330 38.89                             106   -0.42 6  391 210 
 PRA  HN ES   1    331 20.85                             106   -0.06 4  391 210 
                                                                                
