 2017  1 8 0652 21.1 L   6.804 -73.151143.9  RSN  8 0.5 1.6LRSN                1
 GAP=136        1.29       5.3     5.7  8.9  0.2558E+01  0.1126E+02  0.7329E+01E
 Epicentro: LOS SANTOS - SANTANDER                                             3
 ACTION:UPD 17-05-22 15:56 OP:jn   STATUS:               ID:20170108065221 L   I
 OLDACT:UP  17-01-08 16:30 OP:dnl  STATUS:               ID:20170108064745     3
 OLDACT:UP  17-01-08 16:30 OP:dnl  STATUS:               ID:20170108064745     3
 OLDACT:REG 17-01-08 12:44 OP:dnl  STATUS:               ID:20170108064745     3
 2017-01-08-0648-00M.COL___367                                                 6
 STAT SP IPHASW D HRMM SECON CODA AMPLIT PERI AZIMU VELO AIN AR TRES W  DIS CAZ7
 BAR2 EZ IP     C  652 40.48                             170   -0.0410 23.7 189 
 BAR2 EZ ES        652 54.82                             170   -0.8410 23.7 189 
 BAR2 EZ I         653  3.74         6.9 0.60            170           23.7 189 
 BRR  HZ IP     C  652 42.22                             152    0.2010 70.5 298 
 BRR  HE ES        652 59.24                             152    0.9210 70.5 298 
 BRR  HZ I         652 59.98         8.0 0.18            154           70.5 298 
 PAM  EZ EP        652 43.35                             150    0.2210 77.4  40 
 PAM  EN ES        653  0.13                             150   -0.1710 77.4  40 
 PAM  EZ I         653  2.35        12.9 0.40            155           77.4  40 
 RUS  HZ EP        652 44.61                             143   -0.1110  101 176 
 RUS  HE ES        653  3.54                             143    0.4210  101 176 
 RUS  HZ I         653  4.61         4.9 0.22            146            101 176 
 PTB  HZ EP        652 47.22                             132   -0.67 9  147 259 
 PTB  HN ES        653  8.06                             132   -0.71 9  147 259 
 PTB  HZ I         653 10.72         4.3 0.12            134            147 259 
 ZAR  HZ EP   2    652 52.49                             122   -0.88 4  203 292 
 ZAR  HE ES        653 18.98                             122    0.46 9  203 292 
 ZAR  HZ I         653 25.03         4.7 0.36            125            203 292 
 CHI  HZ EP   2    652 59.32                             117    0.58 4  249 195 
 CHI  HE ES        653 28.65                             117    0.56 8  249 195 
 CHI  HZ I         653 31.80         2.0 0.32            120            249 195 
 GUY2CHZ EP   4    653  6.04                             112    1.42 0  301 235 
 GUY2CHN ES   4    653 40.59                             112    2.04 0  301 235 
 GUY2CHZ I         653 49.94         1.1 0.64                           301 235 
                                                                                
