 2014  6 8 0052 30.7 L   6.063 -74.223 19.5  RSN  7 0.5 1.2LRSN                1
 GAP=122        1.18       2.6     2.9  3.9  0.1375E+01  0.1435E+01 -0.1268E+01E
 Epicentro: CIMITARRA - SANTANDER                                              3
 ACTION:UPD 14-07-01 22:51 OP:nd   STATUS:               ID:20140608005230 L   I
 OLDACT:REG 14-06-08 14:19 OP:fm   STATUS:               ID:20140608004818     3
 2014-06-08-0048-18M.COL___259                                                 6
 STAT SP IPHASW D HRMM SECON CODA AMPLIT PERI AZIMU VELO AIN AR TRES W  DIS CAZ7
 SPBC HZ EP        052 39.31                             109    0.2210 48.4 160 
 SPBC HN ES        052 45.63                             109   -0.0310 48.4 160 
 SPBC HZ I         052 46.14        11.3 0.32             92           48.4 160 
 PTB  HZ EP        052 40.73                             106    0.2310 58.7 334 
 PTB  HN ES        052 48.21                             106    0.0410 58.7 334 
 NOR  HN ES        052 55.78                             100   -0.8110 90.4 232 
 RUS  HZ EP        052 51.36                              56    0.2210  128  98 
 RUS  HE ES   1    053  6.17                              56   -0.93 7  128  98 
 RUS  HZ I         053  8.37         2.6 0.30             91            128  98 
 HEL  HZ EP        052 53.21                              56    0.01 9  145 276 
 HEL  HN ES        053 10.35                              56   -0.43 9  145 276 
 HEL  HZ I         053 11.00         5.6 0.18             91            145 276 
 GUY2CHZ EP        052 55.66                              56    0.87 9  157 234 
 GUY2CHN ES        053 14.10                              56    0.50 9  157 234 
 GUY2CHZ I         053 15.18         2.7 0.14                           157 234 
 ZAR  HN ES        053 15.96                              56   -0.21 9  173 336 
 ZAR  HZ I         053 21.11         2.6 0.30             56            173 336 
                                                                                
