 2013  4 8 0407  6.7 L   6.751 -73.201144.0  RSN  4 0.3 1.3LRSN                1
 GAP=227        0.70       6.1     5.9  6.6  0.1564E+02  0.6420E+01  0.4653E+01E
 Epicentro: VILLANUEVA - SANTANDER                                             3
 ACTION:UPD 13-05-22 14:36 OP:EP   STATUS:               ID:20130408040706 L   I
 2013-04-08-0358-50M.COL___218                                                 6
 STAT SP IPHASW D HRMM SECON CODA AMPLIT PERI AZIMU VELO AIN AR TRES W  DIS CAZ7
 BAR2 SZ ES   1    4 7 40.50                             173   -0.53 7 17.7 173 
 BRR  HZ EP        4 7 27.80                             153    0.3210 68.9 305 
 BRR  HN ES        4 7 43.81                             153    0.0810 68.9 305 
 RUS  HZ EP   1    4 7 29.75                             145   -0.14 7 95.8 172 
 RUS  HN ES   1    4 7 48.41                             145    0.40 7 95.8 172 
 RUS  HN I         4 7 49.33         2.8 0.38            143           95.8 172 
 PTB  HZ EP        4 7 32.56                             133   -0.29 9  141 261 
 PTB  HN ES        4 7 53.30                             133    0.02 9  141 261 
 PTB  HE I         4 7 56.20         2.8 0.24            131            141 261 
                                                                                
