 2012  2 8 0853 22.0 L   6.823 -73.163139.6  RSN  8 0.3 1.8LRSN                1
 GAP=133        0.70       4.4     4.1  6.9 -0.8998E+01  0.9760E+01 -0.8886E+01E
 ACTION:UP  12-03-07 16:28 OP:epov STATUS:               ID:20120208085322 L   I
 2012-02-08-0850-00M.COL___188                                                 6
 STAT SP IPHASW D HRMM SECON CODA AMPLIT PERI AZIMU VELO AIN AR TRES W  DIS CAZ7
 BAR2 SZ EP   1    853 40.63                             169   -0.28 7 25.6 185 
 BAR2 SZ ES   1    853 55.86                             169    0.18 7 25.6 185 
 BAR2 SZ I         853 56.72        12.7 0.14                          25.6 185 
 GIR2 SZ EP   1    853 40.84                             168    0.00 7 28.5 353 
 BRR  HZ EP        853 42.70                             152    0.4110 68.3 297 
 BRR  HZ I         854  3.90        16.7 0.10                          68.3 297 
 PAM  SZ EP        853 43.88                             150    0.3910 76.7  42 
 PAM  SN ES   1    853 59.95                             150   -0.33 7 76.7  42 
 RUS  HZ EP   1    853 44.82                             142   -0.50 7  103 175 
 RUS  HN ES   1    854  3.62                             142    0.08 7  103 175 
 RUS  HZ I         854  5.27         9.5 0.20                           103 175 
 PTB  HZ EP   1    853 47.98                             131   -0.34 7  146 258 
 PTB  HN ES        854  8.62                             131   -0.25 9  146 258 
 OCA  SZ EP   1    853 49.35                             129   -0.20 7  158 354 
 NOR  SE ES        854 25.17                             117    0.23 8  235 234 
                                                                                
