 2016  8 8 0426 55.1 L   6.762 -73.216150.6  RSN  5 0.4 1.3LRSN                1
 GAP=224        0.79       5.1     6.3  8.3  0.3508E+01  0.2115E+02  0.1158E+01E
 Epicentro: ZAPATOCA - SANTANDER                                               3
 ACTION:UPD 16-10-29 15:33 OP:rebc STATUS:               ID:20160808042655 L   I
 OLDACT:REG 16-08-08 12:40 OP:dnl  STATUS:               ID:20160808041439     3
 2016-08-08-0418-00M.COL___365                                                 6
 STAT SP IPHASW D HRMM SECON CODA AMPLIT PERI AZIMU VELO AIN AR TRES W  DIS CAZ7
 BAR2 EZ ES        427 30.66                             172   -0.3010 19.2 169 
 BAR2 EZ I         427 32.59         5.9 0.28                          19.2 169 
 BRR  HZ EP        427 16.60                             155    0.0410 66.8 305 
 BRR  HN ES        427 33.67                             155    0.3910 66.8 305 
 BRR  HZ I         427 37.75         3.5 0.18                          66.8 305 
 PTB  HZ EP   2    427 21.36                             135   -0.39 5  139 260 
 PTB  HN ES        427 41.98                             135   -0.53 9  139 260 
 PTB  HZ I         427 45.63         1.3 0.34                           139 260 
 SPBC HZ EP   2    427 23.06                             132   -0.19 5  155 218 
 SPBC HN ES        427 45.66                             132    0.48 9  155 218 
 SPBC HZ I         427 48.21         3.7 0.30                           155 218 
 ZAR  HZ EP   3    427 27.86                             124    0.53 2  199 294 
 ZAR  HN ES        427 52.50                             124    0.05 9  199 294 
 ZAR  HZ I         427 58.57         1.9 0.30                           199 294 
                                                                                
