 2013 10 8 0830 43.7 L   6.800 -73.174145.3  RSN  9 0.4 1.7LRSN                1
 GAP=133        0.88       2.8     5.6  6.1 -0.7790E+00  0.3471E+01 -0.1026E+00E
 Epicentro: LOS SANTOS - SANTANDER                                             3
 ACTION:UPD 13-11-25 09:20 OP:ep   STATUS:               ID:20131008083043 L   I
 OLDACT:UP  13-10-08 12:16 OP:mh   STATUS:               ID:20131008082959     3
 OLDACT:REG 13-10-08 07:53 OP:mh   STATUS:               ID:20131008082959     3
 2013-10-08-0829-59M.COL___273                                                 6
 STAT SP IPHASW D HRMM SECON CODA AMPLIT PERI AZIMU VELO AIN AR TRES W  DIS CAZ7
 BAR2 SZ EP   1    831  3.31                             171    0.03 7 23.0 182 
 BAR2 SZ ES   1    831 18.38                             171   -0.16 7 23.0 182 
 BAR2 SZ I         831 20.82        14.9 0.32            171           23.0 182 
 BRR  HZ EP   1    831  5.08                             153    0.42 7 68.5 300 
 BRR  HN ES        831 21.86                             153    0.8610 68.5 300 
 BRR  HZ I         831 26.02         5.7 0.28            152           68.5 300 
 PAM  SZ EP   1    831  6.19                             150    0.18 7 79.4  41 
 RUS  HZ EP   1    831  7.52                             144    0.08 7  101 174 
 RUS  HN ES        831 25.51                             144   -0.4310  101 174 
 RUS  HZ I         831 27.00         4.4 0.34            146            101 174 
 PTB  HZ EP   1    831 10.05                             133   -0.32 7  145 259 
 PTB  HN ES   1    831 30.67                             133   -0.48 7  145 259 
 PTB  HZ I         831 33.33         3.0 0.14            133            145 259 
 OCA  HN ES        831 33.90                             130   -0.09 9  160 354 
 OCA  HN I         831 39.91        12.6 0.26            132            160 354 
 SPBC HZ EP   1    831 12.22                             129    0.23 7  161 218 
 SPBC HN ES        831 33.96                             129   -0.09 9  161 218 
 SPBC HZ I         831 40.42         5.0 0.26            131            161 218 
 SML  HZ EP   1    831 20.06                             118   -0.12 6  242 336 
 SML  HN ES        831 47.91                             118   -0.71 8  242 336 
 SML  HZ I         831 50.29         4.7 0.10            119            242 336 
 PRA  HZ EP        831 37.28                             107    0.24 6  390 209 
 PRA  HN ES        832 18.95                             107    0.32 6  390 209 
 PRA  HZ I         832 23.28         1.6 0.30            108            390 209 
                                                                                
