 2017  2 8 0922 11.4 L   6.713 -73.143153.2  RSN  4 0.3 1.3LRSN                1
 GAP=253        0.60       9.6     6.9  5.1  0.4594E+02  0.1262E+02  0.8131E+01E
 Epicentro: JORDAN - SANTANDER                                                 3
 ACTION:UPD 17-05-24 15:34 OP:jn   STATUS:               ID:20170208092211 L   I
 OLDACT:DUP 17-02-08 19:46 OP:ed   STATUS:               ID:20170208091746d    3
 2017-02-08-0918-00M.COL___316                                                 6
 STAT SP IPHASW D HRMM SECON CODA AMPLIT PERI AZIMU VELO AIN AR TRES W  DIS CAZ7
 BAR2 EZ EP        922 31.62                             173   -0.2010 14.0 198 
 BAR2 EZ ES        922 47.81                             173    0.0910 14.0 198 
 BAR2 EZ I         922 49.17         3.2 0.34            165           14.0 198 
 BRR  HZ EP   2    922 33.60                             152   -0.09 5 76.5 305 
 BRR  HE ES        922 50.94                             152   -0.1010 76.5 305 
 PTB  HZ EP        922 39.35                             133    0.44 9  146 263 
 PTB  HN ES   2    922 59.84                             133   -0.50 5  146 263 
 PTB  HZ I         923  4.63         1.9 0.22            130            146 263 
 ZAR  HZ EP        922 44.55                             123   -0.25 8  208 295 
 ZAR  HE ES        923 11.00                             123    0.19 8  208 295 
 ZAR  HZ I         923 16.28         3.6 0.36            122            208 295 
                                                                                
