 2010  8 8 0144 59.9 L   7.040 -73.054  4.2  RSN  7 0.4 1.4LRSN                1
 GAP=165        0.97       2.5     4.3727.3 -0.3882E+01 -0.1364E+04  0.5185E+02E
 Epicentro: PIEDECUESTA - SANTANDER                                            3
 ACTION:UP  10-09-07 10:53 OP:vdl  STATUS:               ID:20100808014459 L   I
 2010-08-08-0142-42S.COL___125                                                 6
 STAT SP IPHASW D HRMM SECON CODA AMPLIT PERI AZIMU VELO SNR AR TRES W  DIS CAZ7
 GIR2 SZ EP   1    145  2.60                              47    -0.5 7   16 286 
 BTL  SZ IP        145  4.45                              47    -0.410   27 240 
 BAR2 SZ EP        145  8.50                              47     0.010   52 196 
 BAR2 SZ I         145  8.71         9.3 0.10                            52 196 
 BAR2 SZ ES   2    145 14.81                              47    -0.5 5   52 196 
 BRR  HZ IP     D  145 11.86                              47     0.310   73 276 
 BRR  HZ I         145 12.13        30.0 0.09                            73 276 
 BRR  HN ES   1    145 20.82                              47     0.2 7   73 276 
 GUE  SZ IP        145 14.77                              47     0.510   89   9 
 GUE  SZ ES   2    145 24.51                              47    -0.9 5   89   9 
 GRA  SZ IP        145 15.53                              47     0.110   97  16 
 GRA  SZ ES   1    145 27.14                              47    -0.4 7   97  16 
 RUS  HZ EP   1    145 20.77                              47     0.6 7  127 181 
 RUS  HZ I         145 21.06         8.7 0.16                           127 181 
 RUS  HN ES   2    145 35.65                              47    -0.4 5  127 181 
                                                                                
