 2014 12 8 0837 20.9 L   6.784 -73.157143.7  RSN 17 0.6 1.9LRSN                1
 GAP= 71        1.53       3.7     4.0  7.1 -0.1574E+01  0.7716E+01  0.1888E+01E
 Epicentro: LOS SANTOS - SANTANDER                                             3
 ACTION:UPD 15-02-10 17:01 OP:nd   STATUS:               ID:20141208083720 L   I
 OLDACT:UP  14-12-08 18:29 OP:stll STATUS:               ID:20141208082743d    3
 OLDACT:DUP 14-12-08 18:23 OP:stll STATUS:               ID:20141208082743d    3
 2014-12-08-0827-42M.COL___303                                                 6
 STAT SP IPHASW D HRMM SECON CODA AMPLIT PERI AZIMU VELO AIN AR TRES W  DIS CAZ7
 BAR2 SZ EP        837 40.33                             171    0.0810 21.4 188 
 BAR2 SZ ES        837 55.11                             171   -0.2310 21.4 188 
 BAR2 SZ I         837 56.97        14.4 0.30            170           21.4 188 
 BRR  HZ EP        837 42.41                             152    0.5910 71.0 300 
 BRR  HZ I         837 43.74        16.3 0.14            151           71.0 300 
 BRR  HN ES        837 59.50                             152    1.3610 71.0 300 
 PAM  SZ EP        837 43.34                             150    0.3010 79.5  39 
 PAM  SN ES        837 59.71                             150   -0.5910 79.5  39 
 PAM  SZ I         838  2.52         8.7 0.20            153           79.5  39 
 RUS  HZ EP        837 44.26                             144   -0.0810 98.9 175 
 RUS  HN ES        838  2.79                             144    0.1810 98.9 175 
 RUS  HZ I         838  3.93         6.1 0.24            146           98.9 175 
 PTB  HZ EP        837 47.24                             132   -0.33 9  146 259 
 PTB  HN ES        838  7.99                             132   -0.37 9  146 259 
 PTB  HZ I         838 14.27        12.2 0.60            132            146 259 
 TAM  HZ EP        837 48.41                             130   -0.08 9  156 104 
 TAM  HZ I         837 48.90         9.0 0.36            134            156 104 
 TAM  HN ES        838  9.35                             130   -0.66 9  156 104 
 SPBC HZ EP        837 49.32                             129    0.28 9  161 219 
 SPBC HN ES        838 10.83                             129   -0.16 9  161 219 
 SPBC HZ I         838 18.46        22.5 0.34            130            161 219 
 OCA  HZ EP        837 49.30                             129    0.09 9  162 354 
 OCA  HN ES        838 11.29                             129    0.00 9  162 354 
 OCA  HZ I         838 16.20        11.6 0.28            131            162 354 
 ZAR  HZ EP        837 53.22                             122    0.05 9  204 293 
 ZAR  HE ES        838 17.67                             122   -0.66 9  204 293 
 ZAR  HZ I         838 24.85        12.3 0.44            123            204 293 
 NOR  HZ EP        837 56.39                             118    0.09 8  233 235 
 NOR  HN ES        838 24.27                             118    0.37 8  233 235 
 NOR  HZ I         838 28.09         8.5 0.18            119            233 235 
 SML  HZ EP        837 57.12                             117   -0.42 8  245 336 
 SML  HN ES        838 25.81                             117   -0.30 8  245 336 
 SML  HZ I         838 30.68        14.5 0.10            118            245 336 
 CHI  HZ EP        837 58.13                             117   -0.14 8  247 195 
 CHI  HN ES        838 27.51                             117    0.10 8  247 195 
 CHI  HZ I         838 33.35         3.6 0.42            119            247 195 
 HEL  HZ EP        838  1.93                             114    1.10 8  270 256 
 HEL  HE ES        838 32.19                             114    0.21 8  270 256 
 HEL  HZ I         838 39.13         4.2 0.32            115            270 256 
 GUY2CHZ EP        838  4.83                             112    0.64 7  299 235 
 GUY2CHE ES        838 37.48                             112   -0.47 7  299 235 
 GUY2CHZ I         838 47.15         7.4 0.78                           299 235 
 SOCV BZ EP   9    838  2.74                             111   -1.35 0  303  57 
 SOCV BN ES        838 34.45                                   -1.97 7  303  57 
 CBOC HZ EP        838  8.11                             109    0.57 7  332 252 
 CBOC HZ I         838  9.03         2.5 0.18            111            332 252 
 CBOC HE ES        838 41.63                             109   -2.28 7  332 252 
 MON  HZ EP   9    838  7.83                             108   -2.01 0  354 309 
 MON  HN ES        838 45.05                                   -0.95 6  354 309 
 MON  HZ I         838 48.69         2.3 0.30            109            354 309 
                                                                                
