 2016 12 8 0759 55.3 L   6.775 -73.178155.5  RSN  5 0.4 1.2LRSN                1
 GAP=134        0.93       4.6     6.1  8.1  0.3164E+01 -0.9441E+01  0.4522E+01E
 Epicentro: LOS SANTOS - SANTANDER                                             3
 ACTION:UPD 17-01-11 20:13 OP:rebc STATUS:               ID:20161208075955 L   I
 OLDACT:REG 16-12-08 13:41 OP:ar   STATUS:               ID:20161208075742     3
 2016-12-08-0758-00M.COL___355                                                 6
 STAT SP IPHASW D HRMM SECON CODA AMPLIT PERI AZIMU VELO AIN AR TRES W  DIS CAZ7
 BRR  HZ EP        8 0 16.83                             155   -0.6310 69.5 302 
 BRR  HE ES        8 0 35.24                             155    0.5210 69.5 302 
 BRR  HZ I         8 0 38.49         4.4 0.32            155           69.5 302 
 PAM  EZ EP        8 0 18.74                             151   -0.1110 81.8  40 
 RUS  HZ EP        8 0 20.34                             146    0.4510 98.1 174 
 RUS  HN ES        8 0 38.79                             146   -0.2610 98.1 174 
 RUS  HZ I         8 0 39.79         1.7 0.36            149           98.1 174 
 PTB  HZ EP        8 0 22.91                             135    0.14 9  144 260 
 PTB  HE ES        8 0 43.93                             135   -0.24 9  144 260 
 PTB  HZ I         8 0 46.32         1.5 0.12            136            144 260 
 CHI  HZ EP        8 0 33.51                             119    0.30 8  245 195 
 CHI  HN ES        8 1  2.66                             119   -0.10 8  245 195 
                                                                                
