 2012  2 8 0943 12.7 L   6.688 -73.144153.3  RSN  5 0.3 1.9LRSN                1
 GAP=183        0.53       6.8     7.8  7.3  0.1800E+02  0.2091E+02  0.8961E+01E
 ACTION:UP  12-03-07 16:28 OP:epov STATUS:               ID:20120208094312 L   I
 2012-02-08-0940-00M.COL___188                                                 6
 STAT SP IPHASW D HRMM SECON CODA AMPLIT PERI AZIMU VELO AIN AR TRES W  DIS CAZ7
 BAR2 SZ ES   2    943 48.68                             176   -0.30 5 11.4 202 
 BAR2 SZ I         944  2.65        22.5 0.75                          11.4 202 
 GIR2 SZ ES   2    943 49.52                             163   -0.48 5 43.5 353 
 BRR  HZ EP   1    943 35.23                             152    0.16 7 78.0 306 
 BRR  HZ I         943 51.40         8.1 0.60                          78.0 306 
 BRR  HN ES   2    943 53.17                             152    0.67 5 78.0 306 
 RUS  HZ EP   2    943 36.55                             149    0.15 5 88.3 176 
 RUS  HN ES   2    943 55.11                             149    0.23 5 88.3 176 
 PTB  HZ EP   1    943 39.91                             134   -0.25 7  146 264 
 PTB  HE ES   2    944  1.40                             134   -0.16 5  146 264 
                                                                                
