 2010  8 8 0836 10.2 L   6.757 -73.119142.7  RSN  7 0.5 1.5LRSN                1
 GAP=162        0.85       6.3    11.7  7.9 -0.1986E+02 -0.8181E+01 -0.1111E+02E
 Epicentro: LOS SANTOS - SANTANDER                                             3
 ACTION:UP  10-09-07 10:53 OP:vdl  STATUS:               ID:20100808083610 L   I
 2010-08-08-0834-01S.COL___125                                                 6
 STAT SP IPHASW D HRMM SECON CODA AMPLIT PERI AZIMU VELO SNR AR TRES W  DIS CAZ7
 BAR2 SZ EP        836 29.38                             172     0.010   20 201 
 BAR2 SZ ES   1    836 44.18                             172    -0.2 7   20 201 
 BAR2 SZ I         836 45.22         7.3 0.26                            20 201 
 BTL  SZ EP        836 29.52                             171     0.110   24 317 
 BTL  SZ ES   1    836 44.63                             171     0.1 7   24 317 
 GIR2 SZ EP   2    836 28.43                             165    -1.2 5   37 347 
 GIR2 SZ ES   3    836 43.61                             165    -1.2 2   37 347 
 BRR  HZ EP        836 31.21                             151    -0.110   76 301 
 BRR  HZ I         836 31.59         9.4 0.10                            76 301 
 BRR  HE ES   2    836 48.15                                     0.4 5   76 301 
 RUS  HZ EP   3    836 33.37                             144     0.1 2   96 178 
 RUS  HN ES   2    836 51.61                             144     0.3 5   96 178 
 GUE  SZ EP   1    836 34.42                             138    -0.5 7  121  10 
 GRA  SZ EP   1    836 36.24                             135     0.8 7  129  16 
 GRA  SZ I         836 37.35         2.4 0.24                           129  16 
 GRA  SZ ES   1    836 55.29                             135     0.1 7  129  16 
                                                                                
