 2015  5 8 0550 28.0 L   6.861 -73.237139.3  RSN  6 0.5 1.6LRSN                1
 GAP=120        1.24       5.9     6.7  8.7  0.1127E+02  0.5848E+01 -0.4390E+01E
 Epicentro: ZAPATOCA - SANTANDER                                               3
 ACTION:UPD 15-09-10 22:02 OP:cam  STATUS:               ID:20150508055028 L   I
 OLDACT:REG 15-05-08 13:13 OP:drio STATUS:               ID:20150508054738     3
 2015-05-08-0547-38M.COL___276                                                 6
 STAT SP IPHASW D HRMM SECON CODA AMPLIT PERI AZIMU VELO AIN AR TRES W  DIS CAZ7
 BAR2 EZ EP        550 46.91                             167   -0.1210 30.4 168 
 BAR2 EZ ES        551  1.36                             167   -0.5110 30.4 168 
 BAR2 EZ I         551  3.79         5.0 0.38            168           30.4 168 
 BRR  HZ EP        550 48.11                             156    0.3110 59.1 297 
 BRR  HN ES        551  4.01                             156    0.7710 59.1 297 
 BRR  HZ I         551  5.95         5.6 0.52            154           59.1 297 
 PAM  SZ EP        550 49.13                             149   -0.5510 79.5  48 
 PAM  SZ I         551  6.92        15.7 0.22            141           79.5  48 
 RUS  HZ EP        550 51.73                             140   -0.0010  108 171 
 RUS  HN ES        551 10.75                             140    0.5110  108 171 
 RUS  HZ I         551 12.35         2.9 0.34            139            108 171 
 SPBC HZ EP        550 56.46                             128    0.50 9  163 215 
 SPBC HN ES        551 17.08                             128   -0.67 9  163 215 
 SPBC HZ I         551 25.65         7.7 0.52            127            163 215 
 ZAR  HZ EP        550 59.00                             123    0.20 9  192 291 
 ZAR  HN ES        551 22.29                             123   -0.53 9  192 291 
 ZAR  HZ I         551 29.64         5.8 0.28            120            192 291 
                                                                                
