 2015  3 8 0326 16.4 L   6.798 -73.149152.0  RSN 16 0.4 1.8LRSN                1
 GAP= 71        0.90       2.7     2.9  5.1 -0.7363E-01  0.1356E+01  0.5439E+00E
 Epicentro: LOS SANTOS - SANTANDER                                             3
 ACTION:UPD 15-04-30 16:24 OP:nd   STATUS:               ID:20150308032616 L   I
 OLDACT:REG 15-03-08 12:19 OP:spq  STATUS:               ID:20150308031749     3
 2015-03-08-0317-49M.COL___284                                                 6
 STAT SP IPHASW D HRMM SECON CODA AMPLIT PERI AZIMU VELO AIN AR TRES W  DIS CAZ7
 BAR2 EZ EP        326 36.70                             171   -0.1110 23.0 189 
 BAR2 EZ ES   1    326 52.43                             171   -0.27 7 23.0 189 
 BAR2 EZ I         326 53.60         9.6 0.22            169           23.0 189 
 BRR  HZ EP     C  326 38.55                             154    0.3010 70.9 299 
 BRR  HN ES        326 56.12                             154    0.8610 70.9 299 
 BRR  HZ I         326 58.35         6.4 0.19            151           70.9 299 
 PAM  SZ EP        326 39.53                             152    0.1910 77.8  40 
 PAM  SN ES        326 56.86                             152   -0.3510 77.8  40 
 PAM  SZ I         326 57.90         8.5 0.18            155           77.8  40 
 RUS  HZ EP        326 41.08                             145    0.2910  100 176 
 RUS  HN ES   1    326 59.52                             145   -0.27 7  100 176 
 RUS  HZ I         327  0.52         4.6 0.16            145            100 176 
 PTB  HZ EP        326 43.39                             133   -0.49 9  147 259 
 PTB  HN ES        327  4.71                             133   -0.57 9  147 259 
 PTB  HZ I         327 10.39        11.2 0.44            132            147 259 
 TAM  HZ EP        326 44.87                             132    0.23 9  155 105 
 TAM  HE ES   1    327  6.47                             132   -0.18 7  155 105 
 TAM  HZ I         327  7.37         3.5 0.18            135            155 105 
 OCA  HZ EP        326 44.73                             131   -0.52 9  160 353 
 OCA  HN ES   1    327  7.59                             131   -0.14 7  160 353 
 OCA  HZ I         327 10.77         7.6 0.16            132            160 353 
 SPBC HZ EP        326 45.70                             130    0.32 9  163 219 
 SPBC HN ES        327  7.89                             130   -0.06 9  163 219 
 SPBC HZ I         327 10.46        14.3 0.36            130            163 219 
 ZAR  HZ EP        326 49.28                             124    0.02 9  204 292 
 ZAR  HN ES        327 15.17                             124    0.30 9  204 292 
 ZAR  HZ I         327 21.15        10.8 0.56            123            204 292 
 NOR  HE ES   1    327 20.66                             120    0.06 6  234 234 
 NOR  HZ I         327 24.91         4.2 0.20            119            234 234 
 SML  HZ EP   1    326 53.29                             119   -0.13 6  244 335 
 SML  HN ES   1    327 22.68                             119    0.41 6  244 335 
 SML  HZ I         327 24.56        11.3 0.10            119            244 335 
 CHI  HZ EP        326 54.82                             118    0.37 8  248 195 
 CHI  HN ES   1    327 23.72                             118   -0.38 6  248 195 
 CHI  HZ I         327 27.52         1.3 0.26            119            248 195 
 HEL  HZ EP   4    326 59.14                             116    2.22 0  272 256 
 HEL  HE ES   4    327 32.07                             116    3.57 0  272 256 
 HEL  HZ I         327 35.11         4.7 0.48            116            272 256 
 GUY2CHZ EP   4    327  1.81                             113    1.52 0  301 235 
 GUY2CHE ES   4    327 37.36                             113    2.87 0  301 235 
 GUY2CHZ I         327 45.86         3.1 0.62                           301 235 
 RREF HZ EP   4    327  5.88                             112    3.08 0  321 229 
 RREF HE ES   4    327 41.68                             112    2.71 0  321 229 
 RREF HZ I         327 48.40         3.1 0.28            112            321 229 
 MON  HN ES   1    327 43.04                             110   -1.02 5  353 308 
 MON  HZ I         327 44.52         1.5 0.36            110            353 308 
                                                                                
