 2015  2 8 0635 57.4 L   6.760 -73.155135.9  RSN  6 0.3 1.4LRSN                1
 GAP=137        0.81       3.6     3.9  5.5 -0.3353E+01  0.3285E+01  0.2218E+01E
 Epicentro: LOS SANTOS - SANTANDER                                             3
 ACTION:UPD 15-04-30 21:23 OP:nd   STATUS:               ID:20150208063557 L   I
 OLDACT:DUP 15-02-08 18:16 OP:stll STATUS:               ID:20150208062738d    3
 2015-02-08-0627-37M.COL___290                                                 6
 STAT SP IPHASW D HRMM SECON CODA AMPLIT PERI AZIMU VELO AIN AR TRES W  DIS CAZ7
 BAR2 EZ EP        636 16.11                             172    0.3510 18.8 189 
 BAR2 EZ ES        636 30.47                             172    0.3910 18.8 189 
 BAR2 EZ I         636 32.96         5.5 0.24            170           18.8 189 
 BRR  HZ EP        636 17.42                             150   -0.1510 72.5 302 
 BRR  HN ES        636 33.33                             150    0.0210 72.5 302 
 BRR  HZ I         636 36.92         4.8 0.26            151           72.5 302 
 PAM  SZ EP        636 18.93                             148    0.0910 81.4  38 
 PAM  SZ I         636 19.09        10.7 0.22            152           81.4  38 
 PAM  SN ES        636 35.36                             148   -0.2010 81.4  38 
 RUS  HZ EP        636 19.94                             143    0.0610 96.3 175 
 RUS  HN ES        636 36.87                             143   -0.5410 96.3 175 
 RUS  HZ I         636 39.50         2.6 0.28            145           96.3 175 
 PTB  HZ EP        636 22.89                             130   -0.53 9  146 260 
 PTB  HE ES        636 43.69                             130   -0.02 9  146 260 
 PTB  HZ I         636 45.92         2.7 0.16            132            146 260 
 SPBC HZ EP        636 25.20                             127    0.43 9  159 220 
 SPBC HE ES        636 46.21                             127    0.09 9  159 220 
 SPBC HZ I         636 50.57         2.5 0.18            129            159 220 
                                                                                
