 2011 12 8 0824 46.9 L   6.676 -73.052139.5  RSN  7 0.2 1.7LRSN                1
 GAP=170        0.35       2.9     3.4  3.4 -0.2757E+01  0.8973E+00  0.4424E+01E
 Epicentro: ARATOCA - SANTANDER                                                3
 ACTION:UPD 12-07-13 16:14 OP:ep   STATUS:               ID:20111208082446 L   I
 2011-12-08-0820-00M.COL___170                                                 6
 STAT SP IPHASW D HRMM SECON CODA AMPLIT PERI AZIMU VELO AIN AR TRES W  DIS CAZ7
 BAR2 SZ EP   1    825  5.46                             173   -0.17 7 17.1 237 
 BAR2 SZ ES   1    825 20.23                             173   -0.04 7 17.1 237 
 BAR2 SZ I         825 23.03        15.1 0.32                          17.1 237 
 PAM  SZ EP   1    825  8.93                             148    0.15 7 83.0  28 
 PAM  SZ I         825 10.00         7.2 0.22                          83.0  28 
 PAM  SN ES   2    825 25.95                             148    0.08 5 83.0  28 
 BRR  HZ EP   1    825  8.10                             146   -0.25 7 87.1 303 
 BRR  HN ES   1    825 25.24                             146    0.14 7 87.1 303 
 BRR  HZ I         825 30.11        12.9 0.19                          87.1 303 
 NOR  SZ EP   1    825 22.10                             117   -0.25 6  236 239 
 NOR  SN ES   2    825 50.06                             117    0.02 4  236 239 
 CHI  HZ EP   1    825 23.15                             117    0.03 6  239 198 
 CHI  HN ES   2    825 51.58                             117    0.18 4  239 198 
 HEL  HZ EP   1    825 27.81                             113    0.25 6  279 259 
 PRA  HZ EP   1    825 39.64                             106    0.23 4  386 212 
                                                                                
