 2011  6 8 0614 57.0 L   6.765 -73.127151.7  RSN  5 0.2 1.6LRSN                1
 GAP=237        0.42       3.5     5.2  4.6  0.7723E+01  0.2698E+01  0.4510E+01E
 Epicentro: LOS SANTOS - SANTANDER                                             3
 ACTION:UP  11-07-14 19:03 OP:ep   STATUS:               ID:20110608061457 L   I
 2011-06-08-0609-53S.COL___129                                                 6
 STAT SP IPHASW D HRMM SECON CODA AMPLIT PERI AZIMU VELO SNR AR TRES W  DIS CAZ7
 BAR2 SZ EP   1    615 17.21                             172    -0.1 7   20 198 
 BAR2 SZ ES   1    615 33.25                             172     0.1 7   20 198 
 BAR2 SZ I         615 35.11        12.1 0.36                            20 198 
 BRR  HZ EP   1    615 19.13                             152     0.1 7   75 300 
 BRR  HN ES        615 36.12                             152    -0.110   75 300 
 BRR  HZ I         615 38.76        12.5 0.12                            75 300 
 RUS  HZ EP   1    615 20.95                             146    -0.1 7   97 177 
 RUS  HN ES   1    615 39.95                             146     0.1 7   97 177 
 RUS  HZ I         615 41.61         2.9 0.45                            97 177 
 NOR  SZ EP   2    615 33.65                             120     0.6 4  234 236 
 NOR  SN ES   2    616  0.97                             120    -0.2 4  234 236 
 CHI  HN ES   2    616  3.90                             119    -0.2 4  245 196 
 CHI  HZ I         616 13.01         2.1 0.55                           245 196 
                                                                                
