 2017  8 8 0419  4.4 L   6.950 -73.163152.6  RSN  5 0.3 1.3LRSN                1
 GAP=248        0.78       6.4     5.6  5.8  0.2313E+02  0.8215E-01 -0.6339E+01E
 Epicentro: GIRON - SANTANDER                                                  3
 ACTION:UPD 17-09-04 20:17 OP:rebc STATUS:               ID:20170808041904 L   I
 OLDACT:DUP 17-08-08 15:30 OP:dani STATUS:               ID:20170808041737d    3
 OLDACT:UP  17-08-08 15:29 OP:dani STATUS:               ID:20170808041736     3
 OLDACT:UP  17-08-08 15:29 OP:dani STATUS:               ID:20170808041736     3
 OLDACT:REG 17-08-08 13:09 OP:dani STATUS:               ID:20170808041736     3
 2017-08-08-0418-00M.COL___381                                                 6
 STAT SP IPHASW D HRMM SECON CODA AMPLIT PERI AZIMU VELO AIN AR TRES W  DIS CAZ7
 BAR2 EZ EP        419 25.06                             165   -0.1810 39.6 183 
 BAR2 EZ ES        419 40.98                             165   -0.5410 39.6 183 
 BRR  HZ EP        419 25.93                             156    0.0810 63.1 286 
 BRR  HN ES        419 43.04                             156    0.4410 63.1 286 
 BRR  HZ I         419 45.42         4.8 0.11            155           63.1 286 
 RUS  HZ EP        419 30.02                             141   -0.0110  117 176 
 RUS  HN ES        419 50.48                             141    0.4410  117 176 
 RUS  HZ I         419 51.17         2.0 0.28            143            117 176 
 PTB  HZ EP        419 32.21                             133    0.10 9  150 252 
 PTB  HN ES        419 53.45                             133   -0.30 9  150 252 
 PTB  HZ I         419 54.83         1.6 0.32            133            150 252 
 ZAR  HZ EP        419 36.45                             125   -0.08 9  197 288 
 ZAR  HN ES        420  1.62                             125    0.02 9  197 288 
 ZAR  HZ I         420  6.90         2.6 0.45            125            197 288 
                                                                                
