 2014  4 8 0806  3.6 L   6.804 -73.137144.5  RSN 15 0.5 2.1LRSN                1
 GAP=120        1.13       3.2     4.1  7.6 -0.5078E+01 -0.8162E-02  0.7423E+01E
 Epicentro: LOS SANTOS - SANTANDER                                             3
 ACTION:UPD 14-05-13 23:07 OP:nd   STATUS:               ID:20140408080603 L   I
 OLDACT:UP  14-04-11 04:45 OP:CF   STATUS:               ID:20140408080603 L   3
 OLDACT:DUP 14-04-08 18:30 OP:stll STATUS:               ID:20140408075807d    3
 2014-04-08-0758-06M.COL___244                                                 6
 STAT SP IPHASW D HRMM SECON CODA AMPLIT PERI AZIMU VELO AIN AR TRES W  DIS CAZ7
 PAM  SZ EP        8 6 26.15                             151    0.5510 76.4  39 
 PAM  SN ES        8 6 42.95                             151    0.1710 76.4  39 
 RUS  HZ EP        8 6 27.77                             143    0.5410  101 177 
 PTB  HZ EP        8 6 30.41                             132   -0.12 9  149 259 
 PTB  HN ES        8 6 51.17                             132   -0.38 9  149 259 
 PTB  HZ I         8 6 53.35        13.3 0.12            123            149 259 
 OCA  HZ EP        8 6 32.26                             129    0.51 9  160 353 
 OCA  HN ES        8 6 53.63                             129   -0.10 9  160 353 
 OCA  HZ I         8 6 58.24        13.2 0.24            123            160 353 
 ZAR  HZ EP        8 6 36.05                             122    0.04 9  205 292 
 ZAR  HN ES        8 7  1.40                             122    0.10 9  205 292 
 ZAR  HZ I         8 7  9.18         7.7 0.18            114            205 292 
 NOR  HZ EP        8 6 39.00                             118   -0.34 8  236 234 
 NOR  HE ES        8 7  6.87                             118   -0.36 8  236 234 
 NOR  HZ I         8 7 15.18         8.9 0.18            111            236 234 
 SML  HZ EP        8 6 40.02                             117   -0.10 8  244 335 
 SML  HN ES        8 7  7.85                             117   -0.78 8  244 335 
 SML  HZ I         8 7 14.83        11.0 0.08            111            244 335 
 CHI  HZ EP   1    8 6 41.41                             117    0.13 6  249 195 
 CHI  HN ES        8 7  9.83                             117   -0.86 8  249 195 
 CHI  HZ I         8 7 15.94         8.9 2.66            111            249 195 
 HEL  HZ EP        8 6 43.97                             114    0.14 8  273 256 
 HEL  HZ I         8 7 21.49         4.2 0.22            108            273 256 
 SOCV BZ EP        8 6 45.61                             112   -0.84 7  300  57 
 SOCV BN ES   4    8 7 16.09                             112   -3.80 0  300  57 
 GUY2CHZ EP   4    8 6 48.49                             112    1.25 0  302 235 
 GUY2CHE ES        8 7 21.50                             112    0.20 7  302 235 
 GUY2CHZ I         8 7 28.13         7.2 0.28                           302 235 
 RREF HZ EP        8 6 50.76                             111    0.99 7  323 229 
 RREF HN ES        8 7 26.90                             111    1.09 7  323 229 
 RREF HZ I         8 7 34.22         5.4 0.24            105            323 229 
 SDV  BZ EP        8 6 52.85                             108   -0.60 6  359  50 
 PRA  HZ EP        8 6 57.21                             106    0.06 6  393 210 
 PRA  HE ES        8 7 37.93                             106   -1.01 6  393 210 
 PRA  HZ I         8 7 53.65         8.7 2.14            102            393 210 
 ORTC HZ EP        8 6 58.32                             106    0.76 6  396 216 
 ORTC HN ES        8 7 39.11                             106   -0.55 6  396 216 
 ORTC HZ I         8 7 45.78         4.8 0.62            102            396 216 
                                                                                
