 2017  1 8 0838  6.0 L   6.781 -73.135148.0  RSN  9 0.3 1.6LRSN                1
 GAP= 98        0.80       3.3     2.9  5.2  0.1254E+01  0.1261E+01  0.2811E+01E
 Epicentro: LOS SANTOS - SANTANDER                                             3
 ACTION:UPD 17-05-22 15:56 OP:jn   STATUS:               ID:20170108083806 L   I
 OLDACT:UP  17-01-08 17:01 OP:dnl  STATUS:               ID:20170108082745     3
 OLDACT:REG 17-01-08 12:53 OP:dnl  STATUS:               ID:20170108082745     3
 2017-01-08-0828-00M.COL___368                                                 6
 STAT SP IPHASW D HRMM SECON CODA AMPLIT PERI AZIMU VELO AIN AR TRES W  DIS CAZ7
 BAR2 EZ IP     C  838 25.83                             171   -0.0510 21.5 194 
 BAR2 EZ ES        838 40.90                             171   -0.4810 21.5 194 
 BAR2 EZ I         838 42.46        13.2 0.32            170           21.5 194 
 BRR  HZ EP        838 27.72                             152    0.2010 73.2 300 
 BRR  HN ES        838 45.01                             152    0.7110 73.2 300 
 BRR  HZ I         838 49.83         7.0 0.26            149           73.2 300 
 PAM  EZ EP        838 28.58                             151    0.0510 78.3  38 
 PAM  EN ES        838 45.82                             151   -0.2610 78.3  38 
 PAM  EZ I         838 47.96         5.6 0.52            146           78.3  38 
 RUS  HZ EP        838 29.70                             145   -0.1310 98.4 177 
 RUS  HE ES        838 48.64                             145    0.2310 98.4 177 
 RUS  HZ I         838 51.87         3.5 0.48            140           98.4 177 
 PTB  HZ EP        838 32.73                             132   -0.50 9  148 260 
 PTB  HN ES   2    838 54.17                             132   -0.29 5  148 260 
 PTB  HZ I         838 59.77         8.3 0.56            128            148 260 
 TAM  HZ IP     C  838 34.00                             131    0.28 9  153 104 
 TAM  HZ I         838 54.25         3.4 0.26            126            153 104 
 TAM  HE ES        838 55.34                             131    0.01 9  153 104 
 ZAR  HZ EP   4    838 36.28                             123   -2.52 0  206 293 
 ZAR  HE ES        839  4.24                             123   -0.13 8  206 293 
 ZAR  HZ I         839 10.30         8.3 0.54            118            206 293 
 CHI  HZ EP   2    838 43.76                             118    0.11 4  247 196 
 CHI  HN ES        839 13.12                             118    0.11 8  247 196 
 CHI  HZ I         839 19.20         1.9 0.34            113            247 196 
 GUY2CHZ EP   4    838 51.18                             113    1.48 0  301 235 
 GUY2CHN ES   4    839 26.57                             113    2.80 0  301 235 
 GUY2CHZ I         839 33.05         3.6 0.30                           301 235 
                                                                                
