 2015  3 8 0117 50.0 L   6.815 -73.154143.4  RSN 18 0.4 2.2LRSN                1
 GAP= 70        0.98       2.8     2.9  5.2 -0.9602E+00  0.2881E+01  0.1888E+01E
 Epicentro: LOS SANTOS - SANTANDER                                             3
 ACTION:UPD 15-04-30 16:24 OP:nd   STATUS:               ID:20150308011751dL   I
 OLDACT:DUP 15-03-08 15:56 OP:spq  STATUS:               ID:20150308010748d    3
 2015-03-08-0107-47M.COL___281                                                 6
 STAT SP IPHASW D HRMM SECON CODA AMPLIT PERI AZIMU VELO AIN AR TRES W  DIS CAZ7
 BAR2 EZ EP        118  9.44                             170    0.0710 24.9 187 
 BAR2 EZ ES   1    118 24.16                             170   -0.32 7 24.9 187 
 BAR2 EZ I         118 25.24        41.8 0.14            168           24.9 187 
 BRR  HZ IP     C  118 11.29                             153    0.5010 69.5 298 
 BRR  HN ES        118 27.93                             153    0.9210 69.5 298 
 BRR  HZ I         118 29.12        33.3 0.28            152           69.5 298 
 PAM  SZ EP     D  118 12.22                             151    0.3010 76.7  41 
 PAM  SN ES        118 29.06                             151    0.0510 76.7  41 
 PAM  SZ I         118 33.63        26.6 0.42            154           76.7  41 
 RUS  HZ EP        118 13.46                             143   -0.1810  102 176 
 RUS  HE ES        118 31.72                             143   -0.3610  102 176 
 RUS  HZ I         118 33.67        15.4 0.34            143            102 176 
 PTB  HZ EP        118 16.03                             132   -0.68 9  147 258 
 PTB  HN ES        118 36.95                             132   -0.60 9  147 258 
 PTB  HZ I         118 40.24        25.6 0.16            131            147 258 
 TAM  HZ EP        118 17.85                             130    0.24 9  156 105 
 TAM  HN ES        118 39.21                             130    0.06 9  156 105 
 TAM  HZ I         118 40.74         8.9 0.34            132            156 105 
 OCA  HZ EP   1    118 17.50                             129   -0.45 7  158 353 
 OCA  HN ES        118 39.22                             129   -0.53 9  158 353 
 OCA  HZ I         118 42.67        32.5 0.34            131            158 353 
 SPBC HZ EP        118 18.42                             128    0.04 9  164 218 
 SPBC HN ES        118 40.48                             128   -0.04 9  164 218 
 SPBC HZ I         118 46.88        28.7 0.30            128            164 218 
 NOR  HZ EP        118 25.52                             118   -0.09 8  235 234 
 NOR  HE ES        118 53.85                             118    0.46 8  235 234 
 NOR  HZ I         118 56.11        17.3 0.18            118            235 234 
 SML  HZ EP   1    118 26.62                             117    0.34 6  242 335 
 SML  HN ES   1    118 53.71                             117   -0.86 6  242 335 
 SML  HZ I         118 58.86        16.9 0.14            118            242 335 
 CHI  HZ EP        118 27.96                             116    0.24 8  250 195 
 CHI  HE ES   1    118 56.80                             116   -0.34 6  250 195 
 CHI  HZ I         119  0.46         4.6 0.30            117            250 195 
 HEL  HZ EP   4    118 31.42                             114    1.39 0  272 255 
 HEL  HN ES   1    119  1.69                             114    0.43 6  272 255 
 HEL  HZ I         119  8.36         7.8 0.28            114            272 255 
 GUY2CHZ EP   4    118 34.95                             112    1.43 0  301 234 
 GUY2CHE ES   4    119  9.15                             112    1.69 0  301 234 
 GUY2CHZ I         119 14.95        12.1 0.30                           301 234 
 RREF HZ EP   1    118 35.50                             110   -0.58 5  322 229 
 RREF HN ES   4    119 14.95                             110    2.93 0  322 229 
 RREF HZ I         119 18.45         8.3 0.28            111            322 229 
 DBB  SZ EP   1    118 38.06                             109    0.81 5  338 274 
 DBB  SZ ES   1    119 14.49                             109    0.38 5  338 274 
 TOL  SZ EP   4    118 39.72                             109    1.50 0  344 224 
 TOL  SN ES   4    119 17.26                             109    1.43 0  344 224 
 TOL  SZ I         119 25.31         4.7 0.52            109            344 224 
 MON  HZ EP   4    118 37.17                             108   -1.53 0  352 308 
 MON  HN ES   4    119 15.96                             108   -0.72 0  352 308 
 MON  HZ I         119 16.39         4.8 0.18            109            352 308 
 PRA  HZ EP   1    118 43.86                             106    0.31 4  393 209 
 PRA  HE ES   4    119 26.84                             106    1.51 0  393 209 
 PRA  HZ I         119 31.18         6.2 0.26            106            393 209 
                                                                                
