 2013  8 8 0654 57.0 L   6.770 -73.251131.4  RSN  4 0.5 0.7LRSN                1
 GAP=213        0.91       9.3     9.1 10.2  0.4656E+02  0.2343E+02  0.1603E+02E
 Epicentro: ZAPATOCA - SANTANDER                                               3
 ACTION:UPD 14-01-14 09:00 OP:ep   STATUS:               ID:20130808065457 L   I
 OLDACT:REG 13-08-08 07:27 OP:jn   STATUS:               ID:20130808064959     3
 2013-08-08-0649-59M.COL___270                                                 6
 STAT SP IPHASW D HRMM SECON CODA AMPLIT PERI AZIMU VELO AIN AR TRES W  DIS CAZ7
 BAR2 SZ ES   1    655 28.99                             170    0.17 7 21.1 159 
 BAR2 SZ I         655 29.90         1.7 0.16            169           21.1 159 
 BRR  HZ EP   1    655 15.37                             153   -0.80 7 63.1 306 
 BRR  HN ES   1    655 31.41                             153    0.31 7 63.1 306 
 BRR  HZ I         655 35.27         1.9 0.52            150           63.1 306 
 RUS  HZ EP   1    655 19.91                             141    0.65 7 98.8 169 
 RUS  HN ES   1    655 36.12                             141   -0.48 7 98.8 169 
 RUS  HZ I         655 37.53         0.7 0.22            144           98.8 169 
 PTB  HZ EP   1    655 21.94                             131    0.21 7  136 259 
 PTB  HN ES   1    655 40.95                             131   -0.05 7  136 259 
 PTB  HZ I         655 46.53         0.7 0.26            130            136 259 
                                                                                
