 2017  7 8 0852  8.1 L   6.634 -73.188146.0  RSN  4 0.2 1.3LRSN                1
 GAP=220        0.48       5.4     3.5  4.2  0.6733E+01  0.4070E+01  0.1708E+01E
 Epicentro: BARICHARA - SANTANDER                                              3
 ACTION:UPD 17-08-30 15:31 OP:rebc STATUS:               ID:20170708085208 L   I
 OLDACT:UP  17-07-08 20:40 OP:edw  STATUS:               ID:20170708084748d    3
 OLDACT:DUP 17-07-08 20:37 OP:edw  STATUS:               ID:20170708084748d    3
 OLDACT:UP  17-07-08 20:34 OP:edw  STATUS:               ID:20170708084746d    3
 OLDACT:DUP 17-07-08 20:31 OP:edw  STATUS:               ID:20170708084746d    3
 OLDACT:UP  17-07-08 20:30 OP:edw  STATUS:               ID:20170708084745d    3
 OLDACT:DUP 17-07-08 20:25 OP:edw  STATUS:               ID:20170708084745d    3
 OLDACT:UP  17-07-08 20:24 OP:edw  STATUS:               ID:20170708084744     3
 OLDACT:UP  17-07-08 20:23 OP:edw  STATUS:               ID:20170708084744     3
 OLDACT:REG 17-07-08 13:34 OP:edw  STATUS:               ID:20170708084744     3
 2017-07-08-0848-00M.COL___368                                                 6
 STAT SP IPHASW D HRMM SECON CODA AMPLIT PERI AZIMU VELO AIN AR TRES W  DIS CAZ7
 BAR2 EZ EP        852 27.66                             178    0.1310 4.65 172 
 BAR2 EZ ES        852 42.67                             178   -0.0210 4.65 172 
 BAR2 EZ I         852 43.66         7.2 0.22            170           4.65 172 
 BRR  HZ EP        852 29.32                             150   -0.3510 78.0 312 
 BRR  HN ES        852 46.65                             150    0.1510 78.0 312 
 PTB  HZ EP        852 34.56                             134    0.11 9  141 266 
 PTB  HN ES        852 54.91                             134   -0.09 9  141 266 
 PTB  HZ I         853  1.12         1.0 0.60            131            141 266 
 ZAR  HZ EP   2    852 41.22                             122    0.31 4  207 297 
 ZAR  HE ES        853  6.52                             122    0.02 8  207 297 
 ZAR  HZ I         853 12.27         2.5 0.38            121            207 297 
                                                                                
