 2017  3 8 0126 58.9 L   6.323 -73.554114.0  RSN 11 0.3 1.7LRSN                1
 GAP= 78        0.83       2.5     3.0  5.0  0.4011E-01  0.6483E+01  0.9518E+00E
 Epicentro: SANTA HELENA DEL OPON - SANTANDER                                  3
 ACTION:UPD 17-05-25 18:37 OP:jn   STATUS:               ID:20170308012658 L   I
 OLDACT:UP  17-03-08 15:00 OP:and  STATUS:               ID:20170308011749d    3
 OLDACT:UP  17-03-08 14:59 OP:and  STATUS:               ID:20170308011749d    3
 OLDACT:UP  17-03-08 14:58 OP:and  STATUS:               ID:20170308011749d    3
 OLDACT:UP  17-03-08 14:57 OP:and  STATUS:               ID:20170308011749d    3
 OLDACT:DUP 17-03-08 14:51 OP:and  STATUS:               ID:20170308011749d    3
 OLDACT:UP  17-03-08 14:49 OP:and  STATUS:               ID:20170308011748     3
 OLDACT:UP  17-03-08 14:49 OP:and  STATUS:               ID:20170308011748     3
 OLDACT:UP  17-03-08 14:48 OP:and  STATUS:               ID:20170308011748     3
 OLDACT:UP  17-03-08 14:48 OP:and  STATUS:               ID:20170308011748     3
 OLDACT:UP  17-03-08 14:46 OP:and  STATUS:               ID:20170308011748     3
 OLDACT:UP  17-03-08 14:46 OP:and  STATUS:               ID:20170308011748     3
 OLDACT:UP  17-03-08 14:44 OP:and  STATUS:               ID:20170308011748     3
 OLDACT:UP  17-03-08 14:43 OP:and  STATUS:               ID:20170308011748     3
 OLDACT:REG 17-03-08 12:27 OP:and  STATUS:               ID:20170308011748     3
 2017-03-08-0118-00M.COL___356                                                 6
 STAT SP IPHASW D HRMM SECON CODA AMPLIT PERI AZIMU VELO AIN AR TRES W  DIS CAZ7
 BAR2 EZ IP     C  127 16.08                             155    0.2510 50.7  54 
 BAR2 EZ ES        127 29.13                             155    0.1010 50.7  54 
 BAR2 EZ I         127 30.30        29.3 0.34            159           50.7  54 
 RUS  HZ EP        127 17.32                             147   -0.0810 70.6 132 
 RUS  HN ES        127 32.29                             147    0.4710 70.6 132 
 RUS  HZ I         127 33.26         9.1 0.24            151           70.6 132 
 BRR  HZ EP        127 17.70                             140   -0.3210 88.4 349 
 BRR  HN ES        127 32.92                             140    0.0110 88.4 349 
 SPBC HZ EP        127 18.34                             138   -0.2410 93.8 218 
 SPBC HN ES        127 33.49                             138   -0.4310 93.8 218 
 SPBC HZ I         127 35.64        22.8 0.18            138           93.8 218 
 PTB  HZ IP   9 C  127 17.83                             135   -1.39 0  103 284 
 PTB  HE ES        127 34.31                             135    0.6410  103 284 
 PTB  HZ I         127 35.83         9.4 0.10            134            103 284 
 NOR  HZ EP   2    127 25.75                             120    0.08 5  168 240 
 NOR  HN ES        127 46.74                             120    0.21 9  168 240 
 NOR  HZ I         127 47.75         8.8 0.18            120            168 240 
 CHI  HZ EP   2    127 28.92                             117    0.61 4  188 186 
 CHI  HN ES        127 51.01                             117   -0.22 9  188 186 
 ZAR  HZ EP        127 27.82                             116   -0.54 9  194 312 
 ZAR  HN ES        127 51.31                             116   -0.01 9  194 312 
 ZAR  HZ I         127 55.37         8.8 0.33            117            194 312 
 HEL  HZ EP        127 32.22                             113    0.57 8  219 266 
 HEL  HN ES   2    127 58.14                             113    0.96 4  219 266 
 HEL  HZ I         128  4.72         2.7 0.46            113            219 266 
 GUY2CHZ EP        127 33.43                             112   -0.11 8  234 239 
 GUY2CHE ES   4    128  3.87                             112    3.33 0  234 239 
 GUY2CHZ  IAML     128  7.49         4.0 0.26                           234 239 
 CBOC HZ EP   2    127 38.06                             108    0.03 4  277 260 
 CBOC HN ES        128  8.59                             108    0.05 7  277 260 
 CBOC HZ I         128 15.95         1.6 0.10            108            277 260 
                                                                                
