 2015  1 8 0103 39.3 L   6.711 -73.240150.4  RSN  5 0.4 1.4LRSN                1
 GAP=204        1.01       7.0     8.7 10.0 -0.5559E+01  0.3284E+02 -0.7977E+00E
 Epicentro: VILLANUEVA - SANTANDER                                             3
 ACTION:UPD 15-03-02 15:37 OP:nd   STATUS:               ID:20150108010339 L   I
 OLDACT:DUP 15-01-08 14:02 OP:cam  STATUS:               ID:20150108005815d    3
 OLDACT:REG 15-01-08 12:57 OP:cam  STATUS:               ID:20150108005813     3
 2015-01-08-0058-13M.COL___271                                                 6
 STAT SP IPHASW D HRMM SECON CODA AMPLIT PERI AZIMU VELO AIN AR TRES W  DIS CAZ7
 BAR2 EZ ES        1 4 14.77                             174   -0.2410 14.6 154 
 BAR2 EZ I         1 4 16.47         6.5 0.18            175           14.6 154 
 BRR  HZ EP        1 4  0.42                             154   -0.3910 68.1 310 
 BRR  HN ES        1 4 18.13                             154    0.5610 68.1 310 
 RUS  HE ES   2    1 4 21.42                             147    0.03 5 92.1 169 
 PTB  HZ EP        1 4  6.02                             136    0.39 9  136 262 
 PTB  HN ES        1 4 25.57                             136   -0.58 9  136 262 
 PTB  HZ I         1 4 29.42         2.9 0.22            136            136 262 
 SPBC HN ES        1 4 28.65                             133    0.27 9  149 218 
                                                                                
