 2012  1 8 0501 29.0 L   6.760 -73.135151.4  RSN  9 0.3 1.8LRSN                1
 GAP=140        0.71       3.6     3.9  6.0  0.1815E+01  0.1200E+01  0.1393E+01E
 Epicentro: LOS SANTOS - SANTANDER                                             3
 ACTION:UP  12-02-03 08:15 OP:REBC STATUS:               ID:20120108050129 L   I
 2012-01-08-0500-00M.COL___183                                                 6
 STAT SP IPHASW D HRMM SECON CODA AMPLIT PERI AZIMU VELO SNR AR TRES W  DIS CAZ7
 BAR2 SZ EP        5 1 49.08                             172    -0.210   19 196 
 BAR2 SZ ES   2    5 2  4.58                             172    -0.4 5   19 196 
 BAR2 SZ I         5 2  5.92        13.6 0.45                            19 196 
 GIR2 SZ EP   1    5 1 49.20                             166    -0.3 7   36 350 
 GIR2 SZ ES   2    5 2  5.61                             166     0.2 5   36 350 
 BRR  HZ IP        5 1 50.93                             152     0.010   74 301 
 BRR  HZ I         5 1 51.23        30.3 0.20                            74 301 
 BRR  HN ES   1    5 2  8.85                             152     0.8 7   74 301 
 PAM  SZ EP        5 1 52.01                             151     0.010   80  37 
 PAM  SN ES   2    5 2  9.67                             151    -0.2 5   80  37 
 RUS  HZ EP   1    5 1 53.34                             146     0.3 7   96 177 
 RUS  HN ES   1    5 2 11.61                             146    -0.1 7   96 177 
 RUS  HZ I         5 2 12.94         6.6 0.33                            96 177 
 PTB  HZ EP   1    5 1 56.09                             133    -0.4 7  148 261 
 PTB  HN ES   1    5 2 17.36                             133    -0.5 7  148 261 
 OCA  SZ EP   2    5 1 58.36                             130     0.2 5  165 353 
 OCA  SZ ES   2    5 2 20.75                             130    -0.2 5  165 353 
 OCA  SZ I         5 2 25.55         6.8 0.33                           165 353 
 ZAR  HZ EP   2    5 2  2.12                             123     0.0 4  207 293 
 ZAR  HE ES        5 2 27.99                             123     0.1 8  207 293 
 ZAR  HZ I         5 2 34.18         8.1 0.25                           207 293 
 CHI  HZ EP   1    5 2  7.04                             119     0.4 6  245 196 
 CHI  HN ES   2    5 2 36.29                             119     0.4 4  245 196 
 CHI  HZ I         5 2 44.16         2.4 0.52                           245 196 
                                                                                
