 2011  4 8 0231 42.7 L   6.795 -73.100147.3  RSN  6 0.2 1.5LRSN                1
 GAP=166        0.52       5.5     6.2  6.7 -0.1689E+02  0.1905E+01  0.7602E+01E
 Epicentro: LOS SANTOS - SANTANDER                                             3
 ACTION:UP  11-06-22 15:29 OP:REBC STATUS:               ID:20110408023142 L   I
 2011-04-08-0229-14S.COL___138                                                 6
 STAT SP IPHASW D HRMM SECON CODA AMPLIT PERI AZIMU VELO SNR AR TRES W  DIS CAZ7
 BTL  SZ EP        232  2.55                             171     0.010   23 306 
 BAR2 SZ EP        232  2.28                             170    -0.310   24 202 
 PAM  SZ EP        232  5.17                             152     0.210   75  36 
 PAM  SN ES   1    232 22.36                             152     0.1 7   75  36 
 PAM  SZ I         232 24.54         2.6 0.56                            75  36 
 BRR  HZ EP        232  4.34                             151     0.110   76 297 
 BRR  HZ I         232  5.34         7.2 0.51                            76 297 
 BRR  HN ES   2    232 21.33                             151     0.2 5   76 297 
 GRA  SZ EP        232  8.01                             137     0.010  125  15 
 GRA  SZ ES   1    232 27.44                             137    -0.3 7  125  15 
 GRA  SZ I         232 29.95         6.6 0.33                           125  15 
 OCA  SZ EP   2    232 11.16                             130    -0.1 5  162 351 
 OCA  SZ I         232 38.30         5.7 0.27                           162 351 
                                                                                
