 2014 11 8 0255 36.6 L   6.756 -73.130144.8  RSN  4 0.4 1.7LRSN                1
 GAP=141        1.02       5.5     5.4  9.0 -0.3249E+01  0.4733E+01  0.6138E+01E
 Epicentro: LOS SANTOS - SANTANDER                                             3
 ACTION:UPD 14-12-19 15:40 OP:nd   STATUS:               ID:20141108025536 L   I
 OLDACT:DUP 14-11-08 14:08 OP:cam  STATUS:               ID:20141108024815d    3
 OLDACT:REG 14-11-08 13:18 OP:cam  STATUS:               ID:20141108024814     3
 2014-11-08-0248-14M.COL___292                                                 6
 STAT SP IPHASW D HRMM SECON CODA AMPLIT PERI AZIMU VELO AIN AR TRES W  DIS CAZ7
 BRR  HZ EP        255 57.92                             151   -0.0010 75.1 301 
 BRR  HN ES        256 15.15                             151    0.6410 75.1 301 
 BRR  HN I         256 15.56        27.8 0.34            153           75.1 301 
 PAM  SZ EP        255 59.02                             150    0.0910 80.1  36 
 PAM  SN ES        256 15.88                             150   -0.4310 80.1  36 
 PAM  SZ I         256 18.45         8.3 0.30            152           80.1  36 
 RUS  HZ E         251 17.75                                           95.6 177 
 RUS  HZ EP        256  0.50                             145    0.5410 95.6 177 
 RUS  HN ES        256 17.95                             145   -0.1810 95.6 177 
 RUS  HZ I         256 20.44         2.7 0.24            146           95.6 177 
 PTB  HZ EP        256  3.20                             132   -0.42 9  149 261 
 PTB  HN ES        256 24.31                             132   -0.34 9  149 261 
 PTB  HZ I         256 27.55         5.5 0.14            133            149 261 
                                                                                
