 2011  1 8 0244 55.2 L   6.794 -73.177139.0  RSN 17 0.3 3.3LRSN                1
 GAP=133        0.78       2.4     4.1  4.6 -0.3183E+01  0.7844E+01  0.8389E+00E
 Epicentro: LOS SANTOS - SANTANDER                                             3
 ACTION:UP  11-02-08 08:39 OP:pat  STATUS:               ID:20110108024455 L   I
 2011-01-08-0241-14S.COL___135                                                 6
 STAT SP IPHASW D HRMM SECON CODA AMPLIT PERI AZIMU VELO SNR AR TRES W  DIS CAZ7
 BAR2 SZ IP        245 14.10                             170     0.110   22 182 
 BAR2 SZ ES   1    245 28.81                             170     0.1 7   22 182 
 BAR2 SZ I         245 30.05       500.9 0.18                            22 182 
 GIR2 SZ IP        245 14.22                             167     0.110   32 357 
 GIR2 SZ ES   1    245 29.28                             167     0.5 7   32 357 
 RUS  HZ IP     C  245 18.07                             142    -0.210  100 174 
 RUS  HN ES        245 36.11                             142    -0.210  100 174 
 RUS  HZ I         245 37.66       268.7 0.31                           100 174 
 GRA  SZ IP        245 20.15                             135     0.110  127  19 
 GRA  SZ ES   1    245 39.37                             135     0.0 7  127  19 
 GRA  SZ I         245 40.66       259.3 0.49                           127  19 
 OCA  SZ IP        245 22.61                             128    -0.4 9  161 354 
 OCA  SZ ES   1    245 44.32                             128    -0.4 7  161 354 
 OCA  SZ I         245 49.40       229.1 0.27                           161 354 
 YOP  SZ EP   1    245 24.61                             125    -0.3 7  180 152 
 YOP  SZ I         245 49.36       168.1 0.28                           180 152 
 NOR  SZ EP        245 30.08                             117    -0.1 8  232 234 
 NOR  SN ES   1    245 57.20                             117    -0.3 6  232 234 
 CHI  HZ EP        245 32.24                             116    -0.1 8  247 194 
 CHI  HN ES   1    246  1.63                             116     0.3 6  247 194 
 CHI  HZ I         246  5.75        88.9 0.76                           247 194 
 ROSC BZ IP     C  245 33.73                             115     1.0 8  250 210 
 ROSC BE ES   1    246  1.25                             115    -0.7 6  250 210 
 ROSC BZ I         246 10.72       172.4 0.19                           250 210 
 HEL  HZ EP   1    245 34.98                             114     0.3 6  269 256 
 HEL  HE ES   1    246  5.23                             114    -0.3 6  269 256 
 HEL  HZ I         246 12.66       130.9 0.36                           269 256 
 GUY  SZ EP   1    245 38.80                             111     0.6 5  298 235 
 GUY  SE ES   1    246 11.76                             111     0.1 5  298 235 
 GUY  SZ I         246 21.49       188.5 0.45                           298 235 
 VIL  SZ EP   2    245 37.93                             111    -0.1 4  300 189 
 VIL  SE ES   1    246 11.44                             111     0.1 5  300 189 
 VIL  SZ I         246 19.45        58.6 0.51                           300 189 
 RREF HZ EP        245 40.71                             110     0.0 7  319 229 
 RREF HN ES   1    246 16.08                             110    -0.1 5  319 229 
 RREF HZ I         246 21.48        85.5 0.42                           319 229 
 DBB  SZ EP        245 42.22                             108     0.2 7  336 274 
 TOL  SZ EP   1    245 43.24                             108     0.4 5  341 224 
 PRA  HZ EP   1    245 47.89                             105    -0.4 4  390 209 
 PRA  HE ES   1    246 29.50                             105    -0.1 4  390 209 
 SJA  SZ EP   1    245 49.08                             105    -0.3 4  399 192 
 SJA  SZ I         246 40.43       117.7 0.30                           399 192 
                                                                                
