 2010  5 8 0432 44.6 L   6.788 -73.000138.0  RSN  8 0.3 1.5LRSN                1
 GAP=173        0.72       4.4     7.9  9.2 -0.6508E+01 -0.2773E+02 -0.4934E+01E
 Epicentro: CEPITA - SANTANDER                                                 3
 ACTION:UP  10-08-24 10:03 OP:vdl  STATUS:               ID:20100508043244 L   I
 2010-05-08-0431-12S.COL___105                                                 6
 STAT SP IPHASW D HRMM SECON CODA AMPLIT PERI AZIMU VELO SNR AR TRES W  DIS CAZ7
 BAR2 SZ EP        433  3.03                             167    -0.410   30 223 
 GIR2 SZ EP   2    433  4.21                             164     0.7 5   39 326 
 BRR  HZ EP        433  5.78                             146     0.010   86 294 
 BRR  HZ I         433  8.06         9.7 0.09                            86 294 
 BRR  HN ES   1    433 22.80                             146     0.4 7   86 294 
 RUS  HZ EP   2    433  7.69                             143     0.2 5   99 185 
 RUS  HN ES   2    433 25.19                             143    -0.1 5   99 185 
 RUS  HZ I         433 26.93         2.5 0.39                            99 185 
 BRI  SZ EP        433  7.65                             141     0.210  105  12 
 BRI  SZ ES   2    433 25.38                             141     0.1 5  105  12 
 GUE  SZ EP        433  8.63                             138     0.210  116   4 
 GRA  SZ EP        433  8.96                             136     0.110  123  10 
 GRA  SZ ES   2    433 27.80                             136    -0.1 5  123  10 
 OCA  SZ EP        433 12.42                             127    -0.2 9  164 348 
 OCA  SZ ES   2    433 33.51                             127    -1.1 5  164 348 
 OCA  SZ I         433 38.61         3.9 0.28                           164 348 
                                                                                
