 2011  9 8 0556  4.3 L   6.811 -73.161134.6  RSN  7 0.3 1.6LRSN                1
 GAP=134        0.57       3.2     5.1  7.5  0.2097E+01  0.7591E+01 -0.7170E+00E
 Epicentro: LOS SANTOS - SANTANDER                                             3
 ACTION:UPD 12-07-13 15:56 OP:ep   STATUS:               ID:20110908055342 L   I
 2011-09-08-0553-42S.COL___170                                                 6
 STAT SP IPHASW D HRMM SECON CODA AMPLIT PERI AZIMU VELO AIN AR TRES W  DIS CAZ7
 BAR2 SZ EP        556 22.58                             169   -0.0710 24.3 186 
 BAR2 SZ ES   2    556 36.80                             169   -0.13 5 24.3 186 
 BAR2 SZ I         556 38.39        10.4 0.27                          24.3 186 
 GIR2 SZ EP   1    556 22.63                             167   -0.01 7 29.8 353 
 BRR  HZ IP     C  556 24.41                             151    0.2410 69.1 298 
 BRR  HZ I         556 24.69        13.7 0.30                          69.1 298 
 BRR  HE ES   2    556 39.95                             151    0.32 5 69.1 298 
 PAM  SZ EP   1    556 25.66                             149    0.27 7 77.5  41 
 PAM  SN ES   2    556 42.37                             149    0.57 5 77.5  41 
 RUS  HZ EP   2    556 26.96                             141   -0.15 5  102 175 
 RUS  HN ES   2    556 44.51                             141   -0.36 5  102 175 
 RUS  HZ I         556 46.69         3.8 0.39                           102 175 
 OCA  SZ ES        556 52.48                             127   -0.50 9  159 354 
 OCA  SZ I         556 56.10         6.7 0.37                           159 354 
 ZAR  HZ EP   2    556 36.08                             120    0.21 4  202 292 
 ZAR  HE ES   2    557  0.45                             120   -0.01 4  202 292 
 ZAR  HZ I         557  7.46         5.3 0.27                           202 292 
                                                                                
