 2012 11 8 0355 38.9 L   6.774 -73.195145.0  RSN  5 0.2 1.5LRSN                1
 GAP=173        0.54       4.6     4.2  6.7  0.5131E+01  0.4365E+01 -0.8188E+01E
 Epicentro: VILLANUEVA - SANTANDER                                             3
 ACTION:UPD 12-12-05 15:31 OP:}ep  STATUS:               ID:20121108035538 L   I
 2012-11-08-0350-00M.COL___230                                                 6
 STAT SP IPHASW D HRMM SECON CODA AMPLIT PERI AZIMU VELO AIN AR TRES W  DIS CAZ7
 BAR2 SZ EP        355 58.01                             172   -0.3310 20.1 176 
 BAR2 SZ I         356 15.68         7.4 0.30                          20.1 176 
 GIR2 SZ ES   2    356 13.68                             166   -0.16 5 33.7   0 
 BRR  HZ EP        355 59.98                             153    0.2310 68.0 303 
 BRR  HE ES   2    356 16.27                             153    0.23 5 68.0 303 
 BRR  HN I         356 19.56         6.5 0.16                          68.0 303 
 RUS  HN ES        356 20.85                             144    0.1510 98.2 173 
 RUS  HN I         356 22.33         4.8 0.36                          98.2 173 
 PTB  HZ EP        356  5.34                             133    0.10 9  142 260 
 PTB  HN ES        356 25.64                             133   -0.17 9  142 260 
 PTB  HN I         356 28.17         3.7 0.10                           142 260 
                                                                                
