 2010  5 8 0646 34.9 L   6.800 -73.040139.5  RSN  6 0.3 1.2LRSN                1
 GAP=171        0.78       4.6     9.9 11.5  0.8009E+00 -0.5983E+02 -0.1014E+02E
 Epicentro: CEPITA - SANTANDER                                                 3
 ACTION:UP  10-08-24 10:03 OP:vdl  STATUS:               ID:20100508064634 L   I
 2010-05-08-0644-10S.COL___105                                                 6
 STAT SP IPHASW D HRMM SECON CODA AMPLIT PERI AZIMU VELO SNR AR TRES W  DIS CAZ7
 BAR2 SZ EP   2    646 53.64                             168    -0.3 5   28 215 
 BRR  HZ EP        646 56.25                             148     0.210   82 295 
 BRR  HE ES   1    647 12.56                             148     0.0 7   82 295 
 BRR  HZ I         647 16.97         4.2 0.13                            82 295 
 RUS  HZ EP        646 58.10                             143     0.010  100 183 
 RUS  HN ES   2    647 15.77                             143    -0.3 5  100 183 
 RUS  HZ I         647 18.42         2.1 0.29                           100 183 
 GUE  SZ EP        646 59.16                             139     0.210  115   6 
 GRA  SZ EP        646 59.69                             136     0.310  123  12 
 GRA  SZ ES   2    647 18.26                             136    -0.2 5  123  12 
 OCA  SZ EP        647  2.29                             128    -0.7 9  162 349 
                                                                                
