 2010  3 8 0140 35.3 L   6.813 -73.070141.8  RSN  9 0.3 2.1LRSN                1
 GAP=131        0.64       2.3     3.9  3.8 -0.1455E+01 -0.3519E+00  0.9003E+00E
 Epicentro: LOS SANTOS - SANTANDER                                             3
 ACTION:UP  10-08-24 09:52 OP:vdl  STATUS:               ID:20100308014035 L   I
 2010-03-08-0137-07S.COL___100                                                 6
 STAT SP IPHASW D HRMM SECON CODA AMPLIT PERI AZIMU VELO SNR AR TRES W  DIS CAZ7
 BAR2 SZ IP        140 54.69                             168     0.110   28 207 
 BAR2 SZ ES        141  9.35                             168    -0.210   28 207 
 BRR  HZ IP        140 56.54                             149     0.110   78 295 
 BRR  HN ES        141 13.22                             149     0.310   78 295 
 BRR  HZ I         141 17.76        22.6 0.16                            78 295 
 RUS  BZ IP        140 58.75                             143     0.010  102 181 
 RUS  BZ I         140 59.91        13.2 0.16                           102 181 
 RUS  BE ES   1    141 17.19                             143     0.1 7  102 181 
 OCA  SZ EP        141  3.16                             129    -0.2 9  160 350 
 OCA  SZ ES        141 25.12                             129     0.0 9  160 350 
 OCA  SZ I         141 28.12        29.3 0.27                           160 350 
 CHI  HZ EP   1    141 13.19                             116     0.0 6  252 197 
 CHI  HE ES   1    141 42.67                             116    -0.1 6  252 197 
 CHI  HZ I         141 48.38         3.4 0.28                           252 197 
 HEL  HZ EP   1    141 15.84                             113    -0.5 6  281 256 
 HEL  HN ES   1    141 47.67                             113    -0.6 6  281 256 
 HEL  HZ I         141 53.15         6.0 0.47                           281 256 
 RREF BZ EP   1    141 22.97                             110     0.8 5  329 230 
 RREF BE ES   1    141 59.24                             110     0.6 5  329 230 
 RREF BZ I         142  5.25         5.8 0.40                           329 230 
 SDV  BZ EP        141 24.51                             108     0.1 6  353  49 
 PRA  HZ EP   1    141 29.23                             106    -0.1 4  397 211 
 PRA  HN ES   1    142 11.29                             106    -0.2 4  397 211 
 PRA  HZ I         142 16.30         4.4 0.78                           397 211 
                                                                                
