 2017  6 8 0633 43.7 L   6.747 -73.199144.4  RSN  5 0.3 1.1LRSN                1
 GAP=227        0.81       6.9     8.6  7.4  0.4430E+02  0.9143E+01 -0.4278E+00E
 Epicentro: VILLANUEVA - SANTANDER                                             3
 ACTION:UPD 17-09-14 16:50 OP:jn   STATUS:               ID:20170608063343 L   I
 OLDACT:DUP 17-06-08 18:56 OP:osc  STATUS:               ID:20170608062739d    3
 2017-06-08-0628-00M.COL___359                                                 6
 STAT SP IPHASW D HRMM SECON CODA AMPLIT PERI AZIMU VELO AIN AR TRES W  DIS CAZ7
 BRR  HZ EP        634  4.20                             153   -0.4110 69.3 305 
 BRR  HN ES        634 21.28                             153    0.3710 69.3 305 
 BRR  HZ I         634 25.15         2.5 0.13            152           69.3 305 
 RUS  HN EP        634  7.36                             145    0.4010 95.4 172 
 RUS  HN ES        634 24.74                             145   -0.3510 95.4 172 
 RUS  HN I         634 26.18         2.2 0.24            148           95.4 172 
 PTB  HZ EP        634  9.90                             133   -0.06 9  141 261 
 PTB  HN ES   4    634 29.59                             133   -0.84 0  141 261 
 PTB  HZ I         634 34.67         1.5 0.15            134            141 261 
 SPBC HE ES   2    634 33.17                             130    0.29 5  155 219 
 ZAR  HZ EP        634 15.99                             122    0.24 9  201 294 
 ZAR  HE ES        634 40.46                             122   -0.28 9  201 294 
                                                                                
