 2011  5 8 0942 20.8 L   6.787 -73.115146.8  RSN  6 0.3 1.4LRSN                1
 GAP=162        0.74       3.8     6.5  6.6 -0.9249E+01  0.3584E+01  0.3292E+00E
 Epicentro: LOS SANTOS - SANTANDER                                             3
 ACTION:UP  11-06-29 08:51 OP:tino STATUS:               ID:20110508094221 L   I
 2011-05-08-0941-11S.COL___131                                                 6
 STAT SP IPHASW D HRMM SECON CODA AMPLIT PERI AZIMU VELO SNR AR TRES W  DIS CAZ7
 BAR2 SZ EP   1    942 40.14                             171    -0.5 7   23 199 
 BAR2 SZ ES   1    942 55.76                             171    -0.2 7   23 199 
 BAR2 SZ I         942 57.23         8.7 0.15                            23 199 
 BRR  HZ EP        942 42.41                             151     0.110   75 298 
 BRR  HE ES   1    942 59.31                             151     0.2 7   75 298 
 BRR  HZ I         943  1.45         5.7 0.12                            75 298 
 RUS  HZ EP   1    942 45.14                             144     0.6 7   99 178 
 RUS  HZ I         942 45.28         2.1 0.15                            99 178 
 RUS  HE ES   2    943  3.34                             144     0.2 5   99 178 
 GRA  SZ EP   1    942 46.27                             137     0.1 7  126  16 
 GRA  SZ ES   1    943  5.76                             137    -0.2 7  126  16 
 GRA  SZ I         943  8.59         2.7 0.19                           126  16 
 OCA  SZ EP   1    942 49.65                             129     0.2 7  162 352 
 OCA  SZ ES   1    943 11.72                             129     0.0 7  162 352 
 OCA  SZ I         943 19.84         3.3 0.47                           162 352 
 NOR  SZ EP   1    942 56.17                             118    -0.7 6  237 235 
 NOR  SN ES   1    943 24.97                             118     0.0 6  237 235 
                                                                                
