 2014  5 8 0439 10.3 L   6.809 -73.168136.9  RSN  7 0.3 1.7LRSN                1
 GAP=133        0.80       2.9     3.3  6.2 -0.1058E+01  0.6768E+01  0.1862E+01E
 Epicentro: LOS SANTOS - SANTANDER                                             3
 ACTION:UPD 15-03-16 16:56 OP:nd   STATUS:               ID:20140508043910 L   I
 OLDACT:REG 14-05-08 13:11 OP:carl STATUS:               ID:20140508043819     3
 2014-05-08-0438-19M.COL___233                                                 6
 STAT SP IPHASW D HRMM SECON CODA AMPLIT PERI AZIMU VELO AIN AR TRES W  DIS CAZ7
 PAM  SZ EP        439 31.98                             149    0.3110 78.2  41 
 PAM  SE ES        439 48.22                             149   -0.0810 78.2  41 
 PAM  SZ I         439 49.30         7.6 0.18            155           78.2  41 
 RUS  HZ EP        439 32.93                             142   -0.3810  102 175 
 RUS  HN ES        439 51.37                             142    0.1410  102 175 
 RUS  HZ I         439 53.38         4.4 0.32            144            102 175 
 PTB  HZ EP        439 36.03                             130   -0.36 9  146 258 
 PTB  HN ES        439 56.31                             130   -0.40 9  146 258 
 PTB  HZ I         439 59.93         5.2 0.12            131            146 258 
 SPBC HZ EP        439 37.78                             127   -0.31 9  162 218 
 SPBC HN ES        439 59.86                             127    0.12 9  162 218 
 SPBC HZ I         440  6.37         8.4 0.36            129            162 218 
 ZAR  HZ EP        439 42.07                             121    0.12 9  201 292 
 ZAR  HN ES        440  6.99                             121    0.39 9  201 292 
 ZAR  HZ I         440 13.88         6.0 0.24            123            201 292 
 NOR  HZ EP        439 45.05                             117   -0.36 8  233 234 
 NOR  HN ES        440 13.23                             117    0.46 8  233 234 
 NOR  HZ I         440 16.81         5.6 0.40            119            233 234 
 CHI  HZ EP        439 48.16                             115    0.57 8  249 195 
 CHI  HN ES        440 16.73                             115    0.08 8  249 195 
 CHI  HZ I         440 22.95         2.1 0.30            118            249 195 
                                                                                
