 2017 10 8 0750 43.1 L   6.823 -73.090146.6  RSN  6 0.1 1.2LRSN                1
 GAP=249        0.39       2.1     2.9  2.8  0.2508E+01  0.2714E+01  0.3178E+00E
 Epicentro: LOS SANTOS - SANTANDER                                             3
 ACTION:UPD 17-11-07 19:29 OP:rebc STATUS:               ID:20171008075043 L   I
 OLDACT:UP  17-10-08 17:14 OP:dhb  STATUS:               ID:20171008074743     3
 OLDACT:REG 17-10-08 12:54 OP:dhb  STATUS:               ID:20171008074743     3
 2017-10-08-0748-00M.COL___399                                                 6
 STAT SP IPHASW D HRMM SECON CODA AMPLIT PERI AZIMU VELO AIN AR TRES W  DIS CAZ7
 BAR2 EZ EP        751  2.89                             169   -0.0510 27.5 202 
 BAR2 EZ ES        751 18.44                             169    0.0410 27.5 202 
 BAR2 EZ I         751 20.64         4.2 0.28            161           27.5 202 
 RUS  HZ EP        751  7.10                             143   -0.0210  103 180 
 RUS  HN ES        751 25.91                             143    0.0710  103 180 
 RUS  HZ I         751 27.54         1.3 0.28            142            103 180 
 SPBC HZ EP        751 12.10                             128   -0.15 9  169 220 
 SPBC HN ES        751 35.08                             128    0.11 9  169 220 
 SPBC HZ I         751 40.19         2.5 0.15            126            169 220 
 ZAR  HZ EP        751 16.26                             122    0.14 8  209 291 
 ZAR  HE ES        751 41.68                             122   -0.17 8  209 291 
 ZAR  HZ I         751 48.00         2.6 0.43            121            209 291 
 CHI  HZ EP        751 21.28                             117   -0.04 8  253 196 
 CHI  HN ES        751 50.90                             117   -0.21 8  253 196 
 CHI  HZ I         751 58.27         0.5 0.07            117            253 196 
 GUY2CHZ EP        751 27.86                             112    0.35 7  308 235 
 GUY2CHN ES   4    752  4.20                             112    2.07 0  308 235 
 GUY2CHZ I         752  9.74         0.8 0.24                           308 235 
                                                                                
