 2012  7 8 0559 22.8 L   6.784 -73.124147.1  RSN 12 0.4 2.3LRSN                1
 GAP=116        0.86       3.2     4.7  6.0  0.2089E+01  0.8255E+01  0.4571E+01E
 Epicentro: LOS SANTOS - SANTANDER                                             3
 ACTION:UPD 12-08-14 11:43 OP:ep   STATUS:               ID:20120708055922 L   I
 2012-07-08-0557-59S.COL___215                                                 6
 STAT SP IPHASW D HRMM SECON CODA AMPLIT PERI AZIMU VELO AIN AR TRES W  DIS CAZ7
 BAR2 SZ EP   1    559 42.59                             171     0.1 7   22 197 
 BAR2 SZ ES   1    559 57.68                             171    -0.3 7   22 197 
 BAR2 SZ I         6 0  1.25        61.1 0.56                            22 197 
 BRR  HZ EP        559 44.58                             152     0.410   74 299 
 BRR  HN ES   1    6 0  1.86                             152     0.9 7   74 299 
 BRR  HZ I         6 0  5.12        47.1 0.22                            74 299 
 PAM  SZ EP   1    559 45.37                             151     0.2 7   77  37 
 PAM  SZ I         559 45.78        36.5 0.16                            77  37 
 PAM  SN ES   1    6 0  2.61                             151     0.1 7   77  37 
 RUS  HZ EP   1    559 46.39                             145    -0.1 7   99 177 
 RUS  HN ES   1    6 0  4.94                             145    -0.1 7   99 177 
 RUS  HZ I         6 0  7.01        30.3 0.39                            99 177 
 OCA  HZ EP   1    559 51.09                             130    -0.3 7  162 352 
 OCA  HN ES   1    6 0 12.92                             130    -0.8 7  162 352 
 YOP  SZ EP   1    559 53.06                             127     0.4 7  176 154 
 YOP  SE ES   1    6 0 15.56                             127    -0.4 7  176 154 
 YOP  SZ I         6 0 17.87        19.1 0.36                           176 154 
 ZAR  HZ EP   1    559 55.19                             122    -0.4 6  207 292 
 ZAR  HN ES   1    6 0 21.03                             122    -0.2 6  207 292 
 NOR  SZ EP   1    559 58.39                             119    -0.3 6  236 235 
 NOR  SN ES   1    6 0 26.31                             119    -0.4 6  236 235 
 CHI  HZ EP   1    6 0  0.63                             118     0.2 6  248 196 
 CHI  HN ES   1    6 0 29.41                             118    -0.4 6  248 196 
 CHI  HZ I         6 0 38.06        14.5 0.53                           248 196 
 ROSC BZ EP   1    6 0  1.29                             117     0.4 6  252 212 
 TOL  SZ EP   1    6 0 11.90                             109     0.8 5  344 225 
 PAL  HZ EP   1    6 0 17.67                             106    -0.4 4  407 239 
