 2017 11 8 0627 23.3 L   6.761 -73.213151.6  RSN  4 0.1 1.1LRSN                1
 GAP=225        0.32       3.0     2.9  4.0  0.4987E+01 -0.1385E+01  0.1062E+01E
 Epicentro: ZAPATOCA - SANTANDER                                               3
 ACTION:UPD 17-12-12 19:53 OP:rebc STATUS:               ID:20171108062723 L   I
 OLDACT:DUP 17-11-08 16:26 OP:dnl  STATUS:               ID:20171108061737d    3
 2017-11-08-0618-00M.COL___393                                                 6
 STAT SP IPHASW D HRMM SECON CODA AMPLIT PERI AZIMU VELO AIN AR TRES W  DIS CAZ7
 BAR2 EZ EP   2    627 43.31                             173   -0.22 5 19.0 170 
 BAR2 EZ I         628  2.06         6.3 0.46            169           19.0 170 
 BRR  HZ EP   2    627 44.70                             155   -0.14 5 67.1 305 
 BRR  HN ES        628  1.70                             155    0.0410 67.1 305 
 BRR  HZ I         628  5.31         2.4 0.32            147           67.1 305 
 RUS  HZ EP        627 47.45                             146    0.0910 97.1 171 
 RUS  HN ES        628  6.13                             146   -0.0210 97.1 171 
 RUS  HZ I         628 10.13         0.9 0.32            142           97.1 171 
 PTB  HZ EP   2    627 50.12                             135    0.11 5  140 260 
 PTB  HE ES        628 10.81                             135   -0.06 9  140 260 
 PTB  HZ I         628 18.16         0.9 0.32            130            140 260 
                                                                                
