 2015  6 8 0035 42.5 L   6.801 -73.109148.3  RSN 18 0.4 2.3LRSN                1
 GAP=122        0.93       2.1     3.1  4.8 -0.3808E+00  0.3809E+01  0.2110E+01E
 Epicentro: LOS SANTOS - SANTANDER                                             3
 ACTION:UPD 15-09-10 22:10 OP:cam  STATUS:               ID:20150608003542 L   I
 OLDACT:REG 15-06-08 11:59 OP:drio STATUS:               ID:20150608002748     3
 2015-06-08-0027-48M.COL___297                                                 6
 STAT SP IPHASW D HRMM SECON CODA AMPLIT PERI AZIMU VELO AIN AR TRES W  DIS CAZ7
 BAR2 EZ EP     C  036  2.65                             170    0.2210 24.5 199 
 BAR2 EZ I         036 18.83        45.7 0.18            169           24.5 199 
 BRR  HZ EP        036  4.53                             152    0.4310 74.8 297 
 BRR  HN ES        036 21.61                             152    0.6510 74.8 297 
 BRR  HZ I         036 24.76        20.5 0.12            152           74.8 297 
 PAM  SZ EP        036  5.06                             152    0.2510 74.8  37 
 PAM  SE ES        036 21.93                             152   -0.3010 74.8  37 
 PAM  SZ I         036 25.24        18.8 0.38            156           74.8  37 
 RUS  HZ EP        036  6.66                             144    0.1910  100 178 
 RUS  HN ES        036 25.23                             144    0.0510  100 178 
 RUS  HZ I         036 26.33        17.0 0.34            146            100 178 
 OCA  HZ EP        036 11.35                             130    0.32 9  161 352 
 OCA  HE ES        036 33.07                             130   -0.22 9  161 352 
 OCA  HZ I         036 40.28        32.6 0.28            133            161 352 
 SPBC HZ EP        036 11.60                             129    0.18 9  166 220 
 SPBC HE ES        036 33.63                             129   -0.37 9  166 220 
 SPBC HZ I         036 39.93        31.7 0.22            131            166 220 
 ZAR  HZ EP        036 15.19                             122   -0.28 8  208 292 
 ZAR  HN ES        036 40.90                             122   -0.31 8  208 292 
 ZAR  HZ I         036 49.00        14.4 0.12            124            208 292 
 NOR  HZ EP        036 19.07                             119    0.35 8  238 235 
 NOR  HN ES        036 46.29                             119   -0.69 8  238 235 
 NOR  HZ I         036 51.99        18.9 0.50            121            238 235 
 SML  HZ EP        036 19.19                             118   -0.23 8  245 334 
 SML  HN ES        036 47.48                             118   -0.76 8  245 334 
 SML  HZ I         036 51.30        19.4 0.28            120            245 334 
 CHI  HZ EP        036 20.81                             118    0.36 8  250 196 
 CHI  HN ES        036 50.50                             118    0.44 8  250 196 
 CHI  HZ I         036 56.97         7.0 0.28            120            250 196 
 HEL  HZ EP        036 23.24                             115   -0.02 7  276 256 
 HEL  HN ES        036 54.99                             115   -0.08 7  276 256 
 HEL  HZ I         037  3.30         9.5 0.56            117            276 256 
 URE  HZ EP   4    036 22.83                             114   -1.26 0  288 292 
 URE  HE ES   4    036 54.36                             114   -2.18 0  288 292 
 URE  HZ I         036 56.08        10.1 0.10            116            288 292 
 GUY2CHZ EP        036 26.69                             113    0.10 7  305 235 
 GUY2CHN ES        037  1.00                             113    0.01 7  305 235 
 GUY2CHZ I         037  9.21        18.6 0.34                           305 235 
 PTGC HZ EP        036 25.45                             112   -0.84 7  307 159 
 PTGC HN ES        036 59.46                             112   -1.01 7  307 159 
 CBOC HZ EP        036 30.51                             110    0.56 7  338 252 
 CBOC HE ES        037  6.58                             110   -0.39 7  338 252 
 CBOC HZ I         037 16.19         3.3 0.52            112            338 252 
 TOL  SZ EP        036 32.00                             110    0.83 6  346 225 
 TOL  SE ES        037  8.97                             110   -0.19 6  346 225 
 TOL  SZ I         037 19.17        10.4 0.46            111            346 225 
 MON  HZ EP        036 31.84                             109   -0.10 6  357 308 
 MON  HN ES   4    037  8.76                             109   -1.76 0  357 308 
 MON  HZ I         037 10.90         2.7 0.62            111            357 308 
 PRA  HZ EP        036 36.36                             107    0.03 6  394 210 
 PRA  HE ES        037 18.19                             107   -0.15 6  394 210 
 PRA  HZ I         037 25.18         9.6 0.28            109            394 210 
                                                                                
