 2010  9 8 0223 59.7 L   6.804 -73.101149.9  RSN  4 0.1 1.7LRSN                1
 GAP=187        0.46       6.2    15.5 12.3  0.6837E+02 -0.1393E+03 -0.5576E+02E
 Epicentro: LOS SANTOS - SANTANDER                                             3
 ACTION:UP  11-02-18 11:01 OP:tino STATUS:               ID:20100908022359 L   I
 2010-09-08-0222-22S.COL___120                                                 6
 STAT SP IPHASW D HRMM SECON CODA AMPLIT PERI AZIMU VELO SNR AR TRES W  DIS CAZ7
 BTL  SZ IP        224 20.07                             171     0.210   22 305 
 BRR  HZ EP   1    224 21.61                             152     0.0 7   75 297 
 BRR  HZ I         224 23.53        11.3 0.14                            75 297 
 BRR  HN ES   2    224 38.49                             152    -0.1 5   75 297 
 RUS  HZ EP   1    224 23.83                             145    -0.1 7  101 179 
 RUS  HN ES   2    224 42.57                             145    -0.2 5  101 179 
 RUS  HZ I         224 43.43         3.2 0.28                           101 179 
 OCA  SZ EP        224 28.26                             131    -0.1 9  161 351 
 OCA  SZ I         224 54.05        12.1 0.23                           161 351 
                                                                                
