 2012  9 8 0331 20.7 L   6.651 -73.274142.7  RSN  4 0.3 1.2LRSN                1
 GAP=210        0.66       6.9     6.9  8.8  0.2920E+02  0.2383E+01 -0.3309E+00E
 Epicentro: GALAN - SANTANDER                                                  3
 ACTION:UPD 12-10-22 14:17 OP:ep   STATUS:               ID:20120908033120 L   I
 2012-09-08-0330-00M.COL___227                                                 6
 STAT SP IPHASW D HRMM SECON CODA AMPLIT PERI AZIMU VELO AIN AR TRES W  DIS CAZ7
 BRR  HZ EP   1    331 41.11                             152   -0.38 7 69.9 316 
 BRR  HN ES   1    331 57.95                             152    0.29 7 69.9 316 
 RUS  HZ EP   1    331 43.73                             147    0.52 7 86.5 166 
 RUS  HZ I         331 56.53         1.7 0.34                          86.5 166 
 RUS  HN ES   1    332  0.36                             147   -0.38 7 86.5 166 
 PTB  HZ EP   1    331 45.96                             135   -0.04 7  131 265 
 PTB  HN ES   1    332  5.82                             135    0.12 7  131 265 
 ZAR  HN ES   2    332 16.69                             122   -0.37 4  198 298 
 ZAR  HZ I         332 23.41         2.5 0.10                           198 298 
                                                                                
