 2016  6 8 0147 58.1 L   6.836 -73.113148.0  RSN 10 0.5 1.9LRSN                1
 GAP=139        1.11       4.2     6.1  7.8 -0.7727E+01  0.1448E+02  0.7040E+01E
 Epicentro: LOS SANTOS - SANTANDER                                             3
 ACTION:UPD 16-07-21 22:16 OP:rebc STATUS:               ID:20160608014758 L   I
 OLDACT:UP  16-06-08 14:53 OP:dani STATUS:               ID:20160608013740     3
 OLDACT:REG 16-06-08 12:36 OP:dani STATUS:               ID:20160608013740     3
 2016-06-08-0137-40M.COL___337                                                 6
 STAT SP IPHASW D HRMM SECON CODA AMPLIT PERI AZIMU VELO AIN AR TRES W  DIS CAZ7
 BAR2 EZ EP     C  148 17.83                             169   -0.2210 28.0 196 
 BAR2 EZ I         148 33.87        18.3 0.20                          28.0 196 
 PAM  EZ EP        148 20.82                             153    0.6210 72.0  39 
 PAM  EN ES        148 37.75                             153    0.2810 72.0  39 
 PAM  EZ I         148 39.73        12.7 0.52                          72.0  39 
 BRR  HZ EP        148 19.71                             153    0.1910 72.7 294 
 BRR  HN ES        148 36.64                             153    0.3710 72.7 294 
 BRR  HZ I         148 39.91        13.0 0.18                          72.7 294 
 RUS  HZ EP        148 21.87                             143   -0.4310  104 178 
 RUS  HN ES        148 41.03                             143   -0.1810  104 178 
 RUS  HZ I         148 41.50         6.9 0.28                           104 178 
 PTB  HZ EP        148 24.69                             132   -0.91 9  152 258 
 PTB  HN ES   4    148 45.18                             132   -1.90 0  152 258 
 PTB  HZ I         148 53.81         8.9 0.16                           152 258 
 OCA  HN ES        148 47.51                             131   -0.67 9  157 352 
 SPBC HE ES        148 50.09                             129    0.10 9  169 219 
 NOR  HZ EP        148 34.29                             118   -0.18 8  240 234 
 NOR  HE ES        149  3.02                             118    0.14 8  240 234 
 NOR  HZ I         149  8.68         8.1 0.20                           240 234 
 CHI  HE ES   4    149  7.84                             117    1.54 0  253 196 
 HEL  HZ EP        148 39.77                             115    0.89 7  277 255 
 HEL  HN ES   4    149 11.60                             115    0.88 0  277 255 
 HEL  HZ I         149 16.17         5.6 0.30                           277 255 
 PRA  HZ EP        148 52.41                             107    0.15 6  397 210 
 PRA  HE ES        149 34.84                             107    0.29 6  397 210 
 PRA  HZ I         149 40.70         4.6 0.26                           397 210 
                                                                                
