 2012  1 8 0851 16.3 L   7.063 -73.474117.9  RSN  5 0.3 1.6LRSN                1
 GAP=150        0.57       5.8     3.5  5.9 -0.9890E+01 -0.1973E+01  0.7844E+01E
 Epicentro: SAN VICENTE DE CHUCURI - SANTANDER                                 3
 ACTION:UP  12-02-03 08:15 OP:REBC STATUS:               ID:20120108085116 L   I
 2012-01-08-0850-00M.COL___186                                                 6
 STAT SP IPHASW D HRMM SECON CODA AMPLIT PERI AZIMU VELO SNR AR TRES W  DIS CAZ7
 BRR  HZ EP        851 32.52                             166     0.210   27 281 
 BRR  HZ I         851 32.72        10.6 0.15                            27 281 
 BRR  HE ES   1    851 45.15                             166     0.3 7   27 281 
 GIR2 SZ EP   1    851 32.59                             164    -0.1 7   31  87 
 GIR2 SZ ES   2    851 44.93                             164    -0.5 5   31  87 
 PAM  SZ EP   1    851 37.10                             140     0.4 7   91  70 
 PAM  SN ES   2    851 52.13                             140    -0.4 5   91  70 
 PTB  HZ EP        851 38.58                             130    -0.210  123 242 
 PTB  HN ES        851 56.24                             130    -0.110  123 242 
 RUS  HZ EP   2    851 40.61                             128    -0.1 5  136 162 
 RUS  HE ES   2    851 59.95                             128     0.2 5  136 162 
                                                                                
