 2012  8 8 0333  6.0 L   6.795 -73.128146.2  RSN  6 0.3 1.8LRSN                1
 GAP=139        0.59       5.2     3.4  5.5 -0.1929E+01  0.2221E+01  0.5217E+01E
 Epicentro: LOS SANTOS - SANTANDER                                             3
 ACTION:UPD 12-09-10 11:55 OP:ep   STATUS:               ID:20120808033306 L   I
 2012-08-08-0330-00M.COL___216                                                 6
 STAT SP IPHASW D HRMM SECON CODA AMPLIT PERI AZIMU VELO AIN AR TRES W  DIS CAZ7
 BAR2 SZ EP   1    333 25.30                             171   -0.36 7 23.2 195 
 BAR2 SZ ES   1    333 41.20                             171    0.19 7 23.2 195 
 BAR2 SZ I         333 43.08        13.8 0.11                          23.2 195 
 BRR  HZ EP        333 27.51                             152    0.2310 73.2 298 
 BRR  HN ES   1    333 44.24                             152    0.33 7 73.2 298 
 BRR  HZ I         333 46.74         9.3 0.19                          73.2 298 
 PAM  SZ EP        333 28.35                             151    0.1610 76.6  38 
 PAM  SN ES   1    333 45.05                             151   -0.47 7 76.6  38 
 RUS  HZ EP   1    333 29.83                             144    0.11 7 99.9 177 
 PTB  HZ EP        333 33.05                             132   -0.09 9  150 259 
 PTB  HN ES   1    333 54.01                             132   -0.33 7  150 259 
 PTB  HZ I         333 55.48         5.7 0.28                           150 259 
 ZAR  HE ES   1    334  4.05                             122   -0.10 6  206 292 
 ZAR  HZ I         334  9.09         6.5 0.08                           206 292 
                                                                                
