 2013 11 8 0836  9.3 L   6.789 -73.123139.6  RSN  8 0.5 1.3LRSN                1
 GAP=140        1.21       4.7     6.0  8.8  0.1066E+01  0.1092E+02 -0.1239E+01E
 Epicentro: LOS SANTOS - SANTANDER                                             3
 ACTION:UPD 14-01-09 16:26 OP:ep   STATUS:               ID:20131108083609 L   I
 OLDACT:REG 13-11-08 07:40 OP:jn   STATUS:               ID:20131108083000     3
 2013-11-08-0830-00M.COL___273                                                 6
 STAT SP IPHASW D HRMM SECON CODA AMPLIT PERI AZIMU VELO AIN AR TRES W  DIS CAZ7
 BAR2 SZ EP        836 28.36                             170    0.2110 22.8 197 
 BAR2 SZ ES        836 43.11                             170    0.2310 22.8 197 
 BAR2 SZ I         836 45.64         9.5 0.50            170           22.8 197 
 BRR  HZ EP        836 30.25                             150    0.3210 74.0 298 
 BRR  HN ES        836 46.80                             150    0.7710 74.0 298 
 BRR  HZ I         836 48.82         4.3 0.16            148           74.0 298 
 PAM  SZ EP        836 31.38                             150    0.5810 76.7  38 
 PAM  SE ES        836 46.74                             150   -0.8510 76.7  38 
 PAM  SZ I         836 50.38         3.2 0.56            153           76.7  38 
 RUS  HZ EP        836 32.45                             143    0.1210 99.3 177 
 RUS  HN ES        836 50.14                             143   -0.1710 99.3 177 
 RUS  HZ I         836 51.57         1.3 0.24            146           99.3 177 
 PTB  HZ EP        836 35.40                             130   -0.56 9  150 259 
 PTB  HN ES   1    836 56.01                             130   -0.76 7  150 259 
 PTB  HZ I         837  0.57         3.0 0.14            130            150 259 
 OCA  HE ES        836 58.65                             128   -0.43 9  162 352 
 OCA  HZ I         837  2.85         3.2 0.18            129            162 352 
 ZAR  HN ES   1    837  6.72                             121   -0.12 6  207 292 
 ZAR  HZ I         837 15.34         2.9 0.60            121            207 292 
 SML  HE ES   2    837 14.58                             116    0.30 4  246 335 
                                                                                
