 2016 11 8 0451 40.6 L   7.028 -73.357 10.1  RSN  6 0.2 1.2LRSN                1
 GAP=137        0.64       1.9     1.3  4.1 -0.1102E+00  0.1518E+01 -0.2295E+01E
 Epicentro: BETULIA - SANTANDER                                                3
 ACTION:UPD 17-10-26 21:05 OP:lp   STATUS:               ID:20161108045140 L   I
 OLDACT:REG 16-11-08 12:20 OP:lv   STATUS:               ID:20161108044748     3
 2016-11-08-0448-00M.COL___349                                                 6
 STAT SP IPHASW D HRMM SECON CODA AMPLIT PERI AZIMU VELO AIN AR TRES W  DIS CAZ7
 BRR  HZ EP        451 47.01                             100   -0.3910 40.1 283 
 BRR  HE ES        451 52.70                             100    0.0410 40.1 283 
 BRR  HZ I         451 53.54         9.1 0.14             47           40.1 283 
 BAR2 EZ EP        451 49.43                              98    0.0310 51.9 158 
 BAR2 EZ ES        451 56.08                              98   -0.1610 51.9 158 
 BAR2 EZ I         451 56.72         8.5 0.14             47           51.9 158 
 PAM  EZ EP        451 53.93                              95   -0.0410 80.4  65 
 PAM  EN ES        452  4.42                              95    0.0610 80.4  65 
 PAM  EZ I         452  5.57         2.7 0.12             47           80.4  65 
 PTB  HZ EP        452  1.75                              93    0.3310  133 246 
 PTB  HE ES        452 17.68                              93    0.0610  133 246 
 PTB  HZ I         452 20.30         6.8 0.30             47            133 246 
 SPBC HN ES   4    452 31.26                              56    3.85 0  171 208 
 SPBC HZ I         452 34.53         4.7 0.13             47            171 208 
 ZAR  HZ EP        452  7.51                              56    0.43 9  174 287 
 ZAR  HN ES        452 27.38                              56   -0.31 9  174 287 
 ZAR  HZ I         452 29.60         5.3 0.28             47            174 287 
                                                                                
