 2014  6 8 0631 19.8 L   6.849 -73.175136.0  RSN  8 0.5 1.5LRSN                1
 GAP=180        1.14       4.4     6.9  8.8 -0.3290E+01  0.2508E+02 -0.5188E+00E
 Epicentro: ZAPATOCA - SANTANDER                                               3
 ACTION:UPD 14-07-01 22:52 OP:nd   STATUS:               ID:20140608063119 L   I
 OLDACT:REG 14-06-08 13:13 OP:fm   STATUS:               ID:20140608062810     3
 2014-06-08-0628-10M.COL___253                                                 6
 STAT SP IPHASW D HRMM SECON CODA AMPLIT PERI AZIMU VELO AIN AR TRES W  DIS CAZ7
 BAR2 SZ EP        631 38.10                             168   -0.3010 28.4 182 
 BAR2 SZ ES        631 53.48                             168    0.5910 28.4 182 
 BAR2 SZ I         631 54.03         8.9 0.26            164           28.4 182 
 RUS  HZ EP        631 42.86                             140   -0.2010  106 175 
 RUS  HN ES   1    632  0.82                             140   -0.37 7  106 175 
 RUS  HZ I         632  2.53         3.1 0.22            130            106 175 
 PTB  HZ EP        631 44.78                             130   -1.05 9  146 256 
 PTB  HN ES        632  5.93                             130   -0.18 9  146 256 
 PTB  HZ I         632  7.21        12.8 0.92            119            146 256 
 OCA  HN ES        632  8.18                             129    0.27 9  155 354 
 OCA  HZ I         632 12.63         3.9 0.16            118            155 354 
 SPBC HZ EP   1    631 48.02                             127    0.20 7  165 217 
 SPBC HN ES   1    632  9.87                             127    0.22 7  165 217 
 SPBC HZ I         632 14.03         3.6 0.28            116            165 217 
 SML  HE ES   1    632 22.52                             116   -0.33 6  237 335 
 HEL  HZ EP        632  0.11                             113    0.75 8  270 255 
 HEL  HZ I         632 35.97         1.4 0.32            104            270 255 
 GUY2CHZ EP        632  3.84                             111    0.78 7  302 234 
 GUY2CHN ES        632 36.91                             111    0.12 7  302 234 
 GUY2CHZ I         632 44.75         1.4 0.30                           302 234 
                                                                                
