 2010  2 8 0205 31.7 L   6.802 -72.896142.6  RSN  5 0.3 1.9LRSN                1
 GAP=217        0.67       3.9    11.1  8.9 -0.1819E+02  0.7930E+01  0.1110E+02E
 Epicentro: SAN ANDRES - SANTANDER                                             3
 ACTION:UP  10-08-24 09:48 OP:vdl   STATUS:              ID:20100208020531 L   I
 2010-02-08-0204-33S.COL___093                                                 6
 STAT SP IPHASW D HRMM SECON CODA AMPLIT PERI AZIMU VELO SNR AR TRES W  DIS CAZ7
 BAR2 SZ EP        2 5 51.73                             164     0.410   39 234 
 BAR2 SZ ES   2    2 6  6.14                             164    -0.6 5   39 234 
 OCA  SZ EP   1    2 6  0.07                             128    -0.2 7  166 344 
 OCA  SZ ES   1    2 6 22.45                             128    -0.1 7  166 344 
 CHI  HZ EP        2 6 10.11                             116     0.0 8  257 201 
 CHI  HN ES   1    2 6 40.22                             116     0.1 6  257 201 
 CHI  HZ I         2 6 47.16         2.7 0.44                           257 201 
 RREF BE ES   1    2 6 58.17                             109     0.2 5  343 232 
 RREF BZ I         2 7  5.69         3.4 0.38                           343 232 
 PRA  HZ EP   1    2 6 25.91                             105    -0.9 4  406 213 
 PRA  HE ES   1    2 7  9.65                             105    -0.1 4  406 213 
 PRA  HZ I         2 7 12.39         3.9 0.40                           406 213 
                                                                                
