 2010 12 8 0451 43.8 L   6.792 -73.145145.5  RSN 17 0.5 2.8LRSN                1
 GAP=136        0.96       3.9     6.9  7.1 -0.1381E+02  0.8961E+01  0.5356E+01E
 Epicentro: LOS SANTOS - SANTANDER                                             3
 ACTION:UP  11-01-14 15:23 OP:pat  STATUS:               ID:20101208045143 L   I
 2010-12-08-0449-30S.COL___135                                                 6
 STAT SP IPHASW D HRMM SECON CODA AMPLIT PERI AZIMU VELO SNR AR TRES W  DIS CAZ7
 BTL  SZ EP        452  3.50                             172     0.110   19 316 
 BAR2 SZ IP        452  3.21                             171    -0.210   23 191 
 BAR2 SZ ES   1    452 18.54                             171    -0.2 7   23 191 
 BAR2 SZ I         452 19.84       125.1 0.29                            23 191 
 GIR2 SZ EP   1    452  3.30                             167    -0.2 7   32 350 
 GIR2 SZ ES   2    452 19.34                             167     0.5 5   32 350 
 GUE  SZ EP        452  8.24                             139    -0.310  117  12 
 GRA  SZ IP        452 10.03                             137     0.910  127  17 
 GRA  SZ ES   1    452 28.97                             137     0.1 7  127  17 
 GRA  SZ I         452 30.98        75.3 0.40                           127  17 
 OCA  SZ EP        452 11.64                             129    -0.6 9  161 353 
 OCA  SZ ES   2    452 33.92                             129    -0.4 5  161 353 
 OCA  SZ I         452 40.00        99.9 0.23                           161 353 
 YOP  SZ EP        452 13.62                             126    -0.2 9  178 153 
 YOP  SZ I         452 14.21        31.6 0.16                           178 153 
 NOR  SZ EP   1    452 19.29                             118    -0.2 6  234 235 
 NOR  SE ES   1    452 46.71                             118    -0.6 6  234 235 
 CHI  HZ EP   1    452 21.05                             117    -0.4 6  248 195 
 CHI  HE ES   1    452 50.53                             117    -0.2 6  248 195 
 CHI  HZ I         452 56.84        28.5 0.71                           248 195 
 ROSC BZ EP        452 22.79                             117     0.9 8  252 211 
 ROSC BE ES   2    452 51.93                             117     0.4 4  252 211 
 ROSC BZ I         453  1.21        65.9 0.54                           252 211 
 HEL  HZ EP   2    452 24.52                             115     0.5 4  272 256 
 HEL  HZ I         453  2.01        26.5 0.35                           272 256 
 VIL  SE ES   2    453  0.96                             112     0.4 4  301 190 
 GUY  SZ EP   2    452 27.94                             112     0.5 4  301 235 
 GUY  SE ES   2    453  1.57                             112     0.2 4  301 235 
 VIL  SZ EP   2    452 26.02                             112    -0.9 4  301 190 
 VIL  SZ I         453 11.98        23.8 0.37                           301 190 
 RREF HZ EP   1    452 29.89                             111     0.0 5  321 229 
 RREF HN ES   2    453  6.28                             111     0.4 3  321 229 
 RREF HZ I         453 12.76        43.3 0.19                           321 229 
 DBB  SZ EP   2    452 31.49                             109     0.2 3  340 274 
 TOL  SZ EP   1    452 32.53                             109     0.5 5  343 225 
 PRA  HZ EP   1    452 36.50                             106    -0.8 4  391 210 
 PRA  HN ES   2    453 18.96                             106     0.0 3  391 210 
                                                                                
