 2012  4 8 0848 38.9 L   6.748 -73.100156.5  RSN  5 0.3 1.3LRSN                1
 GAP=145        0.71       5.4     6.5  9.1 -0.2358E+01 -0.3984E+01  0.5863E+01E
 Epicentro: LOS SANTOS - SANTANDER                                             3
 ACTION:UPD 12-07-05 11:51 OP:tino STATUS:               ID:20120408084838 L   I
 2012-04-08-0846-59S.COL___204                                                 6
 STAT SP IPHASW D HRMM SECON CODA AMPLIT PERI AZIMU VELO AIN AR TRES W  DIS CAZ7
 BAR2 SZ EP   1    848 59.80                             173     0.0 7   19 208 
 BAR2 SZ I         849  1.23         6.4 0.66                            19 208 
 BRR  HZ EP   1    849  1.73                             152     0.1 7   78 300 
 BRR  HZ I         849  2.06         5.5 0.11                            78 300 
 BRR  HN ES   1    849 19.64                             152     0.3 7   78 300 
 PAM  SZ EP   1    849  2.73                             152     0.3 7   79  34 
 PAM  SZ I         849  2.85         2.3 0.20                            79  34 
 PAM  SN ES   1    849 20.30                             152    -0.4 7   79  34 
 RUS  HZ EP   1    849  3.02                             148    -0.3 7   95 179 
 RUS  HN ES   1    849 22.59                             148     0.2 7   95 179 
 RUS  HZ I         849 23.71         1.6 0.31                            95 179 
 PTB  HN ES   2    849 28.55                             133    -0.6 5  152 261 
                                                                                
