 2012  7 8 0825  9.6 L   6.794 -73.132136.0  RSN  5 0.4 1.6LRSN                1
 GAP=184        0.79       5.1     8.7  9.9  0.1671E+02  0.3555E+02 -0.1550E+00E
 Epicentro: LOS SANTOS - SANTANDER                                             3
 ACTION:UPD 12-08-14 11:43 OP:ep   STATUS:               ID:20120708082509 L   I
 2012-07-08-0820-00M.COL___201                                                 6
 STAT SP IPHASW D HRMM SECON CODA AMPLIT PERI AZIMU VELO AIN AR TRES W  DIS CAZ7
 BAR2 SZ EP   1    825 28.01                             170     0.0 7   23 194 
 BAR2 SZ ES   1    825 42.95                             170     0.5 7   23 194 
 BAR2 SZ I         825 45.57        11.9 0.48                            23 194 
 RUS  HZ EP   1    825 32.16                             142    -0.2 7  100 177 
 RUS  HN ES   1    825 49.67                             142    -0.4 7  100 177 
 RUS  HZ I         825 52.11         5.7 0.39                           100 177 
 OCA  HN ES   1    825 58.68                             127    -0.1 7  161 353 
 ZAR  HN ES   1    826  6.20                             120    -0.3 6  206 292 
 HEL  HZ EP   1    825 50.03                             113     0.6 6  273 256 
 HEL  HZ I         826 26.78         1.9 0.36                           273 256 
