 2013  2 8 0012 26.2 L   6.818 -73.152144.0  RSN  8 0.5 2.0LRSN                1
 GAP=135        1.07       3.8     5.3  8.4  0.5805E+00  0.9596E+01  0.7846E+01E
 Epicentro: LOS SANTOS - SANTANDER                                             3
 ACTION:UPD 13-03-12 09:31 OP:ep   STATUS:               ID:20130208001226 L   I
 2013-02-08-0010-00M.COL___240                                                 6
 STAT SP IPHASW D HRMM SECON CODA AMPLIT PERI AZIMU VELO AIN AR TRES W  DIS CAZ7
 BAR2 SZ EP   1    012 45.40                             170   -0.28 7 25.1 188 
 BAR2 SZ I         013  1.87        17.4 0.36            169           25.1 188 
 BRR  HZ EP        012 47.22                             153    0.1310 69.6 297 
 BRR  HN ES        013  3.83                             153    0.4610 69.6 297 
 BRR  HN I         013  4.65        46.6 0.22            152           69.6 297 
 PAM  SZ IP     C  012 48.39                             151    0.2010 76.4  41 
 PAM  SN ES        013  5.15                             151   -0.1710 76.4  41 
 PAM  SN I         013  7.00        11.6 0.46            150           76.4  41 
 RUS  HZ EP        012 49.56                             143   -0.3910  103 176 
 RUS  HE ES        013  8.54                             143    0.0910  103 176 
 RUS  HE I         013 10.19         7.2 0.50            141            103 176 
 PTB  HZ EP        012 52.25                             132   -0.77 9  147 258 
 PTB  HN ES   1    013 13.20                             132   -0.71 7  147 258 
 PTB  HN I         013 15.80        15.5 0.20            130            147 258 
 OCA  HN ES        013 15.98                             130   -0.05 9  158 353 
 ZAR  HZ EP   1    012 59.66                             122    1.25 6  203 292 
 ZAR  HN ES   1    013 23.43                             122   -0.08 6  203 292 
 ZAR  HN I         013 30.47        11.9 0.20            121            203 292 
 CHI  HZ EP   1    013  4.02                             117    0.01 6  250 195 
 CHI  HN ES        013 34.12                             117    0.64 8  250 195 
 CHI  HN I         013 35.97         7.2 0.30            115            250 195 
                                                                                
