 2014  5 8 0641 24.8 L   6.818 -73.172140.9  RSN  8 0.5 1.6LRSN                1
 GAP=132        1.12       3.5     4.5  8.6 -0.1190E+01  0.1405E+02  0.4265E+01E
 Epicentro: LOS SANTOS - SANTANDER                                             3
 ACTION:UPD 15-03-16 16:56 OP:nd   STATUS:               ID:20140508064124 L   I
 OLDACT:REG 14-05-08 13:13 OP:carl STATUS:               ID:20140508063816     3
 2014-05-08-0638-16M.COL___233                                                 6
 STAT SP IPHASW D HRMM SECON CODA AMPLIT PERI AZIMU VELO AIN AR TRES W  DIS CAZ7
 PAM  SZ EP        641 46.71                             150    0.2010 77.8  42 
 PAM  SN ES        642  3.61                             150    0.1510 77.8  42 
 PAM  SZ I         642  5.51        10.9 0.52            156           77.8  42 
 RUS  HZ EP        641 48.38                             142    0.1610  103 174 
 RUS  HE ES        642  6.76                             142    0.2610  103 174 
 RUS  HZ I         642  8.53         3.5 0.36            143            103 174 
 PTB  HZ EP        641 50.56                             131   -0.57 9  145 258 
 PTB  HN ES        642 11.14                             131   -0.54 9  145 258 
 PTB  HZ I         642 14.96         5.3 0.16            132            145 258 
 OCA  HE ES        642 13.48                             129   -0.64 9  158 354 
 SPBC HZ EP        641 52.87                             128   -0.01 9  163 218 
 SPBC HE ES        642 15.02                             128    0.22 9  163 218 
 SPBC HZ I         642 20.45         4.3 0.24            129            163 218 
 ZAR  HZ EP        641 57.23                             122    0.68 9  201 292 
 ZAR  HN ES        642 21.81                             122    0.48 9  201 292 
 ZAR  HZ I         642 23.98         3.1 0.24            124            201 292 
 CHI  HZ EP        642  1.41                             116   -0.93 8  250 194 
 CHI  HN ES        642 31.47                             116   -0.16 8  250 194 
 CHI  HZ I         642 39.55         1.7 0.34            118            250 194 
 HEL  HZ EP        642  5.31                             114    0.82 8  270 255 
 HEL  HN ES        642 35.32                             114   -0.14 8  270 255 
 HEL  HZ I         642 43.56         2.8 0.38            116            270 255 
                                                                                
