 2017 11 8 0209 25.9 L   6.773 -73.107146.7  RSN  8 0.4 1.5LRSN                1
 GAP=143        0.97       4.2     4.7  8.0 -0.2880E+01  0.1054E+02  0.4368E+01E
 Epicentro: LOS SANTOS - SANTANDER                                             3
 ACTION:UPD 17-12-12 19:53 OP:rebc STATUS:               ID:20171108020925 L   I
 OLDACT:UP  17-11-08 15:45 OP:dnl  STATUS:               ID:20171108020737     3
 OLDACT:REG 17-11-08 14:53 OP:dnl  STATUS:               ID:20171108020737     3
 2017-11-08-0208-00M.COL___417                                                 6
 STAT SP IPHASW D HRMM SECON CODA AMPLIT PERI AZIMU VELO AIN AR TRES W  DIS CAZ7
 BRR  HZ EP        2 9 47.45                             151    0.0310 76.4 299 
 BRR  HE ES        210  4.58                             151    0.3510 76.4 299 
 BRR  HZ I         210 11.52         8.0 0.38            149           76.4 299 
 PAM  EZ EP        2 9 48.34                             151    0.1610 77.1  36 
 PAM  EN ES        210  5.46                             151   -0.1110 77.1  36 
 PAM  EZ I         210  6.91         2.4 0.20            156           77.1  36 
 RUS  HZ EP        2 9 49.70                             145    0.2110 97.4 178 
 RUS  HN ES        210  7.43                             145   -0.4810 97.4 178 
 RUS  HZ I         210  8.94         2.3 0.32            149           97.4 178 
 PTB  HZ EP        2 9 52.67                             132   -0.58 9  151 260 
 PTB  HN ES   4    210 13.25                             132   -1.35 0  151 260 
 PTB  HZ I         210 17.93         2.4 0.10            132            151 260 
 SPBC HZ EP   2    2 9 54.28                             129   -0.21 5  164 221 
 SPBC HE ES        210 17.68                             129    0.88 9  164 221 
 SPBC HZ I         210 21.06         5.4 0.40            132            164 221 
 ZAR  HZ EP   4    210  1.35                             122    2.44 0  209 292 
 ZAR  HE ES        210 24.44                             122   -0.23 8  209 292 
 ZAR  HZ I         210 29.96         3.6 0.28            124            209 292 
 NOR  HZ EP   2    210  1.99                             119    0.14 4  236 236 
 NOR  HE ES        210 29.42                             119   -0.49 8  236 236 
 NOR  HZ I         210 35.84         2.6 0.18            121            236 236 
 GUY2CHZ EP   2    210 10.62                             112    0.89 4  303 236 
 GUY2CHE ES   4    210 47.10                             112    3.16 0  303 236 
 GUY2CHZ I         210 52.15         1.7 0.34                           303 236 
                                                                                
