 2010  7 8 0329 29.1 L   6.712 -73.193155.0  RSN  4 0.1 1.3LRSN                1
 GAP=154        0.38       4.3     8.4  6.1  0.1539E+02 -0.2227E+02 -0.1097E+02E
 Epicentro: VILLANUEVA - SANTANDER                                             3
 ACTION:UPD 10-12-01 15:16 OP:pat  STATUS:               ID:20100708032929 L   I
 2010-07-08-0327-37S.COL___117                                                 6
 STAT SP IPHASW D HRMM SECON CODA AMPLIT PERI AZIMU VELO AIN AR TRES W  DIS CAZ7
 BAR2 SZ EP   1    329 49.39                             175    -0.3 7   13 176 
 BAR2 SZ ES   2    330  5.66                             175     0.0 5   13 176 
 BRR  HZ EP   1    329 51.22                             154     0.0 7   72 307 
 BRR  HZ I         329 51.34         3.9 0.16                            72 307 
 BRR  HN ES   2    330  8.74                             154     0.2 5   72 307 
 RUS  HZ EP   1    329 53.29                             148     0.2 7   91 172 
 RUS  HE ES   2    330 11.90                             148     0.0 5   91 172 
 GRA  SZ EP   1    329 56.13                             136     0.1 7  137  18 
                                                                                
