 2014  7 8 0404 11.2 L   6.816 -73.167146.4  RSN  6 0.3 1.6LRSN                1
 GAP=190        0.75       3.3     4.6  6.4 -0.2954E+01  0.8623E+01  0.1617E+01E
 Epicentro: LOS SANTOS - SANTANDER                                             3
 ACTION:UPD 15-03-16 20:42 OP:nd   STATUS:               ID:20140708040411 L   I
 OLDACT:REG 14-07-08 12:24 OP:stll STATUS:               ID:20140708035818     3
 2014-07-08-0358-18M.COL___259                                                 6
 STAT SP IPHASW D HRMM SECON CODA AMPLIT PERI AZIMU VELO AIN AR TRES W  DIS CAZ7
 BAR2 SZ EP        4 4 30.71                             170   -0.2310 24.8 184 
 BAR2 SZ I         4 4 31.20         5.2 0.38            167           24.8 184 
 BAR2 SZ ES        4 4 46.31                             170   -0.0210 24.8 184 
 PTB  HZ EP        4 4 37.91                             132   -0.13 9  146 258 
 PTB  HN ES        4 4 58.38                             132   -0.59 9  146 258 
 PTB  HZ I         4 5  6.19         4.8 0.46            132            146 258 
 OCA  HN ES        4 5  1.56                             130    0.21 9  158 354 
 SPBC HZ EP        4 4 39.98                             129    0.24 9  163 218 
 SPBC HN ES        4 5  2.39                             129    0.40 9  163 218 
 SPBC HZ I         4 5  7.52         6.1 0.14            130            163 218 
 ZAR  HE ES        4 5  8.74                             123    0.24 9  201 292 
 NOR  HZ EP        4 4 46.57                             119   -0.30 8  234 234 
 NOR  HE ES        4 5 14.97                             119    0.28 8  234 234 
 NOR  HZ I         4 5 18.39         2.5 0.34            120            234 234 
                                                                                
