 2013  4 8 0518 56.1 L   6.771 -73.216145.1  RSN  4 0.3 1.5LRSN                1
 GAP=227        0.60       5.8     9.4  6.2  0.3899E+02  0.1481E+01  0.6570E+01E
 Epicentro: ZAPATOCA - SANTANDER                                               3
 ACTION:UPD 13-05-22 14:36 OP:EP   STATUS:               ID:20130408051856 L   I
 2013-04-08-0508-35M.COL___218                                                 6
 STAT SP IPHASW D HRMM SECON CODA AMPLIT PERI AZIMU VELO AIN AR TRES W  DIS CAZ7
 BRR  HZ EP        519 16.68                             154   -0.2410 66.3 304 
 BRR  HN ES        519 33.38                             154    0.2410 66.3 304 
 BRR  HN I         519 34.07         7.6 0.20             47           66.3 304 
 RUS  HZ EP   2    519 19.28                             144   -0.35 5 98.2 171 
 RUS  HE ES        519 37.92                             144   -0.0510 98.2 171 
 PTB  HE ES   2    519 42.29                             133   -0.42 5  140 260 
 PTB  HE I         519 48.12         4.0 0.22             47            140 260 
 CHI  HZ EP        519 33.59                             117    0.36 8  244 194 
 CHI  HE I         520  5.74         1.6 0.34             37            244 194 
                                                                                
