 2017  1 8 0142 40.5 L   6.768 -73.155142.1  RSN  6 0.4 1.4LRSN                1
 GAP=137        0.77       4.5     4.4  7.5  0.3522E+01 -0.5355E+01 -0.3429E+01E
 Epicentro: LOS SANTOS - SANTANDER                                             3
 ACTION:UPD 17-05-22 15:56 OP:jn   STATUS:               ID:20170108014240 L   I
 OLDACT:DUP 17-01-08 14:18 OP:dln  STATUS:               ID:20170108013743d    3
 OLDACT:UP  17-01-08 14:17 OP:dln  STATUS:               ID:20170108013742     3
 OLDACT:REG 17-01-08 12:27 OP:dnl  STATUS:               ID:20170108013742     3
 2017-01-08-0138-00M.COL___374                                                 6
 STAT SP IPHASW D HRMM SECON CODA AMPLIT PERI AZIMU VELO AIN AR TRES W  DIS CAZ7
 BAR2 EZ EP        142 59.56                             172   -0.0710 19.7 189 
 BAR2 EZ ES   2    143 13.64                             172   -0.90 5 19.7 189 
 BAR2 EZ I         143 15.64         7.2 0.26            173           19.7 189 
 BRR  HZ EP     C  143  1.50                             152    0.1910 72.1 301 
 BRR  HN ES        143 18.00                             152    0.4610 72.1 301 
 BRR  HZ I         143 21.55         6.4 0.32            150           72.1 301 
 PAM  EZ EP        143  2.50                             149   -0.0410 80.7  39 
 PAM  EN ES   2    143 19.26                             149   -0.47 5 80.7  39 
 PAM  EZ I         143 21.18         6.4 0.30            151           80.7  39 
 RUS  HZ EP        143  3.58                             144   -0.0710 97.2 175 
 RUS  HN ES        143 22.04                             144    0.3410 97.2 175 
 RUS  HZ I         143 23.63         2.0 0.52            148           97.2 175 
 PTB  HZ EP   2    143  6.46                             132   -0.57 5  146 260 
 PTB  HN ES        143 27.28                             132   -0.43 9  146 260 
 PTB  HZ I         143 29.77         3.5 0.16            132            146 260 
 ZAR  HZ EP   4    143 13.98                             122    1.22 0  204 293 
 ZAR  HN ES   2    143 38.07                             122    0.16 4  204 293 
 ZAR  HZ I         143 43.71         3.9 0.64            122            204 293 
                                                                                
