 2010  8 8 0406  7.0 L   6.787 -73.085143.6  RSN  5 0.3 1.3LRSN                1
 GAP=166        0.53       3.2     6.3  6.4 -0.2904E+01 -0.1405E+02  0.1323E+01E
 Epicentro: LOS SANTOS - SANTANDER                                             3
 ACTION:UP  10-09-07 10:53 OP:vdl  STATUS:               ID:20100808040607 L   I
 2010-08-08-0401-03S.COL___125                                                 6
 STAT SP IPHASW D HRMM SECON CODA AMPLIT PERI AZIMU VELO SNR AR TRES W  DIS CAZ7
 BAR2 SZ ES   2    4 6 41.03                             170    -0.5 5   24 207 
 BAR2 SZ I         4 6 42.58         8.6 0.19                            24 207 
 BRR  HZ EP        4 6 28.19                             150    -0.110   78 297 
 BRR  HE ES   1    4 6 45.03                             150     0.1 7   78 297 
 BRR  HZ I         4 6 48.91         4.3 0.22                            78 297 
 RUS  HZ EP        4 6 30.35                             144     0.010   99 180 
 RUS  HE ES   2    4 6 49.07                             144     0.4 5   99 180 
 RUS  HZ I         4 6 50.14         1.6 0.30                            99 180 
 GUE  SZ EP   3    4 6 32.49                             139     1.0 2  117   9 
 GRA  SZ EP        4 6 31.99                             137     0.010  125  14 
 GRA  SZ ES   1    4 6 51.48                             137     0.0 7  125  14 
 GRA  SZ I         4 6 53.20         2.0 0.47                           125  14 
                                                                                
