 2013  4 8 0751 16.3 L   6.722 -73.125142.1  RSN  5 0.2 1.5LRSN                1
 GAP=168        0.61       6.4     5.4  4.3 -0.2221E+01  0.3578E+00  0.2372E+01E
 Epicentro: JORDAN - SANTANDER                                                 3
 ACTION:UPD 13-05-22 14:36 OP:EP   STATUS:               ID:20130408075116 L   I
 2013-04-08-0748-39M.COL___218                                                 6
 STAT SP IPHASW D HRMM SECON CODA AMPLIT PERI AZIMU VELO AIN AR TRES W  DIS CAZ7
 BAR2 SZ EP        751 35.67                             173    0.2910 15.7 204 
 BAR2 SZ ES        751 50.20                             173   -0.0410 15.7 204 
 BAR2 SZ I         751 51.20        12.7 0.26            173           15.7 204 
 GIR2 SZ EP        751 35.79                             163   -0.0410 40.1 349 
 GIR2 SZ ES        751 50.79                             163   -0.2710 40.1 349 
 GIR2 SZ I         751 51.62         4.4 0.18            164           40.1 349 
 BRR  HZ EP        751 37.66                             150    0.2110 77.6 303 
 BRR  HZ I         751 37.88         7.3 0.10            151           77.6 303 
 BRR  HN ES        751 54.14                             150    0.2010 77.6 303 
 PTB  HZ EP        751 42.70                             131   -0.37 9  149 262 
 CAPV BZ EP   1    751 43.86                             130   -0.07 7  155  35 
                                                                                
