 2017  4 8 0729 33.0 L   6.862 -73.174150.7  RSN  5 0.4 1.5LRSN                1
 GAP=244        0.64       7.0     6.6  6.0  0.8185E+01  0.1152E+02 -0.1756E+01E
 Epicentro: ZAPATOCA - SANTANDER                                               3
 ACTION:UPD 17-05-30 21:09 OP:jn   STATUS:               ID:20170408072933 L   I
 OLDACT:UP  17-05-08 16:47 OP:nlst STATUS:               ID:20170408072933 L   3
 OLDACT:REG 17-04-08 13:01 OP:and  STATUS:               ID:20170408072744     3
 2017-04-08-0728-00M.COL___371                                                 6
 STAT SP IPHASW D HRMM SECON CODA AMPLIT PERI AZIMU VELO AIN AR TRES W  DIS CAZ7
 BAR2 EZ EP        729 53.49                             169    0.1310 29.8 182 
 BAR2 EZ ES        730  9.39                             169    0.1410 29.8 182 
 BAR2 EZ I         730 14.61         9.5 0.89            174           29.8 182 
 RUS  HZ EP        729 57.40                             143   -0.3410  108 175 
 RUS  HN ES        730 16.88                             143   -0.1710  108 175 
 PTB  HZ EP   2    730  0.73                             133    0.50 5  146 256 
 PTB  HN ES   2    730 21.25                             133   -0.22 5  146 256 
 PTB  HZ I         730 24.76         2.9 0.79            136            146 256 
 SPBC HZ EP        730  2.58                             130    0.38 9  167 217 
 SPBC HN ES   2    730 24.64                             130   -0.34 5  167 217 
 ZAR  HN ES   3    730 29.02                             124   -1.33 2  199 291 
                                                                                
