 2010  7 8 0807 15.8 L   6.773 -73.119144.6  RSN  7 0.3 1.6LRSN                1
 GAP=159        0.54       3.3     7.7  6.4 -0.3877E+01 -0.8916E+01 -0.3561E+01E
 Epicentro: LOS SANTOS - SANTANDER                                             3
 ACTION:UPD 10-12-01 15:16 OP:pat  STATUS:               ID:20100708080715 L   I
 2010-07-08-0802-53S.COL___117                                                 6
 STAT SP IPHASW D HRMM SECON CODA AMPLIT PERI AZIMU VELO AIN AR TRES W  DIS CAZ7
 BAR2 SZ EP   1    8 7 35.18                             171     0.0 7   21 200 
 BAR2 SZ ES   2    8 7 49.96                             171    -0.4 5   21 200 
 BRR  HZ EP   1    8 7 37.09                             151     0.0 7   75 299 
 BRR  HE ES   2    8 7 53.97                             151     0.3 5   75 299 
 BRR  HZ I         8 7 55.05        11.0 0.06                            75 299 
 RUS  HZ EP   1    8 7 39.12                             144    -0.1 7   97 178 
 RUS  HN ES   2    8 7 57.64                             144     0.2 5   97 178 
 RUS  HZ I         8 7 58.61         6.1 0.33                            97 178 
 BRI  SZ EP   1    8 7 39.81                             141     0.1 7  110  19 
 BRI  SZ ES   2    8 7 58.79                             141     0.4 5  110  19 
 GUE  SZ EP   1    8 7 40.28                             138    -0.3 7  119  10 
 GRA  SZ EP   1    8 7 41.10                             136     0.0 7  128  16 
 GRA  SZ ES   2    8 8  0.92                             136     0.1 5  128  16 
 OCA  SZ EP   1    8 7 44.62                             129     0.3 7  164 352 
 OCA  SZ ES   2    8 8  5.75                             129    -0.8 5  164 352 
 OCA  SZ I         8 8 16.65         4.5 0.50                           164 352 
                                                                                
