 2010  6 8 0614 27.2 L   6.789 -72.863120.9  RSN  6 0.5 1.6LRSN                1
 GAP=199        0.89       5.1    15.0 12.4 -0.4371E+02 -0.5059E+02  0.2242E+02E
 Epicentro: SAN ANDRES - SANTANDER                                             3
 ACTION:UP  10-08-24 10:09 OP:vdl  STATUS:               ID:20100608061427 L   I
 2010-06-08-0612-46S.COL___111                                                 6
 STAT SP IPHASW D HRMM SECON CODA AMPLIT PERI AZIMU VELO SNR AR TRES W  DIS CAZ7
 BAR2 SZ EP   1    614 44.65                             160     0.2 8   42 238 
 BAR2 SZ ES   2    614 57.38                             160    -0.6 5   42 238 
 GUE  SZ EP   1    614 49.69                             134     0.1 8  115 357 
 GRA  SZ EP        614 50.10                             132     0.210  121   3 
 OCA  SZ EP   2    614 53.28                             122    -1.2 5  168 343 
 OCA  SZ ES        615 15.94                             122     0.1 9  168 343 
 OCA  SZ I         615 20.13         5.2 0.27                           168 343 
 CHI  HZ EP   1    615  4.88                             111     0.2 6  257 202 
 CHI  HZ I         615 34.20         1.9 0.21                           257 202 
 ROSC BZ EP   1    615  5.24                             110    -0.7 6  269 217 
 ROSC BN ES   1    615 36.77                             110     0.5 6  269 217 
 ROSC BZ I         615 39.12         2.5 0.43                           269 217 
                                                                                
