 2015  2 8 0136 14.5 L   6.806 -73.189140.6  RSN  6 0.6 1.3LRSN                1
 GAP=131        1.56       8.0     8.6 12.0 -0.2766E+02  0.3395E+02 -0.1048E+02E
 Epicentro: ZAPATOCA - SANTANDER                                               3
 ACTION:UPD 15-04-30 21:23 OP:nd   STATUS:               ID:20150208013614 L   I
 OLDACT:ARG 15-02-08 13:47 OP:stll STATUS:               ID:20150208012742     3
 2015-02-08-0127-42M.COL___290                                                 6
 STAT SP IPHASW D HRMM SECON CODA AMPLIT PERI AZIMU VELO AIN AR TRES W  DIS CAZ7
 BAR2 EZ EP        136 33.74                             170    0.2610 23.6 178 
 BAR2 EZ I         136 33.89         4.3 0.40            172           23.6 178 
 BAR2 EZ ES        136 49.44                             170    1.1310 23.6 178 
 BRR  HZ EP        136 35.68                             153    0.8810 66.7 300 
 BRR  HZ I         136 53.86        14.0 0.40            142           66.7 300 
 PAM  SZ EP        136 35.88                             149   -0.4210 80.0  42 
 PAM  SZ I         136 36.89         3.0 0.26            144           80.0  42 
 PAM  SN ES        136 52.50                             149   -0.8210 80.0  42 
 RUS  HZ EP        136 37.83                             142    0.0410  102 173 
 RUS  HZ I         136 38.29         1.2 0.22            147            102 173 
 RUS  HN ES        136 55.77                             142   -0.2210  102 173 
 PTB  HZ EP        136 40.64                             132    0.04 9  143 258 
 PTB  HN ES        137  0.46                             132   -0.53 9  143 258 
 PTB  HZ I         137  4.95         2.4 0.48            126            143 258 
 SPBC HZ EP        136 42.60                             128    0.26 9  161 218 
 SPBC HZ I         136 43.08         2.5 0.18            126            161 218 
 SPBC HN ES        137  3.32                             128   -0.76 9  161 218 
                                                                                
