 2013  6 8 0911 28.9 L   6.853 -73.125138.2  RSN  5 0.4 1.7LRSN                1
 GAP=218        0.73       3.8     5.6  8.1 -0.2425E+01  0.1347E+02 -0.7528E+01E
 Epicentro: LOS SANTOS - SANTANDER                                             3
 ACTION:UPD 14-01-08 09:53 OP:ep   STATUS:               ID:20130608091128 L   I
 OLDACT:REG 13-06-08 07:07 OP:mh   STATUS:               ID:20130608091000     3
 2013-06-08-0910-00M.COL___257                                                 6
 STAT SP IPHASW D HRMM SECON CODA AMPLIT PERI AZIMU VELO AIN AR TRES W  DIS CAZ7
 BAR2 SZ EP   1    911 48.16                             167    0.38 9 29.5 192 
 BAR2 SZ ES   1    912  2.32                             167   -0.17 9 29.5 192 
 BAR2 SZ I         912  5.50         4.1 0.26            168           29.5 192 
 PTB  HZ EP   1    911 55.08                             129   -0.52 8  151 257 
 PTB  HN ES   1    912 16.68                             129    0.27 8  151 257 
 PTB  HZ I         912 20.95         3.2 0.26            131            151 257 
 ZAR  HN ES        912 26.12                             121    0.3210  204 290 
 ZAR  HN I         912 32.25         7.6 0.30            122            204 290 
 SML  HZ EP   1    912  5.25                             116    0.60 7  239 334 
 SML  HN ES        912 32.06                             116   -0.46 9  239 334 
 SML  HN I         912 39.16        11.2 0.28            118            239 334 
 NOR  HZ EP   1    912  4.71                             116   -0.08 7  240 234 
 NOR  HN ES        912 32.58                             116   -0.19 9  240 234 
 NOR  HZ I         912 37.66         3.1 0.16            119            240 234 
                                                                                
