 2011 11 8 0649 37.5 L   5.835 -73.640123.0  RSN  4 0.1 1.5LRSN                1
 GAP=174        0.37       2.4     2.3  4.7 -0.1439E+01  0.4278E+01  0.7879E+00E
 Epicentro: PUENTE NACIONAL - SANTANDER                                        3
 ACTION:UPD 12-07-13 16:08 OP:ep   STATUS:               ID:20111108064937 L   I
 2011-11-08-0646-45S.COL___174                                                 6
 STAT SP IPHASW D HRMM SECON CODA AMPLIT PERI AZIMU VELO AIN AR TRES W  DIS CAZ7
 RUS  HZ EP        649 56.51                             152    0.1410 62.0  84 
 RUS  HZ I         649 56.98         5.0 0.16                          62.0  84 
 RUS  HE ES   1    650 11.10                             152    0.00 7 62.0  84 
 BAR2 SZ EP   1    649 58.36                             139   -0.15 7 97.8  31 
 BAR2 SZ ES        650 14.80                             139   -0.1010 97.8  31 
 BAR2 SZ I         650 15.65        11.3 0.41                          97.8  31 
 NOR  SZ EP   1    650  1.71                             128   -0.23 7  139 258 
 NOR  SN ES   1    650 21.11                             128    0.09 7  139 258 
 BRR  HZ EP   1    650  2.19                             128    0.18 7  141 357 
 BRR  HE ES        650 21.17                             128    0.03 9  141 357 
 BRR  HZ I         650 22.76         5.1 0.09                           141 357 
                                                                                
