 2013  4 8 0032 51.0 L   6.776 -73.157142.0  RSN  8 0.5 2.0LRSN                1
 GAP=182        1.25       6.1     7.3  8.2  0.8573E+01  0.1278E+02  0.1822E+02E
 Epicentro: LOS SANTOS - SANTANDER                                             3
 ACTION:UPD 13-05-22 14:36 OP:EP   STATUS:               ID:20130408003251 L   I
 2013-04-08-0028-36M.COL___221                                                 6
 STAT SP IPHASW D HRMM SECON CODA AMPLIT PERI AZIMU VELO AIN AR TRES W  DIS CAZ7
 BAR2 SZ EP        033 10.04                             171   -0.0710 20.5 188 
 BAR2 SZ ES        033 24.40                             171   -0.6210 20.5 188 
 BAR2 SZ I         033 26.81        21.3 0.14            167           20.5 188 
 GIR2 SZ EP   1    033 10.20                             166   -0.08 7 33.7 353 
 GIR2 SZ ES   1    033 24.84                             166   -0.49 7 33.7 353 
 BRR  HZ EP        033 12.01                             152    0.2710 71.4 301 
 BRR  HN ES        033 29.11                             152    1.1910 71.4 301 
 BRR  HE I         033 29.70        29.7 0.30            146           71.4 301 
 RUS  HZ EP        033 14.02                             144   -0.1610 98.0 175 
 RUS  HE ES        033 32.70                             144    0.4310 98.0 175 
 RUS  HE I         033 34.69        10.7 0.32            135           98.0 175 
 PTB  HZ EP        033 16.87                             132   -0.61 9  146 260 
 PTB  HN ES        033 37.46                             132   -0.69 9  146 260 
 PTB  HE I         033 39.75         9.5 0.46            123            146 260 
 NOR  HZ EP   2    033 25.88                             118   -0.34 4  232 235 
 NOR  HN ES   1    033 54.11                             118    0.41 6  232 235 
 CHI  HZ EP        033 28.21                             117    0.05 8  246 195 
 CHI  HN ES        033 57.39                             117    0.24 8  246 195 
 CHI  HN I         033 59.96         7.7 0.34            109            246 195 
 PRA  HZ EP   1    033 44.73                             106    0.70 4  389 210 
 PRA  HZ I         034 30.95         2.2 0.24            100            389 210 
 PRA  HE I         034 31.25         4.0 0.32                           389 210 
                                                                                
