 2011  5 8 0946 10.9 L   6.770 -73.064147.7  RSN  8 0.2 1.8LRSN                1
 GAP=166        0.53       2.3     4.1  4.5 -0.3459E+01  0.2729E+01 -0.2160E+01E
 Epicentro: LOS SANTOS - SANTANDER                                             3
 ACTION:UP  11-06-29 08:51 OP:tino STATUS:               ID:20110508094610 L   I
 2011-05-08-0941-11S.COL___131                                                 6
 STAT SP IPHASW D HRMM SECON CODA AMPLIT PERI AZIMU VELO SNR AR TRES W  DIS CAZ7
 BAR2 SZ EP   1    946 30.65                             170    -0.1 7   24 214 
 BAR2 SZ ES   1    946 46.04                             170    -0.2 7   24 214 
 BAR2 SZ I         946 46.98        11.2 0.31                            24 214 
 BRR  HZ EP        946 32.55                             150    -0.210   81 297 
 BRR  HZ I         946 32.83        28.0 0.18                            81 297 
 BRR  HE ES   1    946 49.89                             150     0.0 7   81 297 
 RUS  HZ EP   2    946 34.79                             145     0.2 5   97 181 
 RUS  HN ES        946 53.12                             145     0.110   97 181 
 BRI  SZ EP   1    946 35.18                             142     0.2 7  109  16 
 GRA  SZ EP   1    946 36.40                             137     0.1 7  127  13 
 GRA  SZ ES   1    946 56.17                             137     0.0 7  127  13 
 GRA  SZ I         946 57.46         5.5 0.37                           127  13 
 OCA  SZ EP   1    946 39.33                             129    -0.4 7  165 350 
 OCA  SZ ES   1    947  2.78                             129     0.5 7  165 350 
 OCA  SZ I         947  7.08         7.2 0.29                           165 350 
 NOR  SN ES        947 15.86                             118     0.1 8  240 236 
 PRA  HZ EP   1    947  4.76                             107     0.1 4  394 211 
                                                                                
