 2017  6 8 0400  8.0 L   6.768 -73.164147.7  RSN  7 0.3 1.7LRSN                1
 GAP=233        0.79       3.8     4.3  5.9  0.4285E+01  0.4175E+01 -0.1033E+00E
 Epicentro: LOS SANTOS - SANTANDER                                             3
 ACTION:UPD 17-09-14 16:50 OP:jn   STATUS:               ID:20170608040008 L   I
 OLDACT:UP  17-06-08 16:38 OP:edw  STATUS:               ID:20170608035743     3
 OLDACT:REG 17-06-08 13:03 OP:edw  STATUS:               ID:20170608035743     3
 2017-06-08-0358-00M.COL___365                                                 6
 STAT SP IPHASW D HRMM SECON CODA AMPLIT PERI AZIMU VELO AIN AR TRES W  DIS CAZ7
 BRR  HZ EP        4 0 29.44                             153    0.0910 71.3 302 
 BRR  HN ES        4 0 46.32                             153    0.3110 71.3 302 
 RUS  HZ EP        4 0 31.66                             145   -0.0310 97.2 175 
 RUS  HN ES        4 0 49.84                             145   -0.3410 97.2 175 
 RUS  HZ I         4 0 51.06         9.8 0.26            146           97.2 175 
 PTB  HZ EP        4 0 34.63                             133   -0.25 9  145 260 
 PTB  HN ES        4 0 55.21                             133   -0.65 9  145 260 
 PTB  HZ I         4 0 57.65         5.1 0.16            132            145 260 
 SPBC HZ EP        4 0 36.42                             130    0.16 9  159 219 
 SPBC HN ES        4 0 58.93                             130    0.61 9  159 219 
 SPBC HZ I         4 1  2.64         5.5 0.26            130            159 219 
 ZAR  HZ EP        4 0 40.47                             123   -0.04 9  204 293 
 ZAR  HN ES        4 1  5.98                             123    0.10 9  204 293 
 ZAR  HZ I         4 1 11.99         7.3 0.32            123            204 293 
 NOR  HN ES        4 1 11.30                             119    0.21 8  231 235 
 NOR  HZ I         4 1 13.36         3.4 0.20            120            231 235 
 CBOC HZ EP        4 0 54.79                             110    0.15 7  331 253 
 CBOC HE ES        4 1 30.74                             110   -0.30 7  331 253 
                                                                                
