 2011  3 8 0615 20.6 L   6.773 -73.250143.0  RSN  5 0.4 1.7LRSN                1
 GAP=138        0.63       5.4    17.2 10.5 -0.5401E+02  0.6491E+02 -0.1649E+02E
 Epicentro: ZAPATOCA - SANTANDER                                               3
 ACTION:UP  11-06-16 14:32 OP:jfem STATUS:               ID:20110308061145 L   I
 2011-03-08-0611-45S.COL___135                                                 6
 STAT SP IPHASW D HRMM SECON CODA AMPLIT PERI AZIMU VELO SNR AR TRES W  DIS CAZ7
 BAR2 SZ EP   1    615 39.92                             170     0.0 7   21 160 
 BAR2 SZ ES   2    615 54.82                             170    -0.1 5   21 160 
 BAR2 SZ I         615 56.55         9.3 0.31                            21 160 
 GRA  SZ EP   1    615 46.71                             134     0.5 7  132  22 
 GRA  SZ ES   2    616  5.60                             134    -0.5 5  132  22 
 GRA  SZ I         616  9.13         6.5 0.31                           132  22 
 OCA  SZ EP   1    615 48.43                             128    -0.5 7  162 357 
 OCA  SZ ES   2    616 11.31                             128     0.3 5  162 357 
 OCA  SZ I         616 15.86         9.4 0.28                           162 357 
 CHI  HZ EP   3    615 57.56                             117     0.0 2  243 193 
 CHI  HE ES   2    616 26.24                             117    -0.1 4  243 193 
 RREF HE ES   3    616 40.68                             111     0.3 2  311 228 
                                                                                
