 2013  4 8 0606  3.0 L   6.803 -73.127140.7  RSN 14 0.5 2.1LRSN                1
 GAP= 72        1.28       3.9     4.3  6.2 -0.2447E+01  0.2226E+01  0.1485E+01E
 Epicentro: LOS SANTOS - SANTANDER                                             3
 ACTION:UPD 13-05-22 14:36 OP:EP   STATUS:               ID:20130408060603 L   I
 2013-04-08-0558-42M.COL___218                                                 6
 STAT SP IPHASW D HRMM SECON CODA AMPLIT PERI AZIMU VELO AIN AR TRES W  DIS CAZ7
 BAR2 SZ IP        6 6 22.10                             170    0.0610 24.1 195 
 BAR2 SZ ES        6 6 36.46                             170   -0.4210 24.1 195 
 BAR2 SZ I         6 6 37.91        35.3 0.28            170           24.1 195 
 GIR2 SZ IP     D  6 6 22.24                             167    0.1710 31.3 346 
 GIR2 SZ ES        6 6 37.37                             167    0.4310 31.3 346 
 GIR2 SZ I         6 6 39.41        15.3 0.38            167           31.3 346 
 BRR  HZ IP     C  6 6 23.98                             151    0.2810 72.9 297 
 BRR  HN ES        6 6 40.81                             151    0.9710 72.9 297 
 BRR  HN I         6 6 41.31        53.9 0.26            152           72.9 297 
 RUS  HZ EP        6 6 26.13                             143   -0.1410  101 177 
 RUS  HN ES        6 6 44.48                             143    0.0510  101 177 
 CAPV BZ IP     D  6 6 30.09                             131    0.25 9  148  37 
 CAPV BZ ES        6 6 50.28                             131   -0.50 9  148  37 
 PTB  HZ EP        6 6 28.93                             130   -0.83 9  150 259 
 PTB  HN ES        6 6 49.75                             130   -0.87 9  150 259 
 TAM  HZ IP     D  6 6 30.38                             130    0.28 9  153 105 
 OCA  HN ES        6 6 52.23                             128   -0.45 9  160 352 
 ZAR  HZ EP        6 6 35.76                             121    0.45 8  206 292 
 ZAR  HN ES        6 7  0.62                             121    0.11 8  206 292 
 NOR  HE ES        6 7  6.35                             117   -0.10 8  237 235 
 SML  HZ EP        6 6 38.55                             116   -0.86 8  244 335 
 CHI  HE EP   1    6 6 41.29                             116    0.77 6  250 196 
 CHI  HN ES   1    6 7  9.11                             116   -0.68 6  250 196 
 HEL  HZ EP        6 6 44.29                             114    1.09 8  274 256 
 PRA  HZ EP        6 6 56.45                             106   -0.06 6  393 210 
                                                                                
