 2013  1 8 0851 17.7 L   6.670 -73.223146.3  RSN  4 0.2 1.3LRSN                1
 GAP=201        0.51       5.7     3.6  4.7  0.7554E+01  0.4686E+01  0.2465E+01E
 Epicentro: BARICHARA - SANTANDER                                              3
 ACTION:UPD 13-02-15 09:12 OP:ep   STATUS:               ID:20130108085117 L   I
 2013-01-08-0850-00M.COL___238                                                 6
 STAT SP IPHASW D HRMM SECON CODA AMPLIT PERI AZIMU VELO AIN AR TRES W  DIS CAZ7
 BAR2 SZ EP        851 36.93                             176   -0.2410 9.75 153 
 BAR2 SZ ES        851 52.45                             176    0.0710 9.75 153 
 BRR  HZ EP        851 38.91                             152   -0.0310 72.5 312 
 BRR  HN ES        851 55.65                             152    0.1110 72.5 312 
 BRR  HN I         851 59.67         4.7 0.20            145           72.5 312 
 PTB  HZ EP        851 44.07                             134    0.34 9  137 264 
 PTB  HN ES        852  3.92                             134   -0.15 9  137 264 
 PTB  HN I         852  7.36         2.1 0.22            132            137 264 
 ZAR  HN ES        852 15.04                             123   -0.10 9  202 297 
 ZAR  HN I         852 23.44         2.0 0.40            121            202 297 
                                                                                
