 2010 12 8 0615 22.7 L   6.705 -73.245141.4  RSN  8 0.3 2.1LRSN                1
 GAP=145        0.60       2.8     6.9  5.9 -0.1957E+01  0.3545E+01  0.3127E+01E
 Epicentro: BARICHARA - SANTANDER                                              3
 ACTION:UP  11-01-14 15:23 OP:pat  STATUS:               ID:20101208061522 L   I
 2010-12-08-0612-30S.COL___135                                                 6
 STAT SP IPHASW D HRMM SECON CODA AMPLIT PERI AZIMU VELO SNR AR TRES W  DIS CAZ7
 BAR2 SZ EP        615 41.50                             174    -0.110   14 152 
 BAR2 SZ ES   1    615 56.28                             174    -0.1 7   14 152 
 BAR2 SZ I         615 57.58        45.4 0.34                            14 152 
 BTL  SZ IP        615 41.95                             170     0.110   24 354 
 GIR2 SZ EP   1    615 41.90                             163    -0.3 7   42   8 
 GUE  SZ EP   2    615 47.25                             135    -0.8 5  129  16 
 GRA  SZ EP        615 48.95                             133     0.2 9  139  20 
 GRA  SZ ES   1    616  9.32                             133     0.3 7  139  20 
 GRA  SZ I         616 13.69        21.8 0.24                           139  20 
 YOP  SZ EP        615 51.80                             126    -0.2 9  175 149 
 YOP  SN ES   1    616 15.21                             126     0.3 7  175 149 
 YOP  SZ I         616 16.65         9.5 0.50                           175 149 
 CHI  HZ EP   1    615 58.82                             118     0.1 6  236 193 
 CHI  HE ES   2    616 27.23                             118     0.4 4  236 193 
 PRA  HZ EP   2    616 14.94                             106     0.6 3  377 209 
 PRA  HE ES   2    616 54.87                             106     0.2 3  377 209 
                                                                                
