 2014  9 8 0100 10.2 L   6.812 -73.157143.3  RSN 13 0.4 2.2LRSN                1
 GAP=134        1.05       2.9     4.0  5.7 -0.1930E+01  0.6302E+01 -0.1774E+00E
 Epicentro: LOS SANTOS - SANTANDER                                             3
 ACTION:UPD 14-10-03 23:03 OP:nd   STATUS:               ID:20140908010010 L   I
 OLDACT:REG 14-09-08 13:05 OP:mh   STATUS:               ID:20140908005817     3
 2014-09-08-0058-17M.COL___260                                                 6
 STAT SP IPHASW D HRMM SECON CODA AMPLIT PERI AZIMU VELO AIN AR TRES W  DIS CAZ7
 BAR2 SZ EP        1 0 29.72                             170    0.1210 24.4 186 
 BAR2 SZ ES        1 0 44.71                             170    0.0110 24.4 186 
 BAR2 SZ I         1 0 45.83        25.8 0.12            169           24.4 186 
 BRR  HZ EP     C  1 0 31.71                             153    0.6810 69.4 298 
 BRR  HN ES        1 0 47.46                             153    0.2210 69.4 298 
 BRR  HZ I         1 0 52.22        23.1 0.10            149           69.4 298 
 PAM  SZ EP        1 0 32.73                             150    0.5410 77.2  41 
 PAM  SN ES        1 0 49.43                             150    0.1310 77.2  41 
 PAM  SN I         1 0 51.10        89.4 0.49            154           77.2  41 
 PAM  SZ I         1 0 51.73        40.3 0.33                          77.2  41 
 RUS  HZ EP        1 0 33.84                             143   -0.0110  102 175 
 RUS  HN ES        1 0 51.98                             143   -0.2910  102 175 
 PTB  HZ EP   1    1 0 36.97                             132    0.05 7  147 258 
 PTB  HN ES        1 0 57.72                             132   -0.00 9  147 258 
 PTB  HZ I         1 1  0.92        17.3 0.09            131            147 258 
 OCA  HZ EP   1    1 0 38.20                             129   -0.02 7  159 354 
 OCA  HN ES        1 0 59.29                             129   -0.76 9  159 354 
 OCA  HZ I         1 1  4.39        19.9 0.26            130            159 354 
 SPBC HZ EP        1 0 38.76                             128    0.19 9  163 218 
 SPBC HN ES        1 0 59.86                             128   -0.81 9  163 218 
 SPBC HZ I         1 1  4.29        16.8 0.22            129            163 218 
 ZAR  HZ EP   1    1 0 42.12                             122   -0.23 6  202 292 
 ZAR  HN ES        1 1  8.39                             122    0.99 9  202 292 
 ZAR  HZ I         1 1 13.45        22.3 0.34            122            202 292 
 NOR  HZ EP        1 0 45.90                             118    0.10 8  234 234 
 NOR  HN ES        1 1 13.29                             118   -0.24 8  234 234 
 NOR  HZ I         1 1 15.47         8.9 0.14            118            234 234 
 SML  HZ EP        1 0 45.96                             117   -0.58 8  242 335 
 SML  HN ES        1 1 14.13                             117   -0.73 8  242 335 
 SML  HZ I         1 1 17.96        18.1 0.22            118            242 335 
 HEL  HZ EP   4    1 0 51.70                             114    1.48 0  271 255 
 HEL  HN ES   1    1 1 21.30                             114   -0.11 6  271 255 
 HEL  HZ I         1 1 29.08         5.2 0.28            115            271 255 
 TOL  SZ EP   4    1 0 59.52                             109    1.12 0  344 224 
 TOL  SN ES   4    1 1 33.88                             109   -2.09 0  344 224 
 TOL  SZ I         1 1 41.84        10.2 0.22            110            344 224 
 MON  HZ EP   4    1 0 57.42                             108   -1.51 0  352 308 
 MON  HN ES   4    1 1 35.22                             108   -1.70 0  352 308 
 PRA  HZ EP        1 1  3.72                             106   -0.02 6  393 209 
 PRA  HN ES   1    1 1 45.85                             106    0.39 4  393 209 
 PRA  HZ I         1 1 51.17         4.9 0.72            107            393 209 
 SJC  HZ EP   4    1 1  4.59                             105   -0.92 0  407 327 
 SJC  HN ES   4    1 1 44.79                             105   -3.83 0  407 327 
                                                                                
