 2015  4 8 0113 29.4 L   6.805 -73.123145.3  RSN  7 0.4 1.3LRSN                1
 GAP=240        0.94       4.9     5.4  8.5  0.7923E+01  0.1812E+01  0.2494E+01E
 Epicentro: LOS SANTOS - SANTANDER                                             3
 ACTION:UPD 15-06-03 16:53 OP:cam  STATUS:               ID:20150408011329 L   I
 OLDACT:REG 15-04-08 12:29 OP:ak   STATUS:               ID:20150408010750     3
 2015-04-08-0107-50M.COL___260                                                 6
 STAT SP IPHASW D HRMM SECON CODA AMPLIT PERI AZIMU VELO AIN AR TRES W  DIS CAZ7
 BAR2 EZ EP   1    113 48.84                             170   -0.14 7 24.4 196 
 BAR2 EZ I         114  5.63         3.9 0.18            172           24.4 196 
 BRR  HZ EP        113 50.88                             152    0.2910 73.2 297 
 BRR  HE ES        114  7.30                             152    0.1610 73.2 297 
 RUS  HZ EP        113 53.18                             144    0.0710  101 178 
 RUS  HN ES        114 11.49                             144   -0.1410  101 178 
 RUS  HZ I         114 13.51         2.1 0.14            143            101 178 
 PTB  HZ EP        113 56.03                             131   -0.51 9  150 259 
 PTB  HE ES        114 16.90                             131   -0.84 9  150 259 
 PTB  HZ I         114 21.46         2.3 0.16            132            150 259 
 SPBC HZ EP        113 58.04                             129    0.01 9  165 220 
 SPBC HN ES        114 20.89                             129    0.50 9  165 220 
 SPBC HZ I         114 27.99         2.8 0.32            129            165 220 
 ZAR  HN ES        114 27.82                             122    0.35 8  206 292 
 ZAR  HZ I         114 32.65         1.8 0.44            122            206 292 
 NOR  HN ES        114 33.69                             118    0.30 8  237 235 
 NOR  HZ I         114 36.69         1.4 0.28            118            237 235 
                                                                                
