 2017 11 8 0920 24.6 L   6.809 -73.163144.0  RSN 12 0.5 1.9LRSN                1
 GAP=102        1.22       4.1     4.1  6.4  0.2403E+01  0.2539E+01  0.5306E+01E
 Epicentro: LOS SANTOS - SANTANDER                                             3
 ACTION:UPD 17-12-12 19:53 OP:rebc STATUS:               ID:20171108092024 L   I
 OLDACT:UP  17-11-08 15:56 OP:dani STATUS:               ID:20171108091739     3
 OLDACT:UP  17-11-08 15:56 OP:dani STATUS:               ID:20171108091739     3
 OLDACT:UP  17-11-08 15:55 OP:dani STATUS:               ID:20171108091739     3
 OLDACT:UP  17-11-08 15:53 OP:dani STATUS:               ID:20171108091739     3
 OLDACT:REG 17-11-08 15:08 OP:dnl  STATUS:               ID:20171108091739     3
 2017-11-08-0918-00M.COL___384                                                 6
 STAT SP IPHASW D HRMM SECON CODA AMPLIT PERI AZIMU VELO AIN AR TRES W  DIS CAZ7
 BAR2 EZ EP        920 43.87                             170   -0.2010 24.0 185 
 BAR2 EZ ES        920 59.11                             170   -0.1210 24.0 185 
 BAR2 EZ I         921  0.48        27.9 0.20            167           24.0 185 
 BRR  HZ EP        920 45.68                             153    0.2010 69.1 299 
 BRR  HE ES        921  2.85                             153    1.1210 69.1 299 
 BRR  HZ I         921  5.89        20.9 0.30            153           69.1 299 
 PAM  EZ EP        920 46.80                             150    0.1110 77.8  41 
 PAM  EE ES        921  3.30                             150   -0.6010 77.8  41 
 PAM  EZ I         921  6.02        12.8 0.52            156           77.8  41 
 RUS  HZ EP        920 48.13                             143   -0.1710  102 175 
 RUS  HN ES        921  6.83                             143    0.0810  102 175 
 RUS  HZ I         921  9.26         3.1 0.36            143            102 175 
 PTB  HZ EP        920 50.41                             132   -0.90 9  146 258 
 PTB  HN ES        921 11.80                             132   -0.32 9  146 258 
 PTB  HZ I         921 16.23         5.1 0.40            132            146 258 
 TAM  HZ EP        920 52.36                             130   -0.01 9  157 105 
 SPBC HZ EP        920 52.88                             129   -0.08 9  163 218 
 SPBC HN ES        921 14.76                             129   -0.29 9  163 218 
 SPBC HZ I         921 21.84        15.2 0.36            129            163 218 
 YPLC HZ EP        920 54.35                             126   -0.13 9  179 151 
 YPLC HN ES        921 18.52                             126    0.77 9  179 151 
 YPLC HZ I         921 23.91         4.3 0.36            128            179 151 
 ZAR  HZ EP        920 56.64                             122   -0.11 9  202 292 
 ZAR  HN ES        921 21.84                             122    0.04 9  202 292 
 ZAR  HZ I         921 28.08         9.0 0.26            124            202 292 
 CHI  HZ EP        921  2.53                             117    0.24 8  249 195 
 CHI  HN ES        921 31.12                             117   -0.53 8  249 195 
 CHI  HZ I         921 34.99         5.1 0.60            118            249 195 
 ROSC BZ EP   3    921  4.15                             116    1.50 2  253 211 
 ROSC BN ES   4    921 29.94                             116   -2.35 0  253 211 
 ROSC BZ I         921 38.65        10.2 0.50            118            253 211 
 GUY2CHZ EP        921  9.29                             112    1.23 7  300 234 
 GUY2CHN ES   4    921 45.65                             112    3.73 0  300 234 
 GUY2CHZ I         921 51.54         4.3 0.72                           300 234 
                                                                                
