 2010  6 8 0917 54.8 L   6.732 -72.997139.8  RSN  8 0.4 1.9LRSN                1
 GAP=152        0.86       6.0    11.0  7.3 -0.4744E+02 -0.1246E+02  0.9854E+01E
 Epicentro: CEPITA - SANTANDER                                                 3
 ACTION:UP  10-08-24 10:09 OP:vdl  STATUS:               ID:20100608091754 L   I
 2010-06-08-0916-09S.COL___111                                                 6
 STAT SP IPHASW D HRMM SECON CODA AMPLIT PERI AZIMU VELO SNR AR TRES W  DIS CAZ7
 BAR2 SZ EP        918 13.68                             169    -0.110   26 233 
 BAR2 SZ ES   1    918 28.49                             169     0.0 7   26 233 
 GIR2 SZ EP   2    918 14.33                             162     0.2 5   44 330 
 GUE  SZ EP        918 19.18                             137    -0.210  122   4 
 GUE  SZ ES   1    918 37.80                             137    -0.7 7  122   4 
 GRA  SZ IP        918 20.45                             135     0.710  129   9 
 GRA  SZ ES   1    918 39.68                             135     0.4 7  129   9 
 CHI  HZ EP   1    918 32.26                             116     0.4 6  246 199 
 CHI  HN ES   2    919  0.56                             116    -0.3 4  246 199 
 CHI  HZ I         919  4.91         6.4 0.59                           246 199 
 HEL  HZ EP   1    918 36.08                             112    -0.2 6  286 258 
 HEL  HZ I         919 12.25         4.2 0.19                           286 258 
 RREF BZ EP   2    918 40.81                             109    -0.8 3  330 232 
 RREF BN ES   2    919 18.41                             109     0.3 3  330 232 
 SDV  BZ EP        918 43.30                             107    -0.4 6  353  48 
 SDV  BZ I         918 44.11         2.4 0.16                           353  48 
                                                                                
