 2013  4 8 0439 51.8 L   6.730 -73.141150.1  RSN  5 0.2 1.6LRSN                1
 GAP=185        0.63       4.2     5.1  5.5  0.6507E+01  0.1720E+01  0.2980E+01E
 Epicentro: JORDAN - SANTANDER                                                 3
 ACTION:UPD 13-05-22 14:36 OP:EP   STATUS:               ID:20130408043951 L   I
 2013-04-08-0438-44M.COL___218                                                 6
 STAT SP IPHASW D HRMM SECON CODA AMPLIT PERI AZIMU VELO AIN AR TRES W  DIS CAZ7
 BAR2 SZ EP        440 11.78                             174    0.0010 15.9 197 
 BAR2 SZ I         440 11.95         8.8 0.18            174           15.9 197 
 GIR2 SZ EP        440 12.29                             165    0.1210 39.0 351 
 GIR2 SZ ES        440 27.64                             165   -0.4510 39.0 351 
 GIR2 SZ I         440 28.86         3.7 0.30            164           39.0 351 
 BRR  HZ IP     C  440 13.75                             152    0.1310 75.6 304 
 BRR  HN ES        440 31.04                             152    0.3610 75.6 304 
 BRR  HN I         440 32.19        14.3 0.26            152           75.6 304 
 RUS  HZ EP   1    440 15.45                             147    0.05 7 92.8 176 
 RUS  HN ES        440 33.93                             147    0.0910 92.8 176 
 PTB  HZ EP   1    440 18.67                             133   -0.34 7  147 262 
 PTB  HN ES   1    440 40.04                             133   -0.22 7  147 262 
                                                                                
