 2011  5 8 0125 37.4 L   6.767 -73.140149.5  RSN  5 0.1 1.6LRSN                1
 GAP=160        0.34       3.4     6.5  5.2  0.1394E+02 -0.2323E+02 -0.9067E+01E
 Epicentro: LOS SANTOS - SANTANDER                                             3
 ACTION:UP  11-06-29 08:51 OP:tino STATUS:               ID:20110508012539 L   I
 2011-05-08-0122-12S.COL___133                                                 6
 STAT SP IPHASW D HRMM SECON CODA AMPLIT PERI AZIMU VELO SNR AR TRES W  DIS CAZ7
 BAR2 SZ EP   1    125 57.52                             172     0.1 7   20 194 
 BAR2 SZ ES   2    126 13.15                             172     0.1 5   20 194 
 BAR2 SZ I         126 16.14         7.8 0.73                            20 194 
 BTL  SZ EP   1    125 57.52                             171     0.1 7   22 320 
 BRR  HZ EP   1    125 59.00                             152    -0.1 7   74 301 
 BRR  HE ES        126 15.98                             152     0.010   74 301 
 BRR  HZ I         126 20.28         8.7 0.18                            74 301 
 RUS  HZ EP   1    126  1.33                             146     0.1 7   97 176 
 RUS  HN ES   1    126 19.70                             146    -0.2 7   97 176 
 RUS  HZ I         126 22.01         5.2 0.68                            97 176 
 GRA  SZ EP   1    126  3.15                             137    -0.1 7  129  17 
 GRA  SZ I         126 25.55         4.8 0.31                           129  17 
                                                                                
