 2017 10 8 0621 40.4 L   6.803 -73.004140.0  RSN  4 0.3 1.1LRSN                1
 GAP=167        0.86       6.5    10.3  7.1 -0.4997E+02  0.1494E+02 -0.1184E+01E
 Epicentro: CEPITA - SANTANDER                                                 3
 ACTION:UPD 17-11-07 19:29 OP:rebc STATUS:               ID:20171008062140 L   I
 OLDACT:REG 17-10-08 12:46 OP:dhb  STATUS:               ID:20171008061739     3
 2017-10-08-0618-00M.COL___405                                                 6
 STAT SP IPHASW D HRMM SECON CODA AMPLIT PERI AZIMU VELO AIN AR TRES W  DIS CAZ7
 BAR2 EZ EP        621 59.17                             167   -0.3210 30.5 220 
 BAR2 EZ ES        622 14.19                             167   -0.2110 30.5 220 
 BAR2 EZ I         622 15.32         3.6 0.26            167           30.5 220 
 PAM  EZ EP        622  1.07                             153   -0.3810 68.2  30 
 PAM  EN ES        622 18.34                             153    0.4610 68.2  30 
 PAM  EZ I         622 21.25         3.1 0.54            154           68.2  30 
 RUS  HZ EP        622  3.52                             142   -0.0810  101 185 
 RUS  HN ES        622 21.84                             142    0.1310  101 185 
 RUS  HZ I         622 22.84         1.5 0.26            145            101 185 
 SPBC HZ EP        622 10.07                             126    0.60 9  174 223 
 SPBC HN ES        622 32.06                             126   -0.10 9  174 223 
 SPBC HZ I         622 34.83         1.3 0.10            127            174 223 
                                                                                
