 2017 10 8 0153 29.3 L   6.877 -73.155137.5  RSN  4 0.3 1.3LRSN                1
 GAP=246        0.87       5.8     6.6  7.7  0.1718E+02  0.1447E+02 -0.6216E+01E
 Epicentro: ZAPATOCA - SANTANDER                                               3
 ACTION:UPD 17-11-07 19:29 OP:rebc STATUS:               ID:20171008015329 L   I
 OLDACT:DUP 17-10-08 14:01 OP:dhb  STATUS:               ID:20171008014744d    3
 OLDACT:REG 17-10-08 12:19 OP:dhb  STATUS:               ID:20171008014743     3
 2017-10-08-0148-00M.COL___405                                                 6
 STAT SP IPHASW D HRMM SECON CODA AMPLIT PERI AZIMU VELO AIN AR TRES W  DIS CAZ7
 BAR2 EZ EP        153 48.44                             166    0.2910 31.6 186 
 BAR2 EZ ES        154  2.93                             166    0.0910 31.6 186 
 BAR2 EZ I         154  4.32         5.0 0.30            167           31.6 186 
 RUS  HZ EP        153 52.69                             140   -0.2210  109 176 
 RUS  HN ES        154 11.06                             140   -0.2610  109 176 
 RUS  HZ I         154 11.65         2.4 0.46            143            109 176 
 SPBC HZ EP        153 58.44                             126    0.66 9  169 217 
 SPBC HN ES        154 19.85                             126   -0.14 9  169 217 
 SPBC HZ I         154 22.13         2.6 0.10            127            169 217 
 ZAR  HZ EP        154  0.23                             121   -0.58 9  200 290 
 ZAR  HN ES        154 25.50                             121    0.12 9  200 290 
 ZAR  HZ I         154 32.79         2.0 0.15            121            200 290 
                                                                                
