 2012  8 8 0915 55.0 L   6.742 -73.121144.1  RSN  6 0.3 1.7LRSN                1
 GAP=142        0.61       3.8     3.4  4.8  0.9026E+00  0.2840E+01 -0.3647E+00E
 Epicentro: JORDAN - SANTANDER                                                 3
 ACTION:UPD 12-09-10 11:55 OP:ep   STATUS:               ID:20120808091555 L   I
 2012-08-08-0910-00M.COL___216                                                 6
 STAT SP IPHASW D HRMM SECON CODA AMPLIT PERI AZIMU VELO AIN AR TRES W  DIS CAZ7
 BAR2 SZ EP   1    916 14.67                             173    0.36 7 17.9 202 
 BAR2 SZ ES   1    916 28.87                             173   -0.53 7 17.9 202 
 BAR2 SZ I         916 30.41        16.1 0.39                          17.9 202 
 BRR  HZ EP        916 16.22                             150   -0.0610 76.8 302 
 BRR  HZ I         916 18.43        12.2 0.14                          76.8 302 
 BRR  HN ES        916 33.35                             150    0.4610 76.8 302 
 PAM  SZ EP        916 17.23                             150    0.0010 80.8  35 
 PAM  SN ES   1    916 34.42                             150   -0.16 7 80.8  35 
 RUS  HZ EP   1    916 17.93                             146   -0.18 7 94.1 177 
 RUS  HE ES   1    916 36.41                             146    0.26 7 94.1 177 
 RUS  HZ I         916 38.02         5.0 0.29                          94.1 177 
 PTB  HZ EP        916 21.91                             131   -0.05 9  149 261 
 PTB  HN ES   1    916 42.78                             131   -0.22 7  149 261 
 PTB  HZ I         916 47.00         4.3 0.20                           149 261 
 ZAR  HZ EP   1    916 27.75                             121   -0.08 6  209 293 
 ZAR  HN ES   1    916 53.25                             121   -0.21 6  209 293 
 ZAR  HZ I         916 59.51         5.1 0.16                           209 293 
                                                                                
