 2017 10 8 0844 54.3 L   7.025 -73.493102.3  RSN 15 0.6 2.0LRSN                1
 GAP= 76        1.11       2.8     3.1  7.1  0.8192E+00  0.9988E+01 -0.2230E+01E
 Epicentro: SAN VICENTE DE CHUCURI - SANTANDER                                 3
 ACTION:UPD 17-11-07 19:29 OP:rebc STATUS:               ID:20171008084454 L   I
 OLDACT:UP  17-10-08 17:58 OP:dhb  STATUS:               ID:20171008083738d    3
 OLDACT:UP  17-10-08 17:58 OP:dhb  STATUS:               ID:20171008083738d    3
 OLDACT:DUP 17-10-08 17:47 OP:dhb  STATUS:               ID:20171008083738d    3
 OLDACT:UP  17-10-08 17:42 OP:dhb  STATUS:               ID:20171008083737     3
 OLDACT:UP  17-10-08 17:41 OP:dhb  STATUS:               ID:20171008083737     3
 OLDACT:REG 17-10-08 12:58 OP:dhb  STATUS:               ID:20171008083737     3
 2017-10-08-0838-00M.COL___387                                                 6
 STAT SP IPHASW D HRMM SECON CODA AMPLIT PERI AZIMU VELO AIN AR TRES W  DIS CAZ7
 BAR2 EZ EP        845 10.93                             148    0.4710 58.9 144 
 BAR2 EZ ES        845 23.51                             148    0.4610 58.9 144 
 BAR2 EZ I         845 25.13        52.0 0.21            147           58.9 144 
 PAM  EZ IP     C  845 13.41                             134   -0.1310 94.3  68 
 PAM  EN ES        845 27.88                             134   -0.6510 94.3  68 
 PAM  EZ I         845 30.37        16.2 0.24            135           94.3  68 
 RUS  HZ EP        845 17.10                             123   -0.1610  133 160 
 RUS  HN ES        845 34.47                             123   -0.6810  133 160 
 RUS  HZ I         845 39.02        16.6 0.58            122            133 160 
 ZAR  HZ EP        845 19.67                             117    0.29 9  159 289 
 ZAR  HE ES        845 39.75                             117    0.82 9  159 289 
 ZAR  HZ I         845 42.53        30.6 0.26            117            159 289 
 SPBC HZ EP   3    845 21.95                             116    1.87 2  165 203 
 SPBC HN ES        845 39.63                             116   -0.54 9  165 203 
 SPBC HZ I         845 46.63        13.5 0.16            116            165 203 
 YPLC HZ EP        845 26.56                             109    0.50 8  218 146 
 YPLC HN ES        845 51.05                             109    0.22 8  218 146 
 YPLC HZ I         845 53.36         7.8 0.32            110            218 146 
 NOR  HZ EP        845 26.55                             109    0.07 8  222 223 
 NOR  HE ES        845 51.42                             109   -0.15 8  222 223 
 NOR  HZ I         845 56.42         7.2 0.14            109            222 223 
 URE  HZ EP   2    845 27.22                             107   -1.19 4  239 290 
 URE  HE ES        845 54.10                             107   -0.90 8  239 290 
 URE  HZ I         846  1.28        12.6 0.36            108            239 290 
 CHI  HZ EP   9    845 33.78                             105    1.69 0  266 186 
 CHI  HE ES        846  2.99                                   -0.26 8  266 186 
 CHI  HN I         846 11.28        13.1 0.28            106            266 186 
 GUY2CHZ EP        845 34.98                             103    0.31 7  287 226 
 GUY2CHN ES   4    846  9.01                             103    2.86 0  287 226 
 GUY2CHZ I         846 13.62         2.8 0.26                           287 226 
 LL6C HZ EP        845 36.06                             102    0.39 7  301   5 
 LL6C HE ES        846  8.10                             102    0.17 7  301   5 
 LL6C HZ I         846 18.30         4.7 0.49            104            301   5 
 APAC HZ EP        845 41.81                              99   -0.27 6  354 286 
 APAC HN ES        846 19.61                              99    0.27 6  354 286 
 APAC HZ I         846 21.49         3.3 0.48            101            354 286 
 SJC  HZ EP   2    845 41.97                              98   -1.84 3  368 330 
 SJC  HN ES   4    846 18.95                              98   -3.46 0  368 330 
 SJC  HZ I         846 30.58         1.6 0.21            101            368 330 
 ORTC HZ EP        845 46.79                              96   -0.34 6  396 210 
 ORTC HE ES   4    846 32.01                              96    3.68 0  396 210 
 ORTC HZ I         846 36.73         1.9 0.20            100            396 210 
 PRA  HZ EP        845 47.90                              96    0.55 6  397 203 
 PRA  HE ES   4    846 34.80                              96    6.08 0  397 203 
 PRA  HZ I         846 42.05         4.2 0.32            100            397 203 
                                                                                
