 2011 11 8 0038 15.8 L   6.762 -73.143139.0  RSN  6 0.2 1.7LRSN                1
 GAP=139        0.50       2.6     3.8  5.3  0.1214E+00  0.2430E+01 -0.1043E+00E
 Epicentro: LOS SANTOS - SANTANDER                                             3
 ACTION:UPD 12-07-13 16:08 OP:ep   STATUS:               ID:20111108003815 L   I
 2011-11-08-0034-11S.COL___175                                                 6
 STAT SP IPHASW D HRMM SECON CODA AMPLIT PERI AZIMU VELO AIN AR TRES W  DIS CAZ7
 BAR2 SZ EP   1    038 34.45                             172   -0.11 7 19.3 193 
 BRR  HZ EP   1    038 36.63                             150    0.25 7 73.5 301 
 BRR  HN ES   1    038 52.26                             150   -0.16 7 73.5 301 
 BRR  HZ I         038 56.85        13.8 0.19                          73.5 301 
 PAM  SZ EP        038 37.28                             149   -0.2410 80.5  38 
 PAM  SN ES        038 54.34                             149   -0.1010 80.5  38 
 RUS  HZ EP   1    038 38.79                             143    0.18 7 96.4 176 
 RUS  HN ES   1    038 56.57                             143    0.19 7 96.4 176 
 RUS  HZ I         038 58.97         4.6 0.26                          96.4 176 
 OCA  SZ EP   1    038 43.96                             127   -0.06 7  164 353 
 OCA  SZ ES   1    039  6.50                             127    0.49 7  164 353 
 OCA  SZ I         039  7.06         7.7 0.25                           164 353 
 ZAR  HE ES   2    039 12.87                             120   -0.28 4  206 293 
 ZAR  HZ I         039 18.52         5.2 0.09                           206 293 
                                                                                
