 2016  3 8 0815  3.8 L   6.790 -73.177142.5  RSN  4 0.4 0.9LRSN                1
 GAP=142        0.74       4.3     4.3  7.4 -0.6293E+01  0.9703E+01  0.6080E+00E
 Epicentro: LOS SANTOS - SANTANDER                                             3
 ACTION:UPD 16-05-13 21:22 OP:cam  STATUS:               ID:20160308081503 L   I
 OLDACT:DUP 16-03-08 18:10 OP:cara STATUS:               ID:20160308080751d    3
 2016-03-08-0807-50M.COL___285                                                 6
 STAT SP IPHASW D HRMM SECON CODA AMPLIT PERI AZIMU VELO AIN AR TRES W  DIS CAZ7
 PAM  EZ EP        815 25.81                             149   -0.0110 80.5  41 
 PAM  EE ES        815 43.20                             149    0.1710 80.5  41 
 PAM  EZ I         815 45.08         1.0 0.50            154           80.5  41 
 RUS  HZ EP        815 27.32                             143    0.1910 99.7 174 
 RUS  HN ES        815 45.02                             143   -0.3410 99.7 174 
 PTB  HZ EP        815 29.85                             132   -0.28 9  144 259 
 PTB  HN ES        815 50.55                             132   -0.15 9  144 259 
 PTB  HZ I         815 57.85         1.1 0.46            133            144 259 
 SPBC HZ EP        815 31.87                             129    0.15 9  160 218 
 SPBC HE ES   2    815 54.70                             129    1.18 5  160 218 
 SPBC HZ I         815 56.66         1.3 0.34            132            160 218 
                                                                                
