 2017  3 8 0023  4.0 L   6.787 -73.147148.0  RSN  6 0.3 1.3LRSN                1
 GAP=137        0.51       5.0     4.3  6.0  0.4685E+01 -0.8210E+01 -0.4168E+01E
 Epicentro: LOS SANTOS - SANTANDER                                             3
 ACTION:UPD 17-05-25 18:37 OP:jn   STATUS:               ID:20170308002304 L   I
 OLDACT:UP  17-03-08 13:48 OP:and  STATUS:               ID:20170308001740     3
 OLDACT:UP  17-03-08 13:46 OP:and  STATUS:               ID:20170308001740     3
 OLDACT:UP  17-03-08 13:44 OP:and  STATUS:               ID:20170308001740     3
 OLDACT:REG 17-03-08 12:22 OP:and  STATUS:               ID:20170308001740     3
 2017-03-08-0018-00M.COL___356                                                 6
 STAT SP IPHASW D HRMM SECON CODA AMPLIT PERI AZIMU VELO AIN AR TRES W  DIS CAZ7
 BAR2 EZ EP   2    023 23.64                             171   -0.27 5 21.8 190 
 BAR2 EZ ES   2    023 38.85                             171   -0.56 5 21.8 190 
 BAR2 EZ I         023 41.31         5.0 0.30            174           21.8 190 
 BRR  HZ EP        023 25.34                             153   -0.1210 71.7 300 
 BRR  HN ES        023 42.47                             153    0.3010 71.7 300 
 PAM  EZ EP        023 26.56                             151   -0.0110 78.6  39 
 PAM  EN ES   4    023 48.67                             151    4.53 0 78.6  39 
 PAM  EZ I         023 50.60         3.8 0.38            149           78.6  39 
 RUS  HZ EP   2    023 28.01                             145    0.10 5 99.1 176 
 RUS  HN ES   2    023 46.97                             145    0.45 5 99.1 176 
 RUS  HZ I         023 48.28         2.7 0.32            151           99.1 176 
 PTB  HZ EP   2    023 31.24                             133    0.09 5  147 259 
 PTB  HN ES   2    023 51.93                             133   -0.36 5  147 259 
 PTB  HZ I         023 52.40         1.8 0.34            141            147 259 
 ZAR  HN ES   2    024  1.87                             123   -0.25 4  204 293 
                                                                                
