 2013  4 8 0717 38.8 L   6.715 -73.163149.7  RSN  5 0.3 1.6LRSN                1
 GAP=194        0.74       7.1     4.5  5.2  0.5017E+01  0.7385E+01  0.3143E+01E
 Epicentro: VILLANUEVA - SANTANDER                                             3
 ACTION:UPD 13-05-22 14:36 OP:EP   STATUS:               ID:20130408071738 L   I
 2013-04-08-0708-51M.COL___215                                                 6
 STAT SP IPHASW D HRMM SECON CODA AMPLIT PERI AZIMU VELO AIN AR TRES W  DIS CAZ7
 BAR2 SZ EP        717 58.78                             175    0.0810 13.7 189 
 BAR2 SZ ES        718 14.19                             175   -0.0710 13.7 189 
 BAR2 SZ I         718 15.49         8.2 0.26            170           13.7 189 
 GIR2 SZ EP        717 59.24                             164    0.0810 40.4 355 
 GIR2 SZ ES        718 14.60                             164   -0.4810 40.4 355 
 GIR2 SZ I         718 15.73         2.6 0.38            164           40.4 355 
 BRR  HZ EP        718  0.82                             152    0.3110 74.6 306 
 BRR  HZ I         718  0.91         4.3 0.16            149           74.6 306 
 BRR  HN ES        718 18.03                             152    0.5410 74.6 306 
 PTB  HZ EP        718  5.61                             134   -0.13 9  144 262 
 PTB  HN ES        718 26.73                             134   -0.05 9  144 262 
 PTB  HN I         718 32.21        10.6 0.50            132            144 262 
 ZAR  HZ EP        718 11.44                             123   -0.22 8  206 295 
 ZAR  HE ES        718 37.12                             123   -0.21 8  206 295 
 ZAR  HN I         718 42.76         5.9 0.42            122            206 295 
                                                                                
