 2013 12 8 0345 13.6 L   6.782 -73.416123.0  RSN  5 0.3 1.5LRSN                1
 GAP=171        0.69       4.6     4.0  5.7  0.1130E+02  0.6206E+01  0.4847E+01E
 Epicentro: SAN VICENTE DE CHUCURI - SANTANDER                                 3
 ACTION:UPD 14-01-13 10:16 OP:ep   STATUS:               ID:20131208034513 L   I
 OLDACT:REG 13-12-08 07:22 OP:carl STATUS:               ID:20131208034000     3
 2013-12-08-0340-00M.COL___285                                                 6
 STAT SP IPHASW D HRMM SECON CODA AMPLIT PERI AZIMU VELO AIN AR TRES W  DIS CAZ7
 BAR2 SZ EP        345 30.77                             164    0.0210 33.3 129 
 BAR2 SZ ES        345 44.25                             164    0.0910 33.3 129 
 BAR2 SZ I         345 45.11        14.7 0.24            164           33.3 129 
 BRR  HZ EP        345 30.84                             157   -0.1810 48.6 318 
 BRR  HN ES        345 44.48                             157   -0.1610 48.6 318 
 BRR  HZ I         345 45.11         6.6 0.10            158           48.6 318 
 RUS  HZ EP        345 35.85                             137    0.3310  105 159 
 RUS  HN ES        345 52.60                             137   -0.0410  105 159 
 RUS  HZ I         345 54.40         3.0 0.24            137            105 159 
 PTB  HZ EP        345 35.52                             133   -0.4710  118 257 
 PTB  HE ES        345 53.49                             133    0.0110  118 257 
 PTB  HZ I         345 56.57         5.3 0.14            133            118 257 
 ZAR  HN ES        346  4.30                             121    0.47 9  178 296 
                                                                                
