 2017 12 8 0730 48.2 L   6.798 -73.139140.2  RSN 18 0.4 2.4LRSN                1
 GAP= 66        1.00       2.5     2.8  5.3 -0.8098E-01  0.3869E+01  0.9576E+00E
 Epicentro: LOS SANTOS - SANTANDER                                             3
 ACTION:UPD 18-01-04 13:18 OP:rebc STATUS:               ID:20171208073048 L   I
 OLDACT:UP  17-12-08 14:20 OP:dnl  STATUS:               ID:20171208072745     3
 OLDACT:REG 17-12-08 13:34 OP:dani STATUS:               ID:20171208072745     3
 2017-12-08-0728-00M.COL___476                                                 6
 STAT SP IPHASW D HRMM SECON CODA AMPLIT PERI AZIMU VELO AIN AR TRES W  DIS CAZ7
 BAR2 EZ EP        731  7.09                             170   -0.0310 23.2 192 
 BAR2 EZ ES        731 21.98                             170    0.0810 23.2 192 
 BAR2 EZ I         731 23.11        65.7 0.46            163           23.2 192 
 PAM  EZ IP     D  731  9.93                             150    0.1610 77.1  39 
 PAM  EN ES        731 26.96                             150    0.3310 77.1  39 
 PAM  EZ I         731 29.06        44.7 0.56            147           77.1  39 
 PTB  HZ EP        731 13.80                             131   -0.94 9  148 259 
 PTB  HN ES        731 34.81                             131   -0.66 9  148 259 
 PTB  HZ I         731 37.38        19.8 0.30            121            148 259 
 TAM  HZ IP     D  731 15.36                             129    0.03 9  154 105 
 TAM  HN ES        731 35.81                             129   -0.71 9  154 105 
 TAM  HZ I         731 39.22         9.2 0.44            122            154 105 
 OCA  HZ EP        731 16.28                             128    0.20 9  161 353 
 OCA  HN ES        731 37.85                             128    0.00 9  161 353 
 OCA  HZ I         731 41.58        47.5 0.22            122            161 353 
 SPBC HZ EP        731 15.99                             128   -0.27 9  163 219 
 SPBC HN ES        731 38.34                             128    0.16 9  163 219 
 SPBC HZ I         731 40.59        43.8 0.36            118            163 219 
 YPLC HZ EP        731 17.42                             125   -0.08 9  176 151 
 YPLC HN ES        731 41.17                             125    0.79 9  176 151 
 YPLC HZ I         731 42.10        25.6 0.26            117            176 151 
 ZAR  HZ EP        731 20.79                             121    0.46 9  205 292 
 ZAR  HN ES        731 45.86                             121    0.44 9  205 292 
 ZAR  HZ I         731 51.69        32.4 0.34            113            205 292 
 TABC EZ EP   9    731 24.73                             118    1.13 0  230 211 
 TABC EZ I         732  0.09        20.8 0.38            110            230 211 
 CHI  HZ EP        731 25.35                             116   -0.20 8  249 195 
 CHI  HN ES        731 54.52                             116   -0.19 8  249 195 
 CHI  HZ I         731 58.58         8.4 0.58            108            249 195 
 ROSC BZ EP   4 D  731 27.39                             115    1.40 0  253 211 
 ROSC BE ES   4    731 58.43                             115    2.92 0  253 211 
 ROSC BZ I         732  3.59        18.6 0.50            108            253 211 
 DRL03HZ EP        731 29.26                             112   -0.29 7  289 353 
 DRL03HN ES        732  1.57                             112   -0.26 7  289 353 
 GUY2CHZ EP        731 32.21                             111    0.65 7  302 235 
 GUY2CHN ES   4    732  7.89                             111    2.47 0  302 235 
 GUY2CHZ I         732 12.15        11.0 0.28                           302 235 
 PTGC HZ EP   4    731 30.14                             110   -1.57 0  308 159 
 PTGC HE ES   4    732  3.50                             110   -2.18 0  308 159 
 PTGC HZ I         732  5.14         8.4 0.32            104            308 159 
 ELA  HZ EP   4    731 36.71                             109    1.89 0  329 230 
 ELA  HZ I         732 20.87         9.0 0.42            102            329 230 
 CBOC HZ EP        731 35.45                             109    0.53 7  334 252 
 CBOC HN ES        732 11.24                             109   -0.15 7  334 252 
 CBOC HZ I         732 14.31         4.2 0.18            102            334 252 
 ANIL HZ EP        731 38.14                             107    0.35 6  358 225 
 ANIL HN ES   4    732 15.36                             107   -1.14 0  358 225 
 ANIL HZ I         732 22.51        24.1 0.36            101            358 225 
 SJC  HZ EP   4    731 41.44                             105   -2.18 0  410 327 
 SJC  HN ES   4    732 21.59                             105   -5.28 0  410 327 
 SJC  HZ I         732 27.46         4.2 0.58             99            410 327 
                                                                                
