 2011  2 8 0347 23.3 L   6.806 -73.157141.9  RSN  6 0.1 1.4LRSN                1
 GAP=157        0.33       2.2     5.1  3.9 -0.5322E+01  0.2821E+01 -0.7564E+00E
 Epicentro: LOS SANTOS - SANTANDER                                             3
 ACTION:UP  11-03-28 15:06 OP:jfem STATUS:               ID:20110208034722 L   I
 2011-02-08-0340-00M.COL___140                                                 6
 STAT SP IPHASW D HRMM SECON CODA AMPLIT PERI AZIMU VELO SNR AR TRES W  DIS CAZ7
 BTL  SZ EP        347 42.54                             172     0.210   17 315 
 BTL  SZ ES   2    347 57.09                             172    -0.1 5   17 315 
 BAR2 SZ EP   1    347 42.43                             170     0.0 7   24 187 
 BAR2 SZ ES   2    347 57.37                             170    -0.1 5   24 187 
 BAR2 SZ I         347 59.11         3.7 0.12                            24 187 
 RUS  HZ EP   1    347 46.51                             143    -0.2 7  101 175 
 RUS  HN ES   1    348  5.05                             143     0.1 7  101 175 
 RUS  HZ I         348  6.45         4.4 0.34                           101 175 
 GRA  SZ EP   1    347 48.11                             136    -0.1 7  126  18 
 GRA  SZ ES   2    348  7.58                             136     0.0 5  126  18 
 GRA  SZ I         348 10.90         5.7 0.31                           126  18 
 NOR  SE ES   2    348 26.31                             118    -0.1 4  234 234 
 CHI  HZ EP   2    348  0.84                             116     0.0 4  249 195 
 CHI  HN ES   2    348 30.10                             116     0.0 4  249 195 
 CHI  HZ I         348 36.84         1.5 0.55                           249 195 
                                                                                
