 2015  8 8 0251  7.7 L   6.814 -73.118147.8  RSN 19 0.5 2.4LRSN                1
 GAP=121        1.12       2.8     4.3  5.5 -0.9940E+00  0.6770E+01  0.2515E+01E
 Epicentro: LOS SANTOS - SANTANDER                                             3
 ACTION:UPD 15-09-15 23:00 OP:cam  STATUS:               ID:20150808025107 L   I
 OLDACT:UP  15-08-08 16:20 OP:mh   STATUS:               ID:20150808024749     3
 OLDACT:UP  15-08-08 16:17 OP:mh   STATUS:               ID:20150808024749     3
 OLDACT:REG 15-08-08 13:05 OP:mh   STATUS:               ID:20150808024749     3
 2015-08-08-0247-49M.COL___358                                                 6
 STAT SP IPHASW D HRMM SECON CODA AMPLIT PERI AZIMU VELO AIN AR TRES W  DIS CAZ7
 BAR2 EZ EP        251 27.62                             170   -0.0310 25.5 196 
 BAR2 EZ ES        251 42.60                             170   -0.5910 25.5 196 
 BAR2 EZ I         251 43.51        52.4 0.22            168           25.5 196 
 BRR  HZ EP     C  251 29.45                             152    0.2310 73.3 296 
 BRR  HN ES        251 46.73                             152    0.7610 73.3 296 
 BRR  HZ I         251 48.91        32.5 0.30            147           73.3 296 
 PAM  EZ EP        251 30.60                             152    0.6210 74.2  38 
 PAM  EN ES        251 47.84                             152    0.5110 74.2  38 
 PAM  EZ I         251 49.85        20.1 0.32            154           74.2  38 
 RUS  HZ EP        251 31.59                             144   -0.1910  102 178 
 RUS  HN ES        251 50.46                             144   -0.0810  102 178 
 RUS  HZ I         251 51.03        23.7 0.26            145            102 178 
 OCA  HZ EP        251 36.28                             130    0.18 9  159 352 
 OCA  HN ES        251 57.80                             130   -0.42 9  159 352 
 OCA  HZ I         252  5.83        48.2 0.24            129            159 352 
 ZAR  HZ EP        251 40.06                             123   -0.49 8  206 291 
 ZAR  HN ES        252  5.53                             123   -0.61 8  206 291 
 NOR  HZ EP        251 43.68                             119   -0.27 8  238 235 
 NOR  HN ES        252 11.89                             119   -0.30 8  238 235 
 SML  HZ EP   1    251 44.80                             118    0.33 6  244 334 
 SML  HN ES        252 12.41                             118   -0.71 8  244 334 
 SML  HZ I         252 20.77        20.5 0.10            117            244 334 
 CHI  HZ EP        251 45.97                             117    0.18 8  251 196 
 CHI  HN ES        252 15.29                             117   -0.19 8  251 196 
 CHI  HZ I         252 20.16        15.8 0.32            117            251 196 
 ROSC BN ES   4    252 18.70                             117    2.35 0  256 211 
 ROSC BZ I         252 22.02        31.7 0.14            116            256 211 
 HEL  HZ EP        251 49.26                             115    0.84 7  275 256 
 HEL  HN ES        252 20.20                             115    0.04 7  275 256 
 HEL  HZ I         252 25.51        10.9 0.36            114            275 256 
 URE  HZ EP   4    251 47.84                             114   -1.32 0  286 291 
 URE  HN ES   4    252 18.45                             114   -3.02 0  286 291 
 URE  HZ I         252 29.11        19.0 0.18            112            286 291 
 SOCV BZ EP   1    251 49.43                             113   -1.06 5  298  57 
 SOCV BN ES   4    252 21.89                             113   -1.94 0  298  57 
 VIL  SZ EP        251 51.27                             112   -0.21 7  305 192 
 VIL  SN ES        252 25.11                             112   -0.50 7  305 192 
 VIL  SZ I         252 28.22        19.2 0.34            112            305 192 
 GUY2CHZ EP        251 51.60                             112   -0.22 7  305 235 
 GUY2CHN ES   4    252 29.78                             112    3.57 0  305 235 
 TOL  SZ EP        251 57.28                             109    0.83 6  347 225 
 TOL  SN ES        252 35.38                             109    0.94 6  347 225 
 TOL  SZ I         252 39.07         8.7 0.28            109            347 225 
 MON  HZ EP   4    251 54.84                             109   -2.15 0  355 308 
 MON  HN ES   4    252 33.15                             109   -2.25 0  355 308 
 MON  HZ I         252 48.13         6.6 0.54            108            355 308 
 ANIL HZ EP   4    252  0.48                             109    2.49 0  361 225 
 ANIL HE ES   4    252 39.25                             109    2.05 0  361 225 
 ANIL HZ I         252 47.56        35.6 0.28            108            361 225 
 CRJC HZ EP   4    252  7.79                             104   -2.30 0  466   3 
 CRJC HE ES   4    252 56.20                             104   -2.52 0  466   3 
 CRJC HZ I         253  0.01         5.1 0.50            104            466   3 
                                                                                
