 2011 12 8 0442 53.4 L   7.419 -73.058142.0  RSN  3 0.3 1.3LRSN                1
 GAP=218        0.50       7.2     5.3  6.9 -0.8187E+01  0.1538E+01  0.9267E+01E
 Epicentro: SURATA - SANTANDER                                                 3
 ACTION:UPD 12-07-13 16:14 OP:ep   STATUS:               ID:20111208044253 L   I
 2011-12-08-0440-00M.COL___170                                                 6
 STAT SP IPHASW D HRMM SECON CODA AMPLIT PERI AZIMU VELO AIN AR TRES W  DIS CAZ7
 PAM  SZ EP   1    443 13.29                             164   -0.15 7 40.5 103 
 PAM  SZ I         443 13.74         4.3 0.17                          40.5 103 
 PAM  SN ES   1    443 29.19                             164    0.12 7 40.5 103 
 BRR  HZ EP   1    443 14.50                             149   -0.19 7 80.0 245 
 BRR  HN ES   1    443 31.41                             149    0.13 7 80.0 245 
 BRR  HZ I         443 32.72         5.9 0.11                          80.0 245 
 RUS  HZ EP   2    443 23.34                             128    0.64 5  169 181 
 RUS  HZ I         443 23.96         1.2 0.09                           169 181 
 RUS  HE ES   2    443 45.17                             128   -0.38 5  169 181 
                                                                                
