 2017  7 8 0409 21.8 L   6.830 -73.119148.3  RSN 12 0.5 1.9LRSN                1
 GAP=186        1.24       6.0     5.7  6.7  0.9773E+01  0.2389E+00  0.4043E+01E
 Epicentro: LOS SANTOS - SANTANDER                                             3
 ACTION:UPD 17-08-30 15:30 OP:rebc STATUS:               ID:20170708040921 L   I
 OLDACT:UP  17-07-08 15:35 OP:edw  STATUS:               ID:20170708040745     3
 OLDACT:UP  17-07-08 15:34 OP:edw  STATUS:               ID:20170708040745     3
 OLDACT:UP  17-07-08 15:33 OP:edw  STATUS:               ID:20170708040745     3
 OLDACT:REG 17-07-08 13:03 OP:edw  STATUS:               ID:20170708040745     3
 2017-07-08-0408-00M.COL___374                                                 6
 STAT SP IPHASW D HRMM SECON CODA AMPLIT PERI AZIMU VELO AIN AR TRES W  DIS CAZ7
 BAR2 EZ EP        4 9 41.81                             170   -0.0410 27.2 195 
 BAR2 EZ ES        4 9 56.99                             170   -0.4810 27.2 195 
 BAR2 EZ I         4 9 58.37        32.2 0.18            163           27.2 195 
 BRR  HZ IP     C  4 9 43.56                             152    0.2410 72.3 295 
 BRR  HN ES        410  0.75                             152    0.6710 72.3 295 
 BRR  HZ I         410  4.11        11.5 0.50            147           72.3 295 
 PTB  HZ EP   9    4 9 48.64                             132   -0.68 0  151 258 
 PTB  HN ES        410  9.16                             132   -0.93 9  151 258 
 PTB  HZ I         410 16.87         7.0 0.34            128            151 258 
 SPBC HZ EP        4 9 51.10                             129    0.16 9  168 219 
 SPBC HN ES        410 12.99                             129   -0.66 9  168 219 
 SPBC HZ I         410 19.84        15.8 0.26            126            168 219 
 YPLC HZ IP     D  4 9 52.28                             127    0.32 9  178 153 
 YPLC HN ES        410 15.66                             127    0.20 9  178 153 
 YPLC HZ I         410 17.26         8.2 0.24            128            178 153 
 ZAR  HZ EP   2    4 9 54.23                             122   -0.37 4  206 291 
 ZAR  HN ES   2    410 19.61                             122   -0.55 4  206 291 
 ZAR  HZ I         410 25.80         9.4 0.32            121            206 291 
 NOR  HZ EP        4 9 58.54                             118    0.37 8  239 234 
 NOR  HN ES        410 26.23                             118   -0.28 8  239 234 
 NOR  HZ I         410 31.89         5.5 0.32            117            239 234 
 HEL  HZ EP        410  2.94                             115    0.36 7  276 255 
 HEL  HN ES   4    410 32.91                             115   -1.45 0  276 255 
 HEL  HZ I         410 41.53         4.4 0.36            113            276 255 
 GUY2CHZ EP   4    410  7.14                             112    1.10 0  305 235 
 GUY2CHN ES   4    410 42.55                             112    2.03 0  305 235 
 GUY2CHZ I         410 48.62         3.6 0.24                           305 235 
 PTGC HZ EP     C  410  5.09                             112   -0.94 7  311 159 
 PTGC HN ES   4    410 38.55                             112   -1.95 0  311 159 
 CBOC HZ EP        410 10.12                             110    0.84 7  337 252 
 CBOC HN ES   4    410 43.90                             110   -2.40 0  337 252 
 CBOC HZ I         410 55.28         1.3 0.54            109            337 252 
 SJC  HZ EP        410 16.03                             106   -1.31 6  408 326 
 SJC  HN ES   4    410 56.66                             106   -3.98 0  408 326 
 SJC  HZ I         411  3.61         1.8 0.30            106            408 326 
                                                                                
