 2011  1 8 0854 41.0 L   6.806 -73.165144.5  RSN  4 0.3 1.3LRSN                1
 GAP=217        0.62       9.1    50.3  8.9  0.1847E+03  0.1566E+03  0.3733E+01E
 Epicentro: LOS SANTOS - SANTANDER                                             3
 ACTION:UP  11-02-08 08:39 OP:pat  STATUS:               ID:20110108085441 L   I
 2011-01-08-0851-33S.COL___135                                                 6
 STAT SP IPHASW D HRMM SECON CODA AMPLIT PERI AZIMU VELO SNR AR TRES W  DIS CAZ7
 BTL  SZ EP        855  0.62                             173     0.210   17 318 
 BAR2 SZ IP        855  0.43                             170    -0.110   24 185 
 BAR2 SZ ES   1    855 15.40                             170    -0.3 7   24 185 
 BAR2 SZ I         855 16.71         8.3 0.28                            24 185 
 RUS  HZ EP   2    855  4.34                             143    -0.4 5  101 175 
 RUS  HN ES   2    855 23.61                             143     0.4 5  101 175 
 RUS  HZ I         855 24.63         2.5 0.33                           101 175 
 CHI  HZ EP   2    855 18.64                             117     0.0 4  249 195 
 CHI  HZ I         855 19.05         0.8 0.21                           249 195 
                                                                                
