 2016 11 8 0618 42.9 L   6.754 -73.315119.2  RSN  5 0.5 0.9LRSN                1
 GAP=119        1.24       8.8     5.0  9.1 -0.9024E+01  0.1478E+02 -0.1035E+02E
 Epicentro: ZAPATOCA - SANTANDER                                               3
 ACTION:UPD 17-10-26 21:05 OP:lp   STATUS:               ID:20161108061842 L   I
 OLDACT:REG 16-11-08 12:26 OP:lv   STATUS:               ID:20161108060747     3
 2016-11-08-0608-00M.COL___349                                                 6
 STAT SP IPHASW D HRMM SECON CODA AMPLIT PERI AZIMU VELO AIN AR TRES W  DIS CAZ7
 BAR2 EZ EP        618 59.59                             168    0.2510 23.2 141 
 BAR2 EZ ES        619 12.74                             168    0.5810 23.2 141 
 BRR  HZ EP        619  0.00                             152   -0.4710 58.7 312 
 BRR  HN ES        619 14.32                             152    0.1510 58.7 312 
 BRR  HZ I         619 16.12         2.4 0.16            150           58.7 312 
 PAM  EZ EP        619  3.29                             140   -0.3010 93.9  46 
 PAM  EN ES        619 19.41                             140   -0.3210 93.9  46 
 PAM  EZ I         619 22.73         1.6 0.26            141           93.9  46 
 PTB  HZ EP        619  6.12                             129    0.1610  128 259 
 PTB  HE ES        619 23.00                             129   -0.9510  128 259 
 PTB  HZ I         619 27.29         1.2 0.20            131            128 259 
 ZAR  HZ EP        619 12.82                             118    0.70 9  189 296 
 ZAR  HN ES        619 35.31                             118    0.39 9  189 296 
 ZAR  HZ I         619 38.15         0.9 0.11            119            189 296 
                                                                                
