 2017 10 8 0739  2.9 L   6.820 -73.143142.4  RSN 15 0.5 1.9LRSN                1
 GAP=111        1.08       3.8     4.2  6.2 -0.2054E+01  0.9543E+01  0.6025E+01E
 Epicentro: LOS SANTOS - SANTANDER                                             3
 ACTION:UPD 17-11-07 19:29 OP:rebc STATUS:               ID:20171008073902 L   I
 OLDACT:UP  17-10-08 17:10 OP:dhb  STATUS:               ID:20171008073311     3
 OLDACT:REG 17-10-08 12:54 OP:dhb  STATUS:               ID:20171008073311     3
 2017-10-08-0738-00M.COL___399                                                 6
 STAT SP IPHASW D HRMM SECON CODA AMPLIT PERI AZIMU VELO AIN AR TRES W  DIS CAZ7
 BAR2 EZ IP     C  739 22.01                             169   -0.1610 25.6 190 
 BAR2 EZ ES        739 37.37                             169    0.1710 25.6 190 
 BAR2 EZ I         739 39.83        20.6 0.30            167           25.6 190 
 PAM  EZ IP     C  739 25.04                             151    0.4010 75.5  40 
 PAM  EN ES        739 41.19                             151   -0.4110 75.5  40 
 PAM  EZ I         739 45.10         6.7 0.22            156           75.5  40 
 RUS  HZ EP        739 26.21                             142   -0.2710  103 176 
 RUS  HN ES        739 45.09                             142    0.2210  103 176 
 RUS  HZ I         739 45.93         9.8 0.36            145            103 176 
 SPBC HZ EP        739 30.98                             128   -0.35 9  165 219 
 SPBC HN ES        739 53.35                             128   -0.15 9  165 219 
 SPBC HZ I         739 59.95        10.7 0.38            128            165 219 
 YPLC HZ EP        739 32.45                             125   -0.18 9  179 152 
 YPLC HN ES        739 56.44                             125    0.63 9  179 152 
 YPLC HZ I         739 57.45         7.8 0.26            130            179 152 
 ZAR  HN ES        740  0.41                             122    0.24 9  204 292 
 ZAR  HZ I         740  5.21         6.5 0.24            122            204 292 
 NOR  HZ EP        739 38.27                             118   -0.34 8  236 234 
 NOR  HN ES        740  6.69                             118    0.23 8  236 234 
 NOR  HZ I         740 12.36         4.1 0.12            118            236 234 
 CHI  HZ EP        739 40.55                             116   -0.11 8  251 195 
 CHI  HE ES        740  9.12                             116   -0.99 8  251 195 
 CHI  HZ I         740 13.21         3.2 0.36            118            251 195 
 ROSC BZ EP        739 42.58                             116    1.51 8  255 211 
 ROSC BE ES        740 10.45                             116   -0.38 8  255 211 
 ROSC BZ I         740 18.35         7.3 0.70            117            255 211 
 URE  HZ EP   4    739 47.31                             113    3.55 0  283 291 
 URE  HN ES   4    740 12.60                             113   -3.02 0  283 291 
 URE  HZ I         740 25.96         3.5 0.15            114            283 291 
 GUY2CHZ EP        739 45.90                             111   -0.63 7  303 234 
 GUY2CHE ES   4    740 22.99                             111    2.43 0  303 234 
 GUY2CHZ I         740 29.50         3.2 0.34                           303 234 
 PTGC HE ES   4    740 19.10                             111   -1.99 0  311 159 
 PTGC HZ I         740 20.06         4.4 0.21            114            311 159 
 ELA  HZ EP        739 49.89                             109    0.08 7  331 229 
 ELA  HN ES        740 26.87                             109    0.48 7  331 229 
 ELA  HZ I         740 41.57         2.5 0.56            111            331 229 
 PRA  HZ EP        739 56.45                             106   -0.11 6  394 209 
 PRA  HE ES        740 38.39                             106   -0.01 6  394 209 
 PRA  HZ I         740 42.19         3.3 0.28            107            394 209 
 ORTC HE ES        740 39.45                             106    0.36 6  397 216 
 ORTC HZ I         740 43.28         1.8 0.33            107            397 216 
                                                                                
