 2014  1 8 0345 56.9 L   6.819 -73.152143.0  RSN 16 0.4 2.4LRSN                1
 GAP=135        0.98       2.3     3.4  4.9 -0.2378E+01  0.6584E+01 -0.9322E+00E
 Epicentro: LOS SANTOS - SANTANDER                                             3
 ACTION:UPD 14-03-13 09:52 OP:ep   STATUS:               ID:20140108034556 L   I
 OLDACT:DUP 14-01-08 09:04 OP:carl STATUS:               ID:20140108034001d    3
 2014-01-08-0340-00M.COL___285                                                 6
 STAT SP IPHASW D HRMM SECON CODA AMPLIT PERI AZIMU VELO AIN AR TRES W  DIS CAZ7
 BAR2 SZ EP        346 15.97                             169   -0.3010 25.3 188 
 BAR2 SZ ES        346 31.07                             169   -0.2910 25.3 188 
 BAR2 SZ I         346 33.08        78.5 0.20            168           25.3 188 
 PAM  SZ EP        346 19.31                             151    0.5210 76.3  41 
 PAM  SN ES        346 36.31                             151    0.4710 76.3  41 
 PAM  SZ I         346 38.56        39.5 0.60            155           76.3  41 
 RUS  HZ EP        346 20.41                             143   -0.1610  103 176 
 RUS  HN ES        346 39.15                             143    0.1410  103 176 
 RUS  HZ I         346 40.05        28.8 0.26            144            103 176 
 PTB  HZ EP        346 23.20                             131   -0.45 9  147 258 
 PTB  HN ES        346 43.88                             131   -0.61 9  147 258 
 PTB  HZ I         346 46.57        35.6 0.14            130            147 258 
 OCA  HZ EP        346 24.86                             129    0.03 9  158 353 
 OCA  HE ES        346 46.63                             129    0.04 9  158 353 
 OCA  HZ I         346 50.59        43.4 0.20            131            158 353 
 SPBC HZ EP        346 25.27                             128   -0.06 9  164 218 
 SPBC HN ES        346 47.46                             128   -0.03 9  164 218 
 SPBC HZ I         346 49.92        39.2 0.48            128            164 218 
 ZAR  HZ EP        346 28.93                             122   -0.12 9  203 292 
 ZAR  HN ES        346 54.82                             122    0.71 9  203 292 
 ZAR  HZ I         347  0.42        19.2 0.36            122            203 292 
 NOR  HZ EP        346 32.25                             118   -0.32 8  235 234 
 NOR  HE ES        347  0.90                             118    0.53 8  235 234 
 NOR  HZ I         347  7.23        23.2 0.26            118            235 234 
 SML  HZ EP        346 32.89                             117   -0.28 8  242 335 
 SML  HN ES        347  0.97                             117   -0.46 8  242 335 
 SML  HZ I         347  6.73        36.1 0.10            118            242 335 
 CHI  HZ EP        346 34.59                             116   -0.09 8  250 195 
 CHI  HN ES        347  3.72                             116   -0.40 8  250 195 
 CHI  HZ I         347 13.69         8.2 0.32            118            250 195 
 ROSC BZ EP   4    346 36.57                             116    1.51 0  254 211 
 ROSC BE ES   4    347  7.23                             116    2.44 0  254 211 
 HEL  HZ EP        346 37.87                             114    0.88 8  272 255 
 HEL  HN ES        347  8.16                             114   -0.07 8  272 255 
 HEL  HZ I         347 16.16        12.8 0.32            115            272 255 
 URE  HN ES   4    347  7.34                             113   -2.18 0  282 292 
 GUY2CHZ EP        346 40.71                             112    0.23 7  302 234 
 GUY2CHE ES        347 14.58                             112    0.13 7  302 234 
 GUY2CHZ I         347 23.05        15.6 0.30                           302 234 
 RREF HZ EP        346 43.77                             110    0.72 7  323 229 
 RREF HE ES        347 19.48                             110    0.46 7  323 229 
 RREF HZ I         347 30.52        12.9 0.28            111            323 229 
 CBOC HZ EP        346 44.39                             109    0.66 7  334 252 
 CBOC HN ES        347 19.41                             109   -0.82 7  334 252 
 CBOC HZ I         347 34.13         4.2 0.38            110            334 252 
 COD  HZ EP        346 43.87                             108   -1.09 6  346 355 
 COD  HN ES        347 22.75                             108    0.34 6  346 355 
 ARGC HZ EP   4    346 46.62                             108    0.39 0  357 340 
 ARGC HN ES   4    347 24.57                             108   -0.11 0  357 340 
 ORTC HZ EP        346 50.58                             106   -0.33 6  397 216 
 ORTC HN ES        347 33.19                             106    0.19 6  397 216 
 ORTC HZ I         347 40.96         6.5 0.72            107            397 216 
 SJC  HZ EP   4    346 50.65                             105   -1.51 0  407 327 
 SJC  HN ES   4    347 31.89                             105   -3.34 0  407 327 
                                                                                
