 2016  9 8 0048 40.8 L   6.801 -73.146149.3  RSN 24 0.6 2.4LRSN                1
 GAP= 54        1.28       3.1     3.7  5.6 -0.6681E+00  0.6564E+00  0.1725E+01E
 Epicentro: LOS SANTOS - SANTANDER                                             3
 ACTION:UPD 17-08-17 21:07 OP:lp   STATUS:               ID:20160908004840 L   I
 OLDACT:UP  16-09-08 13:20 OP:dani STATUS:               ID:20160908004736     3
 OLDACT:UP  16-09-08 13:20 OP:dani STATUS:               ID:20160908004736     3
 OLDACT:UP  16-09-08 13:20 OP:dani STATUS:               ID:20160908004736     3
 OLDACT:UP  16-09-08 13:19 OP:dani STATUS:               ID:20160908004736     3
 OLDACT:REG 16-09-08 12:09 OP:dani STATUS:               ID:20160908004736     3
 2016-09-08-0048-00M.COL___354                                                 6
 STAT SP IPHASW D HRMM SECON CODA AMPLIT PERI AZIMU VELO AIN AR TRES W  DIS CAZ7
 BAR2 HZ EP        049  0.85                             171    0.0210 23.5 190 
 BAR2 HE ES        049 16.32                             171   -0.1610 23.5 190 
 BAR2 HZ I         049 18.88        69.4 0.32            165           23.5 190 
 BRR  HZ EP     C  049  2.67                             153    0.3710 71.1 298 
 BRR  HN ES        049 19.89                             153    0.8010 71.1 298 
 BRR  HZ I         049 23.88        36.2 0.16            147           71.1 298 
 PAM  EZ EP     C  049  3.65                             151    0.2910 77.3  40 
 PAM  EE ES        049 21.10                             151    0.1210 77.3  40 
 PAM  EZ I         049 23.07        42.1 0.50            155           77.3  40 
 RUS  HZ EP     D  049  4.86                             144   -0.0310  101 176 
 RUS  HE ES        049 23.57                             144   -0.1210  101 176 
 RUS  HZ I         049 24.79        40.6 0.32            141            101 176 
 PTB  HZ EP        049  7.69                             133   -0.34 9  148 259 
 PTB  HN ES        049 28.63                             133   -0.66 9  148 259 
 PTB  HZ I         049 34.29        19.9 0.18            127            148 259 
 TAM  HZ EP     C  049  9.25                             131    0.51 9  155 105 
 OCA  HZ EP        049  9.67                             130    0.32 9  160 353 
 OCA  HN ES        049 30.86                             130   -0.78 9  160 353 
 OCA  HZ I         049 34.49        54.0 0.16            129            160 353 
 SPBC HZ EP        049  9.80                             130    0.25 9  163 219 
 SPBC HN ES        049 31.79                             130   -0.21 9  163 219 
 SPBC HZ I         049 35.21        38.3 0.16            125            163 219 
 ZAR  HE ES        049 39.15                             123    0.23 9  204 292 
 NOR  HZ EP        049 17.27                             119    0.55 8  235 234 
 NOR  HE ES        049 44.91                             119    0.16 8  235 234 
 NOR  HZ I         049 50.54        19.8 0.16            115            235 234 
 CHI  HZ EP        049 19.09                             118    0.40 8  249 195 
 CHI  HN ES        049 48.56                             118    0.31 8  249 195 
 CHI  HZ I         049 58.29        10.6 0.46            115            249 195 
 ROSC BZ EP   4    049 21.08                             117    1.98 0  253 211 
 ROSC BN ES   4    049 52.17                             117    3.18 0  253 211 
 ROSC BZ I         049 55.57        23.1 0.40            114            253 211 
 HEL  HZ EP        049 22.43                             115    1.26 8  272 256 
 HEL  HE ES        049 51.69                             115   -0.98 8  272 256 
 HEL  HZ I         050  1.41         7.6 0.44            112            272 256 
 URE  HZ EP        049 20.89                             114   -1.12 7  284 292 
 URE  HE ES   4    049 52.58                             114   -1.59 0  284 292 
 URE  HZ I         050  2.28        17.6 0.26            111            284 292 
 SOCV BZ EP        049 23.83                             113   -0.15 7  301  57 
 SOCV BN ES   4    049 56.31                             113   -1.38 0  301  57 
 GUY2CHZ EP   4    049 25.89                             113    1.34 0  301 235 
 GUY2CHN ES   4    050  3.23                             113    4.53 0  301 235 
 GUY2CHZ I         050 11.12        10.7 0.42                           301 235 
 VIL  EZ EP        049 24.85                             113    0.48 7  303 192 
 PTGC HZ EP        049 24.07                             112   -0.74 7  309 159 
 PTGC HN ES        049 57.68                             112   -1.47 7  309 159 
 PTGC HZ I         050  0.13        12.5 0.43            111            309 159 
 LL6C HZ EP        049 26.13                             111   -0.48 7  325 358 
 ELA  HZ EP   4    049 32.01                             111    4.23 0  329 229 
 ELA  HE ES   4    050  8.15                             111    3.70 0  329 229 
 ELA  HZ I         050 20.13         8.3 0.42            108            329 229 
 CBOC HZ EP   4    049 26.55                             110   -1.29 0  334 252 
 CBOC HE ES   4    049 59.56                             110   -4.99 0  334 252 
 CBOC HZ I         050 20.84         2.8 0.48            108            334 252 
 PAL  HZ EP        049 36.71                             106    0.65 6  406 239 
 PAL  HZ I         050 18.72         8.3 0.24            104            406 239 
 SJC  HZ EP   4    049 35.07                             106   -1.37 0  409 327 
 SJC  HN ES        050 19.33                             106   -0.53 6  409 327 
 SJC  HZ I         050 20.35         3.7 0.58            105            409 327 
 CRJC HZ EP   9    049 41.35                             104   -2.01 0  467   4 
 CRJC HN ES        050 29.66                             104   -0.50 5  467   4 
 CRJC HZ I         050 36.08         6.9 0.48            103            467   4 
                                                                                
