 2017 11 8 0313 37.2 L   6.804 -73.134140.6  RSN 17 0.4 2.1LRSN                1
 GAP=101        0.98       3.0     2.4  4.8  0.3528E+00  0.3203E+01  0.4286E+01E
 Epicentro: LOS SANTOS - SANTANDER                                             3
 ACTION:UPD 17-12-12 19:53 OP:rebc STATUS:               ID:20171108031337 L   I
 OLDACT:UP  17-11-08 16:20 OP:dnl  STATUS:               ID:20171108030741     3
 OLDACT:REG 17-11-08 14:55 OP:dnl  STATUS:               ID:20171108030741     3
 2017-11-08-0308-00M.COL___423                                                 6
 STAT SP IPHASW D HRMM SECON CODA AMPLIT PERI AZIMU VELO AIN AR TRES W  DIS CAZ7
 BAR2 EZ EP        313 55.91                             170   -0.3110 24.1 193 
 BAR2 EZ ES        314 10.42                             170   -0.6410 24.1 193 
 BAR2 EZ I         314 12.76        26.1 0.34            169           24.1 193 
 BRR  HZ EP        313 57.80                             151   -0.0410 72.1 298 
 BRR  HE ES        314 14.65                             151    0.7110 72.1 298 
 BRR  HZ I         314 18.87        27.5 0.10            151           72.1 298 
 PAM  EZ EP        313 58.90                             150    0.1110 76.2  39 
 PAM  EN ES        314 15.53                             150   -0.1010 76.2  39 
 PAM  EZ I         314 17.78        46.8 0.50            154           76.2  39 
 RUS  HZ EP        314  0.31                             143   -0.1610  101 177 
 RUS  HE ES        314 18.68                             143    0.0510  101 177 
 RUS  HZ I         314 19.92        14.9 0.28            144            101 177 
 PTB  HZ EP        314  3.31                             130   -0.56 9  149 259 
 PTB  HN ES        314 24.99                             130    0.32 9  149 259 
 PTB  HZ I         314 26.98        11.6 0.16            131            149 259 
 TAM  HZ IP     D  314  4.31                             129   -0.05 9  154 105 
 TAM  HE ES        314 25.82                             129    0.27 9  154 105 
 TAM  HZ I         314 26.34         8.3 0.34            133            154 105 
 SPBC HZ EP        314  4.87                             128   -0.54 9  164 219 
 SPBC HN ES        314 27.02                             128   -0.41 9  164 219 
 SPBC HZ I         314 32.51        25.1 0.24            129            164 219 
 YPLC HZ EP        314  6.41                             125   -0.19 9  177 152 
 YPLC HN ES        314 29.99                             125    0.45 9  177 152 
 YPLC HZ I         314 32.82        26.2 0.28            128            177 152 
 ZAR  HZ EP   2    314  8.80                             121   -0.61 4  205 292 
 ZAR  HN ES        314 34.78                             121    0.24 9  205 292 
 ZAR  HZ I         314 42.67        13.6 0.52            123            205 292 
 NOR  HZ EP        314 13.61                             117    0.84 8  236 235 
 NOR  HN ES        314 40.43                             117   -0.09 8  236 235 
 NOR  HZ I         314 47.26         8.5 0.16            119            236 235 
 CHI  HZ EP        314 14.38         4.7 0.46            116   -0.32 8  249 195 
 CHI  HN ES        314 44.54                             116    0.59 8  249 195 
 CHI  HZ I         314 47.78         4.7 0.46            118            249 195 
 GUY2CHZ EP        314 21.57                             111    0.85 7  303 235 
 GUY2CHN ES        314 55.09                             111    0.43 7  303 235 
 GUY2CHZ I         315  3.56         5.8 0.56                           303 235 
 PTGC HZ EP   4    314 18.94                             110   -1.88 0  309 159 
 PTGC HN ES   4    314 52.31                             110   -2.54 0  309 159 
 PTGC HZ I         314 54.79         8.6 0.32            113            309 159 
 CBOC HZ EP        314 24.83                             109    0.78 7  335 252 
 CBOC HN ES        315  0.10                             109   -0.51 7  335 252 
 CBOC HZ I         315  4.01         2.7 0.52            110            335 252 
 DBB  EZ EP   2    314 24.08                             108   -0.53 3  341 274 
 DBB  EN ES        315  1.00                             108   -0.59 7  341 274 
 DBB  EZ I         315  3.41         3.5 0.48            110            341 274 
 PRA  HZ EP        314 30.63                             106   -0.03 6  393 210 
 PRA  HN ES        315 11.99                             106   -0.38 6  393 210 
 PRA  HZ I         315 14.50         4.3 0.30            107            393 210 
 ORTC HZ EP   2    314 31.27                             105    0.20 3  397 216 
 ORTC HN ES        315 12.85                             105   -0.25 6  397 216 
 ORTC HZ I         315 19.00         3.5 0.48            107            397 216 
                                                                                
