 2012  9 8 0728 16.8 L   6.795 -73.133139.9  RSN  6 0.2 1.7LRSN                1
 GAP=189        0.45       3.6     3.5  4.2  0.5503E+01  0.3731E+01  0.2099E+01E
 Epicentro: LOS SANTOS - SANTANDER                                             3
 ACTION:UPD 12-10-22 14:17 OP:ep   STATUS:               ID:20120908072816 L   I
 2012-09-08-0720-00M.COL___227                                                 6
 STAT SP IPHASW D HRMM SECON CODA AMPLIT PERI AZIMU VELO AIN AR TRES W  DIS CAZ7
 BAR2 SZ EP   1    728 35.77                             170    0.02 7 23.0 194 
 BAR2 SZ ES   1    728 50.21                             170   -0.29 7 23.0 194 
 BAR2 SZ I         728 51.98        13.7 0.24                          23.0 194 
 GIR2 SZ EP   1    728 35.91                             166    0.08 7 32.1 348 
 GIR2 SZ ES   1    728 50.68                             166    0.03 7 32.1 348 
 BRR  HZ EP   1    728 37.64                             151    0.20 7 72.7 298 
 BRR  HN ES   1    728 53.43                             151   -0.08 7 72.7 298 
 BRR  HN I         728 55.34        22.0 0.12                          72.7 298 
 RUS  HZ EP   1    728 39.91                             143   -0.05 7 99.9 177 
 RUS  HN ES   1    728 58.27                             143    0.27 7 99.9 177 
 RUS  HZ I         728 59.12         3.8 0.28                          99.9 177 
 PTB  HZ EP   1    728 42.99                             130   -0.46 7  149 259 
 PTB  HN ES   1    729  4.25                             130    0.05 7  149 259 
 PTB  HN I         729  5.65         5.0 0.24                           149 259 
 ZAR  HE ES   1    729 14.42                             121    0.22 6  206 292 
                                                                                
