 2017  7 8 0917 48.4 L   6.611 -73.184144.0  RSN  4 0.3 1.1LRSN                1
 GAP=223        0.66       7.6     5.7  5.8  0.5612E+01  0.8658E+01  0.1118E+01E
 Epicentro: BARICHARA - SANTANDER                                              3
 ACTION:UPD 17-08-30 15:31 OP:rebc STATUS:               ID:20170708091748 L   I
 OLDACT:DUP 17-07-08 20:50 OP:edw  STATUS:               ID:20170708090739d    3
 OLDACT:UP  17-07-08 20:49 OP:edw  STATUS:               ID:20170708090738     3
 OLDACT:REG 17-07-08 13:37 OP:edw  STATUS:               ID:20170708090738     3
 2017-07-08-0908-00M.COL___356                                                 6
 STAT SP IPHASW D HRMM SECON CODA AMPLIT PERI AZIMU VELO AIN AR TRES W  DIS CAZ7
 BAR2 EZ ES   1    918 22.49                             179   -0.08 7 2.12 176 
 BRR  HZ EP        918  9.62                             149   -0.3010 80.1 313 
 BRR  HN ES        918 26.94                             149    0.2610 80.1 313 
 PTB  HZ EP        918 14.64                             133   -0.01 9  141 267 
 PTB  HN ES        918 35.13                             133    0.04 9  141 267 
 PTB  HZ I         918 41.00         0.7 0.40            126            141 267 
 ZAR  HZ EP        918 21.73                             121    0.44 8  209 298 
 ZAR  HN ES        918 46.56                             121   -0.35 8  209 298 
 ZAR  HZ I         919  0.47         2.2 0.34            116            209 298 
                                                                                
