 2011  8 8 0444 49.9 L   5.819 -73.739114.6  RSN  6 0.2 1.9LRSN                1
 GAP=104        0.45       2.0     2.6  5.0 -0.2188E+01  0.4464E+01  0.9509E+00E
 Epicentro: JESUS MARIA - SANTANDER                                            3
 ACTION:UPD 12-07-13 15:50 OP:ep   STATUS:               ID:20110808044449 L   I
 2011-08-08-0440-19S.COL___144                                                 6
 STAT SP IPHASW D HRMM SECON CODA AMPLIT PERI AZIMU VELO AIN AR TRES W  DIS CAZ7
 RUS  HZ EP        445  8.76                             145    0.1610 73.0  84 
 RUS  HN ES   1    445 22.99                             145   -0.20 7 73.0  84 
 RUS  HZ I         445 24.86         6.3 0.21                          73.0  84 
 BAR2 SZ EP        445 10.97                             134    0.1810  105  36 
 BAR2 SZ ES        445 27.13                             134    0.0410  105  36 
 BAR2 SZ I         445 28.40        71.3 0.23                           105  36 
 NOR  SZ EP   1    445 13.05                             128    0.39 7  128 257 
 NOR  SN ES   1    445 30.39                             128   -0.02 7  128 257 
 CHI  HZ EP   2    445 13.37                             128   -0.08 5  132 180 
 CHI  HN ES   2    445 31.86                             128    0.04 5  132 180 
 CHI  HZ I         445 36.34         7.1 0.50                           132 180 
 BRR  HZ EP        445 13.70                             125   -0.27 9  142   1 
 BRR  HZ I         445 15.22        17.1 0.12                           142   1 
 BRR  HE ES   1    445 32.62                             125   -0.12 7  142   1 
 PRA  HZ EP   1    445 27.31                             108   -0.23 6  265 209 
 PRA  HN ES   1    445 56.67                             108   -0.23 6  265 209 
                                                                                
