 2015  9 8 0520 42.9 L   6.426 -73.727 94.6  RSN  8 0.5 1.3LRSN                1
 GAP= 75        1.20       3.3     3.8  8.3  0.6744E+00  0.1190E+02  0.1476E+00E
 Epicentro: SANTA HELENA DEL OPON - SANTANDER                                  3
 ACTION:UPD 15-10-28 16:24 OP:cam  STATUS:               ID:20150908052042 L   I
 OLDACT:REG 15-09-08 13:42 OP:ar   STATUS:               ID:20150908051747     3
 2015-09-08-0517-47M.COL___356                                                 6
 STAT SP IPHASW D HRMM SECON CODA AMPLIT PERI AZIMU VELO AIN AR TRES W  DIS CAZ7
 BAR2 EZ EP        520 58.64                             144    0.1210 63.0  73 
 BAR2 EZ ES        521 10.91                             144    0.2010 63.0  73 
 BAR2 EZ I         521 13.05        11.1 0.36            148           63.0  73 
 BRR  HZ EP   1    520 59.19                             138    0.05 7 75.3   1 
 BRR  HN ES        521 12.02                             138    0.2010 75.3   1 
 BRR  HZ I         521 18.82         3.5 0.46            142           75.3   1 
 PTB  HZ EP        520 59.07                             136   -0.6210 81.7 279 
 PTB  HN ES        521 12.10                             136   -0.7010 81.7 279 
 PTB  HZ I         521 14.13         6.7 0.10            140           81.7 279 
 RUS  HZ EP        521  1.11                             133   -0.1910 92.5 130 
 RUS  HN ES        521 15.50                             133   -0.1610 92.5 130 
 RUS  HZ I         521 17.59         2.5 0.26            139           92.5 130 
 SPBC HZ EP        521  0.71                             132   -0.1510 93.7 204 
 SPBC HN ES        521 15.39                             132    0.5010 93.7 204 
 SPBC HZ I         521 17.63         9.4 0.20            138           93.7 204 
 ZAR  HZ EP        521  9.24                             114    0.33 9  172 313 
 ZAR  HN ES        521 30.20                             114    0.99 9  172 313 
 ZAR  HZ I         521 32.05         3.1 0.32            118            172 313 
 GUY2CHZ EP        521 16.24                             109    0.64 8  225 234 
 GUY2CHN ES        521 40.80                             109   -0.32 8  225 234 
 GUY2CHZ I         521 47.01         2.7 0.30                           225 234 
 SML  HE ES        521 47.73                             105   -0.85 8  265 352 
                                                                                
