 2013  6 8 0742 19.7 L   6.818 -73.202135.2  RSN  8 0.3 1.9LRSN                1
 GAP=177        0.69       3.5     4.4  6.4 -0.1078E+01  0.9288E+01  0.1349E+01E
 Epicentro: ZAPATOCA - SANTANDER                                               3
 ACTION:UPD 14-01-08 09:53 OP:ep   STATUS:               ID:20130608074219 L   I
 OLDACT:REG 13-06-08 07:04 OP:mh   STATUS:               ID:20130608074000     3
 2013-06-08-0740-00M.COL___257                                                 6
 STAT SP IPHASW D HRMM SECON CODA AMPLIT PERI AZIMU VELO AIN AR TRES W  DIS CAZ7
 BAR2 SZ EP   1    742 38.21                             169    0.08 7 25.0 175 
 BAR2 SZ ES   1    742 52.34                             169   -0.14 7 25.0 175 
 BAR2 SZ I         742 54.59         7.7 0.20            169           25.0 175 
 BRR  HZ EP        742 40.01                             153    0.6410 64.8 300 
 BRR  HN ES   5    742 56.32                             153    1.62 0 64.8 300 
 BRR  HN I         742 57.55        35.6 0.18            149           64.8 300 
 RUS  HZ EP   1    742 42.55                             141   -0.10 7  103 173 
 RUS  HN ES   1    743  0.58                             141    0.05 7  103 173 
 RUS  HN I         743  2.56         7.1 0.46            144            103 173 
 PTB  HZ EP        742 45.02                             131   -0.30 9  142 258 
 PTB  HN ES        743  5.10                             131   -0.18 9  142 258 
 PTB  HN I         743 11.14        12.9 0.30            130            142 258 
 OCA  HN ES   2    743  7.73                             127   -0.52 5  158 355 
 OCA  HN I         743 10.86        17.3 0.20            129            158 355 
 NOR  HZ EP   1    742 54.68                             117    0.24 6  231 233 
 NOR  HN ES        743 21.75                             117    0.23 8  231 233 
 NOR  HN I         743 29.11         6.9 0.14            117            231 233 
 SML  HN ES   2    743 22.72                             116   -0.33 4  239 336 
 SML  HN I         743 27.28        11.9 0.10            117            239 336 
 PRA  HZ EP   1    743 12.60                             105   -0.14 4  391 209 
 PRA  HN ES        743 53.49                             105   -0.61 6  391 209 
 PRA  HN I         744  0.57         1.1 0.28            106            391 209 
                                                                                
