 2017  3 8 0839  5.2 L   6.767 -73.145141.7  RSN  7 0.4 1.2LRSN                1
 GAP=138        0.88       4.2     4.2  6.1  0.3140E+01  0.1590E+01 -0.2090E+01E
 Epicentro: LOS SANTOS - SANTANDER                                             3
 ACTION:UPD 17-05-25 18:37 OP:jn   STATUS:               ID:20170308083905 L   I
 OLDACT:UP  17-03-08 20:43 OP:and  STATUS:               ID:20170308083741     3
 OLDACT:UP  17-03-08 20:43 OP:and  STATUS:               ID:20170308083741     3
 OLDACT:UP  17-03-08 20:43 OP:and  STATUS:               ID:20170308083741     3
 OLDACT:REG 17-03-08 13:08 OP:and  STATUS:               ID:20170308083741     3
 2017-03-08-0838-00M.COL___326                                                 6
 STAT SP IPHASW D HRMM SECON CODA AMPLIT PERI AZIMU VELO AIN AR TRES W  DIS CAZ7
 BAR2 EZ EP        839 24.02                             172   -0.2210 19.8 192 
 BAR2 EZ ES        839 38.88                             172   -0.2410 19.8 192 
 BRR  HZ EP        839 25.77                             151   -0.2110 73.0 301 
 BRR  HN ES        839 42.89                             151    0.6710 73.0 301 
 PAM  EZ IP     D  839 26.92                             149   -0.2010 80.2  38 
 RUS  HZ EP        839 28.61                             144    0.3610 97.0 176 
 RUS  HN ES        839 46.27                             144    0.0010 97.0 176 
 RUS  HZ I         839 48.39         1.9 0.30            143           97.0 176 
 PTB  HZ EP        839 31.67                             131   -0.07 9  147 260 
 PTB  HN ES        839 51.82                             131   -0.66 9  147 260 
 PTB  HZ I         839 55.59         1.8 0.17            129            147 260 
 SPBC HZ EP        839 33.20                             129    0.11 9  160 220 
 SPBC HN ES        839 55.10                             129    0.23 9  160 220 
 SPBC HZ I         839 59.49         2.1 0.10            127            160 220 
 ZAR  HZ EP   2    839 38.37                             121    0.88 4  205 293 
 ZAR  HN ES        840  2.75                             121    0.04 8  205 293 
 ZAR  HZ I         840  8.75         2.0 0.38            120            205 293 
                                                                                
