 2011 11 8 0230 39.7 L   6.778 -73.067141.6  RSN  4 0.2 1.4LRSN                1
 GAP=148        0.46       3.6     5.2  6.4  0.3085E+01 -0.5059E+01 -0.5907E+01E
 Epicentro: LOS SANTOS - SANTANDER                                             3
 ACTION:UPD 12-07-13 16:08 OP:ep   STATUS:               ID:20111108023039 L   I
 2011-11-08-0227-07S.COL___175                                                 6
 STAT SP IPHASW D HRMM SECON CODA AMPLIT PERI AZIMU VELO AIN AR TRES W  DIS CAZ7
 PAM  SZ EP   1    231  1.56                             151    0.30 7 74.2  33 
 PAM  SN ES   2    231 17.85                             151   -0.24 5 74.2  33 
 BRR  HZ EP        231  0.72                             149   -0.2010 80.1 297 
 BRR  HZ I         231  1.68         5.7 0.13                          80.1 297 
 BRR  HN ES   1    231 17.68                             149    0.20 7 80.1 297 
 RUS  HZ EP   2    231  3.04                             144    0.21 5 97.9 181 
 RUS  HN ES   1    231 20.78                             144   -0.10 7 97.9 181 
 RUS  HZ I         231 22.54         1.9 0.34                          97.9 181 
 OCA  SZ EP   2    231  7.91                             128   -0.11 5  164 350 
 OCA  SZ I         231 34.55         6.0 0.42                           164 350 
                                                                                
