 2017 10 8 0300 23.3 L   6.772 -73.092146.0  RSN  5 0.4 1.1LRSN                1
 GAP=304        0.66       5.6     7.8  5.9 -0.1744E+02  0.1153E+02  0.1576E+01E
 Epicentro: LOS SANTOS - SANTANDER                                             3
 ACTION:UPD 17-11-07 19:29 OP:rebc STATUS:               ID:20171008030023 L   I
 OLDACT:REG 17-10-08 12:26 OP:dhb  STATUS:               ID:20171008025742     3
 2017-10-08-0258-00M.COL___405                                                 6
 STAT SP IPHASW D HRMM SECON CODA AMPLIT PERI AZIMU VELO AIN AR TRES W  DIS CAZ7
 BAR2 EZ EP        3 0 42.68                             171   -0.2510 22.2 207 
 BAR2 EZ ES        3 0 58.36                             171    0.1210 22.2 207 
 BAR2 EZ I         3 1  0.67         2.0 0.06            164           22.2 207 
 RUS  HZ EP        3 0 47.19                             145    0.3610 97.2 179 
 RUS  HN ES        3 1  5.08                             145   -0.1010 97.2 179 
 RUS  HZ I         3 1  6.39         1.9 0.26            146           97.2 179 
 SPBC HZ EP        3 0 51.67                             129   -0.28 9  165 221 
 SPBC HN ES        3 1 14.44                             129    0.14 9  165 221 
 SPBC HZ I         3 1 20.88         2.5 0.30            128            165 221 
 CHI  HN ES        3 1 30.03                             117   -0.12 8  247 197 
 GUY2CHZ EP   3    3 1  9.33                             112    2.06 2  304 236 
 GUY2CHE ES   4    3 1 47.02                             112    5.46 0  304 236 
 GUY2CHZ I         3 1 50.07         0.6 0.29                           304 236 
                                                                                
