 2017  8 8 0420 32.7 L   6.827 -73.095143.7  RSN  6 0.4 1.3LRSN                1
 GAP=142        0.92       4.6     4.2  6.6  0.1946E+01  0.5702E+01 -0.2074E+01E
 Epicentro: LOS SANTOS - SANTANDER                                             3
 ACTION:UPD 17-09-04 20:17 OP:rebc STATUS:               ID:20170808042032 L   I
 OLDACT:UP  17-08-18 15:20 OP:nlst STATUS:               ID:20170808042032 L   3
 OLDACT:UP  17-08-08 15:29 OP:dani STATUS:               ID:20170808041736     3
 OLDACT:UP  17-08-08 15:29 OP:dani STATUS:               ID:20170808041736     3
 OLDACT:REG 17-08-08 13:09 OP:dani STATUS:               ID:20170808041736     3
 2017-08-08-0418-00M.COL___381                                                 6
 STAT SP IPHASW D HRMM SECON CODA AMPLIT PERI AZIMU VELO AIN AR TRES W  DIS CAZ7
 BAR2 EZ EP        420 51.98                             169   -0.1710 27.7 200 
 BAR2 EZ ES        421  7.27                             169   -0.0710 27.7 200 
 BAR2 EZ I         421  8.12         4.4 0.58            171           27.7 200 
 PAM  EZ EP        420 54.89                             152    0.5710 71.5  38 
 PAM  EZ I         421  9.35         5.7 0.66            145           71.5  38 
 PAM  EN ES        421 10.95                             152   -0.2610 71.5  38 
 BRR  HZ EP        420 53.70                             151   -0.1110 74.8 294 
 BRR  HN ES        421 10.60                             151    0.3110 74.8 294 
 BRR  HZ I         421 11.23         5.8 0.11            148           74.8 294 
 RUS  HZ EP        420 56.23                             143   -0.1910  103 179 
 RUS  HN ES        421 14.87                             143   -0.0810  103 179 
 RUS  HZ I         421 16.90         3.0 0.28            140            103 179 
 PTB  HZ EP   3    420 58.80                             130   -1.23 2  154 258 
 PTB  HE ES   3    421 20.03                             130   -1.34 2  154 258 
 PTB  HN ES        421 21.96                             130    0.59 9  154 258 
 PTB  HZ I         421 26.35         1.3 0.40            127            154 258 
 ZAR  HZ EP        421  5.63                             121    0.22 8  208 291 
 ZAR  HE ES        421 30.19                             121   -0.75 8  208 291 
 ZAR  HZ I         421 34.75         2.6 0.06            117            208 291 
                                                                                
