 2013  4 8 0317 41.5 L   6.805 -73.133146.0  RSN 15 0.5 2.2LRSN                1
 GAP= 72        1.22       3.1     4.1  5.9 -0.2173E+01  0.4249E+01  0.3007E+01E
 Epicentro: LOS SANTOS - SANTANDER                                             3
 ACTION:UPD 13-05-22 14:36 OP:EP   STATUS:               ID:20130408031741 L   I
 2013-04-08-0308-50M.COL___221                                                 6
 STAT SP IPHASW D HRMM SECON CODA AMPLIT PERI AZIMU VELO AIN AR TRES W  DIS CAZ7
 BAR2 SZ EP        318  1.23                             170    0.0310 24.1 193 
 BAR2 SZ ES        318 16.21                             170   -0.3410 24.1 193 
 BAR2 SZ I         318 18.01        36.6 0.46            168           24.1 193 
 GIR2 SZ EP        318  1.34                             167    0.1210 31.0 348 
 GIR2 SZ ES        318 16.88                             167    0.3010 31.0 348 
 GIR2 SZ I         318 18.68        10.1 0.12            169           31.0 348 
 BRR  HZ IP     C  318  3.11                             152    0.3610 72.2 298 
 BRR  HN ES        318 20.48                             152    1.1710 72.2 298 
 BRR  HE I         318 21.39        39.2 0.28            152           72.2 298 
 RUS  HZ EP        318  5.11                             144   -0.2210  101 177 
 RUS  HN ES        318 23.85                             144   -0.0510  101 177 
 RUS  HE I         318 26.62        17.5 0.60            144            101 177 
 CAPV BZ EP   1    318  8.78                             132   -0.04 7  148  38 
 CAPV BZ ES        318 29.65                             132   -0.47 9  148  38 
 PTB  HZ EP        318  7.69                             132   -0.95 9  149 259 
 PTB  HN ES        318 28.97                             132   -0.83 9  149 259 
 PTB  HE I         318 35.11        31.6 0.58            132            149 259 
 TAM  HZ EP   1    318  9.30                             131    0.19 7  154 105 
 OCA  HE ES        318 32.05                             130    0.16 9  160 353 
 ZAR  HE ES        318 39.22                             122   -0.28 9  205 292 
 NOR  HZ EP        318 17.51                             118    0.09 8  236 235 
 NOR  HE ES        318 45.54                             118    0.12 8  236 235 
 NOR  HE I         318 49.51        16.8 0.20            119            236 235 
 SML  HZ EP        318 18.09                             118   -0.08 8  244 335 
 SML  HE ES        318 46.28                             118   -0.48 8  244 335 
 CHI  HZ EP        318 19.32                             117   -0.01 8  250 195 
 CHI  HN ES        318 48.59                             117   -0.23 8  250 195 
 CHI  HN I         318 53.52        11.8 0.26            118            250 195 
 ROSC BE ES        318 50.07                             117    0.44 8  254 211 
 HEL  HZ EP        318 23.44                             115    1.53 8  274 256 
 HEL  HN ES        318 53.01                             115   -0.40 8  274 256 
 HEL  HN I         318 59.75         5.5 0.38            115            274 256 
 PRA  HZ EP        318 35.29                             107    0.10 6  393 210 
 PRA  HN ES        319 17.06                             107    0.02 6  393 210 
 PRA  HE I         319 22.60         4.8 0.28            107            393 210 
                                                                                
