 2017  9 8 0634 44.2 L   6.655 -73.189142.8  RSN  7 0.2 1.5LRSN                1
 GAP=137        0.56       2.5     2.7  4.3 -0.8832E+00  0.2163E+01 -0.1788E+01E
 Epicentro: VILLANUEVA - SANTANDER                                             3
 ACTION:UPD 17-10-05 19:10 OP:rebc STATUS:               ID:20170908063444 L   I
 OLDACT:UP  17-09-08 17:28 OP:dnl  STATUS:               ID:20170908062744     3
 OLDACT:REG 17-09-08 13:23 OP:dnl  STATUS:               ID:20170908062744     3
 2017-09-08-0628-00M.COL___422                                                 6
 STAT SP IPHASW D HRMM SECON CODA AMPLIT PERI AZIMU VELO AIN AR TRES W  DIS CAZ7
 BAR2 EZ EP        635  3.22                             177   -0.0610 6.96 174 
 BAR2 EZ ES        635 17.84                             177   -0.3010 6.96 174 
 BAR2 EZ I         635 18.63        14.2 0.42            176           6.96 174 
 BRR  HZ EP        635  5.37                             150    0.0110 76.4 311 
 BRR  HE ES        635 22.18                             150    0.3410 76.4 311 
 BRR  HZ I         635 23.91         4.6 0.14            149           76.4 311 
 RUS  HZ EP   2    635  6.92                             148    0.31 5 85.1 172 
 RUS  HN ES        635 23.91                             148   -0.1710 85.1 172 
 RUS  HZ I         635 25.91         3.5 0.46            148           85.1 172 
 PAM  EZ EP        635  7.29                             145    0.1410 93.1  36 
 PAM  EN ES        635 25.09                             145    0.0710 93.1  36 
 PAM  EZ I         635 27.65         3.1 0.46            147           93.1  36 
 SPBC HZ EP   2    635 10.75                             131   -0.30 5  148 221 
 SPBC HE ES        635 32.28                             131    0.30 9  148 221 
 SPBC HZ I         635 37.24         3.4 0.16            131            148 221 
 ZAR  HZ EP   2    635 16.45                             121   -0.26 4  206 297 
 ZAR  HN ES        635 41.69                             121   -0.36 8  206 297 
 ZAR  HZ I         635 46.59         5.0 0.40            121            206 297 
 GUY2CHZ EP   9    635 28.07                             113    1.84 0  288 237 
 GUY2CHN ES        636  0.99                             112    0.16 7  288 237 
 GUY2CHZ I         636  7.89         1.8 0.40                           288 237 
                                                                                
