 2013  9 8 0143 25.1 L   6.795 -73.159146.6  RSN 16 0.4 2.3LRSN                1
 GAP=135        0.84       2.4     3.8  4.8 -0.5158E+00  0.3925E+01  0.1964E+01E
 Epicentro: LOS SANTOS - SANTANDER                                             3
 ACTION:UPD 13-10-22 09:21 OP:ep   STATUS:               ID:20130908014325 L   I
 OLDACT:UP  13-09-08 09:13 OP:mh   STATUS:               ID:20130908013959     3
 OLDACT:REG 13-09-08 07:27 OP:mh   STATUS:               ID:20130908013959     3
 2013-09-08-0139-59M.COL___269                                                 6
 STAT SP IPHASW D HRMM SECON CODA AMPLIT PERI AZIMU VELO AIN AR TRES W  DIS CAZ7
 BAR2 SZ EP   1    143 44.87                             171    0.08 7 22.6 187 
 BAR2 SZ ES   1    144  0.08                             171   -0.09 7 22.6 187 
 BAR2 SZ I         144  1.32        40.5 0.14            168           22.6 187 
 BRR  HZ EP   1    143 46.65                             153    0.40 7 70.2 299 
 BRR  HN ES        144  3.44                             153    0.6710 70.2 299 
 BRR  HZ I         144  4.22        44.0 0.10            149           70.2 299 
 PAM  SZ EP   1    143 47.79                             151    0.33 7 78.7  40 
 PAM  SN ES   1    144  4.69                             151   -0.22 7 78.7  40 
 PAM  SZ I         144  6.70        60.1 0.50            154           78.7  40 
 RUS  HZ EP   1    143 48.83                             144   -0.05 7  100 175 
 RUS  HN ES        144  7.61                             144    0.1710  100 175 
 RUS  HZ I         144  8.59        28.4 0.30            145            100 175 
 PTB  HZ EP   1    143 51.78                             133   -0.19 7  146 259 
 PTB  HN ES   1    144 12.52                             133   -0.43 7  146 259 
 PTB  HZ I         144 17.99        15.3 0.28            130            146 259 
 OCA  HZ EP   1    143 53.56                             130    0.08 7  161 354 
 OCA  HN ES   1    144 14.48                             130   -1.15 7  161 354 
 OCA  HZ I         144 19.60        20.3 0.50            130            161 354 
 SPBC HZ EP        143 53.70                             130    0.19 9  162 219 
 SPBC HN ES   1    144 15.58                             130   -0.11 7  162 219 
 SPBC HZ I         144 18.27        38.6 0.30            129            162 219 
 ZAR  HZ EP   1    143 58.16                             123    0.71 6  203 292 
 ZAR  HN ES   1    144 22.93                             123    0.22 6  203 292 
 ZAR  HZ I         144 28.41        17.8 0.30            122            203 292 
 NOR  HZ EP        144  1.07                             119    0.38 8  233 234 
 NOR  HN ES        144 28.01                             119   -0.46 8  233 234 
 NOR  HZ I         144 36.62        15.0 0.18            118            233 234 
 SML  HZ EP   1    144  1.17                             118   -0.56 6  244 336 
 SML  HN ES   1    144 29.90                             118   -0.42 6  244 336 
 SML  HZ I         144 33.05        41.9 0.10            118            244 336 
 CHI  HZ EP   1    144  3.09                             117    0.36 6  248 195 
 CHI  HN ES        144 32.01                             117   -0.08 8  248 195 
 CHI  HZ I         144 35.55        10.9 0.38            118            248 195 
 ROSC BZ EP   4    144  5.43                             117    2.32 0  252 211 
 ROSC BN ES   4    144 35.24                             117    2.46 0  252 211 
 HEL  HZ EP   4    144  7.35                             115    2.19 0  271 256 
 HEL  HN ES   1    144 36.16                             115   -0.26 6  271 256 
 HEL  HZ I         144 43.83         7.3 0.44            114            271 256 
 URE  HZ EP   4    144  5.37                             114   -0.68 0  283 292 
 URE  HN ES   4    144 35.86                             114   -2.16 0  283 292 
 GUY2CHZ EP   4    144 10.80                             113    2.25 0  300 235 
 GUY2CHE ES   4    144 45.33                             113    2.86 0  300 235 
 GUY2CHZ I         144 50.78         8.3 0.30                           300 235 
 VIL  SZ EP   1    144  8.41                             112   -0.03 5  303 191 
 VIL  SN ES        144 41.38                             112   -0.89 7  303 191 
 PRA  HZ EP   1    144 18.60                             107    0.11 4  391 209 
 PRA  HN ES   1    145  0.27                             107    0.12 4  391 209 
 PRA  HZ I         145  5.55         7.2 0.46            107            391 209 
 ORTC HZ EP   1    144 19.23                             107    0.36 4  394 216 
 ORTC HN ES   4    145  2.61                             107    1.77 0  394 216 
 ORTC HZ I         145  8.62         5.6 0.42            107            394 216 
 SJC  HZ EP   4    144 19.55                             106   -1.07 0  409 327 
 SJC  HN ES   4    144 59.59                             106   -4.35 0  409 327 
                                                                                
