 2013  5 8 0049 31.8 L   6.814 -73.154148.0  RSN 10 0.4 1.8LRSN                1
 GAP=135        0.81       3.6     4.4  6.2 -0.1123E+01  0.7520E+01  0.2297E+01E
 Epicentro: LOS SANTOS - SANTANDER                                             3
 ACTION:UPD 13-06-20 09:48 OP:ep   STATUS:               ID:20130508004931 L   I
 2013-05-08-0047-42M.COL___228                                                 6
 STAT SP IPHASW D HRMM SECON CODA AMPLIT PERI AZIMU VELO AIN AR TRES W  DIS CAZ7
 BAR2 SZ EP   1    049 51.79                             170    0.08 7 24.7 187 
 BAR2 SZ ES   2    050  6.78                             170   -0.48 5 24.7 187 
 BAR2 SZ I         050 15.00         6.4 0.18            167           24.7 187 
 GIR2 SZ EP   1    049 51.43                             168   -0.25 7 29.6 352 
 GIR2 SZ ES   2    050  7.07                             168   -0.13 5 29.6 352 
 BRR  HZ EP        049 53.44                             153    0.3510 69.7 298 
 BRR  HN ES   1    050 10.64                             153    0.93 7 69.7 298 
 BRR  HZ I         050 14.49        16.1 0.12            153           69.7 298 
 PAM  SZ EP   1    049 54.61                             152    0.40 7 76.8  41 
 PAM  SE ES   1    050 11.63                             152   -0.06 7 76.8  41 
 PAM  SZ I         050 13.44         7.6 0.48            160           76.8  41 
 RUS  HZ EP   1    049 55.88                             144    0.01 7  102 176 
 RUS  HN ES   1    050 14.38                             144   -0.28 7  102 176 
 RUS  HZ I         050 15.91         4.1 0.36            147            102 176 
 PTB  HZ EP        049 58.38                             133   -0.50 9  147 258 
 PTB  HN ES   1    050 19.46                             133   -0.56 7  147 258 
 PTB  HZ I         050 24.63         7.4 0.32            134            147 258 
 ZAR  HN ES   1    050 29.88                             123    0.34 6  203 292 
 ZAR  HZ I         050 35.89         6.9 0.24            126            203 292 
 NOR  HZ EP   1    050  8.21                             119    0.55 6  235 234 
 NOR  HN ES   1    050 35.70                             119    0.06 6  235 234 
 NOR  HZ I         050 41.51         5.4 0.18            122            235 234 
 SML  HZ EP   1    050  7.97                             118   -0.38 6  242 335 
 SML  HE ES   1    050 36.17                             118   -0.69 6  242 335 
 PRA  HZ EP   1    050 25.59                             107    0.10 4  393 209 
 PRA  HE ES   1    051  7.69                             107    0.32 4  393 209 
 PRA  HZ I         051 15.74         3.7 0.62            110            393 209 
                                                                                
