 2014  6 8 0301 48.3 L   6.571 -73.252169.6  RSN  4 0.3 1.1LRSN                1
 GAP=226        0.74       9.3     7.5 11.0  0.5007E+02 -0.1892E+02 -0.5168E+02E
 Epicentro: CABRERA - SANTANDER                                                3
 ACTION:UPD 14-07-01 22:51 OP:nd   STATUS:               ID:20140608030148 L   I
 OLDACT:DUP 14-06-08 14:49 OP:fm   STATUS:               ID:20140608025818d    3
 2014-06-08-0258-17M.COL___253                                                 6
 STAT SP IPHASW D HRMM SECON CODA AMPLIT PERI AZIMU VELO AIN AR TRES W  DIS CAZ7
 RUS  HZ EP   1    3 2 13.07                             154   -0.02 7 77.3 166 
 RUS  HN ES        3 2 32.41                             154   -0.0310 77.3 166 
 RUS  HZ I         3 2 33.90         1.4 0.28            156           77.3 166 
 PTB  HZ EP        3 2 16.33                             140    0.2010  133 269 
 PTB  HN ES        3 2 38.27                             140    0.4310  133 269 
 PTB  HZ I         3 2 42.88         2.1 0.26            140            133 269 
 SPBC HN ES   1    3 2 38.01                             139   -0.43 7  136 222 
 ZAR  HE ES        3 2 48.67                             127   -0.44 9  205 300 
                                                                                
