 2012 12 8 0514 45.3 L   6.800 -73.182139.8  RSN  8 0.4 1.5LRSN                1
 GAP=132        0.81       3.7     4.7  6.5 -0.3798E+00  0.1062E+02 -0.5532E+01E
 Epicentro: LOS SANTOS - SANTANDER                                             3
 ACTION:UPD 13-01-04 14:26 OP:ep   STATUS:               ID:20121208051445 L   I
 2012-12-08-0510-00M.COL___243                                                 6
 STAT SP IPHASW D HRMM SECON CODA AMPLIT PERI AZIMU VELO AIN AR TRES W  DIS CAZ7
 BAR2 SZ EP   1    515  4.51                             170    0.33 7 23.0 180 
 BAR2 SZ ES   1    515 18.86                             170   -0.06 7 23.0 180 
 BAR2 SZ I         515 19.97        13.6 0.18                          23.0 180 
 GIR2 SZ EP   1    515  4.11                             167   -0.11 7 30.8 358 
 GIR2 SZ ES   1    515 19.52                             167    0.52 7 30.8 358 
 GIR2 SZ I         515 21.17         8.5 0.40                          30.8 358 
 PAM  SZ EP   1    515  6.92                             149   -0.09 7 80.0  42 
 PAM  SN ES   1    515 23.59                             149   -0.39 7 80.0  42 
 RUS  HZ EP   1    515  8.91                             142    0.44 7  101 174 
 RUS  HN ES   1    515 26.45                             142   -0.11 7  101 174 
 RUS  HZ I         515 28.32         2.0 0.30                           101 174 
 PTB  HZ EP   1    515 10.92                             131   -0.47 7  144 259 
 PTB  HN ES   1    515 31.20                             131   -0.57 7  144 259 
 OCA  HZ EP   1    515 13.65                             128    0.57 7  160 355 
 OCA  HE ES   1    515 34.26                             128   -0.51 7  160 355 
 OCA  HZ I         515 38.45         5.9 0.54                           160 355 
 ZAR  HZ EP   1    515 17.06                             121    0.12 6  200 293 
 ZAR  HN ES   1    515 42.26                             121    0.61 6  200 293 
 ZAR  HZ I         515 49.04         3.9 0.32                           200 293 
 SML  HZ EP   1    515 20.66                             116   -0.72 6  242 336 
 SML  HN ES   1    515 49.97                             116    0.42 6  242 336 
                                                                                
