 2016 10 8 0818 46.6 L   6.813 -73.137140.0  RSN  8 0.5 1.4LRSN                1
 GAP=137        1.17       5.9     5.3  9.3 -0.5506E+00  0.1217E+02 -0.1562E+02E
 Epicentro: LOS SANTOS - SANTANDER                                             3
 ACTION:UPD 16-11-09 19:17 OP:rebc STATUS:               ID:20161008081846 L   I
 OLDACT:UP  16-10-08 14:03 OP:dani STATUS:               ID:20161008081746d    3
 OLDACT:UP  16-10-08 14:03 OP:dani STATUS:               ID:20161008081746d    3
 OLDACT:DUP 16-10-08 13:52 OP:dani STATUS:               ID:20161008081746d    3
 2016-10-08-0818-00M.COL___351                                                 6
 STAT SP IPHASW D HRMM SECON CODA AMPLIT PERI AZIMU VELO AIN AR TRES W  DIS CAZ7
 BAR2 EZ EP        819  5.58                             169   -0.0210 25.0 192 
 BAR2 EZ ES        819 20.36                             169   -0.0410 25.0 192 
 BAR2 EZ I         819 25.20         5.1 0.28            166           25.0 192 
 PAM  EZ EP        819  8.56                             150    0.4310 75.6  40 
 RUS  HZ EP        819  9.64                             142   -0.2810  102 177 
 RUS  HE ES        819 28.16                             142    0.0710  102 177 
 RUS  HZ I         819 29.65         2.4 0.26            143            102 177 
 PTB  HZ EP        819 12.23                             130   -1.02 9  149 258 
 PTB  HN ES        819 33.38                             130   -0.64 9  149 258 
 PTB  HZ I         819 34.96         3.3 0.40            131            149 258 
 SPBC HZ EP        819 14.86                             127   -0.00 9  165 219 
 SPBC HN ES        819 37.12                             127    0.23 9  165 219 
 SPBC HZ I         819 42.87         3.5 0.19            128            165 219 
 ZAR  HZ EP        819 19.14                             121    0.40 9  204 292 
 ZAR  HN ES        819 44.12                             121    0.32 9  204 292 
 ZAR  HZ I         819 49.58         4.5 0.42            122            204 292 
 NOR  HZ EP   4    819 25.24                             117    3.03 0  236 234 
 NOR  HN ES        819 50.85                             117    0.88 8  236 234 
 NOR  HZ I         819 55.67         2.8 0.21            118            236 234 
 CHI  HN ES   4    819 52.25                             116   -1.25 0  250 195 
 CHI  HZ I         819 58.45         1.2 0.23            117            250 195 
                                                                                
