 2012  5 8 0129  8.0 L   6.790 -73.201138.0  RSN  5 0.3 1.5LRSN                1
 GAP=130        0.74       6.1     7.6 10.8 -0.8609E+01  0.3778E+02 -0.6938E+01E
 Epicentro: ZAPATOCA - SANTANDER                                               3
 ACTION:UP  12-07-05 12:03 OP:pat  STATUS:               ID:20120508012908 L   I
 2012-05-08-0120-00M.COL___192                                                 6
 STAT SP IPHASW D HRMM SECON CODA AMPLIT PERI AZIMU VELO SNR AR TRES W  DIS CAZ7
 BAR2 SZ EP   3    129 26.47                             171    -0.2 2   22 174 
 BAR2 SZ ES   2    129 41.00                             171    -0.2 5   22 174 
 BRR  HZ EP        129 28.52                             153     0.510   66 302 
 BRR  HZ I         129 31.42        10.4 0.54                            66 302 
 PAM  SZ EP        129 29.58                             148    -0.110   82  42 
 PAM  SN ES   2    129 46.30                             148    -0.3 5   82  42 
 RUS  HZ EP        129 31.00                             142     0.110  100 172 
 RUS  HN ES   2    129 49.06                             142     0.2 5  100 172 
 PTB  HZ EP        129 33.33                             132    -0.4 9  141 259 
 PTB  HZ I         129 56.32         2.6 0.32                           141 259 
                                                                                
