 2016 10 8 0750 42.3 L   6.527 -73.667108.1  RSN  8 0.2 1.6LRSN                1
 GAP= 71        0.58       1.9     2.2  5.6 -0.8722E+00  0.6495E+01 -0.3684E+01E
 Epicentro: SANTA HELENA DEL OPON - SANTANDER                                  3
 ACTION:UPD 16-11-09 19:17 OP:rebc STATUS:               ID:20161008075042 L   I
 OLDACT:REG 16-10-08 12:40 OP:dnl  STATUS:               ID:20161008074750     3
 2016-10-08-0748-00M.COL___351                                                 6
 STAT SP IPHASW D HRMM SECON CODA AMPLIT PERI AZIMU VELO AIN AR TRES W  DIS CAZ7
 BAR2 EZ EP        750 59.01                             152    0.2310 54.0  82 
 BAR2 EZ ES        751 11.78                             152    0.1710 54.0  82 
 BAR2 EZ I         751 13.07        11.3 0.22            154           54.0  82 
 PTB  HZ EP   4    750 59.42                             138   -1.40 0 87.3 271 
 PTB  HN ES   4    751 11.96                             138   -3.29 0 87.3 271 
 PTB  HZ I         751 13.47         7.3 0.28            139           87.3 271 
 RUS  HZ EP        751  2.39                             136    0.2510 95.3 137 
 RUS  HN ES        751 17.29                             136   -0.3110 95.3 137 
 RUS  HZ I         751 18.48         3.2 0.16            137           95.3 137 
 SPBC HZ EP        751  2.64                             132    0.0510  107 205 
 SPBC HE ES        751 18.14                             132   -0.2610  107 205 
 SPBC HZ I         751 27.97         6.7 0.38            132            107 205 
 ZAR  HZ EP        751  8.58                             118   -0.23 9  169 309 
 ZAR  HN ES        751 29.73                             118    0.25 9  169 309 
 ZAR  HZ I         751 31.25         8.6 0.66            119            169 309 
 NOR  HZ EP   2    751  8.82                             117   -0.16 4  171 231 
 NOR  HN ES        751 30.05                             117    0.27 9  171 231 
 NOR  HZ I         751 32.16         5.7 0.20            118            171 231 
 OCA  HZ EP   2    751 11.54                             114   -0.06 4  193  11 
 OCA  HN ES        751 34.15                             114   -0.28 9  193  11 
 OCA  HZ I         751 36.45         8.5 0.40            116            193  11 
 HEL  HZ EP   2    751 13.92                             112    0.24 4  209 260 
 HEL  HN ES        751 37.92                             112   -0.23 8  209 260 
 HEL  HZ I         751 40.24         3.6 0.42            113            209 260 
                                                                                
