 2015  9 8 0523 23.8 L   6.844 -73.066150.9  RSN 17 0.5 2.1LRSN                1
 GAP=191        1.09       3.1     5.1  5.3  0.3109E+00  0.5899E+01  0.1876E+01E
 Epicentro: LOS SANTOS - SANTANDER                                             3
 ACTION:UPD 15-10-28 16:24 OP:cam  STATUS:               ID:20150908052323 L   I
 OLDACT:UP  15-09-08 17:06 OP:mh   STATUS:               ID:20150908051748d    3
 OLDACT:UP  15-09-08 17:06 OP:mh   STATUS:               ID:20150908051748d    3
 OLDACT:UP  15-09-08 17:04 OP:mh   STATUS:               ID:20150908051748d    3
 OLDACT:UP  15-09-08 17:03 OP:mh   STATUS:               ID:20150908051748d    3
 OLDACT:UP  15-09-08 17:03 OP:mh   STATUS:               ID:20150908051748d    3
 OLDACT:UP  15-09-08 17:01 OP:mh   STATUS:               ID:20150908051748d    3
 OLDACT:DUP 15-09-08 14:31 OP:mh   STATUS:               ID:20150908051748d    3
 OLDACT:REG 15-09-08 13:42 OP:ar   STATUS:               ID:20150908051747     3
 2015-09-08-0517-47M.COL___356                                                 6
 STAT SP IPHASW D HRMM SECON CODA AMPLIT PERI AZIMU VELO AIN AR TRES W  DIS CAZ7
 BAR2 EZ EP     C  523 44.65                             168    0.4210 30.6 205 
 BAR2 EZ ES        524  0.01                             168   -0.1410 30.6 205 
 BAR2 EZ I         524  1.06        17.7 0.52            165           30.6 205 
 BRR  HZ EP        523 46.30                             151    0.4410 77.1 292 
 BRR  HN ES        524  3.29                             151    0.2510 77.1 292 
 BRR  HZ I         524  5.55        12.6 0.26            148           77.1 292 
 RUS  HZ EP        523 48.64                             144    0.2310  105 181 
 RUS  HN ES        524  7.07                             144   -0.5110  105 181 
 RUS  HZ I         524  9.08         6.9 0.35            142            105 181 
 OCA  HZ EP        523 51.40                             131   -0.81 9  157 350 
 OCA  HN ES        524 15.08                             131    0.73 9  157 350 
 OCA  HZ I         524 19.60        28.3 0.20            131            157 350 
 PTB  HZ EP        523 51.22                             131   -0.86 9  157 258 
 PTB  HZ I         524 13.99        13.2 0.36            129            157 258 
 PTB  HN ES        524 14.02                             131   -0.09 9  157 258 
 SPBC HZ EP        523 53.61                             128    0.01 9  173 220 
 SPBC HN ES   4    524 17.37                             128    0.55 0  173 220 
 SPBC HZ I         524 22.76        20.5 0.28            127            173 220 
 ZAR  HZ EP        523 57.30                             123    0.04 8  210 290 
 ZAR  HN ES        524 23.07                             123   -0.28 8  210 290 
 ZAR  HZ I         524 27.60        11.3 0.38            121            210 290 
 SML  HZ EP        524  1.10                             119    0.42 8  243 333 
 SML  HE ES        524 28.85                             119   -0.58 8  243 333 
 SML  HZ I         524 31.03        13.3 0.10            118            243 333 
 NOR  HZ EP        524  0.82                             118   -0.10 8  245 235 
 NOR  HN ES   1    524 29.66                             118   -0.19 6  245 235 
 NOR  HZ I         524 33.53         8.2 0.52            117            245 235 
 ROSC BZ EP        524  2.92                             117   -0.25 8  261 212 
 ROSC BE ES   4    524 31.77                             117   -2.09 0  261 212 
 HEL  HZ EP        524  4.98                             115   -0.39 7  282 255 
 HEL  HN ES        524 38.65                             115    0.87 7  282 255 
 HEL  HZ I         524 44.62         5.2 0.26            114            282 255 
 URE  HZ EP        524  5.19                             114   -0.67 7  290 290 
 URE  HN ES   4    524 36.05                             114   -2.60 0  290 290 
 URE  HZ I         524 37.54         7.5 0.14            113            290 290 
 GUY2CHZ EP        524  9.41                             112    0.62 7  311 235 
 GUY2CHN ES   4    524 45.48                             112    1.61 0  311 235 
 GUY2CHZ I         524 50.91         5.8 0.28                           311 235 
 DBB  SZ EP   4    524 11.41                             110   -1.07 0  348 273 
 TOL  SZ EP        524 14.20                             110    0.81 6  353 225 
 TOL  SE ES   4    524 53.48                             110    1.42 0  353 225 
 TOL  SZ I         524 58.95         5.9 0.52            109            353 225 
 PRA  HZ EP        524 18.47                             107   -0.05 6  401 210 
 PRA  HN ES        525  1.36                             107    0.17 6  401 210 
 PRA  HZ I         525  4.70         4.7 0.22            106            401 210 
 ORTC HZ EP        524 19.69                             107    0.71 6  405 217 
 ORTC HN ES        525  1.73                             107   -0.28 6  405 217 
 ORTC HZ I         525  8.54         3.1 0.34            106            405 217 
 SJC  HZ EP   4    524 16.72                             106   -2.93 0  410 326 
 SJC  HN ES   4    524 55.86                             106   -7.34 0  410 326 
 SJC  HZ I         525  2.45         1.6 0.33            106            410 326 
                                                                                
