 2011  2 8 0416 21.1 L   6.138 -73.748102.0  RSN  8 0.4 2.0LRSN                1
 GAP=117        0.72       4.6     4.3 10.6 -0.8117E+01  0.2371E+02 -0.7689E+01E
 Epicentro: LANDAZURI - SANTANDER                                              3
 ACTION:UP  11-03-28 15:06 OP:jfem STATUS:               ID:20110208041621 L   I
 2011-02-08-0400-00M.COL___140                                                 6
 STAT SP IPHASW D HRMM SECON CODA AMPLIT PERI AZIMU VELO SNR AR TRES W  DIS CAZ7
 RUS  HZ EP   1    416 38.93                             140    -0.1 7   78 110 
 RUS  HN ES   2    416 53.06                             140     0.1 5   78 110 
 RUS  HZ I         416 58.47        13.0 0.62                            78 110 
 BAR2 SZ IP        416 39.01                             139     0.210   80  51 
 BAR2 SZ ES   2    416 52.47                             139    -0.1 5   80  51 
 BAR2 SZ I         416 54.17       103.9 0.41                            80  51 
 BTL  SZ EP   1    416 40.42                             131    -0.2 7  101  32 
 NOR  SZ EP   1    416 43.99                             121    -0.2 7  140 243 
 NOR  SN ES   2    417  1.12                             121    -1.0 5  140 243 
 CHI  HZ EP   1    416 47.59                             116     0.1 7  167 179 
 CHI  HN ES   2    417  8.62                             116     0.5 5  167 179 
 HEL  HZ EP   1    416 51.07                             112     0.2 6  197 272 
 HEL  HN ES   2    417 15.18                             112     1.1 4  197 272 
 HEL  HZ I         417 17.92         8.8 0.35                           197 272 
 GUY  SZ EP   1    416 51.73                             111    -0.2 6  206 241 
 GRA  SZ EP   1    416 53.02                             109    -0.1 6  220  28 
 GRA  SZ I         417 19.56         4.6 0.48                           220  28 
                                                                                
