 2011  1 8 0901  5.2 L   6.781 -73.200146.1  RSN  7 0.3 1.5LRSN                1
 GAP=153        0.66       4.2    14.6  7.0 -0.3675E+02  0.3612E+02 -0.5974E+01E
 Epicentro: ZAPATOCA - SANTANDER                                               3
 ACTION:UP  11-02-08 08:39 OP:pat  STATUS:               ID:20110108090105 L   I
 2011-01-08-0857-43S.COL___135                                                 6
 STAT SP IPHASW D HRMM SECON CODA AMPLIT PERI AZIMU VELO SNR AR TRES W  DIS CAZ7
 BTL  SZ IP        9 1 24.68                             173    -0.110   17 334 
 BAR2 SZ EP   1    9 1 24.50                             171    -0.3 7   21 175 
 BAR2 SZ ES   1    9 1 40.24                             171     0.1 7   21 175 
 BAR2 SZ I         9 1 42.20        10.3 0.63                            21 175 
 RUS  HZ EP   1    9 1 28.44                             144    -0.4 7   99 173 
 RUS  HE ES   2    9 1 47.25                             144    -0.1 5   99 173 
 RUS  HZ I         9 1 48.70         3.3 0.31                            99 173 
 GRA  SZ IP        9 1 31.22                             136     0.410  130  20 
 GRA  SZ I         9 1 32.62         5.6 0.24                           130  20 
 GRA  SZ ES   2    9 1 50.76                             136     0.0 5  130  20 
 OCA  SZ EP   2    9 1 32.93                             129    -0.7 5  162 355 
 OCA  SZ ES   2    9 1 55.67                             129    -0.2 5  162 355 
 OCA  SZ I         9 1 58.89         3.4 0.19                           162 355 
 CHI  HZ EP   2    9 1 42.60                             117     0.1 4  245 194 
 CHI  HN ES   2    9 2 12.11                             117     0.5 4  245 194 
 CHI  HZ I         9 2 15.58         2.2 0.60                           245 194 
 PRA  HZ EP   1    9 1 58.45                             107     0.3 4  387 209 
 PRA  HE ES   2    9 2 39.84                             107     0.4 3  387 209 
                                                                                
