 2015  2 8 0430  7.3 L   6.793 -73.151142.6  RSN 12 0.6 1.8LRSN                1
 GAP= 71        1.41       3.6     4.3  7.0 -0.2551E+01  0.5526E+01  0.1551E+01E
 Epicentro: LOS SANTOS - SANTANDER                                             3
 ACTION:UPD 15-04-30 21:23 OP:nd   STATUS:               ID:20150208043007 L   I
 OLDACT:ARG 15-02-08 13:47 OP:stll STATUS:               ID:20150208042746     3
 2015-02-08-0427-46M.COL___287                                                 6
 STAT SP IPHASW D HRMM SECON CODA AMPLIT PERI AZIMU VELO AIN AR TRES W  DIS CAZ7
 BAR2 EZ EP        430 26.96                             171    0.4210 22.5 189 
 BAR2 EZ ES        430 41.79                             171    0.2510 22.5 189 
 BAR2 EZ I         430 44.73         9.6 0.30            171           22.5 189 
 BRR  HZ EP        430 28.84                             152    0.7310 71.1 299 
 BRR  HZ I         430 29.13        16.0 0.26            152           71.1 299 
 BRR  HN ES        430 44.69                             152    0.3610 71.1 299 
 PAM  SZ EP        430 29.78                             150    0.5310 78.3  39 
 PAM  SZ I         430 30.03        18.4 0.24            152           78.3  39 
 PAM  SN ES        430 46.50                             150    0.1510 78.3  39 
 RUS  HZ EP        430 31.01                             143    0.3110 99.9 176 
 RUS  HN ES        430 48.98                             143    0.0410 99.9 176 
 RUS  HZ I         430 50.63         5.6 0.24            145           99.9 176 
 PTB  HZ EP        430 33.82                             131   -0.14 9  147 259 
 PTB  HN ES        430 53.79                             131   -0.95 9  147 259 
 PTB  HZ I         431  0.60         7.6 0.54            132            147 259 
 TAM  HZ EP        430 34.90                             130    0.13 9  155 105 
 TAM  HZ I         430 35.18        10.2 0.18            133            155 105 
 TAM  HN ES        430 54.76                             130   -1.43 9  155 105 
 OCA  HZ EP        430 35.46                             129    0.02 9  161 353 
 OCA  HE ES        430 57.35                             129   -0.03 9  161 353 
 OCA  HZ I         431  1.74         7.3 0.22            130            161 353 
 SPBC HZ EP        430 36.03                             128    0.55 9  162 219 
 SPBC HN ES        430 57.61                             128    0.16 9  162 219 
 SPBC HZ I         430 59.39        14.9 0.44            130            162 219 
 NOR  HZ EP        430 41.90                             118   -0.86 8  234 235 
 NOR  HN ES        431  9.59                             118   -0.82 8  234 235 
 NOR  HZ I         431 13.23         5.4 0.26            119            234 235 
 SML  HZ EP        430 43.20                             117   -0.61 8  244 335 
 SML  HN ES        431 11.58                             117   -0.70 8  244 335 
 SML  HZ I         431 13.94         9.9 0.10            118            244 335 
 CHI  HZ EP        430 44.88                             117    0.14 8  248 195 
 CHI  HZ I         430 46.98         2.6 0.16            118            248 195 
 CHI  HE ES        431 13.69                             117   -0.24 8  248 195 
 GUY2CHZ EP        430 51.82                             112    1.15 7  300 235 
 GUY2CHE ES        431 24.68                             112    0.19 7  300 235 
                                                                                
