 2014  2 8 0708 51.9 L   6.826 -73.184135.4  RSN  6 0.2 1.5LRSN                1
 GAP=136        0.54       2.6     3.6  5.0 -0.4962E+01  0.9011E+01 -0.4129E+01E
 Epicentro: ZAPATOCA - SANTANDER                                               3
 ACTION:UPD 14-03-10 08:08 OP:ep   STATUS:               ID:20140208070851 L   I
 OLDACT:REG 14-02-08 09:47 OP:mh   STATUS:               ID:20140208070749     3
 2014-02-08-0707-49M.COL___220                                                 6
 STAT SP IPHASW D HRMM SECON CODA AMPLIT PERI AZIMU VELO AIN AR TRES W  DIS CAZ7
 BAR2 SZ ES   1    7 9 24.71                             169    0.02 7 25.9 180 
 BAR2 SZ I         7 9 26.68        16.4 0.05            170           25.9 180 
 PAM  SZ EP        7 9 13.39                             149    0.3710 78.0  43 
 PAM  SN ES        7 9 29.29                             149   -0.2410 78.0  43 
 PAM  SZ I         7 9 33.01         4.0 0.59            153           78.0  43 
 PTB  HZ EP   1    7 9 17.71                             130    0.04 7  144 257 
 PTB  HN ES   1    7 9 37.80                             130   -0.00 7  144 257 
 PTB  HZ I         7 9 40.49         2.8 0.15            132            144 257 
 SPBC HZ EP        7 9 19.48                             127   -0.07 9  163 217 
 SPBC HN ES        7 9 41.18                             127    0.03 9  163 217 
 SPBC HZ I         7 9 47.51         3.4 0.10            129            163 217 
 NOR  HN ES   2    7 9 53.92                             116   -0.17 4  233 233 
 SML  HZ EP        7 9 27.02                             116   -0.42 8  239 336 
 SML  HN ES        7 9 55.43                             116    0.24 8  239 336 
 SML  HZ I         7 9 58.73         3.7 0.10            118            239 336 
                                                                                
