 2014 12 8 0406 20.4 L   6.806 -73.138137.9  RSN 13 0.6 1.9LRSN                1
 GAP= 71        1.41       3.6     4.0  6.9 -0.1896E+01  0.7306E+01  0.1374E+01E
 Epicentro: LOS SANTOS - SANTANDER                                             3
 ACTION:UPD 15-02-10 17:01 OP:nd   STATUS:               ID:20141208040620 L   I
 OLDACT:DUP 14-12-08 16:16 OP:stll STATUS:               ID:20141208035748d    3
 2014-12-08-0357-47M.COL___303                                                 6
 STAT SP IPHASW D HRMM SECON CODA AMPLIT PERI AZIMU VELO AIN AR TRES W  DIS CAZ7
 BAR2 SZ EP        4 6 39.25                             170    0.1910 24.2 192 
 BAR2 SZ ES        4 6 53.47                             170   -0.1810 24.2 192 
 BAR2 SZ I         4 6 54.94        12.1 0.22            171           24.2 192 
 BRR  HZ EP        4 6 41.38                             151    0.6910 71.7 298 
 BRR  HN ES        4 6 57.04                             151    0.5010 71.7 298 
 BRR  HZ I         4 7  1.81        17.3 0.48            150           71.7 298 
 PAM  SZ EP        4 6 42.23                             150    0.5610 76.3  39 
 PAM  SN ES        4 6 58.90                             150    0.6010 76.3  39 
 PAM  SZ I         4 7  1.21        30.9 0.58            151           76.3  39 
 RUS  HZ EP        4 6 43.66                             142    0.2710  101 177 
 RUS  HN ES        4 7  1.29                             142   -0.0610  101 177 
 RUS  HZ I         4 7  2.90         8.7 0.28            145            101 177 
 PTB  HZ EP        4 6 46.22                             130   -0.57 9  149 259 
 PTB  HN ES        4 7  7.47                             130    0.07 9  149 259 
 PTB  HZ I         4 7  9.14        13.9 0.14            131            149 259 
 TAM  HZ EP        4 6 47.58                             129    0.22 9  154 105 
 TAM  HZ I         4 6 47.73        24.3 0.20            132            154 105 
 TAM  HN ES        4 7  7.21                             129   -1.21 9  154 105 
 OCA  HZ EP        4 6 47.84                             128   -0.17 9  160 353 
 OCA  HN ES        4 7  9.22                             128   -0.36 9  160 353 
 OCA  HZ I         4 7 14.11        16.9 0.28            129            160 353 
 SPBC HZ EP        4 6 48.28                             127   -0.09 9  164 219 
 SPBC HN ES        4 7  9.84                             127   -0.38 9  164 219 
 SPBC HZ I         4 7 13.79        11.4 0.24            129            164 219 
 SML  HZ EP        4 6 55.60                             116   -0.93 8  243 335 
 SML  HN ES        4 7 24.27                             116   -0.47 8  243 335 
 SML  HZ I         4 7 31.36        16.6 0.26            117            243 335 
 CHI  HZ EP        4 6 57.65                             115   -0.08 8  250 195 
 CHI  HN ES        4 7 26.81                             115   -0.07 8  250 195 
 CHI  HZ I         4 7 29.87         2.5 0.26            117            250 195 
 HEL  HZ EP        4 7  1.34                             113    1.04 8  273 256 
 HEL  HN ES        4 7 30.46                             113   -0.99 8  273 256 
 HEL  HZ I         4 7 38.48         3.6 0.28            114            273 256 
 GUY2CHZ EP        4 7  5.02                             111    1.28 7  302 235 
 GUY2CHE ES        4 7 38.21                             111    0.63 7  302 235 
 GUY2CHZ I         4 7 46.49         4.1 0.42                           302 235 
 CBOC HZ EP        4 7  7.22                             108    0.14 7  335 252 
 CBOC HZ I         4 7  8.60         2.0 0.18            110            335 252 
 CBOC HN ES        4 7 42.30                             108   -1.22 7  335 252 
                                                                                
