 2017  5 8 0835 30.3 L   6.770 -73.175162.8  RSN  5 0.2 1.2LRSN                1
 GAP=232        0.61       3.8     4.4  5.5  0.8032E+01 -0.2082E+01 -0.4947E+01E
 Epicentro: LOS SANTOS - SANTANDER                                             3
 ACTION:UPD 17-06-16 13:34 OP:jn   STATUS:               ID:20170508083530 L   I
 OLDACT:DUP 17-05-08 18:49 OP:edw  STATUS:               ID:20170508082728d    3
 OLDACT:UP  17-05-08 18:46 OP:edw  STATUS:               ID:20170508082727     3
 OLDACT:UP  17-05-08 18:45 OP:edw  STATUS:               ID:20170508082727     3
 OLDACT:UP  17-05-08 18:44 OP:edw  STATUS:               ID:20170508082727     3
 OLDACT:REG 17-05-08 12:58 OP:edw  STATUS:               ID:20170508082727     3
 2017-05-08-0828-00M.COL___359                                                 6
 STAT SP IPHASW D HRMM SECON CODA AMPLIT PERI AZIMU VELO AIN AR TRES W  DIS CAZ7
 BRR  HZ EP        835 53.61                             156    0.3510 70.1 302 
 BRR  HN ES        836 10.95                             156   -0.2210 70.1 302 
 RUS  HZ EP        835 55.65                             148    0.0910 97.6 174 
 RUS  HN ES        836 15.24                             148   -0.0310 97.6 174 
 RUS  HZ I         836 15.40         4.4 0.54            148           97.6 174 
 PTB  HZ EP        835 57.94                             136   -0.45 9  144 260 
 PTB  HN ES        836 20.56                             136    0.26 9  144 260 
 PTB  HZ I         836 24.98         1.4 0.44            134            144 260 
 SPBC HN ES        836 22.70                             134   -0.02 9  159 219 
 ZAR  HZ EP        836  3.69                             126   -0.05 9  202 293 
 ZAR  HN ES        836 29.87                             126    0.04 9  202 293 
 ZAR  HZ I         836 34.57         1.2 0.36            125            202 293 
                                                                                
