 2013  1 8 0932  5.4 L   6.724 -73.206134.8  RSN  4 0.5 1.6LRSN                1
 GAP=223        1.16      12.0     8.0  9.3  0.3508E+02  0.2161E+02 -0.5298E+01E
 Epicentro: VILLANUEVA - SANTANDER                                             3
 ACTION:UPD 13-02-15 09:12 OP:ep   STATUS:               ID:20130108093205 L   I
 2013-01-08-0930-00M.COL___238                                                 6
 STAT SP IPHASW D HRMM SECON CODA AMPLIT PERI AZIMU VELO AIN AR TRES W  DIS CAZ7
 BAR2 SZ EP        932 24.05                             173    0.5010 14.9 170 
 BAR2 SZ ES        932 37.26                             173   -0.4610 14.9 170 
 BAR2 SZ I         932 40.27         5.7 0.30            174           14.9 170 
 BRR  HZ EP        932 25.93                             151    0.6310 70.1 307 
 BRR  HN ES        932 40.71                             151   -0.1210 70.1 307 
 BRR  HN I         932 45.19         8.6 0.30            149           70.1 307 
 PTB  HZ EP        932 30.30                             131   -0.44 9  140 262 
 PTB  HN ES        932 50.84                             131    0.33 9  140 262 
 PTB  HN I         932 54.75         4.6 0.22            132            140 262 
 ZAR  HZ EP        932 36.11                             120   -0.74 9  201 295 
 ZAR  HN ES        933  1.51                             120    0.12 9  201 295 
 ZAR  HN I         933  6.19         7.9 0.48            122            201 295 
                                                                                
