 2011 12 8 0759  8.5 L   6.776 -73.054137.7  RSN  5 0.4 1.8LRSN                1
 GAP=150        0.79       5.0     7.5  7.5 -0.7166E+01  0.4269E+01  0.8434E+01E
 Epicentro: LOS SANTOS - SANTANDER                                             3
 ACTION:UPD 12-07-13 16:14 OP:ep   STATUS:               ID:20111208075908 L   I
 2011-12-08-0757-00S.MAN___170                                                 6
 STAT SP IPHASW D HRMM SECON CODA AMPLIT PERI AZIMU VELO AIN AR TRES W  DIS CAZ7
 BAR2 SZ EP   1    759 26.84                             169   -0.37 7 24.8 215 
 BAR2 SZ ES   1    759 41.44                             169   -0.35 7 24.8 215 
 BAR2 SZ I         759 43.39        19.8 0.22                          24.8 215 
 PAM  SZ EP   1    759 29.73                             151    0.08 7 73.6  32 
 PAM  SN ES   1    759 46.46                             151    0.33 7 73.6  32 
 PAM  SZ I         759 49.39         8.8 0.46                          73.6  32 
 BRR  HZ EP   1    759 28.86                             148   -0.57 7 81.4 297 
 BRR  HN ES   1    759 46.12                             148    0.37 7 81.4 297 
 BRR  HZ I         759 49.72         9.4 0.13                          81.4 297 
 RUS  HZ EP   1    759 31.00                             143   -0.27 7 97.7 182 
 RUS  HN ES   1    759 49.28                             143    0.26 7 97.7 182 
 RUS  HZ I         759 51.61        11.2 0.38                          97.7 182 
 ROSC BZ EP   1    759 47.45                             115    0.90 6  256 213 
 ROSC BN ES   2    8 0 16.08                             115   -0.14 4  256 213 
                                                                                
