 2017  2 8 0546 10.4 L   6.790 -73.151141.6  RSN  9 0.5 1.7LRSN                1
 GAP=222        1.28       7.0     7.7  8.5  0.2053E+02  0.2009E+02  0.2225E+02E
 Epicentro: LOS SANTOS - SANTANDER                                             3
 ACTION:UPD 17-05-24 15:33 OP:jn   STATUS:               ID:20170208054610 L   I
 OLDACT:UP  17-02-08 17:35 OP:edw  STATUS:               ID:20170208053746d    3
 OLDACT:DUP 17-02-08 17:25 OP:edw  STATUS:               ID:20170208053746d    3
 OLDACT:UP  17-02-08 17:24 OP:edw  STATUS:               ID:20170208053745     3
 OLDACT:UP  17-02-08 17:22 OP:edw  STATUS:               ID:20170208053745     3
 OLDACT:REG 17-02-08 12:37 OP:edw  STATUS:               ID:20170208053745     3
 2017-02-08-0538-00M.COL___322                                                 6
 STAT SP IPHASW D HRMM SECON CODA AMPLIT PERI AZIMU VELO AIN AR TRES W  DIS CAZ7
 BAR2 EZ EP        546 29.32                             170   -0.1610 22.2 189 
 BAR2 EZ ES        546 44.17                             170   -0.2110 22.2 189 
 BAR2 EZ I         546 49.55         6.2 0.48            165           22.2 189 
 BRR  HZ EP     D  546 30.93                             152   -0.1410 71.2 300 
 BRR  HN ES        546 47.90                             152    0.6810 71.2 300 
 BRR  HZ I         546 51.90         9.0 0.36            149           71.2 300 
 PTB  HZ EP        546 36.14                             131   -0.79 9  147 259 
 PTB  HN ES        546 57.07                             131   -0.57 9  147 259 
 PTB  HZ I         546 59.36         6.7 0.10            131            147 259 
 ZAR  HZ EP        546 42.48                             122   -0.05 9  204 292 
 ZAR  HN ES        547  8.33                             122    0.71 9  204 292 
 ZAR  HZ I         547 16.32         6.2 0.26            123            204 292 
 CHI  HZ EP        546 47.69                             116   -0.02 8  247 195 
 CHI  HN ES        547 17.54                             116    0.71 8  247 195 
 CHI  HZ I         547 24.75         2.1 0.42            120            247 195 
 PTGC HZ EP   4    546 38.97                             111   -15.0 0  308 158 
 PTGC HN ES   4    547 16.16                             111   -11.8 0  308 158 
 PTGC HZ I         547 16.72         3.4 0.38            115            308 158 
 CBOC HZ EP        546 57.47                             109    0.46 7  333 252 
 CBOC HN ES        547 32.96                             109   -0.43 7  333 252 
 CBOC HZ I         547 35.33         0.9 0.38            111            333 252 
 PRA  HZ EP        547  3.87                             106    0.26 6  391 210 
 PRA  HN ES   4    547 43.99                             106   -1.14 0  391 210 
 PRA  HZ I         547 51.21         2.2 0.30            109            391 210 
 SJC  HZ EP   9    547  5.14                             105   -0.73 0  410 327 
 SJC  HN ES        547 46.74                             106   -1.69 6  410 327 
 SJC  HZ I         547 47.54         2.0 0.58            108            410 327 
                                                                                
