 2013  9 8 0129 54.5 L   6.801 -73.163144.0  RSN  9 0.4 2.0LRSN                1
 GAP=134        0.79       3.4     4.6  6.2 -0.1470E+01  0.6881E+01 -0.3040E+01E
 Epicentro: LOS SANTOS - SANTANDER                                             3
 ACTION:UPD 13-10-22 09:21 OP:ep   STATUS:               ID:20130908012954 L   I
 OLDACT:REG 13-09-08 12:32 OP:mh   STATUS:               ID:20130908012847     3
 2013-09-08-0128-47M.COL___244                                                 6
 STAT SP IPHASW D HRMM SECON CODA AMPLIT PERI AZIMU VELO AIN AR TRES W  DIS CAZ7
 BAR2 SZ EP   1    130 13.91                             170   -0.05 7 23.2 185 
 BAR2 SZ ES   1    130 28.62                             170   -0.48 7 23.2 185 
 BAR2 SZ I         130 31.65        17.0 0.40            170           23.2 185 
 BRR  HZ EP   1    130 15.74                             153    0.34 7 69.4 299 
 BRR  HN ES   1    130 32.27                             153    0.60 7 69.4 299 
 BRR  HZ I         130 36.00         7.8 0.28            151           69.4 299 
 PAM  SZ EP   1    130 16.80                             150    0.16 7 78.5  41 
 PAM  SN ES   1    130 33.88                             150    0.00 7 78.5  41 
 PAM  SZ I         130 35.90        12.4 0.54            155           78.5  41 
 RUS  HZ EP   1    130 17.88                             143   -0.26 7  101 175 
 RUS  HN ES   1    130 36.76                             143    0.21 7  101 175 
 RUS  HZ I         130 39.25         7.6 0.24            147            101 175 
 PTB  HZ EP   1    130 20.72                             132   -0.48 7  146 259 
 PTB  HN ES   1    130 41.56                             132   -0.42 7  146 259 
 PTB  HZ I         130 44.67        12.0 0.16            133            146 259 
 OCA  HZ EP   1    130 23.45                             129    0.77 7  160 354 
 OCA  HN ES   1    130 44.38                             129   -0.25 7  160 354 
 OCA  HN I         130 49.27        43.2 0.22            132            160 354 
 ZAR  HN ES   2    130 52.11                             122    0.36 4  202 292 
 ZAR  HN I         130 58.36        11.6 0.28            123            202 292 
 NOR  HZ EP   1    130 29.85                             118   -0.16 6  233 234 
 NOR  HE ES   2    130 58.79                             118    1.12 4  233 234 
 NOR  HZ I         131  3.19         8.5 0.38            120            233 234 
 SML  HZ EP   1    130 30.85                             117   -0.12 6  243 336 
 SML  HN ES   1    130 58.72                             117   -0.66 6  243 336 
 SML  HZ I         131  2.67        11.7 0.10            119            243 336 
                                                                                
