 2015  3 8 0427 59.7 L   6.786 -73.151148.0  RSN 15 0.4 1.7LRSN                1
 GAP= 71        0.75       2.3     2.7  4.2 -0.7032E+00  0.1996E+01  0.2008E+01E
 Epicentro: LOS SANTOS - SANTANDER                                             3
 ACTION:UPD 15-04-30 16:24 OP:nd   STATUS:               ID:20150308042759 L   I
 OLDACT:REG 15-03-08 12:25 OP:spq  STATUS:               ID:20150308041748     3
 2015-03-08-0417-48M.COL___281                                                 6
 STAT SP IPHASW D HRMM SECON CODA AMPLIT PERI AZIMU VELO AIN AR TRES W  DIS CAZ7
 BAR2 EZ EP        428 19.33                             171   -0.2610 21.7 189 
 BAR2 EZ ES   1    428 35.38                             171    0.29 7 21.7 189 
 BAR2 EZ I         428 35.71        12.0 0.16            170           21.7 189 
 BRR  HZ EP        428 21.18                             153    0.0510 71.5 300 
 BRR  HE ES        428 38.44                             153    0.6210 71.5 300 
 BRR  HZ I         428 40.65         6.8 0.64            151           71.5 300 
 PAM  SZ EP        428 22.12                             151   -0.1510 78.9  39 
 PAM  SN ES        428 39.85                             151   -0.0110 78.9  39 
 PAM  SZ I         428 41.47         9.8 0.56            152           78.9  39 
 RUS  HZ EP        428 23.54                             145   -0.0510 99.1 176 
 RUS  HN ES        428 42.33                             145    0.1310 99.1 176 
 RUS  HZ I         428 43.15         8.5 0.28            144           99.1 176 
 PTB  HZ EP        428 26.19                             133   -0.61 9  147 259 
 PTB  HN ES   1    428 47.24                             133   -0.67 7  147 259 
 PTB  HZ I         428 49.20         4.6 0.42            131            147 259 
 TAM  HZ EP        428 27.55                             131   -0.05 9  155 104 
 TAM  HN ES   1    428 49.44                             131    0.11 7  155 104 
 TAM  HZ I         428 51.36         2.5 0.49            132            155 104 
 SPBC HZ EP   1    428 28.37                             130    0.12 7  162 219 
 SPBC HN ES   1    428 49.94                             130   -0.56 7  162 219 
 SPBC HZ I         428 52.99        15.4 0.32            129            162 219 
 OCA  HN ES        428 50.67                             130   -0.00 9  162 353 
 OCA  HZ I         428 54.21         8.1 0.38            130            162 353 
 NOR  HN ES   1    429  3.47                             119    0.18 6  233 235 
 NOR  HZ I         429  7.93         4.6 0.16            118            233 235 
 SML  HZ EP   1    428 36.38                             118   -0.22 6  245 336 
 SML  HE ES   1    429  5.23                             118   -0.14 6  245 336 
 SML  HZ I         429 11.10         6.6 0.32            117            245 336 
 CHI  HZ EP        428 37.40                             118    0.03 8  247 195 
 CHI  HN ES   1    429  6.45                             118   -0.28 6  247 195 
 CHI  HZ I         429 16.62         2.3 0.50            117            247 195 
 GUY2CHZ EP   1    428 43.56                             113    0.28 5  300 235 
 GUY2CHN ES   4    429 20.14                             113    2.88 0  300 235 
 GUY2CHZ I         429 24.50         2.7 0.32                           300 235 
 CBOC HZ EP   1    428 47.60                             110    0.98 5  333 252 
 CBOC HE ES   1    429 23.52                             110    0.33 5  333 252 
 CBOC HZ I         429 29.65         1.0 0.44            110            333 252 
 MON  HN ES   4    429 25.24                             109   -1.97 0  354 309 
 MON  HZ I         429 29.70         1.5 0.48            108            354 309 
 PRA  HZ EP        428 53.95                             107    0.82 6  390 210 
 PRA  HE ES   1    429 34.89                             107    0.10 4  390 210 
 PRA  HZ I         429 41.63         2.2 0.26            107            390 210 
                                                                                
