 2014  3 8 1229 21.0 L   7.177 -73.270116.5  RSN 13 0.6 2.3LRSN                1
 GAP= 77        1.46       3.4     4.0  8.4  0.3305E+00  0.1216E+02  0.3587E+01E
 Epicentro: LEBRIJA - SANTANDER                                                3
 ACTION:UPD 14-04-09 23:15 OP:nd   STATUS:               ID:20140308122921 L   I
 OLDACT:REG 14-03-08 16:36 OP:stll STATUS:               ID:20140308122812     3
 2014-03-08-1228-12M.COL___229                                                 6
 STAT SP IPHASW D HRMM SECON CODA AMPLIT PERI AZIMU VELO AIN AR TRES W  DIS CAZ7
 BAR2 SZ IP     C 1229 39.60                             149    0.5810 65.4 171 
 BAR2 SZ ES       1229 53.64                             149    0.5510 65.4 171 
 BAR2 SZ I        1229 54.94       279.2 0.24            151           65.4 171 
 PAM  SZ EP       1229 39.85                             149    0.4710 65.5  74 
 PAM  SN ES       1229 54.27                             149    0.5310 65.5  74 
 PAM  SZ I        1229 56.52       512.8 0.42            155           65.5  74 
 OCA  HZ EP       1229 43.17                             132    0.1610  118 357 
 OCA  HN ES       1230  0.34                             132    0.1510  118 357 
 OCA  SZ I        1230  2.52        49.1 0.24            135            118 357 
 RUS  HZ EP       1229 45.70                             126   -0.25 9  144 172 
 RUS  HE ES       1230  4.99                             126   -0.43 9  144 172 
 RUS  SZ I        1230  9.17         8.9 0.20            129            144 172 
 PTB  HZ EP       1229 45.62                             124   -0.23 9  149 242 
 PTB  HN ES       1230  4.71                             124   -0.54 9  149 242 
 PTB  SZ I        1230 11.94        14.6 0.22            126            149 242 
 ZAR  HZ EP       1229 49.35                             119    0.40 9  179 281 
 ZAR  HN ES       1230 10.77                             119    0.00 9  179 281 
 ZAR  SZ I        1230 18.07        16.4 0.44            121            179 281 
 TAM  HZ EP       1229 49.63                             118    0.19 9  183 117 
 TAM  HE ES       1230 10.40                             118   -1.24 9  183 117 
 TAM  SZ I        1230 17.89        15.7 0.24            123            183 117 
 SPBC HZ EP       1229 51.32                             117    0.99 9  191 208 
 SPBC HN ES       1230 12.75                             117   -0.48 9  191 208 
 SPBC SZ I        1230 19.84        17.7 0.32            120            191 208 
 SML  HZ EP       1229 50.85                             116   -0.40 9  200 334 
 SML  HN ES       1230 13.36                             116   -1.51 9  200 334 
 SML  SZ I        1230 24.19        31.6 0.06            119            200 334 
 NOR  HZ EP       1229 57.07                             110   -0.02 8  251 225 
 NOR  HN ES       1230 24.64                             110   -0.61 8  251 225 
 NOR  SZ I        1230 30.97        14.2 0.18            112            251 225 
 HEL  HZ EP     D 1230  0.84                             108    0.91 8  273 247 
 HEL  HE ES       1230 30.96                             108    0.64 8  273 247 
 HEL  SZ I        1230 35.79         7.0 0.28            111            273 247 
 CHI  HZ EP       1230  1.84                             107    0.25 7  286 190 
 CHI  HN ES       1230 32.50                             107   -0.77 7  286 190 
 CHI  SZ I        1230 39.00         6.2 1.20            110            286 190 
 GUY2CHZ EP       1230  5.55                             105    0.30 7  317 227 
                                                                                
