 2011 10 8 1422 48.9 L   6.784 -73.163141.3  RSN 21 0.4 3.6LRSN                1
 GAP=113        0.75       2.3     3.7  4.5 -0.7387E+00  0.7286E+01  0.2155E+01E
 Epicentro: LOS SANTOS - SANTANDER                                             3
 ACTION:UPD 12-07-13 16:02 OP:ep   STATUS:               ID:20111008142248 L   I
 2011-10-08-1420-00M.COL___171                                                 6
 STAT SP IPHASW D HRMM SECON CODA AMPLIT PERI AZIMU VELO AIN AR TRES W  DIS CAZ7
 BAR2 SZ IP       1423  8.01                             171    0.0510 21.3 186 
 BAR2 SZ ES   1   1423 22.86                             171    0.03 7 21.3 186 
 BAR2 SZ I        1423 26.12       718.7 0.26                          21.3 186 
 GIR2 SZ EP       1423  8.14                             166    0.0410 32.8 354 
 GIR2 SZ ES   1   1423 22.98                             166   -0.08 7 32.8 354 
 BRR  HZ IP     C 1423  9.93                             152    0.4010 70.4 301 
 BRR  HZ I        1423 30.23       905.3 0.20                          70.4 301 
 PAM  SZ EP       1423 10.84                             149    0.0310 80.0  40 
 PAM  SN ES   1   1423 28.06                             149    0.16 7 80.0  40 
 RUS  HZ IP     D 1423 11.85                             143   -0.2510 98.9 175 
 RUS  HZ I        1423 13.57       186.4 0.45                          98.9 175 
 RUS  HE ES   1   1423 30.19                             143   -0.01 7 98.9 175 
 BRI  SZ IP       1423 12.62                             140    0.0610  111  21 
 OCA  SZ EP       1423 16.77                             128   -0.26 9  162 354 
 OCA  SZ ES   1   1423 38.77                             128   -0.19 7  162 354 
 OCA  SZ I        1423 45.34       376.1 0.44                           162 354 
 YOP  SZ EP   1   1423 18.48                             125   -0.08 7  178 152 
 YOP  SE ES   2   1423 42.09                             125    0.40 4  178 152 
 YOP  SZ I        1423 51.76       149.7 0.45                           178 152 
 ZAR  HZ EP       1423 20.31                             121   -0.64 9  203 293 
 ZAR  HE ES   1   1423 46.10                             121    0.16 6  203 293 
 ZAR  HZ I        1423 51.95       533.9 0.42                           203 293 
 NOR  SZ EP   1   1423 23.44                             118   -0.66 6  232 235 
 NOR  SN ES   1   1423 51.15                             118   -0.39 6  232 235 
 CHI  HZ EP   1   1423 26.00                             116   -0.12 6  246 195 
 CHI  HE ES   1   1423 54.64                             116   -0.50 6  246 195 
 CHI  HZ I        1424  5.00       230.3 0.52                           246 195 
 ROSC BZ EP       1423 27.54                             116    1.03 8  250 211 
 ROSC BZ I        1424  1.96       336.2 0.43                           250 211 
 HEL  HZ EP   1   1423 28.99                             114    0.35 6  270 256 
 HEL  HZ I        1424  6.79       265.6 0.34                           270 256 
 VIL  SZ EP   1   1423 31.06                             111   -0.82 5  301 191 
 VIL  SE ES   1   1424  5.17                             111   -0.23 5  301 191 
 VIL  SZ I        1424  9.83       136.3 0.39                           301 191 
 GUY  SZ EP   1   1423 32.54                             111    0.26 5  301 235 
 GUY  SZ I        1424 14.56       421.6 0.37                           301 235 
 RREF HZ EP   1   1423 35.09                             110    0.54 5  319 229 
 DBB  SZ EP   1   1423 36.31                             109    0.31 5  338 275 
 TOL  SZ EP   1   1423 37.33                             109    0.65 5  341 225 
 ANIL HZ EP   1   1423 38.83                             108    0.60 5  355 224 
 ANIL HZ I        1424 21.95       424.5 0.40                           355 224 
 PRA  HZ EP   1   1423 41.31                             106   -0.67 4  389 209 
 PRA  HN ES   1   1424 23.55                             106    0.17 4  389 209 
 PRA  HZ I        1424 27.40       624.4 0.31                           389 209 
 HORQ SZ EP   1   1423 58.32                             101   -0.60 3  529 227 
 HORQ SZ I        1425  4.91        12.6 0.53                           529 227 
                                                                                
