 2012  1 8 1309 51.0 L   6.786 -73.110152.1  RSN 13 0.3 2.1LRSN                1
 GAP=142        0.71       3.6     4.2  5.2 -0.1881E+01  0.6837E+01  0.1864E+01E
 Epicentro: LOS SANTOS - SANTANDER                                             3
 ACTION:UP  12-02-03 08:15 OP:REBC STATUS:               ID:20120108130951 L   I
 2012-01-08-1310-00M.COL___186                                                 6
 STAT SP IPHASW D HRMM SECON CODA AMPLIT PERI AZIMU VELO SNR AR TRES W  DIS CAZ7
 BAR2 SZ IP       1310 11.33                             171    -0.110   23 200 
 BAR2 SZ I        1310 27.71        21.3 0.64                            23 200 
 GIR2 SZ EP       1310 11.44                             167     0.010   34 344 
 GIR2 SZ ES   1   1310 27.31                             167    -0.2 7   34 344 
 BRR  HZ IP     C 1310 13.27                             152     0.210   75 298 
 BRR  HN ES   1   1310 30.85                             152     0.6 7   75 298 
 BRR  HZ I        1310 34.10        21.9 0.16                            75 298 
 PAM  SZ EP       1310 14.22                             152     0.410   76  37 
 PAM  SN ES   2   1310 31.04                             152    -0.6 5   76  37 
 RUS  HZ EP       1310 15.31                             146     0.110   99 178 
 RUS  HN ES   1   1310 33.86                             146    -0.3 7   99 178 
 RUS  HZ I        1310 38.48         7.5 0.40                            99 178 
 PTB  HZ EP       1310 18.24                             133    -0.6 9  151 260 
 PTB  HZ I        1310 45.25        11.8 0.54                           151 260 
 OCA  SZ EP       1310 19.90                             131    -0.1 9  162 352 
 OCA  SZ I        1310 46.08        17.0 0.23                           162 352 
 ZAR  HZ EP       1310 24.16                             123    -0.1 8  208 292 
 ZAR  HE ES   2   1310 49.70                             123    -0.6 4  208 292 
 ZAR  HZ I        1310 55.80        14.9 0.32                           208 292 
 NOR  SZ EP       1310 27.54                             119     0.2 8  237 235 
 NOR  SN ES   2   1310 55.74                             119     0.0 4  237 235 
 CHI  HZ EP   2   1310 29.18                             118     0.2 4  248 196 
 CHI  HZ I        1311  4.41         4.0 0.44                           248 196 
 HEL  HZ EP   2   1310 32.07                             116     0.2 4  275 256 
 HEL  HN ES   2   1311  4.01                             116     0.2 4  275 256 
 HEL  HZ I        1311 10.63         7.2 0.36                           275 256 
 RREF HZ EP   2   1310 37.92                             112     0.3 3  324 230 
 RREF HN ES   2   1311 14.71                             112     0.7 3  324 230 
 RREF HZ I        1311 23.25         9.5 0.26                           324 230 
 PRA  HZ EP   2   1310 44.69                             107    -0.1 3  393 210 
 PRA  HN ES   3   1311 26.64                             107    -0.2 1  393 210 
                                                                                
