 2014 12 8 1002 22.5 L   6.824 -73.199130.8  RSN 13 0.5 1.6LRSN                1
 GAP=129        1.21       3.0     4.4  7.6 -0.2087E+01  0.1578E+02 -0.1488E+01E
 Epicentro: ZAPATOCA - SANTANDER                                               3
 ACTION:UPD 15-02-10 17:01 OP:nd   STATUS:               ID:20141208100222 L   I
 OLDACT:DUP 14-12-08 21:18 OP:fm   STATUS:               ID:20141208095739d    3
 OLDACT:REG 14-12-08 20:16 OP:fm   STATUS:               ID:20141208095738     3
 2014-12-08-0957-38M.COL___309                                                 6
 STAT SP IPHASW D HRMM SECON CODA AMPLIT PERI AZIMU VELO AIN AR TRES W  DIS CAZ7
 BAR2 SZ EP       10 2 41.02                             168    0.6010 25.7 176 
 BAR2 SZ ES   1   10 2 54.88                             168    0.51 7 25.7 176 
 BAR2 SZ I        10 2 57.11         6.7 0.36            169           25.7 176 
 PAM  SZ EP     D 10 2 43.81                             147    0.5110 79.3  44 
 PAM  SN ES       10 2 59.42                             147   -0.0810 79.3  44 
 PAM  SZ I        10 3  3.04         4.1 0.54            154           79.3  44 
 RUS  HN ES       10 3  2.52                             139   -0.1710  104 173 
 RUS  HZ I        10 3  4.65         3.3 0.32            145            104 173 
 PTB  HZ EP       10 2 47.78                             129   -0.04 9  143 257 
 PTB  HE ES       10 3  7.09                             129   -0.46 9  143 257 
 PTB  HZ I        10 3 11.23         6.2 0.14            131            143 257 
 OCA  HE ES       10 3  9.87                             127   -0.49 9  157 355 
 OCA  HZ I        10 3 15.69         5.1 0.22            130            157 355 
 SPBC HZ EP       10 2 48.19                             126   -1.58 9  162 217 
 SPBC HE ES       10 3 11.06                             126    0.04 9  162 217 
 SPBC HZ I        10 3 18.06         6.3 0.24            129            162 217 
 ZAR  HZ EP       10 2 53.83                             120    0.47 9  198 292 
 ZAR  HN ES       10 3 17.93                             120    0.53 9  198 292 
 ZAR  HZ I        10 3 25.22         5.8 0.16            122            198 292 
 NOR  HE ES       10 3 23.98                             115   -0.06 8  232 233 
 NOR  HZ I        10 3 31.60         2.9 0.20            118            232 233 
 SML  HZ EP       10 2 57.85                             115    0.03 8  239 336 
 SML  HE ES       10 3 24.71                             115   -0.64 8  239 336 
 SML  HZ I        10 3 31.12         6.0 0.10            118            239 336 
 CHI  HZ EP       10 2 59.92                             114    0.36 8  250 194 
 CHI  HN ES       10 3 28.18                             114   -0.27 8  250 194 
 CHI  HZ I        10 3 34.95         1.7 0.34            118            250 194 
 HEL  HZ EP       10 3  2.17                             112    0.72 8  267 255 
 HEL  HE ES       10 3 32.26                             112    0.45 8  267 255 
 HEL  HZ I        10 3 39.54         2.1 0.50            115            267 255 
 URE  HZ EP       10 3  2.12                             111   -0.05 7  277 292 
 URE  HN ES       10 3 33.01                             111   -0.09 7  277 292 
 URE  HZ I        10 3 48.00         6.2 0.18            113            277 292 
 GUY2CHZ EP       10 3  5.05                             109   -0.06 7  298 234 
 GUY2CHE ES       10 3 38.46                             109    0.13 7  298 234 
 GUY2CHZ I        10 3 49.52         1.6 0.46                           298 234 
                                                                                
