 2012  5 8 1219 59.8 L   6.881 -74.156 14.1  RSN  7 0.3 1.6LRSN                1
 GAP=112        0.70       2.4     1.7  3.7 -0.6555E+00 -0.1793E+01  0.1515E+01E
 Epicentro: PUERTO PARRA - SANTANDER                                           3
 ACTION:UP  12-07-05 12:03 OP:pat  STATUS:               ID:20120508121959 L   I
 2012-05-08-1220-00M.COL___192                                                 6
 STAT SP IPHASW D HRMM SECON CODA AMPLIT PERI AZIMU VELO SNR AR TRES W  DIS CAZ7
 PTB  HZ EP       1220  8.31                             102     0.110   50 221 
 PTB  HN ES   1   1220 14.87                             102     0.1 7   50 221 
 PTB  HZ I        1220 14.87        19.1 0.19                            50 221 
 BRR  HZ EP       1220  8.87                             101     0.010   55  63 
 BRR  HE ES   1   1220 16.07                             101     0.1 7   55  63 
 BRR  HZ I        1220 16.45        47.9 0.13                            55  63 
 ZAR  HZ EP   1   1220 16.17                              96     0.1 7  103 311 
 ZAR  HN ES   1   1220 28.73                              96    -0.1 7  103 311 
 ZAR  HZ I        1220 29.26        19.1 0.25                           103 311 
 BAR2 SZ EP   1   1220 16.99                              95    -0.8 7  112 106 
 BAR2 SZ ES   1   1220 31.86                              95     0.1 7  112 106 
 BAR2 SZ I        1220 34.44         7.0 0.31                           112 106 
 RUS  HZ EP   1   1220 25.25                              56     0.3 7  161 133 
 RUS  HN ES   1   1220 44.52                              56    -0.1 7  161 133 
 RUS  HZ I        1220 46.51        14.2 0.46                           161 133 
 PAM  SZ EP   1   1220 26.43                              56     0.5 7  169  72 
 PAM  SN ES   1   1220 46.10                              56    -0.1 7  169  72 
 HEL  HN ES   2   1220 45.83                              56    -0.4 5  170 243 
 HEL  HZ I        1220 46.51        11.3 0.31                           170 243 
                                                                                
