 2013  7 8 1226 43.3 L   6.803 -73.164146.3  RSN  6 0.4 1.7LRSN                1
 GAP=157        0.99       4.4     5.5  7.3 -0.3818E+01 -0.3672E+00 -0.3107E+01E
 Epicentro: LOS SANTOS - SANTANDER                                             3
 ACTION:UPD 13-08-12 10:36 OP:ep   STATUS:               ID:20130708122643 L   I
 OLDACT:DUP 13-07-08 16:44 OP:stll STATUS:               ID:20130708121851d    3
 2013-07-08-1218-49M.COL___224                                                 6
 STAT SP IPHASW D HRMM SECON CODA AMPLIT PERI AZIMU VELO AIN AR TRES W  DIS CAZ7
 BAR2 SZ EP       1227  2.97                             170   -0.0110 23.4 185 
 BAR2 SZ ES       1227 17.89                             170   -0.4510 23.4 185 
 BAR2 SZ I        1227 19.22         9.1 0.18            170           23.4 185 
 GIR2 SZ EP       1227  3.06                             168    0.0610 30.7 354 
 BRR  HZ EP       1227  4.85                             153    0.4710 69.3 299 
 BRR  HN ES       1227 21.56                             153    0.7210 69.3 299 
 BRR  HN I        1227 21.97        25.6 0.18            154           69.3 299 
 RUS  HZ EP       1227  7.38                             144    0.2610  101 175 
 RUS  HN ES       1227 25.82                             144    0.1010  101 175 
 RUS  HN I        1227 27.32         3.2 0.34            144            101 175 
 GRA  SZ EP       1227  8.55                             137   -0.0510  126  18 
 GRA  SZ ES       1227 27.99                             137   -0.3510  126  18 
 PTB  HZ EP       1227  9.69                             132   -0.44 9  146 259 
 PTB  HN ES       1227 30.61                             132   -0.45 9  146 259 
                                                                                
