 2014  1 8 1440 48.2 L   6.791 -73.114143.7  RSN  4 0.2 1.1LRSN                1
 GAP=240        0.60       6.4     9.1  4.9  0.4444E+02  0.5584E+01  0.1996E+01E
 Epicentro: LOS SANTOS - SANTANDER                                             3
 ACTION:UPD 14-03-13 09:52 OP:ep   STATUS:               ID:20140108144048 L   I
 OLDACT:REG 14-01-08 15:00 OP:stll STATUS:               ID:20140108143811     3
 2014-01-08-1438-11M.COL___246                                                 6
 STAT SP IPHASW D HRMM SECON CODA AMPLIT PERI AZIMU VELO AIN AR TRES W  DIS CAZ7
 BAR2 SZ EP       1441  7.62                             170    0.0510 23.2 199 
 BAR2 SZ I        1441  7.73         5.0 0.18            170           23.2 199 
 BAR2 SZ ES       1441 22.35                             170   -0.3310 23.2 199 
 BRR  HZ EP       1441  9.55                             151    0.2310 74.8 298 
 BRR  HE ES       1441 25.91                             151    0.1010 74.8 298 
 RUS  HZ EP       1441 11.51                             144   -0.1410 99.4 178 
 RUS  HZ I        1441 12.27         1.0 0.32            143           99.4 178 
 RUS  HN ES       1441 30.22                             144    0.2710 99.4 178 
 PTB  HZ EP       1441 15.07                             131   -0.22 9  151 259 
                                                                                
