 2012  7 8 1756 16.0 L   6.776 -73.112145.3  RSN  7 0.3 1.7LRSN                1
 GAP=142        0.75       3.8     4.9  7.9 -0.7196E+00  0.9027E+01  0.5241E+00E
 Epicentro: LOS SANTOS - SANTANDER                                             3
 ACTION:UPD 12-08-14 11:43 OP:ep   STATUS:               ID:20120708175616 L   I
 2012-07-08-1750-00M.COL___201                                                 6
 STAT SP IPHASW D HRMM SECON CODA AMPLIT PERI AZIMU VELO AIN AR TRES W  DIS CAZ7
 BAR2 SZ EP   1   1756 35.69                             171     0.1 7   22 201 
 BAR2 SZ ES   1   1756 50.60                             171    -0.2 7   22 201 
 BAR2 SZ I        1756 51.69        13.4 0.21                            22 201 
 BRR  HZ EP   1   1756 37.56                             151     0.2 7   76 299 
 BRR  HN ES   1   1756 54.66                             151     0.6 7   76 299 
 BRR  HZ I        1756 58.81        14.2 0.19                            76 299 
 PAM  SZ EP   1   1756 38.56                             151     0.4 7   77  36 
 PAM  SN ES   1   1756 55.41                             151     0.0 7   77  36 
 RUS  HZ EP   1   1756 39.30                             144    -0.2 7   98 178 
 RUS  HN ES   1   1756 57.57                             144    -0.3 7   98 178 
 RUS  HZ I        1756 59.07         5.8 0.44                            98 178 
 OCA  HN ES   1   1757  6.41                             129    -0.5 7  163 352 
 ZAR  HN ES   1   1757 14.00                             122    -0.5 6  209 292 
 NOR  SE ES   1   1757 20.03                             118     0.2 6  236 236 
