 2015 10 8 1043 32.3 L   6.817 -73.093147.5  RSN 14 0.5 2.0LRSN                1
 GAP=188        1.03       2.7     4.7  5.5 -0.8503E+00  0.7006E+01  0.3285E-01E
 Epicentro: LOS SANTOS - SANTANDER                                             3
 ACTION:UPD 15-12-22 20:38 OP:cam  STATUS:               ID:20151008104332 L   I
 OLDACT:REG 15-10-08 21:09 OP:ak   STATUS:               ID:20151008103750     3
 2015-10-08-1037-50M.COL___336                                                 6
 STAT SP IPHASW D HRMM SECON CODA AMPLIT PERI AZIMU VELO AIN AR TRES W  DIS CAZ7
 BAR2 EZ IP     C 1043 52.44                             169    0.2010 26.8 202 
 BAR2 EZ ES       1044  7.42                             169   -0.3510 26.8 202 
 BAR2 EZ I        1044 10.14        14.0 0.36            164           26.8 202 
 BRR  HZ EP       1043 54.53                             151    0.6210 75.5 295 
 BRR  HN ES       1044 11.56                             151    0.8210 75.5 295 
 BRR  HZ I        1044 16.09        12.3 0.27            147           75.5 295 
 RUS  HZ EP       1043 56.22                             144   -0.1510  102 179 
 RUS  HN ES       1044 14.91                             144   -0.2110  102 179 
 RUS  HZ I        1044 16.04         6.7 0.28            144            102 179 
 OCA  HZ EP       1044  1.05                             130    0.38 9  159 351 
 OCA  HN ES       1044 22.69                             130   -0.08 9  159 351 
 SPBC HZ EP       1044  1.59                             129    0.14 9  168 220 
 SPBC HE ES       1044 24.17                             129    0.01 9  168 220 
 SPBC HZ I        1044 28.07                             127            168 220 
 ZAR  HZ EP       1044  5.21                             122   -0.15 8  209 291 
 ZAR  HN ES       1044 30.68                             122   -0.45 8  209 291 
 ZAR  HZ I        1044 36.70        19.2 0.41            121            209 291 
 NOR  HZ EP       1044  8.11                             118   -0.67 8  241 235 
 NOR  HN ES       1044 36.49                             118   -0.72 8  241 235 
 NOR  HZ I        1044 42.48         8.2 0.18            118            241 235 
 SML  HZ EP       1044  8.58                             118   -0.55 8  244 334 
 SML  HN ES       1044 37.20                             118   -0.63 8  244 334 
 SML  HZ I        1044 42.20        13.1 0.12            119            244 334 
 CHI  HZ EP       1044 10.89                             117    0.40 8  252 196 
 CHI  HN ES       1044 39.92                             117   -0.34 8  252 196 
 CHI  HZ I        1044 49.59         3.6 0.34            118            252 196 
 HEL  HZ EP   1   1044 13.45                             115    0.15 6  278 256 
 HEL  HE ES       1044 46.12                             115    0.86 7  278 256 
 HEL  HZ I        1044 51.42         5.7 0.34            114            278 256 
 URE  HZ EP   4   1044 15.88                             114    1.88 0  288 291 
 URE  HN ES   4   1044 44.13                             114   -2.38 0  288 291 
 URE  HZ I        1044 56.47         7.9 0.22            114            288 291 
 GUY2CHZ EP   1   1044 16.88                             112    0.21 5  307 235 
 GUY2CHE ES       1044 51.44                             112    0.18 7  307 235 
 GUY2CHZ I        1045  1.23         5.6 0.50                           307 235 
 DBB  SZ EP       1044 20.29                             109   -0.23 7  345 274 
 DBB  SZ ES   4   1044 56.37                             109   -1.74 0  345 274 
 ANIL HZ EP   1   1044 23.73                             108    0.90 5  363 225 
 ANIL HE ES       1045  2.11                             108   -0.10 6  363 225 
 ANIL HZ I        1045 13.92         9.3 0.30            109            363 225 
                                                                                
