 2012  7 8 1213 41.5 L   6.836 -73.056139.4  RSN  7 0.4 2.4LRSN                1
 GAP=146        0.91       4.7     8.8  7.7  0.1120E+02  0.1015E+02 -0.9317E+00E
 Epicentro: LOS SANTOS - SANTANDER                                             3
 ACTION:UPD 12-08-14 11:43 OP:ep   STATUS:               ID:20120708121341 L   I
 2012-07-08-1210-00M.COL___201                                                 6
 STAT SP IPHASW D HRMM SECON CODA AMPLIT PERI AZIMU VELO AIN AR TRES W  DIS CAZ7
 BAR2 SZ EP   1   1214  0.98                             167     0.4 7   30 207 
 BAR2 SZ ES   1   1214 15.34                             167    -0.1 7   30 207 
 BAR2 SZ I        1214 16.96        68.6 0.28                            30 207 
 PAM  SN ES   2   1214 18.61                             153    -0.3 5   68  35 
 BRR  HZ EP       1214  2.72                             149     0.310   78 292 
 BRR  HZ I        1214  3.02       123.6 0.14                            78 292 
 BRR  HN ES   1   1214 19.17                             149     0.4 7   78 292 
 RUS  HZ EP   1   1214  5.45                             141     0.5 7  104 182 
 RUS  HN ES   1   1214 22.55                             141    -0.6 7  104 182 
 RUS  HZ I        1214 25.24        30.2 0.21                           104 182 
 OCA  HZ EP   1   1214  8.91                             128    -0.2 7  158 349 
 OCA  HN ES   1   1214 30.29                             128    -0.3 7  158 349 
 ZAR  HZ EP   1   1214 14.20                             120    -0.2 6  212 290 
 ZAR  HZ I        1214 31.15        11.7 0.23                           212 290 
 ZAR  HN ES   2   1214 39.03                             120    -1.0 4  212 290 
 CHI  HZ EP   1   1214 19.23                             115    -0.4 6  255 197 
