 2017  4 8 1844 36.0 L   6.764 -73.096138.0  RSN  5 0.3 1.2LRSN                1
 GAP=145        0.70       3.6     3.4  6.6 -0.6485E+00  0.6256E+01 -0.2795E+01E
 Epicentro: LOS SANTOS - SANTANDER                                             3
 ACTION:UPD 17-05-30 21:09 OP:jn   STATUS:               ID:20170408184436 L   I
 OLDACT:UP  17-04-08 22:39 OP:edw  STATUS:               ID:20170408183750d    3
 OLDACT:DUP 17-04-08 22:37 OP:edw  STATUS:               ID:20170408183750d    3
 OLDACT:UP  17-04-08 22:36 OP:edw  STATUS:               ID:20170408183749     3
 OLDACT:UP  17-04-08 22:36 OP:edw  STATUS:               ID:20170408183749     3
 OLDACT:REG 17-04-08 21:12 OP:ar   STATUS:               ID:20170408183749     3
 2017-04-08-1838-00M.COL___377                                                 6
 STAT SP IPHASW D HRMM SECON CODA AMPLIT PERI AZIMU VELO AIN AR TRES W  DIS CAZ7
 BAR2 EZ ES       1845  9.25                             171   -0.0010 21.3 207 
 PAM  EZ EP     C 1844 57.54                             149    0.1110 77.2  35 
 PAM  EN ES       1845 14.15                             149    0.0410 77.2  35 
 PAM  EZ I        1845 16.61         2.6 0.54            150           77.2  35 
 RUS  HZ EP       1844 58.76                             143    0.0310 96.4 179 
 RUS  HN ES       1845 16.17                             143   -0.2610 96.4 179 
 RUS  HZ I        1845 18.35         2.6 0.48            145           96.4 179 
 PTB  HZ EP   4   1845  0.23                             129   -2.60 0  152 261 
 PTB  HN ES       1845 24.21                             129    0.49 9  152 261 
 PTB  HZ I        1845 24.45         2.9 0.16            131            152 261 
 ZAR  HN ES       1845 33.67                             120   -0.48 8  211 293 
                                                                                
