 2012  5 8 1231 28.4 L   6.767 -73.139157.7  RSN  6 0.4 1.5LRSN                1
 GAP=139        0.85       6.3     5.7  8.9 -0.1311E+00  0.5730E+01  0.3632E+01E
 Epicentro: LOS SANTOS - SANTANDER                                             3
 ACTION:UP  12-07-05 12:03 OP:pat  STATUS:               ID:20120508123128 L   I
 2012-05-08-1230-00M.COL___192                                                 6
 STAT SP IPHASW D HRMM SECON CODA AMPLIT PERI AZIMU VELO SNR AR TRES W  DIS CAZ7
 BAR2 SZ EP   1   1231 49.28                             172    -0.1 7   20 194 
 BAR2 SZ ES   2   1232  5.90                             172     0.1 5   20 194 
 BRR  HZ EP   1   1231 51.39                             154     0.4 7   74 301 
 BRR  HN ES   1   1232  9.33                             154     0.7 7   74 301 
 PAM  SZ EP   1   1231 52.26                             152     0.2 7   80  37 
 PAM  SN ES   1   1232  9.83                             152    -0.7 7   80  37 
 RUS  HZ EP   1   1231 53.30                             147     0.2 7   97 176 
 RUS  HN ES   1   1232 12.46                             147     0.1 7   97 176 
 RUS  HZ I        1232 13.72         4.7 0.56                            97 176 
 PTB  HZ EP   1   1231 56.06                             135    -0.3 7  148 260 
 PTB  HN ES   1   1232 17.61                             135    -0.6 7  148 260 
 PTB  HZ I        1232 20.71         3.9 0.14                           148 260 
 ZAR  HN ES   2   1232 27.94                             125     0.0 4  206 293 
                                                                                
