 2014 12 8 1547 43.4 L   6.812 -73.168142.0  RSN 14 0.5 1.9LRSN                1
 GAP=133        1.09       2.9     4.2  5.5 -0.3209E+01  0.7749E+01  0.1961E+01E
 Epicentro: LOS SANTOS - SANTANDER                                             3
 ACTION:UPD 15-02-10 17:01 OP:nd   STATUS:               ID:20141208154743 L   I
 OLDACT:REG 14-12-08 20:38 OP:fm   STATUS:               ID:20141208153747     3
 2014-12-08-1537-47M.COL___309                                                 6
 STAT SP IPHASW D HRMM SECON CODA AMPLIT PERI AZIMU VELO AIN AR TRES W  DIS CAZ7
 BAR2 SZ EP       1548  2.79                             170    0.2210 24.3 184 
 BAR2 SZ ES       1548 17.82                             170    0.2810 24.3 184 
 BAR2 SZ I        1548 20.58        14.8 0.30            170           24.3 184 
 BRR  HE ES       1548 20.26                             153    0.2610 68.4 299 
 PAM  SZ EP       1548  5.54                             150    0.3210 78.0  42 
 PAM  SN ES       1548 23.11                             150    0.8410 78.0  42 
 PAM  SZ I        1548 25.08         6.8 0.46            154           78.0  42 
 RUS  HZ EP       1548  6.02                             143   -0.8410  102 175 
 RUS  HE ES       1548 24.74                             143   -0.4510  102 175 
 RUS  HZ I        1548 26.69         7.9 0.28            145            102 175 
 PTB  HZ EP       1548  9.51                             132   -0.32 9  146 258 
 PTB  HE ES       1548 30.31                             132   -0.16 9  146 258 
 PTB  HZ I        1548 36.53         9.3 0.38            131            146 258 
 OCA  HE ES       1548 32.30                             129   -0.68 9  159 354 
 OCA  HZ I        1548 39.53        13.0 0.28            130            159 354 
 SPBC HZ EP       1548 10.99                             128   -0.54 9  163 218 
 SPBC HN ES       1548 33.10                             128   -0.39 9  163 218 
 SPBC HZ I        1548 36.57        14.3 0.42            129            163 218 
 NOR  HZ EP       1548 19.50                             118    0.76 8  233 234 
 NOR  HE ES       1548 46.16                             118   -0.17 8  233 234 
 NOR  HZ I        1548 50.53         5.8 0.20            119            233 234 
 SML  HZ EP       1548 19.05                             117   -0.49 8  241 336 
 SML  HN ES       1548 47.50                             117   -0.26 8  241 336 
 SML  HZ I        1548 55.07        18.7 0.28            118            241 336 
 CHI  HZ EP       1548 20.78                             116   -0.15 8  249 195 
 CHI  HN ES       1548 50.21                             116   -0.01 8  249 195 
 CHI  HZ I        1548 58.45         2.4 0.42            118            249 195 
 HEL  HZ EP       1548 23.17                             114    0.01 8  270 255 
 HEL  HN ES       1548 54.51                             114    0.32 8  270 255 
 HEL  HZ I        1549  3.19         3.2 0.58            115            270 255 
 GUY2CHZ EP       1548 26.66                             112    0.00 7  300 234 
 GUY2CHN ES       1549  0.57                             112    0.15 7  300 234 
 GUY2CHZ I        1549 10.15         3.7 0.48                           300 234 
 RREF HZ EP       1548 29.96                             110    0.73 7  321 229 
 RREF HE ES       1549  5.47                             110    0.47 7  321 229 
 RREF HZ I        1549 11.44         4.8 0.28            111            321 229 
 TOL  SZ EP       1548 32.16                             109    0.78 7  343 224 
 TOL  SN ES       1549  9.18                             109    0.35 7  343 224 
 TOL  SZ I        1549 19.27         7.6 0.36            110            343 224 
                                                                                
