 2013 10 8 1326 36.6 L   6.811 -73.175142.2  RSN  9 0.3 2.0LRSN                1
 GAP=198        0.73       2.7     4.6  5.8  0.1148E+01  0.2263E+01 -0.2960E+01E
 Epicentro: LOS SANTOS - SANTANDER                                             3
 ACTION:UPD 13-11-25 09:20 OP:ep   STATUS:               ID:20131008132636 L   I
 OLDACT:REG 13-10-08 15:25 OP:nd   STATUS:               ID:20131008131959     3
 2013-10-08-1319-59M.COL___273                                                 6
 STAT SP IPHASW D HRMM SECON CODA AMPLIT PERI AZIMU VELO AIN AR TRES W  DIS CAZ7
 BAR2 SZ EP       1326 55.89                             170    0.0210 24.2 182 
 BAR2 SZ ES   2   1327 10.89                             170    0.03 5 24.2 182 
 BAR2 SZ I        1327 12.82        29.7 0.44            166           24.2 182 
 BRR  HZ EP       1326 57.86                             153    0.6410 67.7 299 
 BRR  HN ES   2   1327 13.78                             153    0.52 5 67.7 299 
 BRR  HZ I        1327 19.26        13.0 0.18            148           67.7 299 
 RUS  HZ EP       1327  0.30                             143    0.1410  102 174 
 RUS  HN ES       1327 18.18                             143   -0.3210  102 174 
 RUS  HZ I        1327 21.22         8.9 0.48            146            102 174 
 PTB  HZ EP       1327  2.64                             132   -0.42 9  145 258 
 PTB  HN ES       1327 23.74                             132    0.09 9  145 258 
 PTB  HZ I        1327 31.48        11.9 0.44            130            145 258 
 SPBC HZ EP       1327  4.84                             128    0.07 9  162 218 
 SPBC HN ES       1327 26.52                             128   -0.19 9  162 218 
 SPBC HZ I        1327 33.94        14.7 0.30            129            162 218 
 ZAR  HZ EP   4   1327 14.56                             122    6.06 0  201 292 
 ZAR  HN ES   4   1327 33.35                             122    0.00 0  201 292 
 ZAR  HZ I        1327 39.53        11.8 0.42            122            201 292 
 SML  HZ EP       1327 12.62                             117   -0.19 8  241 336 
 SML  HN ES       1327 40.61                             117   -0.40 8  241 336 
 SML  HZ I        1327 45.74        12.9 0.10            119            241 336 
 PRA  HZ EP       1327 30.37                             106    0.39 6  391 209 
 PRA  HN ES       1328 11.61                             106    0.02 6  391 209 
 PRA  HZ I        1328 17.69         4.6 0.32            108            391 209 
 SJC  HZ EP   4   1327 30.12                             105   -1.64 0  406 327 
 SJC  HN ES   4   1328 10.84                             105   -3.91 0  406 327 
 SJC  HZ I        1328 19.42         1.4 0.36            107            406 327 
                                                                                
