 2013  6 8 1548 34.5 L   6.779 -73.169142.2  RSN  5 0.5 1.6LRSN                1
 GAP=179        1.29       8.9     8.7 10.2  0.2910E+02  0.1800E+01 -0.6281E+01E
 Epicentro: LOS SANTOS - SANTANDER                                             3
 ACTION:UPD 14-01-08 09:53 OP:ep   STATUS:               ID:20130608154834 L   I
 OLDACT:REG 13-06-08 16:26 OP:nd   STATUS:               ID:20130608153959     3
 2013-06-08-1539-59M.COL___261                                                 6
 STAT SP IPHASW D HRMM SECON CODA AMPLIT PERI AZIMU VELO AIN AR TRES W  DIS CAZ7
 BAR2 SZ EP       1548 53.71                             171    0.0210 20.8 184 
 BAR2 SZ ES       1549  7.71                             171   -0.9210 20.8 184 
 BAR2 SZ I        1549 10.01        10.1 0.36            176           20.8 184 
 GIR2 SZ EP       1548 53.58                             166   -0.2610 33.2 355 
 GIR2 SZ I        1549 10.39         8.2 0.32            151           33.2 355 
 BRR  HZ EP     C 1548 55.60                             152    0.3610 70.1 301 
 BRR  HZ I        1549 11.16        10.7 0.26            142           70.1 301 
 BRR  HN ES       1549 12.09                             152    0.7010 70.1 301 
 RUS  HZ EP       1548 58.02                             144    0.2310 98.5 174 
 RUS  HN ES       1549 16.44                             144    0.5110 98.5 174 
 RUS  HZ I        1549 19.44         3.4 0.28            144           98.5 174 
 PTB  HZ EP       1549  0.39                             132   -0.56 9  145 260 
 PTB  HN ES       1549 21.38                             132   -0.17 9  145 260 
 PTB  HZ I        1549 29.13        11.1 0.52            126            145 260 
                                                                                
