 2010  8 8 1454 22.0 L   6.839 -73.043144.1  RSN  4 0.1 1.2LRSN                1
 GAP=251        0.36       6.5    11.8  5.2  0.5909E+02 -0.2433E+02 -0.9508E+01E
 Epicentro: LOS SANTOS - SANTANDER                                             3
 ACTION:UP  10-09-07 10:53 OP:vdl  STATUS:               ID:20100808145421 L   I
 2010-08-08-1452-58S.COL___125                                                 6
 STAT SP IPHASW D HRMM SECON CODA AMPLIT PERI AZIMU VELO SNR AR TRES W  DIS CAZ7
 BTL  SZ EP   1   1454 41.74                             169     0.2 7   26 289 
 BTL  SZ ES   2   1454 56.59                             169    -0.1 5   26 289 
 BAR2 SZ EP   1   1454 41.61                             167     0.0 7   31 210 
 BAR2 SZ ES   2   1454 56.79                             167    -0.2 5   31 210 
 BRR  HZ EP   1   1454 43.36                             149    -0.1 7   80 292 
 BRR  HE ES   2   1455  0.37                             149     0.1 5   80 292 
 BRR  HZ I        1455  4.50         6.3 0.36                            80 292 
 RUS  HZ EP   1   1454 45.86                             142    -0.1 7  105 182 
 RUS  HN ES   2   1455  4.68                             142     0.1 5  105 182 
 RUS  HZ I        1455  6.62         1.2 0.37                           105 182 
                                                                                
