 2016 11 8 1233 17.2 L   6.737 -73.136142.6  RSN  5 0.3 1.5LRSN                1
 GAP=162        0.68       6.5     4.0  4.9 -0.1152E+02  0.4804E+01 -0.1497E+01E
 Epicentro: LOS SANTOS - SANTANDER                                             3
 ACTION:UPD 17-10-26 21:05 OP:lp   STATUS:               ID:20161108123317 L   I
 OLDACT:REG 16-11-08 22:00 OP:dnl  STATUS:               ID:20161108122744     3
 2016-11-08-1228-00M.COL___346                                                 6
 STAT SP IPHASW D HRMM SECON CODA AMPLIT PERI AZIMU VELO AIN AR TRES W  DIS CAZ7
 BAR2 EZ EP       1233 36.56                             173    0.1810 16.8 198 
 BAR2 EZ ES       1233 51.41                             173    0.1110 16.8 198 
 BAR2 EZ I        1233 53.60         7.1 0.64            171           16.8 198 
 BRR  HZ EP       1233 38.49                             150    0.1810 75.7 303 
 BRR  HN ES       1233 54.83                             150    0.0810 75.7 303 
 BRR  HZ I        1234  6.78         6.9 0.38            147           75.7 303 
 PAM  EZ EP       1233 39.54                             149    0.1110 82.3  36 
 PAM  EN ES       1233 56.42                             149   -0.3110 82.3  36 
 PAM  EZ I        1233 58.39         5.2 0.56            151           82.3  36 
 PTB  HZ EP       1233 43.36                             131   -0.58 9  148 262 
 PTB  HE ES       1234  4.71                             131   -0.05 9  148 262 
 PTB  HZ I        1234  9.81         2.8 0.24            133            148 262 
 ZAR  HZ EP       1233 50.13                             121    0.26 8  208 294 
 ZAR  HN ES   4   1234 11.95                             121   -3.36 0  208 294 
 ZAR  HZ I        1234 16.73         2.8 0.30            123            208 294 
                                                                                
