 2014 12 8 1000 13.9 L   6.823 -73.136148.9  RSN 15 0.4 1.8LRSN                1
 GAP= 71        1.05       2.7     3.2  5.3 -0.8947E+00  0.5240E+01  0.1438E+01E
 Epicentro: LOS SANTOS - SANTANDER                                             3
 ACTION:UPD 15-02-10 17:01 OP:nd   STATUS:               ID:20141208100013 L   I
 OLDACT:REG 14-12-08 20:16 OP:fm   STATUS:               ID:20141208095738     3
 2014-12-08-0957-38M.COL___309                                                 6
 STAT SP IPHASW D HRMM SECON CODA AMPLIT PERI AZIMU VELO AIN AR TRES W  DIS CAZ7
 BAR2 SZ EP       10 0 34.30                             170    0.3410 26.0 191 
 BAR2 SZ ES       10 0 49.62                             170    0.0210 26.0 191 
 BAR2 SZ I        10 0 52.18        11.0 0.44            169           26.0 191 
 BRR  HN ES       10 0 52.03                             153   -0.0910 71.0 296 
 PAM  SZ EP     D 10 0 37.23                             152    0.9310 74.8  40 
 PAM  SN ES       10 0 53.71                             152   -0.0510 74.8  40 
 PAM  SZ I        10 0 56.44         9.1 0.20            156           74.8  40 
 RUS  HZ EP       10 0 38.24                             144    0.1110  103 177 
 RUS  HN ES       10 0 56.98                             144   -0.0510  103 177 
 RUS  HZ I        10 0 59.13         3.2 0.28            146            103 177 
 PTB  HZ EP       10 0 40.48                             132   -0.78 9  149 258 
 PTB  HN ES       10 1  2.28                             132   -0.32 9  149 258 
 PTB  HZ I        10 1  8.07         9.6 0.30            133            149 258 
 TAM  HE ES       10 1  3.19                             131   -0.36 9  155 106 
 OCA  HZ EP   1   10 0 42.97                             131    0.74 7  158 353 
 OCA  HN ES       10 1  4.21                             131   -0.12 9  158 353 
 OCA  HZ I        10 1 11.50         4.1 0.10            133            158 353 
 SPBC HZ EP       10 0 43.31                             129    0.42 9  166 219 
 SPBC HN ES       10 1  5.54                             129    0.05 9  166 219 
 SPBC HZ I        10 1 11.15        13.0 0.12            130            166 219 
 ZAR  HZ EP       10 0 45.87                             123   -0.68 9  204 291 
 ZAR  HE ES       10 1 12.43                             123    0.41 9  204 291 
 ZAR  HZ I        10 1 18.90         6.3 0.48            124            204 291 
 NOR  HZ EP       10 0 49.68                             119   -0.38 8  237 234 
 NOR  HE ES       10 1 18.59                             119    0.33 8  237 234 
 NOR  HZ I        10 1 21.96         5.2 0.36            120            237 234 
 SML  HZ EP       10 0 50.69                             118    0.19 8  242 335 
 SML  HN ES       10 1 18.29                             118   -0.76 8  242 335 
 SML  HZ I        10 1 23.80         7.9 0.10            120            242 335 
 CHI  HZ EP       10 0 52.18                             117    0.11 8  251 195 
 CHI  HN ES       10 1 21.32                             117   -0.51 8  251 195 
 CHI  HZ I        10 1 31.54         2.0 0.68            119            251 195 
 HEL  HN ES       10 1 26.76                             115    0.67 8  274 255 
 HEL  HZ I        10 1 33.03         3.1 0.38            116            274 255 
 GUY2CHZ EP       10 0 57.65                             113   -0.26 7  304 234 
 GUY2CHE ES       10 1 32.35                             113    0.10 7  304 234 
 GUY2CHZ I        10 1 41.21         4.7 0.74                           304 234 
 TOL  SZ EP       10 1  1.94                             110   -0.63 6  346 224 
 TOL  SN ES       10 1 41.11                             110    0.57 6  346 224 
 TOL  SZ I        10 1 46.29        17.7 0.88            111            346 224 
                                                                                
