 2012  7 8 1918 41.5 L   6.778 -73.167143.9  RSN  7 0.3 1.7LRSN                1
 GAP=135        0.69       3.8     5.3  6.4  0.1830E+01 -0.1534E+01  0.1006E+01E
 Epicentro: LOS SANTOS - SANTANDER                                             3
 ACTION:UPD 12-08-14 11:43 OP:ep   STATUS:               ID:20120708191841 L   I
 2012-07-08-1910-00M.COL___201                                                 6
 STAT SP IPHASW D HRMM SECON CODA AMPLIT PERI AZIMU VELO AIN AR TRES W  DIS CAZ7
 BAR2 SZ EP   1   1919  0.94                             171     0.0 7   21 185 
 BAR2 SZ ES   1   1919 16.14                             171     0.2 7   21 185 
 BAR2 SZ I        1919 17.68        22.8 0.18                            21 185 
 BRR  HZ EP   1   1919  2.74                             152     0.3 7   70 301 
 BRR  HN ES   1   1919 19.16                             152     0.4 7   70 301 
 PAM  SZ EP   1   1919  3.77                             149     0.0 7   81  40 
 RUS  HZ EP   1   1919  5.23                             144     0.3 7   98 175 
 RUS  HN ES   1   1919 22.70                             144    -0.5 7   98 175 
 RUS  HZ I        1919 24.84         6.2 0.36                            98 175 
 PTB  HZ EP   1   1919  7.76                             132    -0.3 7  145 260 
 PTB  HN ES   1   1919 28.64                             132    -0.2 7  145 260 
 PTB  HZ I        1919 36.14         4.6 0.49                           145 260 
 OCA  HN ES   1   1919 31.60                             129    -0.4 7  162 354 
 CHI  HZ EP   1   1919 19.02                             117     0.2 6  246 195 
