 2015 11 8 1322  8.3 L   6.804 -73.132148.7  RSN 12 0.4 2.2LRSN                1
 GAP= 72        0.67       2.9     2.5  4.5  0.1240E+01  0.2175E+01  0.1177E+01E
 Epicentro: LOS SANTOS - SANTANDER                                             3
 ACTION:UPD 15-12-28 16:09 OP:cam  STATUS:               ID:20151108132208 L   I
 OLDACT:DUP 15-11-08 22:45 OP:ar   STATUS:               ID:20151108131750d    3
 2015-11-08-1317-49M.COL___307                                                 6
 STAT SP IPHASW D HRMM SECON CODA AMPLIT PERI AZIMU VELO AIN AR TRES W  DIS CAZ7
 BAR2 EZ EP   2   1322 28.05                             170   -0.29 5 24.0 193 
 BAR2 EZ ES   2   1322 43.00                             170   -0.94 5 24.0 193 
 BAR2 EZ I        1322 46.41        32.5 0.28            169           24.0 193 
 BRR  HZ EP       1322 29.85                             153   -0.0210 72.3 298 
 BRR  HN ES       1322 47.32                             153    0.6610 72.3 298 
 BRR  HZ I        1322 51.59        20.3 0.24            152           72.3 298 
 PAM  EZ EP       1322 30.81                             152    0.0110 76.1  39 
 PAM  EN ES       1322 48.05                             152   -0.2610 76.1  39 
 PAM  EZ I        1322 50.38        15.1 0.28            157           76.1  39 
 RUS  HZ EP   2   1322 31.99                             144   -0.42 5  101 177 
 RUS  HN ES   2   1322 50.98                             144   -0.20 5  101 177 
 RUS  HZ I        1322 53.46        18.1 0.38            146            101 177 
 TAM  HZ EP       1322 36.17                             132    0.04 9  154 105 
 TAM  HE ES       1322 58.15                             132    0.34 9  154 105 
 TAM  HZ I        1322 59.48        12.3 0.28            137            154 105 
 OCA  HZ EP   2   1322 37.25                             131    0.39 5  160 353 
 OCA  HE ES   2   1322 58.61                             131   -0.49 5  160 353 
 OCA  HZ I        1323  3.64        47.2 0.26            133            160 353 
 SPBC HZ EP   2   1322 37.00                             129   -0.19 5  164 219 
 SPBC HE ES   2   1322 59.61                             129   -0.07 5  164 219 
 SPBC HZ I        1323  4.65        41.2 0.36            131            164 219 
 ZAR  HZ EP   2   1322 40.58                             123   -0.53 4  205 292 
 ZAR  HN ES   2   1323  6.34                             123   -0.32 4  205 292 
 ZAR  HZ I        1323 14.60        15.0 0.32            124            205 292 
 NOR  HZ EP   2   1322 43.90                             119   -0.50 4  236 235 
 NOR  HN ES   2   1323 12.84                             119    0.32 4  236 235 
 NOR  HZ I        1323 17.49        16.6 0.28            120            236 235 
 SML  HZ EP       1322 45.07                             118   -0.09 8  244 335 
 SML  HN ES       1323 13.63                             118   -0.25 8  244 335 
 SML  HZ I        1323 17.55        33.1 0.22            120            244 335 
 HEL  HZ EP       1322 49.29                             115    0.41 8  274 256 
 HEL  HN ES   2   1323 20.45                             115   -0.04 4  274 256 
 HEL  HZ I        1323 27.00        11.7 0.38            117            274 256 
 MON  HZ EP   9   1322 55.46                             109   -2.10 0  355 308 
 MON  HE ES       1323 34.22                                    0.37 6  355 308 
 MON  HZ I        1323 35.62         3.3 0.34            111            355 308 
                                                                                
