 2010  4 8 1854 56.3 L   6.767 -73.003143.1  RSN 12 0.4 2.8LRSN                1
 GAP=151        0.68       4.2     5.3  5.1 -0.7855E+01 -0.4296E+01  0.8565E+01E
 Epicentro: CEPITA - SANTANDER                                                 3
 ACTION:UPD 10-08-24 09:58 OP:vdl  STATUS:               ID:20100408185456 L   I
 2010-04-08-1853-16S.COL___097                                                 6
 STAT SP IPHASW D HRMM SECON CODA AMPLIT PERI AZIMU VELO AIN AR TRES W  DIS CAZ7
 BAR2 SZ IP       1855 15.94                             168     0.210   28 226 
 BAR2 SZ ES   1   1855 30.37                             168    -0.5 7   28 226 
 BRR  HZ IP     C 1855 18.05                             147    -0.110   87 296 
 BRR  HZ I        1855 18.32       209.6 0.16                            87 296 
 BRR  HN ES   1   1855 35.43                             147     0.2 7   87 296 
 OCA  SZ ES   3   1855 47.05                             128    -0.4 2  166 348 
 OCA  SZ I        1855 52.86        81.2 0.51                           166 348 
 CHI  HZ EP       1855 33.92                             116    -0.1 8  250 199 
 CHI  HN ES   1   1856  3.76                             116     0.4 6  250 199 
 ROSC BZ EP       1855 34.96                             115     0.1 8  258 214 
 ROSC BZ I        1856 11.77        25.7 0.34                           258 214 
 HEL  HZ EP   2   1855 37.33                             113    -0.7 4  287 257 
 HEL  HE ES   2   1856 10.90                             113     0.4 4  287 257 
 HEL  HZ I        1856 14.51        22.1 0.37                           287 257 
 RREF BZ EP       1855 44.10                             109     0.6 7  332 232 
 RREF BE ES   2   1856 19.92                             109    -0.3 3  332 232 
 RREF BZ I        1856 24.30        17.3 0.38                           332 232 
 SDV  BZ IP     D 1855 45.37                             108     0.2 6  351  48 
 TOL  SZ EP       1855 45.45                             108     0.0 6  352 227 
 TOL  SZ ES   3   1856 23.24                             108    -0.6 2  352 227 
 DBB  SZ EP   2   1855 45.26                             108    -0.3 3  355 275 
 ANIL BZ EP   3   1855 47.21                             107     0.2 2  366 227 
 ANIL BE ES   2   1856 26.86                             107     0.3 3  366 227 
 ANIL BZ I        1856 39.68        35.1 0.52                           366 227 
 PRA  HZ EP       1855 49.45                             106    -0.9 6  397 212 
 PRA  HE ES   3   1856 31.68                             106    -0.8 1  397 212 
 PRA  HZ I        1856 37.86        18.7 0.23                           397 212 
                                                                                
