 2017  6 8 1930 32.1 L   6.813 -73.118144.0  RSN 15 0.6 2.2LRSN                1
 GAP=169        1.41       5.3     5.4  8.4  0.4676E+01 -0.2887E+01  0.4876E+01E
 Epicentro: LOS SANTOS - SANTANDER                                             3
 ACTION:UPD 17-09-14 16:50 OP:jn   STATUS:               ID:20170608193032 L   I
 OLDACT:UP  17-06-09 00:03 OP:ar   STATUS:               ID:20170608192730     3
 OLDACT:UP  17-06-09 00:02 OP:ar   STATUS:               ID:20170608192730     3
 OLDACT:UP  17-06-09 00:01 OP:ar   STATUS:               ID:20170608192730     3
 OLDACT:REG 17-06-08 22:19 OP:osc  STATUS:               ID:20170608192730     3
 2017-06-08-1928-00M.COL___362                                                 6
 STAT SP IPHASW D HRMM SECON CODA AMPLIT PERI AZIMU VELO AIN AR TRES W  DIS CAZ7
 BRR  HZ EP       1930 53.15                             152    0.0110 73.3 296 
 BRR  HN ES       1931 10.54                             152    0.9610 73.3 296 
 BRR  HZ I        1931 13.50        27.7 0.30            149           73.3 296 
 RUS  HZ EP       1930 55.21                             143   -0.5310  102 178 
 RUS  HE ES       1931 14.28                             143    0.0810  102 178 
 RUS  HZ I        1931 14.81        17.6 0.20            142            102 178 
 PTB  HZ EP       1930 58.68                             131   -0.51 9  151 259 
 PTB  HN ES       1931 19.37                             131   -0.98 9  151 259 
 PTB  HZ I        1931 26.19        15.6 0.50            129            151 259 
 TAM  HZ EP       1930 59.57                             131    0.21 9  152 106 
 SPBC HZ EP       1931  0.22                             128   -0.50 9  166 220 
 SPBC HN ES       1931 22.92                             128   -0.16 9  166 220 
 SPBC HZ I        1931 24.87        52.5 0.38            127            166 220 
 YPLC HZ EP       1931  1.51                             126   -0.20 9  177 152 
 ZAR  HZ EP       1931  4.67                             122    0.03 8  206 291 
 ZAR  HN ES       1931 29.88                             122   -0.16 8  206 291 
 ZAR  HZ I        1931 34.50        17.0 0.38            122            206 291 
 TABC EZ EP   4   1931  9.36                             119    1.35 0  233 211 
 TABC EZ ES   4   1931 39.00                             119    2.94 0  233 211 
 TABC EZ I        1931 44.00        19.4 0.40            118            233 211 
 NOR  HZ EP       1931  7.18                             118   -0.88 8  238 235 
 NOR  HN ES       1931 36.16                             118    0.03 8  238 235 
 NOR  HZ I        1931 41.40        11.4 0.16            117            238 235 
 CHI  HZ EP       1931  9.81                             117   -0.10 8  251 196 
 CHI  HN ES       1931 38.78                             117   -0.65 8  251 196 
 CHI  HZ I        1931 45.92         6.1 0.36            117            251 196 
 ROSC BZ EP       1931 11.48                             116    1.08 8  256 211 
 ROSC BE ES       1931 41.77                             116    1.47 8  256 211 
 ROSC BZ I        1931 45.37        15.0 0.40            116            256 211 
 HEL  HZ EP       1931 13.29                             114    0.73 7  275 256 
 HEL  HE ES   4   1931 45.91                             114    1.76 0  275 256 
 HEL  HZ I        1931 49.29         9.9 0.34            114            275 256 
 ELA  HZ EP       1931 20.02                             110    0.80 7  332 230 
 ELA  HN ES       1931 56.49                             110    0.49 7  332 230 
 ELA  HZ I        1932  2.55         9.0 0.38            110            332 230 
 CBOC HZ EP       1931 18.92                             109   -0.38 7  337 252 
 CBOC HN ES   4   1931 53.81                             109   -2.33 0  337 252 
 CBOC HZ I        1932  1.49         2.4 0.62            109            337 252 
 ORTC HZ EP       1931 26.39                             106    0.11 6  398 216 
 ORTC HN ES   4   1932 10.22                             106    1.66 0  398 216 
 ORTC HZ I        1932 15.46         4.5 0.48            106            398 216 
                                                                                
