 2015  1 8 1314 38.2 L   6.817 -73.125145.7  RSN  5 0.4 1.9LRSN                1
 GAP=203        0.89       4.5     6.9 11.6  0.9300E+01 -0.7446E+01 -0.2870E+02E
 Epicentro: LOS SANTOS - SANTANDER                                             3
 ACTION:UPD 15-03-02 15:37 OP:nd   STATUS:               ID:20150108131438 L   I
 OLDACT:REG 15-01-08 21:27 OP:mh   STATUS:               ID:20150108130748     3
 2015-01-08-1307-48M.COL___265                                                 6
 STAT SP IPHASW D HRMM SECON CODA AMPLIT PERI AZIMU VELO AIN AR TRES W  DIS CAZ7
 RUS  HZ EP   1   1315  1.58                             143   -0.44 7  102 177 
 RUS  HN ES       1315 20.87                             143    0.2310  102 177 
 RUS  HZ I        1315 22.12         5.0 0.27            145            102 177 
 PTB  HZ EP   1   1315  4.69                             131   -0.66 7  150 258 
 PTB  HN ES   1   1315 26.43                             131   -0.14 7  150 258 
 PTB  HZ I        1315 28.56        25.3 0.04            132            150 258 
 SPBC HZ EP       1315  7.41                             128    0.49 9  166 219 
 SPBC HN ES       1315 29.10                             128   -0.26 9  166 219 
 SPBC HZ I        1315 35.60         6.8 0.30            129            166 219 
 ZAR  HN ES   1   1315 36.78                             122    0.62 6  206 291 
 ZAR  HZ I        1315 38.65         5.2 0.14            123            206 291 
 SML  HZ EP       1315 15.05                             117    0.35 8  243 335 
 SML  HN ES       1315 42.80                             117   -0.40 8  243 335 
 SML  HZ I        1315 46.07         9.0 0.10            119            243 335 
 SJC  HZ EP   4   1315 32.11                             106   -1.57 0  409 327 
 SJC  HN ES   4   1316 13.12                             106   -3.87 0  409 327 
                                                                                
