 2015 10 8 1201 53.7 L   6.789 -73.131141.5  RSN 16 0.5 2.4LRSN                1
 GAP=139        1.04       2.8     3.9  5.3 -0.1745E+01  0.9222E+01  0.5413E+00E
 Epicentro: LOS SANTOS - SANTANDER                                             3
 ACTION:UPD 15-12-22 20:38 OP:cam  STATUS:               ID:20151008120153 L   I
 OLDACT:UP  15-10-08 22:39 OP:ak   STATUS:               ID:20151008115750     3
 OLDACT:REG 15-10-08 21:19 OP:ak   STATUS:               ID:20151008115750     3
 2015-10-08-1157-50M.COL___340                                                 6
 STAT SP IPHASW D HRMM SECON CODA AMPLIT PERI AZIMU VELO AIN AR TRES W  DIS CAZ7
 BAR2 EZ IP     C 12 2 12.72                             171   -0.0710 22.5 195 
 BAR2 EZ ES       12 2 26.99                             171   -0.7010 22.5 195 
 BAR2 EZ I        12 2 28.80        63.1 0.18            168           22.5 195 
 BRR  HZ IP     C 12 2 14.63                             151    0.1310 73.2 299 
 BRR  HN ES       12 2 31.34                             151    0.6110 73.2 299 
 BRR  HZ I        12 2 32.26        38.2 0.16            147           73.2 299 
 PAM  EZ EP       12 2 15.75                             150    0.3010 77.3  38 
 PAM  EN ES       12 2 32.77                             150    0.3510 77.3  38 
 PAM  EZ I        12 2 33.46        27.5 0.25            153           77.3  38 
 RUS  HZ EP       12 2 16.65                             143   -0.2810 99.3 177 
 RUS  HN ES       12 2 35.29                             143    0.2310 99.3 177 
 RUS  HZ I        12 2 36.13        23.8 0.20            145           99.3 177 
 SPBC HZ EP       12 2 21.69                             128   -0.19 9  163 220 
 SPBC HE ES       12 2 43.76                             128   -0.10 9  163 220 
 SPBC HZ I        12 2 46.67        30.4 0.06            128            163 220 
 ZAR  HZ EP       12 2 26.80                             121    0.73 8  206 292 
 ZAR  HN ES       12 2 51.41                             121    0.09 8  206 292 
 ZAR  HZ I        12 2 57.28        24.9 0.13            120            206 292 
 NOR  HZ EP       12 2 29.25                             118    0.00 8  235 235 
 NOR  HN ES       12 2 56.73                             118   -0.25 8  235 235 
 NOR  HZ I        12 3  0.98        24.9 0.22            117            235 235 
 SML  HZ EP       12 2 29.30                             116   -0.98 8  245 335 
 SML  HE ES       12 2 58.01                             116   -0.81 8  245 335 
 SML  HZ I        12 3  7.84        26.4 0.06            116            245 335 
 CHI  HZ EP       12 2 30.81                             116   -0.27 8  248 196 
 CHI  HN ES       12 2 59.95                             116   -0.29 8  248 196 
 CHI  HZ I        12 3  6.17         5.3 0.26            117            248 196 
 HEL  HZ EP       12 2 34.55                             114    0.71 8  273 256 
 HEL  HE ES       12 3  5.09                             114   -0.06 8  273 256 
 HEL  HZ I        12 3 12.49        12.4 0.22            113            273 256 
 URE  HZ EP   1   12 2 35.75                             113    0.97 6  286 292 
 URE  HE ES   4   12 3  4.12                             113   -2.71 0  286 292 
 URE  HZ I        12 3 15.21        15.0 0.17            112            286 292 
 GUY2CHZ EP   1   12 2 37.91                             111    0.73 5  302 235 
 GUY2CHN ES       12 3 11.20                             111    0.10 7  302 235 
 GUY2CHZ I        12 3 19.33        15.3 0.50                           302 235 
 ELA  HZ EP   1   12 2 40.77                             109    0.35 5  330 230 
 ELA  HE ES       12 3 17.02                             109    0.15 7  330 230 
 ELA  HZ I        12 3 25.89         7.9 0.57            110            330 230 
 CBOC HZ EP       12 2 40.63                             109    0.06 7  335 252 
 CBOC HN ES       12 3 16.47                             109   -0.67 7  335 252 
 DBB  SZ EP       12 2 40.45                             109   -0.75 7  341 274 
 DBB  SZ ES   4   12 3 16.76                             109   -1.49 0  341 274 
 DBB  SZ I        12 3 22.34        25.7 0.38            108            341 274 
 ANIL HN ES       12 3 22.69                             108    0.57 6  358 225 
 ANIL HZ I        12 3 27.52        16.4 0.24            108            358 225 
 SJC  HZ EP   4   12 2 47.36                             105   -1.99 0  411 327 
 SJC  HN ES   4   12 3 27.77                             105   -4.98 0  411 327 
                                                                                
