 2011  1 8 1507 14.2 L   6.791 -73.178150.6  RSN  6 0.2 1.8LRSN                1
 GAP=177        0.52       4.3     8.3  8.5 -0.1252E+02  0.3544E+02 -0.8585E+01E
 Epicentro: LOS SANTOS - SANTANDER                                             3
 ACTION:UP  11-02-08 08:39 OP:pat  STATUS:               ID:20110108150714 L   I
 2011-01-08-1500-00M.COL___136                                                 6
 STAT SP IPHASW D HRMM SECON CODA AMPLIT PERI AZIMU VELO SNR AR TRES W  DIS CAZ7
 BTL  SZ EP       15 7 34.62                             173     0.310   17 325 
 BAR2 SZ EP       15 7 34.37                             171     0.010   22 182 
 BAR2 SZ ES   2   15 7 50.02                             171    -0.1 5   22 182 
 BAR2 SZ I        15 7 50.63        12.0 0.38                            22 182 
 GIR2 SZ EP   2   15 7 34.51                             167     0.1 5   32 357 
 RUS  HZ EP   2   15 7 38.21                             145    -0.2 5  100 174 
 RUS  HN ES   2   15 7 56.92                             145    -0.3 5  100 174 
 RUS  HZ I        15 7 58.75         5.5 0.41                           100 174 
 OCA  SZ EP   2   15 7 42.96                             130     0.0 5  161 354 
 OCA  SZ ES   2   15 8  4.89                             130    -0.5 5  161 354 
 OCA  SZ I        15 8 10.41        11.8 0.39                           161 354 
 NOR  SZ EP   1   15 7 49.49                             120    -0.4 6  231 234 
 NOR  SN ES   2   15 8 17.89                             120     0.2 4  231 234 
                                                                                
