 2011 12 8 1006 34.5 L   6.749 -73.163147.3  RSN  5 0.4 1.4LRSN                1
 GAP=137        0.79       5.4     6.4  8.4 -0.9432E+01  0.6190E+01  0.4331E+01E
 Epicentro: LOS SANTOS - SANTANDER                                             3
 ACTION:UPD 12-07-13 16:14 OP:ep   STATUS:               ID:20111208100634 L   I
 2011-12-08-1006-00S.MAN___170                                                 6
 STAT SP IPHASW D HRMM SECON CODA AMPLIT PERI AZIMU VELO AIN AR TRES W  DIS CAZ7
 BAR2 SZ EP   1   10 6 54.04                             173   -0.15 7 17.5 187 
 BAR2 SZ ES   1   10 7  9.26                             173   -0.30 7 17.5 187 
 BAR2 SZ I        10 7 12.58         9.3 0.33                          17.5 187 
 BRR  HZ EP   1   10 6 56.44                             152    0.58 7 72.5 303 
 BRR  HN ES   1   10 7 12.91                             152    0.37 7 72.5 303 
 BRR  HZ I        10 7 16.14         7.8 0.05                          72.5 303 
 PAM  SZ EP   1   10 6 57.07                             149   -0.12 7 82.9  38 
 PAM  SN ES   1   10 7 14.47                             149   -0.44 7 82.9  38 
 RUS  HZ EP   1   10 6 58.09                             146    0.09 7 95.1 175 
 RUS  HE ES   1   10 7 16.79                             146    0.45 7 95.1 175 
 RUS  HZ I        10 7 18.52         1.9 0.10                          95.1 175 
 NOR  SE ES   1   10 7 36.60                             119   -0.73 6  230 235 
                                                                                
