 2013 11 8 1832 12.1 L   6.847 -73.297128.5  RSN  9 0.5 2.3LRSN                1
 GAP=105        1.24       3.9     5.7  8.0  0.2886E+00  0.1381E+02 -0.5069E+01E
 Epicentro: ZAPATOCA - SANTANDER                                               3
 ACTION:UPD 14-01-09 16:26 OP:ep   STATUS:               ID:20131108183212 L   I
 OLDACT:UP  13-11-08 18:15 OP:cam  STATUS:               ID:20131108183000     3
 OLDACT:REG 13-11-08 16:54 OP:cam  STATUS:               ID:20131108183000     3
 2013-11-08-1830-00M.COL___273                                                 6
 STAT SP IPHASW D HRMM SECON CODA AMPLIT PERI AZIMU VELO AIN AR TRES W  DIS CAZ7
 BAR2 SZ EP       1832 30.11                             165    0.2710 30.9 156 
 BAR2 SZ ES       1832 43.26                             165   -0.4310 30.9 156 
 BAR2 SZ I        1832 44.35       177.4 0.24            162           30.9 156 
 BRR  HZ EP       1832 30.53                             156    0.1010 54.1 302 
 BRR  HN ES       1832 44.65                             156   -0.0810 54.1 302 
 BRR  HZ I        1832 46.00        54.4 0.20            149           54.1 302 
 PAM  SZ EP       1832 33.33                             144    0.2810 85.6  50 
 PAM  SE ES       1832 50.13                             144    0.7210 85.6  50 
 PAM  SZ I        1832 51.75        30.6 0.30            142           85.6  50 
 RUS  HZ EP       1832 35.16                             137    0.3710  108 167 
 RUS  HN ES       1832 52.39                             137   -0.1010  108 167 
 RUS  HZ I        1833  0.02         6.2 0.18            131            108 167 
 PTB  HZ EP       1832 35.44                             131   -0.8310  133 255 
 PTB  HZ I        1832 59.04        17.6 0.30            123            133 255 
 OCA  HZ EP       1832 38.22                             126   -0.27 9  154 359 
 OCA  HN ES       1832 58.03                             126   -1.05 9  154 359 
 OCA  HZ I        1833  5.29        41.5 0.28            121            154 359 
 SPBC HE ES   1   1832 59.54                             126   -0.01 7  157 213 
 ZAR  HZ EP       1832 41.77                             121    0.16 9  187 293 
 ZAR  HN ES   1   1833  5.59                             121    0.95 7  187 293 
 ZAR  HZ I        1833  8.58        22.6 0.32            114            187 293 
 SML  HZ EP   2   1832 46.10                             115   -0.44 4  232 338 
 SML  HE ES   1   1833 14.20                             115    0.78 6  232 338 
 SML  HZ I        1833 21.57        40.1 0.10            109            232 338 
                                                                                
