 2016  6 8 1823  1.3 L   6.780 -73.182145.1  RSN  8 0.2 2.0LRSN                1
 GAP=133        0.57       2.3     2.6  3.4 -0.1604E+01  0.1328E+01  0.2001E+01E
 Epicentro: LOS SANTOS - SANTANDER                                             3
 ACTION:UPD 16-07-21 22:16 OP:rebc STATUS:               ID:20160608182301 L   I
 OLDACT:REG 16-06-08 21:54 OP:edw  STATUS:               ID:20160608181746     3
 2016-06-08-1817-46M.COL___325                                                 6
 STAT SP IPHASW D HRMM SECON CODA AMPLIT PERI AZIMU VELO AIN AR TRES W  DIS CAZ7
 BAR2 EZ IP       1823 20.65                             171   -0.1310 20.7 180 
 BAR2 EZ ES       1823 35.98                             171   -0.0110 20.7 180 
 BAR2 EZ I        1823 37.10        38.5 0.28                          20.7 180 
 BRR  HZ IP       1823 22.34                             153    0.1210 68.8 302 
 BRR  HN ES       1823 38.87                             153    0.3110 68.8 302 
 BRR  HZ I        1823 43.39        23.6 0.34                          68.8 302 
 PAM  EZ IP       1823 23.50                             149   -0.1910 81.7  41 
 PAM  EN ES       1823 41.26                             149    0.0910 81.7  41 
 PAM  EZ I        1823 43.81         7.7 0.44                          81.7  41 
 RUS  HZ EP       1823 24.67                             144   -0.1610 98.7 174 
 RUS  HE ES       1823 43.06                             144   -0.1410 98.7 174 
 RUS  HZ I        1823 44.64        15.3 0.24                          98.7 174 
 PTB  HZ EP       1823 27.54                             133   -0.26 9  143 259 
 PTB  HN ES       1823 48.37                             133   -0.11 9  143 259 
 PTB  HZ I        1823 54.03        10.5 0.64                           143 259 
 SPBC HZ EP       1823 29.55                             130    0.23 9  159 218 
 SPBC HE ES       1823 50.90                             130   -0.30 9  159 218 
 SPBC HZ I        1823 53.39        17.3 0.22                           159 218 
 NOR  HZ EP       1823 36.62                             119    0.14 8  230 234 
 NOR  HN ES       1824  3.84                             119   -0.09 8  230 234 
 NOR  HZ I        1824 11.34         7.8 0.22                           230 234 
 CHI  HZ EP       1823 38.78                             117    0.18 8  245 194 
 CHI  HN ES       1824  8.26                             117    0.56 8  245 194 
 CHI  HZ I        1824 11.88         5.1 0.76                           245 194 
                                                                                
