 2014  4 8 1400 16.8 L   6.789 -73.145149.8  RSN  5 0.5 2.2LRSN                1
 GAP=201        1.09       4.8     9.1 10.0  0.6344E+01 -0.1832E+02 -0.7704E+01E
 Epicentro: LOS SANTOS - SANTANDER                                             3
 ACTION:UPD 14-05-13 23:07 OP:nd   STATUS:               ID:20140408140016 L   I
 OLDACT:UP  14-04-08 22:53 OP:cam  STATUS:               ID:20140408135814     3
 OLDACT:REG 14-04-08 20:54 OP:cam  STATUS:               ID:20140408135814     3
 2014-04-08-1358-14M.COL___259                                                 6
 STAT SP IPHASW D HRMM SECON CODA AMPLIT PERI AZIMU VELO AIN AR TRES W  DIS CAZ7
 BRR  HZ IP     D 14 0 38.86                             153    0.4610 71.8 299 
 BRR  HN ES       14 0 55.84                             153    0.5810 71.8 299 
 BRR  HZ I        14 0 59.24        21.3 0.38            149           71.8 299 
 RUS  HZ EP   1   14 0 41.23                             145    0.39 7 99.3 176 
 RUS  HN ES   1   14 0 58.65                             145   -0.96 7 99.3 176 
 PTB  HZ EP       14 0 43.88                             133   -0.18 9  148 259 
 PTB  HN ES       14 1  4.97                             133   -0.37 9  148 259 
 PTB  HZ I        14 1 10.56        18.0 0.36            132            148 259 
 SPBC HZ EP       14 0 45.87                             130    0.37 9  162 219 
 SPBC HN ES       14 1  7.85                             130   -0.05 9  162 219 
 SPBC HZ I        14 1 11.36        11.1 0.26            131            162 219 
 SML  HZ EP   1   14 0 53.30                             118   -0.46 6  245 335 
 SML  HN ES       14 1 22.05                             118   -0.55 8  245 335 
 SML  HZ I        14 1 29.61        15.9 0.10            118            245 335 
 GUY2CHZ EP   4   14 1  2.83                             113    2.33 0  300 235 
                                                                                
