 2014 10 8 1451 42.2 L   6.839 -73.156141.4  RSN  5 0.5 1.5LRSN                1
 GAP=133        0.96       4.7     5.8  9.3 -0.5145E+01  0.2128E+02 -0.1267E+02E
 Epicentro: LOS SANTOS - SANTANDER                                             3
 ACTION:UPD 14-11-29 23:47 OP:nd   STATUS:               ID:20141008145142 L   I
 OLDACT:UP  14-10-09 00:21 OP:fm   STATUS:               ID:20141008144747     3
 OLDACT:REG 14-10-08 22:10 OP:fm   STATUS:               ID:20141008144747     3
 2014-10-08-1447-47M.COL___292                                                 6
 STAT SP IPHASW D HRMM SECON CODA AMPLIT PERI AZIMU VELO AIN AR TRES W  DIS CAZ7
 BAR2 SZ EP   1   1452  1.14                             169   -0.21 7 27.5 186 
 BAR2 SZ ES   1   1452 16.83                             169    0.50 7 27.5 186 
 BAR2 SZ I        1452 17.42        10.9 0.22            173           27.5 186 
 PAM  SZ EP   1   1452  4.11                             151    0.36 7 74.8  42 
 PAM  SN ES       1452 20.62                             151    0.0210 74.8  42 
 PAM  SZ I        1452 23.34         5.4 0.60            149           74.8  42 
 RUS  HZ EP   1   1452  5.51                             142   -0.30 7  105 176 
 RUS  HN ES       1452 23.93                             142   -0.3310  105 176 
 RUS  HZ I        1452 24.69         3.2 0.34            148            105 176 
 PTB  HZ EP   1   1452  9.96                             131    1.21 7  148 257 
 PTB  HN ES       1452 29.23                             131   -0.26 9  148 257 
 PTB  HZ I        1452 31.64         3.5 0.20            131            148 257 
 SML  HZ EP   1   1452 17.72                             117   -0.34 6  239 335 
 SML  HN ES   1   1452 45.69                             117   -0.37 6  239 335 
 SML  HZ I        1452 57.34         4.5 0.10            116            239 335 
                                                                                
