 2016  9 8 1938 22.9 L   6.795 -73.172141.2  RSN  4 0.2 1.6LRSN                1
 GAP=133        0.67       3.6     4.2  6.3  0.9535E+00  0.6995E+01 -0.1778E+01E
 Epicentro: LOS SANTOS - SANTANDER                                             3
 ACTION:UPD 17-08-17 21:08 OP:lp   STATUS:               ID:20160908193822 L   I
 OLDACT:REG 16-09-08 20:26 OP:lv   STATUS:               ID:20160908193734     3
 2016-09-08-1938-00M.COL___350                                                 6
 STAT SP IPHASW D HRMM SECON CODA AMPLIT PERI AZIMU VELO AIN AR TRES W  DIS CAZ7
 BAR2 EZ EP       1938 42.00                             171    0.0510 22.4 183 
 BAR2 EZ ES       1938 57.17                             171    0.3610 22.4 183 
 BAR2 EZ I        1938 58.02        13.7 0.38            171           22.4 183 
 PAM  EZ IP       1938 45.08                             149    0.3210 79.7  41 
 PAM  HN ES       1939  1.48                             149   -0.3410 79.7  41 
 PAM  EZ I        1939  4.10         7.8 0.46            151           79.7  41 
 RUS  HZ EP       1938 46.05                             143   -0.1210  100 174 
 RUS  HE ES       1939  4.13                             143   -0.1910  100 174 
 RUS  HZ I        1939  5.55         4.0 0.40            146            100 174 
 ZAR  HN ES       1939 19.53                             122   -0.11 9  202 293 
 ZAR  HZ I        1939 26.68         5.1 0.24            121            202 293 
                                                                                
