 2012  5 8 1212 45.1 L   6.721 -73.168158.5  RSN  5 0.3 1.4LRSN                1
 GAP=137        0.73       6.7     6.2  7.6  0.9184E+01 -0.4578E+01 -0.8991E+01E
 Epicentro: VILLANUEVA - SANTANDER                                             3
 ACTION:UP  12-07-05 12:03 OP:pat  STATUS:               ID:20120508121245 L   I
 2012-05-08-1210-00M.COL___192                                                 6
 STAT SP IPHASW D HRMM SECON CODA AMPLIT PERI AZIMU VELO SNR AR TRES W  DIS CAZ7
 BAR2 SZ EP   1   1213  6.06                             175     0.0 7   14 186 
 BAR2 SZ ES   1   1213 22.15                             175    -0.3 7   14 186 
 BAR2 SZ I        1213 22.78         7.3 0.37                            14 186 
 BRR  HZ EP   1   1213  7.91                             154     0.2 7   74 305 
 BRR  HN ES   1   1213 25.93                             154     0.5 7   74 305 
 PAM  SZ EP   1   1213  8.80                             150    -0.3 7   86  37 
 RUS  HZ EP   1   1213  9.62                             149     0.1 7   92 174 
 RUS  HE ES   1   1213 28.85                             149     0.2 7   92 174 
 RUS  HZ I        1213 29.82         3.4 0.37                            92 174 
 PTB  HZ EP   1   1213 12.96                             136     0.2 7  144 262 
 PTB  HN ES   1   1213 33.85                             136    -0.5 7  144 262 
 PTB  HZ I        1213 41.28         2.7 0.53                           144 262 
                                                                                
