 2017  2 8 1442 25.1 L   6.046 -73.695115.2  RSN 14 0.5 2.2LRSN                1
 GAP= 77        1.05       2.8     2.7  6.5 -0.1168E+01  0.4320E+01  0.4741E+01E
 Epicentro: VELEZ - SANTANDER                                                  3
 ACTION:UPD 17-05-24 15:34 OP:jn   STATUS:               ID:20170208144225 L   I
 OLDACT:UP  17-02-08 22:09 OP:and  STATUS:               ID:20170208143743     3
 OLDACT:UP  17-02-08 22:06 OP:and  STATUS:               ID:20170208143743     3
 OLDACT:REG 17-02-08 20:24 OP:and  STATUS:               ID:20170208143743     3
 2017-02-08-1438-00M.COL___343                                                 6
 STAT SP IPHASW D HRMM SECON CODA AMPLIT PERI AZIMU VELO AIN AR TRES W  DIS CAZ7
 RUS  HZ IP     C 1442 43.51                             147   -0.1810 69.8 104 
 RUS  HN ES       1442 57.84                             147   -0.3210 69.8 104 
 RUS  HZ I        1442 59.43        37.6 0.26            151           69.8 104 
 BAR2 EZ IP     C 1442 44.54                             142    0.2910 82.8  43 
 BAR2 EZ ES       1442 59.09                             142   -0.0710 82.8  43 
 BAR2 EZ I        1443  1.07        91.8 0.20            147           82.8  43 
 PTB  HZ EP       1442 44.61                             136   -0.7510  100 303 
 PTB  HE ES       1443  1.18                             136    0.0510  100 303 
 PTB  HZ I        1443  3.42        19.8 0.11            139            100 303 
 BRR  HZ EP       1442 46.99                             131    0.1610  117 359 
 BRR  HN ES   3   1443  5.18                             131    1.42 2  117 359 
 BRR  HZ I        1443  7.49        35.3 0.10            136            117 359 
 ROSC BZ EP   4   1442 52.63                             124    2.07 0  150 207 
 ROSC BN ES   4   1443 13.92                             124    3.53 0  150 207 
 ROSC BZ I        1443 16.94        16.5 0.40            126            150 207 
 CHI  HZ IP     D 1442 50.47                             122   -0.77 9  157 182 
 CHI  HN ES       1443 11.89                             122    0.29 9  157 182 
 CHI  HZ I        1443 16.33         9.3 0.36            125            157 182 
 PAM  EZ EP       1442 54.02                             118    0.18 9  180  38 
 PAM  EN ES       1443 17.03                             118    0.81 9  180  38 
 PAM  EZ I        1443 19.69         9.6 0.16            123            180  38 
 ZAR  HZ EP   4   1442 57.15                             114    1.23 0  205 321 
 ZAR  HN ES       1443 19.47                             114   -0.47 9  205 321 
 ZAR  HZ I        1443 21.38        19.6 0.09            118            205 321 
 TAM  HZ IP     C 1442 57.09                             113    0.03 8  215  78 
 TAM  HN ES       1443 22.02                             113    0.06 8  215  78 
 TAM  HZ I        1443 23.43        13.3 0.34            117            215  78 
 ANIL HZ EP       1443  2.60                             109    0.59 8  256 228 
 ANIL HN ES   3   1443 31.96                             109    1.19 2  256 228 
 ANIL HZ I        1443 36.61        21.7 0.40            112            256 228 
 CBOC HZ EP       1443  2.11                             109    0.07 8  257 266 
 CBOC HN ES       1443 31.02                             109    0.19 8  257 266 
 CBOC HZ I        1443 31.68         5.4 0.26            112            257 266 
 URE  HZ EP   9   1443  1.95                             107   -2.19 0  277 313 
 URE  HE ES       1443 32.70                                    0.33 7  277 313 
 URE  HZ I        1443 35.24        12.4 0.14            110            277 313 
 PRA  HZ EP       1443  4.94                             106   -0.71 7  290 207 
 PRA  HN ES       1443 37.61                             106    0.37 7  290 207 
 PRA  HZ I        1443 42.31        13.3 0.34            109            290 207 
 ORTC HZ IP     D 1443  5.46                             106   -0.48 7  292 216 
 ORTC HN ES       1443 38.75                             106    0.99 7  292 216 
 ORTC HZ I        1443 43.22        11.5 0.36            109            292 216 
                                                                                
