 2014  1 8 1017 46.2 L   5.965 -74.198 10.0  RSN 11 0.6 1.3LRSN                1
 GAP= 71        1.38       2.5     2.6  6.3 -0.1046E+01  0.1997E+01 -0.1767E+01E
 Epicentro: LA BELLEZA - SANTANDER                                             3
 ACTION:UPD 14-03-13 09:52 OP:ep   STATUS:               ID:20140108101746 L   I
 OLDACT:REG 14-01-08 14:48 OP:stll STATUS:               ID:20140108100811     3
 2014-01-08-1008-11M.COL___225                                                 6
 STAT SP IPHASW D HRMM SECON CODA AMPLIT PERI AZIMU VELO AIN AR TRES W  DIS CAZ7
 SPBC HZ EP   9   1017 51.33                             100   -1.33 0 37.2 158 
 SPBC HE ES       1017 56.14                                   -0.1910 37.2 158 
 SPBC HZ I        1018  1.39        14.0 0.54             47           37.2 158 
 PTB  HZ EP       1017 57.38                              95   -0.0710 69.7 336 
 PTB  HN ES       1018  6.39                              95    0.1910 69.7 336 
 PTB  HZ I        1018  6.71        18.6 0.12             47           69.7 336 
 NOR  HZ EP       1018  0.39                              94    0.3610 86.5 239 
 NOR  HN ES       1018 10.92                              94    0.1310 86.5 239 
 NOR  HZ I        1018 12.36         8.2 0.28             47           86.5 239 
 RUS  HZ EP       1018  4.92                              93   -1.1910  124  94 
 RUS  HZ I        1018  5.24         3.4 0.24             47            124  94 
 RUS  HE ES   4   1018 18.30                              93   -3.32 0  124  94 
 BAR2 SZ EP       1018  6.91                              93   -0.2110  132  58 
 BAR2 SZ ES       1018 23.70                              93    0.2910  132  58 
 BAR2 SZ I        1018 27.58         6.4 0.50             47            132  58 
 HEL  HZ IP     C 1018 10.12                              92    0.25 9  149 280 
 HEL  HN ES       1018 27.50                              92   -0.80 9  149 280 
 HEL  HZ I        1018 29.61         6.7 0.22             47            149 280 
 GUY2CHZ EP       1018 11.72                              92    1.20 9  153 238 
 GUY2CHE ES       1018 28.69                              92   -0.78 9  153 238 
 GUY2CHZ I        1018 36.83         2.2 0.32                           153 238 
 CHI  HZ EP       1018 11.25                              92    0.27 9  156 161 
 CHI  HE ES       1018 30.38                              92    0.10 9  156 161 
 CHI  HZ I        1018 37.00         2.7 0.44             47            156 161 
 RREF HZ EP       1018 13.75                              56    0.34 9  173 227 
 RREF HN ES       1018 34.38                              56   -0.23 9  173 227 
 RREF HZ I        1018 38.31         1.9 0.22             47            173 227 
 ZAR  HZ EP       1018 14.61                              56    0.62 9  184 337 
 ZAR  HN ES       1018 35.22                              56   -0.42 9  184 337 
 ZAR  HZ I        1018 39.47         3.6 0.32             37            184 337 
 PAM  SZ EP   9   1018 21.31                              56    1.63 0  225  47 
 PAM  SN ES       1018 48.02                                    0.62 8  225  47 
 PAM  SZ I        1018 49.69         6.4 0.22             37            225  47 
                                                                                
