 2012  5 8 1044  0.3 L   6.761 -73.145145.8  RSN  6 0.2 1.2LRSN                1
 GAP=138        0.54       4.5     4.4  9.0  0.4295E+01  0.1198E+02 -0.6353E+01E
 Epicentro: LOS SANTOS - SANTANDER                                             3
 ACTION:UP  12-07-05 12:03 OP:pat  STATUS:               ID:20120508104400 L   I
 2012-05-08-1040-00M.COL___192                                                 6
 STAT SP IPHASW D HRMM SECON CODA AMPLIT PERI AZIMU VELO SNR AR TRES W  DIS CAZ7
 BAR2 SZ EP   1   1044 20.12                             172     0.2 7   19 192 
 BRR  HZ EP   1   1044 22.03                             152     0.4 7   73 301 
 PAM  SZ EP   2   1044 22.51                             150    -0.2 5   81  38 
 PAM  SE ES   2   1044 39.96                             150    -0.3 5   81  38 
 RUS  HZ EP   1   1044 23.54                             145    -0.2 7   96 176 
 RUS  HE ES   1   1044 42.16                             145     0.1 7   96 176 
 RUS  HZ I        1044 43.40         1.8 0.33                            96 176 
 PTB  HZ EP   1   1044 27.10                             132    -0.1 7  147 260 
 PTB  HN ES   2   1044 47.93                             132    -0.3 5  147 260 
 PTB  HZ I        1044 51.61         1.4 0.02                           147 260 
 ZAR  HE ES   1   1044 58.36                             122     0.0 6  206 293 
 ZAR  HZ I        1045  4.55         2.9 0.42                           206 293 
                                                                                
