 2013  4 8 1307 19.5 L   6.662 -73.263149.4  RSN  4 0.2 1.4LRSN                1
 GAP=176        0.43       6.9     4.4  5.5  0.1384E+02  0.1051E+02  0.1259E+02E
 Epicentro: GALAN - SANTANDER                                                  3
 ACTION:UPD 13-05-22 14:36 OP:EP   STATUS:               ID:20130408130719 L   I
 2013-04-08-1300-00M.COL___245                                                 6
 STAT SP IPHASW D HRMM SECON CODA AMPLIT PERI AZIMU VELO AIN AR TRES W  DIS CAZ7
 BAR2 SZ EP   1   13 7 39.22                             175   -0.15 8 11.8 131 
 BAR2 SZ ES   1   13 7 54.79                             175   -0.10 8 11.8 131 
 BAR2 SZ I        13 7 55.10         7.7 0.26            169           11.8 131 
 BRR  HE ES   1   13 7 57.93                             153    0.23 8 69.9 315 
 PTB  HZ EP       13 7 45.58                             136    0.1510  133 264 
 PTB  HN ES   1   13 8  5.62                             136   -0.05 7  133 264 
 PTB  HZ I        13 8  7.74         2.6 0.15            132            133 264 
 ZAR  HE ES   1   13 8 16.43                             124   -0.26 7  199 298 
 ZAR  HZ I        13 8 26.29         1.7 0.54            119            199 298 
                                                                                
