 2017  9 8 1237  0.7 L   6.773 -73.112138.1  RSN  5 0.3 1.3LRSN                1
 GAP=142        0.89       4.4     4.9  7.1  0.4297E+01  0.4499E+01 -0.5504E+00E
 Epicentro: LOS SANTOS - SANTANDER                                             3
 ACTION:UPD 17-10-05 19:10 OP:rebc STATUS:               ID:20170908123700 L   I
 OLDACT:DUP 17-09-08 23:29 OP:lv   STATUS:               ID:20170908122740d    3
 2017-09-08-1228-00M.COL___422                                                 6
 STAT SP IPHASW D HRMM SECON CODA AMPLIT PERI AZIMU VELO AIN AR TRES W  DIS CAZ7
 BAR2 EZ EP       1237 19.12                             171   -0.2410 21.5 201 
 BAR2 EZ ES       1237 33.22                             171   -0.7110 21.5 201 
 BAR2 EZ I        1237 34.86         6.1 0.19            171           21.5 201 
 BRR  HZ EP       1237 21.31                             149    0.0110 75.9 299 
 BRR  HN ES       1237 37.77                             149    0.3910 75.9 299 
 PAM  EZ EP       1237 22.06                             149   -0.0410 77.4  36 
 PAM  EN ES       1237 39.01                             149    0.2110 77.4  36 
 PAM  EZ I        1237 41.03         4.5 0.25            150           77.4  36 
 RUS  HZ EP       1237 23.47                             143    0.0110 97.4 178 
 RUS  HE ES       1237 41.68                             143    0.4510 97.4 178 
 RUS  HZ I        1237 42.46         2.6 0.23            145           97.4 178 
 ZAR  HZ EP   4   1237 34.70                             120    1.57 0  209 293 
 ZAR  HN ES       1237 58.33                             120   -0.11 8  209 293 
 ZAR  HZ I        1238  2.31         2.0 0.09            120            209 293 
                                                                                
