 2014  7 8 1419 15.4 L   6.801 -73.164146.8  RSN  4 0.2 1.7LRSN                1
 GAP=276        0.47       4.1     3.1  4.2  0.1206E+01  0.2663E+01 -0.2602E+01E
 Epicentro: LOS SANTOS - SANTANDER                                             3
 ACTION:UPD 15-03-16 20:42 OP:nd   STATUS:               ID:20140708141915 L   I
 OLDACT:UP  14-07-09 00:27 OP:cam  STATUS:               ID:20140708141848     3
 OLDACT:REG 14-07-08 23:40 OP:cam  STATUS:               ID:20140708141848     3
 2014-07-08-1418-48M.COL___268                                                 6
 STAT SP IPHASW D HRMM SECON CODA AMPLIT PERI AZIMU VELO AIN AR TRES W  DIS CAZ7
 BAR2 SZ EP       1419 35.20                             171    0.0510 23.2 185 
 BAR2 SZ ES       1419 50.69                             171    0.1310 23.2 185 
 BAR2 SZ I        1419 51.96        14.2 0.24            165           23.2 185 
 RUS  HZ EP       1419 39.18                             144   -0.0910  101 175 
 RUS  HN ES       1419 57.73                             144   -0.1610  101 175 
 RUS  HZ I        1420  0.74         3.7 0.36            143            101 175 
 PTB  HZ EP       1419 42.12                             133   -0.15 9  146 259 
 PTB  HN ES       1420  3.15                             133   -0.08 9  146 259 
 PTB  HZ I        1420  8.93         7.9 0.54            131            146 259 
 SPBC HZ EP   1   1419 44.33                             130    0.47 7  162 218 
 SPBC HN ES       1420  6.14                             130    0.07 9  162 218 
 SPBC HZ I        1420 11.23         8.5 0.16            128            162 218 
                                                                                
