 2017  1 8 1257 55.0 L   6.757 -73.196148.0  RSN  4 0.3 1.3LRSN                1
 GAP=228        0.62       5.0     4.9  6.1  0.1246E+02 -0.3205E+01 -0.1856E+01E
 Epicentro: VILLANUEVA - SANTANDER                                             3
 ACTION:UPD 17-05-22 15:57 OP:jn   STATUS:               ID:20170108125755 L   I
 OLDACT:REG 17-01-08 19:56 OP:and  STATUS:               ID:20170108124744     3
 2017-01-08-1248-00M.COL___374                                                 6
 STAT SP IPHASW D HRMM SECON CODA AMPLIT PERI AZIMU VELO AIN AR TRES W  DIS CAZ7
 BAR2 EZ EP       1258 14.65                             173   -0.1910 18.2 175 
 BAR2 EZ ES   3   1258 29.22                             173   -1.07 2 18.2 175 
 BAR2 EZ I        1258 31.97         5.3 0.30            171           18.2 175 
 BRR  HZ EP       1258 16.24                             154   -0.0610 69.0 304 
 BRR  HN ES       1258 33.13                             154    0.2410 69.0 304 
 RUS  HZ EP       1258 19.03                             146    0.3310 96.4 173 
 RUS  HN ES     D 1258 37.14                             146   -0.0310 96.4 173 
 RUS  HZ I        1258 39.01         3.4 0.38            146           96.4 173 
 PTB  HZ EP       1258 21.27                             134   -0.35 9  141 260 
 PTB  HN ES       1258 42.44                             134    0.09 9  141 260 
 PTB  HZ I        1258 45.04         2.6 0.16            135            141 260 
                                                                                
