 2012  1 8 1336  5.8 L   6.763 -73.160144.3  RSN  9 0.4 1.7LRSN                1
 GAP=136        1.03       5.6     6.9  8.2 -0.3503E+01  0.1270E+02 -0.5110E+01E
 Epicentro: LOS SANTOS - SANTANDER                                             3
 ACTION:UP  12-02-03 08:15 OP:REBC STATUS:               ID:20120108133605 L   I
 2012-01-08-1330-00M.COL___184                                                 6
 STAT SP IPHASW D HRMM SECON CODA AMPLIT PERI AZIMU VELO SNR AR TRES W  DIS CAZ7
 BAR2 SZ IP       1336 25.21                             172     0.010   19 188 
 BAR2 SZ I        1336 25.54        10.5 0.36                            19 188 
 BAR2 SZ ES   1   1336 40.70                             172     0.4 7   19 188 
 GIR2 SZ EP       1336 25.13                             166    -0.310   35 354 
 GIR2 SZ ES   2   1336 41.04                             166     0.3 5   35 354 
 BRR  HZ IP     C 1336 26.96                             152     0.110   72 302 
 BRR  HN ES   2   1336 44.18                             152     0.9 5   72 302 
 BRR  HZ I        1336 47.48        16.3 0.44                            72 302 
 PAM  SZ EP       1336 27.96                             149    -0.210   81  39 
 PAM  SN ES   1   1336 44.96                             149    -0.6 7   81  39 
 RUS  HZ EP       1336 29.35                             145     0.210   97 175 
 RUS  HN ES   1   1336 47.19                             145    -0.2 7   97 175 
 RUS  HZ I        1336 49.46         3.8 0.40                            97 175 
 PTB  HZ EP       1336 31.91                             132    -0.6 9  146 260 
 PTB  HN ES   2   1336 53.06                             132    -0.2 5  146 260 
 PTB  HZ I        1336 56.51         4.6 0.14                           146 260 
 OCA  SZ EP       1336 35.08                             128     0.7 9  164 354 
 OCA  SZ I        1337  2.55         7.3 0.27                           164 354 
 ZAR  HN ES   2   1337  3.03                             122    -0.4 4  204 293 
 ZAR  HZ I        1337  8.66         9.3 0.32                           204 293 
 CHI  HZ EP   2   1336 43.90                             117     0.9 4  244 195 
                                                                                
