 2014  8 8 1030 29.0 L   6.788 -73.129148.6  RSN 11 0.5 1.8LRSN                1
 GAP=184        1.21       3.3     5.6  6.8  0.6807E+00  0.7195E+01  0.4892E+00E
 Epicentro: LOS SANTOS - SANTANDER                                             3
 ACTION:UPD 14-09-15 21:47 OP:nd   STATUS:               ID:20140808103029 L   I
 OLDACT:REG 14-08-08 20:25 OP:carl STATUS:               ID:20140808102818     3
 2014-08-08-1028-18M.COL___254                                                 6
 STAT SP IPHASW D HRMM SECON CODA AMPLIT PERI AZIMU VELO AIN AR TRES W  DIS CAZ7
 BAR2 SZ EP       1030 49.03                             171    0.0610 22.4 195 
 BAR2 SZ ES       1031  3.99                             171   -0.5510 22.4 195 
 BAR2 SZ I        1031  6.77        15.0 0.22            170           22.4 195 
 BRR  HZ EP       1030 51.08                             152    0.4810 73.4 299 
 BRR  HN ES       1031  7.98                             152    0.5510 73.4 299 
 BRR  HZ I        1031 10.47        10.7 0.20            151           73.4 299 
 RUS  HZ EP       1030 52.70                             145   -0.2510 99.1 177 
 RUS  HN ES       1031 12.15                             145    0.5310 99.1 177 
 RUS  HZ I        1031 13.25         5.8 0.24            147           99.1 177 
 PTB  HZ EP       1030 55.97                             132   -0.38 9  149 259 
 PTB  HN ES       1031 16.90                             132   -0.78 9  149 259 
 PTB  HZ I        1031 19.97         8.8 0.10            133            149 259 
 OCA  HN ES       1031 20.30                             130    0.24 9  162 353 
 OCA  HZ I        1031 22.93         5.2 0.26            132            162 353 
 SPBC HZ EP       1030 57.93                             130    0.18 9  163 220 
 SPBC HN ES       1031 20.06                             130   -0.10 9  163 220 
 SPBC HZ I        1031 27.09        12.0 0.44            131            163 220 
 ZAR  HZ EP       1031  1.20                             123   -0.67 8  206 292 
 ZAR  HN ES       1031 27.52                             123    0.02 8  206 292 
 ZAR  HZ I        1031 33.24         5.6 0.28            124            206 292 
 NOR  HZ EP       1031  5.16                             119    0.17 8  235 235 
 NOR  HN ES       1031 33.91                             119    0.87 8  235 235 
 NOR  HZ I        1031 36.53         6.2 0.18            120            235 235 
 SML  HZ EP       1031  6.70                             118    0.69 8  246 335 
 SML  HN ES       1031 34.13                             118   -0.74 8  246 335 
 SML  HZ I        1031 39.05         8.9 0.28            119            246 335 
 CHI  HZ EP       1031  6.77                             118   -0.02 8  248 196 
 CHI  HN ES       1031 35.45                             118   -0.80 8  248 196 
 CHI  HZ I        1031 39.16         2.7 0.34            120            248 196 
 GUY2CHN ES       1031 47.51                             113    0.49 7  302 235 
 GUY2CHZ I        1031 55.64         4.6 0.78                           302 235 
                                                                                
