 2012  3 8 1252 29.4 L   6.763 -73.146133.5  RSN  4 0.2 1.6LRSN                1
 GAP=234        0.47       4.3     4.0  5.0  0.7482E+01  0.2595E+01 -0.5329E+00E
 ACTION:UP  12-03-31 23:18 OP:EP   STATUS:               ID:20120308125229 L   I
 2012-03-08-1250-00M.COL___194                                                 6
 STAT SP IPHASW D HRMM SECON CODA AMPLIT PERI AZIMU VELO SNR AR TRES W  DIS CAZ7
 BAR2 SZ ES   1   1253  1.46                             171    -0.1 7   19 192 
 BAR2 SZ I        1253  3.69         6.2 0.14                            19 192 
 BRR  HZ EP       1252 49.52                             149     0.110   73 301 
 BRR  HZ I        1252 50.29        12.3 0.36                            73 301 
 BRR  HE ES   1   1253  4.86                             149    -0.1 7   73 301 
 RUS  HZ EP   1   1252 51.75                             142     0.1 7   96 176 
 RUS  HE ES   1   1253  9.03                             142     0.0 7   96 176 
 PTB  HZ EP   1   1252 54.94                             129    -0.4 7  147 260 
 PTB  HN ES       1253 15.66                             129     0.1 9  147 260 
                                                                                
