 2015  4 8 1612 33.1 L   6.858 -73.169142.9  RSN  5 0.5 1.7LRSN                1
 GAP=189        1.11       8.8     5.7  9.5 -0.2312E+02  0.3978E+01  0.3171E+02E
 Epicentro: ZAPATOCA - SANTANDER                                               3
 ACTION:UPD 15-06-03 16:53 OP:cam  STATUS:               ID:20150408161233 L   I
 OLDACT:REG 15-04-08 21:07 OP:carl STATUS:               ID:20150408160748     3
 2015-04-08-1607-48M.COL___269                                                 6
 STAT SP IPHASW D HRMM SECON CODA AMPLIT PERI AZIMU VELO AIN AR TRES W  DIS CAZ7
 BRR  HN ES       1613 10.25                             154    0.5510 66.0 295 
 PAM  SZ EP       1612 54.79                             151   -0.0610 74.3  44 
 PAM  SN ES       1613 11.69                             151   -0.1110 74.3  44 
 PAM  SZ I        1613 13.48         9.3 0.46            157           74.3  44 
 PTB  HZ EP       1612 59.10                             132   -0.65 9  147 256 
 PTB  HN ES       1613 19.91                             132   -0.61 9  147 256 
 PTB  HZ I        1613 26.11         4.1 0.18            132            147 256 
 ZAR  HZ EP       1613  5.56                             122    0.68 9  199 291 
 ZAR  HN ES       1613 29.37                             122   -0.29 9  199 291 
 ZAR  HZ I        1613 35.28        10.2 0.34            124            199 291 
 NOR  HZ EP       1613  9.10                             118    0.23 8  236 233 
 NOR  HE ES       1613 37.17                             118    0.42 8  236 233 
 NOR  HZ I        1613 42.44         3.3 0.16            119            236 233 
                                                                                
