 2011 12 8 1734  8.6 L   6.776 -73.151142.8  RSN  5 0.4 1.3LRSN                1
 GAP=137        0.65       6.3    10.3  8.7 -0.4231E+02  0.3134E+02 -0.1443E+02E
 Epicentro: LOS SANTOS - SANTANDER                                             3
 ACTION:UPD 12-07-13 16:15 OP:ep   STATUS:               ID:20111208173408 L   I
 2011-12-08-1729-48S.COL___161                                                 6
 STAT SP IPHASW D HRMM SECON CODA AMPLIT PERI AZIMU VELO AIN AR TRES W  DIS CAZ7
 BAR2 SZ EP   1   1734 28.18                             171    0.36 7 20.6 190 
 BAR2 SZ ES   1   1734 42.55                             171   -0.26 7 20.6 190 
 BAR2 SZ I        1734 44.04         7.3 0.32                          20.6 190 
 GIR2 SZ EP   2   1734 28.24                             166    0.25 5 33.8 352 
 PAM  SZ EP   1   1734 30.75                             149    0.10 7 79.8  39 
 PAM  SE ES   1   1734 47.72                             149   -0.13 7 79.8  39 
 RUS  HZ EP   2   1734 30.89                             144   -0.98 5 97.9 176 
 RUS  HN ES   1   1734 50.30                             144    0.28 7 97.9 176 
 RUS  HZ I        1734 52.74         2.0 0.28                          97.9 176 
 NOR  SN ES   2   1735 11.35                             118   -0.15 4  233 235 
                                                                                
