 2010  9 8 1954  2.4 L   6.572 -73.051156.0  RSN  6 0.5 2.1LRSN                1
 GAP=177        0.93       8.7    20.1 12.5  0.2771E+02 -0.1128E+03 -0.1927E+02E
 Epicentro: CURITI - SANTANDER                                                 3
 ACTION:UP  11-02-18 11:01 OP:tino STATUS:               ID:20100908195402 L   I
 2010-09-08-1951-04S.COL___120                                                 6
 STAT SP IPHASW D HRMM SECON CODA AMPLIT PERI AZIMU VELO SNR AR TRES W  DIS CAZ7
 BAR2 SZ ES   2   1954 39.80                             174     0.5 5   15 278 
 GIR2 SZ ES   2   1954 41.24                             158     0.0 5   58 344 
 RUS  HZ EP   1   1954 25.08                             153    -0.5 8   75 183 
 RUS  HZ I        1954 48.52        11.9 0.36                            75 183 
 BRR  HZ EP   1   1954 26.73                             147     0.7 8   94 309 
 BRR  HE ES   2   1954 43.68                             147    -0.7 5   94 309 
 BRR  HZ I        1954 46.88        31.0 0.32                            94 309 
 GUE  SZ EP       1954 30.08                             136     0.210  140   6 
 OCA  SZ EP   1   1954 33.68                             127    -0.3 7  187 351 
 OCA  SZ ES   2   1954 58.06                             127    -0.6 5  187 351 
                                                                                
