 2017  1 8 1552  0.5 L   6.760 -73.186147.7  RSN  4 0.3 1.5LRSN                1
 GAP=230        0.72       5.7     5.4  5.8  0.1516E+02  0.2967E+01  0.8684E+00E
 Epicentro: LOS SANTOS - SANTANDER                                             3
 ACTION:UPD 17-05-22 15:57 OP:jn   STATUS:               ID:20170108155200 L   I
 OLDACT:UP  17-01-08 22:59 OP:and  STATUS:               ID:20170108154748     3
 OLDACT:REG 17-01-08 20:05 OP:and  STATUS:               ID:20170108154748     3
 2017-01-08-1548-00M.COL___371                                                 6
 STAT SP IPHASW D HRMM SECON CODA AMPLIT PERI AZIMU VELO AIN AR TRES W  DIS CAZ7
 BAR2 EZ EP       1552 19.97                             172   -0.3110 18.6 179 
 BAR2 EZ ES       1552 35.41                             172   -0.2910 18.6 179 
 BAR2 EZ I        1552 36.59         8.5 0.18            170           18.6 179 
 BRR  HZ EP       1552 21.83                             153    0.0610 69.6 303 
 BRR  HN ES       1552 38.69                             153    0.3310 69.6 303 
 RUS  HZ EP       1552 24.58                             145    0.4210 96.6 173 
 RUS  HN ES       1552 42.68                             145    0.0610 96.6 173 
 RUS  HZ I        1552 43.91         7.8 0.30            145           96.6 173 
 PTB  HZ EP       1552 26.87                             133   -0.29 9  143 260 
 PTB  HN ES       1552 47.93                             133   -0.02 9  143 260 
 PTB  HZ I        1552 49.95         1.9 0.24            133            143 260 
                                                                                
