 2014  9 8 1220 10.6 L   6.371 -73.703 95.8  RSN  8 0.5 2.2LRSN                1
 GAP=114        1.18       3.4     4.3 10.0 -0.2838E+01  0.8674E+01 -0.6375E+01E
 Epicentro: SANTA HELENA DEL OPON - SANTANDER                                  3
 ACTION:UPD 14-10-03 23:03 OP:nd   STATUS:               ID:20140908122010 L   I
 OLDACT:DUP 14-09-08 22:22 OP:carl STATUS:               ID:20140908121819d    3
 2014-09-08-1218-18M.COL___268                                                 6
 STAT SP IPHASW D HRMM SECON CODA AMPLIT PERI AZIMU VELO AIN AR TRES W  DIS CAZ7
 BAR2 SZ EP       1220 26.00                             145   -0.3610 62.6  67 
 BAR2 SZ ES       1220 38.76                             145    0.1310 62.6  67 
 BAR2 SZ I        1220 40.13       124.2 0.48            151           62.6  67 
 BRR  HZ EP   1   1220 26.95                             137   -0.55 7 81.4 359 
 BRR  HN ES   4   1220 44.34                             137    3.67 0 81.4 359 
 BRR  HZ I        1220 47.61        24.8 0.50            140           81.4 359 
 PTB  HZ EP       1220 26.94                             135   -0.9310 85.3 283 
 PTB  HN ES       1220 41.15                             135   -0.1710 85.3 283 
 PTB  HZ I        1220 43.78        32.7 0.10            139           85.3 283 
 SPBC HZ EP       1220 28.28                             134   -0.0510 89.4 207 
 SPBC HN ES       1220 42.25                             134    0.1210 89.4 207 
 SPBC HZ I        1220 45.16        32.4 0.36            141           89.4 207 
 NOR  HN ES       1220 54.46                             117    0.22 9  157 235 
 ZAR  HZ EP       1220 37.27                             114   -0.14 9  178 314 
 ZAR  HE ES       1220 59.04                             114    0.75 9  178 314 
 ZAR  HZ I        1221  3.32        24.5 0.28            118            178 314 
 CHI  HN ES       1221  2.76                             112    0.58 9  193 181 
 OCA  HN ES       1221  6.00                             110    0.67 8  211  12 
                                                                                
