 2017  1 8 1033 51.0 L   6.801 -73.109150.8  RSN 14 0.6 1.9LRSN                1
 GAP=122        1.18       4.8     5.5  6.4  0.8334E+01  0.2817E+01  0.1873E+01E
 Epicentro: LOS SANTOS - SANTANDER                                             3
 ACTION:UPD 17-05-22 15:56 OP:jn   STATUS:               ID:20170108103351 L   I
 OLDACT:UP  17-03-27 16:35 OP:nlst STATUS:               ID:20170108103351 L   3
 OLDACT:UP  17-01-08 20:51 OP:and  STATUS:               ID:20170108102744d    3
 OLDACT:UP  17-01-08 20:50 OP:and  STATUS:               ID:20170108102744d    3
 OLDACT:UP  17-01-08 20:48 OP:and  STATUS:               ID:20170108102744d    3
 OLDACT:UP  17-01-08 20:46 OP:and  STATUS:               ID:20170108102744d    3
 OLDACT:DUP 17-01-08 20:44 OP:and  STATUS:               ID:20170108102744d    3
 OLDACT:DUP 17-01-08 20:41 OP:and  STATUS:               ID:20170108102743d    3
 OLDACT:UP  17-01-08 20:41 OP:and  STATUS:               ID:20170108102742     3
 OLDACT:UP  17-01-08 20:40 OP:and  STATUS:               ID:20170108102742     3
 OLDACT:REG 17-01-08 19:47 OP:and  STATUS:               ID:20170108102742     3
 2017-01-08-1028-00M.COL___374                                                 6
 STAT SP IPHASW D HRMM SECON CODA AMPLIT PERI AZIMU VELO AIN AR TRES W  DIS CAZ7
 BAR2 EZ EP       1034 11.32                             171    0.0610 24.5 199 
 BAR2 EZ ES       1034 26.66                             171   -0.4010 24.5 199 
 BAR2 EZ I        1034 27.97        37.5 0.20            175           24.5 199 
 BRR  HZ EP       1034 13.17                             152    0.2810 74.7 297 
 BRR  HN ES       1034 30.59                             152    0.6210 74.7 297 
 BRR  HZ I        1034 38.47        14.0 0.30            151           74.7 297 
 PAM  EZ EP       1034 14.06                             152    0.4510 74.8  37 
 PAM  EZ I        1034 39.54        24.6 0.18            147           74.8  37 
 RUS  HZ EP     C 1034 15.19                             145   -0.0510  101 178 
 RUS  HN ES       1034 34.14                             145   -0.0210  101 178 
 RUS  HZ I        1034 35.22        12.3 0.30            146            101 178 
 PTB  HZ EP       1034 18.18                             132   -0.56 9  152 259 
 PTB  HN ES       1034 39.59                             132   -0.78 9  152 259 
 PTB  HZ I        1034 44.41         6.4 0.08            132            152 259 
 ZAR  HZ EP       1034 24.04                             123   -0.11 8  208 292 
 ZAR  HE ES       1034 49.71                             123   -0.30 8  208 292 
 ZAR  HZ I        1034 55.42         5.7 0.28            122            208 292 
 CHI  HZ EP       1034 29.42                             118    0.31 8  250 196 
 CHI  HN ES       1034 59.16                             118    0.32 8  250 196 
 CHI  HZ I        1035  7.03         3.0 0.52            118            250 196 
 ROSC BZ EP   4   1034 31.55                             118    1.92 0  255 212 
 ROSC BN ES   4   1035  2.93                             118    3.16 0  255 212 
 ROSC BZ I        1035  6.39         9.9 0.50            117            255 212 
 URE  HZ EP   3   1034 31.47                             114   -1.25 2  288 292 
 GUY2CHZ EP   3   1034 36.63                             113    1.41 2  305 235 
 GUY2CHN ES   4   1035 13.77                             113    4.06 0  305 235 
 GUY2CHZ  IAML    1035 23.33         3.8 0.44                           305 235 
 PTGC HZ EP       1034 34.25                             113   -0.68 7  307 159 
 PTGC HN ES   4   1035  7.57                             113   -1.64 0  307 159 
 LL6C HZ EP   9   1034 18.10                             111   -18.8 0  325 357 
 LL6C HN ES       1034 54.59                                    0.67 7  325 357 
 CBOC HZ EP       1034 40.10                             111    1.54 7  337 252 
 CBOC HN ES   1   1035 15.92                             111    0.25 5  337 252 
 CBOC HZ I        1035 26.67         1.4 0.44            110            337 252 
 SJC  HZ EP       1034 46.05                             106   -0.92 6  411 326 
 SJC  HN ES   4   1035 28.71                             106   -1.93 0  411 326 
                                                                                
