 2016 12 8 1548 18.3 L   6.796 -73.154142.0  RSN 13 0.4 2.3LRSN                1
 GAP=136        0.98       3.6     3.7  6.3 -0.5300E+00  0.6403E+01  0.8146E+01E
 Epicentro: LOS SANTOS - SANTANDER                                             3
 ACTION:UPD 17-01-11 20:13 OP:rebc STATUS:               ID:20161208154818 L   I
 OLDACT:UP  16-12-09 09:41 OP:dani STATUS:               ID:20161208154643     3
 OLDACT:UP  16-12-09 09:40 OP:dani STATUS:               ID:20161208154643     3
 OLDACT:UP  16-12-09 09:39 OP:dani STATUS:               ID:20161208154643     3
 OLDACT:UP  16-12-09 09:39 OP:dani STATUS:               ID:20161208154643     3
 OLDACT:REG 16-12-09 03:11 OP:dani STATUS:               ID:20161208154643     3
 2016-12-08-1547-00M.COL___358                                                 6
 STAT SP IPHASW D HRMM SECON CODA AMPLIT PERI AZIMU VELO AIN AR TRES W  DIS CAZ7
 BRR  HZ EP     C 1548 39.00                             152   -0.0210 70.6 299 
 BRR  HE ES       1548 55.99                             152    0.8210 70.6 299 
 BRR  HZ I        1548 59.90        39.9 0.12            147           70.6 299 
 PAM  EZ EP       1548 40.16                             150   -0.0210 78.3  40 
 PAM  EE ES       1548 57.20                             150   -0.0410 78.3  40 
 PAM  EZ I        1548 59.40        72.2 0.64            148           78.3  40 
 RUS  HZ EP       1548 41.24                             143   -0.4310  100 176 
 RUS  HE ES       1548 59.94                             143    0.0510  100 176 
 RUS  HZ I        1549  0.79        19.1 0.24            138            100 176 
 PTB  HZ EP       1548 44.00                             131   -0.89 9  147 259 
 PTB  HN ES       1549  4.97                             131   -0.64 9  147 259 
 PTB  HZ I        1549  7.39        27.8 0.17            126            147 259 
 ZAR  HZ EP       1548 50.61                             122    0.17 9  203 292 
 ZAR  HN ES       1549 15.70                             122    0.20 9  203 292 
 ZAR  HZ I        1549 22.04        48.1 0.38            117            203 292 
 NOR  HZ EP       1548 53.68                             118   -0.04 8  234 234 
 NOR  HE ES       1549 21.20                             118   -0.14 8  234 234 
 NOR  HZ I        1549 25.53        10.7 0.24            113            234 234 
 CHI  HZ EP       1548 56.07                             116    0.33 8  248 195 
 CHI  HN ES       1549 25.05                             116    0.12 8  248 195 
 CHI  HZ I        1549 31.86         8.8 0.38            112            248 195 
 GUY2CHZ EP   4   1549  4.53                             112    2.89 0  300 235 
 GUY2CHN ES       1549 36.12                             112    0.69 7  300 235 
 GUY2CHZ I        1549 49.25         6.1 0.26                           300 235 
 LL6C HZ EP   9   1548 42.24                             110   -21.7 0  325 358 
 LL6C HN ES   3   1549 19.01                             118    1.22 2  325 358 
 CBOC HZ EP   3   1549  6.06                             109    1.10 2  333 252 
 CBOC HE ES       1549 40.83                             109   -0.51 7  333 252 
 CBOC HZ I        1549 54.14         4.6 0.39            105            333 252 
 PRA  HZ EP       1549 11.74                             106    0.13 6  391 209 
 PRA  HN ES       1549 53.87                             106    0.69 6  391 209 
 PRA  HZ I        1550  0.46         6.2 0.58            102            391 209 
 ORTC HZ EP       1549 12.32                             106    0.32 6  395 216 
 ORTC HZ I        1549 58.12         6.4 0.17            102            395 216 
 SJC  HZ EP   4   1549 11.32                             105   -2.41 0  409 327 
 SJC  HN ES   4   1549 54.16                             105   -2.80 0  409 327 
 SJC  HZ I        1549 56.73         5.4 0.64            102            409 327 
                                                                                
