 2013 11 8 1848 32.6 L   6.779 -73.111153.7  RSN  7 0.3 2.0LRSN                1
 GAP=142        0.76       4.0     4.3  5.3  0.2596E+01  0.7328E+01  0.8899E+00E
 Epicentro: LOS SANTOS - SANTANDER                                             3
 ACTION:UPD 14-01-09 16:26 OP:ep   STATUS:               ID:20131108184832 L   I
 OLDACT:UP  13-11-08 18:31 OP:cam  STATUS:               ID:20131108184737     3
 OLDACT:REG 13-11-08 18:23 OP:cam  STATUS:               ID:20131108184737     3
 2013-11-08-1847-37M.COL___213                                                 6
 STAT SP IPHASW D HRMM SECON CODA AMPLIT PERI AZIMU VELO AIN AR TRES W  DIS CAZ7
 BAR2 SZ EP       1848 53.47                             171    0.3210 22.1 201 
 BAR2 SZ ES       1849  8.67                             171   -0.5210 22.1 201 
 BAR2 SZ I        1849 10.70        38.1 0.28            163           22.1 201 
 BRR  HZ EP       1848 54.95                             152    0.1010 75.7 299 
 BRR  HN ES       1849 12.57                             152    0.3610 75.7 299 
 BRR  HZ I        1849 17.57        17.1 0.16            142           75.7 299 
 PAM  SZ EP       1848 55.81                             152    0.1810 76.9  36 
 PAM  SN ES       1849 13.34                             152   -0.2610 76.9  36 
 PAM  SZ I        1849 15.22         9.3 0.54            153           76.9  36 
 RUS  HZ EP   1   1848 57.05                             146    0.10 7 98.0 178 
 RUS  HN ES       1849 16.19                             146    0.2310 98.0 178 
 RUS  HZ I        1849 18.45        11.3 0.38            140           98.0 178 
 PTB  HZ EP       1849  0.08                             133   -0.43 9  151 260 
 PTB  HZ I        1849 26.89        20.8 0.38            124            151 260 
 SPBC HZ EP   1   1849  1.65                             131   -0.12 7  164 221 
 ZAR  HZ EP   1   1849  5.63                             123   -0.38 6  208 292 
 ZAR  HN ES       1849 32.23                             123    0.14 8  208 292 
 ZAR  HZ I        1849 39.12        11.0 0.38            116            208 292 
                                                                                
