 2011  2 8 1717 56.2 L   6.803 -73.140143.5  RSN  5 0.3 1.7LRSN                1
 GAP=224        0.54       6.6     6.9  7.4 -0.9524E+01  0.2466E+02 -0.5271E+01E
 Epicentro: LOS SANTOS - SANTANDER                                             3
 ACTION:UP  11-03-28 15:06 OP:jfem STATUS:               ID:20110208171756 L   I
 2011-02-08-1717-41S.COL___137                                                 6
 STAT SP IPHASW D HRMM SECON CODA AMPLIT PERI AZIMU VELO SNR AR TRES W  DIS CAZ7
 BTL  SZ EP   1   1718 15.70                             172     0.3 7   19 312 
 BAR2 SZ ES   2   1718 30.29                             170    -0.4 5   24 192 
 BAR2 SZ I        1718 32.17        15.1 0.20                            24 192 
 RUS  HZ EP   2   1718 19.25                             143    -0.5 5  101 176 
 RUS  HN ES   1   1718 38.21                             143     0.1 7  101 176 
 RUS  HZ I        1718 39.84         8.0 0.43                           101 176 
 NOR  SZ EP   1   1718 31.61                             118    -0.3 6  236 235 
 NOR  SE ES   1   1718 59.80                             118     0.1 6  236 235 
 CHI  HZ EP   1   1718 33.95                             117     0.1 6  249 195 
 CHI  HZ I        1719  6.11         2.3 0.24                           249 195 
                                                                                
