 2016  9 8 1114 48.9 L   6.760 -74.252 65.5  RSN 14 0.4 2.2LRSN                1
 GAP= 62        0.92       1.9     1.7  5.2 -0.3092E+00  0.1602E-02 -0.3078E+00E
 Epicentro: PUERTO PARRA - SANTANDER                                           3
 ACTION:UPD 17-08-17 21:08 OP:lp   STATUS:               ID:20160908111448 L   I
 OLDACT:REG 16-09-08 19:42 OP:lv   STATUS:               ID:20160908110738     3
 2016-09-08-1108-00M.COL___350                                                 6
 STAT SP IPHASW D HRMM SECON CODA AMPLIT PERI AZIMU VELO AIN AR TRES W  DIS CAZ7
 PTB  HZ IP     D 1114 58.78                             150   -0.4310 33.2 223 
 PTB  HE ES       1115  7.21                             150   -0.0410 33.2 223 
 PTB  HZ I        1115  8.52        48.7 0.10            148           33.2 223 
 BRR  HZ EP       1115  2.24                             127   -0.0710 71.0  57 
 BRR  HN ES       1115 13.13                             127    0.3610 71.0  57 
 BRR  HZ I        1115 14.35        69.6 0.12            125           71.0  57 
 ZAR  HZ EP       1115  5.88                             115   -0.0610  105 320 
 ZAR  HN ES       1115 19.44                             115    0.2210  105 320 
 ZAR  HZ I        1115 21.51        66.2 0.09            113            105 320 
 BAR2 EZ EP       1115  8.00                             112    0.1010  120  99 
 BAR2 EZ ES       1115 22.82                             112    0.1010  120  99 
 BAR2 EZ I        1115 24.88        49.1 0.25            110            120  99 
 SPBC HZ EP       1115  8.22                             111    0.0010  124 171 
 SPBC HE ES       1115 22.90                             111   -0.3910  124 171 
 SPBC HZ I        1115 23.58        43.5 0.10            109            124 171 
 NOR  HZ EP       1115 11.48                             107    0.41 9  149 207 
 NOR  HE ES       1115 28.65                             107    0.29 9  149 207 
 NOR  HZ I        1115 30.83        34.6 0.20            105            149 207 
 HEL  HZ EP       1115 12.91                             106    0.78 9  155 246 
 HEL  HE ES       1115 29.98                             106   -0.27 9  155 246 
 HEL  HZ I        1115 34.11        19.0 0.32            104            155 246 
 RUS  HZ EP       1115 12.91                             105   -0.15 9  161 127 
 RUS  HN ES       1115 31.28                             105   -0.62 9  161 127 
 RUS  HZ I        1115 33.70        19.9 0.16            104            161 127 
 URE  HZ EP       1115 14.08                             103   -0.52 9  179 308 
 URE  HN ES       1115 34.23                             103   -0.41 9  179 308 
 URE  HZ I        1115 39.98        24.3 0.17            102            179 308 
 PAM  EZ EP       1115 15.99                             103    0.30 9  183  69 
 PAM  EN ES       1115 36.58                             103   -0.01 9  183  69 
 PAM  EZ I        1115 38.48        55.5 0.16            102            183  69 
 OCA  HN ES       1115 38.36                             102    0.34 9  193  32 
 OCA  HZ I        1115 42.70        34.4 0.18            101            193  32 
 GUY2CHZ EP   4   1115 20.73                             101    1.83 0  210 216 
 GUY2CHN ES       1115 42.79                             101    0.49 8  210 216 
 GUY2CHZ I        1115 49.00        12.7 0.51                           210 216 
 CHI  HZ EP   4   1115 24.34                              99    1.53 0  243 166 
 CHI  HE ES   4   1115 51.68                              99    2.42 0  243 166 
 ELA  HZ EP   4   1115 25.48                              99    2.17 0  246 211 
 ELA  HE ES   4   1115 53.65                              99    3.50 0  246 211 
 ELA  HZ I        1115 56.86         9.7 0.30             98            246 211 
 SJC  HZ EP       1115 36.21                              95   -0.75 6  362 344 
 SJC  HN ES   4   1116 12.25                              95   -2.20 0  362 344 
 SJC  HZ I        1116 16.60         3.9 0.33             95            362 344 
                                                                                
