 2013  1 8 1905 36.6 L   5.820 -73.788115.5  RSN  5 0.3 2.1LRSN                1
 GAP=140        0.71       3.6     3.8  7.5  0.4293E+01  0.1061E+02  0.1020E+02E
 Epicentro: JESUS MARIA - SANTANDER                                            3
 ACTION:UPD 13-02-15 09:13 OP:ep   STATUS:               ID:20130108190536 L   I
 2013-01-08-1900-00M.COL___239                                                 6
 STAT SP IPHASW D HRMM SECON CODA AMPLIT PERI AZIMU VELO AIN AR TRES W  DIS CAZ7
 RUS  HZ EP       19 5 55.87                             144    0.1010 78.5  84 
 RUS  HN ES       19 6 11.00                             144    0.2710 78.5  84 
 RUS  HN I        19 6 12.62         8.7 0.26            147           78.5  84 
 BAR2 SZ EP       19 5 58.19                             134    0.3510  109  38 
 BAR2 SZ ES       19 6 13.97                             134   -0.4610  109  38 
 BAR2 SZ I        19 6 15.51       116.7 0.40            138            109  38 
 PTB  HZ EP       19 5 57.78                             133    0.2310  109 317 
 PTB  HN ES       19 6 13.90                             133    0.0110  109 317 
 PTB  HN I        19 6 15.79        15.6 0.22            137            109 317 
 CHI  HZ EP       19 5 59.86                             128   -0.3610  132 177 
 BRR  HZ EP       19 6  0.60                             125   -0.14 9  143   3 
 BRR  HE ES       19 6 19.52                             125   -0.06 9  143   3 
                                                                                
