 2011 10 8 1015 36.6 L   6.784 -73.078147.4  RSN  5 0.3 1.2LRSN                1
 GAP=146        0.50       3.6     5.4  5.4 -0.5340E+00 -0.1996E+01  0.3841E+00E
 Epicentro: LOS SANTOS - SANTANDER                                             3
 ACTION:UPD 12-07-13 16:02 OP:ep   STATUS:               ID:20111008101536 L   I
 2011-10-08-1000-00M.COL___171                                                 6
 STAT SP IPHASW D HRMM SECON CODA AMPLIT PERI AZIMU VELO AIN AR TRES W  DIS CAZ7
 BAR2 SZ EP   1   1015 56.01                             170   -0.45 7 24.2 209 
 BAR2 SZ ES   1   1016 12.12                             170    0.18 7 24.2 209 
 BAR2 SZ I        1016 12.63         5.3 0.53                          24.2 209 
 GIR2 SZ EP   2   1015 57.22                             166    0.64 5 35.0 339 
 PAM  SZ EP   1   1015 58.96                             152    0.14 7 74.2  34 
 PAM  SN ES   1   1016 16.00                             152   -0.14 7 74.2  34 
 BRR  HZ EP   1   1015 58.38                             150    0.01 7 78.7 297 
 BRR  HE ES   1   1016 15.28                             150   -0.06 7 78.7 297 
 BRR  HZ I        1016 19.81         5.1 0.17                          78.7 297 
 RUS  HZ EP   1   1016  0.41                             145    0.03 7 98.6 180 
 RUS  HN ES   1   1016 18.93                             145    0.00 7 98.6 180 
 RUS  HZ I        1016 19.82         1.3 0.40                          98.6 180 
                                                                                
