 2014  4 8 1349 44.4 L   6.174 -73.682108.0  RSN  6 0.5 1.5LRSN                1
 GAP=219        1.00       4.5     7.8  9.4 -0.1799E+02  0.8356E+01 -0.1654E+01E
 Epicentro: LA PAZ - SANTANDER                                                 3
 ACTION:UPD 14-05-13 23:07 OP:nd   STATUS:               ID:20140408134944 L   I
 OLDACT:REG 14-04-08 20:54 OP:cam  STATUS:               ID:20140408134819     3
 2014-04-08-1348-19M.COL___256                                                 6
 STAT SP IPHASW D HRMM SECON CODA AMPLIT PERI AZIMU VELO AIN AR TRES W  DIS CAZ7
 SPBC HZ EP   2   1350  1.44                             144   -0.35 5 72.1 217 
 SPBC HE ES   1   1350 15.69                             144    0.32 7 72.1 217 
 PTB  HZ EP       1350  2.69                             136   -0.8010 94.7 295 
 PTB  HN ES   1   1350 17.62                             136   -0.77 7 94.7 295 
 PTB  HZ I        1350 22.29         4.9 0.16            136           94.7 295 
 BRR  HZ EP   1   1350  4.10                             133   -0.11 7  103 358 
 BRR  HE ES       1350 20.13                             133    0.4510  103 358 
 NOR  HZ EP   1   1350  8.54                             122   -0.08 7  148 243 
 NOR  HN ES       1350 27.60                             122    0.07 9  148 243 
 NOR  HZ I        1350 29.58         6.9 0.32            124            148 243 
 ZAR  HZ EP       1350 13.72                             114    0.01 9  195 318 
 ZAR  HN ES       1350 36.97                             114    0.39 9  195 318 
 GUY2CHZ EP   1   1350 16.79                             112    0.40 6  214 241 
 GUY2CHN ES   1   1350 42.07                             112    0.70 6  214 241 
 GUY2CHZ I        1350 48.93         2.4 0.58                           214 241 
                                                                                
