 2014  5 8 1056 42.4 L   6.850 -73.224138.4  RSN  4 0.3 1.3LRSN                1
 GAP=125        0.73       3.4     4.9 10.1 -0.1104E+01  0.1664E+02 -0.8967E+01E
 Epicentro: ZAPATOCA - SANTANDER                                               3
 ACTION:UPD 15-03-16 16:56 OP:nd   STATUS:               ID:20140508105642 L   I
 OLDACT:UP  14-05-08 20:27 OP:mh   STATUS:               ID:20140508105001d    3
 OLDACT:DUP 14-05-08 20:27 OP:mh   STATUS:               ID:20140508105001d    3
 2014-05-08-1050-00M.COL___273                                                 6
 STAT SP IPHASW D HRMM SECON CODA AMPLIT PERI AZIMU VELO AIN AR TRES W  DIS CAZ7
 PAM  SZ EP       1057  4.41                             148    0.4510 79.3  47 
 PAM  SN ES       1057 20.73                             148   -0.0510 79.3  47 
 PAM  SZ I        1057 23.36         3.6 0.09            155           79.3  47 
 RUS  HZ EP   1   1057  5.67                             140   -0.25 7  107 172 
 RUS  HN ES       1057 24.07                             140   -0.2010  107 172 
 RUS  HZ I        1057 26.14         3.7 0.19            145            107 172 
 PTB  HN ES   1   1057 28.53                             132    0.36 7  141 256 
 PTB  HZ I        1057 32.78         3.6 0.17            134            141 256 
 SML  HN ES       1057 44.85                             117   -0.37 8  235 337 
                                                                                
