 2013 12 8 1221 30.4 L   6.763 -73.149141.6  RSN  6 0.5 1.5LRSN                1
 GAP=138        1.20       6.1     5.6  8.3  0.2626E-01  0.1296E+02 -0.5142E+01E
 Epicentro: LOS SANTOS - SANTANDER                                             3
 ACTION:UPD 14-01-13 10:16 OP:ep   STATUS:               ID:20131208122130 L   I
 OLDACT:UP  13-12-08 15:33 OP:cam  STATUS:               ID:20131208122000     3
 OLDACT:REG 13-12-08 14:24 OP:cam  STATUS:               ID:20131208122000     3
 2013-12-08-1220-00M.COL___285                                                 6
 STAT SP IPHASW D HRMM SECON CODA AMPLIT PERI AZIMU VELO AIN AR TRES W  DIS CAZ7
 BAR2 SZ EP       1221 49.23                             172   -0.1810 19.2 191 
 BAR2 SZ ES       1222  3.40                             172   -0.8710 19.2 191 
 BAR2 SZ I        1222  5.10        11.7 0.14            173           19.2 191 
 BRR  HZ EP       1221 51.29                             151    0.1410 72.9 302 
 BRR  HN ES       1222  8.06                             151    0.6810 72.9 302 
 BRR  HZ I        1222 12.79         7.8 0.64            150           72.9 302 
 PAM  SZ EP       1221 52.25                             149   -0.0910 80.8  38 
 PAM  SN ES       1222  9.48                             149   -0.0110 80.8  38 
 PAM  SZ I        1222 11.38         5.1 0.70            151           80.8  38 
 RUS  HZ EP   1   1221 53.80                             144    0.39 7 96.5 176 
 RUS  HN ES       1222 12.06                             144    0.6810 96.5 176 
 RUS  HZ I        1222 13.38         3.2 0.38            148           96.5 176 
 PTB  HZ EP       1221 56.46                             131   -0.42 9  147 260 
 PTB  HN ES       1222 17.07                             131   -0.50 9  147 260 
 PTB  HZ I        1222 19.66         3.9 0.12            132            147 260 
 ZAR  HZ EP       1222  2.61                             121   -0.05 8  205 293 
 ZAR  HE ES   1   1222 28.54                             121    0.69 6  205 293 
 ZAR  HZ I        1222 34.13         3.3 0.42            122            205 293 
                                                                                
