 2017  1 8 1032  1.3 L   6.791 -73.108143.3  RSN  5 0.2 1.2LRSN                1
 GAP=142        0.56       3.1     3.0  4.3 -0.1109E+01  0.1141E+01  0.1494E+01E
 Epicentro: LOS SANTOS - SANTANDER                                             3
 ACTION:UPD 17-05-22 15:56 OP:jn   STATUS:               ID:20170108103201 L   I
 OLDACT:DUP 17-01-08 20:41 OP:and  STATUS:               ID:20170108102743d    3
 OLDACT:UP  17-01-08 20:41 OP:and  STATUS:               ID:20170108102742     3
 OLDACT:UP  17-01-08 20:40 OP:and  STATUS:               ID:20170108102742     3
 OLDACT:REG 17-01-08 19:47 OP:and  STATUS:               ID:20170108102742     3
 2017-01-08-1028-00M.COL___374                                                 6
 STAT SP IPHASW D HRMM SECON CODA AMPLIT PERI AZIMU VELO AIN AR TRES W  DIS CAZ7
 BAR2 EZ EP       1032 20.33                             170   -0.3010 23.5 200 
 BAR2 EZ ES       1032 35.68                             170   -0.0410 23.5 200 
 BAR2 EZ I        1032 40.07         5.3 0.63            171           23.5 200 
 BRR  HN ES       1032 38.99                             151    0.0910 75.3 298 
 PAM  EZ EP       1032 23.28                             151    0.1410 75.6  37 
 PAM  EN ES       1032 40.16                             151   -0.0310 75.6  37 
 PAM  EZ I        1032 42.42         2.8 0.58            153           75.6  37 
 RUS  HZ EP       1032 24.52                             144   -0.2010 99.4 178 
 RUS  HN ES       1032 43.23                             144    0.2410 99.4 178 
 RUS  HZ I        1032 44.56         2.7 0.48            146           99.4 178 
 PTB  HZ EP       1032 28.75                             131    0.33 9  152 260 
 PTB  HE ES       1032 49.38                             131   -0.20 9  152 260 
 PTB  HZ I        1032 49.91         1.3 0.14            134            152 260 
                                                                                
