 2014  9 8 1907 17.4 L   6.844 -73.085139.0  RSN  6 0.4 2.0LRSN                1
 GAP=207        0.89       3.9     5.8  7.7  0.4298E+01  0.2185E+02 -0.3029E+01E
 Epicentro: LOS SANTOS - SANTANDER                                             3
 ACTION:UPD 14-10-03 23:03 OP:nd   STATUS:               ID:20140908190717 L   I
 OLDACT:REG 14-09-08 21:27 OP:carl STATUS:               ID:20140908185817     3
 2014-09-08-1858-17M.COL___266                                                 6
 STAT SP IPHASW D HRMM SECON CODA AMPLIT PERI AZIMU VELO AIN AR TRES W  DIS CAZ7
 BAR2 SZ EP       19 7 36.42                             167    0.0910 29.9 201 
 BAR2 SZ ES       19 7 51.17                             167    0.0410 29.9 201 
 BAR2 SZ I        19 7 52.80        14.2 0.18            165           29.9 201 
 RUS  HZ EP       19 7 40.81                             141    0.0110  105 180 
 RUS  HN ES       19 7 59.09                             141    0.0110  105 180 
 RUS  HZ I        19 8  2.60         6.7 0.38            143            105 180 
 PTB  HZ EP   4   19 7 36.73                             129   -7.76 0  155 258 
 PTB  HN ES   4   19 8  4.11                             129   -1.55 0  155 258 
 ZAR  HZ EP       19 7 50.06                             120    0.22 8  209 290 
 ZAR  HN ES       19 8 15.57                             120    0.39 8  209 290 
 ZAR  HZ I        19 8 21.39        13.9 0.26            121            209 290 
 SML  HN ES       19 8 21.16                             116   -0.43 8  242 333 
 NOR  HN ES       19 8 20.91                             116   -0.98 8  243 234 
 NOR  HZ I        19 8 26.12        11.3 0.20            117            243 234 
 GUY2CHZ EP       19 8  1.56                             110   -0.05 7  310 235 
 GUY2CHN ES       19 8 36.78                             110    0.65 7  310 235 
 GUY2CHZ I        19 8 43.44         7.6 0.48                           310 235 
                                                                                
