 2012  4 8 1229  2.3 L   6.797 -73.128145.1  RSN  5 0.3 1.2LRSN                1
 GAP=139        0.88       7.1     7.2 10.5 -0.2475E+01  0.1268E+02  0.2675E+02E
 Epicentro: LOS SANTOS - SANTANDER                                             3
 ACTION:UPD 12-07-05 11:51 OP:tino STATUS:               ID:20120408122902 L   I
 2012-04-08-1228-50M.COL___175                                                 6
 STAT SP IPHASW D HRMM SECON CODA AMPLIT PERI AZIMU VELO AIN AR TRES W  DIS CAZ7
 BAR2 SZ EP       1229 21.63                             170    -0.210   23 195 
 BRR  HZ EP       1229 23.62                             152     0.210   73 298 
 BRR  HZ I        1229 26.34         6.0 0.32                            73 298 
 BRR  HN ES   1   1229 40.35                             152     0.4 7   73 298 
 PAM  SZ EP       1229 24.54                             151     0.210   76  38 
 PAM  SN ES   1   1229 41.08                             151    -0.5 7   76  38 
 RUS  HZ EP       1229 26.23                             144     0.310  100 177 
 RUS  HE ES   2   1229 44.19                             144    -0.2 5  100 177 
 RUS  HZ I        1229 46.36         1.5 0.34                           100 177 
 PTB  HZ EP       1229 28.86                             131    -0.5 9  150 259 
 PTB  HZ I        1229 52.22         1.5 0.16                           150 259 
                                                                                
