 2017  7 8 1013 35.9 L   6.610 -73.204139.2  RSN  4 0.1 1.3LRSN                1
 GAP=175        0.43       4.8     3.1  4.0  0.5136E+01  0.3986E+01  0.2269E+01E
 Epicentro: BARICHARA - SANTANDER                                              3
 ACTION:UPD 17-08-30 15:31 OP:rebc STATUS:               ID:20170708101335 L   I
 OLDACT:UP  17-07-08 22:06 OP:edw  STATUS:               ID:20170708100737     3
 OLDACT:REG 17-07-08 21:09 OP:edw  STATUS:               ID:20170708100737     3
 2017-07-08-1008-00M.COL___362                                                 6
 STAT SP IPHASW D HRMM SECON CODA AMPLIT PERI AZIMU VELO AIN AR TRES W  DIS CAZ7
 BAR2 EZ EP     D 1013 54.51                             179    0.0510 3.04 129 
 BAR2 EZ ES       1014  8.89                             179   -0.0810 3.04 129 
 BAR2 EZ I        1014 10.13         6.4 0.30            171           3.04 129 
 BRR  HZ EP       1013 56.56                             149   -0.2010 78.6 314 
 BRR  HE ES       1014 13.24                             149    0.1810 78.6 314 
 BRR  HZ I        1014 14.81         5.0 0.18            150           78.6 314 
 PTB  HZ EP       1014  1.67                             132    0.19 9  139 267 
 PTB  HN ES       1014 21.38                             132   -0.08 9  139 267 
 PTB  HZ I        1014 27.30         1.9 0.38            131            139 267 
 ZAR  HN ES       1014 33.37                             120   -0.09 8  207 298 
                                                                                
