 2012 10 8 1127 23.3 L   6.769 -73.091150.1  RSN  4 0.1 1.5LRSN                1
 GAP=198        0.32       8.0    11.7  5.2  0.8152E+02 -0.2814E+02 -0.1987E+02E
 Epicentro: LOS SANTOS - SANTANDER                                             3
 ACTION:UPD 12-11-22 17:02 OP:ep   STATUS:               ID:20121008112723 L   I
 2012-10-08-1120-00M.COL___222                                                 6
 STAT SP IPHASW D HRMM SECON CODA AMPLIT PERI AZIMU VELO AIN AR TRES W  DIS CAZ7
 BAR2 SZ EP   1   1127 43.32                             171   -0.14 7 22.0 207 
 BAR2 SZ ES   1   1127 59.25                             171    0.09 7 22.0 207 
 GIR2 SZ EP   3   1127 43.62                             166   -0.04 2 36.1 342 
 BRR  HZ EP   1   1127 45.50                             151    0.15 7 78.2 299 
 BRR  HN ES   1   1128  2.44                             151   -0.09 7 78.2 299 
 RUS  HZ EP   3   1127 47.30                             146    0.04 2 96.9 180 
 RUS  HN ES   2   1128  5.90                             146   -0.02 5 96.9 180 
 RUS  HN I        1128  7.70         5.2 0.36                          96.9 180 
                                                                                
