 2012  9 8 1301 50.3 L   6.673 -73.219140.7  RSN  5 0.4 1.7LRSN                1
 GAP=152        0.73      15.2    16.0 10.3  0.1676E+03 -0.3998E+02 -0.2458E+02E
 Epicentro: BARICHARA - SANTANDER                                              3
 ACTION:UPD 12-10-22 14:17 OP:ep   STATUS:               ID:20120908130150 L   I
 2012-09-08-1300-00M.COL___227                                                 6
 STAT SP IPHASW D HRMM SECON CODA AMPLIT PERI AZIMU VELO AIN AR TRES W  DIS CAZ7
 BAR2 SZ EP       13 2  8.85                             176   -0.2910 9.77 156 
 BAR2 SZ I        13 2  9.38         5.4 0.12                          9.77 156 
 BAR2 SZ ES   2   13 2 23.80                             176   -0.01 5 9.77 156 
 GIR2 SZ EP       13 2 10.33                             161    0.4810 45.0   4 
 GIR2 SZ ES   3   13 2 24.79                             161   -0.29 2 45.0   4 
 BRR  HZ EP       13 2 10.64                             151   -0.3710 72.6 311 
 BRR  HN ES   1   13 2 27.37                             151    0.23 7 72.6 311 
 BRR  HN I        13 2 28.52        18.5 0.16                          72.6 311 
 RUS  HN ES   3   13 2 31.21                             147    1.14 2 87.6 170 
 ZAR  HZ EP   3   13 2 22.14                             121   -0.14 2  203 297 
                                                                                
