 2017  5 8 1241 22.1 L   6.861 -73.327116.9  RSN  6 0.2 1.5LRSN                1
 GAP=113        0.66       2.8     2.7  5.3  0.4669E+00  0.5316E+01  0.3705E+01E
 Epicentro: BETULIA - SANTANDER                                                3
 ACTION:UPD 17-06-16 13:34 OP:jn   STATUS:               ID:20170508124122 L   I
 OLDACT:REG 17-05-08 20:09 OP:lv   STATUS:               ID:20170508123735     3
 2017-05-08-1238-00M.COL___374                                                 6
 STAT SP IPHASW D HRMM SECON CODA AMPLIT PERI AZIMU VELO AIN AR TRES W  DIS CAZ7
 BRR  HZ EP       1241 38.44                             155   -0.4910 50.5 303 
 BRR  HN ES       1241 51.92                             155   -0.1710 50.5 303 
 BRR  HZ I        1241 52.61         9.1 0.07            153           50.5 303 
 PAM  EZ EP       1241 42.17                             141    0.1610 87.2  53 
 PAM  EN ES       1241 57.89                             141    0.3110 87.2  53 
 RUS  HZ EP       1241 43.59                             134   -0.3410  110 166 
 RUS  HN ES       1242  1.06                             134    0.0610  110 166 
 PTB  HZ EP       1241 45.06                             128   -0.0110  130 254 
 ZAR  HZ EP       1241 50.55                             118    0.05 9  183 293 
 ZAR  HN ES       1242 12.83                             118    0.14 9  183 293 
 ZAR  HZ I        1242 16.99         3.9 0.34            118            183 293 
 NOR  HZ EP       1241 55.05                             113    0.09 8  223 230 
 NOR  HN ES       1242 21.00                             113    0.38 8  223 230 
 NOR  HZ I        1242 25.01         1.9 0.14            113            223 230 
                                                                                
