 2017 11 8 1554 41.6 L   6.828 -73.155145.5  RSN 10 0.5 1.6LRSN                1
 GAP=134        0.88       4.1     4.2  7.2 -0.2826E+01  0.1186E+02  0.4432E+01E
 Epicentro: LOS SANTOS - SANTANDER                                             3
 ACTION:UPD 17-12-12 19:53 OP:rebc STATUS:               ID:20171108155441 L   I
 OLDACT:UP  17-11-08 23:05 OP:mg   STATUS:               ID:20171108154737     3
 OLDACT:REG 17-11-08 20:46 OP:mg   STATUS:               ID:20171108154737     3
 2017-11-08-1548-00M.COL___431                                                 6
 STAT SP IPHASW D HRMM SECON CODA AMPLIT PERI AZIMU VELO AIN AR TRES W  DIS CAZ7
 BAR2 EZ EP       1555  1.24                             169   -0.0510 26.2 187 
 BAR2 EZ ES   2   1555 16.50                             169   -0.12 5 26.2 187 
 BAR2 EZ I        1555 20.44         5.5 0.27            168           26.2 187 
 BRR  HZ EP       1555  3.18                             153    0.5610 68.9 297 
 PAM  EZ EP   1   1555  3.89                             151    0.17 7 75.7  42 
 PAM  EN ES       1555 20.81                             151   -0.1310 75.7  42 
 PAM  EZ I        1555 21.22         4.8 0.40            157           75.7  42 
 RUS  HZ EP       1555  5.61                             143    0.0310  104 176 
 RUS  HN ES       1555 24.34                             143    0.0810  104 176 
 RUS  HZ I        1555 26.67         2.4 0.26            145            104 176 
 PTB  HZ EP       1555  7.91                             132   -0.64 9  147 258 
 PTB  HN ES       1555 29.01                             132   -0.53 9  147 258 
 PTB  HZ I        1555 32.45         3.7 0.08            133            147 258 
 ZAR  HZ EP   3   1555 15.73                             122    1.88 2  202 291 
 ZAR  HN ES   1   1555 39.47                             122    0.50 6  202 291 
 ZAR  HZ I        1555 44.77         6.8 0.39            124            202 291 
 NOR  HZ EP   1   1555 18.04                             118    0.59 6  236 234 
 NOR  HN ES       1555 45.67                             118    0.28 8  236 234 
 NOR  HZ I        1555 48.60         3.2 0.29            120            236 234 
 GUY2CHZ EP   4   1555 27.84                             112    2.50 0  302 234 
 GUY2CHN ES   4   1556  4.70                             112    5.27 0  302 234 
 GUY2CHZ I        1556  9.96         3.1 0.43                           302 234 
 PRA  HZ EP       1555 35.36                             106   -0.04 6  394 209 
 PRA  HN ES       1556 17.15                             106   -0.19 6  394 209 
 PRA  HZ I        1556 25.32         1.3 0.27            108            394 209 
 SJC  HZ EP   2   1555 35.11                             106   -1.71 3  406 327 
 SJC  HN ES   4   1556 16.48                             106   -3.39 0  406 327 
 SJC  HZ I        1556 19.40         1.3 0.37            108            406 327 
                                                                                
