 2017  2 8 1826 52.5 L   6.798 -73.152142.0  RSN 17 0.4 2.6LRSN                1
 GAP=101        0.96       3.2     2.7  4.7  0.2084E+00  0.3203E+01  0.4110E+01E
 Epicentro: LOS SANTOS - SANTANDER                                             3
 ACTION:UPD 17-05-24 15:34 OP:jn   STATUS:               ID:20170208182652 L   I
 OLDACT:UP  17-02-09 00:19 OP:ar   STATUS:               ID:20170208181744     3
 OLDACT:UP  17-02-09 00:18 OP:ar   STATUS:               ID:20170208181744     3
 OLDACT:REG 17-02-08 20:44 OP:and  STATUS:               ID:20170208181744     3
 2017-02-08-1818-00M.COL___343                                                 6
 STAT SP IPHASW D HRMM SECON CODA AMPLIT PERI AZIMU VELO AIN AR TRES W  DIS CAZ7
 BAR2 EZ IP     C 1827 11.53                             170   -0.1610 23.0 188 
 BAR2 EZ ES       1827 26.27                             170   -0.3710 23.0 188 
 BAR2 EZ I        1827 28.66       135.6 0.18            166           23.0 188 
 BRR  HZ IP     C 1827 13.34                             152    0.1110 70.7 299 
 BRR  HN ES       1827 30.14                             152    0.7510 70.7 299 
 BRR  HZ I        1827 31.23        96.9 0.14            152           70.7 299 
 PAM  EZ IP     C 1827 14.49                             150    0.1210 78.0  40 
 PAM  EN ES       1827 31.28                             150   -0.1310 78.0  40 
 PAM  EZ I        1827 33.69        77.9 0.46            155           78.0  40 
 RUS  HZ IP       1827 15.56                             143   -0.3310  100 176 
 RUS  HN ES       1827 34.36                             143    0.2410  100 176 
 RUS  HZ I        1827 35.89        49.9 0.18            141            100 176 
 PTB  HZ EP       1827 18.12                             131   -1.00 9  147 259 
 PTB  HN ES       1827 39.65                             131   -0.21 9  147 259 
 PTB  HZ I        1827 43.57        51.0 0.08            130            147 259 
 TAM  HZ IP     D 1827 19.95                             130   -0.01 9  156 105 
 TAM  HN ES       1827 41.49                             130    0.13 9  156 105 
 TAM  HZ I        1827 42.18        30.9 0.42            132            156 105 
 ZAR  HZ EP   2   1827 25.52                             122    0.86 4  204 292 
 ZAR  HE ES       1827 50.10                             122    0.36 9  204 292 
 ZAR  HZ I        1827 56.26        66.8 0.30            122            204 292 
 NOR  HZ EP       1827 27.53                             118   -0.43 8  234 234 
 NOR  HN ES       1827 55.57                             118   -0.03 8  234 234 
 NOR  HZ I        1827 59.34        50.6 0.42            117            234 234 
 CHI  HZ EP       1827 30.01                             116    0.04 8  248 195 
 CHI  HN ES       1827 59.42                             116    0.24 8  248 195 
 CHI  HZ I        1828  3.37        16.3 0.24            116            248 195 
 ROSC BZ EP   4   1827 31.92                             116    1.54 0  252 211 
 ROSC BE ES   4   1828  3.73                             116    3.82 0  252 211 
 ROSC BZ I        1828  7.65        37.5 0.40            116            252 211 
 URE  HZ EP       1827 32.61                             113   -0.74 7  283 292 
 URE  HN ES   4   1828  3.30                             113   -1.89 0  283 292 
 URE  HZ I        1828  5.99        24.9 0.14            114            283 292 
 VIL  EZ EP       1827 36.53                             111    0.80 7  303 191 
 VIL  EN ES       1828  9.35                             111   -0.08 7  303 191 
 VIL  EZ I        1828 18.97        27.2 0.34            111            303 191 
 CBOC HZ EP       1827 39.97                             109    0.77 7  333 252 
 CBOC HN ES       1828 15.58                             109   -0.03 7  333 252 
 CBOC HZ I        1828 20.34         7.5 0.16            109            333 252 
 ANIL HZ EP   9   1827 44.17                             108    2.06 0  357 224 
 ANIL HE ES       1828 22.79                             108   -0.06 6  357 224 
 ANIL HZ I        1828 30.22        39.8 0.24            108            357 224 
 ORTC HZ EP       1827 46.43                             106    0.19 6  395 216 
 ORTC HN ES   4   1828 31.10                             106    2.95 0  395 216 
 ORTC HZ I        1828 36.95        11.7 0.20            106            395 216 
 PAL  HZ EP       1827 47.69                             105    0.22 6  405 239 
 PAL  HN ES   4   1828 29.15                             105   -1.19 0  405 239 
 PAL  HZ I        1828 35.52        11.9 0.24            106            405 239 
 SJC  HZ EP   4   1827 46.12                             105   -1.82 0  409 327 
 SJC  HN ES   4   1828 25.29                             105   -5.87 0  409 327 
 SJC  HZ I        1828 31.36         4.6 0.44            106            409 327 
                                                                                
