 2013  4 8 1039 31.2 L   6.876 -73.341122.2  RSN  7 0.4 1.8LRSN                1
 GAP=115        0.92       4.2    10.4  8.8  0.1641E+02  0.5842E+02  0.7468E+01E
 Epicentro: BETULIA - SANTANDER                                                3
 ACTION:UPD 13-05-22 14:36 OP:EP   STATUS:               ID:20130408103931 L   I
 2013-04-08-1037-51M.COL___221                                                 6
 STAT SP IPHASW D HRMM SECON CODA AMPLIT PERI AZIMU VELO AIN AR TRES W  DIS CAZ7
 GIR2 SZ EP       1039 48.03                             166    0.1010 27.7  36 
 GIR2 SZ ES       1040  1.37                             166    0.3510 27.7  36 
 GIR2 SZ I        1040  1.72        22.5 0.10            156           27.7  36 
 BAR2 SZ EP       1039 48.43                             162    0.0810 36.0 151 
 BAR2 SZ ES       1040  1.20                             162   -0.5510 36.0 151 
 BAR2 SZ I        1040  3.01        41.0 0.34            148           36.0 151 
 BRR  HZ EP       1039 49.19                             157    0.6810 48.3 302 
 BRR  HN ES   4   1040  3.18                             157    1.13 0 48.3 302 
 BRR  HZ I        1040  4.14        10.7 0.10            132           48.3 302 
 RUS  HZ EP       1039 53.67                             135    0.0010  112 165 
 RUS  HE ES   1   1040 11.21                             135   -0.02 7  112 165 
 RUS  HZ I        1040 12.64         3.1 0.21            126            112 165 
 PTB  HZ EP       1039 54.20                             130   -0.3010  129 253 
 PTB  HZ I        1040 16.44        13.8 0.16            113            129 253 
 OCA  HN ES   1   1040 16.23                             125   -0.55 7  151   1 
 OCA  HZ I        1040 17.99         7.6 0.32            120            151   1 
 SML  HN ES   1   1040 30.71                             114   -0.27 6  228 339 
                                                                                
