 2010  5 8 1732 59.8 L   6.592 -73.146120.0  RSN  4 0.5 1.3LRSN                1
 GAP=223        0.87      13.4    20.2 14.6  0.2087E+03  0.2389E+02  0.2283E+02E
 Epicentro: SAN GIL - SANTANDER                                                3
 ACTION:UP  10-08-24 10:03 OP:vdl  STATUS:               ID:20100508173259 L   I
 2010-05-08-1729-30S.COL___105                                                 6
 STAT SP IPHASW D HRMM SECON CODA AMPLIT PERI AZIMU VELO SNR AR TRES W  DIS CAZ7
 BAR2 SZ EP   1   1733 16.11                             178     0.0 7    4 270 
 RUS  HZ EP   2   1733 20.33                             145     0.9 5   78 175 
 RUS  HN ES   2   1733 34.14                             145    -0.5 5   78 175 
 RUS  HZ I        1733 40.17         2.4 0.41                            78 175 
 BRR  HZ EP   1   1733 18.69                             143    -0.5 7   85 312 
 BRR  HZ I        1733 33.36         9.2 0.34                            85 312 
 BRR  HN ES   1   1733 34.62                             143     0.3 7   85 312 
 HEL  HZ EP   2   1733 38.27                             110     0.0 4  267 261 
                                                                                
