 2014 12 8 1038 47.2 L   6.745 -73.483113.0  RSN 11 0.5 1.6LRSN                1
 GAP= 69        1.30       3.6     4.1  7.0  0.6043E+00  0.1045E+02 -0.3490E+01E
 Epicentro: EL CARMEN - SANTANDER                                              3
 ACTION:UPD 15-02-10 17:01 OP:nd   STATUS:               ID:20141208103847 L   I
 OLDACT:REG 14-12-08 20:19 OP:fm   STATUS:               ID:20141208102742     3
 2014-12-08-1027-42M.COL___300                                                 6
 STAT SP IPHASW D HRMM SECON CODA AMPLIT PERI AZIMU VELO AIN AR TRES W  DIS CAZ7
 BAR2 SZ EP       1039  3.83                             161    0.4810 37.3 117 
 BAR2 SZ ES       1039 16.60                             161    0.6310 37.3 117 
 BAR2 SZ I        1039 16.96        20.2 0.12            162           37.3 117 
 BRR  HZ EP       1039  3.78                             156    0.3210 47.3 328 
 BRR  HN ES       1039 16.64                             156    0.4810 47.3 328 
 BRR  HZ I        1039 17.19        17.9 0.34            155           47.3 328 
 RUS  HZ EP       1039  8.57                             135    0.3910  104 155 
 RUS  HE ES       1039 24.07                             135   -0.5010  104 155 
 RUS  HZ I        1039 26.18         4.8 0.28            136            104 155 
 PAM  SZ EP       1039  7.74                             133   -0.8410  109  53 
 PAM  SE ES       1039 24.76                             133   -0.5110  109  53 
 PAM  SZ I        1039 28.92         3.5 0.28            134            109  53 
 PTB  HZ IP     C 1039  7.62                             132   -0.4310  110 258 
 PTB  HE ES       1039 23.15                             132   -1.1810  110 258 
 PTB  HZ I        1039 24.26         3.5 0.22            133            110 258 
 SPBC HZ EP       1039 11.19                             126    0.44 9  137 208 
 SPBC HE ES       1039 29.00                             126   -0.13 9  137 208 
 SPBC HZ I        1039 34.99         6.6 0.52            127            137 208 
 ZAR  HZ EP       1039 14.81                             119    0.49 9  173 299 
 ZAR  HN ES       1039 35.89                             119    0.40 9  173 299 
 ZAR  HZ I        1039 40.32         7.6 0.32            119            173 299 
 HEL  HZ EP       1039 22.03                             111    0.42 8  234 255 
 SML  HZ EP       1039 21.53                             110    0.17 8  236 344 
 SML  HN ES       1039 47.89                             110   -0.14 8  236 344 
 SML  HZ I        1039 56.43         5.7 0.10            111            236 344 
 GUY2CHZ EP       1039 25.67                             108    0.09 8  268 231 
 MON  HZ EP       1039 31.86                             103   -0.36 7  329 313 
 MON  HN ES       1040  7.13                             103   -0.23 7  329 313 
 MON  HZ I        1040  9.18         1.8 0.34            104            329 313 
                                                                                
