 2010  1 8 1843 59.4 L   6.797 -73.058145.3  RSN 11 0.4 2.3LRSN                1
 GAP=132        0.83       3.0     6.1  5.8 -0.8199E+01  0.5022E+01  0.1183E+01E
 Epicentro: LOS SANTOS - SANTANDER                                             3
 ACTION:UP  10-08-24 09:43 OP:vdl  STATUS:               ID:20100108184359 L   I
 2010-01-08-1842-34S.COL___097                                                 6
 STAT SP IPHASW D HRMM SECON CODA AMPLIT PERI AZIMU VELO SNR AR TRES W  DIS CAZ7
 BAR2 SZ IP       1844 19.21                             169     0.210   27 211 
 BAR2 SZ ES   1   1844 34.22                             169    -0.2 7   27 211 
 RUS  BZ EP       1844 23.19                             144     0.110  100 182 
 RUS  BN ES   1   1844 41.91                             144     0.4 7  100 182 
 RUS  BZ I        1844 43.18        20.6 0.32                           100 182 
 GUE  SZ IP       1844 24.15                             140     0.210  115   7 
 GUE  SZ ES   1   1844 43.68                             140     0.5 7  115   7 
 GRA  SZ IP       1844 23.98                             138    -0.510  124  13 
 GRA  SZ ES   1   1844 43.29                             138    -0.7 7  124  13 
 OCA  SZ EP   1   1844 27.92                             129     0.1 7  162 350 
 OCA  SZ ES   1   1844 49.91                             129    -0.1 7  162 350 
 CHI  HZ EP       1844 37.38                             117     0.0 8  251 197 
 CHI  HE ES   1   1845  6.50                             117    -0.4 6  251 197 
 CHI  HZ I        1845 10.47        15.4 0.58                           251 197 
 HEL  HN ES   1   1845 13.12                             114     0.3 6  281 256 
 HEL  HZ I        1845 17.78        10.5 0.36                           281 256 
 DBB  SZ EP   1   1844 47.38                             109    -0.6 5  349 274 
 TOL  SZ EP   1   1844 49.56                             109     1.2 5  350 226 
 SDV  BZ IP       1844 48.79                             109     0.2 6  353  49 
 PRA  HZ EP   1   1844 52.99                             106    -0.5 4  397 211 
 PRA  HE ES   1   1845 34.84                             106    -0.7 4  397 211 
                                                                                
