 2017  8 8 1152 23.5 L   6.840 -73.139140.4  RSN  8 0.7 1.5LRSN                1
 GAP=242        1.20       6.5     6.5  7.7  0.4671E+01  0.9113E+01  0.1189E+02E
 Epicentro: LOS SANTOS - SANTANDER                                             3
 ACTION:UPD 17-09-04 20:17 OP:rebc STATUS:               ID:20170808115223 L   I
 OLDACT:REG 17-08-08 21:45 OP:mg   STATUS:               ID:20170808114737     3
 2017-08-08-1148-00M.COL___384                                                 6
 STAT SP IPHASW D HRMM SECON CODA AMPLIT PERI AZIMU VELO AIN AR TRES W  DIS CAZ7
 BAR2 EZ IP     D 1152 42.54                             169   -0.0510 27.8 190 
 BAR2 EZ ES       1152 57.42                             169   -0.0610 27.8 190 
 BAR2 EZ I        1152 58.92         6.6 0.17            164           27.8 190 
 BRR  HZ IP     D 1152 44.32                             152    0.3210 69.9 295 
 BRR  HN ES       1153  0.38                             152    0.3910 69.9 295 
 BRR  HZ I        1153  3.95         8.3 0.22            151           69.9 295 
 RUS  HZ IP     C 1152 46.97                             142   -0.0910  105 177 
 RUS  HE ES       1153  5.74                             142    0.3110  105 177 
 RUS  HZ I        1153  6.28         5.1 0.22            141            105 177 
 PTB  HZ EP       1152 49.57                             131   -0.62 9  149 257 
 PTB  HN ES       1153 10.33                             131   -0.68 9  149 257 
 PTB  HZ I        1153 12.42         3.2 0.10            130            149 257 
 SPBC HZ IP     C 1152 51.83                             127   -0.14 9  167 218 
 SPBC HN ES       1153 13.96                             127   -0.22 9  167 218 
 SPBC HZ I        1153 20.55         3.9 0.09            127            167 218 
 NOR  HZ EP       1152 59.80                             117    0.53 8  238 234 
 NOR  HN ES       1153 26.90                             117   -0.27 8  238 234 
 NOR  HZ I        1153 32.82         2.6 0.22            117            238 234 
 CHI  HZ EP       1153  1.56                             116    0.16 8  253 195 
 CHI  HN ES   3   1153 28.71                             116   -2.24 2  253 195 
 CHI  HZ I        1153 35.01         1.2 0.06            116            253 195 
 GUY2CHZ EP   4   1153  9.26                             111    2.03 0  304 234 
 GUY2CHN ES   2   1153 44.64                             111    3.31 4  304 234 
 GUY2CHZ I        1153 52.88         1.6 0.38                           304 234 
                                                                                
