 2015  9 8 1751  8.9 L   6.787 -73.172147.4  RSN  7 0.5 1.9LRSN                1
 GAP=134        1.19       5.7     6.6  8.0 -0.6936E+00  0.2408E-02 -0.9488E+01E
 Epicentro: LOS SANTOS - SANTANDER                                             3
 ACTION:UPD 15-10-28 16:25 OP:cam  STATUS:               ID:20150908175108 L   I
 OLDACT:REG 15-09-08 21:39 OP:stll STATUS:               ID:20150908174749     3
 2015-09-08-1747-49M.COL___359                                                 6
 STAT SP IPHASW D HRMM SECON CODA AMPLIT PERI AZIMU VELO AIN AR TRES W  DIS CAZ7
 BAR2 EZ EP       1751 28.80                             171    0.1010 21.6 183 
 BAR2 EZ ES       1751 43.62                             171   -0.5210 21.6 183 
 BAR2 EZ I        1751 46.37        13.9 0.42            170           21.6 183 
 BRR  HZ EP       1751 30.53                             153    0.4010 69.3 301 
 BRR  HN ES       1751 47.52                             153    0.8310 69.3 301 
 PAM  EZ EP       1751 31.52                             150    0.0410 80.4  41 
 RUS  HZ EP       1751 33.06                             144    0.3210 99.4 174 
 RUS  HN ES       1751 51.01                             144   -0.3110 99.4 174 
 RUS  HZ I        1751 54.13         5.3 0.32            146           99.4 174 
 PTB  HZ EP       1751 35.57                             133   -0.15 9  145 259 
 PTB  HN ES       1751 56.09                             133   -0.55 9  145 259 
 PTB  HZ I        1752  3.74        13.0 0.36            132            145 259 
 SPBC HZ EP       1751 37.64                             130    0.39 9  160 218 
 SPBC HZ I        1751 39.70        12.3 0.10            130            160 218 
 SPBC HN ES       1751 59.42                             130    0.06 9  160 218 
 SML  HZ EP       1751 44.65                             118   -0.98 8  244 336 
 SML  HN ES   4   1752 11.68                             118   -2.60 0  244 336 
 SML  HZ I        1752 16.83        10.6 0.22            119            244 336 
                                                                                
