 2010  9 8 1744 28.7 L   6.747 -73.180154.7  RSN  6 0.4 1.7LRSN                1
 GAP=155        0.77       5.9    13.1  9.1 -0.5392E+01 -0.2844E+02 -0.6858E+01E
 Epicentro: VILLANUEVA - SANTANDER                                             3
 ACTION:UP  11-02-18 11:01 OP:tino STATUS:               ID:20100908174428 L   I
 2010-09-08-1740-36S.COL___120                                                 6
 STAT SP IPHASW D HRMM SECON CODA AMPLIT PERI AZIMU VELO SNR AR TRES W  DIS CAZ7
 BAR2 SZ EP   1   1744 49.09                             173    -0.2 7   17 181 
 BAR2 SZ ES   2   1745  5.29                             173    -0.1 5   17 181 
 BAR2 SZ I        1745  5.96         9.1 0.28                            17 181 
 GIR2 SZ EP   1   1744 49.26                             166    -0.3 7   37 358 
 GIR2 SZ ES   2   1745  5.75                             166    -0.1 5   37 358 
 BRR  HZ EP   1   1744 51.01                             154     0.2 7   71 304 
 BRR  HZ I        1744 51.30        16.2 0.18                            71 304 
 BRR  HE ES   2   1745  8.23                             154     0.2 5   71 304 
 RUS  HZ EP   1   1744 53.23                             147     0.3 7   95 174 
 RUS  HN ES   2   1745 11.95                             147     0.0 5   95 174 
 RUS  HZ I        1745 14.50         5.4 0.57                            95 174 
 GUE  SZ EP   1   1744 54.10                             140    -0.7 7  123  13 
 GRA  SZ EP   1   1744 55.93                             137     0.6 7  133  18 
 GRA  SZ ES   2   1745 16.43                             137     0.4 5  133  18 
 GRA  SZ I        1745 17.21         6.6 0.27                           133  18 
                                                                                
