 2013  6 8 1116 15.1 L   6.807 -73.154144.1  RSN  8 0.4 1.7LRSN                1
 GAP=196        0.99       3.9     5.3  5.5 -0.2022E+01  0.8668E+01  0.1954E+01E
 Epicentro: LOS SANTOS - SANTANDER                                             3
 ACTION:UPD 14-01-08 09:53 OP:ep   STATUS:               ID:20130608111615 L   I
 OLDACT:REG 13-06-08 15:53 OP:nd   STATUS:               ID:20130608110959     3
 2013-06-08-1109-59M.COL___261                                                 6
 STAT SP IPHASW D HRMM SECON CODA AMPLIT PERI AZIMU VELO AIN AR TRES W  DIS CAZ7
 BAR2 SZ EP     D 1116 34.46                             170   -0.0710 23.9 188 
 BAR2 SZ ES       1116 49.16                             170   -0.5310 23.9 188 
 BAR2 SZ I        1116 50.65        11.7 0.14            172           23.9 188 
 GIR2 SZ EP       1116 34.33                             167   -0.2110 30.4 352 
 GIR2 SZ ES       1116 50.45                             167    0.7410 30.4 352 
 GIR2 SZ I        1116 59.45         4.3 0.58            163           30.4 352 
 BRR  HZ IP     C 1116 36.32                             153    0.3310 70.0 298 
 BRR  HN ES       1116 52.36                             153    0.0710 70.0 298 
 BRR  HZ I        1116 59.43         7.5 0.64            149           70.0 298 
 PTB  HZ EP       1116 41.32                             132   -0.53 9  147 258 
 PTB  HN ES       1117  2.38                             132   -0.34 9  147 258 
 PTB  HZ I        1117  3.49         6.9 0.44            132            147 258 
 ZAR  HZ EP       1116 47.55                             122    0.24 9  203 292 
 ZAR  HN ES       1117 12.91                             122    0.47 9  203 292 
 ZAR  HZ I        1117 21.65         4.8 0.26            123            203 292 
 NOR  HZ EP       1116 50.71                             118    0.03 8  234 234 
 NOR  HN ES       1117 18.19                             118   -0.26 8  234 234 
 NOR  HZ I        1117 23.85         4.3 0.24            120            234 234 
 SML  HZ EP       1116 51.18                             117   -0.32 8  243 335 
 SML  HN ES       1117 19.57                             117   -0.34 8  243 335 
 SML  HZ I        1117 30.13         5.6 0.10            118            243 335 
 PRA  HZ EP       1117  9.41                             106    0.84 6  392 209 
 PRA  HN ES       1117 50.85                             106    0.56 6  392 209 
 PRA  HZ I        1117 57.20         2.7 0.24            109            392 209 
                                                                                
