 2013  6 8 1910 18.2 L   6.842 -73.155139.8  RSN  6 0.5 1.7LRSN                1
 GAP=185        1.38       6.1     8.8  8.6  0.1603E+02  0.7917E+01 -0.8845E+01E
 Epicentro: LOS SANTOS - SANTANDER                                             3
 ACTION:UPD 14-01-08 09:53 OP:ep   STATUS:               ID:20130608191018 L   I
 OLDACT:REG 13-06-08 16:40 OP:nd   STATUS:               ID:20130608190959     3
 2013-06-08-1909-59M.COL___261                                                 6
 STAT SP IPHASW D HRMM SECON CODA AMPLIT PERI AZIMU VELO AIN AR TRES W  DIS CAZ7
 GIR2 SZ EP       1910 37.18                             169    0.1010 26.5 351 
 GIR2 SZ ES       1910 51.78                             169    0.0010 26.5 351 
 GIR2 SZ I        1910 55.10         8.6 0.14            165           26.5 351 
 BAR2 SZ EP       1910 37.27                             168    0.0110 27.8 186 
 BAR2 SZ ES       1910 51.58                             168   -0.5210 27.8 186 
 BAR2 SZ I        1910 52.89        14.3 0.32            172           27.8 186 
 BRR  HZ IP     C 1910 39.08                             152    0.5010 68.2 295 
 BRR  HN ES       1910 55.42                             152    0.9810 68.2 295 
 BRR  HZ I        1911  0.03        11.0 0.24            151           68.2 295 
 RUS  HZ EP       1910 42.56                             141    0.7910  105 176 
 RUS  HN ES       1910 59.43                             141   -0.6910  105 176 
 RUS  HZ I        1911  1.42         2.7 0.42            146            105 176 
 PTB  HZ EP       1910 44.54                             130   -0.19 9  148 257 
 PTB  HN ES       1911  5.13                             130   -0.26 9  148 257 
 PTB  HZ I        1911  7.74        10.9 0.12            132            148 257 
 SML  HZ EP       1910 53.59                             117   -0.44 8  239 335 
 SML  HN ES       1911 21.16                             117   -0.78 8  239 335 
 SML  HZ I        1911 28.94         7.9 0.10            118            239 335 
                                                                                
