 2013  3 8 1405 32.1 L   6.707 -73.195148.4  RSN  5 0.4 1.9LRSN                1
 GAP=224        1.01       7.6     7.0  7.3  0.3304E+02  0.8072E+01 -0.3537E+01E
 Epicentro: VILLANUEVA - SANTANDER                                             3
 ACTION:UPD 13-04-09 14:00 OP:ep   STATUS:               ID:20130308140532 L   I
 2013-03-08-1400-00M.COL___231                                                 6
 STAT SP IPHASW D HRMM SECON CODA AMPLIT PERI AZIMU VELO AIN AR TRES W  DIS CAZ7
 BAR2 SZ IP     C 14 5 51.40                             175   -0.5310 12.7 174 
 BAR2 SZ ES       14 6  7.19                             175   -0.1810 12.7 174 
 BAR2 SZ I        14 6  8.01        12.9 0.18            175           12.7 174 
 BRR  HZ EP       14 5 53.46                             153   -0.1810 72.3 308 
 BRR  HN ES       14 6 10.66                             153    0.2510 72.3 308 
 BRR  HN I        14 6 14.70        17.0 0.16            150           72.3 308 
 RUS  HZ EP       14 5 55.72                             147    0.2310 90.9 172 
 RUS  HN ES       14 6 14.12                             147    0.4210 90.9 172 
 RUS  HN I        14 6 15.21        14.5 0.30            151           90.9 172 
 PTB  HZ EP       14 5 58.20                             134   -0.51 9  141 263 
 PTB  HN ES       14 6 19.13                             134   -0.30 9  141 263 
 PTB  HN I        14 6 21.52        13.1 0.22            134            141 263 
 ZAR  HZ EP       14 6  5.45                             123    0.77 9  203 295 
 ZAR  HN ES       14 6 30.27                             123    0.21 9  203 295 
 ZAR  HN I        14 6 39.05         9.7 0.34            123            203 295 
                                                                                
