 2013 12 8 1627 58.6 L   6.750 -73.140150.1  RSN  7 0.3 1.6LRSN                1
 GAP=140        0.85       4.3     4.0  6.3  0.1526E+01  0.4384E+01  0.8642E+00E
 Epicentro: LOS SANTOS - SANTANDER                                             3
 ACTION:UPD 14-01-13 10:16 OP:ep   STATUS:               ID:20131208162758 L   I
 OLDACT:UP  13-12-08 16:43 OP:cam  STATUS:               ID:20131208162001d    3
 OLDACT:DUP 13-12-08 16:39 OP:cam  STATUS:               ID:20131208162001d    3
 OLDACT:UP  13-12-08 16:38 OP:cam  STATUS:               ID:20131208162000     3
 OLDACT:REG 13-12-08 14:30 OP:cam  STATUS:               ID:20131208162000     3
 2013-12-08-1620-00M.COL___285                                                 6
 STAT SP IPHASW D HRMM SECON CODA AMPLIT PERI AZIMU VELO AIN AR TRES W  DIS CAZ7
 BAR2 SZ ES       1628 34.30                             173   -0.0510 18.1 195 
 BAR2 SZ I        1628 34.92        12.8 0.32            171           18.1 195 
 BRR  HZ EP       1628 20.65                             152    0.2010 74.6 302 
 BRR  HN ES       1628 38.18                             152    0.7210 74.6 302 
 BRR  HZ I        1628 42.46         4.8 0.14            147           74.6 302 
 PAM  SZ EP       1628 21.53                             150   -0.0310 81.3  37 
 PAM  SN ES       1628 39.02                             150   -0.4110 81.3  37 
 PAM  SE I        1628 40.93         5.7 0.38            152           81.3  37 
 RUS  HZ EP       1628 22.63                             146    0.1910 95.0 176 
 RUS  HN ES       1628 41.00                             146    0.0010 95.0 176 
 RUS  HZ I        1628 41.98         2.7 0.32            149           95.0 176 
 PTB  HZ EP   1   1628 25.56                             133   -0.38 7  147 261 
 PTB  HN ES       1628 46.74                             133   -0.49 9  147 261 
 PTB  HZ I        1628 52.65         5.8 0.40            131            147 261 
 ZAR  HN ES       1628 57.32                             123   -0.09 8  207 293 
 ZAR  HZ I        1629  7.60         4.7 0.32            122            207 293 
 CHI  HZ EP   2   1628 36.44                             119    0.41 4  243 196 
 SML  HE ES   4   1629  3.63                             118   -1.67 0  249 336 
 SJC  HZ EP   4   1628 53.03                             106   -1.91 0  414 327 
                                                                                
