 2013  5 8 1137  0.6 L   6.784 -73.189145.9  RSN  5 0.4 1.7LRSN                1
 GAP=174        0.75       6.3     5.4  7.1  0.7778E+01  0.5280E+01  0.7883E+01E
 Epicentro: LOS SANTOS - SANTANDER                                             3
 ACTION:UPD 13-06-20 09:48 OP:ep   STATUS:               ID:20130508113700 L   I
 2013-05-08-1130-00M.COL___256                                                 6
 STAT SP IPHASW D HRMM SECON CODA AMPLIT PERI AZIMU VELO AIN AR TRES W  DIS CAZ7
 BAR2 SZ EP       1137 20.11                             171   -0.1510 21.3 178 
 BAR2 SZ ES   1   1137 34.87                             171   -0.68 7 21.3 178 
 BAR2 SZ I        1137 36.30        17.6 0.16            169           21.3 178 
 GIR2 SZ EP   2   1137 20.28                             167   -0.09 5 32.5 359 
 GIR2 SZ ES   1   1137 35.77                             167    0.01 7 32.5 359 
 BRR  HZ EP   1   1137 21.96                             154    0.33 7 67.9 302 
 BRR  HN ES   1   1137 38.50                             154    0.50 7 67.9 302 
 BRR  HZ I        1137 42.56        11.7 0.28            149           67.9 302 
 RUS  HZ EP   1   1137 24.25                             144   -0.07 7 99.3 173 
 RUS  HZ I        1137 25.35         6.7 0.18            145           99.3 173 
 RUS  HN ES   1   1137 43.40                             144    0.61 7 99.3 173 
 PTB  HZ EP   1   1137 27.04                             133   -0.14 7  143 259 
 PTB  HN ES       1137 47.70                             133   -0.17 9  143 259 
 PTB  HZ I        1137 53.92         5.7 0.14            131            143 259 
                                                                                
