 2012 11 8 1424 33.9 L   6.743 -73.215148.1  RSN  6 0.2 2.2LRSN                1
 GAP=222        0.47       3.4     3.8  4.6  0.7009E+01  0.3785E+01  0.3042E+01E
 Epicentro: VILLANUEVA - SANTANDER                                             3
 ACTION:UPD 12-12-05 15:32 OP:}ep  STATUS:               ID:20121108142433 L   I
 OLDACT:REG 12-11-08 18:39 OP:carl STATUS:               ID:20121108142000     3
 2012-11-08-1420-00M.COL___228                                                 6
 STAT SP IPHASW D HRMM SECON CODA AMPLIT PERI AZIMU VELO AIN AR TRES W  DIS CAZ7
 BAR2 SZ EP   1   1424 53.58                             173   -0.15 7 17.1 168 
 BAR2 SZ ES   1   1425  9.05                             173   -0.12 7 17.1 168 
 BAR2 SZ I        1425 12.23        15.6 0.56                          17.1 168 
 BRR  HZ EP   1   1424 55.37                             154    0.21 7 68.1 306 
 BRR  HN ES   1   1425 11.90                             154    0.18 7 68.1 306 
 BRR  HN I        1425 16.11        53.2 0.16                          68.1 306 
 RUS  HZ EP       1424 57.75                             146    0.2210 95.2 171 
 RUS  HN ES   1   1425 15.76                             146   -0.18 7 95.2 171 
 RUS  HN I        1425 17.12        13.8 0.20                          95.2 171 
 PTB  HZ EP       1425  0.09                             134   -0.23 9  139 261 
 PTB  HE ES   1   1425 21.16                             134    0.26 7  139 261 
 PTB  HE I        1425 23.50        15.3 0.10                           139 261 
 ZAR  HN ES   1   1425 30.86                             124   -0.27 6  200 295 
 ZAR  HN I        1425 36.64        28.6 0.30                           200 295 
 ZAR  HZ I        1425 36.81        17.2 0.40                           200 295 
 CHI  HN ES   1   1425 39.74                             118    0.02 6  241 194 
 CHI  HN I        1425 47.14        12.8 0.46                           241 194 
                                                                                
