 2010 11 8 1408 29.3 L   6.740 -73.123125.6  RSN  5 0.3 2.2LRSN                1
 GAP=216        0.77       4.8     7.1  6.7  0.1402E+02  0.9244E+01  0.6136E+01E
 Epicentro: JORDAN - SANTANDER                                                 3
 ACTION:UP  10-12-17 16:51 OP:REBC STATUS:               ID:20101108140829 L   I
 2010-11-08-1404-53S.COL___128                                                 6
 STAT SP IPHASW D HRMM SECON CODA AMPLIT PERI AZIMU VELO SNR AR TRES W  DIS CAZ7
 BAR2 SZ EP       14 8 46.44                             172     0.110   18 202 
 BAR2 SZ ES   1   14 8 59.98                             172     0.3 7   18 202 
 BAR2 SZ I        14 9  3.21        45.5 0.22                            18 202 
 BTL  SZ EP       14 8 46.98                             168     0.510   25 321 
 BRR  HZ EP       14 8 48.26                             147    -0.410   77 302 
 BRR  HZ I        14 8 48.48        52.3 0.12                            77 302 
 BRR  HN ES       14 9  3.62                             147    -0.110   77 302 
 RUS  HZ EP       14 8 50.45                             141    -0.110   94 177 
 RUS  HN ES       14 9  6.96                             141    -0.210   94 177 
 RUS  HZ I        14 9  8.64        12.6 0.10                            94 177 
 RREF HZ EP   1   14 9 14.38                             107     0.0 5  319 231 
 RREF HN ES   1   14 9 49.80                             107     0.3 5  319 231 
 RREF HZ I        14 9 53.79         7.9 0.56                           319 231 
                                                                                
