 2015 11 8 1829  0.0 L   6.778 -73.107148.7  RSN  5 0.2 1.5LRSN                1
 GAP=143        0.56       2.8     3.9  4.2 -0.3463E+01  0.1217E+01  0.1576E+01E
 Epicentro: LOS SANTOS - SANTANDER                                             3
 ACTION:UPD 15-12-28 16:09 OP:cam  STATUS:               ID:20151108182900 L   I
 OLDACT:REG 15-11-08 20:38 OP:ar   STATUS:               ID:20151108182750     3
 2015-11-08-1827-50M.COL___310                                                 6
 STAT SP IPHASW D HRMM SECON CODA AMPLIT PERI AZIMU VELO AIN AR TRES W  DIS CAZ7
 BAR2 EZ ES       1829 35.74                             171    0.2010 22.2 202 
 BRR  HZ EP       1829 21.71                             151   -0.0510 76.2 299 
 BRR  HN ES       1829 38.46                             151   -0.2710 76.2 299 
 PAM  EZ EP       1829 22.55                             152    0.0510 76.7  36 
 PAM  EN ES       1829 40.20                             152    0.1610 76.7  36 
 PAM  EZ I        1829 41.92         3.5 0.54            152           76.7  36 
 RUS  HZ EP       1829 23.73                             145   -0.1310 97.9 178 
 RUS  HE ES       1829 42.18                             145   -0.2910 97.9 178 
 RUS  HZ I        1829 42.99         3.5 0.36            146           97.9 178 
 SPBC HZ EP       1829 28.88                             130    0.06 9  164 221 
 SPBC HN ES       1829 51.63                             130    0.34 9  164 221 
 SPBC HZ I        1829 53.52         8.5 0.36            130            164 221 
                                                                                
