 2014 11 8 1438 48.8 L   6.805 -73.155141.8  RSN 10 0.4 2.1LRSN                1
 GAP=135        0.97       4.0     4.2  5.5 -0.5145E+01  0.4234E+01  0.7532E+01E
 Epicentro: LOS SANTOS - SANTANDER                                             3
 ACTION:UPD 14-12-19 15:40 OP:nd   STATUS:               ID:20141108143848 L   I
 OLDACT:REG 14-11-08 22:38 OP:carl STATUS:               ID:20141108143750     3
 2014-11-08-1437-50M.COL___295                                                 6
 STAT SP IPHASW D HRMM SECON CODA AMPLIT PERI AZIMU VELO AIN AR TRES W  DIS CAZ7
 BAR2 SZ EP       1439  7.85                             170   -0.0910 23.7 187 
 BAR2 SZ ES       1439 22.43                             170   -0.4510 23.7 187 
 BAR2 SZ I        1439 23.95        52.0 0.26            169           23.7 187 
 BRR  HN ES       1439 26.04                             152    0.5010 70.0 299 
 BRR  HZ I        1439 29.92        24.6 0.44            152           70.0 299 
 PAM  SZ EP       1439 10.84                             150    0.2510 77.6  40 
 PAM  SN ES       1439 27.69                             150    0.0910 77.6  40 
 PAM  SZ I        1439 29.97        33.1 0.48            154           77.6  40 
 RUS  HZ EP       1439 11.93                             143   -0.2610  101 175 
 RUS  HN ES       1439 30.87                             143    0.4210  101 175 
 RUS  HZ I        1439 31.36        13.7 0.24            144            101 175 
 PTB  HZ EP       1439 14.90                             131   -0.44 9  147 259 
 PTB  HN ES       1439 35.44                             131   -0.62 9  147 259 
 PTB  HZ I        1439 37.64        12.4 0.16            131            147 259 
 SPBC HZ EP       1439 16.76                             128   -0.20 9  163 219 
 SPBC HN ES       1439 38.92                             128   -0.01 9  163 219 
 SPBC HZ I        1439 43.20        16.5 0.24            129            163 219 
 NOR  HZ EP       1439 24.02                             118   -0.21 8  234 234 
 NOR  HE ES       1439 51.92                             118    0.05 8  234 234 
 NOR  HZ I        1439 59.80        10.6 0.16            119            234 234 
 CHI  HZ EP       1439 26.11                             116   -0.18 8  249 195 
 CHI  HN ES       1439 55.42                             116   -0.13 8  249 195 
 CHI  HZ I        1439 58.84         9.9 0.50            118            249 195 
 GUY2CHZ EP       1439 33.15                             112    1.00 7  301 235 
 GUY2CHN ES       1440  6.76                             112    0.79 7  301 235 
 GUY2CHZ I        1440 12.03         5.6 0.32                           301 235 
 PRA  HZ EP       1439 41.70                             106   -0.47 6  392 209 
 PRA  HN ES       1440 24.33                             106    0.53 6  392 209 
 PRA  HZ I        1440 29.79         5.1 0.36            107            392 209 
                                                                                
