 2016  9 8 1526 54.3 L   6.797 -73.182144.7  RSN  4 0.2 1.5LRSN                1
 GAP=132        0.67       3.6     4.2  6.2  0.1142E+01  0.6681E+01 -0.1695E+01E
 Epicentro: ZAPATOCA - SANTANDER                                               3
 ACTION:UPD 17-08-17 21:08 OP:lp   STATUS:               ID:20160908152654 L   I
 OLDACT:DUP 16-09-09 00:41 OP:lv   STATUS:               ID:20160908151741d    3
 2016-09-08-1518-00M.COL___353                                                 6
 STAT SP IPHASW D HRMM SECON CODA AMPLIT PERI AZIMU VELO AIN AR TRES W  DIS CAZ7
 BAR2 EZ EP       1527 13.67                             171   -0.0910 22.7 180 
 BAR2 EZ ES       1527 28.68                             171   -0.2810 22.7 180 
 BAR2 EZ I        1527 29.95         6.9 0.22            171           22.7 180 
 PAM  EZ EP       1527 16.75                             150    0.2010 80.2  42 
 PAM  EN ES       1527 33.94                             150    0.0210 80.2  42 
 PAM  EZ I        1527 35.87         6.1 0.54            152           80.2  42 
 RUS  HZ EP       1527 17.60                             144   -0.3210  101 174 
 RUS  HE ES       1527 36.77                             144    0.4010  101 174 
 RUS  HZ I        1527 37.59         3.4 0.32            147            101 174 
 ZAR  HN ES       1527 51.34                             123    0.10 9  200 293 
 ZAR  HZ I        1527 58.44         3.5 0.11            122            200 293 
                                                                                
