 2012  7 8 1130 47.6 L   6.788 -73.150150.0  RSN 10 0.4 2.4LRSN                1
 GAP=136        0.93       4.2     5.7  6.9 -0.2431E+01  0.9950E+01  0.9248E+00E
 Epicentro: LOS SANTOS - SANTANDER                                             3
 ACTION:UPD 12-08-14 11:43 OP:ep   STATUS:               ID:20120708113048dL   I
 2012-07-08-1130-00M.COL___201                                                 6
 STAT SP IPHASW D HRMM SECON CODA AMPLIT PERI AZIMU VELO AIN AR TRES W  DIS CAZ7
 BAR2 SZ EP       1131  7.94                             171     0.210   22 189 
 BAR2 SZ ES   1   1131 23.14                             171    -0.3 7   22 189 
 BAR2 SZ I        1131 24.57        75.7 0.40                            22 189 
 BRR  HZ EP   1   1131  9.82                             153     0.6 7   71 300 
 BRR  HN ES   1   1131 26.83                             153     0.7 7   71 300 
 BRR  HZ I        1131 30.58        38.1 0.29                            71 300 
 PAM  SZ EP   1   1131 10.72                             151     0.3 7   79  39 
 PAM  SN ES   1   1131 28.07                             151    -0.1 7   79  39 
 RUS  HZ EP   1   1131 11.76                             145     0.0 7   99 176 
 RUS  HN ES   1   1131 29.88                             145    -0.6 7   99 176 
 RUS  HZ I        1131 32.02        23.7 0.32                            99 176 
 OCA  HZ EP   1   1131 15.93                             130    -0.5 7  161 353 
 OCA  HN ES   1   1131 38.71                             130    -0.1 7  161 353 
 ZAR  HN ES   1   1131 45.39                             123    -0.5 6  204 293 
 NOR  SZ EP   1   1131 23.85                             119     0.4 6  234 235 
 NOR  SN ES   1   1131 51.30                             119    -0.2 6  234 235 
 CHI  HZ EP   1   1131 25.86                             118     0.4 6  247 195 
 CHI  HZ I        1132  3.80        16.4 0.54                           247 195 
 HEL  HZ EP   1   1131 27.67                             116    -0.3 6  271 256 
 HEL  HZ I        1132  6.14        13.8 0.28                           271 256 
 COD  HZ EP   1   1131 35.58                             109    -0.7 5  349 355 
 COD  HZ I        1131 38.21        11.1 0.54                           349 355 
