 2012  4 8 1422 59.0 L   6.778 -73.159143.2  RSN  5 0.3 1.9LRSN                1
 GAP=136        0.74       5.4     5.9  7.3 -0.3458E+01 -0.4232E+01  0.5940E+01E
 Epicentro: LOS SANTOS - SANTANDER                                             3
 ACTION:UPD 12-07-05 11:51 OP:tino STATUS:               ID:20120408142259 L   I
 2012-04-08-1420-00M.COL___196                                                 6
 STAT SP IPHASW D HRMM SECON CODA AMPLIT PERI AZIMU VELO AIN AR TRES W  DIS CAZ7
 BAR2 SZ EP       1423 18.17                             171    -0.110   21 187 
 BAR2 SZ ES   1   1423 33.05                             171    -0.3 7   21 187 
 BAR2 SZ I        1423 34.21        13.5 0.74                            21 187 
 BRR  HZ IP     C 1423 19.86                             152     0.010   71 301 
 BRR  HZ I        1423 19.90        20.3 0.14                            71 301 
 BRR  HE ES   1   1423 36.73                             152     0.6 7   71 301 
 PAM  SZ IP       1423 21.09                             150     0.010   80  39 
 PAM  SN ES   1   1423 38.13                             150    -0.2 7   80  39 
 RUS  HZ EP       1423 22.61                             144     0.310   98 175 
 RUS  HN ES   2   1423 40.80                             144     0.3 5   98 175 
 PTB  HN ES   2   1423 45.46                             132    -0.9 5  146 260 
                                                                                
