 2017  2 8 1545 10.2 L   6.759 -73.137146.0  RSN  5 0.2 1.6LRSN                1
 GAP=235        0.42       3.3     3.1  3.6  0.6382E+01  0.6489E+00 -0.7726E+00E
 Epicentro: LOS SANTOS - SANTANDER                                             3
 ACTION:UPD 17-05-24 15:34 OP:jn   STATUS:               ID:20170208154510 L   I
 OLDACT:UP  17-02-08 22:38 OP:and  STATUS:               ID:20170208153747     3
 OLDACT:REG 17-02-08 20:28 OP:and  STATUS:               ID:20170208153747     3
 2017-02-08-1538-00M.COL___349                                                 6
 STAT SP IPHASW D HRMM SECON CODA AMPLIT PERI AZIMU VELO AIN AR TRES W  DIS CAZ7
 BAR2 EZ EP       1545 29.74                             172   -0.0910 19.1 195 
 BAR2 EZ ES       1545 45.03                             172   -0.0710 19.1 195 
 BAR2 EZ I        1545 46.75         7.3 0.24            172           19.1 195 
 BRR  HZ EP       1545 31.69                             151    0.1010 74.3 301 
 BRR  HN ES       1545 48.31                             151    0.0610 74.3 301 
 RUS  HZ EP       1545 33.87                             145    0.1810 96.0 176 
 RUS  HN ES       1545 51.91                             145   -0.0710 96.0 176 
 RUS  HZ I        1545 53.03         7.5 0.36            146           96.0 176 
 PTB  HZ EP   2   1545 36.65                             132   -0.59 5  148 261 
 PTB  HN ES       1545 58.41                             132    0.11 9  148 261 
 PTB  HZ I        1545 59.58         4.5 0.14            131            148 261 
 ZAR  HN ES       1546  8.39                             122   -0.11 8  207 293 
 ZAR  HZ I        1546 14.34         5.6 0.24            122            207 293 
                                                                                
