 2010  9 8 1009 24.5 L   6.804 -73.028139.9  RSN  6 0.4 1.5LRSN                1
 GAP=172        0.81       5.7    12.8 10.1 -0.8672E+01 -0.4384E+02 -0.5572E+01E
 Epicentro: CEPITA - SANTANDER                                                 3
 ACTION:UP  11-02-18 11:01 OP:tino STATUS:               ID:20100908100924 L   I
 2010-09-08-1006-55S.COL___120                                                 6
 STAT SP IPHASW D HRMM SECON CODA AMPLIT PERI AZIMU VELO SNR AR TRES W  DIS CAZ7
 BAR2 SZ EP   1   10 9 43.75                             168     0.2 7   29 216 
 BAR2 SZ ES   2   10 9 58.21                             168    -0.2 5   29 216 
 BAR2 SZ I        1010  0.16         7.5 0.39                            29 216 
 GIR2 SZ EP   1   10 9 43.78                             165     0.2 7   35 329 
 GIR2 SZ ES   2   10 9 58.81                             165     0.3 5   35 329 
 BRR  HZ EP   1   10 9 45.55                             148    -0.2 7   83 294 
 BRR  HZ I        10 9 45.91        11.4 0.09                            83 294 
 BRR  HE ES   2   1010  2.25                             148    -0.1 5   83 294 
 RUS  HZ EP   1   10 9 47.96                             142     0.2 7  101 183 
 RUS  HN ES   2   1010  5.39                             142    -0.4 5  101 183 
 RUS  HZ I        1010  7.80         2.0 0.39                           101 183 
 GUE  SZ EP   1   10 9 49.04                             139     0.6 7  114   6 
 GRA  SZ EP   1   10 9 48.10                             137    -0.8 7  122  12 
 GRA  SZ ES   2   1010  8.09                             137     0.1 5  122  12 
 GRA  SZ I        1010  8.92         5.3 0.27                           122  12 
                                                                                
