 2012  8 8 1732 12.5 L   6.665 -73.195167.4  RSN  4 0.4 1.6LRSN                1
 GAP=221        0.74      10.7    10.5 10.8  0.7836E+02  0.4267E+01  0.1536E+02E
 Epicentro: VILLANUEVA - SANTANDER                                             3
 ACTION:UPD 12-09-10 11:55 OP:ep   STATUS:               ID:20120808173212 L   I
 2012-08-08-1730-00M.COL___216                                                 6
 STAT SP IPHASW D HRMM SECON CODA AMPLIT PERI AZIMU VELO AIN AR TRES W  DIS CAZ7
 BRR  HZ EP   1   1732 35.68                             155   -0.51 7 75.2 311 
 BRR  HZ I        1732 40.29         9.1 0.09                          75.2 311 
 BRR  HN ES   1   1732 55.11                             155    0.41 7 75.2 311 
 RUS  HZ EP   1   1732 37.96                             152    0.44 7 86.3 172 
 RUS  HN ES   2   1732 56.37                             152   -0.69 5 86.3 172 
 RUS  HZ I        1732 57.70         3.7 0.24                          86.3 172 
 PTB  HZ EP   1   1732 40.69                             138    0.05 7  140 264 
 PTB  HZ I        1732 57.07         6.3 0.48                           140 264 
 PTB  HN ES   2   1733  2.91                             138    0.29 5  140 264 
 ZAR  HN ES   1   1733 12.81                             127   -0.28 6  205 297 
                                                                                
