 2011  1 8 1604 27.2 L   6.778 -73.178146.9  RSN  4 0.4 1.7LRSN                1
 GAP=207        0.68       8.9    10.7 11.3 -0.3301E+02  0.5868E+02 -0.1624E+02E
 Epicentro: LOS SANTOS - SANTANDER                                             3
 ACTION:UP  11-02-08 08:39 OP:pat  STATUS:               ID:20110108160427 L   I
 2011-01-08-1600-00M.COL___137                                                 6
 STAT SP IPHASW D HRMM SECON CODA AMPLIT PERI AZIMU VELO SNR AR TRES W  DIS CAZ7
 BTL  SZ EP       16 4 47.00                             172     0.210   18 327 
 BAR2 SZ EP       16 4 46.87                             172     0.010   21 182 
 BAR2 SZ ES   2   16 5  1.78                             172    -0.5 5   21 182 
 BAR2 SZ I        16 5  4.11        13.2 0.20                            21 182 
 RUS  HZ EP   1   16 4 51.00                             145     0.1 7   99 174 
 RUS  HE ES   2   16 5  9.26                             145    -0.1 5   99 174 
 RUS  HZ I        16 5 11.65         5.8 0.31                            99 174 
 NOR  SZ EP   1   16 5  1.88                             119    -0.6 6  231 235 
 NOR  SE ES   2   16 5 30.80                             119     0.7 4  231 235 
                                                                                
