 2013  1 8 1136  5.1 L   6.754 -73.206144.6  RSN  5 0.4 1.9LRSN                1
 GAP=227        1.03       5.8     7.0  7.5  0.1698E+02  0.1287E+02  0.1277E+02E
 Epicentro: VILLANUEVA - SANTANDER                                             3
 ACTION:UPD 13-02-15 09:12 OP:ep   STATUS:               ID:20130108113605 L   I
 2013-01-08-1130-00M.COL___242                                                 6
 STAT SP IPHASW D HRMM SECON CODA AMPLIT PERI AZIMU VELO AIN AR TRES W  DIS CAZ7
 BAR2 SZ IP       1136 24.14                             173   -0.3210 18.0 172 
 BAR2 SZ I        1136 24.26        19.0 0.42            166           18.0 172 
 BAR2 SZ ES       1136 39.18                             173   -0.4010 18.0 172 
 BRR  HZ EP       1136 26.03                             153    0.1110 68.2 305 
 BRR  HN ES       1136 43.00                             153    0.8210 68.2 305 
 BRR  HN I        1136 43.68        29.3 0.32            149           68.2 305 
 PTB  HZ EP       1136 30.83                             133   -0.43 9  140 260 
 PTB  HN ES       1136 51.31                             133   -0.39 9  140 260 
 PTB  HN I        1136 57.45        10.2 0.34            129            140 260 
 ZAR  HZ EP       1136 37.20                             123    0.19 9  200 294 
 ZAR  HN ES       1137  1.79                             123   -0.13 9  200 294 
 ZAR  HN I        1137  8.31         7.2 0.26            121            200 294 
 CHI  HZ EP       1136 42.29                             118    0.31 8  242 194 
 CHI  HE ES       1137 11.20                             118    0.43 8  242 194 
 CHI  HE I        1137 16.25         4.0 0.26            117            242 194 
                                                                                
