 2017  1 8 1716 26.4 L   6.803 -73.140143.7  RSN 12 0.5 2.0LRSN                1
 GAP=101        1.02       3.9     3.5  5.4 -0.3624E-01  0.2596E+01  0.6697E+01E
 Epicentro: LOS SANTOS - SANTANDER                                             3
 ACTION:UPD 17-05-22 15:57 OP:jn   STATUS:               ID:20170108171626 L   I
 OLDACT:UP  17-01-08 23:16 OP:and  STATUS:               ID:20170108170745     3
 OLDACT:UP  17-01-08 23:14 OP:and  STATUS:               ID:20170108170745     3
 OLDACT:REG 17-01-08 20:09 OP:and  STATUS:               ID:20170108170745     3
 2017-01-08-1708-00M.COL___377                                                 6
 STAT SP IPHASW D HRMM SECON CODA AMPLIT PERI AZIMU VELO AIN AR TRES W  DIS CAZ7
 BAR2 EZ EP       1716 45.53                             170   -0.2610 23.8 191 
 BAR2 EZ ES       1717  0.42                             170   -0.5010 23.8 191 
 BAR2 EZ I        1717  1.72        27.3 0.22            173           23.8 191 
 BRR  HZ EP       1716 47.34                             152   -0.0110 71.6 298 
 BRR  HN ES       1717  4.54                             152    0.8510 71.6 298 
 BRR  HZ I        1717  7.22        12.9 0.13            144           71.6 298 
 PAM  EZ EP       1716 48.50                             151    0.1510 76.7  39 
 PAM  EN ES       1717  5.19                             151   -0.2910 76.7  39 
 PAM  EZ I        1717  7.65        21.1 0.52            145           76.7  39 
 RUS  HZ EP       1716 49.65                             143   -0.3110  101 176 
 RUS  HE ES     C 1717  8.66                             143    0.3110  101 176 
 RUS  HZ I        1717  9.23        12.9 0.24            143            101 176 
 PTB  HZ EP   9   1716 52.17                             131   -1.09 0  148 259 
 PTB  HN ES       1717 13.14                             131    0.02 9  148 259 
 PTB  HZ I        1717 16.17        12.4 0.14            126            148 259 
 TAM  HZ IP     D 1716 53.90                             130    0.04 9  155 105 
 TAM  HN ES       1717 15.70                             130    0.42 9  155 105 
 ZAR  HZ EP   3   1717  0.26                             122    1.51 2  205 292 
 ZAR  HN ES       1717 23.45                             122   -0.55 9  205 292 
 ZAR  HZ I        1717 27.93         7.8 0.24            116            205 292 
 NOR  HZ EP       1717  1.61                             118   -0.47 8  235 234 
 NOR  HN ES   3   1717 31.12                             118    1.20 2  235 234 
 NOR  HZ I        1717 32.03         6.5 0.16            114            235 234 
 CHI  HZ EP       1717  3.75                             117   -0.28 8  249 195 
 CHI  HN ES       1717 32.88                             117   -0.51 8  249 195 
 CHI  HZ I        1717 36.99         7.1 0.68            113            249 195 
 GUY2CHZ EP       1717 10.45                             112    0.46 7  302 235 
 GUY2CHN ES   4   1717 47.44                             112    3.45 0  302 235 
 GUY2CHZ  IAML    1717 51.74         5.5 0.34                           302 235 
 ORTC HZ EP       1717 20.83                             106    0.51 6  396 216 
 ORTC HN ES       1718  3.38                             106    1.00 6  396 216 
 ORTC HZ I        1718  6.87         3.0 0.13            103            396 216 
 SJC  HZ EP   4   1717 19.87                             105   -2.03 0  409 327 
 SJC  HZ I        1717 58.55         2.3 0.48            101            409 327 
                                                                                
