 2013  8 8 1350 53.5 L   6.115 -73.984 28.3  RSN  8 0.3 1.7LRSN                1
 GAP= 87        0.73       2.6     2.6  4.8  0.2364E+01 -0.7082E+01 -0.5697E+01E
 Epicentro: CIMITARRA - SANTANDER                                              3
 ACTION:UPD 14-01-14 09:00 OP:ep   STATUS:               ID:20130808135053 L   I
 OLDACT:UP  13-08-08 19:13 OP:mh   STATUS:               ID:20130808134959     3
 OLDACT:UP  13-08-08 18:45 OP:mh   STATUS:               ID:20130808134959     3
 OLDACT:REG 13-08-08 15:55 OP:mh   STATUS:               ID:20130808134959     3
 2013-08-08-1349-59M.COL___269                                                 6
 STAT SP IPHASW D HRMM SECON CODA AMPLIT PERI AZIMU VELO AIN AR TRES W  DIS CAZ7
 SPBC HZ EP   1   1351  3.18                             111    0.30 7 52.1 191 
 SPBC HN ES   1   1351 10.22                             111    0.00 7 52.1 191 
 SPBC HZ I        1351 11.13        28.7 0.20            102           52.1 191 
 PTB  HZ IP     D 1351  5.06                             102   -0.2210 70.2 312 
 PTB  HN ES   1   1351 14.25                             102   -0.24 7 70.2 312 
 PTB  HZ I        1351 14.56       111.8 0.18             98           70.2 312 
 BAR2 SZ EP   1   1351 10.41                              61    0.52 7  103  59 
 BAR2 SZ I        1351 25.32         6.2 0.40             95            103  59 
 RUS  HZ EP       1351 10.30                              61    0.1610  103 104 
 RUS  HN ES   1   1351 22.46                              61   -0.68 7  103 104 
 RUS  HN I        1351 23.24        10.3 0.34             95            103 104 
 BRR  HZ EP   1   1351 11.15                              61    0.23 7  114  15 
 BRR  HN ES   1   1351 24.83                              61    0.30 7  114  15 
 BRR  HN I        1351 26.67        47.5 0.16             94            114  15 
 GIR2 SZ EP   1   1351 13.62                              61   -0.49 7  138  39 
 GIR2 SZ I        1351 33.55        19.6 0.44             94            138  39 
 HEL  HZ EP   1   1351 18.90                              61    0.35 7  171 273 
 HEL  HN ES   1   1351 37.91                              61   -0.19 7  171 273 
 HEL  HN I        1351 42.42         5.9 0.48             56            171 273 
 PAM  SZ EP   4   1351 23.98                              61    2.16 0  196  46 
 PAM  SN ES   4   1351 47.50                              61    3.57 0  196  46 
 PAM  SN I        1351 49.01         6.8 0.16             56            196  46 
                                                                                
