 2012  1 8 1348 22.5 L   6.750 -73.168141.4  RSN  6 0.3 1.3LRSN                1
 GAP=136        0.86       7.0     6.7  8.2  0.5275E+01 -0.2831E+01 -0.1751E+01E
 Epicentro: VILLANUEVA - SANTANDER                                             3
 ACTION:UP  12-02-03 08:15 OP:REBC STATUS:               ID:20120108134822 L   I
 2012-01-08-1340-00M.COL___186                                                 6
 STAT SP IPHASW D HRMM SECON CODA AMPLIT PERI AZIMU VELO SNR AR TRES W  DIS CAZ7
 BAR2 SZ EP       1348 41.43                             173    -0.110   18 185 
 BAR2 SZ ES   1   1348 55.81                             173    -0.5 7   18 185 
 BAR2 SZ I        1348 57.90         5.8 0.78                            18 185 
 GIR2 SZ EP   2   1348 41.61                             165    -0.2 5   36 356 
 BRR  HZ EP       1348 43.49                             151     0.210   72 303 
 BRR  HZ I        1348 44.98         6.4 0.50                            72 303 
 BRR  HE ES   1   1348 59.99                             151     0.6 7   72 303 
 PAM  SZ EP       1348 44.50                             148    -0.210   83  38 
 RUS  HZ EP       1348 45.80                             144     0.310   95 174 
 RUS  HE ES   2   1349  3.71                             144     0.3 5   95 174 
 RUS  HZ I        1349  5.60         1.6 0.28                            95 174 
 PTB  HZ EP       1348 48.58                             132    -0.3 9  144 261 
 PTB  HN ES   2   1349  8.79                             132    -0.6 5  144 261 
 PTB  HZ I        1349 12.32         2.7 0.30                           144 261 
                                                                                
