 2017  1 8 1522 35.9 L   6.825 -73.126145.3  RSN 15 0.6 2.2LRSN                1
 GAP= 71        1.22       4.8     4.6  6.5 -0.6221E-01  0.9841E+01  0.8227E+01E
 Epicentro: LOS SANTOS - SANTANDER                                             3
 ACTION:UPD 17-05-22 15:57 OP:jn   STATUS:               ID:20170108152235 L   I
 OLDACT:UP  17-01-08 22:50 OP:and  STATUS:               ID:20170108151745     3
 OLDACT:UP  17-01-08 22:49 OP:and  STATUS:               ID:20170108151745     3
 OLDACT:UP  17-01-08 22:47 OP:and  STATUS:               ID:20170108151745     3
 OLDACT:REG 17-01-08 20:04 OP:and  STATUS:               ID:20170108151745     3
 2017-01-08-1518-00M.COL___371                                                 6
 STAT SP IPHASW D HRMM SECON CODA AMPLIT PERI AZIMU VELO AIN AR TRES W  DIS CAZ7
 BAR2 EZ EP       1522 55.25                             169   -0.2810 26.5 194 
 BAR2 EZ ES       1523 10.28                             169   -0.5710 26.5 194 
 BAR2 EZ I        1523 11.56        43.3 0.24            169           26.5 194 
 BRR  HZ EP       1522 57.12                             152    0.0910 71.8 296 
 BRR  HN ES       1523 14.35                             152    0.8410 71.8 296 
 BRR  HZ I        1523 18.42        19.8 0.13            150           71.8 296 
 PAM  EZ EP       1522 58.25                             152    0.4010 73.9  40 
 PAM  EN ES       1523 14.99                             152    0.0110 73.9  40 
 PAM  EZ I        1523 17.49        40.7 0.52            154           73.9  40 
 RUS  HZ EP       1522 59.29                             143   -0.5010  103 177 
 RUS  HN ES       1523 18.48                             143    0.0510  103 177 
 RUS  HZ I        1523 19.09        35.1 0.26            145            103 177 
 PTB  HZ EP       1523  2.02                             131   -1.04 9  150 258 
 PTB  HN ES   3   1523 23.05                             131   -1.20 2  150 258 
 PTB  HZ I        1523 26.01        15.3 0.16            131            150 258 
 TAM  HZ IP     D 1523  3.71                             131    0.30 9  154 106 
 ZAR  HZ EP       1523  8.72                             122    0.32 9  205 291 
 ZAR  HE ES       1523 33.24                             122   -0.53 9  205 291 
 ZAR  HZ I        1523 38.50        10.9 0.10            122            205 291 
 CHI  HZ EP       1523 13.53                             117   -0.38 8  252 195 
 CHI  HN ES   3   1523 43.05                             117   -0.52 2  252 195 
 CHI  HZ I        1523 46.32        10.8 0.52            118            252 195 
 ROSC BZ EP   4   1523 15.94                             116    1.58 0  256 211 
 ROSC BN ES       1523 45.60                             116    1.23 8  256 211 
 ROSC BZ I        1523 49.79        16.9 0.45            117            256 211 
 GUY2CHZ EP       1523 20.56                             112    0.71 7  305 235 
 GUY2CHN ES   4   1523 57.33                             112    3.19 0  305 235 
 GUY2CHZ  IAML    1524  1.59         8.6 0.34                           305 235 
 LL6C HZ EP   9   1523  1.40                             110   -19.9 0  322 357 
 LL6C HN ES   4   1523 38.90                                    2.10 0  322 357 
 CBOC HZ EP       1523 23.92                             110    0.80 7  336 252 
 CBOC HN ES       1523 59.57                             110   -0.38 7  336 252 
 CBOC HZ I        1524  3.44         2.4 0.24            110            336 252 
 ORTC HZ EP       1523 29.64                             106   -0.56 6  399 216 
 ORTC HN ES   3 D 1524 14.47                             106    1.91 1  399 216 
 ORTC HZ I        1524 16.66         5.3 0.30            107            399 216 
 SJC  HZ EP   4   1523 29.47                             106   -1.83 0  408 326 
 SJC  HN ES   4   1524 10.27                             106   -4.26 0  408 326 
 SJC  HZ I        1524 23.76         3.7 0.64            106            408 326 
 PAL  HZ EP       1523 30.99                             106   -0.42 6  409 239 
 PAL  HN ES       1524 14.93                             106    0.21 6  409 239 
 PAL  HZ I        1524 16.91         3.1 0.22            106            409 239 
 CRJC HZ EP   9   1523 35.79                             103   -2.25 0  465   3 
 CRJC HN ES       1524 24.19                                   -0.07 5  465   3 
                                                                                
