 2015 12 8 1728 24.8 L   6.795 -73.098149.8  RSN 10 0.5 1.8LRSN                1
 GAP=143        1.25       4.3     5.7  8.0 -0.3386E+01  0.8817E+01 -0.2032E+01E
 Epicentro: LOS SANTOS - SANTANDER                                             3
 ACTION:UPD 16-02-04 15:03 OP:cam  STATUS:               ID:20151208172824 L   I
 OLDACT:UP  15-12-09 00:28 OP:mh   STATUS:               ID:20151208172749     3
 OLDACT:REG 15-12-08 21:50 OP:mh   STATUS:               ID:20151208172749     3
 2015-12-08-1727-49M.COL___325                                                 6
 STAT SP IPHASW D HRMM SECON CODA AMPLIT PERI AZIMU VELO AIN AR TRES W  DIS CAZ7
 BAR2 EZ EP   1   1728 45.30                             170    0.42 7 24.3 203 
 BAR2 EZ I        1729  8.53         5.4 0.16            171           24.3 203 
 PAM  EZ EP   1   1728 48.21                             152    0.98 7 74.5  36 
 PAM  EN ES       1729  5.08                             152    0.3110 74.5  36 
 PAM  EZ I        1729  6.33         6.9 0.18            152           74.5  36 
 BRR  HZ EP   1   1728 47.04                             152    0.43 7 76.2 297 
 BRR  HN ES       1729  4.00                             152    0.3310 76.2 297 
 BRR  HZ I        1729  7.99        15.2 0.12            153           76.2 297 
 RUS  HZ EP       1728 49.28                             145    0.4410 99.8 179 
 RUS  HN ES       1729  6.94                             145   -0.7010 99.8 179 
 RUS  HZ I        1729  8.26         6.5 0.24            145           99.8 179 
 PTB  HZ EP   1   1728 51.87                             132   -0.64 7  153 259 
 PTB  HN ES       1729 13.82                             132   -0.34 9  153 259 
 PTB  HZ I        1729 16.38         6.2 0.12            132            153 259 
 OCA  HZ EP       1728 52.98                             130   -0.51 9  162 351 
 OCA  HN ES       1729 15.06                             130   -0.85 9  162 351 
 OCA  HZ I        1729 21.60        14.2 0.68            130            162 351 
 SPBC HZ EP   1   1728 53.61                             129   -0.23 7  166 221 
 SPBC HN ES       1729 16.40                             129   -0.13 9  166 221 
 SPBC HZ I        1729 20.79         9.6 0.40            130            166 221 
 ZAR  HZ EP       1728 58.30                             122    0.31 8  209 292 
 ZAR  HN ES       1729 24.74                             122    0.83 8  209 292 
 ZAR  HZ I        1729 29.38         6.8 0.26            123            209 292 
 SML  HZ EP       1729  1.28                             118   -0.62 8  246 334 
 SML  HN ES   4   1729 29.32                             118   -1.56 0  246 334 
 SML  HZ I        1729 33.19         7.7 0.22            118            246 334 
 GUY2CHZ EP       1729  9.22                             113    0.22 7  305 235 
 GUY2CHN ES   4   1729 46.20                             113    2.68 0  305 235 
 GUY2CHZ I        1729 50.32         3.6 0.22                           305 235 
                                                                                
