 2012  3 8 1523 15.4 L   6.768 -73.157146.6  RSN  6 0.3 1.7LRSN                1
 GAP=234        0.71       4.8     5.7  5.6  0.1415E+02  0.8034E+01  0.7309E+01E
 ACTION:UP  12-03-31 23:18 OP:EP   STATUS:               ID:20120308152315 L   I
 2012-03-08-1520-00M.COL___194                                                 6
 STAT SP IPHASW D HRMM SECON CODA AMPLIT PERI AZIMU VELO SNR AR TRES W  DIS CAZ7
 BAR2 SZ EP       1523 34.89                             172    -0.210   20 188 
 BAR2 SZ ES       1523 50.21                             172    -0.210   20 188 
 BAR2 SZ I        1523 52.05        10.1 0.39                            20 188 
 BRR  HZ EP       1523 37.02                             152     0.310   72 301 
 BRR  HE ES       1523 53.53                             152     0.310   72 301 
 BRR  HZ I        1523 56.32        20.4 0.57                            72 301 
 RUS  HZ EP   1   1523 39.02                             145     0.0 7   97 175 
 RUS  HN ES   1   1523 57.32                             145    -0.1 7   97 175 
 RUS  HZ I        1523 59.33         5.7 0.61                            97 175 
 PTB  HZ EP       1523 41.88                             133    -0.4 9  146 260 
 PTB  HE ES   1   1524  3.07                             133    -0.1 7  146 260 
 ZAR  HN ES   1   1524 13.15                             122    -0.1 6  204 293 
 ZAR  HZ I        1524 18.63         7.7 0.69                           204 293 
 CHI  HZ EP   1   1523 52.88                             118     0.1 6  245 195 
 CHI  HN ES   1   1524 22.37                             118     0.5 6  245 195 
 CHI  HZ I        1524 28.32         2.5 0.43                           245 195 
                                                                                
