 2017  7 8 1429 22.3 L   6.777 -73.143145.6  RSN  7 0.4 1.8LRSN                1
 GAP=113        0.80       5.5     4.4  5.6  0.6274E+01  0.2118E+00  0.3358E+01E
 Epicentro: LOS SANTOS - SANTANDER                                             3
 ACTION:UPD 17-08-30 15:31 OP:rebc STATUS:               ID:20170708142922 L   I
 OLDACT:UP  17-07-10 21:14 OP:nlst STATUS:               ID:20170708142922 L   3
 OLDACT:UP  17-07-09 00:23 OP:edw  STATUS:               ID:20170708142740     3
 OLDACT:UP  17-07-09 00:22 OP:edw  STATUS:               ID:20170708142740     3
 OLDACT:UP  17-07-09 00:21 OP:edw  STATUS:               ID:20170708142740     3
 OLDACT:REG 17-07-08 21:30 OP:edw  STATUS:               ID:20170708142740     3
 2017-07-08-1428-00M.COL___383                                                 6
 STAT SP IPHASW D HRMM SECON CODA AMPLIT PERI AZIMU VELO AIN AR TRES W  DIS CAZ7
 BAR2 EZ EP     D 1429 41.54                             172   -0.3210 20.9 192 
 BAR2 EZ ES       1429 56.79                             172   -0.3310 20.9 192 
 BAR2 EZ I        1429 57.82        20.0 0.18            175           20.9 192 
 BRR  HZ EP       1429 43.41                             152   -0.1010 72.7 300 
 BRR  HN ES       1430  0.62                             152    0.5610 72.7 300 
 PAM  EZ EP   1   1429 44.41                             150   -0.19 7 79.2  38 
 PAM  EN ES   4   1430  7.97                             150    5.97 0 79.2  38 
 PAM  EZ I        1430 10.83        10.5 0.20            150           79.2  38 
 PTB  HZ EP   9   1429 48.31                             132   -0.92 0  148 260 
 PTB  HN ES       1430  8.83                             136   -0.49 9  148 260 
 PTB  HZ I        1430 16.61         3.8 0.32            134            148 260 
 YPLC HZ EP   2   1429 52.11                             127    0.26 4  174 151 
 YPLC HN ES   2   1430 15.88                             127    0.98 4  174 151 
 ZAR  HZ EP   2   1429 54.58                             122   -0.28 4  205 293 
 ZAR  HN ES       1430 20.41                             122    0.16 8  205 293 
 ZAR  HZ I        1430 23.24         5.9 0.28            123            205 293 
 NOR  HZ EP       1429 57.93                             118    0.05 8  233 235 
 NOR  HN ES   1   1430 25.49                             118   -0.15 6  233 235 
 NOR  HZ I        1430 30.70         6.7 0.46            121            233 235 
 GUY2CHN ES   4   1430 41.91                             112    2.25 0  300 235 
                                                                                
