 2014  6 8 1341  1.8 L   6.759 -73.172141.2  RSN  7 0.2 1.5LRSN                1
 GAP=160        0.58       3.0     2.6  3.9  0.2414E+01 -0.6287E+00 -0.2990E+00E
 Epicentro: LOS SANTOS - SANTANDER                                             3
 ACTION:UPD 14-07-01 22:52 OP:nd   STATUS:               ID:20140608134101 L   I
 OLDACT:REG 14-06-08 21:32 OP:stll STATUS:               ID:20140608133817     3
 2014-06-08-1338-17M.COL___259                                                 6
 STAT SP IPHASW D HRMM SECON CODA AMPLIT PERI AZIMU VELO AIN AR TRES W  DIS CAZ7
 BAR2 SZ EP       1341 20.69                             172   -0.0910 18.5 184 
 BAR2 SZ I        1341 21.02         6.6 0.10            171           18.5 184 
 BAR2 SZ ES       1341 35.83                             172    0.2410 18.5 184 
 BRR  HZ EP       1341 22.59                             152    0.1610 71.0 303 
 BRR  HN ES       1341 38.43                             152   -0.1010 71.0 303 
 BRR  HZ I        1341 44.97         5.4 0.16            154           71.0 303 
 RUS  HZ EP       1341 25.14                             144    0.3610 96.3 174 
 RUS  HN ES       1341 42.57                             144   -0.1410 96.3 174 
 RUS  HZ I        1341 46.18         3.7 0.38            146           96.3 174 
 PTB  HZ EP       1341 27.89                             132   -0.16 9  144 260 
 PTB  HN ES       1341 48.38                             132   -0.15 9  144 260 
 PTB  HZ I        1341 50.97         5.0 0.14            134            144 260 
 TAM  HZ EP       1341 28.92                             129   -0.35 9  157 103 
 SPBC HZ EP       1341 29.73                             129    0.30 9  158 219 
 SPBC HE ES       1341 50.82                             129   -0.17 9  158 219 
 SPBC HZ I        1341 56.75         8.4 0.22            131            158 219 
 ZAR  HN ES       1341 58.90                             121    0.05 9  203 294 
                                                                                
