 2011  7 8 1030 13.5 L   6.733 -73.321123.0  RSN  4 0.1 1.6LRSN                1
 GAP=178        0.35       6.2     5.4  5.0  0.1591E+02 -0.1174E+02 -0.2060E+02E
 Epicentro: ZAPATOCA - SANTANDER                                               3
 *BRR-GRA-OCA                                                                  3
 ACTION:UPD 12-07-25 13:59 OP:epov STATUS:               ID:20110708103013 L   I
 2011-07-08-1020-00M.COL___130                                                 6
 STAT SP IPHASW D HRMM SECON CODA AMPLIT PERI AZIMU VELO AIN AR TRES W  DIS CAZ7
 BAR2 SZ EP   2   1030 30.13                             169   -0.27 5 21.9 135 
 BAR2 SZ ES   1   1030 43.62                             169    0.07 7 21.9 135 
 BAR2 SZ I        1030 44.79         7.6 0.17                          21.9 135 
 BRR  HZ EP       1030 31.67                             152    0.0910 59.8 314 
 BRR  HE ES   1   1030 45.56                             152   -0.09 7 59.8 314 
 BRR  HZ I        1030 46.95        16.1 0.20                          59.8 314 
 GRA  SZ EP   1   1030 38.12                             128   -0.01 7  140  24 
 GRA  SZ I        1030 39.52         1.9 0.34                           140  24 
 OCA  SZ EP   2   1030 40.77                             123   -0.04 5  167   0 
 OCA  SZ I        1031  0.74         9.6 1.12                           167   0 
                                                                                
