 2010  8 8 1812 56.3 L   6.793 -73.071143.8  RSN  9 0.3 2.1LRSN                1
 GAP=167        0.61       3.4     6.9  5.6 -0.7307E+01  0.3987E+01 -0.1111E+00E
 Epicentro: LOS SANTOS - SANTANDER                                             3
 ACTION:UP  10-09-07 10:53 OP:vdl  STATUS:               ID:20100808181256 L   I
 2010-08-08-1808-41S.COL___125                                                 6
 STAT SP IPHASW D HRMM SECON CODA AMPLIT PERI AZIMU VELO SNR AR TRES W  DIS CAZ7
 BAR2 SZ EP   1   1813 15.83                             169     0.1 7   26 209 
 BAR2 SZ ES   2   1813 30.49                             169    -0.4 5   26 209 
 BAR2 SZ I        1813 31.89        38.8 0.30                            26 209 
 GIR2 SZ EP   1   1813 15.76                             166    -0.1 7   34 337 
 GIR2 SZ ES   2   1813 31.54                             166     0.5 5   34 337 
 BRR  HZ IP     D 1813 17.52                             150    -0.210   79 296 
 BRR  HZ I        1813 17.69        52.8 0.17                            79 296 
 BRR  HE ES   2   1813 34.54                             150     0.2 5   79 296 
 RUS  HZ EP   1   1813 19.81                             144     0.0 7  100 181 
 RUS  HN ES   2   1813 37.97                             144    -0.1 5  100 181 
 RUS  HZ I        1813 39.87        10.0 0.24                           100 181 
 GUE  SZ EP       1813 20.72                             139     0.010  116   8 
 GRA  SZ EP   1   1813 21.54                             137     0.3 7  124  14 
 GRA  SZ ES   2   1813 41.18                             137     0.5 5  124  14 
 GRA  SZ I        1813 45.56        13.1 0.37                           124  14 
 OCA  SZ EP   1   1813 24.38                             129    -0.3 7  162 350 
 OCA  SZ ES   2   1813 45.95                             129    -0.8 5  162 350 
 OCA  SZ I        1813 50.86        18.3 0.25                           162 350 
 HEL  HZ EP   1   1813 37.85                             114     0.6 6  280 256 
 HEL  HZ I        1814 14.90         6.4 0.37                           280 256 
 PRA  HZ EP   1   1813 50.01                             106    -0.1 4  395 211 
 PRA  HN ES   2   1814 31.90                             106    -0.2 3  395 211 
 PRA  HZ I        1814 37.12         6.0 0.88                           395 211 
                                                                                
