 2016 10 8 1604 44.8 L   6.376 -73.292  4.0  RSN  7 0.4 1.7LRSN                1
 GAP=125        1.06       2.1     2.4  5.3 -0.1632E+01  0.2819E+01 -0.1239E+01E
 Epicentro: PALMAS DEL SOCORRO - SANTANDER                                     3
 ACTION:UPD 16-11-09 19:17 OP:rebc STATUS:               ID:20161008160444 L   I
 OLDACT:REG 16-10-08 20:33 OP:lv   STATUS:               ID:20161008155749     3
 2016-10-08-1558-00M.COL___363                                                 6
 STAT SP IPHASW D HRMM SECON CODA AMPLIT PERI AZIMU VELO AIN AR TRES W  DIS CAZ7
 BAR2 EZ IP     D 16 4 49.94                              47    0.2410 26.8  27 
 BAR2 EZ ES       16 4 54.03                              47    0.5110 26.8  27 
 BAR2 EZ I        16 4 54.95        62.1 0.09             47           26.8  27 
 RUS  HZ EP       16 4 54.34                              47   -0.3710 58.2 157 
 RUS  HE ES       16 5  2.34                              47   -0.1110 58.2 157 
 SPBC HZ EP       16 5  3.77                              47    0.4510  118 227 
 SPBC HN ES       16 5 17.47                              47   -0.3010  118 227 
 SPBC HZ I        16 5 19.12        17.1 0.08             47            118 227 
 PAM  EZ EP       16 5  5.02                              47    0.1810  125  32 
 PAM  EN ES       16 5 19.72                              47   -0.7610  125  32 
 PAM  EZ I        16 5 21.00        18.2 0.18             47            125  32 
 PTB  HZ EP       16 5  5.10                              47   -0.0110  130 278 
 PTB  HN ES       16 5 20.62                              47   -0.3410  130 278 
 PTB  HZ I        16 5 22.33        22.5 0.14             47            130 278 
 ZAR  HE ES       16 5 41.10                              37   -0.37 8  213 306 
 ZAR  HZ I        16 5 43.42         3.0 0.22             37            213 306 
 GUY2CHZ EP       16 5 24.22                              37    0.78 8  263 241 
 GUY2CHE ES       16 5 53.99                              37    0.41 8  263 241 
 GUY2CHZ I        16 5 58.18         2.8 0.36                           263 241 
                                                                                
