 2013  7 8 1146 46.1 L   6.766 -73.140150.3  RSN 11 0.5 2.4LRSN                1
 GAP=139        1.19       4.2     4.5  6.8 -0.4794E+01  0.4965E+01 -0.4338E+01E
 Epicentro: LOS SANTOS - SANTANDER                                             3
 ACTION:UPD 13-08-12 10:36 OP:ep   STATUS:               ID:20130708114646 L   I
 OLDACT:UP  13-07-09 05:54 OP:Juan STATUS:               ID:20130708114646 L   3
 OLDACT:REG 13-07-08 15:22 OP:stll STATUS:               ID:20130708113851     3
 2013-07-08-1138-51M.COL___224                                                 6
 STAT SP IPHASW D HRMM SECON CODA AMPLIT PERI AZIMU VELO AIN AR TRES W  DIS CAZ7
 BAR2 SZ IP     D 1147  6.27                             172    0.0710 19.8 194 
 BAR2 SZ ES       1147 21.89                             172   -0.0010 19.8 194 
 BAR2 SZ I        1147 23.10        19.9 0.38            172           19.8 194 
 GIR2 SZ EP       1147  6.36                             166   -0.0510 35.1 350 
 BRR  HZ IP     C 1147  8.17                             152    0.3110 73.6 301 
 BRR  HN ES       1147 25.51                             152    0.6610 73.6 301 
 BRR  HN I        1147 26.58        53.4 0.20            150           73.6 301 
 PAM  SZ EP       1147  9.04                             151    0.1010 79.9  37 
 PAM  SZ I        1147  9.40        26.0 0.22            153           79.9  37 
 PAM  SN ES       1147 26.15                             151   -0.6210 79.9  37 
 RUS  HZ EP       1147 10.26                             146    0.2310 96.8 176 
 RUS  HN ES       1147 28.60                             146   -0.1010 96.8 176 
 RUS  HN I        1147 30.39        16.5 0.34            148           96.8 176 
 GRA  SZ EP       1147 12.96                             137    0.9410  129  17 
 GRA  SZ ES       1147 32.83                             137    0.5810  129  17 
 PTB  HZ EP       1147 13.09                             133   -0.33 9  148 260 
 PTB  HN ES       1147 34.44                             133   -0.31 9  148 260 
 PTB  HN I        1147 39.44        41.7 0.34            132            148 260 
 CAPV BZ EP       1147 14.13                             132    0.04 9  152  37 
 CAPV BZ ES       1147 34.88                             132   -1.05 9  152  37 
 OCA  HN ES       1147 37.95                             130    0.20 9  164 353 
 OCA  HN I        1147 42.21        47.8 0.24            130            164 353 
 ZAR  HZ EP       1147 18.97                             123   -0.07 8  206 293 
 ZAR  HE ES       1147 44.29                             123   -0.45 8  206 293 
 ZAR  HE I        1147 50.63        59.7 0.32            123            206 293 
 SML  HZ EP       1147 22.78                             118   -0.59 8  247 336 
 SML  HN ES   4   1147 50.65                             118   -1.80 0  247 336 
                                                                                
