 2011 10 8 1831  9.3 L   6.782 -73.123149.3  RSN  9 0.3 2.0LRSN                1
 GAP=140        0.59       3.3     3.7  4.3 -0.1129E+01  0.5667E+01  0.1690E+00E
 Epicentro: LOS SANTOS - SANTANDER                                             3
 ACTION:UPD 12-07-13 16:02 OP:ep   STATUS:               ID:20111008183109 L   I
 2011-10-08-1820-00M.COL___170                                                 6
 STAT SP IPHASW D HRMM SECON CODA AMPLIT PERI AZIMU VELO AIN AR TRES W  DIS CAZ7
 BAR2 SZ EP   1   1831 29.08                             171   -0.25 7 22.0 197 
 BAR2 SZ I        1831 29.40        18.3 0.19                          22.0 197 
 BAR2 SZ ES   1   1831 44.78                             171   -0.17 7 22.0 197 
 GIR2 SZ EP   1   1831 29.64                             167    0.18 7 33.8 347 
 GIR2 SZ ES   1   1831 45.36                             167    0.17 7 33.8 347 
 BRR  HZ EP       1831 31.10                             152    0.0910 74.4 299 
 BRR  HZ I        1831 32.63        27.5 0.12                          74.4 299 
 BRR  HN ES   1   1831 48.22                             152    0.27 7 74.4 299 
 PAM  SZ EP   1   1831 31.93                             151    0.04 7 77.4  37 
 PAM  SE ES   1   1831 49.06                             151   -0.46 7 77.4  37 
 RUS  HZ EP   1   1831 32.89                             145   -0.36 7 98.4 177 
 RUS  HZ I        1831 34.21         7.4 0.17                          98.4 177 
 RUS  HN ES   1   1831 52.29                             145    0.36 7 98.4 177 
 OCA  SZ EP   1   1831 38.74                             130    0.64 7  163 352 
 ZAR  HZ EP   1   1831 41.92                             123   -0.38 6  207 292 
 ZAR  HN ES   1   1832  7.69                             123   -0.35 6  207 292 
 ZAR  HZ I        1832 13.60        20.2 0.44                           207 292 
 NOR  SZ EP   1   1831 45.30                             119   -0.04 6  236 235 
 NOR  SE ES   1   1832 13.48                             119    0.04 6  236 235 
 HEL  HZ EP   1   1831 50.02                             115    0.11 6  274 256 
 HEL  HZ I        1832 28.41         6.8 0.35                           274 256 
                                                                                
