 2011  6 8 1556 43.5 L   6.709 -73.139140.6  RSN  5 0.3 1.6LRSN                1
 GAP=183        0.63       3.5     6.3  8.2  0.1357E+01  0.5495E+01  0.5432E+00E
 Epicentro: JORDAN - SANTANDER                                                 3
 ACTION:UP  11-07-14 19:04 OP:ep   STATUS:               ID:20110608155643 L   I
 2011-06-08-1552-00S.COL___119                                                 6
 STAT SP IPHASW D HRMM SECON CODA AMPLIT PERI AZIMU VELO SNR AR TRES W  DIS CAZ7
 BAR2 SZ EP   1   1557  1.96                             174    -0.4 7   14 200 
 BAR2 SZ ES   2   1557 17.11                             174     0.1 5   14 200 
 BAR2 SZ I        1557 18.12        12.3 0.17                            14 200 
 BRR  HZ EP   1   1557  4.11                             150    -0.3 7   77 305 
 BRR  HE ES   1   1557 20.56                             150    -0.2 7   77 305 
 RUS  HZ EP   1   1557  6.15                             146     0.1 7   91 176 
 RUS  HE ES   1   1557 23.73                             146     0.1 7   91 176 
 RUS  HZ I        1557 24.00         5.9 0.61                            91 176 
 OCA  SZ ES   1   1557 35.38                             127     0.5 7  170 353 
 NOR  SE ES   1   1557 45.87                             118     0.3 6  230 237 
                                                                                
