 2010  6 8 1555 10.3 L   6.834 -73.109121.4  RSN  5 0.3 2.0LRSN                1
 GAP=181        0.65      12.5    40.0 15.0 -0.3569E+03 -0.1097E+03 -0.6938E+02E
 Epicentro: LOS SANTOS - SANTANDER                                             3
 ACTION:UP  10-08-24 10:09 OP:vdl  STATUS:               ID:20100608155510 L   I
 2010-06-08-1553-15S.COL___111                                                 6
 STAT SP IPHASW D HRMM SECON CODA AMPLIT PERI AZIMU VELO SNR AR TRES W  DIS CAZ7
 BAR2 SZ EP       1555 27.08                             166    -0.110   28 197 
 BAR2 SZ ES   2   1555 40.14                             166    -0.1 5   28 197 
 GIR2 SZ EP       1555 27.22                             166     0.210   29 341 
 GUE  SZ EP       1555 32.03                             135    -0.410  112  10 
 GUE  SZ ES   3   1555 49.84                             135     0.1 2  112  10 
 GRA  SZ EP       1555 33.37                             132     0.310  121  16 
 OCA  SZ EP   3   1555 36.55                             124     0.0 2  157 352 
 OCA  SZ I        1556  2.70        13.6 0.23                           157 352 
                                                                                
