 2010  3 8 1427 35.1 L   6.873 -73.039144.3  RSN  8 0.3 2.0LRSN                1
 GAP=194        0.77       4.2     7.3  6.5  0.6355E+01 -0.7192E+01 -0.2598E+01E
 Epicentro: PIEDECUESTA - SANTANDER                                            3
 ACTION:UP  10-08-24 09:52 OP:vdl  STATUS:               ID:20100308142735 L   I
 2010-03-08-1424-03S.COL___101                                                 6
 STAT SP IPHASW D HRMM SECON CODA AMPLIT PERI AZIMU VELO SNR AR TRES W  DIS CAZ7
 BAR2 SZ EP       1427 54.88                             166     0.010   35 207 
 BAR2 SZ ES   1   1428  9.59                             166    -0.7 7   35 207 
 BRR  HZ IP       1427 56.50                             149    -0.110   79 289 
 BRR  HN ES       1428 13.59                             149     0.310   79 289 
 BRR  HZ I        1428 18.57        32.0 0.16                            79 289 
 RUS  BZ EP       1427 59.44                             141     0.110  108 183 
 RUS  BN ES   1   1428 18.33                             141     0.1 7  108 183 
 RUS  BZ I        1428 19.74         8.8 0.79                           108 183 
 OCA  SZ EP       1428  2.81                             130     0.1 9  154 348 
 OCA  SZ I        1428 28.37        32.4 0.31                           154 348 
 CHI  HN ES   2   1428 44.38                             115     0.2 4  260 197 
 CHI  HZ I        1428 50.95         3.8 0.55                           260 197 
 HEL  HE ES   2   1428 48.63                             113    -0.6 4  286 255 
 HEL  HZ I        1428 54.40         7.0 0.10                           286 255 
 DBB  SZ EP   2   1428 22.97                             108    -0.9 3  351 273 
 PRA  HE ES   1   1429 13.41                             105     0.4 4  405 210 
 PRA  HZ I        1429 15.08         2.4 0.58                           405 210 
                                                                                
