 2013  3 8 1249 48.1 L   6.775 -73.124147.1  RSN  6 0.5 2.2LRSN                1
 GAP=238        1.21       8.8     9.5  9.1  0.5399E+02  0.1564E+02  0.1244E+01E
 Epicentro: LOS SANTOS - SANTANDER                                             3
 ACTION:UPD 13-04-09 14:00 OP:ep   STATUS:               ID:20130308124947 L   I
 2013-03-08-1250-00M.COL___231                                                 6
 STAT SP IPHASW D HRMM SECON CODA AMPLIT PERI AZIMU VELO AIN AR TRES W  DIS CAZ7
 BAR2 SZ EP       1250  7.88                             172    0.0510 21.2 198 
 BAR2 SZ ES       1250 22.66                             172   -0.5810 21.2 198 
 BAR2 SZ I        1250 24.33        31.6 0.23            166           21.2 198 
 BRR  HZ EP       1250  9.76                             152    0.1910 74.7 299 
 BRR  HE ES       1250 26.68                             152    0.3410 74.7 299 
 BRR  HE I        1250 27.17        39.8 0.26            149           74.7 299 
 RUS  HZ EP       1250 11.44                             145   -0.3210 97.7 177 
 RUS  HN ES       1250 30.93                             145    0.7010 97.7 177 
 RUS  HN I        1250 31.89        11.0 0.34            144           97.7 177 
 PTB  HZ EP       1250 14.54                             132   -0.79 9  150 260 
 PTB  HN ES   1   1250 35.89                             132   -0.69 7  150 260 
 PTB  HN I        1250 40.38        14.6 0.36            130            150 260 
 ZAR  HZ EP   1   1250 21.66                             122    0.71 6  207 293 
 ZAR  HE ES       1250 46.96                             122    0.36 8  207 293 
 ZAR  HE I        1250 51.31        25.3 0.22            122            207 293 
 CHI  HE ES   2   1250 55.62                             118    0.69 4  247 196 
                                                                                
