 2011 12 8 1434 49.3 L   6.805 -73.176144.5  RSN  4 0.3 1.5LRSN                1
 GAP=132        0.59       4.8     7.0  7.1  0.6483E+01 -0.9695E+01 -0.5835E+01E
 Epicentro: LOS SANTOS - SANTANDER                                             3
 ACTION:UPD 12-07-13 16:15 OP:ep   STATUS:               ID:20111208143449 L   I
 2011-12-08-1430-00M.COL___170                                                 6
 STAT SP IPHASW D HRMM SECON CODA AMPLIT PERI AZIMU VELO AIN AR TRES W  DIS CAZ7
 BAR2 SZ EP   1   1435  8.69                             170   -0.07 7 23.5 182 
 BAR2 SZ ES   1   1435 24.33                             170    0.38 7 23.5 182 
 BAR2 SZ I        1435 29.17         6.2 0.39                          23.5 182 
 BRR  HZ EP   1   1435 10.55                             153    0.44 7 68.0 299 
 BRR  HE ES   1   1435 25.97                             153   -0.38 7 68.0 299 
 BRR  HZ I        1435 47.89        12.1 0.48                          68.0 299 
 PAM  SZ EP   1   1435 11.46                             150    0.00 7 79.2  42 
 PAM  SE ES   2   1435 28.59                             150   -0.18 5 79.2  42 
 RUS  HZ EP   2   1435 12.54                             143   -0.42 5  101 174 
 RUS  HN ES   1   1435 31.33                             143   -0.11 7  101 174 
 RUS  HZ I        1435 32.27         2.4 0.33                           101 174 
                                                                                
