 2013  3 8 1058 42.5 L   6.739 -73.193154.3  RSN  5 0.2 1.5LRSN                1
 GAP=227        0.47       5.0     4.5  6.2  0.1373E+02 -0.3530E+01 -0.4124E+01E
 Epicentro: VILLANUEVA - SANTANDER                                             3
 ACTION:UPD 13-04-09 14:00 OP:ep   STATUS:               ID:20130308105842 L   I
 2013-03-08-1050-00M.COL___231                                                 6
 STAT SP IPHASW D HRMM SECON CODA AMPLIT PERI AZIMU VELO AIN AR TRES W  DIS CAZ7
 BAR2 SZ EP       1059  2.85                             174   -0.1710 16.2 176 
 BAR2 SZ I        1059 19.98         6.7 0.28            171           16.2 176 
 BRR  HZ EP   1   1059  4.79                             154    0.29 7 70.3 305 
 BRR  HN ES   1   1059 21.53                             154   -0.16 7 70.3 305 
 RUS  HZ EP   1   1059  6.72                             147    0.07 7 94.3 173 
 RUS  HN ES   1   1059 25.70                             147    0.19 7 94.3 173 
 PTB  HZ EP   1   1059  9.35                             135   -0.25 7  141 261 
 PTB  HN ES   1   1059 30.63                             135   -0.12 7  141 261 
 PTB  HZ I        1059 36.02         3.5 0.40            137            141 261 
 ZAR  HN ES   1   1059 41.17                             124    0.32 6  202 294 
                                                                                
