 2010  7 8 1021 49.1 L   6.782 -73.089139.7  RSN  8 0.2 1.8LRSN                1
 GAP=162        0.50       2.4     4.9  4.8 -0.2607E+01 -0.4351E+01 -0.1553E+01E
 Epicentro: LOS SANTOS - SANTANDER                                             3
 ACTION:UPD 10-12-01 15:16 OP:pat  STATUS:               ID:20100708102149 L   I
 2010-07-08-1020-01S.COL___117                                                 6
 STAT SP IPHASW D HRMM SECON CODA AMPLIT PERI AZIMU VELO AIN AR TRES W  DIS CAZ7
 BAR2 SZ EP   1   1022  7.91                             170    -0.1 7   24 206 
 BAR2 SZ ES   2   1022 22.77                             170     0.0 5   24 206 
 BAR2 SZ I        1022 24.13        15.3 0.25                            24 206 
 GIR2 SZ EP   1   1022  8.12                             165     0.0 7   35 341 
 BRR  HZ EP       1022  9.94                             149     0.010   78 298 
 BRR  HE ES   1   1022 26.45                             149     0.2 7   78 298 
 BRR  HZ I        1022 32.07        21.8 0.16                            78 298 
 RUS  HZ EP   1   1022 12.28                             143     0.2 7   98 180 
 RUS  HN ES   1   1022 29.78                             143    -0.2 7   98 180 
 RUS  HZ I        1022 31.06         4.5 0.28                            98 180 
 BRI  SZ EP       1022 12.66                             140     0.310  108  17 
 BRI  SZ ES   1   1022 30.68                             140     0.1 7  108  17 
 BRI  SZ I        1022 36.23        14.2 0.49                           108  17 
 GUE  SZ EP   1   1022 13.09                             138    -0.2 7  117   9 
 GUE  SZ I        1022 33.78         5.4 0.12                           117   9 
 GRA  SZ EP       1022 13.94                             135     0.110  126  14 
 GRA  SZ ES   1   1022 32.94                             135    -0.2 7  126  14 
 GRA  SZ I        1022 35.83        10.9 0.28                           126  14 
 OCA  SZ EP   1   1022 16.93                             128    -0.3 7  163 351 
 OCA  SZ ES   2   1022 38.76                             128    -0.4 5  163 351 
 OCA  SZ I        1022 41.53        15.4 0.37                           163 351 
                                                                                
