 2016  3 8 1340 19.5 L   6.804 -73.168140.9  RSN  5 0.2 1.6LRSN                1
 GAP=143        0.65       3.7     4.0  5.4 -0.7257E+01  0.8528E+01 -0.2909E+01E
 Epicentro: LOS SANTOS - SANTANDER                                             3
 ACTION:UPD 16-05-13 21:22 OP:cam  STATUS:               ID:20160308134019 L   I
 OLDACT:REG 16-03-08 20:41 OP:ar   STATUS:               ID:20160308133750     3
 2016-03-08-1337-50M.COL___315                                                 6
 STAT SP IPHASW D HRMM SECON CODA AMPLIT PERI AZIMU VELO AIN AR TRES W  DIS CAZ7
 BAR2 EZ ES       1340 53.84                             170    0.4610 23.4 184 
 BAR2 EZ I        1340 54.05         6.9 0.44            171           23.4 184 
 PAM  EZ EP       1340 41.32                             149    0.0610 78.7  41 
 PAM  EN ES       1340 57.98                             149   -0.2610 78.7  41 
 PAM  EZ I        1341  0.42         7.1 0.48            150           78.7  41 
 RUS  HZ EP   2   1340 42.63                             143   -0.17 5  101 175 
 RUS  HN ES       1341  0.80                             143   -0.1910  101 175 
 RUS  HZ I        1341  1.94         4.8 0.36            145            101 175 
 PTB  HZ EP       1340 46.14                             131    0.31 9  145 258 
 PTB  HE ES       1341  6.10                             131   -0.29 9  145 258 
 PTB  HZ I        1341  8.13         3.2 0.42            132            145 258 
 SPBC HZ EP       1340 47.47                             128   -0.02 9  162 218 
 SPBC HN ES       1341  9.30                             128   -0.03 9  162 218 
 SPBC HZ I        1341  9.97         9.1 0.20            130            162 218 
                                                                                
