 2014 11 8 1558 38.5 L   6.753 -73.125149.1  RSN  6 0.4 1.6LRSN                1
 GAP=141        1.16       6.0     5.6  7.8 -0.8552E+01  0.9696E+01  0.5725E+01E
 Epicentro: LOS SANTOS - SANTANDER                                             3
 ACTION:UPD 14-12-19 15:40 OP:nd   STATUS:               ID:20141108155838 L   I
 OLDACT:REG 14-11-08 22:40 OP:carl STATUS:               ID:20141108155744     3
 2014-11-08-1557-44M.COL___295                                                 6
 STAT SP IPHASW D HRMM SECON CODA AMPLIT PERI AZIMU VELO AIN AR TRES W  DIS CAZ7
 BAR2 SZ EP       1558 58.54                             172    0.1010 18.8 200 
 BAR2 SZ ES       1559 13.41                             172   -0.5910 18.8 200 
 BAR2 SZ I        1559 14.57        17.5 0.30            169           18.8 200 
 BRR  HZ EP       1559  0.56                             152    0.3010 75.8 301 
 BRR  HN ES       1559 18.18                             152    0.9410 75.8 301 
 PAM  SZ EP       1559  0.96                             151   -0.2610 80.1  36 
 PAM  SN ES       1559 18.76                             151   -0.2010 80.1  36 
 PAM  SZ I        1559 20.54         8.7 0.54            155           80.1  36 
 RUS  HZ EP       1559  2.34                             146    0.1510 95.2 177 
 RUS  HN ES       1559 21.03                             146    0.3410 95.2 177 
 RUS  HZ I        1559 24.49         2.0 0.48            146           95.2 177 
 PTB  HZ EP       1559  5.53                             132   -0.32 9  149 261 
 PTB  HN ES       1559 26.40                             132   -0.79 9  149 261 
 PTB  HZ I        1559 33.62         7.0 0.38            132            149 261 
 NOR  HZ EP       1559 14.42                             119    0.13 8  234 236 
 NOR  HN ES       1559 42.36                             119    0.14 8  234 236 
 NOR  HZ I        1559 47.84         3.9 0.34            120            234 236 
                                                                                
