 2011  9 8 1602 12.2 L   6.298 -73.663106.0  RSN  5 0.2 1.7LRSN                1
 GAP=190        0.38       3.8     5.2  5.6  0.1448E+02  0.1796E+02  0.8326E+01E
 Epicentro: SANTA HELENA DEL OPON - SANTANDER                                  3
 ACTION:UPD 12-07-13 15:56 OP:ep   STATUS:               ID:20110908160212 L   I
 2011-09-08-1600-24S.COL___171                                                 6
 STAT SP IPHASW D HRMM SECON CODA AMPLIT PERI AZIMU VELO AIN AR TRES W  DIS CAZ7
 BAR2 SZ EP   1   16 2 28.71                             148   -0.20 7 62.4  59 
 BAR2 SZ ES   1   16 2 42.11                             148    0.14 7 62.4  59 
 BAR2 SZ I        16 2 43.44        16.4 0.13                          62.4  59 
 RUS  HZ EP   1   16 2 30.43                             141    0.02 7 78.3 125 
 RUS  HE ES   1   16 2 44.65                             141    0.01 7 78.3 125 
 BRR  HZ EP   1   16 2 30.51                             137   -0.12 7 89.6 357 
 BRR  HZ I        16 2 40.05        18.0 0.47                          89.6 357 
 BRR  HE ES   1   16 2 45.08                             137    0.04 7 89.6 357 
 GIR2 SZ EP   1   16 2 31.79                             133    0.00 7  101  31 
 ZAR  HZ EP   2   16 2 40.98                             115    0.55 4  187 315 
 ZAR  HE ES   2   16 3  2.28                             115   -0.20 4  187 315 
 ZAR  HZ I        16 3  8.50         4.7 0.33                           187 315 
                                                                                
