 2015 10 8 1953  7.9 L   6.810 -73.127148.8  RSN  9 0.4 2.0LRSN                1
 GAP=155        1.04       3.4     4.8  6.2 -0.3575E+01  0.8177E+01  0.3106E+01E
 Epicentro: LOS SANTOS - SANTANDER                                             3
 ACTION:UPD 15-12-22 20:38 OP:cam  STATUS:               ID:20151008195307 L   I
 OLDACT:UP  15-10-09 00:50 OP:ak   STATUS:               ID:20151008194748     3
 OLDACT:REG 15-10-08 21:48 OP:ak   STATUS:               ID:20151008194748     3
 2015-10-08-1947-48M.COL___325                                                 6
 STAT SP IPHASW D HRMM SECON CODA AMPLIT PERI AZIMU VELO AIN AR TRES W  DIS CAZ7
 BAR2 EZ EP       1953 27.64                             170   -0.2910 24.9 194 
 BAR2 EZ ES       1953 43.10                             170   -0.4510 24.9 194 
 BAR2 EZ I        1953 44.25        12.0 0.28            168           24.9 194 
 BRR  HZ EP   1   1953 29.89                             153    0.43 7 72.5 297 
 BRR  HE ES       1953 47.10                             153    0.8410 72.5 297 
 PAM  EZ EP       1953 30.96                             152    0.6410 75.2  39 
 PAM  EE ES       1953 47.72                             152   -0.0810 75.2  39 
 PAM  EZ I        1953 50.23        20.9 0.46            155           75.2  39 
 SPBC HZ EP       1953 36.35                             129   -0.49 9  165 219 
 SPBC HE ES       1953 58.94                             129   -0.48 9  165 219 
 SPBC HZ I        1954  1.46        12.9 0.27            129            165 219 
 ZAR  HZ EP   2   1953 40.41                             123   -0.29 4  206 292 
 ZAR  HN ES       1954  6.10                             123   -0.18 8  206 292 
 ZAR  HZ I        1954 16.68         9.7 0.12            122            206 292 
 NOR  HZ EP       1953 44.23                             119    0.17 8  237 235 
 NOR  HN ES       1954 12.03                             119   -0.23 8  237 235 
 NOR  HZ I        1954 19.97         7.4 0.14            119            237 235 
 SML  HZ EP       1953 44.29                             118   -0.40 8  244 335 
 SML  HN ES       1954 12.86                             118   -0.51 8  244 335 
 SML  HZ I        1954 17.20        17.0 0.07            118            244 335 
 CHI  HZ EP       1953 46.14                             118    0.19 8  250 196 
 CHI  HN ES       1954 15.82                             118    0.19 8  250 196 
 CHI  HZ I        1954 21.46         4.2 0.68            118            250 196 
 GUY2CHZ EP   1   1953 52.32                             113    0.40 5  304 235 
 GUY2CHE ES       1954 26.96                             113    0.71 7  304 235 
 GUY2CHZ I        1954 33.95         4.3 0.52                           304 235 
                                                                                
