 2011 12 8 1605 22.5 L   6.763 -73.107138.0  RSN 12 0.5 2.4LRSN                1
 GAP=119        0.84       4.0     4.9  6.1 -0.6207E+01  0.7014E+01  0.6523E+01E
 Epicentro: LOS SANTOS - SANTANDER                                             3
 ACTION:UPD 12-07-13 16:15 OP:ep   STATUS:               ID:20111208160522 L   I
 2011-12-08-1600-00M.COL___170                                                 6
 STAT SP IPHASW D HRMM SECON CODA AMPLIT PERI AZIMU VELO AIN AR TRES W  DIS CAZ7
 BAR2 SZ IP       16 5 41.14                             171    0.0110 20.6 204 
 BAR2 SZ ES   1   16 5 55.40                             171   -0.27 7 20.6 204 
 BAR2 SZ I        16 5 57.17        82.3 0.13                          20.6 204 
 BRR  HZ IP     C 16 5 43.07                             149   -0.0710 76.9 300 
 BRR  HN ES   1   16 5 59.49                             149    0.23 7 76.9 300 
 BRR  HZ I        16 6  1.56        49.9 0.11                          76.9 300 
 PAM  SZ EP       16 5 44.22                             149    0.3010 78.0  35 
 PAM  SN ES   1   16 6  0.58                             149   -0.06 7 78.0  35 
 RUS  HZ EP   1   16 5 45.01                             143   -0.15 7 96.3 178 
 RUS  HN ES   1   16 6  2.72                             143   -0.13 7 96.3 178 
 RUS  HZ I        16 6  5.75        24.1 0.34                          96.3 178 
 YOP  SZ EP   1   16 5 51.56                             125    0.14 7  173 154 
 YOP  SZ I        16 6 17.20        21.3 0.29                           173 154 
 NOR  SZ EP   1   16 5 56.99                             117   -0.91 6  236 236 
 NOR  SN ES   1   16 6 24.47                             117   -1.05 6  236 236 
 CHI  HZ EP   1   16 5 59.00                             116   -0.46 6  246 196 
 CHI  HN ES   1   16 6 28.05                             116   -0.25 6  246 196 
 CHI  HZ I        16 6 32.65         7.6 0.24                           246 196 
 ROSC BE ES       16 6 30.31                             115    0.95 8  252 212 
 ROSC BZ I        16 6 37.99        26.6 0.50                           252 212 
 HEL  HZ EP   1   16 6  2.70                             113    0.03 6  275 257 
 HEL  HZ I        16 6 40.20        25.2 0.42                           275 257 
 GUY  SZ EP   1   16 6  6.11                             110   -0.04 5  305 236 
 GUY  SN ES   1   16 6 41.02                             110    0.82 5  305 236 
 GUY  SZ I        16 6 45.17        17.0 0.55                           305 236 
 RREF HZ EP   1   16 6  8.58                             109    0.21 5  322 230 
 RREF HZ I        16 6 50.37        11.2 0.21                           322 230 
 PRA  HZ EP   2   16 6 15.66                             105    0.08 3  391 210 
                                                                                
