 2016 11 8 1150 50.7 L   6.736 -73.124146.0  RSN  5 0.4 1.5LRSN                1
 GAP=167        0.86       7.2     4.2  6.7 -0.6687E+01  0.6386E+01  0.7086E+00E
 Epicentro: JORDAN - SANTANDER                                                 3
 ACTION:UPD 17-10-26 21:05 OP:lp   STATUS:               ID:20161108115050 L   I
 OLDACT:REG 16-11-08 21:58 OP:dnl  STATUS:               ID:20161108114736     3
 2016-11-08-1148-00M.COL___349                                                 6
 STAT SP IPHASW D HRMM SECON CODA AMPLIT PERI AZIMU VELO AIN AR TRES W  DIS CAZ7
 BAR2 EZ EP       1151 10.41                             173    0.1710 17.2 202 
 BAR2 EZ ES       1151 25.40                             173   -0.0910 17.2 202 
 BAR2 EZ I        1151 26.51         9.0 0.20            172           17.2 202 
 BRR  HZ EP       1151 12.36                             151    0.1710 76.9 302 
 BRR  HZ I        1151 28.75        11.4 0.32            145           76.9 302 
 BRR  HN ES       1151 29.45                             151    0.4910 76.9 302 
 PAM  EZ EP       1151 13.34                             150    0.1610 81.5  35 
 PAM  EN ES       1151 30.38                             150   -0.3410 81.5  35 
 PAM  EZ I        1151 31.96         3.5 0.22            146           81.5  35 
 PTB  HZ EP       1151 17.20                             132   -0.58 9  149 262 
 PTB  HE ES       1151 39.01                             132    0.09 9  149 262 
 PTB  HZ I        1151 43.97         3.3 0.28            127            149 262 
 ZAR  HZ EP   2   1151 24.48                             122    0.82 4  209 294 
 ZAR  HE ES       1151 48.97                             122   -0.41 8  209 294 
 ZAR  HZ I        1151 54.18         3.7 0.30            117            209 294 
                                                                                
