 2010  8 8 1113 40.2 L   6.866 -73.280120.0  RSN 11 0.4 2.1LRSN                1
 GAP=131        0.79       3.5     7.2  6.4 -0.8300E+01  0.5934E+01  0.9830E+00E
 Epicentro: ZAPATOCA - SANTANDER                                               3
 ACTION:UP  10-09-07 10:53 OP:vdl  STATUS:               ID:20100808111340 L   I
 2010-08-08-1109-55S.COL___125                                                 6
 STAT SP IPHASW D HRMM SECON CODA AMPLIT PERI AZIMU VELO SNR AR TRES W  DIS CAZ7
 BTL  SZ EP       1113 56.58                             177     0.110    6  13 
 BTL  SZ ES   2   1114  9.14                             177     0.0 5    6  13 
 BAR2 SZ EP   1   1113 57.07                             164     0.1 7   32 161 
 BAR2 SZ ES   2   1114 10.09                             164     0.0 5   32 161 
 BRR  HZ EP       1113 57.40                             154    -0.210   55 299 
 BRR  HZ I        1113 57.80        55.9 0.08                            55 299 
 BRR  HE ES   2   1114 11.43                             154     0.2 5   55 299 
 BRI  SZ EP   1   1114  2.12                             135     0.4 7  108  30 
 RUS  HZ EP   1   1114  1.67                             135    -0.6 7  110 169 
 RUS  HN ES   2   1114 19.09                             135    -0.4 5  110 169 
 GUE  SZ EP       1114  2.04                             134    -0.310  114  20 
 GUE  SZ ES   2   1114 19.42                             134    -0.2 5  114  20 
 GUE  SZ I        1114 20.08        24.5 0.14                           114  20 
 GRA  SZ EP   1   1114  3.32                             131     0.2 7  124  25 
 GRA  SZ I        1114  4.88        17.2 0.17                           124  25 
 GRA  SZ ES   2   1114 22.21                             131     1.2 5  124  25 
 OCA  SZ EP   1   1114  5.43                             124    -0.3 7  152 358 
 OCA  SZ ES   2   1114 25.33                             124    -0.4 5  152 358 
 OCA  SZ I        1114 32.86        29.0 0.40                           152 358 
 CHI  HZ EP   1   1114 17.04                             111     0.0 6  252 191 
 CHI  HN ES   2   1114 46.54                             111     0.8 4  252 191 
 CHI  HZ I        1114 57.17         2.9 0.74                           252 191 
 HEL  HZ EP   1   1114 18.03                             110     0.2 6  260 253 
 HEL  HZ I        1114 50.12         6.2 0.73                           260 253 
 PRA  HZ EP   1   1114 33.39                             102     0.6 4  391 207 
                                                                                
