 2013  3 8 1611 52.8 L   6.796 -73.136150.9  RSN 19 0.5 3.5LRSN 3.5WRSN        1
 SPEC AVERAGE  MO 14.3 ST  4.3 OM  3.0 f0 2.48 R0.6234 AL 2.03 WI 20.7 MW  3.5 3
 SPEC SD       MO  0.3 ST  2.0 OM  0.5 f00.577 R0.1386 AL      WI      MW  0.2 3
 GAP= 72        0.98       2.4     3.3  4.5 -0.4264E+00  0.3923E+01  0.1213E+01E
 Epicentro: LOS SANTOS - SANTANDER                                             3
 SPEC ZAR HH Z MO 14.6 ST  6.2 OM  2.8 f0 2.24 R0.6562 AL 1.80 WI 28.5 MW  3.7 3
 SPEC ZAR HH Z T161247 K 0.000 GD  254 VS 4.20 DE 3.20 Q0300.0 QA 0.60 VS 4.20 3
 SPEC ROSCBH Z MO 14.7 ST  3.5 OM  2.8 f0 1.76 R0.8352 AL 2.38 WI 20.9 MW  3.7 3
 SPEC ROSCBH Z T161258 K 0.000 GD  294 VS 4.20 DE 3.20 Q0300.0 QA 0.60 VS 4.20 3
 SPEC RUS HH Z MO 14.2 ST  6.3 OM  2.5 f0 3.17 R0.4637 AL 3.04 WI 12.8 MW  3.4 3
 SPEC RUS HH Z T161234 K 0.000 GD  181 VS 4.20 DE 3.20 Q0300.0 QA 0.60 VS 4.20 3
 SPEC HEL HH Z MO 14.4 ST  6.5 OM  2.5 f0 2.68 R0.5485 AL 1.63 WI 26.3 MW  3.5 3
 SPEC HEL HH Z T1613 1 K 0.000 GD  311 VS 4.20 DE 3.20 Q0300.0 QA 0.60 VS 4.20 3
 SPEC PAM SH Z MO 13.9 ST  1.2 OM  2.3 f0 2.19 R0.6712 AL 1.91 WI 12.4 MW  3.2 3
 SPEC PAM SH Z T161230 K 0.000 GD  169 VS 4.20 DE 3.20 Q0300.0 QA 0.60 VS 4.20 3
 SPEC CHI HH Z MO 14.3 ST  1.8 OM  2.4 f0 1.94 R0.7577 AL 1.86 WI 22.1 MW  3.5 3
 SPEC CHI HH Z T161256 K 0.000 GD  291 VS 4.20 DE 3.20 Q0300.0 QA 0.60 VS 4.20 3
 SPEC BRR HH Z MO 13.9 ST  4.6 OM  2.3 f0 3.41 R0.4311 AL 1.58 WI 21.6 MW  3.2 3
 SPEC BRR HH Z T161229 K 0.000 GD  167 VS 4.20 DE 3.20 Q0300.0 QA 0.60 VS 4.20 3
 ACTION:UPD 13-04-09 14:00 OP:ep   STATUS:               ID:20130308161152 L   I
 2013-03-08-1610-00M.COL___231                                                 6
 STAT SP IPHASW D HRMM SECON CODA AMPLIT PERI AZIMU VELO AIN AR TRES W  DIS CAZ7
 BAR2 SZ IP       1612 13.13                             171    0.0910 23.1 193 
 BAR2 SZ ES       1612 28.73                             171   -0.1010 23.1 193 
 BAR2 SZ I        1612 31.49       730.0 0.40            168           23.1 193 
 BRR  HZ IP     C 1612 15.05                             153    0.4810 72.4 298 
 BRR  HN ES       1612 32.38                             153    0.8310 72.4 298 
 BRR  HN I        1612 33.91      1013.2 0.23            150           72.4 298 
 PAM  SZ IP     C 1612 15.94                             152    0.4010 77.0  39 
 PAM  SN ES       1612 33.03                             152   -0.2510 77.0  39 
 PAM  SZ I        1612 35.74       379.4 0.53            156           77.0  39 
 RUS  HZ IP     D 1612 17.08                             145    0.0610  100 177 
 RUS  HN ES       1612 35.72                             145   -0.2010  100 177 
 RUS  HN I        1612 37.72       910.7 0.42            145            100 177 
 PTB  HZ EP       1612 19.80                             133   -0.48 9  149 259 
 PTB  HE ES   1   1612 41.60                             133   -0.11 7  149 259 
 PTB  HZ I        1612 43.36       407.8 0.34            131            149 259 
 TAM  HZ EP     C 1612 21.30                             132    0.52 9  154 105 
 TAM  HZ I        1612 21.64       522.5 0.41            136            154 105 
 TAM  HN ES   1   1612 42.57                             132   -0.04 7  154 105 
 OCA  HZ EP       1612 21.38                             131   -0.18 9  161 353 
 OCA  HN ES   1   1612 43.56                             131   -0.44 7  161 353 
 OCA  HZ I        1612 48.20       298.0 0.36            132            161 353 
 ZAR  HZ EP       1612 25.56                             123   -0.14 8  205 292 
 ZAR  HE ES   1   1612 51.29                             123   -0.08 6  205 292 
 ZAR  HZ I        1612 58.21       295.1 0.29            123            205 292 
 SML  HZ EP       1612 29.25                             118   -0.56 8  245 335 
 SML  HN ES       1612 58.24                             118   -0.43 8  245 335 
 SML  HZ I        1613  0.25       152.6 0.11            119            245 335 
 CHI  HZ EP       1612 31.18                             118    0.41 8  249 195 
 CHI  HN ES       1612 59.69                             118   -0.70 8  249 195 
 CHI  HZ I        1613  9.44       128.5 0.57            119            249 195 
 ROSC BZ EP   4   1612 32.69                             118    1.46 0  253 211 
 ROSC BE ES   1   1613  0.55                             118   -0.65 6  253 211 
 ROSC BZ I        1613  7.84       260.9 0.31            118            253 211 
 HEL  HZ EP   1   1612 34.14                             116    0.76 6  273 256 
 HEL  HN ES   1   1613  5.46                             116    0.42 6  273 256 
 HEL  HN I        1613 11.84       180.3 0.36            116            273 256 
 URE  HZ EP   4   1612 32.99                             114   -1.26 0  285 292 
 URE  HE ES   4   1613  3.88                             114   -2.70 0  285 292 
 URE  HZ I        1613 18.28       132.3 0.23            115            285 292 
 VIL  SZ EP       1612 35.76                             113   -0.67 7  303 192 
 VIL  SE ES   1   1613  9.91                             113   -0.56 5  303 192 
 VIL  SZ I        1613 16.42       180.0 0.49            114            303 192 
 RREF HZ EP       1612 40.15                             112    0.92 7  322 230 
 RREF HN ES   1   1613 15.05                             112   -0.40 5  322 230 
 RREF HZ I        1613 24.28       178.1 0.23            112            322 230 
 DBB  SZ EP       1612 40.62                             110    0.00 7  341 274 
 COD  HZ EP       1612 40.81                             110   -0.63 6  349 354 
 ANIL HN EP       1612 43.77                             109    0.91 6  358 225 
 ANIL HN ES   1   1613 21.94                             109    0.04 5  358 225 
 PRA  HZ EP       1612 46.53                             107    0.01 6  392 210 
 PRA  HE ES       1613 28.28                             107   -0.14 6  392 210 
 PRA  HZ I        1613 34.34       126.4 0.21            108            392 210 
 SJC  HN EP   4   1612 47.33                             106   -1.31 0  410 327 
                                                                                
