 2013  1 8 1836 52.2 L   6.685 -73.207140.5  RSN  4 0.2 2.0LRSN                1
 GAP=215        0.68       5.1     4.9  5.5  0.1251E+02  0.4326E+01  0.1871E+01E
 Epicentro: VILLANUEVA - SANTANDER                                             3
 ACTION:UPD 13-02-15 09:13 OP:ep   STATUS:               ID:20130108183652 L   I
 2013-01-08-1830-00M.COL___239                                                 6
 STAT SP IPHASW D HRMM SECON CODA AMPLIT PERI AZIMU VELO AIN AR TRES W  DIS CAZ7
 BAR2 SZ EP       1837 10.64                             175   -0.3610 10.6 165 
 BAR2 SZ ES       1837 25.70                             175    0.0310 10.6 165 
 BAR2 SZ I        1837 28.07        30.8 0.28            170           10.6 165 
 BRR  HZ EP       1837 12.68                             151   -0.1910 72.7 310 
 BRR  HN ES       1837 29.25                             151    0.2510 72.7 310 
 BRR  HN I        1837 30.01        29.7 0.26            151           72.7 310 
 RUS  HZ EP       1837 15.06                             146    0.4610 88.7 171 
 RUS  HN ES       1837 31.92                             146   -0.1510 88.7 171 
 RUS  HN I        1837 34.30        11.9 0.22            145           88.7 171 
 PTB  HZ EP       1837 18.02                             133    0.06 9  139 263 
 PTB  HN ES       1837 37.94                             133   -0.11 9  139 263 
 PTB  HN I        1837 43.95        13.6 0.28            131            139 263 
                                                                                
