 2014  4 8 1903 16.7 L   6.821 -73.197141.1  RSN  4 0.3 1.4LRSN                1
 GAP=129        0.62       4.4     5.0  7.1  0.8028E+01 -0.7787E+01 -0.3826E+01E
 Epicentro: ZAPATOCA - SANTANDER                                               3
 ACTION:UPD 14-05-13 23:07 OP:nd   STATUS:               ID:20140408190316 L   I
 OLDACT:REG 14-04-08 21:07 OP:cam  STATUS:               ID:20140408185817     3
 2014-04-08-1858-17M.COL___249                                                 6
 STAT SP IPHASW D HRMM SECON CODA AMPLIT PERI AZIMU VELO AIN AR TRES W  DIS CAZ7
 BRR  HZ EP   1   19 3 37.44                             154    0.45 7 65.1 299 
 BRR  HN ES       19 3 52.92                             154    0.0910 65.1 299 
 PAM  SZ EP   1   19 3 38.07                             149   -0.45 7 79.4  44 
 RUS  HZ EP   1   19 3 40.34                             142    0.15 7  103 173 
 RUS  HN ES       19 3 58.52                             142   -0.0010  103 173 
 RUS  HZ I        19 3 59.79         2.5 0.48            141            103 173 
 PTB  HZ EP   1   19 3 42.85                             132    0.04 7  143 257 
 PTB  HN ES   1   19 4  2.79                             132   -0.40 7  143 257 
 PTB  HZ I        19 4  5.88         7.0 0.12            130            143 257 
                                                                                
