 2012  6 8 1141 14.9 L   6.832 -73.131144.7  RSN 15 0.5 3.3LRSN 3.9WRSN        1
 SPEC AVERAGE  MO 14.9 ST 15.0 OM  3.8 f0 2.75 R0.6705 AL 2.89 WI 51.2 MW  3.9 3
 SPEC SD       MO  0.1 ST  7.3 OM  0.9 f00.158 R0.1507 AL      WI      MW  0.1 3
 GAP=127        0.88       3.5     4.6  6.0 -0.2919E+01  0.5702E+01 -0.4860E+01E
 Epicentro: LOS SANTOS - SANTANDER                                             3
 SPEC ROSCBH Z MO 15.0 ST  5.6 OM  2.4 f0 3.02 R0.9311 AL 3.60 WI 29.3 MW  4.0 3
 SPEC ROSCBH Z T114154 K 0.000 GD  294 VP 7.60 DE 3.00 Q0230.0 QA 0.60 VS 4.20 3
 SPEC OCA HH N MO 15.1 ST 26.0 OM  3.4 f0 2.61 R0.5954 AL 2.67 WI 62.1 MW  4.0 3
 SPEC OCA HH N T1142 4 K 0.000 GD  213 VS 4.20 DE 3.00 Q0230.0 QA 0.60 VS 4.20 3
 SPEC HEL HH N MO 14.8 ST 13.3 OM  2.9 f0 2.70 R0.5756 AL 2.39 WI 76.8 MW  3.8 3
 SPEC HEL HH N T114224 K 0.000 GD  310 VS 4.20 DE 3.00 Q0230.0 QA 0.60 VS 4.20 3
 SPEC CHI HH N MO 14.8 ST 15.3 OM  3.0 f0 2.68 R0.5799 AL 2.90 WI 36.7 MW  3.8 3
 SPEC CHI HH N T114221 K 0.000 GD  290 VS 4.20 DE 3.00 Q0230.0 QA 0.60 VS 4.20 3
 ACTION:UPD 12-08-06 17:48 OP:ep   STATUS:               ID:20120608114122 L   I
 2012-06-08-1138-00M.COL___202                                                 6
 STAT SP IPHASW D HRMM SECON CODA AMPLIT PERI AZIMU VELO AIN AR TRES W  DIS CAZ7
 BAR2 SZ IP       1141 34.86                             169    0.3510 27.1 192 
 BAR2 SZ ES   1   1141 50.06                             169    0.27 7 27.1 192 
 BAR2 SZ I        1141 51.54       280.5 0.30            171           27.1 192 
 RUS  HZ IP     C 1141 38.74                             143   -0.0810  104 177 
 RUS  HN ES   1   1141 57.08                             143   -0.38 7  104 177 
 RUS  HZ I        1141 58.44       184.4 0.32            144            104 177 
 PTB  HZ EP       1141 41.74                             131   -0.28 9  150 258 
 PTB  HN ES   1   1142  2.71                             131   -0.45 7  150 258 
 PTB  HZ I        1142  9.96       257.6 0.42            121            150 258 
 OCA  HZ EP       1141 43.10                             130    0.25 9  157 352 
 OCA  HZ I        1142  9.99       387.7 0.20            116            157 352 
 ZAR  HZ EP       1141 47.31                             122   -0.02 9  204 291 
 ZAR  HN ES   2   1142 12.74                             122    0.13 4  204 291 
 ZAR  HZ I        1142 18.41       286.3 0.32            111            204 291 
 NOR  SZ IP       1141 50.92                             118   -0.04 8  238 234 
 NOR  SE ES   1   1142 17.99                             118   -1.08 6  238 234 
 CHI  HZ EP       1141 52.83                             116   -0.15 8  252 195 
 CHI  HN ES   1   1142 22.23                             116   -0.44 6  252 195 
 CHI  HZ I        1142 27.94       100.6 0.32            111            252 195 
 ROSC BN ES   1   1142 24.78                             116    1.35 6  257 211 
 HEL  HZ EP       1141 55.94                             114    0.58 8  275 255 
 HEL  HZ I        1142 33.33       101.7 0.30            107            275 255 
 DBB  SZ EP       1142  2.81                             109    0.28 7  341 274 
 COD  HZ EP   2   1142  2.62                             109   -0.26 3  345 354 
 COD  HN ES   2   1142 40.44                             109    0.16 3  345 354 
 COD  HZ I        1142 47.07        66.2 0.36            101            345 354 
 TOL  SZ EP       1142  4.21                             109    0.65 6  347 224 
 SDV  BZ EP       1142  4.12                             108   -0.40 6  357  50 
 PRA  HZ EP       1142  8.21                             106   -0.66 6  396 210 
 PRA  HE ES   1   1142 50.99                             106    0.06 4  396 210 
 SJC  HZ EP   2   1142  9.06                             106   -1.16 3  407 326 
 SJC  HZ I        1142 54.66        35.3 0.50             98            407 326 
                                                                                
