 2013 10 8 1633 25.3 L   6.864 -73.182134.7  RSN  4 0.4 1.9LRSN                1
 GAP=205        0.95       8.6     7.4  9.8 -0.9246E+01  0.1940E+02 -0.4758E+02E
 Epicentro: ZAPATOCA - SANTANDER                                               3
 ACTION:UPD 13-11-25 09:20 OP:ep   STATUS:               ID:20131008163325 L   I
 OLDACT:REG 13-10-08 15:37 OP:nd   STATUS:               ID:20131008162959     3
 2013-10-08-1629-59M.COL___273                                                 6
 STAT SP IPHASW D HRMM SECON CODA AMPLIT PERI AZIMU VELO AIN AR TRES W  DIS CAZ7
 BAR2 SZ EP       1633 43.30                             167   -0.5210 30.1 180 
 BAR2 SZ ES       1633 58.37                             167    0.1510 30.1 180 
 BAR2 SZ I        1633 59.70        18.2 0.22            169           30.1 180 
 BRR  HZ IP     C 1633 45.03                             153    0.1110 64.4 295 
 BRR  HN ES   2   1634  0.70                             153    0.52 5 64.4 295 
 BRR  HZ I        1634  5.13        16.1 0.42            149           64.4 295 
 PTB  HZ EP       1633 51.90                             130    0.69 9  145 256 
 PTB  HN ES       1634 10.91                             130   -0.48 9  145 256 
 PTB  HZ I        1634 16.76         6.8 0.18            131            145 256 
 SML  HZ EP       1634  0.49                             116    0.01 8  236 335 
 SML  HN ES   2   1634 27.52                             116   -0.37 4  236 335 
 SML  HZ I        1634 30.82         9.7 0.10            118            236 335 
                                                                                
