 2013  5 8 1603 35.0 L   7.192 -73.613106.2  RSN  4 0.3 1.7LRSN                1
 GAP=233        0.69       8.5     4.5  6.9 -0.9718E+01  0.9503E+01  0.1506E-01E
 Epicentro: SABANA DE TORRES - SANTANDER                                       3
 ACTION:UPD 13-06-20 09:48 OP:ep   STATUS:               ID:20130508160335 L   I
 2013-05-08-1600-00M.COL___256                                                 6
 STAT SP IPHASW D HRMM SECON CODA AMPLIT PERI AZIMU VELO AIN AR TRES W  DIS CAZ7
 BRR  HZ EP   1   16 3 49.55                             172    0.19 7 14.4 229 
 BRR  HZ I        16 3 49.89        18.5 0.46            169           14.4 229 
 BRR  HN ES   1   16 4  1.01                             172    0.47 7 14.4 229 
 GIR2 SZ EP     D 16 3 50.72                             154   -0.0810 48.0 105 
 GIR2 SZ I        16 3 50.96        22.8 0.26            156           48.0 105 
 GIR2 SZ ES   1   16 4  2.48                             154   -0.62 7 48.0 105 
 BAR2 SZ EP   1   16 3 53.42                             140    0.22 7 81.7 144 
 BAR2 SZ ES   1   16 4  7.63                             140    0.25 7 81.7 144 
 PTB  HZ EP       16 3 56.09                             128   -0.0110  118 232 
 PTB  HN ES   1   16 4 12.17                             128   -0.36 7  118 232 
 PTB  HZ I        16 4 14.35         6.9 0.30            127            118 232 
                                                                                
