 2017  1 8 1053 54.4 L   6.808 -73.162143.5  RSN  5 0.4 1.2LRSN                1
 GAP=243        0.69       7.0     5.3  6.8  0.2409E+02  0.4074E+01 -0.5515E+01E
 Epicentro: LOS SANTOS - SANTANDER                                             3
 *BAR2-RUS-PTB-ZAR-GUY2C                                                       3
 ACTION:UPD 17-05-22 15:56 OP:jn   STATUS:               ID:20170108105354 L   I
 OLDACT:UP  17-01-08 21:18 OP:and  STATUS:               ID:20170108104747     3
 OLDACT:UP  17-01-08 21:17 OP:and  STATUS:               ID:20170108104747     3
 OLDACT:REG 17-01-08 19:48 OP:and  STATUS:               ID:20170108104747     3
 2017-01-08-1048-00M.COL___371                                                 6
 STAT SP IPHASW D HRMM SECON CODA AMPLIT PERI AZIMU VELO AIN AR TRES W  DIS CAZ7
 BAR2 EZ EP       1054 13.62                             171   -0.1310 24.0 185 
 BAR2 EZ ES       1054 29.19                             171    0.3310 24.0 185 
 RUS  HZ EP       1054 17.92                             144   -0.0610  102 175 
 RUS  HN ES     D 1054 36.30                             144   -0.0910  102 175 
 RUS  HZ I        1054 37.30         1.5 0.20            146            102 175 
 PTB  HZ EP   2   1054 20.31                             132   -0.71 5  146 258 
 PTB  HN ES       1054 41.65                             132   -0.15 9  146 258 
 PTB  HZ I        1054 43.22         2.4 0.14            132            146 258 
 ZAR  HE ES       1054 51.58                             122    0.08 9  202 292 
 ZAR  HZ I        1054 57.25         1.9 0.14            122            202 292 
 GUY2CHZ EP   2   1054 39.12                             112    1.35 4  300 234 
 GUY2CHE ES   4   1055 15.50                             112    3.87 0  300 234 
 GUY2CHZ  IAML    1055 19.95         1.0 0.60                           300 234 
                                                                                
