 2016  4 8 1718 11.6 L   6.802 -73.169135.0  RSN 15 0.4 2.6LRSN                1
 GAP=134        1.05       2.9     3.9  5.8 -0.2366E+01  0.8929E+01  0.8647E+00E
 Epicentro: LOS SANTOS - SANTANDER                                             3
 ACTION:UPD 16-05-05 14:19 OP:rebc STATUS:               ID:20160408171811 L   I
 OLDACT:DUP 16-04-08 21:59 OP:drio STATUS:               ID:20160408170753d    3
 2016-04-08-1707-52M.COL___277                                                 6
 STAT SP IPHASW D HRMM SECON CODA AMPLIT PERI AZIMU VELO AIN AR TRES W  DIS CAZ7
 BAR2 EZ IP     C 1718 30.10                             170    0.1510 23.2 184 
 BAR2 EZ ES       1718 43.90                             170   -0.3510 23.2 184 
 BAR2 EZ I        1718 46.18        80.5 0.28            167           23.2 184 
 PAM  EZ EP       1718 33.11                             148    0.3210 78.9  41 
 PAM  EN ES       1718 49.82                             148    0.5110 78.9  41 
 PAM  EZ I        1718 52.08        54.7 0.50            154           78.9  41 
 RUS  HZ EP       1718 34.09                             141   -0.2610  101 175 
 RUS  HE ES       1718 52.32                             141    0.2310  101 175 
 RUS  HZ I        1718 53.80        33.9 0.32            142            101 175 
 PTB  HZ EP       1718 36.87                             130   -0.62 9  145 259 
 PTB  HN ES       1718 57.29                             130   -0.39 9  145 259 
 PTB  HZ I        1719  0.21        45.0 0.14            130            145 259 
 OCA  HZ EP       1718 39.11                             127    0.05 9  160 354 
 OCA  HN ES       1718 59.67                             127   -0.80 9  160 354 
 OCA  HZ I        1719  3.27        91.9 0.20            130            160 354 
 SPBC HZ EP       1718 39.16                             127   -0.01 9  162 218 
 SPBC HE ES       1719  0.93                             127    0.27 9  162 218 
 SPBC HZ I        1719  6.43        60.8 0.24            127            162 218 
 ZAR  HZ EP       1718 43.26                             120    0.14 9  202 292 
 ZAR  HN ES       1719  8.28                             120    0.58 9  202 292 
 ZAR  HZ I        1719 14.29        49.4 0.42            121            202 292 
 NOR  HZ EP       1718 46.39                             116   -0.13 8  233 234 
 NOR  HE ES       1719 13.13                             116   -0.63 8  233 234 
 NOR  HZ I        1719 17.43        27.1 0.14            117            233 234 
 CHI  HZ EP       1718 48.52                             115   -0.17 8  248 195 
 CHI  HE ES       1719 17.45                             115   -0.15 8  248 195 
 CHI  HZ I        1719 24.67        17.5 0.50            116            248 195 
 ROSC BZ EP   4   1718 50.74                             114    1.70 0  252 211 
 ROSC BN ES   4   1719 21.30                             114    3.07 0  252 211 
 ROSC BZ I        1719 24.64        29.8 0.50            116            252 211 
 HEL  HZ EP       1718 51.97                             113    0.95 8  270 256 
 HEL  HN ES       1719 22.32                             113    0.56 8  270 256 
 HEL  HZ I        1719 29.35        22.9 0.58            114            270 256 
 GUY2CHZ EP       1718 54.32                             110   -0.20 7  299 234 
 GUY2CHN ES   4   1719 31.35                             110    3.36 0  299 234 
 GUY2CHZ I        1719 38.26        22.4 0.64                           299 234 
 ELA  HZ EP   4   1718 59.56                             108    1.74 0  327 229 
 ELA  HN ES   4   1719 36.76                             108    2.90 0  327 229 
 ELA  HZ I        1719 42.01        17.6 0.40            109            327 229 
 DBB  SZ EP   4   1718 58.62                             108    0.25 0  337 274 
 DBB  SZ ES   4   1719 33.51                             108   -1.34 0  337 274 
 MON  HZ EP   4   1718 57.41                             107   -2.56 0  352 309 
 MON  HN ES   4   1719 36.18                             107   -1.51 0  352 309 
 ORTC HZ EP       1719  4.46                             104   -0.56 6  394 216 
 ORTC HN ES       1719 47.53                             104    0.84 6  394 216 
 ORTC HZ I        1719 54.45        12.8 0.48            106            394 216 
 SJC  HZ EP   4   1719  4.36                             104   -2.29 0  408 327 
 SJC  HN ES   4   1719 45.33                             104   -4.26 0  408 327 
 SJC  HZ I        1719 49.87         7.4 0.44            105            408 327 
                                                                                
