 2014  8 8 1906 15.7 L   6.082 -73.902 14.7  RSN  4 0.2 1.5LRSN                1
 GAP=121        0.46       1.7     1.1  2.4  0.5471E+00  0.8409E-02  0.3690E+00E
 Epicentro: EL PENON - SANTANDER                                               3
 ACTION:UPD 14-09-15 21:47 OP:nd   STATUS:               ID:20140808190615 L   I
 OLDACT:DUP 14-08-08 23:57 OP:carl STATUS:               ID:20140808185817d    3
 2014-08-08-1858-16M.COL___257                                                 6
 STAT SP IPHASW D HRMM SECON CODA AMPLIT PERI AZIMU VELO AIN AR TRES W  DIS CAZ7
 PTB  HZ EP       19 6 28.40                              98   -0.1110 79.6 310 
 PTB  HN ES       19 6 38.53                              98    0.0510 79.6 310 
 PTB  HZ I        19 6 39.71        16.1 0.10             98           79.6 310 
 RUS  HZ EP       19 6 31.30                              97    0.2810 93.0 103 
 RUS  HN ES       19 6 42.78                              97   -0.1710 93.0 103 
 RUS  HZ I        19 6 43.43         8.2 0.20             97           93.0 103 
 PAM  SZ EP       19 6 44.54                              56   -0.16 9  192  44 
 PAM  SN ES       19 7  7.40                              56    0.09 9  192  44 
 PAM  SZ I        19 7  8.75        10.4 0.18             56            192  44 
 TOL  SE ES       19 7 14.96                              56   -0.01 8  228 224 
                                                                                
