 2010  9 8 1512 42.2 L   6.276 -73.570110.6  RSN  8 0.4 2.0LRSN                1
 GAP= 83        0.73       4.5     5.5  8.5 -0.5408E+01  0.2093E+02 -0.3018E+00E
 Epicentro: EL GUACAMAYO - SANTANDER                                           3
 ACTION:UP  11-02-18 11:01 OP:tino STATUS:               ID:20100908151242 L   I
 2010-09-08-1508-34S.COL___120                                                 6
 STAT SP IPHASW D HRMM SECON CODA AMPLIT PERI AZIMU VELO SNR AR TRES W  DIS CAZ7
 BAR2 SZ EP   1   1512 59.17                             152     0.2 7   55  51 
 BAR2 SZ ES   2   1513 12.27                             152     0.2 5   55  51 
 BAR2 SZ I        1513 13.52        45.3 0.31                            55  51 
 RUS  HZ EP   1   1513  0.06                             146    -0.1 7   69 128 
 RUS  HE ES   2   1513 13.99                             146    -0.2 5   69 128 
 BRR  HZ EP   1   1513  0.93                             137    -0.4 7   93 350 
 BRR  HZ I        1513  1.26        45.5 0.11                            93 350 
 BRR  HN ES   2   1513 16.29                             137     0.0 5   93 350 
 GIR2 SZ EP   1   1513  1.99                             135     0.0 7   98  25 
 GUE  SZ EP   1   1513 10.49                             116    -0.5 7  186  22 
 GRA  SZ EP   1   1513 12.82                             114     0.8 6  197  25 
 HEL  HZ EP   1   1513 14.64                             112     0.1 6  217 268 
 HEL  HN ES   2   1513 39.85                             112     0.1 4  217 268 
 HEL  HZ I        1513 46.08         4.4 0.23                           217 268 
 PRA  HZ EP   1   1513 25.46                             103    -0.5 5  319 207 
 PRA  HN ES   2   1514  0.81                             103     0.7 3  319 207 
 PRA  HZ I        1514  5.93         4.6 0.40                           319 207 
                                                                                
