 2010 10 8 1614  1.9 L   6.283 -73.872 97.1  RSN  8 0.5 2.1LRSN                1
 GAP=109        1.18       6.2     6.0 13.1 -0.2420E+02  0.1205E+02  0.1191E+02E
 Epicentro: CIMITARRA - SANTANDER                                              3
 ACTION:UP  11-02-18 11:08 OP:tino STATUS:               ID:20101008161401 L   I
 2010-10-08-1613-53S.COL___121                                                 6
 STAT SP IPHASW D HRMM SECON CODA AMPLIT PERI AZIMU VELO SNR AR TRES W  DIS CAZ7
 BAR2 SZ EP       1614 19.41                             136     0.010   84  66 
 BAR2 SZ ES   1   1614 32.45                             136    -0.6 7   84  66 
 BAR2 SZ I        1614 33.60        72.5 0.55                            84  66 
 BRR  HZ EP       1614 19.92                             132     0.010   93  11 
 BRR  HZ I        1614 20.14        38.4 0.16                            93  11 
 BRR  HN ES       1614 34.44                             132     0.510   93  11 
 BTL  SZ EP       1614 20.74                             131     0.110   97  44 
 NOR  SZ EP       1614 23.92                             121    -0.4 9  136 234 
 NOR  SN ES       1614 41.18                             121    -0.5 9  136 234 
 CHI  HN ES   2   1614 53.55                             113     1.8 4  183 175 
 CHI  HZ I        1614 56.57         7.9 0.49                           183 175 
 HEL  HZ EP       1614 30.28                             113     0.4 9  184 267 
 HEL  HN ES   2   1614 51.46                             113    -0.2 4  184 267 
 HEL  HZ I        1614 54.83        15.3 0.14                           184 267 
 GUE  SZ EP   1   1614 31.51                             111    -0.2 6  201  31 
 RREF HN ES   1   1615  0.71                             109     0.2 6  224 227 
 RREF HZ I        1615  7.35         9.6 0.78                           224 227 
                                                                                
