 2015 10 8 1602 19.3 L   6.808 -73.146144.9  RSN  8 0.4 2.0LRSN                1
 GAP=201        0.90       3.0     5.2  5.4  0.3732E+01  0.6045E+01  0.8711E+00E
 Epicentro: LOS SANTOS - SANTANDER                                             3
 ACTION:UPD 15-12-22 20:38 OP:cam  STATUS:               ID:20151008160219 L   I
 OLDACT:UP  15-10-08 23:52 OP:ak   STATUS:               ID:20151008155748     3
 OLDACT:REG 15-10-08 21:35 OP:ak   STATUS:               ID:20151008155748     3
 2015-10-08-1557-48M.COL___343                                                 6
 STAT SP IPHASW D HRMM SECON CODA AMPLIT PERI AZIMU VELO AIN AR TRES W  DIS CAZ7
 BAR2 EZ EP       16 2 38.95                             170    0.1510 24.2 189 
 BAR2 EZ ES       16 2 54.34                             170    0.2910 24.2 189 
 BAR2 EZ I        16 2 55.44        33.3 0.14            168           24.2 189 
 BRR  HZ EP       16 2 40.81                             153    0.5210 70.7 298 
 BRR  HE ES       16 2 56.69                             153    0.0010 70.7 298 
 RUS  HZ EP       16 2 42.81                             143   -0.1810  102 176 
 RUS  HE ES       16 3  1.36                             143   -0.1410  102 176 
 RUS  HZ I        16 3  2.70         9.7 0.40            143            102 176 
 SPBC HZ EP       16 2 47.99                             129    0.24 9  164 219 
 SPBC HN ES       16 3  9.72                             129   -0.26 9  164 219 
 SPBC HZ I        16 3 14.63        15.6 0.14            128            164 219 
 ZAR  HN ES       16 3 16.70                             122   -0.13 9  204 292 
 SML  HZ EP       16 2 55.10                             117   -0.64 8  243 335 
 SML  HE ES       16 3 23.88                             117   -0.32 8  243 335 
 SML  HZ I        16 3 29.78        12.3 0.08            117            243 335 
 CHI  HZ EP       16 2 56.95                             117   -0.05 8  249 195 
 CHI  HN ES       16 3 25.83                             117   -0.61 8  249 195 
 CHI  HZ I        16 3 34.59         4.1 0.38            116            249 195 
 GUY2CHZ EP       16 3  3.87                             112    0.99 7  302 235 
 GUY2CHE ES       16 3 36.90                             112   -0.00 7  302 235 
 GUY2CHZ I        16 3 46.05         3.3 0.38                           302 235 
                                                                                
