 2012  8 8 1021  7.5 L   6.062 -73.678120.0  RSN  8 0.4 1.8LRSN                1
 GAP= 76        0.79       3.3     3.4  8.0  0.3963E+00  0.6366E+01  0.7191E+00E
 Epicentro: CHIPATA - SANTANDER                                                3
 ACTION:UPD 12-09-10 11:55 OP:ep   STATUS:               ID:20120808102107 L   I
 2012-08-08-1020-00M.COL___216                                                 6
 STAT SP IPHASW D HRMM SECON CODA AMPLIT PERI AZIMU VELO AIN AR TRES W  DIS CAZ7
 RUS  HZ EP   1   1021 26.49                             149    0.02 8 68.5 106 
 RUS  HZ I        1021 26.90         7.5 0.10                          68.5 106 
 RUS  HE ES   2   1021 41.27                             149    0.01 5 68.5 106 
 BAR2 SZ EP   1   1021 27.26                             144    0.35 8 80.3  43 
 BAR2 SZ ES   1   1021 42.04                             144    0.00 8 80.3  43 
 BAR2 SZ I        1021 43.30        31.5 0.20                          80.3  43 
 PTB  HZ EP   2   1021 27.09                             137   -1.12 5  101 302 
 PTB  HE ES   1   1021 44.20                             137   -0.14 8  101 302 
 PTB  HZ I        1021 44.83         7.0 0.08                           101 302 
 BRR  HZ EP   1   1021 30.04                             133    0.59 8  116 358 
 BRR  HZ I        1021 43.89        11.9 0.31                           116 358 
 NOR  SZ EP   1   1021 31.69                             126   -0.40 7  143 247 
 NOR  SN ES       1021 51.70                             126    0.4410  143 247 
 NOR  SZ I        1021 52.60         7.7 0.19                           143 247 
 CHI  HZ EP   1   1021 33.90                             124   -0.22 7  159 182 
 CHI  HN ES   1   1021 54.46                             124   -0.42 7  159 182 
 CHI  HZ I        1021 57.22         5.6 0.31                           159 182 
 HEL  HZ EP   1   1021 39.58                             116    0.56 7  205 274 
 HEL  HZ I        1021 41.13         5.1 0.18                           205 274 
 HEL  HN ES   2   1022  3.97                             116    0.37 5  205 274 
 ZAR  HZ EP   1   1021 38.44                             116   -0.09 7  205 321 
 ZAR  HN ES       1022  2.28                             116   -0.44 9  205 321 
 ZAR  HZ I        1022  3.72        11.8 0.30                           205 321 
                                                                                
