 2017  4 8 1646 44.2 L   6.812 -73.162146.3  RSN 10 0.4 1.9LRSN                1
 GAP=110        1.03       3.7     3.7  5.9  0.2759E+01  0.4848E+01  0.5461E+01E
 Epicentro: LOS SANTOS - SANTANDER                                             3
 ACTION:UPD 17-05-30 21:09 OP:jn   STATUS:               ID:20170408164644 L   I
 OLDACT:REG 17-04-08 21:07 OP:ar   STATUS:               ID:20170408163743     3
 2017-04-08-1638-00M.COL___377                                                 6
 STAT SP IPHASW D HRMM SECON CODA AMPLIT PERI AZIMU VELO AIN AR TRES W  DIS CAZ7
 BAR2 EZ EP       1647  3.77                             170   -0.1710 24.4 185 
 BAR2 EZ ES       1647 19.08                             170   -0.2410 24.4 185 
 BAR2 EZ I        1647 20.03        28.9 0.24            167           24.4 185 
 BRR  HZ EP       1647  5.78                             153    0.4710 69.0 298 
 BRR  HN ES       1647 22.30                             153    0.5410 69.0 298 
 PAM  EZ EP       1647  6.67                             151    0.1610 77.6  41 
 PAM  EE ES       1647 23.52                             151   -0.3710 77.6  41 
 PAM  EZ I        1647 26.10         7.8 0.48            155           77.6  41 
 RUS  HZ EP       1647  7.70                             143   -0.4310  102 175 
 RUS  HE ES       1647 26.59                             143   -0.1910  102 175 
 RUS  HZ I        1647 27.35         7.1 0.30            142            102 175 
 PTB  HZ EP       1647 10.25                             132   -0.85 9  146 258 
 PTB  HN ES       1647 31.85                             132   -0.21 9  146 258 
 PTB  HZ I        1647 33.80         7.8 0.12            131            146 258 
 YPLC HZ EP       1647 14.14                             126   -0.12 9  179 151 
 YPLC HE ES       1647 38.50                             126    0.82 9  179 151 
 YPLC HZ I        1647 40.76         7.6 0.24            127            179 151 
 ZAR  HZ EP       1647 16.81                             123    0.33 9  202 292 
 ZAR  HN ES       1647 41.98                             123    0.34 9  202 292 
 ZAR  HZ I        1647 46.60         9.1 0.28            123            202 292 
 NOR  HZ EP       1647 19.88                             119   -0.03 8  234 234 
 NOR  HE ES       1647 47.49                             119   -0.25 8  234 234 
 NOR  HZ I        1647 57.22         4.9 0.14            118            234 234 
 CHI  HZ EP       1647 22.08                             117    0.04 8  249 195 
 CHI  HN ES       1647 52.00                             117    0.47 8  249 195 
 CHI  HZ I        1647 56.30         4.9 0.34            117            249 195 
 ROSC BZ EP   4   1647 20.64                             117   -1.75 0  253 211 
 ROSC BE ES   4   1647 54.88                             117    2.71 0  253 211 
 ROSC BZ I        1647 58.03        15.5 0.40            116            253 211 
                                                                                
