 2010 12 8 1752 21.9 L   6.754 -73.150136.4  RSN 10 0.3 2.4LRSN                1
 GAP=175        0.63       4.4     6.1  5.5 -0.1905E+02  0.4355E+01  0.6524E+01E
 Epicentro: LOS SANTOS - SANTANDER                                             3
 ACTION:UP  11-01-14 15:23 OP:pat  STATUS:               ID:20101208175221 L   I
 2010-12-08-1751-47S.COL___135                                                 6
 STAT SP IPHASW D HRMM SECON CODA AMPLIT PERI AZIMU VELO SNR AR TRES W  DIS CAZ7
 BAR2 SZ IP       1752 40.17                             172    -0.110   18 192 
 BAR2 SZ I        1752 40.46        78.7 0.14                            18 192 
 BAR2 SZ ES   2   1752 54.79                             172     0.1 5   18 192 
 BTL  SZ IP       1752 40.35                             170     0.010   22 324 
 GIR2 SZ IP       1752 40.31                             164    -0.310   36 352 
 GIR2 SZ ES   1   1752 55.04                             164    -0.2 7   36 352 
 GRA  SZ IP       1752 47.15                             133     0.410  131  17 
 GRA  SZ ES   1   1753  6.33                             133     0.2 7  131  17 
 GRA  SZ I        1753  8.91        30.7 0.61                           131  17 
 NOR  SZ EP       1752 56.31                             117    -0.4 8  232 236 
 NOR  SN ES   1   1753 24.00                             117     0.1 6  232 236 
 CHI  HZ EP   1   1752 58.30                             116    -0.2 6  244 195 
 CHI  HN ES   2   1753 27.70                             116     0.6 4  244 195 
 CHI  HZ I        1753 33.71         9.9 0.31                           244 195 
 ROSC BN ES   2   1753 28.33                             115     0.4 4  248 212 
 ROSC BZ I        1753 37.79        27.8 0.23                           248 212 
 HEL  HZ EP   2   1753  1.54                             113     0.1 4  270 257 
 HEL  HN ES   2   1753 32.16                             113    -0.2 4  270 257 
 HEL  HZ I        1753 38.62        13.5 0.68                           270 257 
 RREF HZ EP   1   1753  7.37                             109     0.2 5  318 230 
 RREF HN ES   1   1753 43.23                             109     0.7 5  318 230 
 RREF HZ I        1753 52.25        17.8 0.32                           318 230 
 PRA  HZ EP       1753 14.35                             105    -0.2 6  387 210 
 PRA  HN ES   2   1753 56.24                             105     0.6 3  387 210 
                                                                                
