 2013  3 8 1646  7.5 L   6.777 -73.118144.4  RSN  4 0.3 1.6LRSN                1
 GAP=141        0.64       4.9     4.3  7.0 -0.4269E+01  0.5800E+00  0.2095E+00E
 Epicentro: LOS SANTOS - SANTANDER                                             3
 ACTION:UPD 13-04-09 14:00 OP:ep   STATUS:               ID:20130308164607 L   I
 2013-03-08-1640-00M.COL___231                                                 6
 STAT SP IPHASW D HRMM SECON CODA AMPLIT PERI AZIMU VELO AIN AR TRES W  DIS CAZ7
 BRR  HZ EP       1646 28.92                             151    0.1910 75.0 299 
 BRR  HE ES       1646 45.41                             151    0.1310 75.0 299 
 BRR  HE I        1646 46.28        18.3 0.29            153           75.0 299 
 PAM  SZ EP       1646 29.79                             150    0.2110 77.5  37 
 PAM  SZ I        1646 30.21         6.1 0.28            152           77.5  37 
 PAM  SE ES   1   1646 46.32                             150   -0.47 7 77.5  37 
 RUS  HN ES   1   1646 49.26                             144    0.07 7 97.9 178 
 RUS  HN I        1646 51.27         4.4 0.40            143           97.9 178 
 PTB  HZ EP   1   1646 34.06                             131   -0.53 7  150 260 
 PTB  HZ I        1646 35.33         2.8 0.31            132            150 260 
 PTB  HN ES   1   1646 55.60                             131   -0.11 7  150 260 
                                                                                
