 2015 12 8 1045 29.8 L   6.802 -73.123151.0  RSN 17 0.5 2.4LRSN                1
 GAP=139        1.13       3.1     4.3  5.7 -0.2460E+01  0.7686E+01  0.1857E+01E
 Epicentro: LOS SANTOS - SANTANDER                                             3
 ACTION:UPD 16-02-04 15:03 OP:cam  STATUS:               ID:20151208104529 L   I
 OLDACT:UP  15-12-08 23:52 OP:mh   STATUS:               ID:20151208103746     3
 OLDACT:REG 15-12-08 21:35 OP:mh   STATUS:               ID:20151208103746     3
 2015-12-08-1037-46M.COL___320                                                 6
 STAT SP IPHASW D HRMM SECON CODA AMPLIT PERI AZIMU VELO AIN AR TRES W  DIS CAZ7
 BAR2 EZ IP     D 1045 50.25                             170    0.1810 24.1 196 
 BAR2 EZ ES       1046  5.21                             170   -0.6710 24.1 196 
 BAR2 EZ I        1046  8.04        25.8 0.26            168           24.1 196 
 BRR  HZ EP   1   1045 51.95                             153    0.32 7 73.3 297 
 BRR  HN ES       1046  9.52                             153    0.8610 73.3 297 
 BRR  HZ I        1046 12.05        34.9 0.14            148           73.3 297 
 PAM  EZ IP     C 1045 53.19                             152    0.7210 75.6  38 
 PAM  EN ES       1046 10.31                             152    0.1610 75.6  38 
 PAM  EZ I        1046 12.14        56.2 0.56            156           75.6  38 
 RUS  HZ EP       1045 54.02                             145   -0.0610  101 177 
 RUS  HN ES       1046 13.09                             145    0.0810  101 177 
 RUS  HZ I        1046 14.01        12.5 0.30            147            101 177 
 PTB  HZ EP       1045 56.78                             133   -0.64 9  150 259 
 PTB  HN ES       1046 18.50                             133   -0.47 9  150 259 
 PTB  HZ I        1046 25.33        31.6 0.46            131            150 259 
 OCA  HZ EP   1   1045 58.27                             131   -0.26 7  160 352 
 OCA  HN ES       1046 20.50                             131   -0.43 9  160 352 
 OCA  HZ I        1046 24.21        39.6 0.14            131            160 352 
 SPBC HZ EP       1045 59.01                             130    0.14 9  165 220 
 SPBC HN ES       1046 21.09                             130   -0.46 9  165 220 
 SPBC HZ I        1046 24.03        33.0 0.38            130            165 220 
 ZAR  HZ EP   1   1046  2.86                             123    0.04 6  206 292 
 ZAR  HN ES       1046 29.05                             123    0.48 8  206 292 
 ZAR  HZ I        1046 35.23        35.5 0.28            122            206 292 
 NOR  HZ EP       1046  5.13                             119   -0.94 8  237 235 
 NOR  HN ES       1046 34.38                             119    0.02 8  237 235 
 NOR  HZ I        1046 41.60        19.7 0.18            119            237 235 
 SML  HZ EP   1   1046  6.57                             118   -0.24 6  245 335 
 SML  HN ES       1046 35.06                             118   -0.62 8  245 335 
 SML  HZ I        1046 44.42        29.8 0.26            119            245 335 
 HEL  HZ EP       1046 10.53                             116   -0.03 8  275 256 
 HEL  HN ES       1046 43.10                             116    0.75 8  275 256 
 HEL  HZ I        1046 49.25         8.8 0.26            116            275 256 
 URE  HZ EP   4   1046  9.94                             114   -1.44 0  286 292 
 URE  HN ES   4   1046 42.53                             114   -1.28 0  286 292 
 URE  HZ I        1046 50.83        14.8 0.32            114            286 292 
 GUY2CHZ EP       1046 14.27                             113    0.37 7  303 235 
 GUY2CHN ES   4   1046 51.13                             113    2.83 0  303 235 
 GUY2CHZ I        1046 56.85         8.7 0.30                           303 235 
 ANIL HZ EP   4   1046 38.15                             109   18.11 0  359 225 
 ANIL HE ES   4   1047  1.15                             109    1.93 0  359 225 
 ANIL HZ I        1047  5.77        22.0 0.44            110            359 225 
 PRA  HZ EP   1   1046 23.61                             107   -0.07 4  393 210 
 PRA  HN ES       1047  5.43                             107   -0.27 6  393 210 
 PRA  HZ I        1047  9.29        11.3 0.38            108            393 210 
 ORTC HZ EP       1046 24.66                             107    0.56 6  397 216 
 ORTC HE ES       1047  7.30                             107    0.85 6  397 216 
 ORTC HZ I        1047 13.08         5.4 0.58            108            397 216 
 SJC  HZ EP   4   1046 24.08                             106   -1.59 0  410 327 
 SJC  HN ES   4   1047  4.57                             106   -4.68 0  410 327 
 SJC  HZ I        1047 10.22         4.9 0.38            107            410 327 
                                                                                
