 2013  7 8 1109 21.6 L   6.735 -73.167150.2  RSN  6 0.3 1.6LRSN                1
 GAP=179        0.72       5.0     4.5  5.6  0.1159E+02  0.1173E+01 -0.3019E+01E
 Epicentro: VILLANUEVA - SANTANDER                                             3
 ACTION:UPD 13-08-12 10:36 OP:ep   STATUS:               ID:20130708110921 L   I
 OLDACT:REG 13-07-08 15:21 OP:stll STATUS:               ID:20130708110850     3
 2013-07-08-1108-50M.COL___223                                                 6
 STAT SP IPHASW D HRMM SECON CODA AMPLIT PERI AZIMU VELO AIN AR TRES W  DIS CAZ7
 BAR2 SZ EP       11 9 41.66                             174   -0.0210 15.8 186 
 BAR2 SZ ES       11 9 56.97                             174   -0.3310 15.8 186 
 BAR2 SZ I        11 9 59.12         5.2 0.44            177           15.8 186 
 GIR2 SZ EP       11 9 41.75                             165   -0.2910 38.2 356 
 BRR  HZ EP       11 9 43.60                             153    0.2410 72.9 304 
 BRR  HN ES       1110  0.82                             153    0.5110 72.9 304 
 BRR  HN I        1110  3.60        12.6 0.22            153           72.9 304 
 RUS  HZ EP       11 9 45.50                             147    0.1510 93.6 174 
 RUS  HN ES       1110  3.84                             147    0.0110 93.6 174 
 PTB  HZ EP       11 9 48.73                             134    0.08 9  144 261 
 PTB  HN ES       1110  9.69                             134   -0.03 9  144 261 
 ZAR  HE ES       1110 19.60                             123   -0.43 9  205 294 
                                                                                
