 2017 11 8 1504 31.4 L   6.791 -73.137143.5  RSN  4 0.1 1.6LRSN                1
 GAP=138        0.35       3.5     5.2  5.2 -0.7173E+01  0.1180E+02 -0.4385E+01E
 Epicentro: LOS SANTOS - SANTANDER                                             3
 ACTION:UPD 17-12-12 19:53 OP:rebc STATUS:               ID:20171108150431 L   I
 OLDACT:UP  17-11-08 22:35 OP:mg   STATUS:               ID:20171108145737     3
 OLDACT:UP  17-11-08 22:34 OP:mg   STATUS:               ID:20171108145737     3
 OLDACT:REG 17-11-08 20:42 OP:mg   STATUS:               ID:20171108145737     3
 2017-11-08-1458-00M.COL___407                                                 6
 STAT SP IPHASW D HRMM SECON CODA AMPLIT PERI AZIMU VELO AIN AR TRES W  DIS CAZ7
 BAR2 EZ EP   2   15 4 50.59                             171   -0.18 5 22.5 193 
 BAR2 EZ ES   2   15 5  5.59                             171   -0.27 5 22.5 193 
 BAR2 EZ I        15 5  6.90         9.4 0.16            172           22.5 193 
 BRR  HZ EP       15 4 52.50                             151    0.0910 72.5 299 
 PAM  HZ EP       15 4 53.35                             150   -0.0710 77.6  39 
 PAM  EN ES   1   15 5 10.66                             150    0.09 7 77.6  39 
 PAM  HZ I        15 5 12.54         5.8 0.52            151           77.6  39 
 RUS  HZ EP   2   15 4 54.91                             144    0.03 5 99.5 177 
 RUS  HN ES   2   15 5 13.34                             144    0.17 5 99.5 177 
 RUS  HZ I        15 5 14.12         7.0 0.22            146           99.5 177 
                                                                                
