 2012  9 8 1839 34.8 L   6.772 -73.107144.0  RSN  5 0.2 1.9LRSN                1
 GAP=143        0.35       3.3     4.6  5.7 -0.2522E+01  0.6971E+01  0.6908E+01E
 Epicentro: LOS SANTOS - SANTANDER                                             3
 ACTION:UPD 12-10-22 14:17 OP:ep   STATUS:               ID:20120908183934 L   I
 2012-09-08-1838-11M.COL___216                                                 6
 STAT SP IPHASW D HRMM SECON CODA AMPLIT PERI AZIMU VELO AIN AR TRES W  DIS CAZ7
 BAR2 SZ EP       1839 53.98                             171   -0.2010 21.5 203 
 BAR2 SZ ES   3   1840  9.57                             171    0.28 2 21.5 203 
 BAR2 SZ I        1840 12.18        11.2 0.16                          21.5 203 
 GIR2 SZ ES   3   1840  9.83                             166    0.19 2 35.2 344 
 BRR  HZ EP       1839 56.09                             150    0.0310 76.4 299 
 BRR  HN ES   3   1840 12.66                             150    0.02 2 76.4 299 
 BRR  HN I        1840 16.34        26.1 0.18                          76.4 299 
 PAM  SZ EP       1839 56.81                             151    0.0010 77.2  36 
 PAM  SN ES   1   1840 13.95                             151   -0.03 7 77.2  36 
 PAM  SN I        1840 15.28        12.6 0.50                          77.2  36 
 RUS  HZ EP       1839 58.31                             144    0.1710 97.3 178 
 RUS  HN ES   3   1840 15.99                             144   -0.35 2 97.3 178 
                                                                                
