 2013  9 8 1536 29.9 L   6.002 -74.012  4.0  RSN  5 0.5 1.5LRSN                1
 GAP=136        1.09       3.9     2.8  8.5  0.9582E+00 -0.3079E+01 -0.4815E+01E
 Epicentro: LA BELLEZA - SANTANDER                                             3
 ACTION:UPD 13-10-22 09:21 OP:ep   STATUS:               ID:20130908153629 L   I
 OLDACT:REG 13-09-08 12:10 OP:mh   STATUS:               ID:20130908152959     3
 2013-09-08-1529-59M.COL___269                                                 6
 STAT SP IPHASW D HRMM SECON CODA AMPLIT PERI AZIMU VELO AIN AR TRES W  DIS CAZ7
 SPBC HZ EP       1536 36.54                              47    0.0110 39.3 190 
 SPBC HN ES   2   1536 41.13                              47   -0.58 5 39.3 190 
 SPBC HN I        1536 41.37        65.5 0.12             96           39.3 190 
 PTB  HZ EP   1   1536 42.43                              47    0.23 7 77.2 320 
 PTB  HN ES   1   1536 51.25                              47   -0.55 7 77.2 320 
 PTB  HZ I        1536 54.86        30.9 0.10             92           77.2 320 
 RUS  HZ EP       1536 47.37                              47    0.6910  104  97 
 RUS  HN ES       1536 59.15                              47   -0.6210  104  97 
 RUS  HN I        1536 59.92        11.6 0.30             92            104  97 
 NOR  HZ EP   1   1536 46.89                              47    0.18 7  107 243 
 NOR  HN ES   2   1536 59.23                              47   -0.59 5  107 243 
 NOR  HZ I        1537  0.27         9.2 0.14             92            107 243 
 GUY2CHZ EP   1   1536 58.06                              47    0.89 7  173 240 
 GUY2CHN ES   2   1537 17.92                              47   -0.53 4  173 240 
 GUY2CHZ I        1537 19.32         3.0 0.12                           173 240 
                                                                                
