 2017  3 8 1500 34.1 L   6.795 -73.130150.1  RSN  6 0.2 1.7LRSN                1
 GAP=139        0.49       2.0     2.7  3.2  0.9437E+00  0.2308E+01  0.1235E+01E
 Epicentro: LOS SANTOS - SANTANDER                                             3
 ACTION:UPD 17-05-25 18:37 OP:jn   STATUS:               ID:20170308150034 L   I
 OLDACT:UP  17-03-08 23:13 OP:ar   STATUS:               ID:20170308145744d    3
 OLDACT:DUP 17-03-08 22:39 OP:ar   STATUS:               ID:20170308145744d    3
 2017-03-08-1458-00M.COL___383                                                 6
 STAT SP IPHASW D HRMM SECON CODA AMPLIT PERI AZIMU VELO AIN AR TRES W  DIS CAZ7
 BAR2 EZ IP     C 15 0 53.93                             171   -0.2710 23.2 194 
 BAR2 EZ ES       15 1  9.82                             171   -0.1010 23.2 194 
 BAR2 EZ I        15 1 11.74        19.5 0.32            170           23.2 194 
 BRR  HZ EP       15 0 55.79                             153    0.0210 72.9 298 
 BRR  HN ES       15 1 13.04                             153    0.3310 72.9 298 
 PAM  EZ EP       15 0 56.89                             152    0.2010 76.7  38 
 PAM  EE ES       15 1 14.30                             152   -0.0510 76.7  38 
 PAM  EZ I        15 1 16.76         7.2 0.60            154           76.7  38 
 RUS  HZ EP       15 0 58.20                             145    0.0110100.0 177 
 RUS  HN ES       15 1 16.92                             145   -0.1010100.0 177 
 RUS  HZ I        15 1 17.81         6.2 0.36            146          100.0 177 
 ZAR  HZ EP       15 1  6.80                             123   -0.17 8  206 292 
 ZAR  HN ES       15 1 32.46                             123   -0.17 8  206 292 
 ZAR  HZ I        15 1 37.11         6.2 0.30            123            206 292 
 CHI  HZ EP       15 1 12.21                             118    0.22 8  249 196 
 CHI  HN ES       15 1 41.70                             118    0.12 8  249 196 
 CHI  HZ I        15 1 45.10         2.8 0.36            119            249 196 
                                                                                
