 2012  1 8 1129 53.5 L   7.434 -73.186134.5  RSN  9 0.3 1.9LRSN                1
 GAP=110        0.69       3.9     4.1  5.4 -0.1867E+01  0.6418E+01 -0.1749E+01E
 Epicentro: EL PLAYON - SANTANDER                                              3
 ACTION:UP  12-02-03 08:15 OP:REBC STATUS:               ID:20120108112953 L   I
 2012-01-08-1130-00M.COL___186                                                 6
 STAT SP IPHASW D HRMM SECON CODA AMPLIT PERI AZIMU VELO SNR AR TRES W  DIS CAZ7
 GIR2 SZ IP       1130 12.08                             163     0.010   39 181 
 GIR2 SZ ES   1   1130 26.27                             163    -0.3 7   39 181 
 PAM  SZ EP       1130 13.37                             157     0.210   55 101 
 PAM  SN ES   1   1130 28.56                             157    -0.1 7   55 101 
 BRR  HZ IP     D 1130 13.44                             151     0.210   68 238 
 BRR  HE ES   2   1130 29.70                             151     1.0 5   68 238 
 BRR  HZ I        1130 31.10        24.7 0.12                            68 238 
 OCA  SZ EP       1130 14.85                             144     0.010   90 351 
 OCA  SZ I        1130 34.94        23.8 0.40                            90 351 
 BAR2 SZ IP       1130 15.13                             143    -0.110   93 180 
 BAR2 SZ ES   1   1130 32.06                             143    -0.1 7   93 180 
 BAR2 SZ I        1130 33.11        15.1 0.30                            93 180 
 RUS  HZ EP       1130 22.51                             125     0.1 9  171 176 
 RUS  HE ES   2   1130 44.19                             125    -0.8 4  171 176 
 RUS  HZ I        1130 45.71         2.7 0.28                           171 176 
 PTB  HZ EP       1130 21.70                             125    -0.2 9  172 235 
 PTB  HN ES   1   1130 43.87                             125    -0.2 7  172 235 
 PTB  HZ I        1130 47.50         7.8 0.18                           172 235 
 ZAR  HZ EP   2   1130 22.69                             123    -0.5 4  185 272 
 ZAR  HN ES   2   1130 46.25                             123    -0.1 4  185 272 
 ZAR  HZ I        1130 50.68        14.9 0.22                           185 272 
 CHI  HZ EP   2   1130 38.14                             109     0.0 3  316 191 
 CHI  HN ES   2   1131 14.06                             109     1.0 3  316 191 
 CHI  HZ I        1131 17.97         2.2 0.48                           316 191 
                                                                                
