 2013  8 8 1638 27.6 L   6.756 -73.146144.8  RSN  5 0.4 1.8LRSN                1
 GAP=139        0.71       5.4     5.3  9.3  0.9102E+00  0.1254E+02  0.1144E+02E
 Epicentro: LOS SANTOS - SANTANDER                                             3
 ACTION:UPD 14-01-14 09:00 OP:ep   STATUS:               ID:20130808163827 L   I
 OLDACT:DUP 13-08-08 19:53 OP:mh   STATUS:               ID:20130808162960d    3
 OLDACT:REG 13-08-08 16:14 OP:mh   STATUS:               ID:20130808162959     3
 2013-08-08-1629-59M.COL___269                                                 6
 STAT SP IPHASW D HRMM SECON CODA AMPLIT PERI AZIMU VELO AIN AR TRES W  DIS CAZ7
 BAR2 SZ EP   1   1638 47.13                             172    0.12 7 18.6 193 
 BAR2 SZ I        1639  8.07         5.7 0.16            171           18.6 193 
 BRR  HZ EP   1   1638 49.14                             151    0.37 7 73.7 302 
 BRR  HN ES   2   1639  6.05                             151    0.75 5 73.7 302 
 BRR  HN I        1639  9.87        19.6 0.22            148           73.7 302 
 PAM  SN ES   1   1639  6.89                             149   -0.47 7 81.2  37 
 PAM  SN I        1639  8.24        11.6 0.46            146           81.2  37 
 RUS  HZ EP       1638 51.08                             145    0.1810 95.7 176 
 RUS  HN ES   1   1639  9.06                             145   -0.02 7 95.7 176 
 RUS  HN I        1639 11.81         4.1 0.16            141           95.7 176 
 PTB  HZ EP   1   1638 54.00                             132   -0.40 7  147 261 
 PTB  HN ES   1   1639 14.96                             132   -0.35 7  147 261 
 PTB  HN I        1639 20.36        18.9 0.34            127            147 261 
                                                                                
