 2011  4 8 1209 16.7 L   6.804 -73.142138.9  RSN 11 0.3 2.3LRSN                1
 GAP=114        0.60       3.0     4.0  4.8 -0.5625E+01 -0.3211E-01  0.6013E+01E
 Epicentro: LOS SANTOS - SANTANDER                                             3
 ACTION:UP  11-06-22 15:29 OP:REBC STATUS:               ID:20110408120916 L   I
 2011-04-08-1205-04S.COL___138                                                 6
 STAT SP IPHASW D HRMM SECON CODA AMPLIT PERI AZIMU VELO SNR AR TRES W  DIS CAZ7
 BTL  SZ EP   1   12 9 35.56                             171     0.2 7   19 312 
 BTL  SZ ES   3   12 9 49.84                                    -0.2 2   19 312 
 BAR2 SZ EP   1   12 9 35.31                             170    -0.2 7   24 191 
 BAR2 SZ I        12 9 35.49        46.2 0.11                            24 191 
 BAR2 SZ ES   2   12 9 49.97                             170    -0.2 5   24 191 
 GIR2 SZ EP   1   12 9 35.35                             167    -0.2 7   31 349 
 GIR2 SZ ES   2   12 9 49.95                             167    -0.3 5   31 349 
 BRR  HZ EP   1   12 9 37.18                             151     0.1 7   71 298 
 BRR  HZ I        12 9 37.63        83.8 0.11                            71 298 
 BRR  HE ES   1   12 9 53.61                             151     0.6 7   71 298 
 PAM  SZ EP   1   12 9 38.27                             150     0.1 7   77  40 
 PAM  SN ES   1   12 9 54.66                             150    -0.2 7   77  40 
 GRA  SZ EP   1   12 9 41.24                             136     0.0 7  125  17 
 GRA  SZ ES   1   1210  0.63                             136     0.2 7  125  17 
 GRA  SZ I        1210  1.67        31.6 0.49                           125  17 
 OCA  SZ EP   1   12 9 44.48                             128     0.1 7  160 353 
 OCA  SZ ES   1   1210  5.71                             128    -0.4 7  160 353 
 OCA  SZ I        1210  8.91        26.5 0.38                           160 353 
 YOP  SZ EP   1   12 9 46.22                             125     0.0 7  179 153 
 YOP  SZ I        1210 12.76        10.8 0.39                           179 153 
 NOR  SZ EP   1   12 9 51.88                             117    -0.2 6  235 234 
 NOR  SE ES   1   1210 19.68                             117     0.0 6  235 234 
 CHI  HZ EP   1   12 9 54.76                                     0.7 6  249 195 
 CHI  HE ES   2   1210 23.29                                     0.1 4  249 195 
 CHI  HZ I        1210 29.78         5.4 0.65                           249 195 
 RREF HZ EP   1   1210  2.58                                     0.0 5  322 229 
 RREF HE ES   1   1210 37.73                                    -0.7 5  322 229 
 RREF HZ I        1210 45.42        11.3 0.46                           322 229 
                                                                                
