 2012  2 8 1608 58.3 L   6.922 -73.159139.2  RSN  4 0.1 1.2LRSN                1
 GAP=282        0.30       5.4     2.9  7.4  0.5384E+01 -0.2323E+01 -0.2201E+02E
 ACTION:UP  12-03-07 16:28 OP:epov STATUS:               ID:20120208160858 L   I
 2012-02-08-1607-36S.COL___159                                                 6
 STAT SP IPHASW D HRMM SECON CODA AMPLIT PERI AZIMU VELO AIN AR TRES W  DIS CAZ7
 BAR2 SZ EP   1   16 9 17.44                             164   -0.08 7 36.6 184 
 BAR2 SZ I        16 9 37.27         7.4 0.49                          36.6 184 
 RUS  HZ EP   1   16 9 22.57                             138    0.08 7  114 176 
 RUS  HN ES   1   16 9 41.32                             138   -0.01 7  114 176 
 RUS  HZ I        16 9 46.13         1.3 0.18                           114 176 
 PTB  HZ EP   1   16 9 24.93                             130    0.00 7  150 254 
 PTB  HZ I        16 9 28.46         0.0 0.10                           150 254 
 PTB  HN ES   1   16 9 45.71                             130    0.03 7  150 254 
 NOR  SN ES   2   1610  2.51                             116   -0.09 4  242 232 
                                                                                
