 2015 11 8 1126 51.9 L   6.819 -73.131151.4  RSN  6 0.5 1.9LRSN                1
 GAP=153        1.08       7.0     7.1  9.0  0.6527E+01  0.1199E+02 -0.7140E+01E
 Epicentro: LOS SANTOS - SANTANDER                                             3
 ACTION:UPD 15-12-28 16:09 OP:cam  STATUS:               ID:20151108112651 L   I
 OLDACT:UP  15-11-08 22:07 OP:ar   STATUS:               ID:20151108111747d    3
 OLDACT:DUP 15-11-08 22:05 OP:ar   STATUS:               ID:20151108111747d    3
 OLDACT:REG 15-11-08 20:18 OP:ar   STATUS:               ID:20151108111746     3
 2015-11-08-1117-46M.COL___304                                                 6
 STAT SP IPHASW D HRMM SECON CODA AMPLIT PERI AZIMU VELO AIN AR TRES W  DIS CAZ7
 BAR2 EZ EP       1127 11.71                             170   -0.5710 25.8 193 
 BAR2 EZ ES   2   1127 27.28                             170   -0.87 5 25.8 193 
 BAR2 EZ I        1127 27.93         7.3 0.20            175           25.8 193 
 BRR  HZ EP       1127 14.22                             153    0.5110 71.7 296 
 BRR  HE ES       1127 31.16                             153    0.4610 71.7 296 
 BRR  HZ I        1127 35.04        10.7 0.03            151           71.7 296 
 PAM  EZ EP       1127 15.25                             153    0.6610 74.7  40 
 PAM  EE ES       1127 32.04                             153   -0.2210 74.7  40 
 PAM  EZ I        1127 34.08        11.2 0.52            151           74.7  40 
 OCA  HZ EP       1127 20.27                             131   -0.23 9  158 352 
 OCA  HN ES       1127 42.58                             131   -0.21 9  158 352 
 OCA  HZ I        1127 47.81        20.1 0.24            131            158 352 
 SML  HZ EP   2   1127 28.58                             119   -0.16 4  242 335 
 SML  HN ES   2   1127 57.75                             119    0.30 4  242 335 
 SML  HZ I        1128  3.77         7.0 0.10            119            242 335 
 MON  HN ES       1128 18.86                             110   -0.68 6  354 308 
 MON  HZ I        1128 19.46         2.7 0.14            111            354 308 
                                                                                
