 2012 11 8 1841 20.2 L   6.736 -73.159148.0  RSN  6 0.4 2.2LRSN                1
 GAP=138        1.05       6.4     5.6  7.9  0.5426E+01  0.7462E+01  0.8709E+00E
 Epicentro: VILLANUEVA - SANTANDER                                             3
 ACTION:UPD 12-12-05 15:32 OP:}ep  STATUS:               ID:20121108184120 L   I
 OLDACT:REG 12-11-08 18:47 OP:carl STATUS:               ID:20121108184000     3
 2012-11-08-1840-00M.COL___228                                                 6
 STAT SP IPHASW D HRMM SECON CODA AMPLIT PERI AZIMU VELO AIN AR TRES W  DIS CAZ7
 BAR2 SZ EP       1841 40.06                             174    0.0610 16.1 189 
 BAR2 SZ ES   1   1841 55.27                             174   -0.16 7 16.1 189 
 BAR2 SZ I        1841 57.03        37.6 0.22                          16.1 189 
 BRR  HZ EP       1841 42.03                             152    0.2810 73.6 304 
 BRR  HN ES       1841 59.31                             152    0.7710 73.6 304 
 BRR  HN I        1842  1.61        34.8 0.14                          73.6 304 
 PAM  SZ EP       1841 42.97                             149   -0.1010 83.9  37 
 PAM  SN ES   1   1842  0.18                             149   -0.71 7 83.9  37 
 PAM  SN I        1842  1.65        26.6 0.46                          83.9  37 
 RUS  HZ EP       1841 44.19                             146    0.4810 93.6 175 
 RUS  HN ES   1   1842  1.95                             146   -0.08 7 93.6 175 
 RUS  HN I        1842  3.04        28.1 0.36                          93.6 175 
 PTB  HZ EP       1841 46.58                             133   -0.55 9  145 261 
 PTB  HN ES   1   1842  7.36                             133   -0.76 7  145 261 
 PTB  HN I        1842 13.45        21.0 0.54                           145 261 
 ZAR  HZ EP       1841 52.76                             123   -0.20 8  205 294 
 ZAR  HN ES   1   1842 18.62                             123    0.13 6  205 294 
 ZAR  HN I        1842 24.99        18.0 0.36                           205 294 
                                                                                
