 2012  3 8 1933 24.6 L   7.274 -73.218131.2  RSN  4 0.3 1.8LRSN                1
 GAP=259        0.71      10.7     8.5  7.6  0.1027E+02  0.5985E+01 -0.1265E+02E
 ACTION:UP  12-03-31 23:18 OP:EP   STATUS:               ID:20120308193324 L   I
 2012-03-08-1930-00M.COL___194                                                 6
 STAT SP IPHASW D HRMM SECON CODA AMPLIT PERI AZIMU VELO SNR AR TRES W  DIS CAZ7
 BRR  HZ EP       1933 43.29                             155    -0.110   58 251 
 BRR  HZ I        1933 43.66        20.5 0.15                            58 251 
 BRR  HE ES       1933 58.32                             155     0.210   58 251 
 BAR2 SZ ES   2   1934  0.08                             148    -0.5 5   75 177 
 BAR2 SZ I        1934  2.90        16.2 0.17                            75 177 
 PTB  HZ EP       1933 51.89                             126     0.4 9  159 239 
 PTB  HE ES   1   1934 12.31                             126    -0.2 7  159 239 
 ZAR  HZ EP   2   1933 53.45                             122    -0.4 4  183 278 
 ZAR  HZ I        1933 56.14         5.5 0.29                           183 278 
 ZAR  HN ES   2   1934 16.32                             122    -0.4 4  183 278 
                                                                                
