 2014  6 8 1534  3.9 L   6.748 -72.946  4.0  RSN  4 0.4 1.3LRSN                1
 GAP=254        1.05       5.2     8.4 10.3  0.3412E+02  0.6428E+02  0.3469E+02E
 Epicentro: CEPITA - SANTANDER                                                 3
 ACTION:UPD 14-07-01 22:52 OP:nd   STATUS:               ID:20140608153403 L   I
 OLDACT:REG 14-06-08 21:34 OP:stll STATUS:               ID:20140608152817     3
 2014-06-08-1528-17M.COL___262                                                 6
 STAT SP IPHASW D HRMM SECON CODA AMPLIT PERI AZIMU VELO AIN AR TRES W  DIS CAZ7
 BAR2 SZ EP       1534  9.21                              47   -0.2610 31.3 237 
 BAR2 SZ ES       1534 13.72                              47   -0.1110 31.3 237 
 BAR2 SZ I        1534 14.47        33.6 0.16             47           31.3 237 
 BRR  HZ EP       1534 18.89                              47    0.2410 93.6 295 
 BRR  HN ES       1534 29.51                              47   -0.6610 93.6 295 
 RUS  HZ EP       1534 19.76                              47    0.2610 95.8 189 
 RUS  HZ I        1534 20.51         5.6 0.10             47           95.8 189 
 RUS  HE ES       1534 31.35                              47   -0.3310 95.8 189 
 PTB  HZ EP       1534 30.44                              47    0.39 9  169 262 
 PTB  HZ I        1534 31.64         6.8 0.36             47            169 262 
 PTB  HE ES       1534 51.13                              47    0.68 9  169 262 
                                                                                
