 2014  8 8 1047 24.6 L   6.826 -73.173140.0  RSN 16 0.4 2.2LRSN                1
 GAP=132        0.91       2.1     3.1  4.2 -0.1300E+01  0.4119E+01  0.1205E+01E
 Epicentro: ZAPATOCA - SANTANDER                                               3
 ACTION:UPD 14-09-15 21:47 OP:nd   STATUS:               ID:20140808104724 L   I
 OLDACT:DUP 14-08-08 21:36 OP:carl STATUS:               ID:20140808103815d    3
 2014-08-08-1038-14M.COL___251                                                 6
 STAT SP IPHASW D HRMM SECON CODA AMPLIT PERI AZIMU VELO AIN AR TRES W  DIS CAZ7
 BAR2 SZ EP       1047 43.52                             169   -0.0810 25.8 182 
 BAR2 SZ ES       1047 58.41                             169    0.0010 25.8 182 
 BAR2 SZ I        1047 59.64        51.9 0.18            169           25.8 182 
 BRR  HZ EP       1047 45.33                             153    0.4210 67.2 298 
 BRR  HN ES       1048  1.22                             153    0.4910 67.2 298 
 BRR  HZ I        1048  6.02        34.3 0.38            150           67.2 298 
 PAM  SZ EP       1047 46.40                             150    0.2010 77.2  43 
 PAM  SN ES       1048  3.26                             150    0.2210 77.2  43 
 PAM  SZ I        1048  5.39        16.1 0.42            153           77.2  43 
 RUS  HZ EP       1047 47.89                             142   -0.1410  104 174 
 RUS  HN ES       1048  5.97                             142   -0.3210  104 174 
 RUS  HZ I        1048  7.35        11.5 0.28            144            104 174 
 PTB  HZ EP       1047 50.26                             131   -0.63 9  145 257 
 PTB  HN ES       1048 10.95                             131   -0.44 9  145 257 
 PTB  HZ I        1048 14.03        17.7 0.12            131            145 257 
 OCA  HZ EP       1047 52.92                             129    0.74 9  157 354 
 OCA  HN ES       1048 13.30                             129   -0.37 9  157 354 
 OCA  HZ I        1048 16.48        21.6 0.36            130            157 354 
 SPBC HZ EP       1047 52.66                             128   -0.04 9  164 218 
 SPBC HN ES       1048 14.46                             128   -0.16 9  164 218 
 SPBC HZ I        1048 19.15        19.1 0.18            129            164 218 
 ZAR  HZ EP       1047 56.03                             122   -0.25 9  200 292 
 ZAR  HN ES       1048 21.41                             122    0.43 9  200 292 
 ZAR  HZ I        1048 27.31        12.2 0.44            122            200 292 
 NOR  HZ EP       1048  0.01                             117    0.09 8  234 233 
 NOR  HN ES       1048 27.48                             117    0.01 8  234 233 
 NOR  HZ I        1048 33.27        13.5 0.18            118            234 233 
 SML  HZ EP       1047 59.90                             117   -0.60 8  240 336 
 SML  HN ES       1048 27.72                             117   -0.77 8  240 336 
 SML  HZ I        1048 38.04        21.7 0.10            118            240 336 
 CHI  HZ EP       1048  1.99                             116   -0.22 8  251 194 
 CHI  HE ES       1048 31.50                             116   -0.04 8  251 194 
 CHI  HZ I        1048 34.51         5.3 0.32            117            251 194 
 HEL  HZ EP       1048  4.67                             114    0.38 8  270 255 
 HEL  HN ES       1048 35.43                             114    0.20 8  270 255 
 URE  HZ EP   4   1048  3.73                             113   -1.24 0  280 292 
 URE  HN ES   4   1048 33.51                             113   -2.93 0  280 292 
 GUY2CHZ EP       1048  8.60                             111    0.74 7  300 234 
 GUY2CHN ES       1048 41.22                             111   -0.38 7  300 234 
 GUY2CHZ I        1048 48.95         5.9 0.30                           300 234 
 TOL  SZ EP       1048 13.34                             108    0.71 7  343 224 
 TOL  SN ES       1048 50.07                             108   -0.01 7  343 224 
 TOL  SZ I        1048 57.64        14.8 0.38            109            343 224 
 PRA  HZ EP       1048 17.66                             105   -0.39 6  393 209 
 PRA  HE ES       1049  0.28                             105    0.54 6  393 209 
 PRA  HZ I        1049  5.62         8.2 0.60            107            393 209 
 ORTC HZ EP       1048 17.99                             105   -0.41 6  396 216 
 ORTC HE ES       1049  0.68                             105    0.33 6  396 216 
 ORTC HZ I        1049  5.68         4.1 0.26            107            396 216 
 SJC  HZ EP   4   1048 17.82                             105   -1.69 0  405 327 
 SJC  HN ES   4   1048 59.13                             105   -3.20 0  405 327 
                                                                                
