 2012  4 8 1713 39.1 L   6.765 -73.135142.6  RSN  5 0.1 1.8LRSN                1
 GAP=140        0.34       3.6     4.6  5.3 -0.6401E+01  0.1093E+02 -0.5821E+01E
 Epicentro: LOS SANTOS - SANTANDER                                             3
 ACTION:UP  12-07-05 11:51 OP:tino STATUS:               ID:20120408171339 L   I
 2012-04-08-1710-00M.COL___196                                                 6
 STAT SP IPHASW D HRMM SECON CODA AMPLIT PERI AZIMU VELO AIN AR TRES W  DIS CAZ7
 BAR2 SZ EP       1713 58.29                             172     0.010   20 195 
 BAR2 SZ ES   2   1714 13.54                             172     0.3 5   20 195 
 BRR  HZ EP       1714  0.13                             151     0.010   74 301 
 BRR  HZ I        1714  0.37        10.9 0.10                            74 301 
 PAM  SZ EP       1714  1.22                             149     0.110   80  37 
 PAM  SN ES   1   1714 18.19                             149    -0.1 7   80  37 
 RUS  HN ES   2   1714 20.18                             144    -0.2 5   97 177 
 ZAR  HN ES   3   1714 36.84                             121    -0.2 2  207 293 
                                                                                
