 2014  4 8 1151 18.1 L   6.814 -73.184138.0  RSN 19 0.5 2.4LRSN                1
 GAP= 69        0.83       2.4     2.9  5.2 -0.1638E+01  0.4807E+01 -0.6090E+00E
 Epicentro: ZAPATOCA - SANTANDER                                               3
 ACTION:UPD 14-05-13 23:07 OP:nd   STATUS:               ID:20140408115118 L   I
 OLDACT:UP  14-04-08 22:27 OP:cam  STATUS:               ID:20140408114815     3
 OLDACT:REG 14-04-08 20:24 OP:cam  STATUS:               ID:20140408114815     3
 2014-04-08-1148-15M.COL___247                                                 6
 STAT SP IPHASW D HRMM SECON CODA AMPLIT PERI AZIMU VELO AIN AR TRES W  DIS CAZ7
 PAM  SZ IP     C 1151 39.79                             149    0.1610 79.0  43 
 PAM  SN ES       1151 56.78                             149    0.3810 79.0  43 
 PAM  SZ I        1151 58.93        55.0 0.64            154           79.0  43 
 RUS  HZ EP   1   1151 40.84                             142   -0.43 7  102 174 
 RUS  HE ES       1151 59.52                             142    0.2010  102 174 
 RUS  HZ I        1151 59.98        41.4 0.36            146            102 174 
 PTB  HZ EP     D 1151 43.70                             131   -0.42 9  144 258 
 PTB  HN ES       1152  3.90                             131   -0.49 9  144 258 
 PTB  HZ I        1152  5.69        33.8 0.26            127            144 258 
 OCA  HZ EP       1151 45.48                             128   -0.18 9  158 355 
 OCA  HN ES       1152  7.29                             128    0.16 9  158 355 
 OCA  HZ I        1152 14.08        15.5 0.14            128            158 355 
 TAM  HZ I        1151 45.04        80.4 0.20            139            160 105 
 TAM  HZ IP     D 1151 45.09                             128   -0.54 9  160 105 
 SPBC HZ EP     C 1151 45.84                             128   -0.07 9  162 217 
 SPBC HE ES       1152  7.64                             128    0.07 9  162 217 
 SPBC HZ I        1152 11.95        35.8 0.40            127            162 217 
 ZAR  HZ EP     D 1151 50.13                             121    0.52 9  200 292 
 ZAR  HN ES   4   1152 15.68                             121    1.52 0  200 292 
 ZAR  HZ I        1152 17.97        32.4 0.22            119            200 292 
 NOR  HZ EP   1   1151 53.35                             117    0.21 6  232 234 
 NOR  HN ES       1152 20.24                             117   -0.22 8  232 234 
 NOR  HZ I        1152 23.54        18.7 0.22            117            232 234 
 SML  HZ EP   1   1151 53.57                             116   -0.42 6  241 336 
 SML  HE ES   2   1152 22.70                             116    0.74 4  241 336 
 SML  HZ I        1152 31.64        35.4 0.10            116            241 336 
 CHI  HZ EP   1   1151 55.28                             116   -0.17 6  249 194 
 CHI  HN ES   2   1152 24.28                             116   -0.29 4  249 194 
 CHI  HZ I        1152 27.53        10.0 0.52            118            249 194 
 HEL  HZ EP   4   1151 58.93                             114    1.39 0  268 255 
 HEL  HE ES   1   1152 28.11                             114   -0.17 6  268 255 
 HEL  HZ I        1152 36.01        13.6 0.34            113            268 255 
 URE  HZ EP   2   1151 57.90                             112   -0.43 4  279 292 
 URE  HE ES   1   1152 28.97                             112   -0.71 6  279 292 
 URE  HZ I        1152 31.50        25.6 0.12            112            279 292 
 GUY2CHZ EP   2   1152  1.79                             111    0.69 4  299 234 
 GUY2CHE ES   4   1152 36.24                             111    1.63 0  299 234 
 GUY2CHZ I        1152 41.85        12.1 0.30                           299 234 
 RREF HZ EP   1   1152  4.25                             110    0.56 5  320 229 
 CBOC HZ EP   2   1152  5.44                             109    1.12 3  330 252 
 CBOC HE ES   4   1152 41.75                             109    1.40 0  330 252 
 CBOC HZ I        1152 49.24         4.6 0.22            109            330 252 
 DBB  SZ EP   1   1152  5.71                             108    0.91 5  335 274 
 DBB  SZ ES       1152 41.75                             108    0.55 7  335 274 
 PRA  HZ EP   1   1152 11.29                             105   -0.02 4  391 209 
 PRA  HE ES   2   1152 53.29                             105    0.51 3  391 209 
 PRA  HZ I        1152 58.88         7.6 0.36            107            391 209 
 ORTC HZ EP   1   1152 12.20                             105    0.55 4  394 216 
 ORTC HE ES   1   1152 54.54                             105    1.15 4  394 216 
 ORTC HZ I        1152 58.39         7.2 0.38            106            394 216 
 SJC  HZ EP       1152 12.14                             105   -0.88 6  406 327 
 SJC  HE ES   4   1152 53.72                             105   -2.12 0  406 327 
 SJC  HZ I        1152 57.32         4.3 0.40            105            406 327 
                                                                                
