 2017 11 8 1340 24.2 L   6.736 -73.172148.0  RSN  4 0.3 1.4LRSN                1
 GAP=229        0.63       6.6     5.2  7.2  0.7963E+01 -0.3938E+01  0.5963E+01E
 Epicentro: VILLANUEVA - SANTANDER                                             3
 ACTION:UPD 17-12-12 19:53 OP:rebc STATUS:               ID:20171108134024 L   I
 OLDACT:REG 17-11-08 20:34 OP:mg   STATUS:               ID:20171108133742     3
 2017-11-08-1338-00M.COL___407                                                 6
 STAT SP IPHASW D HRMM SECON CODA AMPLIT PERI AZIMU VELO AIN AR TRES W  DIS CAZ7
 BAR2 EZ EP       1340 43.74                             174   -0.2410 15.9 184 
 BAR2 EZ ES   2   1340 58.89                             174   -0.51 5 15.9 184 
 BAR2 EZ I        1341  0.00         8.5 0.28            171           15.9 184 
 BRR  HZ EP       1340 45.54                             153   -0.1210 72.4 305 
 BRR  HN ES       1341  2.71                             153    0.3110 72.4 305 
 BRR  HZ I        1341  4.95        11.6 0.21            152           72.4 305 
 RUS  HZ EP   2   1340 48.27                             146    0.57 5 93.8 174 
 RUS  HN ES   2   1341  6.46                             146    0.43 5 93.8 174 
 RUS  HZ I        1341  7.31         2.0 0.21            147           93.8 174 
 PTB  HZ EP   1   1340 51.14                             134    0.15 7  144 261 
 PTB  HN ES       1341 11.71                             134   -0.17 9  144 261 
 PTB  HZ I        1341 15.50         1.1 0.17            133            144 261 
                                                                                
