 2016  9 8 1321  2.7 L   6.820 -73.141151.6  RSN 22 0.5 2.8LRSN                1
 GAP=119        1.10       2.8     3.5  4.8 -0.1812E+01  0.3074E+01  0.7530E-01E
 Epicentro: LOS SANTOS - SANTANDER                                             3
 ACTION:UPD 17-08-17 21:08 OP:lp   STATUS:               ID:20160908132102 L   I
 OLDACT:REG 16-09-08 19:54 OP:lv   STATUS:               ID:20160908131700     3
 2016-09-08-1318-00M.COL___359                                                 6
 STAT SP IPHASW D HRMM SECON CODA AMPLIT PERI AZIMU VELO AIN AR TRES W  DIS CAZ7
 BAR2 EZ IP     D 1321 23.12                             170    0.0910 25.6 190 
 BAR2 EZ ES       1321 38.43                             170   -0.4910 25.6 190 
 BAR2 EZ I        1321 40.97       146.4 0.30            168           25.6 190 
 BRR  HZ IP     C 1321 24.92                             154    0.5210 70.7 297 
 BRR  HE ES       1321 42.24                             154    0.8810 70.7 297 
 BRR  HZ I        1321 46.03        95.4 0.22            151           70.7 297 
 PAM  EZ EP       1321 25.88                             152    0.5110 75.3  40 
 PAM  EN ES       1321 43.16                             152    0.0710 75.3  40 
 PAM  EZ I        1321 43.92        52.9 0.22            155           75.3  40 
 RUS  HZ EP       1321 27.10                             144   -0.0310  103 176 
 RUS  HE ES       1321 45.83                             144   -0.3910  103 176 
 RUS  HZ I        1321 46.81        48.1 0.20            145            103 176 
 PTB  HZ EP       1321 29.71                             133   -0.48 9  149 258 
 PTB  HN ES       1321 51.06                             133   -0.60 9  149 258 
 PTB  HZ I        1321 58.35        54.9 0.24            131            149 258 
 SPBC HZ EP       1321 32.16                             130    0.37 9  165 219 
 SPBC HN ES       1321 54.10                             130   -0.42 9  165 219 
 SPBC HZ I        1321 59.02        98.4 0.19            129            165 219 
 ZAR  HZ EP       1321 35.82                             124    0.37 9  204 292 
 ZAR  HN ES       1322  1.13                             124    0.10 9  204 292 
 ZAR  HZ I        1322  6.32        68.5 0.38            123            204 292 
 NOR  HZ EP       1321 39.28                             119    0.37 8  236 234 
 NOR  HN ES       1322  6.76                             119   -0.43 8  236 234 
 NOR  HZ I        1322 12.68        43.9 0.22            119            236 234 
 CHI  HZ EP       1321 41.46                             118    0.54 8  251 195 
 CHI  HN ES       1322 10.66                             118   -0.11 8  251 195 
 CHI  HZ I        1322 14.47        41.7 0.45            118            251 195 
 ROSC BZ EP   9   1321 42.86                             118    1.53 0  255 211 
 ROSC BN ES       1322 13.85                                    0.82 8  255 211 
 ROSC BZ I        1322 17.85       121.9 0.40            117            255 211 
 HEL  HZ EP   4   1321 44.36                             116    1.07 0  273 255 
 HEL  HN ES       1322 15.50                             116    0.52 8  273 255 
 HEL  HZ I        1322 21.23        31.4 0.30            115            273 255 
 URE  HZ EP       1321 43.16                             115   -0.82 7  284 291 
 URE  HN ES   4   1322 13.74                             115   -2.47 0  284 291 
 URE  HZ I        1322 18.99        27.8 0.12            114            284 291 
 GUY2CHZ EP   4   1321 48.08                             113    1.35 0  303 234 
 GUY2CHN ES       1322 20.57                             113   -0.54 7  303 234 
 GUY2CHZ I        1322 29.38        42.0 0.34                           303 234 
 VIL  EZ EP       1321 47.00                             113    0.41 7  306 192 
 VIL  EE ES       1322 21.42                             113    0.55 7  306 192 
 VIL  EZ I        1322 30.86        52.3 0.41            113            306 192 
 PTGC HZ EP       1321 46.25                             112   -0.73 7  311 159 
 PTGC HN ES   4   1322 19.66                             112   -1.90 0  311 159 
 PTGC HZ I        1322 22.75        25.9 0.38            113            311 159 
 LL6C HZ EP       1321 47.83                             112   -0.53 7  323 357 
 LL6C HN ES       1322 23.43                             112   -0.58 7  323 357 
 LL6C HZ I        1322 28.99        14.8 0.40            112            323 357 
 ELA  HZ EP   9   1321 52.56                             111    2.59 0  331 229 
 ELA  HN ES       1322 29.09                                   -0.37 7  331 229 
 ELA  HZ I        1322 36.13        31.2 0.58            111            331 229 
 CBOC HZ EP       1321 50.35                             111    0.40 7  335 252 
 CBOC HE ES       1322 27.08                             111    0.24 7  335 252 
 CBOC HZ I        1322 33.18        10.1 0.42            110            335 252 
 ARGC HZ EP       1321 51.75                             109   -0.57 6  357 340 
 ARGC HN ES   4   1322 32.14                             109    1.08 0  357 340 
 ARGC HZ I        1322 39.06        10.7 0.31            110            357 340 
 ANIL HZ EP   4   1321 54.26                             109    1.35 0  359 224 
 ANIL HN ES   4   1322 33.57                             109    1.46 0  359 224 
 PAL  HZ EP       1321 58.67                             107    0.47 6  407 239 
 PAL  HE ES       1322 41.09                             107   -0.43 6  407 239 
 PAL  HZ I        1322 48.65         8.2 0.26            107            407 239 
 SJC  HZ IP   4 C 1321 57.33                             107   -0.90 0  408 327 
 SJC  HN ES   4   1322 38.39                             107   -3.19 0  408 327 
 SJC  HZ I        1322 42.51         9.0 0.32            107            408 327 
 CRJC HE ES   4   1322 51.22                             104   -2.51 0  465   3 
 CRJC HZ I        1322 58.62        15.6 0.30            105            465   3 
                                                                                
