 2013  1 8 1000 35.2 L   6.680 -73.229141.0  RSN  4 0.2 1.6LRSN                1
 GAP=201        0.53       5.8     3.7  4.9  0.7908E+01  0.5477E+01  0.2534E+01E
 Epicentro: BARICHARA - SANTANDER                                              3
 ACTION:UPD 13-02-15 09:12 OP:ep   STATUS:               ID:20130108100035 L   I
 2013-01-08-1000-00M.COL___242                                                 6
 STAT SP IPHASW D HRMM SECON CODA AMPLIT PERI AZIMU VELO AIN AR TRES W  DIS CAZ7
 BAR2 SZ EP       10 0 53.93                             175   -0.1710 11.0 152 
 BAR2 SZ ES       10 1  8.68                             175   -0.1310 11.0 152 
 BRR  HZ EP       10 0 56.05                             152    0.1810 71.3 312 
 BRR  HN ES       10 1 12.18                             152    0.2110 71.3 312 
 BRR  HN I        10 1 13.04        12.6 0.28            146           71.3 312 
 PTB  HZ EP       10 1  0.95                             133    0.14 9  137 264 
 PTB  HN ES       10 1 20.81                             133    0.05 9  137 264 
 PTB  HN I        10 1 26.99         4.1 0.46            129            137 264 
 ZAR  HE ES       10 1 31.56                             122   -0.35 9  201 297 
 ZAR  HN I        10 1 39.27         3.0 0.10            119            201 297 
                                                                                
