 2017  6 8 1039 12.9 L   6.513 -73.576105.3  RSN  9 0.4 1.5LRSN                1
 GAP=146        0.99       3.4     3.4  6.9  0.5314E+01  0.5011E+01  0.4542E+01E
 Epicentro: SANTA HELENA DEL OPON - SANTANDER                                  3
 ACTION:UPD 17-09-14 16:50 OP:jn   STATUS:               ID:20170608103912 L   I
 OLDACT:REG 17-06-08 21:08 OP:osc  STATUS:               ID:20170608103738     3
 2017-06-08-1038-00M.COL___368                                                 6
 STAT SP IPHASW D HRMM SECON CODA AMPLIT PERI AZIMU VELO AIN AR TRES W  DIS CAZ7
 BRR  HZ EP       1039 29.26                             145   -0.2810 67.4 347 
 BRR  HN ES       1039 42.94                             145    0.3810 67.4 347 
 BRR  HZ I        1039 50.82         5.3 0.09            153           67.4 347 
 RUS  HZ EP       1039 31.61                             137   -0.1710 87.6 142 
 RUS  HN ES       1039 46.36                             137   -0.1810 87.6 142 
 RUS  HZ I        1039 49.25         2.1 0.08            148           87.6 142 
 PTB  HZ EP       1039 31.38                             134   -0.5910 97.5 272 
 PTB  HN ES       1039 46.60                             134   -0.2810 97.5 272 
 PTB  HZ I        1039 52.69         6.4 0.08            139           97.5 272 
 SPBC HZ EP       1039 33.37                             130    0.1710  110 210 
 SPBC HN ES   4   1039 50.46                             130    1.39 0  110 210 
 SPBC HZ I        1039 57.54         6.2 0.10            137            110 210 
 ZAR  HZ EP       1039 40.95                             115    0.79 9  178 307 
 ZAR  HE ES   4   1040  3.62                             115    2.16 0  178 307 
 ZAR  HZ I        1040  5.55         9.9 0.12            124            178 307 
 NOR  HZ EP       1039 40.45                             115    0.32 9  178 234 
 NOR  HN ES       1040  1.82                             115    0.41 9  178 234 
 NOR  HZ I        1040  9.22         4.5 0.14            123            178 234 
 YPLC HZ EP       1039 40.57                             115    0.03 9  181 133 
 YPLC HN ES       1040  2.46                             115    0.33 9  181 133 
 CHI  HN ES       1040  8.27                             111   -0.21 8  209 185 
 URE  HZ EP       1039 48.20                             106   -0.83 8  256 302 
 URE  HE ES       1040 17.41                             106    0.17 8  256 302 
 URE  HZ I        1040 19.52         4.7 0.20            114            256 302 
                                                                                
