 2011  2 8 1453 36.2 L   6.784 -73.158141.8  RSN 13 0.5 2.8LRSN                1
 GAP=135        0.69       3.3     4.9  6.8 -0.5374E+01  0.1504E+02 -0.2236E+01E
 Epicentro: LOS SANTOS - SANTANDER                                             3
 ACTION:UP  11-03-28 15:06 OP:jfem STATUS:               ID:20110208145336 L   I
 2011-02-08-1451-01S.COL___137                                                 6
 STAT SP IPHASW D HRMM SECON CODA AMPLIT PERI AZIMU VELO SNR AR TRES W  DIS CAZ7
 BTL  SZ IP       1453 55.51                             172     0.210   19 321 
 BTL  SZ ES   3   1454 11.21                             172     1.0 2   19 321 
 BAR2 SZ EP   1   1453 55.32                             171     0.0 7   21 188 
 BAR2 SZ ES   2   1454 10.26                             171     0.0 5   21 188 
 BAR2 SZ I        1454 13.94       158.1 0.36                            21 188 
 RUS  HN ES   1   1454 17.49                             144    -0.1 7   99 175 
 RUS  HZ I        1454 19.71        63.4 0.40                            99 175 
 GRA  SZ IP       1454  1.08                             136    -0.210  128  18 
 GRA  SZ ES   2   1454 20.89                             136     0.1 5  128  18 
 GRA  SZ I        1454 30.79        76.3 0.31                           128  18 
 YOP  SZ EP   2   1454  5.78                             126    -0.1 4  178 153 
 YOP  SN ES   2   1454 28.21                             126    -0.8 4  178 153 
 YOP  SZ I        1454 33.99        40.7 0.66                           178 153 
 NOR  SZ EP   1   1454 10.95                             118    -0.5 6  233 235 
 NOR  SN ES   2   1454 39.31                             118     0.3 4  233 235 
 CHI  HZ EP   1   1454 13.24                             117    -0.2 6  247 195 
 CHI  HN ES   1   1454 42.88                             117     0.4 6  247 195 
 CHI  HZ I        1454 51.01        28.9 0.38                           247 195 
 ROSC BZ EP   2   1454 14.62                             116     0.7 4  251 211 
 ROSC BN ES   2   1454 43.56                             116     0.3 4  251 211 
 ROSC BZ I        1454 51.42        89.7 0.54                           251 211 
 HEL  HZ EP   2   1454 16.77                             114     0.7 4  270 256 
 HEL  HN ES   2   1454 46.43                             114    -0.7 4  270 256 
 HEL  HZ I        1454 53.70        37.1 0.36                           270 256 
 GUY  SZ EP   3   1454 19.41                             112     0.0 2  299 235 
 GUY  SN ES   2   1454 52.27                             112    -0.8 4  299 235 
 GUY  SZ I        1455  1.68        69.1 0.38                           299 235 
 RREF HZ EP   1   1454 22.48                             110     0.5 5  320 229 
 RREF HN ES   2   1454 57.15                             110    -0.4 3  320 229 
 RREF HZ I        1455  4.78        37.8 0.29                           320 229 
 DBB  SZ EP   2   1454 23.95                             109     0.6 3  338 275 
 DBB  SZ ES   2   1454 59.54                             109    -0.6 3  338 275 
 DBB  SZ I        1455  1.80         6.9 0.29                           338 275 
 TOL  SZ EP   2   1454 24.57                             109     0.5 3  341 225 
                                                                                
