 2015  1 8 1522 42.2 L   6.720 -73.221149.8  RSN  4 0.7 1.5LRSN                1
 GAP=123        1.64      17.6    10.5 16.8 -0.8263E+02 -0.3191E+01  0.2311E+02E
 Epicentro: VILLANUEVA - SANTANDER                                             3
 ACTION:UPD 15-03-02 15:37 OP:nd   STATUS:               ID:20150108152242 L   I
 OLDACT:UP  15-01-09 00:17 OP:mh   STATUS:               ID:20150108151749d    3
 OLDACT:DUP 15-01-09 00:15 OP:mh   STATUS:               ID:20150108151749d    3
 OLDACT:UP  15-01-09 00:00 OP:mh   STATUS:               ID:20150108151748     3
 OLDACT:REG 15-01-08 21:33 OP:mh   STATUS:               ID:20150108151748     3
 2015-01-08-1517-48M.COL___268                                                 6
 STAT SP IPHASW D HRMM SECON CODA AMPLIT PERI AZIMU VELO AIN AR TRES W  DIS CAZ7
 BAR2 EZ EP       1523  2.54                             174    0.3610 14.7 163 
 BAR2 EZ ES       1523 17.97                             174    0.2110 14.7 163 
 BAR2 EZ I        1523 19.61         6.2 0.34            172           14.7 163 
 BRR  HZ EP   1   1523  3.96                             154    0.28 7 69.2 308 
 BRR  HN ES       1523 21.39                             154    0.9710 69.2 308 
 PAM  SZ EP   1   1523  5.74                             148    0.15 7 89.5  40 
 PAM  SN ES       1523 22.94                             148   -0.9010 89.5  40 
 PAM  SZ I        1523 25.28         4.5 0.44            152           89.5  40 
 PTB  HZ EP   4   1523  5.58                             135   -3.07 0  138 262 
 PTB  HN ES       1523 28.29                             135   -0.99 9  138 262 
 PTB  HZ I        1523 37.93         4.3 0.06            133            138 262 
                                                                                
