 2011 10 8 1829  9.1 L   6.787 -73.147145.6  RSN 17 0.4 3.2LRSN                1
 GAP=114        0.86       2.5     4.1  5.2 -0.2200E+00  0.5528E+01  0.3588E+01E
 Epicentro: LOS SANTOS - SANTANDER                                             3
 ACTION:UPD 12-07-13 16:02 OP:ep   STATUS:               ID:20111008182909 L   I
 2011-10-08-1820-00M.COL___170                                                 6
 STAT SP IPHASW D HRMM SECON CODA AMPLIT PERI AZIMU VELO AIN AR TRES W  DIS CAZ7
 BAR2 SZ EP       1829 28.45                             171   -0.2610 21.9 190 
 BAR2 SZ ES   1   1829 43.80                             171   -0.19 7 21.9 190 
 BAR2 SZ I        1829 45.61       306.0 0.34                          21.9 190 
 GIR2 SZ EP       1829 28.56                             167   -0.2610 32.6 351 
 GIR2 SZ ES   1   1829 44.04                             167   -0.14 7 32.6 351 
 BRR  HZ EP       1829 30.36                             152    0.0710 71.7 300 
 BRR  HZ I        1829 30.72       568.5 0.18                          71.7 300 
 BRR  HE ES   1   1829 47.77                             152    0.97 7 71.7 300 
 PAM  SZ EP       1829 31.26                             150   -0.1410 78.6  39 
 PAM  SE ES   1   1829 48.52                             150   -0.25 7 78.6  39 
 RUS  HZ EP       1829 32.38                             144   -0.3810 99.2 176 
 RUS  HE ES   1   1829 51.10                             144   -0.10 7 99.2 176 
 RUS  HZ I        1829 52.86       135.7 0.26                          99.2 176 
 BRI  SZ EP       1829 33.07                             141   -0.0410  110  21 
 OCA  SZ EP   1   1829 38.27                             129    0.72 7  162 353 
 OCA  SZ ES       1830  0.09                             129    0.36 9  162 353 
 OCA  SZ I        1830  5.63       274.4 0.29                           162 353 
 YOP  SZ EP   1   1829 38.84                             126   -0.20 7  178 153 
 YOP  SE ES   1   1830  3.08                             126    0.70 7  178 153 
 ZAR  HZ EP   1   1829 41.03                             122   -0.57 6  204 293 
 ZAR  HE ES   1   1830  6.37                             122   -0.56 6  204 293 
 ZAR  HZ I        1830 13.66       246.9 0.34                           204 293 
 NOR  SZ EP   1   1829 44.08                             119   -0.66 6  234 235 
 NOR  SE ES   1   1830 12.05                             119   -0.47 6  234 235 
 CHI  HZ EP   1   1829 46.54                             117   -0.12 6  247 195 
 CHI  HN ES   1   1830 15.92                             117   -0.02 6  247 195 
 CHI  HZ I        1830 25.73        62.4 0.48                           247 195 
 ROSC BZ EP   1   1829 47.98                             117    0.89 6  251 211 
 ROSC BZ I        1830 22.24       165.5 0.49                           251 211 
 HEL  HZ EP   1   1829 49.77                             115    0.50 6  272 256 
 HEL  HZ I        1830 27.54        79.6 0.39                           272 256 
 VIL  SE ES       1830 26.76                             112    0.65 7  302 192 
 VIL  SZ I        1830 31.44        49.1 0.50                           302 192 
 GUY  SZ EP   2   1829 52.99                             112    0.11 4  303 235 
 GUY  SZ I        1830 34.08       113.1 0.51                           303 235 
 RREF HZ EP   1   1829 55.84                             111    0.70 5  321 230 
 PRA  HZ EP   1   1830  2.19                             107   -0.30 4  391 210 
 PRA  HN ES   1   1830 43.97                             107   -0.14 4  391 210 
                                                                                
