 2010 12 8 1119 16.0 L   6.837 -73.188141.5  RSN  6 0.5 1.7LRSN                1
 GAP=159        1.00       6.5    27.6  9.2 -0.8795E+02 -0.4330E+02  0.6095E+01E
 Epicentro: ZAPATOCA - SANTANDER                                               3
 ACTION:UP  11-01-14 15:23 OP:pat  STATUS:               ID:20101208111916 L   I
 2010-12-08-1117-12S.COL___135                                                 6
 STAT SP IPHASW D HRMM SECON CODA AMPLIT PERI AZIMU VELO SNR AR TRES W  DIS CAZ7
 BTL  SZ EP       1119 35.41                             175     0.510   13 316 
 BTL  SZ ES   1   1119 50.33                             175     0.6 7   13 316 
 GIR2 SZ EP   3   1119 34.77                             169    -0.3 2   27 359 
 BAR2 SZ EP       1119 34.90                             169    -0.310   27 179 
 BAR2 SZ ES   1   1119 49.65                             169    -0.5 7   27 179 
 BAR2 SZ I        1119 51.74        13.6 0.28                            27 179 
 GRA  SZ EP       1119 40.83                             137     0.210  123  20 
 GRA  SZ ES   3   1119 58.85                             137    -1.0 2  123  20 
 GRA  SZ I        1120  1.98         6.6 0.49                           123  20 
 OCA  SZ ES   1   1120  4.40                             130    -0.6 7  156 355 
 OCA  SZ I        1120  7.33         6.3 0.47                           156 355 
 CHI  HZ EP   1   1119 53.63                             116    -0.1 6  251 194 
 CHI  HN ES   2   1120 22.86                             116    -0.3 4  251 194 
 CHI  HZ I        1120 26.38         4.6 0.23                           251 194 
                                                                                
