 2016  4 8 1310 12.1 L   6.815 -73.178143.1  RSN 12 0.4 2.3LRSN                1
 GAP=132        1.05       3.6     3.8  6.2 -0.1439E+00  0.9957E+01  0.6378E+00E
 Epicentro: ZAPATOCA - SANTANDER                                               3
 ACTION:UPD 16-05-05 14:19 OP:rebc STATUS:               ID:20160408131012 L   I
 OLDACT:UP  16-04-08 20:54 OP:drio STATUS:               ID:20160408130743     3
 OLDACT:REG 16-04-08 19:50 OP:drio STATUS:               ID:20160408130743     3
 2016-04-08-1307-43M.COL___327                                                 6
 STAT SP IPHASW D HRMM SECON CODA AMPLIT PERI AZIMU VELO AIN AR TRES W  DIS CAZ7
 BAR2 EZ EP       1310 31.38                             170   -0.0710 24.7 181 
 BAR2 EZ ES       1310 46.11                             170   -0.4210 24.7 181 
 BAR2 EZ I        1310 48.80        30.4 0.24            168           24.7 181 
 PAM  EZ EP       1310 34.30                             150    0.1910 78.5  42 
 PAM  EE ES       1310 51.61                             150    0.3410 78.5  42 
 PAM  EZ I        1310 53.28        32.3 0.46            156           78.5  42 
 RUS  HZ EP       1310 35.13                             143   -0.6110  103 174 
 RUS  HE ES       1310 54.73                             143    0.5510  103 174 
 RUS  HZ I        1310 55.33        24.2 0.36            145            103 174 
 PTB  HZ EP       1310 38.10                             132   -0.47 9  145 258 
 PTB  HN ES       1310 58.88                             132   -0.33 9  145 258 
 PTB  HZ I        1311  1.26        28.6 0.12            131            145 258 
 SPBC HZ EP       1310 40.38                             129    0.06 9  162 218 
 SPBC HN ES       1311  1.99                             129   -0.33 9  162 218 
 SPBC HZ I        1311  8.52        27.1 0.26            129            162 218 
 ZAR  HZ EP       1310 43.78                             122   -0.19 9  200 292 
 ZAR  HE ES       1311  9.33                             122    0.51 9  200 292 
 ZAR  HZ I        1311 17.76        13.4 0.28            122            200 292 
 NOR  HZ EP       1310 47.82                             118    0.34 8  233 234 
 NOR  HE ES       1311 15.11                             118    0.04 8  233 234 
 NOR  HZ I        1311 22.25        18.0 0.18            119            233 234 
 CHI  HZ EP       1310 49.76                             116    0.02 8  249 194 
 CHI  HE ES       1311 19.13                             116    0.04 8  249 194 
 CHI  HZ I        1311 22.33        10.1 0.34            118            249 194 
 HEL  HZ EP   4   1310 54.02                             114    2.18 0  269 255 
 HEL  HN ES       1311 23.28                             114    0.44 8  269 255 
 HEL  HZ I        1311 30.23        10.5 0.36            115            269 255 
 URE  HZ EP       1310 51.72                             113   -0.88 7  280 292 
 URE  HN ES       1311 24.29                             113    0.10 7  280 292 
 URE  HZ I        1311 34.58        10.7 0.16            114            280 292 
 GUY2CHZ EP       1310 56.53                             112    1.16 7  299 234 
 GUY2CHE ES   4   1311 31.41                             112    2.29 0  299 234 
 GUY2CHZ I        1311 36.95        10.5 0.60                           299 234 
 ELA  HZ EP   4   1311  2.11                             110    3.45 0  328 229 
 ELA  HN ES   4   1311 37.72                             110    2.75 0  328 229 
 ELA  HZ I        1311 46.08         6.0 0.32            111            328 229 
 MON  HZ EP   4   1310 58.55                             108   -2.01 0  350 309 
 MON  HN ES   4   1311 36.11                             108   -2.24 0  350 309 
                                                                                
