 2013 11 8 1037 57.7 L   6.795 -73.152150.0  RSN  8 0.4 2.0LRSN                1
 GAP=136        0.91       3.4     4.4  5.7 -0.1665E+01  0.5828E+01 -0.2160E+01E
 Epicentro: LOS SANTOS - SANTANDER                                             3
 ACTION:UPD 14-01-09 16:26 OP:ep   STATUS:               ID:20131108103757 L   I
 OLDACT:UP  13-11-08 17:18 OP:cam  STATUS:               ID:20131108103000     3
 OLDACT:REG 13-11-08 16:38 OP:cam  STATUS:               ID:20131108103000     3
 2013-11-08-1030-00M.COL___273                                                 6
 STAT SP IPHASW D HRMM SECON CODA AMPLIT PERI AZIMU VELO AIN AR TRES W  DIS CAZ7
 BAR2 SZ EP       1038 17.70                             171   -0.1210 22.6 189 
 BAR2 SZ ES       1038 33.61                             171    0.0910 22.6 189 
 BAR2 SZ I        1038 34.41        19.7 0.20            170           22.6 189 
 BRR  HZ EP       1038 19.60                             153    0.3110 70.9 299 
 BRR  HN ES       1038 36.63                             153    0.5010 70.9 299 
 BRR  HZ I        1038 42.00        11.2 0.12            152           70.9 299 
 PAM  SZ EP       1038 20.63                             151    0.2110 78.3  40 
 PAM  SE ES       1038 37.92                             151   -0.2210 78.3  40 
 PAM  SE I        1038 39.04        25.5 0.76            156           78.3  40 
 RUS  HZ EP       1038 21.60                             145   -0.2310  100 176 
 RUS  HN ES       1038 40.72                             145    0.0710  100 176 
 RUS  HZ I        1038 43.15         7.1 0.44            148            100 176 
 PTB  HZ EP       1038 24.32                             133   -0.63 9  147 259 
 PTB  HN ES       1038 46.06                             133   -0.14 9  147 259 
 PTB  HZ I        1038 51.38        10.3 0.50            133            147 259 
 SPBC HZ EP       1038 26.70                             130    0.26 9  162 219 
 SPBC HN ES       1038 48.65                             130   -0.21 9  162 219 
 SPBC HZ I        1038 53.71        15.4 0.18            131            162 219 
 ZAR  HZ EP   1   1038 31.43                             123    1.04 6  204 292 
 SML  HZ EP   1   1038 34.60                             118    0.01 6  244 335 
 SML  HN ES       1039  2.75                             118   -0.62 8  244 335 
 SML  HZ I        1039  5.84        14.8 0.10            120            244 335 
                                                                                
