 2016  9 8 1551 57.5 L   6.705 -73.170143.8  RSN  4 0.3 1.4LRSN                1
 GAP=150        0.79       5.5     6.3  6.5 -0.2098E+02 -0.1915E+01  0.8362E+01E
 Epicentro: VILLANUEVA - SANTANDER                                             3
 ACTION:UPD 17-08-17 21:08 OP:lp   STATUS:               ID:20160908155157 L   I
 OLDACT:DUP 16-09-09 00:33 OP:cara STATUS:               ID:20160908154735d    3
 OLDACT:REG 16-09-08 20:17 OP:lv   STATUS:               ID:20160908154734     3
 2016-09-08-1548-00M.COL___353                                                 6
 STAT SP IPHASW D HRMM SECON CODA AMPLIT PERI AZIMU VELO AIN AR TRES W  DIS CAZ7
 BAR2 EZ EP       1552 17.11                             175    0.4210 12.6 186 
 BAR2 HN ES       1552 32.02                             175    0.3310 12.6 186 
 BAR2 EZ I        1552 39.02         3.9 0.58            170           12.6 186 
 BRR  HZ EP       1552 18.89                             151    0.2910 74.5 307 
 BRR  HN ES       1552 35.01                             151   -0.0710 74.5 307 
 BRR  HZ I        1552 36.56         6.2 0.26            159           74.5 307 
 PAM  HZ EP       1552 19.95                             147   -0.1510 87.3  37 
 PAM  EN ES       1552 37.37                             147   -0.3810 87.3  37 
 PAM  HZ I        1552 39.14         4.6 0.32            154           87.3  37 
 SPBC HZ EP       1552 24.76                             130   -0.14 9  153 221 
 SPBC HN ES       1552 45.92                             130   -0.37 9  153 221 
 SPBC HZ I        1552 50.46         4.7 0.38            134            153 221 
                                                                                
