 2010  3 8 1916 49.3 L   6.827 -73.016144.2  RSN 14 0.5 2.8LRSN                1
 GAP=135        0.97       3.7     5.8  5.5 -0.4863E+01  0.2941E+01  0.1952E+01E
 Epicentro: CEPITA - SANTANDER                                                 3
 ACTION:UP  10-08-24 09:52 OP:vdl  STATUS:               ID:20100308191649 L   I
 2010-03-08-1916-07S.COL___101                                                 6
 STAT SP IPHASW D HRMM SECON CODA AMPLIT PERI AZIMU VELO SNR AR TRES W  DIS CAZ7
 BAR2 SZ IP       1917  9.04                             167     0.010   32 216 
 BAR2 SZ ES   1   1917 23.78                             167    -0.5 7   32 216 
 BRR  HZ IP       1917 10.93                             148    -0.110   83 292 
 BRR  HN ES       1917 28.05                             148     0.110   83 292 
 BRR  HZ I        1917 30.44        81.4 0.04                            83 292 
 RUS  BZ EP       1917 12.90                             143    -0.310  104 184 
 RUS  BN ES       1917 31.87                             143     0.110  104 184 
 RUS  BZ I        1917 33.39        46.9 0.54                           104 184 
 OCA  SZ EP       1917 17.71                             129     0.2 9  160 348 
 OCA  SZ ES   2   1917 39.60                             129     0.2 5  160 348 
 OCA  SZ I        1917 43.93        90.7 0.15                           160 348 
 CHI  HZ EP       1917 27.22                             116    -0.5 8  256 198 
 CHI  HN ES   2   1917 58.35                             116     0.7 4  256 198 
 CHI  HZ I        1917 59.69        18.3 0.37                           256 198 
 ROSC BZ EP   1   1917 29.27                             115     0.8 6  263 213 
 ROSC BN ES   2   1917 59.92                             115     0.9 4  263 213 
 ROSC BZ I        1918  6.78        31.9 0.53                           263 213 
 HEL  HZ EP       1917 30.92                             113    -0.2 7  287 256 
 HEL  HZ I        1918  7.74        28.3 0.32                           287 256 
 GUY  HZ EP   1   1917 34.42                             111     0.0 5  315 236 
 RREF BZ EP   1   1917 37.44                             110     0.5 5  335 231 
 RREF BN ES   1   1918 14.42                             110     0.4 5  335 231 
 RREF BZ I        1918 17.82        19.9 0.60                           335 231 
 SDV  BZ EP       1917 38.58                             109     0.7 6  348  49 
 SDV  BZ I        1917 39.45        41.0 0.12                           348  49 
 DBB  SZ EP   1   1917 37.56                             108    -0.8 5  354 274 
 TOL  SZ EP   1   1917 38.40                             108    -0.6 5  356 226 
 TOL  SZ ES   2   1918 18.14                             108     0.5 3  356 226 
 ANIL BZ EP   1   1917 40.46                             107    -0.1 5  370 226 
 ANIL BN ES       1918 20.90                             107     0.5 6  370 226 
 ANIL BZ I        1918 28.44        55.6 0.44                           370 226 
 PRA  HZ EP       1917 42.67                             106    -1.3 6  402 211 
 PRA  HN ES   1   1918 26.75                             106     0.2 4  402 211 
 PRA  HZ I        1918 32.37        23.7 0.45                           402 211 
                                                                                
