 2016  6 8 1721 11.6 L   6.775 -73.134144.6  RSN  7 0.2 1.8LRSN                1
 GAP=139        0.56       2.6     2.7  3.6 -0.2262E+01  0.1968E+01  0.1293E+01E
 Epicentro: LOS SANTOS - SANTANDER                                             3
 ACTION:UPD 16-07-21 22:16 OP:rebc STATUS:               ID:20160608172111 L   I
 OLDACT:REG 16-06-08 21:49 OP:edw  STATUS:               ID:20160608171745     3
 2016-06-08-1717-45M.COL___325                                                 6
 STAT SP IPHASW D HRMM SECON CODA AMPLIT PERI AZIMU VELO AIN AR TRES W  DIS CAZ7
 BAR2 EZ IP       1721 31.04                             171   -0.0210 20.9 195 
 BAR2 EZ ES       1721 46.17                             171   -0.0510 20.9 195 
 BAR2 EZ I        1721 47.57        16.6 0.22                          20.9 195 
 BRR  HZ IP       1721 32.83                             151    0.0510 73.7 300 
 BRR  HN ES       1721 48.93                             151   -0.3610 73.7 300 
 BRR  HZ I        1721 52.48        14.3 0.28                          73.7 300 
 PAM  EZ IP       1721 33.96                             150    0.1710 78.7  38 
 PAM  EN ES       1721 51.36                             150    0.2810 78.7  38 
 PAM  EZ I        1721 53.75         7.5 0.64                          78.7  38 
 RUS  HZ EP       1721 34.85                             144   -0.2010 97.7 177 
 RUS  HN ES       1721 53.19                             144   -0.1310 97.7 177 
 RUS  HZ I        1721 55.18         5.6 0.38                          97.7 177 
 PTB  HZ EP       1721 38.21                             132   -0.35 9  149 260 
 PTB  HN ES       1721 59.78                             132    0.21 9  149 260 
 PTB  HZ I        1722  6.20         6.3 0.22                           149 260 
 SPBC HZ EP       1721 40.02                             129    0.12 9  162 220 
 SPBC HN ES       1722  2.16                             129    0.20 9  162 220 
 SPBC HZ I        1722  9.75        13.2 0.28                           162 220 
 NOR  HZ EP       1721 47.15                             118   -0.07 8  234 235 
 NOR  HN ES       1722 15.29                             118    0.30 8  234 235 
 NOR  HZ I        1722 20.56         5.1 0.18                           234 235 
                                                                                
