 2010  2 8 1253 45.2 L   6.775 -72.965146.0  RSN  4 0.3 1.6LRSN                1
 GAP=213        0.57       4.6    21.8  8.0 -0.5326E+02  0.3111E+02  0.3684E+01E
 Epicentro: SAN ANDRES - SANTANDER                                             3
 ACTION:UP  10-08-24 09:48 OP:vdl  STATUS:               ID:20100208125344 L   I
 2010-02-08-1253-03S.COL___093                                                 6
 STAT SP IPHASW D HRMM SECON CODA AMPLIT PERI AZIMU VELO SNR AR TRES W  DIS CAZ7
 BAR2 SZ IP       1254  5.11                             167     0.110   32 230 
 BAR2 SZ ES   2   1254 20.24                             167    -0.3 5   32 230 
 OCA  SZ EP   1   1254 13.61                             128    -0.5 7  167 346 
 OCA  SZ ES   2   1254 37.24                             128     0.6 5  167 346 
 CHI  HZ EP   1   1254 23.40                             117     0.2 6  252 200 
 CHI  HZ I        1254 24.82         2.0 0.35                           252 200 
 CHI  HE ES   2   1254 52.85                             117    -0.1 4  252 200 
 PRA  HZ EP   1   1254 40.01                             106     0.4 4  400 212 
 PRA  HN ES   2   1255 21.72                             106    -0.4 3  400 212 
 PRA  HZ I        1255 25.01         1.7 0.68                           400 212 
                                                                                
