 2014  6 8 1201 42.1 L   6.821 -73.181139.2  RSN 12 0.6 2.0LRSN                1
 GAP=131        1.28       3.9     5.2  7.4 -0.5504E+01  0.1908E+02 -0.1254E+01E
 Epicentro: ZAPATOCA - SANTANDER                                               3
 ACTION:UPD 14-07-01 22:52 OP:nd   STATUS:               ID:20140608120142 L   I
 OLDACT:DUP 14-06-08 22:30 OP:stll STATUS:               ID:20140608115806d    3
 2014-06-08-1158-05M.COL___250                                                 6
 STAT SP IPHASW D HRMM SECON CODA AMPLIT PERI AZIMU VELO AIN AR TRES W  DIS CAZ7
 BAR2 SZ IP     C 12 2  1.24                             169    0.2210 25.3 180 
 BAR2 SZ ES       12 2 16.35                             169    0.6010 25.3 180 
 BAR2 SZ I        12 2 19.06        17.4 0.44            171           25.3 180 
 PAM  SZ EP       12 2  4.11                             149    0.4010 78.2  43 
 PAM  SZ I        12 2  4.26        15.3 0.20            149           78.2  43 
 PAM  SN ES       12 2 20.75                             149    0.2210 78.2  43 
 RUS  HZ EP       12 2  5.16                             142   -0.2910  103 174 
 RUS  HN ES       12 2 23.01                             142   -0.6210  103 174 
 RUS  HZ I        12 2 26.72         8.6 0.32            147            103 174 
 PTB  HZ EP       12 2  7.87                             131   -0.40 9  144 258 
 PTB  HN ES       12 2 28.80                             131    0.15 9  144 258 
 PTB  HZ I        12 2 36.64        16.8 0.46            129            144 258 
 ZAR  HZ EP       12 2 13.82                             122    0.13 9  200 292 
 ZAR  HZ I        12 2 45.70         9.7 0.16            119            200 292 
 NOR  HZ EP       12 2 17.17                             117   -0.13 8  233 233 
 NOR  HE ES       12 2 44.16                             117   -0.57 8  233 233 
 NOR  HZ I        12 2 48.95        12.3 0.18            117            233 233 
 SML  HZ EP       12 2 17.38                             116   -0.61 8  240 336 
 SML  HN ES       12 2 45.10                             116   -0.86 8  240 336 
 SML  HZ I        12 2 53.85        14.7 0.26            115            240 336 
 CHI  HZ EP       12 2 18.81                             116   -0.81 8  250 194 
 CHI  HN ES       12 2 48.54                             116   -0.32 8  250 194 
 HEL  HZ EP       12 2 22.62                             114    0.95 8  269 255 
 HEL  HN ES       12 2 52.61                             114    0.11 8  269 255 
 HEL  HZ I        12 3  0.43         6.0 0.36            113            269 255 
 GUY2CHZ EP       12 2 25.58                             111    0.33 7  299 234 
 GUY2CHN ES       12 2 57.96                             111   -0.91 7  299 234 
 GUY2CHZ I        12 3  8.10         7.7 0.78                           299 234 
 RREF HZ EP       12 2 29.23                             110    1.39 7  320 229 
 RREF HN ES       12 3  3.96                             110    0.47 7  320 229 
 TOL  SZ EP       12 2 30.80                             108    0.78 7  342 224 
 TOL  SN ES       12 3  7.70                             108    0.34 7  342 224 
                                                                                
