 2010  7 8 1401 24.4 L   6.806 -73.055138.6  RSN 14 0.5 2.6LRSN                1
 GAP=133        1.14       4.5     7.6  6.9 -0.1863E+02  0.2191E+01  0.2237E+01E
 Epicentro: LOS SANTOS - SANTANDER                                             3
 ACTION:UPD 10-12-01 15:16 OP:pat  STATUS:               ID:20100708140124 L   I
 2010-07-08-1358-46S.COL___117                                                 6
 STAT SP IPHASW D HRMM SECON CODA AMPLIT PERI AZIMU VELO AIN AR TRES W  DIS CAZ7
 BAR2 SZ EP       14 1 43.05                             168    -0.310   28 211 
 BAR2 SZ ES   1   14 1 57.30                             168    -0.7 7   28 211 
 BAR2 SZ I        14 1 59.17       117.5 0.18                            28 211 
 GIR2 SZ EP       14 1 44.08                             165     0.710   34 333 
 GIR2 SZ ES   2   14 1 59.02                             165     0.9 5   34 333 
 BRR  HZ IP     C 14 1 44.87                             148    -0.510   80 295 
 BRR  HZ I        14 1 45.96       174.4 0.08                            80 295 
 BRR  HN ES   1   14 2  1.65                             148     0.0 7   80 295 
 RUS  HZ EP   1   14 1 47.35                             142    -0.2 7  101 182 
 RUS  HE ES   1   14 2  5.26                             142    -0.3 7  101 182 
 BRI  SZ IP       14 1 47.59                             141     0.210  105  16 
 BRI  SZ ES   1   14 2  5.74                             141     0.5 7  105  16 
 BRI  SZ I        14 2 10.96        60.9 0.26                           105  16 
 GUE  SZ EP       14 1 48.90                             138     0.610  114   7 
 GUE  SZ I        14 1 49.60        30.7 0.07                           114   7 
 GRA  SZ IP       14 1 48.87                             136     0.110  122  13 
 GRA  SZ I        14 1 50.17        78.6 0.22                           122  13 
 GRA  SZ ES   1   14 2  7.69                             136    -0.1 7  122  13 
 OCA  SZ EP       14 1 51.44                             128    -0.8 9  161 350 
 OCA  SZ ES   2   14 2 13.76                             128    -0.2 5  161 350 
 OCA  SZ I        14 2 19.39        43.7 0.36                           161 350 
 CHI  HZ EP   2   14 2  2.56                             115     0.4 4  252 197 
 CHI  HN ES   2   14 2 31.77                             115     0.2 4  252 197 
 CHI  HZ I        14 2 40.25        11.5 0.30                           252 197 
 HEL  HZ EP   1   14 2  5.16                             112    -0.2 6  282 256 
 HEL  HZ I        14 2 41.50        14.9 0.37                           282 256 
 GUY  HZ EP   1   14 2  8.70                             110     0.0 5  310 236 
 GUY  HN ES   2   14 2 43.73                             110     0.5 4  310 236 
 GUY  HZ I        14 2 57.16        40.1 0.33                           310 236 
 RREF HZ EP   1   14 2 11.80                             109     0.6 5  330 230 
 RREF HE ES   1   14 2 48.00                             109     0.3 5  330 230 
 RREF HZ I        14 2 53.27        14.9 0.73                           330 230 
 SDV  BZ EP       14 2 12.85                             107    -0.4 6  352  49 
 SDV  BZ I        14 2 52.12        11.8 0.40                           352  49 
 PRA  HZ EP   1   14 2 17.89                             105    -0.5 4  398 211 
 PRA  HE ES   1   14 3  0.88                             105     0.4 4  398 211 
 PRA  HZ I        14 3  6.46        16.8 0.56                           398 211 
                                                                                
