 2015  2 8 1618 46.4 L   6.818 -73.149143.3  RSN 13 0.6 2.3LRSN                1
 GAP=135        1.43       3.7     5.7  7.3 -0.4642E+01  0.1253E+02 -0.7166E+00E
 Epicentro: LOS SANTOS - SANTANDER                                             3
 ACTION:UPD 15-04-30 21:23 OP:nd   STATUS:               ID:20150208161846 L   I
 OLDACT:UP  15-02-08 23:29 OP:cam  STATUS:               ID:20150208160745     3
 OLDACT:REG 15-02-08 20:29 OP:cam  STATUS:               ID:20150208160745     3
 2015-02-08-1607-45M.COL___293                                                 6
 STAT SP IPHASW D HRMM SECON CODA AMPLIT PERI AZIMU VELO AIN AR TRES W  DIS CAZ7
 BAR2 EZ EP       1619  6.11                             170    0.3210 25.3 188 
 BAR2 EZ ES       1619 19.80                             170   -1.0910 25.3 188 
 BAR2 EZ I        1619 23.95        31.7 0.30            168           25.3 188 
 BRR  HZ IP     D 1619  7.87                             152    0.6510 69.9 297 
 BRR  HN ES       1619 24.75                             152    1.3010 69.9 297 
 BRR  HZ I        1619 27.47        46.6 0.30            150           69.9 297 
 PAM  SZ EP     C 1619  8.94                             151    0.6510 76.1  41 
 PAM  SN ES       1619 25.52                             151    0.1710 76.1  41 
 PAM  SZ I        1619 27.90        57.2 0.48            156           76.1  41 
 RUS  HZ EP       1619 10.19                             143    0.1210  103 176 
 RUS  HN ES       1619 28.20                             143   -0.3210  103 176 
 RUS  HZ I        1619 30.66        10.8 0.20            145            103 176 
 PTB  HZ EP       1619 12.70                             131   -0.48 9  148 258 
 PTB  HN ES       1619 33.51                             131   -0.54 9  148 258 
 PTB  HZ I        1619 35.09        24.4 0.18            131            148 258 
 OCA  HZ EP       1619 14.14                             129   -0.20 9  158 353 
 OCA  HN ES       1619 35.95                             129   -0.17 9  158 353 
 OCA  HZ I        1619 38.80        31.4 0.18            131            158 353 
 SPBC HZ EP       1619 15.15                             128    0.30 9  164 218 
 SPBC HN ES       1619 36.82                             128   -0.21 9  164 218 
 SPBC HZ I        1619 44.91        25.0 0.22            129            164 218 
 NOR  HZ EP       1619 22.03                             118   -0.06 8  236 234 
 NOR  HE ES       1619 49.88                             118   -0.04 8  236 234 
 NOR  HZ I        1619 55.94        13.2 0.16            119            236 234 
 SML  HZ EP       1619 22.36                             117   -0.32 8  242 335 
 SML  HN ES       1619 49.91                             117   -1.06 8  242 335 
 SML  HZ I        1619 53.71        24.7 0.22            119            242 335 
 CHI  HZ EP       1619 24.10                             116   -0.08 8  250 195 
 CHI  HN ES       1619 53.24                             116   -0.39 8  250 195 
 CHI  HZ I        1619 57.40         5.1 0.66            118            250 195 
 ROSC BZ EP   4   1619 26.58                             116    2.01 0  254 211 
 HEL  HZ EP       1619 27.13                             114    0.62 8  272 255 
 HEL  HN ES       1619 58.63                             114    0.84 8  272 255 
 HEL  HZ I        1620  4.17        12.1 0.40            115            272 255 
 URE  HZ EP       1619 26.71                             113   -0.53 7  283 292 
 URE  HN ES   4   1619 57.44                             113   -1.64 0  283 292 
 URE  HZ I        1620 12.27        14.4 0.18            114            283 292 
 GUY2CHZ EP   4   1619 31.88                             112    1.88 0  302 234 
 GUY2CHN ES   4   1620  6.29                             112    2.29 0  302 234 
 GUY2CHZ I        1620 12.94         6.9 0.42                           302 234 
                                                                                
