 2017  9 8 1035 13.2 L   6.785 -73.141140.0  RSN  4 0.4 1.2LRSN                1
 GAP=138        0.60       4.7     4.6  6.4  0.9474E+01 -0.2523E+01 -0.1238E+02E
 Epicentro: LOS SANTOS - SANTANDER                                             3
 ACTION:UPD 17-10-05 19:10 OP:rebc STATUS:               ID:20170908103513 L   I
 OLDACT:DUP 17-09-08 20:49 OP:lv   STATUS:               ID:20170908102745d    3
 2017-09-08-1028-00M.COL___419                                                 6
 STAT SP IPHASW D HRMM SECON CODA AMPLIT PERI AZIMU VELO AIN AR TRES W  DIS CAZ7
 BAR2 EZ EP       1035 31.92                             171   -0.2110 21.8 192 
 BAR2 EZ ES       1035 47.14                             171    0.2710 21.8 192 
 BAR2 HN ES       1035 47.21                             171           21.8 192 
 BAR2 EZ I        1035 48.46         4.7 0.19            168           21.8 192 
 PAM  EZ EP       1035 34.86                             150   -0.0310 78.4  38 
 RUS  HZ EP       1035 36.29                             144    0.0110 98.9 176 
 RUS  HN ES       1035 54.21                             144   -0.0610 98.9 176 
 RUS  HZ I        1035 55.73         2.3 0.36            144           98.9 176 
 ZAR  HZ EP   3   1035 47.45                             121    2.04 2  205 293 
 ZAR  HN ES       1036 10.43                             121   -0.09 9  205 293 
 ZAR  HZ I        1036 16.41         1.9 0.09            120            205 293 
                                                                                
