 2013  2 8 1733 21.5 L   6.826 -73.008146.9  RSN  4 0.2 1.6LRSN                1
 GAP=253        0.43       5.2     9.4  4.3  0.3993E+02 -0.1686E+02 -0.6638E+01E
 Epicentro: CEPITA - SANTANDER                                                 3
 *BAR2-PAM-BRR                                                                 3
 ACTION:UPD 13-03-12 09:31 OP:ep   STATUS:               ID:20130208173321 L   I
 2013-02-08-1730-00M.COL___241                                                 6
 STAT SP IPHASW D HRMM SECON CODA AMPLIT PERI AZIMU VELO AIN AR TRES W  DIS CAZ7
 BAR2 SZ EP       1733 41.66                             167    0.1510 32.2 217 
 BAR2 SZ ES   1   1733 56.78                             167   -0.31 7 32.2 217 
 BAR2 SZ I        1733 59.33        10.8 0.20            162           32.2 217 
 BRR  HZ EP       1733 43.44                             149   -0.1210 83.7 292 
 BRR  HN ES       1734  0.84                             149    0.1110 83.7 292 
 BRR  HZ I        1734  4.96        10.1 0.41            146           83.7 292 
 RUS  HZ EP       1733 45.65                             143    0.0410  104 185 
 RUS  HE ES       1734  4.46                             143    0.0710  104 185 
 RUS  HE I        1734  6.25         3.3 0.34            143            104 185 
 CHI  HZ EP   1   1733 59.89                             117   -0.18 6  256 198 
                                                                                
