 2014  1 8 1131 29.0 L   5.785 -74.065  0.0  RSN  4 0.4 0.8LRSN                1
 GAP=111        1.02       2.6     2.3  6.6  0.9092E+00  0.3259E+00  0.3067E+00E
 Epicentro: FLORIAN - SANTANDER                                                3
 ACTION:UPD 14-03-13 09:52 OP:ep   STATUS:               ID:20140108113129 L   I
 OLDACT:REG 14-01-08 14:51 OP:stll STATUS:               ID:20140108112811     3
 2014-01-08-1128-11M.COL___225                                                 6
 STAT SP IPHASW D HRMM SECON CODA AMPLIT PERI AZIMU VELO AIN AR TRES W  DIS CAZ7
 NOR  HZ EP       1131 43.84                              47   -0.3910 92.4 255 
 NOR  HN ES       1131 56.17                              47    0.0710 92.4 255 
 NOR  HZ I        1131 58.42         5.4 0.42             37           92.4 255 
 PTB  HZ EP       1131 43.91                              47   -0.5210 94.0 333 
 PTB  HN ES       1131 57.10                              47    0.6410 94.0 333 
 PTB  HZ I        1131 59.29         2.2 0.14             37           94.0 333 
 RUS  HZ EP       1131 47.31                              47    0.0610  109  84 
 RUS  HE ES       1132  1.38                              47   -0.1010  109  84 
 CHI  HZ I        1131 50.38         0.8 0.48             43            133 164 
 CHI  HZ EP       1131 50.47                              47   -0.2810  133 164 
 CHI  HN ES       1132  8.25                              47    0.5410  133 164 
                                                                                
