 2011  2 8 1122 53.4 L   6.754 -73.115138.9  RSN  8 0.6 2.1LRSN                1
 GAP=163        1.06       6.3     8.0  9.7 -0.1899E+02  0.2922E+02  0.3486E+01E
 Epicentro: LOS SANTOS - SANTANDER                                             3
 ACTION:UP  11-03-28 15:06 OP:jfem STATUS:               ID:20110208112253 L   I
 2011-02-08-1122-20S.COL___137                                                 6
 STAT SP IPHASW D HRMM SECON CODA AMPLIT PERI AZIMU VELO SNR AR TRES W  DIS CAZ7
 BAR2 SZ EP   1   1123 11.89                             172    -0.2 7   19 203 
 BAR2 SZ ES   1   1123 26.49                             172    -0.3 7   19 203 
 BAR2 SZ I        1123 28.16        22.8 0.37                            19 203 
 RUS  HZ EP       1123 15.98                             144    -0.110   95 178 
 RUS  HN ES   2   1123 34.71                             144     0.9 5   95 178 
 RUS  HZ I        1123 36.10        10.9 0.22                            95 178 
 GRA  SZ EP   1   1123 18.49                             134     0.1 7  130  15 
 GRA  SZ ES   1   1123 38.04                             134     0.2 7  130  15 
 GRA  SZ I        1123 39.39        17.1 0.29                           130  15 
 NOR  SZ EP   1   1123 28.41                             117    -0.3 6  235 236 
 NOR  SN ES   1   1123 55.60                             117    -0.7 6  235 236 
 CHI  HZ EP       1123 30.34                             116     0.0 8  245 196 
 CHI  HZ I        1124  7.60         6.3 0.57                           245 196 
 HEL  HZ EP   2   1123 34.47                             113     1.0 4  274 257 
 HEL  HN ES   1   1124  5.64                             113     0.8 6  274 257 
 HEL  HZ I        1124 10.29        10.5 0.40                           274 257 
 RREF HZ EP   1   1123 40.10                             109     0.9 5  321 230 
 RREF HZ I        1124 22.64         8.9 0.22                           321 230 
 DBB  SZ EP   1   1123 40.03                             108    -1.0 5  343 275 
                                                                                
