 2016  7 8 1826 35.9 L   6.811 -73.155147.9  RSN 13 0.6 2.7LRSN                1
 GAP=135        1.27       4.5     4.8  6.7 -0.8758E+00  0.1052E+02  0.5161E+01E
 Epicentro: LOS SANTOS - SANTANDER                                             3
 ACTION:UPD 17-03-29 16:48 OP:lp   STATUS:               ID:20160708182602 L   I
 OLDACT:UP  16-09-09 20:55 OP:nlst STATUS:               ID:20160708182602 L   3
 OLDACT:REG 16-08-08 20:55 OP:lp   STATUS:               ID:20160708181931     3
 2016-07-08-1820-00M.COL___454                                                 6
 STAT SP IPHASW D HRMM SECON CODA AMPLIT PERI AZIMU VELO AIN AR TRES W  DIS CAZ7
 BAR2 EZ EP       1826 55.17                             170   -0.6810 24.3 187 
 BAR2 EZ ES       1827 11.08                             170   -0.3110 24.3 187 
 BAR2 EZ I        1827 11.96        86.6 0.26            169           24.3 187 
 BRR  HZ IPn    C 1826 57.46                              37           69.8 298 
 BRR  HZ IPg    C 1826 57.46                             153    0.2110 69.8 298 
 BRR  HN ES       1827 14.78                             153    0.9210 69.8 298 
 BRR  HZ I        1827 17.90        93.2 0.42            152           69.8 298 
 PAM  EZ EP       1826 58.72                             151    0.3510 77.1  41 
 PAM  EZ ES       1827 16.04                             151    0.1710 77.1  41 
 RUS  HZ EP       1826 59.80                             144   -0.2010  102 176 
 RUS  HN ES       1827 18.75                             144   -0.0110  102 176 
 RUS  HZ I        1827 19.53        48.6 0.32            145            102 176 
 PTB  HZ EP       1827  2.39                             133   -0.63 9  147 258 
 PTB  HZ ES       1827 23.72                             133   -0.42 9  147 258 
 SPBC HZ EP       1827  4.64                             129    0.00 9  163 218 
 SPBC HE ES       1827 26.77                             129   -0.25 9  163 218 
 SPBC HZ I        1827 31.16        95.2 0.20            130            163 218 
 ZAR  HZ EP       1827  8.40                             123    0.01 9  203 292 
 ZAR  HN ES       1827 33.05                             123   -0.65 9  203 292 
 ZAR  HN I        1827 39.07       117.5 0.20            124            203 292 
 NOR  HZ EP       1827 11.90                             119    0.12 8  235 234 
 NOR  HE ES       1827 39.50                             119   -0.24 8  235 234 
 CHI  HZ I        1827 48.39        23.9 0.42            119            250 195 
 GUY2CHZ EP   4   1827 20.42                             113    0.78 0  301 234 
 GUY2CHE ES   4   1827 58.59                             113    4.87 0  301 234 
 GUY2CHZ I        1828  2.01        22.0 0.32                           301 234 
 VIL  EZ EP       1827 19.68                             112    0.11 7  304 191 
 VIL  EE ES       1827 54.26                             112    0.67 7  304 191 
 ELA  HZ EP   4   1827 25.34                             111    2.45 0  329 229 
 ELA  HE ES   4   1828  2.66                             111    3.16 0  329 229 
 CBOC HZ EP       1827 24.10                             110    1.22 7  333 252 
 CBOC HN ES       1828  0.85                             110    1.36 7  333 252 
 DBB  EZ EP       1827 22.61                             110   -0.77 7  338 274 
 DBB  EZ ES   4   1827 58.86                             110   -1.53 0  338 274 
 DBB  EZ I        1828  3.54         9.9 0.44            111            338 274 
                                                                                
