 2012 11 8 1219 47.5 L   6.789 -73.141147.0  RSN  9 0.4 2.4LRSN                1
 GAP=138        0.78       3.7     3.9  5.9 -0.2552E+00  0.4515E+01  0.7574E+01E
 Epicentro: LOS SANTOS - SANTANDER                                             3
 ACTION:UPD 12-12-05 15:32 OP:}ep  STATUS:               ID:20121108121947 L   I
 OLDACT:REG 12-11-08 18:35 OP:carl STATUS:               ID:20121108122000     3
 2012-11-08-1220-00M.COL___228                                                 6
 STAT SP IPHASW D HRMM SECON CODA AMPLIT PERI AZIMU VELO AIN AR TRES W  DIS CAZ7
 BAR2 SZ IP     D 1220  7.20                             171   -0.0910 22.2 192 
 BAR2 SZ ES   1   1220 22.93                             171    0.24 7 22.2 192 
 BAR2 SZ I        1220 24.58        31.0 0.22                          22.2 192 
 BRR  HZ IP     C 1220  9.02                             152    0.1510 72.2 299 
 BRR  HN ES   1   1220 25.97                             152    0.46 7 72.2 299 
 BRR  HN I        1220 26.69        67.3 0.30                          72.2 299 
 PAM  SZ EP       1220 10.11                             151    0.1910 78.0  39 
 PAM  SN ES   1   1220 27.14                             151   -0.23 7 78.0  39 
 PAM  SN I        1220 28.06        51.6 0.48                          78.0  39 
 RUS  HZ EP       1220 11.22                             144   -0.0910 99.3 176 
 RUS  HE ES   1   1220 29.84                             144   -0.02 7 99.3 176 
 RUS  HE I        1220 31.05        16.3 0.56                          99.3 176 
 PTB  HZ EP       1220 14.08                             132   -0.54 9  148 259 
 PTB  HN ES   1   1220 34.82                             132   -0.93 7  148 259 
 PTB  HN I        1220 40.17        44.0 0.54                           148 259 
 ZAR  HN ES   1   1220 45.69                             122    0.10 6  205 292 
 ZAR  HN I        1220 52.64        32.2 0.40                           205 292 
 CHI  HZ EP       1220 25.36                             117    0.18 8  248 195 
 CHI  HN ES   1   1220 54.22                             117   -0.33 6  248 195 
 CHI  HN I        1220 59.53        14.2 0.38                           248 195 
 HEL  HN ES   1   1220 59.87                             115    0.62 6  272 256 
 HEL  HN I        1221  6.96         8.7 0.40                           272 256 
 PRA  HZ EP       1220 41.12                             107    0.12 6  391 210 
 PRA  HN ES       1221 23.37                             107    0.67 6  391 210 
 PRA  HN I        1221 27.70         7.0 0.36                           391 210 
                                                                                
