 2017  4 8 1949  7.6 L   6.748 -73.162136.7  RSN 10 0.4 1.8LRSN                1
 GAP=112        1.06       3.7     3.7  5.8  0.2717E+01  0.5696E+01  0.6695E+01E
 Epicentro: LOS SANTOS - SANTANDER                                             3
 ACTION:UPD 17-05-30 21:09 OP:jn   STATUS:               ID:20170408194907 L   I
 OLDACT:UP  17-04-08 21:54 OP:edw  STATUS:               ID:20170408194747     3
 OLDACT:REG 17-04-08 21:19 OP:ar   STATUS:               ID:20170408194747     3
 2017-04-08-1948-00M.COL___377                                                 6
 STAT SP IPHASW D HRMM SECON CODA AMPLIT PERI AZIMU VELO AIN AR TRES W  DIS CAZ7
 BAR2 EZ EP       1949 26.11                             172    0.0510 17.3 188 
 BAR2 EZ ES       1949 40.27                             172   -0.1610 17.3 188 
 BAR2 EZ I        1949 45.64         9.6 0.32            167           17.3 188 
 BRR  HZ IP     C 1949 27.82                             150   -0.0710 72.7 303 
 BRR  HN ES       1949 44.39                             150    0.6910 72.7 303 
 BRR  HZ I        1949 45.95        25.9 0.38            152           72.7 303 
 PAM  EZ IP     D 1949 29.01                             147   -0.2410 83.0  38 
 PAM  EN ES       1949 46.03                             147   -0.0810 83.0  38 
 PAM  EZ I        1949 46.55         8.2 0.20            155           83.0  38 
 RUS  HZ EP     C 1949 30.11                             143    0.0310 95.0 175 
 RUS  HN ES       1949 47.02                             143   -0.5810 95.0 175 
 RUS  HZ I        1949 51.09         8.6 0.36            143           95.0 175 
 PTB  HZ EP       1949 32.67                             130   -0.94 9  145 261 
 PTB  HN ES       1949 53.54                             130   -0.34 9  145 261 
 PTB  HZ I        1949 56.44         9.3 0.12            131            145 261 
 YPLC HZ IP     C 1949 36.67                             125    0.31 9  173 150 
 YPLC HN ES       1949 59.38                             125    0.61 9  173 150 
 YPLC HZ I        1950  1.20        11.0 0.36            127            173 150 
 ZAR  HZ EP       1949 39.16                             120   -0.40 9  205 294 
 ZAR  HN ES       1950  5.22                             120    0.74 9  205 294 
 ZAR  HZ I        1950  9.76         9.0 0.48            123            205 294 
 NOR  HZ EP       1949 42.62                             117    0.30 8  230 235 
 NOR  HN ES       1950  9.49                             117    0.10 8  230 235 
 NOR  HZ I        1950 14.68         5.0 0.20            118            230 235 
 CHI  HZ EP       1949 44.52                             116    0.35 8  243 195 
 CHI  HN ES   4   1950 14.25                             116    1.57 0  243 195 
 CHI  HZ I        1950 24.42         2.9 0.46            117            243 195 
 HEL  HN ES   4   1950 14.06                             113   -3.73 0  269 257 
 PRA  HZ EP       1950  0.13                             105   -0.02 6  386 210 
 PRA  HN ES       1950 41.17                             105    0.05 6  386 210 
 PRA  HZ I        1950 47.18         3.0 0.28            107            386 210 
                                                                                
