 2013 12 8 1922  3.9 L   6.806 -73.141149.0  RSN 11 0.3 2.2LRSN                1
 GAP=137        0.65       2.0     2.7  4.1 -0.5895E+00  0.3742E+01 -0.8719E+00E
 Epicentro: LOS SANTOS - SANTANDER                                             3
 ACTION:UPD 14-01-13 10:16 OP:ep   STATUS:               ID:20131208192203 L   I
 OLDACT:UP  13-12-08 18:09 OP:cam  STATUS:               ID:20131208192000     3
 OLDACT:REG 13-12-08 18:05 OP:cam  STATUS:               ID:20131208192000     3
 2013-12-08-1920-00M.COL___285                                                 6
 STAT SP IPHASW D HRMM SECON CODA AMPLIT PERI AZIMU VELO AIN AR TRES W  DIS CAZ7
 BAR2 SZ EP       1922 23.89                             170   -0.0810 24.1 191 
 BAR2 SZ ES       1922 39.47                             170   -0.1210 24.1 191 
 BAR2 SZ I        1922 47.60        25.0 0.62            170           24.1 191 
 BRR  HZ EP       1922 25.94                             153    0.5010 71.3 298 
 BRR  HE ES   4   1922 43.58                             153    1.37 0 71.3 298 
 PAM  SZ IP     C 1922 26.68                             152    0.2410 76.5  40 
 PAM  SN ES       1922 44.04                             152    0.0410 76.5  40 
 PAM  SZ I        1922 46.00        22.1 0.54            157           76.5  40 
 RUS  HZ EP       1922 27.91                             144   -0.1410  101 176 
 RUS  HN ES       1922 46.88                             144    0.0210  101 176 
 RUS  HZ I        1922 49.01        15.4 0.56            147            101 176 
 PTB  HZ EP       1922 30.85                             133   -0.37 9  148 259 
 PTB  HN ES       1922 52.08                             133   -0.43 9  148 259 
 PTB  HZ I        1922 53.94        23.7 0.36            135            148 259 
 SPBC HZ EP   2   1922 32.99                             130    0.23 5  164 219 
 SPBC HN ES       1922 55.27                             130    0.02 9  164 219 
 SPBC HZ I        1922 59.74        23.4 0.20            132            164 219 
 ZAR  HZ EP       1922 36.59                             123   -0.02 9  204 292 
 ZAR  HE ES       1923  2.45                             123    0.35 9  204 292 
 ZAR  HZ I        1923  8.82        15.4 0.38            126            204 292 
 NOR  HZ EP   1   1922 39.73                             119   -0.21 6  236 234 
 NOR  HE ES       1923  8.49                             119    0.47 8  236 234 
 NOR  HZ I        1923 11.43        12.7 0.16            122            236 234 
 SML  HZ EP       1922 40.35                             118   -0.34 8  243 335 
 SML  HN ES       1923  9.20                             118   -0.17 8  243 335 
 SML  HZ I        1923 11.63        32.0 0.10            122            243 335 
 CHI  HZ EP     C 1922 42.10                             118    0.20 8  249 195 
 CHI  HN ES       1923 11.32                             118   -0.19 8  249 195 
 CHI  HZ I        1923 19.44         5.8 0.52            121            249 195 
 HEL  HZ EP   4   1922 47.01                             115    2.63 0  273 256 
 GUY2CHZ EP   4   1922 49.03                             113    1.25 0  302 235 
 SJC  HZ EP   4   1922 58.25                             106   -1.31 0  409 327 
 SJC  HN ES   4   1923 39.62                             106   -3.34 0  409 327 
 SJC  HZ I        1923 44.11         2.8 0.36            109            409 327 
                                                                                
