 2010  9 8 1945 21.4 L   6.731 -73.184145.7  RSN  4 0.3 1.5LRSN                1
 GAP=175        0.65      10.5    18.5  9.9  0.1474E+03 -0.4161E+02 -0.2690E+02E
 Epicentro: VILLANUEVA - SANTANDER                                             3
 ACTION:UP  11-02-18 11:01 OP:tino STATUS:               ID:20100908194521 L   I
 2010-09-08-1943-03S.COL___120                                                 6
 STAT SP IPHASW D HRMM SECON CODA AMPLIT PERI AZIMU VELO SNR AR TRES W  DIS CAZ7
 BAR2 SZ EP   1   1945 40.60                             174    -0.3 7   15 180 
 BAR2 SZ I        1945 41.14        10.0 0.35                            15 180 
 BAR2 SZ ES   2   1945 55.58                             174    -0.5 5   15 180 
 GIR2 SZ EP   1   1945 41.68                             164     0.4 7   38 358 
 BRR  HZ IP     C 1945 42.44                             153    -0.110   72 306 
 BRR  HZ I        1945 42.91        10.3 0.16                            72 306 
 BRR  HE ES   2   1945 59.28                             153     0.2 5   72 306 
 RUS  HZ EP   1   1945 44.59                             146     0.0 7   93 173 
 RUS  HE ES   2   1946  3.12                             146     0.4 5   93 173 
 RUS  HZ I        1946  4.09         2.6 0.17                            93 173 
                                                                                
