 2014 12 8 1945 43.0 L   6.831 -73.195138.5  RSN 15 0.5 2.1LRSN                1
 GAP=129        1.10       2.8     4.0  7.1 -0.2299E+01  0.1000E+02  0.3018E+01E
 Epicentro: ZAPATOCA - SANTANDER                                               3
 ACTION:UPD 15-02-10 17:01 OP:nd   STATUS:               ID:20141208194543 L   I
 OLDACT:REG 14-12-08 20:52 OP:fm   STATUS:               ID:20141208193747     3
 2014-12-08-1937-47M.COL___305                                                 6
 STAT SP IPHASW D HRMM SECON CODA AMPLIT PERI AZIMU VELO AIN AR TRES W  DIS CAZ7
 PAM  SZ EP     D 1946  5.22                             149    0.6710 78.5  44 
 PAM  SN ES       1946 21.73                             149    0.4010 78.5  44 
 PAM  SZ I        1946 24.36        16.4 0.50            155           78.5  44 
 RUS  HZ EP       1946  6.15                             141   -0.2210  104 173 
 RUS  HN ES       1946 24.54                             141   -0.0310  104 173 
 RUS  HZ I        1946 25.99        11.0 0.24            145            104 173 
 PTB  HZ EP       1946  8.62                             131   -0.37 9  143 257 
 PTB  HN ES       1946 29.04                             131   -0.20 9  143 257 
 PTB  HZ I        1946 32.02        13.2 0.16            132            143 257 
 OCA  HE ES       1946 30.75                             129   -1.02 9  156 355 
 OCA  HZ I        1946 37.32        11.6 0.46            132            156 355 
 SPBC HZ EP       1946 10.64                             127   -0.28 9  163 217 
 SPBC HN ES       1946 32.89                             127    0.22 9  163 217 
 SPBC HZ I        1946 41.90        18.7 0.36            130            163 217 
 ZAR  HN ES       1946 38.71                             122   -0.08 9  198 292 
 ZAR  HZ I        1946 45.61        11.6 0.38            124            198 292 
 NOR  HZ EP       1946 18.20                             117    0.11 8  232 233 
 NOR  HE ES       1946 45.72                             117    0.29 8  232 233 
 NOR  HZ I        1946 48.88         6.5 0.30            120            232 233 
 SML  HZ EP       1946 18.25                             116   -0.43 8  238 336 
 SML  HE ES       1946 46.92                             116    0.44 8  238 336 
 SML  HZ I        1946 52.47         9.7 0.26            119            238 336 
 CHI  HZ EP       1946 20.37                             115   -0.18 8  251 194 
 CHI  HN ES       1946 49.25                             115   -0.56 8  251 194 
 CHI  HZ I        1946 54.77         6.2 0.60            119            251 194 
 HEL  HZ EP       1946 23.75                             114    1.36 8  268 255 
 HEL  HN ES       1946 52.84                             114   -0.25 8  268 255 
 HEL  HZ I        1947  0.31         6.5 0.28            116            268 255 
 GUY2CHZ EP       1946 26.13                             111    0.09 7  299 234 
 GUY2CHN ES       1946 59.72                             111    0.14 7  299 234 
 GUY2CHZ I        1947  8.47         5.2 0.32                           299 234 
 RREF HZ EP       1946 29.17                             109    0.52 7  320 228 
 RREF HN ES       1947  4.80                             109    0.56 7  320 228 
 RREF HZ I        1947 14.28         6.6 0.40            112            320 228 
 TOL  SE ES       1947  8.09                             108   -0.05 7  342 224 
 TOL  SZ I        1947 15.98        10.4 0.30            110            342 224 
 MON  HZ EP   4   1946 29.27                             108   -1.75 0  347 308 
 MON  HN ES   4   1947  4.88                             108   -3.57 0  347 308 
 MON  HZ I        1947 10.62         3.7 0.88            110            347 308 
 ORTC HZ EP       1946 35.94                             105   -0.72 6  395 215 
 ORTC HN ES       1947 17.93                             105   -0.56 6  395 215 
 ORTC HZ I        1947 23.65         3.8 0.30            108            395 215 
                                                                                
