 2016 11 8 1545 10.1 L   6.775 -73.108146.0  RSN  8 0.4 1.9LRSN                1
 GAP=160        0.95       4.0     4.2  5.9 -0.2400E+01  0.5061E+01  0.9159E+01E
 Epicentro: LOS SANTOS - SANTANDER                                             3
 ACTION:UPD 17-10-26 21:05 OP:lp   STATUS:               ID:20161108154510 L   I
 OLDACT:DUP 16-11-08 23:22 OP:dnl  STATUS:               ID:20161108153746d    3
 OLDACT:REG 16-11-08 22:09 OP:dnl  STATUS:               ID:20161108153745     3
 2016-11-08-1538-00M.COL___343                                                 6
 STAT SP IPHASW D HRMM SECON CODA AMPLIT PERI AZIMU VELO AIN AR TRES W  DIS CAZ7
 BAR2 EZ IP     D 1545 29.65                             171   -0.0910 21.8 202 
 BAR2 EZ ES       1545 44.72                             171   -0.3310 21.8 202 
 BAR2 EZ I        1545 47.38        20.4 0.34            168           21.8 202 
 BRR  HZ EP       1545 31.68                             151    0.1110 76.2 299 
 BRR  HE ES       1545 48.79                             151    0.4710 76.2 299 
 BRR  HZ I        1545 54.37        14.8 0.52            152           76.2 299 
 PAM  EZ EP       1545 32.59                             151    0.2610 77.0  36 
 PAM  EE ES       1545 49.68                             151    0.0210 77.0  36 
 PAM  EZ I        1545 52.26         4.4 0.18            158           77.0  36 
 PTB  HZ EP       1545 36.70                             131   -0.73 9  151 260 
 PTB  HE ES       1545 58.35                             131   -0.38 9  151 260 
 PTB  HZ I        1546  4.85        17.0 0.40            133            151 260 
 ZAR  HZ EP       1545 42.43                             122   -0.65 8  209 292 
 ZAR  HN ES       1546  9.32                             122    0.52 8  209 292 
 ZAR  HZ I        1546 14.27         9.8 0.48            124            209 292 
 NOR  HZ EP       1545 45.89                             118   -0.16 8  237 236 
 NOR  HE ES       1546 14.33                             118    0.25 8  237 236 
 NOR  HZ I        1546 17.42         8.5 0.18            120            237 236 
 CHI  HZ EP       1545 47.90                             117    0.25 8  247 196 
 CHI  HN ES       1546 16.83                             117   -0.11 8  247 196 
 CHI  HZ I        1546 26.50         3.5 0.80            120            247 196 
 PRA  HZ EP       1546  4.24                             107    0.64 6  392 210 
 PRA  HN ES       1546 46.03                             107    0.71 6  392 210 
 PRA  HZ I        1546 49.92         3.3 0.70            109            392 210 
                                                                                
