 2010  8 8 1841 18.8 L   6.812 -73.042145.6  RSN  4 0.2 1.4LRSN                1
 GAP=176        0.37       4.1     8.8  8.4  0.1629E+02 -0.4311E+02 -0.1598E+02E
 Epicentro: LOS SANTOS - SANTANDER                                             3
 ACTION:UP  10-09-07 10:53 OP:vdl  STATUS:               ID:20100808184118 L   I
 2010-08-08-1837-30S.COL___125                                                 6
 STAT SP IPHASW D HRMM SECON CODA AMPLIT PERI AZIMU VELO SNR AR TRES W  DIS CAZ7
 BAR2 SZ EP   2   1841 38.51                             170     0.0 5   29 213 
 BAR2 SZ ES   3   1841 53.41                             170    -0.5 2   29 213 
 BAR2 SZ I        1841 54.67         9.7 0.24                            29 213 
 BRR  HZ EP   1   1841 40.41                             150    -0.1 7   81 294 
 BRR  HN ES   2   1841 57.56                             150     0.1 5   81 294 
 BRR  HZ I        1841 58.62        10.0 0.36                            81 294 
 RUS  HZ EP   1   1841 42.54                             144    -0.1 7  102 183 
 RUS  HN ES   2   1842  1.40                             144     0.2 5  102 183 
 RUS  HZ I        1842  2.37         4.4 0.24                           102 183 
 GUE  SZ EP   1   1841 43.35                             140     0.1 7  113   7 
 GUE  SZ I        1842  3.47         1.4 0.11                           113   7 
                                                                                
