 2014  4 8 1459 28.2 L   6.796 -73.151154.6  RSN  5 0.3 2.0LRSN                1
 GAP=200        0.68       3.8     8.4  7.0  0.1434E+02 -0.7218E+01 -0.1160E+01E
 Epicentro: LOS SANTOS - SANTANDER                                             3
 ACTION:UPD 14-05-13 23:07 OP:nd   STATUS:               ID:20140408145928 L   I
 OLDACT:UP  14-04-08 22:57 OP:cam  STATUS:               ID:20140408145818     3
 OLDACT:REG 14-04-08 20:55 OP:cam  STATUS:               ID:20140408145818     3
 2014-04-08-1458-18M.COL___259                                                 6
 STAT SP IPHASW D HRMM SECON CODA AMPLIT PERI AZIMU VELO AIN AR TRES W  DIS CAZ7
 BRR  HZ EP     C 1459 50.44                             154    0.1410 70.9 299 
 BRR  HN ES       15 0  7.90                             154    0.3710 70.9 299 
 BRR  HN I        15 0  8.36        32.1 0.22            152           70.9 299 
 RUS  HZ EP   1   1459 52.95                             146    0.14 7  100 176 
 RUS  HN ES   1   15 0 11.52                             146   -0.48 7  100 176 
 RUS  HZ I        15 0 12.33         8.6 0.26            136            100 176 
 PTB  HZ EP   2   1459 55.51                             134   -0.34 5  147 259 
 PTB  HN ES   2   15 0 17.01                             134   -0.40 5  147 259 
 PTB  HZ I        15 0 18.63        12.7 0.14            130            147 259 
 SPBC HZ EP       1459 57.54                             131    0.21 9  162 219 
 SPBC HE ES   2   15 0 19.79                             131   -0.25 5  162 219 
 SPBC HZ I        15 0 23.41        16.8 0.24            125            162 219 
 SML  HZ I        15 0  5.88         5.8 0.10            126            244 335 
 SML  HE ES       15 0 33.89                             119   -0.45 8  244 335 
                                                                                
