 2017  4 8 1622 56.3 L   6.834 -73.142147.3  RSN 11 0.5 2.2LRSN                1
 GAP=111        1.24       4.0     4.3  6.8  0.1682E+01  0.6620E+01  0.7835E+01E
 Epicentro: LOS SANTOS - SANTANDER                                             3
 ACTION:UPD 17-05-30 21:09 OP:jn   STATUS:               ID:20170408162256 L   I
 OLDACT:REG 17-04-08 21:07 OP:ar   STATUS:               ID:20170408161746     3
 2017-04-08-1618-00M.COL___371                                                 6
 STAT SP IPHASW D HRMM SECON CODA AMPLIT PERI AZIMU VELO AIN AR TRES W  DIS CAZ7
 BAR2 EZ EP       1623 15.90                             169   -0.2910 27.1 189 
 BAR2 EZ ES       1623 31.17                             169   -0.5310 27.1 189 
 BAR2 EZ I        1623 31.92        36.9 0.20            168           27.1 189 
 BRR  HZ EP       1623 17.69                             153    0.1610 69.8 296 
 BRR  HE ES       1623 35.05                             153    0.9610 69.8 296 
 BRR  HZ I        1623 39.39        18.8 0.14            152           69.8 296 
 PAM  EZ EP       1623 18.80                             152    0.3110 74.3  41 
 PAM  EN ES       1623 35.95                             152    0.1510 74.3  41 
 PAM  EZ I        1623 37.91        41.6 0.48            156           74.3  41 
 RUS  HZ EP       1623 20.07                             143   -0.4010  104 176 
 RUS  HN ES       1623 38.83                             143   -0.4910  104 176 
 RUS  HZ I        1623 39.60        21.3 0.28            144            104 176 
 PTB  HZ EP       1623 22.52                             132   -0.97 9  149 257 
 PTB  HE ES       1623 44.41                             132   -0.29 9  149 257 
 PTB  HZ I        1623 45.32        12.7 0.32            132            149 257 
 YPLC HZ EP       1623 26.36                             126   -0.15 9  180 152 
 YPLC HE ES       1623 50.58                             126    0.51 9  180 152 
 YPLC HZ I        1623 51.00        22.8 0.24            128            180 152 
 ZAR  HZ EP       1623 28.46                             123   -0.27 9  203 291 
 ZAR  HE ES       1623 53.86                             123   -0.17 9  203 291 
 ZAR  HZ I        1623 57.80        10.4 0.30            123            203 291 
 TABC EZ EP       1623 33.44                             119    0.94 8  233 210 
 TABC EZ ES       1624  1.48                             119    0.74 8  233 210 
 TABC EZ I        1624  5.14        11.8 0.42            120            233 210 
 NOR  HZ EP       1623 32.46                             119    0.08 8  237 234 
 NOR  HE ES       1624  0.45                             119   -0.08 8  237 234 
 NOR  HZ I        1624  7.61        11.4 0.18            119            237 234 
 CHI  HZ EP       1623 34.12                             117   -0.36 8  252 195 
 CHI  HE ES       1624  3.96                             117   -0.31 8  252 195 
 CHI  HZ I        1624  6.81         9.9 0.46            118            252 195 
 ROSC BZ EP   2   1623 36.05                             117    1.18 4  256 211 
 ROSC BE ES       1624  5.55                             117    0.59 8  256 211 
 ROSC BZ I        1624  9.59        11.9 0.30            117            256 211 
                                                                                
