 2015  2 8 1219 42.8 L   6.756 -73.151147.0  RSN  4 0.3 1.4LRSN                1
 GAP=153        0.70       7.2     4.3  5.6 -0.1552E+02  0.2042E+01  0.3743E+01E
 Epicentro: LOS SANTOS - SANTANDER                                             3
 ACTION:UPD 15-04-30 21:23 OP:nd   STATUS:               ID:20150208121942 L   I
 OLDACT:REG 15-02-08 20:17 OP:cam  STATUS:               ID:20150208120747     3
 2015-02-08-1207-47M.COL___293                                                 6
 STAT SP IPHASW D HRMM SECON CODA AMPLIT PERI AZIMU VELO AIN AR TRES W  DIS CAZ7
 BAR2 EZ EP       1220  2.64                             173    0.1510 18.4 191 
 BAR2 EZ ES       1220 17.93                             173    0.0810 18.4 191 
 BAR2 EZ I        1220 18.58         6.4 0.14            172           18.4 191 
 BRR  HZ EP       1220  4.32                             152    0.1310 73.2 302 
 BRR  HN ES       1220 21.27                             152    0.3810 73.2 302 
 BRR  HZ I        1220 21.60         6.6 0.52            151           73.2 302 
 PAM  SZ EP       1220  5.48                             150    0.0810 81.6  38 
 PAM  SN ES       1220 22.62                             150   -0.4110 81.6  38 
 PAM  SZ I        1220 24.88         3.6 0.38            151           81.6  38 
 PTB  HZ EP       1220  9.66                             133   -0.08 9  146 261 
 PTB  HN ES       1220 30.35                             133   -0.40 9  146 261 
 PTB  HZ I        1220 35.87         3.1 0.26            132            146 261 
                                                                                
