 2013 12 8 1741 41.6 L   6.076 -73.024  4.0  RSN  6 0.6 1.2LRSN                1
 GAP=215        1.20       2.8     7.7 10.1  0.3081E+01  0.4485E+02  0.1454E+01E
 Epicentro: ENCINO - SANTANDER                                                 3
 ACTION:UPD 14-01-13 10:16 OP:ep   STATUS:               ID:20131208174141 L   I
 OLDACT:UP  13-12-09 09:18 OP:ep   STATUS:               ID:20131208174141 L   3
 OLDACT:UP  13-12-09 05:34 OP:Mher STATUS:               ID:20131208174141 L   3
 OLDACT:UP  13-12-08 17:08 OP:cam  STATUS:               ID:20131208174000     3
 OLDACT:UP  13-12-08 17:08 OP:cam  STATUS:               ID:20131208174000     3
 OLDACT:REG 13-12-08 14:32 OP:cam  STATUS:               ID:20131208174000     3
 2013-12-08-1740-00M.COL___285                                                 6
 STAT SP IPHASW D HRMM SECON CODA AMPLIT PERI AZIMU VELO AIN AR TRES W  DIS CAZ7
 RUS  HZ IP     D 1741 45.60                              47   -0.3210 21.3 198 
 RUS  HE ES   1   1741 49.06                              47   -0.24 7 21.3 198 
 RUS  HZ I        1741 49.56        11.4 0.09             98           21.3 198 
 BAR2 SZ EP   1   1741 51.05                              47   -0.41 7 59.7 343 
 BAR2 SZ ES   1   1741 58.25                              47   -0.92 7 59.7 343 
 BAR2 SZ I        1741 59.10        31.3 0.16             47           59.7 343 
 SPBC HN ES   1   1742 15.73                              47   -0.84 7  125 248 
 BRR  HZ EP   1 C 1742  3.73                              47    0.79 7  137 326 
 BRR  HN ES   1   1742 19.92                              47    0.32 7  137 326 
 BRR  HZ I        1742 22.46         6.3 0.32             47            137 326 
 PTB  HZ EP       1742  8.25                              47    0.82 9  167 288 
 PTB  HN ES       1742 27.58                              47   -0.01 9  167 288 
 PTB  HZ I        1742 29.14         3.6 0.44             47            167 288 
 CHI  HZ EP   1   1742 10.14                              47    0.54 7  178 206 
 CHI  HN ES   1   1742 31.84                              47    0.39 7  178 206 
 CHI  HZ I        1742 42.81         2.8 0.45             47            178 206 
                                                                                
