 2015  3 8 1912 56.1 L   6.752 -73.154146.0  RSN  5 0.5 1.7LRSN                1
 GAP=152        1.35      11.5     8.3 10.1 -0.5833E+02  0.4533E+01  0.3114E+02E
 Epicentro: LOS SANTOS - SANTANDER                                             3
 ACTION:UPD 15-04-30 16:24 OP:nd   STATUS:               ID:20150308191256 L   I
 OLDACT:REG 15-03-08 23:10 OP:carl STATUS:               ID:20150308190751     3
 2015-03-08-1907-51M.COL___281                                                 6
 STAT SP IPHASW D HRMM SECON CODA AMPLIT PERI AZIMU VELO AIN AR TRES W  DIS CAZ7
 BAR2 EZ EP       1913 15.97                             173    0.3110 17.9 190 
 BAR2 EZ ES       1913 31.12                             173    0.2010 17.9 190 
 BAR2 EZ I        1913 32.40        15.7 0.30            170           17.9 190 
 BRR  HZ EP       1913 17.72                             152    0.3410 73.1 303 
 BRR  HE ES       1913 34.71                             152    0.7310 73.1 303 
 BRR  HZ I        1913 38.59        15.4 0.14            150           73.1 303 
 PAM  SZ EP       1913 18.71                             149    0.0810 82.1  38 
 PAM  SN ES       1913 35.43                             149   -0.7710 82.1  38 
 PAM  SZ I        1913 37.90         6.7 0.68            155           82.1  38 
 PTB  HZ EP       1913 22.14                             132   -0.77 9  146 261 
 PTB  HN ES       1913 43.34                             132   -0.49 9  146 261 
 PTB  HZ I        1913 49.11         7.9 0.36            132            146 261 
 NOR  HZ EP       1913 32.16                             119    0.73 8  231 235 
 NOR  HN ES       1913 58.55                             119   -0.44 8  231 235 
 NOR  HZ I        1914  8.49         2.9 0.10            120            231 235 
                                                                                
