 2012 10 8 1529 34.7 L   6.781 -73.113143.1  RSN  5 0.2 2.1LRSN                1
 GAP=142        0.55       3.5     5.3  5.2 -0.2812E+00 -0.1781E+01  0.6830E-02E
 Epicentro: LOS SANTOS - SANTANDER                                             3
 ACTION:UPD 12-11-22 17:02 OP:ep   STATUS:               ID:20121008152934 L   I
 2012-10-08-1528-19M.COL___202                                                 6
 STAT SP IPHASW D HRMM SECON CODA AMPLIT PERI AZIMU VELO AIN AR TRES W  DIS CAZ7
 BAR2 SZ EP       1529 53.85                             171   -0.1010 22.3 200 
 BAR2 SZ ES   1   1530  8.56                             171   -0.43 7 22.3 200 
 BAR2 SZ I        1530  9.69        23.2 0.34                          22.3 200 
 GIR2 SZ EP       1529 53.94                             166   -0.1510 34.1 345 
 BRR  HZ EP       1529 55.65                             151   -0.1110 75.3 299 
 BRR  HZ I        1529 55.88        26.5 0.30                          75.3 299 
 BRR  HN ES   1   1530 12.55                             151    0.33 7 75.3 299 
 PAM  SZ EP       1529 56.78                             150    0.2210 76.8  36 
 PAM  SN ES   1   1530 13.67                             150    0.04 7 76.8  36 
 PAM  SN I        1530 14.71        32.7 0.46                          76.8  36 
 RUS  HZ EP       1529 57.97                             144   -0.0210 98.3 178 
 RUS  HN ES   1   1530 16.52                             144    0.34 7 98.3 178 
                                                                                
