 2010  4 8 1107  4.2 L   6.796 -73.007147.5  RSN 11 0.4 3.2LRSN                1
 GAP=150        0.66       3.8     5.6  5.6 -0.8158E+01 -0.5864E+01  0.5921E+01E
 Epicentro: CEPITA - SANTANDER                                                 3
 ACTION:UPD 10-08-24 09:58 OP:vdl  STATUS:               ID:20100408110704 L   I
 2010-04-08-1104-52S.COL___097                                                 6
 STAT SP IPHASW D HRMM SECON CODA AMPLIT PERI AZIMU VELO AIN AR TRES W  DIS CAZ7
 BAR2 SZ IP       11 7 24.48                             168     0.310   30 221 
 BAR2 SZ ES   2   11 7 39.46                             168    -0.3 5   30 221 
 BRR  HZ IP     C 11 7 26.58                             149     0.210   85 294 
 BRR  HN ES   1   11 7 43.64                             149    -0.1 7   85 294 
 BRR  HZ I        11 7 47.62       133.1 0.13                            85 294 
 OCA  SZ EP   1   11 7 32.93                             130     0.0 7  163 348 
 OCA  SZ ES   2   11 7 54.74                             130    -0.6 5  163 348 
 OCA  SZ I        11 8  0.31       204.8 0.15                           163 348 
 CHI  HZ EP   1   11 7 42.59                             117     0.1 6  253 199 
 CHI  HE ES   2   11 8 11.81                             117    -0.5 4  253 199 
 ROSC BN ES   2   11 8 14.08                             116     0.3 4  261 214 
 HEL  HZ EP   1   11 7 46.83                             114     0.7 6  287 257 
 RREF BZ EP   2   11 7 52.34                             110     0.6 3  333 231 
 RREF BN ES   2   11 8 29.28                             110     0.5 3  333 231 
 SDV  BZ EP       11 7 53.11                             109     0.1 6  349  49 
 DBB  SZ EP       11 7 52.92                             109    -0.6 6  355 274 
 ANIL BZ EP   2   11 7 54.90                             108    -0.4 3  368 226 
 ANIL BZ I        11 8 46.12       103.8 0.34                           368 226 
 PRA  HZ EP       11 7 58.12                             106    -0.6 6  399 212 
 PRA  HN ES   2   11 8 40.55                             106    -0.6 3  399 212 
 PRA  HZ I        11 8 43.97        25.6 0.56                           399 212 
                                                                                
