 2013  3 8 1932 53.8 L   6.798 -73.124146.8  RSN  5 0.3 1.2LRSN                1
 GAP=139        0.67       4.9     6.3  7.2 -0.7429E+00  0.7967E+01  0.3853E+01E
 Epicentro: LOS SANTOS - SANTANDER                                             3
 ACTION:UPD 13-04-09 14:00 OP:ep   STATUS:               ID:20130308193253 L   I
 2013-03-08-1930-00M.COL___231                                                 6
 STAT SP IPHASW D HRMM SECON CODA AMPLIT PERI AZIMU VELO AIN AR TRES W  DIS CAZ7
 BAR2 SZ EP   1   1933 13.46                             170   -0.06 7 23.7 196 
 BAR2 SZ ES   2   1933 29.10                             170    0.16 5 23.7 196 
 BRR  HZ EP   1   1933 15.50                             152    0.36 7 73.4 298 
 BRR  HN ES   1   1933 32.03                             152    0.20 7 73.4 298 
 PAM  SZ EP   1   1933 16.34                             151    0.33 7 76.1  38 
 PAM  SE ES   1   1933 32.90                             151   -0.46 7 76.1  38 
 PAM  SZ I        1933 36.41         1.7 0.22            107           76.1  38 
 RUS  HZ EP   1   1933 17.78                             144    0.19 7  100 177 
 RUS  HZ I        1933 36.01         2.9 0.58             56            100 177 
 RUS  HE ES   1   1933 36.13                             144   -0.05 7  100 177 
 PTB  HZ EP   1   1933 20.35                             132   -0.67 7  150 259 
 PTB  HZ I        1933 43.50         3.5 0.42             56            150 259 
                                                                                
