 2012 11 8 1851 36.9 L   6.778 -73.143149.3  RSN  8 0.4 2.2LRSN                1
 GAP=138        0.91       4.4     4.6  6.6  0.4493E+00  0.3777E+01  0.8276E+01E
 Epicentro: LOS SANTOS - SANTANDER                                             3
 ACTION:UPD 12-12-05 15:32 OP:}ep  STATUS:               ID:20121108185136 L   I
 OLDACT:REG 12-11-08 18:47 OP:carl STATUS:               ID:20121108185000     3
 2012-11-08-1850-00M.COL___228                                                 6
 STAT SP IPHASW D HRMM SECON CODA AMPLIT PERI AZIMU VELO AIN AR TRES W  DIS CAZ7
 BAR2 SZ EP       1851 56.54                             172   -0.3510 21.0 192 
 BAR2 SZ ES   1   1852 12.37                             172   -0.13 7 21.0 192 
 BAR2 SZ I        1852 14.84        28.5 0.40                          21.0 192 
 BRR  HZ EP       1851 58.80                             153    0.3010 72.7 300 
 BRR  HN ES   1   1852 16.33                             153    0.97 7 72.7 300 
 BRR  HN I        1852 16.74        34.2 0.42                          72.7 300 
 PAM  SZ EP       1851 59.63                             151    0.0610 79.1  38 
 PAM  SN ES   1   1852 17.09                             151   -0.19 7 79.1  38 
 PAM  SN I        1852 18.26        21.6 0.50                          79.1  38 
 RUS  HZ EP       1852  0.94                             145    0.1310 98.1 176 
 RUS  HN ES   1   1852 19.28                             145   -0.19 7 98.1 176 
 RUS  HN I        1852 21.16        28.6 0.42                          98.1 176 
 PTB  HZ EP       1852  3.46                             133   -0.67 9  148 260 
 PTB  HN ES       1852 24.92                             133   -0.46 9  148 260 
 PTB  HN I        1852 30.67        23.6 0.40                           148 260 
 ZAR  HZ EP   2   1852 10.04                             123    0.36 4  205 293 
 ZAR  HN ES   1   1852 35.42                             123    0.15 6  205 293 
 ZAR  HN I        1852 41.86        19.0 0.28                           205 293 
 CHI  HZ EP       1852 14.48                             118   -0.05 8  246 195 
 CHI  HN ES   1   1852 44.62                             118    0.72 6  246 195 
 CHI  HN I        1852 50.85         8.6 0.42                           246 195 
 PRA  HZ EP       1852 30.91                             107    0.61 6  390 210 
 PRA  HN ES   2   1853 12.30                             107    0.34 3  390 210 
 PRA  HN I        1853 20.89         3.5 0.60                           390 210 
                                                                                
