 2014  5 8 1151 17.5 L   5.835 -73.728120.2  RSN 15 0.4 2.1LRSN                1
 GAP= 94        0.84       2.2     2.7  5.3 -0.1299E+01  0.2193E+01 -0.1550E+01E
 Epicentro: JESUS MARIA - SANTANDER                                            3
 ACTION:UPD 15-03-16 16:56 OP:nd   STATUS:               ID:20140508115117 L   I
 OLDACT:UP  14-05-08 20:41 OP:mh   STATUS:               ID:20140508115000     3
 OLDACT:UP  14-05-08 20:41 OP:mh   STATUS:               ID:20140508115000     3
 OLDACT:REG 14-05-08 19:22 OP:mh   STATUS:               ID:20140508115000     3
 2014-05-08-1150-00M.COL___273                                                 6
 STAT SP IPHASW D HRMM SECON CODA AMPLIT PERI AZIMU VELO AIN AR TRES W  DIS CAZ7
 SPBC HZ IP     D 1151 34.82                             159    0.2510 43.1 242 
 SPBC HN ES   1   1151 47.61                             159   -0.24 7 43.1 242 
 SPBC HZ I        1151 49.73        47.5 0.09            158           43.1 242 
 RUS  HZ EP     D 1151 37.20                             147    0.4610 71.7  85 
 RUS  HN ES   1   1151 51.71                             147    0.01 7 71.7  85 
 PTB  HZ EP   1   1151 38.61                             134   -0.60 7  112 314 
 PTB  HN ES   1   1151 56.09                             134   -0.02 7  112 314 
 PTB  HZ I        1151 57.11        22.1 0.23            136            112 314 
 ROSC BN ES   1   1151 59.77                             130    0.18 7  128 211 
 ROSC BZ I        1152  4.97        18.2 0.15            130            128 211 
 NOR  HZ EP       1151 40.53                             129   -0.3510  130 257 
 NOR  HN ES   1   1151 58.77                             129   -0.31 7  130 257 
 NOR  HZ I        1152  1.03        30.9 0.10            130            130 257 
 CHI  HZ EP       1151 41.97                             129    0.2910  133 180 
 CHI  HN ES       1152  0.39                             129   -0.1210  133 180 
 CHI  HZ I        1152  5.12        15.9 0.19            128            133 180 
 VIL  SN ES   1   1152  9.82                             118   -0.43 7  191 179 
 VIL  SZ I        1152 20.30        17.8 0.40            118            191 179 
 PAM  SZ EP       1151 49.18                             117    0.37 9  202  34 
 PAM  SN ES       1152 13.03                             117   -0.17 9  202  34 
 PAM  SZ I        1152 17.29        10.6 0.22            119            202  34 
 HEL  HZ EP   1   1151 49.06                             116    0.22 6  203 281 
 HEL  HN ES   1   1152 13.83                             116    0.58 6  203 281 
 HEL  HZ I        1152 18.81        14.7 0.38            117            203 281 
 RREF HZ EP       1151 48.91                             116   -0.69 8  207 240 
 RREF HN ES   1   1152 15.11                             116    0.51 6  207 240 
 RREF HZ I        1152 19.90         9.5 0.15            116            207 240 
 ZAR  HZ EP   1   1151 51.39                             114    0.96 6  222 326 
 ZAR  HN ES   1   1152 15.84                             114   -0.25 6  222 326 
 ZAR  HZ I        1152 17.66        15.3 0.24            116            222 326 
 CBOC HN ES   1   1152 23.12                             111    0.41 6  253 271 
 PRA  HZ EP   1   1151 55.53                             109   -0.11 6  267 209 
 PRA  HN ES       1152 24.82                             109   -0.54 8  267 209 
 PRA  HZ I        1152 31.24        11.6 0.42            110            267 209 
 ORTC HZ EP       1151 56.34                             109    0.23 8  271 218 
 ORTC HN ES   1   1152 26.52                             109    0.33 6  271 218 
 ORTC HZ I        1152 30.77         6.3 0.19            109            271 218 
 SML  HZ EP   1   1152  2.06                             105   -0.85 5  330 353 
 SML  HN ES   1   1152 37.91                             105   -0.39 5  330 353 
                                                                                
