 2014 11 8 1821 36.8 L   6.797 -73.130149.4  RSN 12 0.5 2.2LRSN                1
 GAP=139        1.16       3.8     5.1  6.3 -0.6232E+01  0.6960E+01  0.6962E+01E
 Epicentro: LOS SANTOS - SANTANDER                                             3
 ACTION:UPD 14-12-19 15:40 OP:nd   STATUS:               ID:20141108182136 L   I
 OLDACT:REG 14-11-08 22:44 OP:carl STATUS:               ID:20141108181746     3
 2014-11-08-1817-46M.COL___295                                                 6
 STAT SP IPHASW D HRMM SECON CODA AMPLIT PERI AZIMU VELO AIN AR TRES W  DIS CAZ7
 BAR2 SZ EP       1821 56.90                             171   -0.0210 23.4 194 
 BAR2 SZ ES       1822 12.32                             171   -0.2610 23.4 194 
 BAR2 SZ I        1822 14.64        55.9 0.30            169           23.4 194 
 BRR  HZ EP       1821 58.90                             153    0.4110 72.9 298 
 BRR  HN ES       1822 16.06                             153    0.6910 72.9 298 
 BRR  HZ I        1822 23.80        15.5 0.40            150           72.9 298 
 PAM  SZ IP     C 1821 59.69                             152    0.2810 76.6  38 
 PAM  SN ES       1822 16.98                             152   -0.0210 76.6  38 
 PAM  SZ I        1822 19.07        24.0 0.20            156           76.6  38 
 RUS  HZ EP       1822  0.77                             145   -0.1610  100 177 
 RUS  HN ES       1822 19.56                             145   -0.1510  100 177 
 RUS  HZ I        1822 20.73        11.3 0.42            148            100 177 
 PTB  HZ EP       1822  3.72                             132   -0.54 9  149 259 
 PTB  HN ES       1822 24.85                             132   -0.80 9  149 259 
 PTB  HZ I        1822 30.76        20.9 0.18            132            149 259 
 OCA  HN ES       1822 27.62                             130   -0.22 9  161 353 
 OCA  HZ I        1822 35.46        17.6 0.20            132            161 353 
 SPBC HZ EP       1822  5.63                             130   -0.08 9  164 220 
 SPBC HN ES       1822 28.85                             130    0.63 9  164 220 
 SPBC HZ I        1822 33.00        26.3 0.42            131            164 220 
 NOR  HZ EP       1822 11.89                             119   -1.03 8  236 235 
 NOR  HN ES       1822 40.79                             119   -0.27 8  236 235 
 NOR  HZ I        1822 44.79        12.9 0.22            120            236 235 
 CHI  HZ EP       1822 15.07                             118    0.30 8  249 196 
 CHI  HN ES       1822 44.02                             118   -0.32 8  249 196 
 CHI  HZ I        1822 52.93         5.5 0.60            120            249 196 
 GUY2CHZ EP       1822 21.04                             113    0.28 7  302 235 
 GUY2CHE ES       1822 55.36                             113    0.34 7  302 235 
 GUY2CHZ I        1823  3.75        13.1 0.76                           302 235 
 TOL  SZ EP       1822 25.23                             110   -0.13 7  344 225 
 TOL  SN ES       1823  4.60                             110    1.39 7  344 225 
 TOL  SZ I        1823 10.85        20.0 0.38            111            344 225 
 PRA  HZ EP       1822 31.41                             107    0.85 6  393 210 
 PRA  HE ES       1823 11.96                             107   -0.50 6  393 210 
 PRA  HZ I        1823 18.66         7.9 0.36            109            393 210 
                                                                                
