 2017  2 8 1945  0.2 L   7.156 -73.289115.3  RSN  6 0.3 1.8LRSN                1
 GAP=247        0.79       5.0     4.6  5.6  0.1206E+02  0.3198E+01  0.3380E+01E
 Epicentro: LEBRIJA - SANTANDER                                                3
 ACTION:UPD 17-05-24 15:34 OP:jn   STATUS:               ID:20170208194500 L   I
 OLDACT:UP  17-02-09 00:55 OP:and  STATUS:               ID:20170208193744d    3
 OLDACT:UP  17-02-09 00:54 OP:and  STATUS:               ID:20170208193744d    3
 OLDACT:DUP 17-02-09 00:28 OP:and  STATUS:               ID:20170208193744d    3
 OLDACT:UP  17-02-09 00:23 OP:and  STATUS:               ID:20170208193743     3
 OLDACT:REG 17-02-09 00:15 OP:and  STATUS:               ID:20170208193743     3
 2017-02-08-1938-00M.COL___361                                                 6
 STAT SP IPHASW D HRMM SECON CODA AMPLIT PERI AZIMU VELO AIN AR TRES W  DIS CAZ7
 BRR  HZ EP       1945 16.57                             156   -0.1110 47.0 263 
 BRR  HN ES       1945 29.04                             156   -0.5210 47.0 263 
 BAR2 EZ ES       1945 32.18                             149    0.3610 63.5 169 
 BAR2 EZ I        1945 33.27        30.1 0.26            148           63.5 169 
 RUS  HZ EP       1945 24.79                             126   -0.05 9  142 171 
 RUS  HN ES       1945 44.22                             126    0.12 9  142 171 
 PTB  HZ EP   9   1945 23.75                             124   -0.90 0  146 242 
 PTB  HN ES       1945 42.88                             125    0.03 9  146 242 
 PTB  HZ I        1945 44.25         6.6 0.12            123            146 242 
 ZAR  HN ES       1945 50.11                             119    0.59 9  177 282 
 ZAR  HZ I        1945 51.54        12.5 0.24            118            177 282 
 NOR  HZ EP       1945 35.64                             110   -0.22 8  248 225 
 NOR  HN ES       1946  3.50                             110   -0.21 8  248 225 
 NOR  HZ I        1946  7.18         3.5 0.22            109            248 225 
                                                                                
