 2015  9 8 1336 23.0 L   6.510 -73.536106.8  RSN  4 0.5 1.3LRSN                1
 GAP=158        1.24      12.4     7.3 13.8 -0.3906E+02  0.4154E+02  0.1525E+02E
 Epicentro: EL CARMEN - SANTANDER                                              3
 ACTION:UPD 15-10-28 16:25 OP:cam  STATUS:               ID:20150908133623 L   I
 OLDACT:DUP 15-09-08 22:49 OP:stll STATUS:               ID:20150908132750d    3
 OLDACT:UP  15-09-08 21:12 OP:ar   STATUS:               ID:20150908132749     3
 OLDACT:REG 15-09-08 20:30 OP:stll STATUS:               ID:20150908132749     3
 2015-09-08-1327-49M.COL___359                                                 6
 STAT SP IPHASW D HRMM SECON CODA AMPLIT PERI AZIMU VELO AIN AR TRES W  DIS CAZ7
 BAR2 EZ EP       1336 38.14                             158   -0.4210 40.1  77 
 BAR2 EZ ES       1336 50.87                             158    0.1610 40.1  77 
 BAR2 EZ I        1336 52.37         7.1 0.12            161           40.1  77 
 BRR  HZ EP       1336 40.65                             145    0.7510 68.8 344 
 PTB  HZ EP       1336 41.96                             133   -0.6310  102 272 
 PTB  HN ES       1336 57.69                             133   -0.2110  102 272 
 PTB  HZ I        1336 59.83         3.6 0.16            135            102 272 
 GUY2CHN ES       1337 27.28                             108    0.56 8  247 235 
 GUY2CHZ I        1337 32.58         2.3 0.44                           247 235 
                                                                                
