 2014  6 8 1352 29.2 L   7.244 -74.311 51.7  RSN  6 0.3 1.3LRSN                1
 GAP=168        0.82       3.3     2.1  8.2  0.1900E+01  0.1940E+01  0.4873E+01E
 Epicentro: PUERTO WILCHES - SANTANDER                                         3
 ACTION:UPD 14-07-01 22:52 OP:nd   STATUS:               ID:20140608135229 L   I
 OLDACT:REG 14-06-08 21:32 OP:stll STATUS:               ID:20140608134814     3
 2014-06-08-1348-14M.COL___262                                                 6
 STAT SP IPHASW D HRMM SECON CODA AMPLIT PERI AZIMU VELO AIN AR TRES W  DIS CAZ7
 ZAR  HZ EP       1352 40.91                             119   -0.3410 66.3 295 
 ZAR  HN ES       1352 50.90                             119    0.2910 66.3 295 
 ZAR  HZ I        1352 52.62        14.0 0.26            126           66.3 295 
 BRR  HZ EP       1352 41.32                             118   -0.0910 67.9 103 
 BRR  HN ES       1352 51.12                             118    0.2310 67.9 103 
 BRR  HZ I        1352 52.27         9.2 0.46            126           67.9 103 
 PTB  HN ES       1352 52.82                             113   -0.4110 79.5 192 
 PTB  HZ I        1352 56.68         7.1 0.28            119           79.5 192 
 BAR2 SZ EP       1352 50.59                             100   -0.07 9  144 120 
 BAR2 SZ ES       1353  7.43                             100    0.06 9  144 120 
 BAR2 SZ I        1353  8.60         8.9 0.26            105            144 120 
 URE  HZ EP       1352 50.25                             100   -0.38 9  146 293 
 URE  HZ I        1352 52.09         4.1 0.10            104            146 293 
 HEL  HZ EP       1352 55.58                              97    0.62 9  178 229 
 HEL  HE ES       1353 15.24                              97    0.22 9  178 229 
 HEL  HZ I        1353 16.65         1.8 0.38            101            178 229 
                                                                                
