 2014 10 8 1011 52.2 L   6.823 -73.150146.8  RSN  9 0.4 1.5LRSN                1
 GAP=135        1.03       3.4     4.4  7.5 -0.1899E+00  0.7761E+01  0.1320E+01E
 Epicentro: LOS SANTOS - SANTANDER                                             3
 ACTION:UPD 14-11-29 23:47 OP:nd   STATUS:               ID:20141008101152 L   I
 OLDACT:REG 14-10-08 21:37 OP:fm   STATUS:               ID:20141008100744     3
 2014-10-08-1007-44M.COL___295                                                 6
 STAT SP IPHASW D HRMM SECON CODA AMPLIT PERI AZIMU VELO AIN AR TRES W  DIS CAZ7
 BRR  HZ EP   1   1012 13.89                             153    0.57 7 69.6 297 
 BRR  HN ES       1012 30.64                             153    0.8010 69.6 297 
 BRR  HZ I        1012 34.80         7.2 0.26            152           69.6 297 
 PAM  SZ EP       1012 14.98                             152    0.6010 75.8  41 
 PAM  SN ES       1012 31.17                             152   -0.5510 75.8  41 
 PAM  SZ I        1012 33.53         3.2 0.18            153           75.8  41 
 RUS  HZ EP       1012 16.16                             143   -0.0310  103 176 
 RUS  HN ES       1012 34.68                             143   -0.2610  103 176 
 RUS  HZ I        1012 36.21         2.0 0.48            146            103 176 
 PTB  HZ EP   1   1012 18.68                             132   -0.53 7  148 258 
 PTB  HN ES       1012 39.92                             132   -0.39 9  148 258 
 PTB  HZ I        1012 41.72         4.2 0.16            133            148 258 
 OCA  HZ I        1012 47.03         4.2 0.46            131            158 353 
 ZAR  HN ES       1012 49.47                             123   -0.30 9  203 292 
 ZAR  HZ I        1012 55.13         2.7 0.40            124            203 292 
 SML  HZ EP       1012 28.23                             118   -0.34 8  241 335 
 SML  HN ES       1012 56.86                             118   -0.11 8  241 335 
 SML  HZ I        1013  0.66         4.4 0.10            119            241 335 
 CHI  HE ES       1012 59.85                             117    0.05 8  251 195 
 CHI  HZ I        1013  4.87         2.3 0.28            119            251 195 
 GUY2CHZ EP   1   1012 36.17                             112    0.24 5  302 234 
 GUY2CHE ES       1013 10.32                             112    0.24 7  302 234 
 GUY2CHZ I        1013 18.20         1.4 0.38                           302 234 
                                                                                
