 2017  3 8 1714 26.9 L   6.193 -73.638113.1  RSN 19 0.6 2.4LRSN                1
 GAP= 63        1.55       3.3     3.1  7.2 -0.1445E+01  0.4882E+01  0.4173E+01E
 Epicentro: LA PAZ - SANTANDER                                                 3
 ACTION:UPD 17-05-25 18:38 OP:jn   STATUS:               ID:20170308171426 L   I
 OLDACT:UP  17-03-09 00:02 OP:ar   STATUS:               ID:20170308170748     3
 OLDACT:UP  17-03-09 00:01 OP:ar   STATUS:               ID:20170308170748     3
 OLDACT:REG 17-03-08 21:01 OP:ar   STATUS:               ID:20170308170748     3
 2017-03-08-1708-00M.COL___383                                                 6
 STAT SP IPHASW D HRMM SECON CODA AMPLIT PERI AZIMU VELO AIN AR TRES W  DIS CAZ7
 BAR2 EZ IP     C 1714 45.10                             147    0.4310 67.0  49 
 BAR2 HE IP     D 1714 45.12                             147    0.4510 67.0  49 
 BAR2 EZ ES       1714 58.99                             147    0.4510 67.0  49 
 RUS  HZ IP     C 1714 45.14                             146   -0.0810 69.8 118 
 RUS  HN ES       1714 59.29                             146   -0.2310 69.8 118 
 RUS  HZ I        1715  0.52        27.3 0.13            148           69.8 118 
 SPBC HZ IP     C 1714 44.91                             143   -0.2310 76.8 219 
 SPBC HE ES       1714 59.73                             143    0.3510 76.8 219 
 SPBC HZ I        1715  1.30        74.5 0.18            143           76.8 219 
 PTB  HZ IP     C 1714 45.72                             136   -1.0210 98.4 293 
 PTB  HN ES       1715  0.86                             136   -1.3810 98.4 293 
 PTB  HZ I        1715  3.41        67.8 0.12            136           98.4 293 
 BRR  HZ IP     C 1714 47.19                             135    0.2110  101 355 
 BRR  HN ES       1715  3.45                             135    0.7910  101 355 
 BRR  HZ I        1715  7.37        55.2 0.12            137            101 355 
 NOR  HZ EP       1714 51.17                             122   -0.84 9  153 243 
 NOR  HN ES       1715 10.64                             122   -0.97 9  153 243 
 NOR  HZ I        1715 12.36        58.7 0.18            123            153 243 
 PAM  EZ EP       1714 54.19                             120    0.50 9  164  39 
 PAM  EN ES       1715 14.87                             120    0.28 9  164  39 
 PAM  EZ I        1715 16.27        17.5 0.19            123            164  39 
 CHI  HZ EP       1714 54.24                             119   -0.35 9  173 183 
 CHI  HN ES       1715 16.05                             119   -0.15 9  173 183 
 CHI  HZ I        1715 22.56        25.3 0.38            120            173 183 
 ZAR  HZ EP       1714 56.55                             115   -0.11 9  197 317 
 ZAR  HN ES       1715 20.14                             115    0.25 9  197 317 
 ZAR  HZ I        1715 22.36        80.9 0.10            116            197 317 
 TAM  HZ EP       1714 58.11                             114    0.41 8  206  82 
 TAM  HN ES       1715 20.66                             114   -1.08 8  206  82 
 TAM  HZ I        1715 20.83        34.6 0.12            116            206  82 
 HEL  HZ EP       1714 58.61                             114    0.13 8  209 270 
 HEL  HE ES       1715 24.02                             114    0.89 8  209 270 
 HEL  HZ I        1715 28.58        25.8 0.22            114            209 270 
 GUY2CHZ EP       1714 59.97                             112    0.23 8  219 241 
 GUY2CHN ES       1715 26.85                             112    1.49 8  219 241 
 GUY2CHZ  IAML    1715 32.86        22.7 0.34                           219 241 
 VIL  EZ EP       1715  0.07                             111   -0.47 8  230 182 
 VIL  EE ES       1715 26.85                             111    0.06 8  230 182 
 VIL  EZ I        1715 30.81        23.5 0.38            112            230 182 
 ELA  HN ES   4   1715 31.86                             110    1.24 0  245 233 
 ELA  HZ I        1715 36.64        17.0 0.30            111            245 233 
 CBOC HZ EP       1715  5.03                             108    0.39 8  265 262 
 CBOC HN ES       1715 34.23                             108    0.15 8  265 262 
 CBOC HZ I        1715 37.66         7.7 0.20            109            265 262 
 URE  HZ EP   9   1715  3.72                             107   -1.40 0  271 310 
 URE  HN ES       1715 32.53                             107   -1.01 8  271 310 
 URE  HZ I        1715 37.35        29.8 0.20            108            271 310 
 DBB  EZ EP       1715  7.48                             105   -0.94 7  299 288 
 DBB  EZ ES       1715 40.63                             105   -0.19 7  299 288 
 DBB  EZ I        1715 43.36        11.7 0.14            106            299 288 
 PRA  HZ EP       1715  9.27                             105   -0.09 7  307 207 
 PRA  HN ES       1715 43.67                             105    1.18 7  307 207 
 PRA  HZ I        1715 47.73        18.1 0.34            105            307 207 
 ORTC HZ EP       1715  9.39                             104   -0.21 7  309 215 
 ORTC HE ES       1715 43.19                             104    0.27 7  309 215 
 ORTC HZ I        1715 48.40        10.7 0.42            105            309 215 
                                                                                
