 2017  4 8 1840 36.5 L   6.757 -73.106145.4  RSN  5 0.3 1.2LRSN                1
 GAP=144        0.81       4.4     4.0  7.7 -0.6531E+00  0.7715E+01 -0.3977E+01E
 Epicentro: LOS SANTOS - SANTANDER                                             3
 ACTION:UPD 17-05-30 21:09 OP:jn   STATUS:               ID:20170408184036 L   I
 OLDACT:UP  17-04-08 22:36 OP:edw  STATUS:               ID:20170408183749     3
 OLDACT:UP  17-04-08 22:36 OP:edw  STATUS:               ID:20170408183749     3
 OLDACT:REG 17-04-08 21:12 OP:ar   STATUS:               ID:20170408183749     3
 2017-04-08-1838-00M.COL___377                                                 6
 STAT SP IPHASW D HRMM SECON CODA AMPLIT PERI AZIMU VELO AIN AR TRES W  DIS CAZ7
 BAR2 EZ ES       1841 11.05                             172   -0.2110 20.0 205 
 PAM  EZ IP     C 1840 59.15                             150    0.3910 78.6  35 
 PAM  EN ES       1841 16.00                             150   -0.1110 78.6  35 
 PAM  EZ I        1841 18.24         2.1 0.24            152           78.6  35 
 RUS  HZ EP       1840 59.36                             145   -0.5210 95.6 178 
 RUS  HN ES       1841 18.49                             145    0.4010 95.6 178 
 RUS  HZ I        1841 19.49         2.7 0.44            147           95.6 178 
 PTB  HZ EP   4   1840 59.97                             131   -3.80 0  151 261 
 PTB  HN ES       1841 25.09                             131    0.06 9  151 261 
 PTB  HZ I        1841 27.10         3.2 0.30            132            151 261 
 ZAR  HE ES       1841 35.31                             121    0.00 8  210 293 
                                                                                
