 2013  4 8 1523 40.1 L   6.767 -73.175150.0  RSN 10 0.4 2.0LRSN                1
 GAP=177        0.89       3.5     4.7  5.6  0.1672E+01  0.8779E+01  0.1322E+01E
 Epicentro: LOS SANTOS - SANTANDER                                             3
 ACTION:UPD 13-05-22 14:36 OP:EP   STATUS:               ID:20130408152340 L   I
 2013-04-08-1520-00M.COL___245                                                 6
 STAT SP IPHASW D HRMM SECON CODA AMPLIT PERI AZIMU VELO AIN AR TRES W  DIS CAZ7
 BAR2 SZ EP       1523 59.92                             172   -0.2710 19.4 182 
 BAR2 SZ ES       1524 15.86                             172    0.0210 19.4 182 
 BAR2 SZ I        1524 16.87        33.3 0.38            169           19.4 182 
 GIR2 SZ EP   1   1524  0.38                             166    0.00 7 34.5 357 
 GIR2 SZ ES   1   1524 16.89                             166    0.70 7 34.5 357 
 BRR  HZ EP       1524  1.57                             154   -0.1010 70.2 302 
 BRR  HN ES   1   1524 19.19                             154    0.70 7 70.2 302 
 BRR  HZ I        1524 24.32        14.7 0.12            150           70.2 302 
 RUS  HZ EP       1524  4.09                             146    0.0410 97.2 174 
 RUS  HE ES       1524 22.53                             146   -0.1910 97.2 174 
 RUS  HZ I        1524 23.62         9.4 0.46            147           97.2 174 
 PTB  HZ EP       1524  6.65                             134   -0.44 9  144 260 
 PTB  HN ES       1524 27.82                             134   -0.31 9  144 260 
 PTB  HZ I        1524 30.05         9.9 0.12            132            144 260 
 OCA  HN ES   1   1524 30.81                             130   -0.83 7  164 354 
 ZAR  HZ EP       1524 13.20                             123    0.52 9  202 293 
 ZAR  HN ES   1   1524 37.79                             123   -0.29 6  202 293 
 ZAR  HZ I        1524 44.87        15.5 0.38            123            202 293 
 NOR  HZ EP       1524 15.85                             120    0.26 8  230 235 
 NOR  HN ES       1524 43.18                             120   -0.08 8  230 235 
 NOR  HZ I        1524 51.84         6.1 0.32            120            230 235 
 SML  HE ES   1   1524 46.41                             118    0.29 6  246 336 
 PRA  HZ EP       1524 34.03                             107    0.80 6  387 209 
                                                                                
