 2015  3 8 1116 17.5 L   6.819 -73.119149.6  RSN  9 0.4 1.9LRSN                1
 GAP=157        0.99       3.1     5.4  6.0 -0.4176E+01  0.7588E+01  0.3428E+01E
 Epicentro: LOS SANTOS - SANTANDER                                             3
 ACTION:UPD 15-04-30 16:24 OP:nd   STATUS:               ID:20150308111617 L   I
 OLDACT:DUP 15-03-09 00:01 OP:carl STATUS:               ID:20150308110750d    3
 2015-03-08-1107-49M.COL___287                                                 6
 STAT SP IPHASW D HRMM SECON CODA AMPLIT PERI AZIMU VELO AIN AR TRES W  DIS CAZ7
 BAR2 EZ EP       1116 37.56                             170   -0.1110 26.0 196 
 BAR2 EZ ES       1116 52.95                             170   -0.4410 26.0 196 
 BAR2 EZ I        1116 55.23        14.9 0.36            169           26.0 196 
 BRR  HZ EP       1116 39.45                             153    0.2710 72.8 296 
 BRR  HE ES       1116 56.55                             153    0.4810 72.8 296 
 PAM  SZ EP       1116 40.34                             153    0.3910 73.9  39 
 PAM  SN ES       1116 57.50                             153    0.0510 73.9  39 
 PAM  SZ I        1116 59.69         7.1 0.22            155           73.9  39 
 OCA  HN ES       1117  8.48                             131    0.31 9  159 352 
 OCA  HZ I        1117 14.12        10.5 0.28            132            159 352 
 SPBC HZ EP       1116 46.50                             129   -0.14 9  167 219 
 SPBC HN ES       1117  8.65                             129   -0.71 9  167 219 
 SPBC HZ I        1117 15.77        11.5 0.24            129            167 219 
 SML  HZ EP       1116 53.71                             118   -0.59 8  243 334 
 SML  HN ES       1117 22.32                             118   -0.66 8  243 334 
 SML  HZ I        1117 27.22        13.0 0.10            119            243 334 
 CHI  HZ EP       1116 55.59                             118   -0.14 8  251 196 
 CHI  HN ES       1117 25.64                             118    0.10 8  251 196 
 CHI  HZ I        1117 32.69         2.3 0.34            118            251 196 
 HEL  HE ES       1117 30.47                             115    0.36 7  275 256 
 PRA  HZ EP       1117 11.77                             107    0.22 6  395 210 
 PRA  HN ES       1117 54.71                             107    1.01 6  395 210 
 PRA  HZ I        1117 59.17         2.8 0.32            107            395 210 
                                                                                
