 2014 10 8 1829 58.7 L   6.812 -73.173148.2  RSN  9 0.6 1.9LRSN                1
 GAP=133        1.29       4.8     6.1  8.7 -0.6851E+01  0.1421E+02 -0.2143E+01E
 Epicentro: LOS SANTOS - SANTANDER                                             3
 ACTION:UPD 14-11-29 23:47 OP:nd   STATUS:               ID:20141008182958 L   I
 OLDACT:DUP 14-10-09 01:23 OP:fm   STATUS:               ID:20141008182751d    3
 2014-10-08-1827-50M.COL___277                                                 6
 STAT SP IPHASW D HRMM SECON CODA AMPLIT PERI AZIMU VELO AIN AR TRES W  DIS CAZ7
 BAR2 SZ EP       1830 18.88                             170    0.2110 24.3 183 
 BAR2 SZ ES   1   1830 34.12                             170   -0.11 7 24.3 183 
 BAR2 SZ I        1830 35.46        38.3 0.18            170           24.3 183 
 BRR  HZ EP   1   1830 20.65                             154    0.68 7 68.0 299 
 BRR  HN ES       1830 37.68                             154    1.1510 68.0 299 
 BRR  HZ I        1830 39.25        10.9 0.16            151           68.0 299 
 PAM  SZ EP       1830 21.58                             151    0.3210 78.4  42 
 PAM  SN ES       1830 38.70                             151   -0.1410 78.4  42 
 PAM  SZ I        1830 41.06         7.3 0.54            154           78.4  42 
 RUS  HZ EP   1   1830 23.08                             144    0.25 7  102 174 
 RUS  HN ES       1830 41.03                             144   -0.6010  102 174 
 RUS  HZ I        1830 42.75        11.7 0.24            146            102 174 
 PTB  HZ EP       1830 25.30                             133   -0.36 9  145 258 
 PTB  HN ES       1830 45.89                             133   -0.77 9  145 258 
 PTB  HZ I        1830 52.31         6.5 0.32            132            145 258 
 SPBC HZ EP   1   1830 27.07                             130   -0.26 7  162 218 
 SPBC HN ES       1830 49.52                             130   -0.13 9  162 218 
 SPBC HZ I        1830 52.49        14.8 0.26            130            162 218 
 SML  HZ EP   1   1830 35.00                             118   -0.23 6  241 336 
 SML  HN ES       1831  2.82                             118   -0.89 8  241 336 
 SML  HZ I        1831  8.12        10.1 0.26            119            241 336 
 GUY2CHZ EP   4   1830 44.67                             113    2.41 0  299 234 
 GUY2CHE ES       1831 16.84                             113    0.63 7  299 234 
 GUY2CHZ I        1831 26.73         2.2 0.34                           299 234 
 TOL  SZ EP   1   1830 47.53                             110    0.58 5  342 224 
 TOL  SN ES   4   1831 27.12                             110    2.56 0  342 224 
 TOL  SZ I        1831 33.25         6.7 0.48            110            342 224 
                                                                                
