 2017  5 8 1829 56.7 L   6.692 -73.534107.6  RSN  6 0.4 1.5LRSN                1
 GAP= 98        0.96       3.8     4.0  8.0 -0.2204E+01  0.1042E+02  0.5424E+01E
 Epicentro: EL CARMEN - SANTANDER                                              3
 ACTION:UPD 17-06-16 13:34 OP:jn   STATUS:               ID:20170508182956 L   I
 OLDACT:REG 17-05-08 20:29 OP:lv   STATUS:               ID:20170508182739     3
 2017-05-08-1828-00M.COL___365                                                 6
 STAT SP IPHASW D HRMM SECON CODA AMPLIT PERI AZIMU VELO AIN AR TRES W  DIS CAZ7
 BRR  HZ EP       1830 12.61                             153    0.0410 49.9 337 
 BRR  HE ES       1830 25.12                             153    0.2110 49.9 337 
 RUS  HZ EP       1830 17.50                             134    0.4410  102 151 
 RUS  HN ES       1830 32.89                             134   -0.0210  102 151 
 RUS  HZ I        1830 34.35         8.0 0.13            141            102 151 
 PTB  HZ IP     C 1830 15.75                             133   -0.8310  103 261 
 PTB  HN ES   4   1830 30.45                             133   -1.61 0  103 261 
 PTB  HZ I        1830 37.57         4.5 0.60            136            103 261 
 PAM  EZ EP       1830 18.26                             129   -0.1810  117  52 
 PAM  EN ES       1830 35.19                             129   -0.1810  117  52 
 PAM  EZ I        1830 38.44         3.2 0.15            136            117  52 
 ZAR  HZ EP       1830 23.95                             117    0.58 9  171 301 
 ZAR  HE ES   4   1830 45.46                             117    1.32 0  171 301 
 ZAR  HZ I        1830 48.30         7.4 0.33            121            171 301 
 NOR  HZ EP       1830 26.00                             114    0.09 9  193 230 
 NOR  HN ES       1830 48.60                             114   -0.05 9  193 230 
                                                                                
