 2014 10 8 1552 31.8 L   6.781 -73.088148.1  RSN  4 0.3 1.5LRSN                1
 GAP=242        0.66       5.8     5.8  6.7  0.1759E+02  0.1769E+01 -0.3417E+00E
 Epicentro: LOS SANTOS - SANTANDER                                             3
 ACTION:UPD 14-11-29 23:47 OP:nd   STATUS:               ID:20141008155231 L   I
 OLDACT:REG 14-10-08 22:15 OP:fm   STATUS:               ID:20141008154740     3
 2014-10-08-1547-40M.COL___292                                                 6
 STAT SP IPHASW D HRMM SECON CODA AMPLIT PERI AZIMU VELO AIN AR TRES W  DIS CAZ7
 BAR2 SZ EP   1   1552 51.44                             171   -0.25 7 23.4 207 
 BAR2 SZ ES   1   1553  7.05                             171   -0.17 7 23.4 207 
 BAR2 SZ I        1553  8.21         7.7 0.26            169           23.4 207 
 BRR  HZ EP   1   1552 53.72                             151    0.16 7 77.8 298 
 BRR  HN ES       1553 10.64                             151    0.0910 77.8 298 
 BRR  HZ I        1553 13.17        10.8 0.28            153           77.8 298 
 RUS  HZ EP   1   1552 56.17                             145    0.57 7 98.3 180 
 RUS  HN ES       1553 14.09                             145   -0.0810 98.3 180 
 RUS  HZ I        1553 18.08         1.7 0.50            145           98.3 180 
 PTB  HZ EP   1   1552 58.87                             131   -0.60 7  154 260 
 PTB  HN ES       1553 21.20                             131    0.13 9  154 260 
 PTB  HZ I        1553 22.32         3.5 0.16            133            154 260 
                                                                                
