 2017  1 8 1423 19.7 L   6.775 -73.109142.9  RSN  5 0.2 1.2LRSN                1
 GAP=142        0.35       2.0     3.2  2.7 -0.1920E+01 -0.5307E+00 -0.3672E+00E
 Epicentro: LOS SANTOS - SANTANDER                                             3
 ACTION:UPD 17-05-22 15:57 OP:jn   STATUS:               ID:20170108142319 L   I
 OLDACT:UP  17-01-08 22:24 OP:and  STATUS:               ID:20170108141749     3
 OLDACT:UP  17-01-08 22:23 OP:and  STATUS:               ID:20170108141749     3
 OLDACT:UP  17-01-08 22:23 OP:and  STATUS:               ID:20170108141749     3
 OLDACT:REG 17-01-08 20:02 OP:and  STATUS:               ID:20170108141749     3
 2017-01-08-1418-00M.COL___374                                                 6
 STAT SP IPHASW D HRMM SECON CODA AMPLIT PERI AZIMU VELO AIN AR TRES W  DIS CAZ7
 BAR2 EZ EP       1423 38.97                             171   -0.0310 21.7 202 
 BAR2 EZ ES       1423 53.94                             171   -0.0810 21.7 202 
 BAR2 EZ I        1423 57.22         4.4 0.24            171           21.7 202 
 BRR  HZ EP       1423 40.79                             150   -0.0810 76.1 299 
 BRR  HN ES   3   1423 58.10                             150    0.74 2 76.1 299 
 PAM  EZ EP       1423 41.79                             150    0.1510 77.1  36 
 PAM  EN ES       1423 58.64                             150   -0.0810 77.1  36 
 PAM  EZ I        1424  1.76         2.7 0.43            153           77.1  36 
 RUS  HZ EP       1423 43.05                             144    0.0510 97.6 178 
 RUS  HN ES       1424  1.15                             144    0.0210 97.6 178 
 RUS  HZ I        1424  2.49         3.3 0.28            148           97.6 178 
 PTB  HZ EP   9   1423 45.39                             130   -1.41 0  151 260 
 PTB  HN ES       1424  6.50                             133    0.00 9  151 260 
 PTB  HZ I        1424 11.53         2.2 0.22            131            151 260 
                                                                                
