 2011  5 8 1317  3.2 L   6.723 -73.052142.8  RSN  6 0.4 1.7LRSN                1
 GAP=211        0.98       6.7     9.6  9.7 -0.3420E+02 -0.1290E+02 -0.2890E+01E
 Epicentro: ARATOCA - SANTANDER                                                3
 ACTION:UP  11-06-29 08:51 OP:tino STATUS:               ID:20110508131703 L   I
 2011-05-08-1314-25S.COL___131                                                 6
 STAT SP IPHASW D HRMM SECON CODA AMPLIT PERI AZIMU VELO SNR AR TRES W  DIS CAZ7
 BAR2 SZ EP       1317 22.90                             172     0.510   20 225 
 BAR2 SZ ES   1   1317 37.17                             172    -0.2 7   20 225 
 BAR2 SZ I        1317 40.05         6.7 0.18                            20 225 
 BRR  HZ EP   1   1317 24.54                             148    -0.3 7   84 300 
 BRR  HZ I        1317 26.12         9.7 0.13                            84 300 
 BRR  HN ES   1   1317 41.66                             148     0.0 7   84 300 
 BRI  SZ EP   1   1317 27.25                             139     0.1 7  113  14 
 BRI  SZ I        1317 48.58         5.6 0.77                           113  14 
 GRA  SZ EP       1317 28.52                             135    -0.110  131  12 
 GRA  SZ ES   1   1317 47.94                             135    -0.5 7  131  12 
 GRA  SZ I        1317 49.52         6.0 0.40                           131  12 
 OCA  SZ EP   1   1317 31.73                             127    -0.5 7  170 350 
 OCA  SZ ES   1   1317 55.60                             127     0.8 7  170 350 
 OCA  SZ I        1317 57.21        13.1 0.18                           170 350 
 NOR  SN ES   1   1318  6.91                             117    -0.3 6  239 238 
                                                                                
