 2010 10 8 1238 51.6 L   6.775 -73.109149.9  RSN  6 0.3 1.9LRSN                1
 GAP=181        0.71       4.2     7.0  6.6 -0.1202E+02 -0.1762E+02  0.8672E+01E
 Epicentro: LOS SANTOS - SANTANDER                                             3
 ACTION:UP  11-02-18 11:08 OP:tino STATUS:               ID:20101008123851 L   I
 2010-10-08-1235-14S.COL___121                                                 6
 STAT SP IPHASW D HRMM SECON CODA AMPLIT PERI AZIMU VELO SNR AR TRES W  DIS CAZ7
 BAR2 SZ EP       1239 11.57                             171    -0.110   22 202 
 BAR2 SZ ES   1   1239 27.01                             171    -0.4 7   22 202 
 BAR2 SZ I        1239 28.43        24.7 0.35                            22 202 
 BRR  HZ EP       1239 13.37                             151    -0.110   76 299 
 BRR  HN ES       1239 30.89                             151     0.310   76 299 
 BRR  HZ I        1239 31.86        15.1 0.64                            76 299 
 GUE  SZ EP       1239 16.85                             140     0.010  118  10 
 GRA  SZ EP   1   1239 17.37                             137     0.0 7  127  15 
 NOR  SN ES   1   1239 55.43                             119    -0.6 6  237 236 
 CHI  HZ EP       1239 29.63                             118     0.3 8  247 196 
 CHI  HZ I        1239 30.64         3.7 0.67                           247 196 
 CHI  HN ES   1   1239 59.22                             118     0.4 6  247 196 
                                                                                
