 2010 12 8 1204 44.4 L   6.754 -73.068137.9  RSN  8 0.5 2.0LRSN                1
 GAP=184        1.23      12.2    23.8 10.5 -0.1960E+03  0.5331E+02 -0.2341E+02E
 Epicentro: LOS SANTOS - SANTANDER                                             3
 ACTION:UP  11-01-14 15:23 OP:pat  STATUS:               ID:20101208120444 L   I
 2010-12-08-1203-03S.COL___134                                                 6
 STAT SP IPHASW D HRMM SECON CODA AMPLIT PERI AZIMU VELO SNR AR TRES W  DIS CAZ7
 BAR2 SZ EP       12 5  2.77                             170    -0.310   22 215 
 BAR2 SZ ES   1   12 5 17.33                             170    -0.3 7   22 215 
 BAR2 SZ I        12 5 19.14        34.3 0.27                            22 215 
 BTL  SZ EP       12 5  3.99                             168     0.810   29 310 
 BTL  SZ ES   2   12 5 18.33                             168     0.5 5   29 310 
 GIR2 SZ EP       12 5  2.88                             163    -0.510   39 339 
 GIR2 SZ ES   1   12 5 18.14                             163     0.0 7   39 339 
 GUE  SZ EP       12 5  9.20                             136     0.510  120   8 
 GRA  SZ ES   1   12 5 27.91                             134    -0.6 7  128  13 
 GRA  SZ I        12 5 30.49        17.1 0.44                           128  13 
 OCA  SZ EP   2   12 5 11.99                             126    -0.7 5  167 350 
 OCA  SZ I        12 5 36.48        12.2 0.25                           167 350 
 CHI  HN ES   3   12 5 49.77                             115    -0.5 2  246 197 
 CHI  HZ I        12 5 57.07         3.7 0.50                           246 197 
 HEL  HZ EP   1   12 5 24.79                             112    -0.2 6  279 257 
 HEL  HZ I        12 5 59.61         5.4 0.34                           279 257 
                                                                                
