 2013 12 8 1022 37.4 L   6.795 -73.147149.9  RSN 12 0.4 1.9LRSN                1
 GAP=137        0.94       3.2     4.0  5.3  0.2823E+00  0.6676E+01 -0.4489E+00E
 Epicentro: LOS SANTOS - SANTANDER                                             3
 ACTION:UPD 14-01-13 10:16 OP:ep   STATUS:               ID:20131208102237 L   I
 OLDACT:UP  13-12-08 14:47 OP:cam  STATUS:               ID:20131208102000     3
 OLDACT:REG 13-12-08 14:18 OP:cam  STATUS:               ID:20131208102000     3
 2013-12-08-1020-00M.COL___285                                                 6
 STAT SP IPHASW D HRMM SECON CODA AMPLIT PERI AZIMU VELO AIN AR TRES W  DIS CAZ7
 BAR2 SZ EP       1022 57.54                             171    0.0110 22.8 190 
 BAR2 SZ ES       1023 12.66                             171   -0.5610 22.8 190 
 BAR2 SZ I        1023 14.59        20.6 0.16            171           22.8 190 
 BRR  HZ EP       1022 59.48                             153    0.4710 71.4 299 
 BRR  HN ES       1023 16.47                             153    0.6010 71.4 299 
 BRR  HZ I        1023 20.56        11.0 0.52            152           71.4 299 
 PAM  SZ EP   1   1023  0.43                             151    0.33 7 77.9  39 
 PAM  SN ES       1023 17.67                             151   -0.1210 77.9  39 
 PAM  SZ I        1023 20.00         4.8 0.60            155           77.9  39 
 RUS  HZ EP       1023  1.69                             145    0.1610  100 176 
 RUS  HN ES       1023 20.32                             145   -0.0210  100 176 
 RUS  HZ I        1023 22.67         7.7 0.48            148            100 176 
 PTB  HZ EP       1023  4.11                             133   -0.59 9  148 259 
 PTB  HN ES       1023 25.61                             133   -0.37 9  148 259 
 PTB  HZ I        1023 28.44        12.1 0.26            134            148 259 
 OCA  HN ES   2   1023 29.37                             130    0.90 5  161 353 
 SPBC HZ EP       1023  6.56                             130    0.38 9  163 219 
 SPBC HN ES   1   1023 28.72                             130    0.10 7  163 219 
 SPBC HZ I        1023 33.73        10.4 0.54            132            163 219 
 ZAR  HZ EP       1023 10.16                             123    0.02 9  204 292 
 ZAR  HN ES       1023 35.92                             123    0.26 9  204 292 
 ZAR  HZ I        1023 42.53        10.0 0.26            124            204 292 
 NOR  HZ EP       1023 12.86                             119   -0.48 8  234 235 
 SML  HZ EP       1023 14.07                             118   -0.25 8  244 335 
 SML  HN ES       1023 42.44                             118   -0.67 8  244 335 
 SML  HZ I        1023 48.32         9.8 0.10            120            244 335 
 CHI  HZ EP   2   1023 15.74                             118    0.46 4  248 195 
 HEL  HZ ES   1   1023 49.82                             116    0.50 6  272 256 
 GUY2CHZ EP   4   1023 22.82                             113    1.66 0  301 235 
 SJC  HZ EP   4   1023 31.80                             106   -1.36 0  410 327 
                                                                                
