 2017  7 8 1311 16.9 L   6.725 -73.165142.4  RSN  5 0.2 1.6LRSN                1
 GAP=150        0.59       5.2     3.4  5.3  0.4112E+00  0.6497E+01  0.2319E+01E
 Epicentro: VILLANUEVA - SANTANDER                                             3
 ACTION:UPD 17-08-30 15:31 OP:rebc STATUS:               ID:20170708131116 L   I
 OLDACT:UP  17-07-09 00:04 OP:edw  STATUS:               ID:20170708130738     3
 OLDACT:UP  17-07-09 00:01 OP:edw  STATUS:               ID:20170708130738     3
 OLDACT:REG 17-07-08 21:23 OP:edw  STATUS:               ID:20170708130738     3
 2017-07-08-1308-00M.COL___383                                                 6
 STAT SP IPHASW D HRMM SECON CODA AMPLIT PERI AZIMU VELO AIN AR TRES W  DIS CAZ7
 BAR2 EZ EP       1311 36.15                             174    0.2110 14.8 187 
 BAR2 EZ ES       1311 50.88                             174    0.0610 14.8 187 
 BAR2 EZ I        1311 51.37         7.6 0.30            173           14.8 187 
 BRR  HZ EP       1311 37.87                             151    0.0810 73.7 305 
 BRR  HN ES       1311 54.32                             151    0.2110 73.7 305 
 BRR  HZ I        1311 57.47        16.7 0.38            150           73.7 305 
 PAM  EE ES   1   1311 56.18                             148   -0.46 7 85.3  37 
 PTB  HZ EP       1311 43.14                             132   -0.09 9  144 262 
 PTB  HN ES       1312  3.45                             132   -0.34 9  144 262 
 PTB  HZ I        1312  7.34         3.2 0.24            132            144 262 
 ZAR  HN ES       1312 14.56                             121    0.10 8  205 295 
                                                                                
