 2014  2 8 1848 19.6 L   7.326 -73.242133.6  RSN  4 0.2 1.7LRSN                1
 GAP=258        0.67       8.7     7.9  6.2  0.6023E+02 -0.1824E+02 -0.2356E+02E
 Epicentro: RIONEGRO - SANTANDER                                               3
 ACTION:UPD 14-03-10 08:08 OP:ep   STATUS:               ID:20140208184819 L   I
 OLDACT:DUP 14-02-08 17:17 OP:nd   STATUS:               ID:20140208184001d    3
 2014-02-08-1840-00M.COL___291                                                 6
 STAT SP IPHASW D HRMM SECON CODA AMPLIT PERI AZIMU VELO AIN AR TRES W  DIS CAZ7
 BRR  HZ EP       1848 38.55                             155   -0.1210 57.3 245 
 BRR  HN ES       1848 53.19                             155   -0.3510 57.3 245 
 BRR  HZ I        1848 54.26        10.7 0.44            133           57.3 245 
 BAR2 SZ EP       1848 40.45                             147    0.0110 81.4 175 
 BAR2 SZ ES       1848 57.15                             147    0.4610 81.4 175 
 BAR2 SZ I        1848 57.85        24.9 0.38            128           81.4 175 
 RUS  HZ EP       1848 47.40                             127    0.04 9  160 174 
 RUS  HN ES       1849  8.75                             127   -0.27 9  160 174 
 RUS  HZ I        1849 15.12         1.9 0.26            115            160 174 
 ZAR  HZ EP       1848 48.69                             123   -0.02 9  179 276 
 ZAR  HN ES       1849 11.66                             123    0.25 9  179 276 
 ZAR  HZ I        1849 16.55         6.8 0.26            112            179 276 
                                                                                
