 2014  3 8 1551 43.8 L   6.779 -73.201134.0  RSN  5 0.5 1.7LRSN                1
 GAP=131        1.43       7.4     6.9 10.9 -0.5864E+01  0.7031E+01  0.8789E+01E
 Epicentro: ZAPATOCA - SANTANDER                                               3
 ACTION:UPD 14-04-09 23:15 OP:nd   STATUS:               ID:20140308155143 L   I
 OLDACT:REG 14-03-08 16:47 OP:stll STATUS:               ID:20140308154812     3
 2014-03-08-1548-12M.COL___229                                                 6
 STAT SP IPHASW D HRMM SECON CODA AMPLIT PERI AZIMU VELO AIN AR TRES W  DIS CAZ7
 BAR2 SZ EP       1552  2.18                             171    0.2510 20.8 174 
 BAR2 SZ ES       1552 15.05                             171   -1.0410 20.8 174 
 BAR2 SZ I        1552 16.67         9.6 0.24            170           20.8 174 
 BRR  HN ES       1552 19.66                             152    0.9310 67.1 303 
 PAM  SZ EP       1552  4.82                             147   -0.3010 83.1  42 
 PAM  SN ES       1552 21.80                             147    0.0310 83.1  42 
 PAM  SZ I        1552 23.70       115.7 0.50            149           83.1  42 
 RUS  HZ EP       1552  6.55                             142    0.3010 98.9 172 
 RUS  HN ES       1552 24.27                             142    0.4810 98.9 172 
 RUS  HZ I        1552 26.80         1.8 0.28            142           98.9 172 
 PTB  HZ EP       1552  8.82                             130   -0.37 9  141 259 
 PTB  HN ES       1552 28.66                             130   -0.36 9  141 259 
 PTB  HZ I        1552 32.07         4.6 0.14            131            141 259 
                                                                                
