 2015  9 8 1032 45.8 L   6.829 -73.144141.9  RSN 19 0.5 2.4LRSN                1
 GAP=103        1.04       2.4     2.9  4.7 -0.4316E+00  0.2519E+01  0.4256E+00E
 Epicentro: LOS SANTOS - SANTANDER                                             3
      88.0      65.0     -82.0 25.0 15.0 19.0  0.0  0.1           RSN FPFIT    F
 ACTION:UPD 15-10-28 16:25 OP:cam  STATUS:               ID:20150908103245 L   I
 OLDACT:REG 15-09-08 20:20 OP:stll STATUS:               ID:20150908102749     3
 2015-09-08-1027-49M.COL___353                                                 6
 STAT SP IPHASW D HRMM SECON CODA AMPLIT PERI AZIMU VELO AIN AR TRES W  DIS CAZ7
 BAR2 EZ IP     D 1033  5.31                             169    0.2510 26.5 189 
 BAR2 EZ ES       1033 19.93                             169   -0.1310 26.5 189 
 BAR2 EZ I        1033 20.95        46.5 0.32            167           26.5 189 
 BRR  HZ IP     D 1033  7.21                             152    0.7310 70.0 296 
 BRR  HN ES       1033 23.25                             152    0.6510 70.0 296 
 BRR  HZ I        1033 28.19        34.9 0.40            146           70.0 296 
 RUS  HZ EP       1033  9.34                             142   -0.0910  104 176 
 RUS  HE ES       1033 27.65                             142   -0.1910  104 176 
 RUS  HZ I        1033 29.31        23.8 0.44            142            104 176 
 PTB  HZ EP       1033 12.00                             131   -0.56 9  149 258 
 PTB  HE ES       1033 33.20                             131   -0.21 9  149 258 
 PTB  HZ I        1033 36.10        26.4 0.18            127            149 258 
 TAM  HZ IP     D 1033 13.71                             129    0.46 9  156 106 
 TAM  HN ES       1033 34.53                             129   -0.12 9  156 106 
 OCA  HZ EP     C 1033 13.61                             129    0.07 9  157 353 
 OCA  HE ES       1033 35.03                             129   -0.13 9  157 353 
 OCA  HZ I        1033 39.37        71.2 0.16            127            157 353 
 SPBC HZ EP       1033 14.36                             128    0.08 9  166 218 
 SPBC HN ES       1033 36.34                             128   -0.14 9  166 218 
 SPBC HZ I        1033 41.74        36.5 0.24            125            166 218 
 ZAR  HZ EP       1033 18.75                             122    0.83 9  203 291 
 ZAR  HN ES       1033 42.67                             122   -0.28 9  203 291 
 ZAR  HZ I        1033 53.57        24.8 0.50            119            203 291 
 NOR  HZ EP     D 1033 21.99                             117    0.44 8  237 234 
 NOR  HN ES       1033 48.73                             117   -0.69 8  237 234 
 NOR  HE ES       1033 49.09                             117            237 234 
 NOR  HZ I        1033 56.55        17.7 0.16            115            237 234 
 SML  HZ EP       1033 21.54                             117   -0.39 8  241 335 
 SML  HN ES       1033 49.58                             117   -0.51 8  241 335 
 SML  HZ I        1033 55.87        37.3 0.28            115            241 335 
 CHI  HZ EP       1033 23.57                             116   -0.08 8  252 195 
 CHI  HN ES       1033 52.23                             116   -0.93 8  252 195 
 CHI  HZ I        1033 55.97         9.4 0.30            115            252 195 
 HEL  HZ EP   4   1033 26.97                             114    1.02 0  273 255 
 HEL  HE ES       1033 57.30                             114    0.04 8  273 255 
 HEL  HZ I        1034  3.68         8.7 0.34            112            273 255 
 GUY2CHZ EP     D 1033 29.99                             111    0.51 7  303 234 
 GUY2CHE ES       1034  3.51                             111   -0.03 7  303 234 
 GUY2CHZ I        1034 10.62         8.9 0.24                           303 234 
 DBB  SZ EP       1033 33.74                             109    0.60 7  339 274 
 DBB  SZ I        1034 11.55        20.7 0.42            107            339 274 
 TOL  SZ EP       1033 34.61                             108    0.41 6  346 224 
 TOL  SN ES       1034 12.01                             108    0.07 6  346 224 
 TOL  SZ I        1034 20.93         7.9 0.42            107            346 224 
 PRA  HZ EP       1033 39.56                             106    0.01 6  395 209 
 PRA  HE ES       1034 21.43                             106   -0.02 6  395 209 
 PRA  HZ I        1034 27.10         9.0 0.48            105            395 209 
 ORTC HZ EP       1033 40.41                             106    0.48 6  398 216 
 ORTC HN ES       1034 22.24                             106    0.11 6  398 216 
 ORTC HZ I        1034 27.12         6.2 0.46            105            398 216 
 SJC  HZ EP       1033 39.88                             105   -1.08 6  407 327 
 SJC  HN ES   4   1034 20.41                             105   -3.56 0  407 327 
 SJC  HZ I        1034 24.94         9.1 0.50            104            407 327 
 CRJC HZ IP     C 1033 46.19                             103   -1.64 5  464   4 
 CRJC HZ I        1033 46.28         6.7 0.10            102            464   4 
                                                                                
