 2013  9 8 1439  0.3 L   6.812 -73.113144.5  RSN  8 0.5 2.4LRSN                1
 GAP=186        1.00       4.3     5.5  7.4  0.3126E+01  0.1219E+01 -0.1605E+01E
 Epicentro: LOS SANTOS - SANTANDER                                             3
 ACTION:UPD 13-10-22 09:21 OP:ep   STATUS:               ID:20130908143900 L   I
 OLDACT:REG 13-09-08 12:35 OP:mh   STATUS:               ID:20130908143735     3
 2013-09-08-1437-35M.COL___244                                                 6
 STAT SP IPHASW D HRMM SECON CODA AMPLIT PERI AZIMU VELO AIN AR TRES W  DIS CAZ7
 BAR2 SZ EP       1439 20.08                             170    0.2910 25.5 198 
 BAR2 SZ ES   1   1439 34.79                             170   -0.23 7 25.5 198 
 BAR2 SZ I        1439 36.21        71.4 0.18            168           25.5 198 
 BRR  HZ EP   1   1439 21.85                             152    0.42 7 73.8 296 
 BRR  HN ES       1439 38.59                             152    0.6510 73.8 296 
 BRR  HZ I        1439 42.59        46.0 0.22            150           73.8 296 
 RUS  HZ EP       1439 24.11                             143    0.1310  102 178 
 RUS  HN ES   1   1439 42.44                             143   -0.03 7  102 178 
 RUS  HZ I        1439 44.23        31.5 0.32            145            102 178 
 PTB  HZ EP   1   1439 26.60                             131   -0.89 7  152 259 
 PTB  HN ES       1439 48.10                             131   -0.61 9  152 259 
 PTB  HZ I        1439 50.19        40.7 0.40            131            152 259 
 OCA  HZ EP   1   1439 28.14                             130   -0.27 7  159 352 
 OCA  HN ES   1   1439 49.60                             130   -0.75 7  159 352 
 SPBC HZ EP   1   1439 28.98                             128   -0.01 7  167 220 
 SPBC HN ES       1439 51.19                             128   -0.20 9  167 220 
 SPBC HZ I        1439 55.51        32.3 0.28            129            167 220 
 ZAR  HZ EP   1   1439 32.93                             122   -0.00 6  207 291 
 ZAR  HE ES       1439 58.63                             122    0.22 8  207 291 
 ZAR  HZ I        1440  4.62        28.5 0.34            123            207 291 
 HEL  HZ EP   1   1439 41.79                             114    0.94 6  276 256 
                                                                                
