 2016 11 8 1530  2.4 L   6.816 -73.164147.0  RSN 21 0.5 2.7LRSN                1
 GAP= 79        1.01       3.5     2.9  5.3 -0.8285E+00  0.2745E+01  0.7400E+01E
 Epicentro: LOS SANTOS - SANTANDER                                             3
 ACTION:UPD 17-10-26 21:05 OP:lp   STATUS:               ID:20161108153002 L   I
 OLDACT:UP  16-11-08 23:09 OP:dnl  STATUS:               ID:20161108151755     3
 OLDACT:UP  16-11-08 23:09 OP:dnl  STATUS:               ID:20161108151755     3
 OLDACT:UP  16-11-08 23:08 OP:dnl  STATUS:               ID:20161108151755     3
 OLDACT:REG 16-11-08 22:09 OP:dnl  STATUS:               ID:20161108151755     3
 2016-11-08-1528-00M.COL___343                                                 6
 STAT SP IPHASW D HRMM SECON CODA AMPLIT PERI AZIMU VELO AIN AR TRES W  DIS CAZ7
 BAR2 EZ IP     D 1530 22.03                             170   -0.1410 24.8 185 
 BAR2 EZ ES       1530 37.14                             170   -0.4910 24.8 185 
 BAR2 EZ I        1530 38.22       159.3 0.30            166           24.8 185 
 BRR  HZ EP       1530 23.75                             154    0.2510 68.6 298 
 BRR  HN ES       1530 40.98                             154    0.9910 68.6 298 
 BRR  HZ I        1530 43.94       107.9 0.36            151           68.6 298 
 PAM  EZ EP       1530 24.88                             151    0.1710 77.3  42 
 PAM  EN ES       1530 42.06                             151   -0.0810 77.3  42 
 PAM  EZ I        1530 44.79        63.7 0.38            156           77.3  42 
 PTB  HZ EP     C 1530 28.37                             133   -0.92 9  146 258 
 PTB  HE ES       1530 49.81                             133   -0.48 9  146 258 
 PTB  HZ I        1530 53.00        55.0 0.16            131            146 258 
 TAM  HZ IP     D 1530 30.48                             130    0.12 9  157 105 
 TAM  HN ES       1530 52.19                             130   -0.01 9  157 105 
 TAM  HZ I        1530 52.76        37.1 0.28            133            157 105 
 ZAR  HZ EP       1530 34.52                             123   -0.11 9  202 292 
 ZAR  HN ES       1531  0.04                             123    0.24 9  202 292 
 ZAR  HZ I        1531  5.41        67.5 0.30            122            202 292 
 NOR  HZ EP       1530 37.90                             119   -0.20 8  234 234 
 NOR  HN ES       1531  5.91                             119   -0.07 8  234 234 
 NOR  HZ I        1531 15.94        24.6 0.46            118            234 234 
 CHI  HZ EP       1530 40.28                             117    0.02 8  250 195 
 CHI  HE ES       1531  9.76                             117   -0.06 8  250 195 
 CHI  HZ I        1531 12.01        37.3 0.38            117            250 195 
 ROSC BZ EP   9   1530 42.56                             117    1.96 0  253 210 
 ROSC BN ES       1531 12.63                             117    0.24 8  253 210 
 ROSC BZ I        1531 16.21        64.3 0.30            116            253 210 
 URE  HZ EP   2   1530 41.98                             114   -1.23 4  281 292 
 URE  HE ES   4   1531 12.15                             114   -2.93 0  281 292 
 URE  HZ I        1531 24.24        47.1 0.18            114            281 292 
 VIL  EZ EP       1530 45.94                             112   -0.05 7  305 191 
 VIL  EN ES       1531 20.02                             112    0.00 7  305 191 
 VIL  EZ I        1531 30.43        41.9 0.42            112            305 191 
 PTGC HZ EP   4   1530 45.27                             112   -1.27 0  311 158 
 PTGC HN ES   4   1531 18.92                             112   -2.08 0  311 158 
 PTGC HZ I        1531 21.33        33.0 0.30            112            311 158 
 LL6C HZ EP   9   1530 28.01                             111   -19.9 0  323 358 
 LL6C HN ES       1531  2.73                                   -0.80 7  323 358 
 LL6C HZ I        1531  8.54        11.7 0.46            112            323 358 
 ELA  HZ EP   4   1530 50.54                             110    1.32 0  329 229 
 ELA  HN ES       1531 26.61                             110    0.83 7  329 229 
 ELA  HZ I        1531 33.85        21.0 0.50            110            329 229 
 CBOC HZ EP       1530 49.84                             110    0.67 7  332 252 
 CBOC HN ES       1531 25.08                             110   -0.61 7  332 252 
 CBOC HZ I        1531 35.52         9.3 0.50            110            332 252 
 ANIL HZ EP   2   1530 53.09                             109    0.89 3  357 224 
 ANIL HN ES   4   1531 33.29                             109    2.22 0  357 224 
 PRA  HZ EP       1530 56.03                             107    0.04 6  393 209 
 PRA  HN ES       1531 38.06                             107    0.24 6  393 209 
 PRA  HZ I        1531 42.42        29.1 0.52            107            393 209 
 ORTC HZ EP       1530 56.75                             106    0.40 6  396 216 
 ORTC HN ES   4   1531 39.82                             106    1.35 0  396 216 
 ORTC HZ I        1531 42.95        12.9 0.38            107            396 216 
 SJC  HZ EP   4   1530 56.21                             106   -1.45 0  407 327 
 SJC  HN ES   4   1531 37.15                             106   -3.65 0  407 327 
 SJC  HZ I        1531 51.72        12.0 0.76            107            407 327 
 CRJC HZ EP   4   1531  2.49                             104   -2.21 0  466   4 
 CRJC HE ES   4   1531 49.73                             104   -3.60 0  466   4 
 CRJC HZ I        1531 56.24        12.4 0.18            104            466   4 
 URI  HZ EP   4   1531 12.39                             101   -2.85 0  555  13 
 URI  HE ES   4   1532  3.83                             101   -8.26 0  555  13 
 URI  HZ I        1532 20.93         1.9 0.46            102            555  13 
                                                                                
