 2011  5 8 1902 57.9 L   6.261 -73.652110.0  RSN  4 0.3 1.4LRSN                1
 GAP=117        0.60       4.6     5.8 11.0  0.1587E+01  0.3788E+02  0.2008E+01E
 Epicentro: SANTA HELENA DEL OPON - SANTANDER                                  3
 ACTION:UP  11-06-29 08:51 OP:tino STATUS:               ID:20110508190259 L   I
 2011-05-08-1900-12S.COL___132                                                 6
 STAT SP IPHASW D HRMM SECON CODA AMPLIT PERI AZIMU VELO SNR AR TRES W  DIS CAZ7
 BAR2 SZ ES   2   19 3 28.90                             148     0.3 5   64  55 
 BAR2 SZ I        19 3 30.14        33.2 0.34                            64  55 
 RUS  HZ EP   1   19 3 16.37                             144     0.1 7   75 123 
 RUS  HE ES   1   19 3 30.52                             144    -0.1 7   75 123 
 RUS  HZ I        19 3 31.98         2.1 0.14                            75 123 
 BRR  HZ EP   1   19 3 16.76                             136    -0.3 7   94 356 
 BRR  HN ES   2   19 3 32.26                             136     0.2 5   94 356 
 BRR  HZ I        19 3 32.38         4.2 0.47                            94 356 
 NOR  SZ EP   2   19 3 23.71                             121     0.7 5  155 240 
 NOR  SN ES   2   19 3 42.38                             121    -0.3 5  155 240 
                                                                                
