 2012  5 8 1152 57.8 L   6.771 -73.103156.8  RSN  6 0.3 1.6LRSN                1
 GAP=240        0.77       6.5     6.4  9.8  0.1621E+02  0.6170E+01  0.5241E+01E
 Epicentro: LOS SANTOS - SANTANDER                                             3
 ACTION:UP  12-07-05 12:03 OP:pat  STATUS:               ID:20120508115257 L   I
 2012-05-08-1150-00M.COL___192                                                 6
 STAT SP IPHASW D HRMM SECON CODA AMPLIT PERI AZIMU VELO SNR AR TRES W  DIS CAZ7
 BAR2 SZ EP   1   1153 18.46                             172    -0.2 7   22 204 
 BRR  HZ EP   1   1153 20.72                             153     0.3 7   77 299 
 BRR  HZ I        1153 21.02         9.4 0.28                            77 299 
 BRR  HE ES   1   1153 38.50                             153     0.4 7   77 299 
 RUS  HZ EP   1   1153 22.61                             147     0.2 7   97 179 
 RUS  HE ES   1   1153 41.41                             147    -0.2 7   97 179 
 RUS  HZ I        1153 43.18         2.5 0.39                            97 179 
 PTB  HZ EP   1   1153 25.67                             134    -0.3 7  152 260 
 PTB  HE ES   1   1153 47.59                             134    -0.5 7  152 260 
 PTB  HZ I        1153 50.19         3.5 0.10                           152 260 
 ZAR  HN ES   1   1153 57.77                             124    -0.1 6  210 292 
 ZAR  HZ I        1154  3.29         5.8 0.27                           210 292 
 RREF HN ES   1   1154 21.69                             113     0.6 5  323 230 
 RREF HZ I        1154 30.47         2.5 0.40                           323 230 
                                                                                
