 2010  9 8 1049 45.2 L   6.818 -73.097144.0  RSN 14 0.5 3.5LRSN                1
 GAP=164        0.88       3.9     7.5  6.9 -0.1262E+02  0.9083E+01  0.5547E+01E
 Epicentro: LOS SANTOS - SANTANDER                                             3
 ACTION:UP  11-02-18 11:01 OP:tino STATUS:               ID:20100908104945 L   I
 2010-09-08-1047-34S.COL___120                                                 6
 STAT SP IPHASW D HRMM SECON CODA AMPLIT PERI AZIMU VELO SNR AR TRES W  DIS CAZ7
 BAR2 SZ IP     D 1050  4.79                             169     0.110   27 201 
 BAR2 SZ ES   2   1050 19.58                             169    -0.3 5   27 201 
 BAR2 SZ I        1050 21.15       593.8 0.16                            27 201 
 GIR2 SZ IP     D 1050  4.88                             167     0.210   31 340 
 GIR2 SZ ES   2   1050 20.18                             167     0.3 5   31 340 
 BRR  HZ IP     C 1050  6.68                             151     0.310   75 295 
 BRR  HZ I        1050  6.95       632.0 0.29                            75 295 
 BRR  HE ES   2   1050 23.37                             151     0.4 5   75 295 
 RUS  HZ IP     C 1050  8.76                             143    -0.210  102 179 
 RUS  HN ES   2   1050 26.71                             143    -0.7 5  102 179 
 RUS  HZ I        1050 28.79       266.5 0.20                           102 179 
 GUE  SZ EP       1050  9.73                             140     0.210  114  10 
 GRA  SZ IP     C 1050  9.68                             137    -0.310  122  15 
 GRA  SZ I        1050 11.14       364.9 0.35                           122  15 
 GRA  SZ ES   2   1050 29.43                             137     0.1 5  122  15 
 OCA  SZ EP   1   1050 13.27                             129     0.0 7  159 351 
 OCA  SZ ES   2   1050 34.30                             129    -0.9 5  159 351 
 OCA  SZ I        1050 40.23       317.0 0.12                           159 351 
 CHI  HZ EP       1050 23.28                             116     0.1 8  252 196 
 CHI  HN ES   2   1050 52.41                             116    -0.4 4  252 196 
 CHI  HZ I        1051  0.21        98.7 0.35                           252 196 
 ROSC BZ EP   1   1050 24.78                             116     1.0 6  257 212 
 ROSC BE ES   2   1050 53.82                             116     0.0 4  257 212 
 ROSC BZ I        1051  2.58       166.5 0.39                           257 212 
 CVER SZ EP   1   1050 26.48                             114     0.6 6  276 203 
 HEL  HZ EP   1   1050 25.11                             114    -0.9 6  278 256 
 HEL  HZ I        1051  3.89       212.0 0.27                           278 256 
 GUY  SZ EP   1   1050 29.45                             112     0.1 5  307 235 
 GUY  SN ES   2   1051  3.01                             112    -0.8 4  307 235 
 GUY  SZ I        1051 11.20       284.1 0.43                           307 235 
 RREF HZ EP   1   1050 31.20                             110    -0.7 5  327 230 
 RREF HE ES   2   1051  8.96                             110     0.6 3  327 230 
 RREF HZ I        1051 14.94       150.0 0.36                           327 230 
 PRA  HZ EP   1   1050 38.58                             106    -0.6 4  396 210 
 PRA  HE ES   2   1051 21.58                             106     0.3 3  396 210 
 PRA  HZ I        1051 29.64        86.8 0.39                           396 210 
                                                                                
