 2011 12 8 1744 37.0 L   6.808 -73.148141.1  RSN  5 0.4 1.4LRSN                1
 GAP=136        0.74       6.5    11.3  9.2 -0.4419E+02  0.2949E+02 -0.9996E+01E
 Epicentro: LOS SANTOS - SANTANDER                                             3
 ACTION:UPD 12-07-13 16:15 OP:ep   STATUS:               ID:20111208174437 L   I
 2011-12-08-1741-39S.COL___163                                                 6
 STAT SP IPHASW D HRMM SECON CODA AMPLIT PERI AZIMU VELO AIN AR TRES W  DIS CAZ7
 BAR2 SZ ES   1   1745 11.29                             170    0.33 7 24.1 189 
 BAR2 SZ I        1745 12.66        10.1 0.27                          24.1 189 
 GIR2 SZ EP   1   1744 56.29                             167    0.21 7 30.4 351 
 PAM  SZ EP   1   1744 59.19                             150    0.51 7 76.9  40 
 PAM  SE ES   1   1745 15.04                             150   -0.56 7 76.9  40 
 RUS  HZ EP   1   1744 59.96                             143   -0.39 7  101 176 
 RUS  HN ES   1   1745 18.57                             143    0.00 7  101 176 
 RUS  HZ I        1745 19.90         2.9 0.18                           101 176 
 NOR  SE ES   2   1745 39.82                             117   -0.34 4  235 234 
                                                                                
