 2012 10 8 1118 15.7 L   6.755 -73.115144.5  RSN  5 0.3 1.7LRSN                1
 GAP=142        0.40       8.2     9.4  5.1  0.4905E+02 -0.4697E+00 -0.6478E+01E
 Epicentro: LOS SANTOS - SANTANDER                                             3
 ACTION:UPD 12-11-22 17:02 OP:ep   STATUS:               ID:20121008111815 L   I
 2012-10-08-1110-00M.COL___222                                                 6
 STAT SP IPHASW D HRMM SECON CODA AMPLIT PERI AZIMU VELO AIN AR TRES W  DIS CAZ7
 BAR2 SZ EP   2   1118 34.90                             172   -0.18 5 19.5 202 
 BAR2 SZ ES   1   1118 50.05                             172   -0.17 7 19.5 202 
 BAR2 SZ I        1118 51.46        12.1 0.20                          19.5 202 
 GIR2 SZ ES   2   1118 50.97                             165    0.26 5 36.8 346 
 BRR  HZ EP       1118 37.00                             151    0.0010 76.6 301 
 BRR  HN ES   1   1118 53.65                             151    0.01 7 76.6 301 
 BRR  HN I        1118 54.34        21.3 0.20                          76.6 301 
 PAM  SZ EP   3   1118 38.20                             150    0.33 2 79.3  35 
 RUS  HN ES   3   1118 57.93                             145    0.85 2 95.5 178 
 RUS  HN I        1118 59.09         3.2 0.18                          95.5 178 
                                                                                
