 2012  5 8 1038 32.6 L   6.775 -73.135153.5  RSN  6 0.4 1.6LRSN                1
 GAP=139        0.80       5.8     5.3  7.8  0.8634E+01  0.3132E+01 -0.2309E+01E
 Epicentro: LOS SANTOS - SANTANDER                                             3
 ACTION:UP  12-07-05 12:03 OP:pat  STATUS:               ID:20120508103832 L   I
 2012-05-08-1030-00M.COL___192                                                 6
 STAT SP IPHASW D HRMM SECON CODA AMPLIT PERI AZIMU VELO SNR AR TRES W  DIS CAZ7
 BAR2 SZ EP   2   1038 53.17                             172     0.0 5   21 194 
 BAR2 SZ ES   2   1039  9.14                             172     0.0 5   21 194 
 BAR2 SZ I        1039  9.33        10.8 0.12                            21 194 
 BRR  HZ EP   1   1038 55.08                             153     0.4 7   74 300 
 BRR  HE ES   1   1039 12.39                             153     0.4 7   74 300 
 BRR  HZ I        1039 13.47        13.2 0.17                            74 300 
 PAM  SZ EP   1   1038 55.41                             152    -0.3 7   79  38 
 PAM  SE ES   2   1039 13.24                             152    -0.5 5   79  38 
 RUS  HZ EP       1038 57.05                             146     0.110   98 177 
 RUS  HN ES   1   1039 16.08                             146     0.2 7   98 177 
 RUS  HZ I        1039 17.54         3.4 0.45                            98 177 
 PTB  HZ EP   1   1038 59.98                             134    -0.3 7  148 260 
 PTB  HN ES   1   1039 21.05                             134    -0.8 7  148 260 
 PTB  HZ I        1039 24.11         3.9 0.13                           148 260 
 ZAR  HZ EP   1   1039  6.03                             124     0.2 6  206 293 
 ZAR  HN ES   1   1039 31.86                             124     0.2 6  206 293 
 ZAR  HZ I        1039 38.38         3.2 0.19                           206 293 
                                                                                
