 2013  3 8 1507 20.9 L   6.828 -73.160154.8  RSN  4 0.4 1.7LRSN                1
 GAP=143        0.93      12.0     7.4  9.4 -0.3876E+02  0.1396E+02  0.3007E+02E
 Epicentro: LOS SANTOS - SANTANDER                                             3
 ACTION:UPD 13-04-09 14:00 OP:ep   STATUS:               ID:20130308150720 L   I
 2013-03-08-1500-00M.COL___231                                                 6
 STAT SP IPHASW D HRMM SECON CODA AMPLIT PERI AZIMU VELO AIN AR TRES W  DIS CAZ7
 BAR2 SZ EP   1   15 7 41.80                             170    0.18 7 26.1 185 
 BAR2 SZ ES   1   15 7 58.01                             170    0.19 7 26.1 185 
 BAR2 SZ I        15 8  0.55         4.7 0.23            166           26.1 185 
 BRR  HZ EP       15 7 43.20                             155    0.3710 68.4 297 
 BRR  HZ I        15 7 43.45        11.2 0.38            159           68.4 297 
 BRR  HE ES       15 8  0.36                             155    0.3910 68.4 297 
 PAM  SN ES       15 8  1.53                             153   -0.4610 76.1  42 
 PAM  SN I        15 8  3.00        11.6 0.26            155           76.1  42 
 PTB  HZ EP       15 7 48.35                             134   -0.14 9  147 258 
 PTB  HE ES   1   15 8  9.25                             134   -0.79 7  147 258 
 PTB  HE I        15 8 10.28         8.3 0.26            136            147 258 
                                                                                
