 2010  4 8 1138 19.9 L   6.785 -72.974146.0  RSN  8 0.3 2.5LRSN                1
 GAP=213        0.50       3.0     6.1  4.3 -0.3063E+01  0.9660E+00  0.1985E+01E
 Epicentro: CEPITA - SANTANDER                                                 3
 ACTION:UPD 10-08-24 09:58 OP:vdl  STATUS:               ID:20100408113819 L   I
 2010-04-08-1137-02S.COL___097                                                 6
 STAT SP IPHASW D HRMM SECON CODA AMPLIT PERI AZIMU VELO AIN AR TRES W  DIS CAZ7
 BAR2 SZ IP       1138 40.01                             167     0.310   32 227 
 BAR2 SZ ES   1   1138 54.92                             167    -0.3 7   32 227 
 BRR  HZ IP     C 1138 42.14                             147     0.010   89 294 
 BRR  HZ I        1138 42.43        50.8 0.14                            89 294 
 BRR  HN ES   1   1138 59.78                             147     0.3 7   89 294 
 OCA  SZ EP       1138 48.53                             129    -0.1 9  165 347 
 OCA  SZ ES   1   1139 10.95                             129    -0.2 7  165 347 
 OCA  SZ I        1139 16.23        36.0 0.29                           165 347 
 CHI  HZ EP   1   1138 58.08                             117     0.0 6  253 199 
 CHI  HE ES   3   1139 26.84                             117    -1.0 2  253 199 
 HEL  HZ EP       1139  2.21                             113     0.1 7  290 257 
 HEL  HN ES   3   1139 34.15                             113    -0.9 2  290 257 
 RREF BZ EP   2   1139  8.12                             110     0.5 3  335 232 
 RREF BN ES   3   1139 44.38                             110    -0.4 2  335 232 
 RREF BZ I        1139 51.19        10.7 0.49                           335 232 
 ANIL BN ES   3   1139 50.65                             108    -0.5 2  370 227 
 ANIL BZ I        1139 58.94        17.6 0.17                           370 227 
 PRA  HZ EP   2   1139 13.99                             106    -0.4 3  400 212 
 PRA  HN ES   3   1139 55.97                             106    -0.9 1  400 212 
 PRA  HZ I        1139 59.74         9.9 0.42                           400 212 
                                                                                
