 2010 12 8 1716 31.0 L   6.825 -73.116140.6  RSN 13 0.4 2.5LRSN                1
 GAP=138        0.78       4.0     6.1  7.9 -0.1308E+02  0.1007E+02  0.5199E+01E
 Epicentro: LOS SANTOS - SANTANDER                                             3
 ACTION:UP  11-01-14 15:23 OP:pat  STATUS:               ID:20101208171631 L   I
 2010-12-08-1712-01S.COL___134                                                 6
 STAT SP IPHASW D HRMM SECON CODA AMPLIT PERI AZIMU VELO SNR AR TRES W  DIS CAZ7
 BTL  SZ EP       1716 50.46                             172     0.510   20 302 
 BAR2 SZ IP       1716 50.28                             169     0.210   27 196 
 BAR2 SZ ES   2   1717  4.59                             169    -0.4 5   27 196 
 BAR2 SZ I        1717  6.28       112.2 0.28                            27 196 
 GIR2 SZ EP       1716 50.33                             168     0.310   29 343 
 GUE  SZ EP       1716 55.41                             139     0.410  113  11 
 GRA  SZ EP       1716 55.01                             137    -0.510  122  16 
 GRA  SZ ES   1   1717 14.10                             137    -0.5 7  122  16 
 GRA  SZ I        1717 16.98        46.2 0.25                           122  16 
 OCA  SZ EP       1716 58.59                             129    -0.1 9  158 352 
 OCA  SZ I        1717 24.10        59.0 0.23                           158 352 
 YOP  SZ EP   1   1717  0.76                             125    -0.1 7  180 155 
 YOP  SZ I        1717  1.48        18.5 0.42                           180 155 
 YOP  SN ES   3   1717 24.00                             125    -0.1 2  180 155 
 NOR  SZ EP       1717  6.71                             117    -0.2 8  239 234 
 NOR  SN ES   1   1717 34.70                             117    -0.3 6  239 234 
 CHI  HZ EP   1   1717  8.43                             116    -0.4 6  252 196 
 CHI  HN ES   2   1717 38.63                             116     0.3 4  252 196 
 CHI  HZ I        1717 41.29        11.5 0.55                           252 196 
 HEL  HZ EP   2   1717 12.10                             114     0.7 4  276 255 
 HEL  HN ES   2   1717 42.46                             114    -0.5 4  276 255 
 HEL  HZ I        1717 50.47        22.7 0.21                           276 255 
 GUY  SZ EP   3   1717 14.38                             111    -0.5 2  306 235 
 GUY  SN ES   2   1717 49.39                             111     0.3 4  306 235 
 GUY  SZ I        1717 57.61        27.8 0.24                           306 235 
 RREF HZ EP   2   1717 18.03                             110     0.6 3  326 229 
 RREF HN ES   3   1717 53.85                             110     0.2 2  326 229 
 RREF HZ I        1718  2.53        14.9 0.30                           326 229 
 PRA  HZ EP       1717 24.44                             106    -0.4 6  396 210 
 PRA  HN ES   2   1718  6.64                             106    -0.2 3  396 210 
                                                                                
