 2012 12 8 1123 45.8 L   6.804 -73.130140.1  RSN 10 0.4 2.1LRSN                1
 GAP=185        1.04       3.1     5.1  7.6  0.1125E+01  0.1353E+02 -0.3025E+01E
 Epicentro: LOS SANTOS - SANTANDER                                             3
 ACTION:UPD 13-01-04 14:26 OP:ep   STATUS:               ID:20121208112345 L   I
 2012-12-08-1120-00M.COL___243                                                 6
 STAT SP IPHASW D HRMM SECON CODA AMPLIT PERI AZIMU VELO AIN AR TRES W  DIS CAZ7
 BAR2 SZ EP       1124  5.05                             170    0.3310 24.1 194 
 BAR2 SZ ES       1124 19.55                             170    0.0410 24.1 194 
 BAR2 SZ I        1124 20.69        25.5 0.22                          24.1 194 
 GIR2 SZ EP       1124  5.15                             167    0.4010 31.2 347 
 RUS  HZ EP       1124  9.12                             142    0.1510  101 177 
 RUS  HN ES       1124 27.00                             142   -0.0810  101 177 
 RUS  HN I        1124 29.31         8.8 0.22                           101 177 
 PTB  HZ EP       1124 11.76                             130   -0.66 9  150 259 
 PTB  HN ES       1124 32.69                             130   -0.54 9  150 259 
 PTB  HN I        1124 35.71        18.1 0.26                           150 259 
 OCA  HN ES       1124 34.89                             128   -0.45 9  160 353 
 OCA  HN I        1124 38.32        28.2 0.20                           160 353 
 ZAR  HZ EP       1124 18.70                             121    0.72 8  205 292 
 ZAR  HN ES       1124 43.52                             121    0.40 8  205 292 
 ZAR  HN I        1124 48.68        14.1 0.14                           205 292 
 SML  HZ EP       1124 21.47                             116   -0.63 8  244 335 
 SML  HN ES       1124 50.54                             116    0.08 8  244 335 
 SML  HN I        1125  1.44        13.6 0.10                           244 335 
 CHI  HN ES       1124 52.55                             116    0.08 8  249 196 
 CHI  HN I        1124 55.10         5.2 0.20                           249 196 
 HEL  HE ES       1124 57.72                             113    0.55 8  274 256 
 HEL  HN I        1125  4.22         6.2 0.34                           274 256 
 PRA  HE ES       1125 20.19                             105   -0.74 6  393 210 
 PRA  HE I        1125 26.15         3.5 0.52                           393 210 
                                                                                
