 2010  8 8 1712 26.1 L   6.812 -73.036142.7  RSN  4 0.1 1.4LRSN                1
 GAP=213        0.35       5.7    10.5  6.3  0.4323E+02 -0.3194E+02 -0.1481E+02E
 Epicentro: CEPITA - SANTANDER                                                 3
 ACTION:UP  10-09-07 10:53 OP:vdl  STATUS:               ID:20100808171226 L   I
 2010-08-08-1709-45S.COL___125                                                 6
 STAT SP IPHASW D HRMM SECON CODA AMPLIT PERI AZIMU VELO SNR AR TRES W  DIS CAZ7
 BAR2 SZ EP   1   1712 45.49                             168     0.0 7   29 214 
 BAR2 SZ I        1712 45.99         7.0 0.28                            29 214 
 BAR2 SZ ES   2   1713  0.43                             168    -0.2 5   29 214 
 GIR2 SZ EP   1   1712 45.59                             166     0.1 7   34 330 
 BRR  HZ EP   1   1712 47.39                             149    -0.2 7   82 294 
 BRR  HZ I        1712 49.34         9.4 0.17                            82 294 
 BRR  HN ES   2   1713  4.45                             149     0.2 5   82 294 
 RUS  HZ EP   1   1712 49.69                             143     0.1 7  102 183 
 RUS  HN ES   2   1713  8.01                             143     0.0 5  102 183 
 RUS  HZ I        1713 11.40         2.3 0.25                           102 183 
                                                                                
