 2015  3 8 1453 24.5 L   6.788 -73.168143.6  RSN  7 0.5 2.4LRSN                1
 GAP=144        1.32       4.9     6.8  7.9 -0.5682E+01  0.7182E+01  0.3401E-01E
 Epicentro: LOS SANTOS - SANTANDER                                             3
 ACTION:UPD 15-04-30 16:24 OP:nd   STATUS:               ID:20150308145324 L   I
 OLDACT:REG 15-03-08 22:56 OP:carl STATUS:               ID:20150308144748     3
 2015-03-08-1447-48M.COL___287                                                 6
 STAT SP IPHASW D HRMM SECON CODA AMPLIT PERI AZIMU VELO AIN AR TRES W  DIS CAZ7
 BAR2 EZ EP       1453 44.03                             171    0.1810 21.7 184 
 BAR2 EZ ES       1453 58.22                             171   -0.7110 21.7 184 
 BAR2 EZ I        1453 59.75        38.5 0.18            172           21.7 184 
 BRR  HZ EP       1453 45.93                             153    0.5910 69.7 300 
 BRR  HN ES       1454  2.59                             153    1.0010 69.7 300 
 PAM  SZ EP       1453 46.91                             150    0.2610 79.9  40 
 PAM  SN ES       1454  3.84                             150   -0.0810 79.9  40 
 PAM  SZ I        1454  5.90        56.8 0.52            150           79.9  40 
 PTB  HZ EP       1453 51.09                             132    0.03 9  145 259 
 PTB  HN ES       1454 11.46                             132   -0.31 9  145 259 
 PTB  HZ I        1454 14.07        23.7 0.10            132            145 259 
 OCA  HZ EP       1453 52.40                             129   -0.35 9  161 354 
 OCA  HN ES   4   1454 17.00                             129    2.22 0  161 354 
 OCA  HZ I        1454 19.18        38.4 0.64            129            161 354 
 SML  HZ EP       1454  0.56                             117   -0.47 8  244 336 
 SML  HE ES       1454 28.90                             117   -0.62 8  244 336 
 SML  HZ I        1454 32.33        27.1 0.26            117            244 336 
 CHI  HZ EP       1454  2.56                             117    0.68 8  247 195 
 CHI  HN ES       1454 30.36                             117   -0.67 8  247 195 
 CHI  HZ I        1454 35.72         7.5 0.26            117            247 195 
                                                                                
