 2010  4 8 1314 12.0 L   6.721 -73.100146.0  RSN  4 0.3 2.0LRSN                1
 GAP=269        0.40       7.0     6.7  5.9 -0.7995E+01  0.4862E+01  0.1908E+02E
 Epicentro: JORDAN - SANTANDER                                                 3
 ACTION:UPD 10-08-24 09:58 OP:vdl  STATUS:               ID:20100408131412 L   I
 2010-04-08-1310-28S.COL___097                                                 6
 STAT SP IPHASW D HRMM SECON CODA AMPLIT PERI AZIMU VELO AIN AR TRES W  DIS CAZ7
 BAR2 SZ IP       1314 31.43                             173    -0.110   17 213 
 BAR2 SZ ES   1   1314 46.85                             173     0.1 7   17 213 
 BRR  HZ EP   3   1314 33.66                             150     0.0 2   80 302 
 BRR  HN ES   2   1314 50.72                             150     0.1 5   80 302 
 RREF BZ EP   3   1314 57.47                             111    -0.5 2  320 231 
 RREF BE ES   2   1315 33.40                             111    -0.4 3  320 231 
 RREF BZ I        1315 40.91         3.3 0.36                           320 231 
 PRA  HZ EP   2   1315  5.52                             107     0.6 3  387 211 
 PRA  HN ES   3   1315 47.06                             107     0.9 1  387 211 
 PRA  HZ I        1315 51.51         3.3 0.26                           387 211 
                                                                                
