 2014 10 8 1725  1.1 L   6.906 -73.377113.1  RSN  6 0.7 1.6LRSN                1
 GAP=168        1.33       6.5     7.8 10.6  0.1811E+02  0.8065E+01 -0.9654E+01E
 Epicentro: SAN VICENTE DE CHUCURI - SANTANDER                                 3
 ACTION:UPD 14-11-29 23:47 OP:nd   STATUS:               ID:20141008172501 L   I
 OLDACT:REG 14-10-08 22:19 OP:fm   STATUS:               ID:20141008171743     3
 2014-10-08-1717-43M.COL___294                                                 6
 STAT SP IPHASW D HRMM SECON CODA AMPLIT PERI AZIMU VELO AIN AR TRES W  DIS CAZ7
 BAR2 SZ EP   1   1725 17.73                             159    0.25 8 40.8 148 
 BAR2 SZ ES   1   1725 30.21                             159   -0.00 8 40.8 148 
 BRR  HZ EP   1   1725 17.42                             158    0.18 8 43.2 301 
 BRR  HN ES   1   1725 30.50                             158    0.71 8 43.2 301 
 BRR  HZ I        1725 32.43         6.6 0.32            155           43.2 301 
 RUS  HZ EP       1725 23.33                             131    0.0610  117 164 
 RUS  HE ES       1725 40.25                             131   -0.2810  117 164 
 PTB  HZ EP       1725 22.57                             129   -0.9510  126 251 
 PTB  HN ES       1725 40.77                             129   -0.2010  126 251 
 PTB  HZ I        1725 43.59         8.0 0.46            129            126 251 
 SML  HZ EP   1   1725 33.71                             112   -0.12 6  223 340 
 SML  HE ES   1   1725 59.42                             112    0.10 6  223 340 
 SML  HZ I        1726  5.19         6.3 0.24            112            223 340 
 GUY2CHZ EP   1   1725 44.10                             106    2.17 6  288 230 
                                                                                
