 2011  7 8 1437 32.2 L   6.740 -73.051141.1  RSN  5 0.2 2.0LRSN                1
 GAP=207        0.46       4.7     5.4  4.4 -0.1828E+02 -0.2421E+01  0.1178E+01E
 Epicentro: ARATOCA - SANTANDER                                                3
 ACTION:UPD 12-07-25 13:59 OP:epov STATUS:               ID:20110708143732 L   I
 2011-07-08-1434-13S.COL___140                                                 6
 STAT SP IPHASW D HRMM SECON CODA AMPLIT PERI AZIMU VELO AIN AR TRES W  DIS CAZ7
 BAR2 SZ EP   2   1437 51.71                             171    0.47 5 21.9 222 
 BAR2 SZ ES   1   1438  5.94                             171   -0.15 8 21.9 222 
 BAR2 SZ I        1438 10.27        14.1 0.55                          21.9 222 
 BRR  HZ EP   1   1437 53.42                             148   -0.19 8 83.5 299 
 BRR  HE ES   1   1438 10.31                             148    0.00 8 83.5 299 
 BRR  HZ I        1438 14.18        23.9 0.12                          83.5 299 
 BRI  SZ EP   1   1437 55.94                             140    0.05 8  112  15 
 GRA  SZ EP       1437 57.17                             135   -0.1810  129  12 
 GRA  SZ I        1437 58.77        15.4 0.30                           129  12 
 GRA  SZ ES   2   1438 17.54                             135    0.58 5  129  12 
 NOR  SZ EP   1   1438  8.32                             117    0.12 6  240 237 
 NOR  SN ES   1   1438 36.35                             117    0.07 6  240 237 
                                                                                
