 2017  7 8 1025 14.2 L   6.795 -73.146146.6  RSN 17 0.4 2.1LRSN                1
 GAP=100        1.03       4.1     3.1  5.8 -0.6139E+00  0.1878E+01  0.8343E+01E
 Epicentro: LOS SANTOS - SANTANDER                                             3
 ACTION:UPD 17-08-30 15:31 OP:rebc STATUS:               ID:20170708102514 L   I
 OLDACT:UP  17-07-08 22:20 OP:edw  STATUS:               ID:20170708101740     3
 OLDACT:UP  17-07-08 22:19 OP:edw  STATUS:               ID:20170708101740     3
 OLDACT:REG 17-07-08 21:10 OP:edw  STATUS:               ID:20170708101740     3
 2017-07-08-1018-00M.COL___368                                                 6
 STAT SP IPHASW D HRMM SECON CODA AMPLIT PERI AZIMU VELO AIN AR TRES W  DIS CAZ7
 BAR2 EZ EP     D 1025 33.64                             171   -0.3210 22.8 190 
 BAR2 EZ ES       1025 49.15                             171   -0.1910 22.8 190 
 BAR2 EZ I        1025 50.38        40.1 0.22            168           22.8 190 
 BRR  HZ EP     D 1025 35.58                             153    0.0910 71.4 299 
 BRR  HN ES       1025 52.86                             153    0.7910 71.4 299 
 BRR  HZ I        1025 56.47        26.7 0.38            151           71.4 299 
 PAM  EZ EP     C 1025 36.68                             151    0.1110 77.8  39 
 PAM  EN ES       1025 54.06                             151    0.0810 77.8  39 
 PAM  EZ I        1025 55.93        37.1 0.46            155           77.8  39 
 PTB  HZ EP   9   1025 40.49                             132   -0.78 0  148 259 
 PTB  HN ES       1026  1.02                             133   -0.55 9  148 259 
 PTB  HZ I        1026  3.56         5.7 0.16            131            148 259 
 TAM  HZ IP     D 1025 41.92                             131   -0.05 9  155 105 
 SPBC HZ EP       1025 42.09                             129   -0.67 9  163 219 
 SPBC HN ES   1   1026  4.48                             129   -0.53 7  163 219 
 SPBC HZ I        1026  9.22        36.4 0.36            128            163 219 
 YPLC HZ EP     D 1025 43.95                             127   -0.10 9  176 151 
 YPLC HN ES       1026  7.54                             127    0.24 9  176 151 
 YPLC HZ I        1026 11.35         9.2 0.24            127            176 151 
 ZAR  HZ EP   4   1025 47.45                             122    0.69 0  204 292 
 ZAR  HN ES       1026 11.11                             122   -1.01 9  204 292 
 ZAR  HZ I        1026 17.50        12.9 0.26            122            204 292 
 NOR  HZ EP       1025 50.27                             119    0.29 8  234 235 
 NOR  HN ES       1026 18.01                             119    0.14 8  234 235 
 NOR  HZ I        1026 23.34         8.3 0.16            118            234 235 
 ROSC BZ EP   4   1025 54.20                             117    1.84 0  252 211 
 ROSC BN ES   4   1026 24.51                             117    2.42 0  252 211 
 ROSC BZ I        1026 27.70        14.2 0.50            117            252 211 
 HEL  HZ EP   4   1025 55.69                             115    1.21 0  272 256 
 HEL  HN ES       1026 26.56                             115    0.69 8  272 256 
 HEL  HZ I        1026 32.82         6.1 0.28            115            272 256 
 URE  HN ES   4   1026 24.81                             114   -2.64 0  284 292 
 GUY2CHZ EP   4   1025 58.83                             112    0.98 0  301 235 
 GUY2CHN ES   4   1026 33.14                             112    1.27 0  301 235 
 GUY2CHZ I        1026 39.88         6.8 0.34                           301 235 
 PTGC HZ EP   9   1025 56.70                             112   -1.38 0  308 159 
 PTGC HN ES       1026 30.73                             112   -0.16 7  308 159 
 CBOC HZ EP   4   1026  2.06                             110    0.89 0  333 252 
 CBOC HN ES       1026 37.84                             110    0.07 7  333 252 
 CBOC HZ I        1026 43.86         2.4 0.28            110            333 252 
 ORTC HZ EP       1026  8.66                             106    0.52 6  395 216 
 ORTC HN ES       1026 50.32                             106    0.14 6  395 216 
 ORTC HZ I        1027  1.17         4.4 0.16            107            395 216 
 SJC  HZ EP   4   1026  7.78                             106   -2.10 0  410 327 
 SJC  HN ES   4   1026 48.62                             106   -4.66 0  410 327 
 SJC  HZ I        1026 55.83         3.4 0.64            106            410 327 
 MACC HZ EP   4   1026 20.21                             102   -2.70 0  520 189 
 MACC HN ES   4   1027 11.26                             102   -5.21 0  520 189 
 MACC HZ I        1027 17.35         1.4 0.54            102            520 189 
                                                                                
