 2013  8 8 1918 10.2 L   6.755 -73.160142.0  RSN  5 0.4 2.3LRSN                1
 GAP=150        0.86       6.3     6.3  7.9 -0.1705E+02 -0.3124E+01  0.1187E+02E
 Epicentro: LOS SANTOS - SANTANDER                                             3
 ACTION:UPD 14-01-14 09:00 OP:ep   STATUS:               ID:20130808191810 L   I
 OLDACT:REG 13-08-08 16:48 OP:mh   STATUS:               ID:20130808191748     3
 2013-08-08-1917-48M.COL___230                                                 6
 STAT SP IPHASW D HRMM SECON CODA AMPLIT PERI AZIMU VELO AIN AR TRES W  DIS CAZ7
 BAR2 SZ EP       1918 29.25                             172    0.0210 18.2 188 
 BAR2 SZ ES   1   1918 43.94                             172   -0.18 7 18.2 188 
 BAR2 SZ I        1918 45.28        27.3 0.16            170           18.2 188 
 BRR  HZ EP   1   1918 31.21                             152    0.25 7 72.4 303 
 BRR  HN ES       1918 47.72                             152    0.5210 72.4 303 
 BRR  HN I        1918 52.14        88.7 0.18            149           72.4 303 
 PAM  SZ EP   1   1918 32.28                             149    0.01 7 82.2  38 
 PAM  SN ES   2   1918 48.92                             149   -0.60 5 82.2  38 
 PAM  SN I        1918 49.96        37.5 0.24            153           82.2  38 
 PTB  HZ EP       1918 36.04                             132   -0.55 9  145 261 
 PTB  HN ES   1   1918 56.57                             132   -0.65 7  145 261 
 PTB  HN I        1919  2.34        25.0 0.46            131            145 261 
 SPBC HZ EP   1   1918 38.25                             129    0.34 7  158 220 
 SPBC HN ES       1918 59.80                             129    0.25 9  158 220 
 SPBC HN I        1919  3.75        30.1 0.44            130            158 220 
                                                                                
