 2015  2 8 1902 56.6 L   6.786 -73.202137.7  RSN  5 0.3 1.6LRSN                1
 GAP=130        0.93       4.8     4.5  6.8 -0.1897E+01  0.3942E+01  0.1570E+01E
 Epicentro: ZAPATOCA - SANTANDER                                               3
 ACTION:UPD 15-04-30 21:24 OP:nd   STATUS:               ID:20150208190256 L   I
 OLDACT:REG 15-02-08 20:36 OP:cam  STATUS:               ID:20150208185745     3
 2015-02-08-1857-45M.COL___296                                                 6
 STAT SP IPHASW D HRMM SECON CODA AMPLIT PERI AZIMU VELO AIN AR TRES W  DIS CAZ7
 BAR2 EZ EP       19 3 15.35                             171    0.1510 21.5 174 
 BAR2 EZ ES       19 3 29.82                             171    0.0910 21.5 174 
 BAR2 EZ I        19 3 31.59         9.1 0.48            172           21.5 174 
 BRR  HZ EP       19 3 16.99                             153    0.4010 66.6 302 
 BRR  HN ES       19 3 32.75                             153    0.5410 66.6 302 
 BRR  HN I        19 3 37.18        17.8 0.16            151           66.6 302 
 PAM  SZ EP       19 3 18.19                             147   -0.0910 82.7  42 
 PAM  SN ES       19 3 34.70                             147   -0.5110 82.7  42 
 PAM  SZ I        19 3 36.81         5.1 0.16            152           82.7  42 
 RUS  HZ EP       19 3 19.73                             142    0.2610 99.6 172 
 RUS  HN ES       19 3 37.23                             142   -0.1010 99.6 172 
 RUS  HZ I        19 3 38.97         5.5 0.22            146           99.6 172 
 PTB  HZ EP       19 3 22.07                             131   -0.23 9  141 259 
 PTB  HN ES       19 3 41.77                             131   -0.60 9  141 259 
 PTB  HZ I        19 3 47.92         6.0 0.20            132            141 259 
                                                                                
