 2016 10 8 1213  2.4 L   6.829 -73.217127.8  RSN  4 0.2 1.3LRSN                1
 GAP=126        0.55       2.7     3.1  4.8  0.7777E+00  0.6681E+01 -0.1802E+01E
 Epicentro: ZAPATOCA - SANTANDER                                               3
 ACTION:UPD 16-11-09 19:17 OP:rebc STATUS:               ID:20161008121302 L   I
 OLDACT:REG 16-10-08 23:21 OP:lv   STATUS:               ID:20161008120742     3
 2016-10-08-1208-00M.COL___363                                                 6
 STAT SP IPHASW D HRMM SECON CODA AMPLIT PERI AZIMU VELO AIN AR TRES W  DIS CAZ7
 BAR2 EZ EP       1213 19.56                             168   -0.4110 26.4 172 
 BAR2 EZ ES       1213 33.50                             168   -0.1510 26.4 172 
 BAR2 EZ I        1213 35.46         6.9 0.19            169           26.4 172 
 PAM  EZ EP       1213 22.92                             146   -0.0410 80.4  45 
 PAM  EN ES       1213 39.15                             146    0.1810 80.4  45 
 PAM  EZ I        1213 40.99         3.6 0.20            150           80.4  45 
 RUS  HZ EP       1213 24.86                             139    0.0910  105 172 
 RUS  HE ES       1213 42.41                             139    0.2210  105 172 
 RUS  HZ I        1213 44.38         2.1 0.25            142            105 172 
 ZAR  HZ EP       1213 32.92                             119    0.07 9  196 292 
 ZAR  HN ES       1213 56.68                             119    0.09 9  196 292 
 ZAR  HZ I        1214  0.73         2.4 0.18            121            196 292 
                                                                                
