 2013 12 8 1611 10.9 L   6.801 -73.182132.2  RSN  6 0.4 1.2LRSN                1
 GAP=132        0.81       4.5     7.4  8.2 -0.1198E+01  0.1249E+02 -0.1082E+02E
 Epicentro: LOS SANTOS - SANTANDER                                             3
 ACTION:UPD 14-01-13 10:16 OP:ep   STATUS:               ID:20131208161110 L   I
 OLDACT:REG 13-12-08 14:29 OP:cam  STATUS:               ID:20131208161000     3
 2013-12-08-1610-00M.COL___285                                                 6
 STAT SP IPHASW D HRMM SECON CODA AMPLIT PERI AZIMU VELO AIN AR TRES W  DIS CAZ7
 BAR2 SZ EP       1611 28.78                             169   -0.0610 23.1 180 
 BAR2 SZ ES       1611 42.38                             169   -0.4910 23.1 180 
 BAR2 SZ I        1611 44.58         8.0 0.30            169           23.1 180 
 BRR  HZ EP   2   1611 30.50                             151    0.17 5 67.7 300 
 PAM  SZ EP       1611 31.63                             147   -0.1710 79.9  42 
 PAM  SN ES   1   1611 48.76                             147    0.62 7 79.9  42 
 PAM  SZ I        1611 49.11         2.4 0.22            149           79.9  42 
 RUS  HZ EP   1   1611 33.31                             140   -0.01 7  101 174 
 RUS  HN ES       1611 51.13                             140    0.2810  101 174 
 RUS  HZ I        1611 52.82         2.7 0.24            142            101 174 
 ZAR  HN ES   2   1612  7.29                             120    0.91 4  200 293 
 SML  HN ES   2   1612 13.76                             114   -0.65 4  242 336 
                                                                                
