 2013 12 8 1622 30.5 L   6.007 -74.070 87.6  RSN  4 0.2 1.5LRSN                1
 GAP=227        0.46       4.6     3.3 12.2  0.2995E+01  0.1534E+02  0.3136E+02E
 Epicentro: LA BELLEZA - SANTANDER                                             3
 ACTION:UPD 14-01-13 10:16 OP:ep   STATUS:               ID:20131208162230 L   I
 OLDACT:UP  13-12-08 16:38 OP:cam  STATUS:               ID:20131208162000     3
 OLDACT:REG 13-12-08 14:30 OP:cam  STATUS:               ID:20131208162000     3
 2013-12-08-1620-00M.COL___285                                                 6
 STAT SP IPHASW D HRMM SECON CODA AMPLIT PERI AZIMU VELO AIN AR TRES W  DIS CAZ7
 PTB  HZ EP       1622 45.89                             137   -0.0310 72.7 324 
 RUS  HZ EP   1   1622 50.24                             125    0.18 7  110  97 
 BAR2 SZ EP   1   1622 50.67                             122    0.16 7  118  57 
 BAR2 SZ ES       1623  5.96                             122   -0.1610  118  57 
 BAR2 SZ I        1623  6.42         7.7 0.40            121            118  57 
 BRR  HZ EP       1622 51.10                             120   -0.1910  128  18 
 BRR  HN ES       1623  7.70                             120    0.1910  128  18 
 BRR  HZ I        1623 10.32         6.7 0.30            118            128  18 
                                                                                
