 2013 10 8 1116 38.7 L   6.784 -73.155144.0  RSN 11 0.4 2.1LRSN                1
 GAP=136        0.92       3.3     3.8  5.7 -0.1397E+01  0.6895E+01  0.1666E+01E
 Epicentro: LOS SANTOS - SANTANDER                                             3
 ACTION:UPD 13-11-25 09:20 OP:ep   STATUS:               ID:20131008111638 L   I
 OLDACT:REG 13-10-08 15:08 OP:nd   STATUS:               ID:20131008110959     3
 2013-10-08-1109-59M.COL___273                                                 6
 STAT SP IPHASW D HRMM SECON CODA AMPLIT PERI AZIMU VELO AIN AR TRES W  DIS CAZ7
 BAR2 SZ EP       1116 58.29                             171    0.1710 21.4 188 
 BAR2 SZ ES       1117 13.24                             171    0.0010 21.4 188 
 BAR2 SZ I        1117 16.18        41.7 0.44            169           21.4 188 
 BRR  HZ EP       1117  0.26                             152    0.5610 71.2 300 
 BRR  HN ES   2   1117 16.49                             152    0.45 5 71.2 300 
 BRR  HZ I        1117 23.33        12.9 0.22            150           71.2 300 
 PAM  SZ EP       1117  1.08                             150    0.1910 79.4  39 
 PAM  SN ES       1117 17.94                             150   -0.2310 79.4  39 
 PAM  SZ I        1117 20.55        13.6 0.50            156           79.4  39 
 RUS  HZ IP     D 1117  2.19                             144   -0.0010 98.9 175 
 RUS  HN ES       1117 19.96                             144   -0.5310 98.9 175 
 RUS  HZ I        1117 22.15         9.7 0.38            148           98.9 175 
 PTB  HZ EP       1117  5.00                             132   -0.44 9  146 259 
 PTB  HN ES       1117 26.14                             132   -0.13 9  146 259 
 PTB  HZ I        1117 33.68        20.4 0.56            133            146 259 
 SPBC HZ EP       1117  7.24                             129    0.33 9  161 219 
 SPBC HN ES       1117 29.82                             129    0.94 9  161 219 
 SPBC HZ I        1117 35.15        23.1 0.16            131            161 219 
 ZAR  HZ EP       1117 10.70                             122   -0.34 9  204 293 
 ZAR  HN ES       1117 36.02                             122   -0.22 9  204 293 
 ZAR  HZ I        1117 44.97        15.1 0.26            124            204 293 
 NOR  HZ EP       1117 14.20                             118    0.03 8  233 235 
 NOR  HN ES       1117 41.39                             118   -0.41 8  233 235 
 NOR  HZ I        1117 46.03        13.3 0.20            121            233 235 
 SML  HZ EP   4   1117 14.94                             117   -0.46 0  245 336 
 SML  HN ES   4   1117 42.87                             117   -1.12 0  245 336 
 SML  HZ I        1117 46.91        37.6 0.24            120            245 336 
 CHI  HZ EP       1117 16.05                             117   -0.07 8  247 195 
 CHI  HN ES       1117 45.06                             117   -0.22 8  247 195 
 CHI  HZ I        1117 51.40         4.3 0.70            121            247 195 
 GUY2CHZ EP   4   1117 23.22                             112    1.16 0  299 235 
 GUY2CHN ES   4   1117 57.46                             112    1.62 0  299 235 
 GUY2CHZ I        1118  5.17        11.5 0.78                           299 235 
 SJC  HZ EP   4   1117 32.48                             105   -1.88 0  410 327 
 SJC  HN ES   4   1118 12.97                             105   -4.77 0  410 327 
                                                                                
