 2013  7 8 1028 56.0 L   6.834 -73.130141.7  RSN 11 0.5 2.0LRSN                1
 GAP=139        1.17       3.6     5.1  6.8 -0.4495E+01  0.5197E+01 -0.3584E+01E
 Epicentro: LOS SANTOS - SANTANDER                                             3
 ACTION:UPD 13-08-12 10:36 OP:ep   STATUS:               ID:20130708102856 L   I
 OLDACT:REG 13-07-08 15:18 OP:stll STATUS:               ID:20130708102850     3
 2013-07-08-1028-50M.COL___224                                                 6
 STAT SP IPHASW D HRMM SECON CODA AMPLIT PERI AZIMU VELO AIN AR TRES W  DIS CAZ7
 BAR2 SZ EP       1029 15.44                             169    0.2110 27.3 192 
 BAR2 SZ ES       1029 30.43                             169    0.2010 27.3 192 
 BAR2 SZ I        1029 31.43         8.7 0.36            169           27.3 192 
 GIR2 SZ EP       1029 15.26                             168    0.1610 28.0 346 
 BRR  HZ EP       1029 17.04                             152    0.3410 71.1 295 
 BRR  HN ES       1029 33.56                             152    0.7110 71.1 295 
 BRR  HN I        1029 36.83        13.8 0.44            149           71.1 295 
 RUS  HZ EP       1029 19.49                             142   -0.1310  104 177 
 RUS  HN ES       1029 37.63                             142   -0.4110  104 177 
 RUS  HN I        1029 40.16         5.7 0.38            146            104 177 
 GRA  SZ EP       1029 20.91                             137    0.3710  122  17 
 GRA  SZ ES       1029 39.33                             137   -0.3610  122  17 
 CAPV BZ EP       1029 22.64                             132   -0.06 9  145  38 
 PTB  HZ EP       1029 22.17                             131   -0.70 9  150 258 
 PTB  HN ES       1029 43.15                             131   -0.67 9  150 258 
 PTB  HN I        1029 48.69        21.5 0.48            131            150 258 
 OCA  HN ES       1029 44.94                             129   -0.31 9  157 352 
 OCA  HN I        1029 52.05        31.4 0.26            130            157 352 
 ZAR  HZ EP       1029 29.40                             121    1.19 9  204 291 
 NOR  HZ EP       1029 31.97                             117    0.09 8  238 234 
 NOR  HN ES       1029 59.90                             117    0.03 8  238 234 
 NOR  HN I        1030  4.51        14.3 0.22            119            238 234 
 SML  HZ EP       1029 31.71                             117   -0.41 8  241 335 
 SML  HN ES       1029 59.85                             117   -0.43 8  241 335 
 SML  HN I        1030  6.18        16.8 0.30            118            241 335 
                                                                                
