 2017  3 8 1135 56.6 L   6.713 -73.440107.3  RSN  5 0.4 1.4LRSN                1
 GAP=142        1.14       5.0     5.0  8.2  0.8573E+01  0.1103E+02 -0.3583E+00E
 Epicentro: EL CARMEN - SANTANDER                                              3
 ACTION:UPD 17-05-25 18:37 OP:jn   STATUS:               ID:20170308113556 L   I
 OLDACT:DUP 17-03-08 21:50 OP:ar   STATUS:               ID:20170308112741d    3
 OLDACT:UP  17-03-08 21:49 OP:ar   STATUS:               ID:20170308112740     3
 OLDACT:REG 17-03-08 20:43 OP:ar   STATUS:               ID:20170308112740     3
 2017-03-08-1128-00M.COL___329                                                 6
 STAT SP IPHASW D HRMM SECON CODA AMPLIT PERI AZIMU VELO AIN AR TRES W  DIS CAZ7
 BAR2 EZ IP     C 1136 11.77                             163   -0.1410 31.4 115 
 BAR2 EZ ES       1136 24.21                             163    0.3810 31.4 115 
 BAR2 EZ I        1136 25.13         8.8 0.20            164           31.4 115 
 BRR  HZ EP       1136 11.61                             152   -0.9710 53.0 325 
 BRR  HN ES       1136 24.82                             152   -0.2110 53.0 325 
 BRR  HZ I        1136 25.59        10.1 0.20            152           53.0 325 
 RUS  HZ EP       1136 16.46                             134   -0.2210 98.9 156 
 RUS  HN ES       1136 32.45                             134    0.1210 98.9 156 
 RUS  HZ I        1136 33.62         4.4 0.22            136           98.9 156 
 PAM  EZ EP       1136 17.99                             132    0.5710  107  50 
 PAM  EN ES       1136 33.54                             132   -0.0910  107  50 
 PAM  EZ I        1136 35.76         5.0 0.26            133            107  50 
 ZAR  HZ EP       1136 24.27                             116    0.18 9  179 299 
 ZAR  HN ES       1136 46.05                             116    0.54 9  179 299 
 ZAR  HZ I        1136 48.61         4.4 0.10            117            179 299 
                                                                                
