 2016  8 8 1930 25.0 L   6.806 -73.171141.2  RSN  7 0.4 1.8LRSN                1
 GAP=133        0.97       4.5     4.1  6.8 -0.3273E+01  0.1117E+02 -0.3312E+01E
 Epicentro: LOS SANTOS - SANTANDER                                             3
 ACTION:UPD 16-10-29 15:33 OP:rebc STATUS:               ID:20160808193025 L   I
 OLDACT:REG 16-08-08 20:41 OP:lv   STATUS:               ID:20160808192759     3
 2016-08-08-1927-59S.COL___343                                                 6
 STAT SP IPHASW D HRMM SECON CODA AMPLIT PERI AZIMU VELO AIN AR TRES W  DIS CAZ7
 BAR2 EZ IP       1930 43.87                             170   -0.1910 23.7 183 
 BAR2 EZ ES       1930 58.72                             170   -0.2310 23.7 183 
 BAR2 EZ I        1930 59.93        14.5 0.10                          23.7 183 
 PAM  EZ EP       1930 46.81                             150    0.0310 78.7  41 
 PAM  EE ES       1931  3.91                             150    0.1210 78.7  41 
 PAM  EZ I        1931  5.71         6.5 0.21                          78.7  41 
 RUS  HZ EP       1930 47.92                             143   -0.4210  101 175 
 RUS  HN ES       1931  7.18                             143    0.6110  101 175 
 RUS  HZ I        1931  8.37         6.8 0.32                           101 175 
 PTB  HZ EP       1930 50.70                             131   -0.63 9  145 258 
 PTB  HN ES       1931 11.55                             131   -0.35 9  145 258 
 PTB  HZ I        1931 15.18         9.8 0.14                           145 258 
 ZAR  HZ EP       1930 57.63                             122    0.80 9  201 292 
 ZAR  HN ES       1931 21.86                             122    0.18 9  201 292 
 ZAR  HZ I        1931 29.21        10.2 0.28                           201 292 
 NOR  HZ EP       1931  0.32                             118    0.08 8  233 234 
 NOR  HE ES       1931 28.00                             118    0.25 8  233 234 
 NOR  HZ I        1931 33.85         5.5 0.22                           233 234 
 GUY2CHZ EP   9   1931 10.35                             112    2.19 0  299 234 
 GUY2CHE ES       1931 44.19                                    0.15 7  299 234 
 GUY2CHZ I        1931 50.68         3.2 0.28                           299 234 
                                                                                
