 2012  4 8 1113 41.2 L   6.792 -73.117147.8  RSN  8 0.4 1.8LRSN                1
 GAP=141        0.92       5.8     5.4  8.9 -0.6266E-01  0.7183E+01  0.4158E+01E
 Epicentro: LOS SANTOS - SANTANDER                                             3
 ACTION:UPD 12-07-05 11:51 OP:tino STATUS:               ID:20120408111341 L   I
 2012-04-08-1110-00M.COL___196                                                 6
 STAT SP IPHASW D HRMM SECON CODA AMPLIT PERI AZIMU VELO AIN AR TRES W  DIS CAZ7
 BAR2 SZ EP       1114  1.02                             171    -0.110   23 198 
 BAR2 SZ I        1114 16.26        10.5 0.94                            23 198 
 BRR  HZ EP       1114  2.99                             152     0.210   74 298 
 BRR  HN ES   1   1114 19.65                             152     0.1 7   74 298 
 BRR  HZ I        1114 23.98        33.4 0.16                            74 298 
 PAM  SZ EP       1114  3.86                             152     0.310   76  37 
 PAM  SN ES   1   1114 20.78                             152    -0.2 7   76  37 
 RUS  HZ EP       1114  5.51                             144     0.410  100 178 
 RUS  HN ES   2   1114 23.19                             144    -0.5 5  100 178 
 RUS  HZ I        1114 24.86         5.6 0.46                           100 178 
 PTB  HZ EP       1114  7.88                             132    -0.7 9  151 259 
 PTB  HN ES   2   1114 29.89                             132    -0.1 5  151 259 
 PTB  HZ I        1114 31.16         8.6 0.26                           151 259 
 OCA  SZ EP       1114  9.48                             130    -0.3 9  162 352 
 ZAR  HZ EP   2   1114 13.95                             122    -0.2 4  207 292 
 ZAR  HN ES   1   1114 40.08                             122     0.3 6  207 292 
 HEL  HZ EP   2   1114 22.83                             115     1.0 4  275 256 
                                                                                
