 2017 12 8 1058 50.2 L   6.766 -73.055149.7  RSN  4 0.3 1.5LRSN                1
 GAP=184        0.78       7.1     6.4  6.5 -0.3228E+02  0.7462E+01  0.2265E+01E
 Epicentro: LOS SANTOS - SANTANDER                                             3
 ACTION:UPD 18-01-04 13:18 OP:rebc STATUS:               ID:20171208105850 L   I
 OLDACT:UP  17-12-08 22:36 OP:leo  STATUS:               ID:20171208105745d    3
 OLDACT:UP  17-12-08 22:31 OP:leo  STATUS:               ID:20171208105745d    3
 OLDACT:DUP 17-12-08 22:29 OP:leo  STATUS:               ID:20171208105745d    3
 2017-12-08-1058-00M.COL___473                                                 6
 STAT SP IPHASW D HRMM SECON CODA AMPLIT PERI AZIMU VELO AIN AR TRES W  DIS CAZ7
 BAR2 EZ EP       1059  9.99                             171   -0.3310 23.8 216 
 BAR2 EZ ES       1059 25.74                             171   -0.2710 23.8 216 
 BAR2 EZ I        1059 28.15         7.9 0.32            171           23.8 216 
 PAM  EZ EP       1059 13.02                             152    0.3410 74.6  32 
 PAM  EN ES       1059 30.34                             152    0.1310 74.6  32 
 PAM  EZ I        1059 32.08         4.7 0.22            153           74.6  32 
 PTB  HZ EP       1059 17.82                             131   -0.51 9  157 261 
 PTB  HE ES       1059 40.45                             131    0.19 9  157 261 
 SPBC HZ EP       1059 19.53                             129    0.18 9  167 222 
 SPBC HN ES       1059 42.39                             129    0.30 9  167 222 
                                                                                
