 2016  2 8 1917  4.1 L   6.836 -73.186147.4  RSN  7 0.3 1.7LRSN                1
 GAP=242        0.58       3.1     3.1  4.1  0.2964E+01  0.2860E+01  0.9987E+00E
 Epicentro: ZAPATOCA - SANTANDER                                               3
 ACTION:UPD 16-03-04 21:24 OP:rebc STATUS:               ID:20160208191704 L   I
 OLDACT:REG 16-02-08 22:02 OP:ak   STATUS:               ID:20160208190748     3
 2016-02-08-1907-48M.COL___329                                                 6
 STAT SP IPHASW D HRMM SECON CODA AMPLIT PERI AZIMU VELO AIN AR TRES W  DIS CAZ7
 BAR2 EZ EP       1917 24.06                             169    0.0210 26.9 179 
 BAR2 EZ ES       1917 39.79                             169    0.2210 26.9 179 
 BAR2 EZ I        1917 41.80         8.7 0.38            167           26.9 179 
 RUS  HZ EP       1917 27.96                             143   -0.4010  105 174 
 RUS  HN ES       1917 47.27                             143    0.0110  105 174 
 RUS  HZ I        1917 48.48         4.9 0.40            144            105 174 
 PTB  HZ EP       1917 30.84                             133   -0.08 9  144 257 
 PTB  HN ES       1917 51.62                             133   -0.19 9  144 257 
 PTB  HZ I        1917 53.55         3.8 0.13            132            144 257 
 SPBC HZ EP       1917 32.75                             129   -0.04 9  164 217 
 SPBC HN ES       1917 55.18                             129    0.03 9  164 217 
 SPBC HZ I        1917 57.73        11.5 0.20            129            164 217 
 ZAR  HZ EP   2   1917 37.00                             124    0.89 4  198 292 
 ZAR  HE ES       1918  0.86                             124   -0.19 9  198 292 
 ZAR  HZ I        1918  8.35         7.1 0.26            123            198 292 
 NOR  HZ EP       1917 40.29                             119    0.47 8  233 233 
 NOR  HN ES       1918  7.78                             119    0.12 8  233 233 
 NOR  HZ I        1918 15.80         3.2 0.16            119            233 233 
 CHI  HZ EP       1917 42.30                             117    0.08 8  251 194 
 CHI  HN ES       1918 11.80                             117   -0.12 8  251 194 
 CHI  HZ I        1918 15.01         1.8 0.60            118            251 194 
                                                                                
