 2014  7 8 1359 53.4 L   6.678 -73.570117.2  RSN  6 0.4 2.0LRSN                1
 GAP=121        1.07       4.5     4.9  8.2  0.6896E+01  0.1568E+02  0.3302E+01E
 Epicentro: EL CARMEN - SANTANDER                                              3
 ACTION:UPD 15-03-16 20:42 OP:nd   STATUS:               ID:20140708135953 L   I
 OLDACT:UP  14-07-09 00:23 OP:cam  STATUS:               ID:20140708135748     3
 OLDACT:REG 14-07-08 23:35 OP:cam  STATUS:               ID:20140708135748     3
 2014-07-08-1357-48M.COL___271                                                 6
 STAT SP IPHASW D HRMM SECON CODA AMPLIT PERI AZIMU VELO AIN AR TRES W  DIS CAZ7
 BAR2 SZ EP       14 0 10.19                             158   -0.1210 43.9 102 
 BAR2 SZ ES       14 0 23.27                             158   -0.2510 43.9 102 
 BAR2 SZ I        14 0 24.30        73.2 0.64            161           43.9 102 
 BRR  HZ EP       14 0  9.97                             155   -0.2810 49.9 342 
 BRR  HN ES       14 0 23.96                             155    0.5510 49.9 342 
 BRR  HZ I        14 0 24.63        24.9 0.12            157           49.9 342 
 PTB  HZ EP       14 0 13.06                             137   -0.6010 99.2 261 
 PTB  HN ES       14 0 29.08                             137   -0.4010 99.2 261 
 PTB  HZ I        14 0 30.17        24.5 0.64            136           99.2 261 
 RUS  HZ EP   4   14 0 16.11                             136    1.54 0  102 148 
 RUS  HN ES       14 0 31.16                             136    0.0510  102 148 
 RUS  HZ I        14 0 33.35         7.7 0.64            138            102 148 
 SPBC HZ EP       14 0 17.02                             129    0.8410  126 206 
 SPBC HN ES       14 0 34.05                             129    0.0710  126 206 
 SPBC HZ I        14 0 38.43        17.0 0.42            130            126 206 
 ZAR  HZ EP       14 0 20.18                             121   -0.10 9  168 302 
 ZAR  HE ES       14 0 41.64                             121    0.37 9  168 302 
 ZAR  HZ I        14 0 46.60        13.7 0.26            122            168 302 
 OCA  HN ES   4   14 0 40.85                             120   -1.97 0  175   9 
                                                                                
