 2014 12 8 1003 29.6 L   6.611 -73.726 10.7  RSN  5 0.6 1.1LRSN                1
 GAP=144        1.44       6.1     3.7 12.6  0.5531E+01  0.2728E+01 -0.5213E+02E
 Epicentro: EL CARMEN - SANTANDER                                              3
 ACTION:UPD 15-02-10 17:01 OP:nd   STATUS:               ID:20141208100329 L   I
 OLDACT:DUP 14-12-08 21:28 OP:fm   STATUS:               ID:20141208095740d    3
 OLDACT:REG 14-12-08 20:16 OP:fm   STATUS:               ID:20141208095738     3
 2014-12-08-0957-38M.COL___309                                                 6
 STAT SP IPHASW D HRMM SECON CODA AMPLIT PERI AZIMU VELO AIN AR TRES W  DIS CAZ7
 BAR2 SZ EP       10 3 40.37                              97    0.7410 60.1  92 
 PTB  HZ EP       10 3 42.68                              95    0.1110 81.2 264 
 PTB  HE ES       10 3 51.97                              95   -0.7110 81.2 264 
 PTB  HZ I        10 3 55.98        11.4 0.14             47           81.2 264 
 RUS  HZ EP   1   10 3 46.41                              94   -0.50 7  107 138 
 RUS  HE ES       10 3 59.46                              94   -0.9410  107 138 
 RUS  HZ I        10 4  0.94         1.8 0.52             47            107 138 
 SPBC HZ EP       10 3 47.84                              93    0.4210  113 200 
 SPBC HN ES       10 4  1.99                              93    0.6810  113 200 
 SPBC HZ I        10 4  5.03         4.9 0.24             47            113 200 
 ZAR  HZ EP       10 3 54.21                              56    0.08 9  159 308 
 ZAR  HN ES       10 4 13.18                              56   -0.08 9  159 308 
 ZAR  HZ I        10 4 16.15         4.0 0.28             47            159 308 
                                                                                
