 2011  6 8 1045 54.6 L   6.782 -73.107141.3  RSN  4 0.2 1.6LRSN                1
 GAP=142        0.54       3.8     5.6  6.1 -0.4580E+00 -0.2341E+01  0.4705E+00E
 Epicentro: LOS SANTOS - SANTANDER                                             3
 ACTION:UP  11-07-14 19:04 OP:ep   STATUS:               ID:20110608104554 L   I
 2011-06-08-1041-40S.COL___121                                                 6
 STAT SP IPHASW D HRMM SECON CODA AMPLIT PERI AZIMU VELO SNR AR TRES W  DIS CAZ7
 BAR2 SZ ES   1   1046 28.12                             170    -0.4 7   23 202 
 BAR2 SZ I        1046 29.61        12.1 0.18                            23 202 
 PAM  SZ EP   1   1046 16.19                             150    -0.1 7   76  36 
 PAM  SN ES   1   1046 33.30                             150     0.1 7   76  36 
 BRR  HZ EP   1   1046 15.38                             150    -0.1 7   76 298 
 BRR  HZ I        1046 17.99        10.7 0.37                            76 298 
 BRR  HN ES   1   1046 32.07                             150     0.2 7   76 298 
 RUS  HZ EP   1   1046 17.75                             143     0.0 7   98 178 
 RUS  HN ES   1   1046 35.99                             143     0.2 7   98 178 
 RUS  HZ I        1046 37.32         5.3 0.43                            98 178 
                                                                                
