 2015  9 8 1327  7.3 L   6.773 -73.161142.7  RSN  7 0.3 1.6LRSN                1
 GAP=148        0.71       3.1     3.3  4.9 -0.2240E+01  0.5161E+01  0.1933E+01E
 Epicentro: LOS SANTOS - SANTANDER                                             3
 ACTION:UPD 15-10-28 16:25 OP:cam  STATUS:               ID:20150908132707 L   I
 OLDACT:UP  15-09-08 21:26 OP:ar   STATUS:               ID:20150908131749     3
 OLDACT:REG 15-09-08 20:30 OP:stll STATUS:               ID:20150908131749     3
 2015-09-08-1317-49M.COL___362                                                 6
 STAT SP IPHASW D HRMM SECON CODA AMPLIT PERI AZIMU VELO AIN AR TRES W  DIS CAZ7
 BAR2 EZ EP       1327 26.54                             172    0.0110 20.1 187 
 BAR2 EZ ES       1327 41.16                             172   -0.3410 20.1 187 
 BAR2 EZ I        1327 44.22         8.2 0.26            171           20.1 187 
 PAM  EZ EP       1327 29.49                             149    0.0610 80.8  39 
 PAM  EN ES       1327 46.83                             149    0.1710 80.8  39 
 PAM  EZ I        1327 49.46         6.6 0.38            153           80.8  39 
 PTB  HZ EP       1327 33.58                             132   -0.27 9  146 260 
 PTB  HE ES       1327 55.13                             132    0.60 9  146 260 
 PTB  HZ I        1327 59.32         4.7 0.44            133            146 260 
 ZAR  HZ EP   2   1327 39.69                             122    0.15 4  204 293 
 ZAR  HN ES       1328  4.41                             122   -0.25 9  204 293 
 ZAR  HZ I        1328 11.47         3.5 0.26            123            204 293 
 CHI  HZ EP       1327 44.30                             117   -0.19 8  245 195 
 CHI  HN ES       1328 13.67                             117    0.19 8  245 195 
 CHI  HZ I        1328 19.25         2.5 0.52            119            245 195 
 SML  HZ EP       1327 43.92                             117   -0.09 8  246 336 
 SML  HE ES   4   1328 10.98                             117   -1.64 0  246 336 
 SML  HZ I        1328 14.72         6.7 0.10            119            246 336 
 GUY2CHZ EP       1327 50.92                             112    0.48 7  298 235 
 GUY2CHE ES       1328 23.61                             112   -0.46 7  298 235 
 GUY2CHZ I        1328 32.78         2.4 0.56                           298 235 
                                                                                
