 2010 11 8 1700 46.6 L   6.777 -73.038142.0  RSN  6 0.2 2.0LRSN                1
 GAP=194        0.52       4.4     7.3  5.9  0.1521E+02 -0.9472E+01  0.3598E+01E
 Epicentro: CEPITA - SANTANDER                                                 3
 ACTION:UP  10-12-17 16:51 OP:REBC STATUS:               ID:20101108170046 L   I
 2010-11-08-1658-00S.COL___124                                                 6
 STAT SP IPHASW D HRMM SECON CODA AMPLIT PERI AZIMU VELO SNR AR TRES W  DIS CAZ7
 BAR2 SZ EP       17 1  6.00                             169     0.110   26 218 
 BAR2 SZ ES   2   17 1 20.87                             169     0.0 5   26 218 
 BAR2 SZ I        17 1 22.60        30.8 0.73                            26 218 
 BTL  SZ EP       17 1  6.02                             168     0.010   30 302 
 BRR  HZ EP       17 1  7.77                             148    -0.310   83 296 
 BRR  HN ES       17 1 24.99                             148     0.110   83 296 
 BRR  HZ I        17 1 37.47        18.8 0.49                            83 296 
 RUS  HZ EP       17 1  9.91                             144     0.110   98 183 
 RUS  HN ES   2   17 1 27.59                             144    -0.3 5   98 183 
 RUS  HZ I        17 1 29.35         7.3 0.19                            98 183 
 OCA  SZ ES   2   17 1 37.26                             128     0.0 5  165 349 
 OCA  SZ I        17 1 40.37        14.0 0.17                           165 349 
 RREF HZ EP   1   17 1 33.56                             110     0.1 5  329 231 
 RREF HZ I        17 2 15.80         4.2 0.54                           329 231 
                                                                                
