 2010  5 8 1757 41.7 L   6.788 -72.983144.1  RSN  6 0.3 1.7LRSN                1
 GAP=175        0.65       4.3     7.7  8.1 -0.7371E+01 -0.2308E+02 -0.5959E+00E
 Epicentro: CEPITA - SANTANDER                                                 3
 ACTION:UP  10-08-24 10:03 OP:vdl  STATUS:               ID:20100508175741 L   I
 2010-05-08-1755-58S.COL___105                                                 6
 STAT SP IPHASW D HRMM SECON CODA AMPLIT PERI AZIMU VELO SNR AR TRES W  DIS CAZ7
 BAR2 SZ EP   2   1758  0.98                             167    -0.3 5   31 226 
 BAR2 SZ ES   2   1758 16.46                             167    -0.1 5   31 226 
 BRR  HZ IP       1758  3.67                             147     0.010   88 294 
 BRR  HZ I        1758  3.94        22.8 0.14                            88 294 
 BRR  HN ES   1   1758 20.86                             147     0.0 7   88 294 
 RUS  HZ EP   1   1758  5.02                             144    -0.1 7  100 186 
 RUS  HN ES   2   1758 23.80                             144     0.3 5  100 186 
 RUS  HZ I        1758 24.93         3.9 0.21                           100 186 
 BRI  SZ EP   1   1758  5.61                             142     0.5 7  105  11 
 GUE  SZ EP   1   1758  6.46                             139     0.3 7  115   3 
 GRA  SZ EP   1   1758  5.93                             137    -0.6 7  123   9 
 GRA  SZ ES   1   1758 25.77                             137    -0.1 7  123   9 
                                                                                
