 2012  8 8 1349  9.6 L   6.766 -73.119146.1  RSN  6 0.3 1.9LRSN                1
 GAP=142        0.70       4.1     4.0  6.7  0.3315E+01  0.6376E+01 -0.2338E+01E
 Epicentro: LOS SANTOS - SANTANDER                                             3
 ACTION:UPD 12-09-10 11:55 OP:ep   STATUS:               ID:20120808134909 L   I
 2012-08-08-1347-44M.COL___213                                                 6
 STAT SP IPHASW D HRMM SECON CODA AMPLIT PERI AZIMU VELO AIN AR TRES W  DIS CAZ7
 BAR2 SZ EP   1   1349 29.22                             172   -0.04 7 20.4 200 
 BAR2 SZ ES   1   1349 44.32                             172   -0.24 7 20.4 200 
 BAR2 SZ I        1349 45.25        30.3 0.14                          20.4 200 
 BRR  HZ EP   1   1349 31.21                             151    0.12 7 75.7 300 
 BRR  HN ES   1   1349 47.92                             151    0.11 7 75.7 300 
 BRR  HZ I        1349 49.34        18.9 0.19                          75.7 300 
 PAM  SZ EP   1   1349 32.21                             151    0.24 7 78.5  36 
 PAM  SZ I        1349 32.43        20.5 0.19                          78.5  36 
 PAM  SN ES   1   1349 49.09                             151   -0.29 7 78.5  36 
 RUS  HZ EP   1   1349 33.14                             145   -0.01 7 96.6 178 
 RUS  HN ES       1349 51.77                             145    0.2910 96.6 178 
 RUS  HZ I        1349 53.80         5.4 0.31                          96.6 178 
 PTB  HZ EP   1   1349 36.12                             132   -0.72 7  150 260 
 PTB  HE ES   1   1349 57.65                             132   -0.41 7  150 260 
 PTB  HZ I        1349 59.84         9.1 0.13                           150 260 
 ZAR  HN ES       1350  8.67                             122    0.46 8  208 293 
 ZAR  HZ I        1350 13.67         4.6 0.19                           208 293 
                                                                                
