 2017 11 8 1940 17.7 L   6.783 -73.193143.3  RSN  9 0.3 2.0LRSN                1
 GAP=108        0.77       2.7     2.8  4.6  0.8502E+00  0.4090E+01  0.2928E+01E
 Epicentro: ZAPATOCA - SANTANDER                                               3
 ACTION:UPD 17-12-12 19:53 OP:rebc STATUS:               ID:20171108194017 L   I
 OLDACT:REG 17-11-08 21:19 OP:mg   STATUS:               ID:20171108193741     3
 2017-11-08-1938-00M.COL___458                                                 6
 STAT SP IPHASW D HRMM SECON CODA AMPLIT PERI AZIMU VELO AIN AR TRES W  DIS CAZ7
 BAR2 EZ EP       1940 37.01                             171    0.0610 21.1 177 
 BAR2 EZ ES       1940 51.97                             171   -0.0210 21.1 177 
 BAR2 EZ I        1940 53.43      2663.1 0.03            170           21.1 177 
 PAM  EZ EP       1940 39.75                             149   -0.1610 82.2  41 
 PAM  EN ES       1940 57.35                             149    0.0910 82.2  41 
 PAM  EZ I        1940 59.00         9.7 0.52            153           82.2  41 
 RUS  HZ EP       1940 41.02                             144   -0.0510 99.2 173 
 RUS  HN ES       1940 59.23                             144   -0.0910 99.2 173 
 RUS  HZ I        1941  0.68         7.1 0.34            145           99.2 173 
 PTB  HZ EP       1940 43.60                             133   -0.33 9  142 259 
 PTB  HN ES       1941  4.36                             133   -0.06 9  142 259 
 PTB  HZ I        1941 10.21         3.6 0.06            132            142 259 
 YPLC HZ EP       1940 47.31                             126   -0.06 9  178 150 
 YPLC HN ES       1941 10.37                             126   -0.16 9  178 150 
 YPLC HZ I        1941 12.16         9.4 0.30            129            178 150 
 ZAR  HZ EP       1940 49.53                             122    0.01 9  200 293 
 ZAR  HN ES       1941 14.80                             122    0.42 9  200 293 
 ZAR  HZ I        1941 20.54         6.3 0.30            123            200 293 
 NOR  HZ EP       1940 52.87                             119    0.20 8  229 234 
 NOR  HN ES       1941 19.49                             119   -0.49 8  229 234 
 NOR  HZ I        1941 25.47         4.0 0.28            119            229 234 
 CHI  HZ EP       1940 55.11                             117    0.23 8  245 194 
 CHI  HN ES       1941 24.97                             117    1.06 8  245 194 
 CHI  HZ I        1941 27.51         1.9 0.34            118            245 194 
 PRA  HZ EP       1941 10.57                             106   -0.03 6  388 209 
 PRA  HN ES       1941 51.24                             106   -0.66 6  388 209 
 PRA  HZ I        1941 56.91         2.1 0.24            107            388 209 
                                                                                
