 2016  9 8 1523 27.8 L   5.919 -73.635119.3  RSN 11 0.3 2.0LRSN                1
 GAP= 92        0.77       2.1     2.1  4.3 -0.1201E+01  0.2308E+01 -0.1026E+01E
 Epicentro: BARBOSA - SANTANDER                                                3
 ACTION:UPD 17-08-17 21:08 OP:lp   STATUS:               ID:20160908152327 L   I
 OLDACT:REG 16-09-08 20:16 OP:lv   STATUS:               ID:20160908151739     3
 2016-09-08-1518-00M.COL___353                                                 6
 STAT SP IPHASW D HRMM SECON CODA AMPLIT PERI AZIMU VELO AIN AR TRES W  DIS CAZ7
 SPBC HZ EP       1523 45.14                             153   -0.2410 56.7 239 
 SPBC HE ES       1523 59.56                             153    0.4610 56.7 239 
 SPBC HZ I        1524  0.75        46.4 0.16            153           56.7 239 
 RUS  HZ IP     D 1523 46.01                             151   -0.2010 61.1  93 
 RUS  HN ES       1524  0.41                             151   -0.1810 61.1  93 
 BAR2 EZ EP       1523 47.82                             141    0.0210 89.7  34 
 BAR2 EZ ES       1524  3.68                             141    0.2610 89.7  34 
 PTB  HZ EP       1523 49.30                             133   -0.2210  114 307 
 PTB  HN ES       1524  6.23                             133   -0.2510  114 307 
 PTB  HZ I        1524  8.25        14.1 0.15            134            114 307 
 BRR  HZ EP       1523 50.92                             129   -0.2110  132 356 
 BRR  HN ES       1524  9.82                             129    0.4710  132 356 
 BRR  HZ I        1524 11.15        26.2 0.14            130            132 356 
 NOR  HZ EP       1523 52.12                             126   -0.11 9  142 254 
 NOR  HN ES       1524 11.31                             126    0.00 9  142 254 
 NOR  HZ I        1524 14.21        29.9 0.16            127            142 254 
 CHI  HZ EP       1523 52.84                             126    0.06 9  143 184 
 CHI  HN ES       1524 12.11                             126   -0.17 9  143 184 
 CHI  HZ I        1524 15.03         9.2 0.36            128            143 184 
 PAM  EZ EP       1523 57.62                             118    0.09 9  188  33 
 PAM  EN ES       1524 20.44                             118   -0.30 9  188  33 
 PAM  EZ I        1524 24.50         4.9 0.22            120            188  33 
 GUY2CHZ EP       1524  0.27                             116    0.75 8  206 248 
 GUY2CHE ES       1524 24.16                             116   -0.11 8  206 248 
 GUY2CHZ I        1524 31.33         8.4 0.48                           206 248 
 HEL  HZ EP       1524  0.29                             115    0.33 8  212 278 
 HEL  HE ES       1524 24.60                             115   -0.47 8  212 278 
 HEL  HZ I        1524 29.95         6.4 0.32            116            212 278 
 ZAR  HZ EP       1524  0.88                             114    0.43 8  220 322 
 ZAR  HE ES       1524 25.64                             114   -0.30 8  220 322 
 ZAR  HZ I        1524 27.74        10.8 0.26            115            220 322 
                                                                                
