 2012 12 8 1535 14.3 L   6.824 -73.128147.6  RSN 18 0.5 3.2LRSN 3.3WRSN        1
 SPEC AVERAGE  MO 14.0 ST 14.4 OM  2.6 f0 4.26 R0.3656 AL 2.74 WI 18.7 MW  3.3 3
 SPEC SD       MO  0.2 ST 13.3 OM  0.5 f0 1.02 R0.0870 AL      WI      MW  0.1 3
 GAP= 71        1.08       2.5     3.2  5.3 -0.2274E+00  0.5200E+01  0.1422E+01E
 Epicentro: LOS SANTOS - SANTANDER                                             3
 SPEC ZAR HH N MO 14.1 ST 37.3 OM  2.3 f0 5.99 R0.2454 AL 2.72 WI 22.9 MW  3.3 3
 SPEC ZAR HH N T153611 K 0.000 GD  252 VS 4.20 DE 3.20 Q0300.0 QA 0.60 VS 4.20 3
 SPEC PRA HH N MO 14.0 ST  3.6 OM  2.0 f0 2.92 R0.5034 AL 2.22 WI 25.2 MW  3.3 3
 SPEC PRA HH N T153648 K 0.000 GD  421 VS 4.20 DE 3.20 Q0300.0 QA 0.60 VS 4.20 3
 SPEC HEL HH N MO 13.9 ST  6.3 OM  2.0 f0 3.89 R0.3779 AL 3.15 WI 20.9 MW  3.2 3
 SPEC HEL HH N T153625 K 0.000 GD  312 VS 4.20 DE 3.20 Q0300.0 QA 0.60 VS 4.20 3
 SPEC OCA HH E MO 14.2 ST 28.3 OM  2.5 f0 4.94 R0.2976 AL 2.73 WI 13.8 MW  3.4 3
 SPEC OCA HH E T1536 4 K 0.000 GD  216 VS 4.20 DE 3.20 Q0300.0 QA 0.60 VS 4.20 3
 SPEC PAM SH E MO 13.7 ST  6.4 OM  2.1 f0 4.48 R0.3281 AL 2.72 WI 14.8 MW  3.1 3
 SPEC PAM SH E T153553 K 0.000 GD  165 VS 4.20 DE 3.20 Q0300.0 QA 0.60 VS 4.20 3
 SPEC CHI HH N MO 14.0 ST  4.7 OM  2.1 f0 3.33 R0.4414 AL 2.91 WI 14.6 MW  3.3 3
 SPEC CHI HH N T153620 K 0.000 GD  292 VS 4.20 DE 3.20 Q0300.0 QA 0.60 VS 4.20 3
 ACTION:UPD 13-01-04 14:26 OP:ep   STATUS:               ID:20121208153514 L   I
 2012-12-08-1530-00M.COL___243                                                 6
 STAT SP IPHASW D HRMM SECON CODA AMPLIT PERI AZIMU VELO AIN AR TRES W  DIS CAZ7
 BAR2 SZ IP       1535 34.15                             169   -0.0410 26.3 193 
 BAR2 SZ ES       1535 49.37                             169   -0.3510 26.3 193 
 BAR2 SZ I        1535 51.79       189.2 0.38                          26.3 193 
 GIR2 SZ EP       1535 34.29                             168    0.1810 29.1 346 
 PAM  SZ EP       1535 37.06                             152    0.5610 74.1  40 
 PAM  SN ES       1535 54.25                             152    0.4210 74.1  40 
 RUS  HZ EP       1535 38.00                             143   -0.3810  103 177 
 RUS  HN ES       1535 56.82                             143   -0.3710  103 177 
 RUS  HN I        1535 58.36        86.8 0.42                           103 177 
 PTB  HZ EP       1535 40.78                             132   -0.82 9  150 258 
 PTB  HN ES       1536  2.04                             132   -0.89 9  150 258 
 PTB  HN I        1536  7.56       398.9 0.30                           150 258 
 TAM  HZ EP       1535 42.29                             131    0.30 9  154 106 
 TAM  HN ES       1536  3.71                             131    0.10 9  154 106 
 OCA  HZ EP       1535 42.37                             130   -0.14 9  158 352 
 OCA  HN ES       1536  4.56                             130    0.03 9  158 352 
 OCA  HN I        1536 13.89       345.2 0.24                           158 352 
 ZAR  HZ IP       1535 46.86                             122   -0.06 9  205 291 
 ZAR  HN ES       1536 13.00                             122    0.62 9  205 291 
 ZAR  HN I        1536 18.34       198.8 0.58                           205 291 
 SML  HZ EP       1535 50.47                             118   -0.36 8  242 335 
 SML  HN ES       1536 19.26                             118   -0.09 8  242 335 
 SML  HN I        1536 23.55       151.1 0.30                           242 335 
 CHI  HZ EP       1535 52.09                             117   -0.31 8  252 195 
 CHI  HN ES       1536 21.98                             117   -0.16 8  252 195 
 CHI  HN I        1536 23.99        80.1 0.28                           252 195 
 ROSC BE ES       1536 23.61                             117    0.68 8  256 211 
 HEL  HZ EP       1535 55.85                             115    1.00 8  275 255 
 HEL  HN ES       1536 27.04                             115    0.53 8  275 255 
 HEL  HN I        1536 32.61        34.8 0.40                           275 255 
 VIL  SZ EP       1535 57.96                             112   -0.15 7  306 192 
 VIL  SE ES       1536 32.79                             112    0.49 7  306 192 
 VIL  SE I        1536 37.56        83.2 0.42                           306 192 
 RREF HZ EP   1   1536  0.98                             111    0.13 5  325 229 
 DBB  SZ EP       1536  1.64                             110   -0.38 7  341 274 
 COD  HZ EP   4   1536  2.56                             109    0.12 0  346 354 
 TOL  SZ EP       1536  3.62                             109    0.65 6  347 225 
 SDV  BZ EP   1   1536  3.29                             109   -0.73 5  357  50 
 PRA  HZ EP       1536  7.43                             106   -0.80 6  395 210 
 PRA  HN ES       1536 50.90                             106    0.58 6  395 210 
 PRA  HN I        1536 55.84        49.2 0.82                           395 210 
                                                                                
