 2010  8 8 1509 54.6 L   6.809 -73.079139.1  RSN  6 0.5 1.9LRSN                1
 GAP=166        1.00       6.9    13.8 10.7 -0.9224E+01 -0.8241E+01  0.7584E+01E
 Epicentro: LOS SANTOS - SANTANDER                                             3
 ACTION:UP  10-09-07 10:53 OP:vdl  STATUS:               ID:20100808150954 L   I
 2010-08-08-1507-33S.COL___125                                                 6
 STAT SP IPHASW D HRMM SECON CODA AMPLIT PERI AZIMU VELO SNR AR TRES W  DIS CAZ7
 BAR2 SZ EP       1510 13.61                                     0.210   27 206 
 BAR2 SZ I        1510 14.15        18.9 0.44                            27 206 
 BAR2 SZ ES   2   1510 27.49                             169    -0.7 5   27 206 
 GIR2 SZ EP   1   1510 12.63                             166    -0.8 7   32 337 
 GIR2 SZ ES   2   1510 27.70                             166    -0.5 5   32 337 
 BRR  HZ IP     C 1510 15.34                             149     0.010   77 295 
 BRR  HZ I        1510 15.62        23.9 0.15                            77 295 
 BRR  HE ES   2   1510 32.27                             149     0.7 5   77 295 
 RUS  HZ EP   1   1510 17.74                             142     0.0 7  101 180 
 RUS  HE ES   2   1510 36.56                             142     0.8 5  101 180 
 RUS  HZ I        1510 37.62         7.3 0.34                           101 180 
 GRA  SZ EP   1   1510 19.01                             136     0.1 7  123  14 
 GRA  SZ ES   2   1510 38.94                             136     0.9 5  123  14 
 GRA  SZ I        1510 40.02        14.3 0.25                           123  14 
 PRA  HZ EP   1   1510 48.43                             105     0.0 4  397 210 
                                                                                
