 2016  2 8 1511 10.0 L   6.808 -73.170139.6  RSN 13 0.4 2.1LRSN                1
 GAP=133        0.87       2.4     3.0  5.3 -0.1798E+01  0.7827E+01 -0.3099E+01E
 Epicentro: LOS SANTOS - SANTANDER                                             3
 ACTION:UPD 16-03-04 21:24 OP:rebc STATUS:               ID:20160208151110 L   I
 OLDACT:REG 16-02-08 21:46 OP:ak   STATUS:               ID:20160208150748     3
 2016-02-08-1507-48M.COL___331                                                 6
 STAT SP IPHASW D HRMM SECON CODA AMPLIT PERI AZIMU VELO AIN AR TRES W  DIS CAZ7
 BAR2 EZ EP       1511 28.96                             170    0.0410 23.9 183 
 BAR2 EZ ES       1511 43.38                             170   -0.2810 23.9 183 
 BAR2 EZ I        1511 44.71        19.5 0.14            171           23.9 183 
 PAM  EZ EP       1511 31.96                             149    0.3210 78.4  41 
 PAM  EN ES       1511 48.94                             149    0.4310 78.4  41 
 PAM  EZ I        1511 51.10        14.9 0.62            153           78.4  41 
 RUS  HZ EP       1511 32.78                             142   -0.4710  102 175 
 RUS  HN ES       1511 51.26                             142   -0.1210  102 175 
 PTB  HZ EP       1511 35.79                             131   -0.47 9  145 258 
 PTB  HN ES       1511 56.71                             131   -0.02 9  145 258 
 PTB  HZ I        1511 59.77        13.5 0.16            132            145 258 
 OCA  HZ EP       1511 37.99                             128    0.25 9  159 354 
 OCA  HN ES       1511 58.87                             128   -0.49 9  159 354 
 OCA  HZ I        1512  0.22        34.8 0.40            130            159 354 
 SPBC HZ EP       1511 37.94                             128   -0.02 9  162 218 
 SPBC HN ES       1511 59.91                             128    0.16 9  162 218 
 SPBC HZ I        1512  6.70         7.9 0.13            130            162 218 
 ZAR  HZ EP       1511 41.97                             121    0.20 9  201 292 
 ZAR  HN ES       1512  7.38                             121    0.84 9  201 292 
 ZAR  HZ I        1512 13.14         7.5 0.17            123            201 292 
 NOR  HN ES       1512 12.83                             117    0.16 8  233 234 
 NOR  HZ I        1512 16.03         5.6 0.28            119            233 234 
 SML  HZ EP       1511 45.88                             116   -0.21 8  242 336 
 SML  HN ES       1512 14.29                             116    0.07 8  242 336 
 SML  HZ E      D 1512 21.81                                            242 336 
 SML  HZ I        1512 21.83        13.6 0.09            118            242 336 
 HEL  HZ EP   2   1511 50.07                             114    0.41 4  270 255 
 HEL  HE ES       1512 20.44                             114   -0.14 8  270 255 
 URE  HZ EP       1511 50.26                             113   -0.21 7  281 292 
 URE  HE ES       1512 21.34                             113   -0.69 7  281 292 
 GUY2CHZ EP   2   1511 53.77                             111    0.61 4  300 234 
 GUY2CHN ES       1512 27.52                             111    0.71 7  300 234 
 GUY2CHZ I        1512 34.36         4.4 0.24                           300 234 
 DBB  SZ EP       1511 57.22                             108    0.29 7  337 274 
 DBB  SZ ES       1512 32.98                             108   -0.54 7  337 274 
 DBB  SZ I        1512 37.52        14.4 0.32            110            337 274 
                                                                                
