 2011  5 8 1044 39.3 L   6.775 -73.102142.4  RSN  8 0.2 1.8LRSN                1
 GAP=161        0.52       2.7     4.3  4.4 -0.4519E+01  0.2448E+01 -0.1588E+01E
 Epicentro: LOS SANTOS - SANTANDER                                             3
 ACTION:UP  11-06-29 08:51 OP:tino STATUS:               ID:20110508104439 L   I
 2011-05-08-1039-51S.COL___131                                                 6
 STAT SP IPHASW D HRMM SECON CODA AMPLIT PERI AZIMU VELO SNR AR TRES W  DIS CAZ7
 BAR2 SZ EP   1   1044 58.33                             171    -0.2 7   22 204 
 BAR2 SZ ES   1   1045 13.63                             171     0.2 7   22 204 
 BAR2 SZ I        1045 14.47        12.1 0.17                            22 204 
 BRR  HZ EP       1045  0.40                             150     0.010   77 299 
 BRR  HE ES   1   1045 17.05                             150     0.2 7   77 299 
 BRR  HZ I        1045 19.48        16.2 0.11                            77 299 
 RUS  HZ EP   1   1045  2.63                             144     0.1 7   98 179 
 RUS  HN ES   1   1045 20.50                             144    -0.1 7   98 179 
 RUS  HZ I        1045 23.02         4.5 0.16                            98 179 
 BRI  SZ EP   1   1045  3.23                             140     0.3 7  109  18 
 GRA  SZ EP   1   1045  4.09                             136    -0.3 7  127  15 
 GRA  SZ ES   1   1045 23.65                             136    -0.2 7  127  15 
 GRA  SZ I        1045 26.20         5.9 0.30                           127  15 
 OCA  SZ EP   1   1045  7.83                             128     0.2 7  164 352 
 OCA  SZ I        1045 31.87         8.8 0.17                           164 352 
 NOR  SZ EP   1   1045 14.87                             118    -0.2 6  237 236 
 NOR  SN ES   1   1045 42.72                             118    -0.3 6  237 236 
 RREF HZ EP   2   1045 26.19                             110     0.7 3  324 230 
 RREF HZ I        1046 11.28         4.2 0.31                           324 230 
                                                                                
