 2013  2 8 1834  0.5 L   5.965 -73.653119.7  RSN  4 0.3 1.6LRSN                1
 GAP=155        0.71       5.8     4.8 10.8 -0.1216E+02  0.4819E+01  0.2267E+02E
 Epicentro: VELEZ - SANTANDER                                                  3
 ACTION:UPD 13-03-12 09:31 OP:ep   STATUS:               ID:20130208183400 L   I
 2013-02-08-1830-00M.COL___241                                                 6
 STAT SP IPHASW D HRMM SECON CODA AMPLIT PERI AZIMU VELO AIN AR TRES W  DIS CAZ7
 RUS  HZ EP       1834 19.47                             150    0.3710 63.6  97 
 BAR2 SZ EP       1834 20.24                             142   -0.0710 86.7  37 
 BAR2 SZ ES       1834 35.44                             142   -0.3410 86.7  37 
 BAR2 SZ I        1834 36.19        16.3 0.16            137           86.7  37 
 BRR  HZ EP   1   1834 23.04                             130   -0.33 7  126 357 
 BRR  HE ES   1   1834 41.76                             130    0.53 7  126 357 
 BRR  HZ I        1834 49.20         8.3 0.45            124            126 357 
 NOR  HZ EP   1   1834 24.85                             126   -0.07 7  142 252 
 NOR  HN ES   1   1834 43.94                             126   -0.04 7  142 252 
 NOR  HZ I        1834 45.99         2.8 0.13            123            142 252 
                                                                                
