 2017  9 8 1935 15.8 L   6.781 -73.143151.2  RSN  4 0.2 1.5LRSN                1
 GAP=138        0.60       3.3     4.9  4.9 -0.2121E+00 -0.1478E+01  0.5643E+00E
 Epicentro: LOS SANTOS - SANTANDER                                             3
 ACTION:UPD 17-10-05 19:10 OP:rebc STATUS:               ID:20170908193515 L   I
 OLDACT:UP  17-09-11 16:29 OP:nlst STATUS:               ID:20170908193515 L   3
 OLDACT:UP  17-09-09 00:04 OP:dani STATUS:               ID:20170908192740     3
 OLDACT:REG 17-09-08 20:37 OP:lv   STATUS:               ID:20170908192740     3
 2017-09-08-1928-00M.COL___419                                                 6
 STAT SP IPHASW D HRMM SECON CODA AMPLIT PERI AZIMU VELO AIN AR TRES W  DIS CAZ7
 BAR2 EZ EP       1935 35.76                             172   -0.2910 21.4 192 
 BAR2 EZ ES       1935 51.48                             172   -0.3610 21.4 192 
 BAR2 EZ I        1935 53.41         3.9 0.28            171           21.4 192 
 BRR  HZ EP       1935 37.74                             153    0.1310 72.5 300 
 BRR  HN ES       1935 54.72                             153    0.1010 72.5 300 
 BRR  HZ I        1935 55.16        10.8 0.30            154           72.5 300 
 PAM  EZ EP       1935 38.71                             151    0.0310 78.8  38 
 PAM  EN ES       1935 56.64                             151    0.1210 78.8  38 
 RUS  HZ EP       1935 39.89                             145   -0.0610 98.5 176 
 RUS  HN ES       1935 59.10                             145    0.3210 98.5 176 
 RUS  HZ I        1935 59.61         3.4 0.27            146           98.5 176 
                                                                                
