 2016  7 8 1514 31.7 L   6.462 -72.954164.3  RSN  6 0.3 1.8LRSN                1
 GAP=284        0.77       6.0     6.5  6.2 -0.1749E+02  0.4121E+01 -0.1138E+01E
 Epicentro: MOGOTES - SANTANDER                                                3
 ACTION:UPD 17-03-29 16:48 OP:lp   STATUS:               ID:20160708151431 L   I
 OLDACT:REG 16-07-08 20:50 OP:edw  STATUS:               ID:20160708150748     3
 2016-07-08-1507-48M.COL___339                                                 6
 STAT SP IPHASW D HRMM SECON CODA AMPLIT PERI AZIMU VELO AIN AR TRES W  DIS CAZ7
 BAR2 EZ EP       1514 53.53                             170   -0.1810 29.1 300 
 BAR2 EZ ES       1515 10.89                             170    0.0410 29.1 300 
 BAR2 EZ I        1515 12.38         9.6 0.16            167           29.1 300 
 RUS  HZ EP   4   1514 52.19                             158   -3.12 0 64.5 193 
 BRR  HZ EP       1514 57.37                             144    0.0810  110 310 
 BRR  HN ES       1515 17.51                             144    0.2810  110 310 
 SPBC HE ES       1515 23.27                             135   -0.20 9  153 234 
 PTB  HZ EP       1515  2.26                             132    0.36 9  166 273 
 PTB  HN ES       1515 24.90                             132   -0.53 9  166 273 
 PTB  HZ I        1515 26.06         6.9 0.12            132            166 273 
 NOR  HN ES       1515 37.75                             122    0.49 8  234 245 
 ZAR  HZ EP       1515  8.69                             122   -0.33 8  239 299 
 ZAR  HE ES   4   1515 36.02                             122   -2.08 0  239 299 
 ZAR  HZ I        1515 41.14         5.1 0.21            121            239 299 
                                                                                
