 2015  9 8 1010 24.0 L   7.098 -73.226132.6  RSN  4 0.2 1.5LRSN                1
 GAP=262        0.46       3.9     3.5  4.3  0.6285E+01  0.1639E+01 -0.8233E+00E
 Epicentro: LEBRIJA - SANTANDER                                                3
 ACTION:UPD 15-10-28 16:25 OP:cam  STATUS:               ID:20150908101024 L   I
 OLDACT:REG 15-09-08 20:17 OP:stll STATUS:               ID:20150908100748     3
 2015-09-08-1007-48M.COL___353                                                 6
 STAT SP IPHASW D HRMM SECON CODA AMPLIT PERI AZIMU VELO AIN AR TRES W  DIS CAZ7
 BRR  HZ EP       1010 42.69                             157   -0.1010 53.7 271 
 BRR  HZ I        1010 42.89        16.9 0.12            154           53.7 271 
 BRR  HN ES       1010 57.41                             157   -0.0310 53.7 271 
 BAR2 EZ EP       1010 43.14                             156   -0.1210 56.1 175 
 BAR2 EZ ES       1010 58.47                             156    0.1910 56.1 175 
 BAR2 EZ I        1010 59.04         7.7 0.16            152           56.1 175 
 RUS  HN ES       1011  8.97                             132   -0.1010  134 173 
 RUS  HZ I        1011 11.07         2.1 0.34            130            134 173 
 PTB  HZ EP       1010 50.38                             128    0.28 9  149 246 
 PTB  HN ES       1011 10.33                             128   -0.11 9  149 246 
 PTB  HZ I        1011 13.31         4.4 0.20            126            149 246 
                                                                                
