 2015 10 8 1408  8.4 L   6.814 -73.165143.5  RSN 18 0.5 2.5LRSN                1
 GAP=133        1.15       2.7     4.1  5.4 -0.1719E+01  0.9367E+01  0.1080E+01E
 Epicentro: LOS SANTOS - SANTANDER                                             3
 ACTION:UPD 15-12-22 20:38 OP:cam  STATUS:               ID:20151008140808 L   I
 OLDACT:REG 15-10-08 21:27 OP:ak   STATUS:               ID:20151008135748     3
 2015-10-08-1357-48M.COL___343                                                 6
 STAT SP IPHASW D HRMM SECON CODA AMPLIT PERI AZIMU VELO AIN AR TRES W  DIS CAZ7
 BAR2 EZ EP       14 8 27.68                             170   -0.0810 24.6 185 
 BAR2 EZ ES       14 8 42.65                             170   -0.2310 24.6 185 
 BAR2 EZ I        14 8 44.19        46.6 0.28            167           24.6 185 
 BRR  HZ EP       14 8 29.42                             153    0.2910 68.6 298 
 BRR  HN ES       14 8 46.26                             153    0.9310 68.6 298 
 BRR  HZ I        14 8 50.61        43.8 0.24            149           68.6 298 
 PAM  EZ EP       14 8 30.61                             150    0.2510 77.6  41 
 PAM  EN ES       14 8 47.83                             150    0.3210 77.6  41 
 PAM  EZ I        14 8 49.87        59.0 0.44            157           77.6  41 
 RUS  HZ EP       14 8 31.88                             143   -0.1510  102 175 
 RUS  HN ES       14 8 50.07                             143   -0.4110  102 175 
 RUS  HZ I        14 8 51.54        40.1 0.36            145            102 175 
 OCA  HZ EP       14 8 36.42                             129    0.08 9  158 354 
 OCA  HE ES       14 8 57.63                             129   -0.53 9  158 354 
 OCA  HZ I        14 9  1.61        56.1 0.31            132            158 354 
 SPBC HZ EP       14 8 36.59                             129   -0.10 9  163 218 
 SPBC HN ES       14 8 58.47                             129   -0.31 9  163 218 
 SPBC HZ I        14 9  4.87        42.9 0.26            129            163 218 
 ZAR  HZ EP       14 8 41.41                             122    1.00 9  202 292 
 ZAR  HN ES       14 9  5.66                             122    0.26 9  202 292 
 ZAR  HZ I        14 9 11.35        21.8 0.29            123            202 292 
 NOR  HZ EP       14 8 44.02                             118    0.14 8  234 234 
 NOR  HN ES       14 9 11.55                             118   -0.03 8  234 234 
 NOR  HZ I        14 9 19.50        19.4 0.20            119            234 234 
 SML  HZ EP       14 8 44.07                             117   -0.55 8  241 336 
 SML  HN ES       14 9 12.12                             117   -0.78 8  241 336 
 SML  HZ I        14 9 18.01        31.9 0.07            119            241 336 
 CHI  HZ EP       14 8 45.92                             117   -0.13 8  250 195 
 CHI  HN ES       14 9 14.66                             117   -0.78 8  250 195 
 CHI  HZ I        14 9 21.42        13.4 0.34            119            250 195 
 ROSC BZ EP       14 8 46.57                             116    0.17 8  253 210 
 ROSC BN ES   4   14 9 17.91                             116    1.85 0  253 210 
 ROSC BZ I        14 9 22.23        28.0 0.40            118            253 210 
 URE  HZ EP       14 8 48.08                             113   -0.97 7  281 292 
 URE  HN ES   4   14 9 18.21                             113   -2.57 0  281 292 
 URE  HZ I        14 9 32.63        17.0 0.20            114            281 292 
 GUY2CHZ EP   1   14 8 52.56                             112    0.78 5  300 234 
 GUY2CHN ES       14 9 26.14                             112    0.49 7  300 234 
 GUY2CHZ I        14 9 37.91        14.4 0.46                           300 234 
 ELA  HZ EP   1   14 8 56.10                             110    1.04 5  329 229 
 ELA  HN ES       14 9 31.35                             110   -0.13 7  329 229 
 ELA  HZ I        14 9 46.91         9.2 0.36            111            329 229 
 CBOC HZ EP       14 8 55.55                             110    0.53 7  332 252 
 CBOC HN ES       14 9 30.82                             110   -0.58 7  332 252 
 DBB  SZ EP       14 8 55.10                             109   -0.40 7  337 274 
 DBB  SZ ES       14 9 31.28                             109   -0.98 7  337 274 
 DBB  SZ I        14 9 35.30        32.6 0.50            110            337 274 
 ANIL HZ EP       14 8 58.85                             108    0.80 6  357 224 
 ANIL HN ES   1   14 9 37.31                             108    0.52 5  357 224 
 ANIL HZ I        14 9 44.86        28.2 0.34            110            357 224 
 ORTC HZ EP       14 9  2.66                             106    0.44 6  395 216 
 SJC  HZ EP   4   14 9  0.66                             105   -2.91 0  407 327 
 SJC  HN ES   4   14 9 42.93                             105   -3.70 0  407 327 
 CRJC HZ EP   4   14 9  8.09                             103   -2.55 0  466   4 
 CRJC HE ES   4   14 9 56.09                             103   -3.12 0  466   4 
                                                                                
