 2012  5 8 1444  6.7 L   6.780 -73.117147.8  RSN 10 0.4 2.1LRSN                1
 GAP=141        0.70       4.6     4.7  7.3 -0.4943E+01  0.8468E+00  0.1815E+02E
 Epicentro: LOS SANTOS - SANTANDER                                             3
 ACTION:UP  12-07-05 12:03 OP:pat  STATUS:               ID:20120508144406 L   I
 2012-05-08-1440-00M.COL___192                                                 6
 STAT SP IPHASW D HRMM SECON CODA AMPLIT PERI AZIMU VELO SNR AR TRES W  DIS CAZ7
 BAR2 SZ EP   1   1444 26.46                             171    -0.1 7   22 199 
 BAR2 SZ ES   2   1444 41.88                             171    -0.1 5   22 199 
 BAR2 SZ I        1444 42.73        42.7 0.25                            22 199 
 BRR  HZ EP   1   1444 28.33                             152     0.1 7   75 299 
 BRR  HN ES   1   1444 45.70                             152     0.6 7   75 299 
 BRR  HZ I        1444 49.02        24.6 0.25                            75 299 
 PAM  SZ EP       1444 29.23                             151     0.110   77  37 
 PAM  SN ES   1   1444 46.30                             151    -0.3 7   77  37 
 RUS  HZ EP   1   1444 30.41                             145    -0.1 7   98 178 
 PTB  HZ EP   1   1444 33.29                             132    -0.8 7  150 260 
 PTB  HE ES   2   1444 54.80                             132    -0.6 5  150 260 
 PTB  HZ I        1444 56.79        11.5 0.27                           150 260 
 OCA  HN ES   2   1444 58.09                             130     0.3 5  163 352 
 ZAR  HN ES   2   1445  5.22                             122    -0.1 4  208 292 
 ZAR  HZ I        1445 10.53        12.7 0.30                           208 292 
 CHI  HZ EP   1   1444 44.62                             118     0.3 6  247 196 
 CHI  HN ES   2   1445 13.71                             118     0.0 4  247 196 
 CHI  HZ I        1445 19.75         5.4 0.32                           247 196 
 RREF HZ EP   2   1444 53.16                             111     0.1 3  323 230 
 RREF HN ES   2   1445 29.62                             111     0.4 3  323 230 
 RREF HZ I        1445 38.96         6.3 0.45                           323 230 
 PRA  HZ EP   1   1445  0.80                             107     0.6 4  392 210 
 PRA  HN ES   2   1445 42.31                             107     0.3 3  392 210 
                                                                                
