 2012  1 8 1958 23.1 L   6.808 -73.157141.3  RSN 10 0.4 2.0LRSN                1
 GAP=135        1.02       4.7     6.1  6.7 -0.2880E+01  0.8941E+01  0.7084E+01E
 Epicentro: LOS SANTOS - SANTANDER                                             3
 ACTION:UP  12-02-03 08:15 OP:REBC STATUS:               ID:20120108195823 L   I
 2012-01-08-1950-00M.COL___186                                                 6
 STAT SP IPHASW D HRMM SECON CODA AMPLIT PERI AZIMU VELO SNR AR TRES W  DIS CAZ7
 BAR2 SZ EP       1958 42.10                             170    -0.110   24 187 
 BAR2 SZ ES   1   1958 56.94                             170    -0.1 7   24 187 
 BAR2 SZ I        1958 59.62        19.6 0.48                            24 187 
 GIR2 SZ EP       1958 41.86                             167    -0.310   30 352 
 GIR2 SZ ES   1   1958 56.99                             167    -0.1 7   30 352 
 BRR  HZ IP     D 1958 43.68                             152     0.110   70 298 
 BRR  HZ I        1958 43.85        26.7 0.34                            70 298 
 BRR  HE ES   1   1959  0.52                             152     0.8 7   70 298 
 PAM  SZ EP       1958 44.53                             150    -0.310   78  41 
 PAM  SN ES   1   1959  1.65                             150    -0.1 7   78  41 
 RUS  HZ EP       1958 46.47                             143     0.010  102 175 
 RUS  HN ES   2   1959  4.77                             143     0.1 5  102 175 
 RUS  HZ I        1959  6.69         7.5 0.26                           102 175 
 PTB  HZ EP       1958 48.77                             131    -0.8 9  147 258 
 PTB  HN ES   2   1959  9.43                             131    -0.8 5  147 258 
 PTB  HZ I        1959 15.07         9.1 0.50                           147 258 
 OCA  SZ IP       1958 51.48                             129     0.6 9  159 354 
 OCA  SZ ES   2   1959 13.00                             129     0.3 5  159 354 
 OCA  SZ I        1959 18.33        11.5 0.27                           159 354 
 ZAR  HZ EP   2   1958 55.42                             121     0.4 4  203 292 
 ZAR  HN ES   2   1959 19.92                             121    -0.1 4  203 292 
 ZAR  HZ I        1959 25.47        23.6 0.46                           203 292 
 NOR  SZ EP       1958 58.55                             118     0.1 8  234 234 
 CHI  HZ EP       1959  1.03                             116     0.5 8  249 195 
 CHI  HE ES   2   1959 30.89                             116     1.1 4  249 195 
 CHI  HZ I        1959 37.96         4.9 0.38                           249 195 
                                                                                
