 2011  5 8 1054 13.0 L   6.793 -73.108149.1  RSN  8 0.2 1.8LRSN                1
 GAP=160        0.53       2.4     4.4  4.3 -0.3575E+01  0.1676E+01 -0.2343E+00E
 Epicentro: LOS SANTOS - SANTANDER                                             3
 ACTION:UP  11-06-29 08:51 OP:tino STATUS:               ID:20110508105413 L   I
 2011-05-08-1051-05S.COL___131                                                 6
 STAT SP IPHASW D HRMM SECON CODA AMPLIT PERI AZIMU VELO SNR AR TRES W  DIS CAZ7
 BAR2 SZ EP       1054 32.86                             171    -0.110   24 200 
 BAR2 SZ ES   1   1054 48.57                             171    -0.1 7   24 200 
 BAR2 SZ I        1054 49.63        18.3 0.23                            24 200 
 BRR  HZ EP       1054 34.85                             152     0.210   75 298 
 BRR  HZ I        1054 35.16        13.0 0.11                            75 298 
 BRR  HE ES   1   1054 51.87                             152     0.2 7   75 298 
 RUS  HZ EP   1   1054 36.79                             145    -0.2 7  100 178 
 RUS  HN ES   1   1054 55.72                             145     0.0 7  100 178 
 RUS  HZ I        1054 57.21         9.2 0.23                           100 178 
 BRI  SZ EP   1   1054 37.42                             142     0.3 7  108  19 
 BRI  SZ I        1054 59.03         6.9 0.09                           108  19 
 GRA  SZ EP   1   1054 38.65                             138     0.2 7  125  16 
 GRA  SZ ES   1   1054 58.47                             138     0.1 7  125  16 
 GRA  SZ I        1054 59.45        10.7 0.32                           125  16 
 OCA  SZ EP   1   1054 41.56                             130    -0.1 7  162 352 
 OCA  SZ ES   1   1055  3.48                             130    -0.6 7  162 352 
 OCA  SZ I        1055  9.77         7.0 0.16                           162 352 
 NOR  SZ EP   1   1054 49.00                             119    -0.2 6  238 235 
 NOR  SN ES   1   1055 17.50                             119     0.0 6  238 235 
 PRA  HZ EP   1   1055  6.97                             107     0.2 4  393 210 
                                                                                
