 2016  8 8 1431  1.0 L   6.815 -73.161144.6  RSN  9 0.4 1.7LRSN                1
 GAP=237        0.94       3.9     4.5  5.5  0.4267E+01  0.6358E+01  0.3984E+01E
 Epicentro: LOS SANTOS - SANTANDER                                             3
 ACTION:UPD 16-10-29 15:33 OP:rebc STATUS:               ID:20160808143101 L   I
 OLDACT:REG 16-08-08 20:10 OP:lv   STATUS:               ID:20160808142759     3
 2016-08-08-1427-59S.COL___343                                                 6
 STAT SP IPHASW D HRMM SECON CODA AMPLIT PERI AZIMU VELO AIN AR TRES W  DIS CAZ7
 BAR2 EZ EP       1431 20.28                             170   -0.2210 24.7 185 
 BAR2 EZ ES       1431 35.47                             170   -0.2510 24.7 185 
 BRR  HZ IP     D 1431 22.15                             153    0.2710 68.9 298 
 BRR  HN ES       1431 38.80                             153    0.6310 68.9 298 
 BRR  HZ I        1431 44.22         9.0 0.18                          68.9 298 
 RUS  HZ EP       1431 24.57                             143   -0.1810  102 175 
 RUS  HE ES       1431 43.57                             143    0.2910  102 175 
 RUS  HZ I        1431 44.09         9.0 0.26                           102 175 
 PTB  HZ EP       1431 27.08                             132   -0.65 9  146 258 
 PTB  HN ES       1431 47.98                             132   -0.61 9  146 258 
 PTB  HZ I        1431 51.11         5.6 0.14                           146 258 
 SPBC HZ EP       1431 29.29                             129   -0.12 9  163 218 
 SPBC HN ES       1431 51.51                             129   -0.07 9  163 218 
 SPBC HZ I        1431 55.35        10.2 0.11                           163 218 
 ZAR  HZ EP       1431 33.07                             122   -0.06 9  202 292 
 ZAR  HE ES       1431 58.26                             122    0.07 9  202 292 
 ZAR  HZ I        1432  2.90         3.8 0.13                           202 292 
 NOR  HZ EP       1431 36.70                             118    0.10 8  234 234 
 NOR  HE ES       1432  4.27                             118   -0.10 8  234 234 
 NOR  HZ I        1432  9.48         4.0 0.26                           234 234 
 CHI  HZ EP       1431 38.54                             117   -0.20 8  250 195 
 CHI  HE ES       1432  8.49                             117    0.30 8  250 195 
 CHI  HZ I        1432 11.12         3.0 0.27                           250 195 
 GUY2CHZ EP       1431 45.57                             112    1.08 7  301 234 
 GUY2CHE ES       1432 18.61                             112    0.19 7  301 234 
 GUY2CHZ I        1432 26.49         3.0 0.26                           301 234 
                                                                                
