 2017  2 8 1111 54.3 L   6.672 -73.147155.9  RSN  4 0.3 1.3LRSN                1
 GAP=170        0.68       8.8     4.7  6.0 -0.1012E+02 -0.2792E+01  0.1691E+01E
 Epicentro: VILLANUEVA - SANTANDER                                             3
 ACTION:UPD 17-05-24 15:34 OP:jn   STATUS:               ID:20170208111154 L   I
 OLDACT:UP  17-02-08 21:26 OP:and  STATUS:               ID:20170208110742     3
 OLDACT:REG 17-02-08 20:08 OP:and  STATUS:               ID:20170208110742     3
 2017-02-08-1108-00M.COL___328                                                 6
 STAT SP IPHASW D HRMM SECON CODA AMPLIT PERI AZIMU VELO AIN AR TRES W  DIS CAZ7
 BAR2 EZ IP     D 1112 15.13                             176    0.1310 9.63 204 
 BAR2 EZ ES       1112 31.14                             176    0.0210 9.63 204 
 BAR2 EZ I        1112 31.74         3.7 0.24            173           9.63 204 
 BRR  HZ EP   2   1112 17.20                             152    0.18 5 78.8 308 
 BRR  HN ES       1112 34.91                             152    0.2110 78.8 308 
 PAM  EZ EP       1112 18.00                             149   -0.3210 88.9  34 
 PTB  HZ EP       1112 22.28                             135    0.32 9  146 264 
 PTB  HN ES       1112 43.08                             135   -0.42 9  146 264 
 PTB  HZ I        1112 46.54         2.4 0.14            134            146 264 
                                                                                
