 2016  3 8 1605  2.1 L   6.831 -73.528  4.0  RSN 11 0.4 2.2LRSN                1
 GAP=122        1.00       2.8     1.8  4.4 -0.3701E+00  0.1421E+01  0.3033E+01E
 Epicentro: SAN VICENTE DE CHUCURI - SANTANDER                                 3
 ACTION:UPD 16-05-13 21:22 OP:cam  STATUS:               ID:20160308160502 L   I
 OLDACT:REG 16-03-08 20:48 OP:ar   STATUS:               ID:20160308155745     3
 2016-03-08-1557-45M.COL___307                                                 6
 STAT SP IPHASW D HRMM SECON CODA AMPLIT PERI AZIMU VELO AIN AR TRES W  DIS CAZ7
 BAR2 EZ IP     D 16 5  9.53                              47   -0.4410 46.5 125 
 BAR2 EZ ES       16 5 15.81                              47   -0.3110 46.5 125 
 BAR2 EZ I        16 5 16.57        81.4 0.34             47           46.5 125 
 PAM  EZ EP       16 5 19.75                              47    0.2910  107  58 
 PAM  EN ES       16 5 33.04                              47    0.0310  107  58 
 PAM  EZ I        16 5 41.63        32.7 0.16             47            107  58 
 PTB  HZ IP     D 16 5 18.76                              47   -0.2310  108 253 
 PTB  HN ES       16 5 31.86                              47   -0.3210  108 253 
 PTB  HZ I        16 5 34.68        98.4 0.30             47            108 253 
 RUS  HZ EP       16 5 20.65                              47    0.0510  115 155 
 SPBC HZ EP   9   16 5 26.21                              47    1.68 0  144 205 
 SPBC HN ES       16 5 44.11                                    0.39 9  144 205 
 SPBC HZ I        16 5 46.65        56.2 0.32             47            144 205 
 ZAR  HZ EP       16 5 27.57                              47    0.03 9  164 297 
 ZAR  HN ES       16 5 47.03                              47   -0.37 9  164 297 
 ZAR  HZ I        16 5 48.37        83.5 0.28             47            164 297 
 NOR  HZ EP       16 5 33.84                              37    0.92 9  204 227 
 NOR  HN ES       16 5 56.71                              37   -0.27 9  204 227 
 NOR  HZ I        16 6  0.39        15.9 0.18             37            204 227 
 HEL  HZ EP       16 5 36.99                              37    0.16 8  232 252 
 HEL  HN ES   4   16 6  2.73                              37   -1.19 0  232 252 
 HEL  HZ I        16 6  4.77        41.0 0.28             37            232 252 
 URE  HN ES   4   16 6  8.40                              37    2.73 0  244 295 
 URE  HZ I        16 6 12.13        15.6 0.30             37            244 295 
 GUY2CHZ EP       16 5 42.77                              37    1.10 8  270 229 
 GUY2CHN ES       16 6 12.53                              37   -0.02 8  270 229 
 GUY2CHZ I        16 6 16.80         6.6 0.34                           270 229 
 ELA  HZ EP   4   16 5 47.59                              36    2.02 0  301 224 
 ELA  HN ES       16 6 19.52                              36    0.04 7  301 224 
 ELA  HZ I        16 6 27.59         7.4 0.28             36            301 224 
                                                                                
