 2011 12 8 1414 53.0 L   6.761 -73.059149.0  RSN  4 0.2 1.3LRSN                1
 GAP=150        0.50       6.5    11.9 10.4  0.5592E+02 -0.8030E+02 -0.3602E+02E
 Epicentro: LOS SANTOS - SANTANDER                                             3
 ACTION:UPD 12-07-13 16:15 OP:ep   STATUS:               ID:20111208141453 L   I
 2011-12-08-1410-00M.COL___170                                                 6
 STAT SP IPHASW D HRMM SECON CODA AMPLIT PERI AZIMU VELO AIN AR TRES W  DIS CAZ7
 BAR2 SZ EP   1   1415 12.69                             171   -0.33 7 23.1 216 
 BAR2 SZ I        1415 25.92         5.1 0.42                          23.1 216 
 PAM  SZ EP   2   1415 15.62                             152    0.17 5 75.3  32 
 BRR  HZ EP   1   1415 14.99                             149   -0.13 7 81.6 298 
 BRR  HE ES   1   1415 32.50                             149    0.14 7 81.6 298 
 BRR  HZ I        1415 34.08         4.4 0.22                          81.6 298 
 RUS  HZ EP   1   1415 17.11                             146    0.35 7 96.1 182 
 RUS  HN ES   1   1415 35.20                             146   -0.10 7 96.1 182 
 RUS  HZ I        1415 37.06         1.6 0.28                          96.1 182 
                                                                                
