 2012  2 8 1633 10.8 L   6.775 -73.140142.0  RSN  9 0.4 1.9LRSN                1
 GAP=138        0.77       4.3     4.7  5.9  0.2313E+00  0.7868E+01  0.6765E+01E
 ACTION:UP  12-03-07 16:28 OP:epov STATUS:               ID:20120208163310 L   I
 2012-02-08-1630-00M.COL___187                                                 6
 STAT SP IPHASW D HRMM SECON CODA AMPLIT PERI AZIMU VELO AIN AR TRES W  DIS CAZ7
 BAR2 SZ EP   1   1633 29.61                             171   -0.31 7 20.7 193 
 BAR2 SZ ES   1   1633 44.56                             171   -0.28 7 20.7 193 
 BAR2 SZ I        1633 47.93        24.5 0.37                          20.7 193 
 BRR  HZ EP   1   1633 31.83                             151    0.18 7 73.1 300 
 BRR  HZ I        1633 39.04        19.9 0.24                          73.1 300 
 BRR  HE ES   1   1633 48.65                             151    0.74 7 73.1 300 
 PAM  SZ EP   1   1633 32.85                             150    0.13 7 79.2  38 
 PAM  SN ES   1   1633 49.52                             150   -0.30 7 79.2  38 
 RUS  HZ EP   1   1633 33.63                             144   -0.34 7 97.8 176 
 RUS  HE ES   1   1633 52.68                             144    0.63 7 97.8 176 
 RUS  HZ I        1633 53.48        10.3 0.27                          97.8 176 
 PTB  HZ EP   1   1633 37.24                             131   -0.22 7  148 260 
 PTB  HN ES   1   1633 57.54                             131   -0.72 7  148 260 
 PTB  HZ I        1633 58.89                                            148 260 
 ZAR  HZ EP   1   1633 43.59                             121    0.43 6  206 293 
 ZAR  HN ES   2   1634  8.12                             121   -0.29 4  206 293 
 ZAR  HZ I        1634 14.09         5.6 0.11                           206 293 
 CHI  HZ EP   1   1633 47.84                             117   -0.17 6  246 195 
 RREF HZ EP   1   1633 57.17                             110    0.55 5  320 230 
 PRA  HZ EP   1   1634  3.97                             106    0.03 4  390 210 
 PRA  HN ES   1   1634 45.41                             106    0.02 4  390 210 
                                                                                
