 2011  9 8 1637 57.4 L   6.759 -73.103140.1  RSN  5 0.2 1.7LRSN                1
 GAP=144        0.38       2.6     3.8  3.9  0.2134E+00  0.2214E+00 -0.2868E+00E
 Epicentro: LOS SANTOS - SANTANDER                                             3
 ACTION:UPD 12-07-13 15:56 OP:ep   STATUS:               ID:20110908163757 L   I
 2011-09-08-1620-00M.COL___172                                                 6
 STAT SP IPHASW D HRMM SECON CODA AMPLIT PERI AZIMU VELO AIN AR TRES W  DIS CAZ7
 BAR2 SZ EP   1   1638 16.03                             171   -0.22 7 20.4 205 
 BAR2 SZ ES   1   1638 30.74                             171   -0.24 7 20.4 205 
 BAR2 SZ I        1638 32.37        13.3 0.27                          20.4 205 
 GIR2 SZ EP   2   1638 16.41                             165   -0.11 5 36.8 344 
 BRR  HZ EP       1638 18.22                             149   -0.0510 77.5 300 
 BRR  HN ES   1   1638 34.78                             149    0.19 7 77.5 300 
 BRR  HZ I        1638 39.26        11.0 0.20                          77.5 300 
 PAM  SZ EP   1   1638 19.05                             149    0.03 7 78.2  35 
 PAM  SN ES   1   1638 36.01                             149    0.09 7 78.2  35 
 RUS  HZ EP   1   1638 20.38                             144    0.17 7 95.8 179 
 RUS  HE ES   1   1638 38.14                             144    0.11 7 95.8 179 
 RUS  HZ I        1638 39.95         5.4 0.47                          95.8 179 
                                                                                
