 2010  7 8 1042 39.4 L   6.790 -73.092142.8  RSN  8 0.3 1.8LRSN                1
 GAP=162        0.66       3.1     6.8  6.1 -0.2584E+01 -0.1108E+02 -0.2570E+01E
 Epicentro: LOS SANTOS - SANTANDER                                             3
 ACTION:UPD 10-12-01 15:16 OP:pat  STATUS:               ID:20100708104239 L   I
 2010-07-08-1040-49S.COL___116                                                 6
 STAT SP IPHASW D HRMM SECON CODA AMPLIT PERI AZIMU VELO AIN AR TRES W  DIS CAZ7
 BAR2 SZ EP       1042 58.63                             170    -0.110   24 205 
 BAR2 SZ ES   2   1043 12.89                             170    -0.8 5   24 205 
 BAR2 SZ I        1043 15.10        32.2 0.24                            24 205 
 GIR2 SZ EP       1042 58.74                             166    -0.110   34 341 
 GIR2 SZ ES   2   1043 13.87                             166     0.0 5   34 341 
 BRR  HZ IP     C 1043  0.50                             150    -0.110   77 297 
 BRR  HZ I        1043  0.90        28.2 0.12                            77 297 
 BRR  HE ES   1   1043 17.37                             150     0.3 7   77 297 
 RUS  HZ EP   1   1043  2.67                             144    -0.1 7   99 179 
 RUS  HE ES   1   1043 21.27                             144     0.3 7   99 179 
 RUS  HZ I        1043 22.07         5.4 0.26                            99 179 
 BRI  SZ EP       1043  3.25                             141     0.310  108  18 
 BRI  SZ ES   2   1043 21.61                             141     0.3 5  108  18 
 BRI  SZ I        1043 26.78        12.8 0.31                           108  18 
 GUE  SZ EP   1   1043  3.70                             139    -0.1 7  117   9 
 GUE  SZ I        1043  4.77         4.0 0.11                           117   9 
 GRA  SZ EP       1043  4.47                             136     0.110  125  15 
 GRA  SZ I        1043  5.79        10.1 0.33                           125  15 
 GRA  SZ ES   1   1043 23.51                             136    -0.3 7  125  15 
 OCA  SZ EP   1   1043  7.21                             129    -0.5 7  162 351 
 OCA  SZ ES   1   1043 29.82                             129     0.1 7  162 351 
 OCA  SZ I        1043 32.43         9.5 0.27                           162 351 
                                                                                
