 2011 10 8 1212  9.7 L   6.759 -73.226112.4  RSN  5 0.4 1.3LRSN                1
 GAP=135        0.88       9.2    15.0 10.9 -0.7829E+02  0.3300E+02 -0.6404E+01E
 Epicentro: ZAPATOCA - SANTANDER                                               3
 ACTION:UPD 12-07-13 16:02 OP:ep   STATUS:               ID:20111008121209 L   I
 2011-10-08-1200-00M.COL___171                                                 6
 STAT SP IPHASW D HRMM SECON CODA AMPLIT PERI AZIMU VELO AIN AR TRES W  DIS CAZ7
 BAR2 SZ EP   1   1212 25.73                             170    0.52 7 19.0 165 
 BAR2 SZ I        1212 26.50         6.3 0.38                          19.0 165 
 BAR2 SZ ES   1   1212 36.91                             170   -0.41 7 19.0 165 
 GIR2 SZ EP   1   1212 25.65                             161    0.08 7 35.6   6 
 BRR  HZ EP   2   1212 27.07                             147    0.08 5 66.1 306 
 BRR  HZ I        1212 28.95         9.4 0.30                          66.1 306 
 PAM  SZ EP   1   1212 28.36                             140   -0.81 7 86.6  42 
 PAM  SN ES   1   1212 44.84                             140    0.47 7 86.6  42 
 RUS  HZ EP   1   1212 30.14                             137    0.12 7 97.0 171 
 RUS  HZ I        1212 50.47         2.1 0.39                          97.0 171 
                                                                                
