 2015 12 8 1731 38.9 L   6.819 -73.169146.0  RSN 10 0.4 1.9LRSN                1
 GAP=133        0.87       2.8     3.7  5.4 -0.5751E+00  0.4824E+01 -0.3026E+01E
 Epicentro: LOS SANTOS - SANTANDER                                             3
 ACTION:UPD 16-02-04 15:03 OP:cam  STATUS:               ID:20151208173138 L   I
 OLDACT:UP  15-12-09 00:35 OP:mh   STATUS:               ID:20151208172750d    3
 OLDACT:DUP 15-12-09 00:29 OP:mh   STATUS:               ID:20151208172750d    3
 OLDACT:UP  15-12-09 00:28 OP:mh   STATUS:               ID:20151208172749     3
 OLDACT:REG 15-12-08 21:50 OP:mh   STATUS:               ID:20151208172749     3
 2015-12-08-1727-49M.COL___325                                                 6
 STAT SP IPHASW D HRMM SECON CODA AMPLIT PERI AZIMU VELO AIN AR TRES W  DIS CAZ7
 BAR2 EZ EP       1731 58.38                             170   -0.2010 25.1 183 
 BAR2 EZ ES       1732 13.57                             170   -0.3710 25.1 183 
 BAR2 EZ I        1732 14.82        18.9 0.40            172           25.1 183 
 BRR  HZ EP       1732  0.43                             153    0.5410 68.0 298 
 BRR  HN ES       1732 16.91                             153    0.6510 68.0 298 
 BRR  HZ I        1732 21.83         8.9 0.26            153           68.0 298 
 PAM  EZ EP       1732  1.30                             151    0.1610 77.5  42 
 PAM  EN ES       1732 18.27                             151   -0.2210 77.5  42 
 PAM  EZ I        1732 20.59        12.9 0.46            153           77.5  42 
 RUS  HZ EP   1   1732  2.97                             143    0.14 7  103 175 
 RUS  HN ES       1732 21.54                             143    0.0510  103 175 
 RUS  HZ I        1732 22.26         9.4 0.24            148            103 175 
 PTB  HZ EP       1732  6.06                             132    0.37 9  146 258 
 PTB  HN ES       1732 26.17                             132   -0.42 9  146 258 
 PTB  HZ I        1732 28.76         5.1 0.26            134            146 258 
 OCA  HZ EP   1   1732  6.25                             130   -0.75 7  158 354 
 OCA  HN ES       1732 29.09                             130    0.16 9  158 354 
 OCA  HZ I        1732 34.18        14.8 0.42            132            158 354 
 SPBC HZ EP   1   1732  7.30                             129   -0.11 7  163 218 
 SPBC HN ES   1   1732 29.42                             129   -0.23 7  163 218 
 SPBC HZ I        1732 31.87        18.3 0.18            132            163 218 
 ZAR  HZ EP   1   1732 10.77                             123   -0.26 6  201 292 
 ZAR  HN ES       1732 36.07                             123   -0.03 9  201 292 
 ZAR  HZ I        1732 38.28         5.7 0.28            124            201 292 
 SML  HZ EP       1732 15.46                             118    0.25 8  241 336 
 SML  HN ES       1732 43.07                             118   -0.47 8  241 336 
 SML  HZ I        1732 46.62         6.8 0.25            120            241 336 
 GUY2CHZ EP   4   1732 24.36                             112    1.95 0  300 234 
 GUY2CHN ES   4   1732 59.48                             112    3.12 0  300 234 
 GUY2CHZ I        1733  4.65         2.9 0.30                           300 234 
                                                                                
