 2010  9 8 1057 40.8 L   6.812 -73.061139.4  RSN  4 0.2 1.6LRSN                1
 GAP=202        0.43       8.1     9.1  9.3  0.1453E+02 -0.3966E+02 -0.3974E+02E
 Epicentro: LOS SANTOS - SANTANDER                                             3
 ACTION:UP  11-02-18 11:01 OP:tino STATUS:               ID:20100908105740 L   I
 2010-09-08-1055-48S.COL___120                                                 6
 STAT SP IPHASW D HRMM SECON CODA AMPLIT PERI AZIMU VELO SNR AR TRES W  DIS CAZ7
 BAR2 SZ EP   1   1057 59.94                             168     0.2 7   28 209 
 BAR2 SZ ES   2   1058 14.30                             168    -0.3 5   28 209 
 BAR2 SZ I        1058 15.31         7.9 0.29                            28 209 
 GIR2 SZ EP   1   1057 59.84                             166     0.1 7   33 334 
 BRR  HZ EP   1   1058  1.54                             149    -0.2 7   79 294 
 BRR  HE ES   2   1058 18.32                             149     0.2 5   79 294 
 BRR  HZ I        1058 28.57        10.6 0.54                            79 294 
 GUE  SZ EP   1   1058  4.66                             139     0.0 7  114   8 
                                                                                
