 2012  1 8 1412 10.8 L   6.765 -73.173142.1  RSN  7 0.3 1.9LRSN                1
 GAP=135        0.77       5.3     5.3  8.5 -0.3594E+01  0.1330E+02 -0.4284E+00E
 Epicentro: LOS SANTOS - SANTANDER                                             3
 ACTION:UP  12-02-03 08:15 OP:REBC STATUS:               ID:20120108141210 L   I
 2012-01-08-1410-00M.COL___186                                                 6
 STAT SP IPHASW D HRMM SECON CODA AMPLIT PERI AZIMU VELO SNR AR TRES W  DIS CAZ7
 BAR2 SZ EP       1412 29.94                             172     0.010   19 183 
 BAR2 SZ I        1412 45.95        25.4 0.26                            19 183 
 GIR2 SZ EP       1412 30.09                             166     0.010   35 356 
 GIR2 SZ ES   2   1412 44.67                             166    -0.5 5   35 356 
 BRR  HZ IP     C 1412 31.88                             152     0.410   71 302 
 BRR  HZ I        1412 32.08        20.3 0.18                            71 302 
 BRR  HE ES   2   1412 48.16                             152     0.5 5   71 302 
 PAM  SZ IP       1412 33.01                             149     0.110   82  39 
 PAM  SN ES   1   1412 49.92                             149    -0.3 7   82  39 
 RUS  HZ EP   2   1412 34.21                             144     0.3 5   97 174 
 RUS  HN ES   1   1412 52.12                             144     0.1 7   97 174 
 RUS  HZ I        1412 53.55         6.6 0.20                            97 174 
 PTB  HZ EP       1412 36.59                             132    -0.5 9  144 260 
 PTB  HN ES   2   1412 57.44                             132    -0.2 5  144 260 
 PTB  HZ I        1413  0.15         6.8 0.44                           144 260 
 ZAR  HN ES   2   1413  8.39                             122     0.5 4  203 293 
 ZAR  HZ I        1413 14.62         8.8 0.26                           203 293 
                                                                                
