 2013 11 8 1010 54.6 L   6.737 -73.192145.9  RSN  4 0.3 1.5LRSN                1
 GAP=227        0.72       6.6     6.4  6.0  0.2241E+02  0.6082E+01  0.5868E+01E
 Epicentro: VILLANUEVA - SANTANDER                                             3
 ACTION:UPD 14-01-09 16:26 OP:ep   STATUS:               ID:20131108101054 L   I
 OLDACT:UP  13-11-08 17:15 OP:cam  STATUS:               ID:20131108101000     3
 OLDACT:REG 13-11-08 16:38 OP:cam  STATUS:               ID:20131108101000     3
 2013-11-08-1010-00M.COL___273                                                 6
 STAT SP IPHASW D HRMM SECON CODA AMPLIT PERI AZIMU VELO AIN AR TRES W  DIS CAZ7
 BAR2 SZ EP       1011 13.92                             173   -0.1710 16.0 176 
 BAR2 SZ ES       1011 28.96                             173   -0.3510 16.0 176 
 BAR2 SZ I        1011 31.08         8.7 0.30            169           16.0 176 
 BRR  HZ EP       1011 16.08                             153    0.3910 70.6 305 
 BRR  HN ES       1011 32.30                             153    0.1310 70.6 305 
 RUS  HZ EP       1011 17.97                             146    0.0910 94.1 173 
 RUS  HN ES   1   1011 36.46                             146    0.40 7 94.1 173 
 PTB  HZ EP       1011 20.60                             133   -0.38 9  142 261 
 PTB  HN ES   1   1011 41.64                             133    0.05 7  142 261 
 PTB  HZ I        1011 45.44         2.9 0.20            132            142 261 
                                                                                
