 2012  2 8 1038  7.1 L   6.690 -73.499114.2  RSN  4 0.3 1.6LRSN                1
 GAP=154        0.62       7.0     4.5  8.0  0.1004E+02  0.1471E+02  0.7574E+01E
 ACTION:UP  12-03-07 16:28 OP:epov STATUS:               ID:20120208103807 L   I
 2012-02-08-1030-00M.COL___188                                                 6
 STAT SP IPHASW D HRMM SECON CODA AMPLIT PERI AZIMU VELO AIN AR TRES W  DIS CAZ7
 BAR2 SZ EP   1   1038 23.13                             161   -0.27 7 36.7 107 
 BAR2 SZ I        1038 23.40        23.3 0.10                          36.7 107 
 BAR2 SZ ES   1   1038 36.06                             161   -0.04 7 36.7 107 
 BRR  HZ EP   1   1038 23.65                             154   -0.10 7 51.7 333 
 BRR  HZ I        1038 24.08         7.2 0.12                          51.7 333 
 BRR  HE ES   1   1038 37.04                             154    0.31 7 51.7 333 
 PTB  HZ EP   1   1038 28.39                             134    0.56 7  107 261 
 PTB  HN ES   1   1038 43.77                             134   -0.21 7  107 261 
 PTB  HZ I        1038 50.44                                            107 261 
 ZAR  HN ES   1   1038 55.53                             119   -0.29 7  174 301 
                                                                                
