 2017 10 8 1256 25.2 L   6.801 -73.141144.4  RSN  7 0.3 1.6LRSN                1
 GAP=137        0.69       3.8     4.7  5.4 -0.1001E+02  0.1051E+02 -0.1634E+01E
 Epicentro: LOS SANTOS - SANTANDER                                             3
 ACTION:UPD 17-11-07 19:29 OP:rebc STATUS:               ID:20171008125625 L   I
 OLDACT:REG 17-10-08 21:29 OP:osc  STATUS:               ID:20171008124739     3
 2017-10-08-1248-00M.COL___405                                                 6
 STAT SP IPHASW D HRMM SECON CODA AMPLIT PERI AZIMU VELO AIN AR TRES W  DIS CAZ7
 BAR2 EZ EP       1256 44.58                             170   -0.1410 23.5 191 
 BAR2 EZ ES       1256 59.41                             170   -0.4910 23.5 191 
 BAR2 EZ I        1257  0.72        12.0 0.28            170           23.5 191 
 PAM  EZ EP       1256 47.56                             151    0.2710 77.0  39 
 PAM  EE ES       1257  4.68                             151    0.1910 77.0  39 
 PAM  EZ I        1257  6.67         5.1 0.54            154           77.0  39 
 RUS  HZ EP       1256 48.67                             143   -0.2010  101 176 
 RUS  HN ES       1257  7.44                             143    0.1510  101 176 
 RUS  HZ I        1257  8.27         6.7 0.28            146            101 176 
 SPBC HZ EP       1256 53.66                             129   -0.02 9  164 219 
 SPBC HE ES       1257 16.40                             129    0.55 9  164 219 
 SPBC HZ I        1257 20.51         7.2 0.04            129            164 219 
 ZAR  HE ES   2   1257 22.87                             122   -0.05 4  204 292 
 NOR  HZ EP       1257  0.66                             118   -0.29 8  235 235 
 NOR  HE ES       1257 28.77                             118   -0.02 8  235 235 
 NOR  HZ I        1257 33.86         1.8 0.30            119            235 235 
 CHI  HN ES   2   1257 32.12                             117   -0.14 4  249 195 
                                                                                
