 2012  5 8 1432 49.7 L   6.804 -73.129151.9  RSN 19 0.4 4.0LRSN 4.0WRSN        1
 SPEC AVERAGE  MO 15.1 ST209.9 OM  9.5 f0 3.82 R  0.40 AL 1.88 WI 26.6 MW  4.0 3
 GAP=127        0.82       2.9     3.4  4.5 -0.2262E+01  0.2097E+01  0.2221E+01E
 Epicentro: LOS SANTOS - SANTANDER                                             3
 SPEC ZAR HH Z MO 15.0 ST 79.0 OM  3.2 f0 3.84 R0.3828 AL 1.19 WI 20.7 MW  3.9 3
 SPEC ZAR HH Z T143347 K 0.020 GD  255 VS 4.20 DE 3.20 Q0230.0 QA 0.60 VS 4.20 3
 SPEC PRA HH Z MO 15.7 ST999.9 OM  3.7 f0 5.38 R0.2732 AL 2.44 WI 26.7 MW  4.4 3
 SPEC PRA HH Z T143423 K 0.020 GD  421 VS 4.20 DE 3.20 Q0230.0 QA 0.60 VS 4.20 3
 SPEC RREFHH Z MO 15.2 ST126.2 OM  2.5 f0 3.80 R0.3868 AL 2.47 WI 36.4 MW  4.1 3
 SPEC RREFHH Z T143335 K 0.020 GD  356 VP 7.60 DE 3.20 Q0230.0 QA 0.60 VS 4.20 3
 SPEC RUS HH Z MO 14.8 ST 23.3 OM  3.1 f0 3.09 R0.4757 AL 2.02 WI 12.1 MW  3.8 3
 SPEC RUS HH Z T143331 K 0.020 GD  182 VS 4.20 DE 3.20 Q0230.0 QA 0.60 VS 4.20 3
 SPEC COD HH Z MO 15.0 ST 53.6 OM  3.0 f0 3.45 R0.4261 AL 1.78 WI 28.2 MW  3.9 3
 SPEC COD HH Z T143413 K 0.020 GD  379 VS 4.20 DE 3.20 Q0230.0 QA 0.60 VS 4.20 3
 SPEC HEL HH Z MO 15.2 ST 64.3 OM  2.5 f0 3.17 R0.4637 AL 1.55 WI 32.3 MW  4.1 3
 SPEC HEL HH Z T143329 K 0.020 GD  313 VP 7.60 DE 3.20 Q0230.0 QA 0.60 VS 4.20 3
 SPEC CHI HH Z MO 15.1 ST123.0 OM  2.5 f0 4.03 R0.3648 AL 1.70 WI 29.7 MW  4.0 3
 SPEC CHI HH Z T143326 K 0.020 GD  291 VP 7.60 DE 3.20 Q0230.0 QA 0.60 VS 4.20 3
 ACTION:UP  12-07-05 12:03 OP:pat  STATUS:               ID:20120508143249 L   I
 2012-05-08-1430-00M.COL___192                                                 6
 STAT SP IPHASW D HRMM SECON CODA AMPLIT PERI AZIMU VELO SNR AR TRES W  DIS CAZ7
 BAR2 SZ IP     C 1433 10.21                             171     0.110   24 194 
 BAR2 SZ ES   1   1433 25.63                             171    -0.4 7   24 194 
 BAR2 SZ I        1433 27.03      1785.4 0.32                            24 194 
 BRR  HZ EP       1433 12.11                             153     0.510   73 298 
 BRR  HE ES   1   1433 29.43                             153     0.8 7   73 298 
 BRR  HZ I        1433 33.54       943.8 0.16                            73 298 
 PAM  SZ IP       1433 12.99                             152     0.510   76  39 
 PAM  SE ES   1   1433 30.26                             152     0.0 7   76  39 
 RUS  HZ IP     D 1433 14.01                             145    -0.110  101 177 
 RUS  HN ES   1   1433 32.84                             145    -0.3 7  101 177 
 RUS  HZ I        1433 34.65      1228.2 0.60                           101 177 
 PTB  HZ IP     C 1433 16.69                             133    -0.7 9  150 259 
 PTB  HN ES   1   1433 38.31                             133    -0.6 7  150 259 
 PTB  HZ I        1433 45.94       977.5 0.50                           150 259 
 OCA  HZ EP   1   1433 18.27                             131    -0.2 7  160 352 
 OCA  HE ES   2   1433 40.53                             131    -0.4 5  160 352 
 OCA  HZ I        1433 51.81      1351.3 0.45                           160 352 
 ZAR  HZ EP   1   1433 22.59                             124    -0.1 6  206 292 
 ZAR  HN ES   1   1433 48.04                             124    -0.4 6  206 292 
 ZAR  HZ I        1433 53.99      1198.6 0.48                           206 292 
 NOR  SZ EP   1   1433 25.99                             120     0.0 6  236 235 
 NOR  SE ES   1   1433 54.06                             120    -0.2 6  236 235 
 CHI  HZ EP       1433 28.09                             118     0.2 8  249 196 
 CHI  HN ES   1   1433 57.51                             118    -0.1 6  249 196 
 CHI  HZ I        1434  3.60       587.4 0.60                           249 196 
 HEL  HZ EP   1   1433 30.82                             116     0.4 6  274 256 
 HEL  HN ES   1   1434  2.43                             116     0.2 6  274 256 
 HEL  HZ I        1434  8.78       564.2 0.60                           274 256 
 VIL  SZ EP   1   1433 33.10                             113    -0.4 5  304 192 
 VIL  SN ES   1   1434  7.58                             113    -0.1 5  304 192 
 VIL  SZ I        1434 15.33       323.2 0.43                           304 192 
 GUY  SZ EP   1   1433 34.32                             113     0.3 5  305 235 
 GUY  SE ES   2   1434  8.72                             113     0.1 4  305 235 
 GUY  SZ I        1434 16.25       870.5 0.51                           305 235 
 RREF HZ EP   2   1433 36.46                             112     0.2 3  323 230 
 RREF HN ES   2   1434 12.71                             112     0.1 3  323 230 
 RREF HZ I        1434 19.96       735.5 0.31                           323 230 
 DBB  SZ EP   2   1433 37.77                             110     0.1 3  341 274 
 COD  HZ EP   1   1433 37.90                             110    -0.4 5  348 354 
 COD  HZ I        1434 20.96       244.7 0.44                           348 354 
 SDV  BZ EP       1433 39.24                             109    -0.6 6  359  50 
 ANIL HZ EP       1433 40.30                             109     0.4 6  359 225 
 ANIL HE ES   2   1434 18.95                             109    -0.2 3  359 225 
 PRA  HZ EP       1433 43.79                             107     0.2 6  393 210 
 PRA  HN ES   1   1434 25.94                             107     0.3 4  393 210 
 YOT  HZ EP       1433 52.65                             104    -0.5 5  474 229 
 YOT  HZ I        1433 56.76        97.0 0.50                           474 229 
                                                                                
