 2017 11 8 1949 50.5 L   6.753 -73.124144.0  RSN  7 0.3 1.4LRSN                1
 GAP=141        0.59       3.4     3.5  5.8 -0.3292E+01  0.9479E+01  0.9081E+00E
 Epicentro: LOS SANTOS - SANTANDER                                             3
 ACTION:UPD 17-12-12 19:53 OP:rebc STATUS:               ID:20171108194950 L   I
 OLDACT:UP  17-11-08 23:58 OP:mg   STATUS:               ID:20171108194736     3
 OLDACT:REG 17-11-08 21:22 OP:mg   STATUS:               ID:20171108194736     3
 2017-11-08-1948-00M.COL___458                                                 6
 STAT SP IPHASW D HRMM SECON CODA AMPLIT PERI AZIMU VELO AIN AR TRES W  DIS CAZ7
 BAR2 EZ EP       1950  9.79                             172   -0.0510 18.9 200 
 BRR  HZ EP       1950 11.94                             151    0.2110 75.9 301 
 PAM  EZ EP   3   1950 13.58                             150    0.89 2 80.0  36 
 PAM  EN ES       1950 30.04                             150    0.0510 80.0  36 
 PAM  EZ I        1950 32.46         3.6 0.20            155           80.0  36 
 RUS  HZ EP       1950 13.71                             145    0.0110 95.2 177 
 RUS  HN ES       1950 31.76                             145   -0.0310 95.2 177 
 RUS  HZ I        1950 33.16         2.4 0.36            150           95.2 177 
 PTB  HZ EP       1950 16.99                             131   -0.47 9  149 261 
 PTB  HN ES       1950 38.47                             131   -0.02 9  149 261 
 PTB  HZ I        1950 43.96         3.2 0.16            133            149 261 
 NOR  HZ EP       1950 25.74                             118   -0.28 8  234 236 
 NOR  HN ES       1950 54.07                             118    0.34 8  234 236 
 NOR  HZ I        1950 58.36         2.7 0.15            121            234 236 
 GUY2CHZ EP   2   1950 34.64                             112    0.72 4  300 236 
 GUY2CHN ES   3   1951  8.75                             112    0.97 2  300 236 
 GUY2CHZ I        1951 16.65         1.7 0.27                           300 236 
                                                                                
