 2013  8 8 1614 50.8 L   6.788 -73.188146.8  RSN  5 0.2 1.7LRSN                1
 GAP=232        0.45       5.0     4.6  5.0  0.1453E+02  0.5028E+01  0.6684E+01E
 Epicentro: LOS SANTOS - SANTANDER                                             3
 ACTION:UPD 14-01-14 09:00 OP:ep   STATUS:               ID:20130808161450 L   I
 OLDACT:REG 13-08-08 16:04 OP:mh   STATUS:               ID:20130808160959     3
 2013-08-08-1609-59M.COL___270                                                 6
 STAT SP IPHASW D HRMM SECON CODA AMPLIT PERI AZIMU VELO AIN AR TRES W  DIS CAZ7
 BAR2 SZ EP   1   1615 10.42                             171   -0.11 7 21.7 178 
 BAR2 SZ ES   1   1615 25.58                             171   -0.34 7 21.7 178 
 BAR2 SZ I        1615 26.60         6.9 0.22            165           21.7 178 
 BRR  HN ES       1615 28.48                             154    0.1610 67.8 301 
 BRR  HN I        1615 30.07        20.4 0.24            147           67.8 301 
 RUS  HZ EP   1   1615 14.76                             144    0.16 7 99.7 173 
 RUS  HN ES   1   1615 33.38                             144    0.22 7 99.7 173 
 RUS  HN I        1615 33.94         6.8 0.26            142           99.7 173 
 PTB  HZ EP   1   1615 17.24                             133   -0.19 7  143 259 
 PTB  HN ES   1   1615 38.07                             133   -0.12 7  143 259 
 PTB  HN I        1615 43.54         6.6 0.44            128            143 259 
 ZAR  HN ES   2   1615 48.16                             123    0.18 4  200 293 
 ZAR  HN I        1615 53.78         6.5 0.16            120            200 293 
                                                                                
