 2017 11 8 1053 32.1 L   6.818 -73.153149.9  RSN 22 0.8 2.3LRSN                1
 GAP= 74        1.28       3.9     3.5  6.5  0.3179E+01  0.5341E+01  0.6690E+01E
 Epicentro: LOS SANTOS - SANTANDER                                             3
 ACTION:UPD 17-12-12 19:53 OP:rebc STATUS:               ID:20171108105332 L   I
 OLDACT:UP  17-11-08 22:09 OP:mg   STATUS:               ID:20171108104742     3
 OLDACT:UP  17-11-08 22:08 OP:mg   STATUS:               ID:20171108104742     3
 OLDACT:REG 17-11-08 20:15 OP:mg   STATUS:               ID:20171108104742     3
 2017-11-08-1048-00M.COL___385                                                 6
 STAT SP IPHASW D HRMM SECON CODA AMPLIT PERI AZIMU VELO AIN AR TRES W  DIS CAZ7
 BAR2 EZ EP     C 1053 52.18                             170   -0.1010 25.2 187 
 BAR2 EZ ES   2   1054  7.56                             170   -0.44 5 25.2 187 
 BAR2 EZ I        1054  8.80        43.2 0.18            167           25.2 187 
 BRR  HZ EP       1053 53.97                             154    0.3510 69.5 297 
 BRR  HN ES       1054 11.03                             154    0.6410 69.5 297 
 BRR  HZ I        1054 14.24        40.6 0.26            152           69.5 297 
 PAM  EZ EP       1053 55.17                             152    0.4610 76.4  41 
 PAM  EN ES       1054 12.08                             152   -0.2610 76.4  41 
 PAM  EZ I        1054 15.46        19.6 0.33            157           76.4  41 
 RUS  HZ EP       1053 56.12                             144   -0.3010  103 176 
 RUS  HN ES       1054 15.29                             144   -0.0910  103 176 
 RUS  HZ I        1054 16.10        28.7 0.36            145            103 176 
 PTB  HZ EP       1053 58.66                             133   -0.72 9  147 258 
 PTB  HN ES       1054 19.87                             133   -0.78 9  147 258 
 PTB  HZ I        1054 23.68        15.8 0.20            132            147 258 
 TAM  HZ EP       1054  0.65                             131    0.41 9  156 106 
 TAM  HN ES   1   1054 22.27                             131    0.09 7  156 106 
 TAM  HZ I        1054 23.18        14.9 0.58            136            156 106 
 SPBC HZ EP       1054  1.33                             130    0.30 9  164 218 
 SPBC HE ES   2   1054 24.08                             130    0.50 5  164 218 
 SPBC HZ I        1054 29.37        35.1 0.26            129            164 218 
 YPLC HZ IP     C 1054  2.67                             127    0.25 9  179 151 
 YPLC HN ES       1054 26.42                             127    0.36 9  179 151 
 YPLC HZ I        1054 27.58        30.8 0.28            130            179 151 
 ZAR  HZ EP       1054  4.59                             123   -0.08 9  203 292 
 ZAR  HN ES       1054 29.88                             123   -0.19 9  203 292 
 ZAR  HZ I        1054 40.73        20.0 0.23            124            203 292 
 TABC EZ EP   2   1054  9.81                             120    1.56 4  231 210 
 TABC EZ ES   3   1054 39.58                             120    3.15 2  231 210 
 TABC EZ I        1054 43.62        21.6 0.40            120            231 210 
 NOR  HZ EP       1054  8.72                             119    0.59 8  235 234 
 NOR  HN ES       1054 36.28                             119    0.05 8  235 234 
 NOR  HZ I        1054 44.13        14.7 0.16            120            235 234 
 CHI  HZ EP       1054 10.34                             118    0.11 8  250 195 
 CHI  HE ES       1054 40.26                             118    0.30 8  250 195 
 CHI  HZ I        1054 42.81         8.5 0.34            119            250 195 
 ROSC BZ EP   2   1054 12.37                             117    1.77 4  254 211 
 ROSC BN ES   4   1054 44.33                             117    3.71 0  254 211 
 ROSC BZ I        1054 50.39        15.3 0.30            118            254 211 
 URE  HZ EP       1054 12.76                             114   -0.45 7  282 292 
 URE  HE ES   1   1054 44.94                             114   -0.33 6  282 292 
 URE  HZ I        1054 56.75        10.7 0.20            115            282 292 
 GUY2CHZ EP   2   1054 17.09                             113    1.12 4  302 234 
 GUY2CHN ES   3   1054 53.70                             113    3.53 2  302 234 
 GUY2CHZ I        1054 57.41         9.7 0.56                           302 234 
 PTGC HZ EP       1054 15.42                             112   -0.98 7  311 159 
 PTGC HN ES       1054 48.72                             112   -2.23 7  311 159 
 PTGC HZ I        1054 53.63        15.3 0.26            114            311 159 
 CBOC HZ EP   1   1054 20.06                             111    0.88 5  333 252 
 CBOC HN ES   2   1054 54.32                             111   -1.57 3  333 252 
 DBB  EZ EP   1   1054 19.70                             110    0.06 5  338 274 
 DBB  EN ES   2   1054 55.26                             110   -1.46 3  338 274 
 DBB  EZ I        1054 58.25         4.6 0.16            111            338 274 
 PRA  HZ EP   1   1054 26.56                             107    0.63 4  393 209 
 PRA  HN ES   1   1055  7.53                             107   -0.38 4  393 209 
 PRA  HZ I        1055 14.46         5.9 0.30            108            393 209 
 ORTC HZ EP   4   1054 23.83                             107   -2.47 0  397 216 
 ORTC HN ES   1   1055  9.54                             107    0.96 4  397 216 
 ORTC HZ I        1055 16.12         2.6 0.26            108            397 216 
 PAL  HZ EP   1   1054 27.11                             106   -0.34 4  406 239 
 PAL  HE ES   2   1055 11.77                             106    1.16 3  406 239 
 PAL  HZ I        1055 14.12         4.3 0.23            107            406 239 
 SJC  HZ EP   2   1054 26.43                             106   -1.13 3  407 327 
 SJC  HN ES   3   1055  7.62                             106   -3.19 1  407 327 
 SJC  HZ I        1055 15.10         3.3 0.31            108            407 327 
                                                                                
