 2017  8 8 1437 24.5 L   6.738 -73.172139.3  RSN  9 0.6 1.6LRSN                1
 GAP=136        1.11       4.0     4.3  6.9 -0.7335E+00  0.8788E+01  0.5229E+01E
 Epicentro: VILLANUEVA - SANTANDER                                             3
 ACTION:UPD 17-09-04 20:18 OP:rebc STATUS:               ID:20170808143724 L   I
 OLDACT:DUP 17-08-09 00:12 OP:dhb  STATUS:               ID:20170808142739d    3
 OLDACT:REG 17-08-08 22:04 OP:mg   STATUS:               ID:20170808142738     3
 2017-08-08-1428-00M.COL___396                                                 6
 STAT SP IPHASW D HRMM SECON CODA AMPLIT PERI AZIMU VELO AIN AR TRES W  DIS CAZ7
 BAR2 EZ EP       1437 42.87                             173   -0.3710 16.2 184 
 BAR2 EZ ES       1437 58.28                             173    0.4310 16.2 184 
 BAR2 EZ I        1438  0.70        13.1 0.30            176           16.2 184 
 BRR  HZ IP     C 1437 44.68                             151   -0.3510 72.3 304 
 BRR  HN ES       1438  1.27                             151    0.2310 72.3 304 
 BRR  HZ I        1438  2.64        22.7 0.36            149           72.3 304 
 PAM  EZ IP     D 1437 45.89                             148   -0.6210 84.6  38 
 PAM  EZ I        1438  0.00         5.7 0.19            144           84.6  38 
 PAM  EN ES       1438  3.95                             148    0.2910 84.6  38 
 RUS  HZ EP       1437 47.29                             144    0.1310 94.0 174 
 RUS  HN ES       1438  4.63                             144   -0.1910 94.0 174 
 RUS  HZ I        1438  6.96        11.7 0.36            145           94.0 174 
 PTB  HZ EP       1437 50.62                             132    0.03 9  144 261 
 PTB  HN ES       1438 10.60                             132   -0.32 9  144 261 
 PTB  HZ I        1438 16.26         3.4 0.15            130            144 261 
 ZAR  HZ EP       1437 57.58                             121    1.03 9  204 294 
 ZAR  HN ES       1438 21.32                             121   -0.21 9  204 294 
 ZAR  HZ I        1438 26.53         3.3 0.06            119            204 294 
 NOR  HZ EP   3   1438  2.22                             118    3.03 2  228 235 
 NOR  HE ES       1438 26.18                             118   -0.06 8  228 235 
 NOR  HZ I        1438 32.49         3.4 0.14            117            228 235 
 CHI  HZ EP       1438  0.83                             117   -0.23 8  241 195 
 CHI  HN ES       1438 30.27                             117    0.71 8  241 195 
 GUY2CHE ES       1438 39.81                             112   -0.53 7  295 236 
 GUY2CHZ I        1438 48.00         1.5 0.25                           295 236 
                                                                                
