 2012  1 8 1216  9.1 L   6.716 -73.153149.9  RSN  5 0.4 1.6LRSN                1
 GAP=157        0.59      11.0     9.1  9.1 -0.2714E+02  0.4258E+02  0.3796E+01E
 Epicentro: VILLANUEVA - SANTANDER                                             3
 ACTION:UP  12-02-03 08:15 OP:REBC STATUS:               ID:20120108121609 L   I
 2012-01-08-1210-00M.COL___186                                                 6
 STAT SP IPHASW D HRMM SECON CODA AMPLIT PERI AZIMU VELO SNR AR TRES W  DIS CAZ7
 BAR2 SZ EP       1216 29.03                             174     0.010   14 193 
 BAR2 SZ ES   2   1216 44.93                             174     0.3 5   14 193 
 BAR2 SZ I        1216 47.00         8.1 0.32                            14 193 
 GIR2 SZ EP       1216 29.59                             164     0.110   40 354 
 GIR2 SZ ES   2   1216 45.38                             164    -0.1 5   40 354 
 BRR  HZ EP       1216 31.13                             152     0.210   75 305 
 BRR  HZ I        1216 31.30        11.0 0.38                            75 305 
 PAM  SE ES   3   1216 48.74                             149    -1.5 2   85  36 
 PTB  HZ EP       1216 36.03                             133    -0.2 9  145 262 
 PTB  HN ES   3   1216 56.95                             133    -0.4 2  145 262 
 PTB  HZ I        1216 59.97         2.7 0.40                           145 262 
                                                                                
