 2015 12 8 1251 13.9 L   6.789 -73.100146.0  RSN 12 0.5 2.0LRSN                1
 GAP=143        1.11       3.7     4.6  6.0 -0.2357E+01  0.1043E+02  0.5150E+00E
 Epicentro: LOS SANTOS - SANTANDER                                             3
 ACTION:UPD 16-02-04 15:03 OP:cam  STATUS:               ID:20151208125113 L   I
 OLDACT:DUP 15-12-09 00:11 OP:mh   STATUS:               ID:20151208124748d    3
 OLDACT:REG 15-12-08 21:41 OP:mh   STATUS:               ID:20151208124747     3
 2015-12-08-1247-47M.COL___319                                                 6
 STAT SP IPHASW D HRMM SECON CODA AMPLIT PERI AZIMU VELO AIN AR TRES W  DIS CAZ7
 BAR2 EZ EP   1   1251 33.76                             170    0.16 7 23.6 203 
 BAR2 EZ ES       1251 48.42                             170   -0.5110 23.6 203 
 BAR2 EZ I        1251 51.17        17.1 0.42            167           23.6 203 
 PAM  EZ EP   1   1251 36.13                             152    0.08 7 75.2  36 
 PAM  EE ES       1251 53.48                             152    0.1910 75.2  36 
 PAM  EZ I        1251 55.00         5.4 0.26            157           75.2  36 
 BRR  HZ EP   1   1251 35.83                             151    0.44 7 76.2 298 
 BRR  HN ES       1251 52.75                             151    0.6210 76.2 298 
 BRR  HZ I        1251 55.89         9.9 0.18            150           76.2 298 
 RUS  HZ EP   1   1251 37.70                             144    0.09 7 99.2 179 
 RUS  HN ES       1251 56.28                             144    0.2110 99.2 179 
 RUS  HZ I        1251 59.19         7.5 0.22            145           99.2 179 
 PTB  HZ EP       1251 40.66                             131   -0.69 9  152 260 
 PTB  HN ES       1252  2.01                             131   -0.72 9  152 260 
 PTB  HZ I        1252  8.58        19.1 0.42            131            152 260 
 SPBC HZ EP       1251 42.26                             129   -0.41 9  165 221 
 SPBC HN ES       1252  5.36                             129    0.28 9  165 221 
 SPBC HZ I        1252 11.07        22.3 0.22            129            165 221 
 ZAR  HN ES       1252 13.24                             122    0.60 8  209 292 
 NOR  HZ EP       1251 49.27                             118   -0.77 8  238 235 
 NOR  HN ES       1252 17.90                             118   -0.31 8  238 235 
 NOR  HZ I        1252 21.23        11.4 0.26            119            238 235 
 SML  HZ EP       1251 50.65                             117   -0.27 8  247 334 
 SML  HN ES       1252 19.20                             117   -0.56 8  247 334 
 SML  HZ I        1252 23.17        17.7 0.10            119            247 334 
 HEL  HZ EP       1251 55.58                             114    0.92 7  277 256 
 HEL  HN ES       1252 26.79                             114    0.36 7  277 256 
 HEL  HZ I        1252 32.31         9.3 0.36            115            277 256 
 GUY2CHZ EP       1251 58.40                             112    0.46 7  305 236 
 GUY2CHE ES   4   1252 33.75                             112    1.49 0  305 236 
 GUY2CHZ I        1252 40.47         8.0 0.74                           305 236 
 ORTC HZ EP   1   1252  8.61                             106    0.51 4  397 217 
 ORTC HN ES   1   1252 50.94                             106    0.60 4  397 217 
 ORTC HZ I        1253  3.00         2.1 0.64            107            397 217 
                                                                                
