 2013  4 8 1657 11.9 L   6.814 -73.150147.5  RSN  8 0.4 1.7LRSN                1
 GAP=185        0.96       4.1     5.6  5.9  0.3850E+01  0.7174E+01  0.6029E+01E
 Epicentro: LOS SANTOS - SANTANDER                                             3
 ACTION:UPD 13-05-22 14:36 OP:EP   STATUS:               ID:20130408165711 L   I
 2013-04-08-1650-00M.COL___245                                                 6
 STAT SP IPHASW D HRMM SECON CODA AMPLIT PERI AZIMU VELO AIN AR TRES W  DIS CAZ7
 BAR2 SZ EP       1657 31.71                             170   -0.0410 24.7 188 
 BAR2 SZ ES       1657 46.80                             170   -0.4510 24.7 188 
 BAR2 SZ I        1657 48.43        15.4 0.34            165           24.7 188 
 GIR2 SZ EP       1657 31.86                             168    0.1410 29.7 351 
 GIR2 SZ ES       1657 47.24                             168    0.0410 29.7 351 
 GIR2 SZ I        1657 48.67        11.9 0.54            167           29.7 351 
 BRR  HZ EP       1657 33.56                             153    0.4010 70.1 298 
 BRR  HN ES       1657 50.56                             153    0.8110 70.1 298 
 BRR  HZ I        1657 55.48         9.9 0.28            149           70.1 298 
 RUS  HZ EP       1657 35.73                             144   -0.1810  102 176 
 RUS  HN ES       1657 54.54                             144   -0.1210  102 176 
 RUS  HZ I        1657 55.47         3.0 0.16            144            102 176 
 PTB  HZ EP       1657 38.57                             132   -0.41 9  148 258 
 PTB  HN ES       1657 59.58                             132   -0.53 9  148 258 
 PTB  HZ I        1658  6.98        11.5 0.30            130            148 258 
 NOR  HZ EP   1   1657 48.19                             119    0.43 6  235 234 
 NOR  HE ES   1   1658 15.63                             119   -0.13 6  235 234 
 NOR  HZ I        1658 20.16         2.7 0.24            118            235 234 
 SML  HN ES   1   1658 16.39                             118   -0.56 6  242 335 
 CHI  HZ EP       1657 49.93                             117    0.11 8  250 195 
 CHI  HN ES   1   1658 20.10                             117    0.69 6  250 195 
 CHI  HZ I        1658 25.19         2.0 0.38            118            250 195 
                                                                                
