 2012  4 8 1059 38.2 L   6.560 -73.557106.9  RSN  8 0.4 1.9LRSN                1
 GAP= 88        1.01       7.2     4.7 10.2 -0.7273E+01  0.1155E+02 -0.6997E+01E
 Epicentro: EL CARMEN DE CHUCURI - SANTANDER                                   3
 ACTION:UPD 12-07-05 11:51 OP:tino STATUS:               ID:20120408105938 L   I
 2012-04-08-1057-36M.COL___169                                                 6
 STAT SP IPHASW D HRMM SECON CODA AMPLIT PERI AZIMU VELO AIN AR TRES W  DIS CAZ7
 BAR2 SZ IP       1059 54.30                             157     0.410   42  85 
 BAR2 SZ ES   1   11 0  6.34                             157     0.3 7   42  85 
 BAR2 SZ I        11 0  8.04       124.6 0.32                            42  85 
 BRR  HZ EP       1059 55.05                             147     0.310   63 344 
 BRR  HZ I        11 0 15.39        22.3 0.14                            63 344 
 RUS  HZ EP       1059 57.44                             137    -0.110   91 145 
 RUS  HZ I        1059 57.72         5.0 0.34                            91 145 
 RUS  HN ES   3   11 0 12.88                             137     0.3 2   91 145 
 PTB  HZ EP       1059 57.15                             134    -0.510  100 269 
 PTB  HE ES   1   11 0 12.38                             134    -0.4 7  100 269 
 PTB  HZ I        11 0 13.57        13.6 0.16                           100 269 
 PAM  SZ EP       11 0  0.52                             126    -0.410  128  48 
 PAM  SN ES   1   11 0 18.32                             126    -0.4 7  128  48 
 ZAR  HZ EP   1   11 0  6.26                             116     0.8 7  177 306 
 ZAR  HZ I        11 0 32.22        14.9 0.28                           177 306 
 NOR  SZ EP   3   11 0  5.76                             115    -0.3 2  182 233 
 HEL  HZ EP   2   11 0 11.39                             110     0.4 4  222 260 
 HEL  HE ES   3   11 0 36.58                             110     0.1 2  222 260 
 HEL  HZ I        11 0 43.05         4.4 0.22                           222 260 
                                                                                
