 2016 11 8 1111  9.3 L   6.758 -73.152144.9  RSN  4 0.3 1.6LRSN                1
 GAP=153        0.79       7.1     4.2  7.3 -0.9892E+01  0.1197E+02 -0.8709E+01E
 Epicentro: LOS SANTOS - SANTANDER                                             3
 ACTION:UPD 17-10-26 21:05 OP:lp   STATUS:               ID:20161108111109 L   I
 OLDACT:REG 16-11-08 21:53 OP:dnl  STATUS:               ID:20161108110744     3
 2016-11-08-1108-00M.COL___343                                                 6
 STAT SP IPHASW D HRMM SECON CODA AMPLIT PERI AZIMU VELO AIN AR TRES W  DIS CAZ7
 BAR2 EZ EP       1111 28.91                             172    0.1310 18.6 190 
 BAR2 EZ ES       1111 44.30                             172    0.3610 18.6 190 
 BAR2 EZ I        1111 46.12         9.3 0.20            173           18.6 190 
 PAM  EZ IP     C 1111 31.88                             149    0.1710 81.4  38 
 PAM  EE ES       1111 48.79                             149   -0.3710 81.4  38 
 PAM  EZ I        1111 51.13         6.9 0.70            151           81.4  38 
 PTB  HZ EP       1111 35.73                             132   -0.37 9  146 261 
 PTB  HN ES       1111 56.63                             132   -0.34 9  146 261 
 PTB  HZ I        1112  1.71         3.8 0.28            132            146 261 
 ZAR  HZ EP   2   1111 42.64                             122    0.80 4  205 293 
 ZAR  HE ES       1112  7.44                             122    0.24 9  205 293 
 ZAR  HZ I        1112 14.16         3.9 0.24            122            205 293 
                                                                                
