 2010  5 8 1433 16.1 L   6.803 -73.009129.9  RSN  6 0.2 1.8LRSN                1
 GAP=174        0.53       3.4    12.8  6.4 -0.2226E+02 -0.7530E+01 -0.4930E+01E
 Epicentro: CEPITA - SANTANDER                                                 3
 ACTION:UP  10-08-24 10:03 OP:vdl  STATUS:               ID:20100508143316 L   I
 2010-05-08-1429-43S.COL___105                                                 6
 STAT SP IPHASW D HRMM SECON CODA AMPLIT PERI AZIMU VELO SNR AR TRES W  DIS CAZ7
 BAR2 SZ IP       1433 34.06                             166     0.010   30 220 
 BAR2 SZ ES   1   1433 47.75                             166    -0.2 7   30 220 
 GIR2 SZ EP   1   1433 34.14                             163     0.1 7   37 326 
 BRR  HZ EP   2   1433 36.62                             145     0.1 5   85 293 
 BRR  HZ I        1434  2.15        20.6 0.30                            85 293 
 RUS  HZ EP   1   1433 37.95                             140    -0.4 7  101 185 
 RUS  HN ES   1   1433 56.13                             140     0.4 7  101 185 
 RUS  HZ I        1433 57.79         6.9 0.46                           101 185 
 GUE  SZ EP   1   1433 39.19                             136     0.0 7  114   5 
 GRA  SZ EP   1   1433 39.79                             134     0.2 7  122  11 
 GRA  SZ ES   1   1433 57.96                             134     0.0 7  122  11 
                                                                                
