 2017  8 8 1923 56.0 L   6.765 -73.095139.3  RSN 12 0.5 1.9LRSN                1
 GAP=118        0.95       3.7     3.2  5.6  0.9937E+00  0.5163E+01  0.7914E+01E
 Epicentro: LOS SANTOS - SANTANDER                                             3
 ACTION:UPD 17-09-04 20:18 OP:rebc STATUS:               ID:20170808192356 L   I
 OLDACT:UP  17-08-09 01:24 OP:dhb  STATUS:               ID:20170808191743d    3
 OLDACT:DUP 17-08-09 01:13 OP:dhb  STATUS:               ID:20170808191743d    3
 2017-08-08-1918-00M.COL___405                                                 6
 STAT SP IPHASW D HRMM SECON CODA AMPLIT PERI AZIMU VELO AIN AR TRES W  DIS CAZ7
 BAR2 EZ IP     C 1924 14.90                             171    0.0710 21.4 207 
 BAR2 EZ ES       1924 29.28                             171   -0.2210 21.4 207 
 BAR2 EZ I        1924 30.52        26.1 0.27            169           21.4 207 
 PAM  EZ IP     D 1924 17.90                             149    0.3810 77.1  35 
 PAM  EE ES       1924 34.53                             149    0.2310 77.1  35 
 PAM  EZ I        1924 36.87        18.0 0.46            150           77.1  35 
 BRR  HZ IP     C 1924 16.68                             149   -0.1910 77.9 299 
 BRR  HN ES       1924 33.27                             149    0.1210 77.9 299 
 BRR  HZ I        1924 37.17        16.8 0.22            150           77.9 299 
 RUS  HZ IP     C 1924 19.44                             144    0.6010 96.5 179 
 RUS  HZ I        1924 38.78         8.1 0.30            141           96.5 179 
 PTB  HZ EP   2   1924 21.79                             129   -1.12 5  153 261 
 PTB  HN ES       1924 43.22                             129   -0.67 9  153 261 
 PTB  HZ I        1924 45.37         7.6 0.16            129            153 261 
 YPLC HZ EP       1924 23.88                             126   -0.87 9  171 152 
 YPLC HN ES       1924 46.88                             126   -0.28 9  171 152 
 YPLC HZ I        1924 51.71         6.9 0.32            124            171 152 
 ZAR  HZ EP       1924 28.84                             120    0.10 8  211 293 
 ZAR  HN ES   2   1924 53.63                             120   -0.64 4  211 293 
 ZAR  HZ I        1924 59.78        12.5 0.22            120            211 293 
 NOR  HZ EP       1924 31.56                             117   -0.08 8  237 236 
 NOR  HN ES       1924 59.56                             117    0.14 8  237 236 
 NOR  HZ I        1925  4.56         5.5 0.22            116            237 236 
 CHI  HZ EP   1   1924 33.58                             116    0.46 6  246 197 
 CHI  HN ES       1925  2.61                             116    0.54 8  246 197 
 HEL  HN ES       1925  8.04                             113    0.12 7  277 257 
 HEL  HZ I        1925  8.88         6.0 0.32            112            277 257 
 GUY2CHZ EP       1924 39.51                             111   -0.10 7  304 236 
 GUY2CHN ES   3   1925 16.15                             111    2.54 2  304 236 
 GUY2CHZ I        1925 21.28         3.5 0.52                           304 236 
 CBOC HZ EP       1924 43.23                             108    0.08 7  338 253 
 CBOC HN ES       1925 20.22                             108    0.30 7  338 253 
 CBOC HZ I        1925 26.64         1.6 0.09            108            338 253 
                                                                                
