 2014  6 8 1310 45.8 L   6.734 -73.218140.7  RSN  6 0.4 1.4LRSN                1
 GAP=219        1.10       5.7     6.2  7.5  0.1398E+02  0.1015E+02  0.1958E+00E
 Epicentro: VILLANUEVA - SANTANDER                                             3
 ACTION:UPD 14-07-01 22:52 OP:nd   STATUS:               ID:20140608131045 L   I
 OLDACT:REG 14-06-08 21:31 OP:stll STATUS:               ID:20140608130817     3
 2014-06-08-1308-17M.COL___262                                                 6
 STAT SP IPHASW D HRMM SECON CODA AMPLIT PERI AZIMU VELO AIN AR TRES W  DIS CAZ7
 BAR2 SZ EP       1311  4.39                             173   -0.3210 16.2 166 
 BAR2 SZ I        1311  4.86         6.3 0.18            172           16.2 166 
 BAR2 SZ ES       1311 19.89                             173    0.4410 16.2 166 
 BRR  HZ EP       1311  6.09                             153   -0.1710 68.4 307 
 BRR  HE ES       1311 22.46                             153    0.2610 68.4 307 
 BRR  HZ I        1311 27.16         6.8 0.46            150           68.4 307 
 RUS  HZ EP       1311  8.82                             145    0.2110 94.2 171 
 RUS  HE ES       1311 25.75                             145   -0.6410 94.2 171 
 RUS  HZ I        1311 27.77         2.3 0.48            148           94.2 171 
 PTB  HZ EP       1311 11.00                             133   -0.54 9  139 261 
 PTB  HN ES       1311 31.05                             133   -0.55 9  139 261 
 PTB  HZ I        1311 39.52         4.1 0.34            132            139 261 
 SPBC HZ EP       1311 13.40                             130    0.49 9  152 218 
 SPBC HN ES       1311 34.62                             130    0.58 9  152 218 
 ZAR  HZ EP       1311 17.90                             122    0.43 9  200 295 
 ZAR  HN ES       1311 42.10                             122   -0.06 9  200 295 
 ZAR  HZ I        1311 48.47         4.3 0.26            123            200 295 
                                                                                
