 2014  9 8 1102 35.7 L   6.450 -73.718 14.9  RSN 11 0.5 2.0LRSN                1
 GAP= 75        1.25       2.4     2.7  5.0 -0.2550E+00  0.7307E+01  0.9900E+00E
 Epicentro: SANTA HELENA DEL OPON - SANTANDER                                  3
 ACTION:UPD 14-10-03 23:03 OP:nd   STATUS:               ID:20140908110235 L   I
 OLDACT:REG 14-09-08 21:02 OP:carl STATUS:               ID:20140908105818     3
 2014-09-08-1058-18M.COL___260                                                 6
 STAT SP IPHASW D HRMM SECON CODA AMPLIT PERI AZIMU VELO AIN AR TRES W  DIS CAZ7
 BAR2 SZ IP     C 11 2 46.18                             101    0.1410 61.3  75 
 BAR2 SZ ES       11 2 53.71                             101   -0.3510 61.3  75 
 BAR2 SZ I        11 2 54.31        95.9 0.20             47           61.3  75 
 BRR  HZ EP       11 2 47.90                              99    0.4210 72.6   1 
 BRR  HN ES       11 2 57.00                              99    0.3710 72.6   1 
 PTB  HZ EP       11 2 48.59                              98   -0.3410 82.2 277 
 PTB  HE ES       11 2 58.29                              98   -0.9310 82.2 277 
 PTB  HZ I        11 2 58.71        58.8 0.28             47           82.2 277 
 RUS  HN ES       11 3  2.36                              97   -0.7510 93.5 131 
 SPBC HZ EP       11 2 51.68                              97    0.5110 96.6 204 
 SPBC HE ES       11 3  4.01                              97    0.8210 96.6 204 
 SPBC HZ I        11 3  8.32        24.1 0.10             47           96.6 204 
 NOR  HZ EP       11 3  0.35                              56    0.12 9  161 232 
 NOR  HN ES       11 3 19.25                              56   -0.08 9  161 232 
 NOR  HZ I        11 3 20.91        21.6 0.16             47            161 232 
 ZAR  HZ EP       11 3  1.64                              56    0.22 9  171 313 
 ZAR  HE ES       11 3 21.51                              56    0.07 9  171 313 
 ZAR  HZ I        11 3 23.54        15.4 0.18             47            171 313 
 CHI  HN ES   4   11 3 32.60                              56    3.47 0  201 180 
 CHI  HZ I        11 3 37.26         7.6 0.52             37            201 180 
 HEL  HZ EP       11 3  6.13                              56    0.32 9  202 262 
 HEL  HN ES       11 3 28.62                              56   -0.65 9  202 262 
 HEL  HZ I        11 3 30.78        18.6 0.36             37            202 262 
 GUY2CHZ EP   4   11 3 10.84                              56    1.79 0  227 233 
 GUY2CHE ES       11 3 35.16                              56    0.13 8  227 233 
 GUY2CHZ I        11 3 42.73         4.7 0.44                           227 233 
 TOL  SZ EP   4   11 3 16.67                              56    2.18 0  272 221 
 TOL  SN ES   4   11 3 47.31                              56    2.60 0  272 221 
 TOL  SZ I        11 3 51.09        12.7 0.24             37            272 221 
                                                                                
