 2010 10 8 1228 32.4 L   6.826 -73.145139.7  RSN 14 0.8 3.1LRSN                1
 GAP=172        1.93       6.8    10.9 10.2 -0.4067E+02  0.8331E+01  0.1688E+02E
 Epicentro: LOS SANTOS - SANTANDER                                             3
 ACTION:UP  11-02-18 11:08 OP:tino STATUS:               ID:20101008122832 L   I
 2010-10-08-1227-13S.COL___121                                                 6
 STAT SP IPHASW D HRMM SECON CODA AMPLIT PERI AZIMU VELO SNR AR TRES W  DIS CAZ7
 BTL  SZ EP       1228 51.53                             173     0.410   17 307 
 BTL  SZ ES       1229  4.22                             173    -1.610   17 307 
 BAR2 SZ EP       1228 51.17                             169    -0.210   26 189 
 BAR2 SZ ES   1   1229  6.16                             169     0.0 7   26 189 
 BAR2 SZ I        1229  7.52       348.7 0.27                            26 189 
 BRR  HZ EP       1228 52.97                             152     0.210   70 296 
 BRR  HN ES       1229  9.94                             152     1.210   70 296 
 BRR  HZ I        1229 14.17       325.8 0.11                            70 296 
 GUE  SZ EP       1228 56.18                             139    -0.110  114  12 
 GUE  SZ I        1228 57.67        42.9 0.11                           114  12 
 GRA  SZ IP       1228 57.03                             136     0.210  123  18 
 GRA  SZ ES   1   1229 16.39                             136     0.4 7  123  18 
 OCA  SZ EP       1228 59.60                             129    -0.4 9  157 353 
 OCA  SZ ES   1   1229 22.17                             129     0.7 7  157 353 
 OCA  SZ I        1229 25.95       201.6 0.06                           157 353 
 NOR  SZ EP       1229  7.33                             117    -0.6 8  237 234 
 NOR  SN ES       1229 34.78                             117    -1.0 8  237 234 
 CHI  HZ EP       1229  9.47                             115    -0.6 8  251 195 
 CHI  HN ES       1229 39.91                             115     0.5 8  251 195 
 ROSC BZ EP   1   1229 10.79                             115     0.3 6  255 211 
 ROSC BN ES       1229 42.08                             115     1.9 8  255 211 
 ROSC BZ I        1229 46.18        60.8 0.13                           255 211 
 HEL  HZ EP   1   1229 13.38                             113     1.0 6  273 255 
 HEL  HN ES   1   1229 42.62                             113    -1.0 6  273 255 
 HEL  HZ I        1229 49.58        57.8 0.32                           273 255 
 RREF HN ES       1229 54.17                             109    -0.3 7  324 229 
 RREF HZ I        1230  0.48        47.9 0.12                           324 229 
 DBB  SZ EP       1229 19.17                             108    -0.4 7  339 274 
 TOL  SZ EP   1   1229 21.15                             108     0.5 5  346 224 
 PRA  HZ EP       1229 25.73                             105    -0.3 6  395 209 
 PRA  HN ES       1230  7.67                             105    -0.2 6  395 209 
 PRA  HZ I        1230 11.76       182.1 0.34                           395 209 
                                                                                
