 2012  1 8 1924 17.1 L   6.745 -73.374124.0  RSN  6 0.4 1.3LRSN                1
 GAP= 98        0.95       5.7     6.8  8.2  0.3503E+01  0.9882E+01  0.3175E+01E
 Epicentro: ZAPATOCA - SANTANDER                                               3
 ACTION:UP  12-02-03 08:15 OP:REBC STATUS:               ID:20120108192417 L   I
 2012-01-08-1920-00M.COL___186                                                 6
 STAT SP IPHASW D HRMM SECON CODA AMPLIT PERI AZIMU VELO SNR AR TRES W  DIS CAZ7
 BAR2 SZ EP       1924 34.42                             167     0.210   27 129 
 BAR2 SZ I        1924 34.51        11.8 0.24                            27 129 
 BAR2 SZ ES   1   1924 47.33                             167    -0.2 7   27 129 
 GIR2 SZ EP       1924 34.45                             160    -0.110   42  28 
 GIR2 SZ ES   2   1924 47.27                             160    -1.0 5   42  28 
 BRR  HZ EP       1924 35.13                             155     0.110   55 317 
 BRR  HN ES   1   1924 49.59                             155     0.7 7   55 317 
 BRR  HZ I        1924 50.94        10.5 0.16                            55 317 
 PAM  SZ EP       1924 38.47                             139    -0.210   99  49 
 PAM  SN ES   2   1924 56.01                             139     0.5 5   99  49 
 RUS  HZ EP       1924 39.07                             139     0.410  100 161 
 RUS  HZ I        1924 39.44         1.8 0.22                           100 161 
 RUS  HN ES   1   1924 55.42                             139    -0.1 7  100 161 
 PTB  HZ EP       1924 39.54                             133    -0.410  122 259 
 PTB  HZ I        1925  1.86         2.2 0.42                           122 259 
                                                                                
