 2016 10 8 1021 56.2 L   6.793 -73.163144.8  RSN  9 0.4 1.6LRSN                1
 GAP=135        0.79       2.5     3.4  5.0 -0.6645E+00  0.6265E+01  0.2353E+01E
 Epicentro: LOS SANTOS - SANTANDER                                             3
 ACTION:UPD 16-11-09 19:17 OP:rebc STATUS:               ID:20161008102156 L   I
 OLDACT:REG 16-10-08 20:14 OP:lv   STATUS:               ID:20161008101744     3
 2016-10-08-1018-00M.COL___357                                                 6
 STAT SP IPHASW D HRMM SECON CODA AMPLIT PERI AZIMU VELO AIN AR TRES W  DIS CAZ7
 BAR2 EZ EP       1022 15.62                             171   -0.1110 22.3 186 
 BAR2 EZ ES       1022 30.89                             171   -0.0410 22.3 186 
 PAM  EZ EP       1022 18.59                             150    0.1310 79.2  40 
 PAM  EN ES       1022 35.80                             150    0.0110 79.2  40 
 PAM  EZ I        1022 38.40         3.3 0.20            155           79.2  40 
 RUS  HZ EP       1022 19.65                             144   -0.2010 99.9 175 
 RUS  HE ES       1022 38.44                             144    0.1810 99.9 175 
 RUS  HZ I        1022 40.04         3.0 0.43            146           99.9 175 
 PTB  HZ EP       1022 22.38                             132   -0.57 9  146 259 
 PTB  HE ES       1022 43.71                             132   -0.06 9  146 259 
 PTB  HZ I        1022 50.31         3.4 0.19            132            146 259 
 OCA  HN ES       1022 46.33                             129   -0.26 9  161 354 
 OCA  HZ I        1022 49.25         8.5 0.13            132            161 354 
 ZAR  HZ EP       1022 28.75                             122    0.28 9  203 293 
 ZAR  HN ES       1022 54.06                             122    0.45 9  203 293 
 ZAR  HZ I        1022 58.98         3.7 0.23            123            203 293 
 NOR  HZ EP       1022 31.81                             118    0.11 8  233 234 
 NOR  HE ES       1022 59.40                             118    0.05 8  233 234 
 NOR  HZ I        1023  5.28         2.5 0.20            120            233 234 
 CHI  HZ EP       1022 34.10                             117    0.35 8  247 195 
 CHI  HN ES       1023  3.50                             117    0.50 8  247 195 
 CHI  HZ I        1023  6.91         2.6 0.36            119            247 195 
 PRA  HZ EP       1022 49.68                             106    0.14 6  390 209 
 PRA  HE ES       1023 29.92                             106   -1.19 6  390 209 
 PRA  HZ I        1023 37.81         3.0 0.48            108            390 209 
                                                                                
