 2014  1 8 1111 37.7 L   6.858 -73.153143.1  RSN  5 0.6 1.3LRSN                1
 GAP=201        1.36       5.6     9.7 10.2  0.1586E+02  0.1374E+02 -0.9998E+01E
 Epicentro: LOS SANTOS - SANTANDER                                             3
 ACTION:UPD 14-03-13 09:52 OP:ep   STATUS:               ID:20140108111137 L   I
 OLDACT:REG 14-01-08 14:51 OP:stll STATUS:               ID:20140108110811     3
 2014-01-08-1108-11M.COL___225                                                 6
 STAT SP IPHASW D HRMM SECON CODA AMPLIT PERI AZIMU VELO AIN AR TRES W  DIS CAZ7
 BAR2 SZ EP       1111 57.52                             168    0.3110 29.5 186 
 BAR2 SZ ES       1112 12.55                             168    0.1710 29.5 186 
 BAR2 SZ I        1112 13.81         9.0 0.22            165           29.5 186 
 RUS  HZ EP       1112  1.94                             141    0.2210  107 176 
 RUS  HN ES       1112 20.13                             141   -0.2810  107 176 
 RUS  HZ I        1112 21.61         2.9 0.24            141            107 176 
 PTB  HZ EP       1112  5.26                             131    0.70 9  148 256 
 PTB  HN ES       1112 25.73                             131    0.26 9  148 256 
 PTB  HZ I        1112 31.01         2.5 0.14            129            148 256 
 SML  HZ EP       1112 14.04                             117    0.47 8  238 335 
 SML  HN ES       1112 40.23                             117   -1.27 8  238 335 
 CHI  HZ EP       1112 15.79                             116   -0.16 8  255 195 
 CHI  HN ES       1112 44.70                             116   -1.05 8  255 195 
 CHI  HZ I        1112 48.68         1.1 0.48            116            255 195 
                                                                                
