 2010  8 8 1100  0.5 L   6.786 -73.056141.3  RSN  6 0.4 1.2LRSN                1
 GAP=169        0.77       5.1    11.9  9.1 -0.1246E+02 -0.3250E+02 -0.1415E+01E
 Epicentro: LOS SANTOS - SANTANDER                                             3
 ACTION:UP  10-09-07 10:53 OP:vdl  STATUS:               ID:20100808110000 L   I
 2010-08-08-1056-54S.COL___125                                                 6
 STAT SP IPHASW D HRMM SECON CODA AMPLIT PERI AZIMU VELO SNR AR TRES W  DIS CAZ7
 BAR2 SZ EP   1   11 0 19.57                             169    -0.1 7   26 213 
 BAR2 SZ ES   2   11 0 34.51                             169    -0.1 5   26 213 
 BTL  SZ EP   1   11 0 19.77                             169     0.1 7   28 302 
 BTL  SZ ES   2   11 0 34.46                             169    -0.2 5   28 302 
 BRR  HZ EP   1   11 0 21.37                             149    -0.4 7   81 296 
 BRR  HE ES   2   11 0 38.74                             149     0.4 5   81 296 
 BRR  HZ I        11 0 50.53         6.3 0.71                            81 296 
 RUS  HZ EP   1   11 0 23.74                             143     0.0 7   99 182 
 RUS  HN ES   2   11 0 42.03                             143     0.2 5   99 182 
 RUS  HZ I        11 0 43.39         2.4 0.37                            99 182 
 GUE  SZ EP   1   11 0 25.07                             138     0.3 7  116   7 
 GUE  SZ ES   2   11 0 44.61                             138     0.8 5  116   7 
 GUE  SZ I        11 0 53.06         1.0 0.16                           116   7 
 GRA  SZ EP   1   11 0 25.46                             136     0.2 7  125  13 
 GRA  SZ ES   2   11 0 43.44                             136    -1.2 5  125  13 
 GRA  SZ I        11 0 46.94         3.0 0.37                           125  13 
                                                                                
