 2016  9 8 1225 25.5 L   6.845 -73.131142.0  RSN  4 0.3 1.4LRSN                1
 GAP=280        0.78       7.7     5.1  6.5  0.5337E+01  0.1272E+02 -0.1616E+01E
 Epicentro: LOS SANTOS - SANTANDER                                             3
 ACTION:UPD 17-08-17 21:08 OP:lp   STATUS:               ID:20160908122525 L   I
 OLDACT:REG 16-09-08 19:45 OP:lv   STATUS:               ID:20160908121735     3
 2016-09-08-1218-00M.COL___353                                                 6
 STAT SP IPHASW D HRMM SECON CODA AMPLIT PERI AZIMU VELO AIN AR TRES W  DIS CAZ7
 BAR2 EZ EP       1225 44.83                             168    0.0410 28.5 192 
 BAR2 EZ ES       1226  0.05                             168    0.2110 28.5 192 
 BAR2 EZ I        1226  1.41         6.8 0.18            168           28.5 192 
 RUS  HZ EP       1225 49.10                             142   -0.1410  105 177 
 RUS  HE ES       1226  7.66                             142   -0.1010  105 177 
 RUS  HZ I        1226  8.83         2.3 0.25            143            105 177 
 PTB  HZ EP       1225 51.91                             131   -0.49 9  150 257 
 PTB  HE ES       1226 13.44                             131    0.06 9  150 257 
 PTB  HZ I        1226 15.24         2.6 0.16            132            150 257 
 GUY2CHZ EP       1226 10.26                             111    0.85 7  305 234 
 GUY2CHN ES       1226 43.51                             111   -0.15 7  305 234 
 GUY2CHZ I        1226 51.18         1.7 0.34                           305 234 
                                                                                
