 2011  8 8 1333 38.0 L   6.007 -73.701115.5  RSN  6 0.2 2.2LRSN                1
 GAP=110        0.44       1.8     2.5  4.6 -0.1116E+01  0.4807E+01  0.1698E+01E
 Epicentro: VELEZ - SANTANDER                                                  3
 ACTION:UPD 12-07-25 14:07 OP:epov STATUS:               ID:20110808133338 L   I
 2011-08-08-1332-25S.COL___143                                                 6
 STAT SP IPHASW D HRMM SECON CODA AMPLIT PERI AZIMU VELO AIN AR TRES W  DIS CAZ7
 RUS  HZ EP       1333 56.56                             147    0.0210 69.6 100 
 RUS  HZ I        1333 56.98        24.5 0.34                          69.6 100 
 RUS  HN ES   1   1334 10.95                             147   -0.07 7 69.6 100 
 BAR2 SZ EP       1333 57.72                             141    0.3210 86.5  42 
 BAR2 SZ ES   1   1334 12.48                             141   -0.07 7 86.5  42 
 BAR2 SZ I        1334 13.63       129.9 0.50                          86.5  42 
 BRR  HZ EP       1333 59.96                             130   -0.1410  122 359 
 BRR  HE ES   1   1334 17.26                             130   -0.09 7  122 359 
 BRR  HZ I        1334 20.34        45.8 0.14                           122 359 
 NOR  SZ EP       1334  1.62                             126   -0.16 9  138 249 
 NOR  SN ES   1   1334 20.57                             126    0.23 7  138 249 
 CHI  HZ EP       1334  3.47                             123   -0.19 9  152 181 
 CHI  HN ES   1   1334 23.71                             123    0.03 7  152 181 
 CHI  HZ I        1334 27.29         9.5 0.28                           152 181 
 PRA  HZ EP       1334 18.25                             107    0.24 7  286 207 
 PRA  HN ES   2   1334 48.89                             107   -0.34 4  286 207 
                                                                                
