 2014  3 8 1804 42.5 L   6.798 -73.129143.8  RSN 19 0.6 2.8LRSN                1
 GAP= 72        1.43       3.3     3.8  6.0 -0.3025E+01  0.3032E+01  0.1097E+01E
 Epicentro: LOS SANTOS - SANTANDER                                             3
 ACTION:UPD 14-04-09 23:15 OP:nd   STATUS:               ID:20140308180442 L   I
 OLDACT:REG 14-03-08 16:50 OP:stll STATUS:               ID:20140308175817     3
 2014-03-08-1758-17M.COL___228                                                 6
 STAT SP IPHASW D HRMM SECON CODA AMPLIT PERI AZIMU VELO AIN AR TRES W  DIS CAZ7
 BAR2 SZ EP       18 5  2.25                             170    0.3910 23.5 195 
 BAR2 SZ ES       18 5 15.43                             170   -1.5610 23.5 195 
 BAR2 SZ I        18 5 19.79       163.8 0.26            169           23.5 195 
 BRR  HZ IP     D 18 5  4.16                             151    0.6510 73.0 298 
 BRR  HN ES       18 5 21.19                             151    1.2810 73.0 298 
 BRR  SZ I        18 5 24.45        54.5 0.24            153           73.0 298 
 PAM  SZ IP     D 18 5  5.09                             151    0.6810 76.4  38 
 PAM  SN ES       18 5 21.63                             151    0.1010 76.4  38 
 RUS  HZ IP     C 18 5  6.18                             143    0.1810  100 177 
 RUS  HN ES       18 5 24.39                             143    0.0410  100 177 
 RUS  SZ I        18 5 26.21        53.1 0.28            142            100 177 
 PTB  HZ EP       18 5  9.06                             131   -0.38 9  150 259 
 PTB  HN ES       18 5 29.65                             131   -0.83 9  150 259 
 PTB  SZ I        18 5 32.01        56.9 0.14            132            150 259 
 TAM  HZ IP     D 18 5 10.49                             130    0.68 9  153 105 
 TAM  SZ I        18 5 31.09        31.6 0.34            129            153 105 
 TAM  HN ES       18 5 31.27                             130    0.13 9  153 105 
 OCA  HZ EP       18 5 10.42                             129   -0.25 9  161 352 
 OCA  HN ES       18 5 32.86                             129    0.19 9  161 352 
 OCA  SZ I        18 5 37.89        76.6 0.32            129            161 352 
 SPBC HZ EP       18 5 11.16                             128    0.25 9  164 220 
 SPBC HN ES       18 5 32.92                             128   -0.17 9  164 220 
 SPBC SZ I        18 5 38.12       108.5 0.28            128            164 220 
 NOR  HZ EP       18 5 18.08                             118   -0.15 8  236 235 
 NOR  HN ES       18 5 45.69                             118   -0.44 8  236 235 
 NOR  SZ I        18 5 49.69        67.2 0.24            118            236 235 
 SML  HZ EP       18 5 18.41                             117   -0.68 8  245 335 
 SML  HN ES       18 5 46.97                             117   -0.69 8  245 335 
 SML  SZ I        18 5 50.77        96.6 0.08            117            245 335 
 CHI  HZ EP       18 5 20.30                             117    0.22 8  249 196 
 CHI  HN ES       18 5 49.18                             117   -0.24 8  249 196 
 CHI  SZ I        18 5 54.77        22.5 0.72            116            249 196 
 HEL  HZ EP       18 5 23.24                             114    0.46 8  274 256 
 HEL  HN ES       18 5 54.99                             114    0.77 8  274 256 
 HEL  SZ I        18 6  2.34        36.6 0.58            114            274 256 
 SOCV BZ EP       18 5 24.46                             112   -0.80 7  300  57 
 GUY2CHZ EP       18 5 26.74                             112    0.60 7  303 235 
 GUY2CHE ES       18 6  0.34                             112    0.13 7  303 235 
 GUY2CSZ I        18 6  6.26        27.0 0.54                           303 235 
 VIL  SZ EP       18 5 24.83                             112   -0.98 7  303 192 
 VIL  SE ES       18 5 59.34                             112   -0.27 7  303 192 
 VIL  SZ I        18 6  9.14        36.9 0.38            111            303 192 
 CBOC HZ EP       18 5 30.06                             109    0.56 7  335 252 
 COD  HZ EP       18 5 30.27                             108   -0.55 6  349 354 
 SDV  BZ EP     C 18 5 31.71                             108   -0.57 6  359  50 
 ORTC HZ EP       18 5 36.66                             106    0.24 6  396 216 
 ORTC HN ES       18 6 18.35                             106   -0.16 6  396 216 
 ORTC SZ I        18 6 24.99        23.3 0.40            106            396 216 
                                                                                
