 2011 11 8 1036  9.2 L   6.873 -73.244170.0  RSN  6 0.3 2.2LRSN                1
 GAP=171        0.58       5.6     5.8  6.6 -0.1556E+02 -0.1914E+00 -0.3882E+01E
 Epicentro: BETULIA - SANTANDER                                                3
 ACTION:UPD 12-07-13 16:09 OP:ep   STATUS:               ID:20111108103609 L   I
 2011-11-08-1025-00M.COL___167                                                 6
 STAT SP IPHASW D HRMM SECON CODA AMPLIT PERI AZIMU VELO AIN AR TRES W  DIS CAZ7
 BAR2 SZ EP       1036 31.78                             169   -0.1210 31.7 168 
 BAR2 SZ I        1036 48.35        25.5 0.20                          31.7 168 
 BRR  HZ I        1036 23.74        29.9 0.07                          57.9 297 
 BRR  HN ES   1   1036 50.71                             160    0.21 7 57.9 297 
 ZAR  HZ EP   1   1036 42.15                             129    0.08 7  191 291 
 ZAR  HZ I        1037 15.85        13.6 0.30                           191 291 
 NOR  SZ EP   1   1036 46.71                             124    0.67 6  231 231 
 NOR  SN ES   1   1037 14.47                             124   -0.32 6  231 231 
 HEL  HN ES   1   1037 21.34                             120   -0.24 6  264 254 
 HEL  HZ I        1037 31.08         9.9 0.28                           264 254 
 COD  HZ EP       1036 57.42                             114   -0.20 7  339 356 
 COD  HZ I        1037 44.39         6.5 0.27                           339 356 
                                                                                
