 2013  3 8 1424 19.3 L   6.776 -73.124147.1  RSN  4 0.5 1.9LRSN                1
 GAP=238        1.16       9.9    11.1  9.8  0.6393E+02  0.7572E+00 -0.2434E+01E
 Epicentro: LOS SANTOS - SANTANDER                                             3
 ACTION:UPD 13-04-09 14:00 OP:ep   STATUS:               ID:20130308142419 L   I
 2013-03-08-1420-00M.COL___231                                                 6
 STAT SP IPHASW D HRMM SECON CODA AMPLIT PERI AZIMU VELO AIN AR TRES W  DIS CAZ7
 BAR2 SZ EP       1424 39.13                             171    0.0610 21.3 198 
 BAR2 SZ ES       1424 53.63                             171   -0.8410 21.3 198 
 BAR2 SZ I        1424 57.50        29.5 0.27            175           21.3 198 
 BRR  HZ EP       1424 40.79                             152   -0.0110 74.6 299 
 BRR  HZ I        1424 57.55        10.9 0.28            145           74.6 299 
 BRR  HE ES       1424 58.18                             152    0.6210 74.6 299 
 RUS  HZ EP       1424 43.18                             145    0.1810 97.8 177 
 RUS  HE ES       1425  1.89                             145    0.4210 97.8 177 
 RUS  HZ I        1425  3.38        12.5 0.15            147           97.8 177 
 PTB  HZ EP   1   1424 45.87                             132   -0.69 7  150 260 
 PTB  HE ES   1   1425  7.63                             132   -0.18 7  150 260 
 PTB  HZ I        1425  8.86        12.0 0.11            130            150 260 
                                                                                
