 2017  9 8 1017  7.1 L   5.931 -73.752110.9  RSN  5 0.2 1.5LRSN                1
 GAP= 86        0.58       2.0     2.4  5.8 -0.5542E+00  0.6876E+01 -0.1115E+01E
 Epicentro: SUCRE - SANTANDER                                                  3
 ACTION:UPD 17-10-05 19:10 OP:rebc STATUS:               ID:20170908101707 L   I
 OLDACT:DUP 17-09-08 20:40 OP:lv   STATUS:               ID:20170908100740d    3
 2017-09-08-1008-00M.COL___419                                                 6
 STAT SP IPHASW D HRMM SECON CODA AMPLIT PERI AZIMU VELO AIN AR TRES W  DIS CAZ7
 RUS  HZ EP       1017 25.70                             144    0.1510 74.1  93 
 RUS  HN ES       1017 39.94                             144    0.0210 74.1  93 
 BAR2 EZ EP       1017 26.76                             136   -0.1910 96.5  41 
 BAR2 EZ ES       1017 42.45                             136    0.0410 96.5  41 
 BAR2 EZ I        1017 44.16        14.0 0.36            137           96.5  41 
 NOR  HZ EP       1017 30.34                             126    0.5310  130 252 
 NOR  HN ES       1017 47.30                             126   -0.2010  130 252 
 CHI  HZ EP       1017 31.51                             124   -0.14 9  144 179 
 CHI  HE ES       1017 50.71                             124   -0.07 9  144 179 
 ZAR  HZ EP       1017 38.19                             113   -0.24 8  212 325 
 ZAR  HE ES       1018  2.87                             113    0.04 8  212 325 
 ZAR  HZ I        1018  3.17         1.8 0.11            113            212 325 
                                                                                
