 2012  3 8 1830 46.4 L   6.783 -73.157144.6  RSN  6 0.4 2.4LRSN                1
 GAP=136        0.98       5.0     4.9  7.1  0.1958E+01  0.9554E+01 -0.3856E-01E
 ACTION:UP  12-03-31 23:18 OP:EP   STATUS:               ID:20120308183046 L   I
 2012-03-08-1830-00M.COL___194                                                 6
 STAT SP IPHASW D HRMM SECON CODA AMPLIT PERI AZIMU VELO SNR AR TRES W  DIS CAZ7
 BAR2 SZ EP   1   1831  5.72                             171    -0.1 7   21 188 
 BAR2 SZ ES   1   1831 20.84                             171    -0.1 7   21 188 
 BAR2 SZ I        1831 22.45        38.2 0.22                            21 188 
 BRR  HZ IP     C 1831  7.74                             152     0.410   71 300 
 BRR  HZ I        1831  8.01        64.5 0.14                            71 300 
 BRR  HN ES       1831 24.44                             152     0.710   71 300 
 PAM  SZ EP       1831  8.66                             150     0.110   80  39 
 PAM  SN ES       1831 25.35                             150    -0.610   80  39 
 RUS  HZ EP       1831 10.09                             144     0.210   99 175 
 RUS  HE ES       1831 28.14                             144    -0.110   99 175 
 PTB  HZ EP       1831 12.77                             132    -0.3 9  146 259 
 PTB  HE ES   1   1831 33.49                             132    -0.5 7  146 259 
 ZAR  HZ EP       1831 18.87                             122     0.2 9  204 293 
 ZAR  HE ES   1   1831 43.54                             122    -0.4 6  204 293 
 ZAR  HZ I        1831 50.11        25.5 0.35                           204 293 
                                                                                
