 2017  1 8 1125 45.1 L   6.701 -73.199145.5  RSN  4 0.3 1.1LRSN                1
 GAP=223        0.77       6.2     6.2  7.7  0.2581E+02  0.6280E+00 -0.2793E+01E
 Epicentro: VILLANUEVA - SANTANDER                                             3
 *BRR-RUS-PTB-ZAR                                                              3
 ACTION:UPD 17-05-22 15:56 OP:jn   STATUS:               ID:20170108111742 L   I
 OLDACT:UPD 17-03-27 16:35 OP:nlst STATUS:               ID:20170108111742 L   3
 2017-01-08-1118-00M.COL___371                                                 6
 STAT SP IPHASW D HRMM SECON CODA AMPLIT PERI AZIMU VELO AIN AR TRES W  DIS CAZ7
 BRR  HZ EP       1126  6.00                             152   -0.3010 72.3 308 
 BRR  HN ES       1126 22.96                             152    0.1510 72.3 308 
 RUS  HZ EP       1126  8.66                             147    0.5310 90.3 172 
 RUS  HN ES       1126 25.79                             147   -0.2810 90.3 172 
 PTB  HZ EP       1126 11.10                             133   -0.28 9  140 263 
 PTB  HN ES       1126 31.99                             133    0.13 9  140 263 
 PTB  HZ I        1126 35.60         1.5 0.15            131            140 263 
 ZAR  HN ES       1126 42.70                             122    0.05 9  203 296 
                                                                                
