 2015  1 8 1243  1.1 L   6.834 -73.148149.7  RSN  7 0.5 1.7LRSN                1
 GAP=135        1.18       3.8     5.4  9.3 -0.9681E+00  0.1474E+02 -0.3994E+01E
 Epicentro: LOS SANTOS - SANTANDER                                             3
 ACTION:UPD 15-03-02 15:37 OP:nd   STATUS:               ID:20150108124301 L   I
 OLDACT:REG 15-01-08 21:26 OP:mh   STATUS:               ID:20150108123748     3
 2015-01-08-1237-48M.COL___262                                                 6
 STAT SP IPHASW D HRMM SECON CODA AMPLIT PERI AZIMU VELO AIN AR TRES W  DIS CAZ7
 PAM  SZ EP       1243 23.97                             152    0.4210 74.6  42 
 PAM  SN ES       1243 41.09                             152    0.0110 74.6  42 
 PAM  SZ I        1243 42.50         3.9 0.16            156           74.6  42 
 RUS  HZ EP   1   1243 25.15                             143   -0.33 7  104 176 
 RUS  HN ES       1243 44.56                             143    0.0310  104 176 
 RUS  HZ I        1243 44.61         4.7 0.34            147            104 176 
 PTB  HZ EP       1243 27.64                             133   -0.77 9  148 257 
 PTB  HN ES       1243 49.75                             133    0.01 9  148 257 
 PTB  HZ I        1243 56.22         5.6 0.50            132            148 257 
 SPBC HN ES       1243 52.26                             129   -0.56 9  166 218 
 SPBC HZ I        1243 55.19        11.0 0.19            130            166 218 
 ZAR  HZ EP       1243 34.60                             123    0.99 9  202 291 
 ZAR  HE ES       1243 59.55                             123    0.56 9  202 291 
 ZAR  HZ I        1244  6.03         9.3 0.30            123            202 291 
 SML  HZ EP       1243 37.31                             119   -0.23 8  240 335 
 SML  HN ES       1244  5.35                             119   -0.63 8  240 335 
 SML  HZ I        1244 13.28         8.3 0.30            120            240 335 
 CHI  HZ EP       1243 39.20                             117   -0.18 8  252 195 
 CHI  HN ES       1244  9.87                             117    0.61 8  252 195 
 CHI  HZ I        1244 14.23         1.4 0.30            120            252 195 
                                                                                
