 2015  5 8 1239 59.2 L   6.293 -73.628105.9  RSN 10 0.4 1.9LRSN                1
 GAP= 88        1.10       4.0     3.4  6.5 -0.4837E+01  0.8017E+01 -0.2629E+01E
 Epicentro: SANTA HELENA DEL OPON - SANTANDER                                  3
 ACTION:UPD 15-09-10 22:02 OP:cam  STATUS:               ID:20150508123959 L   I
 OLDACT:REG 15-05-08 20:35 OP:stll STATUS:               ID:20150508123748     3
 2015-05-08-1237-48M.COL___284                                                 6
 STAT SP IPHASW D HRMM SECON CODA AMPLIT PERI AZIMU VELO AIN AR TRES W  DIS CAZ7
 BAR2 EZ EP       1240 16.23                             148    0.5110 59.3  56 
 BAR2 EZ ES       1240 29.08                             148    0.4610 59.3  56 
 RUS  HZ EP       1240 17.52                             142    0.3710 74.8 126 
 RUS  HN ES       1240 30.41                             142   -0.7610 74.8 126 
 RUS  HZ I        1240 33.45        14.0 0.34            144           74.8 126 
 SPBC HZ EP       1240 17.19                             138   -0.3010 86.3 215 
 SPBC HZ I        1240 17.91        25.3 0.26            137           86.3 215 
 SPBC HN ES       1240 32.12                             138    0.3510 86.3 215 
 BRR  HZ EP       1240 17.94                             136    0.2310 90.5 354 
 BRR  HN ES       1240 31.79                             136   -0.3810 90.5 354 
 NOR  HZ EP       1240 23.68                             119   -0.83 9  159 240 
 NOR  HN ES       1240 43.97                             119   -0.30 9  159 240 
 NOR  HZ I        1240 45.43        16.7 0.40            116            159 240 
 ZAR  HZ EP       1240 27.70                             114   -0.09 9  190 314 
 ZAR  HZ I        1240 54.76        10.1 0.38            109            190 314 
 TAM  HZ EP       1240 29.47                             112    0.07 9  204  85 
 HEL  HZ EP       1240 30.73                             111    0.14 8  211 267 
 HEL  HN ES       1240 54.90                             111   -0.19 8  211 267 
 HEL  HZ I        1241  1.03         8.9 0.26            109            211 267 
 GUY2CHZ EP       1240 33.02                             110    0.57 8  226 239 
 GUY2CHN ES       1240 58.90                             110    0.49 8  226 239 
 GUY2CHZ I        1241  4.03         6.0 0.18                           226 239 
 SOCV BZ EP       1240 49.26                              99   -0.54 6  377  54 
 SOCV BN ES   4   1241 26.53                              99   -2.75 0  377  54 
                                                                                
