 2011 12 8 1057 33.5 L   6.743 -73.102145.7  RSN  4 0.1 1.5LRSN                1
 GAP=145        0.34       2.4     3.6  3.6 -0.1345E+00 -0.8956E+00  0.1922E+00E
 Epicentro: JORDAN - SANTANDER                                                 3
 ACTION:UPD 12-07-13 16:14 OP:ep   STATUS:               ID:20111208105733 L   I
 2011-12-08-1057-00S.MAN___170                                                 6
 STAT SP IPHASW D HRMM SECON CODA AMPLIT PERI AZIMU VELO AIN AR TRES W  DIS CAZ7
 BAR2 SZ EP   1   1057 53.15                             172    0.08 7 18.9 208 
 BAR2 SZ ES   1   1058  8.27                             172   -0.04 7 18.9 208 
 BAR2 SZ I        1058  9.76        11.2 0.15                          18.9 208 
 BRR  HZ EP   1   1057 54.92                             150   -0.18 7 78.5 301 
 BRR  HZ I        1058  1.86         6.2 0.40                          78.5 301 
 BRR  HN ES   1   1058 12.03                             150    0.10 7 78.5 301 
 PAM  SZ EP   1   1057 55.79                             150   -0.07 7 79.5  34 
 PAM  SE ES   1   1058 13.33                             150    0.04 7 79.5  34 
 RUS  HZ EP   1   1057 56.99                             146    0.18 7 94.1 179 
 RUS  HN ES   1   1058 14.88                             146   -0.10 7 94.1 179 
 RUS  HZ I        1058 17.01         4.4 0.19                          94.1 179 
                                                                                
