 2010  8 8 1814 29.8 L   6.776 -73.093147.8  RSN  9 0.3 2.0LRSN                1
 GAP=165        0.57       3.3     7.9  6.2 -0.5125E+01 -0.1420E+01 -0.8402E-01E
 Epicentro: LOS SANTOS - SANTANDER                                             3
 ACTION:UP  10-09-07 10:53 OP:vdl  STATUS:               ID:20100808181429 L   I
 2010-08-08-1811-23S.COL___125                                                 6
 STAT SP IPHASW D HRMM SECON CODA AMPLIT PERI AZIMU VELO SNR AR TRES W  DIS CAZ7
 BAR2 SZ EP       1814 49.64                             171     0.010   23 206 
 BAR2 SZ I        1814 49.94        28.2 0.09                            23 206 
 BAR2 SZ ES   2   1815  4.46                             171    -0.7 5   23 206 
 BTL  SZ EP   1   1814 49.78                             170     0.1 7   25 309 
 GIR2 SZ EP   1   1814 49.74                             166     0.0 7   35 342 
 BRR  HZ IP     C 1814 51.49                             151     0.010   78 298 
 BRR  HE ES   2   1815  8.93                             151     0.5 5   78 298 
 RUS  HZ EP   1   1814 53.78                             145     0.3 7   98 179 
 RUS  HN ES   2   1815 11.91                             145    -0.1 5   98 179 
 RUS  HZ I        1815 13.07        12.5 0.45                            98 179 
 GUE  SZ EP   1   1814 54.57                             139    -0.2 7  118   9 
 GUE  SZ ES   2   1815 14.93                             139     0.6 5  118   9 
 GRA  SZ EP   1   1814 55.43                             137     0.2 7  127  15 
 GRA  SZ ES   2   1815 15.26                             137     0.1 5  127  15 
 GRA  SZ I        1815 16.07         9.6 0.34                           127  15 
 OCA  SZ EP   1   1814 58.19                             129    -0.4 7  164 351 
 OCA  SZ ES   2   1815 20.55                             129    -0.5 5  164 351 
 OCA  SZ I        1815 23.33         9.1 0.28                           164 351 
 PRA  HZ EP   1   1815 23.47                             107     0.1 4  393 211 
 PRA  HZ I        1816 10.80         4.3 0.51                           393 211 
                                                                                
