 2016  5 8 1217  5.7 L   6.862 -73.306126.0  RSN 10 0.5 1.9LRSN                1
 GAP=104        0.97       3.7     4.6  6.8 -0.8308E+01  0.1125E+02 -0.4494E+01E
 Epicentro: BETULIA - SANTANDER                                                3
 ACTION:UPD 16-08-18 17:43 OP:cam  STATUS:               ID:20160508121705 L   I
 OLDACT:REG 16-05-08 20:19 OP:dnl  STATUS:               ID:20160508120748     3
 2016-05-08-1207-48M.COL___297                                                 6
 STAT SP IPHASW D HRMM SECON CODA AMPLIT PERI AZIMU VELO AIN AR TRES W  DIS CAZ7
 BAR2 EZ EP     D 1217 23.45                             165    0.2710 32.8 155 
 BAR2 EZ ES       1217 36.51                             165   -0.3310 32.8 155 
 BRR  HZ EP       1217 23.80                             156    0.1610 52.4 301 
 BRR  HN ES       1217 37.91                             156    0.2510 52.4 301 
 BRR  HZ I        1217 38.82        32.9 0.32            152           52.4 301 
 PAM  EZ EP   2   1217 27.01                             144    0.65 5 85.3  52 
 PAM  EE ES       1217 42.90                             144    0.3910 85.3  52 
 PAM  EZ I        1217 45.70         6.9 0.18            146           85.3  52 
 PTB  HZ EP       1217 28.70                             131   -0.8910  132 254 
 PTB  HN ES       1217 48.46                             131    0.1910  132 254 
 PTB  HZ I        1217 50.76        14.7 0.26            129            132 254 
 OCA  HZ EP       1217 31.68                             126   -0.04 9  152 359 
 OCA  HN ES       1217 51.41                             126   -0.63 9  152 359 
 OCA  HZ I        1217 54.64        21.3 0.34            126            152 359 
 SPBC HZ EP   2   1217 32.39                             125    0.16 5  158 212 
 SPBC HN ES       1217 52.47                             125   -0.49 9  158 212 
 SPBC HZ I        1217 53.89         8.9 0.12            125            158 212 
 ZAR  HZ EP   2   1217 35.14                             121    0.27 4  185 292 
 ZAR  HE ES   2   1217 57.86                             121    0.21 4  185 292 
 ZAR  HZ I        1218  0.37         8.6 0.17            119            185 292 
 NOR  HZ EP   4   1217 38.15                             115   -1.07 0  225 230 
 NOR  HE ES       1218  5.97                             115    0.57 8  225 230 
 NOR  HZ I        1218 13.14         3.5 0.19            115            225 230 
 SML  HZ EP   2   1217 39.70                             115   -0.08 4  230 339 
 SML  HE ES   2   1218  6.89                             115    0.50 4  230 339 
 SML  HZ I        1218 10.66        16.5 0.10            114            230 339 
 HEL  HZ EP   4   1217 44.42                             112    1.22 0  257 253 
 HEL  HE ES   2   1218 13.37                             112    0.88 4  257 253 
 HEL  HZ I        1218 18.54         4.2 0.28            111            257 253 
                                                                                
