 2011  7 8 1709 44.9 L   6.752 -73.060150.0  RSN  5 0.3 1.8LRSN                1
 GAP=191        0.52       4.0     7.0  7.7  0.9199E+00 -0.8590E+01  0.2382E+01E
 Epicentro: LOS SANTOS - SANTANDER                                             3
 ACTION:UPD 12-07-25 13:59 OP:epov STATUS:               ID:20110708170944 L   I
 2011-07-08-1706-00S.COL___135                                                 6
 STAT SP IPHASW D HRMM SECON CODA AMPLIT PERI AZIMU VELO AIN AR TRES W  DIS CAZ7
 BAR2 SZ EP   1   1710  4.57                             171   -0.48 7 22.2 217 
 BAR2 SZ I        1710 23.88        15.4 0.18                          22.2 217 
 BRR  HZ EP   1   1710  7.18                             150    0.00 7 82.0 299 
 BRR  HZ I        1710  8.99        17.5 0.46                          82.0 299 
 BRR  HN ES   1   1710 24.57                             150    0.05 7 82.0 299 
 RUS  HZ EP   2   1710  8.80                             146    0.08 5 95.0 182 
 RUS  HE ES   2   1710 27.73                             146    0.45 5 95.0 182 
 RUS  HZ I        1710 29.71         6.4 0.32                          95.0 182 
 OCA  SZ EP   2   1710 14.56                             129    0.36 5  167 350 
 OCA  SZ ES   2   1710 37.08                             129    0.05 5  167 350 
 OCA  SZ I        1710 41.79         8.3 0.46                           167 350 
 NOR  SZ EP   2   1710 21.94                             119    0.51 4  239 237 
 NOR  SN ES   2   1710 49.54                             119   -0.35 4  239 237 
                                                                                
