 2011  9 8 1046 29.1 L   6.750 -73.147150.4  RSN  5 0.1 1.5LRSN                1
 GAP=184        0.33       4.4     5.6  3.6  0.1933E+02 -0.2542E+01 -0.3627E+01E
 Epicentro: LOS SANTOS - SANTANDER                                             3
 ACTION:UPD 12-07-13 15:56 OP:ep   STATUS:               ID:20110908104629 L   I
 2011-09-08-1040-00M.COL___172                                                 6
 STAT SP IPHASW D HRMM SECON CODA AMPLIT PERI AZIMU VELO AIN AR TRES W  DIS CAZ7
 BAR2 SZ EP       1046 49.08                             173   -0.1010 17.9 193 
 BAR2 SZ ES   1   1047  4.67                             173   -0.18 7 17.9 193 
 BAR2 SZ I        1047  7.18         4.9 0.49                          17.9 193 
 GIR2 SZ EP   2   1046 49.61                             166    0.14 5 36.7 352 
 BRR  HZ EP       1046 50.92                             152    0.0310 73.8 302 
 BRR  HZ I        1046 51.32        15.0 0.23                          73.8 302 
 BRR  HN ES   1   1047  8.04                             152    0.15 7 73.8 302 
 RUS  HZ EP   1   1046 53.01                             146    0.09 7 95.1 176 
 RUS  HE ES   1   1047 11.59                             146    0.08 7 95.1 176 
 RUS  HZ I        1047 13.02         2.2 0.25                          95.1 176 
 ZAR  HZ EP   2   1047  1.98                             123   -0.07 4  206 294 
 ZAR  HE ES   2   1047 27.57                             123   -0.18 4  206 294 
 ZAR  HZ I        1047 32.91         3.1 0.25                           206 294 
                                                                                
