 2010 11 8 1453  4.7 L   6.827 -73.102140.0  RSN 10 0.5 2.6LRSN                1
 GAP=139        1.33       4.4     8.1  9.1 -0.8196E+01 -0.5987E+01  0.6119E+01E
 Epicentro: LOS SANTOS - SANTANDER                                             3
 ACTION:UP  10-12-17 16:51 OP:REBC STATUS:               ID:20101108145304 L   I
 2010-11-08-1451-32S.COL___128                                                 6
 STAT SP IPHASW D HRMM SECON CODA AMPLIT PERI AZIMU VELO SNR AR TRES W  DIS CAZ7
 BAR2 SZ EP       1453 23.73                             168     0.010   28 199 
 BAR2 SZ ES   2   1453 38.24                             168    -0.4 5   28 199 
 BAR2 SZ I        1453 40.17       170.3 0.84                            28 199 
 BRR  HZ IP       1453 25.33                             151    -0.110   74 295 
 BRR  HZ I        1453 25.81       167.0 0.52                            74 295 
 BRR  HN ES       1453 42.28                             151     0.710   74 295 
 RUS  HZ EP       1453 27.89                             142    -0.210  103 179 
 RUS  HN ES       1453 46.27                             142    -0.110  103 179 
 RUS  HZ I        1453 48.34        41.7 0.78                           103 179 
 GUE  SZ EP       1453 29.37                             139     0.810  113  10 
 GUE  SZ I        1453 30.73        13.7 0.47                           113  10 
 GRA  SZ EP       1453 29.11                             137     0.010  121  16 
 GRA  SZ ES   1   1453 47.51                             137    -0.6 7  121  16 
 GRA  SZ I        1453 49.89        69.4 0.24                           121  16 
 OCA  SZ EP       1453 31.52                             129    -0.8 9  158 351 
 OCA  SZ ES   1   1453 53.96                             129     0.0 7  158 351 
 OCA  SZ I        1453 58.25        76.5 0.32                           158 351 
 YOP  SZ EP       1453 34.72                             125     0.3 9  180 155 
 NOR  SZ EP       1453 40.43                             117    -0.3 8  241 235 
 NOR  SN ES   1   1454  7.94                             117    -0.9 6  241 235 
 NOR  SZ I        1454 12.31         4.6 0.47                           241 235 
 ROSC BZ EP   1   1453 43.93                             115     0.8 6  258 212 
 ROSC BN ES   2   1454 12.79                             115    -0.2 4  258 212 
 ROSC BZ I        1454 21.26        25.1 0.04                           258 212 
 PRA  HZ EP   1   1453 58.09                             105    -0.5 4  397 210 
 PRA  HN ES   1   1454 41.61                             105     0.9 4  397 210 
 PRA  HZ I        1454 47.32        56.2 0.79                           397 210 
                                                                                
