 2017  1 8 1612 24.5 L   6.767 -73.142139.7  RSN 10 0.5 2.1LRSN                1
 GAP= 97        0.92       4.6     3.6  5.4  0.2303E+01  0.3979E+01  0.1476E+01E
 Epicentro: LOS SANTOS - SANTANDER                                             3
 ACTION:UPD 17-05-22 15:57 OP:jn   STATUS:               ID:20170108161224 L   I
 OLDACT:UP  17-01-08 23:05 OP:and  STATUS:               ID:20170108160750     3
 OLDACT:UP  17-01-08 23:03 OP:and  STATUS:               ID:20170108160750     3
 OLDACT:REG 17-01-08 20:06 OP:and  STATUS:               ID:20170108160750     3
 2017-01-08-1608-00M.COL___371                                                 6
 STAT SP IPHASW D HRMM SECON CODA AMPLIT PERI AZIMU VELO AIN AR TRES W  DIS CAZ7
 BAR2 EZ IP     C 1612 43.21                             172   -0.1010 19.8 193 
 BAR2 EZ ES       1612 57.76                             172   -0.2410 19.8 193 
 BAR2 EZ I        1612 59.33        24.9 0.24            172           19.8 193 
 BRR  HZ IP     C 1612 45.11                             151    0.0110 73.4 301 
 BRR  HN ES       1613  1.97                             151    0.7810 73.4 301 
 BRR  HZ I        1613  5.69        17.8 0.12            149           73.4 301 
 PAM  EZ EP       1612 46.07                             149   -0.1410 80.0  38 
 PAM  EN ES       1613  2.86                             149   -0.3110 80.0  38 
 PAM  EZ I        1613  5.58        21.5 0.42            151           80.0  38 
 RUS  HZ EP       1612 47.19                             144   -0.1710 96.9 176 
 RUS  HN ES       1613  5.38                             144    0.1610 96.9 176 
 RUS  HZ I        1613  6.89        13.2 0.26            147           96.9 176 
 PTB  HZ EP       1612 50.11                             131   -0.82 9  148 260 
 PTB  HN ES   3   1613 10.38                             131   -1.19 2  148 260 
 PTB  HZ I        1613 13.29        25.6 0.18            131            148 260 
 TAM  HZ EP       1612 51.65                             130    0.10 9  154 104 
 TAM  HN ES     D 1613 13.00                             130    0.32 9  154 104 
 TAM  HZ I        1613 13.69        16.1 0.42            134            154 104 
 ZAR  HZ EP       1612 56.87                             121    0.15 8  206 293 
 ZAR  HN ES   3   1613 22.34                             121    0.47 2  206 293 
 ZAR  HZ I        1613 30.21        16.0 0.28            121            206 293 
 GUY2CHZ EP   3   1613  9.22                             111    1.61 2  299 235 
 GUY2CHN ES   4   1613 44.08                             111    2.83 0  299 235 
 GUY2CHZ  IAML    1613 50.61         5.3 0.56                           299 235 
 CBOC HZ EP       1613 11.71                             109    0.65 7  333 253 
 CBOC HN ES   3   1613 46.57                             109   -0.83 2  333 253 
 CBOC HZ I        1613 51.02         2.7 0.36            110            333 253 
 SJC  HZ EP   4   1613 16.65                             105   -3.59 0  413 327 
 SJC  HN ES   4   1614  0.41                             105   -3.32 0  413 327 
 SJC  HZ I        1614  3.47         3.5 0.60            106            413 327 
                                                                                
