 2014 12 8 1242 45.1 L   6.785 -73.166148.7  RSN  9 0.5 1.7LRSN                1
 GAP=135        1.16       5.7     5.1  7.1 -0.6440E+01  0.7672E+01  0.2818E+01E
 Epicentro: LOS SANTOS - SANTANDER                                             3
 ACTION:UPD 15-02-10 17:01 OP:nd   STATUS:               ID:20141208124245 L   I
 OLDACT:REG 14-12-08 20:25 OP:fm   STATUS:               ID:20141208123748     3
 2014-12-08-1237-48M.COL___299                                                 6
 STAT SP IPHASW D HRMM SECON CODA AMPLIT PERI AZIMU VELO AIN AR TRES W  DIS CAZ7
 BAR2 SZ EP       1243  5.37                             171    0.3210 21.4 185 
 BAR2 SZ ES       1243 20.35                             171   -0.2710 21.4 185 
 BAR2 SZ I        1243 21.96        12.2 0.18            177           21.4 185 
 BRR  HZ EP       1243  7.05                             153    0.5410 70.1 301 
 BRR  HE ES       1243 23.01                             153   -0.2010 70.1 301 
 BRR  HZ I        1243 28.24        11.7 0.20            149           70.1 301 
 PAM  SZ EP       1243  8.38                             150    0.5910 80.1  40 
 PAM  SZ I        1243 27.82         6.0 0.54            142           80.1  40 
 RUS  HZ EP       1243  8.55                             145   -0.4910 99.1 175 
 RUS  HE ES       1243 27.97                             145    0.2510 99.1 175 
 RUS  HZ I        1243 29.22         6.6 0.22            147           99.1 175 
 PTB  HZ EP       1243 11.10                             133   -0.99 9  145 259 
 PTB  HN ES       1243 32.87                             133   -0.27 9  145 259 
 PTB  HZ I        1243 35.24         4.9 0.10            132            145 259 
 SPBC HZ EP       1243 13.15                             130   -0.43 9  161 219 
 SPBC HN ES       1243 36.09                             130    0.30 9  161 219 
 SPBC HZ I        1243 40.95         7.6 0.10            130            161 219 
 NOR  HZ EP       1243 20.14                             119   -0.57 8  232 234 
 NOR  HE ES       1243 48.65                             119    0.16 8  232 234 
 NOR  HZ I        1243 54.38         4.4 0.36            118            232 234 
 HEL  HE ES       1243 56.95                             116    0.50 8  270 256 
 HEL  HZ I        1244  5.02         3.1 0.56            114            270 256 
 GUY2CHZ EP       1243 28.92                             113    0.38 7  298 235 
 GUY2CHN ES       1244  2.94                             113    0.52 7  298 235 
 GUY2CHZ I        1244 16.00         1.7 0.38                           298 235 
                                                                                
