 2012  1 8 1820  7.7 L   6.779 -73.156145.2  RSN  7 0.2 1.8LRSN                1
 GAP=136        0.57       3.0     5.0  4.9 -0.2758E+01  0.7758E+01  0.1295E+01E
 Epicentro: LOS SANTOS - SANTANDER                                             3
 ACTION:UP  12-02-03 08:15 OP:REBC STATUS:               ID:20120108182007 L   I
 2012-01-08-1820-00M.COL___186                                                 6
 STAT SP IPHASW D HRMM SECON CODA AMPLIT PERI AZIMU VELO SNR AR TRES W  DIS CAZ7
 BAR2 SZ EP       1820 27.31                             171     0.010   21 188 
 BAR2 SZ ES   1   1820 42.29                             171    -0.2 7   21 188 
 BAR2 SZ I        1820 43.28        18.7 0.36                            21 188 
 GIR2 SZ EP       1820 27.34                             166    -0.110   33 353 
 GIR2 SZ ES   2   1820 42.77                             166     0.0 5   33 353 
 BRR  HZ EP       1820 29.06                             152     0.210   71 301 
 BRR  HZ I        1820 29.20        28.8 0.12                            71 301 
 BRR  HN ES   2   1820 45.89                             152     0.6 5   71 301 
 PAM  SZ EP       1820 30.18                             150     0.110   80  39 
 PAM  SE ES   1   1820 47.28                             150    -0.2 7   80  39 
 RUS  HZ EP       1820 31.28                             144     0.010   98 175 
 RUS  HN ES   1   1820 49.57                             144    -0.1 7   98 175 
 RUS  HZ I        1820 51.36         5.8 0.42                            98 175 
 PTB  HZ EP       1820 34.11                             132    -0.4 9  146 260 
 PTB  HZ I        1821  0.06         6.0 0.16                           146 260 
 CHI  HZ EP   2   1820 45.38                             117     0.2 4  246 195 
 CHI  HN ES   1   1821 14.61                             117     0.3 6  246 195 
                                                                                
