 2010 11 8 1922 50.8 L   6.771 -73.145144.0  RSN  5 0.3 1.8LRSN                1
 GAP=159        0.68       4.5     8.3  8.2  0.9652E+01 -0.3394E+02 -0.1125E+02E
 Epicentro: LOS SANTOS - SANTANDER                                             3
 ACTION:UP  10-12-17 16:51 OP:REBC STATUS:               ID:20101108192250 L   I
 2010-11-08-1919-37S.COL___128                                                 6
 STAT SP IPHASW D HRMM SECON CODA AMPLIT PERI AZIMU VELO SNR AR TRES W  DIS CAZ7
 BAR2 SZ ES   2   1923 24.63                             172    -0.7 5   20 192 
 BAR2 SZ I        1923 25.92        14.6 0.13                            20 192 
 BRR  HZ EP       1923 11.72                             152    -0.210   73 301 
 BRR  HN ES       1923 28.48                             152     0.210   73 301 
 BRR  HZ I        1923 32.05        13.6 0.21                            73 301 
 RUS  HZ EP   1   1923 13.95                             145    -0.2 7   97 176 
 RUS  HN ES   1   1923 32.76                             145     0.4 7   97 176 
 RUS  HZ I        1923 34.47         7.3 0.09                            97 176 
 GUE  SZ EP   1   1923 15.69                             138     0.0 7  120  12 
 GRA  SZ EP   1   1923 16.46                             136     0.3 7  129  17 
 GRA  SZ ES   2   1923 35.80                             136    -0.2 5  129  17 
 GRA  SZ I        1923 37.38        12.4 0.64                           129  17 
                                                                                
