 2015 12 8 1842 35.3 L   6.809 -73.137144.0  RSN 21 0.5 2.7LRSN 3.1WRSN        1
 SPEC AVERAGE  MO 13.8 ST0.724 OM  2.0 f0 2.41 R1.0818 AL 0.00 WI 45.0 MW  3.1 3
 SPEC SD       MO  0.3 ST0.654 OM  0.3 f0 1.33 R0.8031 AL      WI      MW  0.2 3
 GAP= 66        1.13       3.2     3.0  5.3 -0.1288E+01  0.3496E+01  0.3456E+01E
 Epicentro: LOS SANTOS - SANTANDER                                             3
 SPEC BAR2EH Z MO 13.7 ST0.917 OM  1.8 f0 3.15 R0.6108 AL-0.00 WI 45.0 MW  3.1 3
 SPEC BAR2EH Z T1843 7 K 0.000 GD  146 VS 5.20 DE 3.50 Q0750.0 QA 1.50 VS 3.50 3
 SPEC BRR HH Z MO 13.5 ST  1.6 OM  1.6 f0 4.31 R0.4464 AL-0.00 WI 45.0 MW  3.0 3
 SPEC BRR HH Z T184311 K 0.000 GD  160 VS 5.20 DE 3.50 Q0750.0 QA 1.50 VS 3.50 3
 SPEC PAM EH Z MO 14.0 ST0.150 OM  2.1 f0 1.32 R1.4576 AL-0.00 WI 45.0 MW  3.3 3
 SPEC PAM EH Z T184312 K 0.000 GD  162 VS 5.20 DE 3.50 Q0750.0 QA 1.50 VS 3.50 3
 SPEC OCA HH Z MO 13.9 ST  1.4 OM  1.9 f0 2.98 R0.6456 AL-0.00 WI 45.0 MW  3.2 3
 SPEC OCA HH Z T184323 K 0.000 GD  214 VS 5.20 DE 3.50 Q0750.0 QA 1.50 VS 3.50 3
 SPEC ZAR HH Z MO 13.6 ST  1.4 OM  1.5 f0 3.80 R0.5063 AL-0.00 WI 45.0 MW  3.0 3
 SPEC ZAR HH Z T184331 K 0.000 GD  250 VS 5.20 DE 3.50 Q0750.0 QA 1.50 VS 3.50 3
 SPECGUY2CHH Z MO 14.0 ST0.063 OM  1.8 f00.976 R1.9713 AL-0.00 WI 45.0 MW  3.3 3
 SPECGUY2CHH Z T184351 K 0.000 GD  335 VS 5.20 DE 3.50 Q0750.0 QA 1.50 Q1 0.00 3
 SPEC ELA HH Z MO 14.1 ST0.045 OM  1.8 f00.852 R2.2582 AL-0.00 WI 45.0 MW  3.3 3
 SPEC ELA HH Z T184357 K 0.000 GD  360 VS 5.20 DE 3.50 Q0750.0 QA 1.50 VS 3.50 3
 SPEC ORTCHH Z MO 13.9 ST0.097 OM  1.6 f0 1.22 R1.5770 AL-0.00 WI 45.0 MW  3.2 3
 SPEC ORTCHH Z T184411 K 0.000 GD  422 VS 5.20 DE 3.50 Q0750.0 QA 1.50 VS 3.50 3
 SPEC SJC HH Z MO 13.6 ST0.128 OM  1.3 f0 1.67 R1.1521 AL-0.00 WI 45.0 MW  3.0 3
 SPEC SJC HH Z T1844 8 K 0.000 GD  433 VS 5.20 DE 3.50 Q0750.0 QA 1.50 VS 3.50 3
 OLDACT:UP  15-12-09 00:52 OP:mh   STATUS:               ID:20151208183747     3
 OLDACT:UP  15-12-09 00:49 OP:mh   STATUS:               ID:20151208183747     3
 OLDACT:REG 15-12-08 21:52 OP:mh   STATUS:               ID:20151208183747     3
 ACTION:UPD 16-02-04 15:03 OP:cam  STATUS:               ID:20151208184235 L   I
 OLDACT:UP  15-12-09 00:56 OP:mh   STATUS:               ID:20151208183747     3
 OLDACT:UP  15-12-09 00:56 OP:mh   STATUS:               ID:20151208183747     3
 2015-12-08-1837-47M.COL___325                                                 6
 STAT SP IPHASW D HRMM SECON CODA AMPLIT PERI AZIMU VELO AIN AR TRES W  DIS CAZ7
 BAR2 EZ IP     C 1842 54.94                             170    0.2010 24.5 192 
 BAR2 EZ ES       1843  9.26                             170   -0.6410 24.5 192 
 BAR2 EZ I        1843 10.44       126.7 0.48            170           24.5 192 
 BRR  HZ IP     D 1842 56.65                             152    0.3710 71.6 297 
 BRR  HN ES       1843 13.39                             152    0.7410 71.6 297 
 BRR  HZ I        1843 16.32        82.7 0.28            149           71.6 297 
 PAM  EZ EP       1842 57.74                             151    0.5010 76.0  39 
 PAM  EN ES       1843 14.47                             151    0.1110 76.0  39 
 PAM  EZ I        1843 16.61       111.4 0.48            152           76.0  39 
 RUS  HZ EP       1842 58.94                             143    0.0010  101 177 
 RUS  HN ES       1843 17.03                             143   -0.3510  101 177 
 PTB  HZ EP       1843  1.61                             131   -0.62 9  149 259 
 PTB  HE ES       1843 22.90                             131   -0.33 9  149 259 
 PTB  HZ I        1843 24.58        49.5 0.44            130            149 259 
 TAM  HZ EP     C 1843  3.32                             130    0.55 9  154 105 
 TAM  HN ES       1843 24.26                             130    0.07 9  154 105 
 TAM  HZ I        1843 25.46        23.2 0.30            133            154 105 
 OCA  HZ EP   1   1843  2.90                             129   -0.49 7  159 353 
 OCA  HN ES       1843 24.63                             129   -0.67 9  159 353 
 OCA  HZ I        1843 29.32       126.4 0.42            129            159 353 
 SPBC HZ EP       1843  3.87                             128    0.08 9  165 219 
 SPBC HN ES       1843 25.61                             128   -0.41 9  165 219 
 SPBC HZ I        1843 33.49        60.4 0.20            128            165 219 
 ZAR  HZ EP   1   1843  8.13                             122    0.44 6  205 292 
 ZAR  HN ES       1843 32.88                             122   -0.07 9  205 292 
 ZAR  HZ I        1843 38.15        49.6 0.22            121            205 292 
 NOR  HZ EP   1   1843 10.94                             118   -0.13 6  236 234 
 NOR  HN ES       1843 38.98                             118    0.00 8  236 234 
 NOR  HZ I        1843 44.28        26.5 0.18            118            236 234 
 SML  HZ EP   1   1843 11.19                             117   -0.58 6  243 335 
 SML  HN ES   4   1843 38.92                             117   -1.31 0  243 335 
 SML  HZ I        1843 49.11        52.9 0.10            117            243 335 
 ROSC BZ EP       1843 14.60                             116    1.13 8  254 211 
 ROSC BN ES   4   1843 45.83                             116    2.59 0  254 211 
 ROSC BZ I        1843 48.59        31.0 0.35            116            254 211 
 HEL  HZ EP   1   1843 15.59                             114    0.04 6  273 256 
 HEL  HN ES       1843 47.61                             114    0.65 8  273 256 
 HEL  HZ I        1843 52.84        29.7 0.40            114            273 256 
 URE  HZ EP   4   1843 14.79                             113   -1.56 0  284 292 
 URE  HN ES   4   1843 45.33                             113   -3.03 0  284 292 
 URE  HZ I        1843 56.99        34.8 0.16            113            284 292 
 GUY2CHZ EP       1843 19.33                             112    0.35 7  303 235 
 GUY2CHN ES       1843 52.62                             112   -0.43 7  303 235 
 GUY2CHZ I        1844  1.43        16.6 0.34                           303 235 
 PTGC HZ EP       1843 18.19                             111   -0.94 7  309 159 
 PTGC HN ES   4   1843 51.86                             111   -1.47 0  309 159 
 PTGC HZ I        1843 54.38        25.7 0.32            112            309 159 
 ELA  HZ ES       1843 59.49                             110    0.65 7  331 229 
 DBB  SZ EP       1843 22.43                             109   -0.38 7  340 274 
 PRA  HZ EP   1   1843 28.22                             106   -0.69 4  393 210 
 PRA  HN ES       1844 10.51                             106   -0.22 6  393 210 
 PRA  HZ I        1844 13.39        12.2 0.24            106            393 210 
 ORTC HZ EP   1   1843 28.32                             106   -1.00 4  397 216 
 ORTC HN ES   1   1844 12.75                             106    1.30 4  397 216 
 ORTC HZ I        1844 18.36        11.9 0.50            106            397 216 
 SJC  HZ EP   4   1843 28.91                             105   -1.86 0  409 327 
 SJC  HN ES   4   1844  9.64                             105   -4.40 0  409 327 
 SJC  HZ I        1844 13.91        14.2 0.50            105            409 327 
                                                                                
