 2012  1 8 1215 12.0 L   6.539 -73.508106.5  RSN  9 0.4 1.7LRSN                1
 GAP= 83        0.93       4.2     7.2  8.1 -0.8901E+00  0.1627E+02  0.8176E+01E
 Epicentro: EL CARMEN DE CHUCURI - SANTANDER                                   3
 ACTION:UP  12-02-03 08:15 OP:REBC STATUS:               ID:20120108121512 L   I
 2012-01-08-1210-00M.COL___186                                                 6
 STAT SP IPHASW D HRMM SECON CODA AMPLIT PERI AZIMU VELO SNR AR TRES W  DIS CAZ7
 BAR2 SZ IP       1215 27.50                             160     0.110   36  81 
 BAR2 SZ ES   1   1215 39.73                             160     0.3 7   36  81 
 BAR2 SZ I        1215 41.24        70.9 0.28                            36  81 
 BRR  HZ EP       1215 28.37                             145    -0.410   67 340 
 BRR  HN ES   1   1215 42.24                             145     0.4 7   67 340 
 BRR  HZ I        1215 45.36        16.0 0.50                            67 340 
 GIR2 SZ EP       1215 28.94                             145    -0.210   69  30 
 GIR2 SZ ES   1   1215 42.42                             145    -0.1 7   69  30 
 RUS  HZ EP       1215 30.64                             139    -0.210   86 147 
 RUS  HZ I        1215 47.54         3.7 0.36                            86 147 
 PTB  HN ES   3   1215 46.02                             132    -1.4 2  105 270 
 PTB  HZ I        1215 49.83         7.3 0.32                           105 270 
 PAM  SN ES   1   1215 51.67                             127    -0.4 7  126  45 
 ZAR  HZ EP   2   1215 39.79                             115    -0.1 4  183 305 
 ZAR  HZ I        1216  4.63        11.3 0.22                           183 305 
 OCA  SZ EP       1215 41.38                             114     0.6 9  189   6 
 OCA  SZ I        1216 12.30        11.5 0.20                           189   6 
 CHI  HZ EP   2   1215 43.69                             111     0.0 4  213 187 
 CHI  HN ES   1   1216  8.97                             111     0.5 6  213 187 
 CHI  HZ I        1216 13.75         2.8 0.72                           213 187 
                                                                                
