 2012  4 8 1914 20.0 L   6.709 -73.184154.0  RSN  5 0.3 1.3LRSN                1
 GAP=136        0.75       6.7     8.7 13.1  0.1141E+02 -0.6271E+02 -0.6498E+01E
 Epicentro: VILLANUEVA - SANTANDER                                             3
 ACTION:UPD 12-07-05 11:51 OP:tino STATUS:               ID:20120408191420 L   I
 2012-04-08-1910-00M.COL___196                                                 6
 STAT SP IPHASW D HRMM SECON CODA AMPLIT PERI AZIMU VELO AIN AR TRES W  DIS CAZ7
 BAR2 SZ EP       1914 40.30                             175    -0.210   13 179 
 BAR2 SZ I        1914 56.20         4.7 0.16                            13 179 
 BRR  HZ EP       1914 42.53                             153     0.410   73 307 
 BRR  HZ I        1914 44.34         3.7 0.36                            73 307 
 BRR  HN ES   1   1914 59.49                             153     0.1 7   73 307 
 PAM  SZ EP       1914 43.52                             149    -0.210   88  37 
 RUS  HZ EP       1914 44.10                             148     0.210   91 173 
 RUS  HZ I        1914 45.14         3.2 0.18                            91 173 
 RUS  HE ES   2   1915  2.54                             148    -0.1 5   91 173 
 PTB  HN ES   2   1915  7.56                             134    -0.8 5  142 262 
                                                                                
