 2016 10 8 1820 36.0 L   6.790 -73.143143.6  RSN 10 0.3 1.8LRSN                1
 GAP=137        0.78       2.9     3.3  4.9 -0.1263E+01  0.5579E+01  0.1027E+01E
 Epicentro: LOS SANTOS - SANTANDER                                             3
 ACTION:UPD 16-11-09 19:17 OP:rebc STATUS:               ID:20161008182036 L   I
 OLDACT:REG 16-10-08 20:37 OP:lv   STATUS:               ID:20161008181744     3
 2016-10-08-1818-00M.COL___351                                                 6
 STAT SP IPHASW D HRMM SECON CODA AMPLIT PERI AZIMU VELO AIN AR TRES W  DIS CAZ7
 BAR2 EZ EP       1820 55.24                             171   -0.1410 22.3 191 
 BAR2 EZ ES       1821 10.38                             171   -0.0910 22.3 191 
 BAR2 EZ I        1821 13.81        10.5 0.21            169           22.3 191 
 PAM  EZ EP       1820 58.12                             150    0.0710 78.0  39 
 PAM  EN ES       1821 15.36                             150    0.1310 78.0  39 
 PAM  EZ I        1821 17.96        20.8 0.65            155           78.0  39 
 RUS  HZ EP       1820 59.24                             144   -0.2410 99.5 176 
 RUS  HN ES       1821 17.98                             144    0.2010 99.5 176 
 RUS  HZ I        1821 19.24         6.6 0.25            147           99.5 176 
 PTB  HZ EP       1821  1.99                             131   -0.84 9  148 259 
 PTB  HN ES       1821 23.46                             131   -0.27 9  148 259 
 PTB  HZ I        1821 29.03         7.4 0.19            132            148 259 
 SPBC HZ EP       1821  4.27                             129   -0.03 9  163 219 
 SPBC HN ES       1821 26.20                             129   -0.15 9  163 219 
 SPBC HZ I        1821 32.33        11.9 0.12            130            163 219 
 ZAR  HZ EP       1821  8.78                             122    0.38 9  205 292 
 ZAR  HN ES       1821 34.04                             122    0.38 9  205 292 
 ZAR  HZ I        1821 39.46        12.0 0.27            123            205 292 
 NOR  HZ EP       1821 11.86                             118    0.27 8  234 235 
 NOR  HN ES       1821 39.62                             118    0.29 8  234 235 
 NOR  HZ I        1821 44.75         4.5 0.32            120            234 235 
 CHI  HZ EP       1821 13.49                             117   -0.01 8  248 195 
 CHI  HN ES       1821 43.15                             117    0.42 8  248 195 
 CHI  HZ I        1821 46.73         1.9 0.39            119            248 195 
 GUY2CHZ EP   4   1821 21.93                             112    2.44 0  301 235 
 GUY2CHN ES   4   1821 56.58                             112    3.18 0  301 235 
 GUY2CHZ I        1822  6.02         3.1 0.50                           301 235 
 SJC  HZ EP   4   1821 29.55                             105   -2.09 0  410 327 
 SJC  HN ES   4   1822 11.47                             105   -3.56 0  410 327 
 SJC  HZ I        1822 19.57         1.8 0.35            107            410 327 
                                                                                
