 2015 11 8 1016 30.2 L   6.812 -73.143151.0  RSN 18 0.5 2.3LRSN                1
 GAP= 71        1.02       2.5     3.2  5.2 -0.3656E+00  0.5409E+01  0.7329E+00E
 Epicentro: LOS SANTOS - SANTANDER                                             3
 ACTION:UPD 15-12-28 16:09 OP:cam  STATUS:               ID:20151108101630 L   I
 OLDACT:UP  15-11-08 21:06 OP:ar   STATUS:               ID:20151108100735     3
 OLDACT:UP  15-11-08 21:04 OP:ar   STATUS:               ID:20151108100735     3
 OLDACT:REG 15-11-08 20:15 OP:ar   STATUS:               ID:20151108100735     3
 2015-11-08-1007-35M.COL___301                                                 6
 STAT SP IPHASW D HRMM SECON CODA AMPLIT PERI AZIMU VELO AIN AR TRES W  DIS CAZ7
 BAR2 EZ EP     C 1016 50.35                             170   -0.1210 24.7 190 
 BAR2 EZ ES       1017  5.46                             170   -0.8310 24.7 190 
 BAR2 EZ I        1017  7.03        44.4 0.18            168           24.7 190 
 BRR  HZ EP       1016 52.19                             153    0.3110 70.8 297 
 BRR  HN ES       1017  9.61                             153    0.8110 70.8 297 
 BRR  HZ I        1017 11.93        27.5 0.24            149           70.8 297 
 PAM  EZ EP     D 1016 53.11                             152    0.2210 76.2  40 
 PAM  EN ES       1017 10.45                             152   -0.1510 76.2  40 
 PAM  EZ I        1017 12.46        22.2 0.44            155           76.2  40 
 RUS  HZ EP       1016 54.21                             144   -0.3410  102 176 
 RUS  HN ES       1017 13.17                             144   -0.3810  102 176 
 RUS  HZ I        1017 14.33        21.6 0.34            144            102 176 
 TAM  HZ EP   2   1016 58.50                             132    0.21 5  155 105 
 TAM  HE ES       1017 20.40                             132    0.19 9  155 105 
 TAM  HZ I        1017 21.30        13.8 0.30            134            155 105 
 OCA  HZ EP       1016 58.51                             131   -0.28 9  159 353 
 OCA  HN ES       1017 21.54                             131    0.44 9  159 353 
 OCA  HZ I        1017 25.56        59.3 0.18            130            159 353 
 SPBC HZ EP       1016 59.31                             130    0.10 9  164 219 
 SPBC HN ES       1017 22.41                             130    0.57 9  164 219 
 SPBC HZ I        1017 28.63        42.9 0.18            128            164 219 
 ZAR  HZ EP       1017  3.49                             123    0.53 9  204 292 
 ZAR  HE ES       1017 28.63                             123    0.12 9  204 292 
 ZAR  HZ I        1017 34.39        23.9 0.34            122            204 292 
 NOR  HZ EP       1017  6.41                             119    0.08 8  236 234 
 NOR  HE ES       1017 34.59                             119    0.06 8  236 234 
 NOR  HZ I        1017 41.40        16.8 0.22            118            236 234 
 SML  HZ EP       1017  6.65                             119   -0.35 8  243 335 
 SML  HN ES       1017 35.43                             119   -0.27 8  243 335 
 SML  HZ I        1017 43.34        26.8 0.10            118            243 335 
 CHI  HZ EP       1017  8.45                             118    0.12 8  250 195 
 CHI  HE ES       1017 38.19                             118    0.11 8  250 195 
 CHI  HZ I        1017 46.35         7.9 0.48            118            250 195 
 ROSC BZ EP   4   1017 10.53                             117    1.79 0  254 211 
 ROSC BN ES   4   1017 41.25                             117    2.44 0  254 211 
 ROSC BZ I        1017 47.97        27.1 0.45            117            254 211 
 HEL  HZ EP   4   1017 12.33                             116    1.59 0  273 256 
 HEL  HN ES       1017 41.48                             116   -0.89 8  273 256 
 HEL  HZ I        1017 50.44         6.9 0.24            114            273 256 
 URE  HZ EP   4   1017 14.63                             114    3.14 0  284 292 
 URE  HE ES   4   1017 42.22                             114   -1.49 0  284 292 
 URE  HZ I        1017 48.80        11.1 0.14            113            284 292 
 PTGC HZ EP   4   1017 13.05                             112   -1.36 0  310 159 
 PTGC HN ES   4   1017 41.57                             112   -7.34 0  310 159 
 DBB  SZ EP   2   1017 17.47                             110   -0.43 3  340 274 
 DBB  SZ ES       1017 54.23                             110   -0.89 7  340 274 
 MON  HZ EP   4   1017 17.23                             109   -2.10 0  353 308 
 MON  HE ES   4   1017 56.39                             109   -1.27 0  353 308 
 MON  HZ I        1018 10.82         5.8 0.56            109            353 308 
 ORTC HZ EP       1017 24.60                             107    0.16 6  397 216 
 ORTC HN ES       1018  7.47                             107    0.72 6  397 216 
 ORTC HZ I        1018 14.11         7.8 0.36            107            397 216 
 SJC  HZ EP   2   1017 24.53                             106   -1.28 3  408 327 
 SJC  HN ES   4   1018  5.81                             106   -3.39 0  408 327 
 SJC  HZ I        1018 17.00         2.5 0.36            106            408 327 
                                                                                
