 2012  5 8 1437 32.9 L   6.782 -73.120149.3  RSN 12 0.4 2.6LRSN                1
 GAP=141        0.72       3.1     4.2  5.1 -0.2070E+01  0.3236E+01  0.1231E+01E
 Epicentro: LOS SANTOS - SANTANDER                                             3
 ACTION:UP  12-07-05 12:03 OP:pat  STATUS:               ID:20120508143732 L   I
 2012-05-08-1430-00M.COL___192                                                 6
 STAT SP IPHASW D HRMM SECON CODA AMPLIT PERI AZIMU VELO SNR AR TRES W  DIS CAZ7
 BAR2 SZ EP   1   1437 52.72                             171    -0.2 7   22 198 
 BAR2 SZ ES   1   1438  7.92                             171    -0.6 7   22 198 
 BAR2 SZ I        1438  9.38        77.9 0.33                            22 198 
 BRR  HZ EP   1   1437 54.73                             152     0.2 7   75 299 
 BRR  HN ES   1   1438 12.39                             152     0.9 7   75 299 
 BRR  HZ I        1438 15.82        56.7 0.51                            75 299 
 PAM  SZ EP       1437 55.53                             151     0.110   77  37 
 PAM  SN ES   1   1438 12.93                             151    -0.1 7   77  37 
 RUS  HZ EP       1437 56.59                             145    -0.210   98 178 
 RUS  HE ES   1   1438 15.79                             145     0.3 7   98 178 
 RUS  HZ I        1438 16.84        29.0 0.32                            98 178 
 PTB  HZ EP   2   1437 59.77                             132    -0.6 5  150 260 
 PTB  HE ES   1   1438 21.34                             132    -0.4 7  150 260 
 PTB  HZ I        1438 26.55        31.8 0.26                           150 260 
 OCA  HZ EP   1   1438  1.79                             130     0.1 7  163 352 
 OCA  HN ES   2   1438 23.91                             130    -0.2 5  163 352 
 OCA  HZ I        1438 28.20        97.5 0.33                           163 352 
 ZAR  HZ EP   2   1438  5.34                             123    -0.5 4  207 292 
 ZAR  HN ES   2   1438 31.35                             123    -0.3 4  207 292 
 ZAR  HZ I        1438 41.78        41.1 0.39                           207 292 
 CHI  HZ EP   1   1438 10.89                             118     0.3 6  247 196 
 CHI  HN ES   2   1438 40.59                             118     0.5 4  247 196 
 CHI  HZ I        1438 48.59        18.0 0.67                           247 196 
 HEL  HZ EP   2   1438 13.73                             115     0.2 4  274 256 
 HEL  HZ I        1438 53.92        14.2 0.34                           274 256 
 RREF HZ EP   2   1438 19.42                             111     0.2 3  323 230 
 RREF HE ES   2   1438 55.47                             111     0.0 3  323 230 
 RREF HZ I        1439  1.39        28.5 0.26                           323 230 
 COD  HZ EP   2   1438 21.68                             109     0.1 3  351 354 
 COD  HN ES   2   1438 59.76                             109     0.1 3  351 354 
 COD  HZ I        1439  4.25        14.7 0.47                           351 354 
 PRA  HZ EP   2   1438 26.52                             107     0.1 3  392 210 
 PRA  HE ES   1   1439  8.36                             107     0.1 4  392 210 
                                                                                
