 2013 12 8 1523 30.2 L   6.773 -73.132147.6  RSN  9 0.3 1.8LRSN                1
 GAP=139        0.64       3.1     3.1  4.7 -0.2167E+01  0.4779E+01 -0.7927E+00E
 Epicentro: LOS SANTOS - SANTANDER                                             3
 ACTION:UPD 14-01-13 10:16 OP:ep   STATUS:               ID:20131208152330 L   I
 OLDACT:REG 13-12-08 14:28 OP:cam  STATUS:               ID:20131208152000     3
 2013-12-08-1520-00M.COL___285                                                 6
 STAT SP IPHASW D HRMM SECON CODA AMPLIT PERI AZIMU VELO AIN AR TRES W  DIS CAZ7
 BAR2 SZ EP       1523 50.15                             172    0.1310 20.8 195 
 BAR2 SZ ES       1524  5.44                             172   -0.0210 20.8 195 
 BAR2 SZ I        1524  6.04        17.8 0.16            178           20.8 195 
 BRR  HZ EP       1523 51.67                             152   -0.0510 73.9 300 
 BRR  HN ES       1524  8.92                             152    0.4410 73.9 300 
 BRR  HZ I        1524 12.09        11.3 0.34            139           73.9 300 
 PAM  SZ EP     C 1523 53.05                             151    0.3410 78.8  37 
 PAM  SN ES       1524  9.81                             151   -0.4410 78.8  37 
 PAM  SZ I        1524 12.29         7.0 0.44            134           78.8  37 
 RUS  HZ EP   2   1523 54.12                             145    0.19 5 97.5 177 
 RUS  HN ES   1   1524 12.25                             145   -0.18 7 97.5 177 
 RUS  HZ I        1524 14.02         2.3 0.24            139           97.5 177 
 PTB  HZ EP       1523 57.13                             132   -0.28 9  149 260 
 PTB  HN ES   2   1524 17.90                             132   -0.73 5  149 260 
 PTB  HZ I        1524 19.58         9.1 0.24            121            149 260 
 SPBC HN ES   1   1524 20.93                             130   -0.04 7  162 220 
 ZAR  HZ EP   2   1524  3.12                             122    0.08 4  207 293 
 ZAR  HN ES       1524 28.59                             122   -0.04 8  207 293 
 ZAR  HZ I        1524 34.77         6.1 0.54            111            207 293 
 NOR  HE ES       1524 34.10                             119    0.19 8  234 235 
 SML  HZ EP   2   1524  6.96                             117   -0.34 4  247 335 
 SML  HZ I        1524 41.61         8.7 0.10            105            247 335 
 SJC  HZ EP   4   1524 24.65                             106   -1.57 0  413 327 
                                                                                
