 2011 12 8 1938  3.7 L   6.781 -73.070143.3  RSN  6 0.3 1.7LRSN                1
 GAP=147        0.55       4.7    12.1  6.0 -0.3576E+02  0.3144E+02 -0.7304E+01E
 Epicentro: LOS SANTOS - SANTANDER                                             3
 ACTION:UPD 12-07-13 16:15 OP:ep   STATUS:               ID:20111208193803 L   I
 2011-12-08-1937-42S.COL___162                                                 6
 STAT SP IPHASW D HRMM SECON CODA AMPLIT PERI AZIMU VELO AIN AR TRES W  DIS CAZ7
 BAR2 SZ EP   2   1938 23.23                             170    0.18 5 24.2 211 
 BAR2 SZ ES   1   1938 38.15                             170    0.00 7 24.2 211 
 BAR2 SZ I        1938 39.86        10.3 0.19                          24.2 211 
 GIR2 SZ EP   1   1938 23.11                             165   -0.10 7 35.6 338 
 PAM  SZ EP   1   1938 25.92                             151    0.46 7 74.1  34 
 PAM  SE ES   1   1938 42.27                             151   -0.17 7 74.1  34 
 RUS  HZ EP   1   1938 26.54                             144   -0.50 7 98.2 181 
 RUS  HE ES   1   1938 45.42                             144    0.17 7 98.2 181 
 RUS  HZ I        1938 47.08         4.4 0.46                          98.2 181 
 OCA  SZ EP   2   1938 31.97                             128   -0.16 5  164 350 
 OCA  SZ I        1938 58.21         7.7 0.21                           164 350 
 CTAU SZ EP   1   1938 36.92                             122    0.16 6  205 212 
 CTAU SZ I        1939  9.79         5.8 0.22                           205 212 
                                                                                
