 2016 11 8 1050 21.7 L   6.827 -73.147146.2  RSN 10 0.3 1.9LRSN                1
 GAP=147        0.63       2.5     3.1  4.2 -0.1133E+01  0.3451E+01  0.2736E+01E
 Epicentro: LOS SANTOS - SANTANDER                                             3
 ACTION:UPD 17-10-26 21:05 OP:lp   STATUS:               ID:20161108105021 L   I
 OLDACT:REG 16-11-08 21:53 OP:dnl  STATUS:               ID:20161108104743     3
 2016-11-08-1048-00M.COL___343                                                 6
 STAT SP IPHASW D HRMM SECON CODA AMPLIT PERI AZIMU VELO AIN AR TRES W  DIS CAZ7
 BAR2 EZ EP       1050 41.20                             169   -0.2410 26.2 188 
 BAR2 EZ ES       1050 56.69                             169   -0.1510 26.2 188 
 BAR2 EZ I        1050 57.62        16.9 0.16            166           26.2 188 
 BRR  HZ EP       1050 43.00                             153    0.2010 69.7 296 
 BRR  HN ES       1050 59.81                             153    0.5410 69.7 296 
 BRR  HZ I        1051  0.63        21.0 0.16            149           69.7 296 
 PAM  EZ EP       1050 43.94                             152    0.1110 75.2  41 
 PAM  EN ES       1051  0.90                             152   -0.2010 75.2  41 
 PAM  EZ I        1051  2.95        24.1 0.54            157           75.2  41 
 PTB  HZ EP   2   1050 48.33                             132   -0.40 5  148 258 
 PTB  HE ES   2   1051  8.89                             132   -0.93 5  148 258 
 PTB  HZ I        1051 14.46         8.9 0.26            129            148 258 
 SPBC HZ EP       1050 50.51                             129    0.08 9  165 218 
 SPBC HN ES       1051 12.83                             129   -0.02 9  165 218 
 SPBC HZ I        1051 19.50         8.8 0.14            127            165 218 
 ZAR  HZ EP       1050 54.00                             123   -0.03 9  203 291 
 ZAR  HN ES       1051 19.01                             123   -0.25 9  203 291 
 ZAR  HZ I        1051 26.08         8.9 0.26            121            203 291 
 CHI  HZ EP   2   1050 59.84                             117    0.12 4  251 195 
 CHI  HN ES       1051 29.32                             117   -0.06 8  251 195 
 CHI  HZ I        1051 35.20         3.0 0.36            117            251 195 
 URE  HZ EP   3   1051  2.37                             114   -0.27 2  283 291 
 URE  HN ES   4   1051 31.99                             114   -2.59 0  283 291 
 URE  HZ I        1051 41.56         4.7 0.28            113            283 291 
 PRA  HZ EP   2   1051 15.67                             106    0.16 3  394 209 
 PRA  HN ES       1051 58.04                             106    0.54 6  394 209 
 PRA  HZ I        1052  4.92         3.8 0.42            106            394 209 
 SJC  HZ EP   4   1051 15.28                             106   -1.68 0  407 327 
 SJC  HN ES   4   1051 58.44                             106   -1.63 0  407 327 
 SJC  HZ I        1052  0.50         2.1 0.52            106            407 327 
                                                                                
