 2012  4 8 1448 22.1 L   7.151 -73.051158.0  RSN  6 0.4 1.5LRSN                1
 GAP=141        0.71      13.5     8.7 11.2 -0.3483E+01  0.5613E+02  0.5020E+02E
 Epicentro: BUCARAMANGA - SANTANDER                                            3
 ACTION:UPD 12-07-05 11:51 OP:tino STATUS:               ID:20120408144822 L   I
 2012-04-08-1440-00M.COL___196                                                 6
 STAT SP IPHASW D HRMM SECON CODA AMPLIT PERI AZIMU VELO AIN AR TRES W  DIS CAZ7
 PAM  SN ES   1   1449  1.01                             164    -0.3 7   44  62 
 BAR2 SZ ES   3   1449  2.13                             157     0.1 2   63 193 
 BRR  HZ EP       1448 45.13                             154     0.510   73 266 
 BRR  HZ I        1448 46.39         6.2 0.12                            73 266 
 BRR  HE ES   2   1449  2.39                             154     0.1 5   73 266 
 RUS  HN ES   3   1449 12.45                             137     0.7 2  139 181 
 PTB  HZ EP       1448 51.63                             130    -0.4 9  169 247 
 PTB  HN ES   3   1449 14.90                             130    -0.5 2  169 247 
 PTB  HZ I        1449 17.71         2.9 0.14                           169 247 
 ZAR  HN ES   2   1449 20.97                             125    -0.2 4  203 281 
                                                                                
