 2017  1 8 1325 19.9 L   6.779 -73.153150.1  RSN  6 0.3 1.7LRSN                1
 GAP=137        0.86       4.4     3.9  6.2  0.1543E+01  0.4377E+01  0.3925E+00E
 Epicentro: LOS SANTOS - SANTANDER                                             3
 ACTION:UPD 17-05-22 15:57 OP:jn   STATUS:               ID:20170108132519 L   I
 OLDACT:REG 17-01-08 19:59 OP:and  STATUS:               ID:20170108131749     3
 2017-01-08-1318-00M.COL___374                                                 6
 STAT SP IPHASW D HRMM SECON CODA AMPLIT PERI AZIMU VELO AIN AR TRES W  DIS CAZ7
 BAR2 EZ EP       1325 39.87                             172   -0.1310 20.9 189 
 BAR2 EZ ES       1325 55.52                             172   -0.1710 20.9 189 
 BAR2 EZ I        1325 58.41         8.6 0.18            172           20.9 189 
 BRR  HZ IP     C 1325 41.72                             153    0.1810 71.6 300 
 BRR  HN ES       1325 59.05                             153    0.6310 71.6 300 
 BRR  HZ I        1326  7.24         7.8 0.16            151           71.6 300 
 PAM  EZ EP       1325 42.89                             151    0.1810 79.7  39 
 PAM  EN ES       1326  0.06                             151   -0.4410 79.7  39 
 PAM  EZ I        1326  2.15         8.1 0.44            155           79.7  39 
 RUS  HZ EP       1325 44.26                             145    0.3410 98.4 175 
 RUS  HN ES       1326  2.72                             145    0.0610 98.4 175 
 RUS  HZ I        1326  4.04         6.2 0.18            151           98.4 175 
 PTB  HZ EP       1325 46.68                             133   -0.43 9  147 260 
 PTB  HN ES       1326  8.01                             133   -0.33 9  147 260 
 PTB  HZ I        1326 13.15         8.3 0.36            134            147 260 
 ZAR  HZ EP   4   1325 54.93                             123    2.29 0  204 293 
 ZAR  HN ES       1326 18.17                             123   -0.00 9  204 293 
 ZAR  HZ I        1326 25.28         6.2 0.21            125            204 293 
                                                                                
