 2011  7 8 1242 19.0 L   6.773 -73.072138.5  RSN 11 0.3 2.2LRSN                1
 GAP=164        0.59       2.1     3.4  3.5 -0.2360E+01  0.1765E+01  0.3175E+00E
 Epicentro: LOS SANTOS - SANTANDER                                             3
 ACTION:UPD 12-07-25 13:59 OP:epov STATUS:               ID:20110708124218 L   I
 2011-07-08-1239-41S.COL___140                                                 6
 STAT SP IPHASW D HRMM SECON CODA AMPLIT PERI AZIMU VELO AIN AR TRES W  DIS CAZ7
 BAR2 SZ IP       1242 37.76                             170    0.0410 23.4 211 
 BAR2 SZ I        1242 38.18        58.6 0.11                          23.4 211 
 BAR2 SZ ES       1242 51.92                             170   -0.4210 23.4 211 
 BRR  HZ IP     D 1242 39.69                             148   -0.1610 79.8 298 
 BRR  HZ I        1242 40.11        80.2 0.11                          79.8 298 
 BRR  HN ES       1242 56.44                             148    0.2910 79.8 298 
 RUS  HZ EP   1   1242 41.76                             143    0.00 7 97.3 181 
 RUS  HN ES   1   1242 59.58                             143    0.04 7 97.3 181 
 RUS  HZ I        1243  1.70        14.2 0.51                          97.3 181 
 BRI  SZ EP       1242 42.35                             140    0.1610  109  16 
 GRA  SZ EP       1242 43.63                             135    0.0010  127  14 
 GRA  SZ ES   1   1243  2.91                             135    0.04 7  127  14 
 GRA  SZ I        1243  4.35        18.5 0.33                           127  14 
 OCA  SZ EP   1   1242 47.00                             127   -0.12 7  164 350 
 OCA  SZ ES   1   1243  9.22                             127    0.14 7  164 350 
 OCA  SZ I        1243 15.13        24.8 0.38                           164 350 
 NOR  SZ EP   1   1242 54.09                             116   -0.73 6  240 236 
 NOR  SE ES   1   1243 22.85                             116    0.07 6  240 236 
 CHI  HZ EP   1   1242 56.81                             116    0.62 6  248 197 
 CHI  HE ES   1   1243 25.61                             116    0.38 6  248 197 
 CHI  HZ I        1243 35.20         4.9 0.42                           248 197 
 HEL  HZ EP   1   1242 59.71                             113    0.09 6  279 257 
 HEL  HN ES   1   1243 31.67                             113    0.34 6  279 257 
 DBB  SZ EP       1243  6.64                             108   -0.48 6  348 275 
 PRA  HZ EP   1   1243 12.13                             105   -0.28 4  393 211 
 PRA  HE ES   1   1243 54.32                             105    0.22 4  393 211 
                                                                                
