 2012  5 8 1117 53.6 L   6.812 -73.149150.1  RSN 10 0.4 2.1LRSN                1
 GAP=136        0.78       3.5     4.4  5.7 -0.4832E+00  0.4835E+01  0.2269E+01E
 Epicentro: LOS SANTOS - SANTANDER                                             3
 ACTION:UP  12-07-05 12:03 OP:pat  STATUS:               ID:20120508111753 L   I
 2012-05-08-1110-00M.COL___192                                                 6
 STAT SP IPHASW D HRMM SECON CODA AMPLIT PERI AZIMU VELO SNR AR TRES W  DIS CAZ7
 BAR2 SZ EP       1118 13.63                             170    -0.110   25 189 
 BAR2 SZ ES   1   1118 29.78                             170     0.3 7   25 189 
 BAR2 SZ I        1118 31.19        33.7 0.43                            25 189 
 BRR  HZ EP   1   1118 15.48                             154     0.3 7   70 298 
 BRR  HE ES   1   1118 32.62                             154     0.7 7   70 298 
 BRR  HZ I        1118 34.95        30.7 0.24                            70 298 
 PAM  SZ EP   1   1118 16.45                             152     0.2 7   77  40 
 PAM  SN ES   1   1118 33.65                             152    -0.2 7   77  40 
 RUS  HZ EP   1   1118 18.14                             144     0.3 7  102 176 
 RUS  HE ES   1   1118 36.30                             144    -0.5 7  102 176 
 RUS  HZ I        1118 37.73        20.3 0.26                           102 176 
 PTB  HZ EP   1   1118 20.63                             133    -0.3 7  148 258 
 PTB  HN ES   1   1118 41.49                             133    -0.7 7  148 258 
 PTB  HZ I        1118 44.14         9.5 0.15                           148 258 
 ZAR  HZ EP   2   1118 26.39                             123     0.2 4  203 292 
 ZAR  HN ES   1   1118 51.64                             123     0.0 6  203 292 
 ZAR  HZ I        1118 58.14        20.8 0.26                           203 292 
 CHI  HZ EP   1   1118 32.12                             118     0.5 6  250 195 
 CHI  HN ES   1   1119  1.03                             118    -0.3 6  250 195 
 CHI  HZ I        1119  8.44         5.3 0.31                           250 195 
 RREF HZ EP   2   1118 40.14                             112     0.2 3  322 229 
 RREF HN ES   2   1119 16.51                             112     0.3 3  322 229 
 RREF HZ I        1119 25.83         4.9 0.28                           322 229 
 COD  HZ EP   1   1118 41.37                             110    -0.6 5  347 355 
 COD  HN ES   2   1119 18.92                             110    -0.8 3  347 355 
 PRA  HZ EP   1   1118 47.39                             107     0.0 4  393 209 
 PRA  HN ES   2   1119 29.62                             107     0.3 3  393 209 
                                                                                
