 2010  6 8 1523 25.4 L   6.761 -72.740140.3  RSN  5 0.1 1.9LRSN                1
 GAP=215        0.38       5.4    19.2  8.7 -0.3515E+02 -0.1166E+03 -0.1053E+02E
 Epicentro: CONCEPCION - SANTANDER                                             3
 ACTION:UP  10-08-24 10:09 OP:vdl  STATUS:               ID:20100608152325 L   I
 2010-06-08-1520-22S.COL___111                                                 6
 STAT SP IPHASW D HRMM SECON CODA AMPLIT PERI AZIMU VELO SNR AR TRES W  DIS CAZ7
 BAR2 SZ EP       1523 45.47                             157     0.210   53 249 
 BAR2 SZ ES   1   1524  0.66                             157    -0.2 7   53 249 
 GIR2 SZ EP       1523 45.58                             154     0.010   61 305 
 GIR2 SZ ES   3   1524  1.63                             154     0.3 2   61 305 
 GUE  SZ EP       1523 49.80                             137    -0.110  120 350 
 OCA  SZ EP       1523 54.82                             125     0.1 9  176 339 
 CHI  HZ EP   3   1524  3.65                             114    -0.4 2  260 205 
 CHI  HZ I        1524 42.65         5.4 0.43                           260 205 
                                                                                
