 2015  1 8 1638 11.5 L   6.815 -73.159147.8  RSN 10 0.3 2.2LRSN                1
 GAP=134        0.76       2.3     3.2  4.2 -0.6839E+00  0.3296E+01  0.3350E+00E
 Epicentro: LOS SANTOS - SANTANDER                                             3
 ACTION:UPD 15-03-02 15:37 OP:nd   STATUS:               ID:20150108163811 L   I
 OLDACT:REG 15-01-08 21:37 OP:mh   STATUS:               ID:20150108163745     3
 2015-01-08-1637-45M.COL___268                                                 6
 STAT SP IPHASW D HRMM SECON CODA AMPLIT PERI AZIMU VELO AIN AR TRES W  DIS CAZ7
 BAR2 EZ EP   1   1638 31.41                             170   -0.01 7 24.7 186 
 BAR2 EZ ES       1638 46.76                             170   -0.1910 24.7 186 
 BAR2 EZ I        1638 48.33        27.9 0.26            169           24.7 186 
 BRR  HZ EP       1638 33.36                             154    0.5810 69.2 298 
 BRR  HN ES       1638 49.73                             154    0.3710 69.2 298 
 BRR  HZ I        1638 52.01        16.3 0.28            151           69.2 298 
 PAM  SZ EP       1638 34.27                             151    0.3410 77.1  41 
 PAM  SN ES       1638 51.29                             151   -0.1310 77.1  41 
 PAM  SZ I        1638 53.33        36.5 0.54            155           77.1  41 
 RUS  HZ EP       1638 35.33                             144   -0.2610  102 175 
 RUS  HN ES       1638 54.32                             144   -0.0510  102 175 
 RUS  HZ I        1638 54.97        13.2 0.38            146            102 175 
 PTB  HZ EP       1638 38.17                             133   -0.39 9  147 258 
 PTB  HN ES       1638 59.11                             133   -0.53 9  147 258 
 PTB  HZ I        1639  5.12        18.5 0.36            132            147 258 
 SPBC HZ EP       1638 40.47                             129    0.26 9  164 218 
 SPBC HN ES       1639  2.91                             129    0.32 9  164 218 
 SPBC HZ I        1639  4.76        33.9 0.20            130            164 218 
 ZAR  HZ EP   1   1638 43.93                             123    0.03 6  202 292 
 ZAR  HN ES   1   1639  9.52                             123    0.36 6  202 292 
 ZAR  HZ I        1639 14.93        19.9 0.32            123            202 292 
 NOR  HZ EP       1638 47.32                             119   -0.02 8  234 234 
 NOR  HN ES       1639 15.41                             119    0.12 8  234 234 
 NOR  HZ I        1639 22.35        11.5 0.32            119            234 234 
 SML  HZ EP       1638 47.82                             118   -0.22 8  242 335 
 SML  HN ES       1639 16.08                             118   -0.44 8  242 335 
 SML  HZ I        1639 19.81        22.1 0.10            119            242 335 
 CHI  HZ EP       1638 49.53                             117    0.07 8  250 195 
 CHI  HN ES       1639 18.75                             117   -0.30 8  250 195 
 CHI  HZ I        1639 22.70         6.1 0.38            119            250 195 
 MON  HZ EP   4   1638 59.64                             109   -0.72 0  352 308 
 MON  HN ES   4   1639 36.44                             109   -2.01 0  352 308 
                                                                                
