 2017 12 8 1952 37.6 L   6.794 -73.145141.2  RSN 16 0.6 2.4LRSN                1
 GAP=101        1.27       3.6     4.4  6.6 -0.5496E+01  0.5993E+01  0.2638E+00E
 Epicentro: LOS SANTOS - SANTANDER                                             3
 ACTION:UPD 18-01-04 13:18 OP:rebc STATUS:               ID:20171208195237 L   I
 OLDACT:UP  17-12-09 01:16 OP:leo  STATUS:               ID:20171208194624     3
 OLDACT:UP  17-12-09 01:13 OP:leo  STATUS:               ID:20171208194624     3
 OLDACT:UP  17-12-09 01:11 OP:leo  STATUS:               ID:20171208194624     3
 OLDACT:UP  17-12-09 01:02 OP:leo  STATUS:               ID:20171208194624     3
 OLDACT:UP  17-12-09 00:55 OP:leo  STATUS:               ID:20171208194624     3
 OLDACT:REG 17-12-08 21:40 OP:leo  STATUS:               ID:20171208194624     3
 2017-12-08-1948-00M.COL___488                                                 6
 STAT SP IPHASW D HRMM SECON CODA AMPLIT PERI AZIMU VELO AIN AR TRES W  DIS CAZ7
 BAR2 EZ EP       1952 56.35                             170   -0.3010 22.7 191 
 BAR2 EZ ES       1953 11.51                             170   -0.0110 22.7 191 
 BAR2 EZ I        1953 12.59        63.8 0.20            170           22.7 191 
 PAM  EZ EP       1952 59.47                             150    0.1310 77.9  39 
 PAM  EN ES       1953 16.50                             150    0.1810 77.9  39 
 PAM  EZ I        1953 18.87        41.7 0.68            152           77.9  39 
 PTB  HZ EP       1953  3.38                             131   -0.79 9  148 259 
 PTB  HN ES       1953 24.49                             131   -0.43 9  148 259 
 OCA  HZ EP       1953  5.12                             128   -0.48 9  161 353 
 OCA  HN ES       1953 27.32                             128   -0.15 9  161 353 
 OCA  HZ I        1953 32.25        63.9 0.40            130            161 353 
 SPBC HZ EP       1953  5.71                             128    0.03 9  163 219 
 SPBC HN ES       1953 27.55                             128   -0.06 9  163 219 
 YPLC HZ EP       1953  7.01                             126    0.03 9  176 151 
 ZAR  HZ EP       1953  9.48                             121   -0.28 9  204 292 
 ZAR  HN ES       1953 35.87                             121    1.00 9  204 292 
 ZAR  HZ I        1953 43.41        29.9 0.40            122            204 292 
 NOR  HZ EP       1953 13.67                             118    0.66 8  234 235 
 NOR  HN ES       1953 40.61                             118   -0.04 8  234 235 
 NOR  HZ I        1953 42.31        18.1 0.30            118            234 235 
 ROSC BZ EP   4   1953 18.19                             116    2.80 0  252 211 
 ROSC HN ES   4   1953 49.55                             116    4.66 0  252 211 
 ROSC BZ I        1953 52.55        15.2 0.40            117            252 211 
 URE  HZ EP   2   1953 17.72                             113   -0.75 4  284 292 
 URE  HE ES   2   1953 48.78                             113   -1.58 4  284 292 
 DRL03HZ EP       1953 19.73                             112    0.68 7  290 353 
 DRL03HN ES       1953 52.72                             112    1.32 7  290 353 
 GUY2CHZ EP       1953 21.55                             111    0.61 7  301 235 
 GUY2CHN ES       1953 55.00                             111    0.24 7  301 235 
 GUY2CHZ I        1954  3.16        12.0 0.50                           301 235 
 DBB  EZ EP       1953 24.14                             109   -0.75 7  340 274 
 DBB  EN ES       1954  1.14                             109   -0.65 7  340 274 
 DBB  EZ I        1954  3.63         9.6 0.40            109            340 274 
 SDV  BZ EP       1953 26.26                             107   -1.23 6  361  50 
 SDV  B1 ES   4   1954  0.55                             107   -5.87 0  361  50 
 PRA  HZ EP     D 1953 31.25                             106    0.37 6  391 210 
 PRA  HN ES       1954 13.76                             106    1.31 6  391 210 
 PRA  HZ I        1954 17.59         8.0 0.32            107            391 210 
 ORTC HZ EP   4   1953 29.53                             106   -1.75 0  395 216 
 ORTC HN ES   4   1954 15.22                             106    2.04 0  395 216 
 ORTC HZ I        1954 19.63         6.7 0.48            106            395 216 
                                                                                
