 2013  5 8 1255 15.1 L   6.724 -73.478114.1  RSN  7 0.4 2.1LRSN                1
 GAP=105        0.82       3.9     5.5  7.1  0.3986E+01  0.1543E+02  0.2990E+01E
 Epicentro: EL CARMEN DE CHUCURI - SANTANDER                                   3
 ACTION:UPD 13-06-20 09:48 OP:ep   STATUS:               ID:20130508125515 L   I
 2013-05-08-1250-00M.COL___256                                                 6
 STAT SP IPHASW D HRMM SECON CODA AMPLIT PERI AZIMU VELO AIN AR TRES W  DIS CAZ7
 BAR2 SZ IP     C 1255 31.57                             161    0.2510 35.8 114 
 BAR2 SZ ES   1   1255 44.05                             161    0.07 7 35.8 114 
 BRR  HZ EP   1   1255 31.66                             155    0.07 7 49.6 329 
 BRR  HN ES   1   1255 44.68                             155    0.21 7 49.6 329 
 BRR  HZ I        1255 45.07        70.8 0.12            154           49.6 329 
 GIR2 SZ EP       1255 31.80                             154   -0.0310 50.3  39 
 GIR2 SZ ES   1   1255 44.64                             154   -0.26 7 50.3  39 
 RUS  HZ EP       1255 36.26                             135    0.2910  102 155 
 RUS  HN ES   1   1255 52.57                             135    0.30 7  102 155 
 RUS  HZ I        1255 53.45        11.1 0.22            136            102 155 
 PTB  HZ IP     C 1255 35.33                             133   -0.7110  110 259 
 PTB  HE ES   4   1255 50.62                             133   -1.77 0  110 259 
 PTB  HZ I        1255 52.09        21.0 0.50            134            110 259 
 PAM  SZ EP   2   1255 36.56                             133   -0.09 5  110  52 
 PAM  SN ES   1   1255 52.92                             133   -0.56 7  110  52 
 PAM  SZ I        1255 56.49        14.6 0.24            131            110  52 
 NOR  HZ EP   4   1255 46.67                             115    1.34 0  200 230 
 SML  HZ EP   2   1255 49.61                             110    0.03 4  239 344 
 SML  HE ES   1   1256 17.29                             110    0.80 6  239 344 
 SML  HZ I        1256 19.52        16.4 0.26            110            239 344 
                                                                                
