 2013  8 8 1344 42.8 L   6.755 -73.140150.0  RSN 10 0.4 1.9LRSN                1
 GAP=139        0.78       3.9     4.2  6.0  0.3491E+01  0.1635E+01 -0.5127E+00E
 Epicentro: LOS SANTOS - SANTANDER                                             3
 ACTION:UPD 14-01-14 09:00 OP:ep   STATUS:               ID:20130808134442 L   I
 OLDACT:DUP 13-08-08 18:33 OP:mh   STATUS:               ID:20130808133960d    3
 OLDACT:UP  13-08-08 18:31 OP:mh   STATUS:               ID:20130808133959     3
 OLDACT:REG 13-08-08 15:55 OP:mh   STATUS:               ID:20130808133959     3
 2013-08-08-1339-59M.COL___270                                                 6
 STAT SP IPHASW D HRMM SECON CODA AMPLIT PERI AZIMU VELO AIN AR TRES W  DIS CAZ7
 BAR2 SZ EP   1   1345  2.54                             173   -0.33 7 18.6 195 
 BAR2 SZ ES   1   1345 18.18                             173   -0.34 7 18.6 195 
 BAR2 SZ I        1345 26.65         7.2 0.46            170           18.6 195 
 GIR2 SZ EP   1   1345  2.46                             166   -0.68 7 36.3 351 
 GIR2 SZ I        1345 20.23         8.1 0.16            156           36.3 351 
 BRR  HZ EP   1   1345  4.97                             152    0.37 7 74.2 302 
 BRR  HN ES   1   1345 22.22                             152    0.64 7 74.2 302 
 BRR  HN I        1345 23.21        30.5 0.22            153           74.2 302 
 PAM  SZ EP   1   1345  5.67                             150   -0.03 7 80.9  37 
 PAM  SN I        1345 25.93         5.9 0.38            139           80.9  37 
 RUS  HZ EP       1345  6.83                             146    0.1910 95.6 176 
 RUS  HN ES   1   1345 25.43                             146    0.21 7 95.6 176 
 RUS  HN I        1345 26.09         9.5 0.28            147           95.6 176 
 PTB  HZ EP   1   1345  9.69                             133   -0.42 7  147 261 
 PTB  HN ES       1345 31.09                             133   -0.31 9  147 261 
 PTB  HN I        1345 36.35        31.5 0.34            137            147 261 
 SPBC HZ EP       1345 11.88                             131    0.56 9  160 220 
 SPBC HN ES   1   1345 33.41                             131   -0.15 7  160 220 
 SPBC HN I        1345 39.34        19.5 0.28            135            160 220 
 ZAR  HZ EP       1345 15.88                             123    0.08 8  207 293 
 ZAR  HN ES       1345 41.62                             123    0.10 8  207 293 
 ZAR  HN I        1345 47.21        17.9 0.56            123            207 293 
 CHI  HN ES   1   1345 49.40                             118   -0.05 6  244 196 
 CHI  HN I        1345 54.82         5.8 0.40            119            244 196 
 GUY2CHZ EP   1   1345 25.86                             113   -0.50 5  299 236 
 GUY2CHN ES   4   1346  2.83                             113    2.51 0  299 236 
 GUY2CHN I        1346  8.75         2.7 0.36                           299 236 
                                                                                
