 2012 10 8 1000 46.6 L   6.788 -73.142133.7  RSN  6 0.3 1.8LRSN                1
 GAP=186        0.56       8.4     5.1  7.8 -0.5641E+01  0.7645E+01  0.2398E+02E
 Epicentro: LOS SANTOS - SANTANDER                                             3
 ACTION:UPD 12-11-22 17:02 OP:ep   STATUS:               ID:20121008100046 L   I
 2012-10-08-1000-00M.COL___222                                                 6
 STAT SP IPHASW D HRMM SECON CODA AMPLIT PERI AZIMU VELO AIN AR TRES W  DIS CAZ7
 BAR2 SZ ES   3   10 1 18.89                             170    0.00 2 22.1 192 
 BAR2 SZ I        10 1 20.65        10.5 0.16                          22.1 192 
 GIR2 SZ EP       10 1  4.65                             165   -0.2110 32.7 350 
 GIR2 SZ ES   3   10 1 19.37                             165    0.25 2 32.7 350 
 BRR  HZ EP       10 1  6.57                             150    0.0710 72.3 299 
 BRR  HZ I        10 1  8.62        13.2 0.32                          72.3 299 
 BRR  HN ES   1   10 1 22.30                             150    0.26 7 72.3 299 
 RUS  HN ES   3   10 1 26.31                             142   -0.28 2 99.2 176 
 ZAR  HE ES   2   10 1 42.63                             119   -0.53 4  205 292 
 ZAR  HN I        10 1 43.89         9.6 0.12                           205 292 
 HEL  HZ EP   1   10 1 26.88                             112    0.66 6  272 256 
 HEL  HN ES   1   10 1 56.76                             112   -0.37 6  272 256 
                                                                                
