 2011  5 8 1800  3.7 L   6.784 -73.116145.1  RSN 16 0.5 3.0LRSN                1
 GAP=141        0.98       3.5     5.5  6.1 -0.8243E+01  0.9230E+01  0.4154E+01E
 Epicentro: LOS SANTOS - SANTANDER                                             3
 ACTION:UP  11-06-29 08:51 OP:tino STATUS:               ID:20110508180003 L   I
 2011-05-08-1758-14S.COL___132                                                 6
 STAT SP IPHASW D HRMM SECON CODA AMPLIT PERI AZIMU VELO SNR AR TRES W  DIS CAZ7
 BAR2 SZ EP       18 0 23.19                             171     0.010   22 199 
 BAR2 SZ ES   1   18 0 38.50                             171     0.0 7   22 199 
 BAR2 SZ I        18 0 40.79       193.3 0.32                            22 199 
 BRR  HZ EP       18 0 24.95                             151     0.010   75 299 
 BRR  HN ES   1   18 0 41.66                             151     0.1 7   75 299 
 BRR  HZ I        18 0 44.45       134.6 0.10                            75 299 
 PAM  SZ EP   1   18 0 25.92                             151     0.1 7   77  37 
 PAM  SN ES   1   18 0 42.89                             151    -0.1 7   77  37 
 PAM  SZ I        18 0 45.47        72.2 0.50                            77  37 
 RUS  HZ EP   1   18 0 27.22                             144     0.0 7   99 178 
 RUS  HN ES   1   18 0 45.70                             144     0.1 7   99 178 
 RUS  HZ I        18 0 47.68       137.1 0.18                            99 178 
 BRI  SZ EP       18 0 27.61                             141     0.110  109  19 
 BRI  SZ ES   1   18 0 46.69                             141     0.5 7  109  19 
 BRI  SZ I        18 0 50.32        83.7 0.35                           109  19 
 GRA  SZ EP       18 0 28.79                             137    -0.110  127  16 
 GRA  SZ ES   1   18 0 47.68                             137    -0.9 7  127  16 
 GRA  SZ I        18 0 49.74       111.1 0.41                           127  16 
 OCA  SZ EP   1   18 0 31.73                             129    -0.4 7  163 352 
 OCA  SZ ES   1   18 0 55.25                             129     0.9 7  163 352 
 OCA  SZ I        18 0 59.05       142.2 0.32                           163 352 
 NOR  SZ EP       18 0 39.14                             118    -0.4 8  236 235 
 NOR  SN ES   1   18 1  6.63                             118    -0.9 6  236 235 
 ROSC BZ EP   1   18 0 42.31                             116     0.5 6  253 212 
 ROSC BZ I        18 1 18.13       118.8 0.41                           253 212 
 HEL  HZ EP   1   18 0 45.00                             114     0.8 6  275 256 
 HEL  HN ES   1   18 1 15.73                             114     0.0 6  275 256 
 HEL  HZ I        18 1 22.56        66.6 0.55                           275 256 
 VIL  SZ EP   1   18 0 47.12                             112     0.2 5  302 192 
 VIL  SN ES   1   18 1 21.06                             112     0.4 5  302 192 
 VIL  SZ I        18 1 25.51        41.7 0.34                           302 192 
 RREF HZ EP   2   18 0 50.86                             111     0.9 3  323 230 
 RREF HZ I        18 1 35.61        81.7 0.35                           323 230 
 DBB  SZ EP   1   18 0 51.20                             109    -0.3 5  343 275 
 TOL  SZ EP   1   18 0 52.92                             109     0.9 5  345 225 
 PRA  HZ EP   1   18 0 56.90                             106    -0.3 4  392 210 
 PRA  HN ES   1   18 1 38.84                             106    -0.1 4  392 210 
 SJA  SZ EP   1   18 0 57.22                             106    -0.9 4  399 193 
 SJA  SZ I        18 1 50.40        78.0 0.41                           399 193 
                                                                                
