 2012 10 8 1717  0.7 L   6.761 -73.080149.6  RSN  5 0.3 2.0LRSN                1
 GAP=147        0.67       4.3     6.7  6.0 -0.4918E+00 -0.3238E+01  0.1115E+01E
 Epicentro: LOS SANTOS - SANTANDER                                             3
 ACTION:UPD 12-11-22 17:02 OP:ep   STATUS:               ID:20121008171700 L   I
 2012-10-08-1710-00M.COL___222                                                 6
 STAT SP IPHASW D HRMM SECON CODA AMPLIT PERI AZIMU VELO AIN AR TRES W  DIS CAZ7
 BAR2 SZ EP       1717 20.79                             171    0.0110 21.9 211 
 BAR2 SZ ES   1   1717 36.08                             171   -0.35 7 21.9 211 
 BAR2 SZ I        1717 37.31        12.0 0.18                          21.9 211 
 GIR2 SZ EP       1717 20.90                             165   -0.1110 37.3 340 
 GIR2 SZ ES   2   1717 36.58                             165   -0.27 5 37.3 340 
 PAM  SZ EP       1717 23.64                             152    0.3510 76.5  33 
 PAM  SZ I        1717 23.81        12.2 0.20                          76.5  33 
 PAM  SN ES   1   1717 40.77                             152   -0.12 7 76.5  33 
 BRR  HZ EP       1717 22.75                             151   -0.0210 79.7 299 
 BRR  HN ES   1   1717 40.18                             151    0.22 7 79.7 299 
 BRR  HN I        1717 40.92        46.0 0.16                          79.7 299 
 RUS  HZ EP       1717 24.17                             146   -0.3610 96.1 180 
 RUS  HN ES   1   1717 43.69                             146    0.59 7 96.1 180 
                                                                                
