 2013  9 8 1731  7.5 L   6.827 -73.183142.1  RSN 10 0.4 2.3LRSN                1
 GAP=131        0.83       3.0     4.2  6.3 -0.3935E+00  0.3589E+01 -0.4376E+01E
 Epicentro: ZAPATOCA - SANTANDER                                               3
 ACTION:UPD 13-10-22 09:21 OP:ep   STATUS:               ID:20130908173107 L   I
 OLDACT:UP  13-09-08 17:13 OP:mh   STATUS:               ID:20130908172959     3
 OLDACT:REG 13-09-08 16:46 OP:mh   STATUS:               ID:20130908172959     3
 2013-09-08-1729-59M.COL___269                                                 6
 STAT SP IPHASW D HRMM SECON CODA AMPLIT PERI AZIMU VELO AIN AR TRES W  DIS CAZ7
 BAR2 SZ IP     D 1731 26.78                             169   -0.0110 25.9 180 
 BAR2 SZ ES   1   1731 41.29                             169   -0.51 7 25.9 180 
 BAR2 SZ I        1731 42.42        37.5 0.32            170           25.9 180 
 BRR  HZ EP   1   1731 28.49                             154    0.47 7 66.2 298 
 BRR  HN ES   1   1731 44.65                             154    0.67 7 66.2 298 
 BRR  HZ I        1731 48.38        40.5 0.36            151           66.2 298 
 PAM  SZ EP   1   1731 29.63                             150    0.23 7 77.9  43 
 PAM  SN ES   2   1731 46.41                             150   -0.03 5 77.9  43 
 PAM  SZ I        1731 48.56        44.9 0.50            154           77.9  43 
 RUS  HZ EP   1   1731 30.83                             142   -0.35 7  104 174 
 RUS  HN ES       1731 49.53                             142   -0.0810  104 174 
 RUS  HZ I        1731 51.29        15.7 0.34            145            104 174 
 PTB  HZ EP   1   1731 33.43                             132   -0.47 7  144 257 
 PTB  HN ES       1731 53.82                             132   -0.64 9  144 257 
 PTB  HZ I        1731 55.73        19.7 0.20            132            144 257 
 OCA  HZ EP   1   1731 34.96                             129   -0.29 7  157 354 
 OCA  HN ES   1   1731 57.14                             129    0.28 7  157 354 
 OCA  HZ I        1732  1.31        24.6 0.36            131            157 354 
 SPBC HZ EP       1731 35.88                             128    0.14 9  163 217 
 SPBC HN ES       1731 58.32                             128    0.58 9  163 217 
 SPBC HZ I        1732  4.83        21.8 0.28            130            163 217 
 ZAR  HZ EP   1   1731 39.47                             122    0.22 6  199 292 
 ZAR  HN ES   1   1732  4.17                             122    0.20 6  199 292 
 ZAR  HZ I        1732 10.32        24.6 0.24            123            199 292 
 SML  HZ EP   1   1731 43.63                             117    0.14 6  239 336 
 SML  HN ES   1   1732 10.93                             117   -0.60 6  239 336 
 HEL  HZ EP   4   1731 49.19                             114    1.98 0  269 255 
 HEL  HE ES   4   1732 20.64                             114    2.48 0  269 255 
 HEL  HZ I        1732 24.71        11.3 0.40            115            269 255 
 GUY2CHZ EP   4   1731 44.61                             112   -6.19 0  300 234 
 GUY2CHN ES   4   1732 25.10                             112    0.56 0  300 234 
 SJC  HZ EP   4   1732  0.80                             105   -1.64 0  405 327 
 SJC  HN ES   4   1732 41.55                             105   -3.70 0  405 327 
                                                                                
