 2017 11 8 1517 46.9 L   6.807 -73.189144.0  RSN 11 0.4 1.8LRSN                1
 GAP=108        0.80       3.0     3.0  5.3  0.2608E+00  0.2412E+01  0.6047E+01E
 Epicentro: ZAPATOCA - SANTANDER                                               3
 ACTION:UPD 17-12-12 19:53 OP:rebc STATUS:               ID:20171108151746 L   I
 OLDACT:UP  17-11-08 22:53 OP:mg   STATUS:               ID:20171108150728     3
 OLDACT:REG 17-11-08 20:43 OP:mg   STATUS:               ID:20171108150728     3
 2017-11-08-1508-00M.COL___407                                                 6
 STAT SP IPHASW D HRMM SECON CODA AMPLIT PERI AZIMU VELO AIN AR TRES W  DIS CAZ7
 BAR2 EZ EP       1518  6.08                             170   -0.2410 23.8 178 
 BAR2 EZ ES   2   1518 21.58                             170    0.11 5 23.8 178 
 BAR2 EZ I        1518 22.70        16.4 0.22            168           23.8 178 
 BRR  HZ EP       1518  7.96                             154    0.3610 66.6 300 
 BRR  HN ES       1518 24.31                             154    0.5610 66.6 300 
 BRR  HZ I        1518 28.29        21.8 0.34            153           66.6 300 
 PAM  EZ EP       1518  9.09                             150    0.0110 79.9  43 
 PAM  EN ES       1518 26.24                             150   -0.1410 79.9  43 
 PAM  EZ I        1518 27.93         7.7 0.16            155           79.9  43 
 RUS  HZ EP   1   1518 10.08                             143   -0.48 7  102 173 
 RUS  HN ES       1518 28.99                             143   -0.0310  102 173 
 RUS  HZ I        1518 30.25         5.4 0.26            144            102 173 
 PTB  HZ EP   1   1518 12.67                             133   -0.64 7  143 258 
 PTB  HN ES       1518 33.19                             133   -0.72 9  143 258 
 PTB  HZ I        1518 36.50         4.7 0.14            132            143 258 
 YPLC HZ EP       1518 16.58                             126   -0.28 9  180 150 
 YPLC HN ES       1518 40.65                             126    0.41 9  180 150 
 YPLC HZ I        1518 44.22         8.0 0.42            128            180 150 
 ZAR  HZ EP   2   1518 19.26                             123    0.52 4  199 292 
 ZAR  HN ES   2   1518 43.96                             123    0.39 4  199 292 
 ZAR  HZ I        1518 49.01         7.7 0.24            124            199 292 
 NOR  HZ EP       1518 22.20                             119    0.04 8  231 234 
 NOR  HN ES       1518 49.89                             119    0.23 8  231 234 
 NOR  HZ I        1518 56.99         3.8 0.20            119            231 234 
 CHI  HZ EP       1518 24.33                             117   -0.12 8  248 194 
 CHI  HN ES       1518 53.90                             117    0.16 8  248 194 
 CHI  HZ I        1518 59.23         3.2 0.32            118            248 194 
 GUY2CHZ EP   3   1518 31.38                             112    1.35 2  298 234 
 GUY2CHN ES   4   1519  8.34                             112    4.66 0  298 234 
 GUY2CHZ I        1519 13.03         3.1 0.23                           298 234 
 PRA  HZ EP   2   1518 40.12                             106   -0.04 3  390 209 
 PRA  HN ES       1519 22.13                             106    0.42 6  390 209 
 PRA  HZ I        1519 28.72         2.4 0.28            107            390 209 
                                                                                
