 2010  7 8 1200 38.9 L   6.845 -73.383127.3  RSN  8 0.3 1.9LRSN                1
 GAP=146        0.78       4.9     6.3  6.8  0.9887E+01  0.3662E+01 -0.1220E+02E
 Epicentro: SAN VICENTE DE CHUCURI - SANTANDER                                 3
 ACTION:UPD 10-12-01 15:16 OP:pat  STATUS:               ID:20100708120038 L   I
 2010-07-08-1157-54S.COL___117                                                 6
 STAT SP IPHASW D HRMM SECON CODA AMPLIT PERI AZIMU VELO AIN AR TRES W  DIS CAZ7
 GIR2 SZ EP   1   12 0 56.28                             165    -0.1 7   33  39 
 BAR2 SZ IP       12 0 56.75                             164     0.110   36 142 
 BAR2 SZ ES   1   12 1 10.01                             164    -0.5 7   36 142 
 BAR2 SZ I        12 1 11.09        72.1 0.25                            36 142 
 BRR  HZ EP       12 0 57.14                             159     0.410   47 309 
 BRR  HE ES   1   12 1 10.84                             159     0.2 7   47 309 
 BRR  HZ I        12 1 11.90        39.9 0.15                            47 309 
 RUS  HZ EP   1   12 1  1.69                             137     0.0 7  110 163 
 RUS  HN ES   2   12 1 19.34                             137    -0.1 5  110 163 
 RUS  HZ I        12 1 20.52         7.6 0.22                           110 163 
 GUE  SZ EP   1   12 1  2.74                             134     0.5 7  120  25 
 GUE  SZ I        12 1 23.67         5.8 0.17                           120  25 
 GRA  SZ EP   2   12 1  3.01                             131     0.0 5  132  29 
 GRA  SZ ES   2   12 1 21.63                             131    -0.3 5  132  29 
 GRA  SZ I        12 1 23.78        10.5 0.23                           132  29 
 OCA  SZ EP       12 1  5.03                             126    -0.2 9  154   3 
 OCA  SZ I        12 1 28.57        18.4 0.35                           154   3 
 MON  HZ EP       12 1 23.90                             106    -0.5 7  329 310 
 MON  HE ES   1   12 1 59.88                             106    -0.1 5  329 310 
 MON  HZ I        12 2 12.54         2.1 0.44                           329 310 
                                                                                
