 2011  9 8 1624 10.7 L   6.835 -73.362112.8  RSN  7 0.2 1.7LRSN                1
 GAP= 91        0.43       2.8     2.8  4.0  0.3314E+01  0.3614E+01  0.1217E+01E
 Epicentro: SAN VICENTE DE CHUCURI - SANTANDER                                 3
 ACTION:UPD 12-07-13 15:56 OP:ep   STATUS:               ID:20110908162410 L   I
 2011-09-08-1620-00M.COL___172                                                 6
 STAT SP IPHASW D HRMM SECON CODA AMPLIT PERI AZIMU VELO AIN AR TRES W  DIS CAZ7
 GIR2 SZ EP       1624 26.56                             163    0.0410 32.7  35 
 BAR2 SZ EP       1624 26.85                             162    0.1610 33.4 144 
 BAR2 SZ ES   1   1624 39.04                             162   -0.13 7 33.4 144 
 BAR2 SZ I        1624 40.92        31.9 0.32                          33.4 144 
 BRR  HZ EP   1   1624 26.99                             155   -0.04 7 49.0 308 
 BRR  HZ I        1624 29.31        22.2 0.12                          49.0 308 
 BRR  HE ES   1   1624 39.96                             155    0.19 7 49.0 308 
 PAM  SZ EP   2   1624 30.66                             138    0.01 5 92.0  53 
 PAM  SN ES   2   1624 46.19                             138   -0.02 5 92.0  53 
 RUS  HZ EP   1   1624 31.86                             133   -0.22 7  109 163 
 RUS  HZ I        1624 32.83         3.1 0.10                           109 163 
 RUS  HE ES   1   1624 48.69                             133   -0.07 7  109 163 
 ZAR  HZ EP   2   1624 38.08                             117   -0.55 4  180 294 
 ZAR  HN ES   1   1625  0.21                             117   -0.22 7  180 294 
 HEL  HZ EP   1   1624 47.34                             109    0.44 6  250 254 
 HEL  HZ I        1625 22.03         5.2 0.22                           250 254 
                                                                                
