 2017  1 8 1034 17.5 L   6.835 -73.085143.4  RSN  7 0.3 1.4LRSN                1
 GAP=143        0.74       3.2     4.2  6.2  0.9283E+00  0.6034E+01  0.1563E+01E
 Epicentro: LOS SANTOS - SANTANDER                                             3
 ACTION:UPD 17-05-22 15:56 OP:jn   STATUS:               ID:20170108103417 L   I
 OLDACT:UP  17-01-08 20:57 OP:and  STATUS:               ID:20170108102745d    3
 OLDACT:UP  17-01-08 20:56 OP:and  STATUS:               ID:20170108102745d    3
 OLDACT:DUP 17-01-08 20:52 OP:and  STATUS:               ID:20170108102745d    3
 OLDACT:UP  17-01-08 20:51 OP:and  STATUS:               ID:20170108102744d    3
 OLDACT:UP  17-01-08 20:50 OP:and  STATUS:               ID:20170108102744d    3
 OLDACT:UP  17-01-08 20:48 OP:and  STATUS:               ID:20170108102744d    3
 OLDACT:UP  17-01-08 20:46 OP:and  STATUS:               ID:20170108102744d    3
 OLDACT:DUP 17-01-08 20:44 OP:and  STATUS:               ID:20170108102744d    3
 OLDACT:DUP 17-01-08 20:41 OP:and  STATUS:               ID:20170108102743d    3
 OLDACT:UP  17-01-08 20:41 OP:and  STATUS:               ID:20170108102742     3
 OLDACT:UP  17-01-08 20:40 OP:and  STATUS:               ID:20170108102742     3
 OLDACT:REG 17-01-08 19:47 OP:and  STATUS:               ID:20170108102742     3
 2017-01-08-1028-00M.COL___374                                                 6
 STAT SP IPHASW D HRMM SECON CODA AMPLIT PERI AZIMU VELO AIN AR TRES W  DIS CAZ7
 BAR2 EZ EP       1034 36.58                             168   -0.4210 28.9 202 
 BAR2 EZ ES       1034 52.09                             168   -0.1010 28.9 202 
 BAR2 EZ I        1034 52.92         6.3 0.19            167           28.9 202 
 PAM  EZ IP     D 1034 39.30                             153    0.2210 70.2  37 
 PAM  EN ES       1034 56.13                             153    0.2510 70.2  37 
 PAM  EZ I        1034 57.87         4.7 0.16            155           70.2  37 
 BRR  HZ EP       1034 38.26                             151   -0.4110 75.5 294 
 BRR  HN ES       1034 55.13                             151   -0.0310 75.5 294 
 RUS  HN ES       1034 59.88                             142    0.0110  104 180 
 RUS  HZ I        1035  0.97         4.2 0.38            144            104 180 
 PTB  HN ES   4   1035  4.39                             130   -2.00 0  155 258 
 PTB  HZ I        1035 10.66         4.0 0.27            130            155 258 
 ZAR  HN ES       1035 16.23                             121    0.33 8  209 290 
 CHI  HN ES       1035 25.88                             116    0.41 8  254 196 
                                                                                
