 2017  6 8 1002 21.0 L   6.794 -73.142143.5  RSN 19 0.5 2.3LRSN                1
 GAP=166        1.15       4.0     3.1  7.0  0.3490E+01  0.6247E+01  0.6838E+00E
 Epicentro: LOS SANTOS - SANTANDER                                             3
 ACTION:UPD 17-09-14 16:50 OP:jn   STATUS:               ID:20170608100221 L   I
 OLDACT:UP  17-06-08 22:38 OP:osc  STATUS:               ID:20170608095736     3
 OLDACT:REG 17-06-08 21:01 OP:osc  STATUS:               ID:20170608095736     3
 2017-06-08-0958-00M.COL___368                                                 6
 STAT SP IPHASW D HRMM SECON CODA AMPLIT PERI AZIMU VELO AIN AR TRES W  DIS CAZ7
 BRR  HZ IP     C 10 2 42.04                             152    0.1010 71.8 299 
 BRR  HN ES       10 2 58.86                             152    0.5910 71.8 299 
 BRR  HZ I        10 3  3.36        74.3 0.14            148           71.8 299 
 RUS  HZ EP       10 2 44.10                             144   -0.3810 99.9 176 
 RUS  HN ES       10 3  2.35                             144   -0.4310 99.9 176 
 RUS  HZ I        10 3  3.80        23.1 0.30            137           99.9 176 
 PTB  HZ EP       10 2 47.00                             131   -0.80 9  148 259 
 PTB  HN ES   4   10 3  7.61                             131   -1.10 0  148 259 
 PTB  HZ I        10 3 10.23        35.4 0.20            126            148 259 
 TAM  HZ EP       10 2 48.46                             130    0.01 9  155 105 
 TAM  HN ES       10 3  9.80                             130   -0.06 9  155 105 
 TAM  HZ I        10 3 10.48        27.7 0.24            127            155 105 
 SPBC HZ EP       10 2 49.09                             129   -0.21 9  163 219 
 SPBC HN ES       10 3 10.91                             129   -0.45 9  163 219 
 SPBC HZ I        10 3 18.04        18.3 0.08            122            163 219 
 YPLC HZ EP     D 10 2 50.56                             126    0.01 9  176 151 
 YPLC HE ES       10 3 14.48                             126    0.88 9  176 151 
 YPLC HZ I        10 3 16.88        21.1 0.26            121            176 151 
 ZAR  HZ EP       10 2 53.13                             122   -0.23 9  205 292 
 ZAR  HN ES       10 3 19.15                             122    0.55 9  205 292 
 ZAR  HZ I        10 3 27.18        33.6 0.29            118            205 292 
 NOR  HZ EP       10 2 56.61                             118    0.02 8  235 235 
 NOR  HN ES       10 3 23.92                             118   -0.42 8  235 235 
 NOR  HZ I        10 3 26.87        14.1 0.24            113            235 235 
 CHI  HZ EP   4   10 3  0.31                             117    1.80 0  248 195 
 CHI  HN ES       10 3 27.48                             117   -0.29 8  248 195 
 CHI  HZ I        10 3 37.90         5.9 0.50            112            248 195 
 ROSC BZ EP   4   10 3  0.89                             116    1.94 0  252 211 
 ROSC BN ES   4   10 3 33.46                             116    4.91 0  252 211 
 ROSC BZ I        10 3 38.64        15.1 0.40            112            252 211 
 HEL  HZ EP   4   10 3  2.42                             114    1.30 0  272 256 
 HEL  HN ES       10 3 33.16                             114    0.75 8  272 256 
 HEL  HZ I        10 3 40.89        10.2 0.26            110            272 256 
 URE  HZ EP   4   10 3  0.59                             113   -1.44 0  284 292 
 URE  HN ES       10 3 32.93                             113   -1.10 7  284 292 
 URE  HZ I        10 3 44.64        20.9 0.18            110            284 292 
 PTGC HZ EP   9   10 3  3.42                             111   -1.25 0  308 159 
 PTGC HZ I        10 3 36.20        10.3 0.36            107            308 159 
 PTGC HE ES       10 3 36.79                                   -0.69 7  308 159 
 ELA  HN ES       10 3 44.76                             110    0.57 7  329 230 
 ELA  HZ I        10 4  2.92         5.0 0.36            106            329 230 
 CBOC HZ EP       10 3  8.46                             109    0.62 7  334 252 
 CBOC HN ES       10 3 45.27                             109    0.90 7  334 252 
 CBOC HZ I        10 3 57.01         3.1 0.42            106            334 252 
 DBB  EZ EP       10 3  8.35                             109   -0.08 7  340 274 
 DBB  EN ES       10 3 45.57                             109    0.14 7  340 274 
 DBB  EZ I        10 3 48.98         5.8 0.16            106            340 274 
 ORTC HZ EP       10 3 15.54                             106    0.74 6  395 216 
 ORTC HE ES   4   10 3 58.43                             106    1.66 0  395 216 
 ORTC HZ I        10 4  3.15         4.7 0.50            103            395 216 
 PAL  HZ EP       10 3 16.35                             105    0.27 6  406 239 
 PAL  HE ES       10 3 58.34                             105   -0.70 6  406 239 
 PAL  HZ I        10 4  0.12         2.5 0.22            102            406 239 
 SJC  HZ EP   4   10 3 15.07                             105   -1.51 0  410 327 
 SJC  HN ES   4   10 3 57.44                             105   -2.49 0  410 327 
 SJC  HZ I        10 4  0.43         9.0 0.64            103            410 327 
                                                                                
