 2017  9 8 1739  1.3 L   6.578 -73.368116.6  RSN  4 0.3 1.2LRSN                1
 GAP=144        0.73       6.8     8.3  6.6  0.4748E+02  0.3094E+02  0.1756E+02E
 Epicentro: HATO - SANTANDER                                                   3
 ACTION:UPD 17-10-05 19:10 OP:rebc STATUS:               ID:20170908173901 L   I
 OLDACT:UP  17-09-09 02:41 OP:edw  STATUS:               ID:20170908173739     3
 OLDACT:UP  17-09-09 02:39 OP:edw  STATUS:               ID:20170908173739     3
 OLDACT:UP  17-09-09 02:35 OP:edw  STATUS:               ID:20170908173739     3
 OLDACT:REG 17-09-08 20:31 OP:lv   STATUS:               ID:20170908173739     3
 2017-09-08-1738-00M.COL___419                                                 6
 STAT SP IPHASW D HRMM SECON CODA AMPLIT PERI AZIMU VELO AIN AR TRES W  DIS CAZ7
 BAR2 EZ EP       1739 17.79                             169    0.4610 20.6  86 
 BAR2 EZ ES       1739 30.01                             169    0.1510 20.6  86 
 BAR2 EZ I        1739 31.70        10.5 0.50            169           20.6  86 
 BRR  HZ EP       1739 18.78                             147   -0.4710 69.8 327 
 BRR  HN ES       1739 33.10                             147   -0.1710 69.8 327 
 BRR  HZ I        1739 33.44         7.7 0.60            148           69.8 327 
 RUS  HZ EP       1739 20.63                             143   -0.1810 82.1 157 
 RUS  HN ES       1739 35.99                             143   -0.0710 82.1 157 
 RUS  HZ I        1739 36.74         1.1 0.16            144           82.1 157 
 ZAR  HZ EP       1739 30.99                             117    0.19 9  193 302 
 ZAR  HN ES       1739 54.00                             117    0.16 9  193 302 
                                                                                
