 2016  4 8 1258 59.6 L   6.828 -73.190149.8  RSN  7 0.3 1.8LRSN                1
 GAP=147        0.88       4.3     4.5  6.2 -0.8325E+01  0.6018E+01  0.3257E+01E
 Epicentro: ZAPATOCA - SANTANDER                                               3
 ACTION:UPD 16-05-05 14:19 OP:rebc STATUS:               ID:20160408125859 L   I
 OLDACT:UP  16-04-08 20:49 OP:drio STATUS:               ID:20160408124749     3
 OLDACT:REG 16-04-08 19:49 OP:drio STATUS:               ID:20160408124749     3
 2016-04-08-1247-49M.COL___327                                                 6
 STAT SP IPHASW D HRMM SECON CODA AMPLIT PERI AZIMU VELO AIN AR TRES W  DIS CAZ7
 BAR2 EZ EP       1259 19.99                             170    0.2210 26.1 178 
 BAR2 EZ ES       1259 35.79                             170    0.2810 26.1 178 
 BAR2 EZ I        1259 36.45        16.5 0.22            168           26.1 178 
 PAM  EZ EP       1259 22.79                             151    0.4910 78.3  44 
 PAM  EE ES       1259 39.68                             151   -0.3310 78.3  44 
 PAM  EZ I        1259 40.56         7.9 0.16            155           78.3  44 
 RUS  HZ EP       1259 23.73                             144   -0.2810  104 173 
 RUS  HE ES       1259 42.77                             144   -0.2710  104 173 
 RUS  HZ I        1259 44.03         5.0 0.22            144            104 173 
 PTB  HZ EP       1259 26.00                             134   -0.53 9  144 257 
 PTB  HN ES       1259 47.26                             134   -0.27 9  144 257 
 PTB  HZ I        1259 50.26         7.2 0.18            134            144 257 
 SPBC HZ EP       1259 28.90                             130    0.54 9  163 217 
 SPBC HE ES       1259 51.11                             130    0.32 9  163 217 
 SPBC HZ I        1259 57.92        13.6 0.32            130            163 217 
 NOR  HZ EP   4   1259 36.39                             120    1.05 0  233 233 
 NOR  HN ES       13 0  3.43                             120    0.21 8  233 233 
 CHI  HZ EP       1259 37.42                             118   -0.30 8  250 194 
 CHI  HN ES       13 0  7.31                             118   -0.14 8  250 194 
 CHI  HZ I        13 0 11.06         3.4 0.62            118            250 194 
                                                                                
