 2017 11 8 1710 23.5 L   6.777 -73.132140.0  RSN 11 0.4 1.8LRSN                1
 GAP=114        1.00       3.7     4.0  5.4 -0.1703E+01  0.3195E+01  0.7359E+01E
 Epicentro: LOS SANTOS - SANTANDER                                             3
 ACTION:UPD 17-12-12 19:53 OP:rebc STATUS:               ID:20171108171023 L   I
 OLDACT:REG 17-11-08 21:05 OP:mg   STATUS:               ID:20171108170619     3
 2017-11-08-1708-00M.COL___425                                                 6
 STAT SP IPHASW D HRMM SECON CODA AMPLIT PERI AZIMU VELO AIN AR TRES W  DIS CAZ7
 BAR2 EZ EP       1710 42.28                             171   -0.0710 21.2 195 
 BAR2 EZ ES       1710 56.23                             171   -0.8510 21.2 195 
 BAR2 EZ I        1710 58.86        18.4 0.12            170           21.2 195 
 BRR  HZ EP       1710 44.07                             150   -0.0610 73.8 300 
 BRR  HE ES       1711  1.00                             150    0.7410 73.8 300 
 BRR  HZ I        1711  3.58        10.9 0.26            149           73.8 300 
 PAM  EZ EP       1710 45.20                             149    0.0810 78.4  37 
 PAM  EN ES       1711  1.92                             149   -0.1010 78.4  37 
 PAM  EZ I        1711  4.36        11.6 0.46            152           78.4  37 
 RUS  HZ EP       1710 46.37                             143   -0.0810 97.9 177 
 RUS  HN ES       1711  4.51                             143    0.1310 97.9 177 
 RUS  HZ I        1711  6.09         9.5 0.32            144           97.9 177 
 PTB  HZ EP   9   1710 48.94                             130   -1.11 0  149 260 
 PTB  HN ES       1711  9.22                                   -0.47 9  149 260 
 PTB  HZ I        1711 13.59         5.2 0.14            130            149 260 
 YPLC HZ EP       1710 52.68                             126    0.14 9  174 151 
 YPLC HN ES       1711 15.44                             126    0.22 9  174 151 
 YPLC HZ I        1711 17.58         9.1 0.30            128            174 151 
 ZAR  HZ EP   4   1710 57.51                             121    1.73 0  206 293 
 ZAR  HN ES   4   1711 19.66                             121   -1.33 0  206 293 
 ZAR  HZ I        1711 26.34         7.1 0.30            121            206 293 
 NOR  HZ EP       1710 58.34                             117   -0.49 8  234 235 
 NOR  HN ES       1711 27.06                             117    0.64 8  234 235 
 NOR  HZ I        1711 30.90         5.1 0.18            118            234 235 
 CHI  HZ EP       1711  0.53                             116   -0.08 8  247 196 
 CHI  HN ES       1711 30.16                             116    0.57 8  247 196 
 CHI  HZ I        1711 33.78         3.2 0.62            117            247 196 
 GUY2CHZ EP       1711  7.01                             111    0.24 7  301 235 
 GUY2CHN ES       1711 39.90                             111   -0.67 7  301 235 
 GUY2CHZ I        1711 52.42         3.1 0.40                           301 235 
 PRA  HZ EP       1711 16.25                             105   -0.36 6  391 210 
 PRA  HN ES       1711 57.66                             105   -0.41 6  391 210 
 PRA  HZ I        1712  2.00         2.4 0.24            106            391 210 
                                                                                
