 2017  9 8 1603 59.4 L   6.813 -73.160139.0  RSN  7 0.4 1.6LRSN                1
 GAP=134        1.02       4.2     4.7  7.1 -0.2213E+01  0.1018E+02  0.3820E+01E
 Epicentro: LOS SANTOS - SANTANDER                                             3
 ACTION:UPD 17-10-05 19:10 OP:rebc STATUS:               ID:20170908160359 L   I
 OLDACT:DUP 17-09-09 00:51 OP:lv   STATUS:               ID:20170908155742d    3
 2017-09-08-1558-00M.COL___421                                                 6
 STAT SP IPHASW D HRMM SECON CODA AMPLIT PERI AZIMU VELO AIN AR TRES W  DIS CAZ7
 BAR2 EZ EP       16 4 17.79                             169   -0.4110 24.5 186 
 BAR2 EZ ES       16 4 32.79                             169   -0.1210 24.5 186 
 BAR2 EZ I        16 4 34.03         6.4 0.25            172           24.5 186 
 BRR  HZ EP       16 4 19.58                             152   -0.0810 69.1 298 
 BRR  HE ES       16 4 35.78                             152    0.2810 69.1 298 
 BRR  HZ I        16 4 42.01        16.2 0.24            152           69.1 298 
 PAM  EZ EP       16 4 20.79                             150   -0.0710 77.3  41 
 PAM  EN ES       16 4 37.94                             150    0.3110 77.3  41 
 PAM  EZ I        16 4 40.09         3.9 0.23            152           77.3  41 
 RUS  HZ EP       16 4 22.03                             142   -0.5410  102 175 
 RUS  HN ES       16 4 41.01                             142    0.3410  102 175 
 RUS  HZ I        16 4 41.50         5.6 0.24            147            102 175 
 SPBC HN ES       16 4 49.18                             128   -0.02 9  163 218 
 ZAR  HN ES       16 4 55.62                             121   -0.35 9  202 292 
 ZAR  HZ I        16 4 57.55         3.2 0.12            123            202 292 
 GUY2CHZ EP       16 4 43.87                             111    1.26 7  301 234 
 GUY2CHN ES       16 5 16.18                             111   -0.16 7  301 234 
 GUY2CHZ I        16 5 25.74         2.3 0.22                           301 234 
                                                                                
