 2012  1 8 1011  8.0 L   6.779 -73.145148.0  RSN 23 0.5 3.3LRSN                1
 GAP=115        1.13       3.5     5.0  5.8 -0.7923E+00  0.9146E+01  0.4752E+01E
 Epicentro: LOS SANTOS - SANTANDER                                             3
 ACTION:UP  12-02-03 08:15 OP:REBC STATUS:               ID:20120108101108 L   I
 2012-01-08-1010-00M.COL___186                                                 6
 STAT SP IPHASW D HRMM SECON CODA AMPLIT PERI AZIMU VELO SNR AR TRES W  DIS CAZ7
 BAR2 SZ IP       1011 27.98                             171     0.110   21 191 
 BAR2 SZ ES   1   1011 43.31                             171    -0.1 7   21 191 
 BAR2 SZ I        1011 45.84       466.3 0.32                            21 191 
 GIR2 SZ IP       1011 28.07                             167     0.010   34 351 
 GIR2 SZ ES   2   1011 42.97                             167    -0.7 5   34 351 
 BRR  HZ IP     C 1011 29.88                             153     0.410   72 300 
 BRR  HZ I        1011 30.10       476.8 0.16                            72 300 
 BRR  HN ES   1   1011 47.39                             153     1.1 7   72 300 
 PAM  SZ IP       1011 30.78                             151     0.210   79  38 
 PAM  SN ES   1   1011 48.16                             151     0.0 7   79  38 
 RUS  HZ IP     D 1011 31.86                             145     0.010   98 176 
 RUS  HN ES   1   1011 50.32                             145    -0.1 7   98 176 
 RUS  HZ I        1011 51.79       213.8 0.26                            98 176 
 PTB  HZ EP       1011 34.62                             133    -0.5 9  147 260 
 PTB  HE ES   1   1011 55.61                             133    -0.7 7  147 260 
 PTB  HZ I        1012  3.32       175.6 0.42                           147 260 
 OCA  SZ IP       1011 36.28                             130    -0.5 9  163 353 
 OCA  SZ ES   1   1011 58.99                             130    -0.1 7  163 353 
 OCA  SZ I        1012  5.29       177.4 0.30                           163 353 
 YOP  SZ EP   3   1011 37.96                             127    -0.1 2  177 153 
 YOP  SN ES   2   1012  2.04                             127     0.6 4  177 153 
 YOP  SZ I        1012  5.90       107.2 0.84                           177 153 
 ZAR  HZ EP       1011 40.34                             123    -0.4 9  205 293 
 ZAR  HE ES   1   1012  6.05                             123    -0.2 6  205 293 
 ZAR  HZ I        1012 14.16       136.4 0.28                           205 293 
 NOR  EZ EP       1011 44.27                             119     0.5 8  233 235 
 NOR  SN ES   1   1012 11.24                             119    -0.4 6  233 235 
 NOR  EZ I        1012 16.09       146.3 0.17                           233 235 
 CHI  HZ IP     D 1011 45.56                             118    -0.1 8  246 195 
 CHI  HN ES   1   1012 14.53                             118    -0.4 6  246 195 
 CHI  HZ I        1012 22.86        98.2 0.36                           246 195 
 HEL  HZ EP   1   1011 48.36                             115     0.0 6  272 256 
 HEL  HZ I        1012 26.09        59.2 0.22                           272 256 
 VIL  SZ EP       1011 50.87                             113    -0.4 7  301 192 
 VIL  SN ES   1   1012 25.50                             113     0.4 5  301 192 
 VIL  SZ I        1012 36.13        63.4 0.58                           301 192 
 GUY  SZ EP       1011 52.62                             113     0.7 7  302 235 
 GUY  SZ I        1012 37.80       177.5 0.42                           302 235 
 RREF HZ EP       1011 54.86                             111     0.7 7  320 230 
 RREF HZ I        1012 35.19       101.8 0.66                           320 230 
 DBB  SZ EP       1011 55.77                             110     0.1 7  340 275 
 TOL  SZ EP       1011 57.04                             110     0.8 7  342 225 
 COD  HZ EP       1011 56.80                             109     0.0 6  351 355 
 COD  HZ I        1012 41.70       106.0 0.68                           351 355 
 PRA  HZ EP       1012  0.88                             107    -0.5 6  390 210 
 SJA  SZ EP       1012  1.25                             107    -1.2 6  398 193 
 SJA  SZ I        1012 55.56       174.9 0.44                           398 193 
 PAL  HZ EP       1012  3.66                             106     0.5 6  405 239 
 PAL  HZ I        1012  5.43        59.2 0.12                           405 239 
 YOT  HZ EP       1012 10.42                             104    -0.6 5  470 229 
 YOT  HZ I        1012 13.41        23.7 0.58                           470 229 
 HORQ SZ EP   3   1012 18.60                             102     0.2 1  531 227 
                                                                                
