 2011  1 8 1038 52.3 L   6.799 -73.131148.4  RSN  8 0.3 2.0LRSN                1
 GAP=160        0.65       3.9     9.3  6.6 -0.1631E+02  0.1315E+02 -0.4753E+01E
 Epicentro: LOS SANTOS - SANTANDER                                             3
 ACTION:UP  11-02-08 08:39 OP:pat  STATUS:               ID:20110108103852 L   I
 2011-01-08-1037-43S.COL___135                                                 6
 STAT SP IPHASW D HRMM SECON CODA AMPLIT PERI AZIMU VELO SNR AR TRES W  DIS CAZ7
 BAR2 SZ EP       1039 12.52                             171     0.310   24 194 
 BAR2 SZ ES   1   1039 27.81                             171     0.0 7   24 194 
 BAR2 SZ I        1039 29.38        49.6 0.38                            24 194 
 GIR2 SZ EP   2   1039 12.77                             167     0.5 5   32 347 
 RUS  HZ EP   1   1039 16.49                             144     0.2 7  100 177 
 RUS  HE ES   2   1039 34.58                             144    -0.4 5  100 177 
 RUS  HZ I        1039 36.07        10.4 0.31                           100 177 
 GRA  SZ IP       1039 17.38                             138    -0.410  125  17 
 GRA  SZ I        1039 18.59        13.6 0.15                           125  17 
 OCA  SZ EP   1   1039 21.08                             130     0.2 7  161 353 
 OCA  SZ I        1039 35.90        12.9 0.40                           161 353 
 OCA  SZ ES   2   1039 42.89                             130    -0.2 5  161 353 
 NOR  SZ EP   2   1039 27.78                             119    -0.5 4  236 235 
 NOR  SN ES   2   1039 56.43                             119     0.0 4  236 235 
 CHI  HZ EP   1   1039 30.39                             118     0.2 6  249 196 
 CHI  HE ES   2   1039 59.02                             118    -0.7 4  249 196 
 CHI  HZ I        1040  9.46         3.7 0.66                           249 196 
 PRA  HZ EP   2   1039 45.84                             107    -0.1 3  393 210 
                                                                                
