 2013 11 8 1536 43.8 L   7.473 -73.464112.7  RSN  5 0.3 1.9LRSN                1
 GAP=114        0.75       4.0     4.1  6.3 -0.4108E+01  0.9482E+01 -0.1189E+01E
 Epicentro: SABANA DE TORRES - SANTANDER                                       3
 ACTION:UPD 14-01-09 16:26 OP:ep   STATUS:               ID:20131108153643 L   I
 OLDACT:REG 13-11-08 16:51 OP:cam  STATUS:               ID:20131108153000     3
 2013-11-08-1530-00M.COL___273                                                 6
 STAT SP IPHASW D HRMM SECON CODA AMPLIT PERI AZIMU VELO AIN AR TRES W  DIS CAZ7
 BRR  HZ EP       1537  0.04                             155   -0.1010 48.8 214 
 BRR  HN ES       1537 12.97                             155    0.1010 48.8 214 
 BRR  HZ I        1537 13.96        25.5 0.12            154           48.8 214 
 PAM  SZ EP       1537  3.42                             140    0.1610 85.7 100 
 PAM  SN ES       1537 18.50                             140    0.0710 85.7 100 
 PAM  SZ I        1537 20.29        23.8 0.32            143           85.7 100 
 OCA  HZ EP       1537  2.82                             140   -0.0110 86.2  11 
 OCA  HN ES       1537 17.47                             140   -0.2010 86.2  11 
 OCA  HZ I        1537 17.99        19.0 0.12            143           86.2  11 
 PTB  HZ EP       1537  8.05                             123   -0.56 9  151 227 
 PTB  HN ES   4   1537 26.79                             123   -1.15 0  151 227 
 PTB  HZ I        1537 31.02         7.6 0.24            123            151 227 
 ZAR  HZ EP       1537  9.48                             122    0.55 9  154 271 
 ZAR  HN ES   4   1537 30.19                             122    1.67 0  154 271 
 ZAR  HZ I        1537 31.28        13.6 0.24            123            154 271 
                                                                                
