 2017 11 8 1640 22.6 L   6.809 -73.158145.6  RSN  5 0.3 1.3LRSN                1
 GAP=237        0.50       4.1     3.6  4.6  0.6447E+01  0.1111E+01  0.2602E+01E
 Epicentro: LOS SANTOS - SANTANDER                                             3
 ACTION:UPD 17-12-12 19:53 OP:rebc STATUS:               ID:20171108164022 L   I
 OLDACT:REG 17-11-08 20:58 OP:mg   STATUS:               ID:20171108163739     3
 2017-11-08-1638-00M.COL___431                                                 6
 STAT SP IPHASW D HRMM SECON CODA AMPLIT PERI AZIMU VELO AIN AR TRES W  DIS CAZ7
 BAR2 EZ EP       1640 42.29                             170    0.0610 24.1 186 
 BAR2 EZ ES   2   1640 57.67                             170    0.13 5 24.1 186 
 BAR2 EZ I        1640 58.65         6.3 0.17            163           24.1 186 
 BRR  HZ EP   2   1640 44.43                             153    0.79 5 69.5 298 
 BRR  HN ES       1641  0.01                             153   -0.0410 69.5 298 
 BRR  HZ I        1641  2.76         6.5 0.19            149           69.5 298 
 RUS  HZ EP       1640 46.26                             144   -0.1610  102 175 
 RUS  HN ES       1641  5.07                             144    0.0810  102 175 
 RUS  HZ I        1641  5.91         1.7 0.18            142            102 175 
 PTB  HZ EP       1640 49.20                             132   -0.26 9  147 258 
 PTB  HN ES       1641 10.34                             132   -0.05 9  147 258 
 PTB  HZ I        1641 16.12         2.4 0.16            129            147 258 
 NOR  HZ EP   2   1640 58.48                             119    0.21 4  234 234 
 NOR  HN ES   2   1641 26.49                             119    0.41 4  234 234 
 NOR  HZ I        1641 32.19         2.0 0.33            117            234 234 
                                                                                
