 2017  8 8 1855 25.4 L   7.182 -74.039  8.7  RSN  4 0.2 1.2LRSN                1
 GAP=172        0.42       1.9     1.1  3.9 -0.9185E-01 -0.1776E+00  0.1430E+01E
 Epicentro: PUERTO WILCHES - SANTANDER                                         3
 ACTION:UPD 17-09-04 20:18 OP:rebc STATUS:               ID:20170808185525 L   I
 OLDACT:UP  17-08-09 01:57 OP:mg   STATUS:               ID:20170808184745     3
 OLDACT:REG 17-08-08 23:11 OP:mg   STATUS:               ID:20170808184745     3
 2017-08-08-1848-00M.COL___405                                                 6
 STAT SP IPHASW D HRMM SECON CODA AMPLIT PERI AZIMU VELO AIN AR TRES W  DIS CAZ7
 BRR  HZ IP     D 1855 31.35                              97   -0.2710 37.1 103 
 BRR  HN ES       1855 36.63                              97    0.1210 37.1 103 
 BRR  HZ I        1855 37.64        27.0 0.15             97           37.1 103 
 PTB  HZ EP     C 1855 38.90                              93    0.0710 84.7 213 
 PTB  HN ES       1855 49.28                              93   -0.0510 84.7 213 
 PTB  HZ I        1855 50.00         4.6 0.25             93           84.7 213 
 ZAR  HZ EP       1855 40.70                              93    0.0610 96.7 291 
 ZAR  HN ES   2   1855 52.50                              93   -0.06 5 96.7 291 
 RUS  HZ EP       1855 53.17                              56    0.17 9  177 143 
 RUS  HN ES   2   1856 14.31                              56   -0.25 4  177 143 
 RUS  HZ I        1856 15.49         3.0 0.20             56            177 143 
                                                                                
