 2016  9 8 1422 48.7 L   6.818 -73.186139.4  RSN  4 0.2 1.0LRSN                1
 GAP=145        0.49       2.9     2.8  4.1 -0.2565E+01  0.3319E+01 -0.1144E+01E
 Epicentro: ZAPATOCA - SANTANDER                                               3
 ACTION:UPD 17-08-17 21:08 OP:lp   STATUS:               ID:20160908142248 L   I
 OLDACT:REG 16-09-08 20:10 OP:lv   STATUS:               ID:20160908141738     3
 2016-09-08-1418-00M.COL___352                                                 6
 STAT SP IPHASW D HRMM SECON CODA AMPLIT PERI AZIMU VELO AIN AR TRES W  DIS CAZ7
 BAR2 EZ EP       1423  7.63                             169    0.0310 25.0 179 
 BAR2 EZ ES       1423 22.41                             169    0.0710 25.0 179 
 BAR2 EZ I        1423 27.74         3.1 0.23            171           25.0 179 
 PAM  EZ EP       1423 10.65                             149    0.3210 78.9  43 
 PAM  EN ES       1423 26.98                             149   -0.2210 78.9  43 
 PAM  EZ I        1423 29.48         2.6 0.22            154           78.9  43 
 RUS  HZ EP       1423 11.87                             142   -0.1410  103 174 
 RUS  HN ES       1423 30.21                             142    0.0310  103 174 
 RUS  HZ I        1423 32.07         0.9 0.12            146            103 174 
 PTB  HZ EP       1423 14.61                             131   -0.18 9  144 258 
 PTB  HE ES       1423 35.20                             131    0.07 9  144 258 
 PTB  HZ I        1423 38.76         2.1 0.15            135            144 258 
                                                                                
