 2016 12 8 1052 41.3 L   6.863 -73.178150.0  RSN  8 0.5 1.5LRSN                1
 GAP=129        1.11       4.7     4.9  7.5  0.3813E+01  0.5887E+01  0.1448E+01E
 Epicentro: ZAPATOCA - SANTANDER                                               3
 ACTION:UPD 17-01-11 20:13 OP:rebc STATUS:               ID:20161208105241 L   I
 OLDACT:UP  16-12-09 04:33 OP:dani STATUS:               ID:20161208104745     3
 OLDACT:UP  16-12-09 04:31 OP:dani STATUS:               ID:20161208104745     3
 OLDACT:REG 16-12-09 00:13 OP:and  STATUS:               ID:20161208104745     3
 2016-12-08-1048-00M.COL___352                                                 6
 STAT SP IPHASW D HRMM SECON CODA AMPLIT PERI AZIMU VELO AIN AR TRES W  DIS CAZ7
 BAR2 EZ EP       1053  1.43                             168   -0.1910 30.0 181 
 BAR2 EZ I        1053 17.11         4.6 0.70            166           30.0 181 
 BRR  HZ EP       1053  3.24                             155    0.6410 64.8 295 
 BRR  HN ES       1053 19.17                             155   -0.0210 64.8 295 
 BRR  HZ I        1053 21.20         6.7 0.36            157           64.8 295 
 PAM  EZ EP       1053  4.27                             152    0.4310 74.6  45 
 PAM  EE ES       1053 21.17                             152   -0.2210 74.6  45 
 PAM  EZ I        1053 23.18         8.9 0.50            152           74.6  45 
 RUS  HZ EP       1053  6.06                             143    0.0310  108 174 
 RUS  HN ES       1053 24.95                             143   -0.3410  108 174 
 PTB  HZ EP       1053  8.25                             133   -0.22 9  146 256 
 PTB  HN ES       1053 29.22                             133   -0.42 9  146 256 
 PTB  HZ I        1053 32.38         3.0 0.17            134            146 256 
 ZAR  HN ES       1053 39.28                             124    0.77 9  198 291 
 CHI  HZ EP       1053 20.27                             117    0.37 8  255 194 
 GUY2CHN ES   4   1054  2.57                             113    3.02 0  302 233 
 SJC  HZ EP       1053 35.69                             107   -0.43 6  401 327 
 SJC  HN ES       1054 17.49                             107   -1.36 6  401 327 
 SJC  HZ I        1054 20.25         1.2 0.37            107            401 327 
                                                                                
