 2016  6 8 1845 26.5 L   6.777 -73.128144.5  RSN  6 0.3 1.9LRSN                1
 GAP=140        0.73       3.7     3.5  5.3 -0.3101E+01  0.3560E+01  0.1690E+01E
 Epicentro: LOS SANTOS - SANTANDER                                             3
 ACTION:UPD 16-07-21 22:16 OP:rebc STATUS:               ID:20160608184526 L   I
 OLDACT:REG 16-06-08 21:55 OP:edw  STATUS:               ID:20160608183743     3
 2016-06-08-1837-43M.COL___325                                                 6
 STAT SP IPHASW D HRMM SECON CODA AMPLIT PERI AZIMU VELO AIN AR TRES W  DIS CAZ7
 BAR2 EZ EP       1845 45.85                             171   -0.0610 21.3 196 
 BAR2 EZ ES       1846  0.53                             171   -0.5310 21.3 196 
 BAR2 EZ I        1846  1.99        30.7 0.38                          21.3 196 
 BRR  HZ EP     C 1845 47.63                             151   -0.0210 74.2 300 
 BRR  HN ES       1846  4.56                             151    0.3910 74.2 300 
 BRR  HZ I        1846  5.24        15.1 0.14                          74.2 300 
 PAM  EZ EP       1845 48.78                             150    0.1910 78.2  37 
 PAM  EN ES       1846  5.88                             150    0.0310 78.2  37 
 PAM  EZ I        1846  8.06        15.4 0.40                          78.2  37 
 RUS  HZ EP       1845 49.87                             144   -0.0310 97.9 177 
 RUS  HE ES       1846  8.47                             144    0.2910 97.9 177 
 RUS  HZ I        1846  9.29         6.4 0.30                          97.9 177 
 PTB  HZ EP       1845 53.10                             131   -0.37 9  149 260 
 PTB  HE ES       1846 14.35                             131   -0.17 9  149 260 
 PTB  HZ I        1846 20.57         9.2 0.42                           149 260 
 NOR  HE ES       1846 30.29                             118    0.33 8  235 235 
 NOR  HZ I        1846 35.62         4.8 0.22                           235 235 
                                                                                
