 2015  1 8 1209 24.1 L   6.849 -73.164146.2  RSN  8 0.4 1.8LRSN                1
 GAP=132        0.79       2.6     3.8  5.4 -0.9036E+00  0.8650E+01 -0.1177E+01E
 Epicentro: ZAPATOCA - SANTANDER                                               3
 ACTION:UPD 15-03-02 15:37 OP:nd   STATUS:               ID:20150108120924 L   I
 OLDACT:UP  15-01-08 23:17 OP:mh   STATUS:               ID:20150108120745     3
 OLDACT:REG 15-01-08 21:24 OP:mh   STATUS:               ID:20150108120745     3
 2015-01-08-1207-45M.COL___262                                                 6
 STAT SP IPHASW D HRMM SECON CODA AMPLIT PERI AZIMU VELO AIN AR TRES W  DIS CAZ7
 BAR2 EZ EP       12 9 43.75                             168   -0.1210 28.5 184 
 BAR2 EZ ES       12 9 59.28                             168   -0.0410 28.5 184 
 BAR2 EZ I        1210  0.08        10.9 0.28            168           28.5 184 
 PAM  SZ EP   1   12 9 46.71                             152    0.54 7 74.6  43 
 PAM  SN ES       1210  3.69                             152    0.2710 74.6  43 
 PAM  SZ I        1210  5.52         8.1 0.46            155           74.6  43 
 RUS  HZ EP   1   12 9 48.19                             142   -0.08 7  106 175 
 RUS  HN ES       1210  6.75                             142   -0.4010  106 175 
 RUS  HZ I        1210  9.24         3.6 0.30            144            106 175 
 PTB  HZ EP   1   12 9 50.70                             132   -0.30 7  147 257 
 PTB  HN ES       1210 11.90                             132   -0.11 9  147 257 
 PTB  HZ I        1210 17.26        10.8 0.40            131            147 257 
 ZAR  HZ EP   1   12 9 56.33                             123    0.18 6  200 291 
 ZAR  HN ES   1   1210 20.99                             123   -0.18 6  200 291 
 ZAR  HZ I        1210 28.21         7.3 0.14            123            200 291 
 NOR  HZ EP       12 9 59.74                             118   -0.26 8  236 233 
 NOR  HN ES       1210 28.84                             118    0.82 8  236 233 
 NOR  HZ I        1210 31.22         6.1 0.20            119            236 233 
 SML  HZ EP       1210  0.37                             118    0.27 8  238 335 
 SML  HN ES       1210 27.80                             118   -0.40 8  238 335 
 SML  HZ I        1210 33.23        12.3 0.10            119            238 335 
 CHI  HZ EP   1   1210  1.75                             117   -0.56 6  253 194 
 CHI  HN ES       1210 32.43                             117    0.30 8  253 194 
 CHI  HZ I        1210 38.64         2.6 0.32            118            253 194 
 SJC  HZ EP   4   1210 17.80                             106   -1.19 0  404 327 
 SJC  HN ES   4   1210 59.85                             106   -1.97 0  404 327 
                                                                                
