 2017  5 8 1645 17.5 L   6.809 -73.162144.2  RSN  4 0.2 1.6LRSN                1
 GAP=134        0.46       2.3     2.6  5.2 -0.7097E+00  0.6758E+01  0.1238E+01E
 Epicentro: LOS SANTOS - SANTANDER                                             3
 ACTION:UPD 17-06-16 13:34 OP:jn   STATUS:               ID:20170508164517 L   I
 OLDACT:DUP 17-05-08 22:19 OP:lv   STATUS:               ID:20170508163745d    3
 2017-05-08-1638-00M.COL___368                                                 6
 STAT SP IPHASW D HRMM SECON CODA AMPLIT PERI AZIMU VELO AIN AR TRES W  DIS CAZ7
 PAM  EZ EP       1645 39.75                             150    0.1910 77.8  41 
 PAM  EN ES       1645 56.76                             150   -0.0110 77.8  41 
 PAM  EZ I        1645 59.16         5.9 0.05            152           77.8  41 
 RUS  HZ EP       1645 41.11                             143   -0.0610  102 175 
 RUS  HN ES       1645 59.56                             143   -0.0810  102 175 
 ZAR  HN ES       1646 14.54                             122   -0.13 9  202 292 
 ZAR  HZ I        1646 20.03         5.1 0.31            123            202 292 
 NOR  HZ EP       1645 52.81                             118   -0.22 8  234 234 
 NOR  HN ES       1646 21.06                             118    0.31 8  234 234 
                                                                                
