 2012  1 8 1822  1.7 L   5.966 -74.017 91.7  RSN  8 0.5 1.4LRSN                1
 GAP= 77        0.88       6.0     4.3 15.2 -0.3013E+01 -0.7991E+01  0.2219E+02E
 Epicentro: LA BELLEZA - SANTANDER                                             3
 ACTION:UP  12-02-03 08:15 OP:REBC STATUS:               ID:20120108182202 L   I
 2012-01-08-1820-00M.COL___186                                                 6
 STAT SP IPHASW D HRMM SECON CODA AMPLIT PERI AZIMU VELO SNR AR TRES W  DIS CAZ7
 PTB  HZ EP       1822 17.62                             136    -0.510   80 323 
 PTB  HE ES   2   1822 30.59                             136    -0.3 5   80 323 
 PTB  HZ I        1822 33.40         3.2 0.10                            80 323 
 RUS  HZ EP       1822 20.87                             128     0.010  104  94 
 RUS  HZ I        1822 21.26         3.8 0.12                           104  94 
 RUS  HE ES   2   1822 35.58                             128    -0.3 5  104  94 
 NOR  SZ EP   2   1822 20.68                             128     0.3 5  104 245 
 NOR  SN ES   2   1822 35.58                             128     0.6 5  104 245 
 BAR2 SZ EP       1822 21.85                             125     0.110  115  53 
 BAR2 SZ ES   1   1822 37.32                             125    -0.1 7  115  53 
 BAR2 SZ I        1822 38.65        16.8 0.44                           115  53 
 BRR  HZ I        1822 24.80        10.8 0.32                           131  15 
 BRR  HN ES   2   1822 41.10                             121     1.4 5  131  15 
 CHI  HZ EP   3   1822 26.09                             117     0.3 2  151 168 
 CHI  HN ES   3   1822 45.35                             117     0.8 2  151 168 
 CHI  HZ I        1822 51.10         1.6 0.32                           151 168 
 HEL  HZ EP   3   1822 28.18                             114     0.4 2  169 279 
 HEL  HZ I        1823  0.33         3.4 0.60                           169 279 
 ZAR  HE ES   3   1822 52.13                             111     0.1 2  193 331 
                                                                                
