 2013  3 8 1006 46.6 L   6.712 -73.186147.3  RSN  4 0.3 1.5LRSN                1
 GAP=231        0.50       8.0     5.8  7.0  0.3816E+01 -0.4004E+01  0.9939E+01E
 Epicentro: VILLANUEVA - SANTANDER                                             3
 ACTION:UPD 13-04-09 14:00 OP:ep   STATUS:               ID:20130308100646 L   I
 2013-03-08-1000-00M.COL___231                                                 6
 STAT SP IPHASW D HRMM SECON CODA AMPLIT PERI AZIMU VELO AIN AR TRES W  DIS CAZ7
 BAR2 SZ EP   2   10 7  6.07                             175   -0.20 5 13.2 178 
 BRR  HZ EP   1   10 7  7.97                             152   -0.05 7 72.7 307 
 BRR  HN ES   1   10 7 24.81                             152    0.11 7 72.7 307 
 PTB  HZ EP   1   10 7 12.99                             134   -0.18 7  142 262 
 PTB  HN ES   1   10 7 34.03                             134    0.15 7  142 262 
 PTB  HZ I        10 7 41.40         3.4 0.44            126            142 262 
 ZAR  HZ EP   1   10 7 19.60                             123    0.46 6  204 295 
 ZAR  HN ES   1   10 7 44.13                             123   -0.38 6  204 295 
 ZAR  HZ I        10 7 49.73         3.1 0.32            120            204 295 
                                                                                
