 2015  9 8 1417 18.0 L   6.870 -73.298122.6  RSN 14 0.4 2.1LRSN                1
 GAP=158        0.95       2.4     3.8  5.1 -0.3245E+00  0.6595E+01  0.1194E+01E
 Epicentro: BETULIA - SANTANDER                                                3
 ACTION:UPD 15-10-28 16:25 OP:cam  STATUS:               ID:20150908141718 L   I
 OLDACT:UP  15-09-08 22:04 OP:ar   STATUS:               ID:20150908140748     3
 OLDACT:REG 15-09-08 21:33 OP:stll STATUS:               ID:20150908140748     3
 2015-09-08-1407-48M.COL___362                                                 6
 STAT SP IPHASW D HRMM SECON CODA AMPLIT PERI AZIMU VELO AIN AR TRES W  DIS CAZ7
 BAR2 EZ EP     D 1417 35.32                             164    0.1510 33.3 157 
 BAR2 EZ ES       1417 47.94                             164   -0.6010 33.3 157 
 BAR2 EZ I        1417 49.66       104.1 0.34            166           33.3 157 
 BRR  HZ EP       1417 35.72                             155    0.0710 52.7 300 
 BRR  HN ES       1417 50.05                             155    0.6610 52.7 300 
 BRR  HZ I        1417 56.97        18.3 0.24            153           52.7 300 
 RUS  HZ EP       1417 40.32                             135   -0.1110  111 168 
 RUS  HZ I        1417 40.86        10.2 0.10            139            111 168 
 RUS  HN ES       1417 58.15                             135    0.2610  111 168 
 PTB  HZ EP   4   1417 40.67                             129   -1.14 0  133 254 
 PTB  HN ES   4   1417 58.40                             129   -1.95 0  133 254 
 PTB  HZ I        1418  2.46        32.8 0.44            130            133 254 
 OCA  HZ EP       1417 43.46                             125   -0.30 9  151 359 
 OCA  HN ES       1418  3.56                             125   -0.27 9  151 359 
 SPBC HZ EP   1   1417 44.39                             124   -0.11 7  160 212 
 SPBC HN ES   1   1418  4.77                             124   -0.38 7  160 212 
 ZAR  HZ EP       1417 47.46                             119    0.37 9  186 292 
 ZAR  HN ES       1418  9.57                             119   -0.18 9  186 292 
 ZAR  HZ I        1418 15.01        17.6 0.58            121            186 292 
 NOR  HZ EP       1417 51.93                             114    0.36 8  226 230 
 NOR  HE ES       1418 17.39                             114   -0.33 8  226 230 
 NOR  HZ I        1418 22.20         8.2 0.42            116            226 230 
 SML  HZ EP       1417 51.74                             114   -0.19 8  230 338 
 SML  HN ES   4   1418 16.43                             114   -1.93 0  230 338 
 SML  HZ I        1418 22.73        27.6 0.10            116            230 338 
 CHI  HZ EP       1417 55.24                             111    0.26 8  252 191 
 CHI  HN ES       1418 24.18                             111    0.38 8  252 191 
 CHI  HZ I        1418 30.06         3.9 0.42            114            252 191 
 HEL  HZ EP   4   1417 57.20                             111    1.65 0  258 253 
 HEL  HN ES       1418 25.43                             111    0.61 8  258 253 
 HEL  HZ I        1418 29.40        11.9 0.54            112            258 253 
 URE  HZ EP   4   1417 56.95                             110    1.00 0  265 292 
 URE  HN ES   4   1418 23.96                             110   -1.57 0  265 292 
 URE  HZ I        1418 25.51        14.5 0.40            112            265 292 
 GUY2CHZ EP       1418  0.13                             108    0.48 7  292 232 
 GUY2CHE ES       1418 31.03                             108   -1.08 7  292 232 
 GUY2CHZ I        1418 39.21         6.9 0.28                           292 232 
 TOL  SZ EP       1418  4.35                             105   -0.42 7  338 222 
 TOL  SE ES       1418 41.20                             105   -0.02 7  338 222 
 TOL  SZ I        1418 49.39         3.0 0.26            107            338 222 
                                                                                
