 2012  7 8 1133 21.8 L   6.818 -73.007143.1  RSN  5 0.4 1.6LRSN                1
 GAP=197        0.84       6.1     9.6 12.1  0.2313E+02  0.1003E+02 -0.2275E+02E
 Epicentro: CEPITA - SANTANDER                                                 3
 ACTION:UPD 12-08-14 11:43 OP:ep   STATUS:               ID:20120708113321 L   I
 2012-07-08-1130-00M.COL___201                                                 6
 STAT SP IPHASW D HRMM SECON CODA AMPLIT PERI AZIMU VELO AIN AR TRES W  DIS CAZ7
 BAR2 SZ EP   1   1133 41.65                             167     0.4 7   32 218 
 BAR2 SZ I        1133 42.00         7.4 0.12                            32 218 
 BAR2 SZ ES   1   1133 56.98                             167     0.5 7   32 218 
 BRR  HZ EP   1   1133 43.42                             148     0.0 7   84 292 
 BRR  HZ I        1133 58.29        15.8 0.22                            84 292 
 BRR  HN ES   1   1134  0.09                             148    -0.2 7   84 292 
 RUS  HN ES   1   1134  3.26                             143    -0.6 7  103 185 
 RUS  HZ I        1134  5.69         4.6 0.26                           103 185 
 OCA  HN ES   1   1134 11.60                             129    -0.3 7  161 348 
 ZAR  HN ES   1   1134 21.80                             120     0.1 6  218 290 
