 2016  2 8 1030 56.1 L   7.553 -73.080160.1  RSN  9 0.4 1.8LRSN                1
 GAP=138        0.97       3.4     5.0  6.5  0.4917E+01  0.1208E+02  0.1041E+01E
 Epicentro: EL PLAYON - SANTANDER                                              3
 ACTION:UPD 16-03-04 21:24 OP:rebc STATUS:               ID:20160208103056 L   I
 OLDACT:REG 16-02-08 20:46 OP:ak   STATUS:               ID:20160208102750     3
 2016-02-08-1027-50M.COL___325                                                 6
 STAT SP IPHASW D HRMM SECON CODA AMPLIT PERI AZIMU VELO AIN AR TRES W  DIS CAZ7
 PAM  EN ES       1031 35.68                             163   -0.3610 48.2 119 
 PAM  EZ I        1031 37.60         7.6 0.26            167           48.2 119 
 OCA  HZ EP       1031 20.16                             152    0.5910 80.3 341 
 OCA  HN ES       1031 38.10                             152    0.2410 80.3 341 
 OCA  HZ I        1031 39.90        19.1 0.18            153           80.3 341 
 BAR2 EZ EP       1031 21.60                             145    0.2110  107 186 
 BAR2 EZ ES       1031 41.28                             145    0.1910  107 186 
 BAR2 EZ I        1031 44.58        10.5 0.22            146            107 186 
 SML  HZ EP       1031 26.81                             130   -0.01 9  176 322 
 SML  HN ES       1031 50.11                             130   -0.65 9  176 322 
 SML  HZ I        1031 54.62        13.2 0.13            131            176 322 
 RUS  HZ EP       1031 28.06                             129   -0.15 9  184 180 
 RUS  HE ES   1   1031 52.57                             129   -0.66 7  184 180 
 PTB  HZ EP       1031 28.07                             128   -0.01 9  189 234 
 PTB  HN ES       1031 52.83                             128   -0.16 9  189 234 
 PTB  HZ I        1031 58.00         3.2 0.09            129            189 234 
 ZAR  HZ EP       1031 28.75                             126   -0.04 9  196 268 
 ZAR  HN ES       1031 55.05                             126    0.79 9  196 268 
 ZAR  HZ I        1032  0.08         2.8 0.06            127            196 268 
 MON  HN ES       1032 15.99                             114   -0.73 7  315 296 
 SJC  HZ EP       1031 45.06                             111   -0.01 6  347 318 
 SJC  HN ES   4   1032 20.42                             111   -2.83 0  347 318 
 SJC  HZ I        1032 26.10         1.6 0.45            113            347 318 
                                                                                
