 2012  7 8 1317 12.7 L   6.792 -73.130150.1  RSN  7 0.4 1.9LRSN                1
 GAP=139        0.93       4.8     6.0  8.9 -0.5027E+00  0.1645E+02 -0.5669E+00E
 Epicentro: LOS SANTOS - SANTANDER                                             3
 ACTION:UPD 12-08-14 11:43 OP:ep   STATUS:               ID:20120708131712 L   I
 2012-07-08-1310-00M.COL___201                                                 6
 STAT SP IPHASW D HRMM SECON CODA AMPLIT PERI AZIMU VELO AIN AR TRES W  DIS CAZ7
 BAR2 SZ EP   1   1317 32.98                             171     0.1 7   23 195 
 BAR2 SZ ES   1   1317 48.54                             171     0.0 7   23 195 
 BAR2 SZ I        1317 51.02        17.3 0.28                            23 195 
 BRR  HZ EP   1   1317 34.91                             153     0.5 7   73 298 
 BRR  HZ I        1317 36.50        23.6 0.14                            73 298 
 BRR  HN ES   1   1317 52.00                             153     0.6 7   73 298 
 PAM  SZ EP   1   1317 35.88                             152     0.5 7   77  38 
 PAM  SN ES   1   1317 53.07                             152     0.0 7   77  38 
 RUS  HZ EP   1   1317 36.69                             145    -0.1 7  100 177 
 RUS  HZ I        1317 37.50         7.5 0.18                           100 177 
 RUS  HN ES   1   1317 55.01                             145    -0.6 7  100 177 
 OCA  HN ES   1   1318  3.30                             130    -0.6 7  161 353 
 ZAR  HZ EP   1   1317 45.30                             123    -0.4 6  206 292 
 ZAR  HN ES   1   1318 10.78                             123    -0.6 6  206 292 
 NOR  SN ES   1   1318 17.41                             119     0.4 6  236 235 
