 2015  2 8 1222 21.6 L   6.750 -73.123142.5  RSN  8 0.4 1.8LRSN                1
 GAP=142        1.01       4.5     4.6  6.3 -0.6426E+01  0.4843E+01  0.5273E+01E
 Epicentro: LOS SANTOS - SANTANDER                                             3
 ACTION:UPD 15-04-30 21:23 OP:nd   STATUS:               ID:20150208122221 L   I
 OLDACT:REG 15-02-08 20:18 OP:cam  STATUS:               ID:20150208121744     3
 2015-02-08-1217-44M.COL___293                                                 6
 STAT SP IPHASW D HRMM SECON CODA AMPLIT PERI AZIMU VELO AIN AR TRES W  DIS CAZ7
 BAR2 EZ EP       1222 40.84                             172    0.0910 18.7 201 
 BAR2 EZ ES       1222 55.26                             172   -0.4210 18.7 201 
 BAR2 EZ I        1222 56.91         9.6 0.20            172           18.7 201 
 BRR  HZ EP       1222 42.83                             150    0.1510 76.1 301 
 BRR  HN ES       1222 59.91                             150    0.7810 76.1 301 
 BRR  HN I        1223  0.14        22.7 0.18            152           76.1 301 
 PAM  SZ EP       1222 43.65                             149    0.0110 80.2  36 
 PAM  SN ES       1223  0.74                             149   -0.0910 80.2  36 
 PAM  SZ I        1223  2.77        14.8 0.58            151           80.2  36 
 RUS  HZ EP       1222 44.71                             145    0.0910 94.9 177 
 RUS  HE ES       1223  2.59                             145    0.0110 94.9 177 
 RUS  HZ I        1223  4.48         7.8 0.30            146           94.9 177 
 PTB  HZ EP       1222 47.99                             131   -0.45 9  149 261 
 PTB  HN ES       1223  8.49                             131   -0.88 9  149 261 
 PTB  HZ I        1223 11.26         7.2 0.70            132            149 261 
 SPBC HZ EP       1222 49.52                             129   -0.08 9  161 221 
 SPBC HN ES       1223 11.65                             129    0.21 9  161 221 
 SPBC HZ I        1223 14.21        11.3 0.24            130            161 221 
 NOR  HZ EP   1   1222 56.80                             118   -0.22 6  234 236 
 NOR  HN ES       1223 25.29                             118    0.64 8  234 236 
 CHI  HZ EP   1   1222 58.88                             117    0.27 6  244 196 
 SML  HZ EP   4   1222 57.31                             116   -1.39 0  250 335 
                                                                                
