 2013  2 8 1837 24.4 L   6.742 -73.128144.2  RSN  4 0.2 1.6LRSN                1
 GAP=164        0.61      10.6     4.9  8.8 -0.3439E+02 -0.1827E+02  0.6426E+02E
 Epicentro: JORDAN - SANTANDER                                                 3
 ACTION:UPD 13-03-12 09:31 OP:ep   STATUS:               ID:20130208183724 L   I
 2013-02-08-1830-00M.COL___241                                                 6
 STAT SP IPHASW D HRMM SECON CODA AMPLIT PERI AZIMU VELO AIN AR TRES W  DIS CAZ7
 BAR2 SZ EP       1837 43.93                             173    0.2010 17.6 200 
 BAR2 SZ I        1837 44.08        14.8 0.25            170           17.6 200 
 BRR  HZ EP       1837 45.82                             151    0.1610 76.1 302 
 BRR  HE ES       1838  2.39                             151    0.1410 76.1 302 
 BRR  HE I        1838  8.16        15.3 0.22            148           76.1 302 
 PAM  SZ EP       1837 46.80                             149    0.1210 81.3  36 
 PAM  SZ I        1837 47.35         5.2 0.42            153           81.3  36 
 PAM  SN ES       1838  3.78                             149   -0.2910 81.3  36 
 PTB  HZ EP   1   1837 50.80                             131   -0.51 7  149 261 
 PTB  HE ES   1   1838 12.13                             131   -0.17 7  149 261 
 PTB  HZ I        1838 17.94         3.3 0.28            131            149 261 
                                                                                
