 2013  8 8 1835 24.4 L   6.811 -73.135147.6  RSN 19 0.4 3.1LRSN                1
 GAP=137        0.92       2.6     3.6  4.7 -0.2304E+01  0.3386E+01  0.2548E+01E
 Epicentro: LOS SANTOS - SANTANDER                                             3
 ACTION:UPD 14-01-14 09:00 OP:ep   STATUS:               ID:20130808183524 L   I
 OLDACT:UP  13-08-08 20:36 OP:mh   STATUS:               ID:20130808182959     3
 OLDACT:UP  13-08-08 20:36 OP:mh   STATUS:               ID:20130808182959     3
 OLDACT:UP  13-08-08 20:30 OP:mh   STATUS:               ID:20130808182959     3
 OLDACT:REG 13-08-08 16:37 OP:mh   STATUS:               ID:20130808182959     3
 2013-08-08-1829-59M.COL___269                                                 6
 STAT SP IPHASW D HRMM SECON CODA AMPLIT PERI AZIMU VELO AIN AR TRES W  DIS CAZ7
 BAR2 SZ EP     D 1835 44.43                             170    0.1310 24.7 192 
 BAR2 SZ ES   1   1835 59.68                             170   -0.12 7 24.7 192 
 BAR2 SZ I        1836  2.20       131.4 0.38            168           24.7 192 
 GIR2 SZ EP       1835 44.52                             168    0.2310 30.4 348 
 GIR2 SZ ES   1   1835 59.55                             168   -0.23 7 30.4 348 
 BRR  HZ EP   1   1835 46.20                             153    0.40 7 71.7 297 
 BRR  HN ES       1836  3.41                             153    0.9510 71.7 297 
 BRR  HN I        1836  4.03       357.0 0.28            150           71.7 297 
 PAM  SZ EP     D 1835 47.22                             152    0.4910 75.7  39 
 PAM  SN ES       1836  4.24                             152    0.1110 75.7  39 
 PAM  SN I        1836  5.48       153.5 0.22            155           75.7  39 
 RUS  HZ EP     C 1835 48.30                             144   -0.1310  102 177 
 RUS  HN ES   1   1836  6.45                             144   -0.70 7  102 177 
 PTB  HZ EP   1   1835 51.03                             132   -0.63 7  149 258 
 PTB  HN ES       1836 12.14                             132   -0.77 9  149 258 
 PTB  HN I        1836 17.92       218.7 0.26            131            149 258 
 OCA  HZ EP   1   1835 52.45                             130   -0.33 7  159 353 
 OCA  HN ES       1836 14.55                             130   -0.35 9  159 353 
 OCA  HZ I        1836 20.63        62.3 0.24            131            159 353 
 SPBC HZ EP       1835 53.35                             129    0.13 9  165 219 
 SPBC HN ES   1   1836 15.59                             129   -0.09 7  165 219 
 SPBC HN I        1836 20.11       215.3 0.16            129            165 219 
 ZAR  HZ EP   1   1835 56.99                             123   -0.07 6  205 292 
 ZAR  HN ES   1   1836 22.55                             123    0.04 6  205 292 
 ZAR  HN I        1836 30.30       103.5 0.34            122            205 292 
 NOR  HZ EP   1   1836  0.38                             119   -0.05 6  236 234 
 NOR  HN ES       1836 28.60                             119    0.08 8  236 234 
 NOR  HN I        1836 35.73       168.1 0.16            118            236 234 
 SML  HZ EP   1   1836  0.82                             118   -0.27 6  243 335 
 SML  HN ES   1   1836 29.21                             118   -0.48 6  243 335 
 SML  HN I        1836 35.21       176.7 0.30            118            243 335 
 CHI  HZ EP   1   1836  2.45                             117    0.07 6  250 195 
 CHI  HN ES       1836 31.33                             117   -0.65 8  250 195 
 CHI  HN I        1836 37.12        67.1 0.64            118            250 195 
 ROSC BZ EP   4   1836  4.04                             117    1.22 0  254 211 
 ROSC BN ES   4   1836 36.71                             117    3.95 0  254 211 
 HEL  HZ EP   1   1836  5.40                             115    0.51 6  274 256 
 HEL  HN ES   1   1836 36.19                             115   -0.26 6  274 256 
 GUY2CHZ EP   1   1836  8.42                             113    0.12 5  303 235 
 GUY2CHN ES       1836 43.01                             113    0.48 7  303 235 
 GUY2CHZ I        1836 50.79        41.6 0.30                           303 235 
 VIL  SZ EP   1   1836  8.33                             112    0.25 5  305 192 
 VIL  SN ES   4   1836 42.85                             112    0.72 0  305 192 
 VIL  SN I        1836 48.93       158.9 0.46            113            305 192 
 RREF HZ EP   4   1836 11.50                             111    0.67 0  323 229 
 RREF HN ES   4   1836 48.25                             111    1.22 0  323 229 
 COD  HZ EP   1   1836 11.72                             109   -1.03 5  347 354 
 COD  HN ES   4   1836 49.48                             109   -0.96 0  347 354 
 PRA  HZ EP   1   1836 18.71                             107    0.52 4  394 210 
 PRA  HN ES       1837  0.91                             107    0.78 6  394 210 
 PRA  HN I        1837  5.98        50.6 0.80            107            394 210 
 ORTC HZ EP   1   1836 18.68                             107    0.08 4  397 216 
 ORTC HN ES   4   1837  1.61                             107    0.76 0  397 216 
 ORTC HN I        1837  6.88        93.2 0.30            107            397 216 
 SJC  HZ EP   4   1836 18.14                             106   -1.87 0  409 327 
 SJC  HN ES   4   1836 59.42                             106   -3.94 0  409 327 
 SJC  HN I        1837  3.79        14.9 0.14            106            409 327 
                                                                                
