 2016  2 8 1305  0.1 L   6.825 -73.158145.6  RSN  7 0.3 1.6LRSN                1
 GAP=211        0.74       3.0     4.8  5.5  0.3278E+01  0.3480E+01  0.6655E+00E
 Epicentro: LOS SANTOS - SANTANDER                                             3
 ACTION:UPD 16-03-04 21:24 OP:rebc STATUS:               ID:20160208130500 L   I
 OLDACT:REG 16-02-08 21:16 OP:ak   STATUS:               ID:20160208125750     3
 2016-02-08-1257-50M.COL___328                                                 6
 STAT SP IPHASW D HRMM SECON CODA AMPLIT PERI AZIMU VELO AIN AR TRES W  DIS CAZ7
 BAR2 EZ EP       13 5 19.73                             169   -0.0210 25.9 186 
 BAR2 EZ ES       13 5 35.15                             169    0.0710 25.9 186 
 BAR2 EZ I        13 5 36.00         6.3 0.30            161           25.9 186 
 PTB  HZ EP       13 5 26.94                             132   -0.03 9  147 258 
 PTB  HN ES       13 5 47.58                             132   -0.36 9  147 258 
 PTB  HZ I        13 5 52.38         4.6 0.39            121            147 258 
 SPBC HZ EP       13 5 28.59                             129   -0.11 9  164 218 
 SPBC HN ES       13 5 50.80                             129   -0.21 9  164 218 
 SPBC HZ I        13 5 53.37         6.7 0.24            118            164 218 
 ZAR  HZ EP   2   13 5 31.91                             123   -0.37 4  202 292 
 ZAR  HN ES       13 5 58.11                             123    0.71 9  202 292 
 ZAR  HZ I        13 6  4.49         3.8 0.41            113            202 292 
 NOR  HZ EP       13 5 35.58                             118   -0.28 8  235 234 
 NOR  HZ I        13 6  9.44         3.3 0.32            109            235 234 
 SML  HZ EP   2   13 5 37.16                             118    0.79 4  241 335 
 SML  HN ES       13 6  4.37                             118   -0.30 8  241 335 
 CHI  HZ EP       13 5 38.05                             117    0.02 8  251 195 
 CHI  HN ES       13 6  8.15                             117    0.53 8  251 195 
 CHI  HZ I        13 6 15.57         3.1 0.85            108            251 195 
                                                                                
