 2011  4 8 1701 56.6 L   7.411 -73.401109.9  RSN  8 0.4 2.1LRSN                1
 GAP=140        0.73       3.5     5.3  6.3 -0.5557E+01 -0.1155E+01  0.2584E+00E
 Epicentro: SABANA DE TORRES - SANTANDER                                       3
 ACTION:UP  11-06-22 15:29 OP:REBC STATUS:               ID:20110408170156 L   I
 2011-04-08-1700-19S.COL___138                                                 6
 STAT SP IPHASW D HRMM SECON CODA AMPLIT PERI AZIMU VELO SNR AR TRES W  DIS CAZ7
 BRR  HZ EP   1   17 2 12.36                             156    -0.2 7   48 226 
 BRR  HE ES   1   17 2 25.10                             156     0.0 7   48 226 
 BRR  HZ I        17 2 25.92        27.6 0.15                            48 226 
 GUE  SZ EP   1   17 2 14.07                             146    -0.3 7   70  49 
 PAM  SZ EP   1   17 2 15.12                             143    -0.1 7   78  96 
 PAM  SE ES   1   17 2 29.78                             143     0.1 7   78  96 
 GRA  SZ EP   1   17 2 15.50                             140     0.3 7   84  51 
 GRA  SZ ES   1   17 2 30.24                             140     0.5 7   84  51 
 GRA  SZ I        17 2 31.99        72.5 0.30                            84  51 
 OCA  SZ EP   1   17 2 15.92                             138     0.1 7   92   6 
 OCA  SZ ES   1   17 2 30.84                             138     0.0 7   92   6 
 OCA  SZ I        17 2 31.56        54.0 0.17                            92   6 
 BAR2 SZ EP   1   17 2 15.83                             138    -0.3 7   94 165 
 BAR2 SZ ES   1   17 2 31.17                             138    -0.1 7   94 165 
 BAR2 SZ I        17 2 31.79        18.9 0.22                            94 165 
 CHI  HZ EP   2   17 2 40.98                                     1.2 4  310 187 
 CHI  HN ES   2   17 3 14.22                                     0.8 4  310 187 
 SDV  BZ EP   1   17 2 43.14                             102    -0.7 5  346  62 
 SDV  BZ I        17 2 43.29         3.3 0.22                           346  62 
                                                                                
