 2011 12 8 1923  4.0 L   6.029 -73.744107.1  RSN 12 0.4 2.2LRSN                1
 GAP= 86        0.83       2.8     2.9  8.0 -0.2909E+01  0.6739E+01  0.1514E+00E
 Epicentro: BOLIVAR - SANTANDER                                                3
 ACTION:UPD 12-07-13 16:15 OP:ep   STATUS:               ID:20111208192304 L   I
 2011-12-08-1920-00M.COL___170                                                 6
 STAT SP IPHASW D HRMM SECON CODA AMPLIT PERI AZIMU VELO AIN AR TRES W  DIS CAZ7
 RUS  HZ EP       1923 22.12                             143    0.0010 74.7 102 
 RUS  HN ES   1   1923 35.64                             143   -0.59 7 74.7 102 
 RUS  HZ I        1923 37.60        23.1 0.17                          74.7 102 
 BAR2 SZ IP       1923 23.06                             138    0.2510 88.0  45 
 BAR2 SZ ES   1   1923 37.83                             138    0.38 7 88.0  45 
 BAR2 SZ I        1923 39.27       122.2 0.36                          88.0  45 
 BRR  HZ EP   1   1923 25.13                             128   -0.16 7  119   2 
 BRR  HN ES   1   1923 41.82                             128   -0.05 7  119   2 
 BRR  HZ I        1923 44.74        28.2 0.13                           119   2 
 NOR  SZ EP   1   1923 26.45                             124   -0.44 7  135 248 
 NOR  SN ES   1   1923 44.74                             124    0.03 7  135 248 
 ROSC BN ES   1   1923 48.70                             122    1.14 7  146 206 
 CHI  HZ EP   1   1923 29.09                             120   -0.33 7  155 179 
 CHI  HE ES   1   1923 48.43                             120   -0.78 7  155 179 
 CHI  HZ I        1923 51.93        13.5 0.30                           155 179 
 YOP  SZ EP   1   1923 30.53                             118    0.46 7  165 117 
 YOP  SE ES   1   1923 50.67                             118    0.30 7  165 117 
 YOP  SZ I        1923 52.43        14.3 0.30                           165 117 
 PAM  SZ EP   1   1923 32.95                             115    0.12 7  185  38 
 PAM  SN ES   1   1923 54.98                             115   -0.30 7  185  38 
 HEL  HZ EP   1   1923 33.82                             113   -0.30 6  198 275 
 HEL  HZ I        1924  1.28        16.9 0.35                           198 275 
 GUY  SZ EP   1   1923 34.93                             113    0.17 6  203 244 
 GUY  SN ES   1   1923 58.46                             113   -0.27 6  203 244 
 GUY  SZ I        1924  3.47        33.8 0.32                           203 244 
 VIL  SN ES   2   1923 59.32                             111   -0.47 4  212 178 
 VIL  SZ I        1924  6.51        12.8 0.44                           212 178 
 RREF HN ES   1   1924  2.28                             111    0.35 6  217 235 
 RREF HZ I        1924  7.15        10.7 0.18                           217 235 
                                                                                
