 2017 11 8 1616 54.7 L   6.802 -73.126141.6  RSN  4 0.1 1.2LRSN                1
 GAP=139        0.37       3.2     3.0  5.6 -0.3593E+00 -0.9782E+00 -0.9132E+01E
 Epicentro: LOS SANTOS - SANTANDER                                             3
 ACTION:UPD 17-12-12 19:53 OP:rebc STATUS:               ID:20171108161654 L   I
 OLDACT:DUP 17-11-08 23:15 OP:mg   STATUS:               ID:20171108160746d    3
 OLDACT:UP  17-11-08 23:13 OP:mg   STATUS:               ID:20171108160745     3
 OLDACT:REG 17-11-08 20:50 OP:mg   STATUS:               ID:20171108160745     3
 2017-11-08-1608-00M.COL___430                                                 6
 STAT SP IPHASW D HRMM SECON CODA AMPLIT PERI AZIMU VELO AIN AR TRES W  DIS CAZ7
 BAR2 EZ EP       1617 13.72                             170   -0.1110 24.0 195 
 BAR2 EZ ES   2   1617 28.64                             170   -0.13 5 24.0 195 
 BAR2 EZ I        1617 31.39         5.6 0.39            171           24.0 195 
 PAM  EZ EP       1617 16.44                             151    0.0710 75.9  38 
 RUS  HZ EP       1617 18.11                             143    0.0710  101 177 
 RUS  HN ES       1617 36.26                             143    0.0110  101 177 
 RUS  HZ I        1617 38.33         2.3 0.40            146            101 177 
 PTB  HZ EP   2   1617 21.16                             131   -0.36 5  150 259 
 PTB  HN ES   1   1617 42.60                             131    0.15 7  150 259 
 PTB  HZ I        1617 44.46         1.8 0.17            133            150 259 
                                                                                
