 2014  4 8 1339 33.9 L   6.753 -73.147151.8  RSN  7 0.5 2.1LRSN                1
 GAP=200        1.01       5.1     6.8  8.4  0.8885E+01 -0.5364E+00 -0.1154E+02E
 Epicentro: LOS SANTOS - SANTANDER                                             3
 ACTION:UPD 14-05-13 23:07 OP:nd   STATUS:               ID:20140408133933 L   I
 OLDACT:UP  14-04-11 04:45 OP:CF   STATUS:               ID:20140408133933 L   3
 OLDACT:UP  14-04-08 22:43 OP:cam  STATUS:               ID:20140408133812     3
 OLDACT:REG 14-04-08 20:52 OP:cam  STATUS:               ID:20140408133812     3
 2014-04-08-1338-12M.COL___256                                                 6
 STAT SP IPHASW D HRMM SECON CODA AMPLIT PERI AZIMU VELO AIN AR TRES W  DIS CAZ7
 BRR  HZ IP     C 1339 56.04                             153    0.1910 73.7 302 
 BRR  HE ES       1340 13.61                             153    0.6510 73.7 302 
 BRR  HZ I        1340 16.48        30.3 0.36            149           73.7 302 
 RUS  HZ EP   1   1339 58.54                             147    0.64 7 95.5 176 
 RUS  HE ES       1340 16.08                             147   -0.5410 95.5 176 
 RUS  HZ I        1340 19.63         7.5 0.28            148           95.5 176 
 PTB  HZ EP   1   1340  1.08                             134   -0.20 7  147 261 
 PTB  HN ES       1340 22.21                             134   -0.42 9  147 261 
 PTB  HZ I        1340 27.75        23.4 0.34            132            147 261 
 ZAR  HZ EP   1   1340  6.74                             124   -0.20 6  206 293 
 ZAR  HN ES   1   1340 32.57                             124   -0.14 6  206 293 
 ZAR  HZ I        1340 39.58        14.5 0.26            123            206 293 
 NOR  HZ EP   1   1340 10.60                             120    0.93 6  232 235 
 NOR  HE ES   1   1340 37.52                             120   -0.04 6  232 235 
 NOR  HZ I        1340 45.38        11.2 0.20            120            232 235 
 SML  HZ EP       1340 10.91                             118   -0.46 8  248 336 
 SML  HN ES   1   1340 40.30                             118   -0.30 6  248 336 
 SML  HZ I        1340 46.29        17.9 0.26            119            248 336 
 GUY2CHZ EP   4   1340 19.48                             114    2.02 0  298 236 
 GUY2CHE ES   4   1340 55.20                             114    3.77 0  298 236 
 GUY2CHZ I        1340 59.94         4.5 0.54                           298 236 
 SJC  HZ EP   4   1340 27.98                             106   -2.19 0  413 327 
 SJC  HE ES   4   1341  8.48                             106   -5.57 0  413 327 
                                                                                
