 2010 10 8 1028 51.8 L   7.345 -73.540  0.0  RSN  4 0.3 1.6LRSN                1
 GAP=158        0.74       3.5     4.0  9.7 -0.5700E+01  0.6360E+01  0.1914E+02E
 Epicentro: SABANA DE TORRES - SANTANDER                                       3
 ACTION:UP  11-02-18 11:08 OP:tino STATUS:               ID:20101008102851 L   I
 2010-10-08-1025-33S.COL___121                                                 6
 STAT SP IPHASW D HRMM SECON CODA AMPLIT PERI AZIMU VELO SNR AR TRES W  DIS CAZ7
 BRR  HZ EP       1028 57.64                              47    -0.210   32 216 
 BRR  HZ I        1028 57.88        34.9 0.12                            32 216 
 BRR  HN ES       1029  2.56                              47     0.010   32 216 
 BTL  SZ EP   1   1029  1.90                              47     0.3 7   56 147 
 BTL  SZ ES   2   1029  9.54                              47     0.2 5   56 147 
 GRA  SZ EP       1029  7.99                              47    -0.410  101  54 
 GRA  SZ I        1029 22.06        28.6 0.20                           101  54 
 OCA  SZ EP       1029  8.85                              47     0.410  102  14 
                                                                                
