 2012  4 8 1056 55.2 L   6.043 -74.185  4.0  RSN  4 0.3 1.2LRSN                1
 GAP=234        0.61       5.2     3.8  7.4  0.1442E+02 -0.1315E+02 -0.2441E+02E
 Epicentro: LA BELLEZA - SANTANDER                                             3
 ACTION:UPD 12-07-05 11:51 OP:tino STATUS:               ID:20120408105655 L   I
 2012-04-08-1050-00M.COL___196                                                 6
 STAT SP IPHASW D HRMM SECON CODA AMPLIT PERI AZIMU VELO AIN AR TRES W  DIS CAZ7
 PTB  HZ EP       1057  5.31                              47     0.010   63 331 
 PTB  HN ES   1   1057 13.00                              47    -0.2 7   63 331 
 PTB  HZ I        1057 14.98        12.6 0.12                            63 331 
 RUS  HZ EP       1057 15.19                              47     0.210  123  98 
 RUS  HE ES   2   1057 29.55                              47    -0.8 5  123  98 
 BRR  HZ EP       1057 15.40                              47     0.110  129  24 
 BRR  HN ES   1   1057 31.07                              47     0.0 7  129  24 
 BRR  HZ I        1057 33.46         4.0 0.26                           129  24 
 PAM  SN ES   3   1057 54.85                              37     0.7 2  218  49 
                                                                                
