 2011  2 8 1210 53.4 L   6.818 -73.271133.3  RSN  6 0.5 1.9LRSN                1
 GAP=135        1.19       6.4    12.2 11.7 -0.3977E+02  0.5514E+02 -0.3338E+01E
 Epicentro: ZAPATOCA - SANTANDER                                               3
 ACTION:UP  11-03-28 15:06 OP:jfem STATUS:               ID:20110208121053 L   I
 2011-02-08-1210-06S.COL___137                                                 6
 STAT SP IPHASW D HRMM SECON CODA AMPLIT PERI AZIMU VELO SNR AR TRES W  DIS CAZ7
 BTL  SZ EP       1211 11.90                             175     0.610   11   2 
 BAR2 SZ EP   1   1211 11.67                             168     0.1 7   27 159 
 BAR2 SZ ES   1   1211 25.95                             168     0.1 7   27 159 
 BAR2 SZ I        1211 28.46        43.2 0.18                            27 159 
 RUS  HZ EP       1211 15.73                             140    -0.510  104 169 
 RUS  HN ES   1   1211 34.08                             140     0.0 7  104 169 
 RUS  HZ I        1211 35.67         9.8 0.44                           104 169 
 GRA  SZ EP   1   1211 18.48                             133     0.7 7  129  24 
 GRA  SZ ES   1   1211 35.99                             133    -0.9 7  129  24 
 GRA  SZ I        1211 39.72         8.1 0.35                           129  24 
 NOR  SZ EP   1   1211 27.79                             117     0.4 6  225 232 
 NOR  SN ES   1   1211 53.26                             117    -0.6 6  225 232 
 CHI  HZ EP       1211 29.89                             115    -0.4 8  247 192 
 CHI  HE ES   1   1211 59.53                             115     0.5 6  247 192 
 CHI  HZ I        1212  5.08         4.6 0.43                           247 192 
                                                                                
