 2017 10 8 1705 47.6 L   6.519 -73.176 26.5  RSN  5 0.2 1.0LRSN                1
 GAP=141        0.67       1.9     3.5  2.0 -0.3140E+01  0.4441E+00 -0.4612E-01E
 Epicentro: PINCHOTE - SANTANDER                                               3
 ACTION:UPD 17-11-07 19:29 OP:rebc STATUS:               ID:20171008170547 L   I
 OLDACT:DUP 17-10-09 01:00 OP:osc  STATUS:               ID:20171008165741d    3
 2017-10-08-1658-00M.COL___408                                                 6
 STAT SP IPHASW D HRMM SECON CODA AMPLIT PERI AZIMU VELO AIN AR TRES W  DIS CAZ7
 BAR2 EZ EP       17 5 51.89                             162   -0.5210 8.13 355 
 BAR2 EZ ES       17 5 56.52                             162    0.3610 8.13 355 
 BAR2 EZ I        17 5 57.49        20.8 0.26            163           8.13 355 
 RUS  HZ EP       17 5 59.95                              99    0.0810 70.0 172 
 RUS  HN ES       17 6  9.42                              99   -0.0110 70.0 172 
 RUS  HZ I        17 6 10.86         3.5 0.20            101           70.0 172 
 PAM  EZ EP       17 6  4.54                              61   -0.1310  105  30 
 PAM  EN ES       17 6 18.14                              61    0.1610  105  30 
 PAM  EZ I        17 6 19.30         5.2 0.15             61            105  30 
 SPBC HN ES       17 6 24.55                              61    0.09 9  138 226 
 NOR  HN EP       17 6 17.89                              61   -0.03 8  215 241 
                                                                                
