 2013  9 8 1847 14.5 L   7.326 -74.172  4.2  RSN  4 0.4 1.9LRSN                1
 GAP=164        0.82       3.4     3.6  8.9 -0.4881E+01 -0.8908E+01  0.1211E+02E
 Epicentro: PUERTO WILCHES - SANTANDER                                         3
 ACTION:UPD 13-10-22 09:21 OP:ep   STATUS:               ID:20130908184714 L   I
 OLDACT:REG 13-09-08 16:49 OP:mh   STATUS:               ID:20130908183959     3
 2013-09-08-1839-59M.COL___269                                                 6
 STAT SP IPHASW D HRMM SECON CODA AMPLIT PERI AZIMU VELO AIN AR TRES W  DIS CAZ7
 PTB  HZ EP   1   1847 29.19                              90    0.08 8 92.4 200 
 PTB  HN ES   1   1847 40.16                              90   -0.35 8 92.4 200 
 PTB  HN I        1847 40.77        28.4 0.48             47           92.4 200 
 PAM  SZ EP   1   1847 40.78                              90    0.55 7  163  89 
 PAM  SE ES       1848  0.01                              90   -0.3010  163  89 
 PAM  SZ I        1848  2.93        19.1 0.24             47            163  89 
 SML  HZ EP   1   1847 39.95                              90    0.10 7  164   4 
 SML  HN ES   2   1847 59.15                              90   -0.49 5  164   4 
 SML  HZ I        1848  0.99        16.6 0.28             47            164   4 
 RUS  HZ EP   1   1847 46.08                              56    0.88 7  199 143 
 RUS  HN ES   1   1848  8.74                              56   -0.42 7  199 143 
 RUS  HZ I        1848 11.26         8.9 0.30             37            199 143 
                                                                                
