 2012 10 8 1317  7.4 L   6.258 -73.571115.4  RSN  4 0.1 1.8LRSN                1
 GAP=224        0.29       2.6     5.0  4.1  0.8043E+01  0.1150E+02  0.4962E+01E
 Epicentro: LA PAZ - SANTANDER                                                 3
 ACTION:UPD 12-11-22 17:02 OP:ep   STATUS:               ID:20121008131707 L   I
 2012-10-08-1310-00M.COL___222                                                 6
 STAT SP IPHASW D HRMM SECON CODA AMPLIT PERI AZIMU VELO AIN AR TRES W  DIS CAZ7
 BAR2 SZ EP       1317 24.79                             152    0.0310 56.7  49 
 BAR2 SZ I        1317 25.01        36.2 0.10                          56.7  49 
 BAR2 SZ ES   1   1317 38.21                             152   -0.12 7 56.7  49 
 RUS  HZ EP       1317 25.84                             148    0.0510 67.5 127 
 RUS  HN ES   2   1317 40.13                             148   -0.02 5 67.5 127 
 RUS  HN I        1317 41.02         5.2 0.22                          67.5 127 
 BRR  HZ EP       1317 27.10                             138   -0.0410 95.1 351 
 BRR  HN ES   1   1317 42.62                             138    0.06 7 95.1 351 
 BRR  HN I        1317 43.26        17.0 0.16                          95.1 351 
 GIR2 SZ IP       1317 27.68                             136   -0.0510 99.9  25 
 GIR2 SZ ES   1   1317 43.71                             136    0.10 7 99.9  25 
                                                                                
