 2012  4 8 1336 40.3 L   6.236 -73.695105.2  RSN  6 0.2 1.4LRSN                1
 GAP=121        0.39       2.6     3.5  6.7  0.3811E+00  0.1575E+02  0.4563E+01E
 Epicentro: LANDAZURI - SANTANDER                                              3
 ACTION:UPD 12-07-05 11:51 OP:tino STATUS:               ID:20120408133640 L   I
 2012-04-08-1330-00M.COL___196                                                 6
 STAT SP IPHASW D HRMM SECON CODA AMPLIT PERI AZIMU VELO AIN AR TRES W  DIS CAZ7
 BAR2 SZ IP       1336 57.46                             145     0.010   69  55 
 BAR2 SZ ES   1   1337 10.86                             145     0.1 7   69  55 
 BAR2 SZ I        1337 11.59        16.7 0.62                            69  55 
 RUS  HZ EP       1336 58.23                             142    -0.210   78 119 
 RUS  HN ES   2   1337 12.56                             142     0.0 5   78 119 
 RUS  HZ I        1337 13.33         2.8 0.46                            78 119 
 BRR  HZ EP       1336 59.24                             135     0.010   96 359 
 BRR  HZ I        1337  9.57         5.4 0.36                            96 359 
 BRR  HN ES   2   1337 14.14                             135     0.1 5   96 359 
 NOR  SZ EP       1337  4.72                             121     0.2 9  150 240 
 PAM  SN ES   2   1337 27.24                             119     0.0 5  164  42 
 ZAR  HE ES   3   1337 30.26                             114    -0.8 2  189 317 
                                                                                
