 2014 12 8 1506 45.1 L   6.752 -73.133145.1  RSN  8 0.4 1.6LRSN                1
 GAP=235        0.89       4.2     4.5  5.4  0.3053E+01  0.6966E+01  0.5523E+01E
 Epicentro: LOS SANTOS - SANTANDER                                             3
 ACTION:UPD 15-02-10 17:01 OP:nd   STATUS:               ID:20141208150645 L   I
 OLDACT:REG 14-12-08 20:34 OP:fm   STATUS:               ID:20141208145748     3
 2014-12-08-1457-48M.COL___306                                                 6
 STAT SP IPHASW D HRMM SECON CODA AMPLIT PERI AZIMU VELO AIN AR TRES W  DIS CAZ7
 BAR2 SZ EP       15 7  4.48                             172   -0.0410 18.5 197 
 BAR2 SZ ES       15 7 20.01                             172    0.3110 18.5 197 
 BAR2 SZ I        15 7 22.60         6.4 0.34            167           18.5 197 
 BRR  HZ EP       15 7  6.39                             151    0.0410 75.0 302 
 BRR  HN ES       15 7 22.80                             151   -0.1710 75.0 302 
 RUS  HZ EP       15 7  8.04                             145   -0.3210 95.2 177 
 RUS  HN ES       15 7 26.83                             145    0.2910 95.2 177 
 RUS  HZ I        15 7 30.40         2.6 0.26            144           95.2 177 
 PTB  HZ EP       15 7 11.40                             132   -0.61 9  148 261 
 PTB  HE ES       15 7 32.72                             132   -0.31 9  148 261 
 PTB  HZ I        15 7 34.56         7.3 0.12            132            148 261 
 SPBC HZ EP       15 7 13.11                             129   -0.09 9  160 221 
 SPBC HE ES       15 7 35.26                             129    0.10 9  160 221 
 SPBC HZ I        15 7 38.93         6.7 0.10            129            160 221 
 CHI  HZ EP       15 7 22.58                             117    0.37 8  244 196 
 CHI  HN ES       15 7 50.54                             117   -0.64 8  244 196 
 CHI  HZ I        15 7 57.00         1.9 0.48            118            244 196 
 HEL  HZ EP       15 7 25.86                             115    0.61 8  272 257 
 HEL  HN ES       15 7 57.22                             115    0.62 8  272 257 
 HEL  HZ I        15 8  2.80         2.8 0.36            116            272 257 
 GUY2CHZ EP       15 7 28.95                             112    0.53 7  299 236 
 GUY2CHE ES       15 8  2.02                             112   -0.23 7  299 236 
 GUY2CHZ I        15 8  9.48         2.0 0.32                           299 236 
                                                                                
