 2013  3 8 1357 18.6 L   6.763 -73.147152.6  RSN  4 0.4 2.0LRSN                1
 GAP=154        0.94      10.7     6.7  8.6 -0.1986E+02  0.1183E+02  0.1349E+02E
 Epicentro: LOS SANTOS - SANTANDER                                             3
 ACTION:UPD 13-04-09 14:00 OP:ep   STATUS:               ID:20130308135718 L   I
 2013-03-08-1350-00M.COL___231                                                 6
 STAT SP IPHASW D HRMM SECON CODA AMPLIT PERI AZIMU VELO AIN AR TRES W  DIS CAZ7
 BAR2 SZ EP       1357 39.00                             173   -0.0110 19.3 192 
 BAR2 SZ ES       1357 55.10                             173    0.1910 19.3 192 
 BAR2 SZ I        1357 55.30        22.5 0.16            164           19.3 192 
 BRR  HZ EP       1357 41.09                             153    0.4710 73.1 301 
 BRR  HE ES       1357 58.08                             153    0.2910 73.1 301 
 BRR  HE I        1357 58.34        21.3 0.24            149           73.1 301 
 PAM  SN ES   1   1357 59.13                             151   -0.69 7 80.7  38 
 PTB  HZ EP       1357 46.00                             134   -0.08 9  147 260 
 PTB  HN ES       1358  6.94                             134   -0.56 9  147 260 
 PTB  HN I        1358 17.66         8.2 0.22            130            147 260 
                                                                                
