 2014  4 8 1418 14.0 L   6.788 -73.133146.2  RSN  5 0.5 1.9LRSN                1
 GAP=238        1.11       6.5     7.9  9.5  0.1011E+02  0.7033E+01  0.5387E+01E
 Epicentro: LOS SANTOS - SANTANDER                                             3
 ACTION:UPD 14-05-13 23:07 OP:nd   STATUS:               ID:20140408141814 L   I
 OLDACT:UP  14-04-08 23:44 OP:cam  STATUS:               ID:20140408141746     3
 OLDACT:REG 14-04-08 23:35 OP:cam  STATUS:               ID:20140408141746     3
 2014-04-08-1417-46M.COL___259                                                 6
 STAT SP IPHASW D HRMM SECON CODA AMPLIT PERI AZIMU VELO AIN AR TRES W  DIS CAZ7
 BRR  HZ EP       1418 35.44                             152    0.1910 73.1 299 
 BRR  HN ES       1418 52.30                             152    0.4410 73.1 299 
 BRR  HZ I        1418 53.00        25.0 0.14            151           73.1 299 
 RUS  HZ EP   1   1418 37.01                             144   -0.63 7 99.2 177 
 RUS  HN ES       1418 56.01                             144   -0.1110 99.2 177 
 RUS  HZ I        1418 58.22         5.4 0.18            141           99.2 177 
 PTB  HZ EP       1418 40.51                             132   -0.55 9  149 259 
 PTB  HN ES       1419  1.42                             132   -0.78 9  149 259 
 PTB  HZ I        1419  3.71        11.4 0.16            130            149 259 
 SPBC HZ EP   1   1418 42.87                             129    0.40 7  163 220 
 SPBC HN ES       1419  5.01                             129    0.29 9  163 220 
 SPBC HZ I        1419 12.67        10.6 0.32            127            163 220 
 NOR  HZ EP       1418 50.44                             119    0.69 8  235 235 
 NOR  HN ES   1   1419 17.95                             119    0.28 6  235 235 
 NOR  HZ I        1419 23.44         5.8 0.14            118            235 235 
                                                                                
