 2015  2 8 1333 10.5 L   6.826 -73.175145.6  RSN 19 0.4 2.6LRSN                1
 GAP=132        0.92       2.1     3.4  4.7 -0.1519E+01  0.4792E+01  0.1352E+01E
 Epicentro: ZAPATOCA - SANTANDER                                               3
 ACTION:UPD 15-04-30 21:23 OP:nd   STATUS:               ID:20150208133310 L   I
 OLDACT:UP  15-02-08 22:55 OP:cam  STATUS:               ID:20150208132743     3
 OLDACT:REG 15-02-08 20:21 OP:cam  STATUS:               ID:20150208132743     3
 2015-02-08-1327-43M.COL___293                                                 6
 STAT SP IPHASW D HRMM SECON CODA AMPLIT PERI AZIMU VELO AIN AR TRES W  DIS CAZ7
 BRR  HZ EP       1333 31.99                             154    0.6210 67.0 298 
 BRR  HN ES       1333 48.33                             154    0.6610 67.0 298 
 BRR  HZ I        1333 53.54        42.3 0.30            149           67.0 298 
 PAM  SZ IP     D 1333 32.87                             151    0.2110 77.4  43 
 PAM  SN ES       1333 50.08                             151    0.1110 77.4  43 
 PAM  SZ I        1333 50.77        31.2 0.18            152           77.4  43 
 RUS  HZ EP     C 1333 34.03                             143   -0.4010  104 174 
 RUS  HN ES       1333 52.77                             143   -0.3410  104 174 
 RUS  HZ I        1333 53.87        36.0 0.28            142            104 174 
 PTB  HZ EP       1333 36.93                             133   -0.26 9  145 257 
 PTB  HN ES       1333 57.54                             133   -0.49 9  145 257 
 PTB  HZ I        1334  0.12        47.3 0.36            128            145 257 
 OCA  HZ EP       1333 38.44                             130   -0.03 9  157 354 
 OCA  HN ES       1334  0.14                             130   -0.17 9  157 354 
 OCA  HZ I        1334  3.23        39.2 0.42            128            157 354 
 SPBC HZ EP       1333 39.02                             129    0.05 9  163 217 
 SPBC HE ES       1334  1.14                             129   -0.07 9  163 217 
 SPBC HZ I        1334  2.00        65.2 0.22            126            163 217 
 ZAR  HZ EP       1333 42.68                             123    0.20 9  200 292 
 ZAR  HE ES   4   1334  8.47                             123    1.01 0  200 292 
 ZAR  HZ I        1334 13.56        46.7 0.30            120            200 292 
 NOR  HZ EP       1333 46.27                             119    0.19 8  234 233 
 NOR  HE ES       1334 13.53                             119   -0.33 8  234 233 
 NOR  HZ I        1334 20.21        26.0 0.36            116            234 233 
 SML  HZ EP       1333 46.30                             118   -0.36 8  240 336 
 SML  HN ES       1334 15.06                             118    0.17 8  240 336 
 SML  HZ I        1334 19.30        42.7 0.26            116            240 336 
 CHI  HZ EP       1333 48.06                             117   -0.30 8  251 194 
 CHI  HN ES       1334 17.27                             117   -0.65 8  251 194 
 CHI  HZ I        1334 23.00        15.6 0.42            115            251 194 
 ROSC BZ EP       1333 49.14                             117    0.48 8  254 210 
 ROSC BE ES       1334 18.71                             117    0.26 8  254 210 
 ROSC BZ I        1334 27.63        53.8 0.35            114            254 210 
 HEL  HZ EP   1   1333 49.35                             115   -1.05 6  270 255 
 HEL  HZ I        1334 29.48        17.5 0.22            112            270 255 
 URE  HN ES   4   1334 19.54                             114   -3.21 0  280 292 
 GUY2CHZ EP       1333 54.38                             112    0.42 7  300 234 
 GUY2CHN ES       1334 27.98                             112    0.10 7  300 234 
 GUY2CHZ I        1334 36.23        28.4 0.42                           300 234 
 DBB  SZ EP   4   1333 58.43                             110    0.89 0  336 274 
 DBB  SZ ES       1334 34.06                             110   -0.20 7  336 274 
 DBB  SZ I        1334 36.72        48.5 0.60            108            336 274 
 TOL  SZ EP       1333 59.45                             109    0.76 7  343 224 
 TOL  SN ES       1334 36.04                             109   -0.26 7  343 224 
 TOL  SZ I        1334 46.35        19.2 0.48            108            343 224 
 MON  HZ EP   4   1333 57.14                             109   -1.83 0  349 308 
 MON  HN ES       1334 35.86                             109   -0.93 6  349 308 
 MON  HZ I        1334 38.39         7.0 0.60            107            349 308 
 ANIL HZ EP       1334  0.61                             108    0.37 6  357 224 
 ANIL HN ES   4   1334 41.03                             108    1.97 0  357 224 
 ANIL HZ I        1334 44.13         4.3 0.42            107            357 224 
 ORTC HZ EP       1334  4.37                             106   -0.06 6  396 216 
 ORTC HN ES       1334 47.24                             106    0.73 6  396 216 
 ORTC HZ I        1334 52.99        14.2 0.42            105            396 216 
 PAL  HZ EP       1334  5.36                             106   -0.11 6  404 238 
 PAL  HE ES       1334 48.90                             106    0.53 6  404 238 
 PAL  HZ I        1334 55.66         6.3 0.24            104            404 238 
                                                                                
