 2017  2 8 1601  9.1 L   6.843 -73.133147.6  RSN  6 0.3 1.7LRSN                1
 GAP=136        0.72       3.7     3.7  6.3 -0.2010E+01  0.8949E+01  0.2754E-01E
 Epicentro: LOS SANTOS - SANTANDER                                             3
 ACTION:UPD 17-05-24 15:34 OP:jn   STATUS:               ID:20170208160109 L   I
 OLDACT:UP  17-02-08 22:49 OP:and  STATUS:               ID:20170208155744     3
 OLDACT:REG 17-02-08 20:31 OP:and  STATUS:               ID:20170208155744     3
 2017-02-08-1558-00M.COL___355                                                 6
 STAT SP IPHASW D HRMM SECON CODA AMPLIT PERI AZIMU VELO AIN AR TRES W  DIS CAZ7
 BAR2 EZ EP       16 1 28.71                             169   -0.3310 28.2 191 
 BAR2 EZ ES       16 1 44.52                             169   -0.0910 28.2 191 
 BAR2 EZ I        16 1 47.17         6.0 0.14            168           28.2 191 
 PAM  EZ IP     D 16 1 31.50                             153    0.2610 72.9  41 
 PAM  EN ES       16 1 48.52                             153    0.0010 72.9  41 
 PAM  EZ I        16 1 50.73         8.1 0.24            156           72.9  41 
 RUS  HZ EP       16 1 33.17                             143   -0.1810  105 177 
 RUS  HN ES       16 1 52.41                             143    0.1310  105 177 
 RUS  HZ I        16 1 53.36         6.1 0.26            146            105 177 
 PTB  HZ EP   2   16 1 35.83                             132   -0.58 5  150 257 
 PTB  HN ES   2   16 1 56.80                             132   -0.92 5  150 257 
 PTB  HZ I        16 2  0.40         5.9 0.16            132            150 257 
 ZAR  HE ES       16 2  7.21                             123    0.25 9  204 291 
 ZAR  HZ I        16 2 13.04         6.9 0.34            123            204 291 
 NOR  HZ EP   2   16 1 45.28                             118   -0.05 4  239 234 
 NOR  HN ES       16 2 14.17                             118    0.56 8  239 234 
 NOR  HZ I        16 2 19.27         3.7 0.26            120            239 234 
 CBOC HN ES   4   16 2 37.07                             110    3.78 0  336 251 
                                                                                
