 2015  3 8 1114 15.0 L   6.806 -73.132146.8  RSN  6 0.6 1.6LRSN                1
 GAP=154        1.45       5.2     9.5  9.2 -0.1131E+02  0.1599E+02  0.4198E+01E
 Epicentro: LOS SANTOS - SANTANDER                                             3
 ACTION:UPD 15-04-30 16:24 OP:nd   STATUS:               ID:20150308111415 L   I
 OLDACT:REG 15-03-08 22:46 OP:carl STATUS:               ID:20150308110749     3
 2015-03-08-1107-49M.COL___287                                                 6
 STAT SP IPHASW D HRMM SECON CODA AMPLIT PERI AZIMU VELO AIN AR TRES W  DIS CAZ7
 BAR2 EZ EP       1114 35.17                             170    0.4010 24.3 193 
 BAR2 EZ ES       1114 50.19                             170   -0.0010 24.3 193 
 BAR2 EZ I        1114 51.39         5.7 0.22            170           24.3 193 
 BRR  HZ EP       1114 37.08                             152    0.7610 72.2 298 
 BRR  HN ES       1114 53.70                             152    0.7610 72.2 298 
 PAM  SZ EP       1114 37.26                             152    0.0210 75.9  39 
 PAM  SN ES       1114 54.04                             152   -0.5510 75.9  39 
 PAM  SZ I        1114 57.33         8.3 0.46            153           75.9  39 
 SPBC HZ EP       1114 42.86                             129   -0.86 9  165 219 
 SPBC HN ES       1115  5.17                             129   -0.94 9  165 219 
 SPBC HZ I        1115  9.28         5.9 0.24            129            165 219 
 SML  HZ EP       1114 51.58                             118   -0.11 8  244 335 
 SML  HE ES       1115 19.66                             118   -0.65 8  244 335 
 SML  HZ I        1115 24.68         4.4 0.10            118            244 335 
 CHI  HZ EP       1114 53.51                             117    0.64 8  250 195 
 CHI  HN ES       1115 22.70                             117    0.30 8  250 195 
 CHI  HZ I        1115 26.18         1.7 0.42            118            250 195 
                                                                                
