 2015  1 8 1936 22.5 L   6.769 -73.186145.2  RSN  7 0.4 1.8LRSN                1
 GAP=133        0.96       3.3     4.7  6.7 -0.1867E+00  0.9725E+01 -0.2361E+01E
 Epicentro: LOS SANTOS - SANTANDER                                             3
 ACTION:UPD 15-03-02 15:38 OP:nd   STATUS:               ID:20150108193622 L   I
 OLDACT:REG 15-01-09 02:05 OP:mh   STATUS:               ID:20150108192944     3
 2015-01-08-1929-44M.COL___268                                                 6
 STAT SP IPHASW D HRMM SECON CODA AMPLIT PERI AZIMU VELO AIN AR TRES W  DIS CAZ7
 BAR2 EZ EP       1936 42.38                             172    0.3510 19.5 179 
 BAR2 EZ ES       1936 57.46                             172    0.2310 19.5 179 
 BAR2 EZ I        1936 58.71        14.8 0.38            171           19.5 179 
 PAM  SZ EP       1936 45.48                             149    0.4510 82.9  40 
 PAM  SN ES       1937  2.40                             149   -0.1710 82.9  40 
 PAM  SZ I        1937  4.54        12.6 0.38            151           82.9  40 
 RUS  HZ EP       1936 45.94                             145   -0.0710 97.6 173 
 RUS  HN ES       1937  4.06                             145   -0.2710 97.6 173 
 RUS  HZ I        1937  5.30         5.4 0.26            145           97.6 173 
 PTB  HZ EP       1936 49.17                             133    0.17 9  143 260 
 PTB  HN ES       1937  9.67                             133    0.03 9  143 260 
 PTB  HZ I        1937 12.05        12.7 0.14            129            143 260 
 ZAR  HN ES   1   1937 20.32                             123    0.61 6  201 294 
 ZAR  HZ I        1937 29.67         7.8 0.09            120            201 294 
 CHI  HZ EP   1   1937  0.33                             117    0.62 6  244 194 
 CHI  HN ES       1937 27.99                             117   -0.73 8  244 194 
 CHI  HZ I        1937 39.89         2.2 0.78            117            244 194 
 SML  HZ EP       1936 58.98                             117   -0.29 8  245 337 
 SML  HN ES       1937 27.09                             117   -0.83 8  245 337 
 SML  HZ I        1937 37.81        10.1 0.26            116            245 337 
                                                                                
