 2017  3 8 1815 23.8 L   6.764 -73.111147.6  RSN  5 0.3 1.6LRSN                1
 GAP=238        0.84       5.0     5.5  6.2  0.6218E+01  0.3820E+01  0.2324E+01E
 Epicentro: LOS SANTOS - SANTANDER                                             3
 ACTION:UPD 17-05-25 18:38 OP:jn   STATUS:               ID:20170308181523 L   I
 OLDACT:REG 17-03-08 21:04 OP:ar   STATUS:               ID:20170308180746     3
 2017-03-08-1808-00M.COL___383                                                 6
 STAT SP IPHASW D HRMM SECON CODA AMPLIT PERI AZIMU VELO AIN AR TRES W  DIS CAZ7
 BAR2 EZ EP       1815 43.35                             172   -0.2110 20.6 203 
 BAR2 EZ ES       1815 58.59                             172   -0.4210 20.6 203 
 BAR2 EZ I        1815 59.87        12.3 0.18            167           20.6 203 
 BRR  HZ EP       1815 45.45                             151    0.0310 76.5 300 
 BRR  HN ES       1816  2.75                             151    0.4510 76.5 300 
 RUS  HZ EP       1815 47.14                             145   -0.2610 96.4 178 
 RUS  HN ES       1816  6.30                             145    0.4610 96.4 178 
 RUS  HZ I        1816  7.00         2.5 0.18            144           96.4 178 
 PTB  HZ EP       1815 51.43                             132    0.27 9  151 261 
 PTB  HN ES       1816 12.07                             132   -0.46 9  151 261 
 PTB  HZ I        1816 18.53         4.2 0.34            130            151 261 
 SPBC HZ EP       1815 52.48                             130    0.13 9  163 221 
 SPBC HE ES       1816 14.65                             130    0.01 9  163 221 
 SPBC HZ I        1816 17.54         6.6 0.10            128            163 221 
                                                                                
