 2011  9 8 1111  4.7 L   6.759 -73.116140.3  RSN  6 0.2 1.6LRSN                1
 GAP=142        0.38       2.9     3.9  4.1  0.3312E+01  0.2917E+01 -0.2085E+01E
 Epicentro: LOS SANTOS - SANTANDER                                             3
 ACTION:UPD 12-07-13 15:56 OP:ep   STATUS:               ID:20110908111104 L   I
 2011-09-08-1108-07S.COL___171                                                 6
 STAT SP IPHASW D HRMM SECON CODA AMPLIT PERI AZIMU VELO AIN AR TRES W  DIS CAZ7
 BAR2 SZ EP       1111 23.67                             172    0.0510 19.9 202 
 BAR2 SZ I        1111 23.96         5.9 0.15                          19.9 202 
 BAR2 SZ ES   1   1111 38.36                             172   -0.01 7 19.9 202 
 GIR2 SZ EP   1   1111 23.78                             165   -0.11 7 36.4 346 
 BRR  HZ EP       1111 25.52                             150   -0.0610 76.3 300 
 BRR  HE ES   2   1111 42.30                             150    0.45 5 76.3 300 
 BRR  HZ I        1112  0.54        13.9 0.31                          76.3 300 
 PAM  SZ EP   2   1111 26.37                             149   -0.08 5 79.0  36 
 PAM  SN ES   2   1111 43.39                             149   -0.02 5 79.0  36 
 RUS  HZ EP   1   1111 27.77                             144    0.18 7 95.9 178 
 RUS  HE ES   1   1111 45.29                             144   -0.15 7 95.9 178 
 ZAR  HZ EP   2   1111 37.62                             120    0.31 4  209 293 
 ZAR  HE ES   2   1112  2.30                             120   -0.43 4  209 293 
 ZAR  HZ I        1112  8.93         3.6 0.25                           209 293 
                                                                                
