 2012  9 8 1147  7.6 L   6.766 -73.087146.0  RSN  4 0.5 1.7LRSN                1
 GAP=228        0.57      25.9    13.0  9.4  0.1648E+03  0.4253E+02  0.1287E+03E
 Epicentro: LOS SANTOS - SANTANDER                                             3
 ACTION:UPD 12-10-22 14:17 OP:ep   STATUS:               ID:20120908114707 L   I
 2012-09-08-1140-00M.COL___227                                                 6
 STAT SP IPHASW D HRMM SECON CODA AMPLIT PERI AZIMU VELO AIN AR TRES W  DIS CAZ7
 BAR2 SZ EP   3   1147 27.39                             170    0.19 2 21.9 209 
 BAR2 SZ I        1147 27.68         6.7 0.28                          21.9 209 
 BAR2 SZ ES   3   1147 42.36                             170   -0.15 2 21.9 209 
 GIR2 SZ EP   3   1147 28.95                             166    1.53 2 36.5 341 
 GIR2 SZ ES   1   1147 42.76                             166   -0.15 7 36.5 341 
 BRR  HZ EP       1147 29.05                             150   -0.1310 78.7 299 
 BRR  HN ES   1   1147 46.33                             150    0.29 7 78.7 299 
 BRR  HN I        1147 54.35        14.5 0.26                          78.7 299 
 ZAR  HN ES   3   1148  5.70                             122   -1.02 2  212 292 
                                                                                
