 2010 11 8 1801 46.0 L   6.509 -73.554109.6  RSN  5 0.2 1.8LRSN                1
 GAP=203        0.53       4.8     8.1  5.8  0.2021E+02  0.3919E+01 -0.5545E+01E
 Epicentro: EL CARMEN DE CHUCURI - SANTANDER                                   3
 ACTION:UP  10-12-17 16:51 OP:REBC STATUS:               ID:20101108180146 L   I
 2010-11-08-1800-54S.COL___128                                                 6
 STAT SP IPHASW D HRMM SECON CODA AMPLIT PERI AZIMU VELO SNR AR TRES W  DIS CAZ7
 BAR2 SZ EP       18 2  2.19                             157     0.210   42  77 
 BAR2 SZ ES   1   18 2 14.50                             157     0.1 7   42  77 
 BAR2 SZ I        18 2 15.94        82.6 0.27                            42  77 
 BRR  HZ EP       18 2  2.98                             146    -0.210   68 345 
 BRR  HN ES   2   18 2 16.64                             146     0.1 5   68 345 
 RUS  HZ EP   1   18 2  5.28                             139     0.2 7   86 143 
 RUS  HN ES   2   18 2 19.57                             139    -0.5 5   86 143 
 RUS  HZ I        18 2 22.18         5.2 0.57                            86 143 
 GUE  SZ EP   1   18 2 11.95                             120    -0.2 7  162  25 
 GRA  SZ EP   1   18 2 13.04                             118    -0.1 7  173  29 
 GRA  SZ I        18 2 37.04         7.2 0.36                           173  29 
                                                                                
