 2013  2 8 1324 54.5 L   6.777 -73.097143.3  RSN  4 0.1 1.5LRSN                1
 GAP=144        0.38       2.6     6.1  4.3 -0.8443E+01  0.8460E+01 -0.2910E+01E
 Epicentro: LOS SANTOS - SANTANDER                                             3
 ACTION:UPD 13-03-12 09:31 OP:ep   STATUS:               ID:20130208132454 L   I
 2013-02-08-1320-00M.COL___241                                                 6
 STAT SP IPHASW D HRMM SECON CODA AMPLIT PERI AZIMU VELO AIN AR TRES W  DIS CAZ7
 BAR2 SZ ES   1   1325 28.89                             171    0.01 7 22.5 205 
 BAR2 SZ I        1325 29.63         7.8 0.14            158           22.5 205 
 PAM  SZ EP       1325 16.53                             151    0.1510 76.1  35 
 PAM  SZ I        1325 16.73         5.8 0.34            150           76.1  35 
 PAM  SE ES       1325 33.34                             151   -0.1010 76.1  35 
 BRR  HZ EP   1   1325 15.73                             150    0.00 7 77.1 298 
 BRR  HZ I        1325 22.67        16.0 0.45            136           77.1 298 
 RUS  HZ EP   1   1325 17.61                             144   -0.20 7 97.8 179 
 RUS  HE ES       1325 36.05                             144    0.0610 97.8 179 
 RUS  HE I        1325 37.11         3.0 0.48            141           97.8 179 
                                                                                
