 2017  2 8 1734 24.8 L   6.783 -73.140141.0  RSN 10 0.5 1.9LRSN                1
 GAP= 99        1.11       5.1     4.0  6.2  0.2474E+01  0.2940E+01  0.1890E+01E
 Epicentro: LOS SANTOS - SANTANDER                                             3
 ACTION:UPD 17-05-24 15:34 OP:jn   STATUS:               ID:20170208173424 L   I
 OLDACT:UP  17-02-09 00:08 OP:and  STATUS:               ID:20170208172747     3
 OLDACT:UP  17-02-09 00:08 OP:and  STATUS:               ID:20170208172747     3
 OLDACT:UP  17-02-09 00:07 OP:and  STATUS:               ID:20170208172747     3
 OLDACT:UP  17-02-09 00:07 OP:and  STATUS:               ID:20170208172747     3
 OLDACT:UP  17-02-09 00:06 OP:and  STATUS:               ID:20170208172747     3
 OLDACT:REG 17-02-08 20:41 OP:and  STATUS:               ID:20170208172747     3
 2017-02-08-1728-00M.COL___346                                                 6
 STAT SP IPHASW D HRMM SECON CODA AMPLIT PERI AZIMU VELO AIN AR TRES W  DIS CAZ7
 BAR2 EZ IP     C 1734 43.63                             171   -0.1910 21.6 193 
 BAR2 EZ ES       1734 58.83                             171    0.1810 21.6 193 
 BAR2 EZ I        1734 59.55        20.1 0.13            160           21.6 193 
 BRR  HZ EP       1734 45.54                             151    0.0210 72.7 300 
 BRR  HN ES       1735  2.37                             151    0.6910 72.7 300 
 BRR  HZ I        1735  4.15        20.2 0.24            144           72.7 300 
 PAM  EZ EP       1734 46.62                             150    0.0510 78.4  38 
 RUS  HZ EP       1734 47.64                             143   -0.3010 98.6 176 
 RUS  HN ES       1735  6.08                             143    0.0910 98.6 176 
 RUS  HZ I        1735  7.19        17.1 0.30            137           98.6 176 
 PTB  HZ EP       1734 50.71                             131   -0.70 9  148 260 
 PTB  HN ES       1735 11.13                             131   -1.03 9  148 260 
 PTB  HZ I        1735 15.70         9.6 0.20            124            148 260 
 TAM  HZ IP     C 1734 51.99                             130   -0.00 9  154 104 
 ZAR  HZ EP       1734 56.71                             121   -0.36 8  205 293 
 ZAR  HN ES       1735 22.37                             121    0.12 8  205 293 
 ZAR  HZ I        1735 30.64        11.7 0.24            117            205 293 
 NOR  HZ EP       1735  0.53                             118    0.34 8  234 235 
 NOR  HN ES       1735 27.68                             118   -0.12 8  234 235 
 NOR  HZ I        1735 30.41         5.0 0.18            113            234 235 
 CHI  HZ EP       1735  2.69                             116    0.64 8  247 195 
 CHI  HN ES   4   1735 32.72                             116    1.61 0  247 195 
 CHI  HZ I        1735 41.29         2.7 0.26            112            247 195 
 CBOC HZ EP       1735 12.03                             109    0.51 7  334 252 
 CBOC HN ES       1735 48.78                             109    0.81 7  334 252 
 CBOC HZ I        1736 22.36         3.3 0.14            106            334 252 
                                                                                
