 2013  3 8 1616 18.0 L   6.781 -73.145144.8  RSN  7 0.3 2.3LRSN                1
 GAP=137        0.79       3.9     4.0  5.3  0.1153E+01  0.5269E+01  0.1192E+01E
 Epicentro: LOS SANTOS - SANTANDER                                             3
 ACTION:UPD 13-04-09 14:00 OP:ep   STATUS:               ID:20130308161618 L   I
 2013-03-08-1610-00M.COL___231                                                 6
 STAT SP IPHASW D HRMM SECON CODA AMPLIT PERI AZIMU VELO AIN AR TRES W  DIS CAZ7
 BAR2 SZ EP       1616 37.42                             171    0.0010 21.3 191 
 BAR2 SZ ES       1616 52.33                             171   -0.2810 21.3 191 
 BAR2 SZ I        1616 53.70        94.4 0.15            158           21.3 191 
 BRR  HZ IP     D 1616 39.36                             152    0.3010 72.3 300 
 BRR  HN ES       1616 56.12                             152    0.6010 72.3 300 
 BRR  HZ I        1616 56.97        20.2 0.26            142           72.3 300 
 PAM  SZ EP       1616 40.24                             150    0.0810 79.0  39 
 PAM  SZ I        1616 40.70        41.2 0.19            148           79.0  39 
 PAM  SN ES       1616 57.17                             150   -0.3110 79.0  39 
 RUS  HZ EP       1616 41.35                             144   -0.1010 98.5 176 
 RUS  HE ES       1617  0.07                             144    0.2810 98.5 176 
 RUS  HE I        1617  1.16        34.0 0.54            129           98.5 176 
 PTB  HZ EP       1616 44.41                             132   -0.40 9  147 260 
 PTB  HE ES   1   1617  5.23                             132   -0.53 7  147 260 
 PTB  HZ I        1617  7.75        16.3 0.37            119            147 260 
 ZAR  HZ EP   1   1616 50.35                             122   -0.07 6  205 293 
 ZAR  HN ES   1   1617 15.66                             122   -0.09 6  205 293 
 ZAR  HZ I        1617 21.75        13.9 0.31            112            205 293 
 PRA  HZ EP   1   1617 11.76                             106    0.53 4  390 210 
 PRA  HZ I        1618  0.45         4.7 0.46             97            390 210 
                                                                                
