 2017  9 8 1658 27.5 L   6.759 -73.122149.4  RSN  7 0.4 1.7LRSN                1
 GAP=141        0.98       4.1     5.0  6.6 -0.1026E+00  0.1403E+02  0.3801E+01E
 Epicentro: LOS SANTOS - SANTANDER                                             3
 ACTION:UPD 17-10-05 19:10 OP:rebc STATUS:               ID:20170908165827 L   I
 OLDACT:DUP 17-09-09 01:21 OP:lv   STATUS:               ID:20170908164739d    3
 2017-09-08-1648-00M.COL___422                                                 6
 STAT SP IPHASW D HRMM SECON CODA AMPLIT PERI AZIMU VELO AIN AR TRES W  DIS CAZ7
 BAR2 EZ EP       1658 47.50                             172   -0.0210 19.6 200 
 BAR2 EZ ES       1659  3.25                             172    0.1310 19.6 200 
 BAR2 EZ I        1659  4.16         6.8 0.12            169           19.6 200 
 BRR  HZ EP       1658 49.58                             152    0.2610 75.7 301 
 BRR  HN ES       1659  6.48                             152    0.1610 75.7 301 
 PAM  EN ES       1659  8.04                             151    0.0810 79.3  36 
 RUS  HZ EP       1658 51.81                             146    0.5010 95.9 177 
 RUS  HN ES       1659  8.97                             146   -0.8910 95.9 177 
 RUS  HZ I        1659 10.60         4.9 0.24            147           95.9 177 
 SPBC HZ EP       1658 56.33                             130    0.19 9  161 221 
 SPBC HN ES       1659 18.71                             130    0.26 9  161 221 
 SPBC HZ I        1659 23.69         9.6 0.24            130            161 221 
 ZAR  HZ EP       1659  0.12                             122   -0.52 8  208 293 
 ZAR  HE ES       1659 26.10                             122   -0.36 8  208 293 
 ZAR  HZ I        1659 32.97         5.2 0.12            122            208 293 
 NOR  HZ EP       1659  3.10                             119   -0.32 8  234 236 
 NOR  HN ES       1659 31.78                             119    0.36 8  234 236 
 NOR  HZ I        1659 34.78         2.7 0.16            119            234 236 
                                                                                
