 2015 10 8 1103 38.6 L   6.788 -73.139141.4  RSN 16 0.5 2.2LRSN                1
 GAP=138        1.09       2.6     3.8  5.5 -0.1447E+01  0.8880E+01  0.5922E-01E
 Epicentro: LOS SANTOS - SANTANDER                                             3
 ACTION:UPD 15-12-22 20:38 OP:cam  STATUS:               ID:20151008110338 L   I
 OLDACT:UP  15-10-08 22:22 OP:akl  STATUS:               ID:20151008105749     3
 OLDACT:UP  15-10-08 22:20 OP:akl  STATUS:               ID:20151008105749     3
 OLDACT:REG 15-10-08 21:10 OP:ak   STATUS:               ID:20151008105749     3
 2015-10-08-1057-49M.COL___336                                                 6
 STAT SP IPHASW D HRMM SECON CODA AMPLIT PERI AZIMU VELO AIN AR TRES W  DIS CAZ7
 BAR2 EZ EP       11 3 57.84                             171    0.1210 22.1 192 
 BAR2 EZ ES       11 4 12.65                             171    0.0510 22.1 192 
 BAR2 EZ I        11 4 13.79        45.9 0.18            168           22.1 192 
 BRR  HZ IP     C 11 3 59.67                             151    0.2710 72.5 299 
 BRR  HN ES       11 4 16.30                             151    0.7210 72.5 299 
 BRR  HZ I        11 4 18.28        45.7 0.14            150           72.5 299 
 PAM  EZ EP       11 4  0.71                             150    0.2810 78.0  38 
 PAM  EN ES       11 4 16.58                             150   -0.8510 78.0  38 
 PAM  EZ I        11 4 19.87        36.9 0.36            155           78.0  38 
 RUS  HZ EP       11 4  1.58                             143   -0.2810 99.2 176 
 RUS  HN ES       11 4 20.25                             143    0.2810 99.2 176 
 RUS  HZ I        11 4 22.09         9.7 0.22            144           99.2 176 
 OCA  HZ EP       11 4  6.83                             128    0.07 9  162 353 
 OCA  HN ES       11 4 29.00                             128    0.32 9  162 353 
 OCA  HZ I        11 4 29.08        38.0 0.36            131            162 353 
 SPBC HZ EP       11 4  6.78                             128    0.03 9  163 219 
 SPBC HN ES       11 4 28.28                             128   -0.39 9  163 219 
 SPBC HZ I        11 4 32.95        16.8 0.20            128            163 219 
 ZAR  HZ EP       11 4 10.98                             121    0.05 8  205 292 
 ZAR  HE ES       11 4 36.87                             121    0.76 8  205 292 
 ZAR  HZ I        11 4 42.58        24.5 0.30            122            205 292 
 NOR  HZ EP       11 4 13.84                             118   -0.26 8  234 235 
 NOR  HE ES       11 4 41.09                             118   -0.66 8  234 235 
 NOR  HZ I        11 4 47.05        13.3 0.20            118            234 235 
 SML  HZ EP       11 4 14.40                             116   -0.80 8  245 335 
 SML  HN ES       11 4 43.14                             116   -0.57 8  245 335 
 CHI  HZ EP       11 4 16.35                             116    0.37 8  247 195 
 CHI  HN ES       11 4 44.96                             116   -0.14 8  247 195 
 CHI  HZ I        11 4 52.58         4.0 0.44            117            247 195 
 HEL  HZ EP   1   11 4 19.62                             114    0.94 6  272 256 
 HEL  HE ES       11 4 49.41                             114   -0.49 8  272 256 
 HEL  HZ I        11 4 56.23         8.5 0.34            114            272 256 
 URE  HZ EP   1   11 4 20.33                             113    0.69 6  285 292 
 URE  HN ES       11 4 50.74                             113   -0.87 7  285 292 
 URE  HZ I        11 4 58.37         9.5 0.24            113            285 292 
 GUY2CHZ EP   1   11 4 22.49                             111    0.46 5  301 235 
 GUY2CHE ES       11 4 56.18                             111    0.31 7  301 235 
 GUY2CHZ I        11 5  4.37        10.4 0.48                           301 235 
 CBOC HZ EP       11 4 25.70                             109    0.29 7  334 252 
 CBOC HE ES       11 5  1.17                             109   -0.71 7  334 252 
 CBOC HZ I        11 5  4.84         3.0 0.38            110            334 252 
 DBB  SZ EP       11 4 26.60                             109    0.56 7  340 274 
 DBB  SZ ES   4   11 5  0.89                             109   -2.12 0  340 274 
 ANIL HN ES   1   11 5  6.94                             108    0.04 5  357 225 
 ANIL HZ I        11 5 18.96        11.7 0.46            109            357 225 
 SJC  HZ EP   4   11 4 31.70                             105   -2.55 0  411 327 
 SJC  HE ES   4   11 5 12.77                             105   -4.85 0  411 327 
                                                                                
