 2013  7 8 1645 24.0 L   6.773 -73.143148.6  RSN  7 0.5 2.3LRSN                1
 GAP= 72        1.23       5.0     4.6  8.2  0.1479E+01 -0.1664E+01  0.1944E+01E
 Epicentro: LOS SANTOS - SANTANDER                                             3
 ACTION:UPD 13-08-12 10:36 OP:ep   STATUS:               ID:20130708164524 L   I
 OLDACT:DUP 13-07-08 19:13 OP:stll STATUS:               ID:20130708163850d    3
 2013-07-08-1638-49M.COL___206                                                 6
 STAT SP IPHASW D HRMM SECON CODA AMPLIT PERI AZIMU VELO AIN AR TRES W  DIS CAZ7
 BAR2 SZ IP     C 1645 44.06                             172    0.1810 20.5 192 
 BAR2 SZ ES       1645 59.30                             172   -0.1310 20.5 192 
 BAR2 SZ I        1646  1.80        21.1 0.28            171           20.5 192 
 BRR  HZ IP     D 1645 45.99                             152    0.4710 72.9 300 
 BRR  HN ES       1646  3.36                             152    1.0310 72.9 300 
 BRR  HN I        1646  5.91        61.6 0.20            153           72.9 300 
 PAM  SZ EP       1645 47.04                             151    0.4310 79.5  38 
 PAM  SN ES       1646  4.03                             151   -0.2410 79.5  38 
 PAM  SN I        1646  5.08        31.4 0.20            154           79.5  38 
 RUS  HZ EP       1645 47.94                             145    0.1510 97.6 176 
 RUS  HN ES       1646  6.15                             145   -0.2210 97.6 176 
 RUS  HN I        1646 10.22        14.5 0.26            147           97.6 176 
 PTB  HZ EP       1645 50.78                             133   -0.36 9  148 260 
 PTB  HN ES       1646 11.67                             133   -0.67 9  148 260 
 PTB  HN I        1646 17.31        39.5 0.32            134            148 260 
 TAM  HZ EP       1645 51.78                             131    0.01 9  154 104 
 TAM  HN ES       1646 13.32                             131   -0.15 9  154 104 
 TAM  HN I        1646 14.91        34.6 0.52            135            154 104 
 OCA  HN ES       1646 14.46                             130   -0.79 9  163 353 
 OCA  HN I        1646 18.41        57.1 0.24            132            163 353 
                                                                                
