 2014  1 8 1427  8.7 L   6.921 -73.244133.3  RSN  4 0.4 1.7LRSN                1
 GAP=238        1.05       8.3     7.7  9.5  0.2818E+02  0.1504E+02  0.1296E+00E
 Epicentro: BETULIA - SANTANDER                                                3
 ACTION:UPD 14-03-13 09:52 OP:ep   STATUS:               ID:20140108142708 L   I
 OLDACT:REG 14-01-08 14:59 OP:stll STATUS:               ID:20140108141811     3
 2014-01-08-1418-11M.COL___246                                                 6
 STAT SP IPHASW D HRMM SECON CODA AMPLIT PERI AZIMU VELO AIN AR TRES W  DIS CAZ7
 BAR2 SZ EP       1427 27.92                             164    0.6610 37.0 169 
 BAR2 SZ ES       1427 42.01                             164    0.3110 37.0 169 
 BAR2 SZ I        1427 43.55        16.4 0.26            162           37.0 169 
 BRR  HZ EP       1427 27.21                             156   -0.4910 55.6 292 
 BRR  HN ES       1427 42.25                             156   -0.2310 55.6 292 
 RUS  HN ES       1427 50.46                             137   -0.4910  115 171 
 PTB  HZ EP       1427 34.00                             131   -0.04 9  141 253 
 PTB  HN ES       1427 54.06                             131    0.28 9  141 253 
 PTB  HZ I        1427 57.10         4.4 0.36            130            141 253 
                                                                                
