 2016  6 8 1657 32.0 L   6.815 -73.177143.3  RSN  5 0.2 1.6LRSN                1
 GAP=144        0.57       3.7     3.5  4.8 -0.6709E+01  0.8158E+01 -0.3523E+01E
 Epicentro: ZAPATOCA - SANTANDER                                               3
 ACTION:UPD 16-07-21 22:16 OP:rebc STATUS:               ID:20160608165732 L   I
 OLDACT:DUP 16-06-09 00:34 OP:cara STATUS:               ID:20160608164744d    3
 OLDACT:REG 16-06-08 21:46 OP:edw  STATUS:               ID:20160608164743     3
 2016-06-08-1647-43M.COL___325                                                 6
 STAT SP IPHASW D HRMM SECON CODA AMPLIT PERI AZIMU VELO AIN AR TRES W  DIS CAZ7
 BAR2 EZ IP       1657 51.16                             170   -0.1810 24.6 181 
 BAR2 EZ ES       1658  6.55                             170    0.1110 24.6 181 
 BAR2 EZ I        1658  7.47        13.8 0.20                          24.6 181 
 PAM  EZ IP       1657 54.04                             150    0.0510 78.4  42 
 PAM  EN ES       1658 11.30                             150    0.1410 78.4  42 
 PAM  EZ I        1658 13.59         4.4 0.16                          78.4  42 
 RUS  HE ES       1658 13.92                             143   -0.1610  103 174 
 RUS  HZ I        1658 14.97         6.9 0.38                           103 174 
 PTB  HZ EP       1657 58.19                             132   -0.27 9  145 258 
 PTB  HN ES       1658 18.93                             132   -0.19 9  145 258 
 PTB  HZ I        1658 24.22         6.9 0.58                           145 258 
 NOR  HZ EP       1658  7.61                             118    0.24 8  233 234 
 NOR  HN ES       1658 35.41                             118    0.44 8  233 234 
 NOR  HZ I        1658 37.54         3.1 0.36                           233 234 
                                                                                
