 2016  6 8 1025 25.2 L   6.796 -73.151141.3  RSN 10 0.3 2.0LRSN                1
 GAP=136        0.83       2.5     3.7  4.6 -0.2907E+01  0.2306E+01  0.2145E+01E
 Epicentro: LOS SANTOS - SANTANDER                                             3
 ACTION:UPD 16-07-21 22:16 OP:rebc STATUS:               ID:20160608102525 L   I
 OLDACT:UP  16-06-08 22:44 OP:edw  STATUS:               ID:20160608101743     3
 OLDACT:UP  16-06-08 22:41 OP:edw  STATUS:               ID:20160608101743     3
 OLDACT:REG 16-06-08 21:00 OP:edw  STATUS:               ID:20160608101743     3
 2016-06-08-1017-43M.COL___328                                                 6
 STAT SP IPHASW D HRMM SECON CODA AMPLIT PERI AZIMU VELO AIN AR TRES W  DIS CAZ7
 BAR2 EZ EP       1025 44.10                             170   -0.1510 22.8 189 
 BAR2 EZ ES       1025 58.61                             170   -0.5310 22.8 189 
 BAR2 EZ I        1026  0.36        23.2 0.18                          22.8 189 
 BRR  HZ EP       1025 45.94                             152    0.1210 70.9 299 
 BRR  HE ES       1026  2.43                             152    0.5010 70.9 299 
 BRR  HZ I        1026  7.30        14.3 0.14                          70.9 299 
 PAM  EZ EP       1025 46.99                             150    0.0410 78.1  40 
 PAM  EN ES       1026  4.19                             150    0.2410 78.1  40 
 PAM  EZ I        1026  5.75        14.0 0.70                          78.1  40 
 RUS  HZ EP       1025 48.44                             143   -0.0110  100 176 
 RUS  HE ES       1026  6.60                             143   -0.0110  100 176 
 RUS  HZ I        1026  7.51         9.9 0.22                           100 176 
 PTB  HZ EP       1025 51.13                             131   -0.58 9  147 259 
 PTB  HN ES       1026 12.09                             131   -0.34 9  147 259 
 PTB  HZ I        1026 13.63         7.3 0.22                           147 259 
 OCA  HZ EP       1025 53.65                             128    0.48 9  161 353 
 OCA  HN ES       1026 14.66                             128   -0.35 9  161 353 
 OCA  HZ I        1026 18.78        24.5 0.18                           161 353 
 SPBC HZ EP       1025 53.06                             128   -0.20 9  162 219 
 SPBC HE ES       1026 15.80                             128    0.63 9  162 219 
 SPBC HZ I        1026 18.56        13.8 0.24                           162 219 
 NOR  HZ EP   4   1025 59.25                             118   -1.31 0  234 234 
 NOR  HE ES       1026 28.25                             118    0.08 8  234 234 
 NOR  HZ I        1026 29.75         6.9 0.14                           234 234 
 CHI  HZ EP       1026  2.42                             116   -0.13 8  248 195 
 CHI  HE ES       1026 31.78                             116    0.06 8  248 195 
 CHI  HZ I        1026 38.69         4.1 0.46                           248 195 
 PRA  HZ EP       1026 18.60                             106    0.15 6  391 210 
 PRA  HN ES       1027  0.27                             106    0.25 6  391 210 
 PRA  HZ I        1027  5.16         5.1 0.26                           391 210 
 PAL  HZ EP   4   1026 19.81                             105   -0.28 0  405 239 
 PAL  HN ES   4   1027 30.58                             105   27.64 0  405 239 
 SJC  HZ EP   4   1026 18.65                             105   -1.94 0  409 327 
 SJC  HN ES   4   1027  2.12                             105   -1.71 0  409 327 
                                                                                
