 2015  1 8 1054 51.5 L   7.288 -73.118  4.0  RSN  8 0.4 1.3LRSN                1
 GAP=115        0.98       4.0     2.7  9.4 -0.5331E+01  0.1589E+02 -0.2728E+02E
 Epicentro: RIONEGRO - SANTANDER                                               3
 ACTION:UPD 15-03-02 15:37 OP:nd   STATUS:               ID:20150108105451 L   I
 OLDACT:UP  15-01-08 22:34 OP:mh   STATUS:               ID:20150108104746     3
 OLDACT:REG 15-01-08 21:19 OP:mh   STATUS:               ID:20150108104746     3
 2015-01-08-1047-46M.COL___262                                                 6
 STAT SP IPHASW D HRMM SECON CODA AMPLIT PERI AZIMU VELO AIN AR TRES W  DIS CAZ7
 PAM  SZ IP     D 1054 59.76                              90    0.1310 46.5  83 
 PAM  SE ES       1055  5.56                              90   -0.4210 46.5  83 
 PAM  SZ I        1055  7.26         7.3 0.16             47           46.5  83 
 BRR  HZ EP       1055  2.17                              90   -0.3110 68.6 253 
 BAR2 EZ EP       1055  3.66                              90   -0.3810 77.3 185 
 BAR2 EZ I        1055 17.10         4.5 0.28             47           77.3 185 
 RUS  HZ EP       1055 16.60                              90    0.62 9  154 179 
 RUS  HN ES       1055 35.22                              90    0.13 9  154 179 
 RUS  HZ I        1055 36.37         3.3 0.16             47            154 179 
 PTB  HZ EP   1   1055 18.13                              90    0.35 7  170 241 
 PTB  HN ES       1055 37.95                              90   -0.35 9  170 241 
 PTB  HZ I        1055 38.95         6.8 0.30             47            170 241 
 ZAR  HZ EP       1055 21.62                              56    0.69 9  193 277 
 ZAR  HN ES       1055 43.44                              56   -0.46 9  193 277 
 ZAR  HZ I        1055 45.94         3.8 0.25             37            193 277 
 SML  HZ EP       1055 21.86                              56    0.43 9  198 328 
 SML  HN ES   1   1055 44.71                              56   -0.08 6  198 328 
 SML  HZ I        1055 49.43         7.3 0.13             37            198 328 
 SPBC HZ EP   4   1055 25.29                              56    2.25 0  210 210 
 SPBC HN ES   4   1055 51.30                              56    3.65 0  210 210 
 SPBC HZ I        1055 53.08         3.2 0.14             37            210 210 
                                                                                
