 2014 10 8 1045 22.7 L   6.746 -73.072138.4  RSN  4 0.1 1.3LRSN                1
 GAP=149        0.38       2.3     2.9  4.9  0.1276E+01  0.2397E+01 -0.9290E+00E
 Epicentro: JORDAN - SANTANDER                                                 3
 ACTION:UPD 14-11-29 23:47 OP:nd   STATUS:               ID:20141008104522 L   I
 OLDACT:DUP 14-10-08 23:17 OP:fm   STATUS:               ID:20141008103744d    3
 2014-10-08-1037-43M.COL___295                                                 6
 STAT SP IPHASW D HRMM SECON CODA AMPLIT PERI AZIMU VELO AIN AR TRES W  DIS CAZ7
 PAM  SZ EP   1   1045 43.98                             149   -0.18 7 77.5  32 
 PAM  SN ES   1   1046  1.04                             149    0.16 7 77.5  32 
 BRR  HZ EP   1   1045 43.57                             148   -0.12 7 81.2 299 
 BRR  HN ES   1   1045 59.99                             148   -0.06 7 81.2 299 
 BRR  HZ I        1046  2.18         6.9 0.50            145           81.2 299 
 RUS  HZ EP   1   1045 45.51                             144    0.21 7 94.4 181 
 RUS  HN ES       1046  2.85                             144   -0.0610 94.4 181 
 RUS  HZ I        1046  5.25         1.6 0.24            144           94.4 181 
 ZAR  HN ES   1   1046 21.61                             119    0.14 6  214 293 
 ZAR  HZ I        1046 25.97         2.7 0.32            119            214 293 
                                                                                
