 2016  1 8 1349 50.8 L   6.830 -73.123144.5  RSN 16 0.5 2.4LRSN                1
 GAP= 71        1.10       2.5     3.0  5.1 -0.5788E+00  0.3763E+01  0.1706E+01E
 Epicentro: LOS SANTOS - SANTANDER                                             3
 ACTION:UPD 16-03-09 23:23 OP:cam  STATUS:               ID:20160108134950 L   I
 OLDACT:REG 16-01-08 21:27 OP:ar   STATUS:               ID:20160108134750     3
 2016-01-08-1347-50M.COL___287                                                 6
 STAT SP IPHASW D HRMM SECON CODA AMPLIT PERI AZIMU VELO AIN AR TRES W  DIS CAZ7
 BAR2 EZ EP     C 1350 10.09                             169   -0.2310 27.1 194 
 BAR2 EZ ES       1350 25.53                             169   -0.0510 27.1 194 
 BAR2 EZ I        1350 26.51        28.6 0.28            168           27.1 194 
 BRR  HZ EP       1350 11.76                             152   -0.0510 72.0 295 
 BRR  HN ES       1350 28.90                             152    0.6610 72.0 295 
 BRR  HZ I        1350 33.20        29.3 0.38            150           72.0 295 
 PAM  EZ EP       1350 12.81                             152    0.2210 73.2  40 
 PAM  EN ES       1350 29.75                             152    0.1210 73.2  40 
 PAM  EZ I        1350 30.28        29.0 0.20            155           73.2  40 
 RUS  HZ EP       1350 14.18                             143   -0.4410  104 178 
 RUS  HN ES       1350 33.26                             143    0.0310  104 178 
 RUS  HZ I        1350 34.38        15.3 0.36            145            104 178 
 PTB  HZ EP       1350 16.84                             131   -1.07 9  151 258 
 PTB  HE ES       1350 38.54                             131   -0.55 9  151 258 
 PTB  HZ I        1350 42.31        39.2 0.46            131            151 258 
 TAM  HZ EP       1350 18.48                             130    0.29 9  154 106 
 TAM  HN ES       1350 39.87                             130    0.28 9  154 106 
 TAM  HZ I        1350 41.46        33.0 0.46            135            154 106 
 OCA  HZ EP       1350 19.13                             130    0.44 9  157 352 
 OCA  HN ES       1350 40.14                             130   -0.34 9  157 352 
 OCA  HZ I        1350 45.14        52.2 0.28            131            157 352 
 SPBC HZ EP       1350 19.16                             128   -0.40 9  167 219 
 SPBC HN ES       1350 41.87                             128   -0.16 9  167 219 
 SPBC HZ I        1350 47.90        33.7 0.20            129            167 219 
 ZAR  HZ EP       1350 23.85                             122    0.61 9  205 291 
 ZAR  HN ES       1350 47.84                             122   -0.74 9  205 291 
 ZAR  HZ I        1350 59.05        22.5 0.46            123            205 291 
 NOR  HZ EP       1350 26.82                             118   -0.03 8  239 234 
 NOR  HN ES       1350 55.26                             118    0.27 8  239 234 
 NOR  HZ I        1351  0.58        24.9 0.16            119            239 234 
 SML  HZ EP       1350 27.23                             117    0.13 8  242 334 
 SML  HN ES       1350 55.04                             117   -0.41 8  242 334 
 SML  HZ I        1350 58.97        26.1 0.10            119            242 334 
 CHI  HZ EP       1350 28.55                             116   -0.26 8  253 196 
 CHI  HN ES       1350 58.32                             116   -0.17 8  253 196 
 CHI  HZ I        1351  4.07        13.6 0.26            118            253 196 
 HEL  HZ EP       1350 32.03                             114    0.76 7  275 255 
 HEL  HN ES       1351  3.83                             114    0.96 7  275 255 
 HEL  HZ I        1351  8.84        12.9 0.52            115            275 255 
 SOCV BZ EP   4   1350 31.68                             112   -1.62 0  297  57 
 SOCV BN ES   4   1351  3.89                             112   -2.59 0  297  57 
 GUY2CHZ EP       1350 35.31                             112    0.55 7  305 235 
 GUY2CHN ES       1351  9.81                             112    0.73 7  305 235 
 GUY2CHZ I        1351 18.58        18.4 0.62                           305 235 
 VIL  SN ES       1351  8.31                             111   -0.39 7  307 192 
 PRA  HZ EP       1350 44.28                             106   -0.44 6  396 210 
 PRA  HN ES       1351 27.26                             106    0.45 6  396 210 
 PRA  HZ I        1351 30.96        14.7 0.30            107            396 210 
                                                                                
