 2010 11 8 1032 24.4 L   6.789 -73.101139.9  RSN  5 0.2 1.8LRSN                1
 GAP=164        0.57       3.2     7.2  6.3  0.1071E+02 -0.1906E+02 -0.8583E+01E
 Epicentro: LOS SANTOS - SANTANDER                                             3
 ACTION:UP  10-12-17 16:51 OP:REBC STATUS:               ID:20101108103224 L   I
 2010-11-08-1027-53S.COL___128                                                 6
 STAT SP IPHASW D HRMM SECON CODA AMPLIT PERI AZIMU VELO SNR AR TRES W  DIS CAZ7
 BAR2 SZ EP       1032 43.22                             170    -0.110   24 203 
 BAR2 SZ ES   2   1032 57.29                             170    -0.8 5   24 203 
 BAR2 SZ I        1032 59.20        20.9 0.29                            24 203 
 BRR  HZ EP       1032 45.17                             150     0.010   76 298 
 BRR  HZ I        1032 45.47        15.8 0.21                            76 298 
 BRR  HN ES       1033  1.47                             150     0.110   76 298 
 RUS  HZ EP   1   1032 47.24                             143    -0.2 7   99 179 
 RUS  HN ES       1033  5.65                             143     0.210   99 179 
 RUS  HZ I        1033  7.36         5.7 0.37                            99 179 
 GRA  SZ ES   2   1033  8.57                             136     0.2 5  126  15 
 OCA  SZ EP       1032 52.45                             128     0.0 9  162 351 
 OCA  SZ ES   2   1033 14.26                             128     0.0 5  162 351 
 OCA  SZ I        1033 19.39         5.8 0.31                           162 351 
                                                                                
