 2014  2 8 1032 41.3 L   6.803 -73.161143.6  RSN 22 0.4 2.4LRSN                1
 GAP= 70        0.85       2.1     2.4  4.4 -0.5784E+00  0.3384E+01  0.1362E+00E
 Epicentro: LOS SANTOS - SANTANDER                                             3
 ACTION:UPD 14-03-10 08:08 OP:ep   STATUS:               ID:20140208103241 L   I
 OLDACT:REG 14-02-08 14:18 OP:nd   STATUS:               ID:20140208103000     3
 2014-02-08-1030-00M.COL___291                                                 6
 STAT SP IPHASW D HRMM SECON CODA AMPLIT PERI AZIMU VELO AIN AR TRES W  DIS CAZ7
 BAR2 SZ EP       1033  0.83                             170    0.1310 23.4 186 
 BAR2 SZ ES       1033 15.64                             170   -0.1710 23.4 186 
 BAR2 SZ I        1033 18.80        66.7 0.48            166           23.4 186 
 PAM  SZ EP       1033  3.68                             150    0.3110 78.2  41 
 PAM  SN ES       1033 20.96                             150    0.4110 78.2  41 
 PAM  SZ I        1033 23.41        36.6 0.58            139           78.2  41 
 RUS  HZ EP       1033  4.65                             143   -0.2510  101 175 
 RUS  HN ES       1033 23.49                             143    0.2110  101 175 
 RUS  HZ I        1033 26.39        26.7 0.34            133            101 175 
 PTB  HZ EP       1033  7.56                             132   -0.42 9  146 259 
 PTB  HN ES       1033 28.19                             132   -0.57 9  146 259 
 PTB  HZ I        1033 31.04        35.4 0.36            124            146 259 
 TAM  HZ EP     C 1033  9.04                             130    0.04 9  157 105 
 TAM  HN ES       1033 30.43                             130   -0.14 9  157 105 
 TAM  HZ I        1033 43.48        15.9 0.36            118            157 105 
 OCA  HZ EP       1033  8.90                             129   -0.53 9  160 354 
 OCA  HN ES       1033 31.20                             129   -0.14 9  160 354 
 OCA  HZ I        1033 36.67        33.0 0.28            119            160 354 
 SPBC HZ EP       1033  9.74                             129    0.15 9  162 218 
 SPBC HN ES       1033 31.75                             129    0.13 9  162 218 
 SPBC HZ I        1033 37.73        38.1 0.16            120            162 218 
 ZAR  HZ EP       1033 13.35                             122   -0.11 9  202 292 
 ZAR  HN ES       1033 39.18                             122    0.66 9  202 292 
 ZAR  HZ I        1033 45.44        21.1 0.11            114            202 292 
 NOR  HZ EP       1033 16.81                             118    0.00 8  233 234 
 NOR  HN ES       1033 44.55                             118    0.07 8  233 234 
 NOR  HZ I        1033 48.63        28.5 0.18            110            233 234 
 SML  HZ EP       1033 17.27                             117   -0.46 8  243 336 
 SML  HN ES       1033 46.10                             117   -0.02 8  243 336 
 SML  HZ I        1033 48.82        35.3 0.10            108            243 336 
 CHI  HZ EP       1033 18.82                             117   -0.07 8  248 195 
 CHI  HN ES       1033 47.67                             117   -0.52 8  248 195 
 CHI  HZ I        1033 56.78         9.7 0.62            108            248 195 
 HEL  HZ EP       1033 22.08                             114    0.82 8  271 256 
 HEL  HN ES       1033 52.66                             114    0.26 8  271 256 
 HEL  HZ I        1033 59.21        13.1 0.32            107            271 256 
 URE  HZ EP   4   1033 20.82                             113   -1.29 0  282 292 
 URE  HN ES   4   1033 52.24                             113   -1.67 0  282 292 
 URE  HZ I        1034  6.10        12.3 0.18            105            282 292 
 VIL  SZ EP   4   1033 24.54                             112   -0.11 0  303 191 
 VIL  SN ES   4   1033 57.15                             112   -1.28 0  303 191 
 VIL  SZ I        1034  8.02        18.3 0.42            103            303 191 
 PTGC HZ EP   4   1033 23.55                             111   -1.64 0  310 158 
 PTGC HZ I        1033 48.46        18.6 0.34            103            310 158 
 PTGC HN ES   4   1033 55.78                             111   -3.62 0  310 158 
 CBOC HZ EP       1033 28.36                             110    0.38 7  332 252 
 CBOC HN ES       1034  3.89                             110   -0.48 7  332 252 
 CBOC HZ I        1034 11.42         5.0 0.28            102            332 252 
 DBB  SZ EP   4   1033 28.27                             109   -0.25 0  338 274 
 DBB  SZ ES   4   1034  4.23                             109   -1.10 0  338 274 
 DBB  SZ I        1034  8.90        10.2 0.68            102            338 274 
 COD  HZ EP   4   1033 29.52                             108   -0.05 0  348 355 
 COD  HN ES   4   1034  6.40                             108   -0.80 0  348 355 
 COD  HZ I        1034 13.71         4.5 0.38            101            348 355 
 ARGC HZ EP   4   1033 29.56                             108   -1.25 0  358 341 
 ARGC HZ I        1034  7.81        14.9 0.32            100            358 341 
 ARGC HN ES   4   1034  9.00                             108   -0.40 0  358 341 
 PRA  HZ EP       1033 35.56                             106    0.85 6  391 209 
 PRA  HN ES       1034 16.35                             106    0.00 6  391 209 
 PRA  HZ I        1034 21.47         9.1 0.32             99            391 209 
 ORTC HZ EP   4   1033 34.87                             106   -0.22 0  395 216 
 ORTC HN ES   4   1034 18.05                             106    1.03 0  395 216 
 ORTC HZ I        1034 24.67         7.2 0.38             99            395 216 
 SJC  HZ EP   4   1033 35.00                             105   -1.68 0  408 327 
 SJC  HN ES   4   1034 16.40                             105   -3.46 0  408 327 
 SJC  HZ I        1034 24.21         5.6 0.72             98            408 327 
                                                                                
