 2017 12 8 1101  4.0 L   6.784 -73.067135.9  RSN  7 0.4 1.8LRSN                1
 GAP= 90        1.10       4.9     5.0  8.4 -0.7751E+01 -0.5293E+01  0.1054E+02E
 Epicentro: LOS SANTOS - SANTANDER                                             3
 ACTION:UPD 18-01-04 13:18 OP:rebc STATUS:               ID:20171208110104 L   I
 OLDACT:UP  17-12-08 22:41 OP:leo  STATUS:               ID:20171208105746d    3
 OLDACT:DUP 17-12-08 22:37 OP:leo  STATUS:               ID:20171208105746d    3
 OLDACT:UP  17-12-08 22:36 OP:leo  STATUS:               ID:20171208105745d    3
 OLDACT:UP  17-12-08 22:31 OP:leo  STATUS:               ID:20171208105745d    3
 OLDACT:DUP 17-12-08 22:29 OP:leo  STATUS:               ID:20171208105745d    3
 2017-12-08-1058-00M.COL___473                                                 6
 STAT SP IPHASW D HRMM SECON CODA AMPLIT PERI AZIMU VELO AIN AR TRES W  DIS CAZ7
 BAR2 EZ EP       11 1 22.07                             169   -0.4310 24.7 211 
 BAR2 EZ ES       11 1 36.79                             169   -0.1210 24.7 211 
 BAR2 EZ I        11 1 38.13        15.6 0.30            170           24.7 211 
 PAM  EN EP       11 1 25.06                             150    0.0910 73.6  33 
 PAM  EN ES       11 1 41.87                             150    0.5710 73.6  33 
 PAM  EN I        11 1 43.26        12.0 0.40            151           73.6  33 
 TAM  HZ EP       11 1 30.19                             130    0.09 9  146 105 
 PTB  HZ EP       11 1 31.89                             128    0.90 9  156 260 
 PTB  HE ES       11 1 51.77                             128   -0.25 9  156 260 
 OCA  HN ES       11 1 53.05                             127   -0.56 9  163 350 
 SPBC HN ES       11 1 54.29                             126    0.10 9  167 222 
 YPLC HZ EP       11 1 32.13                             125   -0.43 9  171 154 
                                                                                
