 2017  1 8 1342  5.7 L   6.793 -73.106149.1  RSN  7 0.4 1.7LRSN                1
 GAP=142        0.68       3.6     3.6  4.8  0.2334E+01 -0.7723E+00 -0.9680E+00E
 Epicentro: LOS SANTOS - SANTANDER                                             3
 ACTION:UPD 17-05-22 15:57 OP:jn   STATUS:               ID:20170108134205 L   I
 OLDACT:UP  17-01-08 22:16 OP:and  STATUS:               ID:20170108133745     3
 OLDACT:UP  17-01-08 22:15 OP:and  STATUS:               ID:20170108133745     3
 OLDACT:REG 17-01-08 20:00 OP:and  STATUS:               ID:20170108133745     3
 2017-01-08-1338-00M.COL___374                                                 6
 STAT SP IPHASW D HRMM SECON CODA AMPLIT PERI AZIMU VELO AIN AR TRES W  DIS CAZ7
 BAR2 EZ IP     C 1342 25.51                             171   -0.1810 23.7 201 
 BAR2 EZ ES       1342 41.32                             171   -0.0010 23.7 201 
 BAR2 EZ I        1342 42.26        13.6 0.36            174           23.7 201 
 PAM  EZ EP       1342 28.26                             152    0.1510 75.4  37 
 PAM  EN ES       1342 45.64                             152    0.0210 75.4  37 
 PAM  EZ I        1342 50.37         3.7 0.18            151           75.4  37 
 BRR  HZ IP     C 1342 27.37                             152   -0.0310 75.4 298 
 BRR  HN ES       1342 44.85                             152    0.4910 75.4 298 
 BRR  HZ I        1342 49.76         8.0 0.18            150           75.4 298 
 RUS  HZ EP       1342 29.74                             145    0.0810 99.6 179 
 RUS  HN ES     D 1342 48.17                             145   -0.2210 99.6 179 
 RUS  HZ I        1342 49.32         9.0 0.44            150           99.6 179 
 PTB  HZ EP   9   1342 32.35                             132   -0.91 0  152 259 
 PTB  HN ES       1342 53.85                             131   -0.04 9  152 259 
 PTB  HZ I        1342 55.19         7.1 0.14            134            152 259 
 ZAR  HZ EP   4   1342 42.59                             123    3.83 0  208 292 
 ZAR  HE ES       1343  4.06                             123   -0.52 8  208 292 
 ZAR  HZ I        1343 10.63         9.6 0.32            123            208 292 
 GUY2CHZ EP   3   1342 51.64                             113    1.88 2  304 235 
 GUY2CHN ES   4   1343 27.95                             113    3.78 0  304 235 
 GUY2CHZ  IAML    1343 34.28         2.2 0.32                           304 235 
                                                                                
