 2017  2 8 1503 24.7 L   6.792 -73.160145.6  RSN 19 0.5 2.7LRSN                1
 GAP=100        0.99       3.5     2.8  4.7  0.1151E+01  0.3369E+01  0.2325E+01E
 Epicentro: LOS SANTOS - SANTANDER                                             3
 ACTION:UPD 17-05-24 15:34 OP:jn   STATUS:               ID:20170208150324 L   I
 OLDACT:UP  17-02-08 22:31 OP:and  STATUS:               ID:20170208145747     3
 OLDACT:UP  17-02-08 22:30 OP:and  STATUS:               ID:20170208145747     3
 OLDACT:UP  17-02-08 22:30 OP:and  STATUS:               ID:20170208145747     3
 OLDACT:UP  17-02-08 22:30 OP:and  STATUS:               ID:20170208145747     3
 OLDACT:UP  17-02-08 22:24 OP:and  STATUS:               ID:20170208145747     3
 OLDACT:UP  17-02-08 22:23 OP:and  STATUS:               ID:20170208145747     3
 OLDACT:UP  17-02-08 22:20 OP:and  STATUS:               ID:20170208145747     3
 OLDACT:REG 17-02-08 20:25 OP:and  STATUS:               ID:20170208145747     3
 2017-02-08-1458-00M.COL___349                                                 6
 STAT SP IPHASW D HRMM SECON CODA AMPLIT PERI AZIMU VELO AIN AR TRES W  DIS CAZ7
 BAR2 EZ IP     C 15 3 44.25                             171   -0.0110 22.2 186 
 BAR2 EZ ES       15 3 59.01                             171   -0.5310 22.2 186 
 BAR2 EZ I        15 4  2.92        89.6 0.18            167           22.2 186 
 BRR  HZ IP     C 15 3 46.03                             153    0.2810 70.2 300 
 BRR  HN ES       15 4  2.92                             153    0.7310 70.2 300 
 BRR  HZ I        15 4  5.44       130.0 0.16            150           70.2 300 
 PAM  EZ IP     C 15 3 46.96                             150   -0.0110 79.1  40 
 PAM  EN ES       15 4  3.97                             150   -0.3910 79.1  40 
 PAM  EZ I        15 4  4.78        55.2 0.18            155           79.1  40 
 RUS  HZ EP       15 3 48.27                             144   -0.0810 99.8 175 
 RUS  HN ES       15 4  6.99                             144    0.1710 99.8 175 
 RUS  HZ I        15 4  8.32        60.2 0.24            143           99.8 175 
 PTB  HZ EP       15 3 51.03                             132   -0.44 9  146 259 
 PTB  HN ES       15 4 11.82                             132   -0.55 9  146 259 
 PTB  HZ I        15 4 15.56        66.1 0.13            130            146 259 
 TAM  HZ IP     C 15 3 52.68                             130    0.22 9  156 105 
 TAM  HN ES       15 4 14.55                             130    0.42 9  156 105 
 TAM  HZ I        15 4 14.91        55.4 0.24            134            156 105 
 ZAR  HZ EP       15 3 57.03                             122    0.04 9  203 293 
 ZAR  HE ES       15 4 22.48                             122    0.29 9  203 293 
 ZAR  HZ I        15 4 29.49        77.8 0.16            122            203 293 
 CHI  HZ EP       15 4  2.75                             117    0.53 8  247 195 
 CHI  HN ES       15 4 31.58                             117    0.07 8  247 195 
 CHI  HZ I        15 4 35.77        19.3 0.32            117            247 195 
 ROSC BN ES   4   15 4 34.99                             117    2.79 0  251 211 
 ROSC BZ I        15 4 39.13        52.4 0.35            116            251 211 
 URE  HZ EP       15 4  4.76                             114   -0.85 7  283 292 
 URE  HN ES   4   15 4 35.82                             114   -1.71 0  283 292 
 URE  HZ I        15 4 47.10        60.2 0.18            113            283 292 
 PTGC HZ EP       15 4  7.63                             111   -0.86 7  308 158 
 PTGC HN ES   3   15 4 41.44                             111   -1.23 2  308 158 
 PTGC HZ I        15 4 43.64        33.6 0.38            112            308 158 
 LL6C HN EP   9   15 3 50.71                             110   -19.7 0  326 358 
 LL6C HE ES   4   15 4 28.53                                    2.11 0  326 358 
 CBOC HZ EP       15 4 12.21                             110    0.83 7  332 252 
 CBOC HN ES   3   15 4 49.29                             110    1.49 2  332 252 
 CBOC HZ I        15 5  5.22         8.9 0.66            109            332 252 
 DBB  EZ EP       15 4 11.88                             109   -0.09 7  338 274 
 DBB  EN ES       15 4 48.89                             109    0.03 7  338 274 
 DBB  EZ I        15 4 51.97        10.5 0.22            109            338 274 
 ANIL HZ EP   9   15 4 18.00                             108    3.73 0  356 224 
 ANIL HN ES       15 4 57.09                                    0.41 6  356 224 
 ANIL HZ I        15 5  0.56        50.0 0.34            108            356 224 
 PRA  HZ EP   9   15 4 16.76                             106   -1.25 0  390 209 
 PRA  HN ES       15 4 57.56                             107   -0.80 6  390 209 
 PRA  HZ I        15 5  1.63        21.1 0.22            106            390 209 
 ORTC HZ EP   9   15 4 19.80                             106    1.41 0  394 216 
 ORTC HN ES       15 5  2.29                             106    0.59 6  394 216 
 ORTC HZ I        15 5  8.58        13.4 0.25            106            394 216 
 PAL  HZ IP     C 15 4 20.08                             106    0.47 6  404 239 
 PAL  HN ES       15 5  2.22                             106   -0.25 6  404 239 
 PAL  HZ I        15 5  4.84         8.5 0.42            106            404 239 
 SJC  HZ EP   4   15 4 18.57                             106   -1.64 0  409 327 
 SJC  HN ES   4   15 4 59.53                             106   -4.00 0  409 327 
 SJC  HZ I        15 5  8.10         8.6 0.28            106            409 327 
 CRJC HZ EP   4   15 4 24.51                             103   -2.77 0  469   4 
 CRJC HN ES   4   15 5 11.50                             103   -4.62 0  469   4 
 CRJC HZ I        15 5 15.21        10.8 0.40            104            469   4 
                                                                                
