 2012  4 8 1042 55.9 L   6.717 -73.199147.7  RSN  4 0.3 1.1LRSN                1
 GAP=225        0.65       8.1     8.3  8.2  0.3761E+02  0.1067E+02  0.5008E+01E
 Epicentro: VILLANUEVA - SANTANDER                                             3
 ACTION:UPD 12-07-05 11:51 OP:tino STATUS:               ID:20120408104255 L   I
 2012-04-08-1040-00M.COL___196                                                 6
 STAT SP IPHASW D HRMM SECON CODA AMPLIT PERI AZIMU VELO AIN AR TRES W  DIS CAZ7
 BAR2 SZ ES   2   1043 30.28                             174    -0.7 5   14 172 
 BRR  HZ EP       1043 17.24                             153     0.010   71 307 
 BRR  HZ I        1043 21.09         5.5 0.48                            71 307 
 BRR  HN ES   2   1043 34.53                             153     0.6 5   71 307 
 RUS  HZ EP       1043 19.31                             147     0.110   92 172 
 RUS  HN ES   2   1043 37.78                             147     0.3 5   92 172 
 RUS  HZ I        1043 38.85         1.1 0.46                            92 172 
 PTB  HZ EP       1043 22.25                             134    -0.1 9  140 262 
 PTB  HN ES   2   1043 42.93                             134    -0.1 5  140 262 
 PTB  HZ I        1043 48.84         1.0 0.34                           140 262 
                                                                                
