 2014 10 8 1656 48.5 L   6.757 -73.028136.6  RSN  4 0.5 1.4LRSN                1
 GAP=154        0.94       6.6    10.6 11.7 -0.9812E+01 -0.3300E+02  0.1135E+02E
 Epicentro: CEPITA - SANTANDER                                                 3
 ACTION:UPD 14-11-29 23:47 OP:nd   STATUS:               ID:20141008165648 L   I
 OLDACT:REG 14-10-08 22:18 OP:fm   STATUS:               ID:20141008164748     3
 2014-10-08-1647-48M.COL___292                                                 6
 STAT SP IPHASW D HRMM SECON CODA AMPLIT PERI AZIMU VELO AIN AR TRES W  DIS CAZ7
 BAR2 SZ EP   1   1657  7.29                             169    0.23 7 24.9 223 
 BAR2 SZ ES   1   1657 22.40                             169    0.86 7 24.9 223 
 BAR2 SZ I        1657 24.58         8.5 0.36            169           24.9 223 
 PAM  SZ EP   1   1657  9.46                             150   -0.08 7 74.0  29 
 PAM  SN ES   1   1657 25.72                             150   -0.22 7 74.0  29 
 PAM  SZ I        1657 29.60         4.9 0.56            154           74.0  29 
 BRR  HN ES   1   1657 25.60                             146   -0.34 7 84.9 297 
 BRR  HZ I        1657 31.17        12.7 0.40            147           84.9 297 
 RUS  HZ EP   1   1657 11.28                             143    0.28 7 95.8 184 
 RUS  HE ES   1   1657 27.83                             143   -0.72 7 95.8 184 
 RUS  HZ I        1657 31.40         1.6 0.38            148           95.8 184 
                                                                                
