 2011  7 8 1020  9.5 L   7.391 -73.100137.2  RSN  4 0.3 1.8LRSN                1
 GAP=202        0.61       7.8     8.5  7.4 -0.4708E+02 -0.6580E+01  0.4954E+01E
 Epicentro: MATANZA - SANTANDER                                                3
 ACTION:UPD 12-07-25 13:59 OP:epov STATUS:               ID:20110708102009 L   I
 2011-07-08-1020-00M.COL___130                                                 6
 STAT SP IPHASW D HRMM SECON CODA AMPLIT PERI AZIMU VELO AIN AR TRES W  DIS CAZ7
 BRI  SZ EP   2   1020 29.19                             159    0.33 5 49.1  43 
 GRA  SZ EP       1020 29.80                             154    0.2610 63.6  31 
 GRA  SZ ES   1   1020 44.81                             154   -0.35 7 63.6  31 
 GRA  SZ I        1020 47.12        14.1 0.30                          63.6  31 
 BRR  HZ EP       1020 29.62                             150   -0.3210 74.5 245 
 BRR  HE ES   1   1020 46.19                             150    0.31 7 74.5 245 
 BRR  HZ I        1020 48.80        18.5 0.14                          74.5 245 
 OCA  SZ EP       1020 31.66                             143   -0.0210 96.8 346 
 OCA  SZ ES   2   1020 49.03                             143    0.07 5 96.8 346 
 OCA  SZ I        1020 52.32         8.4 0.36                          96.8 346 
                                                                                
