 2011  6 8 1054 36.4 L   6.874 -73.184135.5  RSN  5 0.1 1.5LRSN                1
 GAP=128        0.39       2.9     6.0  4.6 -0.7755E+01  0.9596E+01 -0.4247E+01E
 Epicentro: ZAPATOCA - SANTANDER                                               3
 ACTION:UP  11-07-14 19:04 OP:ep   STATUS:               ID:20110608105436 L   I
 2011-06-08-1049-53S.COL___121                                                 6
 STAT SP IPHASW D HRMM SECON CODA AMPLIT PERI AZIMU VELO SNR AR TRES W  DIS CAZ7
 BAR2 SZ EP   1   1054 54.97                             166     0.0 7   31 180 
 BAR2 SZ ES   1   1055  9.35                             166    -0.2 7   31 180 
 BAR2 SZ I        1055 15.30         7.2 0.36                            31 180 
 BRR  HZ EP   1   1054 56.15                             153     0.1 7   64 294 
 BRR  HZ I        1055 15.45        14.9 0.13                            64 294 
 PAM  SZ EP   1   1054 57.28                             150    -0.1 7   74  46 
 PAM  SE ES   1   1055 13.85                             150     0.2 7   74  46 
 BRI  SZ EP   1   1054 58.68                             141    -0.2 7  103  25 
 BRI  SZ I        1054 58.99         6.3 0.14                           103  25 
 RUS  HZ EP   1   1054 59.92                             139     0.1 7  109 174 
 RUS  HN ES   1   1055 18.10                             139     0.0 7  109 174 
 RUS  HZ I        1055 22.26         1.9 0.27                           109 174 
                                                                                
