 2010 11 8 1652  4.3 L   6.741 -73.136145.3  RSN  5 0.2 1.9LRSN                1
 GAP=182        0.67       8.3    10.6 10.8  0.1870E+02 -0.8135E+02 -0.3031E+02E
 Epicentro: JORDAN - SANTANDER                                                 3
 ACTION:UP  10-12-17 16:51 OP:REBC STATUS:               ID:20101108165204 L   I
 2010-11-08-1649-20S.COL___128                                                 6
 STAT SP IPHASW D HRMM SECON CODA AMPLIT PERI AZIMU VELO SNR AR TRES W  DIS CAZ7
 BAR2 SZ EP       1652 23.79                             173     0.110   17 198 
 BAR2 SZ ES   2   1652 38.87                             173     0.0 5   17 198 
 BAR2 SZ I        1652 40.93        15.0 0.49                            17 198 
 BTL  SZ EP       1652 23.91                             170     0.010   24 323 
 BRR  HZ EP       1652 25.58                             151     0.010   75 303 
 BRR  HN ES       1652 42.25                             151     0.010   75 303 
 BRR  HZ I        1652 44.03        26.8 0.08                            75 303 
 GUE  SZ EP   1   1652 30.00                             138     0.6 7  123  11 
 GRA  SZ EP       1652 29.62                             136    -0.410  132  16 
 GRA  SZ I        1652 50.46         6.2 0.25                           132  16 
                                                                                
