 2015  5 8 1826 41.4 L   6.785 -73.026139.9  RSN  4 0.3 1.7LRSN                1
 GAP=195        0.86       8.4    16.2  9.3  0.1068E+03 -0.8967E+02 -0.4563E+02E
 Epicentro: CEPITA - SANTANDER                                                 3
 ACTION:UPD 15-09-10 22:02 OP:cam  STATUS:               ID:20150508182641 L   I
 OLDACT:DUP 15-05-09 00:27 OP:stll STATUS:               ID:20150508181748d    3
 2015-05-08-1817-47M.COL___276                                                 6
 STAT SP IPHASW D HRMM SECON CODA AMPLIT PERI AZIMU VELO AIN AR TRES W  DIS CAZ7
 BAR2 EZ EP       1827  0.45                             169    0.0010 27.5 219 
 BAR2 EZ ES       1827 15.44                             169    0.1610 27.5 219 
 BAR2 EZ I        1827 16.68        16.4 0.16            170           27.5 219 
 BRR  HZ EP       1827  2.40                             147   -0.3310 83.8 295 
 BRR  HN ES       1827 19.50                             147    0.1610 83.8 295 
 RUS  HZ EP       1827  5.05                             143    0.5710 98.9 184 
 RUS  HN ES       1827 22.00                             143   -0.4610 98.9 184 
 RUS  HZ I        1827 24.13         5.2 0.28            144           98.9 184 
 OCA  HZ EP   1   1827  9.45                             127   -0.20 7  164 349 
                                                                                
