 2010 11 8 1119 57.0 L   6.764 -73.083139.1  RSN  5 0.2 1.8LRSN                1
 GAP=166        0.53       3.7     5.7  5.0  0.2586E+01  0.1309E+00 -0.1970E+01E
 Epicentro: LOS SANTOS - SANTANDER                                             3
 ACTION:UP  10-12-17 16:51 OP:REBC STATUS:               ID:20101108111957 L   I
 2010-11-08-1115-06S.COL___128                                                 6
 STAT SP IPHASW D HRMM SECON CODA AMPLIT PERI AZIMU VELO SNR AR TRES W  DIS CAZ7
 BAR2 SZ EP       1120 15.88                             171     0.010   22 210 
 BAR2 SZ ES   1   1120 30.70                             171     0.2 7   22 210 
 BAR2 SZ I        1120 32.23        23.8 0.17                            22 210 
 BRR  HZ EP       1120 17.93                             149     0.010   79 299 
 BRR  HN ES   1   1120 34.23                             149     0.0 7   79 299 
 BRR  HZ I        1120 38.05        12.6 0.18                            79 299 
 RUS  HZ EP   1   1120 19.76                             144    -0.1 7   96 180 
 RUS  HN ES   1   1120 37.47                             144    -0.1 7   96 180 
 RUS  HZ I        1120 39.74         4.3 0.92                            96 180 
 GRA  SZ EP   1   1120 21.74                             135    -0.1 7  128  14 
 GRA  SZ I        1120 42.50         6.7 0.30                           128  14 
 RREF HZ EP   1   1120 43.80                             109     0.6 5  325 231 
 RREF HN ES   2   1121 18.52                             109    -0.7 3  325 231 
 RREF HZ I        1121 24.77         3.5 0.61                           325 231 
                                                                                
