 2012  6 8 1825 27.8 L   6.798 -73.190146.4  RSN  4 0.2 1.5LRSN                1
 GAP=241        0.39       7.0     4.5  5.8  0.1622E+02  0.3373E+01 -0.5688E+01E
 Epicentro: ZAPATOCA - SANTANDER                                               3
 ACTION:UPD 12-08-06 17:48 OP:ep   STATUS:               ID:20120608182525 L   I
 2012-06-08-1820-00M.COL___201                                                 6
 STAT SP IPHASW D HRMM SECON CODA AMPLIT PERI AZIMU VELO AIN AR TRES W  DIS CAZ7
 BAR2 SZ EP       1825 47.39                             171   -0.1010 22.7 178 
 BAR2 SZ ES   2   1826  2.96                             171    0.12 5 22.7 178 
 BAR2 SZ I        1826  4.99        10.4 0.26            167           22.7 178 
 RUS  HZ EP       1825 51.79                             144    0.1710  101 173 
 RUS  HN ES   2   1826 10.06                             144   -0.14 5  101 173 
 PTB  HZ EP       1825 54.29                             133   -0.09 9  143 259 
 PTB  HN ES   2   1826 15.00                             133   -0.11 5  143 259 
 PTB  HZ I        1826 20.07         2.6 0.40            133            143 259 
 ZAR  HN ES   3   1826 25.57                             123    0.76 2  200 293 
                                                                                
