 2014  7 8 1449 20.0 L   6.790 -73.156151.0  RSN  6 0.4 2.0LRSN                1
 GAP=236        0.98       5.5     5.8  6.9  0.1311E+02  0.5947E+01 -0.8301E-01E
 Epicentro: LOS SANTOS - SANTANDER                                             3
 ACTION:UPD 15-03-16 20:42 OP:nd   STATUS:               ID:20140708144920 L   I
 OLDACT:UP  14-07-09 00:33 OP:cam  STATUS:               ID:20140708144842     3
 OLDACT:REG 14-07-08 23:41 OP:cam  STATUS:               ID:20140708144842     3
 2014-07-08-1448-42M.COL___265                                                 6
 STAT SP IPHASW D HRMM SECON CODA AMPLIT PERI AZIMU VELO AIN AR TRES W  DIS CAZ7
 BAR2 SZ EP       1449 40.23                             171   -0.0310 22.1 188 
 BAR2 SZ ES       1449 55.58                             171   -0.4610 22.1 188 
 BAR2 SZ I        1449 56.46        42.1 0.22            169           22.1 188 
 BRR  HZ IP     D 1449 42.00                             153    0.2810 70.8 300 
 BRR  HN ES       1449 59.20                             153    0.5710 70.8 300 
 BRR  HZ I        1450  2.34        18.3 0.32            150           70.8 300 
 RUS  HZ EP       1449 44.39                             145    0.1710 99.6 175 
 RUS  HN ES       1450  2.93                             145   -0.1610 99.6 175 
 RUS  HZ I        1450  3.78        11.8 0.24            147           99.6 175 
 PTB  HZ EP       1449 46.81                             133   -0.50 9  146 259 
 PTB  HN ES       1450  8.14                             133   -0.45 9  146 259 
 PTB  HZ I        1450 12.84         8.5 0.34            132            146 259 
 SPBC HZ EP       1449 49.17                             130    0.39 9  162 219 
 SPBC HE ES       1450 11.62                             130    0.40 9  162 219 
 SPBC HZ I        1450 14.19        14.2 0.28            130            162 219 
 ZAR  HZ EP   1   1449 51.99                             124   -0.76 6  203 293 
 ZAR  HN ES       1450 18.43                             124    0.15 9  203 293 
 ZAR  HZ I        1450 23.90        11.9 0.30            123            203 293 
                                                                                
