 2011  6 8 1910 17.8 L   6.733 -73.115147.5  RSN  7 0.2 1.9LRSN                1
 GAP=143        0.43       2.7     4.7  4.9 -0.5707E+01 -0.8615E+00  0.1519E+01E
 Epicentro: JORDAN - SANTANDER                                                 3
 ACTION:UP  11-07-14 19:04 OP:ep   STATUS:               ID:20110608191017 L   I
 2011-06-08-1906-43S.COL___120                                                 6
 STAT SP IPHASW D HRMM SECON CODA AMPLIT PERI AZIMU VELO SNR AR TRES W  DIS CAZ7
 BAR2 SZ EP   1   1910 37.38                             173    -0.2 7   17 206 
 BAR2 SZ ES   2   1910 53.09                             173     0.1 5   17 206 
 BAR2 SZ I        1910 54.95        12.9 0.19                            17 206 
 BRR  HZ EP   1   1910 39.66                             151     0.1 7   78 302 
 BRR  HZ I        1910 42.07        18.1 0.17                            78 302 
 BRR  HE ES   2   1910 56.62                             151     0.1 5   78 302 
 PAM  SZ EP   1   1910 40.63                             150     0.2 7   81  34 
 PAM  SE ES   2   1910 57.76                             150    -0.4 5   81  34 
 RUS  HZ EP       1910 41.19                             146     0.010   93 178 
 RUS  HE ES   2   1910 59.76                             146     0.3 5   93 178 
 RUS  HZ I        1911  0.65        18.2 0.60                            93 178 
 BRI  SZ EP   1   1910 42.47                             140     0.1 7  114  18 
 BRI  SZ ES   2   1911  0.98                             140    -0.5 5  114  18 
 BRI  SZ I        1911  3.12         9.3 0.35                           114  18 
 GRA  SZ EP   1   1910 43.72                             136     0.0 7  132  15 
 GRA  SZ ES   1   1911  4.12                             136     0.2 7  132  15 
 GRA  SZ I        1911  5.87         7.9 0.33                           132  15 
 NOR  SE ES   2   1911 21.06                             119    -0.3 4  233 236 
                                                                                
