 2013  3 8 1630  3.5 L   6.762 -73.129143.7  RSN  5 0.4 1.7LRSN                1
 GAP=140        0.98       9.3     5.8  8.8 -0.2443E+02 -0.2413E+01  0.2724E+02E
 Epicentro: LOS SANTOS - SANTANDER                                             3
 ACTION:UPD 13-04-09 14:00 OP:ep   STATUS:               ID:20130308163003 L   I
 2013-03-08-1630-00M.COL___231                                                 6
 STAT SP IPHASW D HRMM SECON CODA AMPLIT PERI AZIMU VELO AIN AR TRES W  DIS CAZ7
 BAR2 SZ ES   1   1630 37.38                             172   -0.50 7 19.7 197 
 BAR2 SZ I        1630 40.06        13.7 0.30            172           19.7 197 
 BRR  HZ EP       1630 24.83                             151    0.1910 74.8 301 
 BRR  HN ES       1630 41.65                             151    0.5210 74.8 301 
 BRR  HN I        1630 45.68        15.1 0.19            150           74.8 301 
 PAM  SZ EP       1630 25.50                             150   -0.1310 79.6  37 
 PAM  SN ES       1630 42.73                             150   -0.1610 79.6  37 
 PAM  SZ I        1630 45.01         8.3 0.70            153           79.6  37 
 RUS  HZ EP   1   1630 27.55                             145    0.81 7 96.3 177 
 PTB  HZ EP       1630 29.95                             131   -0.45 9  149 261 
 PTB  HE ES       1630 51.14                             131   -0.23 9  149 261 
 PTB  HZ I        1630 55.90         3.5 0.20            133            149 261 
                                                                                
