 2015  8 8 1104 26.6 L   6.823 -73.052146.6  RSN  7 0.4 1.6LRSN                1
 GAP=193        0.98       3.4     5.9  6.4  0.3146E+01  0.5890E+01 -0.3671E+01E
 Epicentro: LOS SANTOS - SANTANDER                                             3
 ACTION:UPD 15-09-15 23:00 OP:cam  STATUS:               ID:20150808110426 L   I
 OLDACT:REG 15-08-08 20:18 OP:drio STATUS:               ID:20150808105749     3
 2015-08-08-1057-49M.COL___352                                                 6
 STAT SP IPHASW D HRMM SECON CODA AMPLIT PERI AZIMU VELO AIN AR TRES W  DIS CAZ7
 BAR2 EZ EP       11 4 46.71                             168    0.2310 29.2 209 
 BAR2 EZ ES       11 5  1.69                             168   -0.2810 29.2 209 
 BAR2 EZ I        11 5  4.15         7.4 0.46            172           29.2 209 
 BRR  HZ EP       11 4 48.46                             150    0.1310 79.4 293 
 BRR  HN ES       11 5  5.69                             150    0.4210 79.4 293 
 RUS  HZ EP       11 4 50.35                             143   -0.2610  103 182 
 RUS  HE ES       11 5  9.16                             143   -0.1710  103 182 
 RUS  HZ I        11 5 10.32         2.5 0.32            147            103 182 
 OCA  HZ EP       11 4 55.68                             130    0.78 9  159 349 
 OCA  HN ES       11 5 17.12                             130    0.15 9  159 349 
 OCA  HZ I        11 5 23.08        12.5 0.30            130            159 349 
 ZAR  HN ES       11 5 26.06                             121   -0.01 8  213 290 
 SML  HZ EP       11 5  3.03                             117   -0.50 8  246 333 
 SML  HE ES       11 5 31.38                             117   -0.95 8  246 333 
 SML  HZ I        11 5 36.93         4.8 0.10            118            246 333 
 GUY2CHZ EP       11 5 11.59                             112    0.21 7  311 236 
 GUY2CHN ES       11 5 46.24                             112   -0.06 7  311 236 
 GUY2CHZ I        11 5 50.73         1.2 0.26                           311 236 
                                                                                
