 2010  9 8 1916 57.3 L   6.790 -73.069148.8  RSN  8 0.5 1.9LRSN                1
 GAP=167        1.09       7.8    17.0 13.1 -0.3199E+02 -0.3239E+02 -0.6027E+00E
 Epicentro: LOS SANTOS - SANTANDER                                             3
 ACTION:UP  11-02-18 11:01 OP:tino STATUS:               ID:20100908191657 L   I
 2010-09-08-1913-23S.COL___120                                                 6
 STAT SP IPHASW D HRMM SECON CODA AMPLIT PERI AZIMU VELO SNR AR TRES W  DIS CAZ7
 BAR2 SZ EP   1   1917 17.28                             170     0.0 7   25 210 
 BAR2 SZ ES   2   1917 32.50                             170    -0.4 5   25 210 
 BAR2 SZ I        1917 33.75        28.9 0.23                            25 210 
 BTL  SZ EP   1   1917 17.61                             170     0.3 7   26 303 
 GIR2 SZ EP   1   1917 18.41                             166     1.0 7   35 337 
 BRR  HZ EP   1   1917 18.78                             150    -0.4 7   79 296 
 BRR  HE ES   2   1917 36.42                             150     0.1 5   79 296 
 BRR  HZ I        1917 38.81        20.3 0.28                            79 296 
 RUS  HZ EP   1   1917 21.21                             145     0.0 7   99 181 
 RUS  HE ES   2   1917 39.86                             145    -0.1 5   99 181 
 RUS  HZ I        1917 40.93         7.3 0.24                            99 181 
 GUE  SZ EP   1   1917 22.82                             140     0.6 7  116   8 
 GRA  SZ EP   1   1917 21.75                             138    -0.9 7  125  14 
 GRA  SZ ES   2   1917 42.14                             138    -0.4 5  125  14 
 GRA  SZ I        1917 46.29         7.8 0.19                           125  14 
 PRA  HZ EP   1   1917 50.91                             107    -0.4 4  395 211 
                                                                                
