 2012  1 8 1422 13.5 L   6.733 -73.161150.0  RSN  5 0.2 1.5LRSN                1
 GAP=180        0.44       4.5     4.3  6.5  0.4580E+01 -0.9215E+01 -0.1110E+01E
 Epicentro: VILLANUEVA - SANTANDER                                             3
 ACTION:UP  12-02-03 08:15 OP:REBC STATUS:               ID:20120108142213 L   I
 2012-01-08-1420-00M.COL___186                                                 6
 STAT SP IPHASW D HRMM SECON CODA AMPLIT PERI AZIMU VELO SNR AR TRES W  DIS CAZ7
 BAR2 SZ EP       1422 33.43                             174     0.010   16 189 
 BAR2 SZ ES   3   1422 48.70                             174    -0.4 2   16 189 
 BAR2 SZ I        1422 50.50         6.1 0.78                            16 189 
 GIR2 SZ EP       1422 33.64                             165    -0.210   38 355 
 BRR  HZ EP       1422 35.30                             153     0.110   74 304 
 BRR  HZ I        1422 35.53        12.5 0.52                            74 304 
 BRR  HN ES   1   1422 52.42                             153     0.3 7   74 304 
 RUS  HZ EP   1   1422 37.28                             147     0.2 7   93 175 
 RUS  HN ES   2   1422 55.68                             147     0.1 5   93 175 
 RUS  HZ I        1422 56.87         3.5 0.42                            93 175 
 PTB  HZ EP   2   1422 40.55                             134     0.0 5  145 262 
 PTB  HN ES   1   1423  1.41                             134    -0.2 7  145 262 
                                                                                
