 2016  4 8 1838 14.6 L   6.777 -73.136139.9  RSN  5 0.1 1.8LRSN                1
 GAP=178        0.42       2.7     4.7  3.1 -0.9335E+01  0.3216E+01  0.3009E+00E
 Epicentro: LOS SANTOS - SANTANDER                                             3
 ACTION:UPD 16-05-05 14:19 OP:rebc STATUS:               ID:20160408183814 L   I
 OLDACT:DUP 16-04-08 22:58 OP:drio STATUS:               ID:20160408182753d    3
 2016-04-08-1827-51M.COL___271                                                 6
 STAT SP IPHASW D HRMM SECON CODA AMPLIT PERI AZIMU VELO AIN AR TRES W  DIS CAZ7
 BAR2 EZ EP       1838 33.33                             171   -0.1210 21.1 194 
 BAR2 EZ ES       1838 48.14                             171   -0.0410 21.1 194 
 BAR2 EZ I        1838 50.02        13.8 0.34            168           21.1 194 
 PAM  EZ EP       1838 36.33                             149    0.0810 78.7  38 
 PAM  EN ES       1838 53.11                             149   -0.0410 78.7  38 
 PAM  EZ I        1838 55.49        11.7 0.50            154           78.7  38 
 RUS  HZ EP       1838 37.44                             143   -0.1210 98.0 177 
 RUS  HN ES       1838 55.69                             143    0.2010 98.0 177 
 RUS  HZ I        1838 57.10         5.7 0.26            145           98.0 177 
 SPBC HZ EP       1838 42.81                             128    0.31 9  162 220 
 SPBC HE ES       1839  4.22                             128   -0.07 9  162 220 
 SPBC HZ I        1839 10.76        11.2 0.20            128            162 220 
 CHI  HZ EP       1838 51.61                             116   -0.10 8  246 196 
 CHI  HE ES       1839 20.54                             116   -0.15 8  246 196 
 CHI  HZ I        1839 24.64         4.5 0.44            118            246 196 
                                                                                
