 2017  9 8 1129  2.3 L   6.573 -73.174 20.7  RSN  8 0.5 2.0LRSN                1
 GAP=141        1.33       2.9     4.4  4.1 -0.2203E+00  0.8441E+01  0.2693E+01E
 Epicentro: PINCHOTE - SANTANDER                                               3
 ACTION:UPD 17-10-05 19:10 OP:rebc STATUS:               ID:20170908112902 L   I
 OLDACT:REG 17-09-08 20:10 OP:lv   STATUS:               ID:20170908112738     3
 2017-09-08-1128-00M.COL___422                                                 6
 STAT SP IPHASW D HRMM SECON CODA AMPLIT PERI AZIMU VELO AIN AR TRES W  DIS CAZ7
 BAR2 EZ IP     D 1129  6.51                             174    0.4610 2.36 337 
 BAR2 EZ ES       1129  9.69                             174    0.6910 2.36 337 
 BAR2 EZ I        1129 11.26       412.1 0.30            178           2.36 337 
 RUS  HZ IP     C 1129 14.81                             104   -0.3710 75.9 172 
 RUS  HN ES       1129 24.46                             104   -0.7810 75.9 172 
 RUS  HZ I        1129 26.77        22.5 0.18            106           75.9 172 
 BRR  HZ IP     C 1129 15.39                             102   -0.4510 83.8 315 
 BRR  HE ES       1129 25.67                             102   -0.7510 83.8 315 
 BRR  HZ I        1129 26.06        51.3 0.10            104           83.8 315 
 PAM  EZ IP     D 1129 19.01                             100    0.3010 99.7  32 
 PAM  EN ES       1129 31.43                             100   -0.1010 99.7  32 
 NOR  HZ EP       1129 33.40                              56   -0.06 8  218 239 
 NOR  HN ES       1129 58.19                              56    0.41 8  218 239 
 CHI  HZ EP   9   1129 36.56                              56    2.02 0  224 196 
 CHI  HN ES       1130  2.24                                    0.51 8  224 196 
 HEL  HZ EP       1129 39.55                              56    0.01 8  264 261 
 HEL  HN ES   4   1130  7.29                              56   -1.31 0  264 261 
 GUY2CHZ EP       1129 43.46                              55    1.21 7  285 239 
 GUY2CHN ES       1130 13.57                              55    0.15 7  285 239 
                                                                                
