 2016 12 8 1625 40.0 L   6.794 -73.186148.4  RSN  4 0.1 1.3LRSN                1
 GAP=143        0.45       3.8     2.8  4.4 -0.5831E-01  0.8332E+00 -0.6541E+01E
 Epicentro: ZAPATOCA - SANTANDER                                               3
 ACTION:UPD 17-01-11 20:13 OP:rebc STATUS:               ID:20161208162540 L   I
 OLDACT:REG 16-12-09 03:12 OP:dani STATUS:               ID:20161208161644     3
 2016-12-08-1617-00M.COL___358                                                 6
 STAT SP IPHASW D HRMM SECON CODA AMPLIT PERI AZIMU VELO AIN AR TRES W  DIS CAZ7
 BAR2 EZ EP       1625 59.77                             171   -0.1510 22.3 179 
 BAR2 EZ ES       1626 15.64                             171    0.1810 22.3 179 
 BAR2 EZ I        1626 16.20         8.0 0.18            170           22.3 179 
 PAM  EZ EP       1626  2.61                             150   -0.0810 80.8  42 
 RUS  HZ EP       1626  4.20                             144    0.2210  100 173 
 RUS  HN ES       1626 22.53                             144   -0.1710  100 173 
 RUS  HZ I        1626 23.55         2.0 0.30            145            100 173 
 PTB  HZ EP       1626  6.84                             134    0.07 9  143 259 
 PTB  HN ES       1626 27.60                             134   -0.07 9  143 259 
 PTB  HZ I        1626 32.17         2.4 0.15            132            143 259 
                                                                                
