 2015  9 8 1144 40.0 L   5.885 -73.926 29.2  RSN  7 0.5 1.6LRSN                1
 GAP=123        1.31       5.1     4.0  6.0 -0.1155E+02  0.8016E+01 -0.2072E+02E
 Epicentro: LA BELLEZA - SANTANDER                                             3
 ACTION:UPD 15-10-28 16:25 OP:cam  STATUS:               ID:20150908114440 L   I
 OLDACT:DUP 15-09-08 22:28 OP:stll STATUS:               ID:20150908113750d    3
 2015-09-08-1137-49M.COL___353                                                 6
 STAT SP IPHASW D HRMM SECON CODA AMPLIT PERI AZIMU VELO AIN AR TRES W  DIS CAZ7
 SPBC HZ IP     C 1144 46.47                             129   -0.2810 30.4 212 
 SPBC HZ I        1144 46.51        95.4 0.20            126           30.4 212 
 SPBC HN ES       1144 52.05                             129    0.0210 30.4 212 
 PTB  HZ EP       1144 54.62                              61   -0.1910 93.1 321 
 PTB  HN ES       1145  6.03                              61   -0.3510 93.1 321 
 PTB  HZ I        1145  7.38        16.1 0.14            102           93.1 321 
 RUS  HZ EP       1144 54.55                              61   -0.8610 93.3  89 
 RUS  HZ I        1144 55.17         6.1 0.30            102           93.3  89 
 NOR  HZ EP   2   1144 56.51                              61   -0.50 5  110 251 
 NOR  HN ES       1145 10.06                              61   -0.2310  110 251 
 NOR  HZ I        1145 11.61        12.3 0.36             56            110 251 
 BAR2 EZ EP       1144 58.45                              61    0.8310  114  46 
 BAR2 EZ ES       1145 11.38                              61   -0.0010  114  46 
 BAR2 EZ I        1145 13.55        17.0 0.28             56            114  46 
 BRR  HZ EP       1145  1.14                              61    0.85 9  137  10 
 BRR  HN ES       1145 15.74                              61   -0.40 9  137  10 
 BRR  HZ I        1145 20.59        11.0 0.38             56            137  10 
 GUY2CHZ IP     D 1145  6.44                              61    0.79 9  175 245 
 GUY2CHN ES       1145 25.88                              61    0.22 9  175 245 
 GUY2CHZ I        1145 29.84         2.9 0.20                           175 245 
                                                                                
