 2015 12 8 1108  7.1 L   6.816 -73.139143.8  RSN  9 0.5 2.0LRSN                1
 GAP=137        1.12       3.9     5.1  7.2  0.2317E+00  0.9758E+01 -0.3942E+01E
 Epicentro: LOS SANTOS - SANTANDER                                             3
 ACTION:UPD 16-02-04 15:03 OP:cam  STATUS:               ID:20151208110807 L   I
 OLDACT:REG 15-12-08 21:38 OP:mh   STATUS:               ID:20151208105751     3
 2015-12-08-1057-51M.COL___317                                                 6
 STAT SP IPHASW D HRMM SECON CODA AMPLIT PERI AZIMU VELO AIN AR TRES W  DIS CAZ7
 BAR2 EZ EP       11 8 26.67                             170    0.1810 25.2 191 
 BAR2 EZ ES       11 8 41.39                             170   -0.2610 25.2 191 
 BAR2 EZ I        11 8 42.21        17.1 0.32            172           25.2 191 
 BRR  HZ EP   1   11 8 28.13                             152    0.15 7 71.0 297 
 BRR  HN ES       11 8 44.87                             152    0.5710 71.0 297 
 BRR  HZ I        11 8 49.57        15.6 0.44            151           71.0 297 
 PAM  EZ EP   1   11 8 29.46                             151    0.50 7 75.6  40 
 PAM  EN ES       11 8 46.26                             151    0.2310 75.6  40 
 PAM  EZ I        11 8 48.29        12.7 0.52            153           75.6  40 
 RUS  HZ EP   1   11 8 30.37                             143   -0.37 7  102 177 
 RUS  HN ES       11 8 49.07                             143   -0.1410  102 177 
 RUS  HZ I        11 8 50.58        11.0 0.44            147            102 177 
 PTB  HZ EP   1   11 8 33.69                             131   -0.27 7  149 258 
 PTB  HN ES       11 8 54.17                             131   -0.78 9  149 258 
 PTB  HZ I        11 8 57.21        10.7 0.40            132            149 258 
 OCA  HZ EP   1   11 8 35.01                             129   -0.05 7  159 353 
 OCA  HN ES       11 8 56.59                             129   -0.31 9  159 353 
 OCA  HZ I        11 9  2.37        18.9 0.17            130            159 353 
 ZAR  HN ES       11 9  5.53                             122    0.95 9  204 292 
 ZAR  HZ I        11 9 10.53         9.6 0.42            123            204 292 
 SML  HZ EP   1   11 8 43.52                             117    0.09 6  242 335 
 SML  HN ES       11 9 10.86                             117   -0.94 8  242 335 
 SML  HZ I        11 9 14.71        13.4 0.26            118            242 335 
 GUY2CHZ EP       11 8 51.22                             112    0.46 7  303 235 
 GUY2CHN ES   4   11 9 26.18                             112    1.34 0  303 235 
                                                                                
