 2013  5 8 1901 56.3 L   6.810 -73.132152.7  RSN 14 0.5 2.5LRSN                1
 GAP=138        0.87       3.4     4.3  5.9 -0.5779E+00  0.6935E+01 -0.1397E+01E
 Epicentro: LOS SANTOS - SANTANDER                                             3
 ACTION:UPD 13-06-20 09:48 OP:ep   STATUS:               ID:20130508190156 L   I
 2013-05-08-1900-00M.COL___256                                                 6
 STAT SP IPHASW D HRMM SECON CODA AMPLIT PERI AZIMU VELO AIN AR TRES W  DIS CAZ7
 BAR2 SZ EP     C 19 2 16.70                             171   -0.1310 24.8 193 
 BAR2 SZ ES   1   19 2 32.61                             171   -0.20 7 24.8 193 
 BAR2 SZ I        19 2 33.38        42.1 0.18            168           24.8 193 
 GIR2 SZ EP   1   19 2 16.97                             168    0.15 7 30.4 347 
 BRR  HZ EP     C 19 2 18.84                             153    0.5610 72.0 297 
 BRR  HZ I        19 2 18.87        68.0 0.18            150           72.0 297 
 BRR  HE ES   1   19 2 36.35                             153    0.95 7 72.0 297 
 PAM  SZ EP     D 19 2 19.63                             152    0.4410 75.5  39 
 PAM  SN ES   1   19 2 36.89                             152   -0.12 7 75.5  39 
 PAM  SZ I        19 2 38.89        23.9 0.46            156           75.5  39 
 RUS  HZ IP     D 19 2 20.50                             145   -0.3510  102 177 
 RUS  HN ES   1   19 2 39.44                             145   -0.53 7  102 177 
 RUS  HZ I        19 2 40.51        20.8 0.38            146            102 177 
 PTB  HZ EP   1   19 2 23.58                             133   -0.45 7  149 259 
 PTB  HN ES   1   19 2 44.77                             133   -0.86 7  149 259 
 PTB  HZ I        19 2 50.55        45.1 0.20            131            149 259 
 ZAR  HZ EP   1   19 2 29.32                             124   -0.02 6  205 292 
 ZAR  HE ES   1   19 2 55.19                             124    0.10 6  205 292 
 ZAR  HZ I        19 3  1.09        36.6 0.28            123            205 292 
 NOR  HZ EP   1   19 2 32.76                             120    0.08 6  237 234 
 NOR  HE ES   1   19 3  1.19                             120    0.16 6  237 234 
 NOR  HZ I        19 3  6.70        25.0 0.14            119            237 234 
 SML  HZ EP   1   19 2 33.60                             119    0.28 6  243 335 
 SML  HN ES   1   19 3  1.62                             119   -0.54 6  243 335 
 SML  HZ I        19 3  5.23        69.7 0.22            119            243 335 
 CHI  HZ EP   2   19 2 34.88                             118    0.29 4  250 195 
 CHI  HZ I        19 2 36.81        11.4 0.12            119            250 195 
 HEL  HZ EP   1   19 2 37.32                             116    0.21 6  274 256 
 COD  HZ EP   2   19 2 44.77                             110   -0.11 3  347 354 
 COD  HN ES   2   19 3 23.02                             110    0.27 3  347 354 
 PRA  HZ EP   2   19 2 51.07                             107    0.76 3  394 210 
 PRA  HN ES   1   19 3 32.80                             107    0.39 4  394 210 
 PRA  HZ I        19 3 37.28        12.0 0.54            108            394 210 
 SJC  HZ EP   2   19 2 51.08                             107   -1.04 3  409 327 
 SJC  HN ES   1   19 3 34.34                             107   -1.29 4  409 327 
 SJC  HZ I        19 3 37.42         6.1 0.48            107            409 327 
                                                                                
