 2014  6 8 1334  1.6 L   6.640 -73.622104.7  RSN  4 0.2 1.5LRSN                1
 GAP=119        0.67       4.1     3.2  6.2  0.5353E+01  0.4815E+01  0.8557E+01E
 Epicentro: EL CARMEN DE CHUCURI - SANTANDER                                   3
 ACTION:UPD 14-07-01 22:52 OP:nd   STATUS:               ID:20140608133401 L   I
 OLDACT:REG 14-06-08 21:31 OP:stll STATUS:               ID:20140608132815     3
 2014-06-08-1328-15M.COL___262                                                 6
 STAT SP IPHASW D HRMM SECON CODA AMPLIT PERI AZIMU VELO AIN AR TRES W  DIS CAZ7
 BAR2 SZ IP     C 1334 17.23                             153   -0.1310 48.9  96 
 BAR2 SZ ES       1334 29.26                             153   -0.4210 48.9  96 
 BAR2 SZ I        1334 30.26        12.7 0.24            155           48.9  96 
 BRR  HZ EP       1334 17.15                             151   -0.0710 52.6 349 
 BRR  HN ES       1334 29.83                             151    0.4010 52.6 349 
 BRR  HZ I        1334 31.65         6.8 0.16            154           52.6 349 
 PTB  HZ EP       1334 20.21                             135   -0.0210 92.9 263 
 PTB  HN ES       1334 34.64                             135   -0.1410 92.9 263 
 PTB  HZ I        1334 35.83         6.9 0.26            137           92.9 263 
 RUS  HZ EP       1334 21.77                             132    0.1010  102 144 
 RUS  HN ES       1334 37.65                             132    0.2910  102 144 
 RUS  HZ I        1334 39.19         7.2 0.36            135            102 144 
                                                                                
