 2013  1 8 1904 50.0 L   6.695 -73.206151.2  RSN  4 0.3 2.0LRSN                1
 GAP=218        0.86       7.0     6.7  7.7  0.1820E+02  0.1142E+02 -0.3832E+01E
 Epicentro: VILLANUEVA - SANTANDER                                             3
 ACTION:UPD 13-02-15 09:13 OP:ep   STATUS:               ID:20130108190450 L   I
 2013-01-08-1900-00M.COL___239                                                 6
 STAT SP IPHASW D HRMM SECON CODA AMPLIT PERI AZIMU VELO AIN AR TRES W  DIS CAZ7
 BAR2 SZ EP       19 5  9.90                             175   -0.1810 11.6 167 
 BAR2 SZ ES       19 5 25.28                             175   -0.4910 11.6 167 
 BRR  HZ EP       19 5 11.74                             153   -0.0210 72.2 309 
 BRR  HZ I        19 5 12.07        16.3 0.26            153           72.2 309 
 BRR  HN ES       19 5 29.24                             153    0.4810 72.2 309 
 RUS  HN ES       19 5 32.27                             148    0.3810 89.7 171 
 PTB  HZ EP       19 5 16.76                             135    0.11 9  139 263 
 PTB  HN ES       19 5 37.17                             135   -0.29 9  139 263 
                                                                                
