 2012 11 8 1200  6.1 L   6.752 -73.150147.4  RSN  6 0.4 2.1LRSN                1
 GAP=233        0.76       5.1     7.6  7.4  0.1910E+02  0.1678E+02  0.1571E+02E
 Epicentro: LOS SANTOS - SANTANDER                                             3
 ACTION:UPD 12-12-05 15:32 OP:}ep  STATUS:               ID:20121108120006 L   I
 OLDACT:REG 12-11-08 18:34 OP:carl STATUS:               ID:20121108120000     3
 2012-11-08-1200-00M.COL___228                                                 6
 STAT SP IPHASW D HRMM SECON CODA AMPLIT PERI AZIMU VELO AIN AR TRES W  DIS CAZ7
 BAR2 SZ EP       12 0 25.68                             173   -0.1410 18.0 191 
 BAR2 SZ ES   1   12 0 40.81                             173   -0.40 7 18.0 191 
 BAR2 SZ I        12 0 42.32        31.8 0.14                          18.0 191 
 BRR  HZ EP   1   12 0 27.64                             152    0.10 7 73.5 302 
 BRR  HN ES   1   12 0 44.93                             152    0.66 7 73.5 302 
 BRR  HN I        12 0 46.13        30.5 0.40                          73.5 302 
 RUS  HZ EP   1   12 0 29.94                             146    0.31 7 95.3 176 
 RUS  HN ES   1   12 0 48.06                             146    0.07 7 95.3 176 
 RUS  HN I        12 0 50.20        15.4 0.28                          95.3 176 
 ZAR  HN ES   1   12 1  3.74                             122   -0.58 6  206 294 
 ZAR  HN I        12 1 11.60        13.6 0.24                           206 294 
 CHI  HZ EP       12 0 43.27                             118   -0.04 8  243 195 
 CHI  HN ES   1   12 1 11.85                             118   -0.49 6  243 195 
 CHI  HN I        12 1 19.57         5.2 0.72                           243 195 
 PRA  HN ES   1   12 1 41.23                             107    0.79 4  387 210 
                                                                                
