 2012 11 8 1211 24.4 L   6.756 -73.154137.7  RSN  6 0.5 2.4LRSN                1
 GAP=152        0.94       7.2     5.4  8.4 -0.8184E+01  0.9667E+01  0.6877E+01E
 Epicentro: LOS SANTOS - SANTANDER                                             3
 ACTION:UPD 12-12-05 15:32 OP:}ep  STATUS:               ID:20121108121124 L   I
 OLDACT:REG 12-11-08 18:35 OP:carl STATUS:               ID:20121108121000     3
 2012-11-08-1210-00M.COL___228                                                 6
 STAT SP IPHASW D HRMM SECON CODA AMPLIT PERI AZIMU VELO AIN AR TRES W  DIS CAZ7
 BAR2 SZ EP       1211 43.08                             172    0.1110 18.4 190 
 BAR2 SZ ES   1   1211 56.91                             172   -0.54 7 18.4 190 
 BAR2 SZ I        1211 58.97        57.1 0.30                          18.4 190 
 BRR  HZ IP     C 1211 44.83                             150    0.0510 72.8 302 
 BRR  HN ES   1   1212  1.70                             150    1.02 7 72.8 302 
 BRR  HN I        1212  2.41        76.2 0.22                          72.8 302 
 PAM  SZ EP       1211 46.06                             148    0.0210 81.7  38 
 PAM  SN ES   1   1212  2.81                             148   -0.11 7 81.7  38 
 PAM  SN I        1212  4.15        41.7 0.44                          81.7  38 
 PTB  HZ EP   1   1211 49.92                             130   -0.64 7  146 261 
 PTB  HN ES   1   1212 10.57                             130   -0.39 7  146 261 
 PTB  HN I        1212 16.19        32.9 0.40                           146 261 
 ZAR  HZ EP   1   1211 56.58                             120    0.14 6  205 293 
 ZAR  HN ES   1   1212 21.08                             120   -0.35 6  205 293 
 ZAR  HN I        1212 29.69        24.7 0.34                           205 293 
 PRA  HN ES   1   1212 59.27                             105    1.05 4  387 210 
                                                                                
