 2012  7 8 1630 41.1 L   6.229 -73.813 94.7  RSN  5 0.4 1.7LRSN                1
 GAP=123        0.78       5.1     4.9 13.2 -0.7204E+01  0.3343E+02 -0.9595E+01E
 Epicentro: LANDAZURI - SANTANDER                                              3
 ACTION:UPD 12-08-14 11:43 OP:ep   STATUS:               ID:20120708163041 L   I
 2012-07-08-1630-00M.COL___201                                                 6
 STAT SP IPHASW D HRMM SECON CODA AMPLIT PERI AZIMU VELO AIN AR TRES W  DIS CAZ7
 BAR2 SZ EP   1   1630 58.31                             137     0.2 7   80  60 
 BAR2 SZ ES   1   1631 11.74                             137     0.4 7   80  60 
 BAR2 SZ I        1631 13.19        18.9 0.39                            80  60 
 RUS  HN ES   3   1631 13.07                             134    -0.2 2   89 115 
 BRR  HZ EP   1   1630 58.76                             131    -0.6 7   98   7 
 BRR  HN ES   1   1631 13.17                             131    -0.4 7   98   7 
 BRR  HZ I        1631 15.28         8.0 0.17                            98   7 
 NOR  SE ES   1   1631 20.86                             120    -0.1 7  138 238 
 ZAR  HZ EP   1   1631  8.37                             113     0.2 7  181 320 
 ZAR  HZ I        1631  9.19         5.5 0.08                           181 320 
 ZAR  HE ES   1   1631 29.78                             113     0.5 7  181 320 
