 2010  6 8 1915  0.0 L   6.843 -73.012136.8  RSN  6 0.4 1.9LRSN                1
 GAP=187        0.67       8.0    28.7  9.5 -0.1497E+03 -0.8964E+02  0.4635E+01E
 Epicentro: CEPITA - SANTANDER                                                 3
 ACTION:UP  10-08-24 10:09 OP:vdl  STATUS:               ID:20100608191500 L   I
 2010-06-08-1911-33S.COL___111                                                 6
 STAT SP IPHASW D HRMM SECON CODA AMPLIT PERI AZIMU VELO SNR AR TRES W  DIS CAZ7
 GIR2 SZ EP       1915 18.70                             165     0.010   33 322 
 GIR2 SZ ES   2   1915 33.24                             165     0.0 5   33 322 
 BAR2 SZ EP       1915 18.66                             165    -0.210   34 214 
 BAR2 SZ ES   2   1915 33.81                             165     0.3 5   34 214 
 GUE  SZ EP       1915 23.76                             139     0.410  110   5 
 GRA  SZ ES   2   1915 41.59                             136    -0.7 5  118  11 
 OCA  SZ EP   2   1915 27.67                             127     0.2 5  158 348 
 OCA  SZ ES   3   1915 47.88                             127    -1.0 2  158 348 
 OCA  SZ I        1915 51.38        10.6 0.31                           158 348 
 CHI  HZ EP   3   1915 37.27                             114    -1.0 2  257 198 
 CHI  HZ I        1916  9.40         4.9 0.34                           257 198 
                                                                                
