 2013  7 8 1457 36.0 L   6.797 -73.145150.0  RSN 14 0.5 2.6LRSN                1
 GAP= 71        1.16       3.5     3.4  5.3 -0.1970E+00  0.7057E+00  0.2033E+00E
 Epicentro: LOS SANTOS - SANTANDER                                             3
 ACTION:UPD 13-08-12 10:36 OP:ep   STATUS:               ID:20130708145736 L   I
 OLDACT:UP  13-07-09 05:54 OP:Juan STATUS:               ID:20130708145736 L   3
 OLDACT:REG 13-07-08 15:28 OP:stll STATUS:               ID:20130708144844     3
 2013-07-08-1448-44M.COL___233                                                 6
 STAT SP IPHASW D HRMM SECON CODA AMPLIT PERI AZIMU VELO AIN AR TRES W  DIS CAZ7
 BAR2 SZ EP       1457 56.15                             171    0.0710 23.0 190 
 BAR2 SZ ES       1458 11.14                             171   -0.6510 23.0 190 
 BAR2 SZ I        1458 12.84        34.2 0.30            170           23.0 190 
 GIR2 SZ EP       1457 56.26                             167    0.1310 31.6 350 
 GIR2 SZ ES       1458 11.85                             167   -0.0310 31.6 350 
 BRR  HZ EP       1457 58.11                             153    0.5410 71.4 299 
 BRR  HN ES       1458 15.39                             153    0.9610 71.4 299 
 BRR  HN I        1458 18.82        98.5 0.18            152           71.4 299 
 PAM  SZ EP       1457 58.94                             151    0.3110 77.6  39 
 PAM  SN ES       1458 15.97                             151   -0.3510 77.6  39 
 PAM  SN I        1458 17.29        51.9 0.48            154           77.6  39 
 RUS  HZ EP       1458  0.04                             144   -0.0610  100 176 
 RUS  HE ES       1458 18.81                             144   -0.1210  100 176 
 RUS  HE I        1458 21.88        33.3 0.30            145            100 176 
 GRA  SZ EP   9   1458 27.02                             137   25.42 0  126  17 
 GRA  SZ ES       1458 46.37                                   -0.6510  126  17 
 PTB  HZ EP       1458  2.94                             133   -0.33 9  148 259 
 PTB  HN ES       1458 23.93                             133   -0.64 9  148 259 
 PTB  HN I        1458 29.36        77.3 0.32            132            148 259 
 CAPV BZ EP       1458  3.99                             132    0.28 9  149  38 
 CAPV BZ ES   4   1458 23.36                             132   -2.00 0  149  38 
 TAM  HZ EP     D 1458  4.31                             131    0.36 9  155 105 
 TAM  HZ I        1458  4.39        24.0 0.22            134            155 105 
 TAM  HN ES       1458 25.83                             131    0.04 9  155 105 
 OCA  HN ES       1458 26.83                             130   -0.16 9  161 353 
 OCA  HN I        1458 30.67       110.0 0.28            131            161 353 
 ZAR  HE ES       1458 33.54                             123   -0.69 9  204 292 
 NOR  HZ EP       1458 12.31                             119    0.40 8  235 235 
 NOR  HN ES       1458 40.24                             119    0.27 8  235 235 
 NOR  HN I        1458 46.12        48.9 0.20            120            235 235 
 SML  HZ EP       1458 12.56                             118   -0.29 8  244 335 
 SML  HE ES       1458 42.17                             118    0.54 8  244 335 
 SML  HE I        1458 43.71        60.2 0.10            119            244 335 
 SOCV BZ EP       1458 18.23                             113   -0.98 7  301  57 
                                                                                
