 2014  9 8 1042 55.4 L   6.347 -73.691102.3  RSN 11 0.5 2.0LRSN                1
 GAP= 62        1.32       3.0     4.1  7.5 -0.2806E+01  0.1003E+02 -0.4071E+01E
 Epicentro: SANTA HELENA DEL OPON - SANTANDER                                  3
 ACTION:UPD 14-10-03 23:03 OP:nd   STATUS:               ID:20140908104255 L   I
 OLDACT:REG 14-09-08 21:02 OP:carl STATUS:               ID:20140908103818     3
 2014-09-08-1038-18M.COL___260                                                 6
 STAT SP IPHASW D HRMM SECON CODA AMPLIT PERI AZIMU VELO AIN AR TRES W  DIS CAZ7
 BAR2 SZ EP       1043 12.33                             146    0.5410 62.5  64 
 BAR2 SZ ES       1043 25.20                             146    0.6310 62.5  64 
 BAR2 SZ I        1043 26.30        89.3 0.30            151           62.5  64 
 RUS  HN ES       1043 27.93                             138   -0.1510 84.0 127 
 PTB  HZ EP       1043 12.84                             136   -0.5510 87.3 284 
 PTB  HN ES       1043 26.69                             136   -0.7210 87.3 284 
 PTB  HZ I        1043 30.15        13.0 0.30            137           87.3 284 
 SPBC HZ EP       1043 13.55                             136    0.0310 87.6 209 
 SPBC HN ES       1043 26.97                             136   -0.6710 87.6 209 
 SPBC HZ I        1043 34.14        14.7 0.32            138           87.6 209 
 NOR  HZ EP       1043 19.82                             118   -0.42 9  157 236 
 NOR  HE ES       1043 40.50                             118    0.89 9  157 236 
 NOR  HZ I        1043 44.61        26.1 0.16            120            157 236 
 ZAR  HZ EP       1043 23.56                             114    0.73 9  181 315 
 ZAR  HE ES       1043 44.43                             114    0.21 9  181 315 
 ZAR  HZ I        1043 49.05        11.1 0.40            116            181 315 
 CHI  HZ EP       1043 23.59                             113   -0.78 9  190 181 
 CHI  HN ES       1043 47.35                             113    0.38 9  190 181 
 CHI  HZ I        1043 51.17         3.9 0.18            116            190 181 
 OCA  HZ EP       1043 26.05                             110   -0.64 8  213  11 
 OCA  HN ES       1043 51.28                             110    0.19 8  213  11 
 GUY2CHZ EP       1043 28.94                             109    0.71 8  223 236 
 GUY2CHN ES       1043 54.26                             109    0.43 8  223 236 
 GUY2CHZ I        1044  1.00         7.6 0.34                           223 236 
 TOL  SZ EP       1043 32.42                             105   -0.60 8  266 223 
 TOL  SN ES       1044  2.63                             105    0.28 8  266 223 
 TOL  SZ I        1044  7.82        13.6 0.28            107            266 223 
 SML  HZ EP       1043 33.61                             104   -0.05 8  275 351 
 SML  HE ES       1044  3.19                             104   -0.31 8  275 351 
 SML  HZ I        1044 11.67         6.9 0.24            106            275 351 
                                                                                
