 2017  3 8 1704 46.0 L   6.787 -73.147146.9  RSN  8 0.3 2.2LRSN                1
 GAP=137        0.73       2.9     3.0  4.4 -0.1069E+01  0.3835E+01  0.7707E+00E
 Epicentro: LOS SANTOS - SANTANDER                                             3
 ACTION:UPD 17-05-25 18:37 OP:jn   STATUS:               ID:20170308170446 L   I
 OLDACT:REG 17-03-08 21:00 OP:ar   STATUS:               ID:20170308165746     3
 2017-03-08-1658-00M.COL___383                                                 6
 STAT SP IPHASW D HRMM SECON CODA AMPLIT PERI AZIMU VELO AIN AR TRES W  DIS CAZ7
 BAR2 EZ IP     C 17 5  5.57                             171   -0.1410 21.9 190 
 BAR2 EZ ES       17 5 20.82                             171   -0.2910 21.9 190 
 BAR2 EZ I        17 5 21.97        65.7 0.26            166           21.9 190 
 BRR  HZ EP       17 5  7.59                             152    0.3110 71.8 300 
 BRR  HN ES       17 5 24.46                             152    0.5610 71.8 300 
 BRR  HZ I        17 5 26.85        37.3 0.34            149           71.8 300 
 PAM  EZ EP       17 5  8.54                             151    0.1610 78.6  39 
 PAM  EN ES       17 5 25.60                             151   -0.2610 78.6  39 
 RUS  HZ EP       17 5  9.56                             144   -0.1710 99.1 176 
 RUS  HN ES       17 5 28.39                             144    0.1210 99.1 176 
 RUS  HZ I        17 5 29.27         9.6 0.18            144           99.1 176 
 PTB  HZ EP       17 5 12.66                             132   -0.33 9  147 259 
 PTB  HE ES       17 5 34.02                             132   -0.05 9  147 259 
 PTB  HZ I        17 5 40.45        18.2 0.22            130            147 259 
 SPBC HZ EP       17 5 14.54                             129    0.10 9  162 219 
 SPBC HN ES       17 5 36.88                             129    0.23 9  162 219 
 SPBC HZ I        17 5 44.29        27.0 0.22            128            162 219 
 ZAR  HZ EP       17 5 18.67                             123    0.14 9  204 293 
 ZAR  HN ES       17 5 43.51                             123   -0.42 9  204 293 
 ZAR  HZ I        17 5 48.76        18.6 0.24            122            204 293 
 NOR  HZ EP       17 5 21.96                             119    0.30 8  234 235 
 NOR  HN ES       17 5 49.15                             119   -0.35 8  234 235 
 NOR  HZ I        17 5 58.66        10.8 0.46            119            234 235 
                                                                                
