 2017  3 8 1041 50.8 L   6.769 -73.143142.6  RSN  6 0.4 2.0LRSN                1
 GAP=138        1.13       5.5     5.0  7.6  0.2734E+01  0.9855E+01 -0.1947E+01E
 Epicentro: LOS SANTOS - SANTANDER                                             3
 ACTION:UPD 17-05-25 18:37 OP:jn   STATUS:               ID:20170308104150 L   I
 OLDACT:REG 17-03-08 20:41 OP:ar   STATUS:               ID:20170308103744     3
 2017-03-08-1038-00M.COL___329                                                 6
 STAT SP IPHASW D HRMM SECON CODA AMPLIT PERI AZIMU VELO AIN AR TRES W  DIS CAZ7
 BAR2 EZ EP       1042  9.80                             172   -0.2210 20.1 193 
 BAR2 EZ ES       1042 24.81                             172   -0.1710 20.1 193 
 BAR2 EZ I        1042 25.64        30.3 0.22            173           20.1 193 
 BRR  HZ IP     C 1042 11.69                             151   -0.0610 73.2 301 
 BRR  HN ES       1042 28.70                             151    0.6310 73.2 301 
 BRR  HZ I        1042 30.27        17.7 0.14            150           73.2 301 
 PAM  EZ EP       1042 12.79                             149   -0.0710 79.8  38 
 PAM  EN ES       1042 29.70                             149   -0.3410 79.8  38 
 PAM  EZ I        1042 31.83        20.6 0.52            150           79.8  38 
 RUS  HZ EP       1042 14.41                             144    0.3810 97.2 176 
 RUS  HN ES       1042 32.50                             144    0.3810 97.2 176 
 RUS  HZ I        1042 33.26         7.0 0.34            147           97.2 176 
 PTB  HZ EP       1042 16.90                             131   -0.62 9  147 260 
 PTB  HN ES       1042 37.55                             131   -0.78 9  147 260 
 PTB  HZ I        1042 39.67        10.9 0.11            132            147 260 
 ZAR  HZ EP       1042 23.79                             121    0.55 8  206 293 
 ZAR  HN ES       1042 48.94                             121    0.42 8  206 293 
 ZAR  HZ I        1042 54.39        13.9 0.28            122            206 293 
                                                                                
