 2017  6 8 1859 52.4 L   6.284 -73.289142.3  RSN  5 0.4 1.5LRSN                1
 GAP=179        0.85       4.4     5.4  7.3  0.5432E+01  0.1636E+02 -0.2637E+00E
 Epicentro: OIBA - SANTANDER                                                   3
 ACTION:UPD 17-09-14 16:50 OP:jn   STATUS:               ID:20170608185952 L   I
 OLDACT:DUP 17-06-09 00:51 OP:ar   STATUS:               ID:20170608185742d    3
 OLDACT:DUP 17-06-09 00:40 OP:ar   STATUS:               ID:20170608185741d    3
 2017-06-08-1858-00M.COL___362                                                 6
 STAT SP IPHASW D HRMM SECON CODA AMPLIT PERI AZIMU VELO AIN AR TRES W  DIS CAZ7
 RUS  HZ EP       19 0 12.84                             160    0.0210 48.9 152 
 RUS  HE ES       19 0 28.41                             160   -0.3110 48.9 152 
 RUS  HZ I        19 0 29.79         2.5 0.30            161           48.9 152 
 BRR  HZ EP       19 0 15.33                             142    0.0510  102 333 
 BRR  HN ES       19 0 33.58                             142    0.4810  102 333 
 PTB  HZ EP       19 0 17.44                             134   -0.2910  132 282 
 PTB  HE ES   2   19 0 36.50                             134   -0.95 5  132 282 
 PTB  HZ I        19 0 37.50         4.1 0.30            134            132 282 
 NOR  HZ EP       19 0 23.64                             123    0.14 9  192 246 
 NOR  HE ES       19 0 48.31                             123    0.58 9  192 246 
 NOR  HZ I        19 0 51.49         4.3 0.26            123            192 246 
 ZAR  HZ EP       19 0 26.10                             120   -0.12 8  219 308 
 ZAR  HN ES       19 0 52.24                             120   -0.32 8  219 308 
 ZAR  HZ I        19 0 56.31         5.4 0.32            120            219 308 
                                                                                
