 2017 12 8 1126  1.2 L   6.778 -73.337124.5  RSN  5 0.3 1.7LRSN                1
 GAP=118        0.77       6.0     3.8  7.4 -0.9202E+01  0.1559E+02 -0.2121E+02E
 Epicentro: ZAPATOCA - SANTANDER                                               3
 *TUM                                                                          3
 ACTION:UPD 18-01-04 13:18 OP:rebc STATUS:               ID:20171208112601 L   I
 OLDACT:UP  17-12-08 22:59 OP:leo  STATUS:               ID:20171208111740     3
 OLDACT:REG 17-12-08 20:55 OP:leo  STATUS:               ID:20171208111740     3
 2017-12-08-1118-00M.COL___473                                                 6
 STAT SP IPHASW D HRMM SECON CODA AMPLIT PERI AZIMU VELO AIN AR TRES W  DIS CAZ7
 BAR2 EZ EP       1126 18.77                             167    0.3810 26.7 140 
 BAR2 EZ ES       1126 31.89                             167    0.1110 26.7 140 
 BAR2 EZ I        1126 34.14        12.7 0.22            174           26.7 140 
 PAM  EE ES       1126 38.81                             141   -0.1410 93.9  49 
 PTB  HZ EP       1126 24.14                             131   -0.4010  127 258 
 PTB  HN ES       1126 42.45                             131   -0.2710  127 258 
 PTB  HZ I        1126 45.93         6.7 0.42            133            127 258 
 OCA  HZ EP       1126 27.83                             124   -0.28 9  162   1 
 OCA  HE ES   4   1126 46.96                             124   -2.12 0  162   1 
 ZAR  HZ EP       1126 30.84                             120    0.42 9  186 295 
 ZAR  HE ES       1126 53.43                             120    0.25 9  186 295 
 ZAR  HZ I        1126 58.23         7.1 0.18            122            186 295 
                                                                                
