 2012  4 8 1505 42.4 L   6.120 -73.725104.0  RSN  5 0.1 1.6LRSN                1
 GAP=190        0.40       4.0     3.7  9.3  0.8922E+01  0.2067E+02  0.1355E+02E
 Epicentro: BOLIVAR - SANTANDER                                                3
 ACTION:UPD 12-07-05 11:51 OP:tino STATUS:               ID:20120408150542 L   I
 2012-04-08-1500-00M.COL___196                                                 6
 STAT SP IPHASW D HRMM SECON CODA AMPLIT PERI AZIMU VELO AIN AR TRES W  DIS CAZ7
 RUS  HZ EP       15 6  0.32                             142     0.110   75 110 
 RUS  HZ I        15 6  0.36         3.4 0.24                            75 110 
 RUS  HN ES   3   15 6 13.91                             142    -0.2 2   75 110 
 BAR2 SZ EP       15 6  0.17                             140     0.010   80  49 
 BAR2 SZ ES   2   15 6 13.91                             140    -0.1 5   80  49 
 BAR2 SZ I        15 6 15.02        29.9 0.42                            80  49 
 PTB  HZ EP       15 6  0.90                             135    -0.110   93 300 
 PTB  HZ I        15 6 19.22         3.4 0.10                            93 300 
 BRR  HZ EP       15 6  2.27                             130    -0.110  109   1 
 BRR  HZ I        15 6  2.61        22.0 0.10                           109   1 
 BRR  HN ES   2   15 6 18.20                             130     0.2 5  109   1 
 ZAR  HZ EP   2   15 6 11.49                             113    -0.2 4  197 321 
 ZAR  HN ES   1   15 6 34.76                             113     0.3 6  197 321 
 ZAR  HZ I        15 6 36.70         7.4 0.42                           197 321 
                                                                                
