 2011  5 8 1008  7.5 L   6.761 -73.105143.7  RSN  9 0.3 1.8LRSN                1
 GAP=161        0.73       3.5     5.4  5.6 -0.9009E+01  0.4673E+01 -0.1441E+01E
 Epicentro: LOS SANTOS - SANTANDER                                             3
 ACTION:UP  11-06-29 08:51 OP:tino STATUS:               ID:20110508100807 L   I
 2011-05-08-1004-24S.COL___131                                                 6
 STAT SP IPHASW D HRMM SECON CODA AMPLIT PERI AZIMU VELO SNR AR TRES W  DIS CAZ7
 BAR2 SZ IP       10 8 26.86                             171     0.010   21 205 
 BAR2 SZ I        10 8 27.21         9.2 0.10                            21 205 
 BAR2 SZ ES   1   10 8 41.36                             171    -0.6 7   21 205 
 BRR  HZ EP   1   10 8 28.88                             150     0.1 7   77 300 
 BRR  HZ I        10 8 31.37        24.6 0.10                            77 300 
 BRR  HN ES   1   10 8 45.83                             150     0.4 7   77 300 
 RUS  HZ EP   1   10 8 31.03                             145     0.3 7   96 179 
 RUS  HN ES   1   10 8 48.88                             145     0.0 7   96 179 
 RUS  HZ I        10 8 50.40         8.5 0.26                            96 179 
 BRI  SZ EP       10 8 31.62                             140     0.210  111  18 
 BRI  SZ ES   1   10 8 50.17                             140     0.1 7  111  18 
 GRA  SZ EP   1   10 8 32.81                             136     0.0 7  129  15 
 GRA  SZ ES   1   10 8 52.66                             136     0.1 7  129  15 
 GRA  SZ I        10 8 54.19        13.4 0.36                           129  15 
 OCA  SZ EP       10 8 35.54                             128    -0.6 9  165 352 
 OCA  SZ I        10 8 59.39         8.0 0.22                           165 352 
 NOR  SZ EP   1   10 8 43.54                             118     0.3 6  236 236 
 NOR  SN ES   1   10 9 11.24                             118     0.1 6  236 236 
 HEL  HN ES   2   10 9 19.11                             114    -0.5 4  275 257 
 HEL  HZ I        10 9 26.24         2.8 0.38                           275 257 
 PRA  HZ EP   1   10 9  0.70                             106    -0.1 4  391 210 
                                                                                
