 2017  2 8 1556 17.0 L   6.762 -73.130147.0  RSN  4 0.3 1.2LRSN                1
 GAP=236        0.56       4.6     4.5  5.4  0.9331E+01  0.1131E+01 -0.2857E+01E
 Epicentro: LOS SANTOS - SANTANDER                                             3
 ACTION:UPD 17-05-24 15:34 OP:jn   STATUS:               ID:20170208155617 L   I
 OLDACT:UP  17-02-08 22:44 OP:and  STATUS:               ID:20170208154746     3
 OLDACT:REG 17-02-08 20:29 OP:and  STATUS:               ID:20170208154746     3
 2017-02-08-1548-00M.COL___355                                                 6
 STAT SP IPHASW D HRMM SECON CODA AMPLIT PERI AZIMU VELO AIN AR TRES W  DIS CAZ7
 BAR2 EZ EP       1556 36.69                             172   -0.0110 19.6 197 
 BAR2 EZ ES       1556 52.26                             172    0.1810 19.6 197 
 BAR2 EZ I        1556 52.69         5.1 0.25            170           19.6 197 
 BRR  HZ EP       1556 38.46                             152   -0.0110 74.8 301 
 BRR  HN ES       1556 55.09                             152   -0.1410 74.8 301 
 RUS  HZ EP   2   1556 41.13                             145    0.57 5 96.3 177 
 RUS  HN ES       1556 58.74                             145   -0.2010 96.3 177 
 RUS  HZ I        1557  0.27         2.1 0.30            144           96.3 177 
 PTB  HZ EP   2   1556 43.52                             132   -0.62 5  149 261 
 PTB  HN ES       1557  5.52                             132    0.20 9  149 261 
 PTB  HZ I        1557  6.16         1.5 0.07            132            149 261 
                                                                                
