 2017  2 8 1059 48.6 L   6.685 -73.173140.0  RSN  7 0.4 1.5LRSN                1
 GAP=225        0.69       7.8     5.2  5.9  0.1181E+02  0.6672E+01  0.6471E+01E
 Epicentro: VILLANUEVA - SANTANDER                                             3
 ACTION:UPD 17-05-24 15:34 OP:jn   STATUS:               ID:20170208105948 L   I
 OLDACT:UP  17-02-08 21:15 OP:and  STATUS:               ID:20170208105743     3
 OLDACT:UP  17-02-08 21:14 OP:and  STATUS:               ID:20170208105743     3
 OLDACT:REG 17-02-08 20:07 OP:and  STATUS:               ID:20170208105743     3
 2017-02-08-1058-00M.COL___328                                                 6
 STAT SP IPHASW D HRMM SECON CODA AMPLIT PERI AZIMU VELO AIN AR TRES W  DIS CAZ7
 BAR2 EZ EP     D 11 0  7.24                             176   -0.1210 10.3 185 
 BAR2 EZ ES       11 0 21.91                             176   -0.0610 10.3 185 
 BAR2 EZ I        11 0 23.61        11.4 0.16            164           10.3 185 
 BRR  HZ EP       11 0  9.22                             150   -0.1910 75.7 308 
 BRR  HE ES       11 0 25.91                             150    0.2810 75.7 308 
 RUS  HZ EP   2   11 0 11.82                             146    0.89 5 88.2 173 
 PTB  HZ EP       11 0 14.38                             132   -0.29 9  143 264 
 PTB  HN ES       11 0 35.05                             132    0.07 9  143 264 
 PTB  HZ I        11 0 36.47         3.2 0.16            128            143 264 
 ZAR  HZ EP   2   11 0 21.75                             121    0.81 4  206 296 
 ZAR  HN ES   2   11 0 45.72                             121   -0.44 4  206 296 
 ZAR  HZ I        11 0 52.61         3.2 0.17            120            206 296 
 CHI  HN ES   4   11 0 55.47                             117    2.85 0  236 195 
 CHI  HZ I        11 1  1.42         1.4 0.72            114            236 195 
 URE  HZ EP   4   11 0 31.75                             112    2.09 0  286 295 
 URE  HE ES   4   11 0 57.22                             112   -4.46 0  286 295 
 URE  HZ I        11 1  0.70         3.1 0.12            111            286 295 
                                                                                
