 2016  4 8 1537 59.7 L   6.822 -73.195137.6  RSN  6 0.3 1.9LRSN                1
 GAP=129        0.75       3.8     3.4  5.9 -0.4920E-01  0.7671E+01 -0.3539E+01E
 Epicentro: ZAPATOCA - SANTANDER                                               3
 ACTION:UPD 16-05-05 14:19 OP:rebc STATUS:               ID:20160408153759 L   I
 OLDACT:UP  16-04-08 21:28 OP:drio STATUS:               ID:20160408152749d    3
 OLDACT:UP  16-04-08 21:28 OP:drio STATUS:               ID:20160408152749d    3
 OLDACT:DUP 16-04-08 21:25 OP:drio STATUS:               ID:20160408152749d    3
 2016-04-08-1527-48M.COL___323                                                 6
 STAT SP IPHASW D HRMM SECON CODA AMPLIT PERI AZIMU VELO AIN AR TRES W  DIS CAZ7
 BAR2 EZ EP       1538 17.95                             169   -0.4310 25.4 177 
 BAR2 EZ ES       1538 32.92                             169   -0.0410 25.4 177 
 BAR2 EZ I        1538 36.61        14.3 0.20            173           25.4 177 
 PAM  EZ EP       1538 21.01                             149   -0.1410 79.2  44 
 PAM  EE ES       1538 38.10                             149    0.2110 79.2  44 
 PAM  EZ I        1538 40.21        19.9 0.68            152           79.2  44 
 RUS  HZ EP       1538 23.13                             141    0.2710  104 173 
 RUS  HN ES       1538 40.96                             141    0.0210  104 173 
 PTB  HZ EP       1538 25.21                             131   -0.34 9  143 257 
 PTB  HN ES       1538 45.96                             131    0.24 9  143 257 
 PTB  HZ I        1538 48.74        12.0 0.18            133            143 257 
 ZAR  HZ EP       1538 31.53                             121    0.54 9  198 292 
 ZAR  HN ES       1538 55.15                             121   -0.25 9  198 292 
 ZAR  HZ I        1539  1.89        10.4 0.30            123            198 292 
 GUY2CHZ EP   4   1538 44.44                             111    1.85 0  298 234 
 GUY2CHE ES   4   1539 14.23                             111   -1.82 0  298 234 
 GUY2CHZ I        1539 24.73         2.9 0.42                           298 234 
                                                                                
