 2010  5 8 1515 47.2 L   6.835 -73.222123.6  RSN  5 0.1 1.8LRSN                1
 GAP=149        0.40       3.5     4.4  4.4 -0.4286E+01 -0.1251E+01 -0.3401E+01E
 Epicentro: ZAPATOCA - SANTANDER                                               3
 ACTION:UP  10-08-24 10:03 OP:vdl  STATUS:               ID:20100508151547 L   I
 2010-05-08-1514-05S.COL___105                                                 6
 STAT SP IPHASW D HRMM SECON CODA AMPLIT PERI AZIMU VELO SNR AR TRES W  DIS CAZ7
 BAR2 SZ EP   1   1516  4.41                             167     0.2 7   27 171 
 BAR2 SZ ES   1   1516 17.47                             167    -0.1 7   27 171 
 GIR2 SZ EP   1   1516  4.03                             167    -0.1 7   27   7 
 GIR2 SZ ES   2   1516 17.35                             167     0.1 5   27   7 
 BRR  HZ EP       1516  5.53                             152     0.110   62 299 
 BRR  HZ I        1516 13.95        14.2 0.39                            62 299 
 BRR  HE ES   1   1516 19.53                             152    -0.1 7   62 299 
 GUE  SZ EP   1   1516  9.49                             134    -0.3 7  115  17 
 GRA  SZ ES   1   1516 28.77                             132     0.2 7  125  22 
                                                                                
