 2010  8 8 1015  1.5 L   6.804 -73.103139.6  RSN 16 0.5 3.0LRSN                1
 GAP=160        0.92       3.3     6.2  5.7 -0.9475E+01  0.7191E+01  0.1566E+01E
 Epicentro: LOS SANTOS - SANTANDER                                             3
 ACTION:UP  10-09-07 10:53 OP:vdl  STATUS:               ID:20100808101501 L   I
 2010-08-08-1010-42S.COL___125                                                 6
 STAT SP IPHASW D HRMM SECON CODA AMPLIT PERI AZIMU VELO SNR AR TRES W  DIS CAZ7
 BAR2 SZ IP       1015 20.60                             170     0.210   25 201 
 BAR2 SZ ES   1   1015 34.90                             170    -0.3 7   25 201 
 BAR2 SZ I        1015 39.08       246.7 0.42                            25 201 
 GIR2 SZ EP   1   1015 19.65                             166    -0.8 7   32 342 
 GIR2 SZ ES   2   1015 34.64                             166    -0.6 5   32 342 
 BRR  HZ IP     C 1015 22.34                             150     0.110   75 297 
 BRR  HE ES   1   1015 39.09                             150     0.7 7   75 297 
 BRR  HZ I        1015 43.76       310.3 0.09                            75 297 
 RUS  HZ EP       1015 24.58                             143    -0.110  101 179 
 RUS  HN ES   1   1015 43.25                             143     0.5 7  101 179 
 RUS  HZ I        1015 45.11       129.3 0.41                           101 179 
 BRI  SZ EP   1   1015 24.82                             141     0.2 7  106  19 
 BRI  SZ ES   2   1015 42.49                             141    -0.2 5  106  19 
 GUE  SZ EP       1015 25.31                             138    -0.210  115  10 
 GRA  SZ IP       1015 26.15                             136     0.110  124  15 
 GRA  SZ ES   1   1015 45.46                             136     0.3 7  124  15 
 GRA  SZ I        1015 46.83       105.0 0.46                           124  15 
 OCA  SZ EP       1015 28.76                             128    -0.6 9  160 351 
 OCA  SZ ES   2   1015 51.48                             128     0.4 5  160 351 
 OCA  SZ I        1015 54.82       129.2 0.26                           160 351 
 CHI  HN ES   1   1016  7.54                             116    -0.8 6  250 196 
 ROSC BZ EP   1   1015 40.15                             115     0.6 6  256 212 
 ROSC BE ES   2   1016  9.13                             115    -0.2 4  256 212 
 ROSC BZ I        1016 16.82        51.5 0.68                           256 212 
 CVER SZ EP   1   1015 42.06                             114     0.3 6  274 203 
 HEL  HZ EP   1   1015 41.77                             113    -0.1 6  277 256 
 HEL  HN ES   2   1016 12.39                             113    -1.0 4  277 256 
 HEL  HZ I        1016 21.37        60.2 0.45                           277 256 
 GUY  SZ EP   1   1015 45.86                             111     0.6 5  305 235 
 GUY  SN ES   2   1016 19.76                             111     0.3 4  305 235 
 RREF HZ EP   1   1015 47.97                             110     0.2 5  326 230 
 RREF HN ES   2   1016 22.98                             110    -0.9 3  326 230 
 RREF HZ I        1016 31.12        56.9 0.95                           326 230 
 ANIL HZ EP   1   1015 52.05                                     0.6 5  361 225 
 PRA  HZ EP   1   1015 54.43                             105    -0.7 4  395 210 
 PRA  HN ES   2   1016 37.17                             105     0.2 3  395 210 
 PRA  HZ I        1016 43.33        64.8 0.44                           395 210 
                                                                                
