 2010  8 8 1326 39.1 L   6.828 -72.986151.8  RSN  6 0.5 1.6LRSN                1
 GAP=182        1.04       8.2    19.2 13.4  0.1756E+01 -0.7829E+02 -0.1146E+01E
 Epicentro: CEPITA - SANTANDER                                                 3
 ACTION:UP  10-09-07 10:53 OP:vdl  STATUS:               ID:20100808132639 L   I
 2010-08-08-1324-38S.COL___124                                                 6
 STAT SP IPHASW D HRMM SECON CODA AMPLIT PERI AZIMU VELO SNR AR TRES W  DIS CAZ7
 BTL  SZ EP   1   1327  0.12                             167     0.4 7   33 288 
 BAR2 SZ EP   1   1327  0.05                             167     0.3 7   34 220 
 BAR2 SZ ES   2   1327 15.02                             167    -0.8 5   34 220 
 BAR2 SZ I        1327 16.75         9.9 0.75                            34 220 
 GIR2 SZ EP   1   1326 58.85                             166    -0.8 7   36 320 
 GIR2 SZ ES   2   1327 15.56                             166    -0.1 5   36 320 
 BRR  HZ EP   1   1327  1.85                             149     0.1 7   86 291 
 BRR  HZ I        1327  2.12        12.9 0.20                            86 291 
 BRR  HN ES   2   1327 19.70                             149     0.2 5   86 291 
 RUS  HZ EP   1   1327  4.14                             144     0.4 7  104 186 
 RUS  HN ES   2   1327 22.73                             144    -0.2 5  104 186 
 RUS  HZ I        1327 23.83         3.3 0.38                           104 186 
 GUE  SZ EP   1   1327  3.41                             142    -0.6 7  111   3 
 GUE  SZ ES   2   1327 24.53                             142     1.2 5  111   3 
                                                                                
