 2012  4 8 1443 32.0 L   6.792 -73.086142.5  RSN  4 0.2 1.5LRSN                1
 GAP=145        0.50       5.2     5.0  6.6 -0.4249E+01 -0.1163E+01  0.1282E+01E
 Epicentro: LOS SANTOS - SANTANDER                                             3
 ACTION:UPD 12-07-05 11:51 OP:tino STATUS:               ID:20120408144332 L   I
 2012-04-08-1440-00M.COL___196                                                 6
 STAT SP IPHASW D HRMM SECON CODA AMPLIT PERI AZIMU VELO AIN AR TRES W  DIS CAZ7
 BAR2 SZ EP   3   1443 50.96                             170    -0.3 2   25 206 
 BAR2 SZ ES   3   1444  5.90                             170    -0.3 2   25 206 
 PAM  SZ EP       1443 53.80                             152     0.210   74  35 
 PAM  SN ES   1   1444 10.42                             152    -0.1 7   74  35 
 BRR  HZ EP       1443 52.83                             150    -0.310   77 297 
 BRR  HZ I        1443 54.06         5.9 0.12                            77 297 
 BRR  HN ES   1   1444  9.94                             150     0.3 7   77 297 
 RUS  HZ EP   3   1443 55.69                             144     0.4 2   99 180 
 RUS  HN ES   2   1444 13.68                             144     0.2 5   99 180 
                                                                                
