 2011  4 8 1600 22.0 L   6.784 -73.089146.7  RSN  6 0.3 2.0LRSN                1
 GAP=162        0.54       5.2     5.8  6.5 -0.1122E+02  0.7132E+01  0.1224E+02E
 Epicentro: LOS SANTOS - SANTANDER                                             3
 ACTION:UP  11-06-22 15:29 OP:REBC STATUS:               ID:20110408160022 L   I
 2011-04-08-1558-44S.COL___138                                                 6
 STAT SP IPHASW D HRMM SECON CODA AMPLIT PERI AZIMU VELO SNR AR TRES W  DIS CAZ7
 BAR2 SZ EP   1   16 0 41.51                             171    -0.2 7   24 206 
 BAR2 SZ ES   2   16 0 56.95                             171    -0.2 5   24 206 
 BAR2 SZ I        16 0 58.16        22.1 0.20                            24 206 
 PAM  SZ EP   1   16 0 44.44                             151     0.3 7   75  35 
 PAM  SN ES   2   16 1  1.71                             151     0.2 5   75  35 
 BRR  HZ EP   1   16 0 43.40                             150    -0.2 7   78 297 
 BRR  HZ I        16 0 43.64        25.9 0.25                            78 297 
 BRR  HN ES   2   16 1  0.46                             150     0.0 5   78 297 
 NOR  SZ EP   1   16 0 57.88                             118    -0.3 6  239 236 
 NOR  SN ES   2   16 1 26.78                             118     0.3 4  239 236 
 CHI  HZ EP   1   16 0 59.65                             117    -0.1 6  249 197 
 CHI  HE ES   2   16 1 29.58                             117     0.4 4  249 197 
 CHI  HZ I        16 1 38.85         5.3 0.34                           249 197 
 HEL  HZ EP   1   16 1  3.37                             114     0.5 6  278 256 
 HEL  HZ I        16 1 41.06         7.2 0.38                           278 256 
                                                                                
