 2017 11 8 1614 50.1 L   6.527 -73.575108.1  RSN  9 0.7 1.7LRSN                1
 GAP= 94        1.23       5.4     4.9  8.9  0.1120E+02  0.1104E+02  0.1774E+02E
 Epicentro: EL CARMEN - SANTANDER                                              3
 ACTION:UPD 17-12-12 19:53 OP:rebc STATUS:               ID:20171108161450 L   I
 OLDACT:UP  17-11-08 23:13 OP:mg   STATUS:               ID:20171108160745     3
 OLDACT:REG 17-11-08 20:50 OP:mg   STATUS:               ID:20171108160745     3
 2017-11-08-1608-00M.COL___430                                                 6
 STAT SP IPHASW D HRMM SECON CODA AMPLIT PERI AZIMU VELO AIN AR TRES W  DIS CAZ7
 BAR2 EZ EP       1615  5.94                             155   -0.1210 44.0  80 
 BAR2 EZ ES   2   1615 18.40                             155   -0.08 5 44.0  80 
 BAR2 EZ I        1615 19.58       102.1 0.42            163           44.0  80 
 BRR  HZ EP       1615  6.75                             145   -0.2610 66.0 347 
 BRR  HN ES       1615 20.91                             145    0.7510 66.0 347 
 BRR  HZ I        1615 27.71        19.2 0.21            151           66.0 347 
 RUS  HZ EP       1615  9.28                             138   -0.1310 88.7 142 
 RUS  HN ES       1615 24.51                             138    0.0710 88.7 142 
 RUS  HZ I        1615 27.95         9.0 0.33            143           88.7 142 
 PTB  HZ IP     D 1615  8.78                             134   -0.7210 97.5 271 
 PTB  HN ES       1615 23.75                             134   -0.8410 97.5 271 
 PTB  HZ I        1615 28.38         8.3 0.22            138           97.5 271 
 ZAR  HZ EP       1615 17.98                             116    0.48 9  178 307 
 ZAR  HE ES   2   1615 40.37                             116    1.52 4  178 307 
 ZAR  HZ I        1615 44.51        12.0 0.33            121            178 307 
 NOR  HZ EP       1615 17.68                             116    0.00 9  179 233 
 NOR  HN ES   2   1615 39.21                             116    0.06 4  179 233 
 NOR  HZ I        1615 43.57         4.9 0.11            120            179 233 
 YPLC HZ EP       1615 17.84                             115   -0.24 9  182 133 
 YPLC HN ES   2   1615 40.59                             115    0.72 4  182 133 
 YPLC HZ I        1615 44.24         6.0 0.24            121            182 133 
 CHI  HZ EP   1   1615 21.88                             112    0.19 6  210 185 
 CHI  HN ES   2   1615 47.19                             112    0.89 4  210 185 
 CHI  HZ I        1615 50.68         2.0 0.28            116            210 185 
 GUY2CHZ EP   2   1615 27.47                             108    1.75 4  245 234 
 GUY2CHN ES   3   1615 56.56                             108    3.08 2  245 234 
 GUY2CHZ I        1616  4.41         3.1 0.33                           245 234 
                                                                                
