 2012  9 8 1325 11.3 L   7.340 -73.109  4.0  RSN  4 0.2 1.5LRSN                1
 GAP=201        0.49       3.0     1.8 67.3 -0.2828E+01  0.4822E+02 -0.1179E+03E
 Epicentro: RIONEGRO - SANTANDER                                               3
 ACTION:UPD 12-10-22 14:17 OP:ep   STATUS:               ID:20120908132511 L   I
 2012-09-08-1320-00M.COL___227                                                 6
 STAT SP IPHASW D HRMM SECON CODA AMPLIT PERI AZIMU VELO AIN AR TRES W  DIS CAZ7
 GIR2 SZ EP       1325 16.54                              94   -0.1010 30.3 198 
 GIR2 SZ ES   1   1325 21.03                              94    0.22 7 30.3 198 
 PAM  SZ EP       1325 19.36                              92    0.1110 45.1  90 
 PAM  SZ I        1325 19.59        24.7 0.10                          45.1  90 
 PAM  SE ES   2   1325 25.02                              92   -0.42 5 45.1  90 
 BRR  HZ EP       1325 22.90                              91    0.1810 71.4 249 
 BRR  HN ES   1   1325 31.34                              91   -0.29 7 71.4 249 
 BRR  HN I        1325 34.02        25.5 0.16                          71.4 249 
 BAR2 SZ ES   1   1325 35.13                              91   -0.07 7 83.1 186 
                                                                                
