 2013  5 8 1419 23.1 L   6.807 -73.153143.3  RSN  7 0.5 2.1LRSN                1
 GAP=135        0.97       4.3     5.4  7.6 -0.4754E+01  0.1420E+02 -0.4540E+01E
 Epicentro: LOS SANTOS - SANTANDER                                             3
 ACTION:UPD 13-06-20 09:48 OP:ep   STATUS:               ID:20130508141923 L   I
 2013-05-08-1418-48M.COL___231                                                 6
 STAT SP IPHASW D HRMM SECON CODA AMPLIT PERI AZIMU VELO AIN AR TRES W  DIS CAZ7
 BAR2 SZ EP   1   1419 42.29                             170   -0.14 7 24.0 188 
 BAR2 SZ ES   1   1419 57.00                             170   -0.52 7 24.0 188 
 BAR2 SZ I        1419 58.17        25.0 0.33            170           24.0 188 
 BRR  HZ EP   1   1419 44.11                             152    0.20 7 70.1 298 
 BRR  HZ I        1419 44.48        21.9 0.30            149           70.1 298 
 BRR  HN ES   1   1420  0.87                             152    0.73 7 70.1 298 
 PAM  SZ EP     C 1419 45.31                             150    0.2710 77.3  40 
 PAM  SN ES       1420  2.15                             150   -0.0110 77.3  40 
 PAM  SZ I        1420  4.16        44.9 0.42            151           77.3  40 
 RUS  HZ EP   1   1419 46.64                             143   -0.02 7  101 176 
 RUS  HN ES       1420  5.01                             143   -0.0310  101 176 
 RUS  HZ I        1420  6.36         8.7 0.42            144            101 176 
 PTB  HZ EP   1   1419 49.30                             131   -0.49 7  147 258 
 PTB  HN ES   1   1420  9.65                             131   -0.97 7  147 258 
 PTB  HZ I        1420 12.03        14.5 0.30            130            147 258 
 NOR  HZ EP   1   1419 58.97                             118    0.32 6  234 234 
 NOR  HN ES   1   1420 27.41                             118    1.03 6  234 234 
 NOR  HZ I        1420 33.02         4.6 0.20            118            234 234 
 SML  HZ EP   1   1419 58.77                             117   -0.69 6  243 335 
 SML  HE ES   1   1420 28.09                             117    0.26 6  243 335 
 SML  HZ I        1420 34.24        19.6 0.10            116            243 335 
                                                                                
