 2013  1 8 1141 39.7 L   6.805 -73.185147.0  RSN  6 0.4 2.4LRSN 3.0WRSN        1
 SPEC AVERAGE  MO 13.6 ST  4.2 OM  2.4 f0 3.92 R0.4166 AL 2.37 WI 17.1 MW  3.0 3
 SPEC SD       MO  0.2 ST  3.4 OM  0.6 f0 1.18 R0.1404 AL      WI      MW  0.1 3
 GAP=184        1.05       4.4     6.4  8.2  0.3566E+01  0.5949E+01  0.1034E+02E
 Epicentro: ZAPATOCA - SANTANDER                                               3
 SPEC CHI HH N MO 13.4 ST0.462 OM  1.6 f0 2.32 R0.6336 AL 1.79 WI 20.1 MW  2.9 3
 SPEC CHI HH N T114245 K 0.000 GD  288 VS 4.20 DE 3.00 Q0230.0 QA 0.60 VS 4.20 3
 SPEC ZAR HH E MO 13.7 ST  9.6 OM  1.9 f0 5.33 R0.2758 AL 2.51 WI 17.7 MW  3.1 3
 SPEC ZAR HH E T114237 K 0.000 GD  248 VS 4.20 DE 3.00 Q0230.0 QA 0.60 VS 4.20 3
 SPEC OCA HH N MO 13.8 ST  3.2 OM  2.1 f0 3.30 R0.4455 AL 2.04 WI 15.3 MW  3.1 3
 SPEC OCA HH N T114227 K 0.000 GD  216 VS 4.20 DE 3.00 Q0230.0 QA 0.60 VS 4.20 3
 SPEC BRR HH N MO 13.4 ST  3.5 OM  1.8 f0 4.72 R0.3114 AL 3.13 WI 15.1 MW  2.9 3
 SPEC BRR HH N T114217 K 0.000 GD  161 VS 4.20 DE 3.00 Q0230.0 QA 0.60 VS 4.20 3
 ACTION:UPD 13-02-15 09:12 OP:ep   STATUS:               ID:20130108114139 L   I
 2013-01-08-1140-00M.COL___242                                                 6
 STAT SP IPHASW D HRMM SECON CODA AMPLIT PERI AZIMU VELO AIN AR TRES W  DIS CAZ7
 BAR2 SZ EP       1141 59.38                             170   -0.0610 23.6 179 
 BAR2 SZ ES       1142 14.49                             170   -0.3810 23.6 179 
 BAR2 SZ I        1142 15.80        56.7 0.24            170           23.6 179 
 BRR  HZ EP       1142  1.19                             154    0.4710 67.1 300 
 BRR  HN ES       1142 17.99                             154    0.8510 67.1 300 
 BRR  HN I        1142 18.59        50.7 0.22            150           67.1 300 
 PTB  HZ EP       1142  6.17                             133   -0.18 9  144 258 
 PTB  HN ES       1142 26.76                             133   -0.41 9  144 258 
 PTB  HN I        1142 29.72        25.9 0.26            130            144 258 
 OCA  HN ES       1142 29.59                             130   -0.46 9  159 355 
 OCA  HN I        1142 34.23        53.5 0.28            128            159 355 
 ZAR  HN ES       1142 36.67                             123   -0.10 9  200 292 
 ZAR  HN I        1142 45.02        21.1 0.26            121            200 292 
 CHI  HZ EP       1142 17.67                             117    0.30 8  248 194 
 CHI  HN ES       1142 46.67                             117   -0.11 8  248 194 
 CHI  HN I        1142 52.80        13.7 0.50            116            248 194 
                                                                                
