 2012 10 8 1016 42.1 L   7.270 -73.145133.2  RSN  5 0.4 1.8LRSN                1
 GAP=260        0.56       9.0     6.5  7.2  0.3548E+02  0.1080E+01 -0.1940E+02E
 Epicentro: RIONEGRO - SANTANDER                                               3
 ACTION:UPD 12-11-22 17:02 OP:ep   STATUS:               ID:20121008101642 L   I
 2012-10-08-1010-00M.COL___222                                                 6
 STAT SP IPHASW D HRMM SECON CODA AMPLIT PERI AZIMU VELO AIN AR TRES W  DIS CAZ7
 GIR2 SZ EP       1017  0.02                             169   -0.0310 21.8 194 
 GIR2 SZ ES   1   1017 13.68                             169   -0.37 7 21.8 194 
 BRR  HZ EP       1017  1.65                             151    0.0910 65.2 254 
 BRR  HZ I        1017 23.53         7.1 0.14                          65.2 254 
 BAR2 SZ EP       1017  2.58                             148    0.0810 75.1 183 
 BAR2 SZ ES   1   1017 18.70                             148    0.30 7 75.1 183 
 BAR2 SZ I        1017 20.04        16.6 0.20                          75.1 183 
 RUS  HN ES   3   1017 28.83                             127   -1.44 2  152 177 
 ZAR  HE ES   1   1017 35.92                             121   -0.05 7  191 278 
 ZAR  HN I        1017 40.85        10.9 0.28                           191 278 
                                                                                
