 2015  2 8 1023 40.6 L   6.816 -73.146150.1  RSN 13 0.4 2.1LRSN                1
 GAP= 70        0.95       2.9     3.1  4.9 -0.1010E+01  0.2374E+01  0.1242E+01E
 Epicentro: LOS SANTOS - SANTANDER                                             3
 ACTION:UPD 15-04-30 21:23 OP:nd   STATUS:               ID:20150208102340 L   I
 OLDACT:UP  15-02-08 21:18 OP:cam  STATUS:               ID:20150208101743     3
 OLDACT:UP  15-02-08 21:17 OP:cam  STATUS:               ID:20150208101743     3
 OLDACT:UP  15-02-08 21:17 OP:cam  STATUS:               ID:20150208101743     3
 OLDACT:REG 15-02-08 19:59 OP:cam  STATUS:               ID:20150208101743     3
 2015-02-08-1017-43M.COL___293                                                 6
 STAT SP IPHASW D HRMM SECON CODA AMPLIT PERI AZIMU VELO AIN AR TRES W  DIS CAZ7
 BAR2 EZ EP     D 1024  0.63                             170   -0.1410 25.1 189 
 BAR2 EZ ES       1024 16.11                             170   -0.4110 25.1 189 
 BAR2 EZ I        1024 18.38        17.0 0.28            168           25.1 189 
 BRR  HZ EP       1024  2.50                             153    0.3510 70.3 297 
 BRR  HN ES       1024 19.97                             153    0.9910 70.3 297 
 BRR  HN I        1024 24.10        39.1 0.16            151           70.3 297 
 PAM  SZ EP       1024  3.43                             152    0.2410 76.1  40 
 PAM  SE ES       1024 20.72                             152   -0.0910 76.1  40 
 PAM  SZ I        1024 22.74        17.8 0.48            156           76.1  40 
 RUS  HZ EP       1024  4.53                             144   -0.3610  102 176 
 RUS  HE ES       1024 23.63                             144   -0.2210  102 176 
 RUS  HZ I        1024 24.85         7.0 0.50            146            102 176 
 PTB  HZ EP       1024  7.78                             133   -0.16 9  148 258 
 PTB  HN ES       1024 28.58                             133   -0.69 9  148 258 
 PTB  HZ I        1024 34.44        15.6 0.22            132            148 258 
 TAM  HZ EP       1024  8.78                             131    0.12 9  156 106 
 TAM  HN ES       1024 30.69                             131    0.14 9  156 106 
 TAM  HN I        1024 31.37        25.9 0.34            136            156 106 
 SPBC HZ EP       1024  9.54                             130   -0.01 9  165 219 
 SPBC HN ES       1024 32.55                             130    0.42 9  165 219 
 SPBC HZ I        1024 38.65        24.3 0.38            130            165 219 
 NOR  HZ EP   4   1024 15.69                             119   -0.98 0  236 234 
 NOR  HN ES       1024 44.83                             119    0.01 8  236 234 
 NOR  HZ I        1024 51.82        13.1 0.24            120            236 234 
 SML  HZ EP       1024 16.86                             118   -0.42 8  242 335 
 SML  HN ES       1024 45.56                             118   -0.34 8  242 335 
 SML  HZ I        1024 51.69        16.8 0.26            119            242 335 
 CHI  HZ EP       1024 18.82                             118    0.11 8  250 195 
 CHI  HN ES       1024 48.22                             118   -0.23 8  250 195 
 CHI  HZ I        1024 52.05         4.2 0.38            119            250 195 
 HEL  HZ EP   4   1024 22.74                             116    1.68 0  272 255 
 HEL  HN ES   4   1024 50.48                             116   -2.16 0  272 255 
 HEL  HZ I        1024 59.19         5.8 0.36            116            272 255 
 URE  HN ES   4   1024 51.68                             114   -2.25 0  283 292 
 GUY2CHZ EP       1024 24.81                             113    0.30 7  302 234 
 GUY2CHE ES   4   1025  1.36                             113    2.60 0  302 234 
 GUY2CHZ I        1025  7.46         9.2 0.76                           302 234 
 TOL  SZ EP       1024 29.66                             110    0.50 7  345 224 
 TOL  SN ES   4   1025  9.40                             110    2.36 0  345 224 
 TOL  SZ I        1025 14.54         5.5 0.42            111            345 224 
                                                                                
