 2014  6 8 1353 52.1 L   6.799 -73.180140.4  RSN 17 0.6 2.2LRSN                1
 GAP= 69        1.27       3.0     4.0  5.8 -0.2151E+01  0.4713E+01  0.2024E+01E
 Epicentro: LOS SANTOS - SANTANDER                                             3
 ACTION:UPD 14-07-01 22:52 OP:nd   STATUS:               ID:20140608135352 L   I
 OLDACT:DUP 14-06-08 23:39 OP:stll STATUS:               ID:20140608134815d    3
 2014-06-08-1348-14M.COL___262                                                 6
 STAT SP IPHASW D HRMM SECON CODA AMPLIT PERI AZIMU VELO AIN AR TRES W  DIS CAZ7
 BAR2 SZ EP       1354 11.29                             170    0.2110 22.9 181 
 BAR2 SZ ES       1354 25.71                             170   -0.1710 22.9 181 
 BAR2 SZ I        1354 27.48        35.6 0.22            170           22.9 181 
 BRR  HZ IP     C 1354 13.08                             153    0.5910 67.9 300 
 BRR  HN ES       1354 29.46                             153    1.0710 67.9 300 
 BRR  HZ I        1354 33.38        21.6 0.44            150           67.9 300 
 PAM  SZ EP       1354 14.35                             149    0.4410 79.9  42 
 PAM  SN ES   1   1354 30.25                             149   -0.67 7 79.9  42 
 RUS  HZ EP       1354 15.39                             143    0.0410  101 174 
 RUS  HN ES       1354 33.47                             143   -0.0110  101 174 
 RUS  HZ I        1354 34.94        22.6 0.26            145            101 174 
 PTB  HZ EP       1354 17.91                             132   -0.38 9  144 259 
 PTB  HN ES       1354 38.55                             132   -0.17 9  144 259 
 PTB  HZ I        1354 40.78        16.9 0.12            131            144 259 
 TAM  HZ IP     D 1354 19.72                             129    0.01 9  159 105 
 TAM  HZ I        1354 19.85        31.7 0.18            133            159 105 
 OCA  HZ EP       1354 19.38                             128   -0.59 9  160 354 
 OCA  HE ES       1354 41.23                             128   -0.48 9  160 354 
 OCA  HZ I        1354 47.84        14.7 0.42            129            160 354 
 SPBC HZ EP       1354 20.09                             128    0.13 9  161 218 
 SPBC HE ES       1354 41.56                             128   -0.13 9  161 218 
 SPBC HZ I        1354 44.85        27.9 0.38            129            161 218 
 ZAR  HZ EP       1354 23.84                             122   -0.00 9  201 293 
 ZAR  HN ES       1354 48.33                             122   -0.26 9  201 293 
 ZAR  HZ I        1354 54.78        11.9 0.26            122            201 293 
 NOR  HZ EP       1354 27.29                             118    0.10 8  232 234 
 NOR  HE ES       1354 54.31                             118   -0.24 8  232 234 
 NOR  HZ I        1355  1.21        14.4 0.20            118            232 234 
 SML  HZ EP       1354 27.97                             116   -0.30 8  242 336 
 SML  HE ES       1354 56.51                             116    0.03 8  242 336 
 SML  HZ I        1355  0.38        29.1 0.26            117            242 336 
 CHI  HZ EP   1   1354 29.14                             116   -0.25 6  248 194 
 CHI  HZ I        1354 30.01         9.8 0.20            117            248 194 
 CHI  HN ES       1354 58.04                             116   -0.44 8  248 194 
 HEL  HZ EP       1354 32.68                             114    1.05 8  268 256 
 HEL  HE ES       1355  2.12                             114   -0.35 8  268 256 
 HEL  HZ I        1355  9.43         8.6 0.28            114            268 256 
 GUY2CHZ EP       1354 34.44                             112   -0.67 7  298 234 
 GUY2CHN ES       1355  6.99                             112   -1.66 7  298 234 
 GUY2CHZ I        1355 15.37         6.3 0.34                           298 234 
 RREF HZ EP       1354 39.07                             110    1.39 7  319 229 
 RREF HE ES       1355 14.40                             110    1.17 7  319 229 
 RREF HZ I        1355 23.51        10.2 0.44            111            319 229 
 PRA  HZ EP       1354 45.23                             106    0.01 6  390 209 
 PRA  HZ I        1354 47.68         4.4 0.34            107            390 209 
 PRA  HN ES       1355 26.26                             106   -0.38 6  390 209 
 ORTC HZ EP       1354 45.45                             106   -0.12 6  393 216 
 ORTC HE ES       1355 27.70                             106    0.42 6  393 216 
 ORTC HZ I        1355 32.65         4.9 0.36            106            393 216 
                                                                                
