 2011  2 8 1131 36.7 L   6.830 -73.123143.4  RSN  6 0.2 1.9LRSN                1
 GAP=176        0.50       4.8     5.0  4.6 -0.1205E+02  0.4752E+01 -0.2865E+01E
 Epicentro: LOS SANTOS - SANTANDER                                             3
 ACTION:UP  11-03-28 15:06 OP:jfem STATUS:               ID:20110208113136 L   I
 2011-02-08-1120-00M.COL___140                                                 6
 STAT SP IPHASW D HRMM SECON CODA AMPLIT PERI AZIMU VELO SNR AR TRES W  DIS CAZ7
 BAR2 SZ EP   1   1131 56.54                             169     0.4 8   27 194 
 BAR2 SZ ES   1   1132 11.19                             169    -0.1 8   27 194 
 BAR2 SZ I        1132 14.42        20.6 0.43                            27 194 
 RUS  HZ EP       1132  0.48                             143     0.010  104 178 
 RUS  HN ES   1   1132 19.07                             143     0.1 7  104 178 
 RUS  HZ I        1132 20.37         8.1 0.58                           104 178 
 NOR  SZ EP   1   1132 13.04                             118     0.3 6  239 234 
 NOR  SN ES   1   1132 40.54                             118    -0.3 6  239 234 
 CHI  HZ EP       1132 14.51                             116    -0.2 8  253 196 
 CHI  HE ES   1   1132 44.40                             116     0.0 6  253 196 
 CHI  HZ I        1132 51.65         3.8 0.27                           253 196 
 RREF HN ES   2   1132 59.85                             110     0.3 3  326 229 
 SDV  BZ EP   1   1132 26.02                             108    -0.2 5  356  50 
 SDV  BZ I        1132 26.94         3.5 0.30                           356  50 
                                                                                
