 2012  3 8 1429 56.9 L   6.800 -73.162144.4  RSN  5 0.3 1.6LRSN                1
 GAP=236        0.78       9.1     9.3 10.6  0.6033E+02 -0.2972E+01 -0.5898E+01E
 ACTION:UP  12-03-31 23:18 OP:EP   STATUS:               ID:20120308142956 L   I
 2012-03-08-1430-00M.COL___194                                                 6
 STAT SP IPHASW D HRMM SECON CODA AMPLIT PERI AZIMU VELO SNR AR TRES W  DIS CAZ7
 BAR2 SZ EP   1   1430 15.86                             170    -0.5 7   23 186 
 BAR2 SZ I        1430 35.20         7.4 0.50                            23 186 
 BRR  HZ EP   1   1430 18.47                             153     0.7 7   70 299 
 BRR  HZ I        1430 32.37        18.2 0.53                            70 299 
 BRR  HE ES   1   1430 33.89                             153    -0.2 7   70 299 
 RUS  HZ EP   1   1430 20.38                             143    -0.1 7  101 175 
 RUS  HE ES   1   1430 39.21                             143     0.3 7  101 175 
 RUS  HZ I        1430 40.51         2.7 0.51                           101 175 
 PTB  HZ EP   1   1430 23.40                             132    -0.2 7  146 259 
 PTB  HN ES   2   1430 44.32                             132    -0.1 5  146 259 
 ZAR  HN ES   1   1430 54.23                             122     0.1 6  202 292 
                                                                                
