 2013  5 8 1827 31.6 L   6.776 -73.155150.4  RSN  5 0.3 1.6LRSN                1
 GAP=137        0.77       5.0     4.9  6.7 -0.4676E+01  0.3841E+01  0.3562E+01E
 Epicentro: LOS SANTOS - SANTANDER                                             3
 ACTION:UPD 13-06-20 09:48 OP:ep   STATUS:               ID:20130508182731 L   I
 2013-05-08-1820-00M.COL___256                                                 6
 STAT SP IPHASW D HRMM SECON CODA AMPLIT PERI AZIMU VELO AIN AR TRES W  DIS CAZ7
 BAR2 SZ EP   1   1827 51.41                             172   -0.29 7 20.5 189 
 BAR2 SZ ES   1   1828  7.43                             172    0.03 7 20.5 189 
 BAR2 SZ I        1828  8.18         8.0 0.25            171           20.5 189 
 BRR  HZ EP     C 1827 53.34                             153    0.1010 71.7 301 
 BRR  HZ I        1827 53.41        14.1 0.28            153           71.7 301 
 BRR  HN ES   1   1828 10.72                             153    0.57 7 71.7 301 
 PAM  SZ EP       1827 54.27                             151   -0.1710 80.1  39 
 PAM  SZ I        1827 54.45         7.8 0.20            152           80.1  39 
 PAM  SN ES       1828 12.08                             151   -0.1910 80.1  39 
 RUS  HZ EP       1827 56.17                             145    0.5810 98.0 175 
 RUS  HN ES   1   1828 14.06                             145   -0.27 7 98.0 175 
 RUS  HZ I        1828 15.05         4.6 0.46            145           98.0 175 
 PTB  HZ EP   1   1827 58.44                             133   -0.35 7  146 260 
 PTB  HN ES   1   1828 19.68                             133   -0.34 7  146 260 
 PTB  HZ I        1828 21.20         4.9 0.52            133            146 260 
                                                                                
