 2011  2 8 1400 20.1 L   6.765 -73.117141.6  RSN 12 0.5 2.5LRSN                1
 GAP=104        1.08       4.5     6.7  7.7 -0.8608E+01  0.1581E+02 -0.6221E+01E
 Epicentro: LOS SANTOS - SANTANDER                                             3
 ACTION:UP  11-03-28 15:06 OP:jfem STATUS:               ID:20110208140020 L   I
 2011-02-08-1356-05S.COL___137                                                 6
 STAT SP IPHASW D HRMM SECON CODA AMPLIT PERI AZIMU VELO SNR AR TRES W  DIS CAZ7
 BAR2 SZ EP       14 0 39.25                             171     0.110   20 201 
 BAR2 SZ ES   1   14 0 53.58                             171    -0.4 7   20 201 
 BAR2 SZ I        14 0 54.87       156.3 0.31                            20 201 
 BTL  SZ EP   1   14 0 39.48                             170     0.3 7   24 316 
 GIR2 SZ EP   1   14 0 40.34                             165     1.0 7   36 346 
 RUS  HZ EP   1   14 0 43.19                             144     0.1 7   97 178 
 RUS  HN ES       14 1  1.06                             144     0.010   97 178 
 RUS  HZ I        14 1  3.53        39.3 0.38                            97 178 
 GRA  SZ EP       14 0 45.38                             135     0.210  129  16 
 GRA  SZ ES   1   14 1  4.40                             135    -0.4 7  129  16 
 GRA  SZ I        14 1  5.77       126.9 0.38                           129  16 
 YOP  SZ EP   1   14 0 48.77                             126    -0.6 7  174 154 
 YOP  SN ES   1   14 1 12.55                             126     0.4 7  174 154 
 YOP  SZ I        14 1 14.35        25.5 0.46                           174 154 
 NOR  SZ EP       14 0 55.26                             118    -0.3 8  235 236 
 NOR  SN ES   1   14 1 22.45                             118    -0.9 6  235 236 
 CHI  HZ EP   1   14 0 57.53                             117     0.3 6  246 196 
 CHI  HE ES   2   14 1 26.46                             117     0.3 4  246 196 
 CHI  HZ I        14 1 32.68         8.9 0.37                           246 196 
 HEL  HZ EP   1   14 1  1.10                             114     0.8 6  274 257 
 RREF HZ EP   1   14 1  5.68                             110    -0.3 5  322 230 
 RREF HZ I        14 1 51.28        16.9 0.19                           322 230 
 DBB  SZ EP   1   14 1  8.06                             108     0.3 5  343 275 
 SDV  BZ EP       14 1  9.03                             107    -0.9 6  361  49 
 SDV  BZ I        14 1  9.81        12.2 0.07                           361  49 
                                                                                
