 2011  4 8 1737  9.6 L   6.787 -73.106144.1  RSN  8 0.3 2.5LRSN                1
 GAP=160        0.65       3.5     5.1  5.2 -0.8528E+01  0.4450E+01  0.3105E+01E
 Epicentro: LOS SANTOS - SANTANDER                                             3
 ACTION:UP  11-06-22 15:29 OP:REBC STATUS:               ID:20110408173709 L   I
 2011-04-08-1735-35S.COL___138                                                 6
 STAT SP IPHASW D HRMM SECON CODA AMPLIT PERI AZIMU VELO SNR AR TRES W  DIS CAZ7
 BAR2 SZ IP       1737 29.06                             170     0.010   23 201 
 BAR2 SZ ES   1   1737 43.65                             170    -0.6 7   23 201 
 BAR2 SZ I        1737 44.98        91.6 0.27                            23 201 
 PAM  SZ EP   1   1737 31.87                             151     0.3 7   76  36 
 PAM  SZ I        1737 32.15        34.8 0.22                            76  36 
 PAM  SN ES   1   1737 48.99                             151     0.3 7   76  36 
 BRR  HZ IP     C 1737 30.90                             151     0.010   76 298 
 BRR  HZ I        1737 31.18       148.4 0.18                            76 298 
 BRR  HN ES   1   1737 47.88                             151     0.5 7   76 298 
 GRA  SZ EP   1   1737 34.90                             136     0.2 7  126  15 
 GRA  SZ I        1737 36.33        51.6 0.26                           126  15 
 GRA  SZ ES   1   1737 54.05                             136    -0.3 7  126  15 
 OCA  SZ EP   1   1737 37.59                             129    -0.4 7  162 352 
 OCA  SZ ES   1   1738  0.01                             129    -0.1 7  162 352 
 OCA  SZ I        1738  2.73        41.9 0.18                           162 352 
 NOR  SZ EP   1   1737 45.54                             118     0.0 6  237 235 
 NOR  SN ES   1   1738 13.51                             118    -0.1 6  237 235 
 CHI  HZ EP   1   1737 47.26                             117     0.0 6  248 196 
 CHI  HN ES   2   1738 16.81                             117     0.3 4  248 196 
 CHI  HZ I        1738 23.35        14.5 0.52                           248 196 
 HEL  HZ EP   1   1737 50.12                             114    -0.1 6  276 256 
 HEL  HZ I        1738 28.13        18.7 0.41                           276 256 
                                                                                
