 2013  9 8 1308 28.2 L   6.804 -73.158145.2  RSN 10 0.4 2.3LRSN                1
 GAP=135        0.84       3.2     3.7  6.1 -0.1752E+01  0.8005E+01 -0.3390E+01E
 Epicentro: LOS SANTOS - SANTANDER                                             3
 ACTION:UPD 13-10-22 09:21 OP:ep   STATUS:               ID:20130908130828 L   I
 OLDACT:UP  13-09-08 16:04 OP:mh   STATUS:               ID:20130908130739     3
 OLDACT:REG 13-09-08 12:34 OP:mh   STATUS:               ID:20130908130739     3
 2013-09-08-1307-39M.COL___244                                                 6
 STAT SP IPHASW D HRMM SECON CODA AMPLIT PERI AZIMU VELO AIN AR TRES W  DIS CAZ7
 BAR2 SZ EP       13 8 47.90                             170    0.1610 23.5 187 
 BAR2 SZ ES   1   13 9  2.63                             170   -0.37 7 23.5 187 
 BAR2 SZ I        13 9  4.03        45.0 0.30            171           23.5 187 
 BRR  HZ IP     C 13 8 49.73                             153    0.5510 69.8 299 
 BRR  HN ES   1   13 9  6.28                             153    0.71 7 69.8 299 
 BRR  HZ I        13 9 10.02        43.7 0.30            149           69.8 299 
 PAM  SZ EP   1   13 8 50.81                             150    0.45 7 77.9  41 
 PAM  SN ES       13 9  7.61                             150   -0.0610 77.9  41 
 PAM  SZ I        13 9 10.04        23.8 0.48            153           77.9  41 
 RUS  HZ EP   1   13 8 51.79                             143   -0.12 7  101 175 
 RUS  HN ES       13 9 10.18                             143   -0.2410  101 175 
 RUS  HZ I        13 9 11.50        28.5 0.28            148            101 175 
 PTB  HZ EP   1   13 8 54.40                             132   -0.58 7  146 259 
 PTB  HN ES       13 9 15.36                             132   -0.53 9  146 259 
 PTB  HZ I        13 9 17.59        21.9 0.16            132            146 259 
 OCA  HZ EP   1   13 8 56.41                             129    0.02 7  160 354 
 OCA  HN ES   1   13 9 18.26                             129   -0.13 7  160 354 
 OCA  HZ I        13 9 21.48        24.8 0.16            130            160 354 
 SPBC HZ EP   1   13 8 56.77                             129    0.19 7  163 219 
 SPBC HN ES   2   13 9 18.67                             129   -0.06 5  163 219 
 SPBC HZ I        13 9 21.45        36.9 0.68            131            163 219 
 ZAR  HZ EP   1   13 9  0.25                             122   -0.19 6  203 292 
 ZAR  HN ES   1   13 9 25.73                             122    0.13 6  203 292 
 ZAR  HZ I        13 9 31.50        36.1 0.36            122            203 292 
 SML  HZ EP   1   13 9  4.21                             117   -0.46 6  243 336 
 SML  HN ES   1   13 9 32.46                             117   -0.67 6  243 336 
 SML  HZ I        13 9 40.57        33.1 0.24            118            243 336 
 HEL  HZ EP   4   13 9  9.48                             115    1.26 0  271 256 
 HEL  HN ES       13 9 40.07                             115    0.61 8  271 256 
 HEL  HZ I        13 9 47.05         7.4 0.22            116            271 256 
                                                                                
