 2015  9 8 1308 32.2 L   6.765 -73.188142.2  RSN  5 0.2 1.7LRSN                1
 GAP=230        0.50       2.9     3.1  3.7  0.2030E+01  0.1703E+01  0.1220E+01E
 Epicentro: LOS SANTOS - SANTANDER                                             3
 ACTION:UPD 15-10-28 16:25 OP:cam  STATUS:               ID:20150908130832 L   I
 OLDACT:REG 15-09-08 20:29 OP:stll STATUS:               ID:20150908125749     3
 2015-09-08-1257-49M.COL___362                                                 6
 STAT SP IPHASW D HRMM SECON CODA AMPLIT PERI AZIMU VELO AIN AR TRES W  DIS CAZ7
 BAR2 EZ IP     C 13 8 51.17                             172   -0.1110 19.1 178 
 BAR2 EZ I        13 8 51.26        14.0 0.40            167           19.1 178 
 BAR2 EZ ES       13 9  6.29                             172    0.1010 19.1 178 
 BRR  HZ EP     C 13 8 53.02                             153    0.2110 69.2 303 
 BRR  HN ES       13 9  8.91                             153   -0.0010 69.2 303 
 RUS  HZ EP       13 8 55.19                             144   -0.1210 97.1 173 
 RUS  HZ I        13 8 55.94         4.7 0.10            143           97.1 173 
 RUS  HN ES       13 9 13.27                             144   -0.1010 97.1 173 
 PTB  HZ EP       13 8 58.05                             132   -0.30 9  142 260 
 PTB  HN ES       13 9 18.67                             132   -0.11 9  142 260 
 PTB  HZ I        13 9 26.22         5.3 0.36            129            142 260 
 SPBC HZ EP       13 9  0.16                             129    0.35 9  157 219 
 SPBC HE ES       13 9 21.48                             129    0.10 9  157 219 
 SPBC HZ I        13 9 24.84        10.4 0.20            127            157 219 
                                                                                
