 2013  8 8 1351 35.5 L   6.137 -73.995 18.9  RSN 13 0.5 2.4LRSN                1
 GAP= 84        0.96       2.1     2.5  3.7 -0.1563E+01  0.2952E+01  0.1081E+01E
 Epicentro: CIMITARRA - SANTANDER                                              3
 ACTION:UPD 14-01-14 09:00 OP:ep   STATUS:               ID:20130808135135 L   I
 OLDACT:UP  13-08-08 18:45 OP:mh   STATUS:               ID:20130808134959     3
 OLDACT:REG 13-08-08 15:55 OP:mh   STATUS:               ID:20130808134959     3
 2013-08-08-1349-59M.COL___269                                                 6
 STAT SP IPHASW D HRMM SECON CODA AMPLIT PERI AZIMU VELO AIN AR TRES W  DIS CAZ7
 SPBC HZ EP       1351 44.93                             107    0.2110 54.3 189 
 SPBC HN ES   1   1351 51.73                             107   -0.21 7 54.3 189 
 SPBC HZ I        1351 54.25       156.7 0.24             90           54.3 189 
 PTB  HZ EP       1351 46.69                             103    0.0810 67.7 311 
 PTB  HN ES   1   1351 55.74                             103    0.44 7 67.7 311 
 PTB  HZ I        1351 56.09       794.4 0.14             90           67.7 311 
 BAR2 SZ EP   1   1351 52.12                              99    0.02 7  103  61 
 BAR2 SZ ES   1   1352  4.79                              99   -0.27 7  103  61 
 BAR2 SZ I        1352  6.14        63.3 0.38             90            103  61 
 RUS  HZ EP       1351 52.02                              99   -0.5610  105 105 
 RUS  HN ES   4   1352  3.93                              99   -2.00 0  105 105 
 RUS  HZ I        1352  5.28        43.1 0.28             90            105 105 
 BRR  HZ EP   1   1351 53.26                              98    0.11 7  112  16 
 BRR  HN ES       1352  7.02                              98    0.0810  112  16 
 BRR  HZ I        1352  9.57        92.5 0.12             90            112  16 
 GIR2 SZ EP   1   1351 57.16                              56    0.44 7  137  40 
 GIR2 SZ ES   1   1352 13.76                              56    0.48 7  137  40 
 GIR2 SZ I        1352 15.04       120.2 0.42             90            137  40 
 CHI  HZ EP   4   1352  2.90                              56    1.79 0  169 170 
 CHI  HN ES   4   1352 22.31                              56    1.21 0  169 170 
 CHI  HN I        1352 25.64        41.1 0.24             90            169 170 
 HEL  HZ EP   1   1352  0.52                              56   -0.61 7  170 272 
 HEL  HN ES   1   1352 20.20                              56   -0.95 7  170 272 
 HEL  HN I        1352 21.99        35.1 0.46             90            170 272 
 ZAR  HZ EP   1   1352  0.77                              56   -0.90 7  178 328 
 ZAR  HN I        1352 28.25        49.1 0.30             56            178 328 
 GUY2CHZ EP   1   1352  3.33                              56    0.52 7  182 236 
 GUY2CHN ES   1   1352 23.72                              56   -0.41 7  182 236 
 GUY2CHN I        1352 25.88        37.7 0.42                           182 236 
 PAM  SZ EP   4   1352  5.89                              56    1.42 0  195  47 
 PAM  SN ES   4   1352 28.84                              56    1.76 0  195  47 
 PAM  SN I        1352 29.90        43.5 0.44             56            195  47 
 RREF HZ EP   1   1352  6.06                              56    0.49 6  203 228 
 RREF HN ES       1352 28.98                              56   -0.07 9  203 228 
 ORTC HZ EP   1   1352 15.66                              55    0.83 6  283 209 
 ORTC HE ES       1352 46.14                              55    0.62 7  283 209 
 ORTC HE I        1352 59.86        18.4 0.26             56            283 209 
                                                                                
