 2011  1 8 1944  2.6 L   6.752 -73.171140.2  RSN 11 0.3 2.1LRSN                1
 GAP=134        0.57       2.4     4.1  5.0 -0.1141E+01  0.7084E+01  0.1447E+01E
 Epicentro: VILLANUEVA - SANTANDER                                             3
 ACTION:UP  11-02-08 08:39 OP:pat  STATUS:               ID:20110108194402 L   I
 2011-01-08-1940-29S.COL___135                                                 6
 STAT SP IPHASW D HRMM SECON CODA AMPLIT PERI AZIMU VELO SNR AR TRES W  DIS CAZ7
 BAR2 SZ EP   1   1944 21.31                             172    -0.1 7   18 184 
 BAR2 SZ ES   1   1944 35.99                             172    -0.2 7   18 184 
 BAR2 SZ I        1944 39.26        51.9 0.24                            18 184 
 BTL  SZ EP       1944 21.74                             171     0.210   21 330 
 GIR2 SZ EP   1   1944 21.47                             165    -0.3 7   36 356 
 RUS  HZ EP       1944 25.22                             144    -0.210   96 174 
 RUS  HZ I        1944 26.09        11.8 0.21                            96 174 
 RUS  HN ES   2   1944 43.46                             144     0.2 5   96 174 
 GRA  SZ EP   1   1944 28.00                             134     0.2 7  132  18 
 GRA  SZ ES   1   1944 47.92                             134     0.4 7  132  18 
 GRA  SZ I        1944 52.11        14.1 0.33                           132  18 
 OCA  SZ EP   1   1944 30.36                             127    -0.6 7  165 354 
 OCA  SZ I        1944 57.05        15.2 0.15                           165 354 
 YOP  SZ EP   1   1944 31.95                             125     0.0 7  176 152 
 YOP  SZ I        1944 33.17         9.9 0.31                           176 152 
 YOP  SN ES   1   1944 54.78                             125     0.0 7  176 152 
 NOR  SZ EP   1   1944 37.36                             118    -0.1 6  230 235 
 NOR  SE ES   2   1945  4.28                             118    -0.3 4  230 235 
 CHI  HZ EP       1944 39.52                             116     0.2 8  243 195 
 CHI  HE ES   2   1945  8.39                             116     0.4 4  243 195 
 CHI  HZ I        1945 19.00         7.9 0.65                           243 195 
 HEL  HZ EP   1   1944 42.55                             114     0.5 6  268 257 
 HEL  HN ES   2   1945 13.10                             114     0.2 4  268 257 
 HEL  HZ I        1945 21.58        11.8 0.26                           268 257 
 PRA  HZ EP   2   1944 55.20                             106     0.0 3  386 210 
 PRA  HN ES   2   1945 36.02                             106    -0.3 3  386 210 
                                                                                
