 2014  3 8 1908 35.2 L   6.736 -73.122151.4  RSN  4 0.6 1.0LRSN                1
 GAP=142        1.51       8.6     8.2 14.0 -0.9373E+01  0.6011E+01  0.2087E+02E
 Epicentro: JORDAN - SANTANDER                                                 3
 ACTION:UPD 14-04-09 23:15 OP:nd   STATUS:               ID:20140308190835 L   I
 OLDACT:UP  14-03-08 20:35 OP:stll STATUS:               ID:20140308185820d    3
 OLDACT:DUP 14-03-08 20:33 OP:stll STATUS:               ID:20140308185820d    3
 2014-03-08-1858-19M.COL___228                                                 6
 STAT SP IPHASW D HRMM SECON CODA AMPLIT PERI AZIMU VELO AIN AR TRES W  DIS CAZ7
 BRR  HE ES       19 9 15.14                             152    0.6210 77.0 302 
 PAM  SZ EP       19 8 58.80                             151    0.5510 81.4  35 
 PAM  SN ES       19 9 15.55                             151   -0.6910 81.4  35 
 RUS  HZ EP       19 8 58.38                             147   -0.6410 93.4 177 
 RUS  HZ I        19 9  0.78         1.1 0.32            145           93.4 177 
 RUS  HN ES       19 9 18.09                             147    0.4910 93.4 177 
 PTB  HZ EP       19 9  3.12                             133    0.36 9  149 262 
 PTB  HZ I        19 9  5.52         1.9 0.44            130            149 262 
 PTB  HN ES       19 9 23.52                             133   -0.74 9  149 262 
                                                                                
