 2015  9 8 1020 18.8 L   6.760 -73.349141.1  RSN  5 0.6 1.3LRSN                1
 GAP=155        1.47       8.4    10.4 11.5  0.2930E+02 -0.1759E+02 -0.2840E+02E
 Epicentro: ZAPATOCA - SANTANDER                                               3
 ACTION:UPD 15-10-28 16:25 OP:cam  STATUS:               ID:20150908102018 L   I
 OLDACT:REG 15-09-08 20:19 OP:stll STATUS:               ID:20150908101749     3
 2015-09-08-1017-49M.COL___356                                                 6
 STAT SP IPHASW D HRMM SECON CODA AMPLIT PERI AZIMU VELO AIN AR TRES W  DIS CAZ7
 BAR2 EZ EP       1020 37.35                             169   -0.5910 26.2 135 
 BAR2 EZ ES       1020 52.42                             169   -0.4510 26.2 135 
 BAR2 EZ I        1020 54.22         5.6 0.20            165           26.2 135 
 BRR  HZ EP       1020 39.75                             157    1.1210 55.5 314 
 BRR  HN ES       1020 54.61                             157    0.5210 55.5 314 
 RUS  HZ EP       1020 42.41                             143    0.3210  100 163 
 PTB  HZ EP   4   1020 44.17                             136    0.80 0  125 259 
 PTB  HN ES       1021  2.11                             136   -0.4210  125 259 
 PTB  HZ I        1021 12.89         2.5 0.30            129            125 259 
 SML  HZ EP       1020 54.29                             117   -0.41 8  239 341 
 SML  HZ I        1020 55.40         1.9 0.24            117            239 341 
 SML  HN ES       1021 22.30                             117   -0.40 8  239 341 
                                                                                
