 2014  8 8 1747 14.4 L   6.797 -73.121151.4  RSN 10 0.4 1.7LRSN                1
 GAP=140        1.10       4.2     4.5  6.6 -0.2858E+01  0.8142E+01  0.5738E+01E
 Epicentro: LOS SANTOS - SANTANDER                                             3
 ACTION:UPD 14-09-15 21:47 OP:nd   STATUS:               ID:20140808174714 L   I
 OLDACT:REG 14-08-08 21:22 OP:carl STATUS:               ID:20140808173818     3
 2014-08-08-1738-18M.COL___257                                                 6
 STAT SP IPHASW D HRMM SECON CODA AMPLIT PERI AZIMU VELO AIN AR TRES W  DIS CAZ7
 BAR2 SZ EP       1747 35.03                             171    0.2810 23.6 197 
 BAR2 SZ ES       1747 50.19                             171   -0.4110 23.6 197 
 BAR2 SZ I        1747 51.66        10.7 0.22            171           23.6 197 
 BRR  HZ EP       1747 36.93                             153    0.5910 73.7 298 
 BRR  HN ES       1747 54.42                             153    1.0010 73.7 298 
 BRR  HZ I        1747 56.72         6.2 0.26            151           73.7 298 
 PAM  SZ EP       1747 36.72                             152   -0.4510 76.0  38 
 PAM  SN ES       1747 54.78                             152   -0.1310 76.0  38 
 PAM  SZ I        1747 57.12        12.8 0.58            155           76.0  38 
 RUS  HZ EP       1747 38.58                             145   -0.1310  100 178 
 RUS  HN ES       1747 57.70                             145    0.0610  100 178 
 RUS  HZ I        1748  0.18         5.6 0.46            148            100 178 
 PTB  HZ EP       1747 41.93                             133   -0.17 9  150 259 
 PTB  HN ES       1748  3.23                             133   -0.45 9  150 259 
 PTB  HZ I        1748  8.59         9.2 0.56            133            150 259 
 SPBC HZ EP       1747 43.40                             130   -0.10 9  165 220 
 SPBC HN ES       1748  6.14                             130   -0.04 9  165 220 
 ZAR  HN ES       1748 12.69                             123   -0.64 8  207 292 
 ZAR  HZ I        1748 19.29         5.5 0.28            124            207 292 
 NOR  HZ EP       1747 51.02                             119    0.31 8  237 235 
 NOR  HN ES       1748 18.34                             119   -0.66 8  237 235 
 NOR  HZ I        1748 21.29         5.0 0.22            121            237 235 
 CHI  HN ES       1748 22.37                             118    0.20 8  249 196 
 GUY2CHZ EP       1747 58.70                             113    0.17 7  303 235 
 GUY2CHN ES       1748 33.55                             113    0.63 7  303 235 
                                                                                
