 2016 11 8 1815 22.0 L   6.727 -73.152144.6  RSN  5 0.5 1.9LRSN                1
 GAP=156        1.08       9.2     5.1  8.3 -0.9601E+01  0.1116E+02 -0.9243E+01E
 Epicentro: JORDAN - SANTANDER                                                 3
 ACTION:UPD 17-10-26 21:05 OP:lp   STATUS:               ID:20161108181522 L   I
 OLDACT:REG 16-11-08 22:14 OP:dnl  STATUS:               ID:20161108180642     3
 2016-11-08-1808-00M.COL___343                                                 6
 STAT SP IPHASW D HRMM SECON CODA AMPLIT PERI AZIMU VELO AIN AR TRES W  DIS CAZ7
 BAR2 EZ EP       1815 41.52                             174    0.1510 15.3 193 
 BAR2 EZ ES       1815 56.47                             174    0.0110 15.3 193 
 BAR2 EZ I        1815 57.42        21.1 0.34            174           15.3 193 
 BRR  HZ EP       1815 43.53                             151    0.2810 74.8 304 
 BRR  HZ I        1815 59.78        14.1 0.30            145           74.8 304 
 BRR  HE ES       1816  0.53                             151    0.7210 74.8 304 
 PAM  EZ EP       1815 44.47                             148   -0.0510 84.1  36 
 PAM  EN ES       1816  1.57                             148   -0.5110 84.1  36 
 PAM  EZ I        1816  3.85        12.3 0.66            143           84.1  36 
 PTB  HZ EP   2   1815 47.96                             132   -0.75 5  146 262 
 PTB  HN ES       1816  9.02                             132   -0.50 9  146 262 
 PTB  HZ I        1816 12.54         9.5 0.10            127            146 262 
 ZAR  HZ EP       1815 55.17                             122    0.52 8  207 294 
 ZAR  HN ES       1816 19.58                             122   -0.52 8  207 294 
 ZAR  HZ I        1816 26.21         7.7 0.22            116            207 294 
                                                                                
