 2016  6 8 1153 23.9 L   6.770 -73.073145.7  RSN  9 0.3 1.8LRSN                1
 GAP=147        0.76       3.6     4.5  5.0 -0.7171E+01  0.4089E+00  0.7279E+01E
 Epicentro: LOS SANTOS - SANTANDER                                             3
 ACTION:UPD 16-07-21 22:16 OP:rebc STATUS:               ID:20160608115323 L   I
 OLDACT:UP  16-06-13 16:17 OP:nlst STATUS:               ID:20160608115323 L   3
 OLDACT:UP  16-06-08 23:38 OP:edw  STATUS:               ID:20160608114745     3
 OLDACT:REG 16-06-08 21:13 OP:edw  STATUS:               ID:20160608114745     3
 2016-06-08-1147-45M.COL___336                                                 6
 STAT SP IPHASW D HRMM SECON CODA AMPLIT PERI AZIMU VELO AIN AR TRES W  DIS CAZ7
 BAR2 EZ EP       1153 43.32                             171   -0.1510 23.1 212 
 BAR2 EZ ES       1153 58.58                             171   -0.1910 23.1 212 
 BAR2 EZ I        1153 59.96        11.3 0.40                          23.1 212 
 PAM  EZ EP       1153 46.14                             151    0.2010 75.3  33 
 PAM  EN ES       1154  3.27                             151    0.1110 75.3  33 
 PAM  EZ I        1154  5.56         9.9 0.50                          75.3  33 
 BRR  HN ES       1154  2.67                             150    0.2810 79.9 298 
 RUS  HZ EP       1153 47.04                             145   -0.3010 97.0 181 
 RUS  HE ES       1154  5.70                             145    0.0410 97.0 181 
 RUS  HZ I        1154  6.67         5.4 0.32                          97.0 181 
 PTB  HZ EP   4   1153 50.18                             130   -1.31 0  155 261 
 PTB  HN ES   4   1154 11.37                             130   -1.67 0  155 261 
 PTB  HZ I        1154 14.63         6.3 0.12                           155 261 
 SPBC HZ EP       1153 52.17                             128   -0.43 9  166 222 
 SPBC HN ES       1154 14.69                             128   -0.34 9  166 222 
 NOR  HN ES       1154 28.26                             118   -0.09 8  239 236 
 CHI  HZ EP       1154  1.31                             117   -0.14 8  248 197 
 CHI  HN ES       1154 31.46                             117    0.69 8  248 197 
 CHI  HZ I        1154 36.34         4.2 0.44                           248 197 
 PRA  HZ EP       1154 17.81                             106    0.30 6  393 211 
 PRA  HN ES       1155  0.10                             106    0.74 6  393 211 
 PRA  HZ I        1155  3.51         3.8 0.24                           393 211 
                                                                                
