 2017  6 8 1901 35.6 L   6.769 -73.155144.0  RSN  5 0.5 1.7LRSN                1
 GAP=234        1.13       6.6     7.1  9.7  0.1955E+02  0.7188E+01 -0.2569E+01E
 Epicentro: LOS SANTOS - SANTANDER                                             3
 ACTION:UPD 17-09-14 16:50 OP:jn   STATUS:               ID:20170608190135 L   I
 OLDACT:DUP 17-06-09 00:40 OP:ar   STATUS:               ID:20170608185741d    3
 2017-06-08-1858-00M.COL___362                                                 6
 STAT SP IPHASW D HRMM SECON CODA AMPLIT PERI AZIMU VELO AIN AR TRES W  DIS CAZ7
 BRR  HZ EP     D 19 1 56.68                             152    0.0310 72.1 301 
 BRR  HN ES       19 2 13.52                             152    0.4810 72.1 301 
 BRR  HZ I        19 2 15.06        13.6 0.14            148           72.1 301 
 RUS  HZ EP       19 1 59.12                             145    0.1410 97.2 175 
 RUS  HE ES       19 2 17.07                             145   -0.1110 97.2 175 
 RUS  HZ I        19 2 18.47         5.7 0.32            143           97.2 175 
 PTB  HZ EP       19 2  1.55                             132   -0.77 9  146 260 
 PTB  HN ES       19 2 22.46                             132   -0.67 9  146 260 
 PTB  HZ I        19 2 25.06         8.2 0.12            129            146 260 
 ZAR  HZ EP       19 2  7.88                             122   -0.14 9  204 293 
 ZAR  HN ES       19 2 33.48                             122    0.21 9  204 293 
 ZAR  HZ I        19 2 40.79         7.5 0.32            121            204 293 
 NOR  HZ EP   2   19 2 11.99                             119    1.02 4  232 235 
 NOR  HN ES       19 2 39.28                             119    0.76 8  232 235 
 NOR  HZ I        19 2 47.21         2.9 0.14            117            232 235 
                                                                                
