 2011  4 8 2042  8.2 L   6.812 -73.130155.0  RSN  7 0.3 2.2LRSN                1
 GAP=156        0.59       5.6     6.4  7.5 -0.2338E+02 -0.1519E+02  0.2400E+02E
 Epicentro: LOS SANTOS - SANTANDER                                             3
 ACTION:UP  11-06-22 15:29 OP:REBC STATUS:               ID:20110408204208 L   I
 2011-04-08-2039-09S.COL___138                                                 6
 STAT SP IPHASW D HRMM SECON CODA AMPLIT PERI AZIMU VELO SNR AR TRES W  DIS CAZ7
 BTL  SZ IP       2042 28.87                             172     0.010   19 308 
 GIR2 SZ EP   1   2042 28.75                             168    -0.2 7   30 347 
 BRR  HZ IP     C 2042 30.54                             153     0.110   72 297 
 BRR  HN ES   1   2042 48.08                             153     0.3 7   72 297 
 BRR  HZ I        2042 53.54        76.9 0.29                            72 297 
 PAM  SZ EP   1   2042 31.45                             153     0.1 7   75  39 
 PAM  SN ES   2   2042 48.95                             153    -0.4 5   75  39 
 GRA  SZ IP       2042 34.42                             139     0.210  124  17 
 GRA  SZ I        2042 35.61        19.8 0.31                           124  17 
 GRA  SZ ES   2   2042 53.73                             139    -0.7 5  124  17 
 NOR  SZ EP       2042 44.62                             120    -0.1 8  237 234 
 NOR  SN ES   2   2043 12.52                             120    -0.7 4  237 234 
 CHI  HZ EP   1   2042 46.58                             119    -0.1 6  250 195 
 CHI  HE ES   2   2043 16.86                             119     0.3 4  250 195 
 CHI  HZ I        2043 20.12         4.1 0.46                           250 195 
                                                                                
