 2014  7 8 2045 54.7 L   6.768 -73.161135.4  RSN 13 0.4 1.8LRSN                1
 GAP=136        1.01       2.9     3.9  5.7 -0.2067E+01  0.7252E+01  0.1954E+01E
 Epicentro: LOS SANTOS - SANTANDER                                             3
 ACTION:UPD 15-03-16 20:42 OP:nd   STATUS:               ID:20140708204554 L   I
 OLDACT:REG 14-07-09 02:49 OP:spq  STATUS:               ID:20140708203817     3
 2014-07-08-2038-17M.COL___271                                                 6
 STAT SP IPHASW D HRMM SECON CODA AMPLIT PERI AZIMU VELO AIN AR TRES W  DIS CAZ7
 BAR2 SZ EP       2046 12.29                             171   -0.6910 19.6 187 
 BAR2 SZ ES   1   2046 27.81                             171    0.56 7 19.6 187 
 BAR2 SZ I        2046 29.85        13.6 0.16            170           19.6 187 
 BRR  HZ EP       2046 15.29                             150    0.5710 71.5 302 
 BRR  HE ES       2046 29.84                             150   -0.5210 71.5 302 
 BRR  HZ I        2046 34.52        14.8 0.42            150           71.5 302 
 PAM  SZ EP       2046 16.12                             148    0.0910 81.2  39 
 PAM  SE ES       2046 32.62                             148   -0.0810 81.2  39 
 PAM  SZ I        2046 35.47         6.5 0.34            152           81.2  39 
 RUS  HZ EP       2046 16.96                             142   -0.2010 97.2 175 
 RUS  HN ES       2046 34.80                             142    0.1010 97.2 175 
 RUS  HZ I        2046 37.12         3.6 0.24            145           97.2 175 
 PTB  HZ EP       2046 20.37                             130   -0.23 9  145 260 
 PTB  HN ES       2046 40.67                             130   -0.14 9  145 260 
 PTB  HZ I        2046 47.09         6.7 0.30            131            145 260 
 SPBC HZ EP       2046 21.71                             127   -0.31 9  159 219 
 SPBC HN ES       2046 44.16                             127    0.80 9  159 219 
 SPBC HZ I        2046 46.50        15.1 0.09            129            159 219 
 ZAR  HN ES       2046 51.08                             120   -0.14 9  204 293 
 ZAR  HZ I        2046 54.38         7.0 0.10            122            204 293 
 SML  HZ EP       2046 30.72                             115   -0.29 8  246 336 
 SML  HN ES       2047  0.25                             115    0.89 8  246 336 
 SML  HZ I        2047  3.10         7.0 0.20            117            246 336 
 GUY2CHZ EP       2046 37.18                             110   -0.25 7  298 235 
 GUY2CHN ES       2047 10.29                             110   -0.49 7  298 235 
 GUY2CHZ I        2047 19.59         3.2 0.36                           298 235 
 RREF HZ EP       2046 40.62                             109    0.65 7  318 230 
 RREF HN ES       2047 15.21                             109   -0.10 7  318 230 
 RREF HZ I        2047 22.43         3.6 0.28            111            318 230 
 TOL  SE ES       2047 19.31                             108    0.22 7  340 225 
 TOL  SZ I        2047 25.31         5.1 0.27            109            340 225 
 PRA  HZ EP   1   2046 47.57                             105    0.18 4  388 210 
 PRA  HN ES       2047 28.68                             105    0.16 6  388 210 
 PRA  HZ I        2047 34.77         3.2 0.32            107            388 210 
 SJC  HZ EP   4   2046 47.31                             104   -2.84 0  411 327 
 SJC  HN ES   4   2047 29.56                             104   -3.87 0  411 327 
 SJC  HZ I        2047 33.65         2.9 0.86            106            411 327 
                                                                                
