 2011  6 8 2113  8.5 L   6.791 -73.078152.2  RSN  6 0.3 1.7LRSN                1
 GAP=146        0.71       3.9     5.4  6.6 -0.8778E+01  0.5609E+01  0.4063E+01E
 Epicentro: LOS SANTOS - SANTANDER                                             3
 ACTION:UP  11-07-14 19:04 OP:ep   STATUS:               ID:20110608211308 L   I
 2011-06-08-2100-00M.COL___122                                                 6
 STAT SP IPHASW D HRMM SECON CODA AMPLIT PERI AZIMU VELO SNR AR TRES W  DIS CAZ7
 BAR2 SZ EP       2113 28.65                             170    -0.310   25 208 
 BAR2 SZ I        2113 29.43        13.1 0.13                            25 208 
 PAM  SZ EP   1   2113 31.66                             153     0.4 7   74  35 
 PAM  SN ES   1   2113 49.10                             153     0.2 7   74  35 
 PAM  SZ I        2113 51.08         3.7 0.24                            74  35 
 BRR  HZ EP       2113 30.85                             151     0.110   78 297 
 BRR  HE ES   1   2113 48.13                             151     0.0 7   78 297 
 BRR  HZ I        2113 50.55        20.7 0.17                            78 297 
 RUS  HZ EP       2113 32.84                             145     0.010   99 180 
 RUS  HN ES   1   2113 51.82                             145     0.0 7   99 180 
 RUS  HZ I        2113 54.46         5.5 0.19                            99 180 
 GRA  SZ EP       2113 34.46                             139     0.210  125  14 
 GRA  SZ ES   1   2113 53.90                             139    -0.4 7  125  14 
 GRA  SZ I        2113 55.56        11.0 0.37                           125  14 
 NOR  SZ EP       2113 44.94                             119    -0.3 8  240 236 
 NOR  SN ES   1   2114 14.32                             119     0.4 6  240 236 
                                                                                
