 2017  1 8 2127 56.4 L   6.814 -73.099143.1  RSN  4 0.2 1.0LRSN                1
 GAP=142        0.60       3.2     4.3  5.4 -0.1095E+01 -0.6252E+01  0.2128E+01E
 Epicentro: LOS SANTOS - SANTANDER                                             3
 ACTION:UPD 17-05-22 15:57 OP:jn   STATUS:               ID:20170108212756 L   I
 OLDACT:UP  17-01-09 04:07 OP:edw  STATUS:               ID:20170108211750d    3
 OLDACT:UP  17-01-09 04:06 OP:edw  STATUS:               ID:20170108211750d    3
 OLDACT:DUP 17-01-09 03:58 OP:edw  STATUS:               ID:20170108211750d    3
 OLDACT:UP  17-01-09 03:57 OP:edw  STATUS:               ID:20170108211748     3
 OLDACT:REG 17-01-09 02:53 OP:edw  STATUS:               ID:20170108211748     3
 2017-01-08-2118-00M.COL___371                                                 6
 STAT SP IPHASW D HRMM SECON CODA AMPLIT PERI AZIMU VELO AIN AR TRES W  DIS CAZ7
 PAM  EZ EP     C 2128 18.28                             151    0.2010 73.0  37 
 PAM  EE ES       2128 34.87                             151   -0.1210 73.0  37 
 PAM  EZ I        2128 37.14         3.4 0.54            153           73.0  37 
 BRR  HZ EP       2128 17.56                             151    0.0610 75.1 296 
 BRR  HN ES       2128 33.90                             151   -0.0510 75.1 296 
 RUS  HZ EP       2128 19.75                             143   -0.2510  102 179 
 RUS  HN ES       2128 38.56                             143    0.1610  102 179 
 RUS  HZ I        2128 40.26         1.1 0.28            144            102 179 
 PTB  HZ EP   9   2128 22.45                             130   -1.21 0  153 259 
 PTB  HN ES       2128 43.27                             130   -0.43 9  153 259 
 PTB  HZ I        2128 47.52         0.9 0.12            131            153 259 
 ZAR  HN ES   4   2128 50.31                             121   -4.33 0  208 291 
 NOR  HN ES   4   2128 57.47                             117   -3.25 0  240 235 
 GUY2CHN ES   4   2129 15.61                             111    0.76 0  306 235 
                                                                                
