 2013  9 8 2343 53.5 L   7.511 -73.079151.5  RSN  9 0.4 2.0LRSN                1
 GAP=133        1.04       3.9     5.8  6.8 -0.1968E+01  0.6386E+01  0.5088E+01E
 Epicentro: EL PLAYON - SANTANDER                                              3
 ACTION:UPD 13-10-22 09:21 OP:ep   STATUS:               ID:20130908234353 L   I
 OLDACT:REG 13-09-09 01:32 OP:nd   STATUS:               ID:20130908233959     3
 2013-09-08-2339-59M.COL___269                                                 6
 STAT SP IPHASW D HRMM SECON CODA AMPLIT PERI AZIMU VELO AIN AR TRES W  DIS CAZ7
 PAM  SZ EP       2344 15.03                             162    0.1610 45.9 114 
 PAM  SN ES       2344 31.54                             162    0.0310 45.9 114 
 PAM  SZ I        2344 32.41        19.9 0.16            166           45.9 114 
 BRR  HZ IP     C 2344 16.13                             150    0.1410 83.0 237 
 BRR  HN ES       2344 34.00                             150    0.5010 83.0 237 
 BRR  HZ I        2344 38.07        14.3 0.28            149           83.0 237 
 OCA  HZ EP       2344 16.28                             149   -0.0410 84.8 342 
 OCA  HN ES       2344 33.97                             149   -0.1310 84.8 342 
 OCA  HZ I        2344 36.75         9.8 0.36            152           84.8 342 
 BAR2 SZ EP       2344 17.67                             144    0.0610  102 186 
 BAR2 SZ ES       2344 36.47                             144    0.0810  102 186 
 BAR2 SZ I        2344 39.75        14.4 0.40            145            102 186 
 RUS  HZ EP       2344 24.29                             128   -0.22 9  179 180 
 RUS  HN ES       2344 47.82                             128   -0.85 9  179 180 
 RUS  HZ I        2344 50.25         5.2 0.32            130            179 180 
 SML  HE ES   2   2344 47.33                             127   -0.31 4  180 323 
 PTB  HZ EP       2344 24.28                             126   -0.31 9  186 235 
 PTB  HN ES       2344 48.04                             126   -0.78 9  186 235 
 PTB  HZ I        2344 53.36         9.9 0.20            128            186 235 
 SPBC HZ EP       2344 30.14                             120    0.66 8  233 208 
 SPBC HN ES       2344 58.30                             120    0.79 8  233 208 
 SPBC HZ I        2345  1.76         8.3 0.22            122            233 208 
 URE  HZ EP   4   2344 36.34                             116    2.75 0  272 276 
 URE  HN ES   4   2345  1.51                             116   -3.33 0  272 276 
 URE  HZ I        2345  4.53        10.1 0.12            118            272 276 
                                                                                
