 2015 12 8 2038 20.6 L   6.583 -73.085141.0  RSN  4 0.2 1.3LRSN                1
 GAP=241        0.65       7.6     4.5  5.4 -0.2061E+02  0.1798E+01  0.3803E+01E
 Epicentro: CURITI - SANTANDER                                                 3
 ACTION:UPD 16-02-04 15:03 OP:cam  STATUS:               ID:20151208203820 L   I
 OLDACT:REG 15-12-09 02:58 OP:drio STATUS:               ID:20151208203748     3
 2015-12-08-2037-48M.COL___325                                                 6
 STAT SP IPHASW D HRMM SECON CODA AMPLIT PERI AZIMU VELO AIN AR TRES W  DIS CAZ7
 BAR2 EZ ES       2038 54.32                             175    0.1110 10.8 275 
 BAR2 EZ I        2038 56.84         7.3 0.28            174           10.8 275 
 BRR  HZ EP       2038 42.54                             145    0.0610 90.3 310 
 BRR  HN ES       2038 59.81                             145    0.2810 90.3 310 
 PAM  EZ EP       2038 43.68                             145    0.2510 93.8  27 
 PAM  EN ES       2039  0.82                             145   -0.3810 93.8  27 
 PAM  EZ I        2039  1.33         2.9 0.20            149           93.8  27 
 PTB  HZ EP       2038 47.45                             130   -0.13 9  152 268 
 PTB  HN ES       2039  8.36                             130   -0.24 9  152 268 
 PTB  HZ I        2039 11.03         2.7 0.14            132            152 268 
                                                                                
