 2013  1 8 2053 45.2 L   6.772 -73.144139.2  RSN  5 0.3 1.8LRSN                1
 GAP=235        0.84       7.2     8.1  7.8  0.3965E+02  0.1649E+02  0.3777E+01E
 Epicentro: LOS SANTOS - SANTANDER                                             3
 ACTION:UPD 13-02-15 09:13 OP:ep   STATUS:               ID:20130108205345 L   I
 2013-01-08-2050-00M.COL___242                                                 6
 STAT SP IPHASW D HRMM SECON CODA AMPLIT PERI AZIMU VELO AIN AR TRES W  DIS CAZ7
 BAR2 SZ ES       2054 18.07                             171   -0.6010 20.3 192 
 BAR2 SZ I        2054 20.24        17.4 0.17            171           20.3 192 
 BRR  HZ EP       2054  5.84                             151    0.0610 72.9 301 
 BRR  HE ES       2054 22.23                             151    0.4310 72.9 301 
 BRR  HZ I        2054 26.76        17.0 0.17            149           72.9 301 
 RUS  HZ EP   1   2054  8.00                             143   -0.12 7 97.5 176 
 RUS  HE ES       2054 26.38                             143    0.4110 97.5 176 
 RUS  HE I        2054 27.73        11.8 0.18            147           97.5 176 
 PTB  HZ EP   1   2054 11.45                             130   -0.19 7  147 260 
 PTB  HE ES   1   2054 31.98                             130   -0.25 7  147 260 
 PTB  HZ I        2054 34.47         7.0 0.10            131            147 260 
 ZAR  HN ES   1   2054 42.44                             121   -0.05 6  205 293 
 ZAR  HZ I        2054 47.74         6.2 0.36            122            205 293 
                                                                                
