 2014  8 8 2013 18.2 L   6.486 -73.716 23.2  RSN  5 0.4 1.3LRSN                1
 GAP= 86        0.95       2.3     2.6  5.6  0.7918E+00 -0.7223E+01 -0.3536E+01E
 Epicentro: SANTA HELENA DEL OPON - SANTANDER                                  3
 ACTION:UPD 14-09-15 21:47 OP:nd   STATUS:               ID:20140808201318 L   I
 OLDACT:UP  14-08-09 03:53 OP:mh   STATUS:               ID:20140808200820     3
 OLDACT:REG 14-08-09 03:26 OP:mh   STATUS:               ID:20140808200820     3
 2014-08-08-2008-20M.COL___266                                                 6
 STAT SP IPHASW D HRMM SECON CODA AMPLIT PERI AZIMU VELO AIN AR TRES W  DIS CAZ7
 BRR  HZ EP   1   2013 29.69                             107    0.03 7 68.7   0 
 BRR  HN ES       2013 38.94                             107    0.3710 68.7   0 
 BRR  HZ I        2013 39.59        12.1 0.10            107           68.7   0 
 PTB  HZ EP       2013 31.36                             104   -0.2710 82.1 274 
 PTB  HN ES       2013 41.61                             104   -0.4710 82.1 274 
 PTB  HZ I        2013 42.69        16.0 0.10            104           82.1 274 
 RUS  HZ EP   1   2013 34.39                             102    0.19 7 96.0 133 
 RUS  HN ES       2013 46.14                             102   -0.5110 96.0 133 
 RUS  HZ I        2013 47.94         4.0 0.50            103           96.0 133 
 SPBC HZ EP       2013 34.75                             102    0.3510  100 203 
 SPBC HN ES   1   2013 47.74                             102    0.72 7  100 203 
 PAM  SZ EP   1   2013 41.14                              56    0.37 7  147  50 
 PAM  SN ES       2013 58.15                              56   -0.20 9  147  50 
 PAM  SZ I        2013 59.38         6.1 0.30             56            147  50 
                                                                                
