 2017  5 8 2001 37.8 L   6.798 -73.103141.1  RSN  4 0.2 1.2LRSN                1
 GAP=142        0.62       3.3     4.4  5.7 -0.1095E+01 -0.6783E+01  0.2155E+01E
 Epicentro: LOS SANTOS - SANTANDER                                             3
 ACTION:UPD 17-06-16 13:34 OP:jn   STATUS:               ID:20170508200137 L   I
 OLDACT:UP  17-05-09 07:57 OP:and  STATUS:               ID:20170508195742     3
 OLDACT:REG 17-05-09 07:42 OP:and  STATUS:               ID:20170508195742     3
 2017-05-08-1958-00M.COL___374                                                 6
 STAT SP IPHASW D HRMM SECON CODA AMPLIT PERI AZIMU VELO AIN AR TRES W  DIS CAZ7
 PAM  EZ EP       20 1 59.70                             151    0.3410 74.6  37 
 PAM  EN ES       20 2 16.00                             151   -0.1710 74.6  37 
 PAM  EZ I        20 2 18.25         3.0 0.20            151           74.6  37 
 BRR  HZ EP       20 1 58.77                             150    0.0710 75.4 297 
 BRR  HN ES       20 2 14.94                             150   -0.0710 75.4 297 
 RUS  HZ EP       20 2  0.70                             143   -0.3710  100 179 
 RUS  HN ES       20 2 19.43                             143    0.2110  100 179 
 RUS  HZ I        20 2 19.80         2.4 0.22            144            100 179 
 PTB  HZ EP   9   20 2  3.90                             130   -0.92 0  152 259 
 PTB  HN ES       20 2 25.03                             131    0.06 9  152 259 
 PTB  HZ I        20 2 26.03         2.6 0.23            132            152 259 
                                                                                
