 2015  4 8 2342 47.9 L   6.797 -73.107139.8  RSN  6 0.5 1.4LRSN                1
 GAP=142        1.19       5.3     6.4  8.2  0.7327E+01  0.1267E+02 -0.1176E+02E
 Epicentro: LOS SANTOS - SANTANDER                                             3
 ACTION:UPD 15-06-03 16:53 OP:cam  STATUS:               ID:20150408234247 L   I
 OLDACT:REG 15-04-09 02:46 OP:fm   STATUS:               ID:20150408233748     3
 2015-04-08-2337-48M.COL___266                                                 6
 STAT SP IPHASW D HRMM SECON CODA AMPLIT PERI AZIMU VELO AIN AR TRES W  DIS CAZ7
 BAR2 EZ EP       2343  7.10                             170    0.2410 24.1 200 
 BAR2 EZ ES       2343 21.16                             170   -0.4610 24.1 200 
 BAR2 EZ I        2343 25.21         4.3 0.36            170           24.1 200 
 PAM  SZ EP       2343 10.00                             150    0.6310 75.0  37 
 PAM  SN ES       2343 25.77                             150   -0.3210 75.0  37 
 PAM  SZ I        2343 29.44         3.9 0.44            155           75.0  37 
 BRR  HZ EP       2343  9.27                             150    0.6010 75.1 297 
 BRR  HN ES       2343 25.60                             150    0.7510 75.1 297 
 BRR  HZ I        2343 31.06         9.2 0.62            149           75.1 297 
 RUS  HZ EP   1   2343 11.19                             143    0.14 7  100 178 
 RUS  HE ES       2343 28.60                             143   -0.4910  100 178 
 RUS  HZ I        2343 31.20         1.4 0.26            148            100 178 
 ZAR  HZ EP       2343 20.11                             120   -0.31 8  208 292 
 ZAR  HN ES       2343 45.46                             120   -0.31 8  208 292 
 ZAR  HZ I        2343 52.57         2.4 0.12            123            208 292 
 SML  HZ EP       2343 23.95                             116   -0.51 8  246 334 
 SML  HN ES       2343 52.53                             116   -0.43 8  246 334 
 SML  HZ I        2343 55.54         2.9 0.24            119            246 334 
                                                                                
