 2012  7 8 2112 54.9 L   6.715 -73.211144.2  RSN  4 0.3 1.5LRSN                1
 GAP=218        0.62      13.1     9.7 10.1  0.8504E+02  0.4604E+02  0.7160E+02E
 Epicentro: VILLANUEVA - SANTANDER                                             3
 ACTION:UPD 12-08-14 11:43 OP:ep   STATUS:               ID:20120708211255 L   I
 2012-07-08-2110-00M.COL___201                                                 6
 STAT SP IPHASW D HRMM SECON CODA AMPLIT PERI AZIMU VELO AIN AR TRES W  DIS CAZ7
 BAR2 SZ EP       2113 14.12                             174    -0.110   14 167 
 BAR2 SZ ES   2   2113 28.73                             174    -0.5 5   14 167 
 BAR2 SZ I        2113 30.99         8.4 0.24                            14 167 
 BRR  HZ I        2113 22.43        14.5 0.36                            70 308 
 BRR  HN ES   2   2113 32.70                             153     0.5 5   70 308 
 RUS  HZ EP       2113 18.15                             146     0.210   92 171 
 RUS  HZ I        2113 18.33         2.3 0.26                            92 171 
 RUS  HN ES   3   2113 35.99                             146     0.1 2   92 171 
 PTB  HZ EP       2113 20.86                             133    -0.1 9  139 262 
 PTB  HN ES   3   2113 41.34                             133     0.0 2  139 262 
 PTB  HZ I        2113 47.09         2.5 0.26                           139 262 
