 2016 10 8 2029 57.2 L   6.811 -73.175138.0  RSN  4 0.1 1.1LRSN                1
 GAP=132        0.43       2.2     2.0  4.7 -0.8177E-01  0.3445E+01 -0.3134E+00E
 Epicentro: LOS SANTOS - SANTANDER                                             3
 ACTION:UPD 16-11-09 19:17 OP:rebc STATUS:               ID:20161008202957 L   I
 OLDACT:UP  16-10-09 03:07 OP:edw  STATUS:               ID:20161008202743     3
 OLDACT:UP  16-10-09 03:05 OP:edw  STATUS:               ID:20161008202743     3
 OLDACT:REG 16-10-09 02:38 OP:edw  STATUS:               ID:20161008202743     3
 2016-10-08-2028-00M.COL___360                                                 6
 STAT SP IPHASW D HRMM SECON CODA AMPLIT PERI AZIMU VELO AIN AR TRES W  DIS CAZ7
 PAM  EZ EP       2030 18.70                             149    0.0510 78.6  42 
 PAM  EN ES       2030 35.33                             149   -0.0710 78.6  42 
 PAM  EZ I        2030 36.25         3.9 0.16            155           78.6  42 
 RUS  HZ EP       2030 20.10                             142   -0.1910  102 174 
 RUS  HN ES       2030 38.51                             142    0.2010  102 174 
 RUS  HZ I        2030 41.48         1.1 0.29            145            102 174 
 PTB  HZ EP       2030 23.26                             131    0.01 9  145 258 
 PTB  HN ES       2030 43.38                             131   -0.20 9  145 258 
 PTB  HZ I        2030 49.16         2.0 0.10            132            145 258 
 ZAR  HZ EP   2   2030 28.94                             121    0.18 4  201 292 
 ZAR  HN ES       2030 53.57                             121    0.18 9  201 292 
 ZAR  HZ I        2030 59.56         1.5 0.07            123            201 292 
                                                                                
