 2012  7 8 2334 58.4 L   6.799 -73.144149.7  RSN  8 0.4 1.8LRSN                1
 GAP=137        1.05       5.6     5.8  7.8 -0.3232E+00  0.3722E+01  0.4914E+01E
 Epicentro: LOS SANTOS - SANTANDER                                             3
 ACTION:UPD 12-08-14 11:43 OP:ep   STATUS:               ID:20120708233458 L   I
 2012-07-08-2330-00M.COL___201                                                 6
 STAT SP IPHASW D HRMM SECON CODA AMPLIT PERI AZIMU VELO AIN AR TRES W  DIS CAZ7
 BAR2 SZ EP       2335 18.68                             171     0.210   23 190 
 BAR2 SZ ES   1   2335 33.82                             171    -0.4 7   23 190 
 BAR2 SZ I        2335 34.59        11.8 0.36                            23 190 
 BRR  HZ EP       2335 20.31                             153     0.310   71 299 
 BRR  HZ I        2335 20.51        32.5 0.16                            71 299 
 BRR  HE ES   1   2335 37.92                             153     1.1 7   71 299 
 PAM  SZ EP       2335 21.22                             151     0.210   77  39 
 PAM  SZ I        2335 21.40         3.3 0.18                            77  39 
 PAM  SN ES   1   2335 38.01                             151    -0.7 7   77  39 
 RUS  HZ EP       2335 22.43                             145    -0.110  100 176 
 RUS  HN ES   2   2335 41.55                             145     0.2 5  100 176 
 RUS  HZ I        2335 42.14         5.5 0.26                           100 176 
 PTB  HZ EP       2335 25.49                             133    -0.2 9  148 259 
 PTB  HN ES   1   2335 46.55                             133    -0.5 7  148 259 
 PTB  HZ I        2335 53.61         8.4 0.38                           148 259 
 OCA  HZ EP       2335 26.96                             130    -0.1 9  160 353 
 OCA  HZ I        2335 56.72        14.9 0.60                           160 353 
 ZAR  HZ EP   2   2335 30.96                             123    -0.2 4  204 292 
 ZAR  HE ES   1   2335 56.16                             123    -0.5 6  204 292 
 ZAR  HZ I        2336  4.49         6.1 0.38                           204 292 
 CHI  HZ EP       2335 36.45                             118     0.1 8  249 195 
 CHI  HZ I        2335 38.28         2.4 0.12                           249 195 
 CHI  HN ES   3   2336  5.76                             118    -0.1 2  249 195 
