 2011  3 8 2357 47.2 L   6.787 -72.992140.0  RSN  4 0.3 1.7LRSN                1
 GAP=199        0.73       3.5    23.8  7.5 -0.4952E+01  0.1175E+02 -0.1483E+01E
 Epicentro: CEPITA - SANTANDER                                                 3
 ACTION:UP  11-06-16 14:32 OP:jfem STATUS:               ID:20110308235747 L   I
 2011-03-08-2355-00S.COL___132                                                 6
 STAT SP IPHASW D HRMM SECON CODA AMPLIT PERI AZIMU VELO SNR AR TRES W  DIS CAZ7
 BAR2 SZ EP   1   2358  6.50                             167     0.2 7   30 224 
 BAR2 SZ ES   1   2358 20.76                             167    -0.5 7   30 224 
 BAR2 SZ I        2358 22.78        17.6 0.36                            30 224 
 RUS  HZ EP   1   2358 10.43                             143     0.1 7   99 186 
 RUS  HZ I        2358 11.56         4.1 0.13                            99 186 
 RUS  HN ES   1   2358 28.60                             143     0.2 7   99 186 
 OCA  SZ EP   1   2358 15.25                             127    -0.3 7  165 347 
 OCA  SZ ES   1   2358 37.95                             127     0.4 7  165 347 
 OCA  SZ I        2358 41.49         9.7 0.14                           165 347 
 CHI  HZ EP   1   2358 24.60                             115    -0.4 6  252 199 
 CHI  HN ES   1   2358 54.79                             115     0.3 6  252 199 
 CHI  HZ I        2358 58.18         2.9 0.40                           252 199 
                                                                                
