 2012  5 8 2200 44.3 L   6.788 -73.164144.0  RSN  5 0.3 1.4LRSN                1
 GAP=135        0.74       5.4     4.9  8.2 -0.2651E+01  0.5795E+01  0.6579E+01E
 Epicentro: LOS SANTOS - SANTANDER                                             3
 ACTION:UP  12-07-05 12:03 OP:pat  STATUS:               ID:20120508220044 L   I
 2012-05-08-2200-00M.COL___192                                                 6
 STAT SP IPHASW D HRMM SECON CODA AMPLIT PERI AZIMU VELO SNR AR TRES W  DIS CAZ7
 BAR2 SZ EP   1   22 1  3.72                             171     0.0 8   22 185 
 BAR2 SZ I        22 1 20.95         5.9 0.25                            22 185 
 BRR  HZ EP   1   22 1  5.57                             153     0.4 8   70 300 
 BRR  HZ I        22 1 11.37        14.9 0.21                            70 300 
 BRR  HE ES   1   22 1 21.96                             153     0.5 8   70 300 
 PAM  SZ EP   1   22 1  6.35                             150    -0.1 8   80  40 
 PAM  SN ES   1   22 1 23.41                             150    -0.3 8   80  40 
 RUS  HZ EP   1   22 1  8.05                             144     0.3 8   99 175 
 RUS  HN ES   1   22 1 26.10                             144     0.0 8   99 175 
 RUS  HZ I        22 1 28.00         1.5 0.29                            99 175 
 PTB  HZ EP       22 1 10.72                             132    -0.210  145 259 
 PTB  HN ES   1   22 1 31.23                             132    -0.4 7  145 259 
 PTB  HZ I        22 1 34.91         2.7 0.19                           145 259 
                                                                                
