 2010  6 8 2154 45.4 L   6.792 -73.022141.9  RSN  6 0.3 1.5LRSN                1
 GAP=173        0.58       3.5    10.2  7.9 -0.9409E+01  0.5274E+01 -0.1560E+02E
 Epicentro: CEPITA - SANTANDER                                                 3
 ACTION:UP  10-08-24 10:09 OP:vdl  STATUS:               ID:20100608215445 L   I
 2010-06-08-2149-53S.COL___111                                                 6
 STAT SP IPHASW D HRMM SECON CODA AMPLIT PERI AZIMU VELO SNR AR TRES W  DIS CAZ7
 BAR2 SZ EP   1   2155  4.46                             168    -0.2 7   28 219 
 BAR2 SZ ES   2   2155 19.31                             168    -0.4 5   28 219 
 RUS  HZ EP       2155  8.50                             143    -0.210  100 184 
 RUS  HN ES       2155 26.97                             143     0.110  100 184 
 RUS  HZ I        2155 28.45         5.2 0.07                           100 184 
 GUE  SZ EP   1   2155  9.85                             139     0.2 7  115   5 
 GRA  SZ EP       2155 10.30                             137     0.210  123  11 
 OCA  SZ EP   1   2155 13.20                             128    -0.5 7  163 348 
 OCA  SZ ES   2   2155 36.06                             128     0.3 5  163 348 
 RREF BN ES   2   2156  9.76                             109     0.5 3  332 231 
                                                                                
