 2015 11 8 2338 53.5 L   6.820 -73.059146.5  RSN  9 0.5 2.1LRSN                1
 GAP=192        1.09       3.5     5.8  6.8  0.3253E-01  0.1136E+02 -0.7862E+00E
 Epicentro: LOS SANTOS - SANTANDER                                             3
 ACTION:UPD 15-12-28 16:09 OP:cam  STATUS:               ID:20151108233853 L   I
 OLDACT:REG 15-11-09 03:19 OP:mh   STATUS:               ID:20151108233745     3
 2015-11-08-2337-45M.COL___310                                                 6
 STAT SP IPHASW D HRMM SECON CODA AMPLIT PERI AZIMU VELO AIN AR TRES W  DIS CAZ7
 BAR2 EZ EP       2339 13.30                             168    0.0110 28.6 208 
 BAR2 EZ ES       2339 28.50                             168   -0.2610 28.6 208 
 BAR2 EZ I        2339 30.07        20.1 0.36            166           28.6 208 
 BRR  HZ EP       2339 15.19                             150    0.0610 78.8 294 
 BRR  HN ES       2339 32.69                             150    0.6610 78.8 294 
 BRR  HZ I        2339 37.01        12.4 0.50            148           78.8 294 
 RUS  HZ EP       2339 17.42                             144    0.0010  103 181 
 RUS  HN ES   1   2339 36.32                             144    0.21 7  103 181 
 RUS  HZ I        2339 36.93        10.0 0.28            146            103 181 
 OCA  HN ES       2339 44.33                             130    0.51 9  160 350 
 SPBC HZ EP       2339 22.26                             128   -0.50 9  171 221 
 SPBC HN ES       2339 44.87                             128   -0.74 9  171 221 
 SPBC HZ I        2339 48.08        16.4 0.30            129            171 221 
 ZAR  HZ EP       2339 26.95                             121    0.16 8  212 291 
 ZAR  HN ES       2339 52.05                             121   -0.73 8  212 291 
 ZAR  HZ I        2339 58.18        16.3 0.30            122            212 291 
 SML  HZ EP       2339 29.99                             117   -0.37 8  246 333 
 SML  HN ES       2339 58.54                             117   -0.60 8  246 333 
 SML  HZ I        2340  1.04        28.3 0.10            119            246 333 
 HEL  HZ EP       2339 35.45                             114    0.66 7  282 256 
 HEL  HN ES       2340  7.48                             114    0.44 7  282 256 
 HEL  HZ I        2340 11.52         6.6 0.30            115            282 256 
 GUY2CHZ EP   1   2339 38.23                             112    0.10 5  310 235 
 GUY2CHN ES       2340 13.68                             112    0.71 7  310 235 
 GUY2CHZ I        2340 18.05         4.6 0.32                           310 235 
                                                                                
