 2012  9 8 2316 25.3 L   6.772 -73.135146.0  RSN  7 0.4 2.1LRSN                1
 GAP=139        0.76       4.1     4.8  6.4  0.3898E+01  0.2555E+01  0.4797E+01E
 Epicentro: LOS SANTOS - SANTANDER                                             3
 ACTION:UPD 12-10-22 14:17 OP:ep   STATUS:               ID:20120908231625 L   I
 2012-09-08-2310-00M.COL___227                                                 6
 STAT SP IPHASW D HRMM SECON CODA AMPLIT PERI AZIMU VELO AIN AR TRES W  DIS CAZ7
 BAR2 SZ EP       2316 44.94                             172    0.0110 20.6 195 
 BAR2 SZ ES   1   2317  0.07                             172   -0.15 7 20.6 195 
 BAR2 SZ I        2317  1.47        78.7 0.18                          20.6 195 
 BRR  HZ EP       2316 46.74                             152    0.1010 73.8 300 
 BRR  HZ I        2316 47.16        16.0 0.31                          73.8 300 
 BRR  HN ES   1   2317  4.03                             152    0.76 7 73.8 300 
 PAM  SZ EP   1   2316 47.69                             150    0.03 7 79.0  37 
 PAM  SZ I        2316 48.06        26.2 0.21                          79.0  37 
 PAM  SN ES   2   2317  4.24                             150   -0.84 5 79.0  37 
 RUS  HZ EP   1   2316 48.65                             145   -0.22 7 97.4 177 
 RUS  HE ES   1   2317  7.59                             145    0.35 7 97.4 177 
 RUS  HZ I        2317  8.89        15.9 0.21                          97.4 177 
 PTB  HN ES   1   2317 12.80                             132   -0.66 7  148 260 
 ZAR  HZ EP   2   2316 58.60                             122    0.58 4  206 293 
 ZAR  HN ES   1   2317 23.16                             122   -0.36 6  206 293 
 ZAR  HZ I        2317 28.88        14.2 0.24                           206 293 
 CHI  HZ EP       2317  2.93                             117    0.18 8  246 196 
 CHI  HN ES   1   2317 31.72                             117   -0.22 6  246 196 
 CHI  HZ I        2317 38.02         6.0 0.35                           246 196 
                                                                                
