 2013  8 8 2206 55.3 L   5.915 -73.992  4.0  RSN  5 0.5 1.2LRSN                1
 GAP=154        1.23       5.2     3.2  7.5 -0.9702E+01  0.2639E+00 -0.4465E+01E
 Epicentro: LA BELLEZA - SANTANDER                                             3
 ACTION:UPD 14-01-14 09:00 OP:ep   STATUS:               ID:20130808220655 L   I
 OLDACT:UP  13-08-08 23:26 OP:cam  STATUS:               ID:20130808215959     3
 OLDACT:REG 13-08-08 22:38 OP:cam  STATUS:               ID:20130808215959     3
 2013-08-08-2159-59M.COL___266                                                 6
 STAT SP IPHASW D HRMM SECON CODA AMPLIT PERI AZIMU VELO AIN AR TRES W  DIS CAZ7
 SPBC HZ EP       22 7  0.60                              47    0.0610 30.4 197 
 SPBC HZ I        22 7  0.72        21.5 0.10             47           30.4 197 
 SPBC HN ES   1   22 7  5.51                              47    0.84 7 30.4 197 
 RUS  HZ EP       22 7 11.51                              47   -0.1010  101  91 
 RUS  HZ I        22 7 11.67         4.3 0.30             47            101  91 
 RUS  HN ES       22 7 23.69                              47   -0.6810  101  91 
 NOR  HZ EP   1   22 7 11.60                              47   -0.16 7  105 248 
 NOR  HE ES       22 7 23.99                              47   -0.6410  105 248 
 GUY2CHZ EP       22 7 22.68                              47    0.55 9  170 243 
 GUY2CHN ES   1   22 7 42.62                              47   -0.47 7  170 243 
 GUY2CHZ I        22 7 48.91         2.4 0.48                           170 243 
 PAM  SZ EP       22 7 28.50                              37    0.81 8  213  42 
 PAM  SN ES       22 7 53.23                              37    0.24 8  213  42 
 PAM  SZ I        22 7 56.38         4.8 0.20             37            213  42 
                                                                                
