 2013  4 8 2327 20.2 L   6.791 -73.127152.0  RSN  7 0.5 1.8LRSN                1
 GAP=202        0.98       6.1     7.5  8.9  0.1629E+02  0.3630E+01 -0.1678E+02E
 Epicentro: LOS SANTOS - SANTANDER                                             3
 ACTION:UPD 13-05-22 14:36 OP:EP   STATUS:               ID:20130408232720 L   I
 2013-04-08-2320-00M.COL___245                                                 6
 STAT SP IPHASW D HRMM SECON CODA AMPLIT PERI AZIMU VELO AIN AR TRES W  DIS CAZ7
 BAR2 SZ EP   1   2327 40.87                             171    0.26 7 22.8 196 
 BAR2 SZ ES   1   2327 56.05                             171   -0.45 7 22.8 196 
 BRR  HZ EP       2327 42.76                             153    0.5710 73.5 298 
 BRR  HN ES   1   2328  0.16                             153    0.85 7 73.5 298 
 RUS  HZ EP   1   2327 44.57                             146    0.04 7 99.5 177 
 RUS  HN ES   1   2328  3.09                             146   -0.39 7 99.5 177 
 PTB  HZ EP   1   2327 47.82                             133   -0.06 7  150 259 
 PTB  HN ES   1   2328  8.60                             133   -0.85 7  150 259 
 PTB  HZ I        2328 16.02         6.0 0.32            131            150 259 
 ZAR  HZ EP   1   2327 53.11                             123   -0.22 6  206 292 
 ZAR  HE ES   1   2328 19.42                             123    0.28 6  206 292 
 ZAR  HZ I        2328 25.83         4.8 0.26            122            206 292 
 NOR  HE ES   2   2328 25.03                             120    0.33 4  236 235 
 SML  HZ EP   1   2327 57.17                             118   -0.23 6  245 335 
 SML  HN ES   1   2328 25.53                             118   -0.87 6  245 335 
 SML  HZ I        2328 33.01         6.9 0.10            118            245 335 
                                                                                
