 2016  5 8 2130  7.4 L   6.767 -73.173151.6  RSN  8 0.3 1.8LRSN                1
 GAP=198        0.76       3.1     4.7  6.2  0.4907E+01 -0.1430E+01 -0.2867E+01E
 Epicentro: LOS SANTOS - SANTANDER                                             3
 ACTION:UPD 16-08-18 17:43 OP:cam  STATUS:               ID:20160508213007 L   I
 OLDACT:REG 16-05-09 03:43 OP:ar   STATUS:               ID:20160508212750     3
 2016-05-08-2127-50M.COL___292                                                 6
 STAT SP IPHASW D HRMM SECON CODA AMPLIT PERI AZIMU VELO AIN AR TRES W  DIS CAZ7
 BRR  HZ EP       2130 29.24                             154    0.1110 70.5 302 
 BRR  HN ES       2130 46.37                             154    0.2810 70.5 302 
 BRR  HZ I        2130 46.80         7.6 0.46            149           70.5 302 
 RUS  HZ EP       2130 31.68                             146    0.2010 97.2 174 
 RUS  HE ES       2130 49.87                             146   -0.4010 97.2 174 
 RUS  HZ I        2130 51.55         4.5 0.22            147           97.2 174 
 PTB  HZ EP       2130 34.11                             134   -0.41 9  144 260 
 PTB  HN ES       2130 55.29                             134   -0.39 9  144 260 
 PTB  HZ I        2131  2.62         3.4 0.20            131            144 260 
 SPBC HZ EP       2130 36.52                             131    0.61 9  158 219 
 SPBC HN ES       2130 58.29                             131    0.15 9  158 219 
 SPBC HZ I        2131  1.01        10.9 0.34            130            158 219 
 OCA  HN ES   4   2130 57.21                             130   -1.93 0  164 354 
 OCA  HZ I        2131  2.94        14.1 0.24            130            164 354 
 ZAR  HZ EP   2   2130 39.79                             124   -0.30 4  203 293 
 ZAR  HE ES       2131  5.67                             124    0.09 9  203 293 
 ZAR  HZ I        2131 11.74         4.8 0.40            122            203 293 
 NOR  HZ EP   2   2130 42.83                             120   -0.15 4  230 235 
 NOR  HE ES   2   2131 10.73                             120   -0.01 4  230 235 
 NOR  HZ I        2131 18.09         3.7 0.34            119            230 235 
 SML  HZ EP   2   2130 43.74                             118   -0.84 4  246 336 
 SML  HN ES       2131 13.61                             118    0.03 8  246 336 
 SML  HZ I        2131 16.88         7.9 0.26            118            246 336 
                                                                                
