 2017 10 8 2210 35.6 L   6.832 -73.116133.7  RSN  5 0.3 1.4LRSN                1
 GAP=139        0.80       3.6     4.5  7.0 -0.2603E+01  0.1437E+02 -0.4535E+01E
 Epicentro: LOS SANTOS - SANTANDER                                             3
 ACTION:UPD 17-11-07 19:29 OP:rebc STATUS:               ID:20171008221035 L   I
 OLDACT:UP  17-10-09 07:03 OP:edw  STATUS:               ID:20171008220739     3
 OLDACT:UP  17-10-09 07:03 OP:edw  STATUS:               ID:20171008220739     3
 OLDACT:REG 17-10-09 03:19 OP:edw  STATUS:               ID:20171008220739     3
 2017-10-08-2208-00M.COL___423                                                 6
 STAT SP IPHASW D HRMM SECON CODA AMPLIT PERI AZIMU VELO AIN AR TRES W  DIS CAZ7
 BAR2 EZ ES       2211  8.33                             168    0.1510 27.5 195 
 PAM  EZ EP     C 2210 56.76                             150    0.4810 72.5  39 
 PAM  EN ES       2211 12.23                             150   -0.1510 72.5  39 
 PAM  EZ I        2211 15.82         8.3 0.44            151           72.5  39 
 RUS  HZ EP       2210 58.18                             140   -0.3010  104 178 
 RUS  HN ES       2211 15.97                             140   -0.3310  104 178 
 RUS  HZ I        2211 17.09         2.0 0.18            144            104 178 
 SPBC HN ES       2211 26.08                             125    0.46 9  168 219 
 ZAR  HZ EP       2211  7.40                             119   -0.10 8  206 291 
 ZAR  HN ES       2211 32.14                             119   -0.22 8  206 291 
 ZAR  HZ I        2211 36.90         3.7 0.10            120            206 291 
                                                                                
