 2010  4 8 2124 39.4 L   6.766 -72.981145.5  RSN  5 0.2 2.0LRSN                1
 GAP=264        0.43       4.5     7.4  5.9 -0.2067E+01  0.4182E+01  0.1452E+02E
 Epicentro: CEPITA - SANTANDER                                                 3
 ACTION:UPD 10-08-24 09:58 OP:vdl  STATUS:               ID:20100408212439 L   I
 2010-04-08-2122-08S.COL___097                                                 6
 STAT SP IPHASW D HRMM SECON CODA AMPLIT PERI AZIMU VELO AIN AR TRES W  DIS CAZ7
 BAR2 SZ EP   1   2124 59.29                             168     0.2 7   30 229 
 BAR2 SZ ES   2   2125 14.50                             168     0.0 5   30 229 
 BRR  HZ EP   1   2125  1.53                             147    -0.1 7   89 295 
 BRR  HE ES   2   2125 18.74                             147    -0.2 5   89 295 
 BRR  HZ I        2125 20.11        17.1 0.35                            89 295 
 CHI  HZ EP   1   2125 17.29                             117     0.0 6  251 199 
 CHI  HZ I        2125 17.91         4.0 0.40                           251 199 
 CHI  HE ES   2   2125 46.50                             117    -0.3 4  251 199 
 RREF BZ EP   1   2125 27.02                             110     0.2 5  333 232 
 RREF BE ES   2   2126  3.90                             110     0.0 3  333 232 
 RREF BZ I        2126 10.09         4.7 0.32                           333 232 
 PRA  HZ EP   1   2125 33.04                             106    -0.5 4  398 212 
 PRA  HN ES   2   2126 16.42                             106     0.5 3  398 212 
 PRA  HZ I        2126 21.05         4.5 0.50                           398 212 
                                                                                
