 2014  7 8 2239 16.0 L   6.783 -73.129134.7  RSN  7 0.4 1.6LRSN                1
 GAP=202        1.01       4.2     5.9  7.6  0.7500E+01  0.5347E+01 -0.1788E+00E
 Epicentro: LOS SANTOS - SANTANDER                                             3
 ACTION:UPD 15-03-16 20:42 OP:nd   STATUS:               ID:20140708223916 L   I
 OLDACT:REG 14-07-09 02:59 OP:spq  STATUS:               ID:20140708223815     3
 2014-07-08-2238-15M.COL___262                                                 6
 STAT SP IPHASW D HRMM SECON CODA AMPLIT PERI AZIMU VELO AIN AR TRES W  DIS CAZ7
 BRR  HZ EP       2239 36.44                             150    0.3610 73.8 299 
 BRR  HE ES       2239 52.14                             150    0.3610 73.8 299 
 BRR  HZ I        2239 55.24        11.3 0.33            147           73.8 299 
 RUS  HZ EP       2239 38.04                             142   -0.4410 98.5 177 
 RUS  HN ES       2239 56.12                             142    0.0710 98.5 177 
 RUS  HZ I        2239 57.93         3.1 0.28            145           98.5 177 
 PTB  HZ EP       2239 42.10                             129   -0.08 9  149 260 
 PTB  HN ES       2240  1.97                             129   -0.67 9  149 260 
 PTB  HZ I        2240  9.52         3.8 0.34            129            149 260 
 SPBC HZ EP       2239 43.11                             126   -0.49 9  163 220 
 SPBC HN ES       2240  5.44                             126    0.28 9  163 220 
 SPBC HZ I        2240 16.58         6.5 0.28            128            163 220 
 ZAR  HZ EP       2239 48.54                             119    0.57 8  207 292 
 ZAR  HN ES       2240 12.43                             119   -0.51 8  207 292 
 ZAR  HZ I        2240 18.53         3.8 0.34            121            207 292 
 SML  HN ES   1   2240 20.42                             115   -0.17 6  246 335 
 SML  HZ I        2240 26.49         5.0 0.05            118            246 335 
 GUY2CHZ EP       2239 59.55                             110    0.43 7  302 235 
 GUY2CHN ES       2240 33.34                             110    0.54 7  302 235 
 GUY2CHZ I        2240 43.02         2.0 0.44                           302 235 
                                                                                
