 2017 11 8 2245 45.3 L   6.806 -73.118140.9  RSN 20 0.8 2.4LRSN                1
 GAP= 67        1.70       3.5     4.1  7.1 -0.1010E+01  0.7297E+01  0.8646E+00E
 Epicentro: LOS SANTOS - SANTANDER                                             3
 ACTION:UPD 17-12-12 19:53 OP:rebc STATUS:               ID:20171108224545 L   I
 OLDACT:DUP 17-11-09 04:49 OP:dhb  STATUS:               ID:20171108223742d    3
 OLDACT:REG 17-11-09 03:19 OP:dhb  STATUS:               ID:20171108223740     3
 2017-11-08-2238-00M.COL___455                                                 6
 STAT SP IPHASW D HRMM SECON CODA AMPLIT PERI AZIMU VELO AIN AR TRES W  DIS CAZ7
 BAR2 EZ IP     C 2246  4.17                             170   -0.2110 24.7 197 
 BAR2 HE ES       2246 19.15                             170   -0.1110 24.7 197 
 BAR2 EZ I        2246 19.94        71.5 0.18            168           24.7 197 
 BRR  HZ IP     C 2246  6.06                             151   -0.0110 73.6 297 
 BRR  HE ES       2246 22.77                             151    0.5010 73.6 297 
 BRR  HZ I        2246 26.99        40.5 0.10            150           73.6 297 
 PAM  EZ IP     C 2246  7.23                             151    0.3810 74.9  38 
 PAM  EN ES       2246 23.78                             151    0.1210 74.9  38 
 PAM  EZ I        2246 26.58        43.9 0.58            154           74.9  38 
 RUS  HZ IP     C 2246  8.17                             143   -0.4410  101 178 
 RUS  HN ES       2246 26.27                             143   -0.5310  101 178 
 RUS  HZ I        2246 27.40        40.2 0.20            144            101 178 
 PTB  HZ EP       2246 10.76                             130   -1.41 9  151 259 
 PTB  HE ES       2246 33.47                             130    0.34 9  151 259 
 PTB  HZ I        2246 35.22        21.0 0.17            130            151 259 
 TAM  HZ IP     D 2246 12.57                             130    0.24 9  152 106 
 TAM  HE ES       2246 33.84                             130    0.42 9  152 106 
 TAM  HZ I        2246 34.50        24.2 0.24            134            152 106 
 SPBC HZ EP       2246 13.25                             128   -0.42 9  166 220 
 SPBC HE ES       2246 36.41                             128    0.61 9  166 220 
 SPBC HZ I        2246 40.86        31.8 0.10            128            166 220 
 YPLC HZ EP       2246 14.05                             126   -0.61 9  176 152 
 YPLC HN ES       2246 37.46                             126   -0.10 9  176 152 
 YPLC HZ I        2246 40.92        52.6 0.24            128            176 152 
 ZAR  HZ EP       2246 17.39                             121   -0.31 8  207 292 
 ZAR  HN ES       2246 43.38                             121    0.40 8  207 292 
 ZAR  HZ I        2246 51.20        26.9 0.54            122            207 292 
 TABC EZ EP       2246 21.87                             118    0.87 8  232 211 
 TABC EZ ES       2246 49.26                             118    0.42 8  232 211 
 TABC EZ I        2246 56.72        21.3 0.40            119            232 211 
 NOR  HZ EP       2246 20.18                             117   -0.89 8  238 235 
 NOR  HN ES       2246 49.18                             117    0.21 8  238 235 
 NOR  HZ I        2246 50.09        18.7 0.14            118            238 235 
 CHI  HZ EP       2246 22.57                             116   -0.32 8  250 196 
 CHI  HE ES       2246 50.78                             116   -1.44 8  250 196 
 CHI  HZ I        2246 55.67         7.0 0.28            117            250 196 
 ROSC BZ EP       2246 24.81                             115    1.41 8  255 212 
 ROSC HE ES       2246 53.82                             115    0.70 8  255 212 
 ROSC BZ I        2247  0.50        17.4 0.35            117            255 212 
 URE  HZ EP       2246 26.74                             112    0.31 7  286 292 
 URE  HN ES       2246 57.26                             112   -1.26 7  286 292 
 URE  HZ I        2247  9.99        14.4 0.20            113            286 292 
 DRL03HZ EP       2246 28.11                             112    1.46 7  289 352 
 DRL03HE ES       2246 58.70                             112   -0.20 7  289 352 
 GUY2CHZ EP       2246 29.58                             111    0.56 7  304 235 
 GUY2CHE ES       2247  5.15                             111    2.03 7  304 235 
 GUY2CHZ I        2247  9.53        10.2 0.26                           304 235 
 DRL02HZ EP       2246 30.51                             110   -0.22 7  324 357 
 DRL02HE ES       2247  5.42                             110   -0.75 7  324 357 
 CBOC HZ EP       2246 33.46                             109    1.08 7  337 252 
 CBOC HE ES       2247  7.10                             109   -2.00 7  337 252 
 PRA  HZ EP       2246 38.52                             106   -0.38 6  394 210 
 PRA  HE ES       2247 19.70                             106   -1.02 6  394 210 
 PRA  HZ I        2247 27.71         6.5 0.28            107            394 210 
 ORTC HZ EP       2246 39.51                             105    0.18 6  398 216 
 ORTC HE ES       2247 22.01                             105    0.53 6  398 216 
 ORTC HZ I        2247 25.75         3.0 0.60            107            398 216 
                                                                                
