 2014 12 8 2102 48.3 L   6.796 -73.117145.5  RSN  8 0.5 2.0LRSN                1
 GAP=140        1.21       4.6     5.1  7.6 -0.8206E+00  0.1129E+02 -0.6292E+01E
 Epicentro: LOS SANTOS - SANTANDER                                             3
 ACTION:UPD 15-02-10 17:01 OP:nd   STATUS:               ID:20141208210248 L   I
 OLDACT:REG 14-12-09 09:53 OP:carl STATUS:               ID:20141208205746     3
 2014-12-08-2057-46M.COL___309                                                 6
 STAT SP IPHASW D HRMM SECON CODA AMPLIT PERI AZIMU VELO AIN AR TRES W  DIS CAZ7
 BAR2 SZ EP       21 3  8.18                             170    0.2710 23.6 198 
 BAR2 SZ ES       21 3 22.72                             170   -0.4910 23.6 198 
 BAR2 SZ I        21 3 23.82        18.5 0.34            172           23.6 198 
 BRR  HZ EP       21 3 10.20                             151    0.6010 74.2 298 
 BRR  HN ES       21 3 26.73                             151    0.5210 74.2 298 
 PAM  SZ EP       21 3 10.99                             151    0.5910 75.8  37 
 PAM  SE ES       21 3 27.64                             151    0.0010 75.8  37 
 PAM  SZ I        21 3 28.53        14.4 0.20            151           75.8  37 
 RUS  HZ EP       21 3 12.00                             144    0.0110 99.9 178 
 RUS  HE ES       21 3 30.16                             144   -0.3010 99.9 178 
 RUS  HZ I        21 3 31.28         6.9 0.24            147           99.9 178 
 PTB  HZ EP       21 3 14.82                             131   -0.71 9  151 259 
 PTB  HE ES       21 3 36.32                             131   -0.44 9  151 259 
 PTB  HZ I        21 3 37.97        15.2 0.16            130            151 259 
 ZAR  HZ EP       21 3 20.80                             122   -0.25 8  207 292 
 ZAR  HN ES       21 3 47.23                             122    0.63 8  207 292 
 ZAR  HZ I        21 3 54.79        10.0 0.54            121            207 292 
 NOR  HN ES       21 3 52.75                             118    0.43 8  237 235 
 NOR  HZ I        21 3 53.93         7.7 0.16            119            237 235 
 SML  HZ EP       21 3 24.77                             117   -0.34 8  245 335 
 SML  HN ES       21 3 52.92                             117   -0.89 8  245 335 
 SML  HZ I        21 4  2.87        12.5 0.24            117            245 335 
                                                                                
