 2015 11 8 2210  1.3 L   6.780 -73.122143.9  RSN  8 0.3 1.9LRSN                1
 GAP=140        0.78       3.3     3.5  5.1 -0.7379E+00  0.6216E+01  0.2045E+01E
 Epicentro: LOS SANTOS - SANTANDER                                             3
 ACTION:UPD 15-12-28 16:09 OP:cam  STATUS:               ID:20151108221001 L   I
 OLDACT:REG 15-11-09 03:16 OP:mh   STATUS:               ID:20151108220750     3
 2015-11-08-2207-50M.COL___310                                                 6
 STAT SP IPHASW D HRMM SECON CODA AMPLIT PERI AZIMU VELO AIN AR TRES W  DIS CAZ7
 BAR2 EZ EP       2210 20.50                             171   -0.2210 21.7 198 
 BAR2 EZ ES       2210 35.64                             171   -0.1810 21.7 198 
 BAR2 EZ I        2210 36.55        17.3 0.26            169           21.7 198 
 BRR  HZ EP       2210 22.54                             151    0.0610 74.6 299 
 BRR  HN ES       2210 39.35                             151    0.3810 74.6 299 
 BRR  HZ I        2210 42.38        12.9 0.28            149           74.6 299 
 PAM  EZ EP       2210 23.61                             150    0.2410 77.6  37 
 PAM  EN ES       2210 40.40                             150   -0.1510 77.6  37 
 PAM  EZ I        2210 41.44        11.6 0.20            154           77.6  37 
 RUS  HZ EP       2210 24.66                             144   -0.0810 98.2 177 
 RUS  HN ES       2210 43.35                             144    0.3710 98.2 177 
 RUS  HZ I        2210 44.69         7.0 0.44            146           98.2 177 
 SPBC HZ EP       2210 29.20                             129   -0.49 9  163 220 
 SPBC HN ES       2210 51.57                             129   -0.23 9  163 220 
 SPBC HZ I        2210 56.25        15.6 0.30            129            163 220 
 ZAR  HN ES       2210 58.96                             121   -0.52 8  207 292 
 ZAR  HZ I        2211  3.70         9.6 0.36            122            207 292 
 HEL  HZ EP       2210 42.22                             114    0.54 8  274 256 
 HEL  HN ES       2211 13.49                             114    0.35 8  274 256 
 HEL  HZ I        2211 18.46         5.2 0.32            115            274 256 
 URE  HN ES   4   2211 11.06                             113   -3.87 0  287 292 
 GUY2CHZ EP   1   2210 45.12                             112    0.16 5  302 235 
 GUY2CHE ES   4   2211 21.75                             112    2.77 0  302 235 
 GUY2CHZ I        2211 26.86         5.3 0.58                           302 235 
                                                                                
