 2010  9 8 2242 28.6 L   6.802 -73.049141.2  RSN  4 0.3 1.9LRSN                1
 GAP=247        0.59       7.1    12.9  7.8  0.6745E+02  0.1985E+01  0.8786E+01E
 Epicentro: LOS SANTOS - SANTANDER                                             3
 ACTION:UP  11-02-18 11:01 OP:tino STATUS:               ID:20100908224228 L   I
 2010-09-08-2238-29S.COL___120                                                 6
 STAT SP IPHASW D HRMM SECON CODA AMPLIT PERI AZIMU VELO SNR AR TRES W  DIS CAZ7
 BAR2 SZ ES   2   2243  2.10                             168    -0.6 5   28 213 
 BRR  HZ EP   1   2242 49.58                             148    -0.2 7   81 295 
 BRR  HE ES       2243  6.48                             148     0.110   81 295 
 BRR  HZ I        2243  8.08         9.9 0.55                            81 295 
 RUS  HZ EP   2   2242 51.72                             143    -0.1 5  101 182 
 RUS  HE ES   1   2243 10.32                             143     0.3 7  101 182 
 PRA  HZ EP   2   2243 23.16                             105     0.6 3  398 211 
 PRA  HE ES   2   2244  4.10                             105    -0.6 3  398 211 
 PRA  HZ I        2244 11.16         3.6 0.68                           398 211 
                                                                                
