 2012  5 8 2219 39.7 L   6.799 -73.145146.0  RSN  8 0.4 1.8LRSN                1
 GAP=137        1.01       5.1     5.6  7.8  0.1534E+01  0.8635E+01  0.6470E+01E
 Epicentro: LOS SANTOS - SANTANDER                                             3
 ACTION:UP  12-07-05 12:03 OP:pat  STATUS:               ID:20120508221939 L   I
 2012-05-08-2217-41M.COL___181                                                 6
 STAT SP IPHASW D HRMM SECON CODA AMPLIT PERI AZIMU VELO SNR AR TRES W  DIS CAZ7
 BAR2 SZ EP       2219 59.12                             171    -0.210   23 190 
 BAR2 SZ ES   1   2220 14.51                             171    -0.1 7   23 190 
 BAR2 SZ I        2220 17.17        14.8 0.29                            23 190 
 BRR  HZ EP       2220  1.18                             153     0.310   71 299 
 BRR  HE ES   1   2220 18.24                             153     0.9 7   71 299 
 BRR  HZ I        2220 20.77        15.0 0.18                            71 299 
 PAM  SZ EP       2220  1.89                             151     0.010   77  39 
 PAM  SN ES   1   2220 19.17                             151    -0.1 7   77  39 
 RUS  HZ EP   1   2220  3.02                             144    -0.4 7  100 176 
 RUS  HE ES   1   2220 21.93                             144     0.0 7  100 176 
 RUS  HZ I        2220 22.55         4.5 0.24                           100 176 
 PTB  HZ EP   1   2220  6.05                             132    -0.6 7  148 259 
 PTB  HN ES   1   2220 26.94                             132    -0.8 7  148 259 
 PTB  HZ I        2220 33.09         7.4 0.26                           148 259 
 ZAR  HZ EP   1   2220 12.00                             122    -0.1 6  204 292 
 ZAR  HN ES   1   2220 37.56                             122     0.1 6  204 292 
 ZAR  HZ I        2220 43.62        11.1 0.11                           204 292 
 CHI  HZ EP   1   2220 17.89                             117     0.5 6  249 195 
 CHI  HN ES   1   2220 47.43                             117     0.7 6  249 195 
 CHI  HZ I        2220 54.30         3.1 0.34                           249 195 
 PRA  HZ EP   1   2220 33.70                             107     0.5 4  392 210 
                                                                                
