 2012  4 8 2058 45.5 L   6.783 -73.112143.8  RSN  5 0.3 1.2LRSN                1
 GAP=142        0.55       5.3     5.8  8.0 -0.4277E+01 -0.6670E+01  0.3694E+01E
 Epicentro: LOS SANTOS - SANTANDER                                             3
 ACTION:UPD 12-07-05 11:51 OP:tino STATUS:               ID:20120408205845 L   I
 2012-04-08-2050-00M.COL___196                                                 6
 STAT SP IPHASW D HRMM SECON CODA AMPLIT PERI AZIMU VELO AIN AR TRES W  DIS CAZ7
 BAR2 SZ EP   2   2059  4.26                             171    -0.6 5   22 200 
 BAR2 SZ ES   2   2059 19.51                             171    -0.5 5   22 200 
 BAR2 SZ I        2059 20.38         4.5 0.39                            22 200 
 BRR  HZ EP   2   2059  6.71                             151     0.0 5   75 298 
 BRR  HE ES   2   2059 23.32                             151     0.1 5   75 298 
 PAM  SZ EP   1   2059  7.63                             151     0.2 7   77  36 
 PAM  SE ES   2   2059 24.75                             151     0.1 5   77  36 
 RUS  HZ EP   1   2059  8.88                             144     0.0 7   98 178 
 RUS  HN ES   2   2059 27.67                             144     0.5 5   98 178 
 RUS  HZ I        2059 28.33         2.2 0.28                            98 178 
 PTB  HE ES   2   2059 33.91                             131     0.1 5  151 260 
 PTB  HZ I        2059 34.06         1.9 0.61                           151 260 
                                                                                
