 2016 12 8 2041  1.5 L   6.551 -73.564 99.8  RSN  8 0.4 1.6LRSN                1
 GAP= 89        0.97       4.1     3.4  6.8  0.7266E+00  0.4167E+01 -0.1170E+01E
 Epicentro: EL CARMEN - SANTANDER                                              3
 ACTION:UPD 17-01-11 20:13 OP:rebc STATUS:               ID:20161208204101 L   I
 OLDACT:UP  16-12-09 04:58 OP:cog  STATUS:               ID:20161208203743d    3
 OLDACT:DUP 16-12-09 04:46 OP:cog  STATUS:               ID:20161208203743d    3
 2016-12-08-2038-00M.COL___376                                                 6
 STAT SP IPHASW D HRMM SECON CODA AMPLIT PERI AZIMU VELO AIN AR TRES W  DIS CAZ7
 BAR2 EZ EP       2041 16.83                             156    0.4210 42.5  84 
 BAR2 HE ES       2041 28.01                             156   -0.0410 42.5  84 
 BAR2 EZ I        2041 30.46        48.7 0.46            161           42.5  84 
 BRR  HZ EP       2041 17.75                             145    0.3910 63.6 345 
 BRR  HE ES       2041 29.97                             145    0.2410 63.6 345 
 BRR  HZ I        2041 38.15        10.2 0.32            146           63.6 345 
 RUS  HZ EP       2041 20.22                             135    0.0610 90.2 144 
 RUS  HN ES       2041 34.81                             135    0.1010 90.2 144 
 RUS  HZ I        2041 35.77         4.5 0.20            144           90.2 144 
 PTB  HZ EP       2041 19.61                             132   -0.6510 98.6 269 
 PTB  HN ES       2041 34.74                             132   -0.1610 98.6 269 
 PTB  HZ I        2041 35.80        11.9 0.10            135           98.6 269 
 PAM  EZ EP       2041 23.70                             124   -0.1710  129  48 
 PAM  EN ES       2041 40.69                             124   -0.6310  129  48 
 PAM  EZ I        2041 42.43         4.8 0.24            129            129  48 
 ZAR  HZ EP       2041 28.88                             115    0.53 9  177 306 
 ZAR  HN ES   4   2041 51.49                             115    2.20 0  177 306 
 ZAR  HZ I        2041 53.42        10.3 0.48            118            177 306 
 NOR  HZ EP   4   2041 26.17                             115   -2.72 0  181 233 
 NOR  HE ES   3   2041 49.21                             115   -1.04 2  181 233 
 NOR  HZ I        2041 52.15         3.5 0.16            119            181 233 
 GUY2CHZ EP   4   2041 38.19                             108    1.12 0  248 234 
 GUY2CHE ES   4   2042  6.96                             108    2.14 0  248 234 
 GUY2CHZ I        2042 10.12         2.2 0.30                           248 234 
                                                                                
