 2011  5 8 2143 23.1 L   6.810 -73.010147.1  RSN  4 0.3 1.6LRSN                1
 GAP=171        0.76       4.5    10.5 11.8 -0.6326E+01 -0.5899E+02 -0.2050E+01E
 Epicentro: CEPITA - SANTANDER                                                 3
 ACTION:UP  11-06-29 08:51 OP:tino STATUS:               ID:20110508214323 L   I
 2011-05-08-2143-14S.COL___131                                                 6
 STAT SP IPHASW D HRMM SECON CODA AMPLIT PERI AZIMU VELO SNR AR TRES W  DIS CAZ7
 BRR  HZ EP   2   2143 44.35                             148    -0.9 5   84 293 
 BRR  HN ES   1   2144  2.73                             148     0.3 7   84 293 
 BRR  HZ I        2144  3.68        15.2 0.14                            84 293 
 RUS  HZ EP   1   2143 47.35                             144     0.2 7  102 185 
 RUS  HN ES   1   2144  5.62                             144    -0.2 7  102 185 
 RUS  HZ I        2144  7.14         3.7 0.35                           102 185 
 BRI  SZ EP   1   2143 47.00                             143     0.2 7  103  13 
 BRI  SZ I        2144 10.57         5.0 0.46                           103  13 
 GRA  SZ EP   1   2143 48.10                             138     0.0 7  121  11 
 GRA  SZ ES   1   2144  7.39                             138    -0.2 7  121  11 
 GRA  SZ I        2144 10.42         4.5 0.35                           121  11 
                                                                                
