 2010  9 8 2058 36.5 L   6.863 -73.344119.8  RSN  6 0.4 1.5LRSN                1
 GAP=139        0.82       7.0    11.4 11.5 -0.2792E+01 -0.6494E+02 -0.3226E+01E
 Epicentro: BETULIA - SANTANDER                                                3
 ACTION:UP  11-02-18 11:01 OP:tino STATUS:               ID:20100908205836 L   I
 2010-09-08-2055-00S.COL___120                                                 6
 STAT SP IPHASW D HRMM SECON CODA AMPLIT PERI AZIMU VELO SNR AR TRES W  DIS CAZ7
 BTL  SZ EP   2   2058 53.01                             175     0.2 5   10  54 
 BAR2 SZ EP       2058 53.61                             163     0.210   35 149 
 BAR2 SZ I        2058 53.88        20.2 0.10                            35 149 
 BAR2 SZ ES   2   2059  5.94                             163    -0.6 5   35 149 
 BRR  HZ EP   1   2058 53.53                             156    -0.1 7   49 304 
 BRR  HZ I        2059  5.85        12.8 0.50                            49 304 
 BRR  HN ES   1   2059  7.10                             156     0.1 7   49 304 
 RUS  HZ EP   2   2058 58.89                             134     0.2 5  111 165 
 RUS  HZ I        2059 23.41         2.6 0.06                           111 165 
 GUE  SZ EP   1   2058 58.31                             133    -0.7 7  117  23 
 GUE  SZ I        2059  1.29         2.9 0.08                           117  23 
 GRA  SZ EP   2   2059  0.30                             130     0.5 5  128  28 
 GRA  SZ ES   2   2059 18.45                             130     0.5 5  128  28 
 GRA  SZ I        2059 20.58         4.5 0.30                           128  28 
                                                                                
