 2011 12 8 2018  0.2 L   6.796 -73.109140.2  RSN  4 0.2 1.4LRSN                1
 GAP=141        0.57       4.5     7.2  6.6  0.1211E+02 -0.1988E+02 -0.8758E+01E
 Epicentro: LOS SANTOS - SANTANDER                                             3
 ACTION:UPD 12-07-13 16:15 OP:ep   STATUS:               ID:20111208201800 L   I
 2011-12-08-2010-00M.COL___170                                                 6
 STAT SP IPHASW D HRMM SECON CODA AMPLIT PERI AZIMU VELO AIN AR TRES W  DIS CAZ7
 BAR2 SZ EP       2018 18.94                             170   -0.2210 23.9 200 
 BAR2 SZ ES   1   2018 33.62                             170   -0.34 7 23.9 200 
 BAR2 SZ I        2018 36.29         8.1 0.24                          23.9 200 
 BRR  HZ EP       2018 20.98                             150    0.0210 75.0 297 
 BRR  HE ES   1   2018 37.31                             150    0.14 7 75.0 297 
 BRR  HZ I        2018 40.36         5.4 0.30                          75.0 297 
 PAM  SZ EP       2018 21.86                             150    0.1810 75.2  37 
 RUS  HZ EP       2018 23.23                             143   -0.1110 99.9 178 
 RUS  HN ES   1   2018 41.83                             143    0.42 7 99.9 178 
 RUS  HZ I        2018 42.50         2.5 0.28                          99.9 178 
                                                                                
