 2011  8 8 2242 29.2 L   6.769 -73.114148.3  RSN 16 0.3 4.1LRSN                1
 GAP=142        0.48       2.2     3.1  3.5 -0.1820E+01  0.2439E+01  0.1874E+01E
 Epicentro: LOS SANTOS - SANTANDER                                             3
 ACTION:UPD 12-07-25 14:07 OP:epov STATUS:               ID:20110808224229 L   I
 2011-08-08-2240-31S.COL___144                                                 6
 STAT SP IPHASW D HRMM SECON CODA AMPLIT PERI AZIMU VELO AIN AR TRES W  DIS CAZ7
 BAR2 SZ EP       2242 49.03                             172   -0.0210 21.0 201 
 BAR2 SZ ES   1   2243  4.35                             172   -0.21 7 21.0 201 
 BAR2 SZ I        2243  7.68      1597.6 0.36                          21.0 201 
 BRR  HZ EP       2242 51.02                             151    0.1710 75.9 300 
 BRR  HZ I        2242 51.43      1409.6 0.10                          75.9 300 
 BRR  HE ES   1   2243  8.15                             151    0.38 7 75.9 300 
 PAM  SZ IP       2242 51.88                             151    0.2010 78.0  36 
 PAM  SN ES   2   2243  9.10                             151   -0.14 5 78.0  36 
 RUS  HZ IP     D 2242 52.82                             145   -0.0910 97.0 178 
 RUS  HN ES   2   2243 11.49                             145    0.06 5 97.0 178 
 RUS  HZ I        2243 14.70      1224.4 0.51                          97.0 178 
 OCA  SZ EP   1   2242 57.55                             129   -0.48 7  164 352 
 OCA  SZ ES   2   2243 20.07                             129   -0.47 5  164 352 
 OCA  SZ I        2243 24.42      2177.8 0.18                           164 352 
 NOR  SZ EP   2   2243  4.82                             119   -0.31 4  236 236 
 NOR  SN ES   2   2243 32.72                             119   -0.47 4  236 236 
 CHI  HZ EP   1   2243  7.03                             118    0.28 6  246 196 
 CHI  HE ES   2   2243 35.59                             118   -0.47 4  246 196 
 CHI  HZ I        2243 44.53       562.3 0.54                           246 196 
 ROSC BZ EP   2   2243  7.83                             117    0.53 4  252 212 
 ROSC BN ES   2   2243 36.89                             117   -0.16 4  252 212 
 ROSC BZ I        2243 44.33       879.5 0.60                           252 212 
 VIL  SZ EP   2   2243 12.02                             113   -0.38 4  301 192 
 VIL  SN ES   2   2243 45.86                             113   -0.26 4  301 192 
 VIL  SZ I        2243 52.18       384.8 0.37                           301 192 
 GUY  SZ EP   2   2243 13.55                             112    0.30 4  304 236 
 GUY  SN ES   2   2243 47.45                             112   -0.20 4  304 236 
 GUY  SZ I        2243 59.18       988.4 0.51                           304 236 
 RREF HZ EP   1   2243 16.11                             111    0.65 5  322 230 
 RREF HN ES   2   2243 51.37                             111   -0.21 3  322 230 
 RREF HZ I        2244  0.57       833.0 0.43                           322 230 
 DBB  SZ EP   1   2243 16.99                             110   -0.18 5  343 275 
 DBB  SZ ES   2   2243 53.85                             110   -0.76 3  343 275 
 TOL  SZ EP   2   2243 17.81                             110    0.29 3  344 225 
 TOL  SZ ES   2   2243 55.80                             110    0.55 3  344 225 
 ANIL HZ EP   2   2243 19.35                             109    0.28 3  357 225 
 ANIL HN ES   2   2243 58.49                             109    0.50 3  357 225 
 ANIL HZ I        2244  6.59      1139.3 0.38                           357 225 
 PRA  HZ EP   2   2243 22.62                             107   -0.01 3  391 210 
 PRA  HN ES   2   2244  3.90                             107   -0.43 3  391 210 
 SJA  SZ EP   2   2243 22.83                             107   -0.67 3  398 194 
                                                                                
