 2011  5 8 2103 47.0 L   6.878 -72.977140.0  RSN  4 0.4 1.4LRSN                1
 GAP=176        0.91       5.4    11.3 11.2 -0.3525E+01 -0.3067E+02  0.3256E+00E
 Epicentro: CEPITA - SANTANDER                                                 3
 ACTION:UP  11-06-29 08:51 OP:tino STATUS:               ID:20110508210346 L   I
 2011-05-08-2101-45S.COL___131                                                 6
 STAT SP IPHASW D HRMM SECON CODA AMPLIT PERI AZIMU VELO SNR AR TRES W  DIS CAZ7
 BAR2 SZ EP   1   21 4  6.19                             164    -0.1 7   39 216 
 BAR2 SZ I        21 4  6.73         4.2 0.26                            39 216 
 BAR2 SZ ES   1   21 4 20.71                             164    -0.7 7   39 216 
 BRR  HZ EP   1   21 4  8.32                             147     0.0 7   85 287 
 BRR  HE ES   1   21 4 25.25                             147     0.2 7   85 287 
 BRR  HZ I        21 4 30.32        11.2 0.38                            85 287 
 RUS  HZ EP   1   21 4 10.80                             140     0.0 7  110 186 
 RUS  HZ I        21 4 11.30         2.5 0.33                           110 186 
 RUS  HN ES   1   21 4 30.04                             140     0.6 7  110 186 
 GRA  SZ EP   2   21 4 10.21                             139    -0.4 5  113  10 
 GRA  SZ ES   1   21 4 29.42                             139     0.3 7  113  10 
 GRA  SZ I        21 4 39.22         2.7 0.27                           113  10 
                                                                                
