 2011  2 8 2320 12.9 L   6.815 -73.212145.0  RSN  5 0.2 1.3LRSN                1
 GAP=151        0.55       4.3    18.0  7.2 -0.5359E+02  0.5566E+02 -0.1042E+02E
 Epicentro: ZAPATOCA - SANTANDER                                               3
 ACTION:UP  11-03-28 15:07 OP:jfem STATUS:               ID:20110208232012 L   I
 2011-02-08-2317-11S.COL___136                                                 6
 STAT SP IPHASW D HRMM SECON CODA AMPLIT PERI AZIMU VELO SNR AR TRES W  DIS CAZ7
 BTL  SZ EP       2320 32.34                             174     0.110   13 332 
 BAR2 SZ EP   1   2320 32.25                             170    -0.2 7   25 173 
 BAR2 SZ ES   2   2320 47.79                             170     0.1 5   25 173 
 BAR2 SZ I        2320 49.08         5.9 0.23                            25 173 
 RUS  HZ EP   1   2320 37.15                             143     0.4 7  103 172 
 RUS  HN ES   1   2320 55.10                             143    -0.2 7  103 172 
 RUS  HZ I        2320 56.10         2.6 0.19                           103 172 
 GRA  SZ EP       2320 38.02                             137    -0.110  127  21 
 GRA  SZ I        2320 39.52         4.6 0.42                           127  21 
 GRA  SZ ES   1   2320 57.74                             137    -0.1 7  127  21 
 CHI  HZ EP   1   2320 50.26                             117    -0.2 6  248 193 
 CHI  HZ I        2321 27.36         1.1 0.45                           248 193 
                                                                                
