 2015 12 8 2104 23.0 L   6.773 -73.157148.7  RSN 12 0.3 2.3LRSN                1
 GAP=136        0.85       3.2     3.2  4.6 -0.1666E+01  0.4875E+01  0.2405E+01E
 Epicentro: LOS SANTOS - SANTANDER                                             3
 ACTION:UPD 16-02-04 15:03 OP:cam  STATUS:               ID:20151208210423 L   I
 OLDACT:REG 15-12-09 02:59 OP:drio STATUS:               ID:20151208205750     3
 2015-12-08-2057-50M.COL___325                                                 6
 STAT SP IPHASW D HRMM SECON CODA AMPLIT PERI AZIMU VELO AIN AR TRES W  DIS CAZ7
 BAR2 EZ EP       21 4 42.98                             172    0.0810 20.2 188 
 BAR2 EZ ES       21 4 58.35                             172   -0.0910 20.2 188 
 BAR2 EZ I        21 4 59.46        58.7 0.20            171           20.2 188 
 BRR  HZ EP       21 4 44.84                             153    0.3810 71.6 301 
 BRR  HN ES       21 5  2.01                             153    0.7810 71.6 301 
 BRR  HZ I        21 5  5.95        18.9 0.26            151           71.6 301 
 PAM  EZ EP     D 21 4 45.69                             150    0.0110 80.5  39 
 PAM  EN ES       21 5  3.05                             150   -0.3510 80.5  39 
 PAM  EZ I        21 5  5.39        20.1 0.58            153           80.5  39 
 RUS  HZ EP       21 4 46.86                             145    0.0510 97.7 175 
 RUS  HE ES       21 5  5.14                             145   -0.2610 97.7 175 
 RUS  HZ I        21 5  7.17        16.2 0.26            147           97.7 175 
 PTB  HZ EP       21 4 49.47                             133   -0.55 9  146 260 
 PTB  HN ES       21 5 10.67                             133   -0.45 9  146 260 
 PTB  HZ I        21 5 12.59        43.3 0.90            133            146 260 
 SPBC HZ EP       21 4 51.45                             130    0.04 9  160 219 
 SPBC HN ES       21 5 13.79                             130    0.20 9  160 219 
 ZAR  HZ EP       21 4 55.70                             123    0.09 9  204 293 
 ZAR  HN ES       21 5 20.75                             123   -0.32 9  204 293 
 ZAR  HZ I        21 5 26.26        20.9 0.42            123            204 293 
 NOR  HZ EP       21 4 58.68                             119    0.10 8  232 235 
 NOR  HE ES       21 5 26.79                             119    0.43 8  232 235 
 NOR  HZ I        21 5 31.49        12.6 0.20            120            232 235 
 SML  HZ EP   4   21 4 59.15                             118   -0.85 0  246 336 
 SML  HN ES   4   21 5 27.26                             118   -1.63 0  246 336 
 SML  HZ I        21 5 31.85        20.8 0.10            119            246 336 
 HEL  HZ EP       21 5  3.33                             115    0.21 8  270 256 
 HEL  HE ES       21 5 33.73                             115   -0.71 8  270 256 
 HEL  HZ I        21 5 43.24         6.8 0.22            116            270 256 
 GUY2CHZ EP       21 5  6.46                             113    0.05 7  298 235 
 GUY2CHN ES       21 5 40.66                             113    0.37 7  298 235 
 GUY2CHZ I        21 5 55.14         7.7 0.58                           298 235 
 PRA  HZ EP       21 5 16.35                             107    0.13 6  389 210 
 PRA  HE ES       21 5 57.52                             107   -0.23 6  389 210 
 PRA  HZ I        21 6  4.60         7.8 0.24            108            389 210 
                                                                                
