 2017 10 8 2114 33.4 L   6.784 -73.136144.4  RSN  6 0.2 1.5LRSN                1
 GAP=138        0.48       2.3     2.7  4.5 -0.1375E+01  0.4127E+01 -0.6421E+00E
 Epicentro: LOS SANTOS - SANTANDER                                             3
 ACTION:UPD 17-11-07 19:29 OP:rebc STATUS:               ID:20171008211433 L   I
 OLDACT:UP  17-10-09 06:26 OP:edw  STATUS:               ID:20171008210739     3
 OLDACT:REG 17-10-09 03:14 OP:edw  STATUS:               ID:20171008210739     3
 2017-10-08-2108-00M.COL___423                                                 6
 STAT SP IPHASW D HRMM SECON CODA AMPLIT PERI AZIMU VELO AIN AR TRES W  DIS CAZ7
 BAR2 EZ ES       2115  8.04                             171    0.0810 21.8 193 
 PAM  EZ EP       2114 55.59                             150    0.1110 78.1  38 
 PAM  EN ES       2115 12.60                             150   -0.1310 78.1  38 
 PAM  EZ I        2115 14.93         4.7 0.64            152           78.1  38 
 RUS  HZ EP       2114 56.95                             144    0.1010 98.8 177 
 RUS  HN ES       2115 15.23                             144    0.0610 98.8 177 
 RUS  HZ I        2115 16.10         3.4 0.28            145           98.8 177 
 SPBC HZ EP   2   2115  1.13                             129   -0.56 5  162 220 
 SPBC HN ES       2115 23.54                             129   -0.25 9  162 220 
 SPBC HZ I        2115 26.97         9.3 0.22            130            162 220 
 ZAR  HN ES       2115 31.26                             122    0.00 8  206 292 
 NOR  HN ES   2   2115 37.44                             118    0.65 4  235 235 
                                                                                
