 2015  8 8 2019 34.0 L   6.790 -73.195144.0  RSN 10 0.5 2.0LRSN                1
 GAP=131        1.27       4.1     4.7  7.2 -0.2578E+01  0.1116E+02 -0.2762E+01E
 Epicentro: ZAPATOCA - SANTANDER                                               3
 ACTION:UPD 15-09-15 23:00 OP:cam  STATUS:               ID:20150808201934 L   I
 OLDACT:REG 15-08-09 05:57 OP:stll STATUS:               ID:20150808201750     3
 2015-08-08-2017-50M.COL___355                                                 6
 STAT SP IPHASW D HRMM SECON CODA AMPLIT PERI AZIMU VELO AIN AR TRES W  DIS CAZ7
 BAR2 EZ EP       2019 53.53                             171    0.1510 21.9 176 
 BAR2 EZ ES       2020  8.37                             171   -0.1310 21.9 176 
 BAR2 EZ I        2020  9.71        24.1 0.14            169           21.9 176 
 BRR  HZ EP       2019 55.37                             154    0.6510 67.0 302 
 BRR  HN ES       2020 11.84                             154    0.9610 67.0 302 
 PAM  EZ EP       2019 56.25                             149   -0.0310 81.7  42 
 PAM  EZ I        2019 56.59        24.9 0.22            153           81.7  42 
 PAM  EN ES       2020 13.36                             149   -0.3110 81.7  42 
 RUS  HZ EP       2019 57.57                             144    0.0410  100 173 
 RUS  HN ES       2020 15.49                             144   -0.4010  100 173 
 CPBEREZ EP       2020  0.32                             133    0.00 9  142 259 
 CPBEREN ES       2020 20.14                             133   -0.71 9  142 259 
 SPBC HZ EP       2020  2.49                             129    0.54 9  159 218 
 SPBC HN ES       2020 23.53                             129   -0.24 9  159 218 
 SPBC HZ I        2020 27.18        12.7 0.28            128            159 218 
 ZAR  HZ EP       2020  6.27                             123    0.42 9  199 293 
 ZAR  HN ES       2020 31.08                             123    0.38 9  199 293 
 ZAR  HZ I        2020 38.23         7.5 0.36            122            199 293 
 NOR  HZ EP       2020  9.71                             119    0.63 8  230 234 
 NOR  HE ES       2020 36.27                             119   -0.18 8  230 234 
 NOR  HZ I        2020 43.60         6.8 0.30            118            230 234 
 SML  HZ EP       2020  9.32                             117   -1.06 8  242 337 
 SML  HE ES       2020 38.17                             117   -0.60 8  242 337 
 HEL  HN ES       2020 43.66                             115   -0.66 8  267 256 
 HEL  HZ I        2020 52.67         5.0 0.48            114            267 256 
                                                                                
