 2011  9 8 2128 22.3 L   6.773 -73.093152.7  RSN  4 0.2 1.7LRSN                1
 GAP=145        0.41       3.1     4.6  4.6 -0.1795E+00 -0.1522E+01  0.2554E+01E
 Epicentro: LOS SANTOS - SANTANDER                                             3
 ACTION:UPD 12-07-13 15:56 OP:ep   STATUS:               ID:20110908212822 L   I
 2011-09-08-2126-40S.COL___170                                                 6
 STAT SP IPHASW D HRMM SECON CODA AMPLIT PERI AZIMU VELO AIN AR TRES W  DIS CAZ7
 GIR2 SZ EP   1   2128 43.00                             166    0.12 7 35.6 342 
 GIR2 SZ ES   1   2128 59.20                             166    0.24 7 35.6 342 
 PAM  SZ EP   1   2128 45.37                             152    0.21 7 76.2  35 
 PAM  SE ES   1   2129  2.75                             152   -0.27 7 76.2  35 
 BRR  HZ EP   1   2128 44.43                             152   -0.11 7 77.7 298 
 BRR  HZ I        2128 44.62        18.3 0.13                          77.7 298 
 BRR  HN ES   1   2129  1.82                             152   -0.09 7 77.7 298 
 RUS  HZ EP   1   2128 46.34                             146   -0.15 7 97.4 179 
 RUS  HN ES   1   2129  5.42                             146    0.04 7 97.4 179 
 RUS  HZ I        2129  6.33         4.1 0.23                          97.4 179 
                                                                                
