 2013  1 8 2213 13.5 L   6.801 -73.130146.5  RSN 15 0.4 3.3LRSN 3.3WRSN        1
 SPEC AVERAGE  MO 14.1 ST  4.6 OM  3.4 f0 2.94 R0.5021 AL 2.40 WI 12.5 MW  3.3 3
 SPEC SD       MO  0.2 ST  2.0 OM  1.2 f00.207 R0.0372 AL      WI      MW  0.1 3
 GAP=183        0.92       2.8     4.0  4.6  0.2080E+01  0.3420E+01  0.1065E+01E
 Epicentro: LOS SANTOS - SANTANDER                                             3
 SPEC RUS HH Z MO 13.8 ST  1.8 OM  2.2 f0 2.65 R0.5547 AL 2.26 WI  5.5 MW  3.2 3
 SPEC RUS HH Z T221355 K 0.000 GD  177 VS 4.20 DE 3.20 Q0300.0 QA 0.60 VS 4.20 3
 SPEC HEL HH Z MO 14.2 ST  6.3 OM  2.3 f0 3.09 R0.4757 AL 1.92 WI 16.0 MW  3.4 3
 SPEC HEL HH Z T221424 K 0.000 GD  310 VS 4.20 DE 3.20 Q0300.0 QA 0.60 VS 4.20 3
 SPEC CHI HH Z MO 14.2 ST  5.8 OM  2.3 f0 3.09 R0.4757 AL 3.01 WI 15.9 MW  3.4 3
 SPEC CHI HH Z T221419 K 0.000 GD  288 VS 4.20 DE 3.20 Q0300.0 QA 0.60 VS 4.20 3
 ACTION:UPD 13-02-15 09:13 OP:ep   STATUS:               ID:20130108221313 L   I
 2013-01-08-2210-00M.COL___242                                                 6
 STAT SP IPHASW D HRMM SECON CODA AMPLIT PERI AZIMU VELO AIN AR TRES W  DIS CAZ7
 BAR2 SZ IP       2213 33.43                             170    0.2310 23.8 194 
 BAR2 SZ ES       2213 48.20                             170   -0.3910 23.8 194 
 BAR2 SZ I        2213 51.40       465.1 0.37            170           23.8 194 
 BRR  HZ IP     D 2213 35.31                             152    0.5310 72.7 298 
 BRR  HE ES       2213 52.09                             152    0.6910 72.7 298 
 BRR  HZ I        2213 55.77       301.2 0.17            143           72.7 298 
 RUS  HZ EP     D 2213 37.25                             144   -0.0410  101 177 
 RUS  HN ES       2213 55.72                             144   -0.1610  101 177 
 RUS  HN I        2213 56.77       388.1 0.33            136            101 177 
 PTB  HZ EP       2213 39.93                             132   -0.73 9  150 259 
 PTB  HN ES       2214  1.47                             132   -0.39 9  150 259 
 PTB  HZ I        2214  8.72       316.1 0.29            122            150 259 
 OCA  HZ EP       2213 41.78                             130   -0.06 9  160 353 
 OCA  HN ES   1   2214  4.43                             130    0.45 7  160 353 
 OCA  HZ I        2214  9.47       182.9 0.24            119            160 353 
 ZAR  HZ EP       2213 45.96                             122   -0.17 8  206 292 
 ZAR  HN ES       2214 11.50                             122   -0.10 8  206 292 
 ZAR  HZ I        2214 18.35       325.8 0.29            113            206 292 
 CTAB SZ EP   4   2213 50.60                             119    1.23 0  231 211 
 CHI  HZ EP       2213 51.45                             117    0.18 8  249 196 
 CHI  HN ES       2214 20.22                             117   -0.54 8  249 196 
 CHI  HZ I        2214 30.46        90.9 0.28            109            249 196 
 ROSC BZ EP   4   2213 52.23                             117    0.49 0  254 211 
 ROSC BN ES   4   2214 22.23                             117    0.64 0  254 211 
 ROSC BZ I        2214 30.81       193.1 0.51            108            254 211 
 HEL  HZ EP   1   2213 54.47                             115    0.56 6  274 256 
 HEL  HN ES   1   2214 25.23                             115   -0.23 6  274 256 
 HEL  HZ I        2214 32.67        90.7 0.28            106            274 256 
 URE  HZ EP   4   2213 53.19                             114   -1.56 0  285 292 
 VIL  SZ EP       2213 57.14                             112    0.16 7  304 192 
 VIL  SE ES       2214 31.44                             112    0.53 7  304 192 
 VIL  SZ I        2214 37.39       108.5 0.59            104            304 192 
 RREF HZ EP   1   2214  0.25                             111    0.44 5  323 230 
 RREF HZ I        2214 44.87       164.7 0.34            103            323 230 
 DBB  SZ EP       2214  0.77                             109   -0.41 7  341 274 
 DBB  SZ ES       2214 38.27                             109   -0.12 7  341 274 
 TOL  SZ EP   1   2214  2.35                             109    0.44 5  345 225 
 COD  HZ EP       2214  1.05                             109   -0.83 6  348 354 
 COD  HZ I        2214 45.54        24.2 0.42            101            348 354 
 ANIL HZ EP   1   2214  4.16                             109    0.70 5  359 225 
 ANIL HN ES   1   2214 42.86                             109    0.42 5  359 225 
                                                                                
