 2013  2 8 2113 25.1 L   6.786 -73.162142.4  RSN  7 0.5 1.9LRSN                1
 GAP=135        0.89       4.6     5.2  7.4  0.2923E+01  0.9536E+01  0.5925E+01E
 Epicentro: LOS SANTOS - SANTANDER                                             3
 ACTION:UPD 13-03-12 09:31 OP:ep   STATUS:               ID:20130208211325 L   I
 2013-02-08-2110-00M.COL___241                                                 6
 STAT SP IPHASW D HRMM SECON CODA AMPLIT PERI AZIMU VELO AIN AR TRES W  DIS CAZ7
 BAR2 SZ EP   1   2113 44.31                             171    0.02 7 21.5 186 
 BAR2 SZ ES   1   2113 59.65                             171    0.40 7 21.5 186 
 BAR2 SZ I        2114  1.09        20.7 0.10            170           21.5 186 
 BRR  HZ EP   1   2113 46.04                             152    0.20 7 70.4 300 
 BRR  HN ES   1   2114  2.69                             152    0.68 7 70.4 300 
 BRR  HZ I        2114  6.02        18.7 0.42            151           70.4 300 
 PAM  SZ EP   1   2113 47.21                             150    0.11 7 79.7  40 
 PAM  SN ES   1   2114  3.49                             150   -0.77 7 79.7  40 
 PAM  SZ I        2114  6.17        23.9 0.46            153           79.7  40 
 RUS  HZ EP   1   2113 48.37                             143   -0.04 7 99.2 175 
 RUS  HN ES   1   2114  6.63                             143    0.03 7 99.2 175 
 RUS  HZ I        2114  8.28         8.6 0.34            145           99.2 175 
 PTB  HZ EP   1   2113 50.85                             132   -0.75 7  146 259 
 PTB  HN ES   1   2114 11.84                             132   -0.44 7  146 259 
 PTB  HZ I        2114 13.55         8.3 0.16            132            146 259 
 ZAR  HZ EP   1   2113 57.87                             122    0.66 6  203 293 
 ZAR  HN ES   1   2114 21.96                             122   -0.30 6  203 293 
 ZAR  HZ I        2114 28.49        12.0 0.36            122            203 293 
 CHI  HZ EP   1   2114  3.01                             117    0.62 6  247 195 
 CHI  HN ES   1   2114 31.13                             117   -0.36 6  247 195 
 CHI  HZ I        2114 37.49         2.6 0.48            118            247 195 
                                                                                
