 2015  3 8 2314 39.3 L   6.780 -73.176144.3  RSN  5 0.4 1.5LRSN                1
 GAP=134        0.99       4.7     5.1  8.0 -0.2497E+01  0.2160E+01  0.1204E+02E
 Epicentro: LOS SANTOS - SANTANDER                                             3
 ACTION:UPD 15-04-30 16:24 OP:nd   STATUS:               ID:20150308231439 L   I
 OLDACT:UP  15-03-09 05:19 OP:mh   STATUS:               ID:20150308230750     3
 OLDACT:REG 15-03-09 04:45 OP:mh   STATUS:               ID:20150308230750     3
 2015-03-08-2307-50M.COL___281                                                 6
 STAT SP IPHASW D HRMM SECON CODA AMPLIT PERI AZIMU VELO AIN AR TRES W  DIS CAZ7
 BRR  HZ EP       2315  0.82                             153    0.6110 69.4 301 
 BRR  HN ES     C 2315 16.33                             153   -0.1810 69.4 301 
 BRR  HZ I        2315 22.23        10.0 0.93            154           69.4 301 
 PAM  SZ EP       2315  2.06                             149    0.4510 81.2  40 
 PAM  SN ES       2315 18.61                             149   -0.3910 81.2  40 
 PAM  SZ I        2315 21.23         7.7 0.48            154           81.2  40 
 RUS  HZ EP       2315  2.23                             144   -0.5610 98.7 174 
 RUS  HN ES       2315 21.50                             144    0.4010 98.7 174 
 RUS  HZ I        2315 22.78         2.8 0.40            147           98.7 174 
 PTB  HZ EP       2315  5.78                             132   -0.06 9  144 259 
 PTB  HN ES       2315 26.41                             132   -0.11 9  144 259 
 PTB  HZ I        2315 29.78         4.4 0.32            134            144 259 
 CHI  HZ EP       2315 16.22                             117   -0.40 8  246 195 
 CHI  HN ES   1   2315 45.91                             117    0.20 6  246 195 
 CHI  HZ I        2315 50.30         1.8 0.16            120            246 195 
                                                                                
