 2017  3 8 2349 16.4 L   6.752 -73.129141.7  RSN  6 0.2 1.6LRSN                1
 GAP=141        0.56       2.5     2.7  4.0 -0.2195E+00  0.3253E+01  0.1312E+01E
 Epicentro: LOS SANTOS - SANTANDER                                             3
 ACTION:UPD 17-05-25 18:38 OP:jn   STATUS:               ID:20170308234916 L   I
 OLDACT:REG 17-03-09 03:25 OP:lv   STATUS:               ID:20170308234743     3
 2017-03-08-2348-00M.COL___397                                                 6
 STAT SP IPHASW D HRMM SECON CODA AMPLIT PERI AZIMU VELO AIN AR TRES W  DIS CAZ7
 BAR2 EZ EP       2349 35.48                             172   -0.0310 18.6 199 
 BAR2 EZ ES       2349 49.92                             172   -0.4510 18.6 199 
 BAR2 EZ I        2349 51.52        11.5 0.21            170           18.6 199 
 BRR  HZ EP       2349 37.26                             150   -0.1610 75.5 301 
 BRR  HE ES       2349 53.92                             150    0.1510 75.5 301 
 BRR  HZ I        2349 58.55         6.8 0.10            150           75.5 301 
 PAM  EZ EP       2349 38.29                             149   -0.1310 80.4  36 
 PAM  EN ES       2349 55.81                             149    0.2510 80.4  36 
 RUS  HZ EP       2349 39.42                             144    0.0010 95.2 177 
 RUS  HN ES       2349 57.61                             144    0.2810 95.2 177 
 RUS  HZ I        2349 59.32         4.2 0.23            146           95.2 177 
 ZAR  HN ES       2350 14.52                             121    0.08 8  208 293 
 NOR  HZ EP       2349 51.85                             118    0.06 8  233 236 
 NOR  HN ES       2350 19.33                             118   -0.02 8  233 236 
 NOR  HZ I        2350 24.60         4.9 0.05            119            233 236 
                                                                                
