 2013  8 8 2347 29.6 L   6.735 -73.209154.8  RSN  4 0.1 1.5LRSN                1
 GAP=225        0.39       3.4     3.4  4.2  0.8145E+01 -0.9855E-01 -0.4263E+00E
 Epicentro: VILLANUEVA - SANTANDER                                             3
 ACTION:UPD 14-01-14 09:00 OP:ep   STATUS:               ID:20130808234729 L   I
 OLDACT:UP  13-08-09 00:08 OP:cam  STATUS:               ID:20130808233959     3
 OLDACT:UP  13-08-09 00:08 OP:cam  STATUS:               ID:20130808233959     3
 OLDACT:REG 13-08-08 22:44 OP:cam  STATUS:               ID:20130808233959     3
 2013-08-08-2339-59M.COL___268                                                 6
 STAT SP IPHASW D HRMM SECON CODA AMPLIT PERI AZIMU VELO AIN AR TRES W  DIS CAZ7
 BRR  HZ EP   1   2347 51.59                             155   -0.03 7 69.2 307 
 BRR  HN ES       2348  8.90                             155    0.1010 69.2 307 
 RUS  HZ EP       2347 53.92                             147    0.1010 94.2 172 
 RUS  HE ES       2348 12.57                             147   -0.1410 94.2 172 
 RUS  HZ I        2348 14.85         4.1 0.34            142           94.2 172 
 PTB  HZ EP   1   2347 56.64                             136    0.03 7  140 261 
 PTB  HN ES       2348 17.80                             136    0.11 9  140 261 
 PTB  HZ I        2348 24.92         5.2 0.46            131            140 261 
 ZAR  HE ES       2348 27.59                             125   -0.20 9  201 295 
                                                                                
