 2017  9 8 2127 36.6 L   6.814 -73.140145.7  RSN 12 0.5 2.1LRSN                1
 GAP=112        1.08       3.5     3.8  5.7  0.3653E+00  0.5258E+01  0.5522E+01E
 Epicentro: LOS SANTOS - SANTANDER                                             3
 ACTION:UPD 17-10-05 19:10 OP:rebc STATUS:               ID:20170908212736 L   I
 OLDACT:DUP 17-09-09 06:14 OP:osc  STATUS:               ID:20170908211741d    3
 OLDACT:UP  17-09-09 06:09 OP:osc  STATUS:               ID:20170908211740d    3
 OLDACT:DUP 17-09-09 06:05 OP:osc  STATUS:               ID:20170908211740d    3
 OLDACT:UP  17-09-09 06:03 OP:osc  STATUS:               ID:20170908211739d    3
 OLDACT:DUP 17-09-09 05:51 OP:osc  STATUS:               ID:20170908211739d    3
 2017-09-08-2118-00M.COL___422                                                 6
 STAT SP IPHASW D HRMM SECON CODA AMPLIT PERI AZIMU VELO AIN AR TRES W  DIS CAZ7
 BAR2 EZ EP       2127 55.91                             170   -0.3410 25.0 191 
 BAR2 EZ ES       2128 10.89                             170   -0.6910 25.0 191 
 BAR2 EZ I        2128 11.98        37.1 0.34            168           25.0 191 
 BRR  HZ EP       2127 57.89                             153    0.1610 71.0 297 
 BRR  HE ES       2128 14.91                             153    0.7010 71.0 297 
 PAM  EZ EP       2127 58.85                             151    0.1410 75.8  40 
 PAM  EE ES       2128 16.02                             151    0.0610 75.8  40 
 PAM  EZ I        2128 18.09        32.4 0.54            155           75.8  40 
 RUS  HZ EP       2127 59.94                             143   -0.5110  102 176 
 RUS  HE ES       2128 18.91                             143   -0.1410  102 176 
 RUS  HZ I        2128 19.65         9.5 0.24            144            102 176 
 SPBC HZ EP       2128  5.01                             129   -0.23 9  165 219 
 SPBC HN ES       2128 27.54                             129   -0.04 9  165 219 
 SPBC HZ I        2128 31.68        22.1 0.24            128            165 219 
 YPLC HZ EP       2128  6.31                             126   -0.18 9  178 152 
 YPLC HE ES       2128 31.05                             126    1.25 9  178 152 
 YPLC HZ I        2128 31.21         9.6 0.34            128            178 152 
 ZAR  HZ EP       2128  9.23                             122    0.20 9  204 292 
 ZAR  HN ES       2128 33.96                             122   -0.38 9  204 292 
 ZAR  HZ I        2128 40.56        11.9 0.26            122            204 292 
 NOR  HZ EP       2128 12.13                             118   -0.34 8  236 234 
 NOR  HE ES       2128 40.64                             118    0.19 8  236 234 
 NOR  HZ I        2128 47.09         6.3 0.12            118            236 234 
 CHI  HZ EP       2128 14.05                             117   -0.42 8  250 195 
 CHI  HN ES       2128 43.63                             117   -0.38 8  250 195 
 CHI  HZ I        2128 46.88         8.9 0.50            117            250 195 
 HEL  HZ EP   9   2128 18.72                             115    1.81 0  273 256 
 HEL  HN ES       2128 50.14                             112   -0.03 8  273 256 
 HEL  HZ I        2128 55.06         5.1 0.66            114            273 256 
 GUY2CHZ EP       2128 21.07                             112    0.71 7  303 235 
 GUY2CHE ES       2128 55.01                             112    0.52 7  303 235 
 GUY2CHZ I        2129  2.15         5.6 0.32                           303 235 
 PRA  HZ EP       2128 30.31                             106    0.01 6  394 210 
 PRA  HE ES       2129 12.46                             106    0.26 6  394 210 
 PRA  HZ I        2129 17.11         7.1 0.31            107            394 210 
                                                                                
