 2017 11 8 2242 30.4 L   6.827 -73.162141.9  RSN  9 0.5 1.5LRSN                1
 GAP=133        1.21       4.6     4.9  7.0  0.5498E+00  0.1055E+02  0.7265E+01E
 Epicentro: LOS SANTOS - SANTANDER                                             3
 ACTION:UPD 17-12-12 19:53 OP:rebc STATUS:               ID:20171108224230 L   I
 OLDACT:REG 17-11-09 03:19 OP:dhb  STATUS:               ID:20171108223740     3
 2017-11-08-2238-00M.COL___455                                                 6
 STAT SP IPHASW D HRMM SECON CODA AMPLIT PERI AZIMU VELO AIN AR TRES W  DIS CAZ7
 BAR2 EZ EP       2242 49.87                             169    0.2610 26.1 185 
 BAR2 EZ ES       2243  3.83                             169   -0.7810 26.1 185 
 BAR2 EZ I        2243  6.18        11.5 0.20            170           26.1 185 
 BRR  HZ EP       2242 51.56                             153    0.6210 68.1 297 
 BRR  HN ES       2243  7.57                             153    0.5910 68.1 297 
 BRR  HZ I        2243 10.08        11.2 0.34            152           68.1 297 
 PAM  EZ IP     C 2242 52.61                             150    0.4910 76.3  42 
 PAM  EN ES       2243  8.60                             150   -0.4810 76.3  42 
 PAM  EZ I        2243 11.89         4.1 0.64            153           76.3  42 
 RUS  HZ EP       2242 53.70                             142   -0.2910  104 175 
 RUS  HN ES       2243 12.94                             142    0.5310  104 175 
 RUS  HZ I        2243 13.74         4.3 0.28            144            104 175 
 PTB  HZ EP       2242 56.27                             131   -0.66 9  147 258 
 PTB  HE ES       2243 17.82                             131    0.18 9  147 258 
 PTB  HZ I        2243 19.03         3.2 0.46            132            147 258 
 ZAR  HZ EP       2243  1.82                             122   -0.46 9  201 292 
 ZAR  HE ES       2243 26.79                             122   -0.38 9  201 292 
 ZAR  HZ I        2243 34.14         4.5 0.36            123            201 292 
 NOR  HZ EP       2243  6.16                             118    0.24 8  235 234 
 NOR  HN ES       2243 33.96                             118    0.32 8  235 234 
 NOR  HZ I        2243 38.48         2.9 0.48            119            235 234 
 CHI  HZ EP       2243  8.53                             116    0.39 8  251 195 
 CHI  HN ES       2243 37.00                             116   -0.59 8  251 195 
 CHI  HZ I        2243 39.64         1.7 0.60            118            251 195 
 GUY2CHZ EP       2243 13.54                             111   -0.30 7  301 234 
 GUY2CHE ES   4   2243 49.44                             111    1.70 0  301 234 
 GUY2CHZ I        2243 58.60         1.8 0.48                           301 234 
                                                                                
