 2010 11 8 2234 15.7 L   6.767 -73.110141.7  RSN 10 0.5 2.3LRSN                1
 GAP=139        1.25       5.1     7.7  9.0 -0.6633E+01  0.3087E+01  0.4888E+01E
 Epicentro: LOS SANTOS - SANTANDER                                             3
 ACTION:UP  10-12-17 16:51 OP:REBC STATUS:               ID:20101108223415 L   I
 2010-11-08-2232-14S.COL___129                                                 6
 STAT SP IPHASW D HRMM SECON CODA AMPLIT PERI AZIMU VELO SNR AR TRES W  DIS CAZ7
 BAR2 SZ IP       2234 34.68                             171    -0.110   21 203 
 BAR2 SZ ES   1   2234 48.97                             171    -0.7 7   21 203 
 BAR2 SZ I        2234 51.47        74.4 0.23                            21 203 
 BTL  SZ IP       2234 34.88                             170     0.010   24 314 
 GIR2 SZ EP       2234 34.76                             165    -0.310   36 345 
 BRR  HZ IP       2234 36.57                             150    -0.210   76 300 
 BRR  HN ES   1   2234 54.10                             150     1.0 7   76 300 
 BRR  HZ I        2234 56.50        41.3 0.21                            76 300 
 RUS  HZ IP     D 2234 38.57                             144    -0.210   97 178 
 RUS  HN ES   1   2234 57.42                             144     0.6 7   97 178 
 RUS  HZ I        2234 59.18        13.4 0.31                            97 178 
 GUE  SZ EP       2234 39.77                             138    -0.510  119  10 
 GRA  SZ IP       2234 41.50                             135     0.710  128  15 
 GRA  SZ I        2234 42.73        19.3 0.11                           128  15 
 GRA  SZ ES   1   2235  0.40                             135     0.0 7  128  15 
 YOP  SZ EP       2234 45.16                             126     0.2 9  174 154 
 YOP  SE ES   2   2235  8.13                             126     0.3 4  174 154 
 NOR  SZ EP       2234 50.92                             117    -0.4 8  236 236 
 NOR  SN ES   1   2235 18.69                             117    -0.5 6  236 236 
 RREF HZ EP       2235  2.70                             110     0.9 7  322 230 
 RREF HZ I        2235 47.32        15.6 0.45                           322 230 
                                                                                
