 2012 10 8 2040 49.6 L   6.784 -73.156147.6  RSN 14 0.5 2.6LRSN                1
 GAP= 71        0.96       4.2     4.3  6.5 -0.1085E+01  0.7149E+01  0.7544E+01E
 Epicentro: LOS SANTOS - SANTANDER                                             3
 ACTION:UPD 12-11-22 17:02 OP:ep   STATUS:               ID:20121008204049 L   I
 2012-10-08-2040-00M.COL___210                                                 6
 STAT SP IPHASW D HRMM SECON CODA AMPLIT PERI AZIMU VELO AIN AR TRES W  DIS CAZ7
 BAR2 SZ EP       2041  9.19                             171   -0.2310 21.4 188 
 BAR2 SZ I        2041  9.36        57.5 0.40                          21.4 188 
 BAR2 SZ ES   1   2041 24.47                             171   -0.41 7 21.4 188 
 GIR2 SZ EP       2041  9.27                             167   -0.2710 32.9 353 
 BRR  HZ EP   1   2041 10.95                             153    0.00 7 71.0 300 
 BRR  HZ I        2041 15.68        79.7 0.12                          71.0 300 
 BRR  HN ES   1   2041 28.35                             153    0.76 7 71.0 300 
 BRR  HN I        2041 32.54       170.7 0.16                          71.0 300 
 PAM  SZ EP   1   2041 11.89                             150   -0.26 7 79.5  39 
 PAM  SZ I        2041 12.21        72.1 0.20                          79.5  39 
 PAM  SN ES   1   2041 29.56                             150   -0.17 7 79.5  39 
 PAM  SN I        2041 30.69        84.8 0.42                          79.5  39 
 RUS  HZ EP   1   2041 13.14                             145   -0.28 7 98.9 175 
 RUS  HE ES   1   2041 31.98                             145   -0.02 7 98.9 175 
 RUS  HN I        2041 33.52        41.4 0.42                          98.9 175 
 GRA  SZ ES   1   2041 36.40                             137    1.26 7  128  18 
 TAM  HZ IP     D 2041 17.32                             131   -0.18 9  156 104 
 TAM  HZ I        2041 17.49        79.5 0.34                           156 104 
 ZAR  HZ EP   1   2041 21.67                             123   -0.46 6  204 293 
 ZAR  HN ES   1   2041 46.66                             123   -0.84 6  204 293 
 ZAR  HZ I        2041 54.64        36.2 0.40                           204 293 
 NOR  SZ EP   1   2041 25.43                             119    0.20 6  233 235 
 NOR  SN ES   1   2041 53.27                             119    0.25 6  233 235 
 CHI  HZ EP   1   2041 27.32                             118    0.13 6  247 195 
 CHI  HZ I        2041 29.95        14.3 0.20                           247 195 
 CHI  HN ES   1   2041 56.76                             118    0.25 6  247 195 
 CHI  HN I        2041 59.26        30.5 0.62                           247 195 
 RREF HZ EP   1   2041 36.64                             111    1.04 5  320 229 
 RREF HZ I        2042 20.14        27.2 0.24                           320 229 
 DBB  SZ EP   1   2041 36.89                             110   -0.15 5  338 275 
 DBB  SZ ES   1   2042 13.52                             110   -0.52 5  338 275 
 DBB  SZ I        2042 17.35        14.2 0.29                           338 275 
 ANIL HZ EP   1   2041 40.55                             109    1.31 5  355 225 
 PRA  HZ EP   1   2041 43.14                             107    0.19 4  390 210 
 PRA  HN I        2042 30.92        11.2 0.26                           390 210 
                                                                                
