 2014 12 8 2027  2.5 L   6.167 -73.776101.3  RSN 13 0.4 1.9LRSN                1
 GAP= 67        1.04       2.3     2.7  5.6 -0.2006E+01  0.3488E+01  0.1304E+00E
 Epicentro: LANDAZURI - SANTANDER                                              3
 ACTION:UPD 15-02-10 17:01 OP:nd   STATUS:               ID:20141208202702 L   I
 OLDACT:REG 14-12-09 09:52 OP:carl STATUS:               ID:20141208201745     3
 2014-12-08-2017-45M.COL___309                                                 6
 STAT SP IPHASW D HRMM SECON CODA AMPLIT PERI AZIMU VELO AIN AR TRES W  DIS CAZ7
 SPBC HZ EP       2027 18.83                             144    0.0510 65.7 210 
 SPBC HN ES       2027 31.50                             144    0.0110 65.7 210 
 SPBC HZ I        2027 33.26        33.3 0.26            143           65.7 210 
 BAR2 SZ EP       2027 20.58                             138    0.4510 80.8  54 
 BAR2 SZ ES       2027 34.54                             138    0.6410 80.8  54 
 BAR2 SZ I        2027 35.87        55.9 0.48            139           80.8  54 
 RUS  HZ EP       2027 20.46                             138   -0.1610 82.5 112 
 RUS  HE ES       2027 34.65                             138   -0.1210 82.5 112 
 RUS  HZ I        2027 37.28         6.2 0.20            137           82.5 112 
 PTB  HZ EP       2027 19.62                             136   -0.6210 85.8 299 
 PTB  HN ES       2027 33.39                             136   -0.7110 85.8 299 
 PTB  HZ I        2027 34.04        16.8 0.28            138           85.8 299 
 BRR  HN ES       2027 37.07                             130    0.1010  104   4 
 NOR  HZ EP       2027 24.78                             121   -0.52 9  138 241 
 NOR  HN ES       2027 43.01                             121   -0.10 9  138 241 
 NOR  HZ I        2027 46.78        24.1 0.16            122            138 241 
 CHI  HZ EP       2027 29.01                             116   -0.18 9  170 178 
 CHI  HN ES       2027 49.84                             116   -0.18 9  170 178 
 CHI  HZ I        2027 54.83         4.7 0.28            115            170 178 
 PAM  SZ EP       2027 30.09                             115    0.16 9  176  42 
 PAM  SN ES       2027 51.03                             115   -0.32 9  176  42 
 PAM  SZ I        2027 55.60         6.3 0.18            115            176  42 
 ZAR  HN ES       2027 53.58                             112    0.70 9  189 321 
 GUY2CHZ EP       2027 33.17                             111    0.04 9  205 239 
 GUY2CHE ES       2027 57.51                             111    0.47 9  205 239 
 GUY2CHZ I        2028  3.69         5.7 0.66                           205 239 
 RREF HZ EP       2027 35.61                             109    0.11 8  223 231 
 RREF HE ES       2028  1.28                             109    0.03 8  223 231 
 RREF HZ I        2028  7.47         6.8 0.62            109            223 231 
 TOL  SZ EP       2027 38.04                             106    0.44 8  245 224 
 TOL  SN ES       2028  5.62                             106    0.62 8  245 224 
 TOL  SZ I        2028 10.47        12.0 0.36            106            245 224 
 SML  HZ EP       2027 41.91                             102   -0.99 7  293 354 
 SML  HN ES       2028 14.81                             102    0.38 7  293 354 
                                                                                
