 2014 10 8 2334 31.1 L   6.818 -73.160141.7  RSN 10 0.4 1.9LRSN                1
 GAP=134        0.97       3.5     4.0  5.4  0.2854E+00  0.5630E+01  0.3924E+01E
 Epicentro: LOS SANTOS - SANTANDER                                             3
 ACTION:UPD 14-11-29 23:48 OP:nd   STATUS:               ID:20141008233431 L   I
 OLDACT:UP  14-10-09 07:38 OP:cam  STATUS:               ID:20141008233001d    3
 OLDACT:DUP 14-10-09 07:34 OP:cam  STATUS:               ID:20141008233001d    3
 2014-10-08-2330-00M.COL___252                                                 6
 STAT SP IPHASW D HRMM SECON CODA AMPLIT PERI AZIMU VELO AIN AR TRES W  DIS CAZ7
 BAR2 SZ EP       2334 50.00                             169   -0.2610 25.1 186 
 BAR2 SZ ES       2335  5.08                             169   -0.1310 25.1 186 
 BAR2 SZ I        2335 13.20        19.1 0.32            166           25.1 186 
 BRR  HZ EP       2334 52.01                             153    0.3610 68.8 298 
 BRR  HN ES       2335  8.29                             153    0.5910 68.8 298 
 BRR  HZ I        2335 11.13        12.6 0.30            153           68.8 298 
 PAM  SZ EP     D 2334 53.17                             150    0.3410 76.9  41 
 PAM  SN ES       2335  9.42                             150   -0.3810 76.9  41 
 PAM  SZ I        2335 11.69        11.2 0.18            159           76.9  41 
 RUS  HZ EP       2334 54.51                             142   -0.0810  103 175 
 RUS  HE ES       2335 13.13                             142    0.2110  103 175 
 RUS  HZ I        2335 15.18         6.9 0.30            145            103 175 
 PTB  HZ EP       2334 56.92                             131   -0.68 9  147 258 
 PTB  HN ES       2335 18.17                             131   -0.13 9  147 258 
 PTB  HZ I        2335 25.71        12.4 0.28            133            147 258 
 SPBC HZ EP       2334 59.36                             128    0.04 9  164 218 
 SPBC HN ES       2335 20.73                             128   -0.62 9  164 218 
 SPBC HZ I        2335 28.34        13.5 0.18            130            164 218 
 ZAR  HZ EP       2335  2.55                             122   -0.47 9  202 292 
 ZAR  HN ES       2335 28.14                             122    0.20 9  202 292 
 ZAR  HZ I        2335 32.97         9.4 0.10            125            202 292 
 CHI  HZ EP       2335  8.86                             116    0.14 8  250 195 
 CHI  HN ES       2335 38.56                             116    0.48 8  250 195 
 CHI  HZ I        2335 45.86         3.7 0.32            119            250 195 
 GUY2CHZ EP       2335 15.23                             111    0.75 7  301 234 
 PRA  HZ EP   1   2335 24.40                             106   -0.17 4  393 209 
                                                                                
