 2010  8 8 2003 51.2 L   6.791 -73.048143.6  RSN 19 0.4 3.1LRSN                1
 GAP=133        0.99       3.3     5.7  5.3 -0.9494E+01  0.9411E+00  0.3040E+01E
 Epicentro: LOS SANTOS - SANTANDER                                             3
 ACTION:UP  10-09-07 10:53 OP:vdl  STATUS:               ID:20100808200351 L   I
 2010-08-08-2001-27S.COL___125                                                 6
 STAT SP IPHASW D HRMM SECON CODA AMPLIT PERI AZIMU VELO SNR AR TRES W  DIS CAZ7
 BAR2 SZ IP       20 4 10.75                             169     0.110   27 214 
 BAR2 SZ ES   1   20 4 25.45                             169    -0.4 7   27 214 
 BAR2 SZ I        20 4 27.55       302.9 0.37                            27 214 
 BTL  SZ IP       20 4 10.88                             168     0.210   28 300 
 BTL  SZ ES   1   20 4 25.32                             168    -0.6 7   28 300 
 GIR2 SZ IP       20 4 10.83                             165     0.110   36 333 
 BRR  HZ IP     C 20 4 12.64                             149    -0.110   81 296 
 BRR  HZ I        20 4 12.93       523.3 0.16                            81 296 
 BRR  HN ES   1   20 4 30.02                             149     0.5 7   81 296 
 RUS  HZ IP     D 20 4 14.61                             144     0.010   99 182 
 RUS  HN ES   1   20 4 33.06                             144     0.1 7   99 182 
 RUS  HZ I        20 4 34.64       124.6 0.18                            99 182 
 BRI  SZ EP       20 4 15.31                             141     0.610  106  15 
 GUE  SZ EP       20 4 15.61                                     0.010  116   7 
 GRA  SZ IP       20 4 16.56                             137     0.510  124  13 
 GRA  SZ I        20 4 17.64       174.1 0.46                           124  13 
 GRA  SZ ES   1   20 4 34.69                             137    -0.8 7  124  13 
 OCA  SZ EP       20 4 19.03                                    -0.6 9  163 349 
 OCA  SZ ES   1   20 4 42.13                             128     0.4 7  163 349 
 OCA  SZ I        20 4 47.30       154.0 0.36                           163 349 
 CHI  HZ EP       20 4 28.68                             116    -0.3 8  251 198 
 CHI  HN ES   1   20 4 58.20                             116    -0.3 6  251 198 
 CHI  HZ I        20 5  5.83        37.4 0.25                           251 198 
 ROSC BZ EP       20 4 30.46                             116     0.7 8  258 213 
 ROSC BE ES   2   20 4 59.90                                     0.1 4  258 213 
 ROSC BZ I        20 5  8.48        79.4 0.46                           258 213 
 CVER SZ EP   1   20 4 31.93                             114     0.1 6  276 204 
 CVER SZ I        20 4 33.75        80.5 0.38                           276 204 
 HEL  HZ EP   1   20 4 31.91                             113    -0.5 6  282 257 
 HEL  HN ES   2   20 5  4.94                             113     0.3 4  282 257 
 HEL  HZ I        20 5  9.12        60.9 0.18                           282 257 
 GUY  SN ES   2   20 5 11.03                             111     0.7 4  310 236 
 GUY  SZ I        20 5 18.58       149.0 0.49                           310 236 
 RREF HZ EP   1   20 4 37.32                             110    -0.8 5  329 231 
 RREF HN ES   1   20 5 14.49                             110    -0.2 5  329 231 
 RREF HZ I        20 5 19.21        62.1 0.33                           329 231 
 DBB  SZ EP   1   20 4 39.42                             108    -0.4 5  350 274 
 SDV  BZ EP       20 4 40.10                                    -0.2 6  353  49 
 SDV  BZ I        20 5 19.89        16.1 0.40                           353  49 
 ANIL HZ EP       20 4 41.90                             108     0.2 6  364 226 
 ANIL HN ES   1   20 5 21.05                             108    -0.1 5  364 226 
 ANIL HZ I        20 5 26.59        98.7 0.11                           364 226 
 PRA  HZ EP   1   20 4 44.31                             106    -0.9 4  397 211 
 PRA  HE ES   1   20 5 27.94                             106     0.6 4  397 211 
 PRA  HZ I        20 5 32.50        53.5 0.34                           397 211 
                                                                                
