 2017  4 8 2019 56.5 L   6.848 -73.177153.7  RSN  5 0.3 1.2LRSN                1
 GAP=130        0.85       4.4     3.9  8.0 -0.2221E+01  0.1057E+02  0.3966E+01E
 Epicentro: ZAPATOCA - SANTANDER                                               3
 ACTION:UPD 17-05-30 21:09 OP:jn   STATUS:               ID:20170408201956 L   I
 OLDACT:DUP 17-04-09 05:07 OP:lv   STATUS:               ID:20170408201745d    3
 2017-04-08-2018-00M.COL___376                                                 6
 STAT SP IPHASW D HRMM SECON CODA AMPLIT PERI AZIMU VELO AIN AR TRES W  DIS CAZ7
 PAM  EZ EP       2020 19.75                             153    0.2510 75.8  44 
 PAM  EN ES       2020 37.23                             153   -0.1910 75.8  44 
 RUS  HZ EP       2020 21.20                             144   -0.2510  106 174 
 RUS  HN ES       2020 41.23                             144    0.3310  106 174 
 RUS  HZ I        2020 41.34         1.5 0.32            146            106 174 
 PTB  HZ EP       2020 23.95                             134    0.00 9  145 257 
 PTB  HN ES       2020 44.72                             134   -0.62 9  145 257 
 PTB  HZ I        2020 50.86         2.6 0.16            135            145 257 
 ZAR  HE ES       2020 54.76                             125    0.47 9  199 291 
 NOR  HZ EP       2020 32.50                             120   -0.26 8  235 233 
 NOR  HN ES       2021  1.34                             120    0.32 8  235 233 
                                                                                
