 2010 10 8 2225 20.8 L   6.801 -73.068142.7  RSN 10 0.4 2.2LRSN                1
 GAP=183        0.75       4.9     8.0  7.8 -0.2341E+02 -0.1406E+02  0.8846E+01E
 Epicentro: LOS SANTOS - SANTANDER                                             3
 ACTION:UP  11-02-18 11:08 OP:tino STATUS:               ID:20101008222520 L   I
 2010-10-08-2223-34S.COL___119                                                 6
 STAT SP IPHASW D HRMM SECON CODA AMPLIT PERI AZIMU VELO SNR AR TRES W  DIS CAZ7
 BTL  SZ EP       2225 40.57                             169     0.510   26 300 
 BAR2 SZ EP   1   2225 40.18                             169     0.1 7   26 209 
 BAR2 SZ ES   2   2225 55.08                             169    -0.1 5   26 209 
 BAR2 SZ I        2225 56.80        60.4 0.30                            26 209 
 BRR  HZ IP     C 2225 42.17                             149     0.110   79 295 
 BRR  HE ES   1   2225 58.72                             149     0.1 7   79 295 
 BRR  HZ I        2226  3.58        35.7 0.14                            79 295 
 GUE  SZ EP       2225 45.36                             139     0.310  115   8 
 GRA  SZ IP       2225 45.19                             137    -0.410  123  14 
 GRA  SZ I        2225 46.65        21.0 0.32                           123  14 
 GRA  SZ ES   1   2226  4.57                             137    -0.3 7  123  14 
 OCA  SZ EP   1   2225 48.85                             129    -0.1 7  161 350 
 OCA  SZ ES   2   2226 10.53                             129    -0.4 5  161 350 
 OCA  SZ I        2226 15.39        28.3 0.31                           161 350 
 NOR  SE ES   2   2226 24.75                             117    -0.7 4  242 236 
 CHI  HZ EP   3   2225 59.51                             116     0.9 2  251 197 
 CHI  HE ES   2   2226 27.69                             116    -0.4 4  251 197 
 CHI  HZ I        2226 34.84         6.0 0.38                           251 197 
 HEL  HZ EP   2   2226  2.60                             113     0.8 4  280 256 
 HEL  HZ I        2226 39.39         6.4 0.55                           280 256 
 PRA  HZ EP   2   2226 14.09                             106    -0.6 3  396 211 
 PRA  HN ES   2   2226 55.89                             106    -0.9 3  396 211 
                                                                                
