 2010  3 8 2147 20.9 L   6.793 -73.005136.2  RSN  7 0.5 1.9LRSN                1
 GAP=197        0.99       5.2    11.9  8.5  0.1404E+02 -0.6915E+01  0.2030E+01E
 Epicentro: CEPITA - SANTANDER                                                 3
 ACTION:UP  10-08-24 09:52 OP:vdl  STATUS:               ID:20100308214720 L   I
 2010-03-08-2145-25S.COL___101                                                 6
 STAT SP IPHASW D HRMM SECON CODA AMPLIT PERI AZIMU VELO SNR AR TRES W  DIS CAZ7
 BAR2 SZ EP       2147 39.89                             167     0.310   30 222 
 BAR2 SZ ES   1   2147 53.21                             167    -0.9 7   30 222 
 BRR  HZ EP       2147 41.74                             146    -0.210   86 294 
 BRR  HZ I        2147 47.39        12.6 0.13                            86 294 
 BRR  HE ES   1   2147 58.52                             146     0.1 7   86 294 
 RUS  BZ EP       2147 43.78                             142     0.110  100 185 
 RUS  BN ES   1   2148  1.95                             142     0.5 7  100 185 
 RUS  BZ I        2148  3.31         6.0 0.20                           100 185 
 OCA  SZ EP   1   2147 48.59                             127    -0.2 7  164 348 
 OCA  SZ ES   2   2148 11.59                             127     1.0 5  164 348 
 OCA  SZ I        2148 13.71        20.9 0.22                           164 348 
 CHI  HZ EP   1   2147 58.24                             115    -0.3 6  252 199 
 CHI  HN ES   2   2148 28.00                             115     0.1 4  252 199 
 CHI  HZ I        2148 34.01         3.1 0.21                           252 199 
 RREF BN ES   2   2148 45.52                             108     0.8 3  333 231 
 RREF BZ I        2148 49.80         3.3 0.80                           333 231 
 PRA  HZ EP   1   2148 14.25                             104    -0.7 4  399 212 
 PRA  HE ES   3   2148 57.31                             104     0.2 1  399 212 
 PRA  HZ I        2149  2.59         4.6 0.29                           399 212 
                                                                                
