 2015  1 8 2022 49.9 L   7.291 -73.117  8.4  RSN  5 0.5 1.5LRSN                1
 GAP=116        1.22       4.0     3.1  7.7 -0.4321E+01  0.1294E+02 -0.1425E+02E
 Epicentro: RIONEGRO - SANTANDER                                               3
 ACTION:UPD 15-03-02 15:38 OP:nd   STATUS:               ID:20150108202249 L   I
 OLDACT:DUP 15-01-09 03:45 OP:stll STATUS:               ID:20150108201746d    3
 OLDACT:REG 15-01-09 03:25 OP:stll STATUS:               ID:20150108201744     3
 2015-01-08-2017-44M.COL___267                                                 6
 STAT SP IPHASW D HRMM SECON CODA AMPLIT PERI AZIMU VELO AIN AR TRES W  DIS CAZ7
 PAM  SZ IP     D 2022 58.17                              96    0.0910 46.5  83 
 PAM  SE ES       2023  4.08                              96   -0.3710 46.5  83 
 PAM  SZ I        2023  5.91        14.5 0.16             47           46.5  83 
 BRR  HZ EP       2023  0.57                              94   -0.3610 68.7 253 
 BRR  HN ES       2023  9.46                              94   -0.0810 68.7 253 
 RUS  HZ EP       2023 15.08                              92    0.63 9  155 179 
 RUS  HN ES       2023 33.31                              92   -0.29 9  155 179 
 RUS  HZ I        2023 34.94         4.7 0.36             47            155 179 
 PTB  HZ EP       2023 16.49                              56    0.47 9  170 241 
 PTB  HN ES       2023 36.07                              56   -0.31 9  170 241 
 PTB  HZ I        2023 37.67         9.5 0.32             47            170 241 
 SML  HZ EP       2023 20.50                              56    1.06 9  197 328 
 SML  HN ES       2023 41.84                              56   -0.64 9  197 328 
 SML  HZ I        2023 47.77         8.9 0.10             37            197 328 
                                                                                
