 2016  5 8 2100 10.5 L   6.814 -73.171137.9  RSN  6 0.4 1.8LRSN                1
 GAP=133        1.08       4.4     4.9  8.0  0.2689E+00  0.1457E+02 -0.1079E+02E
 Epicentro: LOS SANTOS - SANTANDER                                             3
 ACTION:UPD 16-08-18 17:43 OP:cam  STATUS:               ID:20160508210010 L   I
 OLDACT:REG 16-05-09 03:43 OP:ar   STATUS:               ID:20160508205748     3
 2016-05-08-2057-48M.COL___292                                                 6
 STAT SP IPHASW D HRMM SECON CODA AMPLIT PERI AZIMU VELO AIN AR TRES W  DIS CAZ7
 BAR2 EZ EP       21 0 28.77                             169   -0.4810 24.6 183 
 BAR2 EZ ES       21 0 43.38                             169   -0.4710 24.6 183 
 BAR2 EZ I        21 0 45.79        15.2 0.34            173           24.6 183 
 PAM  EZ EP       21 0 32.27                             149    0.3110 78.0  42 
 PAM  EN ES       21 0 49.07                             149    0.4010 78.0  42 
 PAM  EZ I        21 0 51.23        11.9 0.54            151           78.0  42 
 RUS  HZ EP       21 0 33.38                             142   -0.2810  102 175 
 RUS  HN ES       21 0 52.14                             142    0.4410  102 175 
 RUS  HZ I        21 0 52.86         4.0 0.22            147            102 175 
 PTB  HZ EP       21 0 36.42                             131   -0.23 9  145 258 
 PTB  HN ES       21 0 56.97                             131   -0.05 9  145 258 
 PTB  HZ I        21 0 59.34         5.8 0.14            132            145 258 
 ZAR  HZ EP       21 0 42.93                             121    0.78 9  201 292 
 ZAR  HN ES       21 1  7.26                             121    0.45 9  201 292 
 ZAR  HZ I        21 1 13.94         8.7 0.34            122            201 292 
 SML  HZ EP       21 0 46.23                             116   -0.22 8  241 336 
 SML  HN ES       21 1 13.80                             116   -0.66 8  241 336 
 SML  HZ I        21 1 21.88         6.5 0.10            117            241 336 
                                                                                
