 2012  1 8 2219 20.8 L   6.786 -73.149152.0  RSN  9 0.2 1.8LRSN                1
 GAP=137        0.61       3.0     3.2  4.3 -0.2965E+00  0.2624E+01  0.2865E+01E
 Epicentro: LOS SANTOS - SANTANDER                                             3
 ACTION:UP  12-02-03 08:15 OP:REBC STATUS:               ID:20120108221920 L   I
 2012-01-08-2214-50S.COL___156                                                 6
 STAT SP IPHASW D HRMM SECON CODA AMPLIT PERI AZIMU VELO SNR AR TRES W  DIS CAZ7
 BAR2 SZ EP       2219 41.05                             171    -0.110   22 190 
 BAR2 SZ ES       2219 57.24                             171     0.210   22 190 
 BAR2 SZ I        2219 59.01        10.7 0.24                            22 190 
 GIR2 SZ EP       2219 41.26                             167     0.010   33 351 
 BRR  HZ EP       2219 42.96                             153     0.310   72 300 
 BRR  HN ES       2219 59.91                             153     0.210   72 300 
 BRR  HN I        2220  1.34        33.4 0.16                            72 300 
 PAM  SZ EP   1   2219 43.74                             152     0.0 7   79  39 
 PAM  SE ES   1   2220  1.14                             152    -0.5 7   79  39 
 RUS  HZ EP   1   2219 44.97                             145    -0.1 7   99 176 
 RUS  HE ES   1   2220  3.76                             145    -0.2 7   99 176 
 RUS  HZ I        2220  4.94         3.5 0.26                            99 176 
 PTB  HZ EP       2219 48.04                             134    -0.2 9  147 259 
 PTB  HN ES   1   2220  9.12                             134    -0.5 7  147 259 
 ZAR  HE ES   1   2220 19.19                             124    -0.1 6  204 293 
 ZAR  HZ I        2220 25.76         9.0 0.19                           204 293 
 NOR  SZ EP   1   2219 56.75                             120     0.0 6  234 235 
 NOR  SE ES   1   2220 24.71                             120    -0.1 6  234 235 
 CHI  HZ EP   1   2219 58.74                             119     0.1 6  247 195 
 CHI  HN ES   1   2220 28.46                             119     0.3 6  247 195 
 CHI  HZ I        2220 36.94         2.1 0.32                           247 195 
                                                                                
