 2012  1 8 2242 43.3 L   6.744 -73.183152.6  RSN  4 0.3 1.5LRSN                1
 GAP=175        0.75       6.7     7.1  9.9  0.1527E+02 -0.1334E+02 -0.1275E+02E
 Epicentro: VILLANUEVA - SANTANDER                                             3
 ACTION:UP  12-02-03 08:15 OP:REBC STATUS:               ID:20120108224243 L   I
 2012-01-08-2240-00M.COL___186                                                 6
 STAT SP IPHASW D HRMM SECON CODA AMPLIT PERI AZIMU VELO SNR AR TRES W  DIS CAZ7
 GIR2 SZ EP       2243  3.59                             166    -0.410   37 358 
 BRR  HZ EP       2243  5.30                             154     0.110   71 304 
 BRR  HN ES   1   2243 22.59                             154     0.3 7   71 304 
 BRR  HN I        2243 26.18        16.5 0.18                            71 304 
 RUS  HZ EP   1   2243  7.88                             147     0.5 7   95 173 
 RUS  HE ES   1   2243 25.92                             147    -0.2 7   95 173 
 RUS  HZ I        2243 27.07         1.5 0.36                            95 173 
 PTB  HZ EP   1   2243 10.42                             134     0.0 7  143 261 
 PTB  HN ES   1   2243 31.32                             134    -0.2 7  143 261 
                                                                                
