 2016 12 8 2239 41.9 L   6.697 -73.523111.0  RSN  6 0.5 1.4LRSN                1
 GAP= 99        1.23       5.0     4.7 10.7  0.1562E+01  0.1691E+02  0.1796E+02E
 Epicentro: EL CARMEN - SANTANDER                                              3
 ACTION:UPD 17-01-11 20:13 OP:rebc STATUS:               ID:20161208223941 L   I
 OLDACT:REG 16-12-09 03:38 OP:cog  STATUS:               ID:20161208223744     3
 2016-12-08-2238-00M.COL___375                                                 6
 STAT SP IPHASW D HRMM SECON CODA AMPLIT PERI AZIMU VELO AIN AR TRES W  DIS CAZ7
 BRR  HZ EP       2239 58.17                             154    0.0310 50.0 335 
 BRR  HE ES       2240 10.90                             154    0.1310 50.0 335 
 BRR  HZ I        2240 13.49         6.8 0.39            156           50.0 335 
 RUS  HZ EP       2240  2.99                             135    0.4610  101 151 
 RUS  HN ES       2240 18.70                             135    0.1110  101 151 
 RUS  HZ I        2240 20.03         8.8 0.22            137            101 151 
 PTB  HZ EP       2240  1.35                             133   -0.8310  105 260 
 PTB  HN ES   4   2240 15.94                             133   -2.02 0  105 260 
 PTB  HZ I        2240 17.24         5.4 0.16            136            105 260 
 PAM  EZ EP       2240  3.57                             131   -0.2210  115  52 
 PAM  EE ES       2240 20.57                             131   -0.2610  115  52 
 PAM  EZ I        2240 22.15         3.1 0.11            133            115  52 
 ZAR  HE ES       2240 30.36                             118    0.53 9  172 301 
 GUY2CHZ EP       2240 20.44                             108    0.95 8  261 231 
 GUY2CHE ES       2240 48.02                             108   -0.75 8  261 231 
 GUY2CHZ I        2241 10.97         1.3 0.42                           261 231 
                                                                                
