 2012 12 8 2325  8.2 L   6.805 -73.177139.8  RSN  9 0.2 2.1LRSN                1
 GAP=132        0.42       1.6     1.8  2.8 -0.1814E-01  0.1870E+01  0.7018E+00E
 Epicentro: LOS SANTOS - SANTANDER                                             3
 ACTION:UPD 13-01-04 14:26 OP:ep   STATUS:               ID:20121208232508 L   I
 2012-12-08-2320-00M.COL___243                                                 6
 STAT SP IPHASW D HRMM SECON CODA AMPLIT PERI AZIMU VELO AIN AR TRES W  DIS CAZ7
 BAR2 SZ EP       2325 27.10                             170   -0.0110 23.5 181 
 BAR2 SZ ES       2325 41.92                             170    0.0510 23.5 181 
 BAR2 SZ I        2325 43.39        42.4 0.27                          23.5 181 
 GIR2 SZ EP       2325 27.12                             167   -0.0110 30.3 357 
 PAM  SZ EP       2325 30.02                             149    0.1310 79.2  42 
 PAM  SE ES       2325 46.72                             149   -0.1010 79.2  42 
 PAM  SZ I        2325 47.75        13.6 0.22                          79.2  42 
 RUS  HZ EP       2325 31.21                             142   -0.2210  101 174 
 RUS  HN ES       2325 49.67                             142    0.1210  101 174 
 RUS  HN I        2325 51.40        15.1 0.41                           101 174 
 PTB  HZ EP       2325 34.22                             131   -0.15 9  144 258 
 PTB  HN ES       2325 54.74                             131   -0.06 9  144 258 
 PTB  HZ I        2325 57.86        13.0 0.27                           144 258 
 ZAR  HZ EP   1   2325 40.22                             121    0.32 6  201 292 
 ZAR  HE ES       2326  4.58                             121   -0.05 9  201 292 
 ZAR  HZ I        2326 10.21        11.1 0.49                           201 292 
 CHI  HZ EP       2325 45.49                             116   -0.04 8  248 194 
 CHI  HN ES       2326 14.81                             116    0.16 8  248 194 
 CHI  HZ I        2326 18.23         9.8 0.36                           248 194 
 HEL  HZ EP   1   2325 48.26                             114    0.51 6  269 256 
 PRA  HZ EP   1   2326  1.13                             106   -0.24 4  391 209 
 PRA  HE ES   1   2326 42.44                             106   -0.40 4  391 209 
 PRA  HZ I        2326 47.84         8.0 0.63                           391 209 
                                                                                
