 2011  2 8 2225 13.9 L   6.802 -73.157137.9  RSN  9 0.2 2.0LRSN                1
 GAP=135        0.42       2.7     3.7  4.1 -0.3217E+01  0.3943E+01  0.4330E+00E
 Epicentro: LOS SANTOS - SANTANDER                                             3
 ACTION:UP  11-03-28 15:07 OP:jfem STATUS:               ID:20110208222513 L   I
 2011-02-08-2221-39S.COL___136                                                 6
 STAT SP IPHASW D HRMM SECON CODA AMPLIT PERI AZIMU VELO SNR AR TRES W  DIS CAZ7
 BAR2 SZ EP   1   2225 32.74                             170     0.1 7   23 187 
 BAR2 SZ ES   1   2225 47.16                             170     0.0 7   23 187 
 BAR2 SZ I        2225 51.10        30.7 0.53                            23 187 
 GIR2 SZ EP   2   2225 32.93                             167     0.3 5   31 353 
 RUS  HZ EP   1   2225 36.83                             142    -0.1 7  101 175 
 RUS  HN ES   2   2225 55.19                             142     0.3 5  101 175 
 RUS  HZ I        2225 56.97        16.3 0.54                           101 175 
 GRA  SZ EP   1   2225 38.66                             135     0.2 7  126  18 
 GRA  SZ ES   2   2225 57.17                             135    -0.5 5  126  18 
 GRA  SZ I        2225 59.38        10.0 0.24                           126  18 
 YOP  SZ EP   1   2225 43.42                             124    -0.1 7  180 153 
 YOP  SZ I        2226  8.06         9.6 0.46                           180 153 
 NOR  SZ EP   1   2225 49.10                             117     0.0 6  234 234 
 NOR  SN ES   2   2226 16.72                             117     0.1 4  234 234 
 CHI  HZ EP   2   2225 50.94                             115    -0.3 4  248 195 
 CHI  HN ES   2   2226 19.94                             115    -0.3 4  248 195 
 CHI  HZ I        2226 28.29         5.0 0.50                           248 195 
 HEL  HZ EP   2   2225 53.98                             113     0.4 4  271 256 
 HEL  HE ES   2   2226 24.22                             113    -0.4 4  271 256 
 HEL  HZ I        2226 31.10         7.3 0.49                           271 256 
 RREF HZ EP   2   2225 59.73                             109     0.1 3  321 229 
 RREF HZ I        2226 45.93         8.8 0.20                           321 229 
                                                                                
