 2017  8 8 2051  4.7 L   6.713 -73.198144.8  RSN  4 0.2 1.6LRSN                1
 GAP=225        0.63       5.0     5.0  5.2  0.1362E+02  0.5779E+01  0.2929E+01E
 Epicentro: VILLANUEVA - SANTANDER                                             3
 ACTION:UPD 17-09-04 20:18 OP:rebc STATUS:               ID:20170808205104 L   I
 OLDACT:UP  17-08-09 04:42 OP:edw  STATUS:               ID:20170808204744d    3
 OLDACT:DUP 17-08-09 04:39 OP:edw  STATUS:               ID:20170808204744d    3
 OLDACT:UP  17-08-09 04:38 OP:edw  STATUS:               ID:20170808204743     3
 OLDACT:REG 17-08-09 02:27 OP:edw  STATUS:               ID:20170808204743     3
 2017-08-08-2048-00M.COL___402                                                 6
 STAT SP IPHASW D HRMM SECON CODA AMPLIT PERI AZIMU VELO AIN AR TRES W  DIS CAZ7
 BAR2 EZ ES       2051 39.01                             174   -0.1210 13.5 173 
 BRR  HZ EP       2051 25.51                             152   -0.2410 71.6 307 
 BRR  HN ES       2051 42.40                             152    0.2210 71.6 307 
 RUS  HZ EP       2051 28.11                             146    0.4010 91.6 172 
 RUS  HN ES       2051 45.51                             146   -0.1510 91.6 172 
 PTB  HZ EP       2051 30.71                             133   -0.21 9  141 262 
 PTB  HN ES       2051 51.45                             133    0.07 9  141 262 
 PTB  HZ I        2051 55.16         4.9 0.54            131            141 262 
                                                                                
