 2010  8 8 2250  7.8 L   6.271 -73.771100.3  RSN  6 0.2 1.7LRSN                1
 GAP=185        0.55       3.2     6.9  6.7  0.9134E+01  0.2193E+02  0.2312E+01E
 Epicentro: LANDAZURI - SANTANDER                                              3
 ACTION:UP  10-09-07 10:53 OP:vdl  STATUS:               ID:20100808225007 L   I
 2010-08-08-2247-20S.COL___125                                                 6
 STAT SP IPHASW D HRMM SECON CODA AMPLIT PERI AZIMU VELO SNR AR TRES W  DIS CAZ7
 BAR2 SZ EP   1   2250 24.79                             144    -0.1 7   74  61 
 BAR2 SZ ES   1   2250 37.82                                    -0.3 7   74  61 
 BAR2 SZ I        2250 38.97        51.0 0.23                            74  61 
 RUS  HZ EP   1   2250 26.09                             139    -0.2 7   87 119 
 RUS  HZ I        2250 26.80         4.8 0.04                            87 119 
 RUS  HE ES   1   2250 40.99                             139     0.4 7   87 119 
 BRR  HZ IP     D 2250 26.07                             135     0.010   93   4 
 BRR  HZ I        2250 27.49        17.6 0.41                            93   4 
 BRR  HE ES   1   2250 40.48                             135     0.2 7   93   4 
 GIR2 SZ EP   1   2250 27.66                             131    -0.2 7  110  36 
 CHI  HN ES   2   2250 57.45                             114    -0.1 4  182 179 
 CHI  HZ I        2251  5.23         2.8 0.52                           182 179 
 GUE  SZ IP       2250 37.49                             113     0.2 9  196  28 
                                                                                
