 2016 12 8 2114 52.8 L   6.758 -73.158149.6  RSN  5 0.2 1.2LRSN                1
 GAP=137        0.51       2.7     2.4  4.5  0.4298E+00  0.1678E+01  0.1019E+01E
 Epicentro: LOS SANTOS - SANTANDER                                             3
 ACTION:UPD 17-01-11 20:13 OP:rebc STATUS:               ID:20161208211452 L   I
 OLDACT:DUP 16-12-09 05:20 OP:cog  STATUS:               ID:20161208210750d    3
 2016-12-08-2108-00M.COL___376                                                 6
 STAT SP IPHASW D HRMM SECON CODA AMPLIT PERI AZIMU VELO AIN AR TRES W  DIS CAZ7
 BRR  HZ EP       2115 14.78                             153    0.3510 72.4 302 
 BRR  HZ I        2115 24.44         5.3 0.38            148           72.4 302 
 BRR  HN ES       2115 31.37                             153    0.0610 72.4 302 
 PAM  EZ EP       2115 15.78                             150    0.0910 81.8  38 
 PAM  EN ES       2115 33.35                             150   -0.1910 81.8  38 
 PAM  EZ I        2115 33.72         1.7 0.21            146           81.8  38 
 RUS  HZ EP       2115 16.38                             146   -0.2310 96.1 175 
 RUS  HE ES       2115 35.34                             146    0.1510 96.1 175 
 PTB  HZ EP       2115 19.80                             133   -0.09 9  146 261 
 PTB  HN ES       2115 40.91                             133   -0.12 9  146 261 
 PTB  HZ I        2115 42.76         1.3 0.14            129            146 261 
 ZAR  HN ES       2115 51.05                             123   -0.06 9  205 293 
                                                                                
