 2015  9 8 2320 11.6 L   6.788 -73.932 23.6  RSN  8 0.4 1.9LRSN                1
 GAP=108        1.06       2.5     1.9  2.9 -0.4124E+00  0.7750E+00 -0.2749E+00E
 Epicentro: PUERTO PARRA - SANTANDER                                           3
 ACTION:UPD 15-10-28 16:25 OP:cam  STATUS:               ID:20150908232011 L   I
 OLDACT:REG 15-09-09 03:44 OP:ak   STATUS:               ID:20150908231751     3
 2015-09-08-2317-51M.COL___350                                                 6
 STAT SP IPHASW D HRMM SECON CODA AMPLIT PERI AZIMU VELO AIN AR TRES W  DIS CAZ7
 BRR  HZ IP     C 2320 19.41                             116    0.0710 42.8  35 
 BRR  HE ES       2320 25.67                             116    0.2610 42.8  35 
 BRR  HZ I        2320 26.47        55.9 0.10            116           42.8  35 
 PTB  HZ EP       2320 22.41                             108    0.0510 64.2 245 
 PTB  HN ES       2320 30.99                             108    0.2010 64.2 245 
 PTB  HZ I        2320 31.43        89.9 0.30            108           64.2 245 
 BAR2 EZ EP       2320 25.51                             104   -0.2110 85.6 105 
 BAR2 EZ ES       2320 35.87                             104   -0.9110 85.6 105 
 BAR2 EZ I        2320 37.85        19.5 0.15            103           85.6 105 
 ZAR  HZ EP       2320 31.38                              56    0.1710  129 307 
 ZAR  HE ES       2320 45.98                              56   -0.5710  129 307 
 ZAR  HZ I        2320 47.06        15.0 0.20             56            129 307 
 RUS  HZ EP       2320 33.27                              56    0.49 9  136 136 
 RUS  HE ES       2320 49.73                              56    0.39 9  136 136 
 RUS  HZ I        2320 50.74        32.7 0.23             56            136 136 
 PAM  EZ EP       2320 34.80                              56    0.43 9  149  66 
 PAM  EN ES       2320 52.02                              56   -0.14 9  149  66 
 PAM  EZ I        2320 54.06        18.3 0.29             56            149  66 
 HEL  HZ EP       2320 39.62                              56    0.47 9  189 250 
 HEL  HN ES       2320 59.97                              56   -0.71 9  189 250 
 HEL  HZ I        2321  0.79         6.7 0.18             56            189 250 
 SML  HZ EP   1   2320 42.86                              56   -0.16 6  223 356 
 SML  HN ES       2321  7.73                              56    0.16 8  223 356 
                                                                                
