 2012  2 8 2304 23.2 L   6.779 -73.139144.9  RSN 15 0.3 2.9LRSN                1
 GAP=138        0.61       2.0     2.7  3.3 -0.1062E+01  0.2795E+01  0.1566E+01E
 ACTION:UP  12-03-07 16:28 OP:epov STATUS:               ID:20120208230423 L   I
 2012-02-08-2300-00M.COL___188                                                 6
 STAT SP IPHASW D HRMM SECON CODA AMPLIT PERI AZIMU VELO AIN AR TRES W  DIS CAZ7
 BAR2 SZ IP       23 4 42.84                             171    0.2110 21.2 193 
 BAR2 SZ ES       23 4 57.62                             171   -0.2110 21.2 193 
 BAR2 SZ I        23 4 59.60       231.7 0.18                          21.2 193 
 GIR2 SZ EP       23 4 42.94                             166    0.1510 33.7 350 
 GIR2 SZ ES   1   23 4 57.92                             166   -0.18 7 33.7 350 
 BRR  HZ IP     C 23 4 44.66                             152    0.3510 73.0 300 
 BRR  HN ES   1   23 5  1.54                             152    0.73 7 73.0 300 
 BRR  HZ I        23 5  5.89       131.8 0.25                          73.0 300 
 PAM  SZ EP       23 4 45.62                             150    0.2710 78.7  38 
 PAM  SE ES       23 5  2.34                             150   -0.3310 78.7  38 
 RUS  HZ EP       23 4 46.71                             144    0.0710 98.2 176 
 RUS  HN ES   1   23 5  4.94                             144   -0.03 7 98.2 176 
 RUS  HZ I        23 5  7.25       100.4 0.42                          98.2 176 
 PTB  HZ EP       23 4 49.83                             132   -0.24 9  148 260 
 PTB  HE ES   1   23 5 10.58                             132   -0.50 7  148 260 
 OCA  SZ EP       23 4 51.21                             129   -0.41 9  163 353 
 OCA  SZ ES   1   23 5 14.10                             129    0.27 7  163 353 
 ZAR  HZ EP   1   23 4 55.21                             122   -0.49 6  206 293 
 ZAR  HE ES   1   23 5 20.84                             122   -0.25 6  206 293 
 ZAR  HZ I        23 5 27.62        50.2 0.28                           206 293 
 NOR  SZ EP   1   23 4 58.86                             118    0.11 6  234 235 
 NOR  SE ES   1   23 5 26.53                             118    0.01 6  234 235 
 CHI  HZ EP   1   23 5  0.86                             117    0.28 6  247 195 
 CHI  HN ES   1   23 5 29.82                             117    0.05 6  247 195 
 CHI  HZ I        23 5 33.85        51.0 0.65                           247 195 
 HEL  HZ EP   1   23 5  3.49                             114    0.15 6  272 256 
 HEL  HE ES   1   23 5 35.07                             114    0.39 6  272 256 
 HEL  HZ I        23 5 41.99        34.6 0.64                           272 256 
 VIL  SZ EP   2   23 5  6.25                             112   -0.04 4  301 192 
 VIL  SE ES   1   23 5 39.77                             112   -0.16 5  301 192 
 VIL  SZ I        23 5 50.48        34.8 0.52                           301 192 
 RREF HZ EP   1   23 5  9.25                             111    0.10 5  321 230 
 RREF HE ES   1   23 5 45.03                             111    0.01 5  321 230 
 RREF HZ I        23 5 54.85        61.1 0.56                           321 230 
 TOL  SZ EP   1   23 5 11.36                             109    0.12 5  342 225 
 PRA  HZ EP       23 5 16.08                             106   -0.37 6  390 210 
 PRA  HE ES       23 5 57.86                             106   -0.16 6  390 210 
                                                                                
