 2010  7 8 2038 50.3 L   6.786 -73.127143.6  RSN  9 0.2 1.8LRSN                1
 GAP=158        0.46       2.3     5.5  4.7 -0.6501E+01  0.8716E+01 -0.1330E+01E
 Epicentro: LOS SANTOS - SANTANDER                                             3
 ACTION:UPD 10-12-01 15:16 OP:pat  STATUS:               ID:20100708203850 L   I
 2010-07-08-2036-58S.COL___117                                                 6
 STAT SP IPHASW D HRMM SECON CODA AMPLIT PERI AZIMU VELO AIN AR TRES W  DIS CAZ7
 BAR2 SZ IP       2039  9.77                             171     0.110   22 196 
 BAR2 SZ I        2039 10.05        13.3 0.24                            22 196 
 BAR2 SZ ES   2   2039 24.70                             171     0.0 5   22 196 
 BRR  HZ EP       2039 11.61                             151     0.310   74 299 
 BRR  HZ I        2039 31.37        16.6 0.11                            74 299 
 RUS  HZ EP       2039 13.54                             144    -0.210   99 177 
 RUS  HZ I        2039 15.26         5.7 0.44                            99 177 
 RUS  HN ES   1   2039 31.94                             144     0.0 7   99 177 
 BRI  SZ EP   1   2039 14.04                             141     0.0 7  109  20 
 BRI  SZ ES   2   2039 32.37                             141    -0.2 5  109  20 
 BRI  SZ I        2039 37.57        12.3 0.53                           109  20 
 GUE  SZ EP   1   2039 14.63                             139    -0.2 7  118  11 
 GUE  SZ ES   2   2039 33.81                             139    -0.3 5  118  11 
 GUE  SZ I        2039 36.20         4.4 0.13                           118  11 
 GRA  SZ EP       2039 15.50                             136     0.110  127  16 
 GRA  SZ ES   2   2039 34.62                             136    -0.4 5  127  16 
 GRA  SZ I        2039 36.28        14.1 0.39                           127  16 
 CHI  HZ EP   1   2039 27.93                             117     0.2 6  248 196 
 CHI  HE ES   3   2039 56.74                             117    -0.2 2  248 196 
 CHI  HZ I        2040  1.26         4.0 0.43                           248 196 
 GUY  HZ EP   2   2039 34.13                             112     0.2 4  302 235 
 GUY  HE ES   2   2040  7.47                             112    -0.4 4  302 235 
 PRA  HZ EP   2   2039 43.41                             106    -0.3 3  392 210 
 PRA  HE ES   2   2040 24.97                             106    -0.4 3  392 210 
 PRA  HZ I        2040 31.59         5.4 0.36                           392 210 
                                                                                
