 2012  7 8 2219 33.8 L   6.745 -73.140145.2  RSN  7 0.4 1.8LRSN                1
 GAP=140        0.91       5.2     6.8  8.2 -0.7274E+01  0.9311E+01  0.1013E+02E
 Epicentro: JORDAN - SANTANDER                                                 3
 ACTION:UPD 12-08-14 11:43 OP:ep   STATUS:               ID:20120708221933 L   I
 2012-07-08-2217-38M.COL___205                                                 6
 STAT SP IPHASW D HRMM SECON CODA AMPLIT PERI AZIMU VELO AIN AR TRES W  DIS CAZ7
 BAR2 SZ IP       2219 53.37                             173     0.110   17 195 
 BAR2 SZ I        2219 53.52        17.6 0.40                            17 195 
 BAR2 SZ ES   1   2220  8.01                             173    -0.5 7   17 195 
 BRR  HZ EP       2219 55.43                             151     0.310   75 302 
 BRR  HZ I        2219 56.18        19.2 0.10                            75 302 
 BRR  HN ES   1   2220 12.06                             151     0.3 7   75 302 
 PAM  SZ EP       2219 56.53                             149     0.310   82  37 
 PAM  SZ I        2219 56.71         6.9 0.18                            82  37 
 PAM  SN ES   1   2220 13.42                             149    -0.3 7   82  37 
 RUS  HZ EP       2219 57.12                             145     0.010   94 176 
 RUS  HZ I        2219 58.22         9.5 0.44                            94 176 
 RUS  HN ES   2   2220 15.56                             145     0.3 5   94 176 
 PTB  HZ EP       2220  0.03                             132    -0.7 9  147 261 
 PTB  HZ I        2220 26.20         7.0 0.72                           147 261 
 NOR  SE ES   2   2220 37.39                             119     0.6 4  232 236 
 CHI  HZ EP   2   2220 11.05                             117     0.2 4  243 196 
 CHI  HN ES   1   2220 39.71                             117    -0.1 6  243 196 
 CHI  HZ I        2220 46.39         2.9 0.46                           243 196 
