 2014  7 8 2207 22.8 L   6.825 -73.137136.9  RSN 22 0.4 2.5LRSN                1
 GAP= 71        1.01       2.3     2.6  4.9 -0.1007E+01  0.4048E+01  0.1256E+01E
 Epicentro: LOS SANTOS - SANTANDER                                             3
 ACTION:UPD 15-03-16 20:42 OP:nd   STATUS:               ID:20140708220722 L   I
 OLDACT:REG 14-07-09 06:02 OP:spq  STATUS:               ID:20140708220642     3
 2014-07-08-2206-42M.COL___265                                                 6
 STAT SP IPHASW D HRMM SECON CODA AMPLIT PERI AZIMU VELO AIN AR TRES W  DIS CAZ7
 BAR2 SZ EP       22 7 41.44                             169    0.0310 26.2 191 
 BAR2 SZ ES   1   22 7 55.77                             169   -0.18 7 26.2 191 
 BAR2 SZ I        22 7 57.31       168.4 0.34            167           26.2 191 
 BRR  HZ IP     C 22 7 43.49                             151    0.5410 70.7 296 
 BRR  HE ES       22 7 59.32                             151    0.6410 70.7 296 
 BRR  HZ I        22 8  1.21        61.5 0.14            151           70.7 296 
 PAM  SZ EP       22 7 44.41                             150    0.5210 74.6  40 
 PAM  SN ES       22 8  0.40                             150    0.0410 74.6  40 
 PAM  SZ I        22 8  3.66        56.0 0.54            155           74.6  40 
 RUS  HZ EP       22 7 45.85                             141   -0.0310  103 177 
 RUS  HE ES       22 8  3.56                             141   -0.3410  103 177 
 RUS  HZ I        22 8  5.98        27.5 0.42            142            103 177 
 PTB  HZ IP     C 22 7 48.26                             130   -0.92 9  149 258 
 PTB  HE ES       22 8  9.84                             130    0.07 9  149 258 
 PTB  HZ I        22 8 12.24        52.9 0.15            130            149 258 
 TAM  HZ IP     D 22 7 50.12                             129    0.36 9  155 106 
 TAM  HE ES       22 8 10.87                             129    0.07 9  155 106 
 TAM  HZ I        22 8 11.84        14.9 0.32            132            155 106 
 OCA  HZ EP       22 7 49.79                             128   -0.37 9  158 353 
 OCA  HN ES       22 8 10.96                             128   -0.56 9  158 353 
 OCA  HZ I        22 8 14.84        38.6 0.38            131            158 353 
 SPBC HZ EP       22 7 49.99                             126   -0.89 9  166 219 
 SPBC HE ES       22 8 12.73                             126   -0.07 9  166 219 
 SPBC HZ I        22 8 22.97        25.8 0.23            127            166 219 
 ZAR  HZ EP       22 7 54.55                             120   -0.09 9  204 291 
 ZAR  HN ES       22 8 19.78                             120    0.28 9  204 291 
 ZAR  HZ I        22 8 23.76        29.6 0.12            122            204 291 
 NOR  HZ EP       22 7 58.34                             116    0.07 8  237 234 
 NOR  HE ES       22 8 25.59                             116   -0.36 8  237 234 
 NOR  HZ I        22 8 31.48        36.5 0.16            118            237 234 
 SML  HZ EP       22 7 58.01                             116   -0.68 8  242 335 
 SML  HN ES       22 8 26.52                             116   -0.18 8  242 335 
 SML  HZ I        22 8 29.32        35.5 0.10            118            242 335 
 CHI  HN ES       22 8 29.71                             115    0.09 8  252 195 
 CHI  HZ I        22 8 32.63         7.4 0.18            116            252 195 
 ROSC BN ES       22 8 30.19                             115   -0.18 8  256 211 
 ROSC BZ I        22 8 38.13        25.8 0.55            116            256 211 
 HEL  HZ EP       22 8  3.56                             113    0.82 8  274 255 
 HEL  HN ES       22 8 34.11                             113    0.21 8  274 255 
 HEL  HZ I        22 8 40.56        15.3 0.26            114            274 255 
 URE  HZ EP       22 8  4.12                             112    0.71 7  284 291 
 URE  HN ES   4   22 8 32.44                             112   -2.67 0  284 291 
 URE  HZ I        22 8 35.19        26.3 0.12            113            284 291 
 GUY2CHZ EP       22 8  6.06                             110   -0.21 7  304 234 
 GUY2CHN ES       22 8 40.18                             110   -0.00 7  304 234 
 GUY2CHZ I        22 8 48.13        16.9 0.58                           304 234 
 RREF HZ EP   4   22 8 10.77                             109    1.92 0  324 229 
 RREF HN ES       22 8 45.28                             109    0.51 7  324 229 
 RREF HZ I        22 8 50.89        17.0 0.26            110            324 229 
 CBOC HZ EP   4   22 8 10.84                             108    1.29 0  335 252 
 CBOC HE ES       22 8 45.36                             108   -0.66 7  335 252 
 CBOC HZ I        22 8 48.92         5.2 0.22            109            335 252 
 TOL  SZ EP       22 8 11.68                             108    0.68 6  346 224 
 TOL  SN ES       22 8 48.82                             108    0.21 6  346 224 
 TOL  SZ I        22 8 53.67        17.5 0.31            109            346 224 
 ANIL HN ES       22 8 51.91                             107    0.51 6  360 224 
 ANIL HZ I        22 9  0.01        25.4 0.31            108            360 224 
 PRA  HZ EP       22 8 16.36                             105    0.01 6  395 209 
 PRA  HN ES       22 8 57.84                             105   -0.29 6  395 209 
 PRA  HZ I        22 9  4.49        10.9 0.26            106            395 209 
 SJC  HZ EP   4   22 8 15.90                             104   -1.95 0  407 327 
 SJC  HE ES   4   22 8 56.49                             104   -4.31 0  407 327 
 SJC  HZ I        22 9  0.85         3.6 0.27            106            407 327 
                                                                                
