 2014  2 8 2228  7.3 L   6.828 -73.164142.7  RSN 10 0.3 1.9LRSN                1
 GAP= 69        0.69       2.3     2.7  3.9 -0.1595E+01  0.5930E+00  0.2427E+01E
 Epicentro: LOS SANTOS - SANTANDER                                             3
 ACTION:UPD 14-03-10 08:08 OP:ep   STATUS:               ID:20140208222807 L   I
 OLDACT:REG 14-02-08 23:34 OP:stll STATUS:               ID:20140208221820     3
 2014-02-08-2218-20M.COL___236                                                 6
 STAT SP IPHASW D HRMM SECON CODA AMPLIT PERI AZIMU VELO AIN AR TRES W  DIS CAZ7
 BAR2 SZ EP       2228 26.31                             169   -0.3310 26.1 185 
 BAR2 SZ ES       2228 41.68                             169   -0.0310 26.1 185 
 BAR2 SZ I        2228 43.20        21.4 0.48            168           26.1 185 
 BRR  HZ EP       2228 27.90                             153   -0.0610 68.0 297 
 BRR  HN ES       2228 44.31                             153    0.2610 68.0 297 
 PAM  SZ EP       2228 29.48                             151    0.3310 76.4  42 
 PAM  SZ I        2228 29.70        20.7 0.14            152           76.4  42 
 PAM  SN ES       2228 46.44                             151    0.2710 76.4  42 
 RUS  HZ EP       2228 31.14                             142    0.1310  104 175 
 RUS  HN ES       2228 49.17                             142   -0.3110  104 175 
 RUS  HZ I        2228 51.18        10.5 0.32            142            104 175 
 PTB  HZ EP       2228 33.40                             132   -0.52 9  146 258 
 PTB  HE ES       2228 54.90                             132    0.24 9  146 258 
 PTB  HZ I        2228 57.04         9.8 0.26            131            146 258 
 OCA  HN ES       2228 56.29                             130   -0.45 9  157 354 
 OCA  HZ I        2229  2.05         9.3 0.20            130            157 354 
 TAM  HZ EP       2228 35.00                             129   -0.01 9  158 106 
 SPBC HZ EP       2228 35.85                             128    0.15 9  164 218 
 SPBC HN ES       2228 57.80                             128   -0.03 9  164 218 
 SPBC HZ I        2229  0.54        13.4 0.26            128            164 218 
 CHI  HZ EP       2228 45.17                             116    0.05 8  251 195 
 CHI  HN ES       2229 14.62                             116    0.02 8  251 195 
 CHI  HZ I        2229 24.91         3.3 0.62            116            251 195 
 GUY2CHZ EP       2228 51.35                             112    0.54 7  301 234 
 GUY2CHN ES       2229 24.63                             112   -0.09 7  301 234 
 GUY2CHZ I        2229 33.25         4.2 0.32                           301 234 
                                                                                
