 2010  9 8 2315  0.1 L   7.090 -73.274119.8  RSN  6 0.3 2.0LRSN                1
 GAP=101        0.79       3.9     8.0  7.9  0.5892E+01 -0.1900E+02 -0.7394E+01E
 Epicentro: LEBRIJA - SANTANDER                                                3
 ACTION:UP  11-02-18 11:01 OP:tino STATUS:               ID:20100908231500 L   I
 2010-09-08-2311-30S.COL___120                                                 6
 STAT SP IPHASW D HRMM SECON CODA AMPLIT PERI AZIMU VELO SNR AR TRES W  DIS CAZ7
 GIR2 SZ EP   1   2315 15.47                             175    -0.8 7    9  98 
 BRR  HZ IP     C 2315 17.17                             156     0.010   48 272 
 BRR  HZ I        2315 17.40        25.1 0.15                            48 272 
 BRR  HE ES       2315 30.52                             156     0.010   48 272 
 BAR2 SZ IP       2315 18.37                             153     0.410   56 170 
 BAR2 SZ ES       2315 31.92                             153     0.110   56 170 
 BAR2 SZ I        2315 33.05        42.3 0.50                            56 170 
 GRA  SZ ES   2   2315 37.53                             137     0.1 5  102  31 
 GRA  SZ I        2315 41.19         8.9 0.48                           102  31 
 OCA  SZ EP   1   2315 23.45                             130     0.2 7  127 358 
 OCA  SZ ES   1   2315 41.33                             130     0.0 7  127 358 
 OCA  SZ I        2315 48.09        23.3 0.42                           127 358 
 RUS  HZ EP   2   2315 24.40                             128     0.0 5  134 171 
 RUS  HE ES   2   2315 42.84                             128    -0.5 5  134 171 
                                                                                
