 2017  8 8 2003 40.4 L   6.822 -73.116149.1  RSN 14 0.4 1.9LRSN                1
 GAP=114        0.93       3.5     4.3  5.0 -0.3745E+01  0.4308E+01  0.6302E+00E
 Epicentro: LOS SANTOS - SANTANDER                                             3
 ACTION:UPD 17-09-04 20:18 OP:rebc STATUS:               ID:20170808200340 L   I
 OLDACT:UP  17-08-09 03:34 OP:edw  STATUS:               ID:20170808195742     3
 OLDACT:UP  17-08-09 03:33 OP:edw  STATUS:               ID:20170808195742     3
 OLDACT:UP  17-08-09 03:19 OP:edw  STATUS:               ID:20170808195742     3
 OLDACT:REG 17-08-09 02:23 OP:edw  STATUS:               ID:20170808195742     3
 2017-08-08-1958-00M.COL___405                                                 6
 STAT SP IPHASW D HRMM SECON CODA AMPLIT PERI AZIMU VELO AIN AR TRES W  DIS CAZ7
 BAR2 EZ EP       20 4  0.34                             169   -0.1010 26.5 196 
 BAR2 EZ ES       20 4 16.10                             169   -0.0110 26.5 196 
 BAR2 EZ I        20 4 16.83        18.9 0.12            168           26.5 196 
 BRR  HZ IP     D 20 4  2.16                             152    0.2010 73.0 296 
 BRR  HN ES       20 4 18.75                             152   -0.0610 73.0 296 
 BRR  HZ I        20 4 22.35        21.9 0.36            151           73.0 296 
 PAM  EZ EP       20 4  2.81                             152    0.1210 73.4  39 
 PAM  EN ES       20 4 20.32                             152    0.2110 73.4  39 
 PAM  EZ I        20 4 22.85         9.4 0.42            155           73.4  39 
 RUS  HZ EP     C 20 4  4.80                             143    0.2110  103 178 
 RUS  HN ES       20 4 22.62                             143   -0.8810  103 178 
 RUS  HZ I        20 4 24.37         4.3 0.36            144            103 178 
 PTB  HZ EP   9   20 4  7.08                             132   -0.84 0  151 258 
 PTB  HE ES       20 4 27.84                             132   -0.74 9  151 258 
 PTB  HZ I        20 4 31.08         6.0 0.14            131            151 258 
 SPBC HZ EP       20 4  9.59                             129    0.11 9  167 219 
 SPBC HN ES       20 4 32.79                             129    0.59 9  167 219 
 SPBC HZ I        20 4 38.33        13.9 0.36            129            167 219 
 YPLC HZ EP   4   20 4 15.45                             127    5.00 0  177 153 
 YPLC HN ES   2   20 4 33.89                             127   -0.04 4  177 153 
 YPLC HZ I        20 4 37.56        12.6 0.26            128            177 153 
 ZAR  HZ EP       20 4 13.19                             122   -0.04 8  206 291 
 ZAR  HN ES   4   20 4 40.92                             122    2.05 0  206 291 
 ZAR  HZ I        20 4 46.09         7.0 0.24            122            206 291 
 NOR  HZ EP   3   20 4 16.60                             118   -0.11 2  239 234 
 NOR  HN ES       20 4 44.93                             118   -0.14 8  239 234 
 NOR  HZ I        20 4 49.11         6.3 0.30            118            239 234 
 CHI  HZ EP   9   20 4 17.48                             117   -1.11 0  252 196 
 CHI  HN ES       20 4 47.91                             117    0.61 8  252 196 
 CHI  HZ I        20 4 49.46         3.9 0.26            118            252 196 
 HEL  HN ES   4   20 4 50.18                             115   -2.79 0  276 255 
 URE  HE ES   2   20 4 54.01                             114   -0.15 4  286 291 
 GUY2CHZ EP   2   20 4 25.01                             112    0.44 4  305 235 
 GUY2CHN ES   4   20 5  5.22                             112    6.15 0  305 235 
 GUY2CHZ I        20 5  8.19         5.8 0.62                           305 235 
 PRA  HZ EP       20 4 34.79                             107    0.36 6  396 210 
 PRA  HN ES       20 5 16.47                             107   -0.13 6  396 210 
 PRA  HZ I        20 5 22.92         2.9 0.30            107            396 210 
 SJC  HZ EP   1   20 4 34.55                             106   -1.44 4  409 326 
 SJC  HN ES   4   20 5 14.10                             106   -5.29 0  409 326 
                                                                                
