 2014 12 8 2155 28.0 L   6.162 -73.915 87.0  RSN  8 0.4 1.5LRSN                1
 GAP=129        1.00       3.6     2.5  7.8 -0.1071E+01  0.4951E+01  0.1699E+01E
 Epicentro: LANDAZURI - SANTANDER                                              3
 ACTION:UPD 15-02-10 17:01 OP:nd   STATUS:               ID:20141208215528 L   I
 OLDACT:DUP 14-12-09 10:16 OP:carl STATUS:               ID:20141208214748d    3
 2014-12-08-2147-47M.COL___306                                                 6
 STAT SP IPHASW D HRMM SECON CODA AMPLIT PERI AZIMU VELO AIN AR TRES W  DIS CAZ7
 PTB  HZ EP       2155 42.70                             137   -0.7210 73.0 305 
 PTB  HN ES       2155 55.41                             137   -0.0210 73.0 305 
 PTB  HZ I        2155 58.67         6.6 0.14            138           73.0 305 
 BAR2 SZ ES       2155 59.49                             129    0.1510 93.9  60 
 RUS  HZ EP       2155 46.17                             128   -0.0510 96.8 108 
 RUS  HN ES       2156  0.43                             128    0.0110 96.8 108 
 NOR  HZ EP       2155 48.35                             120   -0.1510  125 238 
 NOR  HN ES       2156  4.38                             120   -0.1010  125 238 
 NOR  HZ I        2156  7.18        13.6 0.40            123            125 238 
 HEL  HZ EP       2155 54.96                             111    0.04 9  179 271 
 HEL  HN ES       2156 16.67                             111    0.77 9  179 271 
 HEL  HZ I        2156 21.56         3.6 0.38            114            179 271 
 ZAR  HZ EP       2155 53.89                             111   -0.76 9  180 325 
 ZAR  HN ES       2156 15.68                             111    0.25 9  180 325 
 ZAR  HZ I        2156 17.36         4.7 0.26            114            180 325 
 PAM  SZ EP       2155 56.69                             110    0.65 9  187  46 
 GUY2CHZ EP       2155 56.52                             110    0.01 9  191 237 
 GUY2CHE ES       2156 18.88                             110    0.16 9  191 237 
 GUY2CHZ I        2156 26.82         2.6 0.30                           191 237 
                                                                                
