 2014  6 8 2044 33.7 L   6.720 -73.144151.8  RSN  5 0.1 1.8LRSN                1
 GAP=221        0.43       2.6     3.4  3.8 -0.1297E+01  0.2112E+01 -0.1125E+01E
 Epicentro: JORDAN - SANTANDER                                                 3
 ACTION:UPD 14-07-01 22:52 OP:nd   STATUS:               ID:20140608204433 L   I
 OLDACT:UP  14-06-09 02:41 OP:cam  STATUS:               ID:20140608204000     3
 OLDACT:REG 14-06-09 02:16 OP:cam  STATUS:               ID:20140608204000     3
 2014-06-08-2040-00M.COL___276                                                 6
 STAT SP IPHASW D HRMM SECON CODA AMPLIT PERI AZIMU VELO AIN AR TRES W  DIS CAZ7
 BAR2 SZ EP       2044 54.04                             174    0.1310 14.7 197 
 BAR2 SZ ES       2045  9.47                             174   -0.2110 14.7 197 
 BAR2 SZ I        2045 10.29         5.5 0.22            170           14.7 197 
 BRR  HZ EP       2044 55.85                             152    0.0910 76.0 304 
 BRR  HN ES       2045 13.17                             152    0.2010 76.0 304 
 BRR  HN I        2045 13.58        18.1 0.30            146           76.0 304 
 PTB  HZ EP       2045  0.94                             134   -0.10 9  146 262 
 PTB  HN ES       2045 22.34                             134   -0.03 9  146 262 
 PTB  HZ I        2045 29.19         4.6 0.34            130            146 262 
 SPBC HN ES       2045 24.15                             132   -0.00 9  156 221 
 SPBC HN I        2045 26.50        13.2 0.26            130            156 221 
 SML  HE ES   1   2045 40.77                             118   -0.29 6  252 336 
 SML  HZ I        2045 45.47         5.2 0.10            117            252 336 
                                                                                
