 2011  1 8 2124 29.9 L   6.768 -73.184137.7  RSN  6 0.3 1.8LRSN                1
 GAP=155        0.65       3.7     8.9  6.2 -0.1846E+02  0.1277E+02 -0.8358E+00E
 Epicentro: VILLANUEVA - SANTANDER                                             3
 ACTION:UP  11-02-08 08:39 OP:pat  STATUS:               ID:20110108212429 L   I
 2011-01-08-2122-29S.COL___135                                                 6
 STAT SP IPHASW D HRMM SECON CODA AMPLIT PERI AZIMU VELO SNR AR TRES W  DIS CAZ7
 BTL  SZ IP       2124 48.96                             171     0.510   19 331 
 BTL  SZ ES   2   2125  3.11                             171     0.2 5   19 331 
 BAR2 SZ IP       2124 48.18                             172    -0.310   20 180 
 BAR2 SZ I        2124 48.51        15.6 0.07                            20 180 
 BAR2 SZ ES   2   2125  2.95                             172     0.0 5   20 180 
 RUS  HZ EP   1   2124 52.40                             143    -0.2 7   98 173 
 RUS  HN ES   1   2125 10.25                             143    -0.1 7   98 173 
 RUS  HZ I        2125 12.24        11.0 0.27                            98 173 
 GRA  SZ IP       2124 54.89                             134     0.110  130  19 
 GRA  SZ ES   1   2125 14.02                             134    -0.3 7  130  19 
 GRA  SZ I        2125 17.39        14.5 0.33                           130  19 
 NOR  SZ EP   2   2125  4.43                             117    -0.2 4  229 235 
 NOR  SN ES   2   2125 31.36                             117    -0.3 4  229 235 
 CHI  HZ EP       2125  6.68                             116     0.0 8  244 194 
 CHI  HZ I        2125  9.00         2.6 0.18                           244 194 
 CHI  HN ES   2   2125 35.91                             116     0.6 4  244 194 
                                                                                
