 2017 10 8 2018  1.5 L   6.703 -73.480115.8  RSN  4 0.3 1.1LRSN                1
 GAP=146        0.70       3.5     3.5  6.7  0.2233E+01  0.1008E+02 -0.4291E+01E
 Epicentro: EL CARMEN - SANTANDER                                              3
 ACTION:UPD 17-11-07 19:29 OP:rebc STATUS:               ID:20171008201801 L   I
 OLDACT:UP  17-10-09 06:08 OP:edw  STATUS:               ID:20171008201739d    3
 OLDACT:DUP 17-10-09 06:07 OP:edw  STATUS:               ID:20171008201739d    3
 OLDACT:UP  17-10-09 06:04 OP:edw  STATUS:               ID:20171008201738     3
 OLDACT:REG 17-10-09 03:04 OP:edw  STATUS:               ID:20171008201738     3
 2017-10-08-2018-00M.COL___423                                                 6
 STAT SP IPHASW D HRMM SECON CODA AMPLIT PERI AZIMU VELO AIN AR TRES W  DIS CAZ7
 BAR2 EZ ES       2018 30.84                             162    0.1110 35.1 110 
 RUS  HZ EP       2018 22.87                             137    0.4810 99.8 154 
 RUS  HN ES       2018 38.32                             137   -0.3510 99.8 154 
 RUS  HZ I        2018 39.73         4.1 0.44            140           99.8 154 
 PAM  EZ EP       2018 23.13                             133   -0.2410  111  51 
 PAM  EN ES       2018 40.50                             133    0.0810  111  51 
 PAM  EZ I        2018 50.17         1.4 0.10            130            111  51 
 ZAR  HZ EP       2018 28.92                             119   -0.17 9  175 300 
 ZAR  HN ES       2018 50.66                             119    0.06 9  175 300 
                                                                                
