 2012  1 8 2045 22.4 L   6.764 -73.141139.5  RSN 12 0.3 2.2LRSN                1
 GAP=139        0.67       2.2     2.9  3.9 -0.1226E+01  0.2829E+01  0.1568E+01E
 Epicentro: LOS SANTOS - SANTANDER                                             3
 ACTION:UP  12-02-03 08:15 OP:REBC STATUS:               ID:20120108204522 L   I
 2012-01-08-2040-00M.COL___186                                                 6
 STAT SP IPHASW D HRMM SECON CODA AMPLIT PERI AZIMU VELO SNR AR TRES W  DIS CAZ7
 BAR2 SZ EP       2045 41.11                             172    -0.110   20 194 
 BAR2 SZ ES       2045 55.86                             172     0.010   20 194 
 BAR2 SZ I        2045 57.40        68.0 0.21                            20 194 
 GIR2 SZ EP       2045 41.39                             165     0.010   35 350 
 BRR  HZ EP       2045 43.31                             151     0.310   74 301 
 BRR  HE ES       2045 59.31                             151     0.210   74 301 
 BRR  HZ I        2046  1.82        36.3 0.15                            74 301 
 PAM  SZ IP     C 2045 44.17                             149     0.110   80  37 
 PAM  SN ES       2046  0.73                             149    -0.310   80  37 
 RUS  HZ EP       2045 45.28                             144     0.110   97 176 
 RUS  HZ I        2045 46.45        16.2 0.11                            97 176 
 RUS  HN ES   1   2046  2.92                             144    -0.1 7   97 176 
 PTB  HZ EP       2045 48.07                             131    -0.7 9  148 260 
 PTB  HE ES   1   2046  9.23                             131    -0.2 7  148 260 
 OCA  SZ EP       2045 50.75                             127     0.2 9  164 353 
 OCA  SZ ES       2046 12.65                             127     0.1 9  164 353 
 OCA  SZ I        2046 16.61        21.1 0.34                           164 353 
 ZAR  HE ES   1   2046 19.79                             121     0.0 6  206 293 
 ZAR  HZ I        2046 26.15        16.5 0.41                           206 293 
 NOR  SZ EP       2045 57.68                             117     0.1 8  233 235 
 NOR  SE ES   1   2046 25.29                             117     0.3 6  233 235 
 CHI  HZ EP   1   2045 59.50                             116     0.2 6  245 196 
 CHI  HN ES   1   2046 28.39                             116     0.2 6  245 196 
 CHI  HZ I        2046 39.30         6.3 0.54                           245 196 
 HEL  HZ EP   1   2046  2.20                             113     0.0 6  272 257 
 HEL  HE ES   1   2046 33.03                             113    -0.3 6  272 257 
 HEL  HZ I        2046 40.45        11.6 0.46                           272 257 
 PRA  HZ EP   1   2046 14.92                             106    -0.4 4  389 210 
 PRA  HN ES   1   2046 56.86                             106     0.3 4  389 210 
                                                                                
