 2017 10 8 2342 15.7 L   6.800 -73.167148.6  RSN  4 0.3 1.4LRSN                1
 GAP=134        0.70       3.8     4.3  6.0  0.1850E+01  0.1010E+02 -0.2906E+01E
 Epicentro: LOS SANTOS - SANTANDER                                             3
 ACTION:UPD 17-11-07 19:29 OP:rebc STATUS:               ID:20171008234215 L   I
 OLDACT:REG 17-10-09 03:27 OP:edw  STATUS:               ID:20171008233742     3
 2017-10-08-2338-00M.COL___423                                                 6
 STAT SP IPHASW D HRMM SECON CODA AMPLIT PERI AZIMU VELO AIN AR TRES W  DIS CAZ7
 BAR2 EZ EP       2342 35.40                             171   -0.2510 23.1 184 
 BAR2 EZ ES       2342 51.20                             171   -0.0210 23.1 184 
 BAR2 EZ I        2342 51.64        10.2 0.26            172           23.1 184 
 PAM  EZ EP       2342 38.36                             151    0.0710 78.9  41 
 PAM  EN ES       2342 55.94                             151    0.0210 78.9  41 
 PAM  EZ I        2342 57.67         4.8 0.48            152           78.9  41 
 RUS  HZ EP       2342 40.19                             144    0.4610  101 175 
 RUS  HN ES       2342 58.32                             144   -0.1710  101 175 
 RUS  HZ I        2342 59.07         1.7 0.30            147            101 175 
 ZAR  HZ EP       2342 47.65                             123   -0.44 9  202 292 
 ZAR  HN ES       2343 13.66                             123    0.30 9  202 292 
 ZAR  HZ I        2343 17.77         3.2 0.10            123            202 292 
                                                                                
