 2013 10 8 2213  1.9 L   6.812 -73.142139.9  RSN  8 0.5 1.7LRSN                1
 GAP=136        1.32       4.5     5.9  7.7 -0.5712E+01  0.1402E+02 -0.2171E+01E
 Epicentro: LOS SANTOS - SANTANDER                                             3
 ACTION:UPD 13-11-25 09:20 OP:ep   STATUS:               ID:20131008221301 L   I
 OLDACT:UP  13-10-09 02:26 OP:stll STATUS:               ID:20131008220843     3
 OLDACT:REG 13-10-08 23:44 OP:stll STATUS:               ID:20131008220843     3
 2013-10-08-2208-43M.COL___235                                                 6
 STAT SP IPHASW D HRMM SECON CODA AMPLIT PERI AZIMU VELO AIN AR TRES W  DIS CAZ7
 BAR2 SZ EP       2213 21.13                             170    0.3110 24.7 190 
 BAR2 SZ I        2213 21.23        13.4 0.42            169           24.7 190 
 BAR2 SZ ES       2213 35.05                             170   -0.5510 24.7 190 
 BRR  HZ IP     C 2213 23.13                             151    0.7610 70.9 297 
 BRR  HN ES       2213 38.74                             151    0.3810 70.9 297 
 PAM  SZ EP       2213 23.97                             150    0.5910 76.1  40 
 PAM  SN ES       2213 40.54                             150    0.3710 76.1  40 
 PAM  SZ I        2213 43.27         4.5 0.20            154           76.1  40 
 RUS  HZ EP       2213 25.05                             142   -0.0910  102 176 
 RUS  HZ I        2213 25.63         3.1 0.22            144            102 176 
 RUS  HN ES       2213 42.30                             142   -0.9910  102 176 
 PTB  HZ EP       2213 28.24                             130   -0.18 9  148 258 
 PTB  HN ES       2213 48.92                             130   -0.21 9  148 258 
 PTB  HZ I        2213 55.04         7.6 0.38            131            148 258 
 SPBC HZ EP       2213 29.99                             127   -0.05 9  164 219 
 SPBC HN ES       2213 52.53                             127    0.51 9  164 219 
 SPBC HZ I        2213 59.18         8.2 0.26            129            164 219 
 SML  HZ EP       2213 37.38                             116   -0.68 8  243 335 
 SML  HN ES       2214  5.69                             116   -0.60 8  243 335 
 SML  HE I        2214  8.47        15.8 0.10            118            243 335 
 GUY2CHZ EP       2213 44.71                             111   -0.62 7  302 235 
 GUY2CHN ES       2214 19.83                             111    0.60 7  302 235 
                                                                                
