 2010  4 8 2324 34.8 L   6.818 -72.983149.3  RSN  7 0.3 2.2LRSN                1
 GAP=212        0.56       3.9     8.7  6.4 -0.9189E+01  0.4881E+01  0.7466E+01E
 Epicentro: CEPITA - SANTANDER                                                 3
 ACTION:UPD 10-08-24 09:58 OP:vdl  STATUS:               ID:20100408232434 L   I
 2010-04-08-2323-03S.COL___097                                                 6
 STAT SP IPHASW D HRMM SECON CODA AMPLIT PERI AZIMU VELO AIN AR TRES W  DIS CAZ7
 BAR2 SZ EP   1   2324 55.13                             167     0.0 7   33 222 
 BAR2 SZ ES   2   2325 11.18                             167     0.3 5   33 222 
 BRR  HZ EP   1   2324 57.38                             148     0.1 7   87 292 
 BRR  HE ES   2   2325 14.91                             148     0.1 5   87 292 
 BRR  HZ I        2325 18.91        26.9 0.27                            87 292 
 OCA  SZ EP   1   2325  3.69                             130     0.2 7  161 347 
 OCA  SZ ES   2   2325 24.93                             130    -0.9 5  161 347 
 OCA  SZ I        2325 34.49        26.2 0.53                           161 347 
 CHI  HZ EP   1   2325 13.43                             117     0.0 6  256 199 
 CHI  HE ES   2   2325 42.99                             117    -0.6 4  256 199 
 CHI  HZ I        2325 52.18         5.2 0.66                           256 199 
 HEL  HZ EP   1   2325 17.24                             114     0.1 5  290 256 
 RREF BZ EP   1   2325 23.24                             110     0.4 5  337 231 
 RREF BE ES   2   2326  0.05                             110    -0.2 3  337 231 
 RREF BZ I        2326  7.81         5.4 0.35                           337 231 
 PRA  HZ EP   1   2325 29.47                             106    -0.2 4  403 212 
 PRA  HE ES   2   2326 12.28                             106    -0.3 3  403 212 
 PRA  HZ I        2326 15.18         7.7 0.44                           403 212 
                                                                                
