 2010  9 8 2107 55.8 L   6.773 -73.060143.8  RSN  6 0.2 2.0LRSN                1
 GAP=169        0.45       2.3     4.4  4.1 -0.1186E+00 -0.4359E+01  0.7357E+00E
 Epicentro: LOS SANTOS - SANTANDER                                             3
 ACTION:UP  11-02-18 11:01 OP:tino STATUS:               ID:20100908210755 L   I
 2010-09-08-2103-38S.COL___120                                                 6
 STAT SP IPHASW D HRMM SECON CODA AMPLIT PERI AZIMU VELO SNR AR TRES W  DIS CAZ7
 BAR2 SZ EP   1   21 8 15.16                             170     0.0 7   24 214 
 BAR2 SZ I        21 8 15.52        20.4 0.13                            24 214 
 BAR2 SZ ES   1   21 8 30.40                             170     0.1 7   24 214 
 BTL  SZ EP       21 8 15.40                             169     0.110   28 305 
 BRR  HZ IP     C 21 8 17.00                             149    -0.310   81 297 
 BRR  HZ I        21 8 18.55        25.2 0.11                            81 297 
 BRR  HN ES       21 8 34.13                             149     0.110   81 297 
 RUS  HZ EP       21 8 19.21                             144     0.110   97 181 
 RUS  HE ES   1   21 8 37.07                             144    -0.2 7   97 181 
 RUS  HZ I        21 8 39.10         8.4 0.35                            97 181 
 GRA  SZ EP   1   21 8 20.95                             136     0.1 7  126  13 
 GRA  SZ ES   1   21 8 40.37                             136    -0.1 7  126  13 
 GRA  SZ I        21 8 41.74         8.0 0.31                           126  13 
 PRA  HZ EP   2   21 8 49.30                             106    -0.2 3  394 211 
 PRA  HE ES   2   21 9 31.62                             106     0.3 3  394 211 
 PRA  HZ I        21 9 41.37         4.8 0.46                           394 211 
                                                                                
