 2016  1 8 2008  7.7 L   6.838 -73.112118.6  RSN  5 0.4 1.3LRSN                1
 GAP=139        0.61       4.8     4.5  9.2 -0.5796E+01  0.1454E+02 -0.1511E+02E
 Epicentro: LOS SANTOS - SANTANDER                                             3
 ACTION:UPD 16-03-09 23:23 OP:cam  STATUS:               ID:20160108200807 L   I
 OLDACT:REG 16-01-09 04:16 OP:dnl  STATUS:               ID:20160108195748     3
 2016-01-08-1957-48M.COL___293                                                 6
 STAT SP IPHASW D HRMM SECON CODA AMPLIT PERI AZIMU VELO AIN AR TRES W  DIS CAZ7
 BAR2 EZ ES   2   20 8 36.56                             166   -0.48 5 28.3 196 
 BAR2 EZ I        20 8 41.32         8.3 0.31            174           28.3 196 
 PAM  EZ EP   2   20 8 26.96                             147    0.28 5 71.7  39 
 PAM  EE ES   2   20 8 41.93                             147    0.42 5 71.7  39 
 PAM  EZ I        20 8 47.47         5.1 0.28            148           71.7  39 
 RUS  HZ EP   2   20 8 29.67                             136    0.49 5  105 178 
 RUS  HN ES   2   20 8 45.46                             136   -0.51 5  105 178 
 RUS  HZ I        20 8 48.51         3.4 0.30            146            105 178 
 PTB  HZ EP   2   20 8 32.45                             124   -0.56 5  152 258 
 PTB  HE ES       20 8 53.02                             124    0.2310  152 258 
 PTB  HZ I        20 8 54.24         2.9 0.10            132            152 258 
 SML  HZ EP   2   20 8 42.27                             111   -0.39 4  241 334 
 SML  HE ES   2   20 9  9.56                             111   -0.41 4  241 334 
 SML  HZ I        20 9 15.29                             116            241 334 
                                                                                
