 2013  1 8 2102 51.7 L   6.730 -73.180143.7  RSN  5 0.3 1.7LRSN                1
 GAP=228        0.67       7.6     5.8  8.0  0.2373E+02  0.1796E+01  0.2170E+02E
 Epicentro: VILLANUEVA - SANTANDER                                             3
 ACTION:UPD 13-02-15 09:13 OP:ep   STATUS:               ID:20130108210251 L   I
 2013-01-08-2100-00M.COL___242                                                 6
 STAT SP IPHASW D HRMM SECON CODA AMPLIT PERI AZIMU VELO AIN AR TRES W  DIS CAZ7
 BAR2 SZ EP       21 3 10.75                             174   -0.1910 15.3 181 
 BRR  HZ IP     C 21 3 12.60                             152   -0.0710 72.1 305 
 BRR  HN ES       21 3 29.05                             152    0.0210 72.1 305 
 BRR  HZ I        21 3 31.98        14.9 0.15            152           72.1 305 
 RUS  HZ EP       21 3 15.08                             145    0.3610 93.3 173 
 RUS  HN I        21 3 35.31         5.8 0.27            131           93.3 173 
 PTB  HZ EP       21 3 17.58                             133   -0.46 9  143 262 
 PTB  HN ES   1   21 3 38.64                             133    0.05 7  143 262 
 PTB  HZ I        21 3 45.90         5.5 0.33            127            143 262 
 ZAR  HZ EP   1   21 3 24.47                             122    0.51 6  204 295 
 ZAR  HE ES   1   21 3 49.28                             122    0.15 6  204 295 
 ZAR  HZ I        21 3 54.28         3.8 0.14            122            204 295 
                                                                                
