 2012  8 8 2027 52.1 L   6.765 -73.160146.5  RSN  5 0.2 1.7LRSN                1
 GAP=136        0.39       4.0     5.2  5.3  0.9468E+01  0.4723E+01 -0.3216E+01E
 Epicentro: LOS SANTOS - SANTANDER                                             3
 ACTION:UPD 12-09-10 11:55 OP:ep   STATUS:               ID:20120808202752 L   I
 2012-08-08-2020-00M.COL___216                                                 6
 STAT SP IPHASW D HRMM SECON CODA AMPLIT PERI AZIMU VELO AIN AR TRES W  DIS CAZ7
 BAR2 SZ ES   1   2028 26.88                             172   -0.16 7 19.3 187 
 BAR2 SZ I        2028 29.04        12.2 0.26                          19.3 187 
 BRR  HZ EP       2028 13.44                             152    0.1110 71.8 302 
 BRR  HZ I        2028 15.07        10.4 0.12                          71.8 302 
 BRR  HN ES   1   2028 30.01                             152    0.10 7 71.8 302 
 PAM  SN ES   3   2028 31.54                             149   -0.64 2 81.3  39 
 RUS  HZ EP   3   2028 15.38                             145   -0.25 2 96.9 175 
 RUS  HN ES   1   2028 34.14                             145    0.13 7 96.9 175 
 RUS  HZ I        2028 36.87         4.4 0.46                          96.9 175 
 PTB  HZ EP   3   2028 18.53                             132   -0.37 2  146 260 
 PTB  HN ES   2   2028 39.50                             132   -0.32 5  146 260 
 PTB  HZ I        2028 40.43         8.0 0.64                           146 260 
                                                                                
