 2013  7 8 2121  0.4 L   6.800 -73.078140.9  RSN  4 0.2 1.7LRSN                1
 GAP=145        0.56       3.5     5.0  5.3 -0.2622E+01  0.8627E+00  0.2153E+01E
 Epicentro: LOS SANTOS - SANTANDER                                             3
 ACTION:UPD 13-08-12 10:36 OP:ep   STATUS:               ID:20130708212100 L   I
 OLDACT:REG 13-07-08 21:20 OP:jn   STATUS:               ID:20130708211959     3
 2013-07-08-2119-59M.COL___264                                                 6
 STAT SP IPHASW D HRMM SECON CODA AMPLIT PERI AZIMU VELO AIN AR TRES W  DIS CAZ7
 BAR2 SZ ES   1   2121 34.38                             169    0.01 7 25.7 207 
 PAM  SZ EP       2121 22.17                             151    0.3710 72.9  35 
 PAM  SN ES       2121 38.31                             151   -0.2110 72.9  35 
 PAM  SZ I        2121 41.35        12.3 0.54            154           72.9  35 
 BRR  HZ EP       2121 21.21                             149   -0.1810 77.8 296 
 BRR  HN ES   1   2121 37.97                             149    0.18 7 77.8 296 
 BRR  HZ I        2121 40.92        15.0 0.40            151           77.8 296 
 RUS  HZ EP       2121 23.48                             143   -0.1510  100 180 
 RUS  HE ES   1   2121 41.91                             143    0.13 7  100 180 
 RUS  HZ I        2121 43.52         3.4 0.40            146            100 180 
                                                                                
