 2015  2 8 2356 20.3 L   6.793 -73.131147.6  RSN  7 0.4 1.6LRSN                1
 GAP=139        0.87       3.5     4.3  5.9 -0.2545E+01  0.4195E+01 -0.6682E+00E
 Epicentro: LOS SANTOS - SANTANDER                                             3
 ACTION:UPD 15-04-30 21:24 OP:nd   STATUS:               ID:20150208235620 L   I
 OLDACT:REG 15-02-09 03:01 OP:spq  STATUS:               ID:20150208234744     3
 2015-02-08-2347-44M.COL___287                                                 6
 STAT SP IPHASW D HRMM SECON CODA AMPLIT PERI AZIMU VELO AIN AR TRES W  DIS CAZ7
 BAR2 EZ EP       2356 40.07                             171   -0.0910 22.9 194 
 BAR2 EZ ES   1   2356 55.01                             171   -0.63 7 22.9 194 
 BAR2 EZ I        2356 56.40         9.7 0.22            171           22.9 194 
 BRR  HZ EP       2356 41.87                             152    0.1110 73.0 298 
 BRR  HN ES       2356 58.84                             152    0.3510 73.0 298 
 BRR  HZ I        2356 59.43         8.9 0.30            152           73.0 298 
 PAM  SZ EP       2356 43.05                             151    0.3510 77.0  38 
 PAM  SN ES       2356 59.87                             151   -0.2910 77.0  38 
 PAM  SZ I        2357  2.34         6.5 0.60            152           77.0  38 
 RUS  HZ EP       2356 44.06                             144   -0.1310 99.7 177 
 RUS  HE ES       2357  3.15                             144    0.3510 99.7 177 
 RUS  HZ I        2357  3.81         5.4 0.22            146           99.7 177 
 PTB  HZ EP       2356 46.89                             132   -0.67 9  149 259 
 PTB  HN ES       2357  8.52                             132   -0.29 9  149 259 
 PTB  HZ I        2357  9.43         4.3 0.26            133            149 259 
 SPBC HZ EP       2356 49.00                             129    0.01 9  164 220 
 SPBC HN ES       2357 11.77                             129    0.41 9  164 220 
 SPBC HZ I        2357 15.50         6.4 0.10            130            164 220 
 SML  HZ EP   1   2356 57.23                             118    0.04 6  245 335 
 SML  HN ES   1   2357 26.50                             118    0.54 6  245 335 
 SML  HZ I        2357 29.55         3.5 0.09            118            245 335 
                                                                                
