 2012  8 8 2151 56.0 L   6.753 -73.202148.0  RSN  5 0.2 1.5LRSN                1
 GAP=171        0.34       5.8     8.3  6.3  0.2608E+02  0.3104E+02  0.1087E+02E
 Epicentro: VILLANUEVA - SANTANDER                                             3
 ACTION:UPD 12-09-10 11:55 OP:ep   STATUS:               ID:20120808215156 L   I
 2012-08-08-2150-00M.COL___219                                                 6
 STAT SP IPHASW D HRMM SECON CODA AMPLIT PERI AZIMU VELO AIN AR TRES W  DIS CAZ7
 BAR2 SZ EP   3   2152 15.55                             173   -0.21 3 17.9 173 
 BAR2 SZ ES   3   2152 30.64                             173   -0.56 3 17.9 173 
 BAR2 SZ I        2152 33.20         9.6 0.26                          17.9 173 
 GIR2 SZ ES   3   2152 31.37                             166   -0.31 3 36.0   1 
 BRR  HZ EP   2   2152 17.26                             154    0.06 5 68.6 305 
 BRR  HN ES   2   2152 34.05                             154    0.27 5 68.6 305 
 BRR  HZ I        2152 39.73         5.2 0.30                          68.6 305 
 RUS  HN ES   2   2152 38.23                             146    0.17 5 96.1 172 
 PTB  HZ EP       2152 22.42                             134   -0.0610  141 260 
 PTB  HN ES   3   2152 43.04                             134   -0.12 2  141 260 
                                                                                
