 2010 12 8 2345 22.0 L   6.789 -73.088140.8  RSN 14 0.5 2.7LRSN                1
 GAP=141        1.04       4.1     6.6  7.8 -0.1190E+02  0.6403E+01  0.9151E+01E
 Epicentro: LOS SANTOS - SANTANDER                                             3
 ACTION:UP  11-01-14 15:23 OP:pat  STATUS:               ID:20101208234522 L   I
 2010-12-08-2345-12S.COL___135                                                 6
 STAT SP IPHASW D HRMM SECON CODA AMPLIT PERI AZIMU VELO SNR AR TRES W  DIS CAZ7
 BAR2 SZ IP       2345 40.97                             170     0.010   24 206 
 BAR2 SZ ES   1   2345 55.80                             170    -0.1 7   24 206 
 BAR2 SZ I        2345 57.28       246.8 0.22                            24 206 
 BTL  SZ EP       2345 40.44                             170    -0.610   25 306 
 GIR2 SZ EP   1   2345 41.02                             166    -0.1 7   34 340 
 GIR2 SZ ES   2   2345 56.04                             166     0.0 5   34 340 
 GRA  SZ IP       2345 46.82                             136     0.110  125  14 
 GRA  SZ ES   1   2346  6.55                             136     0.5 7  125  14 
 GRA  SZ I        2346  9.24        56.2 0.42                           125  14 
 OCA  SZ EP       2345 49.45                             128    -0.6 9  162 351 
 OCA  SZ ES   1   2346 12.48                             128     0.5 7  162 351 
 OCA  SZ I        2346 15.90        73.7 0.14                           162 351 
 YOP  SZ EP       2345 51.67                             126     0.4 9  175 155 
 YOP  SZ I        2346 18.40        20.3 0.25                           175 155 
 NOR  SZ EP   1   2345 57.56                             117    -0.3 6  239 236 
 NOR  SN ES   1   2346 24.95                             117    -1.0 6  239 236 
 CHI  HZ EP   1   2345 58.88                             116    -0.6 6  249 197 
 CHI  HN ES   1   2346 29.05                             116     0.4 6  249 197 
 CHI  HZ I        2346 36.08        23.4 0.42                           249 197 
 ROSC BZ EP   1   2346  0.81                             115     0.8 6  255 212 
 ROSC BE ES   1   2346 29.93                             115     0.2 6  255 212 
 ROSC BZ I        2346 34.83        41.6 0.41                           255 212 
 HEL  HZ EP   2   2346  2.84                             113     0.3 4  278 256 
 HEL  HN ES   1   2346 35.14                             113     0.9 6  278 256 
 HEL  HZ I        2346 39.77        22.5 0.22                           278 256 
 RREF HZ EP   1   2346  9.31                             109     1.0 5  326 230 
 RREF HN ES   2   2346 44.07                             109    -0.5 3  326 230 
 RREF HZ I        2346 50.83        28.3 0.28                           326 230 
 TOL  SZ EP   1   2346 11.05                             108     0.6 5  347 226 
 PRA  HZ EP   1   2346 15.02                             105    -0.5 4  394 210 
 PRA  HE ES   1   2346 57.31                             105     0.0 4  394 210 
 SJA  SZ EP   2   2346 16.02                             105    -0.4 3  400 194 
 SJA  SZ I        2347 10.12        36.4 0.48                           400 194 
                                                                                
