 2017  3 8 2352 37.8 L   6.779 -73.133141.9  RSN  5 0.2 1.0LRSN                1
 GAP=139        0.58       3.0     3.2  5.1  0.1808E+01  0.1485E+01  0.7239E-02E
 Epicentro: LOS SANTOS - SANTANDER                                             3
 ACTION:UPD 17-05-25 18:38 OP:jn   STATUS:               ID:20170308235237 L   I
 OLDACT:DUP 17-03-09 04:21 OP:lv   STATUS:               ID:20170308234744d    3
 2017-03-08-2348-00M.COL___397                                                 6
 STAT SP IPHASW D HRMM SECON CODA AMPLIT PERI AZIMU VELO AIN AR TRES W  DIS CAZ7
 BAR2 EZ ES       2353 12.24                             171    0.3910 21.4 195 
 BAR2 EZ I        2353 12.60         3.7 0.10            170           21.4 195 
 BRR  HZ EP   4   2353  0.20                             151    1.52 0 73.6 300 
 BRR  HN ES       2353 14.86                             151   -0.1010 73.6 300 
 PAM  EZ EP       2352 59.73                             150    0.0610 78.3  38 
 PAM  EN ES       2353 16.57                             150   -0.1510 78.3  38 
 PAM  EZ I        2353 17.33         1.9 0.21            151           78.3  38 
 RUS  HZ EP       2353  1.12                             144    0.1110 98.2 177 
 RUS  HN ES       2353 18.81                             144   -0.2910 98.2 177 
 RUS  HZ I        2353 20.55         1.3 0.50            144           98.2 177 
 ZAR  HN ES       2353 35.50                             121   -0.03 8  206 293 
                                                                                
