 2017  4 8 2150 56.2 L   6.797 -73.181140.0  RSN  6 0.4 1.6LRSN                1
 GAP=132        0.98       4.5     4.5  7.3 -0.8267E+00  0.1126E+02  0.4624E+01E
 Epicentro: LOS SANTOS - SANTANDER                                             3
 ACTION:UPD 17-05-30 21:09 OP:jn   STATUS:               ID:20170408215056 L   I
 OLDACT:REG 17-04-09 04:45 OP:lv   STATUS:               ID:20170408214742     3
 2017-04-08-2148-00M.COL___377                                                 6
 STAT SP IPHASW D HRMM SECON CODA AMPLIT PERI AZIMU VELO AIN AR TRES W  DIS CAZ7
 BAR2 EZ EP       2151 15.19                             170    0.0510 22.6 180 
 BAR2 EZ ES       2151 29.54                             170   -0.3510 22.6 180 
 BAR2 EZ I        2151 31.88        11.8 0.31            169           22.6 180 
 PAM  EZ EP       2151 18.10                             149    0.1010 80.2  42 
 PAM  EN ES       2151 35.30                             149    0.3110 80.2  42 
 PAM  EZ I        2151 37.45         4.0 0.35            151           80.2  42 
 RUS  HZ EP       2151 19.17                             143   -0.2310  101 174 
 RUS  HN ES       2151 37.61                             143    0.1210  101 174 
 RUS  HZ I        2151 39.09         4.8 0.10            142            101 174 
 PTB  HZ EP       2151 21.43                             131   -0.92 9  144 259 
 PTB  HE ES       2151 42.94                             131    0.20 9  144 259 
 PTB  HZ I        2151 44.00         3.8 0.07            132            144 259 
 ZAR  HN ES       2151 52.94                             122    0.28 9  201 293 
 PRA  HZ EP       2151 49.63                             106    0.35 6  390 209 
 PRA  HN ES       2152 31.54                             106    0.88 6  390 209 
 PRA  HZ I        2152 37.50         2.4 0.23            106            390 209 
                                                                                
