 2010 12 8 2040 15.3 L   6.760 -73.379137.3  RSN  5 0.2 1.9LRSN                1
 GAP=232        0.43       6.4    15.5  5.8 -0.4847E+02  0.4184E+02 -0.2533E+02E
 Epicentro: ZAPATOCA - SANTANDER                                               3
 ACTION:UP  11-01-14 15:23 OP:pat  STATUS:               ID:20101208204015 L   I
 2010-12-08-2037-27S.COL___135                                                 6
 STAT SP IPHASW D HRMM SECON CODA AMPLIT PERI AZIMU VELO SNR AR TRES W  DIS CAZ7
 BTL  SZ EP   1   2040 34.23                             171     0.3 7   21  35 
 BTL  SZ ES   1   2040 48.47                             171     0.1 7   21  35 
 BAR2 SZ EP   2   2040 34.08                             168     0.0 5   29 131 
 BAR2 SZ ES   1   2040 48.50                             168    -0.2 7   29 131 
 BAR2 SZ I        2040 50.24        14.1 0.24                            29 131 
 GIR2 SZ EP   1   2040 34.28                             163     0.0 7   41  30 
 GRA  SZ EP   1   2040 41.06                             132     0.0 7  140  27 
 GRA  SZ I        2040 42.22        12.0 0.29                           140  27 
 GRA  SZ ES   2   2041  1.26                             132     0.1 5  140  27 
 OCA  SZ EP   1   2040 43.11                             127    -0.2 7  164   2 
 OCA  SZ I        2041 10.02         9.9 0.39                           164   2 
                                                                                
