 2011  9 8 2126 22.2 L   6.801 -73.126142.0  RSN  5 0.3 1.6LRSN                1
 GAP=139        0.64       4.3     6.6  6.1 -0.4318E+00 -0.3061E+01  0.3009E+01E
 Epicentro: LOS SANTOS - SANTANDER                                             3
 ACTION:UPD 12-07-13 15:56 OP:ep   STATUS:               ID:20110908212622 L   I
 2011-09-08-2124-46S.COL___170                                                 6
 STAT SP IPHASW D HRMM SECON CODA AMPLIT PERI AZIMU VELO AIN AR TRES W  DIS CAZ7
 BAR2 SZ EP   1   2126 41.22                             170   -0.12 7 23.9 195 
 BAR2 SZ ES   1   2126 55.85                             170   -0.45 7 23.9 195 
 BAR2 SZ I        2126 57.74        10.1 0.16                          23.9 195 
 GIR2 SZ EP   1   2126 41.27                             167   -0.12 7 31.6 346 
 GIR2 SZ ES   1   2126 56.09                             167   -0.30 7 31.6 346 
 BRR  HZ EP   1   2126 43.01                             151    0.01 7 73.0 298 
 BRR  HN ES   1   2126 59.61                             151    0.35 7 73.0 298 
 BRR  HZ I        2127  2.89        11.6 0.14                          73.0 298 
 PAM  SZ EP   1   2126 44.13                             151    0.25 7 76.0  38 
 PAM  SN ES   1   2127  1.01                             151    0.18 7 76.0  38 
 RUS  HZ EP   1   2126 45.20                             143   -0.33 7  101 177 
 RUS  HZ I        2126 46.42         3.8 0.14                           101 177 
 RUS  HN ES   1   2127  4.30                             143    0.53 7  101 177 
                                                                                
