 2014 11 8 2220  4.0 L   6.814 -73.123148.9  RSN  5 0.4 1.5LRSN                1
 GAP=139        0.87       4.5     4.8  7.5 -0.4540E+01  0.5860E+00  0.5069E+01E
 Epicentro: LOS SANTOS - SANTANDER                                             3
 ACTION:UPD 14-12-19 15:40 OP:nd   STATUS:               ID:20141108222004 L   I
 OLDACT:REG 14-11-09 04:37 OP:spq  STATUS:               ID:20141108221747     3
 2014-11-08-2217-47M.COL___286                                                 6
 STAT SP IPHASW D HRMM SECON CODA AMPLIT PERI AZIMU VELO AIN AR TRES W  DIS CAZ7
 BRR  HZ EP   1   2220 25.92                             153    0.31 7 72.7 297 
 BRR  HN ES       2220 42.67                             153    0.2410 72.7 297 
 BRR  HZ I        2220 46.55         8.0 0.49            152           72.7 297 
 PAM  SZ EP       2220 26.93                             152    0.5110 74.6  39 
 PAM  SE ES       2220 43.66                             152   -0.2210 74.6  39 
 PAM  SZ I        2220 45.82         7.5 0.60            153           74.6  39 
 RUS  HZ EP       2220 28.48                             144    0.2910  102 178 
 RUS  HE ES   1   2220 46.54                             144   -0.49 7  102 178 
 RUS  HZ I        2220 47.65         2.5 0.24            148            102 178 
 PTB  HZ EP       2220 30.99                             132   -0.52 9  151 258 
 PTB  HE ES       2220 53.06                             132    0.12 9  151 258 
 PTB  HZ I        2220 53.98         3.0 0.28            134            151 258 
 OCA  HZ EP   1   2220 31.98                             131   -0.50 7  159 352 
 OCA  HE ES   1   2220 54.41                             131   -0.26 7  159 352 
 OCA  HZ I        2220 59.15         5.4 0.16            132            159 352 
                                                                                
