 2011  2 8 2347  8.3 L   6.783 -72.992150.5  RSN  7 0.4 1.6LRSN                1
 GAP=176        0.94       6.1    17.0 11.4 -0.6846E+02  0.7217E+02 -0.9620E+00E
 Epicentro: CEPITA - SANTANDER                                                 3
 ACTION:UP  11-03-28 15:07 OP:jfem STATUS:               ID:20110208234708 L   I
 2011-02-08-2345-39S.COL___136                                                 6
 STAT SP IPHASW D HRMM SECON CODA AMPLIT PERI AZIMU VELO SNR AR TRES W  DIS CAZ7
 BAR2 SZ EP   1   2347 28.17                             168    -0.5 7   30 225 
 BAR2 SZ ES   2   2347 44.41                             168    -0.1 5   30 225 
 BAR2 SZ I        2347 45.64         9.3 0.20                            30 225 
 BTL  SZ EP       2347 28.55                                    -0.210   34 296 
 GIR2 SZ EP   1   2347 28.63                                    -0.2 7   40 326 
 RUS  HZ EP   1   2347 32.15                             145    -0.3 7   99 186 
 RUS  HN ES   2   2347 50.76                             145    -0.4 5   99 186 
 RUS  HZ I        2347 52.17         3.0 0.30                            99 186 
 GRA  SZ EP   1   2347 33.95                             139     0.2 7  124  10 
 GRA  SZ ES   1   2347 54.36                             139     0.7 7  124  10 
 GRA  SZ I        2347 55.75         7.0 0.28                           124  10 
 CHI  HZ EP   1   2347 46.31                             118    -0.3 6  252 199 
 CHI  HZ I        2347 46.93         1.7 0.36                           252 199 
 CHI  HE ES       2348 17.33                             118     0.8 8  252 199 
 RREF HZ EP       2347 56.04                             111     0.0 7  334 232 
 RREF HN ES   2   2348 32.93                             111    -0.3 3  334 232 
 RREF HZ I        2348 37.89         2.3 0.09                           334 232 
                                                                                
