 2011 11 8 2327 54.9 L   6.755 -73.093149.1  RSN  4 0.1 1.5LRSN                1
 GAP=145        0.33       2.9     4.5  5.6  0.2643E+01 -0.1176E+02 -0.4610E-01E
 Epicentro: LOS SANTOS - SANTANDER                                             3
 ACTION:UPD 12-07-13 16:09 OP:ep   STATUS:               ID:20111108232754 L   I
 2011-11-08-2323-10S.COL___178                                                 6
 STAT SP IPHASW D HRMM SECON CODA AMPLIT PERI AZIMU VELO AIN AR TRES W  DIS CAZ7
 BAR2 SZ EP       2328 14.85                             172   -0.0710 20.5 209 
 BAR2 SZ I        2328 31.50         5.2 0.26                          20.5 209 
 PAM  SZ EP       2328 17.67                             151    0.1310 77.9  34 
 PAM  SE ES   3   2328 34.84                             151   -0.33 2 77.9  34 
 BRR  HZ EP       2328 16.78                             151   -0.1010 78.7 300 
 BRR  HZ I        2328 20.78        13.4 0.34                          78.7 300 
 BRR  HN ES   1   2328 34.01                             151    0.02 7 78.7 300 
 RUS  HZ EP       2328 18.68                             146    0.0310 95.4 179 
 RUS  HN ES   2   2328 37.21                             146    0.05 5 95.4 179 
 RUS  HZ I        2328 38.81         2.2 0.62                          95.4 179 
                                                                                
