 2017 11 8 2002 27.8 L   6.781 -73.148140.9  RSN 11 0.5 1.8LRSN                1
 GAP=112        1.09       3.6     3.7  5.9  0.1766E+01  0.6283E+01  0.6878E+01E
 Epicentro: LOS SANTOS - SANTANDER                                             3
 ACTION:UPD 17-12-12 19:53 OP:rebc STATUS:               ID:20171108200227 L   I
 OLDACT:REG 17-11-09 03:02 OP:dhb  STATUS:               ID:20171108195741     3
 2017-11-08-1958-00M.COL___446                                                 6
 STAT SP IPHASW D HRMM SECON CODA AMPLIT PERI AZIMU VELO AIN AR TRES W  DIS CAZ7
 BAR2 EZ IP     D 20 2 46.52                             171   -0.2710 21.2 190 
 BAR2 EZ ES       20 3  1.22                             171   -0.3910 21.2 190 
 BAR2 EZ I        20 3  7.92         9.5 0.42            170           21.2 190 
 BRR  HZ EP       20 2 48.49                             151    0.0310 72.0 300 
 BRR  HN ES       20 3  4.71                             151    0.1310 72.0 300 
 BRR  HZ I        20 3 12.15        19.8 0.00            153           72.0 300 
 PAM  EZ IP     D 20 2 49.67                             149    0.0710 79.2  39 
 PAM  EN ES       20 3  6.63                             149    0.0210 79.2  39 
 PAM  EZ I        20 3  8.79        10.0 0.46            156           79.2  39 
 RUS  HZ IP     D 20 2 50.39                             143   -0.5210 98.5 176 
 RUS  HN ES       20 3  8.89                             143   -0.0610 98.5 176 
 RUS  HZ I        20 3 11.54         3.4 0.28            147           98.5 176 
 PTB  HZ IP     C 20 2 53.69                             131   -0.61 9  147 260 
 PTB  HN ES       20 3 15.23                             131    0.24 9  147 260 
 PTB  HZ I        20 3 20.60         8.4 0.18            134            147 260 
 YPLC HZ EP       20 2 56.69                             126   -0.37 9  175 151 
 YPLC HE ES       20 3 21.37                             126    1.47 9  175 151 
 YPLC HZ I        20 3 27.63         4.7 0.36            131            175 151 
 ZAR  HZ EP       20 3  0.50                             121    0.52 9  205 293 
 ZAR  HN ES       20 3 25.38                             121    0.29 9  205 293 
 ZAR  HZ I        20 3 34.01         9.1 0.14            125            205 293 
 NOR  HZ EP       20 3  2.80                             118   -0.29 8  233 235 
 NOR  HE ES       20 3 30.79                             118    0.17 8  233 235 
 NOR  HZ I        20 3 32.60         6.7 0.16            121            233 235 
 CHI  HZ EP       20 3  4.91                             116   -0.08 8  247 195 
 CHI  HN ES       20 3 33.36                             116   -0.65 8  247 195 
 CHI  HZ I        20 3 37.67         2.7 0.34            120            247 195 
 GUY2CHZ EP       20 3 11.48                             111    0.46 7  300 235 
 GUY2CHE ES       20 3 44.86                             111    0.13 7  300 235 
 GUY2CHZ I        20 3 53.85         5.4 0.52                           300 235 
 PRA  HZ EP       20 3 20.95                             106    0.03 6  390 210 
 PRA  HE ES       20 4  2.56                             106    0.20 6  390 210 
 PRA  HZ I        20 4  9.41         2.8 0.36            109            390 210 
                                                                                
