 2015 11 8 2217 54.4 L   6.767 -73.077142.5  RSN  7 0.4 1.8LRSN                1
 GAP=147        0.98       4.2     4.5  6.6 -0.1143E+01  0.1006E+02  0.1916E+01E
 Epicentro: LOS SANTOS - SANTANDER                                             3
 ACTION:UPD 15-12-28 16:09 OP:cam  STATUS:               ID:20151108221754 L   I
 OLDACT:UP  15-11-09 05:04 OP:mh   STATUS:               ID:20151108220752d    3
 OLDACT:UP  15-11-09 05:02 OP:mh   STATUS:               ID:20151108220752d    3
 OLDACT:DUP 15-11-09 05:02 OP:mh   STATUS:               ID:20151108220752d    3
 OLDACT:REG 15-11-09 03:16 OP:mh   STATUS:               ID:20151108220750     3
 2015-11-08-2207-50M.COL___310                                                 6
 STAT SP IPHASW D HRMM SECON CODA AMPLIT PERI AZIMU VELO AIN AR TRES W  DIS CAZ7
 BAR2 EZ EP       2218 13.39                             171   -0.2810 22.5 211 
 BAR2 EZ ES       2218 28.50                             171   -0.1610 22.5 211 
 BAR2 EZ I        2218 29.58        19.3 0.20            167           22.5 211 
 PAM  EZ EP       2218 16.23                             151    0.0110 75.8  33 
 PAM  EN ES       2218 33.56                             151    0.3510 75.8  33 
 PAM  EZ I        2218 35.49         6.9 0.46            154           75.8  33 
 BRR  HZ EP   1   2218 15.31                             149   -0.44 7 79.7 298 
 BRR  HN ES       2218 32.36                             149   -0.0110 79.7 298 
 BRR  HZ I        2218 35.39        15.3 0.34            146           79.7 298 
 RUS  HZ EP       2218 17.33                             144   -0.2610 96.6 180 
 RUS  HN ES       2218 36.05                             144    0.4010 96.6 180 
 RUS  HZ I        2218 37.05         4.6 0.16            146           96.6 180 
 SPBC HZ EP       2218 22.39                             128   -0.51 9  165 222 
 SPBC HN ES       2218 45.16                             128    0.07 9  165 222 
 SPBC HZ I        2218 52.40         9.0 0.18            128            165 222 
 ZAR  HZ EP   1   2218 28.74                             121    1.18 6  213 292 
 ZAR  HN ES       2218 52.86                             121   -0.53 8  213 292 
 ZAR  HZ I        2219  1.69         8.4 0.30            121            213 292 
 HEL  HZ EP   1   2218 35.48                             114    0.26 6  279 257 
 HEL  HN ES       2219  7.72                             114    0.69 7  279 257 
 HEL  HZ I        2219 11.91         5.0 0.28            114            279 257 
 GUY2CHN ES   4   2219 14.07                             111    1.42 0  305 236 
                                                                                
