 2010 11 8 2345 11.9 L   6.755 -73.187139.5  RSN  4 0.2 1.4LRSN                1
 GAP=154        0.54       3.6     7.2  7.2 -0.5808E+01 -0.1107E+02  0.2732E+01E
 Epicentro: VILLANUEVA - SANTANDER                                             3
 ACTION:UP  10-12-17 16:51 OP:REBC STATUS:               ID:20101108234511 L   I
 2010-11-08-2342-55S.COL___129                                                 6
 STAT SP IPHASW D HRMM SECON CODA AMPLIT PERI AZIMU VELO SNR AR TRES W  DIS CAZ7
 BAR2 SZ EP       2345 30.36                             172    -0.410   18 179 
 BAR2 SZ ES   2   2345 45.32                             172     0.0 5   18 179 
 BAR2 SZ I        2345 47.20         9.6 0.36                            18 179 
 BRR  HZ EP       2345 32.45                             151     0.110   70 304 
 BRR  HN ES   2   2345 48.24                             151     0.0 5   70 304 
 BRR  HZ I        2345 52.85         7.0 0.27                            70 304 
 RUS  HZ EP       2345 34.86                             144     0.110   96 173 
 RUS  HZ I        2345 35.54         1.8 0.07                            96 173 
 RUS  HN ES   3   2345 53.34                             144     0.8 2   96 173 
 GRA  SZ EP       2345 37.26                             134     0.110  132  19 
 GRA  SZ ES   1   2345 56.81                             134     0.0 7  132  19 
                                                                                
