 2015  4 8 2138 39.6 L   6.859 -73.162137.7  RSN  8 0.5 1.6LRSN                1
 GAP=241        1.09       5.2     5.4  7.2  0.7030E+01  0.1014E+02  0.6316E+01E
 Epicentro: ZAPATOCA - SANTANDER                                               3
 ACTION:UPD 15-06-03 16:53 OP:cam  STATUS:               ID:20150408213839 L   I
 OLDACT:REG 15-04-09 02:42 OP:fm   STATUS:               ID:20150408213748     3
 2015-04-08-2137-48M.COL___269                                                 6
 STAT SP IPHASW D HRMM SECON CODA AMPLIT PERI AZIMU VELO AIN AR TRES W  DIS CAZ7
 BAR2 EZ EP       2138 57.81                             167   -0.6310 29.5 184 
 BAR2 EZ ES   1   2139 14.01                             167    0.90 7 29.5 184 
 BAR2 EZ I        2139 16.73         5.7 0.12            169           29.5 184 
 BRR  HZ EP   1   2138 59.94                             153    0.29 7 66.7 294 
 BRR  HN ES       2139 15.47                             153    0.2110 66.7 294 
 BRR  HZ I        2139 24.27        11.8 0.28            152           66.7 294 
 RUS  HZ EP       2139  3.08                             140   -0.0210  107 175 
 RUS  HN ES       2139 21.20                             140   -0.2110  107 175 
 RUS  HZ I        2139 24.19         4.0 0.46            147            107 175 
 PTB  HZ EP       2139  5.98                             130    0.06 9  147 256 
 PTB  HN ES       2139 25.43                             130   -0.99 9  147 256 
 PTB  HZ I        2139 32.89         5.9 0.42            133            147 256 
 SPBC HZ EP       2139  7.89                             126   -0.02 9  167 217 
 SPBC HE ES       2139 30.22                             126    0.25 9  167 217 
 SPBC HZ I        2139 34.99         8.2 0.16            131            167 217 
 ZAR  HZ EP   1   2139 11.80                             121    0.66 6  200 291 
 ZAR  HN ES       2139 35.64                             121   -0.07 9  200 291 
 ZAR  HZ I        2139 43.35         4.8 0.12            125            200 291 
 NOR  HZ EP       2139 14.90                             116   -0.26 8  237 233 
 NOR  HN ES       2139 42.82                             116   -0.06 8  237 233 
 NOR  HZ I        2139 46.74         2.7 0.26            121            237 233 
 GUY2CHZ EP       2139 23.44                             110    0.30 7  303 234 
 GUY2CHN ES       2139 57.95                             110    0.87 7  303 234 
 GUY2CHZ I        2140  5.78         2.8 0.74                           303 234 
                                                                                
