 2011  8 8 2220 57.0 L   6.771 -73.151147.0  RSN  5 0.1 1.9LRSN                1
 GAP=137        0.31       3.4     4.1  4.8  0.1586E+00 -0.1855E+01  0.8911E+00E
 Epicentro: LOS SANTOS - SANTANDER                                             3
 ACTION:UPD 12-07-25 14:07 OP:epov STATUS:               ID:20110808222057 L   I
 2011-08-08-2218-32S.COL___144                                                 6
 STAT SP IPHASW D HRMM SECON CODA AMPLIT PERI AZIMU VELO AIN AR TRES W  DIS CAZ7
 BAR2 SZ EP   2   2221 16.69                             172   -0.08 5 20.1 190 
 BAR2 SZ I        2221 16.99        14.7 0.10                          20.1 190 
 BAR2 SZ ES   2   2221 32.32                             172    0.17 5 20.1 190 
 BRR  HZ EP   2   2221 18.24                             152   -0.15 5 72.3 301 
 BRR  HZ I        2221 18.69        22.8 0.14                          72.3 301 
 BRR  HN ES   2   2221 35.04                             152    0.00 5 72.3 301 
 PAM  SZ EP   2   2221 19.56                             150    0.00 5 80.2  38 
 RUS  HZ EP   1   2221 20.81                             145    0.11 7 97.4 176 
 RUS  HN ES   2   2221 38.91                             145   -0.23 5 97.4 176 
 RUS  HZ I        2221 40.67        10.5 0.36                          97.4 176 
 NOR  SN ES   2   2222  0.38                             119    0.05 4  232 235 
                                                                                
