 2013  7 8 2221  8.1 L   6.709 -73.256143.4  RSN  5 0.5 1.5LRSN                1
 GAP=169        1.04       7.1     9.4  9.9  0.3015E+02  0.1360E+02 -0.3991E+01E
 Epicentro: BARICHARA - SANTANDER                                              3
 ACTION:UPD 13-08-12 10:36 OP:ep   STATUS:               ID:20130708222108 L   I
 OLDACT:REG 13-07-08 21:21 OP:jn   STATUS:               ID:20130708221959     3
 2013-07-08-2219-59M.COL___264                                                 6
 STAT SP IPHASW D HRMM SECON CODA AMPLIT PERI AZIMU VELO AIN AR TRES W  DIS CAZ7
 BAR2 SZ ES   1   2221 42.15                             174   -0.12 7 15.3 148 
 BRR  HZ EP       2221 28.96                             153    0.2210 66.9 311 
 BRR  HN ES   1   2221 45.69                             153    0.84 7 66.9 311 
 BRR  HZ I        2221 49.75         8.1 0.46            149           66.9 311 
 RUS  HZ EP       2221 31.22                             146    0.2110 92.3 168 
 RUS  HN ES   1   2221 48.20                             146   -0.70 7 92.3 168 
 RUS  HZ I        2221 51.03         3.0 0.26            147           92.3 168 
 PTB  HZ EP       2221 33.79                             134    0.1610  134 262 
 PTB  HE ES   1   2221 53.07                             134   -0.49 7  134 262 
 PTB  HZ I        2222  2.04         5.4 0.30            132            134 262 
 SML  HE ES   1   2222 12.97                             116   -0.95 6  248 339 
                                                                                
