 2014  9 8 2215 21.6 L   6.786 -73.121153.9  RSN 10 0.5 1.8LRSN                1
 GAP=140        1.09       4.1     5.3  7.7 -0.1123E+01  0.7118E+01 -0.1142E+01E
 Epicentro: LOS SANTOS - SANTANDER                                             3
 ACTION:UPD 14-10-03 23:03 OP:nd   STATUS:               ID:20140908221521 L   I
 OLDACT:REG 14-09-09 03:32 OP:fm   STATUS:               ID:20140908220817     3
 2014-09-08-2208-17M.COL___266                                                 6
 STAT SP IPHASW D HRMM SECON CODA AMPLIT PERI AZIMU VELO AIN AR TRES W  DIS CAZ7
 BAR2 SZ EP       2215 42.29                             171    0.1310 22.5 197 
 BAR2 SZ ES   1   2215 58.21                             171   -0.01 7 22.5 197 
 BAR2 SZ I        2216  0.34         6.7 0.28            168           22.5 197 
 BRR  HZ EP   1   2215 43.28                             153   -0.49 7 74.3 299 
 BRR  HN ES       2216  1.48                             153    0.4010 74.3 299 
 PAM  SZ EP       2215 45.48                             152    0.8610 76.9  37 
 PAM  SE ES       2216  2.63                             152    0.0210 76.9  37 
 PAM  SZ I        2216  4.84         9.6 0.54            156           76.9  37 
 RUS  HZ EP       2215 45.71                             146   -0.3010 98.9 178 
 RUS  HE ES       2216  4.51                             146   -0.5610 98.9 178 
 PTB  HN ES   1   2216 10.67                             133   -0.47 7  150 260 
 PTB  HZ I        2216 16.52         6.9 0.24            131            150 260 
 SPBC HZ EP       2215 50.76                             131    0.01 9  164 220 
 SPBC HN ES   1   2216 14.09                             131    0.58 7  164 220 
 SPBC HZ I        2216 22.09         7.6 0.14            130            164 220 
 ZAR  HN ES   1   2216 21.25                             124    0.42 6  207 292 
 ZAR  HZ I        2216 27.47         4.8 0.58            123            207 292 
 NOR  HE ES   1   2216 26.62                             120    0.34 6  236 235 
 NOR  HZ I        2216 30.83         4.5 0.22            120            236 235 
 SML  HZ EP   1   2215 58.88                             119   -0.05 6  246 335 
 SML  HN ES       2216 27.12                             119   -0.95 8  246 335 
 SML  HZ I        2216 34.29         5.3 0.26            119            246 335 
 GUY2CHZ EP   4   2216  8.03                             114    2.32 0  303 235 
 GUY2CHE ES   4   2216 44.57                             114    4.43 0  303 235 
 GUY2CHZ I        2216 49.28         3.3 0.38                           303 235 
                                                                                
