 2017  8 8 2337 21.3 L   6.828 -73.140142.8  RSN 23 0.6 2.3LRSN                1
 GAP=109        1.30       3.3     3.5  6.1  0.5026E+00  0.3416E+01 -0.1156E+01E
 Epicentro: LOS SANTOS - SANTANDER                                             3
 ACTION:UPD 17-09-04 20:18 OP:rebc STATUS:               ID:20170808233721 L   I
 OLDACT:UP  17-08-09 06:14 OP:edw  STATUS:               ID:20170808232738     3
 OLDACT:UP  17-08-09 06:12 OP:edw  STATUS:               ID:20170808232738     3
 OLDACT:REG 17-08-09 03:13 OP:edw  STATUS:               ID:20170808232738     3
 2017-08-08-2328-00M.COL___402                                                 6
 STAT SP IPHASW D HRMM SECON CODA AMPLIT PERI AZIMU VELO AIN AR TRES W  DIS CAZ7
 BAR2 EZ IP     C 2337 40.64                             169    0.0510 26.5 190 
 BAR2 EZ ES       2337 55.35                             169   -0.3210 26.5 190 
 BAR2 EZ I        2337 56.66        73.6 0.22            166           26.5 190 
 BRR  HZ IP     C 2337 42.54                             152    0.5210 70.3 296 
 BRR  HE ES       2337 59.65                             152    1.4210 70.3 296 
 BRR  HZ I        2338  3.89        64.0 0.14            149           70.3 296 
 RUS  HZ EP       2337 44.68                             142   -0.2610  104 177 
 RUS  HN ES       2338  2.55                             142   -0.8610  104 177 
 RUS  HZ I        2338  3.82        47.3 0.24            142            104 177 
 PTB  HZ EP       2337 47.86                             131   -0.23 9  149 258 
 PTB  HN ES       2338  8.30                             131   -0.72 9  149 258 
 PTB  HZ I        2338 10.76        20.6 0.66            129            149 258 
 TAM  HZ EP       2337 49.10                             130    0.39 9  155 106 
 TAM  HN ES       2338 10.31                             130    0.18 9  155 106 
 TAM  HZ I        2338 11.02        23.9 0.22            132            155 106 
 SPBC HN ES   4   2338 10.91                             128   -1.15 0  166 218 
 YPLC HZ IP     D 2337 51.08                             125    0.01 9  179 152 
 YPLC HN ES       2338 14.07                             125   -0.26 9  179 152 
 YPLC HZ I        2338 17.40        24.2 0.30            126            179 152 
 ZAR  HZ EP       2337 53.66                             122    0.22 9  203 291 
 ZAR  HN ES   4   2338 19.62                             122    1.07 0  203 291 
 ZAR  HZ I        2338 24.98        44.7 0.52            121            203 291 
 NOR  HZ EP   4   2337 59.89                             117    2.83 0  237 234 
 NOR  HN ES       2338 25.06                             117    0.07 8  237 234 
 NOR  HZ I        2338 27.82        10.9 0.38            116            237 234 
 CHI  HZ EP       2337 59.05                             116   -0.08 8  252 195 
 CHI  HN ES       2338 28.21                             116   -0.47 8  252 195 
 CHI  HZ I        2338 34.40         6.2 0.30            116            252 195 
 ROSC BZ EP   4   2338  1.19                             116    1.65 0  256 211 
 ROSC BN ES   4   2338 31.22                             116    1.82 0  256 211 
 ROSC BZ I        2338 36.52        13.2 0.55            115            256 211 
 HEL  HZ EP   4   2338  4.22                             114    2.75 0  273 255 
 HEL  HN ES       2338 32.60                             114   -0.24 8  273 255 
 HEL  HZ I        2338 41.54         7.9 0.26            113            273 255 
 URE  HZ EP   9   2338  2.04                             113   -0.07 0  283 291 
 URE  HN ES       2338 32.85                             112   -1.06 7  283 291 
 URE  HZ I        2338 46.86        16.5 0.32            112            283 291 
 GUY2CHZ EP   4   2338  6.62                             111    1.63 0  304 234 
 GUY2CHE ES       2338 40.32                             111    1.22 7  304 234 
 GUY2CHZ I        2338 46.00         7.3 0.28                           304 234 
 VIL  EZ EP   4   2338  3.95                             111   -0.95 0  307 192 
 VIL  EE ES       2338 39.92                             111    0.98 7  307 192 
 VIL  EZ I        2338 47.13        13.0 0.34            111            307 192 
 LL6C HZ EP       2338  6.69                             110    0.22 7  322 357 
 LL6C HN ES       2338 40.65                             110   -1.09 7  322 357 
 CBOC HZ EP   4   2338  9.97                             109    1.75 0  335 252 
 CBOC HN ES       2338 44.18                             109   -0.68 7  335 252 
 CBOC HZ I        2338 49.76         4.3 0.52            109            335 252 
 DBB  EZ EP       2338  9.04                             109    0.39 7  340 274 
 DBB  EN ES   4   2338 44.65                             109   -0.98 0  340 274 
 DBB  EZ I        2338 47.16         8.3 0.34            108            340 274 
 ARGC HZ EP   4   2338 11.92                             108    1.45 0  356 340 
 ARGC HN ES       2338 48.67                             108   -0.20 6  356 340 
 PRA  HZ EP       2338 15.18                             106    0.15 6  395 209 
 PRA  HN ES       2338 56.50                             106   -0.47 6  395 209 
 PRA  HZ I        2339  2.46        11.3 0.38            106            395 209 
 ORTC HZ EP       2338 15.59                             106    0.18 6  398 216 
 ORTC HN ES       2338 57.42                             106   -0.24 6  398 216 
 ORTC HZ I        2339  3.70         5.7 0.44            105            398 216 
 SJC  HZ EP     C 2338 15.62                             105   -0.83 6  407 327 
 SJC  HN ES   4   2338 56.78                             105   -2.72 0  407 327 
 SJC  HZ I        2339  0.95        10.6 0.62            105            407 327 
 PAL  HZ EP       2338 16.92                             105    0.35 6  408 239 
 PAL  HE ES   4   2338 56.80                             105   -2.91 0  408 239 
 PAL  HZ I        2339 11.03         2.7 0.70            105            408 239 
 SMAR HZ EP       2338 26.93                             102    0.23 4  494 346 
 SMAR HN ES   4   2339 14.70                             102   -3.05 0  494 346 
                                                                                
