 2013  7 8 2021 31.7 L   6.360 -73.653110.9  RSN  4 0.3 1.5LRSN                1
 GAP=153        0.82       6.1     5.6 10.8  0.2039E+02  0.7568E+01  0.3611E+01E
 Epicentro: SANTA HELENA DEL OPON - SANTANDER                                  3
 ACTION:UPD 13-08-12 10:36 OP:ep   STATUS:               ID:20130708202131 L   I
 OLDACT:REG 13-07-08 21:19 OP:jn   STATUS:               ID:20130708201959     3
 2013-07-08-2019-59M.COL___264                                                 6
 STAT SP IPHASW D HRMM SECON CODA AMPLIT PERI AZIMU VELO AIN AR TRES W  DIS CAZ7
 RUS  HZ EP     D 2021 51.06                             141    0.4010 81.5 129 
 RUS  HN ES   1   2022  5.08                             141   -0.38 7 81.5 129 
 RUS  HZ I        2022  8.73         6.7 0.36            144           81.5 129 
 BRR  HZ EP       2021 50.24                             140    0.1610 82.9 356 
 BRR  HN ES   1   2022  4.24                             140   -0.17 7 82.9 356 
 PTB  HZ EP       2021 50.25                             137   -0.5010 91.0 283 
 PTB  HN ES   1   2022  6.07                             137    0.45 7 91.0 283 
 PTB  HZ I        2022  7.20         7.9 0.42            142           91.0 283 
 ZAR  HE ES   1   2022 21.70                             116   -0.01 7  183 313 
                                                                                
