 2010  3 8 2244 49.0 L   6.777 -73.115148.0  RSN  8 0.4 2.2LRSN                1
 GAP=186        0.93       3.4     6.3  6.4 -0.5834E-01  0.9940E+01  0.3606E+01E
 Epicentro: LOS SANTOS - SANTANDER                                             3
 ACTION:UP  10-08-24 09:52 OP:vdl  STATUS:               ID:20100308224449 L   I
 2010-03-08-2244-27S.COL___101                                                 6
 STAT SP IPHASW D HRMM SECON CODA AMPLIT PERI AZIMU VELO SNR AR TRES W  DIS CAZ7
 BAR2 SZ EP       2245  8.58                             171    -0.310   22 200 
 BAR2 SZ ES   2   2245 23.67                             171    -0.7 5   22 200 
 BRR  HZ EP       2245 10.62                             152    -0.110   75 299 
 BRR  HE ES       2245 27.84                             152     0.310   75 299 
 BRR  HZ I        2245 32.45        23.9 0.20                            75 299 
 RUS  BZ EP       2245 12.64                             145    -0.210   98 178 
 RUS  BE ES       2245 31.54                             145     0.210   98 178 
 RUS  BZ I        2245 32.84        11.1 0.39                            98 178 
 OCA  SZ EP       2245 17.45                             130    -0.4 9  163 352 
 OCA  SZ ES   1   2245 41.02                             130     0.8 7  163 352 
 OCA  SZ I        2245 47.59        32.3 0.22                           163 352 
 CHI  HZ EP       2245 26.68                             118     0.0 8  247 196 
 CHI  HE ES   1   2245 56.60                             118     0.5 6  247 196 
 CHI  HZ I        2246  4.67         6.0 0.52                           247 196 
 GUY  HZ EP   1   2245 33.73                             113     0.8 5  303 236 
 GUY  HE ES       2246  6.58                             113    -0.6 7  303 236 
 DBB  SZ EP       2245 37.00                             110     0.0 7  343 275 
 DBB  SZ ES   2   2246 13.34                             110    -1.1 3  343 275 
 PRA  HZ EP       2245 42.82                             107     0.2 6  391 210 
 PRA  HN ES       2246 24.66                             107     0.3 6  391 210 
 PRA  HZ I        2246 30.46         9.0 0.24                           391 210 
                                                                                
