 2016 12 8 2009 10.2 L   6.819 -73.168135.4  RSN  9 0.5 1.5LRSN                1
 GAP=133        1.23       4.7     4.8  7.5 -0.6995E+00  0.1116E+02  0.1078E+02E
 Epicentro: LOS SANTOS - SANTANDER                                             3
 ACTION:UPD 17-01-11 20:13 OP:rebc STATUS:               ID:20161208200910 L   I
 OLDACT:REG 16-12-09 02:48 OP:cog  STATUS:               ID:20161208200747     3
 2016-12-08-2008-00M.COL___376                                                 6
 STAT SP IPHASW D HRMM SECON CODA AMPLIT PERI AZIMU VELO AIN AR TRES W  DIS CAZ7
 BAR2 HE ES       20 9 43.75                             169    0.7210 25.1 184 
 BRR  HZ EP       20 9 30.39                             152    0.3010 68.1 298 
 BRR  HE ES       20 9 45.01                             152   -0.5610 68.1 298 
 BRR  HZ I        20 9 51.06        11.4 0.22            150           68.1 298 
 PAM  EZ EP       20 9 31.38                             149    0.0210 77.4  42 
 PAM  EN ES       20 9 48.07                             149    0.2410 77.4  42 
 PAM  EZ I        20 9 48.90         5.8 0.32            154           77.4  42 
 RUS  HZ EP       20 9 32.40                             141   -0.7510  103 175 
 RUS  HE ES       20 9 50.52                             141   -0.5110  103 175 
 RUS  HZ I        20 9 52.61         3.4 0.15            143            103 175 
 PTB  HZ EP       20 9 36.15                             130   -0.04 9  146 258 
 PTB  HN ES       20 9 56.20                             130   -0.24 9  146 258 
 PTB  HZ I        2010  1.91         3.9 0.14            130            146 258 
 ZAR  HE ES       2010  6.35                             120    0.10 9  201 292 
 ZAR  HZ I        2010 15.00         4.4 0.26            121            201 292 
 NOR  HZ EP       20 9 44.83                             116   -0.47 8  234 234 
 NOR  HE ES       2010 12.57                             116   -0.08 8  234 234 
 NOR  HZ I        2010 14.74         3.7 0.18            118            234 234 
 CHI  HZ EP       20 9 47.16                             115   -0.38 8  250 195 
 CHI  HE ES       2010 17.51                             115    0.88 8  250 195 
 CHI  HZ I        2010 23.83         1.8 0.60            117            250 195 
 GUY2CHZ EP       20 9 54.43                             110    1.13 7  300 234 
 GUY2CHN ES       2010 27.21                             110    0.33 7  300 234 
 GUY2CHZ I        2010 34.94         1.9 0.60                           300 234 
                                                                                
