 2016  2 8 2159 25.4 L   6.823 -73.136144.3  RSN  6 0.2 1.5LRSN                1
 GAP=137        0.63       3.2     3.3  4.9  0.2550E+01  0.1759E+01 -0.2246E+00E
 Epicentro: LOS SANTOS - SANTANDER                                             3
 ACTION:UPD 16-03-04 21:24 OP:rebc STATUS:               ID:20160208215925 L   I
 OLDACT:DUP 16-02-09 05:35 OP:cara STATUS:               ID:20160208215749d    3
 OLDACT:REG 16-02-09 04:12 OP:cara STATUS:               ID:20160208215748     3
 2016-02-08-2157-48M.COL___331                                                 6
 STAT SP IPHASW D HRMM SECON CODA AMPLIT PERI AZIMU VELO AIN AR TRES W  DIS CAZ7
 BAR2 EZ EP       2159 44.87                             169   -0.0410 26.0 191 
 BAR2 EZ ES       22 0  0.42                             169    0.2910 26.0 191 
 BAR2 EZ I        22 0  2.56         7.6 0.20            167           26.0 191 
 PAM  EZ EP       2159 47.20                             151   -0.1010 74.8  40 
 RUS  HZ EP       2159 49.34                             143    0.1610  103 177 
 RUS  HN ES       22 0  7.43                             143   -0.3110  103 177 
 RUS  HZ I        22 0  8.60         3.7 0.28            143            103 177 
 PTB  HZ EP       2159 52.19                             131   -0.19 9  149 258 
 PTB  HN ES       22 0 13.08                             131   -0.35 9  149 258 
 PTB  HZ I        22 0 15.32         4.1 0.32            130            149 258 
 ZAR  HN ES       22 0 23.31                             122    0.33 9  204 291 
 ZAR  HZ I        22 0 29.02         4.0 0.56            122            204 291 
 CHI  HZ EP       22 0  3.32                             117    0.01 8  251 195 
 CHI  HE ES       22 0 33.23                             117    0.35 8  251 195 
 CHI  HZ I        22 0 37.91         1.9 0.30            117            251 195 
                                                                                
