 2013  3 8 2001  6.2 L   6.768 -73.151139.1  RSN  6 0.5 1.6LRSN                1
 GAP=137        0.98       6.2     5.5  9.3  0.1018E+00  0.8057E+01 -0.3664E+01E
 Epicentro: LOS SANTOS - SANTANDER                                             3
 ACTION:UPD 13-04-09 14:00 OP:ep   STATUS:               ID:20130308200106 L   I
 2013-03-08-2000-00M.COL___231                                                 6
 STAT SP IPHASW D HRMM SECON CODA AMPLIT PERI AZIMU VELO AIN AR TRES W  DIS CAZ7
 BAR2 SZ ES   1   20 1 39.20                             172   -0.40 7 19.8 190 
 BRR  HZ EP   1   20 1 26.87                             151    0.16 7 72.4 301 
 BRR  HN ES   1   20 1 43.35                             151    0.64 7 72.4 301 
 BRR  HZ I        20 1 45.13        11.2 0.22            149           72.4 301 
 PAM  SZ EP       20 1 27.82                             149   -0.1010 80.5  38 
 PAM  SE ES   1   20 1 44.56                             149   -0.29 7 80.5  38 
 PAM  SZ I        20 1 46.97         4.2 0.58            150           80.5  38 
 RUS  HZ EP   1   20 1 29.56                             143    0.50 7 97.1 176 
 RUS  HN ES   1   20 1 47.24                             143    0.36 7 97.1 176 
 RUS  HZ I        20 1 48.86         5.4 0.40            146           97.1 176 
 PTB  HZ EP   1   20 1 31.87                             131   -0.66 7  147 260 
 PTB  HN ES   1   20 1 52.25                             131   -0.81 7  147 260 
 PTB  HZ I        20 1 55.13         6.0 0.16            131            147 260 
 ZAR  HE ES   1   20 2  4.02                             121    0.67 6  205 293 
 ZAR  HZ I        20 2 10.48         5.6 0.28            121            205 293 
                                                                                
