 2016 12 8 2039 15.0 L   6.807 -73.112152.0  RSN  8 0.5 1.6LRSN                1
 GAP=140        1.17       4.7     5.8  9.0  0.4662E+00  0.1951E+02  0.8270E+01E
 Epicentro: LOS SANTOS - SANTANDER                                             3
 ACTION:UPD 17-01-11 20:13 OP:rebc STATUS:               ID:20161208203915 L   I
 OLDACT:UP  16-12-09 04:54 OP:cog  STATUS:               ID:20161208203742     3
 OLDACT:UP  16-12-09 04:52 OP:cog  STATUS:               ID:20161208203742     3
 OLDACT:REG 16-12-09 02:54 OP:cog  STATUS:               ID:20161208203742     3
 2016-12-08-2038-00M.COL___376                                                 6
 STAT SP IPHASW D HRMM SECON CODA AMPLIT PERI AZIMU VELO AIN AR TRES W  DIS CAZ7
 BRR  HZ EP       2039 35.87                             153   -1.1610 74.1 297 
 BRR  HE ES       2039 54.36                             153    0.1810 74.1 297 
 PAM  EZ EP       2039 38.10                             153    0.3410 74.5  38 
 PAM  EE ES       2039 55.58                             153    0.0910 74.5  38 
 PAM  EZ I        2039 56.06         4.4 0.18            149           74.5  38 
 RUS  HZ EP       2039 39.62                             145    0.1710  101 178 
 RUS  HE ES       2039 58.39                             145   -0.1010  101 178 
 RUS  HZ I        2039 59.21         4.9 0.32            141            101 178 
 PTB  HZ EP       2039 42.38                             133   -0.48 9  151 259 
 PTB  HZ I        2040  5.55         4.3 0.16            125            151 259 
 ZAR  HZ EP       2039 48.35                             123    0.13 8  207 292 
 ZAR  HN EP       2039 49.42                             123            207 292 
 ZAR  HE ES       2040 14.61                             123    0.51 8  207 292 
 ZAR  HZ I        2040 19.48         5.8 0.40            117            207 292 
 NOR  HZ EP       2039 52.16                             119    0.66 8  238 235 
 NOR  HE ES       2040 19.76                             119   -0.18 8  238 235 
 CHI  HE ES       2040 23.30                             118    0.20 8  250 196 
 GUY2CHZ EP   4   2039 57.24                             113   -2.09 0  305 235 
 GUY2CHN ES   4   2040 35.12                             113    1.25 0  305 235 
 GUY2CHZ I        2040 42.05         1.7 0.44                           305 235 
                                                                                
