 2015  3 8 2012 53.0 L   6.799 -73.164141.5  RSN 13 0.4 2.0LRSN                1
 GAP=134        0.93       2.7     4.3  5.3 -0.2637E+01  0.4499E+01  0.2922E+01E
 Epicentro: LOS SANTOS - SANTANDER                                             3
 ACTION:UPD 15-04-30 16:24 OP:nd   STATUS:               ID:20150308201253 L   I
 OLDACT:UP  15-03-09 04:54 OP:mh   STATUS:               ID:20150308200750     3
 OLDACT:UP  15-03-09 04:54 OP:mh   STATUS:               ID:20150308200750     3
 OLDACT:UP  15-03-09 04:53 OP:mh   STATUS:               ID:20150308200750     3
 OLDACT:REG 15-03-09 04:41 OP:mh   STATUS:               ID:20150308200750     3
 2015-03-08-2007-50M.COL___281                                                 6
 STAT SP IPHASW D HRMM SECON CODA AMPLIT PERI AZIMU VELO AIN AR TRES W  DIS CAZ7
 BAR2 EZ EP       2013 12.24                             170    0.1510 23.0 185 
 BAR2 EZ ES   1   2013 26.49                             170   -0.51 7 23.0 185 
 BAR2 EZ I        2013 28.21        18.9 0.24            169           23.0 185 
 BRR  HZ EP       2013 13.88                             152    0.3110 69.5 299 
 BRR  HN ES       2013 30.42                             152    0.7810 69.5 299 
 BRR  HZ I        2013 35.01        17.6 0.20            150           69.5 299 
 PAM  SZ EP       2013 15.01                             150    0.1910 78.7  41 
 PAM  SN ES       2013 31.77                             150   -0.1010 78.7  41 
 PAM  SZ I        2013 34.27        32.4 0.48            154           78.7  41 
 RUS  HZ EP   1   2013 16.46                             143    0.14 7  101 175 
 RUS  HN ES   1   2013 34.68                             143    0.16 7  101 175 
 RUS  HZ I        2013 36.28        14.7 0.16            145            101 175 
 PTB  HZ EP       2013 19.07                             131   -0.35 9  146 259 
 PTB  HN ES       2013 39.66                             131   -0.39 9  146 259 
 PTB  HZ I        2013 42.87         7.3 0.10            131            146 259 
 OCA  HZ EP   1   2013 20.49                             129   -0.46 7  160 354 
 OCA  HN ES   1   2013 41.82                             129   -0.94 7  160 354 
 OCA  HZ I        2013 47.51         9.9 0.20            130            160 354 
 SPBC HZ EP       2013 21.31                             128    0.28 9  162 218 
 SPBC HN ES   1   2013 42.23                             128   -0.68 7  162 218 
 SPBC HZ I        2013 45.45        20.4 0.38            129            162 218 
 SML  HZ EP   1   2013 28.55                             117   -0.74 6  243 336 
 SML  HN ES       2013 57.99                             117    0.38 8  243 336 
 CHI  HZ EP       2013 30.46                             116    0.08 8  248 195 
 CHI  HN ES       2013 59.32                             116   -0.23 8  248 195 
 CHI  HZ I        2014  3.07         6.4 0.42            118            248 195 
 HEL  HZ EP   4   2013 34.24                             114    1.48 0  270 256 
 HEL  HN ES   4   2014  2.45                             114   -1.34 0  270 256 
 HEL  HZ I        2014 10.98         4.1 0.46            115            270 256 
 GUY2CHZ EP   1   2013 36.91                             112    0.71 5  300 235 
 GUY2CHE ES   1   2014  9.58                             112   -0.34 5  300 235 
 GUY2CHZ I        2014 18.04         4.4 0.28                           300 235 
 TOL  SZ EP   1   2013 41.06                             109    0.17 5  342 224 
 TOL  SN ES   1   2014 19.12                             109    0.85 5  342 224 
 TOL  SZ I        2014 25.67         4.4 0.50            110            342 224 
 PRA  HZ EP       2013 46.26                             106    0.03 6  391 209 
 PRA  HN ES   1   2014 27.33                             106   -0.43 4  391 209 
 PRA  HZ I        2014 34.04         4.1 0.22            107            391 209 
                                                                                
