 2017  7 8 2327 41.9 L   5.943 -73.759110.0  RSN  8 0.4 1.6LRSN                1
 GAP=186        0.96       3.8     3.8  6.8 -0.6900E+01  0.4951E+01 -0.2351E+01E
 Epicentro: SUCRE - SANTANDER                                                  3
 ACTION:UPD 17-08-30 15:31 OP:rebc STATUS:               ID:20170708232741 L   I
 OLDACT:REG 17-07-09 02:55 OP:dhb  STATUS:               ID:20170708231737     3
 2017-07-08-2318-00M.COL___380                                                 6
 STAT SP IPHASW D HRMM SECON CODA AMPLIT PERI AZIMU VELO AIN AR TRES W  DIS CAZ7
 SPBC HZ EP       2327 57.57                             155   -0.3710 47.3 227 
 SPBC HN ES       2328 10.46                             155   -0.0310 47.3 227 
 SPBC HZ I        2328 12.44         7.5 0.16            155           47.3 227 
 BAR2 EZ EP       2328  1.59                             136    0.0310 96.0  42 
 BAR2 EZ ES       2328 17.32                             136    0.4010 96.0  42 
 PTB  HZ EP       2328  1.82                             134    0.0910  101 311 
 PTB  HN ES       2328 17.00                             134   -0.2210  101 311 
 PTB  HZ I        2328 18.02         6.5 0.36            134            101 311 
 BRR  HZ EP       2328  3.90                             127   -0.3510  129   2 
 BRR  HN ES       2328 22.08                             127    0.3610  129   2 
 BRR  HZ I        2328 25.85         7.0 0.22            128            129   2 
 NOR  HZ IP     C 2328  4.14                             126   -0.3010  130 251 
 NOR  HN ES       2328 21.80                             126   -0.2410  130 251 
 NOR  HZ I        2328 25.34         7.6 0.24            127            130 251 
 GUY2CHZ EP       2328 11.72                             115   -0.12 9  195 246 
 GUY2CHE ES       2328 35.79                             115    0.58 9  195 246 
 GUY2CHZ I        2328 40.15         3.1 0.34                           195 246 
 HEL  HZ EP   2   2328 12.39                             114    0.36 4  198 278 
 HEL  HN ES       2328 36.38                             114    0.83 9  198 278 
 HEL  HZ I        2328 41.79         3.3 0.24            115            198 278 
 ZAR  HZ EP   2   2328 13.51                             113    0.58 4  210 325 
 ZAR  HN ES       2328 36.41                             113   -0.76 8  210 325 
 ZAR  HZ I        2328 38.64         6.7 0.21            114            210 325 
                                                                                
