 2017  1 8 2117  9.7 L   6.715 -73.135146.3  RSN  9 0.4 1.7LRSN                1
 GAP=141        0.91       3.7     3.8  5.4 -0.1756E+01  0.5255E+01  0.2099E+01E
 Epicentro: JORDAN - SANTANDER                                                 3
 ACTION:UPD 17-05-22 15:57 OP:jn   STATUS:               ID:20170108211709 L   I
 OLDACT:UP  17-01-09 03:51 OP:edw  STATUS:               ID:20170108210751d    3
 OLDACT:DUP 17-01-09 03:47 OP:edw  STATUS:               ID:20170108210751d    3
 2017-01-08-2108-00M.COL___371                                                 6
 STAT SP IPHASW D HRMM SECON CODA AMPLIT PERI AZIMU VELO AIN AR TRES W  DIS CAZ7
 BAR2 EZ EP     C 2117 29.23                             174   -0.0510 14.5 201 
 BAR2 EZ ES       2117 44.43                             174   -0.1010 14.5 201 
 BAR2 EZ I        2117 46.67         9.1 0.28            173           14.5 201 
 BRR  HZ EP       2117 31.44                             151    0.1610 77.1 304 
 BRR  HN ES       2117 48.58                             151    0.4910 77.1 304 
 BRR  HZ I        2117 49.43         6.4 0.66            150           77.1 304 
 PAM  EZ IP     C 2117 32.44                             149    0.0210 84.2  35 
 PAM  EE ES       2117 49.65                             149   -0.4710 84.2  35 
 PAM  EZ I        2117 51.83         7.9 0.46            151           84.2  35 
 RUS  HZ EP       2117 33.16                             147    0.2810 91.1 176 
 RUS  HN ES       2117 51.04                             147    0.1010 91.1 176 
 RUS  HZ I        2117 52.37        10.6 0.30            148           91.1 176 
 PTB  HZ EP   9   2117 35.88                             132   -0.83 0  147 263 
 PTB  HN ES       2117 56.94                             132    0.02 9  147 263 
 PTB  HZ I        2117 59.08         4.8 0.12            132            147 263 
 ZAR  HZ EP       2117 43.51                             122    0.81 8  209 294 
 ZAR  HN ES       2118  7.86                             122   -0.56 8  209 294 
 ZAR  HZ I        2118 13.14         5.2 0.24            122            209 294 
 NOR  HZ EP       2117 44.36                             119   -0.67 8  230 237 
 NOR  HE ES       2118 12.18                             119   -0.37 8  230 237 
 NOR  HZ I        2118 17.39         3.6 0.32            120            230 237 
 CHI  HZ EP   2   2117 46.03                             118   -0.49 4  240 196 
 CHI  HN ES   2   2118 15.57                             118    0.36 4  240 196 
 GUY2CHZ EP   4   2117 54.24                             113    1.37 0  297 236 
 GUY2CHN ES       2118 26.72                             113    0.20 7  297 236 
 GUY2CHZ  IAML    2118 35.37         1.9 0.32                           297 236 
                                                                                
