 2012  1 8 2354 34.7 L   6.777 -73.179139.3  RSN  8 0.4 1.9LRSN                1
 GAP=133        1.08       4.4     5.5  8.3 -0.2119E+01  0.9929E+01  0.3988E+01E
 Epicentro: LOS SANTOS - SANTANDER                                             3
 ACTION:UP  12-02-03 08:15 OP:REBC STATUS:               ID:20120108235434 L   I
 2012-01-08-2350-00M.COL___186                                                 6
 STAT SP IPHASW D HRMM SECON CODA AMPLIT PERI AZIMU VELO SNR AR TRES W  DIS CAZ7
 BAR2 SZ EP       2354 53.44                             171     0.010   20 181 
 BAR2 SZ ES   1   2355  8.60                             171     0.5 7   20 181 
 BAR2 SZ I        2355  9.33        16.7 0.30                            20 181 
 BRR  HZ EP       2354 55.22                             152     0.210   69 302 
 BRR  HZ I        2354 55.66        36.3 0.15                            69 302 
 BRR  HE ES   1   2355 11.67                             152     0.8 7   69 302 
 PAM  SZ EP       2354 56.23                             148    -0.210   82  40 
 PAM  SN ES       2355 12.89                             148    -0.610   82  40 
 RUS  HZ EP   1   2354 57.85                             143     0.2 7   98 174 
 RUS  HN ES   1   2355 15.57                             143     0.0 7   98 174 
 PTB  HZ EP       2355  0.26                             131    -0.5 9  144 260 
 PTB  HE ES   1   2355 20.35                             131    -0.7 7  144 260 
 OCA  SZ EP   1   2355  3.47                             128     0.8 7  162 355 
 OCA  SZ ES   1   2355 24.83                             128     0.3 7  162 355 
 OCA  SZ I        2355 28.77        11.4 0.19                           162 355 
 ZAR  HN ES   1   2355 31.13                             121    -0.1 6  202 293 
 ZAR  HZ I        2355 37.38        10.2 0.29                           202 293 
 CHI  HZ EP   1   2355 11.86                             116     0.2 6  245 194 
 CHI  HN ES   1   2355 40.75                             116     0.3 6  245 194 
 CHI  HZ I        2355 52.44         2.0 0.33                           245 194 
                                                                                
