 2012  7 8 2221  1.9 L   6.809 -73.144148.6  RSN 21 0.5 3.0LRSN                1
 GAP= 55        1.15       3.4     3.7  6.0 -0.6349E+00  0.3038E+01  0.2118E+01E
 Epicentro: LOS SANTOS - SANTANDER                                             3
 SPEC SD       MO  0.2 ST 16.6 OM  0.7 f00.630 R0.0811 AL      WI      MW  0.1 3
 SPEC TAM HH Z MO 14.4 ST  5.9 OM  1.9 f0 2.62 R0.5611 AL 2.02 WI 18.5 MW  3.5 3
 SPEC TAM HH Z T222129 K 0.000 GD  214 VP 7.60 DE 3.00 Q0230.0 QA 0.60 VS 4.20 3
 SPEC MON HH E MO 14.6 ST 10.2 OM  2.6 f0 2.75 R0.5345 AL 1.12 WI 31.5 MW  3.6 3
 SPEC MON HH E T222227 K 0.000 GD  383 VS 4.20 DE 3.00 Q0230.0 QA 0.60 VS 4.20 3
 SPEC ROSCBH Z MO 14.8 ST 17.2 OM  2.2 f0 2.68 R0.5485 AL 2.87 WI 28.7 MW  3.8 3
 SPEC ROSCBH Z T222141 K 0.000 GD  294 VP 7.60 DE 3.00 Q0230.0 QA 0.60 VS 4.20 3
 SPEC PTB HH N MO 14.3 ST  7.7 OM  2.6 f0 3.06 R0.4804 AL 2.21 WI 26.0 MW  3.5 3
 SPEC PTB HH N T222149 K 0.000 GD  209 VS 4.20 DE 3.00 Q0230.0 QA 0.60 VS 4.20 3
 SPEC RUS HH N MO 14.6 ST 29.6 OM  3.0 f0 3.71 R0.3962 AL 2.04 WI 33.1 MW  3.7 3
 SPEC RUS HH N T222143 K 0.000 GD  179 VS 4.20 DE 3.00 Q0230.0 QA 0.60 VS 4.20 3
 SPEC COD HH N MO 14.6 ST 16.8 OM  2.7 f0 3.02 R0.4868 AL 1.91 WI 35.8 MW  3.7 3
 SPEC COD HH N T222226 K 0.000 GD  377 VS 4.20 DE 3.00 Q0230.0 QA 0.60 VS 4.20 3
 SPEC CHI HH N MO 14.5 ST 27.5 OM  2.7 f0 3.88 R0.3789 AL 3.06 WI 54.3 MW  3.6 3
 SPEC CHI HH N T2222 7 K 0.000 GD  290 VS 4.20 DE 3.00 Q0230.0 QA 0.60 VS 4.20 3
 SPEC BRR HH N MO 14.7 ST 60.2 OM  3.1 f0 4.48 R0.3281 AL 2.52 WI 49.9 MW  3.7 3
 SPEC BRR HH N T222140 K 0.000 GD  164 VS 4.20 DE 3.00 Q0230.0 QA 0.60 VS 4.20 3
 ACTION:UPD 12-08-14 11:43 OP:ep   STATUS:               ID:20120708222101 L   I
 2012-07-08-2220-00M.COL___201                                                 6
 STAT SP IPHASW D HRMM SECON CODA AMPLIT PERI AZIMU VELO AIN AR TRES W  DIS CAZ7
 BAR2 SZ IP       2221 22.06                             170     0.210   24 190 
 BAR2 SZ ES   1   2221 37.07                             170    -0.4 7   24 190 
 BAR2 SZ I        2221 38.56       288.7 0.34                            24 190 
 BRR  HZ IP     C 2221 23.93                             153     0.610   71 298 
 BRR  HN ES   1   2221 40.83                             153     0.8 7   71 298 
 BRR  HZ I        2221 43.20       243.4 0.14                            71 298 
 PAM  SZ IP       2221 24.85                             152     0.510   77  40 
 PAM  SN ES   1   2221 42.01                             152     0.1 7   77  40 
 PAM  SZ I        2221 44.15       143.1 0.24                            77  40 
 RUS  HZ IP     D 2221 25.92                             144    -0.110  102 176 
 RUS  HN ES   1   2221 44.19                             144    -0.6 7  102 176 
 RUS  HZ I        2221 45.86        99.2 0.24                           102 176 
 PTB  HZ EP       2221 28.69                             133    -0.4 9  148 258 
 PTB  HN ES   1   2221 49.57                             133    -0.8 7  148 258 
 PTB  HZ I        2221 55.85       153.7 0.42                           148 258 
 TAM  HZ IP     D 2221 30.23                             131     0.4 9  155 105 
 TAM  HZ I        2221 30.28       150.3 0.34                           155 105 
 TAM  HN ES   1   2221 51.77                             131     0.2 7  155 105 
 OCA  HZ EP       2221 30.14                             130    -0.2 9  159 353 
 OCA  HE ES   1   2221 52.03                             130    -0.5 7  159 353 
 OCA  HZ I        2221 57.12       287.8 0.30                           159 353 
 YOP  SZ IP       2221 32.54                             127     0.3 9  180 153 
 YOP  SZ I        2221 33.31        65.8 0.50                           180 153 
 ZAR  HZ EP       2221 34.49                             123     0.0 9  204 292 
 ZAR  HN ES   1   2222  0.44                             123     0.5 6  204 292 
 ZAR  HZ I        2222  6.15       177.6 0.40                           204 292 
 NOR  SZ EP       2221 38.02                             119     0.1 8  235 234 
 NOR  SN ES   1   2222  5.46                             119    -0.5 6  235 234 
 CHI  HZ EP       2221 39.88                             118     0.0 8  250 195 
 CHI  HN ES   1   2222  9.06                             118    -0.4 6  250 195 
 CHI  HZ I        2222 13.23        54.9 0.44                           250 195 
 ROSC BZ EP   3   2221 41.73                             117     1.5 2  254 211 
 ROSC BZ I        2222 19.86       148.2 0.45                           254 211 
 HEL  HZ EP       2221 42.76                             115     0.5 8  272 256 
 HEL  HN ES   1   2222 14.33                             115     0.5 6  272 256 
 HEL  HZ I        2222 20.66        61.7 0.30                           272 256 
 VIL  SZ EP       2221 45.01                             112    -0.5 7  304 192 
 VIL  SN ES   1   2222 19.22                             112    -0.4 5  304 192 
 VIL  SZ I        2222 30.23        40.1 0.66                           304 192 
 DBB  SZ EP       2221 49.87                             110     0.4 7  340 274 
 TOL  SZ EP       2221 50.76                             110     0.4 7  344 225 
 COD  HZ EP       2221 49.80                             109    -0.5 6  347 355 
 COD  HN ES   1   2222 26.73                             109    -1.3 5  347 355 
 COD  HZ I        2222 32.61        45.5 0.34                           347 355 
 MON  HZ EP   3   2221 49.13                             109    -1.8 2  353 308 
 MON  HZ I        2222 43.82        52.5 0.42                           353 308 
 SDV  BZ EP       2221 51.20                             109    -0.8 6  360  50 
 SDV  BZ I        2221 53.06         5.5 0.30                           360  50 
 PRA  HZ EP       2221 55.35                             107    -0.3 6  393 210 
 PRA  HZ I        2222 43.59        89.6 0.40                           393 210 
 SJC  HZ EP   3   2221 55.82                             106    -1.7 1  409 327 
 SJC  HZ I        2222 56.28        20.9 0.56                           409 327 
