 2013 12 8 2044 45.8 L   6.777 -73.148147.1  RSN  7 0.4 1.4LRSN                1
 GAP=137        0.88       3.5     4.6  7.0 -0.1088E+01  0.3606E+01  0.4019E+01E
 Epicentro: LOS SANTOS - SANTANDER                                             3
 ACTION:UPD 14-01-13 10:16 OP:ep   STATUS:               ID:20131208204445 L   I
 OLDACT:UP  13-12-08 23:57 OP:mh   STATUS:               ID:20131208204000     3
 OLDACT:REG 13-12-08 23:02 OP:mh   STATUS:               ID:20131208204000     3
 2013-12-08-2040-00M.COL___285                                                 6
 STAT SP IPHASW D HRMM SECON CODA AMPLIT PERI AZIMU VELO AIN AR TRES W  DIS CAZ7
 BRR  HZ EP       2045  7.18                             152    0.0510 72.2 300 
 BRR  HE ES       2045 24.17                             152    0.3810 72.2 300 
 BRR  HZ I        2045 28.13         5.3 0.16            151           72.2 300 
 PAM  SZ EP       2045  8.51                             150    0.2510 79.5  39 
 PAM  SN ES   1   2045 25.19                             150   -0.61 7 79.5  39 
 RUS  HZ EP   1   2045  9.52                             145    0.04 7 98.1 176 
 RUS  HN ES       2045 27.87                             145   -0.1010 98.1 176 
 RUS  HZ I        2045 50.40         0.9 0.36                          98.1 176 
 PTB  HZ EP       2045 12.22                             132   -0.57 9  147 260 
 PTB  HN ES       2045 33.63                             132   -0.23 9  147 260 
 PTB  HZ I        2045 40.02         3.3 0.26            129            147 260 
 NOR  HZ EP   1   2045 21.61                             119    0.21 6  233 235 
 NOR  HN ES   1   2045 48.89                             119   -0.31 6  233 235 
 NOR  HZ I        2045 56.47         2.6 0.19            114            233 235 
 CHI  HZ EP   1   2045 22.77                             118   -0.51 6  246 195 
 CHI  HN ES       2045 53.29                             118    0.76 8  246 195 
 SML  HZ EP   4   2045 19.36                             117   -3.35 0  246 336 
 SML  HN ES   1   2045 52.02                             117    0.49 6  246 336 
 SML  HZ I        2046  1.12         6.3 0.09            112            246 336 
                                                                                
