 2017  9 8 2230 38.1 L   6.802 -73.139149.4  RSN  4 0.2 1.4LRSN                1
 GAP=137        0.51       2.8     4.1  4.1 -0.2034E+00 -0.1037E+01  0.4894E+00E
 Epicentro: LOS SANTOS - SANTANDER                                             3
 ACTION:UPD 17-10-05 19:10 OP:rebc STATUS:               ID:20170908223038 L   I
 OLDACT:REG 17-09-09 04:38 OP:osc  STATUS:               ID:20170908222746     3
 2017-09-08-2228-00M.COL___422                                                 6
 STAT SP IPHASW D HRMM SECON CODA AMPLIT PERI AZIMU VELO AIN AR TRES W  DIS CAZ7
 BAR2 EZ EP       2230 57.91                             171   -0.2710 23.7 192 
 BAR2 EZ ES       2231 13.56                             171   -0.2810 23.7 192 
 BAR2 EZ I        2231 14.02         6.7 0.29            171           23.7 192 
 BRR  HZ EP       2230 59.70                             153    0.0210 71.7 298 
 BRR  HN ES       2231 16.63                             153    0.1310 71.7 298 
 PAM  EZ EP       2231  0.72                             152    0.0510 76.7  39 
 PAM  EN ES       2231 18.36                             152    0.0910 76.7  39 
 PAM  EZ I        2231 19.97         6.8 0.50            151           76.7  39 
 RUS  HZ EP       2231  2.28                             144    0.0510  101 176 
 RUS  HN ES       2231 21.27                             144    0.2210  101 176 
 RUS  HZ I        2231 21.53         1.8 0.30            145            101 176 
                                                                                
