 2011 10 8 2237 48.0 L   6.818 -73.101146.0  RSN  4 0.3 1.4LRSN                1
 GAP=141        0.58       5.6     8.1  8.0  0.7065E+01  0.6511E+01  0.2974E+01E
 Epicentro: LOS SANTOS - SANTANDER                                             3
 ACTION:UPD 12-07-13 16:02 OP:ep   STATUS:               ID:20111008223748 L   I
 2011-10-08-2237-08S.COL___167                                                 6
 STAT SP IPHASW D HRMM SECON CODA AMPLIT PERI AZIMU VELO AIN AR TRES W  DIS CAZ7
 BAR2 SZ EP   1   2238  7.50                             169   -0.21 7 26.5 200 
 BAR2 SZ ES   2   2238 23.39                             169    0.29 5 26.5 200 
 BAR2 SZ I        2238 24.57         4.0 0.43                          26.5 200 
 PAM  SZ EP   2   2238  9.66                             152   -0.30 5 72.8  38 
 PAM  SN ES   2   2238 27.07                             152   -0.02 5 72.8  38 
 BRR  HZ EP       2238  9.73                             151    0.3710 74.7 295 
 BRR  HZ I        2238 17.35        11.3 0.33                          74.7 295 
 BRR  HN ES   2   2238 25.38                             151   -0.65 5 74.7 295 
 RUS  HZ EP   1   2238 11.73                             143   -0.16 7  102 179 
 RUS  HZ I        2238 12.85         1.7 0.17                           102 179 
 RUS  HE ES   2   2238 30.57                             143    0.04 5  102 179 
                                                                                
