 2011  2 8 2053 39.0 L   6.805 -73.149140.4  RSN  4 0.3 1.8LRSN                1
 GAP=301        0.48       7.9     8.5  8.1 -0.1139E+02  0.2865E+02  0.7713E+01E
 Epicentro: LOS SANTOS - SANTANDER                                             3
 ACTION:UP  11-03-28 15:07 OP:jfem STATUS:               ID:20110208205339 L   I
 2011-02-08-2051-00S.COL___130                                                 6
 STAT SP IPHASW D HRMM SECON CODA AMPLIT PERI AZIMU VELO SNR AR TRES W  DIS CAZ7
 BAR2 SZ EP   2   2053 57.54                             170    -0.4 5   24 189 
 BAR2 SZ ES   2   2054 13.17                             170     0.4 5   24 189 
 BAR2 SZ I        2054 14.68        24.5 0.27                            24 189 
 RUS  HZ EP   2   2054  2.46                             143     0.2 5  101 176 
 RUS  HN ES   2   2054 20.03                             143    -0.4 5  101 176 
 RUS  HZ I        2054 22.39         6.2 0.49                           101 176 
 NOR  SZ EP   2   2054 14.60                             117     0.2 4  235 234 
 NOR  SN ES   2   2054 41.84                             117    -0.2 4  235 234 
 CHI  HZ EP   2   2054 16.51                             116     0.1 4  249 195 
 CHI  HE ES   2   2054 45.84                             116     0.2 4  249 195 
 CHI  HZ I        2054 53.15         3.2 0.49                           249 195 
                                                                                
