 2013 11 8 2204 12.1 L   6.774 -73.152145.9  RSN  7 0.4 1.8LRSN                1
 GAP=137        1.08       4.9     4.6  7.0 -0.1041E+01  0.1107E+02  0.2589E+01E
 Epicentro: LOS SANTOS - SANTANDER                                             3
 ACTION:UPD 14-01-09 16:26 OP:ep   STATUS:               ID:20131108220412 L   I
 OLDACT:REG 13-11-09 04:15 OP:carl STATUS:               ID:20131108215847     3
 2013-11-08-2158-47M.COL___219                                                 6
 STAT SP IPHASW D HRMM SECON CODA AMPLIT PERI AZIMU VELO AIN AR TRES W  DIS CAZ7
 BAR2 SZ ES       22 4 47.58                             172    0.6610 20.4 189 
 BAR2 SZ I        22 4 47.84        21.1 0.18            172           20.4 189 
 BRR  HN ES       22 4 50.01                             152    0.2110 72.0 301 
 PAM  SZ EP       22 4 34.58                             150    0.1410 80.1  39 
 PAM  SN ES       22 4 51.35                             150   -0.5510 80.1  39 
 PAM  SZ I        22 4 53.72         8.7 0.64            151           80.1  39 
 RUS  HZ EP       22 4 35.73                             145    0.1110 97.8 176 
 RUS  HN ES       22 4 53.87                             145   -0.1210 97.8 176 
 RUS  HZ I        22 4 55.90         5.1 0.28            146           97.8 176 
 PTB  HZ EP       22 4 38.62                             132   -0.30 9  147 260 
 PTB  HN ES       22 4 58.93                             132   -0.94 9  147 260 
 ZAR  HZ EP       22 4 44.87                             122    0.32 9  204 293 
 ZAR  HN ES       22 5 10.28                             122    0.38 9  204 293 
 ZAR  HZ I        22 5 15.82         5.9 0.46            122            204 293 
 NOR  HZ EP       22 4 47.46                             119   -0.09 8  232 235 
 NOR  HN ES       22 5 15.52                             119    0.28 8  232 235 
 NOR  HZ I        22 5 18.61         5.6 0.22            119            232 235 
                                                                                
