 2010 11 8 2154 41.3 L   6.894 -73.134142.0  RSN  5 0.2 1.4LRSN                1
 GAP=159        0.60       4.2     7.2  7.8 -0.9524E+00 -0.1094E+02  0.1069E+02E
 Epicentro: LOS SANTOS - SANTANDER                                             3
 ACTION:UP  10-12-17 16:51 OP:REBC STATUS:               ID:20101108215441 L   I
 2010-11-08-2151-18S.COL___129                                                 6
 STAT SP IPHASW D HRMM SECON CODA AMPLIT PERI AZIMU VELO SNR AR TRES W  DIS CAZ7
 BTL  SZ EP       2155  0.59                             174     0.210   15 280 
 BAR2 SZ EP       2155  0.51                             166    -0.210   34 189 
 BAR2 SZ ES   2   2155 15.41                             166    -0.5 5   34 189 
 BAR2 SZ I        2155 17.27         9.1 0.30                            34 189 
 BRR  HZ EP       2155  1.76                             153    -0.110   68 290 
 BRR  HE ES   1   2155 18.06                             153     0.1 7   68 290 
 RUS  HZ EP       2155  5.51                             140     0.010  111 177 
 RUS  HN ES   2   2155 24.75                             140     0.4 5  111 177 
 RUS  HZ I        2155 26.26         2.2 0.48                           111 177 
 GRA  SZ ES   1   2155 24.18                             139     0.0 7  115  18 
 GRA  SZ I        2155 25.67         4.5 0.30                           115  18 
                                                                                
