 2011 10 8 2146 18.7 L   6.371 -73.626 88.0  RSN  5 0.2 1.3LRSN                1
 GAP=106        0.40       2.5     3.3  7.1  0.3696E+01  0.6005E+01  0.7345E+01E
 Epicentro: SANTA HELENA DEL OPON - SANTANDER                                  3
 ACTION:UPD 12-07-13 16:02 OP:ep   STATUS:               ID:20111008214618 L   I
 2011-10-08-2140-00M.COL___171                                                 6
 STAT SP IPHASW D HRMM SECON CODA AMPLIT PERI AZIMU VELO AIN AR TRES W  DIS CAZ7
 RUS  HZ EP       2146 35.63                             135    0.1710 80.1 131 
 RUS  HZ I        2146 35.91         4.2 0.19                          80.1 131 
 RUS  HN ES   2   2146 48.19                             135   -0.34 5 80.1 131 
 BRR  HZ EP       2146 34.79                             134   -0.1610 81.9 353 
 BRR  HZ I        2146 43.33         8.7 0.10                          81.9 353 
 BRR  HE ES       2146 47.72                             134    0.1010 81.9 353 
 GIR2 SZ EP   2   2146 35.96                             130   -0.09 5 91.7  31 
 NOR  SE ES   2   2147  2.98                             113   -0.02 5  164 237 
 ZAR  HE ES   2   2147  6.99                             111    0.01 4  184 312 
                                                                                
