 2017 11 8 2242 59.4 L   6.817 -73.119145.1  RSN  5 0.4 1.5LRSN                1
 GAP=242        1.05       8.2     7.6  7.7  0.3934E+02  0.4542E+01 -0.8250E+01E
 Epicentro: LOS SANTOS - SANTANDER                                             3
 ACTION:UPD 17-12-12 19:53 OP:rebc STATUS:               ID:20171108224259 L   I
 OLDACT:UP  17-11-09 04:43 OP:dhb  STATUS:               ID:20171108223740     3
 OLDACT:REG 17-11-09 03:19 OP:dhb  STATUS:               ID:20171108223740     3
 2017-11-08-2238-00M.COL___455                                                 6
 STAT SP IPHASW D HRMM SECON CODA AMPLIT PERI AZIMU VELO AIN AR TRES W  DIS CAZ7
 BAR2 EZ EP       2243 18.47                             169   -0.5010 25.9 196 
 BAR2 EZ ES       2243 33.71                             169   -0.5510 25.9 196 
 BAR2 EZ I        2243 34.92         9.0 0.30            163           25.9 196 
 BRR  HZ EP       2243 20.39                             152   -0.1510 73.0 296 
 BRR  HE ES       2243 37.77                             152    0.7110 73.0 296 
 BRR  HZ I        2243 40.24        18.7 0.36            148           73.0 296 
 RUS  HZ EP       2243 23.41                             143    0.2310  102 178 
 RUS  HN ES       2243 42.20                             143    0.4510  102 178 
 RUS  HZ I        2243 43.34         1.9 0.30            142            102 178 
 PTB  HZ EP       2243 26.63                             131    0.05 9  151 258 
 PTB  HE ES       2243 47.38                             131   -0.43 9  151 258 
 PTB  HZ I        2243 54.21         2.0 0.36            129            151 258 
 ZAR  HZ EP       2243 32.24                             122    0.26 8  206 291 
 ZAR  HE ES       2243 57.34                             122   -0.08 8  206 291 
 ZAR  HZ I        2244  0.04         3.3 0.32            122            206 291 
                                                                                
