 2013  2 8 2035 35.5 L   6.744 -73.176133.4  RSN  4 0.2 1.7LRSN                1
 GAP=222        0.52       9.7     4.1 11.1 -0.2217E+02  0.1139E+02  0.6274E+01E
 Epicentro: VILLANUEVA - SANTANDER                                             3
 ACTION:UPD 13-03-12 09:31 OP:ep   STATUS:               ID:20130208203535 L   I
 2013-02-08-2030-00M.COL___241                                                 6
 STAT SP IPHASW D HRMM SECON CODA AMPLIT PERI AZIMU VELO AIN AR TRES W  DIS CAZ7
 BRR  HZ EP   1   2035 55.78                             150    0.41 7 71.6 304 
 BRR  HN ES   4   2036 13.18                             150    2.33 0 71.6 304 
 BRR  HZ I        2036 13.21        11.9 0.32            159           71.6 304 
 PAM  SZ EP   1   2035 56.63                             146   -0.27 7 84.3  39 
 PAM  SZ ES   1   2036 13.60                             146    0.03 7 84.3  39 
 PAM  SZ I        2036 15.91        10.4 0.56            159           84.3  39 
 PTB  HN ES   1   2036 20.93                             130   -0.12 7  143 261 
 PTB  HZ I        2036 27.58         6.7 0.26            134            143 261 
 ZAR  HE ES   1   2036 31.68                             120   -0.10 6  203 294 
                                                                                
