 2017 10 8 2145 53.6 L   6.784 -73.141141.4  RSN  5 0.4 1.3LRSN                1
 GAP=138        0.82       4.6     7.3  7.5 -0.1138E+02  0.1563E+02 -0.4903E+01E
 Epicentro: LOS SANTOS - SANTANDER                                             3
 ACTION:UPD 17-11-07 19:29 OP:rebc STATUS:               ID:20171008214553 L   I
 OLDACT:REG 17-10-09 03:17 OP:edw  STATUS:               ID:20171008213742     3
 2017-10-08-2138-00M.COL___423                                                 6
 STAT SP IPHASW D HRMM SECON CODA AMPLIT PERI AZIMU VELO AIN AR TRES W  DIS CAZ7
 BAR2 EZ EP       2146 12.40                             171   -0.2310 21.7 192 
 BAR2 EZ ES       2146 27.05                             171   -0.4610 21.7 192 
 BAR2 EZ I        2146 28.54         3.6 0.26            171           21.7 192 
 PAM  EZ EP       2146 15.41                             150    0.0410 78.4  38 
 PAM  EN ES       2146 32.49                             150    0.1010 78.4  38 
 PAM  EZ I        2146 35.47         2.4 0.52            152           78.4  38 
 RUS  HZ EP       2146 16.55                             143   -0.2010 98.8 176 
 RUS  HN ES       2146 35.46                             143    0.6210 98.8 176 
 RUS  HZ I        2146 37.40         2.0 0.32            147           98.8 176 
 SPBC HE ES   2   2146 43.20                             128   -0.32 5  162 220 
 ZAR  HZ EP   2   2146 26.54                             121    0.70 4  205 293 
 ZAR  HE ES   2   2146 51.33                             121    0.30 4  205 293 
 ZAR  HZ I        2146 55.09         4.4 0.28            122            205 293 
                                                                                
