 2011  7 8 2318 19.3 L   6.759 -73.139140.2  RSN  4 0.5 1.4LRSN                1
 GAP=139        0.70       6.2    18.9 12.0 -0.3493E+02  0.2140E+01 -0.2520E+02E
 Epicentro: VILLANUEVA - SANTANDER                                             3
 ACTION:UPD 12-07-25 13:59 OP:epov STATUS:               ID:20110708231819 L   I
 2011-07-08-2315-38S.COL___139                                                 6
 STAT SP IPHASW D HRMM SECON CODA AMPLIT PERI AZIMU VELO AIN AR TRES W  DIS CAZ7
 BAR2 SZ EP   3   2318 37.86                             172   -0.27 2 19.1 195 
 BAR2 SZ ES   3   2318 52.29                             172   -0.57 2 19.1 195 
 BAR2 SZ I        2318 53.72         9.7 0.30                          19.1 195 
 BTL  SZ EP       2318 37.95                             172   -0.2510 22.6 321 
 BTL  SZ ES   3   2318 53.55                             172    0.57 2 22.6 321 
 PAM  SZ EP       2318 41.49                             147    0.4210 80.4  37 
 PAM  SN ES   3   2318 56.80                             147   -1.28 2 80.4  37 
 RUS  HZ EP       2318 41.88                             144   -0.2510 96.0 176 
 RUS  HN ES   1   2319  0.29                             144    0.32 7 96.0 176 
 RUS  HZ I        2319  1.96         2.9 0.38                          96.0 176 
                                                                                
