 2012  8 8 2245 44.6 L   6.718 -73.213141.8  RSN  5 0.2 1.3LRSN                1
 GAP=163        0.29       7.8     7.3  8.4  0.2731E+02 -0.4763E+01  0.2110E+01E
 Epicentro: VILLANUEVA - SANTANDER                                             3
 ACTION:UPD 12-09-10 11:55 OP:ep   STATUS:               ID:20120808224544 L   I
 2012-08-08-2240-00M.COL___218                                                 6
 STAT SP IPHASW D HRMM SECON CODA AMPLIT PERI AZIMU VELO AIN AR TRES W  DIS CAZ7
 BAR2 SZ EP   3   2246  3.45                             174   -0.11 2 14.3 166 
 BAR2 SZ ES   3   2246 18.30                             174   -0.07 2 14.3 166 
 BAR2 SZ I        2246 19.91        10.5 0.24                          14.3 166 
 GIR2 SZ EP   3   2246  3.97                             163   -0.06 2 39.9   3 
 BRR  HZ EP   3   2246  5.39                             152    0.19 2 69.9 308 
 RUS  HZ EP       2246  7.36                             145    0.0310 92.4 171 
 RUS  HN ES   3   2246 24.96                             145   -0.14 2 92.4 171 
 RUS  HZ I        2246 27.07         1.3 0.32                          92.4 171 
 PTB  HZ EP   3   2246  9.91                             133   -0.49 2  139 262 
 PTB  HN ES   3   2246 30.77                             133    0.22 2  139 262 
                                                                                
