 2016 11 8 2141 14.8 L   6.822 -73.182148.9  RSN 12 0.5 2.6LRSN                1
 GAP=137        1.15       4.1     4.8  6.5 -0.3554E+01  0.7300E+01  0.9786E+01E
 Epicentro: ZAPATOCA - SANTANDER                                               3
 ACTION:UPD 17-10-26 21:06 OP:lp   STATUS:               ID:20161108214114 L   I
 OLDACT:REG 16-11-09 03:16 OP:cog  STATUS:               ID:20161108213748     3
 2016-11-08-2138-00M.COL___349                                                 6
 STAT SP IPHASW D HRMM SECON CODA AMPLIT PERI AZIMU VELO AIN AR TRES W  DIS CAZ7
 BAR2 HZ EP       2141 34.64                             170   -0.2110 25.4 180 
 BAR2 HE ES       2141 50.10                             170   -0.3910 25.4 180 
 BAR2 HZ I        2141 51.33       109.4 0.20            169           25.4 180 
 BRR  HZ EP       2141 36.34                             155    0.3010 66.5 298 
 BRR  HE ES       2141 53.42                             155    0.8210 66.5 298 
 BRR  HZ I        2141 57.81        55.3 0.18            154           66.5 298 
 PAM  HZ EP       2141 37.56                             151    0.1610 78.2  43 
 PAM  HE ES       2141 54.87                             151   -0.1510 78.2  43 
 PAM  HZ I        2141 56.89        26.0 0.40            156           78.2  43 
 PTB  HZ EP       2141 41.02                             133   -0.70 9  144 258 
 PTB  HE ES       2142  2.63                             133   -0.09 9  144 258 
 PTB  HZ I        2142  4.49        45.8 0.16            134            144 258 
 ZAR  HZ EP       2141 47.22                             124    0.24 9  199 292 
 ZAR  HN ES       2142 11.70                             124   -0.38 9  199 292 
 ZAR  HZ I        2142 17.85        49.4 0.42            125            199 292 
 NOR  HZ EP       2141 50.36                             119   -0.17 8  233 233 
 NOR  HE ES       2142 17.72                             119   -0.67 8  233 233 
 NOR  HZ I        2142 24.64        25.5 0.18            121            233 233 
 CHI  HZ EP       2141 52.69                             118   -0.14 8  250 194 
 CHI  HN ES       2142 22.25                             118   -0.23 8  250 194 
 CHI  HZ I        2142 24.41        17.7 0.37            120            250 194 
 ROSC BZ EP       2141 53.53                             117    0.42 8  253 210 
 ROSC BN ES       2142 23.91                             117    0.93 8  253 210 
 ROSC BZ I        2142 29.03        40.6 0.45            119            253 210 
 URE  HZ EP       2141 55.21                             115   -0.30 7  279 292 
 URE  HN ES   4   2142 25.33                             115   -1.93 0  279 292 
 URE  HZ I        2142 27.30        24.5 0.12            116            279 292 
 ELA  HZ EP   4   2142  3.71                             111    2.08 0  328 229 
 ELA  HN ES   4   2142 39.77                             111    1.62 0  328 229 
 ANIL HZ EP   4   2142  6.74                             109    2.13 0  356 224 
 ANIL HN ES       2142 44.38                             109    0.92 6  356 224 
 PRA  HZ EP       2142  9.05                             107    0.59 6  392 209 
 PRA  HE ES       2142 48.92                             107   -1.39 6  392 209 
 ORTC HZ EP       2142  9.08                             107    0.29 6  395 215 
 ORTC HN ES       2142 51.39                             107    0.49 6  395 215 
                                                                                
