 2012  8 8 2156 20.0 L   6.729 -73.210144.0  RSN  5 0.3 1.4LRSN                1
 GAP=166        0.44       5.4     4.8  7.0  0.7081E+01 -0.8336E+01  0.1323E+02E
 Epicentro: VILLANUEVA - SANTANDER                                             3
 ACTION:UPD 12-09-10 11:55 OP:ep   STATUS:               ID:20120808215620 L   I
 2012-08-08-2150-00M.COL___219                                                 6
 STAT SP IPHASW D HRMM SECON CODA AMPLIT PERI AZIMU VELO AIN AR TRES W  DIS CAZ7
 BAR2 SZ EP   3   2156 38.18                             173   -1.13 2 15.4 169 
 BAR2 SZ ES   3   2156 54.09                             173   -0.26 2 15.4 169 
 BAR2 SZ I        2156 55.41         8.7 0.38                          15.4 169 
 GIR2 SZ ES   3   2156 54.61                             165   -0.46 2 38.7   3 
 BRR  HZ EP       2156 40.80                             153   -0.0910 69.5 307 
 BRR  HN ES   1   2156 57.46                             153    0.30 7 69.5 307 
 BRR  HZ I        2156 58.68         8.7 0.14                          69.5 307 
 RUS  HZ EP       2156 43.19                             146    0.0910 93.5 171 
 RUS  HZ I        2156 44.23         3.1 0.16                          93.5 171 
 RUS  HN ES   3   2157  1.39                             146    0.29 2 93.5 171 
 PTB  HZ EP   2   2156 45.90                             134   -0.20 5  139 261 
 PTB  HN ES   1   2157  6.37                             134   -0.06 7  139 261 
 PTB  HZ I        2157 11.51         2.4 0.16                           139 261 
                                                                                
