 2017  1 8 2348 43.5 L   6.693 -73.196150.9  RSN  4 0.2 0.9LRSN                1
 GAP=223        0.66       5.4     5.4  5.5  0.1517E+02  0.6123E+01  0.2909E+01E
 Epicentro: VILLANUEVA - SANTANDER                                             3
 ACTION:UPD 17-05-22 15:57 OP:jn   STATUS:               ID:20170108234843 L   I
 OLDACT:REG 17-01-09 03:03 OP:edw  STATUS:               ID:20170108234744     3
 2017-01-08-2348-00M.COL___365                                                 6
 STAT SP IPHASW D HRMM SECON CODA AMPLIT PERI AZIMU VELO AIN AR TRES W  DIS CAZ7
 BAR2 EZ ES       2349 18.92                             176   -0.3410 11.2 172 
 BRR  HZ EP       2349  5.22                             153   -0.1210 73.2 309 
 BRR  HE ES       2349 22.69                             153    0.3310 73.2 309 
 RUS  HZ EP       2349  7.33                             148    0.3010 89.3 172 
 RUS  HN ES       2349 25.40                             148    0.0410 89.3 172 
 RUS  HZ I        2349 26.99         0.9 0.28            147           89.3 172 
 PTB  HZ EP       2349 10.02                             135   -0.25 9  140 263 
 PTB  HN ES       2349 31.15                             135    0.01 9  140 263 
 PTB  HZ I        2349 32.87         1.7 0.14            134            140 263 
                                                                                
