 2012 10 8 2130 26.0 L   5.912 -73.666118.1  RSN  5 0.2 1.7LRSN                1
 GAP=140        0.39       3.7     6.9  8.3  0.1171E+02  0.4552E+02  0.1071E+02E
 Epicentro: PUENTE NACIONAL - SANTANDER                                        3
 ACTION:UPD 12-11-22 17:02 OP:ep   STATUS:               ID:20121008213026 L   I
 2012-10-08-2130-00M.COL___223                                                 6
 STAT SP IPHASW D HRMM SECON CODA AMPLIT PERI AZIMU VELO AIN AR TRES W  DIS CAZ7
 RUS  HZ EP   1   2130 44.61                             150    0.07 7 64.5  92 
 RUS  HN ES   1   2130 58.78                             150   -0.20 7 64.5  92 
 RUS  HN I        2130 59.57         3.9 0.30                          64.5  92 
 BAR2 SZ EP   1   2130 46.07                             139   -0.08 7 92.3  35 
 BAR2 SZ ES   1   2131  2.08                             139    0.24 7 92.3  35 
 BAR2 SZ I        2131  3.09        27.0 0.50                          92.3  35 
 BRR  HZ EP   1   2130 49.23                             128   -0.13 7  132 358 
 BRR  HZ I        2130 49.70        11.8 0.10                           132 358 
 CHI  HZ EP   2   2130 51.10                             126    0.25 5  142 183 
 ZAR  HN ES   2   2131 23.75                             114   -0.05 4  219 323 
 ZAR  HZ I        2131 29.36         4.2 0.28                           219 323 
                                                                                
