 2017  1 8 2241 14.2 L   6.798 -73.097143.5  RSN  8 0.4 1.5LRSN                1
 GAP=143        1.01       4.6     4.5  6.1 -0.6212E+00  0.6276E+01  0.1140E+01E
 Epicentro: LOS SANTOS - SANTANDER                                             3
 ACTION:UPD 17-05-22 15:57 OP:jn   STATUS:               ID:20170108224114 L   I
 OLDACT:UP  17-01-09 04:17 OP:edw  STATUS:               ID:20170108223744     3
 OLDACT:UP  17-01-09 04:17 OP:edw  STATUS:               ID:20170108223744     3
 OLDACT:REG 17-01-09 02:59 OP:edw  STATUS:               ID:20170108223744     3
 2017-01-08-2238-00M.COL___371                                                 6
 STAT SP IPHASW D HRMM SECON CODA AMPLIT PERI AZIMU VELO AIN AR TRES W  DIS CAZ7
 BAR2 EZ EP       2241 33.40                             170   -0.1910 24.6 202 
 BAR2 EZ ES       2241 48.38                             170   -0.3410 24.6 202 
 BAR2 EZ I        2241 54.24         5.9 0.18            169           24.6 202 
 PAM  EZ IP     C 2241 36.13                             152    0.1310 74.3  36 
 PAM  EN ES       2241 53.03                             152    0.0410 74.3  36 
 PAM  EZ I        2241 53.82         6.4 0.24            155           74.3  36 
 BRR  HZ IP     C 2241 35.26                             150   -0.1310 76.0 297 
 BRR  HE ES       2241 52.18                             150    0.2610 76.0 297 
 RUS  HZ EP       2241 37.58                             144   -0.1210  100 179 
 RUS  HN ES       2241 56.35                             144    0.3210  100 179 
 RUS  HZ I        2241 58.00         3.8 0.38            146            100 179 
 PTB  HZ EP   9   2241 40.31                             130   -1.16 0  153 259 
 PTB  HN ES       2242  1.80                             130    0.22 9  153 259 
 PTB  HZ I        2242  5.16         4.0 0.12            131            153 259 
 ZAR  HZ EP       2241 47.97                             121    0.94 8  209 292 
 ZAR  HN ES       2242 12.06                             121   -0.57 8  209 292 
 ZAR  HZ I        2242 18.83         3.7 0.13            123            209 292 
 NOR  HZ EP       2241 49.47                             118   -0.79 8  239 235 
 NOR  HE ES       2242 18.84                             118    0.45 8  239 235 
 NOR  HZ I        2242 20.98         3.2 0.20            119            239 235 
 GUY2CHZ EP   4   2242  0.04                             112    1.85 0  305 235 
 GUY2CHE ES   4   2242 33.56                             112    1.06 0  305 235 
 GUY2CHZ  IAML    2242 39.01         2.2 0.28                           305 235 
                                                                                
