 2014  3 8 2023 11.5 L   6.803 -73.172142.2  RSN  4 0.5 1.5LRSN                1
 GAP=133        1.09       5.9     6.3 10.2 -0.3111E+01  0.3334E+01  0.9351E+01E
 Epicentro: LOS SANTOS - SANTANDER                                             3
 ACTION:UPD 14-04-09 23:15 OP:nd   STATUS:               ID:20140308202311 L   I
 OLDACT:REG 14-03-08 21:53 OP:cam  STATUS:               ID:20140308201816     3
 2014-03-08-2018-16M.COL___235                                                 6
 STAT SP IPHASW D HRMM SECON CODA AMPLIT PERI AZIMU VELO AIN AR TRES W  DIS CAZ7
 BRR  HZ EP       2023 32.29                             153    0.2210 68.5 299 
 BRR  HN ES       2023 48.81                             153    0.6610 68.5 299 
 BRR  HZ I        2023 53.10         7.0 0.26            153           68.5 299 
 PAM  SZ EP     D 2023 33.51                             150    0.1110 79.0  41 
 PAM  SE ES       2023 49.99                             150   -0.5210 79.0  41 
 RUS  HZ EP       2023 35.16                             143    0.2610  101 174 
 RUS  HN ES       2023 53.16                             143   -0.0310  101 174 
 RUS  HZ I        2023 55.16         2.8 0.28            146            101 174 
 PTB  HZ EP   1   2023 37.34                             132   -0.54 7  145 258 
 PTB  HN ES   1   2023 57.61                             132   -0.88 7  145 258 
 PTB  HZ I        2024  0.68         5.5 0.20            134            145 258 
                                                                                
