 2011  3 8 2013 24.0 L   6.769 -73.179132.8  RSN 14 0.5 3.6LRSN                1
 GAP=133        1.04       3.5     5.6  8.4 -0.2312E+01  0.1877E+02  0.6781E+01E
 Epicentro: LOS SANTOS - SANTANDER                                             3
 ACTION:UP  11-06-16 14:32 OP:jfem STATUS:               ID:20110308201324 L   I
 2011-03-08-2009-43S.COL___101                                                 6
 STAT SP IPHASW D HRMM SECON CODA AMPLIT PERI AZIMU VELO SNR AR TRES W  DIS CAZ7
 BAR2 SZ IP       2013 42.29                             171     0.310   20 182 
 BAR2 SZ ES   1   2013 56.09                             171     0.1 7   20 182 
 BAR2 SZ I        2013 59.92      1087.5 0.26                            20 182 
 GRA  SZ IP       2013 49.16                             133     0.710  130  19 
 GRA  SZ ES   1   2014  7.80                             133     0.2 7  130  19 
 GRA  SZ I        2014  9.93       349.3 0.41                           130  19 
 OCA  SZ EP   1   2013 50.73                             126    -0.9 7  163 355 
 OCA  SZ ES   1   2014 12.09                             126    -1.1 7  163 355 
 OCA  SZ I        2014 19.31       544.1 0.38                           163 355 
 YOP  SZ IP       2013 52.95                             123     0.0 9  178 152 
 YOP  SN ES   1   2014 15.24                             123    -0.4 7  178 152 
 YOP  SZ I        2014 17.81       302.0 0.31                           178 152 
 CHI  HZ EP   1   2014  0.38                             115    -0.1 6  244 195 
 CHI  HN ES   1   2014 29.14                             115     0.1 6  244 195 
 CHI  HZ I        2014 32.93       304.6 0.43                           244 195 
 HEL  HZ EP   1   2014  3.61                             112     0.5 6  268 256 
 HEL  HE ES   1   2014 32.98                             112    -0.6 6  268 256 
 HEL  HZ I        2014 41.46       295.4 0.23                           268 256 
 GUY  SZ EP       2014  6.58                             110     0.1 7  296 235 
 GUY  SN ES   2   2014 40.12                             110     0.5 4  296 235 
 GUY  SZ I        2014 48.87       496.6 0.33                           296 235 
 VIL  SZ EP       2014  5.77                             110    -0.6 7  299 191 
 VIL  SE ES   1   2014 39.45                             110     0.0 5  299 191 
 VIL  SZ I        2014 42.85       229.5 0.34                           299 191 
 RREF HZ EP   1   2014  9.05                             109     0.0 5  317 229 
 RREF HE ES   1   2014 44.05                             109    -0.1 5  317 229 
 RREF HZ I        2014 54.46       464.1 0.32                           317 229 
 DBB  SZ EP       2014 11.28                             107     0.7 7  336 275 
 DBB  SZ I        2014 49.67        82.0 0.30                           336 275 
 TOL  SZ EP   1   2014 10.94                             107    -0.2 5  338 225 
 SDV  BZ IP   4 C 2014 11.68                             106    -2.5 0  365  50 
 PRA  HZ EP   2   2014 15.71                             104    -0.8 3  387 209 
 PRA  HE ES   2   2014 57.27                             104    -0.2 3  387 209 
 PCON HZ EP   3   2014 43.23                              98    -0.3 1  607 216 
 PCON HZ I        2014 44.18        21.7 0.35                           607 216 
 SOTA HZ EP   1   2014 47.00                              97    -0.2 2  638 217 
 SOTA HZ I        2016  2.61        17.6 0.73                           638 217 
                                                                                
