 2011  2 8 2025  7.1 L   6.792 -73.190140.2  RSN  5 0.4 1.7LRSN                1
 GAP=154        0.60       5.9    17.5  9.3 -0.7737E+02  0.8067E+02 -0.2326E+02E
 Epicentro: ZAPATOCA - SANTANDER                                               3
 ACTION:UP  11-03-28 15:07 OP:jfem STATUS:               ID:20110208202507 L   I
 2011-02-08-2020-00M.COL___138                                                 6
 STAT SP IPHASW D HRMM SECON CODA AMPLIT PERI AZIMU VELO SNR AR TRES W  DIS CAZ7
 BAR2 SZ EP   2   2025 26.15                             170     0.1 5   22 178 
 BAR2 SZ ES   2   2025 40.21                             170    -0.6 5   22 178 
 BAR2 SZ I        2025 43.05        21.2 0.24                            22 178 
 RUS  HZ EP   2   2025 30.22                             143     0.0 5  100 173 
 RUS  HN ES   2   2025 48.62                             143     0.3 5  100 173 
 RUS  HZ I        2025 50.12         3.8 0.28                           100 173 
 GRA  SZ EP       2025 31.96                             135    -0.110  128  19 
 GRA  SZ ES   2   2025 51.93                             135     0.4 5  128  19 
 GRA  SZ I        2025 52.93         8.3 0.41                           128  19 
 NOR  SZ EP   2   2025 42.21                             118     0.2 4  230 234 
 CHI  HZ EP   2   2025 43.54                             116    -0.7 4  247 194 
 CHI  HN ES   2   2026 13.75                             116     0.5 4  247 194 
 CHI  HZ I        2026 17.17         3.3 0.58                           247 194 
                                                                                
