 2013  2 8 2339 38.2 L   6.805 -73.161145.4  RSN  9 0.4 2.0LRSN                1
 GAP=134        0.78       3.3     4.5  6.0  0.7798E+00  0.6266E+01  0.1211E+01E
 Epicentro: LOS SANTOS - SANTANDER                                             3
 ACTION:UPD 13-03-12 09:31 OP:ep   STATUS:               ID:20130208233938 L   I
 2013-02-08-2338-50M.COL___177                                                 6
 STAT SP IPHASW D HRMM SECON CODA AMPLIT PERI AZIMU VELO AIN AR TRES W  DIS CAZ7
 BAR2 SZ EP   1   2339 57.87                             170    0.04 7 23.6 186 
 BAR2 SZ ES   1   2340 12.86                             170   -0.25 7 23.6 186 
 BAR2 SZ I        2340 14.66        20.9 0.10            170           23.6 186 
 BRR  HZ EP   1   2339 59.61                             153    0.36 7 69.5 299 
 BRR  HN ES   1   2340 16.44                             153    0.80 7 69.5 299 
 BRR  HZ I        2340 19.57        23.7 0.40            152           69.5 299 
 PAM  SZ EP   1   2340  0.76                             151    0.30 7 78.1  41 
 PAM  SN ES   1   2340 17.52                             151   -0.27 7 78.1  41 
 PAM  SZ I        2340 19.73        23.2 0.46            154           78.1  41 
 RUS  HZ EP   1   2340  1.95                             144   -0.05 7  101 175 
 RUS  HN ES   1   2340 20.65                             144    0.11 7  101 175 
 RUS  HZ I        2340 21.84        10.8 0.36            146            101 175 
 PTB  HZ EP   1   2340  4.61                             132   -0.43 7  146 259 
 PTB  HN ES   1   2340 25.30                             132   -0.64 7  146 259 
 PTB  HZ I        2340 27.01        11.0 0.20            132            146 259 
 OCA  HN ES   1   2340 28.12                             130   -0.34 7  160 354 
 ZAR  HZ EP   1   2340 11.10                             122    0.62 6  202 292 
 ZAR  HE ES   1   2340 35.73                             122    0.10 6  202 292 
 ZAR  HZ I        2340 42.21        13.4 0.46            123            202 292 
 SML  HZ EP   1   2340 14.07                             117   -0.65 6  243 336 
 CHI  HZ EP   1   2340 16.26                             117    0.34 6  249 195 
 CHI  HN ES   1   2340 45.09                             117   -0.23 6  249 195 
 CHI  HZ I        2340 49.19         3.1 0.62            119            249 195 
                                                                                
