 2011 10 8 2026 10.4 L   6.826 -73.081142.0  RSN  9 0.4 2.3LRSN                1
 GAP=144        0.76       3.0     4.2  5.2 -0.6466E+00  0.6710E+01 -0.1323E+00E
 Epicentro: LOS SANTOS - SANTANDER                                             3
 ACTION:UPD 12-07-13 16:02 OP:ep   STATUS:               ID:20111008202610 L   I
 2011-10-08-2020-00M.COL___171                                                 6
 STAT SP IPHASW D HRMM SECON CODA AMPLIT PERI AZIMU VELO AIN AR TRES W  DIS CAZ7
 BAR2 SZ EP       2026 29.92                             168    0.2010 28.2 203 
 BAR2 SZ ES   1   2026 44.61                             168   -0.16 7 28.2 203 
 BAR2 SZ I        2026 45.93        22.1 0.37                          28.2 203 
 GIR2 SZ EP   1   2026 29.69                             167    0.05 7 30.6 336 
 PAM  SZ EP   1   2026 32.38                             153    0.52 7 70.7  37 
 PAM  SN ES       2026 48.73                             153    0.1610 70.7  37 
 BRR  HZ IP     C 2026 31.53                             150    0.0510 76.3 294 
 BRR  HZ I        2026 31.78        45.2 0.10                          76.3 294 
 BRR  HN ES       2026 48.35                             150    0.4610 76.3 294 
 RUS  HZ EP       2026 33.70                             142   -0.3110  103 180 
 RUS  HE ES       2026 52.17                             142   -0.2310  103 180 
 OCA  SZ EP       2026 37.96                             129   -0.32 9  158 350 
 OCA  SZ ES   1   2026 59.40                             129   -0.60 7  158 350 
 OCA  SZ I        2027  4.02        20.0 0.25                           158 350 
 ZAR  HZ EP   1   2026 43.58                             121    0.36 6  210 291 
 ZAR  HN ES   1   2027  8.00                             121   -0.79 6  210 291 
 ZAR  HZ I        2027 13.48        28.2 0.30                           210 291 
 NOR  SZ EP   1   2026 46.65                             117   -0.11 6  242 235 
 NOR  SE ES   1   2027 15.45                             117    0.36 6  242 235 
 HEL  HZ EP   1   2026 51.53                             113    0.22 6  280 256 
 HEL  HZ I        2027 28.47         9.4 0.44                           280 256 
                                                                                
