 2012  8 8 2327 17.8 L   6.714 -73.110137.2  RSN  5 0.4 1.6LRSN                1
 GAP=178        0.71      19.4     8.8 12.5 -0.1324E+03 -0.4142E+02  0.1381E+03E
 Epicentro: JORDAN - SANTANDER                                                 3
 ACTION:UPD 12-09-10 11:55 OP:ep   STATUS:               ID:20120808232717 L   I
 2012-08-08-2319-44M.COL___213                                                 6
 STAT SP IPHASW D HRMM SECON CODA AMPLIT PERI AZIMU VELO AIN AR TRES W  DIS CAZ7
 BAR2 SZ ES   3   2327 51.39                             173    0.72 2 15.6 211 
 BAR2 SZ I        2327 52.46        10.8 0.16                          15.6 211 
 GIR2 SZ EP       2327 36.97                             162    0.1710 41.4 347 
 GIR2 SZ ES   3   2327 51.13                             162   -0.48 2 41.4 347 
 BRR  HZ EP       2327 38.72                             148    0.1710 79.5 303 
 BRR  HZ I        2327 39.87         8.7 0.46                          79.5 303 
 BRR  HN ES   1   2327 55.21                             148    0.48 7 79.5 303 
 PAM  SZ EP   3   2327 39.66                             147    0.19 2 82.7  33 
 PAM  SZ I        2327 39.87        11.5 0.26                          82.7  33 
 PAM  SN ES   1   2327 55.80                             147   -0.55 7 82.7  33 
 PTB  HZ EP   3   2327 43.72                             129   -0.60 2  150 263 
 PTB  HN ES   1   2328  4.39                             129   -0.60 7  150 263 
 PTB  HZ I        2328  7.14         2.8 0.12                           150 263 
                                                                                
