 2016 10 8 2255 48.5 L   6.761 -73.132142.9  RSN  7 0.3 1.9LRSN                1
 GAP=140        0.66       2.8     2.9  4.7 -0.1776E+01  0.5727E+01 -0.1249E+01E
 Epicentro: LOS SANTOS - SANTANDER                                             3
 ACTION:UPD 16-11-09 19:17 OP:rebc STATUS:               ID:20161008225548 L   I
 OLDACT:DUP 16-10-09 03:44 OP:cara STATUS:               ID:20161008224743d    3
 2016-10-08-2248-00M.COL___363                                                 6
 STAT SP IPHASW D HRMM SECON CODA AMPLIT PERI AZIMU VELO AIN AR TRES W  DIS CAZ7
 BAR2 EZ EP     C 2256  7.66                             172   -0.0610 19.4 197 
 BAR2 EZ ES       2256 22.66                             172   -0.0410 19.4 197 
 BAR2 EZ I        2256 24.13        21.3 0.40            172           19.4 197 
 PAM  EZ EP       2256 10.78                             149    0.2110 79.9  37 
 PAM  EE ES       2256 27.81                             149    0.0310 79.9  37 
 PAM  EZ I        2256 29.90        11.7 0.52            152           79.9  37 
 RUS  HZ EP       2256 11.69                             144    0.0410 96.1 177 
 RUS  HN ES       2256 29.67                             144   -0.0410 96.1 177 
 RUS  HZ I        2256 31.02         8.5 0.24            148           96.1 177 
 PTB  HZ EP       2256 14.85                             131   -0.46 9  148 261 
 PTB  HE ES       2256 35.81                             131   -0.40 9  148 261 
 PTB  HZ I        2256 38.10         6.2 0.20            132            148 261 
 SPBC HZ EP       2256 16.66                             129    0.10 9  161 220 
 SPBC HN ES       2256 38.57                             129    0.13 9  161 220 
 SPBC HZ I        2256 42.05        15.8 0.18            131            161 220 
 ZAR  HZ EP       2256 20.84                             121   -0.25 8  207 293 
 ZAR  HN ES       2256 46.97                             121    0.47 8  207 293 
 ZAR  HZ I        2256 52.15        12.5 0.30            122            207 293 
 GUY2CHZ EP   4   2256 33.06                             112    1.22 0  300 236 
 GUY2CHN ES       2257  6.12                             112    0.48 7  300 236 
 GUY2CHZ I        2257 14.22         5.4 0.42                           300 236 
                                                                                
