 2014  2 8 2240 21.9 L   6.565 -73.549104.7  RSN 12 0.5 1.9LRSN                1
 GAP= 75        1.34       3.3     3.8  6.9 -0.3303E+01  0.9121E+01  0.1561E+01E
 Epicentro: EL CARMEN DE CHUCURI - SANTANDER                                   3
 ACTION:UPD 14-03-10 08:08 OP:ep   STATUS:               ID:20140208224021 L   I
 OLDACT:REG 14-02-08 23:35 OP:stll STATUS:               ID:20140208223818     3
 2014-02-08-2238-18M.COL___236                                                 6
 STAT SP IPHASW D HRMM SECON CODA AMPLIT PERI AZIMU VELO AIN AR TRES W  DIS CAZ7
 BAR2 SZ IP     C 2240 37.68                             157    0.3610 40.6  86 
 BAR2 SZ ES       2240 49.89                             157    0.5810 40.6  86 
 BAR2 SZ I        2240 51.63        98.0 0.38            160           40.6  86 
 BRR  HZ IP     D 2240 38.50                             147    0.2610 62.6 343 
 BRR  HN ES       2240 51.72                             147    0.7710 62.6 343 
 BRR  HZ I        2240 53.79        11.9 0.14            149           62.6 343 
 RUS  HZ EP       2240 40.71                             136   -0.3410 90.5 145 
 RUS  HN ES       2240 55.60                             136   -0.3610 90.5 145 
 PTB  HZ EP       2240 40.51                             133   -0.7610  100 268 
 PTB  HN ES       2240 55.31                             133   -1.0310  100 268 
 SPBC HZ EP       2240 43.03                             128    0.1710  116 210 
 SPBC HN ES       2240 58.97                             128   -0.2010  116 210 
 SPBC HZ I        2241  2.79        25.5 0.26            129            116 210 
 PAM  SZ EP       2240 44.30                             126   -0.1310  127  48 
 PAM  SN ES       2241  1.98                             126    0.0110  127  48 
 PAM  SZ I        2241  4.42        13.3 0.42            129            127  48 
 NOR  HZ EP       2240 49.41                             114   -0.42 9  183 233 
 NOR  HN ES       2241 11.28                             114   -0.31 9  183 233 
 NOR  HZ I        2241 13.71        13.2 0.14            116            183 233 
 CHI  HZ EP       2240 53.59                             111   -0.26 8  215 185 
 CHI  HE ES       2241 18.49                             111   -0.25 8  215 185 
 CHI  HZ I        2241 24.31         3.2 0.66            112            215 185 
 HEL  HZ EP       2240 55.06                             110    0.35 8  223 259 
 HEL  HN ES       2241 20.65                             110    0.38 8  223 259 
 HEL  HZ I        2241 26.29         3.6 0.22            111            223 259 
 GUY2CHZ EP       2240 59.37                             107    1.41 8  250 234 
 GUY2CHN ES       2241 26.39                             107    0.34 8  250 234 
 GUY2CHZ I        2241 32.58         5.3 0.36                           250 234 
 SML  HZ EP       2240 57.18                             106   -0.66 8  254 347 
 SML  HE ES       2241 25.41                             106   -0.42 8  254 347 
 RREF BZ EP       2241  1.50                             105    0.84 8  271 227 
 RREF BN ES       2241 31.17                             105    0.31 8  271 227 
 RREF BZ I        2241 37.01         5.3 0.22            107            271 227 
                                                                                
