 2014  8 8 2151 14.3 L   6.816 -73.176140.7  RSN 10 0.4 2.2LRSN                1
 GAP=132        0.88       3.0     3.9  5.5 -0.2234E+00  0.5557E+01 -0.3667E+01E
 Epicentro: ZAPATOCA - SANTANDER                                               3
 ACTION:UPD 14-09-15 21:47 OP:nd   STATUS:               ID:20140808215114 L   I
 OLDACT:UP  14-08-09 04:04 OP:mh   STATUS:               ID:20140808214820     3
 OLDACT:REG 14-08-09 03:29 OP:mh   STATUS:               ID:20140808214820     3
 2014-08-08-2148-20M.COL___269                                                 6
 STAT SP IPHASW D HRMM SECON CODA AMPLIT PERI AZIMU VELO AIN AR TRES W  DIS CAZ7
 BAR2 SZ EP       2151 33.21                             170   -0.1510 24.7 182 
 BAR2 SZ ES       2151 48.23                             170    0.0210 24.7 182 
 BAR2 SZ I        2151 49.84        38.3 0.13            171           24.7 182 
 BRR  HZ EP       2151 35.29                             153    0.5910 67.5 299 
 BRR  HN ES       2151 50.62                             153    0.0210 67.5 299 
 BRR  HZ I        2151 55.68        23.1 0.30            151           67.5 299 
 PAM  SZ EP   1   2151 36.38                             150    0.34 7 78.2  42 
 PAM  SN ES   1   2151 53.24                             150    0.25 7 78.2  42 
 PAM  SZ I        2151 55.84        36.5 0.18            153           78.2  42 
 RUS  HZ EP   1   2151 37.44                             142   -0.27 7  103 174 
 RUS  HN ES       2151 55.84                             142   -0.1310  103 174 
 PTB  HZ EP   1   2151 40.46                             131   -0.14 7  145 258 
 PTB  HN ES       2152  0.80                             131   -0.31 9  145 258 
 PTB  HZ I        2152  2.77        22.6 0.46            132            145 258 
 OCA  HZ EP   1   2151 41.92                             129   -0.11 7  158 354 
 OCA  HN ES       2152  3.49                             129   -0.16 9  158 354 
 OCA  HZ I        2152  7.04        18.0 0.08            131            158 354 
 ZAR  HZ EP       2151 46.85                             122    0.81 9  200 292 
 ZAR  HN ES       2152 11.07                             122    0.28 9  200 292 
 ZAR  HZ I        2152 18.37        13.0 0.12            123            200 292 
 NOR  HN ES   1   2152 16.71                             118   -0.36 6  233 234 
 NOR  HZ I        2152 22.75         8.0 0.25            120            233 234 
 SML  HZ EP       2151 49.46                             117   -0.87 8  241 336 
 SML  HN ES       2152 18.08                             117   -0.35 8  241 336 
 GUY2CHZ EP   1   2151 57.80                             111    0.31 5  299 234 
 GUY2CHN ES   4   2152 32.04                             111    0.86 0  299 234 
 MON  HZ EP   4   2152  6.75                             108    4.06 0  350 308 
 MON  HN ES   4   2152 38.22                             108   -2.21 0  350 308 
                                                                                
