 2014  6 8 2037 26.7 L   6.854 -73.150134.0  RSN  8 0.5 1.6LRSN                1
 GAP=201        0.99       4.1     5.8  8.6  0.1321E+01  0.1658E+02 -0.1178E+02E
 Epicentro: LOS SANTOS - SANTANDER                                             3
 ACTION:UPD 14-07-01 22:52 OP:nd   STATUS:               ID:20140608203726 L   I
 OLDACT:UP  14-06-09 02:36 OP:cam  STATUS:               ID:20140608203001d    3
 OLDACT:UP  14-06-09 02:36 OP:cam  STATUS:               ID:20140608203001d    3
 OLDACT:UP  14-06-09 02:35 OP:cam  STATUS:               ID:20140608203001d    3
 OLDACT:DUP 14-06-09 02:31 OP:cam  STATUS:               ID:20140608203001d    3
 2014-06-08-2030-00M.COL___276                                                 6
 STAT SP IPHASW D HRMM SECON CODA AMPLIT PERI AZIMU VELO AIN AR TRES W  DIS CAZ7
 BAR2 SZ EP       2037 45.33                             167    0.2410 29.2 187 
 BAR2 SZ ES       2037 59.64                             167    0.2310 29.2 187 
 BAR2 SZ I        2038  2.42         7.5 0.26            168           29.2 187 
 BRR  HZ EP       2037 47.09                             151    0.6610 68.1 294 
 BRR  HN ES   4   2038  3.18                             151    1.39 0 68.1 294 
 BRR  HZ I        2038  6.66         5.5 0.40            149           68.1 294 
 RUS  HZ EP   1   2037 49.64                             140   -0.17 7  107 176 
 RUS  HE ES       2038  7.29                             140   -0.5210  107 176 
 RUS  HZ I        2038 10.12         2.3 0.34            146            107 176 
 PTB  HZ EP       2037 52.29                             129   -0.55 9  149 257 
 PTB  HN ES       2038 13.07                             129   -0.13 9  149 257 
 PTB  HZ I        2038 18.23         3.5 0.28            131            149 257 
 SPBC HN ES       2038 16.81                             126    0.14 9  168 218 
 SPBC HN I        2038 20.95        10.8 0.34            130            168 218 
 ZAR  HZ EP   4   2037 59.95                             120    1.80 0  201 291 
 ZAR  HE ES   1   2038 22.69                             120    0.03 6  201 291 
 ZAR  HZ I        2038 29.95         3.8 0.34            122            201 291 
 SML  HZ EP   1   2038  1.55                             115   -0.55 6  238 335 
 SML  HN ES       2038 29.43                             115   -0.25 8  238 335 
 SML  HZ I        2038 35.52         3.7 0.10            119            238 335 
 GUY2CHZ EP   1   2038 11.44                             110    1.27 5  304 234 
 GUY2CHE ES   1   2038 43.79                             110   -0.27 5  304 234 
 GUY2CHZ I        2038 51.72         2.7 0.40                           304 234 
                                                                                
