 2012  5 8 2111 44.3 L   6.774 -73.144146.6  RSN 10 0.4 2.2LRSN                1
 GAP=138        0.98       3.8     4.6  7.0 -0.5024E+00  0.7160E+01  0.2974E+01E
 Epicentro: LOS SANTOS - SANTANDER                                             3
 ACTION:DUP 12-07-05 12:03 OP:pat  STATUS:               ID:20120508211145dL   I
 2012-05-08-2110-00M.COL___192                                                 6
 STAT SP IPHASW D HRMM SECON CODA AMPLIT PERI AZIMU VELO SNR AR TRES W  DIS CAZ7
 BAR2 SZ EP       2112  3.98                             172     0.010   21 192 
 BAR2 SZ ES   1   2112 19.37                             172     0.0 7   21 192 
 BAR2 SZ I        2112 21.16        20.2 0.39                            21 192 
 BRR  HZ EP       2112  5.92                             152     0.310   73 300 
 BRR  HN ES   1   2112 23.26                             152     1.0 7   73 300 
 BRR  HZ I        2112 26.29        27.4 0.18                            73 300 
 PAM  SZ EP       2112  6.91                             150     0.210   80  38 
 PAM  SN ES   1   2112 23.93                             150    -0.3 7   80  38 
 RUS  HZ EP       2112  7.85                             145    -0.110   98 176 
 RUS  HN ES   1   2112 26.32                             145    -0.1 7   98 176 
 RUS  HZ I        2112 28.30         9.3 0.20                            98 176 
 PTB  HZ EP   1   2112 10.62                             132    -0.7 7  147 260 
 PTB  HN ES   1   2112 32.18                             132    -0.2 7  147 260 
 PTB  HZ I        2112 39.36        17.0 0.30                           147 260 
 OCA  HZ EP   1   2112 13.12                             129     0.2 7  163 353 
 OCA  HN ES   1   2112 34.87                             129    -0.4 7  163 353 
 OCA  HZ I        2112 39.99        42.4 0.22                           163 353 
 ZAR  HZ EP   1   2112 16.54                             122    -0.4 6  205 293 
 ZAR  HE ES       2112 42.03                             122    -0.4 8  205 293 
 ZAR  HZ I        2112 48.49        20.2 0.38                           205 293 
 NOR  SZ EP   1   2112 20.18                             119     0.2 6  233 235 
 NOR  SN ES   1   2112 47.67                             119    -0.1 6  233 235 
 CHI  HZ EP   1   2112 22.09                             118     0.3 6  246 195 
 CHI  HN ES   1   2112 50.52                             118    -0.5 6  246 195 
 HEL  HZ EP   1   2112 25.61                             115     1.1 6  272 256 
 HEL  HZ I        2113  2.67         8.5 0.23                           272 256 
                                                                                
