 2014  4 8 2028  8.7 L   6.805 -73.136147.9  RSN 19 0.5 2.7LRSN                1
 GAP=127        1.09       2.6     3.6  5.3 -0.2691E+01  0.3067E+01  0.2442E+01E
 Epicentro: LOS SANTOS - SANTANDER                                             3
 ACTION:UPD 14-05-13 23:07 OP:nd   STATUS:               ID:20140408202808 L   I
 OLDACT:REG 14-04-09 05:07 OP:carl STATUS:               ID:20140408201815     3
 2014-04-08-2018-15M.COL___250                                                 6
 STAT SP IPHASW D HRMM SECON CODA AMPLIT PERI AZIMU VELO AIN AR TRES W  DIS CAZ7
 BRR  HZ EP       2028 30.53                             153    0.4110 71.9 298 
 BRR  HN ES       2028 47.89                             153    1.0610 71.9 298 
 BRR  HZ I        2028 50.10        53.6 0.16            152           71.9 298 
 PAM  SZ EP       2028 31.34                             151    0.2610 76.3  39 
 PAM  SN ES       2028 48.60                             151    0.0710 76.3  39 
 PAM  SZ I        2028 50.76        67.0 0.22            156           76.3  39 
 RUS  HZ EP       2028 32.60                             144   -0.1010  101 177 
 RUS  HN ES       2028 51.12                             144   -0.2910  101 177 
 RUS  HZ I        2028 52.44        34.9 0.42            146            101 177 
 PTB  HZ EP       2028 35.23                             132   -0.72 9  149 259 
 PTB  HN ES       2028 56.30                             132   -0.91 9  149 259 
 PTB  HZ I        2029  2.47        76.9 0.20            133            149 259 
 OCA  HZ EP       2028 37.41                             130    0.27 9  160 353 
 OCA  HN ES       2028 59.27                             130   -0.05 9  160 353 
 OCA  HZ I        2029  7.06        47.4 0.24            133            160 353 
 SPBC HZ EP       2028 37.45                             129   -0.02 9  164 219 
 SPBC HN ES       2029  0.07                             129    0.16 9  164 219 
 SPBC HZ I        2029  5.40        97.7 0.16            131            164 219 
 ZAR  HZ EP       2028 41.08                             123   -0.29 9  205 292 
 ZAR  HE ES       2029  6.86                             123    0.00 9  205 292 
 ZAR  HZ I        2029 12.93        56.9 0.34            124            205 292 
 NOR  HZ EP       2028 44.46                             119   -0.23 8  236 235 
 NOR  HN ES       2029 12.61                             119   -0.14 8  236 235 
 NOR  HZ I        2029 16.43        52.5 0.24            120            236 235 
 SML  HZ EP       2028 45.50                             118    0.05 8  244 335 
 SML  HN ES       2029 13.37                             118   -0.74 8  244 335 
 SML  HZ I        2029 18.33        58.1 0.46            120            244 335 
 CHI  HZ EP       2028 46.83                             117    0.22 8  249 195 
 CHI  HN ES       2029 15.49                             117   -0.68 8  249 195 
 CHI  HZ I        2029 21.72        20.4 0.46            120            249 195 
 ROSC BZ EP   4   2028 48.23                             117    1.18 0  254 211 
 ROSC BE ES   4   2029 18.60                             117    1.64 0  254 211 
 ROSC BZ I        2029 26.32        62.7 0.45            119            254 211 
 HEL  HZ EP       2028 49.93                             115    0.77 8  273 256 
 HEL  HE ES       2029 20.74                             115    0.03 8  273 256 
 HEL  HZ I        2029 27.28        24.0 0.36            117            273 256 
 URE  HZ EP   4   2028 51.56                             114    1.59 0  285 292 
 URE  HN ES   4   2029 20.47                             114   -1.69 0  285 292 
 GUY2CHZ EP       2028 52.74                             113    0.19 7  302 235 
 GUY2CHE ES       2029 26.01                             113   -0.74 7  302 235 
 GUY2CHZ I        2029 35.42        54.4 0.78                           302 235 
 RREF HZ EP       2028 55.66                             111    0.59 7  323 229 
 RREF HN ES       2029 31.17                             111   -0.07 7  323 229 
 RREF HZ I        2029 37.24        32.4 0.24            113            323 229 
 CBOC HZ EP       2028 56.29                             110    0.44 7  335 252 
 CBOC HN ES       2029 32.38                             110   -0.24 7  335 252 
 CBOC HZ I        2029 36.72        10.7 0.32            112            335 252 
 ANIL HZ EP       2028 59.78                             109    1.06 6  359 225 
 ANIL HE ES       2029 37.95                             109    0.21 6  359 225 
 SDV  BZ EP       2028 57.72                             109   -0.97 6  359  50 
 SDV  BN ES   4   2029 34.24                             109   -3.43 0  359  50 
 PRA  HZ EP       2029  2.12                             107   -0.30 6  393 210 
 PRA  HN ES       2029 44.51                             107    0.20 6  393 210 
 PRA  HZ I        2029 50.32        27.3 0.38            109            393 210 
 ORTC HZ EP       2029  3.01                             107    0.19 6  397 216 
 ORTC HN ES       2029 45.71                             107    0.67 6  397 216 
 ORTC HZ I        2029 51.56        19.1 0.46            108            397 216 
 SJC  HZ EP   4   2029  2.88                             106   -1.47 0  409 327 
 SJC  HN ES   4   2029 44.12                             106   -3.64 0  409 327 
                                                                                
