 2016  6 8 2041 29.8 L   6.803 -73.397120.0  RSN  7 0.4 1.4LRSN                1
 GAP=180        1.00       5.1     5.2  7.2  0.7010E+01  0.8528E+01  0.1642E+02E
 Epicentro: SAN VICENTE DE CHUCURI - SANTANDER                                 3
 ACTION:UPD 16-07-21 22:16 OP:rebc STATUS:               ID:20160608204129 L   I
 OLDACT:REG 16-06-09 03:03 OP:ak   STATUS:               ID:20160608203743     3
 2016-06-08-2037-43M.COL___325                                                 6
 STAT SP IPHASW D HRMM SECON CODA AMPLIT PERI AZIMU VELO AIN AR TRES W  DIS CAZ7
 BAR2 EZ EP       2041 46.75                             164    0.1510 33.2 135 
 BAR2 EZ ES       2041 59.52                             164   -0.2110 33.2 135 
 BRR  HZ EP   2   2041 46.74                             157   -0.14 5 48.4 314 
 BRR  HN ES       2042  0.58                             157    0.3510 48.4 314 
 RUS  HZ EP       2041 50.96                             136   -0.6110  106 161 
 RUS  HN ES       2042  8.80                             136    0.2210  106 161 
 RUS  HZ I        2042 12.05         3.2 0.34                           106 161 
 PTB  HZ EP       2041 51.81                             132   -0.3710  121 256 
 PTB  HN ES       2042  9.39                             132   -0.2710  121 256 
 PTB  HZ I        2042 13.68         5.6 0.21                           121 256 
 SPBC HZ EP   2   2041 54.78                             125   -0.07 5  148 210 
 SPBC HN ES       2042 14.72                             125    0.31 9  148 210 
 NOR  HZ EP   2   2042  2.69                             115    0.98 4  213 230 
 NOR  HE ES   4   2042 29.25                             115    2.63 0  213 230 
 NOR  HZ I        2042 30.46         2.2 0.14                           213 230 
 CHI  HZ EP       2042  6.49                             112    0.94 8  243 189 
 CHI  HN ES       2042 33.01                             112   -0.46 8  243 189 
                                                                                
