 2010  5 8 2055 42.4 L   6.766 -73.092151.5  RSN 15 0.4 2.4LRSN                1
 GAP=130        0.84       3.4     6.5  5.6 -0.6928E+01 -0.3512E+01  0.7274E-01E
 Epicentro: LOS SANTOS - SANTANDER                                             3
 ACTION:UP  10-08-24 10:03 OP:vdl  STATUS:               ID:20100508205542 L   I
 2010-05-08-2053-25S.COL___105                                                 6
 STAT SP IPHASW D HRMM SECON CODA AMPLIT PERI AZIMU VELO SNR AR TRES W  DIS CAZ7
 BAR2 SZ EP   1   2056  2.41                             171    -0.3 7   22 208 
 BAR2 SZ ES   1   2056 18.41                             171    -0.2 7   22 208 
 GIR2 SZ EP   2   2056  2.66                             166    -0.3 5   36 342 
 GIR2 SZ ES   2   2056 18.19                             166    -0.7 5   36 342 
 BRR  HZ IP     C 2056  5.04                             151     0.410   78 299 
 BRR  HN ES   1   2056 22.33                             151     0.4 7   78 299 
 BRR  HZ I        2056 25.16        38.6 0.35                            78 299 
 RUS  HZ IP     C 2056  6.43                             146    -0.110   97 179 
 RUS  HE ES   1   2056 25.21                             146     0.0 7   97 179 
 RUS  HZ I        2056 26.28        31.7 0.29                            97 179 
 BRI  SZ EP   1   2056  6.92                             142    -0.1 7  110  17 
 GUE  SZ IP       2056  8.52                             140     0.610  119   9 
 GUE  SZ ES   2   2056 28.74                             140     1.0 5  119   9 
 GRA  SZ EP   1   2056  8.32                             138     0.0 7  128  14 
 GRA  SZ ES   2   2056 28.52                             138    -0.1 5  128  14 
 OCA  SZ IP       2056 11.48                             130    -0.1 9  165 351 
 OCA  SZ ES   1   2056 33.69                             130    -0.7 7  165 351 
 OCA  SZ I        2056 37.60        24.4 0.32                           165 351 
 CHI  HZ EP   2   2056 20.54                             119     0.3 4  247 197 
 CHI  HN ES   2   2056 49.83                             119     0.1 4  247 197 
 CHI  HZ I        2056 55.71        10.1 0.45                           247 197 
 HEL  HZ EP   2   2056 23.20                             116    -0.3 4  277 257 
 HEL  HZ I        2057  0.45        12.8 0.33                           277 257 
 RREF BZ EP   2   2056 28.37                             112    -0.7 3  324 231 
 RREF BE ES   2   2057  4.65                             112    -0.8 3  324 231 
 RREF BZ I        2057 13.96        13.3 0.38                           324 231 
 TOL  SZ EP   2   2056 31.68                             110     0.6 3  345 226 
 DBB  SZ EP   2   2056 30.29                             110    -0.6 3  346 275 
 SDV  BZ IP     C 2056 31.89                             110    -0.6 6  358  49 
 SDV  BZ I        2056 33.09         3.7 0.29                           358  49 
 PRA  HZ EP   2   2056 35.92                             108    -0.2 3  392 211 
 PRA  HN ES   2   2057 18.22                             108     0.2 3  392 211 
 PRA  HZ I        2057 24.16        14.9 0.29                           392 211 
                                                                                
