 2011  6 8 2308 20.3 L   6.758 -73.147150.0  RSN  7 0.4 1.9LRSN                1
 GAP=213        0.90       5.5     8.3  9.6  0.2543E+01  0.7345E+01  0.1548E+02E
 Epicentro: LOS SANTOS - SANTANDER                                             3
 ACTION:UP  11-07-14 19:04 OP:ep   STATUS:               ID:20110608230820 L   I
 2011-06-08-2303-32S.COL___121                                                 6
 STAT SP IPHASW D HRMM SECON CODA AMPLIT PERI AZIMU VELO SNR AR TRES W  DIS CAZ7
 BAR2 SZ EP   1   23 8 39.44                             173    -0.9 7   19 192 
 BAR2 SZ I        23 8 56.69        19.0 0.23                            19 192 
 BTL  SZ EP       23 8 40.89                             171     0.510   22 323 
 BRR  HZ EP       23 8 41.79                             153    -0.210   73 302 
 BRR  HZ I        23 8 42.08        26.4 0.12                            73 302 
 BRR  HE ES   1   23 8 59.21                             153     0.2 7   73 302 
 RUS  HZ EP       23 8 44.18                             146     0.010   96 176 
 RUS  HN ES   1   23 9  2.91                             146     0.2 7   96 176 
 RUS  HZ I        23 9  3.58         4.8 0.21                            96 176 
 NOR  SZ EP   1   23 8 55.77                             120    -0.2 6  232 235 
 NOR  SN ES   1   23 9 23.84                             120     0.0 6  232 235 
 CHI  HZ EP   1   23 8 58.20                             119     0.4 6  244 195 
 CHI  HE ES   1   23 9 26.68                             119    -0.3 6  244 195 
 PRA  HZ EP   1   23 9 13.89                             107     0.4 4  388 210 
                                                                                
