 2017 10 8 2023 35.5 L   6.734 -73.123136.3  RSN  6 0.2 1.2LRSN                1
 GAP=142        0.47       2.0     2.4  3.6 -0.1460E+01  0.4309E+01 -0.1110E+01E
 Epicentro: JORDAN - SANTANDER                                                 3
 ACTION:UPD 17-11-07 19:29 OP:rebc STATUS:               ID:20171008202335 L   I
 OLDACT:UP  17-10-09 06:04 OP:edw  STATUS:               ID:20171008201738     3
 OLDACT:REG 17-10-09 03:04 OP:edw  STATUS:               ID:20171008201738     3
 2017-10-08-2018-00M.COL___423                                                 6
 STAT SP IPHASW D HRMM SECON CODA AMPLIT PERI AZIMU VELO AIN AR TRES W  DIS CAZ7
 BAR2 EZ EP       2023 53.84                             173   -0.0810 17.0 203 
 BAR2 EZ ES       2024  8.01                             173   -0.2410 17.0 203 
 BAR2 EZ I        2024  9.03         4.5 0.38            174           17.0 203 
 PAM  EZ EP       2023 56.87                             148   -0.1710 81.6  35 
 PAM  EN ES       2024 13.94                             148    0.1510 81.6  35 
 PAM  EZ I        2024 17.71         2.3 0.50            148           81.6  35 
 RUS  HZ EP       2023 57.88                             144    0.0510 93.2 177 
 RUS  HN ES       2024 15.42                             144    0.2110 93.2 177 
 RUS  HZ I        2024 16.68         1.9 0.54            146           93.2 177 
 SPBC HZ EP   2   2024  3.40                             128    0.45 5  159 221 
 SPBC HE ES       2024 24.37                             128    0.04 9  159 221 
 ZAR  HZ EP       2024  8.12                             119    0.18 8  209 294 
 ZAR  HE ES       2024 33.32                             119    0.11 8  209 294 
 NOR  HZ EP       2024 10.22                             117   -0.30 8  233 236 
 NOR  HN ES       2024 37.71                             117   -0.09 8  233 236 
 NOR  HZ I        2024 39.84         2.0 0.16            118            233 236 
                                                                                
