 2017  9 8 2122 29.7 L   6.827 -73.132151.7  RSN 10 0.3 1.7LRSN                1
 GAP=112        0.83       3.0     3.3  6.0  0.2774E+00  0.5541E+01  0.5559E+01E
 Epicentro: LOS SANTOS - SANTANDER                                             3
 ACTION:UPD 17-10-05 19:10 OP:rebc STATUS:               ID:20170908212229 L   I
 OLDACT:UP  17-09-09 06:03 OP:osc  STATUS:               ID:20170908211739d    3
 OLDACT:UP  17-09-09 06:03 OP:osc  STATUS:               ID:20170908211739d    3
 OLDACT:DUP 17-09-09 05:51 OP:osc  STATUS:               ID:20170908211739d    3
 2017-09-08-2118-00M.COL___422                                                 6
 STAT SP IPHASW D HRMM SECON CODA AMPLIT PERI AZIMU VELO AIN AR TRES W  DIS CAZ7
 BAR2 EZ EP       2122 49.71                             170   -0.3810 26.5 192 
 BAR2 EZ I        2123  6.72         9.6 0.20            171           26.5 192 
 BRR  HZ EP       2122 51.52                             153    0.0510 71.2 296 
 BRR  HE ES       2123  8.74                             153    0.2610 71.2 296 
 PAM  EZ EP       2122 52.56                             153    0.2210 74.1  40 
 PAM  EE ES       2123  9.93                             153   -0.0910 74.1  40 
 PAM  EZ I        2123 11.83        15.8 0.48            149           74.1  40 
 RUS  HZ EP       2122 53.96                             144   -0.2510  103 177 
 RUS  HE ES       2123 12.94                             144   -0.4210  103 177 
 RUS  HZ I        2123 13.53         6.4 0.32            144            103 177 
 SPBC HE ES       2123 21.80                             130    0.03 9  166 219 
 YPLC HE ES       2123 24.60                             128    0.80 9  179 152 
 ZAR  HN ES       2123 28.03                             124   -0.16 9  204 291 
 NOR  HZ EP       2123  6.26                             119    0.19 8  238 234 
 NOR  HE ES       2123 34.74                             119    0.28 8  238 234 
 NOR  HZ I        2123 36.53         2.8 0.14            119            238 234 
 CHI  HZ EP       2123  8.15                             118    0.09 8  252 195 
 CHI  HN ES       2123 37.44                             118   -0.56 8  252 195 
 GUY2CHZ EP       2123 13.57                             113   -0.32 7  304 234 
 GUY2CHN ES       2123 48.81                             113    0.42 7  304 234 
 GUY2CHZ I        2124  0.94         2.9 0.62                           304 234 
                                                                                
