 2015  1 8 2320 46.2 L   6.353 -73.447118.0  RSN 11 0.4 1.7LRSN                1
 GAP= 55        0.99       2.6     3.4  6.2  0.5194E+00  0.8168E+01  0.1581E+01E
 Epicentro: CONTRATACION - SANTANDER                                           3
 ACTION:UPD 15-03-02 15:38 OP:nd   STATUS:               ID:20150108232046 L   I
 OLDACT:REG 15-01-09 03:32 OP:stll STATUS:               ID:20150108231743     3
 2015-01-08-2317-43M.COL___265                                                 6
 STAT SP IPHASW D HRMM SECON CODA AMPLIT PERI AZIMU VELO AIN AR TRES W  DIS CAZ7
 BAR2 EZ EP       2321  2.82                             160   -0.2310 39.4  48 
 BAR2 EZ ES       2321 16.07                             160   -0.1010 39.4  48 
 BAR2 EZ I        2321 18.80        17.3 0.20            163           39.4  48 
 RUS  HZ EP       2321  4.68                             149   -0.0610 64.9 142 
 RUS  HN ES       2321 19.19                             149    0.0110 64.9 142 
 RUS  HZ I        2321 20.82         8.8 0.30            154           64.9 142 
 BRR  HZ EP       2321  5.51                             140   -0.1710 88.4 341 
 BRR  HE ES       2321 21.38                             140    0.5210 88.4 341 
 PTB  HZ EP       2321  7.12                             133   -0.6910  114 281 
 PTB  HE ES       2321 24.57                             133   -0.0910  114 281 
 PTB  HZ I        2321 27.19         8.2 0.22            132            114 281 
 NOR  HZ EP       2321 15.13                             119    0.66 9  180 241 
 NOR  HE ES       2321 36.70                             119    0.19 9  180 241 
 NOR  HZ I        2321 41.73        11.1 0.52            120            180 241 
 TAM  HZ EP   2   2321 14.19                             118   -0.62 4  183  87 
 CHI  HZ EP       2321 16.34                             117   -0.01 9  193 189 
 CHI  HZ I        2321 17.26         2.4 0.46            119            193 189 
 CHI  HN ES       2321 39.99                             117    0.13 9  193 189 
 ZAR  HN ES       2321 40.30                             116   -0.04 9  200 309 
 ZAR  HZ I        2321 46.71         6.8 0.32            116            200 309 
 OCA  HN ES       2321 42.79                             115    0.45 8  209   4 
 OCA  HZ I        2321 47.11         7.2 0.26            116            209   4 
 HEL  HZ EP       2321 21.30                             112    0.81 8  231 266 
 HEL  HE ES       2321 46.42                             112   -0.80 8  231 266 
 HEL  HZ I        2321 53.39         3.9 0.30            113            231 266 
 SML  HE ES       2321 55.96                             108   -0.26 7  279 346 
 SML  HZ I        2321 59.20         4.3 0.10            109            279 346 
                                                                                
