 2013  9 8 2106 48.8 L   6.830 -73.114124.3  RSN  4 0.5 1.7LRSN                1
 GAP=204        1.13      11.5     9.7 21.1  0.7883E+02 -0.7765E+02 -0.1641E+03E
 Epicentro: LOS SANTOS - SANTANDER                                             3
 ACTION:UPD 13-10-22 09:21 OP:ep   STATUS:               ID:20130908210648 L   I
 OLDACT:DUP 13-09-09 02:21 OP:nd   STATUS:               ID:20130908210003d    3
 2013-09-08-2100-00M.COL___268                                                 6
 STAT SP IPHASW D HRMM SECON CODA AMPLIT PERI AZIMU VELO AIN AR TRES W  DIS CAZ7
 RUS  HZ EP       21 7 10.36                             139   -0.4210  104 178 
 RUS  HN ES       21 7 28.31                             139    0.4010  104 178 
 RUS  HZ I        21 7 30.05         6.7 0.30            153            104 178 
 PTB  HZ EP       21 7 14.90                             127    0.37 9  152 258 
 PTB  HN ES       21 7 33.84                             127   -0.74 9  152 258 
 PTB  HZ I        21 7 34.97         4.3 0.26            138            152 258 
 ZAR  HZ EP   4   21 7 21.35                             118    1.17 0  206 291 
 ZAR  HN ES       21 7 45.30                             118    0.66 9  206 291 
 ZAR  HZ I        21 7 47.50         5.0 0.24            125            206 291 
 SML  HZ EP   2   21 7 23.78                             113   -0.38 4  242 334 
 SML  HE ES   2   21 7 51.24                             113   -0.49 4  242 334 
 SML  HZ I        21 7 59.47         6.2 0.24            118            242 334 
                                                                                
