 2017 10 8 2129  4.0 L   6.823 -73.139140.0  RSN  4 0.3 1.3LRSN                1
 GAP=136        0.73       3.8     4.5  6.8  0.9276E+00  0.8468E+01 -0.1672E+01E
 Epicentro: LOS SANTOS - SANTANDER                                             3
 ACTION:UPD 17-11-07 19:29 OP:rebc STATUS:               ID:20171008212904 L   I
 OLDACT:REG 17-10-09 03:15 OP:edw  STATUS:               ID:20171008212741     3
 2017-10-08-2128-00M.COL___423                                                 6
 STAT SP IPHASW D HRMM SECON CODA AMPLIT PERI AZIMU VELO AIN AR TRES W  DIS CAZ7
 BAR2 EZ EP       2129 22.59                             169   -0.4510 26.0 191 
 BAR2 EZ ES       2129 38.09                             169    0.2310 26.0 191 
 BAR2 EZ I        2129 39.19         8.8 0.28            171           26.0 191 
 PAM  EZ EP       2129 25.93                             151    0.4310 75.0  40 
 PAM  EN ES       2129 42.01                             151   -0.2310 75.0  40 
 PAM  EZ I        2129 45.21         2.6 0.80            151           75.0  40 
 RUS  HZ EP       2129 27.43                             142    0.0110  103 177 
 RUS  HN ES       2129 45.66                             142    0.0110  103 177 
 RUS  HZ I        2129 47.07         2.9 0.26            144            103 177 
 ZAR  HN ES       2130  1.09                             121    0.01 9  204 291 
                                                                                
