 2012  2 8 2316  6.2 L   6.786 -73.120144.0  RSN 12 0.3 2.4LRSN                1
 GAP=140        0.65       3.0     3.0  3.8 -0.1276E+01  0.3268E+01  0.3573E+01E
 ACTION:UP  12-03-07 16:28 OP:epov STATUS:               ID:20120208231606 L   I
 2012-02-08-2310-00M.COL___188                                                 6
 STAT SP IPHASW D HRMM SECON CODA AMPLIT PERI AZIMU VELO AIN AR TRES W  DIS CAZ7
 BAR2 SZ EP       2316 25.44                             171   -0.1310 22.5 198 
 BAR2 SZ ES       2316 40.64                             171   -0.0610 22.5 198 
 BAR2 SZ I        2316 43.53        62.4 0.22                          22.5 198 
 GIR2 SZ EP       2316 25.70                             166    0.0010 33.4 346 
 GIR2 SZ ES   1   2316 40.73                             166   -0.19 7 33.4 346 
 BRR  HZ IP     C 2316 27.49                             151    0.1710 74.4 299 
 BRR  HE ES       2316 44.31                             151    0.5010 74.4 299 
 BRR  HZ I        2316 48.88        59.5 0.07                          74.4 299 
 PAM  SZ EP       2316 28.21                             151    0.0410 76.9  37 
 PAM  SN ES       2316 45.18                             151   -0.1510 76.9  37 
 RUS  HZ EP       2316 29.73                             144    0.1110 98.8 178 
 RUS  HN ES   1   2316 48.09                             144    0.17 7 98.8 178 
 RUS  HZ I        2316 50.40        22.6 0.37                          98.8 178 
 PTB  HZ EP       2316 32.61                             131   -0.61 9  150 260 
 PTB  HN ES   1   2316 54.23                             131   -0.09 7  150 260 
 ZAR  HZ EP   1   2316 38.90                             122    0.06 6  207 292 
 ZAR  HN ES   1   2317  3.94                             122   -0.37 6  207 292 
 ZAR  HZ I        2317  9.77        57.6 0.21                           207 292 
 NOR  SZ EP       2316 41.92                             118   -0.03 8  236 235 
 NOR  SE ES   1   2317  9.66                             118   -0.19 6  236 235 
 CHI  HZ EP   1   2316 43.45                             117   -0.24 6  248 196 
 CHI  HZ I        2317 23.89         9.8 0.71                           248 196 
 HEL  HZ EP   1   2316 47.41                             114    0.85 6  274 256 
 HEL  HZ I        2317 25.92        21.1 0.35                           274 256 
 RREF HZ EP   1   2316 52.99                             110    0.62 5  323 230 
 RREF HN ES   1   2317 28.03                             110   -0.37 5  323 230 
 RREF HZ I        2317 38.60        14.0 0.96                           323 230 
 PRA  HZ EP   1   2316 59.79                             106    0.16 4  392 210 
 PRA  HE ES   1   2317 41.54                             106    0.21 4  392 210 
                                                                                
