 2010  5 8 2348 54.4 L   6.799 -73.081147.8  RSN 16 0.4 2.5LRSN                1
 GAP=131        0.71       2.9     5.1  4.5 -0.6120E+01  0.7555E-01  0.5040E+00E
 Epicentro: LOS SANTOS - SANTANDER                                             3
 ACTION:UP  10-08-24 10:03 OP:vdl  STATUS:               ID:20100508234854 L   I
 2010-05-08-2347-17S.COL___105                                                 6
 STAT SP IPHASW D HRMM SECON CODA AMPLIT PERI AZIMU VELO SNR AR TRES W  DIS CAZ7
 BAR2 SZ IP       2349 14.21                             170    -0.110   26 206 
 BAR2 SZ ES   1   2349 29.84                             170     0.0 7   26 206 
 GIR2 SZ EP   1   2349 14.19                             167    -0.2 7   33 338 
 GIR2 SZ ES   2   2349 29.65                             167    -0.3 5   33 338 
 BRR  HZ IP     C 2349 16.69                             151     0.610   78 296 
 BRR  HZ I        2349 17.03        93.1 0.07                            78 296 
 BRR  HE ES   1   2349 33.28                             151     0.2 7   78 296 
 RUS  HZ IP     C 2349 18.25                             144    -0.110  100 180 
 RUS  HZ I        2349 19.40        27.7 0.19                           100 180 
 RUS  HE ES   1   2349 36.82                             144    -0.2 7  100 180 
 BRI  SZ EP   1   2349 18.61                             143     0.3 7  106  17 
 BRI  SZ ES   2   2349 37.20                             143     0.2 5  106  17 
 GUE  SZ IP       2349 19.12                             140    -0.110  115   9 
 GRA  SZ IP       2349 19.95                             138     0.310  124  14 
 GRA  SZ ES   1   2349 39.28                             138    -0.1 7  124  14 
 OCA  SZ EP   1   2349 22.46                             130    -0.5 7  161 351 
 OCA  SZ ES   2   2349 44.64                             130    -0.6 5  161 351 
 OCA  SZ I        2349 49.13        24.2 0.44                           161 351 
 CHI  HZ EP   2   2349 32.47                             117     0.1 4  250 197 
 CHI  HN ES   2   2350  2.04                             117     0.0 4  250 197 
 CHI  HZ I        2350  7.19        11.0 0.33                           250 197 
 HEL  HZ EP   2   2349 35.37                             115    -0.1 4  279 256 
 HEL  HZ I        2350 12.54        21.3 0.33                           279 256 
 RREF BZ EP   2   2349 41.28                             111     0.0 3  327 230 
 RREF BN ES   2   2350 17.78                             111     0.0 3  327 230 
 RREF BZ I        2350 26.58        16.5 0.21                           327 230 
 DBB  SZ EP   1   2349 41.68                             109    -1.1 5  347 274 
 TOL  SZ EP   1   2349 44.16                             109     0.9 5  348 225 
 SDV  BZ IP     D 2349 43.75                             109    -0.1 6  355  49 
 SDV  BZ I        2349 44.54         6.5 0.33                           355  49 
 ANIL BZ EP   2   2349 44.57                             109    -0.3 3  362 225 
 ANIL BZ I        2350 32.40        35.6 0.41                           362 225 
 PRA  HZ EP   2   2349 48.35                             107     0.0 3  395 210 
 PRA  HN ES   2   2350 29.82                             107    -0.7 3  395 210 
 PRA  HZ I        2350 34.54        13.4 0.52                           395 210 
                                                                                
