 2016  7 8 2034 15.8 L   6.778 -73.214146.4  RSN  5 0.2 1.5LRSN                1
 GAP=143        0.61       3.4     3.5  4.7 -0.5286E+01  0.4505E+01 -0.1138E+01E
 Epicentro: ZAPATOCA - SANTANDER                                               3
 ACTION:UPD 17-03-29 16:48 OP:lp   STATUS:               ID:20160708203415 L   I
 OLDACT:DUP 16-07-09 03:09 OP:ar   STATUS:               ID:20160708202744d    3
 2016-07-08-2027-43M.COL___342                                                 6
 STAT SP IPHASW D HRMM SECON CODA AMPLIT PERI AZIMU VELO AIN AR TRES W  DIS CAZ7
 BAR2 EZ EP       2034 35.35                             172   -0.0710 20.9 170 
 BAR2 EZ ES       2034 50.98                             172    0.2310 20.9 170 
 BAR2 EZ I        2034 51.46         8.9 0.30            172           20.9 170 
 PAM  EZ EP       2034 38.58                             149    0.1210 84.1  42 
 PAM  EE ES       2034 56.15                             149   -0.0110 84.1  42 
 PAM  EZ I        2034 58.17         9.1 0.68            152           84.1  42 
 RUS  HZ EP       2034 39.18                             144   -0.2810 99.0 172 
 RUS  HN ES       2034 57.71                             144   -0.2410 99.0 172 
 RUS  HZ I        2034 58.57         3.9 0.34            147           99.0 172 
 PTB  HZ EP       2034 42.13                             134    0.05 9  140 259 
 PTB  HN ES       2035  2.27                             134   -0.34 9  140 259 
 PTB  HZ I        2035  7.02         4.0 0.22            134            140 259 
 SPBC HZ EP       2034 43.93                             130    0.23 9  157 217 
 SPBC HN ES       2035  5.85                             130    0.36 9  157 217 
 SPBC HZ I        2035 11.09         4.3 0.20            131            157 217 
                                                                                
