 2011  2 8 2051 47.5 L   6.769 -73.088150.9  RSN  4 0.2 1.7LRSN                1
 GAP=304        0.38       6.2     6.8  6.2 -0.8295E+01  0.1552E+02  0.4462E+01E
 Epicentro: LOS SANTOS - SANTANDER                                             3
 ACTION:UP  11-03-28 15:07 OP:jfem STATUS:               ID:20110208205147 L   I
 2011-02-08-2051-00S.COL___130                                                 6
 STAT SP IPHASW D HRMM SECON CODA AMPLIT PERI AZIMU VELO SNR AR TRES W  DIS CAZ7
 BAR2 SZ EP   2   2052  7.73                             171     0.0 5   22 208 
 BAR2 SZ ES   2   2052 23.40                             171    -0.1 5   22 208 
 BAR2 SZ I        2052 24.00        13.5 0.25                            22 208 
 RUS  HZ EP   2   2052 11.77                             146     0.3 5   97 180 
 RUS  HN ES   2   2052 30.15                             146    -0.1 5   97 180 
 RUS  HZ I        2052 31.79         7.8 0.63                            97 180 
 NOR  SZ EP   2   2052 23.96                             119     0.1 4  238 236 
 NOR  SE ES   2   2052 52.25                             119     0.0 4  238 236 
 CHI  HZ EP   2   2052 24.82                             118    -0.5 4  247 197 
 CHI  HE ES   2   2052 54.99                             118     0.2 4  247 197 
 CHI  HZ I        2052 58.87         2.0 0.36                           247 197 
                                                                                
