 2014  7 8 2313 55.2 L   6.791 -73.230137.0  RSN  8 0.4 1.4LRSN                1
 GAP=189        0.94       3.6     5.1  7.1  0.4795E+01  0.8358E+01  0.8717E+00E
 Epicentro: ZAPATOCA - SANTANDER                                               3
 ACTION:UPD 15-03-16 20:42 OP:nd   STATUS:               ID:20140708231355 L   I
 OLDACT:REG 14-07-09 03:01 OP:spq  STATUS:               ID:20140708230816     3
 2014-07-08-2308-16M.COL___265                                                 6
 STAT SP IPHASW D HRMM SECON CODA AMPLIT PERI AZIMU VELO AIN AR TRES W  DIS CAZ7
 BAR2 SZ ES   1   2314 28.27                             170    0.05 7 22.6 166 
 BAR2 SZ I        2314 29.63         9.4 0.14            174           22.6 166 
 BRR  HZ EP       2314 15.47                             154    0.5210 63.7 303 
 BRR  HE ES       2314 29.82                             154   -0.5710 63.7 303 
 BRR  HZ I        2314 34.82         6.9 0.36            151           63.7 303 
 RUS  HZ EP       2314 17.74                             142   -0.3410  101 171 
 RUS  HE ES       2314 36.18                             142    0.2310  101 171 
 RUS  HZ I        2314 37.64         1.8 0.22            146            101 171 
 PTB  HZ EP       2314 20.40                             132   -0.18 9  138 258 
 PTB  HN ES       2314 40.68                             132    0.28 9  138 258 
 PTB  HZ I        2314 44.20         2.8 0.20            132            138 258 
 SPBC HZ IP     C 2314 22.66                             128    0.27 9  157 217 
 SPBC HN ES       2314 43.65                             128    0.03 9  157 217 
 SPBC HZ I        2314 47.22         3.2 0.18            130            157 217 
 ZAR  HN ES       2314 50.89                             121    0.49 9  196 293 
 ZAR  HZ I        2314 57.76         3.3 0.32            122            196 293 
 SML  HN ES       2314 58.65                             116   -0.31 8  241 337 
 SML  HZ I        2315  6.85         3.2 0.10            117            241 337 
 GUY2CHE ES       2315  9.71                             111   -0.74 7  293 234 
 GUY2CHZ I        2315 20.16         1.6 0.58                           293 234 
                                                                                
