 2016  2 8 2234  7.2 L   6.821 -73.180139.8  RSN  5 0.2 1.5LRSN                1
 GAP=198        0.48       2.7     3.1  4.4  0.3594E+01  0.2270E+00 -0.5936E+01E
 Epicentro: ZAPATOCA - SANTANDER                                               3
 ACTION:UPD 16-03-04 21:24 OP:rebc STATUS:               ID:20160208223407 L   I
 OLDACT:REG 16-02-09 04:15 OP:cara STATUS:               ID:20160208222748     3
 2016-02-08-2227-48M.COL___331                                                 6
 STAT SP IPHASW D HRMM SECON CODA AMPLIT PERI AZIMU VELO AIN AR TRES W  DIS CAZ7
 BAR2 EZ ES       2234 40.96                             169    0.0410 25.3 181 
 BAR2 EZ I        2234 41.67         8.0 0.30            167           25.3 181 
 RUS  HZ EP       2234 30.30                             142   -0.2410  103 174 
 RUS  HN ES       2234 48.91                             142    0.1410  103 174 
 RUS  HZ I        2234 49.84         2.2 0.30            143            103 174 
 PTB  HN ES       2234 53.61                             131   -0.18 9  144 258 
 PTB  HZ I        2234 59.39         2.3 0.16            129            144 258 
 ZAR  HZ EP       2234 39.06                             122    0.28 9  200 292 
 ZAR  HN ES       2235  3.53                             122    0.09 9  200 292 
 ZAR  HZ I        2235  9.38         2.9 0.12            121            200 292 
 SML  HZ EP       2234 43.16                             117    0.08 8  240 336 
 SML  HE ES       2235 10.91                             117   -0.17 8  240 336 
 SML  HZ I        2235 13.76         6.1 0.10            117            240 336 
                                                                                
