 2012  5 8 2210 31.0 L   6.794 -73.175139.6  RSN  4 0.1 1.0LRSN                1
 GAP=142        0.42       3.3     3.2  6.0 -0.3856E+01  0.4996E+01 -0.2108E+01E
 Epicentro: LOS SANTOS - SANTANDER                                             3
 ACTION:UP  12-07-05 12:03 OP:pat  STATUS:               ID:20120508221031 L   I
 2012-05-08-2210-00M.COL___192                                                 6
 STAT SP IPHASW D HRMM SECON CODA AMPLIT PERI AZIMU VELO SNR AR TRES W  DIS CAZ7
 BAR2 SZ EP   1   2210 49.91                             170     0.1 7   22 182 
 BAR2 SZ I        2211  2.40         5.2 0.37                            22 182 
 PAM  SZ EP       2210 52.88                             149     0.210   80  41 
 PAM  SN ES   1   2211  9.48                             149    -0.2 7   80  41 
 RUS  HZ EP   1   2210 54.02                             142    -0.1 7  100 174 
 RUS  HZ I        2210 55.19         0.9 0.11                           100 174 
 RUS  HN ES   1   2211 12.17                             142     0.0 7  100 174 
 PTB  HZ EP   1   2210 56.94                             131    -0.2 7  144 259 
 PTB  HN ES   1   2211 17.67                             131     0.1 7  144 259 
 PTB  HZ I        2211 20.58         1.6 0.13                           144 259 
                                                                                
