 2012  7 8 2120 46.7 L   5.948 -73.645118.8  RSN  4 0.2 1.3LRSN                1
 GAP=211        0.40       6.3    11.9 10.6  0.5999E+02  0.1068E+03  0.4649E+02E
 Epicentro: BARBOSA - SANTANDER                                                3
 ACTION:UPD 12-08-14 11:43 OP:ep   STATUS:               ID:20120708212047 L   I
 2012-07-08-2120-00M.COL___201                                                 6
 STAT SP IPHASW D HRMM SECON CODA AMPLIT PERI AZIMU VELO AIN AR TRES W  DIS CAZ7
 RUS  HZ EP   1   2121  5.09                             152     0.0 8   63  96 
 RUS  HZ I        2121  5.70         1.9 0.26                            63  96 
 RUS  HN ES   2   2121 19.74                             152     0.2 5   63  96 
 BAR2 SZ EP   2   2121  6.65                             142     0.2 5   88  36 
 BAR2 SZ ES   1   2121 21.72                             142    -0.2 8   88  36 
 BAR2 SZ I        2121 23.32        12.3 0.40                            88  36 
 PTB  HZ EP   3   2121  7.84                             134    -0.3 3  111 306 
 PTB  HZ I        2121 25.74         3.2 0.40                           111 306 
 BRR  HZ EP       2121  9.71                             130     0.010  128 357 
 BRR  HN ES   1   2121 27.74                             130     0.1 7  128 357 
