 2011 12 8 2346 58.0 L   6.763 -73.127146.3  RSN  6 0.3 1.7LRSN                1
 GAP=141        0.63       3.9     5.0  5.4 -0.4187E+01  0.5357E+01  0.3080E+01E
 Epicentro: LOS SANTOS - SANTANDER                                             3
 ACTION:UPD 12-07-13 16:15 OP:ep   STATUS:               ID:20111208234657 L   I
 2011-12-08-2340-00M.COL___170                                                 6
 STAT SP IPHASW D HRMM SECON CODA AMPLIT PERI AZIMU VELO AIN AR TRES W  DIS CAZ7
 BAR2 SZ EP       2347 17.58                             172   -0.0910 19.8 198 
 BAR2 SZ ES   1   2347 32.39                             172   -0.59 7 19.8 198 
 BAR2 SZ I        2347 34.35        12.2 0.23                          19.8 198 
 BRR  HZ EP       2347 19.59                             151    0.1210 75.1 301 
 BRR  HZ I        2347 26.55        14.2 0.48                          75.1 301 
 BRR  HE ES   1   2347 36.72                             151    0.54 7 75.1 301 
 PAM  SZ EP       2347 20.50                             150    0.0710 79.3  36 
 PAM  SN ES   1   2347 37.75                             150   -0.15 7 79.3  36 
 RUS  HZ EP       2347 21.63                             145    0.0910 96.3 177 
 RUS  HN ES   1   2347 40.19                             145    0.32 7 96.3 177 
 RUS  HZ I        2347 41.50         3.7 0.32                          96.3 177 
 NOR  SZ EP       2347 33.33                             119   -0.40 8  234 236 
 NOR  SN ES   2   2348  1.41                             119   -0.16 4  234 236 
 CHI  HZ EP   3   2347 35.12                             118   -0.27 2  245 196 
 CHI  HN ES   3   2348  5.48                             118    0.95 2  245 196 
 CHI  HZ I        2348 14.57         3.0 0.66                           245 196 
                                                                                
