 2011 12 8 2006  7.1 L   6.761 -73.150146.0  RSN  6 0.3 1.9LRSN                1
 GAP=138        0.53       3.2     4.9  5.0 -0.4638E+01  0.5093E+01  0.9784E+00E
 Epicentro: LOS SANTOS - SANTANDER                                             3
 ACTION:UPD 12-07-13 16:15 OP:ep   STATUS:               ID:20111208200607 L   I
 2011-12-08-2000-00M.COL___170                                                 6
 STAT SP IPHASW D HRMM SECON CODA AMPLIT PERI AZIMU VELO AIN AR TRES W  DIS CAZ7
 BAR2 SZ EP       20 6 26.66                             172   -0.0310 19.0 191 
 BAR2 SZ ES   1   20 6 41.70                             172   -0.26 7 19.0 191 
 BAR2 SZ I        20 6 43.63        15.9 0.30                          19.0 191 
 BRR  HZ EP       20 6 28.58                             152    0.1910 73.0 302 
 BRR  HZ I        20 6 30.24        24.4 0.12                          73.0 302 
 BRR  HN ES   2   20 6 45.07                             152    0.09 5 73.0 302 
 PAM  SZ EP       20 6 29.48                             150   -0.1010 81.1  38 
 PAM  SN ES   1   20 6 46.88                             150   -0.22 7 81.1  38 
 RUS  HZ EP       20 6 30.71                             145    0.1310 96.3 176 
 RUS  HE ES   1   20 6 49.35                             145    0.46 7 96.3 176 
 RUS  HZ I        20 6 50.43         7.3 0.31                          96.3 176 
 NOR  SZ EP   2   20 6 42.76                             119    0.21 4  232 235 
 NOR  SE ES   2   20 7  9.92                             119   -0.27 4  232 235 
 CHI  HZ EP   2   20 6 44.04                             118   -0.32 4  244 195 
 CHI  HN ES   2   20 7 12.55                             118   -0.86 4  244 195 
 CHI  HZ I        20 7 19.88         4.3 0.69                           244 195 
                                                                                
