 2011  9 8 2203 36.1 L   6.897 -73.410127.1  RSN  4 0.2 1.5LRSN                1
 GAP=143        0.52       4.0     8.0 11.3 -0.8191E+01  0.4848E+02 -0.3333E+01E
 Epicentro: SAN VICENTE DE CHUCURI - SANTANDER                                 3
 ACTION:UPD 12-07-13 15:56 OP:ep   STATUS:               ID:20110908220336 L   I
 2011-09-08-2158-02S.COL___170                                                 6
 STAT SP IPHASW D HRMM SECON CODA AMPLIT PERI AZIMU VELO AIN AR TRES W  DIS CAZ7
 BRR  HZ EP   1   22 3 53.53                             161   -0.15 7 40.6 305 
 BAR2 SZ EP   1   22 3 54.56                             161    0.47 7 42.1 143 
 BAR2 SZ I        22 3 54.91        11.4 0.10                          42.1 143 
 PAM  SZ EP   1   22 3 57.47                             142    0.04 7 92.5  58 
 PAM  SN ES   1   22 4 13.98                             142   -0.09 7 92.5  58 
 RUS  HZ EP   1   22 3 59.15                             135   -0.26 7  117 162 
 RUS  HE ES   1   22 4 17.56                             135   -0.03 7  117 162 
 RUS  HZ I        22 4 20.59         3.2 0.36                           117 162 
                                                                                
