 2013  9 8 2258 42.8 L   6.748 -73.149139.9  RSN  4 0.4 1.4LRSN                1
 GAP=138        1.08       5.7     5.5  9.6 -0.3325E+01  0.5273E+01  0.6790E+01E
 Epicentro: LOS SANTOS - SANTANDER                                             3
 ACTION:UPD 13-10-22 09:21 OP:ep   STATUS:               ID:20130908225842 L   I
 OLDACT:REG 13-09-09 01:26 OP:nd   STATUS:               ID:20130908224959     3
 2013-09-08-2249-59M.COL___269                                                 6
 STAT SP IPHASW D HRMM SECON CODA AMPLIT PERI AZIMU VELO AIN AR TRES W  DIS CAZ7
 BRR  HZ EP       2259  3.76                             150    0.3010 73.8 303 
 BRR  HN ES       2259 20.27                             150    0.6910 73.8 303 
 BRR  HZ I        2259 24.82        13.5 0.20            151           73.8 303 
 PAM  SZ IP     C 2259  4.71                             148    0.0310 82.1  37 
 PAM  SN ES       2259 21.22                             148   -0.5310 82.1  37 
 PAM  SZ I        2259 23.82         3.9 0.50            152           82.1  37 
 RUS  HZ EP       2259  5.85                             144    0.3010 94.9 176 
 RUS  HN ES       2259 23.28                             144   -0.0310 94.9 176 
 RUS  HZ I        2259 24.91         1.9 0.48            149           94.9 176 
 PTB  HZ EP       2259  8.88                             131   -0.28 9  146 261 
 PTB  HN ES       2259 29.12                             131   -0.61 9  146 261 
 PTB  HZ I        2259 32.50         2.6 0.56            134            146 261 
                                                                                
