 2016  9 8 2145 20.8 L   6.795 -73.176146.7  RSN 10 0.3 1.9LRSN                1
 GAP=133        0.74       3.0     3.1  4.7 -0.1456E+01  0.4950E+01  0.7455E-01E
 Epicentro: LOS SANTOS - SANTANDER                                             3
 ACTION:UPD 17-08-17 21:08 OP:lp   STATUS:               ID:20160908214520 L   I
 OLDACT:UP  16-09-09 03:02 OP:drio STATUS:               ID:20160908213732     3
 OLDACT:UP  16-09-09 02:58 OP:drio STATUS:               ID:20160908213732     3
 OLDACT:REG 16-09-09 02:39 OP:drio STATUS:               ID:20160908213732     3
 2016-09-08-2138-00M.COL___357                                                 6
 STAT SP IPHASW D HRMM SECON CODA AMPLIT PERI AZIMU VELO AIN AR TRES W  DIS CAZ7
 BAR2 EZ EP       2145 40.42                             171   -0.1310 22.4 182 
 BAR2 EZ ES       2145 55.84                             171   -0.0910 22.4 182 
 BAR2 EZ I        2145 57.30        19.6 0.46            167           22.4 182 
 BRR  HZ EP       2145 42.34                             154    0.4210 68.5 300 
 BRR  HE ES   4   2146  0.18                             154    1.80 0 68.5 300 
 BRR  HZ I        2146  3.77        10.8 0.14            151           68.5 300 
 PAM  EZ EP       2145 43.37                             150    0.0810 80.0  41 
 PAM  EE ES       2146  0.61                             150   -0.2110 80.0  41 
 PAM  EZ I        2146  5.39         6.0 0.50            146           80.0  41 
 RUS  HZ EP       2145 44.61                             144   -0.0310  100 174 
 RUS  HE ES       2146  3.28                             144    0.0610  100 174 
 RUS  HZ I        2146  4.04         7.6 0.26            137            100 174 
 PTB  HZ EP       2145 47.40                             133   -0.16 9  144 259 
 PTB  HE ES       2146  8.39                             133   -0.02 9  144 259 
 PTB  HZ I        2146 11.91         9.7 0.12            128            144 259 
 SPBC HZ EP       2145 49.50                             130    0.35 9  161 218 
 SPBC HE ES       2146 11.74                             130    0.49 9  161 218 
 SPBC HZ I        2146 13.89        11.7 0.30            124            161 218 
 ZAR  HZ EP       2145 53.50                             123    0.47 9  201 293 
 ZAR  HE ES       2146 17.92                             123   -0.23 9  201 293 
 ZAR  HZ I        2146 24.01        10.8 0.60            118            201 293 
 NOR  HZ EP       2145 55.79                             119   -0.49 8  232 234 
 NOR  HN ES       2146 23.54                             119   -0.39 8  232 234 
 NOR  HZ I        2146 31.78         7.6 0.16            114            232 234 
 CHI  HZ EP       2145 58.04                             117   -0.38 8  247 194 
 CHI  HZ I        2146 33.65         4.2 0.32            112            247 194 
 GUY2CHZ EP   4   2146  5.29                             113    1.16 0  298 234 
 GUY2CHE ES   4   2146 41.83                             113    3.93 0  298 234 
 GUY2CHZ I        2146 45.96         3.3 0.52                           298 234 
                                                                                
