 2015  2 8 2050 45.6 L   6.477 -73.366126.7  RSN  8 0.4 1.5LRSN                1
 GAP= 96        0.86       3.3     4.4  6.8 -0.3767E+01  0.8542E+00  0.1067E+01E
 Epicentro: SIMACOTA - SANTANDER                                               3
 ACTION:UPD 15-04-30 21:24 OP:nd   STATUS:               ID:20150208205045 L   I
 OLDACT:DUP 15-02-09 04:33 OP:spq  STATUS:               ID:20150208204748d    3
 2015-02-08-2047-47M.COL___293                                                 6
 STAT SP IPHASW D HRMM SECON CODA AMPLIT PERI AZIMU VELO AIN AR TRES W  DIS CAZ7
 BAR2 EZ EP       2051  2.75                             169   -0.2110 23.9  58 
 BAR2 EZ ES   1   2051 16.17                             169   -0.34 7 23.9  58 
 BAR2 EZ I        2051 17.08        13.8 0.18            168           23.9  58 
 RUS  HZ EP   1   2051  5.30                             149   -0.17 7 71.8 154 
 RUS  HN ES   1   2051 20.81                             149   -0.16 7 71.8 154 
 RUS  HZ I        2051 21.83         4.3 0.50            139           71.8 154 
 BRR  HZ EP     C 2051  5.30                             146    0.0210 79.5 331 
 BRR  HN ES       2051 20.90                             146    0.2810 79.5 331 
 BRR  HZ I        2051 22.49         8.2 0.38            139           79.5 331 
 PAM  SZ EP       2051  9.69                             134    0.4910  120  38 
 PAM  SE ES   1   2051 27.48                             134   -0.12 7  120  38 
 PAM  SZ I        2051 30.24         3.8 0.32            127            120  38 
 SPBC HZ EP       2051  8.85                             134    0.2210  120 221 
 SPBC HN ES       2051 26.93                             134    0.3510  120 221 
 SPBC HZ I        2051 29.72         6.7 0.10            123            120 221 
 PTB  HZ EP   1   2051  7.38                             133   -1.20 7  121 273 
 PTB  HE ES   1   2051 26.43                             133   -0.08 7  121 273 
 PTB  HZ I        2051 28.06         7.2 0.30            124            121 273 
 CHI  HN ES   1   2051 43.11                             117    0.08 6  208 191 
 CHI  HZ I        2051 48.44         1.5 0.32            110            208 191 
 SML  HN ES   2   2051 54.03                             111    0.00 4  269 343 
 SML  HZ I        2051 57.89         3.0 0.22            106            269 343 
                                                                                
