 2013  9 8 2106  2.0 L   6.834 -73.163137.7  RSN  4 0.4 1.6LRSN                1
 GAP=200        0.96       6.1     6.8 14.7  0.2276E+02 -0.3254E+02 -0.5907E+02E
 Epicentro: LOS SANTOS - SANTANDER                                             3
 ACTION:UPD 13-10-22 09:21 OP:ep   STATUS:               ID:20130908210602 L   I
 OLDACT:DUP 13-09-09 02:14 OP:nd   STATUS:               ID:20130908210002d    3
 2013-09-08-2100-00M.COL___268                                                 6
 STAT SP IPHASW D HRMM SECON CODA AMPLIT PERI AZIMU VELO AIN AR TRES W  DIS CAZ7
 RUS  HZ EP       21 6 25.12                             141   -0.1610  104 175 
 RUS  HN ES       21 6 43.62                             141    0.2010  104 175 
 RUS  HZ I        21 6 44.87         3.9 0.28            150            104 175 
 PTB  HZ EP       21 6 27.86                             130   -0.37 9  147 257 
 PTB  HN ES       21 6 48.49                             130   -0.20 9  147 257 
 PTB  HZ I        21 6 50.94         5.5 0.16            136            147 257 
 ZAR  HZ EP   4   21 6 38.96                             121    5.35 0  201 291 
 ZAR  HN ES       21 6 58.79                             121    0.53 9  201 291 
 ZAR  HZ I        21 7  4.28         4.3 0.38            126            201 291 
 SML  HZ EP       21 6 38.41                             116    0.68 8  239 335 
 SML  HE ES       21 7  5.04                             116   -0.56 8  239 335 
 SML  HZ I        21 7 12.21         3.9 0.10            120            239 335 
                                                                                
