 2010  1 8 2246 15.8 L   6.843 -73.121147.0  RSN  5 0.4 1.6LRSN                1
 GAP=161        0.61       3.6    11.2 10.7 -0.1238E+02  0.6079E+02 -0.5975E+01E
 Epicentro: LOS SANTOS - SANTANDER                                             3
 ACTION:UP  10-08-24 09:43 OP:vdl  STATUS:               ID:20100108224615 L   I
 2010-01-08-2242-30S.COL___097                                                 6
 STAT SP IPHASW D HRMM SECON CODA AMPLIT PERI AZIMU VELO SNR AR TRES W  DIS CAZ7
 RUS  BZ EP   2   2246 39.72                             143    -0.2 5  105 178 
 RUS  BE ES   1   2246 58.88                             143     0.0 7  105 178 
 RUS  BZ I        2246 59.85         4.3 0.35                           105 178 
 GUE  SZ EP   2   2246 40.98                             141     0.8 5  111  11 
 GUE  SZ ES   3   2247  0.07                             141     0.8 2  111  11 
 GRA  SZ EP   2   2246 40.58                             138    -0.1 5  120  17 
 GRA  SZ ES   2   2246 59.43                             138    -0.7 5  120  17 
 CHI  HZ EP   1   2246 53.94                             117    -0.2 6  254 195 
 CHI  HN ES   1   2247 24.15                             117     0.1 6  254 195 
 CHI  HZ I        2247 32.86         3.0 0.74                           254 195 
 MON  HN ES   2   2247 42.75                             109    -0.1 3  352 308 
                                                                                
