 2014  3 8 2344 23.4 L   6.792 -73.158140.8  RSN  7 0.3 1.5LRSN                1
 GAP=135        0.72       3.9     3.5  6.3  0.1474E+01  0.4650E+01 -0.7413E+01E
 Epicentro: LOS SANTOS - SANTANDER                                             3
 ACTION:UPD 14-04-09 23:15 OP:nd   STATUS:               ID:20140308234423 L   I
 OLDACT:UP  14-03-08 22:28 OP:cam  STATUS:               ID:20140308233821     3
 OLDACT:REG 14-03-08 21:59 OP:cam  STATUS:               ID:20140308233821     3
 2014-03-08-2338-21M.COL___232                                                 6
 STAT SP IPHASW D HRMM SECON CODA AMPLIT PERI AZIMU VELO AIN AR TRES W  DIS CAZ7
 BAR2 SZ ES       2344 57.23                             171   -0.0010 22.2 187 
 PAM  SZ EP       2344 45.41                             149    0.2310 79.0  40 
 PAM  SN ES   2   2345  2.32                             149    0.14 5 79.0  40 
 RUS  HZ EP       2344 46.81                             143    0.2110 99.8 175 
 RUS  HN ES       2345  4.58                             143   -0.1210 99.8 175 
 RUS  HZ I        2345  9.92         1.7 0.26            142           99.8 175 
 PTB  HZ EP       2344 49.34                             131   -0.48 9  146 259 
 PTB  HN ES       2345 10.22                             131   -0.21 9  146 259 
 PTB  HZ I        2345 15.74         4.5 0.18            129            146 259 
 ZAR  HZ EP   4   2344 56.81                             121    1.39 0  203 293 
 ZAR  HE ES       2345 20.99                             121    0.59 9  203 293 
 ZAR  HZ I        2345 27.83         4.6 0.28            121            203 293 
 NOR  HN ES   2   2345 26.25                             118    0.09 4  233 234 
 NOR  HZ I        2345 32.21         2.9 0.52            117            233 234 
 SML  HZ EP   2   2344 59.46                             116   -0.31 4  244 336 
 SML  HN ES   2   2345 27.27                             116   -0.88 4  244 336 
                                                                                
