 2013  9 8 2224 51.9 L   7.583 -73.217143.7  RSN  4 0.5 1.5LRSN                1
 GAP=213        1.11       5.3    10.9 11.4  0.1448E+02 -0.1108E+01 -0.2083E+02E
 Epicentro: EL PLAYON - SANTANDER                                              3
 ACTION:UPD 13-10-22 09:21 OP:ep   STATUS:               ID:20130908222451 L   I
 OLDACT:REG 13-09-09 01:15 OP:nd   STATUS:               ID:20130908222000     3
 2013-09-08-2220-00M.COL___268                                                 6
 STAT SP IPHASW D HRMM SECON CODA AMPLIT PERI AZIMU VELO AIN AR TRES W  DIS CAZ7
 BRR  HZ IP     C 2225 13.58                             151    0.5010 75.8 226 
 BRR  HN ES       2225 30.22                             151    0.6110 75.8 226 
 BRR  HZ I        2225 31.24         6.7 0.16            143           75.8 226 
 BAR2 SZ EP   2   2225 15.03                             141   -0.72 5  110 178 
 BAR2 SZ ES       2225 33.91                             141   -0.4610  110 178 
 BAR2 SZ I        2225 34.85         4.6 0.26            140            110 178 
 SML  HZ EP       2225 20.42                             128    0.21 9  164 325 
 SML  HN ES       2225 41.82                             128   -0.48 9  164 325 
 SML  HZ I        2225 47.94         7.7 0.08            125            164 325 
 PTB  HZ EP       2225 21.85                             126    0.18 9  179 230 
 PTB  HN ES       2225 44.38                             126   -0.52 9  179 230 
 PTB  HZ I        2225 54.19         1.7 0.34            122            179 230 
                                                                                
