 2012  6 8 2022 50.2 L   6.821 -73.140128.9  RSN 10 0.4 2.7LRSN                1
 GAP=184        0.87       2.9     4.0  5.5  0.1802E-01  0.7077E+01 -0.2653E+00E
 Epicentro: LOS SANTOS - SANTANDER                                             3
 ACTION:UPD 12-08-06 17:48 OP:ep   STATUS:               ID:20120608202249 L   I
 2012-06-08-2020-00M.COL___201                                                 6
 STAT SP IPHASW D HRMM SECON CODA AMPLIT PERI AZIMU VELO AIN AR TRES W  DIS CAZ7
 BAR2 SZ EP       2023  8.59                             168    0.7210 25.7 190 
 BAR2 SZ ES       2023 21.25                             168   -0.4010 25.7 190 
 BAR2 SZ I        2023 24.71       120.6 0.25            165           25.7 190 
 RUS  HZ EP       2023 12.64                             139    0.1310  103 176 
 RUS  HE ES   1   2023 30.07                             139    0.15 7  103 176 
 RUS  HZ I        2023 32.53        28.9 0.33            140            103 176 
 PTB  HZ EP       2023 15.57                             128   -0.38 9  149 258 
 PTB  HN ES       2023 35.72                             128   -0.31 9  149 258 
 PTB  HZ I        2023 39.14        99.8 0.13            128            149 258 
 OCA  HZ EP       2023 16.67                             126   -0.37 9  158 353 
 OCA  HN ES       2023 37.95                             126   -0.02 9  158 353 
 ZAR  HZ EP       2023 21.40                             118   -0.17 9  204 291 
 ZAR  HN ES       2023 46.84                             118    0.79 9  204 291 
 ZAR  HZ I        2023 52.46       122.4 0.39            120            204 291 
 NOR  SZ EP       2023 24.99                             114   -0.22 8  237 234 
 NOR  SN ES       2023 52.47                             114   -0.05 8  237 234 
 CHI  HZ EP   1   2023 27.42                             113    0.13 6  251 195 
 CHI  HN ES   1   2023 56.48                             113    0.26 6  251 195 
 CHI  HZ I        2024  4.12        23.8 0.40            115            251 195 
 HEL  HZ EP       2023 30.19                             111    0.45 8  273 255 
 HEL  HN ES   1   2024  0.48                             111   -0.10 6  273 255 
 HEL  HZ I        2024  6.93        40.8 0.49            112            273 255 
 DBB  SZ EP       2023 36.90                             106   -0.20 7  340 274 
 PRA  HZ EP       2023 43.00                             103   -0.46 6  394 209 
                                                                                
