 2013  3 8 2224 20.5 L   6.797 -73.149147.8  RSN 11 0.5 2.4LRSN                1
 GAP=136        0.94       3.4     5.3  6.5  0.2012E+00  0.9215E+01  0.1430E+01E
 Epicentro: LOS SANTOS - SANTANDER                                             3
 ACTION:UPD 13-04-09 14:00 OP:ep   STATUS:               ID:20130308222420 L   I
 2013-03-08-2220-00M.COL___231                                                 6
 STAT SP IPHASW D HRMM SECON CODA AMPLIT PERI AZIMU VELO AIN AR TRES W  DIS CAZ7
 BAR2 SZ EP   1   2224 40.41                             171    0.02 7 23.0 189 
 BAR2 SZ ES   1   2224 55.96                             171    0.07 7 23.0 189 
 BAR2 SZ I        2224 58.46        62.6 0.34            164           23.0 189 
 BRR  HZ EP     C 2224 42.35                             153    0.4610 71.0 299 
 BRR  HN ES   1   2224 59.47                             153    0.93 7 71.0 299 
 BRR  HZ I        2225  4.13        35.1 0.14            142           71.0 299 
 PAM  SZ EP   1   2224 43.25                             151    0.26 7 77.9  40 
 PAM  SN ES   1   2225  0.47                             151   -0.03 7 77.9  40 
 PAM  SZ I        2225  2.62        21.1 0.22            151           77.9  40 
 RUS  HZ EP   1   2224 44.26                             144   -0.20 7  100 176 
 RUS  HN ES   1   2225  2.69                             144   -0.43 7  100 176 
 RUS  HZ I        2225  4.30        14.6 0.36            139            100 176 
 PTB  HZ EP   1   2224 47.35                             133   -0.27 7  147 259 
 PTB  HN ES   1   2225  8.39                             133   -0.37 7  147 259 
 PTB  HZ I        2225 13.76        28.6 0.26            123            147 259 
 OCA  HZ EP   1   2224 49.88                             130    0.86 7  161 353 
 OCA  HN ES   1   2225 10.18                             130   -1.06 7  161 353 
 OCA  HZ I        2225 16.43        35.7 0.24            124            161 353 
 ZAR  HZ EP   1   2224 52.79                             123   -0.29 6  204 292 
 ZAR  HE ES   1   2225 18.50                             123    0.03 6  204 292 
 ZAR  HZ I        2225 24.91        29.5 0.40            115            204 292 
 SML  HZ EP   1   2224 56.90                             118   -0.38 6  244 335 
 SML  HN ES   1   2225 25.19                             118   -0.76 6  244 335 
 SML  HZ I        2225 32.73        43.5 0.10            112            244 335 
 CHI  HZ EP   1   2224 58.43                             118    0.13 6  248 195 
 CHI  HN ES   1   2225 27.41                             118   -0.35 6  248 195 
 CHI  HZ I        2225 36.28         9.4 0.58            112            248 195 
 HEL  HZ EP   1   2225  1.63                             115    0.83 6  272 256 
 HEL  HZ I        2225 41.15         9.0 0.36            109            272 256 
 PRA  HZ EP   1   2225 14.00                             107   -0.07 4  392 210 
 PRA  HE ES   1   2225 55.51                             107   -0.32 4  392 210 
 PRA  HZ I        2226  2.22        12.5 0.30            102            392 210 
                                                                                
