 2014  4 8 2128 14.9 L   6.836 -73.169146.0  RSN 14 0.5 2.7LRSN                1
 GAP=132        1.23       3.3     4.6  7.1 -0.3225E+01  0.8462E+01  0.4140E+01E
 Epicentro: LOS SANTOS - SANTANDER                                             3
 ACTION:UPD 14-05-13 23:07 OP:nd   STATUS:               ID:20140408212814 L   I
 OLDACT:DUP 14-04-09 08:53 OP:carl STATUS:               ID:20140408211811d    3
 2014-04-08-2118-09M.COL___250                                                 6
 STAT SP IPHASW D HRMM SECON CODA AMPLIT PERI AZIMU VELO AIN AR TRES W  DIS CAZ7
 BRR  HZ IP     C 2128 36.44                             154    0.5610 67.1 297 
 BRR  HN ES       2128 53.23                             154    1.0110 67.1 297 
 BRR  HZ I        2128 56.29        83.8 0.22            151           67.1 297 
 PAM  SZ EP       2128 37.56                             151    0.4610 76.1  43 
 PAM  SN ES       2128 54.53                             151    0.1510 76.1  43 
 PAM  SZ I        2128 56.53       118.6 0.54            157           76.1  43 
 RUS  HZ EP       2128 38.79                             143   -0.2310  105 175 
 RUS  HE ES       2128 57.30                             143   -0.5010  105 175 
 RUS  HZ I        2128 59.27        40.9 0.16            145            105 175 
 PTB  HZ EP       2128 41.29                             132   -0.48 9  146 257 
 PTB  HN ES       2129  1.59                             132   -1.11 9  146 257 
 PTB  HZ I        2129  7.51        65.2 0.16            132            146 257 
 OCA  HZ EP       2128 42.70                             130   -0.16 9  156 354 
 OCA  HN ES       2129  4.22                             130   -0.43 9  156 354 
 OCA  HZ I        2129  7.45        70.0 0.16            133            156 354 
 ZAR  HN ES       2129 12.47                             123    0.46 9  200 291 
 ZAR  HZ I        2129 21.21        61.4 0.14            124            200 291 
 NOR  HZ EP       2128 51.02                             119    0.31 8  235 233 
 NOR  HN ES       2129 17.80                             119   -0.81 8  235 233 
 NOR  HZ I        2129 24.52        31.4 0.18            120            235 233 
 SML  HZ EP       2128 51.02                             118   -0.04 8  239 335 
 SML  HN ES       2129 18.71                             118   -0.53 8  239 335 
 SML  HZ I        2129 23.06        57.9 0.10            120            239 335 
 CHI  HN ES       2129 22.46                             117   -0.22 8  252 194 
 CHI  HZ I        2129 27.12        14.3 0.46            119            252 194 
 HEL  HZ EP       2128 54.86                             115   -0.14 8  271 255 
 HEL  HN ES       2129 26.59                             115    0.35 8  271 255 
 HEL  HZ I        2129 32.94        29.5 0.40            116            271 255 
 URE  HZ EP   4   2128 56.74                             114    1.16 0  280 291 
 URE  HN ES   4   2129 26.56                             114   -0.73 0  280 291 
 GUY2CHZ EP       2128 58.30                             112   -0.28 7  301 234 
 GUY2CHN ES       2129 33.15                             112    0.52 7  301 234 
 GUY2CHZ I        2129 40.97        16.0 0.40                           301 234 
 PTGC HZ EP   4   2128 58.11                             111   -1.22 0  313 158 
 PTGC HE ES   4   2129 31.49                             111   -2.47 0  313 158 
 RREF HZ EP       2129  1.15                             111   -0.01 7  322 229 
 RREF HE ES       2129 37.85                             111    0.63 7  322 229 
 RREF HZ I        2129 46.96        21.5 0.36            112            322 229 
 PRA  HZ EP       2129  9.30                             106    0.58 6  394 209 
 PRA  HE ES       2129 51.27                             106    0.59 6  394 209 
 PRA  HZ I        2129 56.64        19.7 0.30            108            394 209 
 SJC  HZ EP   4   2129  8.59                             106   -1.35 0  404 327 
 SJC  HN ES   4   2129 49.17                             106   -3.68 0  404 327 
 SJC  HZ I        2129 54.09        16.3 0.50            108            404 327 
                                                                                
