 2017  1 8 2122 46.9 L   6.767 -73.131141.1  RSN  8 0.3 1.5LRSN                1
 GAP=140        0.98       4.8     5.6  6.9 -0.1661E+01 -0.2238E+01  0.1576E+01E
 Epicentro: LOS SANTOS - SANTANDER                                             3
 ACTION:UPD 17-05-22 15:57 OP:jn   STATUS:               ID:20170108212246 L   I
 OLDACT:UP  17-01-09 03:57 OP:edw  STATUS:               ID:20170108211748     3
 OLDACT:REG 17-01-09 02:53 OP:edw  STATUS:               ID:20170108211748     3
 2017-01-08-2118-00M.COL___371                                                 6
 STAT SP IPHASW D HRMM SECON CODA AMPLIT PERI AZIMU VELO AIN AR TRES W  DIS CAZ7
 BAR2 EZ EP       2123  5.57                             171   -0.2910 20.2 196 
 BAR2 EZ ES       2123 20.22                             171   -0.4710 20.2 196 
 BAR2 EZ I        2123 21.72        10.5 0.22            167           20.2 196 
 BRR  HZ IP       2123  7.57                             150   -0.1210 74.4 300 
 BRR  HE ES       2123 24.58                             150    0.6410 74.4 300 
 BRR  HZ I        2123 28.88         6.3 0.12            144           74.4 300 
 PAM  EZ EP     D 2123  8.68                             149   -0.0110 79.2  37 
 PAM  EN ES       2123 25.55                             149   -0.1710 79.2  37 
 PAM  EZ I        2123 26.09         4.1 0.18            151           79.2  37 
 RUS  HZ EP       2123 10.14                             143    0.2610 96.9 177 
 RUS  HN ES       2123 28.04                             143    0.2010 96.9 177 
 RUS  HZ I        2123 29.21         4.7 0.28            144           96.9 177 
 PTB  HZ EP   9   2123 12.77                             130   -0.77 0  149 260 
 PTB  HN ES       2123 32.71                             130   -0.87 9  149 260 
 PTB  HZ I        2123 35.64         4.0 0.24            127            149 260 
 ZAR  HZ EP   4   2123 17.47                             120   -1.84 0  207 293 
 ZAR  HE ES   2   2123 44.88                             120    0.26 4  207 293 
 ZAR  HZ I        2123 52.43         5.7 0.52            118            207 293 
 NOR  HZ EP   2   2123 21.93                             117   -0.31 4  234 235 
 NOR  HN ES   2   2123 49.69                             117   -0.15 4  234 235 
 NOR  HZ I        2123 56.58         1.7 0.26            115            234 235 
 GUY2CHZ EP   4   2123 31.60                             111    1.43 0  300 236 
 GUY2CHN ES   4   2124  5.35                             111    1.39 0  300 236 
 GUY2CHZ  IAML    2124 13.08         1.5 0.40                           300 236 
                                                                                
