 2012  7 8 2003 13.7 L   6.740 -73.178152.3  RSN  5 0.1 1.3LRSN                1
 GAP=229        0.29       6.2     5.2  6.5  0.2348E+02 -0.2018E+01 -0.9538E+01E
 Epicentro: VILLANUEVA - SANTANDER                                             3
 ACTION:UPD 12-08-14 11:43 OP:ep   STATUS:               ID:20120708200313 L   I
 2012-07-08-2000-00M.COL___201                                                 6
 STAT SP IPHASW D HRMM SECON CODA AMPLIT PERI AZIMU VELO AIN AR TRES W  DIS CAZ7
 BAR2 SZ EP   3   20 3 34.12                             174     0.1 2   16 182 
 BAR2 SZ ES   3   20 3 49.74                             174    -0.1 2   16 182 
 BAR2 SZ I        20 3 50.44         4.7 0.18                            16 182 
 BRR  HZ EP   3   20 3 35.52                             153    -0.1 2   72 305 
 BRR  HN ES   3   20 3 52.77                             153     0.1 2   72 305 
 BRR  HZ I        20 3 56.40         6.6 0.62                            72 305 
 RUS  HZ EP   2   20 3 37.57                             147    -0.1 5   94 174 
 RUS  HN ES   2   20 3 56.52                             147     0.1 5   94 174 
 RUS  HZ I        20 3 57.74         2.2 0.42                            94 174 
 PTB  HZ EP   2   20 3 40.98                             134     0.1 5  143 261 
 PTB  HN ES   2   20 4  1.84                             134    -0.1 5  143 261 
 PTB  HZ I        20 4  7.23         1.6 0.58                           143 261 
 ZAR  HN ES   2   20 4 12.19                             124     0.0 4  203 294 
 ZAR  HZ I        20 4 17.02         2.3 0.24                           203 294 
