 2010  9 8 2136 49.9 L   6.765 -73.063140.6  RSN  7 0.3 1.8LRSN                1
 GAP=174        0.58       3.4     7.0  5.5  0.8197E+01 -0.1364E+02 -0.3047E+01E
 Epicentro: LOS SANTOS - SANTANDER                                             3
 ACTION:UP  11-02-18 11:01 OP:tino STATUS:               ID:20100908213649 L   I
 2010-09-08-2133-02S.COL___120                                                 6
 STAT SP IPHASW D HRMM SECON CODA AMPLIT PERI AZIMU VELO SNR AR TRES W  DIS CAZ7
 BAR2 SZ IP       2137  8.92                             171     0.010   23 215 
 BAR2 SZ I        2137  9.22        21.6 0.10                            23 215 
 BAR2 SZ ES   1   2137 23.93                             171     0.2 7   23 215 
 GIR2 SZ EP   2   2137  9.07                             164    -0.1 5   38 337 
 BRR  HZ IP     C 2137 10.86                             149    -0.210   81 298 
 BRR  HZ I        2137 11.19        22.4 0.12                            81 298 
 BRR  HN ES       2137 27.59                             149    -0.110   81 298 
 RUS  HZ EP       2137 12.86                             144     0.010   97 181 
 RUS  HZ I        2137 14.03         5.0 0.18                            97 181 
 RUS  HN ES   1   2137 30.82                             144     0.1 7   97 181 
 GUE  SZ EP   1   2137 14.09                             138    -0.2 7  119   7 
 GUE  SZ I        2137 17.17         3.1 0.09                           119   7 
 OCA  SZ EP   2   2137 18.75                             128     0.4 5  165 350 
 OCA  SZ ES   2   2137 41.35                             128     0.9 5  165 350 
 OCA  SZ I        2137 48.27        13.3 0.29                           165 350 
 PRA  HZ EP   2   2137 43.76                             106     0.4 3  393 211 
 PRA  HZ I        2137 54.67         4.1 0.68                           393 211 
 PRA  HE ES   2   2138 25.38                             106     0.3 3  393 211 
                                                                                
