 2013  6 8 2205 25.2 L   6.806 -73.141141.0  RSN 10 0.5 2.5LRSN                1
 GAP= 71        1.16       4.1     3.4  6.1  0.7522E+00  0.3202E+01  0.1443E+01E
 Epicentro: LOS SANTOS - SANTANDER                                             3
 ACTION:UPD 14-01-08 09:53 OP:ep   STATUS:               ID:20130608220525 L   I
 OLDACT:REG 13-06-08 22:10 OP:stll STATUS:               ID:20130608215850     3
 2013-06-08-2158-50M.COL___232                                                 6
 STAT SP IPHASW D HRMM SECON CODA AMPLIT PERI AZIMU VELO AIN AR TRES W  DIS CAZ7
 BAR2 SZ IP     C 22 5 44.27                             170    0.0310 24.1 191 
 BAR2 SZ I        22 5 44.38        35.1 0.42            168           24.1 191 
 BAR2 SZ ES       22 5 59.04                             170   -0.0710 24.1 191 
 GIR2 SZ EP       22 5 44.33                             167    0.0710 30.7 349 
 GIR2 SZ ES       22 5 58.92                             167   -0.2310 30.7 349 
 BRR  HZ IP     D 22 5 46.18                             152    0.3710 71.4 298 
 BRR  HN ES       22 6  2.64                             152    0.7310 71.4 298 
 BRR  HE I        22 6  3.45        72.8 0.32            151           71.4 298 
 PAM  SZ EP       22 5 47.00                             150    0.1710 76.5  40 
 PAM  SN ES       22 6  4.03                             150    0.3210 76.5  40 
 PAM  SN I        22 6  5.00        57.7 0.24            152           76.5  40 
 RUS  HZ EP       22 5 48.26                             143   -0.2410  101 176 
 RUS  HE ES       22 6  6.91                             143    0.2210  101 176 
 RUS  HE I        22 6  8.51        35.9 0.20            142            101 176 
 PTB  HZ EP       22 5 51.10                             131   -0.71 9  148 259 
 PTB  HE ES       22 6 11.90                             131   -0.69 9  148 259 
 PTB  HE I        22 6 15.02        46.9 0.20            130            148 259 
 TAM  HZ IP     D 22 5 52.59                             130    0.15 9  155 105 
 TAM  HE ES       22 6 13.39                             130   -0.32 9  155 105 
 TAM  HE I        22 6 14.62        25.7 0.20            131            155 105 
 OCA  HZ EP       22 5 52.95                             129   -0.11 9  160 353 
 OCA  HN ES       22 6 14.05                             129   -0.76 9  160 353 
 OCA  HN I        22 6 14.93        73.9 0.16            130            160 353 
 ZAR  HN ES       22 6 22.80                             121    0.38 9  204 292 
 HEL  HZ EP       22 6  6.41                             114    1.19 8  273 256 
 HEL  HN ES       22 6 36.06                             114   -0.40 8  273 256 
 HEL  HE I        22 6 43.29        13.9 0.44            114            273 256 
                                                                                
