 2014  8 8 2225 55.1 L   6.808 -73.124151.1  RSN 17 0.5 2.3LRSN                1
 GAP= 72        1.14       3.0     3.3  5.3 -0.7866E+00  0.3840E+01  0.1489E+01E
 Epicentro: LOS SANTOS - SANTANDER                                             3
 ACTION:UPD 14-09-15 21:47 OP:nd   STATUS:               ID:20140808222555 L   I
 OLDACT:UP  14-08-09 04:36 OP:mh   STATUS:               ID:20140808221819     3
 OLDACT:REG 14-08-09 03:30 OP:mh   STATUS:               ID:20140808221819     3
 2014-08-08-2218-19M.COL___269                                                 6
 STAT SP IPHASW D HRMM SECON CODA AMPLIT PERI AZIMU VELO AIN AR TRES W  DIS CAZ7
 BAR2 SZ EP       2226 15.57                             170    0.1310 24.7 195 
 BAR2 SZ ES       2226 30.24                             170   -1.0310 24.7 195 
 BAR2 SZ I        2226 33.58        24.5 0.25            169           24.7 195 
 BRR  HZ EP       2226 17.54                             153    0.5810 72.9 297 
 BRR  HN ES       2226 34.77                             153    0.7910 72.9 297 
 BRR  HZ I        2226 39.74        29.1 0.38            154           72.9 297 
 PAM  SZ EP       2226 18.33                             152    0.5310 75.2  39 
 PAM  SN ES       2226 35.32                             152   -0.1510 75.2  39 
 PAM  SZ I        2226 37.79        26.5 0.51            153           75.2  39 
 RUS  HZ EP       2226 19.42                             145   -0.0510  101 177 
 RUS  HN ES       2226 38.36                             145   -0.0910  101 177 
 PTB  HZ EP       2226 22.18                             133   -0.59 9  150 259 
 PTB  HN ES       2226 43.88                             133   -0.44 9  150 259 
 PTB  HZ I        2226 50.75        36.0 0.42            133            150 259 
 TAM  HZ EP       2226 23.35                             132    0.30 9  153 106 
 TAM  HZ I        2226 44.53        17.5 0.38            132            153 106 
 TAM  HE ES       2226 45.17                             132    0.34 9  153 106 
 OCA  HZ EP       2226 23.39                             131   -0.42 9  160 352 
 OCA  HN ES   1   2226 45.94                             131   -0.24 7  160 352 
 OCA  HZ I        2226 50.25        23.6 0.34            131            160 352 
 SPBC HZ EP       2226 24.49                             130    0.24 9  165 219 
 SPBC HN ES       2226 47.52                             130    0.55 9  165 219 
 SPBC HZ I        2226 53.84        44.6 0.28            129            165 219 
 ZAR  HZ EP       2226 28.08                             123   -0.04 8  206 292 
 ZAR  HN ES       2226 54.53                             123    0.67 8  206 292 
 ZAR  HZ I        2227  0.40        17.2 0.44            123            206 292 
 NOR  HZ EP       2226 31.08                             119   -0.36 8  237 235 
 NOR  HN ES       2226 59.25                             119   -0.51 8  237 235 
 NOR  HZ I        2227  5.73        16.1 0.48            119            237 235 
 SML  HZ EP       2226 31.40                             118   -0.69 8  244 335 
 SML  HN ES   1   2227  0.36                             118   -0.55 6  244 335 
 CHI  HZ EP       2226 33.30                             118    0.00 8  250 196 
 CHI  HN ES       2227  2.80                             118   -0.26 8  250 196 
 CHI  HZ I        2227 10.73         6.0 0.09            118            250 196 
 HEL  HZ EP       2226 35.79                             116   -0.11 8  275 256 
 HEL  HE ES       2227  8.28                             116    0.58 8  275 256 
 HEL  HZ I        2227 15.26        10.3 0.30            115            275 256 
 GUY2CHZ EP   4   2226 39.81                             113    0.54 0  304 235 
 GUY2CHN ES   4   2227 15.96                             113    2.26 0  304 235 
 GUY2CHZ I        2227 22.62        11.2 0.29                           304 235 
 TOL  SZ EP       2226 44.53                             110    0.65 6  346 225 
 TOL  SN ES   4   2227 21.14                             110   -0.75 0  346 225 
 MON  HZ EP   4   2226 41.59                             109   -2.91 0  355 308 
 MON  HN ES   4   2227 19.79                             109   -3.21 0  355 308 
 PRA  HZ EP       2226 48.84                             107   -0.23 6  394 210 
 PRA  HN ES       2227 30.73                             107   -0.41 6  394 210 
 PRA  HZ I        2227 36.38         6.7 0.12            107            394 210 
 SJC  HZ EP   4   2226 49.25                             106   -1.69 0  410 327 
 SJC  HN ES   4   2227 29.96                             106   -4.51 0  410 327 
 SJC  HZ I        2227 36.37         3.9 0.26            107            410 327 
                                                                                
