 2017  9 8 2034 52.5 L   6.809 -73.113148.0  RSN  9 0.3 1.7LRSN                1
 GAP=140        0.82       2.9     3.6  5.1 -0.1203E+01  0.5328E+01  0.2813E+01E
 Epicentro: LOS SANTOS - SANTANDER                                             3
 ACTION:UPD 17-10-05 19:10 OP:rebc STATUS:               ID:20170908203452 L   I
 OLDACT:UP  17-09-09 05:46 OP:osc  STATUS:               ID:20170908202741d    3
 OLDACT:DUP 17-09-09 05:36 OP:osc  STATUS:               ID:20170908202741d    3
 2017-09-08-2028-00M.COL___422                                                 6
 STAT SP IPHASW D HRMM SECON CODA AMPLIT PERI AZIMU VELO AIN AR TRES W  DIS CAZ7
 BAR2 EZ EP       2035 12.13                             170   -0.3210 25.2 198 
 BAR2 EZ ES       2035 27.97                             170   -0.0310 25.2 198 
 BAR2 EZ I        2035 28.71        16.0 0.19            171           25.2 198 
 BRR  HZ EP       2035 13.95                             152   -0.1110 74.0 296 
 BRR  HE ES       2035 31.17                             152    0.3110 74.0 296 
 PAM  EZ EP       2035 15.14                             152    0.3510 74.3  38 
 PAM  EE ES       2035 32.27                             152    0.1110 74.3  38 
 PAM  EZ I        2035 34.24        12.3 0.52            153           74.3  38 
 RUS  HZ EP       2035 16.58                             144    0.0410  101 178 
 RUS  HN ES       2035 35.04                             144   -0.2410  101 178 
 RUS  HZ I        2035 37.55         2.2 0.28            146            101 178 
 SPBC HZ EP       2035 21.06                             129   -0.42 9  166 220 
 SPBC HE ES       2035 44.25                             129    0.18 9  166 220 
 ZAR  HZ EP       2035 25.44                             122    0.02 8  207 292 
 ZAR  HE ES       2035 50.42                             122   -0.66 8  207 292 
 ZAR  HZ I        2035 56.13         6.7 0.30            123            207 292 
 NOR  HE ES       2035 57.30                             118    0.28 8  238 235 
 CHI  HZ EP       2035 31.08                             117    0.53 8  251 196 
 CHI  HN ES       2035 59.78                             117   -0.43 8  251 196 
 GUY2CHZ EP   4   2035 38.83                             112    2.20 0  305 235 
 GUY2CHN ES       2036 11.64                             112    0.60 7  305 235 
 GUY2CHZ I        2036 20.25         1.9 0.44                           305 235 
                                                                                
