 2011 11 8 2259 42.2 L   6.804 -73.120137.4  RSN  4 0.4 1.2LRSN                1
 GAP=140        0.96       8.0    12.0 12.0  0.3696E+02 -0.6037E+02 -0.3749E+02E
 Epicentro: LOS SANTOS - SANTANDER                                             3
 ACTION:UPD 12-07-13 16:09 OP:ep   STATUS:               ID:20111108225942 L   I
 2011-11-08-2257-16S.COL___178                                                 6
 STAT SP IPHASW D HRMM SECON CODA AMPLIT PERI AZIMU VELO AIN AR TRES W  DIS CAZ7
 BAR2 SZ ES   1   23 0 14.71                             170   -0.73 7 24.4 196 
 BRR  HZ EP       23 0  2.27                             150   -0.3610 73.5 297 
 BRR  HN ES   1   23 0 19.13                             150    0.60 7 73.5 297 
 PAM  SZ EP       23 0  3.66                             150    0.2210 75.2  38 
 RUS  HZ EP   1   23 0  5.12                             142   -0.08 7  101 178 
 RUS  HN ES   1   23 0 23.58                             142    0.47 7  101 178 
 RUS  HZ I        23 0 25.16         2.7 0.26                           101 178 
                                                                                
