 2011  8 8 2113 11.8 L   6.797 -73.067144.1  RSN  7 0.2 1.9LRSN                1
 GAP=245        0.32       2.8     4.0  4.0  0.1643E+00  0.3471E+01  0.3928E+01E
 Epicentro: LOS SANTOS - SANTANDER                                             3
 ACTION:UPD 12-07-25 14:07 OP:epov STATUS:               ID:20110808211311 L   I
 2011-08-08-2100-00M.COL___145                                                 6
 STAT SP IPHASW D HRMM SECON CODA AMPLIT PERI AZIMU VELO AIN AR TRES W  DIS CAZ7
 BAR2 SZ EP   1   2113 31.42                             169    0.15 7 25.9 209 
 BAR2 SZ ES   2   2113 46.66                             169    0.20 5 25.9 209 
 BAR2 SZ I        2113 47.43        11.2 0.17                          25.9 209 
 BRR  HZ EP   1   2113 33.25                             150    0.03 7 79.1 296 
 BRR  HZ I        2113 34.31        33.7 0.36                          79.1 296 
 BRR  HE ES   2   2113 49.83                             150   -0.11 5 79.1 296 
 RUS  HZ EP   2   2113 35.15                             144   -0.18 5100.0 181 
 RUS  HN ES   2   2113 53.47                             144   -0.22 5100.0 181 
 RUS  HZ I        2113 55.58         7.7 0.44                         100.0 181 
 NOR  SZ EP   2   2113 47.82                             117   -0.34 4  242 236 
 NOR  SN ES   2   2114 16.22                             117   -0.32 4  242 236 
 CHI  HZ EP   1   2113 49.66                             117    0.05 6  251 197 
 CHI  HE ES   2   2114 19.15                             117    0.03 4  251 197 
 CHI  HZ I        2114 22.42         3.9 0.53                           251 197 
 RREF HN ES   2   2114 35.50                             110    0.41 3  328 230 
 RREF HZ I        2114 42.28         5.2 0.25                           328 230 
 PRA  HZ EP   2   2114  5.63                             106   -0.09 3  396 211 
 PRA  HE ES   2   2114 48.03                             106    0.24 3  396 211 
                                                                                
