 2011 11 8 2220 29.4 L   6.772 -73.096142.4  RSN  5 0.5 1.6LRSN                1
 GAP=144        0.93       6.0     8.9  9.7 -0.1251E+01 -0.4420E+01 -0.3065E+01E
 Epicentro: LOS SANTOS - SANTANDER                                             3
 ACTION:UPD 12-07-13 16:09 OP:ep   STATUS:               ID:20111108222029 L   I
 2011-11-08-2218-23S.COL___178                                                 6
 STAT SP IPHASW D HRMM SECON CODA AMPLIT PERI AZIMU VELO AIN AR TRES W  DIS CAZ7
 BAR2 SZ EP       2220 48.69                             171    0.0710 22.1 205 
 BAR2 SZ ES   1   2221  2.66                             171   -0.94 7 22.1 205 
 BAR2 SZ I        2221  5.08         9.8 0.32                          22.1 205 
 PAM  SZ EP       2220 51.28                             150    0.0610 76.5  35 
 PAM  SN ES   1   2221  8.66                             150    0.43 7 76.5  35 
 BRR  HZ EP       2220 50.43                             150   -0.1410 77.4 299 
 BRR  HZ I        2220 52.64        15.1 0.38                          77.4 299 
 BRR  HN ES   1   2221  7.78                             150    0.70 7 77.4 299 
 RUS  HZ EP   2   2220 52.61                             144    0.01 5 97.3 179 
 RUS  HE ES   2   2221 11.21                             144    0.53 5 97.3 179 
 RUS  HZ I        2221 11.50         3.1 0.52                          97.3 179 
 OCA  SZ ES   1   2221 19.50                             128   -0.49 7  164 351 
                                                                                
