 2015  1 8 2341 19.2 L   6.856 -72.908  4.0  RSN  4 0.8 0.8LRSN                1
 GAP=167        1.89       5.4     8.3 15.4 -0.2724E+02  0.4246E+02 -0.7352E+01E
 Epicentro: GUACA - SANTANDER                                                  3
 ACTION:UPD 15-03-02 15:38 OP:nd   STATUS:               ID:20150108234119 L   I
 OLDACT:UP  15-01-09 07:58 OP:stll STATUS:               ID:20150108233745d    3
 OLDACT:DUP 15-01-09 07:53 OP:stll STATUS:               ID:20150108233745d    3
 2015-01-08-2337-44M.COL___265                                                 6
 STAT SP IPHASW D HRMM SECON CODA AMPLIT PERI AZIMU VELO AIN AR TRES W  DIS CAZ7
 BAR2 EZ ES       2341 30.78                              47   -1.2410 42.1 226 
 BAR2 EZ I        2341 32.88        10.3 0.10             47           42.1 226 
 PAM  SZ EP       2341 29.35                              47    0.2810 58.1  23 
 PAM  SE ES       2341 36.18                              47   -0.6210 58.1  23 
 PAM  SZ I        2341 37.22         6.3 0.22             47           58.1  23 
 RUS  HZ EP       2341 37.80                              47    1.1210  108 190 
 RUS  HZ I        2341 39.38         1.0 0.18             47            108 190 
 RUS  HN ES       2341 50.15                              47   -0.1910  108 190 
 PTB  HZ EP   2   2341 47.44                              47    1.19 4  175 259 
 PTB  HZ I        2341 48.58         1.5 0.32             47            175 259 
 PTB  HE ES       2342  7.92                              47    0.54 9  175 259 
                                                                                
