 2014  9 8 2045  7.9 L   6.846 -73.100140.6  RSN  6 0.5 1.7LRSN                1
 GAP=205        0.90       5.1     6.4 10.0  0.1018E+02  0.2478E+02 -0.9982E+01E
 Epicentro: LOS SANTOS - SANTANDER                                             3
 ACTION:UPD 14-10-03 23:03 OP:nd   STATUS:               ID:20140908204507 L   I
 OLDACT:REG 14-09-09 03:27 OP:fm   STATUS:               ID:20140908203818     3
 2014-09-08-2038-18M.COL___266                                                 6
 STAT SP IPHASW D HRMM SECON CODA AMPLIT PERI AZIMU VELO AIN AR TRES W  DIS CAZ7
 BAR2 SZ EP   1   2045 27.27                             168    0.18 8 29.5 198 
 BAR2 SZ ES   1   2045 42.63                             168    0.59 8 29.5 198 
 BAR2 SZ I        2045 45.01         7.9 0.26            171           29.5 198 
 RUS  HZ EP   1   2045 31.48                             141   -0.07 7  105 179 
 RUS  HN ES       2045 49.63                             141   -0.3410  105 179 
 RUS  HZ I        2045 51.08         4.4 0.34            146            105 179 
 PTB  HZ EP   1   2045 34.59                             129   -0.45 7  154 257 
 PTB  HN ES   1   2045 55.34                             129   -0.85 7  154 257 
 PTB  HZ I        2045 57.36         6.4 0.20            133            154 257 
 ZAR  HZ EP   1   2045 40.73                             121    0.38 6  207 290 
 ZAR  HE ES       2046  5.88                             121    0.25 9  207 290 
 ZAR  HZ I        2046  8.40         5.2 0.24            123            207 290 
 SML  HE ES   1   2046 11.88                             117   -0.27 6  241 334 
 SML  HZ I        2046 15.29         6.8 0.10            119            241 334 
 GUY2CHE ES       2046 27.21                             111    0.65 7  308 235 
 GUY2CHZ I        2046 34.58         1.6 0.32                           308 235 
                                                                                
