 2010  7 8 2356  9.4 L   6.786 -73.016142.4  RSN  6 0.3 1.8LRSN                1
 GAP=196        0.90       5.4    13.1  8.0  0.8778E+01  0.1378E+02 -0.9680E+00E
 Epicentro: CEPITA - SANTANDER                                                 3
 ACTION:UPD 10-12-01 15:16 OP:pat  STATUS:               ID:20100708235609 L   I
 2010-07-08-2354-10S.COL___116                                                 6
 STAT SP IPHASW D HRMM SECON CODA AMPLIT PERI AZIMU VELO AIN AR TRES W  DIS CAZ7
 BAR2 SZ EP       2356 28.09                             168    -0.710   28 221 
 BAR2 SZ ES   1   2356 43.97                             168     0.1 7   28 221 
 BRR  HZ EP       2356 31.07                             147     0.010   85 295 
 BRR  HZ I        2356 32.48        13.2 0.53                            85 295 
 BRR  HE ES   2   2356 48.04                             147     0.1 5   85 295 
 RUS  HZ EP       2356 33.07                             143     0.410   99 184 
 RUS  HN ES   2   2356 50.91                             143     0.0 5   99 184 
 RUS  HZ I        2356 53.07         4.7 0.46                            99 184 
 OCA  SZ EP       2356 38.16                             128     0.3 9  164 348 
 OCA  SZ ES   2   2356 59.57                             128    -0.4 5  164 348 
 OCA  SZ I        2357  4.33         8.4 0.42                           164 348 
 RREF HZ EP       2356 56.66                             109     0.1 7  332 231 
 RREF HZ I        2357 40.02         3.3 0.33                           332 231 
 PRA  HZ EP   1   2357  3.09                             105    -0.4 4  398 211 
 PRA  HZ I        2357 49.52         2.8 0.31                           398 211 
                                                                                
