 2011  9 8 2203 25.1 L   6.748 -73.147146.3  RSN  5 0.2 1.8LRSN                1
 GAP=139        0.46       4.4     4.7  5.3  0.1238E+02 -0.5774E+01 -0.7307E+01E
 Epicentro: LOS SANTOS - SANTANDER                                             3
 ACTION:UPD 12-07-13 15:56 OP:ep   STATUS:               ID:20110908220325 L   I
 2011-09-08-2158-02S.COL___170                                                 6
 STAT SP IPHASW D HRMM SECON CODA AMPLIT PERI AZIMU VELO AIN AR TRES W  DIS CAZ7
 BAR2 SZ IP       22 3 44.61                             173   -0.0810 17.7 193 
 BAR2 SZ ES   1   22 3 59.65                             173   -0.33 7 17.7 193 
 BAR2 SZ I        22 4  0.84        15.4 0.15                          17.7 193 
 BRR  HZ EP   1   22 3 46.52                             152    0.06 7 74.0 303 
 BRR  HZ I        22 3 46.88        21.9 0.12                          74.0 303 
 BRR  HN ES   1   22 4  3.48                             152    0.35 7 74.0 303 
 PAM  SZ EP   1   22 3 47.67                             149    0.02 7 82.0  37 
 RUS  HZ EP   1   22 3 48.57                             146    0.07 7 94.9 176 
 RUS  HZ I        22 3 49.26         5.5 0.27                          94.9 176 
 RUS  HE ES   1   22 4  6.88                             146    0.13 7 94.9 176 
 ZAR  HN ES   1   22 4 23.05                             122   -0.24 6  206 294 
 ZAR  HZ I        22 4 39.53         7.6 0.25                           206 294 
                                                                                
