 2010  1 8 2325 41.8 L   6.786 -72.954148.5  RSN  5 0.3 1.9LRSN                1
 GAP=228        0.58       6.9    12.0  7.7 -0.1334E+02  0.1302E+02  0.2414E+02E
 Epicentro: CEPITA - SANTANDER                                                 3
 ACTION:UP  10-08-24 09:43 OP:vdl  STATUS:               ID:20100108232541 L   I
 2010-01-08-2325-09S.COL___097                                                 6
 STAT SP IPHASW D HRMM SECON CODA AMPLIT PERI AZIMU VELO SNR AR TRES W  DIS CAZ7
 BAR2 SZ ES   2   2326 17.09                             167    -0.6 5   33 230 
 GIR2 SZ ES   2   2326 18.12                             164     0.2 5   42 321 
 RUS  BZ EP   1   2326  5.81                             144     0.1 7  100 188 
 RUS  BN ES   1   2326 24.75                             144     0.3 7  100 188 
 RUS  BZ I        2326 25.61         7.9 0.31                           100 188 
 CHI  HZ EP   1   2326 20.07                             117    -0.1 6  254 200 
 CHI  HZ I        2326 20.79         5.6 0.37                           254 200 
 CHI  HE ES   1   2326 49.87                             117    -0.2 6  254 200 
 RREF BN ES   2   2327  7.60                             110     0.3 3  337 232 
 RREF BZ I        2327 16.23         3.9 0.45                           337 232 
                                                                                
