 2010  9 8 2031  8.2 L   6.778 -73.114142.4  RSN  4 0.1 1.4LRSN                1
 GAP=162        0.30       2.1     4.4  4.8  0.2181E+01 -0.9213E+01 -0.2175E+01E
 Epicentro: LOS SANTOS - SANTANDER                                             3
 ACTION:UP  11-02-18 11:01 OP:tino STATUS:               ID:20100908203108 L   I
 2010-09-08-2028-11S.COL___120                                                 6
 STAT SP IPHASW D HRMM SECON CODA AMPLIT PERI AZIMU VELO SNR AR TRES W  DIS CAZ7
 BRR  HZ EP   1   2031 29.22                             150     0.0 7   76 299 
 BRR  HE ES   1   2031 45.68                             150     0.0 7   76 299 
 BRR  HZ I        2031 47.74         8.5 0.28                            76 299 
 RUS  HZ EP   1   2031 31.52                             144     0.1 7   98 178 
 RUS  HN ES   1   2031 49.52                             144     0.0 7   98 178 
 RUS  HZ I        2031 53.75         2.9 0.60                            98 178 
 GUE  SZ EP   2   2031 32.62                             138    -0.1 5  118  10 
 GUE  SZ I        2031 57.03         1.9 0.11                           118  10 
 GRA  SZ EP   2   2031 33.33                             136     0.1 5  127  16 
 GRA  SZ ES   2   2031 52.84                             136     0.0 5  127  16 
 GRA  SZ I        2031 54.12         6.0 0.48                           127  16 
                                                                                
