 2015  1 8 2334 27.5 L   6.802 -73.199149.1  RSN  4 0.6 1.0LRSN                1
 GAP=130        1.41       8.2     7.4 13.0 -0.8861E+01  0.2544E+01  0.2172E+02E
 Epicentro: ZAPATOCA - SANTANDER                                               3
 ACTION:UPD 15-03-02 15:38 OP:nd   STATUS:               ID:20150108233427 L   I
 OLDACT:REG 15-01-09 06:50 OP:stll STATUS:               ID:20150108232747     3
 2015-01-08-2327-47M.COL___265                                                 6
 STAT SP IPHASW D HRMM SECON CODA AMPLIT PERI AZIMU VELO AIN AR TRES W  DIS CAZ7
 BRR  HN ES       2335  6.17                             155    0.9210 66.0 301 
 PAM  SZ EP       2334 50.23                             150   -0.0210 81.1  43 
 PAM  SN ES       2335  7.50                             150   -0.5310 81.1  43 
 PAM  SZ I        2335  9.50         2.3 0.46            152           81.1  43 
 RUS  HZ EP       2334 51.68                             144    0.0810  101 173 
 RUS  HN ES       2335 10.52                             144    0.1010  101 173 
 RUS  HZ I        2335 11.23         1.2 0.36            146            101 173 
 PTB  HZ EP       2334 54.55                             134    0.35 9  142 258 
 PTB  HN ES       2335 14.08                             134   -0.97 9  142 258 
 PTB  HZ I        2335 17.51         1.4 0.54            135            142 258 
                                                                                
