 2013  3 9 0344 31.1 L   6.791 -73.145139.0  RSN  6 0.5 2.0LRSN                1
 GAP=137        1.11       5.3     5.9  8.5 -0.3395E+01  0.7618E+00  0.8547E+01E
 Epicentro: LOS SANTOS - SANTANDER                                             3
 ACTION:UPD 13-04-09 14:00 OP:ep   STATUS:               ID:20130309034431 L   I
 2013-03-09-0338-37M.COL___204                                                 6
 STAT SP IPHASW D HRMM SECON CODA AMPLIT PERI AZIMU VELO AIN AR TRES W  DIS CAZ7
 BAR2 SZ ES        345  3.73                             170   -0.8310 22.3 191 
 BAR2 SZ I         345  5.99        20.6 0.30            167           22.3 191 
 BRR  HZ EP        344 51.53                             151   -0.0310 71.8 299 
 BRR  HE ES        345  8.18                             151    0.6710 71.8 299 
 BRR  HN I         345  8.84        44.0 0.32            152           71.8 299 
 PAM  SZ EP        344 52.56                             149   -0.0910 78.1  39 
 PAM  SN ES        345  9.60                             149    0.1410 78.1  39 
 RUS  HZ EP        344 54.02                             143   -0.1010 99.5 176 
 RUS  HN ES        345 12.51                             143    0.4410 99.5 176 
 PTB  HN ES        345 17.75                             130   -0.37 9  148 259 
 CHI  HZ EP   1    345  8.14                             116   -0.19 6  248 195 
 CHI  HE ES   2    345 38.59                             116    1.23 4  248 195 
 CHI  HN I         345 43.52         4.6 0.30            115            248 195 
                                                                                
