 2016  3 9 0422 16.2 L   6.806 -73.183140.7  RSN  6 0.3 1.3LRSN                1
 GAP=144        0.78       4.2     4.3  5.5 -0.7191E+01  0.5681E+01  0.1657E+01E
 Epicentro: ZAPATOCA - SANTANDER                                               3
 ACTION:UPD 16-05-13 21:22 OP:cam  STATUS:               ID:20160309042216 L   I
 OLDACT:REG 16-03-09 13:15 OP:cara STATUS:               ID:20160309041749     3
 2016-03-09-0417-49M.COL___289                                                 6
 STAT SP IPHASW D HRMM SECON CODA AMPLIT PERI AZIMU VELO AIN AR TRES W  DIS CAZ7
 BAR2 EZ ES        422 50.61                             170    0.5510 23.6 180 
 BAR2 EZ I         422 51.88         7.0 0.22            170           23.6 180 
 PAM  EZ EP        422 38.08                             149    0.0710 79.6  42 
 PAM  EZ I         422 38.37         5.0 0.22            152           79.6  42 
 PAM  EN ES        422 54.79                             149   -0.2410 79.6  42 
 RUS  HZ EP        422 39.72                             142    0.2010  102 174 
 RUS  HN ES        422 57.19                             142   -0.5310  102 174 
 RUS  HZ I         422 59.11         2.8 0.20            144            102 174 
 PTB  HZ EP        422 42.19                             132   -0.20 9  144 258 
 PTB  HN ES        423  2.64                             132   -0.19 9  144 258 
 PTB  HZ I         423  6.34         1.2 0.14            132            144 258 
 SPBC HZ EP        422 44.37                             128    0.26 9  161 218 
 SPBC HN ES        423  6.00                             128    0.12 9  161 218 
 SPBC HZ I         423  8.80         2.3 0.26            129            161 218 
 CHI  HZ EP        422 53.50                             116   -0.06 8  248 194 
                                                                                
