 2015  8 9 0942 21.3 L   6.826 -73.090150.0  RSN 21 0.5 2.5LRSN                1
 GAP=169        0.97       2.5     4.2  4.8  0.1604E+00  0.5192E+01  0.1239E+01E
 Epicentro: LOS SANTOS - SANTANDER                                             3
 ACTION:UPD 15-09-15 23:01 OP:cam  STATUS:               ID:20150809094221 L   I
 OLDACT:UP  15-08-09 13:38 OP:mh   STATUS:               ID:20150809093749     3
 OLDACT:UP  15-08-09 13:37 OP:mh   STATUS:               ID:20150809093749     3
 OLDACT:UP  15-08-09 13:37 OP:mh   STATUS:               ID:20150809093749     3
 OLDACT:UP  15-08-09 13:37 OP:mh   STATUS:               ID:20150809093749     3
 OLDACT:UP  15-08-09 13:37 OP:mh   STATUS:               ID:20150809093749     3
 OLDACT:UP  15-08-09 13:36 OP:mh   STATUS:               ID:20150809093749     3
 OLDACT:UP  15-08-09 13:31 OP:mh   STATUS:               ID:20150809093749     3
 OLDACT:UP  15-08-09 13:31 OP:mh   STATUS:               ID:20150809093749     3
 OLDACT:UP  15-08-09 13:31 OP:mh   STATUS:               ID:20150809093749     3
 OLDACT:UP  15-08-09 13:30 OP:mh   STATUS:               ID:20150809093749     3
 OLDACT:UP  15-08-09 13:30 OP:mh   STATUS:               ID:20150809093749     3
 OLDACT:UP  15-08-09 13:30 OP:mh   STATUS:               ID:20150809093749     3
 OLDACT:REG 15-08-09 12:43 OP:mh   STATUS:               ID:20150809093749     3
 2015-08-09-0937-49M.COL___346                                                 6
 STAT SP IPHASW D HRMM SECON CODA AMPLIT PERI AZIMU VELO AIN AR TRES W  DIS CAZ7
 BAR2 EZ EP     C  942 41.68                             169    0.1010 27.8 202 
 BAR2 EZ ES        942 57.16                             169   -0.2010 27.8 202 
 BAR2 EZ I         942 57.56        31.9 0.12            167           27.8 202 
 BRR  HZ EP        942 43.58                             152    0.3910 75.5 294 
 BRR  HN ES        943  0.84                             152    0.6110 75.5 294 
 BRR  HZ I         943 18.46        26.1 0.32            148           75.5 294 
 RUS  HZ EP        942 45.68                             144   -0.0210  103 180 
 RUS  HN ES        943  4.52                             144   -0.1710  103 180 
 RUS  HZ I         943  4.93        20.6 0.26            147            103 180 
 OCA  HZ EP   1    942 49.41                             131   -0.39 7  158 351 
 OCA  HN ES        943 12.08                             131    0.08 9  158 351 
 OCA  HZ I         943 14.75        62.1 0.50            131            158 351 
 SPBC HZ EP        942 50.57                             129   -0.17 9  169 220 
 SPBC HN ES        943 12.70                             129   -0.98 9  169 220 
 SPBC HZ I         943 17.19        40.2 0.14            130            169 220 
 ZAR  HZ EP        942 54.46                             123   -0.09 8  209 291 
 ZAR  HN ES        943 20.32                             123   -0.13 8  209 291 
 ZAR  HZ I         943 25.48        37.0 0.34            122            209 291 
 NOR  HZ EP        942 57.63                             119   -0.40 8  241 235 
 NOR  HN ES        943 26.74                             119    0.09 8  241 235 
 NOR  HZ I         943 30.99        18.9 0.32            119            241 235 
 SML  HZ EP        942 57.76                             118   -0.46 8  244 334 
 SML  HN ES        943 26.94                             118   -0.04 8  244 334 
 SML  HZ I         943 30.55        33.4 0.10            119            244 334 
 CHI  HZ EP   1    942 59.90                             117    0.15 6  253 196 
 CHI  HN ES        943 30.53                             117    0.82 8  253 196 
 CHI  HZ I         943 38.67         9.4 0.34            120            253 196 
 ROSC BZ EP        943  1.19                             117    0.88 8  258 212 
 ROSC BN ES   4    943 32.13                             117    1.43 0  258 212 
 ROSC BZ I         943 38.96        23.0 0.45            118            258 212 
 HEL  HZ EP        943  3.33                             115    0.82 7  279 256 
 HEL  HN ES        943 34.16                             115   -0.46 7  279 256 
 HEL  HZ I         943 41.19        11.4 0.32            115            279 256 
 URE  HZ EP   1    943  2.35                             114   -0.80 5  289 291 
 URE  HN ES   4    943 33.73                             114   -2.02 0  289 291 
 URE  HZ I         943 45.15        19.3 0.16            114            289 291 
 LL2C HZ EP   4    943  7.25                             113    2.37 0  304 353 
 LL2C HN ES   4    943 37.12                             113   -1.72 0  304 353 
 LL2C HZ I         943 55.57        30.8 0.68            114            304 353 
 GUY2CHZ EP        943  5.80                             113   -0.10 7  308 235 
 GUY2CHN ES   4    943 43.72                             113    3.06 0  308 235 
 GUY2CHZ I         943 49.98        15.4 0.54                           308 235 
 PTGC HZ EP   1    943  4.63                             112   -0.81 5  309 160 
 PTGC HN ES   4    943 37.57                             112   -2.27 0  309 160 
 PTGC HZ I         943 45.27        11.8 0.16            115            309 160 
 CBOC HZ EP   1    943  9.80                             110    0.59 5  340 252 
 CBOC HN ES        943 46.81                             110    0.27 7  340 252 
 CBOC HZ I         943 53.38         3.8 0.40            111            340 252 
 TOL  SZ EP   1    943 11.06                             110    0.56 5  350 225 
 TOL  SN ES   4    943 50.56                             110    1.71 0  350 225 
 TOL  SZ I         943 52.88        10.1 0.52            111            350 225 
 MON  HZ EP   4    943  8.85                             109   -2.02 0  357 307 
 MON  HN ES   4    943 47.41                             109   -2.09 0  357 307 
 MON  HZ I         944  2.61         6.1 0.26            110            357 307 
 ANIL HZ EP   4    943 13.78                             109    1.74 0  364 225 
 ANIL HN ES   1    943 51.43                             109   -0.16 5  364 225 
 ANIL HZ I         943 58.20        24.5 0.26            110            364 225 
 ORTC HZ EP        943 16.06                             107   -0.04 6  401 217 
 ORTC HN ES        943 58.56                             107   -0.26 6  401 217 
 ORTC HZ I         944  2.23         5.1 0.58            108            401 217 
 SJC  HZ EP   4    943 15.51                             106   -1.66 0  410 326 
 SJC  HZ I         943 20.61        13.3 0.30            107            410 326 
 SJC  HN ES   4    943 57.20                             106   -3.51 0  410 326 
 PAL  HZ EP   4    943 17.10                             106   -0.34 0  412 239 
 PAL  HN ES   4    943 58.75                             106   -2.44 0  412 239 
                                                                                
