 2017  3 9 0816 23.1 L   6.392 -73.593122.0  RSN  6 0.3 0.8LRSN                1
 GAP=149        0.66       3.0     3.8  6.3 -0.2995E+00  0.1038E+01  0.4326E+01E
 Epicentro: SANTA HELENA DEL OPON - SANTANDER                                  3
 ACTION:UPD 17-05-25 18:38 OP:jn   STATUS:               ID:20170309081623 L   I
 OLDACT:UP  17-03-09 17:07 OP:and  STATUS:               ID:20170309080746     3
 OLDACT:UP  17-03-09 17:07 OP:and  STATUS:               ID:20170309080746     3
 OLDACT:UP  17-03-09 17:07 OP:and  STATUS:               ID:20170309080746     3
 OLDACT:UP  17-03-09 17:06 OP:and  STATUS:               ID:20170309080746     3
 OLDACT:UP  17-03-09 17:05 OP:and  STATUS:               ID:20170309080746     3
 OLDACT:UP  17-03-09 17:05 OP:and  STATUS:               ID:20170309080746     3
 OLDACT:UP  17-03-09 17:05 OP:and  STATUS:               ID:20170309080746     3
 OLDACT:UP  17-03-09 17:05 OP:and  STATUS:               ID:20170309080746     3
 OLDACT:UP  17-03-09 17:05 OP:and  STATUS:               ID:20170309080746     3
 OLDACT:UP  17-03-09 17:04 OP:and  STATUS:               ID:20170309080746     3
 OLDACT:UP  17-03-09 17:04 OP:and  STATUS:               ID:20170309080746     3
 OLDACT:UP  17-03-09 17:04 OP:and  STATUS:               ID:20170309080746     3
 OLDACT:REG 17-03-09 12:49 OP:and  STATUS:               ID:20170309080746     3
 2017-03-09-0808-00M.COL___397                                                 6
 STAT SP IPHASW D HRMM SECON CODA AMPLIT PERI AZIMU VELO AIN AR TRES W  DIS CAZ7
 BAR2 EZ IP     C  816 40.67                             156   -0.1910 50.5  64 
 BAR2 EZ ES   2    816 53.89                             156   -0.84 5 50.5  64 
 BRR  HZ EP   2    816 42.51                             145    0.19 5 80.2 351 
 BRR  HN ES        816 57.80                             145    0.4710 80.2 351 
 PTB  HZ EP   3    816 43.29                             139   -0.32 2 96.9 280 
 PTB  HN ES        816 59.51                             139   -0.1210 96.9 280 
 PTB  HZ I         817  1.97         1.0 0.12            142           96.9 280 
 SPBC HZ EP        816 43.91                             139    0.1510 97.5 213 
 SPBC HN ES        816 59.97                             139    0.0710 97.5 213 
 SPBC HZ I         817  5.79         1.5 0.08            140           97.5 213 
 NOR  HZ EP        816 50.37                             122    0.02 9  168 237 
 ZAR  HN ES        817 14.42                             119   -0.28 9  185 311 
                                                                                
