 2012  4 9 0644  2.2 L   6.795 -73.159141.4  RSN  8 0.3 1.3LRSN                1
 GAP=135        0.79       4.8     4.3  7.3 -0.1149E+01  0.8698E+01  0.1765E+01E
 Epicentro: LOS SANTOS - SANTANDER                                             3
 ACTION:UPD 12-07-05 11:52 OP:tino STATUS:               ID:20120409064402 L   I
 2012-04-09-0640-00M.COL___196                                                 6
 STAT SP IPHASW D HRMM SECON CODA AMPLIT PERI AZIMU VELO AIN AR TRES W  DIS CAZ7
 BAR2 SZ EP   1    644 21.20                             170    -0.1 7   23 187 
 BAR2 SZ I         644 21.37         7.6 0.15                            23 187 
 BAR2 SZ ES   1    644 35.77                             170    -0.5 7   23 187 
 BRR  HZ EP        644 23.07                             152     0.210   70 299 
 BRR  HN ES   1    644 39.49                             152     0.5 7   70 299 
 BRR  HZ I         644 44.09         5.5 0.35                            70 299 
 PAM  SZ EP   1    644 24.01                             150    -0.1 7   79  40 
 PAM  SN ES   1    644 41.11                             150     0.0 7   79  40 
 PAM  SZ I         644 41.76         1.8 0.37                            79  40 
 RUS  HZ EP   1    644 25.23                             143    -0.3 7  100 175 
 RUS  HZ I         644 25.82         1.4 0.15                           100 175 
 RUS  HN ES   1    644 44.03                             143     0.3 7  100 175 
 PTB  HN ES   1    644 49.26                             131    -0.1 7  146 259 
 ZAR  HN ES   1    644 58.70                             121    -0.6 6  203 292 
 ZAR  HZ I         645  5.33         4.6 0.40                           203 292 
 NOR  SN ES   1    645  5.09                             118     0.0 6  233 234 
 HEL  HZ EP   1    644 42.52                             114     0.5 6  271 256 
 HEL  HZ I         645 20.30         1.9 0.38                           271 256 
                                                                                
