 2011  8 9 0044 40.6 L   6.592 -73.678 98.4  RSN  4 0.3 1.3LRSN                1
 GAP=127        0.49       3.7     3.5  8.3  0.2665E+01  0.1196E+02  0.1773E+02E
 Epicentro: EL CARMEN DE CHUCURI - SANTANDER                                   3
 ACTION:UPD 12-07-25 14:07 OP:epov STATUS:               ID:20110809004440 L   I
 2011-08-09-0041-39S.COL___144                                                 6
 STAT SP IPHASW D HRMM SECON CODA AMPLIT PERI AZIMU VELO AIN AR TRES W  DIS CAZ7
 BAR2 SZ EP   2    044 56.04                             149   -0.04 5 54.9  90 
 BAR2 SZ ES   2    045  8.74                             149    0.59 5 54.9  90 
 BAR2 SZ I         045  9.57         8.9 0.19                          54.9  90 
 BRR  HZ EP   2    044 55.72                             147   -0.16 5 57.1 356 
 BRR  HN ES   1    045  7.64                             147   -0.16 7 57.1 356 
 BRR  HZ I         045 25.87        11.3 0.35                          57.1 356 
 RUS  HZ EP   1    045  0.41                             131    0.24 7  102 140 
 RUS  HE ES   1    045 15.09                             131   -0.34 7  102 140 
 RUS  HZ I         045 19.26         2.3 0.33                           102 140 
 NOR  SZ EP   2    045  7.09                             115   -0.05 4  174 229 
 NOR  SE ES   1    045 27.97                             115    0.13 7  174 229 
                                                                                
