 2013  4 9 0815 16.0 L   6.807 -73.145150.2  RSN 24 0.5 3.7LRSN                1
 GAP= 71        1.23       2.7     3.0  4.6 -0.1612E+01  0.8591E+00  0.8860E-01E
 Epicentro: LOS SANTOS - SANTANDER                                             3
 ACTION:UPD 13-05-22 14:36 OP:EP   STATUS:               ID:20130409081516 L   I
 2013-04-09-0808-50M.COL___218                                                 6
 STAT SP IPHASW D HRMM SECON CODA AMPLIT PERI AZIMU VELO AIN AR TRES W  DIS CAZ7
 BAR2 SZ IP     C  815 36.48                             170    0.2910 24.1 190 
 BAR2 SZ ES        815 51.29                             170   -0.6510 24.1 190 
 BAR2 SZ I         815 54.38       879.1 0.42            169           24.1 190 
 GIR2 SZ IP     D  815 36.53                             168    0.3410 30.5 350 
 GIR2 SZ ES        815 51.98                             168    0.0410 30.5 350 
 BRR  HZ IP     D  815 38.31                             153    0.6810 70.9 298 
 BRR  HN ES        815 55.63                             153    1.1410 70.9 298 
 BRR  HN I         815 56.36      1211.0 0.52            152           70.9 298 
 RUS  HZ IP     C  815 40.26                             144    0.0010  101 176 
 RUS  HN ES        815 58.73                             144   -0.4510  101 176 
 RUS  HE I         816  0.13       619.7 0.46            144            101 176 
 PTB  HZ IP     C  815 42.86                             133   -0.51 9  148 259 
 PTB  HN ES        816  3.84                             133   -0.86 9  148 259 
 PTB  HE I         816 11.77       720.2 0.46            132            148 259 
 CAPV BZ IP     D  815 44.30                             133    0.59 9  149  38 
 CAPV BZ ES        816  4.93                             133   -0.39 9  149  38 
 TAM  HZ IP     D  815 44.61                             131    0.55 9  155 105 
 TAM  HZ I         815 44.80       414.8 0.22            134            155 105 
 TAM  HN ES        816  5.88                             131   -0.06 9  155 105 
 OCA  HZ EP        815 44.69                             131    0.09 9  159 353 
 OCA  HN ES        816  6.61                             131   -0.28 9  159 353 
 OCA  HN I         816 11.10      1052.8 0.28            132            159 353 
 CTAU SZ EP   9    815 53.26                             123    3.91 0  203 209 
 CTAU SZ ES        816 18.48                                   -0.79 9  203 209 
 ZAR  HZ EP        815 48.82                             123    0.10 9  204 292 
 ZAR  HN ES        816 14.13                             123   -0.11 9  204 292 
 CTAB SZ EP   9    815 54.52                             120    2.41 0  231 211 
 CTAB SZ ES        816 22.88                                    0.21 8  231 211 
 NOR  HZ EP        815 52.16                             119    0.10 8  235 234 
 NOR  HN ES        816 20.35                             119    0.18 8  235 234 
 NOR  HE I         816 24.40       523.5 0.22            119            235 234 
 SML  HZ EP        815 52.96                             118    0.15 8  243 335 
 SML  HN ES        816 21.49                             118   -0.03 8  243 335 
 CHI  HZ EP        815 54.14                             118    0.09 8  249 195 
 CHI  HN ES        816 22.98                             118   -0.73 8  249 195 
 CHI  HN I         816 31.38       294.8 0.42            118            249 195 
 ROSC BZ EP        815 55.88                             117    1.42 8  253 211 
 ROSC BN ES   4    816 27.82                             117    3.38 0  253 211 
 HEL  HZ EP        815 56.42                             115   -0.06 8  272 256 
 HEL  HN ES        816 27.57                             115   -0.48 8  272 256 
 HEL  HN I         816 36.58       161.8 0.26            116            272 256 
 SOCV BZ IP     D  815 58.59                             113   -0.62 7  301  57 
 DBB  SZ IP     D  816  3.90                             110    0.23 7  339 274 
 COD  HZ EP        816  3.94                             110   -0.53 6  347 355 
 COD  HN ES        816 41.52                             110   -0.75 6  347 355 
 SDV  BZ IP     D  816  5.64                             109   -0.52 6  360  50 
 PRA  HZ EP        816  9.42                             107   -0.35 6  393 210 
 PRA  HE ES        816 51.98                             107    0.27 6  393 210 
 PRA  HE I         816 57.29       168.1 0.28            108            393 210 
 SJA  SZ EP        816 11.87                             107    1.06 6  401 193 
 ELOV BZ IP     D  816 10.28                             106   -0.89 6  405  87 
 PAL  HZ EP        816 11.64                             106    0.26 6  406 239 
 PAL  HN ES        816 53.91                             106   -0.65 6  406 239 
                                                                                
