 2017  6 9 0619 48.9 L   6.790 -73.112159.0  RSN  5 0.3 1.2LRSN                1
 GAP=240        0.75       4.9     5.9  8.1  0.1439E+02 -0.3642E+01 -0.5099E+01E
 Epicentro: LOS SANTOS - SANTANDER                                             3
 ACTION:UPD 17-09-14 16:50 OP:jn   STATUS:               ID:20170609061949 L   I
 OLDACT:UP  17-06-30 01:54 OP:nlst STATUS:               ID:20170609061949 L   3
 OLDACT:REG 17-06-09 13:11 OP:edw  STATUS:               ID:20170609061728     3
 2017-06-09-0618-00M.COL___359                                                 6
 STAT SP IPHASW D HRMM SECON CODA AMPLIT PERI AZIMU VELO AIN AR TRES W  DIS CAZ7
 BRR  HZ EP        620 12.16                             153    0.5110 75.0 298 
 BRR  HN ES        620 29.20                             153   -0.2310 75.0 298 
 BRR  HZ I         620 30.23         2.5 0.20            153           75.0 298 
 RUS  HZ EP        620 13.50                             147   -0.3510 99.3 178 
 RUS  HN ES        620 33.44                             147    0.1010 99.3 178 
 RUS  HZ I         620 33.61         1.5 0.36            147           99.3 178 
 PTB  HZ EP   1    620 16.88                             134   -0.35 7  151 260 
 PTB  HE ES   1    620 39.05                             134   -0.32 7  151 260 
 PTB  HZ I         620 40.60         1.2 0.54            134            151 260 
 SPBC HE ES        620 41.93                             131    0.23 9  165 220 
 ZAR  HZ EP   4    620 24.65                             124    2.07 0  208 292 
 ZAR  HN ES        620 49.03                             124    0.14 8  208 292 
 ZAR  HZ I         620 50.15         2.2 0.32            125            208 292 
                                                                                
