 2013 12 9 0233 54.1 L   6.298 -73.149177.4  RSN 14 0.5 2.3LRSN                1
 GAP= 87        1.16       3.9     3.8  6.2 -0.4261E+01  0.5520E+01 -0.2594E+01E
 Epicentro: CHARALA - SANTANDER                                                3
 ACTION:UPD 14-01-13 10:16 OP:ep   STATUS:               ID:20131209023354 L   I
 OLDACT:REG 13-12-09 06:15 OP:jn   STATUS:               ID:20131209023000     3
 2013-12-09-0230-00M.COL___285                                                 6
 STAT SP IPHASW D HRMM SECON CODA AMPLIT PERI AZIMU VELO AIN AR TRES W  DIS CAZ7
 BAR2 SZ EP        234 17.86                             169    0.1310 32.8 354 
 BAR2 SZ ES        234 36.19                             169    0.0410 32.8 354 
 BAR2 SZ I         234 37.72       175.8 0.26            165           32.8 354 
 RUS  HZ EP        234 18.58                             165    0.1310 45.4 171 
 RUS  HN ES        234 37.68                             165    0.2410 45.4 171 
 RUS  HZ I         234 40.64        42.7 0.44            169           45.4 171 
 BRR  HZ EP        234 21.49                             147    0.5810  109 325 
 BRR  HN ES   4    234 44.00                             147    2.18 0  109 325 
 BRR  HZ I         234 47.74        24.0 0.18            144            109 325 
 PAM  SZ EP        234 23.08                             143    0.3310  125  23 
 PAM  SE ES        234 45.37                             143    0.2810  125  23 
 PAM  SZ I         234 46.32        13.4 0.26            140            125  23 
 SPBC HZ EP   1    234 22.63                             143    0.50 7  125 235 
 SPBC HN ES   1    234 44.38                             143    0.39 7  125 235 
 PTB  HZ EP        234 23.47                             139   -0.28 9  147 281 
 PTB  HN ES        234 47.03                             139    0.16 9  147 281 
 PTB  HZ I         234 48.61        24.6 0.16            138            147 281 
 TAM  HZ EP        234 23.77                             138   -0.33 9  151  84 
 TAM  HN ES        234 47.20                             138   -0.31 9  151  84 
 CHI  HZ EP        234 28.29                             130   -0.23 9  195 199 
 CHI  HN ES        234 54.70                             130   -0.67 9  195 199 
 CHI  HZ I         234 57.23         8.0 0.42            132            195 199 
 NOR  HZ EP        234 29.91                             128    0.78 8  207 247 
 NOR  HN ES        234 56.00                             128   -0.46 8  207 247 
 NOR  HZ I         234 57.36        17.0 0.18            129            207 247 
 OCA  HZ EP        234 29.56                             127   -0.52 8  215 355 
 OCA  HN ES        234 57.67                             127   -0.48 8  215 355 
 OCA  HZ I         235  4.21        10.2 0.18            125            215 355 
 ZAR  HZ EP   4    234 30.68                             125   -0.69 0  230 305 
 ZAR  HN ES   2    235  0.94                             125    0.51 4  230 305 
 ZAR  HZ I         235  8.79        26.0 0.40            124            230 305 
 HEL  HZ EP        234 36.06                             121    0.84 8  264 268 
 HEL  HN ES        235  5.96                             121   -1.33 8  264 268 
 HEL  HZ I         235 10.56         8.5 0.28            121            264 268 
 SML  HZ EP        234 37.03                             118   -1.02 7  295 340 
 SML  HN ES   2    235 12.75                             118    0.42 4  295 340 
 CBOC HZ EP        234 41.69                             116    0.63 7  321 262 
 CBOC HE ES   1    235 17.87                             116    0.19 5  321 262 
 CBOC HZ I         235 20.14         6.4 0.22            116            321 262 
                                                                                
