 2015  3 9 0008 34.5 L   7.549 -73.124155.2  RSN 10 0.5 1.9LRSN                1
 GAP=132        1.09       3.4     5.7  7.0  0.4674E+01  0.1619E+02  0.5609E+01E
 Epicentro: EL PLAYON - SANTANDER                                              3
 ACTION:UPD 15-04-30 16:24 OP:nd   STATUS:               ID:20150309000834 L   I
 OLDACT:UP  15-03-09 14:48 OP:cam  STATUS:               ID:20150309000005     3
 OLDACT:REG 15-03-09 13:14 OP:cam  STATUS:               ID:20150309000005     3
 2015-03-09-0000-05M.COL___278                                                 6
 STAT SP IPHASW D HRMM SECON CODA AMPLIT PERI AZIMU VELO AIN AR TRES W  DIS CAZ7
 PAM  SZ EP        0 8 56.46                             161   -0.0810 52.2 116 
 PAM  SN ES        0 9 13.42                             161   -0.2910 52.2 116 
 PAM  SZ I         0 9 14.09        14.1 0.16            165           52.2 116 
 OCA  HZ EP        0 8 57.65                             152    0.2610 79.3 344 
 OCA  HN ES        0 9 15.80                             152    0.5810 79.3 344 
 OCA  HZ I         0 9 18.45        15.0 0.28            155           79.3 344 
 BRR  HZ EP        0 8 57.92                             151    0.6410 81.3 233 
 BRR  HN ES   4    0 9 16.26                             151    1.23 0 81.3 233 
 BRR  HZ I         0 9 19.21        16.0 0.46            147           81.3 233 
 BAR2 EZ EP        0 8 59.01                             144   -0.2410  106 184 
 BAR2 EZ ES        0 9 17.96                             144   -0.5710  106 184 
 BAR2 EZ I         0 9 22.25        18.3 0.40            144            106 184 
 SML  HZ EP        0 9  4.76                             129    0.15 9  173 323 
 SML  HN ES        0 9 27.68                             129   -0.38 9  173 323 
 RUS  HZ EP        0 9  6.20                             128   -0.00 9  183 179 
 RUS  HN ES   4    0 9 29.78                             128   -1.12 0  183 179 
 RUS  HZ I         0 9 32.13         3.7 0.20            129            183 179 
 PTB  HZ EP        0 9  5.94                             127    0.22 9  185 233 
 PTB  HN ES        0 9 30.28                             127    0.24 9  185 233 
 PTB  HZ I         0 9 35.68         9.1 0.40            127            185 233 
 SPBC HZ EP        0 9 10.67                             120   -0.19 8  235 207 
 SPBC HN ES        0 9 39.80                             120    0.61 8  235 207 
 SPBC HZ I         0 9 50.25         8.1 0.38            121            235 207 
 URE  HN ES   4    0 9 43.09                             117   -2.07 0  267 275 
 MON  HZ EP        0 9 18.11                             113   -1.01 7  311 296 
 MON  HN ES        0 9 53.27                             113   -0.62 7  311 296 
 MON  HZ I         0 9 57.07         1.9 0.18            115            311 296 
 CHI  HZ EP        0 9 22.44                             112    0.72 7  330 192 
 CHI  HN ES        0 9 57.90                             112   -0.63 7  330 192 
 CHI  HZ I         010  5.48         1.3 0.30            114            330 192 
                                                                                
