 2013 12 9 0502  9.2 L   6.769 -73.161142.4  RSN  9 0.4 1.8LRSN                1
 GAP=136        1.02       3.2     4.6  6.5 -0.1894E+01  0.8853E+01  0.1467E+01E
 Epicentro: LOS SANTOS - SANTANDER                                             3
 ACTION:UPD 14-01-13 10:16 OP:ep   STATUS:               ID:20131209050209 L   I
 OLDACT:REG 13-12-09 06:18 OP:jn   STATUS:               ID:20131209050000     3
 2013-12-09-0500-00M.COL___285                                                 6
 STAT SP IPHASW D HRMM SECON CODA AMPLIT PERI AZIMU VELO AIN AR TRES W  DIS CAZ7
 BAR2 SZ EP        5 2 28.37                             172   -0.0310 19.7 187 
 BAR2 SZ ES        5 2 43.68                             172    0.3310 19.7 187 
 BAR2 SZ I         5 2 44.54        26.1 0.24            172           19.7 187 
 BRR  HZ EP        5 2 30.63                             152    0.5810 71.5 302 
 BRR  HN ES   2    5 2 47.67                             152    1.39 5 71.5 302 
 BRR  HZ I         5 2 52.39        11.0 0.16            151           71.5 302 
 PAM  SZ EP        5 2 31.68                             149    0.3410 81.1  39 
 PAM  SN ES        5 2 48.43                             149   -0.1410 81.1  39 
 PAM  SZ I         5 2 51.05        10.3 0.40            152           81.1  39 
 RUS  HZ EP        5 2 32.17                             144   -0.2610 97.3 175 
 RUS  HN ES        5 2 50.51                             144   -0.0010 97.3 175 
 RUS  HZ I         5 2 52.19         8.8 0.34            147           97.3 175 
 PTB  HZ EP        5 2 35.41                             132   -0.32 9  145 260 
 PTB  HN ES        5 2 55.77                             132   -0.62 9  145 260 
 PTB  HZ I         5 2 57.19         9.6 0.12            133            145 260 
 SPBC HZ EP        5 2 37.41                             129    0.28 9  159 219 
 SPBC HN ES        5 2 58.62                             129   -0.26 9  159 219 
 SPBC HZ I         5 3  1.32         8.7 0.46            131            159 219 
 OCA  HN ES        5 2 58.91                             128   -0.82 9  164 354 
 ZAR  HZ EP        5 2 41.64                             122    0.19 9  204 293 
 ZAR  HN ES   1    5 3  6.95                             122    0.38 6  204 293 
 ZAR  HZ I         5 3 13.17         8.9 0.36            123            204 293 
 CHI  HZ EP        5 2 46.53                             117    0.18 8  245 195 
 CHI  HN ES        5 3 15.14                             117   -0.15 8  245 195 
 CHI  HZ I         5 3 18.52         2.2 0.56            119            245 195 
                                                                                
