 2012  4 9 0144 36.2 L   7.191 -73.105148.6  RSN  6 0.2 1.4LRSN                1
 GAP=150        0.55       5.4     4.4  7.0 -0.6224E+01  0.1418E+02 -0.5988E+01E
 Epicentro: BUCARAMANGA - SANTANDER                                            3
 ACTION:UPD 12-07-05 11:51 OP:tino STATUS:               ID:20120409014436 L   I
 2012-04-09-0140-00M.COL___196                                                 6
 STAT SP IPHASW D HRMM SECON CODA AMPLIT PERI AZIMU VELO AIN AR TRES W  DIS CAZ7
 PAM  SZ EP   1    144 57.09                             161    -0.2 7   48  70 
 PAM  SN ES   1    145 13.55                             161    -0.1 7   48  70 
 PAM  SZ I         145 15.48         4.6 0.47                            48  70 
 BAR2 SZ ES   1    145 14.75                             155     0.2 7   67 187 
 BAR2 SZ I         145 16.26         7.1 0.40                            67 187 
 BRR  HZ EP   1    144 57.81                             154     0.4 7   68 262 
 RUS  HZ EP   2    145  3.94                             134     0.3 5  144 179 
 RUS  HE ES   2    145 25.05                             134     0.0 5  144 179 
 RUS  HZ I         145 26.49         1.2 0.44                           144 179 
 PTB  HZ EP   1    145  4.80                             129    -0.2 7  166 244 
 PTB  HN ES   1    145 27.26                             129    -0.3 7  166 244 
 PTB  HZ I         145 29.64         4.3 0.28                           166 244 
 ZAR  HN ES   2    145 33.17                             124     0.3 4  196 280 
                                                                                
