 2011  4 9 0719 48.9 L   7.392 -73.342118.3  RSN  5 0.3 1.7LRSN                1
 GAP=129        0.88       4.6     8.6  9.8 -0.1262E+02 -0.7095E+01  0.3723E+01E
 Epicentro: EL PLAYON - SANTANDER                                              3
 ACTION:UP  11-06-22 15:29 OP:REBC STATUS:               ID:20110409071948 L   I
 2011-04-09-0718-40S.COL___138                                                 6
 STAT SP IPHASW D HRMM SECON CODA AMPLIT PERI AZIMU VELO SNR AR TRES W  DIS CAZ7
 GIR2 SZ EP   1    720  5.61                             161     0.0 7   38 155 
 BRR  HZ EP        720  6.32                             155     0.310   52 232 
 BRR  HE ES   1    720 19.60                             155     0.3 7   52 232 
 BRR  HZ I         720 20.99        19.9 0.12                            52 232 
 GRA  SZ EP   1    720  8.42                             143     0.4 7   81  47 
 GRA  SZ ES   1    720 23.35                             143     0.4 7   81  47 
 GRA  SZ I         720 25.31         8.7 0.33                            81  47 
 BAR2 SZ EP        720  8.83                             140    -0.110   90 169 
 BAR2 SZ ES   1    720 23.96                             140    -0.5 7   90 169 
 BAR2 SZ I         720 25.53        14.3 0.38                            90 169 
 OCA  SZ EP   1    720  8.61                             139    -0.4 7   94   2 
 OCA  SZ ES   1    720 24.32                             139    -0.4 7   94   2 
 OCA  SZ I         720 25.16         6.6 0.44                            94   2 
                                                                                
