 2017  3 9 0632 28.8 L   6.972 -72.909180.4  RSN  5 0.3 1.4LRSN                1
 GAP=264        0.53       5.4     5.2  4.6  0.1610E+02 -0.3281E+01 -0.5117E+01E
 Epicentro: SANTA BARBARA - SANTANDER                                          3
 ACTION:UPD 17-05-25 18:38 OP:jn   STATUS:               ID:20170309063228 L   I
 OLDACT:UP  17-03-09 16:32 OP:and  STATUS:               ID:20170309062741     3
 OLDACT:REG 17-03-09 12:45 OP:and  STATUS:               ID:20170309062741     3
 2017-03-09-0628-00M.COL___397                                                 6
 STAT SP IPHASW D HRMM SECON CODA AMPLIT PERI AZIMU VELO AIN AR TRES W  DIS CAZ7
 BAR2 EZ EP   2    632 52.45                             164   -0.84 5 51.7 216 
 BAR2 EZ ES        633 12.52                             164    0.0910 51.7 216 
 BRR  HZ EP        632 54.97                             152    0.2710 89.9 280 
 BRR  HN ES        633 14.83                             152   -0.1110 89.9 280 
 RUS  HZ EP        632 57.49                             145    0.1110  121 189 
 RUS  HN ES        633 19.67                             145   -0.0410  121 189 
 RUS  HZ I         633 20.87         3.7 0.40            144            121 189 
 PTB  HZ EP        633  1.14                             133   -0.12 9  178 254 
 PTB  HN ES        633 26.58                             133   -0.03 9  178 254 
 PTB  HZ I         633 27.48         1.6 0.14            133            178 254 
 ZAR  HN ES   2    633 34.28                             127    0.16 4  223 285 
                                                                                
