 2012 10 9 0106 40.2 L   6.780 -73.128146.6  RSN  8 0.3 2.3LRSN                1
 GAP=140        0.56       2.7     3.9  4.3  0.9575E+00  0.5153E+01  0.3796E+01E
 Epicentro: LOS SANTOS - SANTANDER                                             3
 ACTION:UPD 12-11-22 17:02 OP:ep   STATUS:               ID:20121009010640 L   I
 2012-10-09-0100-00M.COL___223                                                 6
 STAT SP IPHASW D HRMM SECON CODA AMPLIT PERI AZIMU VELO AIN AR TRES W  DIS CAZ7
 BAR2 SZ EP   1    1 6 59.88                             171   -0.06 7 21.6 196 
 BAR2 SZ ES   1    1 7 14.77                             171   -0.54 7 21.6 196 
 BAR2 SZ I         1 7 16.42        89.4 0.18                          21.6 196 
 GIR2 SZ EP   1    1 6 59.90                             166   -0.18 7 33.8 348 
 GIR2 SZ ES   1    1 7 15.54                             166   -0.02 7 33.8 348 
 BRR  HZ EP   1    1 7  1.71                             152    0.08 7 73.9 299 
 BRR  HZ I         1 7  2.12        29.1 0.11                          73.9 299 
 BRR  HE ES   1    1 7 19.01                             152    0.69 7 73.9 299 
 PAM  SZ EP   1    1 7  2.75                             151    0.17 7 77.9  37 
 PAM  SZ I         1 7  3.02        37.3 0.20                          77.9  37 
 PAM  SN ES   1    1 7 19.98                             151   -0.02 7 77.9  37 
 PAM  SN I         1 7 21.20        31.9 0.21                          77.9  37 
 RUS  HZ EP   1    1 7  4.13                             145    0.22 7 98.3 177 
 RUS  HN ES   1    1 7 22.44                             145    0.07 7 98.3 177 
 ZAR  HZ EP   1    1 7 12.67                             122   -0.34 6  207 293 
 ZAR  HN ES   1    1 7 38.27                             122   -0.30 6  207 293 
 ZAR  HN I         1 7 45.68        30.5 0.24                           207 293 
 CHI  HZ EP   1    1 7 17.89                             117    0.08 6  247 196 
 CHI  HZ I         1 7 18.38         6.7 0.13                           247 196 
 CHI  HN ES   1    1 7 46.97                             117   -0.15 6  247 196 
 CHI  HN I         1 7 51.00        11.8 0.24                           247 196 
 PRA  HZ EP   1    1 7 33.64                             107   -0.04 4  391 210 
 PRA  HN ES   1    1 8 15.66                             107    0.30 4  391 210 
 PRA  HZ I         1 8 22.27         7.4 0.24                           391 210 
                                                                                
