 2013 12 9 0401 14.9 L   6.801 -73.130153.9  RSN  5 0.4 1.2LRSN                1
 GAP=202        0.69       6.2     9.9  8.4  0.4388E+02 -0.4406E+02 -0.2740E+02E
 Epicentro: LOS SANTOS - SANTANDER                                             3
 ACTION:UPD 14-01-13 10:16 OP:ep   STATUS:               ID:20131209040114 L   I
 OLDACT:REG 13-12-09 06:17 OP:jn   STATUS:               ID:20131209040000     3
 2013-12-09-0400-00M.COL___285                                                 6
 STAT SP IPHASW D HRMM SECON CODA AMPLIT PERI AZIMU VELO AIN AR TRES W  DIS CAZ7
 BRR  HZ EP        4 1 37.32                             153    0.3310 72.7 298 
 BRR  HN ES        4 1 54.18                             153   -0.0510 72.7 298 
 BRR  HZ I         4 1 58.72         2.2 0.16            146           72.7 298 
 RUS  HZ EP        4 1 39.39                             145   -0.0510  101 177 
 RUS  HN ES   1    4 1 58.62                             145    0.03 7  101 177 
 PTB  HN ES   2    4 2  3.48                             133   -0.87 5  149 259 
 PTB  HZ I         4 2 10.80         2.6 0.46            128            149 259 
 ZAR  HN ES   2    4 2 14.81                             124    0.94 4  206 292 
 SML  HZ EP        4 1 51.75                             119   -0.29 8  244 335 
 SML  HN ES   2    4 2 20.72                             119   -0.30 4  244 335 
                                                                                
