 2013  5 9 0753 16.7 L   6.825 -73.161150.2  RSN  6 0.4 1.5LRSN                1
 GAP=182        1.02       4.4     7.3 10.2  0.4081E+01 -0.9801E+01 -0.6038E+01E
 Epicentro: LOS SANTOS - SANTANDER                                             3
 ACTION:UPD 13-06-20 09:49 OP:ep   STATUS:               ID:20130509075316 L   I
 2013-05-09-0750-00M.COL___256                                                 6
 STAT SP IPHASW D HRMM SECON CODA AMPLIT PERI AZIMU VELO AIN AR TRES W  DIS CAZ7
 BAR2 SZ EP        753 36.94                             170    0.0510 25.8 185 
 BAR2 SZ I         753 58.17         5.0 0.44            169           25.8 185 
 BRR  HZ IP     D  753 38.75                             154    0.5910 68.4 297 
 BRR  HN ES   1    753 55.74                             154    0.83 7 68.4 297 
 BRR  HZ I         753 56.51         7.5 0.32            157           68.4 297 
 RUS  HZ EP        753 41.23                             144    0.1610  103 175 
 RUS  HN ES   1    753 59.63                             144   -0.47 7  103 175 
 RUS  HZ I         754  0.54         2.7 0.24            142            103 175 
 PTB  HZ EP        753 43.72                             133   -0.19 9  147 258 
 PTB  HN ES        754  4.72                             133   -0.43 9  147 258 
 PTB  HZ I         754  8.13         3.7 0.16            135            147 258 
 OCA  HE ES        754  6.58                             131   -0.63 9  157 354 
 SML  HZ EP        753 53.24                             119    0.03 8  241 335 
 SML  HN ES   1    754 21.87                             119    0.16 6  241 335 
 SML  HZ I         754 30.82         4.3 0.10            117            241 335 
                                                                                
