 2010  9 9 0814  5.3 L   6.790 -73.102149.9  RSN 17 0.4 3.8LRSN                1
 GAP=164        0.75       3.3     5.6  5.9 -0.7451E+01  0.8784E+01  0.3197E+01E
 Epicentro: LOS SANTOS - SANTANDER                                             3
 ACTION:UP  11-02-18 11:01 OP:tino STATUS:               ID:20100909081405 L   I
 2010-09-09-0811-52S.COL___120                                                 6
 STAT SP IPHASW D HRMM SECON CODA AMPLIT PERI AZIMU VELO SNR AR TRES W  DIS CAZ7
 BTL  SZ EP   1    814 25.70                             171     0.2 7   23 308 
 BAR2 SZ IP     C  814 25.50                             171     0.010   24 203 
 BAR2 SZ ES   2    814 40.78                             171    -0.4 5   24 203 
 BAR2 SZ I         814 42.26      2075.1 0.17                            24 203 
 GIR2 SZ EP   1    814 25.59                             167     0.0 7   34 342 
 GIR2 SZ ES   2    814 41.34                             167     0.0 5   34 342 
 BRR  HZ IP     C  814 27.37                             152     0.210   76 298 
 BRR  HE ES   2    814 44.71                             152     0.4 5   76 298 
 BRR  HZ I         814 47.87       741.4 0.23                            76 298 
 RUS  HZ IP     D  814 29.28                             145    -0.110   99 179 
 RUS  HN ES   2    814 47.74                             145    -0.4 5   99 179 
 RUS  HZ I         814 49.43       493.8 0.40                            99 179 
 GUE  SZ EP   1    814 30.42                             140     0.0 7  117  10 
 GRA  SZ IP     C  814 31.31                             138     0.410  125  15 
 GRA  SZ ES   2    814 50.16                             138    -0.7 5  125  15 
 OCA  SZ EP   1    814 33.83                             130    -0.3 7  162 351 
 OCA  SZ ES   2    814 56.78                             130     0.2 5  162 351 
 OCA  SZ I         815  0.20       468.7 0.23                           162 351 
 CHI  HZ EP   1    814 43.35                             118     0.1 6  249 196 
 CHI  HN ES   2    815 12.93                             118     0.0 4  249 196 
 CHI  HZ I         815 21.62       251.9 0.62                           249 196 
 ROSC BZ EP   1    814 45.01                             117     1.2 6  254 212 
 ROSC BN ES   2    815 13.94                             117     0.0 4  254 212 
 ROSC BZ I         815 20.44       379.3 0.37                           254 212 
 CVER SZ EP   1    814 45.64                             115    -0.4 6  273 203 
 CVER SZ I         814 47.17       431.8 0.14                           273 203 
 CVER SZ ES   2    815 17.73                             115     0.0 4  273 203 
 HEL  HZ EP   1    814 45.26                             115    -1.0 6  277 256 
 HEL  HE ES   2    815 17.67                             115    -0.5 4  277 256 
 HEL  HZ I         815 25.04       228.1 0.20                           277 256 
 GUY  SZ EP   1    814 49.43                             113    -0.1 5  305 236 
 GUY  SN ES   2    815 24.56                             113     0.6 4  305 236 
 GUY  SZ I         815 30.66       916.6 0.41                           305 236 
 RREF HZ EP   1    814 52.31                             111     0.3 5  325 230 
 RREF HN ES   2    815 28.81                             111     0.4 3  325 230 
 RREF HZ I         815 36.09       312.0 0.35                           325 230 
 DBB  SZ EP   1    814 53.05                             110    -0.5 5  344 274 
 TOL  SZ EP   1    814 54.08                             110     0.0 5  346 225 
 TOL  SZ ES   2    815 32.63                             110     0.6 3  346 225 
 PRA  HZ EP   1    814 58.33                             107    -0.8 4  393 210 
 PRA  HE ES   2    815 41.11                             107     0.0 3  393 210 
 PRA  HZ I         815 47.22       369.1 0.42                           393 210 
                                                                                
