 2012  7 9 0112 34.8 L   6.155 -73.848 75.2  RSN  5 0.4 1.0LRSN                1
 GAP=131        0.87       4.6     3.1 11.8  0.4445E+00  0.1462E+02  0.4123E+01E
 Epicentro: LANDAZURI - SANTANDER                                              3
 ACTION:UPD 12-08-14 11:43 OP:ep   STATUS:               ID:20120709011234 L   I
 2012-07-09-0110-00M.COL___201                                                 6
 STAT SP IPHASW D HRMM SECON CODA AMPLIT PERI AZIMU VELO AIN AR TRES W  DIS CAZ7
 PTB  HZ EP   1    112 49.57                             129    -0.3 7   80 302 
 PTB  HN ES   1    113  1.22                             129    -0.3 7   80 302 
 PTB  HZ I         113  7.74         2.1 0.05                            80 302 
 BAR2 SZ EP   1    112 50.68                             126    -0.3 7   88  57 
 BAR2 SZ ES        113  3.75                             126     0.210   88  57 
 BAR2 SZ I         113  6.39         3.7 0.19                            88  57 
 RUS  HZ EP   1    112 51.05                             126    -0.4 7   89 109 
 RUS  HN ES   1    113  4.56                             126     0.2 7   89 109 
 RUS  HZ I         113  6.50         2.9 0.26                            89 109 
 NOR  SZ EP   1    112 55.96                             114     0.7 7  131 240 
 NOR  SN ES   1    113 11.24                             114     0.0 7  131 240 
 ZAR  HZ EP   1    113  1.19                             106    -0.4 7  185 323 
 ZAR  HN ES   1    113 23.07                             106     0.6 7  185 323 
 ZAR  HZ I         113 26.57         3.0 0.17                           185 323 
