 2016  6 9 0619 45.1 L   6.813 -73.112150.9  RSN 11 0.5 1.6LRSN                1
 GAP=140        1.13       3.7     5.3  7.6 -0.6001E+01  0.2836E+01  0.5406E+01E
 Epicentro: LOS SANTOS - SANTANDER                                             3
 ACTION:UPD 16-07-21 22:16 OP:rebc STATUS:               ID:20160609061945 L   I
 OLDACT:UP  16-06-09 17:07 OP:dani STATUS:               ID:20160609061743     3
 OLDACT:UP  16-06-09 17:05 OP:dani STATUS:               ID:20160609061743     3
 OLDACT:REG 16-06-09 13:18 OP:dani STATUS:               ID:20160609061743     3
 2016-06-09-0617-43M.COL___337                                                 6
 STAT SP IPHASW D HRMM SECON CODA AMPLIT PERI AZIMU VELO AIN AR TRES W  DIS CAZ7
 BAR2 EZ EP        620  5.27                             170   -0.1610 25.6 198 
 BAR2 EZ I         620 22.89        10.7 0.28                          25.6 198 
 BRR  HZ EP        620  6.92                             153   -0.0710 73.9 296 
 BRR  HE ES        620 24.21                             153    0.1710 73.9 296 
 BRR  HZ I         620 28.04         6.4 0.18                          73.9 296 
 PAM  EZ EP        620  7.94                             153    0.2410 73.9  38 
 PAM  EE ES        620 25.48                             153    0.1810 73.9  38 
 PAM  EZ I         620 27.26         7.0 0.48                          73.9  38 
 RUS  HZ EP        620  9.38                             144   -0.1010  102 178 
 RUS  HE ES        620 28.53                             144    0.0610  102 178 
 RUS  HZ I         620 28.99         5.8 0.26                           102 178 
 PTB  HZ EP        620 12.32                             132   -0.56 9  152 259 
 PTB  HN ES        620 34.51                             132   -0.01 9  152 259 
 PTB  HZ I         620 35.44         3.1 0.16                           152 259 
 OCA  HZ EP        620 13.82                             131    0.06 9  159 352 
 OCA  HN ES        620 35.93                             131   -0.16 9  159 352 
 OCA  HZ I         620 38.66         6.5 0.16                           159 352 
 SPBC HZ EP        620 14.36                             130    0.00 9  167 220 
 SPBC HN ES        620 35.96                             130   -1.19 9  167 220 
 SPBC HZ I         620 40.91         6.2 0.10                           167 220 
 NOR  HN ES        620 51.39                             119    1.38 8  239 235 
 CHI  HZ EP        620 23.33                             118   -0.05 8  251 196 
 CHI  HN ES        620 53.76                             118    0.55 8  251 196 
 CHI  HZ I         620 58.43         1.8 0.19                           251 196 
 ROSC BZ I         620 27.13         3.4 0.18                           256 212 
 CBOC HZ EP   2    620 33.44                             111    0.72 3  338 252 
 CBOC HN ES   2    621  9.49                             111   -0.35 3  338 252 
 CBOC HZ I         621 22.86         0.8 0.33                           338 252 
                                                                                
