 2013  3 9 0033 40.6 L   6.871 -73.149142.5  RSN 20 0.6 2.9LRSN 3.2WRSN        1
 SPEC AVERAGE  MO 14.0 ST 11.5 OM  2.6 f0 3.54 R0.4721 AL 2.44 WI 33.0 MW  3.2 3
 SPEC SD       MO  0.2 ST 13.7 OM  0.5 f0 1.35 R0.1563 AL      WI      MW  0.2 3
 GAP= 68        1.36       2.9     3.6  5.8 -0.1091E+01  0.3942E+01  0.9680E+00E
 Epicentro: LOS SANTOS - SANTANDER                                             3
 SPEC TAM HH E MO 13.7 ST  1.5 OM  2.0 f0 2.72 R0.5404 AL 2.11 WI 14.6 MW  3.1 3
 SPEC TAM HH E T 03429 K 0.000 GD  212 VS 4.20 DE 3.20 Q0300.0 QA 0.60 VS 4.20 3
 SPEC PRA HH E MO 14.0 ST  2.2 OM  2.0 f0 2.46 R0.5976 AL 1.81 WI 26.0 MW  3.3 3
 SPEC PRA HH E T 03516 K 0.000 GD  423 VS 4.20 DE 3.20 Q0300.0 QA 0.60 VS 4.20 3
 SPEC ROSCBH Z MO 14.0 ST  2.6 OM  2.1 f0 2.72 R0.5404 AL 2.39 WI 32.4 MW  3.3 3
 SPEC ROSCBH Z T 03450 K 0.000 GD  295 VS 4.20 DE 3.20 Q0300.0 QA 0.60 VS 4.20 3
 SPEC PTB HH E MO 13.8 ST  2.4 OM  2.1 f0 3.00 R0.4900 AL 1.07 WI 31.4 MW  3.2 3
 SPEC PTB HH E T 03427 K 0.000 GD  206 VS 4.20 DE 3.20 Q0300.0 QA 0.60 VS 4.20 3
 SPEC RUS HH E MO 13.6 ST  1.1 OM  2.0 f0 2.64 R0.5568 AL 2.27 WI 22.8 MW  3.0 3
 SPEC RUS HH E T 03423 K 0.000 GD  178 VS 4.20 DE 3.20 Q0300.0 QA 0.60 VS 4.20 3
 SPEC NOR HH E MO 14.1 ST 32.3 OM  2.3 f0 5.53 R0.2658 AL 3.23 WI 42.1 MW  3.4 3
 SPEC NOR HH E T 03444 K 0.000 GD  278 VS 4.20 DE 3.20 Q0300.0 QA 0.60 VS 4.20 3
 SPEC OCA HH N MO 14.4 ST 37.8 OM  2.7 f0 4.72 R0.3114 AL 3.19 WI 39.4 MW  3.6 3
 SPEC OCA HH N T 03429 K 0.000 GD  208 VS 4.20 DE 3.20 Q0300.0 QA 0.60 VS 4.20 3
 SPEC ANILHH E MO 14.2 ST  9.7 OM  2.2 f0 3.57 R0.4118 AL 2.69 WI 39.3 MW  3.4 3
 SPEC ANILHH E T 035 8 K 0.000 GD  389 VS 4.20 DE 3.20 Q0300.0 QA 0.60 VS 4.20 3
 SPEC COD HH N MO 13.8 ST0.566 OM  1.8 f0 1.92 R0.7656 AL 1.23 WI 36.6 MW  3.1 3
 SPEC COD HH N T 035 3 K 0.000 GD  368 VS 4.20 DE 3.20 Q0300.0 QA 0.60 VS 4.20 3
 SPEC BRR HH N MO 13.9 ST 24.6 OM  2.3 f0 6.10 R0.2410 AL 4.44 WI 45.2 MW  3.2 3
 SPEC BRR HH N T 03415 K 0.000 GD  157 VS 4.20 DE 3.20 Q0300.0 QA 0.60 VS 4.20 3
 ACTION:UPD 13-04-09 14:00 OP:ep   STATUS:               ID:20130309003340 L   I
 2013-03-09-0028-51M.COL___207                                                 6
 STAT SP IPHASW D HRMM SECON CODA AMPLIT PERI AZIMU VELO AIN AR TRES W  DIS CAZ7
 BAR2 SZ IP        034  0.20                             167    0.1710 31.1 187 
 BAR2 SZ ES        034 14.92                             167   -0.2610 31.1 187 
 BAR2 SZ I         034 17.04       102.1 0.38            166           31.1 187 
 BRR  HZ IP     D  034  1.71                             153    0.5210 67.5 293 
 BRR  HZ I         034  1.91       106.2 0.16            152           67.5 293 
 BRR  HE ES        034 18.52                             153    1.2710 67.5 293 
 PAM  SZ IP     D  034  2.64                             152    0.5010 71.7  44 
 PAM  SZ I         034  3.10       228.2 0.16            154           71.7  44 
 PAM  SN ES        034 18.19                             152   -0.7510 71.7  44 
 RUS  HZ EP        034  4.39                             141   -0.2310  108 176 
 RUS  HN ES        034 22.72                             141   -0.6510  108 176 
 RUS  HE I         034 26.23        78.4 0.50            140            108 176 
 PTB  HZ EP        034  6.73                             131   -0.70 9  149 256 
 PTB  HN ES        034 27.49                             131   -0.87 9  149 256 
 OCA  HZ EP        034  7.70                             130   -0.22 9  152 353 
 OCA  HE ES        034 29.45                             130    0.22 9  152 353 
 OCA  HN I         034 32.51       335.4 0.22            131            152 353 
 TAM  HZ EP        034  8.72                             129    0.46 9  158 108 
 TAM  HN ES        034 30.35                             129    0.51 9  158 108 
 TAM  HE I         034 31.05        79.8 0.18            130            158 108 
 ZAR  HZ EP        034 12.96                             122    0.46 9  201 290 
 ZAR  HE ES        034 38.00                             122    0.61 9  201 290 
 SML  HZ EP        034 15.91                             118   -0.34 8  236 335 
 SML  HN ES   1    034 43.89                             118   -0.17 6  236 335 
 NOR  HZ IP     C  034 16.82                             117    0.21 8  239 233 
 NOR  HN ES        034 44.21                             117   -0.50 8  239 233 
 NOR  HE I         034 50.03        75.9 0.18            117            239 233 
 CHI  HZ EP        034 18.85                             116   -0.09 8  256 195 
 CHI  HE ES        034 48.40                             116   -0.45 8  256 195 
 CHI  HN I         034 55.25        47.3 0.32            115            256 195 
 ROSC BZ EP        034 20.59                             115    1.32 8  259 210 
 ROSC BN ES        034 49.96                             115    0.53 8  259 210 
 ROSC BZ I         034 57.95        40.4 0.50            115            259 210 
 HEL  HZ EP        034 21.88                             114    1.05 8  274 254 
 HEL  HE ES        034 51.85                             114   -0.37 8  274 254 
 HEL  HN I         034 58.07        20.0 0.30            114            274 254 
 VIL  SZ EP        034 24.23                             111   -0.51 7  311 191 
 VIL  SN ES        034 58.95                             111   -0.22 7  311 191 
 DBB  SZ EP   2    034 28.25                             109    0.40 3  339 273 
 DBB  SZ ES   1    035  3.69                             109   -1.01 5  339 273 
 DBB  SZ I         035  6.90        15.5 0.62            109            339 273 
 COD  HZ EP        034 27.64                             109   -0.30 7  340 355 
 COD  HN ES        035  4.15                             109   -0.71 7  340 355 
 COD  HE I         035 14.26        14.9 0.32            109            340 355 
 SDV  BZ EP        034 29.42                             108   -0.55 6  356  51 
 ANIL HN ES        035 10.76                             108    0.61 6  363 224 
 ANIL HE I         035 17.73        54.5 0.28            107            363 224 
 PRA  HZ EP        034 34.40                             106   -0.39 6  399 209 
 PRA  HN ES        035 16.91                             106   -0.15 6  399 209 
 PRA  HE I         035 24.59        32.0 0.48            105            399 209 
 SJC  HN IP     D  034 34.12                             105   -1.14 6  402 326 
                                                                                
