 2014  7 9 0414 40.6 L   6.799 -73.151142.4  RSN  9 0.5 1.9LRSN                1
 GAP=119        1.23       4.3     4.7  6.9 -0.3035E+01  0.2998E+01 -0.3753E+01E
 Epicentro: LOS SANTOS - SANTANDER                                             3
 ACTION:UPD 15-03-16 20:42 OP:nd   STATUS:               ID:20140709041440 L   I
 OLDACT:UP  14-07-10 09:34 OP:SPQ  STATUS:               ID:20140709041440 L   3
 OLDACT:REG 14-07-09 12:08 OP:stll STATUS:               ID:20140709040815     3
 2014-07-09-0408-15M.COL___265                                                 6
 STAT SP IPHASW D HRMM SECON CODA AMPLIT PERI AZIMU VELO AIN AR TRES W  DIS CAZ7
 BAR2 SZ EP     D  414 59.98                             170    0.2010 23.1 188 
 BAR2 SZ I         415  0.45        17.9 0.14            170           23.1 188 
 BAR2 SZ ES        415 14.85                             170    0.0810 23.1 188 
 BRR  HZ IP     C  415  1.73                             152    0.4110 70.7 299 
 BRR  HZ I         415  1.99        19.9 0.30            150           70.7 299 
 BRR  HN ES        415 18.10                             152    0.6010 70.7 299 
 PAM  SZ EP        415  2.86                             150    0.4110 77.8  40 
 PAM  SZ I         415  3.09        18.2 0.20            151           77.8  40 
 PAM  SN ES        415 19.41                             150   -0.1110 77.8  40 
 RUS  HZ EP        415  4.63                             143    0.6510  101 176 
 RUS  HN ES        415 21.75                             143   -0.4910  101 176 
 RUS  HZ I         415 23.91         5.6 0.26            144            101 176 
 PTB  HZ EP        415  6.92                             131   -0.28 9  147 259 
 PTB  HN ES        415 27.26                             131   -0.71 9  147 259 
 PTB  HZ I         415 30.43        11.2 0.10            130            147 259 
 OCA  HZ EP        415  9.00                             129    0.39 9  160 353 
 OCA  HN ES   1    415 29.45                             129   -1.04 7  160 353 
 SPBC HZ EP        415  9.02                             128    0.26 9  163 219 
 SPBC HZ I         415  9.38         9.2 0.10            128            163 219 
 SPBC HN ES        415 30.21                             128   -0.54 9  163 219 
 ZAR  HZ EP        415 12.84                             122    0.11 9  203 292 
 ZAR  HN ES        415 37.79                             122   -0.03 9  203 292 
 ZAR  HZ I         415 44.09         9.3 0.40            121            203 292 
 SOCV BZ EP        415 22.43                             111   -1.09 7  302  57 
                                                                                
