 2013 12 9 0958 16.5 L   6.796 -73.141147.3  RSN  4 0.5 1.3LRSN                1
 GAP=201        0.95       6.0     8.7 15.2 -0.3870E+01  0.6789E+01 -0.5489E+02E
 Epicentro: LOS SANTOS - SANTANDER                                             3
 ACTION:UPD 14-01-13 10:16 OP:ep   STATUS:               ID:20131209095816 L   I
 OLDACT:DUP 13-12-09 08:56 OP:jn   STATUS:               ID:20131209095001d    3
 2013-12-09-0950-00M.COL___285                                                 6
 STAT SP IPHASW D HRMM SECON CODA AMPLIT PERI AZIMU VELO AIN AR TRES W  DIS CAZ7
 RUS  HN ES   1    958 59.09                             144    0.07 8  100 176 
 RUS  HZ I         959  0.75         2.4 0.40            147            100 176 
 PTB  HZ EP        958 43.44                             132   -0.2310  148 259 
 PTB  HN ES        959  4.41                             132   -0.4210  148 259 
 PTB  HZ I         959  6.71         3.3 0.14            135            148 259 
 NOR  HE ES   1    959 21.34                             119    1.01 7  235 235 
 SML  HZ EP        958 53.05                             118   -0.27 9  244 335 
 SML  HE ES        959 22.52                             118    0.51 9  244 335 
                                                                                
