 2017  7 9 0649 27.8 L   6.749 -73.128142.9  RSN 14 0.6 2.2LRSN                1
 GAP= 94        1.42       6.0     3.9  8.2  0.1296E+01  0.2367E+01  0.1911E+02E
 Epicentro: LOS SANTOS - SANTANDER                                             3
 ACTION:UPD 17-08-30 15:31 OP:rebc STATUS:               ID:20170709064927 L   I
 OLDACT:UP  17-07-09 17:56 OP:ar   STATUS:               ID:20170709064737     3
 OLDACT:UP  17-07-09 17:56 OP:ar   STATUS:               ID:20170709064737     3
 OLDACT:UP  17-07-09 17:55 OP:ar   STATUS:               ID:20170709064737     3
 OLDACT:UP  17-07-09 17:54 OP:ar   STATUS:               ID:20170709064737     3
 OLDACT:REG 17-07-09 14:10 OP:ar   STATUS:               ID:20170709064737     3
 2017-07-09-0648-00M.COL___371                                                 6
 STAT SP IPHASW D HRMM SECON CODA AMPLIT PERI AZIMU VELO AIN AR TRES W  DIS CAZ7
 BAR2 EZ IP     C  649 46.81                             172   -0.1910 18.4 199 
 BAR2 EZ ES        650  2.07                             172    0.1010 18.4 199 
 BAR2 EZ I         650  4.43        54.3 0.30            166           18.4 199 
 BRR  HZ IP     C  649 48.60                             151   -0.3110 75.7 302 
 BRR  HN ES        650  5.71                             151    0.3410 75.7 302 
 BRR  HZ I         650  9.50        42.1 0.42            149           75.7 302 
 PAM  HZ EP        649 49.82                             149   -0.1010 80.6  36 
 PAM  EN ES   1    650  6.01                             149   -1.15 7 80.6  36 
 PAM  HZ I         650  9.22        20.7 0.20            157           80.6  36 
 PTB  HZ EP   1    649 53.53                             131   -1.10 7  149 261 
 PTB  HN ES        650 14.63                             131   -0.92 9  149 261 
 PTB  HZ I         650 21.57        15.5 0.42            130            149 261 
 TAM  HZ EP        649 55.23                             131    0.28 9  152 103 
 TAM  HN ES        650 16.88                             131    0.76 9  152 103 
 SPBC HZ EP        649 55.76                             129   -0.04 9  160 221 
 SPBC HN ES        650 18.53                             129    0.90 9  160 221 
 SPBC HZ I         650 25.48        23.6 0.28            128            160 221 
 YPLC HZ IP     C  649 57.22                             127    0.41 9  171 151 
 YPLC HN ES   4    650 21.20                             127    1.76 0  171 151 
 YPLC HZ I         650 22.19        13.2 0.24            129            171 151 
 ZAR  HZ EP   4    650  2.34                             121    1.86 0  208 293 
 ZAR  HE ES        650 26.91                             121    0.94 8  208 293 
 ZAR  HZ I         650 31.30        18.3 0.36            122            208 293 
 NOR  HZ EP        650  3.24                             118    0.04 8  233 236 
 NOR  HN ES        650 30.50                             118   -0.30 8  233 236 
 NOR  HZ I         650 38.43         9.6 0.20            118            233 236 
 ROSC BZ EP   4    650  7.41                             116    2.05 0  249 212 
 ROSC BN ES   4    650 37.44                             116    2.79 0  249 212 
 ROSC BZ I         650 40.82        19.8 0.40            117            249 212 
 HEL  HZ EP        650  9.01                             114    1.07 8  273 257 
 HEL  HE ES   4    650 42.52                             114    3.27 0  273 257 
 HEL  HZ I         650 47.08         6.0 0.34            115            273 257 
 GUY2CHZ EP   4    650 13.16                             112    2.06 0  300 236 
 GUY2CHN ES   4    650 48.40                             112    3.52 0  300 236 
 GUY2CHZ I         650 51.95         5.7 0.44                           300 236 
 PTGC HZ EP        650  9.92                             111   -0.94 7  303 159 
 PTGC HN ES        650 43.85                             111   -0.59 7  303 159 
 PTGC HZ I         650 44.62         6.6 0.28            113            303 159 
 CBOC HZ EP        650 14.61                             109   -0.02 7  334 253 
 CBOC HN ES        650 50.86                             109   -0.29 7  334 253 
 CBOC HZ I         651 11.26         2.4 0.52            110            334 253 
                                                                                
