 2014  9 9 0003 56.0 L   6.489 -73.443132.0  RSN  6 0.4 1.5LRSN                1
 GAP= 92        0.96       4.4     4.5  7.1  0.5793E+01  0.8641E+01 -0.3193E+01E
 Epicentro: SIMACOTA - SANTANDER                                               3
 ACTION:UPD 14-10-03 23:03 OP:nd   STATUS:               ID:20140909000356 L   I
 OLDACT:REG 14-09-09 13:24 OP:carl STATUS:               ID:20140909000005     3
 2014-09-09-0000-05M.COL___265                                                 6
 STAT SP IPHASW D HRMM SECON CODA AMPLIT PERI AZIMU VELO AIN AR TRES W  DIS CAZ7
 BAR2 SZ EP        0 4 14.45                             166    0.2310 31.0  68 
 BAR2 SZ ES        0 4 28.08                             166   -0.3110 31.0  68 
 BAR2 SZ I         0 4 29.46        11.7 0.26            167           31.0  68 
 BRR  HZ EP        0 4 16.29                             149    0.3610 74.6 337 
 BRR  HN ES        0 4 31.41                             149   -0.0310 74.6 337 
 RUS  HZ EP        0 4 17.21                             148    0.4210 77.0 149 
 RUS  HE ES        0 4 32.80                             148   -0.1710 77.0 149 
 RUS  HZ I         0 4 34.56         5.0 0.18            150           77.0 149 
 PTB  HZ EP        0 4 18.39                             137   -0.3510  112 273 
 PTB  HN ES        0 4 36.47                             137    0.0310  112 273 
 PTB  HZ I         0 4 37.64         4.7 0.18            137            112 273 
 SPBC HN ES        0 4 37.24                             136    0.0810  116 217 
 ZAR  HZ EP        0 4 25.47                             121   -0.86 9  192 305 
 ZAR  HN ES        0 4 50.47                             121    0.52 9  192 305 
 ZAR  HZ I         0 4 54.40         4.3 0.38            121            192 305 
                                                                                
