 2012  8 9 0918 14.6 L   6.729 -73.190144.5  RSN  6 0.4 1.6LRSN                1
 GAP=227        0.93       7.8     8.0  7.4  0.3917E+02  0.1374E+02  0.1113E+02E
 Epicentro: VILLANUEVA - SANTANDER                                             3
 ACTION:UPD 12-09-10 11:55 OP:ep   STATUS:               ID:20120809091814 L   I
 2012-08-09-0910-00M.COL___215                                                 6
 STAT SP IPHASW D HRMM SECON CODA AMPLIT PERI AZIMU VELO AIN AR TRES W  DIS CAZ7
 BAR2 SZ EP   1    918 33.53                             174   -0.44 7 15.1 177 
 BAR2 SZ ES   1    918 48.26                             174   -0.80 7 15.1 177 
 BAR2 SZ I         918 49.91        27.0 0.27                          15.1 177 
 BRR  HZ EP        918 35.58                             152   -0.0710 71.3 306 
 BRR  HN ES        918 52.54                             152    0.5010 71.3 306 
 BRR  HZ I         918 53.24        10.5 0.10                          71.3 306 
 RUS  HZ EP        918 38.25                             146    0.5110 93.2 173 
 RUS  HN ES   1    918 55.93                             146    0.17 7 93.2 173 
 RUS  HZ I         918 58.40         3.6 0.64                          93.2 173 
 PTB  HZ EP        918 40.65                             133   -0.29 9  142 262 
 PTB  HN ES   1    919  1.61                             133    0.14 7  142 262 
 PTB  HZ I         919  2.72         2.5 0.21                           142 262 
 ZAR  HZ EP   1    918 47.22                             122    0.36 6  203 295 
 ZAR  HN ES   1    919 11.50                             122   -0.49 6  203 295 
 ZAR  HZ I         919 17.24         5.7 0.44                           203 295 
 PRA  HZ EP   1    919  6.56                             107   -0.47 4  383 210 
                                                                                
