 2015 10 9 0004 55.6 L   6.784 -73.101150.3  RSN 15 0.4 2.0LRSN                1
 GAP=143        0.89       2.5     3.3  4.4 -0.9567E+00  0.6067E+01  0.9064E+00E
 Epicentro: LOS SANTOS - SANTANDER                                             3
 ACTION:UPD 15-12-22 20:38 OP:cam  STATUS:               ID:20151009000455 L   I
 OLDACT:REG 15-10-09 12:10 OP:ak   STATUS:               ID:20151009000005     3
 2015-10-09-0000-05M.COL___328                                                 6
 STAT SP IPHASW D HRMM SECON CODA AMPLIT PERI AZIMU VELO AIN AR TRES W  DIS CAZ7
 BAR2 EZ EP        0 5 15.86                             171    0.1110 23.1 203 
 BAR2 EZ ES        0 5 31.78                             171    0.3010 23.1 203 
 BAR2 EZ I         0 5 33.62        10.9 0.38            169           23.1 203 
 PAM  EZ EP        0 5 18.62                             152    0.4410 75.7  36 
 PAM  EE ES        0 5 35.63                             152   -0.1810 75.7  36 
 PAM  EZ I         0 5 38.10         9.0 0.20            157           75.7  36 
 BRR  HZ EP        0 5 17.85                             152    0.3310 76.4 298 
 BRR  HN ES        0 5 35.09                             152    0.4710 76.4 298 
 BRR  HZ I         0 5 39.67        12.5 0.24            151           76.4 298 
 RUS  HZ EP        0 5 19.29                             145   -0.3510 98.6 179 
 RUS  HN ES        0 5 37.68                             145   -0.7310 98.6 179 
 RUS  HZ I         0 5 39.74         5.9 0.44            148           98.6 179 
 SPBC HZ EP        0 5 24.85                             130    0.24 9  165 221 
 SPBC HN ES        0 5 47.34                             130    0.10 9  165 221 
 SPBC HZ I         0 5 54.04        23.6 0.34            131            165 221 
 ZAR  HZ EP        0 5 28.42                             123   -0.45 8  209 292 
 ZAR  HN ES        0 5 54.48                             123   -0.35 8  209 292 
 ZAR  HZ I         0 6  0.38        13.1 0.26            124            209 292 
 NOR  HZ EP        0 5 31.87                             119   -0.04 8  238 236 
 NOR  HN ES        0 6  0.02                             119   -0.22 8  238 236 
 NOR  HZ I         0 6  3.64         8.6 0.18            121            238 236 
 SML  HZ EP        0 5 32.31                             118   -0.55 8  247 334 
 SML  HN ES        0 6  1.81                             118   -0.13 8  247 334 
 SML  HZ I         0 6  5.67        19.3 0.10            120            247 334 
 CHI  HZ EP        0 5 33.84                             118    0.34 8  248 196 
 CHI  HN ES        0 6  2.74                             118   -0.34 8  248 196 
 CHI  HZ I         0 6  7.18         3.6 0.30            121            248 196 
 HEL  HZ EP        0 5 36.85                             115    0.33 7  276 256 
 HEL  HN ES        0 6  8.29                             115   -0.15 7  276 256 
 HEL  HZ I         0 6 14.76         4.2 0.11            117            276 256 
 GUY2CHZ EP        0 5 40.01                             113    0.26 7  304 236 
 GUY2CHN ES        0 6 14.44                             113    0.24 7  304 236 
 GUY2CHZ I         0 6 22.97         5.1 0.36                           304 236 
 ELA  HZ EP   1    0 5 42.78                             111   -0.15 5  332 230 
 ELA  HN ES        0 6 20.35                             111    0.48 7  332 230 
 CBOC HZ EP        0 5 43.95                             110    0.78 7  338 253 
 CBOC HN ES        0 6 20.87                             110    0.58 7  338 253 
 DBB  SZ EP        0 5 43.78                             110   -0.05 7  345 274 
 DBB  SZ ES        0 6 20.55                             110   -0.91 7  345 274 
 DBB  SZ I         0 6 22.43         9.4 0.54            112            345 274 
 ORTC HZ EP        0 5 49.31                             107   -0.53 6  397 217 
 ORTC HN ES        0 6 32.02                             107   -0.15 6  397 217 
 ORTC HZ I         0 6 38.82         2.7 0.42            109            397 217 
 SJC  HZ EP   4    0 5 50.18                             106   -1.61 0  413 327 
 SJC  HE ES   4    0 6 30.52                             106   -5.10 0  413 327 
                                                                                
