 2011  5 9 0856 18.3 L   6.778 -73.100140.9  RSN  5 0.2 1.3LRSN                1
 GAP=164        0.67       4.8     9.7  7.9  0.2046E+02 -0.3927E+02 -0.1976E+02E
 Epicentro: LOS SANTOS - SANTANDER                                             3
 ACTION:UP  11-06-29 08:51 OP:tino STATUS:               ID:20110509085618 L   I
 2011-05-09-0840-00M.COL___137                                                 6
 STAT SP IPHASW D HRMM SECON CODA AMPLIT PERI AZIMU VELO AIN AR TRES W  DIS CAZ7
 BAR2 SZ EP        856 37.22                             170    -0.110   23 204 
 BAR2 SZ ES   1    856 51.95                             170    -0.2 7   23 204 
 BAR2 SZ I         856 53.86         7.8 0.23                            23 204 
 BRR  HZ EP        856 39.14                             150    -0.110   77 298 
 BRR  HN ES   1    856 55.59                             150     0.0 7   77 298 
 BRR  HZ I         856 58.75         5.6 0.15                            77 298 
 RUS  HZ EP        856 41.20                             143    -0.110   98 179 
 RUS  HN ES   1    856 59.76                             143     0.4 7   98 179 
 RUS  HZ I         857  1.16         1.7 0.57                            98 179 
 GRA  SZ EP        856 43.05                             136    -0.110  127  15 
 GRA  SZ I         857  3.62         2.7 0.42                           127  15 
 OCA  SZ EP   1    856 47.02                             128     0.5 7  163 351 
 OCA  SZ I         857 11.24         3.5 0.45                           163 351 
                                                                                
