 2015  6 9 0943 26.6 L   6.779 -73.175143.3  RSN  5 0.3 1.3LRSN                1
 GAP=233        0.88       4.9     6.3  6.4  0.1495E+02  0.9486E+01  0.1147E+01E
 Epicentro: LOS SANTOS - SANTANDER                                             3
 ACTION:UPD 15-09-10 22:11 OP:cam  STATUS:               ID:20150609094326 L   I
 OLDACT:DUP 15-06-09 19:21 OP:drio STATUS:               ID:20150609093751d    3
 2015-06-09-0937-49M.COL___300                                                 6
 STAT SP IPHASW D HRMM SECON CODA AMPLIT PERI AZIMU VELO AIN AR TRES W  DIS CAZ7
 BAR2 EZ EP        943 45.75                             171   -0.1010 20.7 182 
 BAR2 EZ ES        944  0.38                             171   -0.5110 20.7 182 
 BAR2 EZ I         944  2.58         3.4 0.46            168           20.7 182 
 BRR  HZ EP        943 47.95                             153    0.5910 69.6 301 
 BRR  HN ES        944  3.88                             153    0.3110 69.6 301 
 RUS  HZ EP        943 49.68                             144   -0.2510 98.5 174 
 RUS  HE ES        944  8.42                             144    0.2710 98.5 174 
 RUS  HZ I         944 11.01         2.0 0.54            144           98.5 174 
 SPBC HZ EP        943 54.74                             129    0.23 9  159 219 
 SPBC HN ES        944 16.26                             129   -0.05 9  159 219 
 SPBC HZ I         944 19.56         3.8 0.30            128            159 219 
 ZAR  HZ EP        943 58.22                             122   -0.42 9  202 293 
 ZAR  HE ES        944 23.44                             122   -0.21 9  202 293 
 ZAR  HZ I         944 29.36         2.9 0.32            122            202 293 
                                                                                
