 2014 12 9 0203 41.3 L   6.847 -73.310141.1  RSN  7 0.4 1.5LRSN                1
 GAP=102        1.13       4.0     4.8  9.0 -0.4221E+00  0.1058E+02 -0.1007E+02E
 Epicentro: ZAPATOCA - SANTANDER                                               3
 ACTION:UPD 15-02-10 17:01 OP:nd   STATUS:               ID:20141209020341 L   I
 OLDACT:DUP 14-12-09 14:31 OP:fm   STATUS:               ID:20141209015748d    3
 2014-12-09-0157-47M.COL___309                                                 6
 STAT SP IPHASW D HRMM SECON CODA AMPLIT PERI AZIMU VELO AIN AR TRES W  DIS CAZ7
 BAR2 SZ ES   1    2 4 15.76                             167    0.20 7 31.5 153 
 BAR2 SZ I         2 4 16.62         7.6 0.24            171           31.5 153 
 PAM  SZ EP        2 4  2.93                             147   -0.6510 86.7  51 
 PAM  SN ES        2 4 21.56                             147    0.5810 86.7  51 
 PAM  SZ I         2 4 24.00         3.3 0.26            152           86.7  51 
 RUS  HZ EP        2 4  5.47                             141    0.3210  108 167 
 RUS  HN ES        2 4 23.51                             141   -0.2810  108 167 
 PTB  HZ EP        2 4  7.05                             134    0.6810  131 255 
 PTB  HE ES        2 4 25.39                             134   -0.5710  131 255 
 PTB  HZ I         2 4 30.85         3.2 0.18            136            131 255 
 OCA  HZ EP        2 4  8.07                             130   -0.55 9  154 360 
 OCA  HE ES        2 4 29.76                             130   -0.19 9  154 360 
 OCA  HZ I         2 4 31.87         4.2 0.26            132            154 360 
 ZAR  HN ES        2 4 35.32                             124    0.27 9  185 293 
 ZAR  HZ I         2 4 41.73         4.6 0.50            126            185 293 
 ZAR  HZ I         2 4 55.10                                            185 293 
 SML  HZ EP        2 4 16.72                             118    0.37 8  232 339 
 SML  HN ES        2 4 43.71                             118    0.00 8  232 339 
                                                                                
