 2015 11 9 0608 21.3 L   6.801 -73.060140.1  RSN  6 0.3 1.4LRSN                1
 GAP=192        0.77       2.8     4.8  5.2  0.2227E+01  0.2433E+01 -0.2285E+01E
 Epicentro: LOS SANTOS - SANTANDER                                             3
 ACTION:UPD 15-12-28 16:09 OP:cam  STATUS:               ID:20151109060821 L   I
 OLDACT:REG 15-11-09 13:32 OP:dnl  STATUS:               ID:20151109055750     3
 2015-11-09-0557-50M.COL___313                                                 6
 STAT SP IPHASW D HRMM SECON CODA AMPLIT PERI AZIMU VELO AIN AR TRES W  DIS CAZ7
 BAR2 EZ EP        6 8 40.70                             169    0.3510 26.7 210 
 BAR2 EZ ES        6 8 55.32                             169    0.1310 26.7 210 
 BAR2 EZ I         6 8 57.72         5.7 0.30            166           26.7 210 
 BRR  HZ EP        6 8 42.57                             149    0.2010 79.6 295 
 BRR  HN ES        6 8 58.70                             149   -0.0910 79.6 295 
 BRR  HZ I         6 9  3.42         4.2 0.12            146           79.6 295 
 RUS  HZ EP        6 8 44.43                             143   -0.0810  100 181 
 RUS  HE ES        6 9  2.68                             143    0.0810  100 181 
 RUS  HZ I         6 9  3.91         1.9 0.22            146            100 181 
 OCA  HZ EP        6 8 49.02                             128   -0.30 9  162 350 
 OCA  HE ES        6 9 10.88                             128   -0.28 9  162 350 
 OCA  HZ I         6 9 18.75         6.1 0.52            129            162 350 
 SPBC HZ EP        6 8 49.54                             127   -0.45 9  169 221 
 SPBC HE ES        6 9 12.04                             127   -0.31 9  169 221 
 SPBC HZ I         6 9 18.75         2.9 0.10            128            169 221 
 ZAR  HZ EP        6 8 55.02                             120    0.70 8  213 291 
 ZAR  HE ES        6 9 20.07                             120    0.01 8  213 291 
 ZAR  HZ I         6 9 27.08         2.3 0.50            120            213 291 
                                                                                
