 2010 12 9 0232 38.5 L   6.821 -73.155151.5  RSN  6 0.4 1.6LRSN                1
 GAP=169        0.63       5.7    21.5  9.7 -0.7791E+02  0.3013E+02 -0.4836E+00E
 Epicentro: LOS SANTOS - SANTANDER                                             3
 ACTION:UP  11-01-14 15:23 OP:pat  STATUS:               ID:20101209023238 L   I
 2010-12-09-0230-26S.COL___135                                                 6
 STAT SP IPHASW D HRMM SECON CODA AMPLIT PERI AZIMU VELO SNR AR TRES W  DIS CAZ7
 BTL  SZ EP   1    232 58.87                             174     0.2 7   16 311 
 BAR2 SZ EP   1    232 58.35                             170    -0.5 7   26 187 
 BAR2 SZ I         232 58.99         8.8 0.19                            26 187 
 BAR2 SZ ES   2    233 15.11                             170     0.4 5   26 187 
 GRA  SZ EP   1    233  4.42                             139     0.4 7  124  18 
 GRA  SZ ES   2    233 23.64                             139    -0.4 5  124  18 
 GRA  SZ I         233 25.34         5.2 0.31                           124  18 
 OCA  SZ EP   2    233  6.66                             131    -0.3 5  158 353 
 OCA  SZ ES   2    233 29.26                             131     0.0 5  158 353 
 OCA  SZ I         233 31.63         4.9 0.56                           158 353 
 CHI  HZ EP   2    233 16.97                             118     0.3 4  251 195 
 CHI  HE ES   2    233 46.26                             118    -0.3 4  251 195 
 CHI  HZ I         233 54.30         1.8 0.46                           251 195 
 PRA  HZ EP   3    233 33.20                             107     0.8 1  394 209 
                                                                                
