 2017  1 9 0806  7.2 L   6.821 -73.145150.7  RSN 32 0.6 3.0LRSN                1
 GAP= 65        0.97       2.8     2.6  4.1 -0.5881E+00  0.2544E+01  0.1405E+01E
 Epicentro: LOS SANTOS - SANTANDER                                             3
 ACTION:UPD 17-05-22 15:57 OP:jn   STATUS:               ID:20170109080607 L   I
 OLDACT:UP  17-01-09 18:32 OP:and  STATUS:               ID:20170109075744d    3
 OLDACT:UP  17-01-09 18:30 OP:and  STATUS:               ID:20170109075744d    3
 OLDACT:UP  17-01-09 18:28 OP:and  STATUS:               ID:20170109075744d    3
 OLDACT:UP  17-01-09 18:28 OP:and  STATUS:               ID:20170109075744d    3
 OLDACT:UP  17-01-09 18:26 OP:and  STATUS:               ID:20170109075744d    3
 OLDACT:UP  17-01-09 18:25 OP:and  STATUS:               ID:20170109075744d    3
 OLDACT:UP  17-01-09 18:24 OP:and  STATUS:               ID:20170109075744d    3
 OLDACT:UP  17-01-09 18:23 OP:and  STATUS:               ID:20170109075744d    3
 OLDACT:UP  17-01-09 18:22 OP:and  STATUS:               ID:20170109075744d    3
 OLDACT:UP  17-01-09 18:20 OP:and  STATUS:               ID:20170109075744d    3
 OLDACT:DUP 17-01-09 18:18 OP:and  STATUS:               ID:20170109075744d    3
 OLDACT:REG 17-01-09 13:17 OP:and  STATUS:               ID:20170109075742     3
 2017-01-09-0758-00M.COL___341                                                 6
 STAT SP IPHASW D HRMM SECON CODA AMPLIT PERI AZIMU VELO AIN AR TRES W  DIS CAZ7
 BAR2 EZ IP     C  8 6 27.48                             170   -0.0210 25.6 189 
 BAR2 HN ES        8 6 42.66                             170   -0.6510 25.6 189 
 BRR  HZ IP     C  8 6 29.30                             154    0.4410 70.2 297 
 BRR  HN ES        8 6 46.45                             154    0.7210 70.2 297 
 BRR  HZ I         8 6 50.58       219.9 0.15            151           70.2 297 
 PAM  EZ IP     C  8 6 30.30                             152    0.4310 75.6  41 
 PAM  EN ES        8 6 47.31                             152   -0.2210 75.6  41 
 PAM  EZ I         8 6 49.73       396.9 0.48            157           75.6  41 
 RUS  HZ EP        8 6 31.43                             144   -0.2010  103 176 
 RUS  HN ES     D  8 6 50.37                             144   -0.2910  103 176 
 RUS  HZ I         8 6 51.43       280.0 0.32            144            103 176 
 PTB  HZ EP        8 6 34.01                             133   -0.64 9  148 258 
 PTB  HN ES        8 6 55.80                             133   -0.23 9  148 258 
 PTB  HZ I         8 7  0.92       144.5 0.16            132            148 258 
 TAM  HZ IP     C  8 6 35.90                             131    0.55 9  156 106 
 TAM  HN ES        8 6 57.55                             131    0.26 9  156 106 
 TAM  HZ I         8 6 59.03        52.6 0.60            135            156 106 
 ZAR  HZ EP        8 6 39.91                             123   -0.01 9  203 292 
 ZAR  HN ES        8 7  5.13                             123   -0.28 9  203 292 
 ZAR  HZ I         8 7 11.22       155.4 0.30            123            203 292 
 NOR  HZ EP        8 6 43.69                             119    0.30 8  236 234 
 NOR  HE ES        8 7 11.88                             119    0.28 8  236 234 
 NOR  HZ I         8 7 17.16       105.2 0.24            119            236 234 
 CHI  HZ EP        8 6 45.34                             118   -0.10 8  251 195 
 CHI  HN ES        8 7 15.56                             118    0.31 8  251 195 
 CHI  HZ I         8 7 24.94        75.8 0.40            118            251 195 
 ROSC BZ EP   3    8 6 47.05                             117    1.21 2  255 211 
 ROSC BN ES        8 7 15.91                             117   -0.04 8  255 211 
 ROSC BZ I         8 7 22.21       143.0 0.35            118            255 211 
 URE  HZ EP   9    8 6 47.34                             114   -1.11 0  283 291 
 URE  HE ES        8 7 18.82                             114   -0.67 7  283 291 
 URE  HZ I         8 7 30.58        82.1 0.26            115            283 291 
 GUY2CHZ EP        8 6 51.96                             113    0.74 7  303 234 
 GUY2CHN ES        8 7 24.93                             113   -0.60 7  303 234 
 GUY2CHZ I         8 7 37.75        89.4 0.42                           303 234 
 LL1C HZ EP   4    8 6 53.98                             113    3.18 0  304 351 
 LL1C HN ES   3    8 7 26.98                             113    2.20 2  304 351 
 PTGC HZ IP     D  8 6 50.62                             112   -0.93 7  311 159 
 PTGC HN ES   4    8 7 23.55                             112   -2.57 0  311 159 
 PTGC HZ I         8 7 28.95       123.5 0.34            113            311 159 
 LL6C HZ EP   9    8 6 33.54                             111   -19.3 0  323 358 
 LL6C HN ES   4    8 7  7.19                                   -1.96 0  323 358 
 LL6C HZ I         8 7 22.83        29.8 0.52            113            323 358 
 ELA  HZ EP   3    8 6 55.73                             111    1.27 2  331 229 
 ELA  HE ES   4    8 7 33.97                             111    2.66 0  331 229 
 ELA  HZ I         8 7 42.54        38.4 0.34            111            331 229 
 CBOC HZ EP        8 6 55.16                             111    0.72 7  334 252 
 CBOC HN ES        8 7 31.94                             111    0.68 7  334 252 
 CBOC HZ I         8 7 47.49        20.5 0.46            111            334 252 
 DBB  EZ EP        8 6 54.85                             110   -0.04 7  339 274 
 DBB  EN ES   3    8 7 30.30                             110   -1.77 2  339 274 
 DBB  EZ I         8 7 32.59        31.5 0.24            111            339 274 
 ARGC HZ EP   2    8 6 57.53                             109    0.70 3  357 340 
 ARGC HN ES   2    8 7 36.31                             109    0.79 3  357 340 
 ARGC HZ I         8 7 42.70        18.9 0.26            110            357 340 
 ORTC HZ EP        8 7  1.70                             107    0.16 6  397 216 
 ORTC HN ES   3    8 7 45.44                             107    1.54 1  397 216 
 ORTC HZ I         8 7 51.38        56.1 0.40            107            397 216 
 SJC  HZ EP        8 7  1.64                             106   -1.10 6  407 327 
 SJC  HN ES   4    8 7 42.15                             106   -3.88 0  407 327 
 SJC  HZ I         8 7 49.14        20.8 0.26            107            407 327 
 PAL  HZ EP        8 7  2.93                             106    0.23 6  407 239 
 PAL  HN ES        8 7 45.89                             106   -0.07 6  407 239 
 PAL  HZ I         8 7 49.09        27.9 0.22            107            407 239 
 CRJC HZ EP        8 7  7.86                             104   -1.74 5  465   4 
 CRJC HN ES   4    8 7 55.25                             104   -3.00 0  465   4 
 CRJC HZ I         8 7 58.71        32.7 0.22            105            465   4 
 YOT  HZ EP        8 7 10.28                             104   -0.31 5  473 229 
 YOT  HE ES   3    8 8  1.25                             104    1.23 1  473 229 
 YOT  HZ I         8 8  7.02         5.5 0.33            104            473 229 
 SMAR HZ EP        8 7 12.96                             103   -0.01 4  495 346 
 SMAR HN ES   4    8 8  0.40                             103   -3.85 0  495 346 
 SMAR HZ I         8 8  3.42        15.2 0.07            104            495 346 
 MACC HZ EP   4    8 7 14.23                             102   -2.10 0  523 189 
 MACC HN ES   4    8 8  5.47                             102   -4.76 0  523 189 
 MACC HZ I         8 8 11.41        15.4 0.26            103            523 189 
 MARO HZ EP        8 7 17.88                             102   -0.71 4  539 215 
 MARO HN ES   2    8 8 12.85                             102   -1.41 2  539 215 
 URI  HZ EP   2    8 7 17.99                             101   -2.09 2  555  13 
 URI  HE ES   4    8 8 12.63                             101   -4.27 0  555  13 
 URI  HZ I         8 8 16.98         4.1 0.45            102            555  13 
 CONO HZ EP        8 7 28.23                             100    0.31 3  614 216 
 CONO HN ES   4    8 8 26.16                             100   -4.70 0  614 216 
 CONO HZ I         8 8 33.92         5.3 0.40            100            614 216 
 FLO2 HZ EP        8 7 30.37                              99   -0.32 2  643 206 
 FLO2 HN ES   4    8 8 33.17                              99   -2.63 0  643 206 
 FLO2 HZ I         8 8 39.26         2.3 0.22            100            643 206 
 SOTO HZ EP   3    8 7 33.00                              99    1.43 1  645 217 
 SOTO HN ES        8 8 37.01                              99   -0.34 2  645 217 
 GCUF HZ EP   2    8 7 48.58                              97    1.37 0  775 217 
 GCUF HN ES   4    8 9  1.50                              97   -3.70 0  775 217 
 GCUF HZ I         8 9 10.50         1.5 0.28             98            775 217 
                                                                                
