 2013  3 9 0459 56.7 L   6.794 -73.205135.7  RSN  7 0.3 2.0LRSN                1
 GAP=130        0.84       3.4     4.5  8.0 -0.4523E+01  0.5521E+01 -0.5472E+01E
 Epicentro: ZAPATOCA - SANTANDER                                               3
 ACTION:UPD 13-04-09 14:00 OP:ep   STATUS:               ID:20130309045956 L   I
 2013-03-09-0458-49M.COL___198                                                 6
 STAT SP IPHASW D HRMM SECON CODA AMPLIT PERI AZIMU VELO AIN AR TRES W  DIS CAZ7
 BAR2 SZ EP        5 0 15.22                             170    0.0910 22.5 174 
 BAR2 SZ ES        5 0 29.60                             170    0.1110 22.5 174 
 BAR2 SZ I         5 0 30.76        16.1 0.34            174           22.5 174 
 BRR  HZ EP        5 0 17.10                             153    0.6110 65.9 302 
 BRR  HE ES   4    5 0 34.03                             153    2.13 0 65.9 302 
 BRR  HN I         5 0 38.87        22.8 0.14            149           65.9 302 
 PAM  SZ EP   1    5 0 18.18                             147   -0.01 7 82.2  43 
 PAM  SN ES   1    5 0 35.02                             147    0.08 7 82.2  43 
 PAM  SN I         5 0 36.01        25.3 0.48            150           82.2  43 
 RUS  HZ EP        5 0 19.21                             142   -0.3010  101 172 
 RUS  HN ES        5 0 37.05                             142   -0.2210  101 172 
 PTB  HN ES        5 0 42.22                             131    0.00 9  141 259 
 CAPV BZ ES        5 0 45.11                             128    0.26 9  154  40 
 OCA  HN ES        5 0 45.10                             127   -0.66 9  160 355 
 OCA  HN I         5 0 51.21        21.2 0.26            129            160 355 
                                                                                
