 2016  9 9 0018 14.8 L   6.826 -73.108148.0  RSN  5 0.4 1.3LRSN                1
 GAP=140        1.14       6.2     6.0  8.4 -0.3817E+01  0.6243E+01  0.2799E+01E
 Epicentro: LOS SANTOS - SANTANDER                                             3
 ACTION:UPD 17-08-17 21:08 OP:lp   STATUS:               ID:20160909001814 L   I
 OLDACT:REG 16-09-09 12:14 OP:dani STATUS:               ID:20160909001737     3
 2016-09-09-0018-00M.COL___362                                                 6
 STAT SP IPHASW D HRMM SECON CODA AMPLIT PERI AZIMU VELO AIN AR TRES W  DIS CAZ7
 BAR2 EZ EP        018 34.63                             169   -0.1210 27.2 198 
 BAR2 EZ ES        018 50.10                             169   -0.2410 27.2 198 
 BAR2 EZ I         018 51.93         4.0 0.26            170           27.2 198 
 PAM  EZ EP        018 37.68                             153    0.7410 72.5  38 
 PAM  EE ES        018 53.65                             153   -0.5810 72.5  38 
 PAM  EZ I         018 57.47         2.3 0.21            154           72.5  38 
 BRR  HZ EP        018 36.43                             152    0.1310 73.7 295 
 BRR  HE ES        018 53.52                             152    0.4310 73.7 295 
 BRR  HZ I         018 54.12         5.6 0.40            154           73.7 295 
 RUS  HZ EP        018 39.04                             143    0.1010  103 179 
 RUS  HE ES        018 57.97                             143    0.1910  103 179 
 RUS  HZ I         018 59.59         2.0 0.34            145            103 179 
 PTB  HZ EP        018 41.50                             131   -0.85 9  152 258 
 PTB  HE ES        019  3.95                             131    0.09 9  152 258 
 PTB  HZ I         019  5.28         2.8 0.12            134            152 258 
                                                                                
