 2012 10 9 0440 52.2 L   7.374 -73.172133.8  RSN  6 0.2 1.7LRSN                1
 GAP=180        0.42       3.7     3.8  5.6  0.4998E+01  0.1292E+02  0.1269E+01E
 Epicentro: RIONEGRO - SANTANDER                                               3
 ACTION:UPD 12-11-22 17:02 OP:ep   STATUS:               ID:20121009044052 L   I
 2012-10-09-0440-00M.COL___223                                                 6
 STAT SP IPHASW D HRMM SECON CODA AMPLIT PERI AZIMU VELO AIN AR TRES W  DIS CAZ7
 GIR2 SZ ES   1    441 24.54                             165   -0.19 7 32.7 184 
 PAM  SE ES   1    441 27.12                             158    0.13 7 52.3  94 
 BRR  HZ EP   1    441 11.80                             152    0.04 7 66.5 244 
 BRR  HZ I         441 26.82        11.7 0.38                          66.5 244 
 BRR  HN ES   2    441 27.41                             152    0.37 5 66.5 244 
 BAR2 SZ ES   1    441 29.65                             145   -0.25 7 86.4 181 
 BAR2 SZ I         441 31.21        16.2 0.13                          86.4 181 
 RUS  HN ES   1    441 42.63                             126    0.21 7  164 177 
 RUS  HN I         441 44.22         2.5 0.28                           164 177 
 ZAR  HZ EP   1    441 21.91                             122   -0.12 7  187 274 
 ZAR  HN ES   1    441 45.36                             122    0.03 7  187 274 
                                                                                
