 2015  1 9 0453 21.2 L   6.845 -73.173143.5  RSN 16 0.4 2.5LRSN                1
 GAP= 68        0.99       2.6     3.0  5.2 -0.9318E+00  0.2281E+01  0.4912E+00E
 Epicentro: ZAPATOCA - SANTANDER                                               3
 ACTION:UPD 15-03-02 15:38 OP:nd   STATUS:               ID:20150109045321 L   I
 OLDACT:UP  15-01-09 16:12 OP:cam  STATUS:               ID:20150109044817     3
 OLDACT:UP  15-01-09 16:11 OP:cam  STATUS:               ID:20150109044817     3
 OLDACT:UP  15-01-09 16:11 OP:cam  STATUS:               ID:20150109044817     3
 OLDACT:REG 15-01-09 13:57 OP:cam  STATUS:               ID:20150109044817     3
 2015-01-09-0448-17M.COL___262                                                 6
 STAT SP IPHASW D HRMM SECON CODA AMPLIT PERI AZIMU VELO AIN AR TRES W  DIS CAZ7
 BAR2 EZ EP     C  453 40.84                             169    0.1610 28.0 182 
 BAR2 EZ ES        453 55.78                             169   -0.0810 28.0 182 
 BAR2 EZ I         453 57.66        53.7 0.34            168           28.0 182 
 BRR  HZ IP     C  453 42.53                             154    0.6810 66.2 296 
 BRR  HN ES        453 58.68                             154    0.7410 66.2 296 
 BRR  HN I         454  3.52       133.5 0.16            152           66.2 296 
 PAM  SZ EP     C  453 43.48                             151    0.3910 75.7  44 
 PAM  SN ES        454  0.50                             151    0.3510 75.7  44 
 PAM  SZ I         454  2.55        44.2 0.50            148           75.7  44 
 RUS  HZ EP        453 44.98                             142   -0.1610  106 175 
 RUS  HN ES        454  3.24                             142   -0.5510  106 175 
 RUS  HZ I         454  4.98        31.0 0.28            140            106 175 
 PTB  HZ EP        453 47.46                             132   -0.37 9  146 257 
 PTB  HN ES        454  7.78                             132   -0.81 9  146 257 
 PTB  HZ I         454 13.92        37.7 0.40            129            146 257 
 OCA  HZ EP        453 48.63                             130   -0.23 9  155 354 
 OCA  HN ES        454 10.02                             130   -0.40 9  155 354 
 TAM  HZ IP     D  453 49.28                             129    0.16 9  159 106 
 TAM  HZ I         454  9.70        16.6 0.46            126            159 106 
 TAM  HE ES        454 10.56                             129   -0.32 9  159 106 
 SPBC HZ EP     D  453 49.95                             128    0.21 9  165 217 
 SPBC HN ES        454 11.82                             128   -0.17 9  165 217 
 SPBC HZ I         454 14.53        41.4 0.22            126            165 217 
 ZAR  HZ EP   4    453 54.17                             123    1.13 0  199 291 
 ZAR  HN ES   4    454 18.88                             123    1.02 0  199 291 
 ZAR  HZ I         454 24.61        42.5 0.30            120            199 291 
 NOR  HZ EP   1    453 57.11                             118    0.24 6  235 233 
 NOR  HN ES        454 24.81                             118    0.13 8  235 233 
 SML  HZ EP        453 57.00                             118   -0.10 8  238 335 
 SML  HN ES        454 24.56                             118   -0.51 8  238 335 
 SML  HZ I         454 33.78        34.0 0.36            115            238 335 
 CHI  HZ EP        453 59.27                             116    0.03 8  253 194 
 CHI  HN ES        454 29.05                             116    0.16 8  253 194 
 CHI  HZ I         454 36.08         8.1 0.66            114            253 194 
 ROSC BZ EP   4    454  1.13                             116    1.61 0  256 210 
 HEL  HZ EP   4    454  2.98                             114    1.84 0  270 255 
 HEL  HN ES        454 32.65                             114    0.38 8  270 255 
 HEL  HZ I         454 39.32        12.2 0.30            112            270 255 
 URE  HZ EP   4    454  4.82                             113    3.16 0  279 291 
 PTGC HZ EP   4    454  4.30                             111   -1.33 0  314 158 
 RREF HZ EP   4    454  9.26                             110    1.88 0  323 228 
 MON  HZ EP   4    454  8.00                             108   -1.51 0  348 308 
 MON  HN ES   4    454 45.20                             108   -1.97 0  348 308 
 MON  HZ I         454 48.73         6.6 0.66            106            348 308 
 ORTC HN ES   4    454 58.94                             106    1.41 0  398 215 
 ORTC HN I         455  4.76        25.5 0.28            104            398 215 
 SJC  HZ EP   4 C  454 15.11                             106   -0.92 0  403 327 
 SJC  HN ES   4    454 56.08                             106   -2.69 0  403 327 
 SJC  HZ I         455  0.10        11.0 0.58            104            403 327 
 PAL  HZ EP   4    454 16.95                             105    0.64 0  406 238 
                                                                                
