 2017  5 9 0757  1.1 L   6.821 -73.115142.8  RSN 10 0.4 1.8LRSN                1
 GAP=114        1.07       4.2     4.2  6.8  0.1122E+01  0.4233E+01  0.4194E+01E
 Epicentro: LOS SANTOS - SANTANDER                                             3
 ACTION:UPD 17-06-16 13:34 OP:jn   STATUS:               ID:20170509075701 L   I
 OLDACT:REG 17-05-09 13:07 OP:lv   STATUS:               ID:20170509074742     3
 2017-05-09-0748-00M.COL___347                                                 6
 STAT SP IPHASW D HRMM SECON CODA AMPLIT PERI AZIMU VELO AIN AR TRES W  DIS CAZ7
 BRR  HZ IP     C  757 21.87                             151   -0.2210 73.2 296 
 BRR  HN ES        757 38.89                             151    0.4610 73.2 296 
 BRR  HZ I         757 43.00        10.9 0.15            151           73.2 296 
 PAM  EZ EP        757 23.04                             151    0.2210 73.4  39 
 PAM  EN ES        757 39.55                             151   -0.1710 73.4  39 
 PAM  EZ I         757 42.21         5.9 0.33            156           73.4  39 
 RUS  HZ EP        757 24.81                             143    0.0410  103 178 
 RUS  HN ES        757 42.52                             143   -0.6710  103 178 
 RUS  HZ I         757 44.45         6.3 0.08            144            103 178 
 PTB  HZ EP   9    757 26.87                             130   -1.36 0  152 258 
 PTB  HN ES        757 47.88                                   -0.11 9  152 258 
 SPBC HZ EP        757 29.05                             128   -0.75 9  167 219 
 SPBC HN ES        757 52.17                             128    0.02 9  167 219 
 SPBC HZ I         757 56.60        16.6 0.05            128            167 219 
 YPLC HZ EP        757 30.85                             126    0.08 9  177 153 
 YPLC HN ES        757 54.62                             126    0.74 9  177 153 
 YPLC HZ I         757 56.87         6.5 0.14            128            177 153 
 ZAR  HZ EP        757 33.19                             121   -0.45 8  206 291 
 ZAR  HN ES   4    758  0.44                             121    1.45 0  206 291 
 ZAR  HZ I         758  4.26         8.1 0.23            123            206 291 
 NOR  HN ES   4    758  3.91                             117   -1.33 0  239 234 
 NOR  HZ I         758  9.09         4.0 0.16            119            239 234 
 ROSC BN ES   4    758 11.97                             116    2.52 0  256 211 
 ROSC BZ I         758 16.13         9.2 0.08            117            256 211 
 HEL  HZ EP        757 42.27                             114    0.62 7  276 256 
 HEL  HN ES        758 13.68                             114    0.45 7  276 256 
                                                                                
