 2015  3 9 0100 21.4 L   6.774 -73.169144.8  RSN  7 0.4 1.7LRSN                1
 GAP=135        1.14       4.6     5.6  7.3 -0.5441E+01  0.4344E+01  0.8718E+01E
 Epicentro: LOS SANTOS - SANTANDER                                             3
 ACTION:UPD 15-04-30 16:24 OP:nd   STATUS:               ID:20150309010021 L   I
 OLDACT:UP  15-03-09 14:56 OP:cam  STATUS:               ID:20150309005749     3
 OLDACT:REG 15-03-09 13:50 OP:cam  STATUS:               ID:20150309005749     3
 2015-03-09-0057-49M.COL___278                                                 6
 STAT SP IPHASW D HRMM SECON CODA AMPLIT PERI AZIMU VELO AIN AR TRES W  DIS CAZ7
 BAR2 EZ ES        1 0 55.34                             172   -0.6710 20.1 184 
 BAR2 EZ I         1 0 58.28        15.4 0.28            171           20.1 184 
 BRR  HZ EP        1 0 42.55                             153    0.1710 70.4 302 
 BRR  HN ES        1 0 59.67                             153    0.9110 70.4 302 
 BRR  HZ I         1 1  3.63         9.7 0.28            153           70.4 302 
 PAM  SZ EP        1 0 43.62                             149   -0.1110 81.2  40 
 PAM  SN ES        1 1  0.96                             149   -0.2010 81.2  40 
 PAM  SZ I         1 1  2.86         9.5 0.46            153           81.2  40 
 RUS  HZ EP        1 0 44.94                             144    0.0910 97.9 174 
 RUS  HN ES        1 1  3.54                             144    0.3910 97.9 174 
 RUS  HZ I         1 1  4.33         8.7 0.36            146           97.9 174 
 PTB  HZ EP        1 0 47.52                             132   -0.48 9  145 260 
 PTB  HN ES        1 1  8.12                             132   -0.63 9  145 260 
 PTB  HZ I         1 1 11.04         5.6 0.10            134            145 260 
 SPBC HZ EP        1 0 49.65                             129    0.21 9  159 219 
 SPBC HN ES        1 1 11.60                             129    0.27 9  159 219 
 SPBC HZ I         1 1 13.38         9.8 0.18            131            159 219 
 CHI  HZ EP        1 0 58.99                             117    0.33 8  245 195 
 CHI  HE ES        1 1 27.36                             117   -0.36 8  245 195 
 CHI  HZ I         1 1 34.43         2.4 0.38            119            245 195 
                                                                                
