 2017 10 9 0130 21.1 L   6.805 -73.115142.7  RSN  8 0.4 1.9LRSN                1
 GAP=115        0.85       3.0     3.6  5.3  0.4466E+00  0.6838E+01  0.2687E+01E
 Epicentro: LOS SANTOS - SANTANDER                                             3
 ACTION:UPD 17-11-07 19:29 OP:rebc STATUS:               ID:20171009013021 L   I
 OLDACT:UP  17-10-09 19:04 OP:leo  STATUS:               ID:20171009011747     3
 OLDACT:UP  17-10-09 19:03 OP:leo  STATUS:               ID:20171009011747     3
 OLDACT:REG 17-10-09 13:09 OP:leo  STATUS:               ID:20171009011747     3
 2017-10-09-0118-00M.COL___429                                                 6
 STAT SP IPHASW D HRMM SECON CODA AMPLIT PERI AZIMU VELO AIN AR TRES W  DIS CAZ7
 BAR2 EZ EP     C  130 40.17                             170   -0.2510 24.7 197 
 BAR2 EZ ES        130 55.14                             170   -0.3310 24.7 197 
 BAR2 EZ I         130 56.46        27.5 0.24            167           24.7 197 
 PAM  EZ EP        130 43.05                             151    0.1910 74.8  38 
 PAM  EN ES        131  0.11                             151    0.2910 74.8  38 
 PAM  EZ I         131  0.68        12.6 0.22            155           74.8  38 
 RUS  HZ EP        130 44.14                             143   -0.4710  101 178 
 RUS  HN ES        131  3.30                             143    0.3810  101 178 
 RUS  HZ I         131  3.87         5.8 0.14            143            101 178 
 SPBC HZ EP        130 49.15                             128   -0.49 9  166 220 
 SPBC HN ES        131 11.87                             128   -0.01 9  166 220 
 SPBC HZ I         131 16.18        17.1 0.20            128            166 220 
 YPLC HZ EP        130 50.62                             126    0.03 9  176 152 
 YPLC HN EP        130 51.26                             126            176 152 
 YPLC HN ES        131 13.72                             126    0.14 9  176 152 
 YPLC HZ I         131 15.42        11.7 0.30            127            176 152 
 ZAR  HZ EP        130 54.02                             121    0.35 8  207 292 
 ZAR  HN ES        131 18.73                             121   -0.33 8  207 292 
 ZAR  HZ I         131 24.28        11.4 0.26            122            207 292 
 CHI  HZ EP        130 58.54                             116   -0.27 8  250 196 
 CHI  HN ES        131 28.14                             116   -0.07 8  250 196 
 CHI  HZ I         131 34.83         4.3 0.46            117            250 196 
 GUY2CHZ EP        131  5.43                             111    0.49 7  304 235 
 GUY2CHE ES        131 39.94                             111    0.82 7  304 235 
 GUY2CHZ I         131 45.23         2.6 0.52                           304 235 
                                                                                
