 2015  3 9 0607  2.6 L   6.180 -73.586115.5  RSN 15 0.5 2.0LRSN                1
 GAP= 75        1.21       3.0     3.7  6.3 -0.1073E+01  0.8990E+01  0.2260E+01E
 Epicentro: LA PAZ - SANTANDER                                                 3
 ACTION:UPD 15-04-30 16:24 OP:nd   STATUS:               ID:20150309060702 L   I
 OLDACT:UP  15-03-09 17:37 OP:cam  STATUS:               ID:20150309055749     3
 OLDACT:REG 15-03-09 14:21 OP:cam  STATUS:               ID:20150309055749     3
 2015-03-09-0557-49M.COL___281                                                 6
 STAT SP IPHASW D HRMM SECON CODA AMPLIT PERI AZIMU VELO AIN AR TRES W  DIS CAZ7
 BAR2 EZ IP     D  6 7 20.92                             149    0.4510 63.8  44 
 BAR2 EZ ES        6 7 34.48                             149    0.1010 63.8  44 
 BAR2 EZ I         6 7 36.44        60.6 0.40            148           63.8  44 
 RUS  HZ EP        6 7 20.89                             149    0.0410 64.1 120 
 RUS  HN ES        6 7 34.73                             149   -0.3310 64.1 120 
 RUS  HZ I         6 7 36.14        11.6 0.24            149           64.1 120 
 SPBC HZ EP     C  6 7 21.20                             143   -0.1210 79.4 223 
 SPBC HN ES        6 7 36.04                             143    0.1510 79.4 223 
 SPBC HZ I         6 7 40.54        35.2 0.10            138           79.4 223 
 BRR  HZ EP     C  6 7 23.39                             135    0.2610  104 352 
 BRR  HN ES        6 7 39.85                             135    0.7510  104 352 
 BRR  HZ I         6 7 40.66        11.3 0.18            130            104 352 
 PTB  HZ IP     C  6 7 22.26                             135   -0.9510  104 293 
 PTB  HN ES        6 7 38.47                             135   -0.7810  104 293 
 PTB  HZ I         6 7 41.25        18.6 0.14            129            104 293 
 NOR  HZ EP        6 7 27.88                             122   -0.50 9  158 244 
 NOR  HN ES        6 7 48.91                             122    0.45 9  158 244 
 NOR  HZ I         6 7 51.64        31.5 0.32            117            158 244 
 CHI  HZ IP     C  6 7 30.35                             120   -0.03 9  172 185 
 CHI  HN ES        6 7 51.55                             120   -0.46 9  172 185 
 CHI  HZ I         6 7 58.07         4.8 0.32            116            172 185 
 ZAR  HZ EP        6 7 33.11                             115    0.02 9  202 316 
 ZAR  HE ES        6 7 57.08                             115    0.23 9  202 316 
 ZAR  HZ I         6 8  3.12        17.2 0.22            111            202 316 
 HEL  HZ EP        6 7 35.20                             114    0.21 8  215 270 
 HEL  HN ES        6 7 59.22                             114   -1.01 8  215 270 
 HEL  HZ I         6 8  8.79         7.0 0.28            109            215 270 
 GUY2CHZ EP        6 7 36.30                             113    0.21 8  224 242 
 GUY2CHN ES        6 8  3.24                             113    1.06 8  224 242 
 GUY2CHZ I         6 8  7.53        15.9 0.42                           224 242 
 TOL  SZ EP        6 7 40.09                             109   -0.07 8  261 228 
 TOL  SE ES        6 8 10.05                             109    0.63 8  261 228 
 TOL  SZ I         6 8 14.75         7.2 0.34            105            261 228 
 CBOC HZ EP        6 7 41.36                             108    0.25 8  271 263 
 CBOC HZ I         6 8 12.76         2.8 0.42            104            271 263 
 SML  HZ EP        6 7 43.42                             106   -0.27 7  295 350 
 SML  HE ES   4    6 8 13.24                             106   -2.46 0  295 350 
 SML  HZ I         6 8 24.90         5.7 0.48            103            295 350 
 PRA  HZ EP   4    6 7 42.97                             105   -2.38 0  308 208 
 PRA  HN ES        6 8 19.08                             105    0.42 7  308 208 
 PRA  HZ I         6 8 24.19         6.6 0.30            102            308 208 
 ORTC HZ EP        6 7 45.32                             105   -0.36 7  311 216 
 ORTC HN ES   4    6 8 20.38                             105    1.12 0  311 216 
 ORTC HZ I         6 8 25.95         6.2 0.66            101            311 216 
                                                                                
