 2011  2 9 0938 47.6 L   6.840 -73.035140.7  RSN  7 0.2 1.7LRSN                1
 GAP=170        0.46       2.4     5.2  4.5 -0.4357E+01  0.4669E+01 -0.4293E+00E
 Epicentro: CEPITA - SANTANDER                                                 3
 ACTION:UP  11-03-28 15:07 OP:jfem STATUS:               ID:20110209093847 L   I
 2011-02-09-0936-58S.COL___136                                                 6
 STAT SP IPHASW D HRMM SECON CODA AMPLIT PERI AZIMU VELO SNR AR TRES W  DIS CAZ7
 BTL  SZ EP   1    939  7.08                             168     0.4 7   27 289 
 BTL  SZ ES   2    939 21.72                             168     0.1 5   27 289 
 BAR2 SZ IP        939  6.97                             167     0.210   32 211 
 BAR2 SZ ES   2    939 21.47                             167    -0.3 5   32 211 
 BAR2 SZ I         939 24.35        12.5 0.21                            32 211 
 RUS  HZ EP   1    939 11.04                             142    -0.1 7  105 183 
 RUS  HE ES   2    939 29.57                             142     0.0 5  105 183 
 RUS  HZ I         939 30.52         6.0 0.29                           105 183 
 GRA  SZ IP        939 11.66                             138    -0.110  118  12 
 GRA  SZ I         939 12.75        13.3 0.31                           118  12 
 GRA  SZ ES   2    939 30.28                             138    -0.3 5  118  12 
 OCA  SZ EP   1    939 15.37                             129     0.1 7  158 349 
 OCA  SZ ES   2    939 36.72                             129    -0.1 5  158 349 
 CHI  HZ EP   1    939 25.49                             115    -0.3 6  256 198 
 CHI  HN ES   2    939 55.63                             115     0.0 4  256 198 
 CHI  HZ I         940  0.31         2.7 0.34                           256 198 
 HEL  HZ EP   1    939 28.96                             113     0.0 6  285 256 
 HEL  HE ES   2    940  1.16                             113    -0.1 4  285 256 
 HEL  HZ I         940  5.34         3.7 0.47                           285 256 
                                                                                
