 2012  1 9 0215 46.9 L   7.206 -73.022153.9  RSN  7 0.3 1.3LRSN                1
 GAP=149        0.59       5.6     4.5  5.4 -0.1352E+01  0.3313E+01  0.2508E+01E
 Epicentro: TONA - SANTANDER                                                   3
 ACTION:UP  12-02-03 08:15 OP:REBC STATUS:               ID:20120109021546 L   I
 2012-01-09-0210-00M.COL___186                                                 6
 STAT SP IPHASW D HRMM SECON CODA AMPLIT PERI AZIMU VELO SNR AR TRES W  DIS CAZ7
 GIR2 SZ EP        216  7.54                             171     0.210   24 233 
 GIR2 SZ ES   2    216 23.26                             171     0.0 5   24 233 
 PAM  SZ EP   1    216  8.09                             165    -0.1 7   39  68 
 PAM  SN ES   1    216 24.59                             165    -0.3 7   39  68 
 BAR2 SZ EP   1    216  9.25                             154     0.1 7   70 195 
 BAR2 SZ ES   1    216 26.54                             154    -0.1 7   70 195 
 BAR2 SZ I         216 29.59         3.3 0.18                            70 195 
 BRR  HZ EP   1    216  9.29                             152     0.1 7   77 262 
 BRR  HZ I         216  9.50         4.3 0.14                            77 262 
 BRR  HE ES   1    216 27.10                             152     0.5 7   77 262 
 RUS  HZ EP   1    216 15.28                             135     0.3 7  145 183 
 RUS  HE ES   2    216 36.59                             135    -0.3 5  145 183 
 PTB  HZ EP   1    216 16.39                             129    -0.6 7  175 245 
 PTB  HE ES   2    216 40.10                             129    -0.4 4  175 245 
 ZAR  HN ES   2    216 45.55                             124    -0.2 4  205 279 
                                                                                
