 2014  7 9 0530 22.6 L   6.781 -73.168142.8  RSN 16 0.6 2.0LRSN                1
 GAP= 64        1.49       3.9     3.9  7.0 -0.1994E+01  0.5106E+01  0.5774E+01E
 Epicentro: LOS SANTOS - SANTANDER                                             3
 ACTION:UPD 15-03-16 20:42 OP:nd   STATUS:               ID:20140709053022 L   I
 OLDACT:REG 14-07-09 12:10 OP:stll STATUS:               ID:20140709052819     3
 2014-07-09-0528-19M.COL___265                                                 6
 STAT SP IPHASW D HRMM SECON CODA AMPLIT PERI AZIMU VELO AIN AR TRES W  DIS CAZ7
 BAR2 SZ EP        530 42.07                             171    0.2710 20.9 184 
 BAR2 SZ ES        530 56.87                             171    0.0810 20.9 184 
 BAR2 SZ I         530 58.51        25.9 0.30            170           20.9 184 
 BRR  HZ IP     C  530 43.79                             152    0.4510 70.0 301 
 BRR  HN ES        531  0.63                             152    1.1010 70.0 301 
 BRR  HZ I         531  2.11        14.5 0.12            151           70.0 301 
 PAM  SZ EP        530 44.85                             149    0.1810 80.6  40 
 PAM  SZ I         530 45.21        64.1 0.20            152           80.6  40 
 PAM  SN ES        531  1.84                             149   -0.0710 80.6  40 
 RUS  HZ EP        530 46.12                             144    0.2210 98.7 175 
 RUS  HN ES        531  3.88                             144   -0.2110 98.7 175 
 RUS  HZ I         531  6.02         9.9 0.28            144           98.7 175 
 PTB  HZ EP        530 48.55                             132   -0.49 9  145 259 
 PTB  HN ES        531  9.38                             132   -0.30 9  145 259 
 PTB  HZ I         531 12.45         9.3 0.10            131            145 259 
 TAM  HZ EP        530 50.44                             130    0.24 9  157 104 
 TAM  HZ I         530 52.51         9.7 0.28            132            157 104 
 TAM  HN ES        531 11.20                             130   -0.54 9  157 104 
 SPBC HZ EP        530 50.94                             129    0.40 9  160 219 
 SPBC HN ES        531 12.47                             129    0.12 9  160 219 
 SPBC HZ I         531 19.19        12.7 0.18            129            160 219 
 OCA  HZ EP        530 50.36                             129   -0.47 9  162 354 
 OCA  HN ES        531 12.19                             129   -0.67 9  162 354 
 OCA  HZ I         531 20.47        13.4 0.24            130            162 354 
 ZAR  HZ EP        530 54.10                             122   -0.57 9  203 293 
 ZAR  HN ES        531 19.12                             122   -0.58 9  203 293 
 ZAR  HZ I         531 25.20        10.0 0.24            122            203 293 
 NOR  HZ EP        530 58.09                             118    0.30 8  231 235 
 NOR  HN ES        531 24.68                             118   -0.56 8  231 235 
 NOR  HZ I         531 34.40         4.6 0.18            118            231 235 
 CHI  HZ EP        530 59.91                             117    0.09 8  246 195 
 CHI  HN ES        531 28.88                             117    0.01 8  246 195 
 CHI  HZ I         531 33.36         8.2 0.52            117            246 195 
 ROSC BN ES        531 29.56                             116    0.02 8  250 211 
 ROSC BZ I         531 36.69        14.2 0.45            117            250 211 
 HEL  HZ EP        531  4.56                             114    2.25 8  269 256 
 HEL  HN ES        531 32.36                             114   -0.94 8  269 256 
 HEL  HZ I         531 40.37         3.9 0.36            115            269 256 
 GUY2CHZ EP        531  7.05                             112    1.37 7  298 235 
 GUY2CHN ES        531 38.86                             112   -0.44 7  298 235 
 GUY2CHZ I         531 48.43         4.2 0.58                           298 235 
 PTGC HZ EP        531  5.29                             111   -0.90 7  308 158 
 PRA  HZ EP        531 14.82                             106   -0.82 6  389 209 
 PRA  HN ES        531 56.75                             106   -0.28 6  389 209 
 PRA  HZ I         532  4.26         5.2 0.36            107            389 209 
                                                                                
