 2011  8 9 0252 14.8 L   6.764 -73.204140.0  RSN  4 0.3 1.6LRSN                1
 GAP=228        0.66       5.1     6.8  7.5  0.1158E+02  0.1008E+02  0.1121E+02E
 Epicentro: VILLANUEVA - SANTANDER                                             3
 ACTION:UPD 12-07-25 14:07 OP:epov STATUS:               ID:20110809025214 L   I
 2011-08-09-0248-45S.COL___144                                                 6
 STAT SP IPHASW D HRMM SECON CODA AMPLIT PERI AZIMU VELO AIN AR TRES W  DIS CAZ7
 BAR2 SZ ES   2    252 47.92                             172   -0.41 5 19.2 173 
 BAR2 SZ I         252 49.07        10.9 0.20                          19.2 173 
 BRR  HZ EP        252 34.79                             153   -0.3010 67.7 304 
 BRR  HE ES        252 51.19                             153    0.2410 67.7 304 
 BRR  HZ I         252 52.26        12.1 0.32                          67.7 304 
 RUS  HZ EP   1    252 38.26                             144    0.54 7 97.3 172 
 RUS  HE ES   1    252 55.46                             144   -0.16 7 97.3 172 
 RUS  HZ I         252 57.12         3.4 0.47                          97.3 172 
 NOR  SZ EP   2    252 49.08                             118   -0.27 4  227 234 
 NOR  SN ES   1    253 16.31                             118   -0.01 6  227 234 
                                                                                
