 2011 10 9 0338 17.0 L   6.789 -73.124148.0  RSN 10 0.3 2.0LRSN                1
 GAP=140        0.61       2.8     3.4  4.3 -0.1026E+01  0.4401E+01  0.1772E+01E
 Epicentro: LOS SANTOS - SANTANDER                                             3
 ACTION:UPD 12-07-13 16:02 OP:ep   STATUS:               ID:20111009033817 L   I
 2011-10-09-0337-10S.COL___168                                                 6
 STAT SP IPHASW D HRMM SECON CODA AMPLIT PERI AZIMU VELO AIN AR TRES W  DIS CAZ7
 BAR2 SZ EP        338 36.72                             171   -0.1710 22.6 197 
 BAR2 SZ ES   1    338 51.91                             171   -0.49 7 22.6 197 
 BAR2 SZ I         338 53.29        38.8 0.23                          22.6 197 
 GIR2 SZ EP   1    338 37.05                             167    0.06 7 33.0 347 
 GIR2 SZ ES   1    338 52.95                             167    0.37 7 33.0 347 
 BRR  HZ EP        338 38.58                             152    0.0310 73.9 299 
 BRR  HE ES   1    338 55.99                             152    0.64 7 73.9 299 
 BRR  HZ I         338 58.80        23.4 0.18                          73.9 299 
 PAM  SZ EP   1    338 39.63                             151    0.20 7 76.9  38 
 PAM  SN ES   1    338 57.00                             151    0.08 7 76.9  38 
 RUS  HZ EP   1    338 40.84                             145   -0.04 7 99.2 177 
 RUS  HN ES   1    338 59.50                             145    0.00 7 99.2 177 
 RUS  HZ I         339  0.57        15.5 0.27                          99.2 177 
 OCA  SZ EP   1    338 45.51                             130   -0.13 7  162 352 
 OCA  SZ ES   1    339  7.54                             130   -0.43 7  162 352 
 OCA  SZ I         339 13.73         9.0 0.35                           162 352 
 ZAR  HN ES   1    339 15.10                             123   -0.41 6  207 292 
 ZAR  HZ I         339 20.92        12.2 0.18                           207 292 
 NOR  SZ EP   1    338 52.75                             119   -0.25 6  236 235 
 NOR  SN ES   1    339 20.95                             119   -0.12 6  236 235 
 CHI  HZ EP   1    338 54.95                             118    0.18 6  248 196 
 CHI  HZ I         339 32.34         5.6 0.24                           248 196 
 HEL  HZ EP   1    338 58.19                             115    0.63 6  274 256 
 HEL  HN ES   1    339 29.17                             115   -0.02 6  274 256 
 HEL  HZ I         339 35.91         4.4 0.40                           274 256 
                                                                                
