 2017 11 9 0813 49.6 L   6.775 -73.158143.3  RSN 15 0.4 1.7LRSN                1
 GAP=111        0.91       2.7     3.6  5.4 -0.2136E+00  0.2127E+01  0.3180E+01E
 Epicentro: LOS SANTOS - SANTANDER                                             3
 ACTION:UPD 17-12-12 19:53 OP:rebc STATUS:               ID:20171109081349 L   I
 OLDACT:UP  17-11-09 17:04 OP:dnl  STATUS:               ID:20171109080743     3
 OLDACT:REG 17-11-09 13:13 OP:dnl  STATUS:               ID:20171109080743     3
 2017-11-09-0808-00M.COL___425                                                 6
 STAT SP IPHASW D HRMM SECON CODA AMPLIT PERI AZIMU VELO AIN AR TRES W  DIS CAZ7
 BAR2 EZ EP   2    814  8.34                             171   -0.54 5 20.4 188 
 BAR2 EZ I         814 26.29        15.5 0.34            170           20.4 188 
 BRR  HZ IP     D  814 10.31                             152   -0.1810 71.3 301 
 BRR  HN ES        814 27.47                             152    0.6810 71.3 301 
 BRR  HZ I         814 28.20         6.5 0.28            152           71.3 301 
 PAM  EZ EP        814 11.48                             149   -0.2510 80.4  39 
 PAM  EE ES        814 28.88                             149   -0.1210 80.4  39 
 PAM  EZ I         814 30.72         6.5 0.42            150           80.4  39 
 RUS  HZ EP        814 12.77                             144   -0.1510 98.0 175 
 RUS  HE ES        814 31.40                             144    0.2910 98.0 175 
 RUS  HZ I         814 32.10         6.9 0.54            142           98.0 175 
 PTB  HZ EP        814 15.99                             132   -0.21 9  146 260 
 PTB  HN ES        814 36.18                             132   -0.76 9  146 260 
 PTB  HZ I         814 38.49         2.5 0.46            131            146 260 
 SPBC HZ EP        814 18.00                             129    0.38 9  160 219 
 SPBC HE ES        814 39.42                             129   -0.07 9  160 219 
 SPBC HZ I         814 42.07        10.9 0.74            128            160 219 
 YPLC HZ EP        814 18.92                             126   -0.13 9  175 151 
 YPLC HN ES   4    814 43.07                             126    1.05 0  175 151 
 YPLC HZ I         814 45.70         7.1 0.26            125            175 151 
 ZAR  HZ EP        814 22.08                             122    0.22 9  204 293 
 ZAR  HN ES        814 46.77                             122   -0.25 9  204 293 
 ZAR  HZ I         814 51.87         5.2 0.42            121            204 293 
 CHI  HZ EP        814 26.84                             117    0.01 8  246 195 
 CHI  HN ES        814 55.80                             117   -0.08 8  246 195 
 CHI  HZ I         815  2.17         2.1 0.34            116            246 195 
 ROSC BZ EP   4    814 29.24                             116    1.99 0  250 211 
 ROSC BE ES   4    814 59.04                             116    2.42 0  250 211 
 ROSC BZ I         815  3.14         7.6 0.40            116            250 211 
 URE  HZ EP   4    814 29.25                             113   -1.27 0  284 293 
 URE  HE ES   4    814 59.68                             113   -2.76 0  284 293 
 URE  HZ I         815  9.93         3.5 0.26            113            284 293 
 DRL03HN ES        815  4.24                             112    0.28 7  291 353 
 GUY2CHZ EP        814 33.86                             112    1.07 7  298 235 
 GUY2CHE ES   4    815 10.41                             112    3.93 0  298 235 
 GUY2CHZ I         815 16.08         1.6 0.58                           298 235 
 PTGC HZ EP   4    814 31.64                             111   -1.47 0  307 158 
 PTGC HN ES   4    815  3.42                             111   -3.64 0  307 158 
 PTGC HZ I         815 11.87         4.3 0.38            110            307 158 
 PRA  HZ EP        814 42.35                             106   -0.33 6  389 210 
 PRA  HN ES        815 24.22                             106    0.14 6  389 210 
 PRA  HZ I         815 30.72         3.1 0.36            106            389 210 
                                                                                
