 2016  9 9 0633 57.4 L   6.814 -73.144148.0  RSN 14 0.4 2.0LRSN                1
 GAP=136        0.83       2.7     3.2  4.8 -0.1347E+01  0.5040E+01  0.1373E+01E
 Epicentro: LOS SANTOS - SANTANDER                                             3
 ACTION:UPD 17-08-17 21:08 OP:lp   STATUS:               ID:20160909063357 L   I
 OLDACT:UP  16-09-09 16:34 OP:dnl  STATUS:               ID:20160909062740     3
 OLDACT:REG 16-09-09 13:08 OP:dani STATUS:               ID:20160909062740     3
 2016-09-09-0628-00M.COL___347                                                 6
 STAT SP IPHASW D HRMM SECON CODA AMPLIT PERI AZIMU VELO AIN AR TRES W  DIS CAZ7
 BAR2 EZ EP     C  634 17.26                             170   -0.0810 24.9 190 
 BAR2 EZ ES        634 32.57                             170   -0.3210 24.9 190 
 BAR2 EZ I         634 34.16        20.4 0.30            168           24.9 190 
 BRR  HZ EP     C  634 19.13                             153    0.3510 70.7 297 
 BRR  HN ES        634 36.16                             153    0.7210 70.7 297 
 PAM  EZ EP        634 20.01                             152    0.2210 76.1  40 
 PAM  EN ES        634 37.39                             152    0.1510 76.1  40 
 PAM  EZ I         634 38.48        16.0 0.16            156           76.1  40 
 RUS  HZ EP        634 21.46                             144   -0.0310  102 176 
 RUS  HN ES        634 40.23                             144   -0.0410  102 176 
 RUS  HZ I         634 43.36         7.1 0.20            145            102 176 
 PTB  HZ EP        634 23.89                             132   -0.72 9  148 258 
 PTB  HN ES        634 45.51                             132   -0.31 9  148 258 
 PTB  HZ I         634 51.21        17.8 0.44            131            148 258 
 OCA  HZ EP   3    634 26.61                             131    0.85 2  159 353 
 OCA  HN ES        634 47.34                             131   -0.53 9  159 353 
 OCA  HZ I         634 51.38        25.3 0.16            131            159 353 
 SPBC HZ EP        634 26.20                             129   -0.01 9  165 219 
 SPBC HN ES        634 48.79                             129    0.12 9  165 219 
 SPBC HZ I         634 51.14        25.7 0.22            129            165 219 
 ZAR  HZ EP        634 29.80                             123   -0.17 9  204 292 
 ZAR  HN ES        634 55.38                             123    0.02 9  204 292 
 ZAR  HZ I         635  2.35        20.8 0.30            122            204 292 
 NOR  HZ EP        634 33.43                             119    0.04 8  236 234 
 NOR  HE ES        635  1.40                             119   -0.05 8  236 234 
 NOR  HZ I         635  3.89         7.2 0.14            119            236 234 
 CHI  HZ EP   2    634 35.41                             118    0.01 4  250 195 
 CHI  HE ES   2    635  5.38                             118    0.35 4  250 195 
 CHI  HZ I         635 12.49         2.9 0.48            118            250 195 
 HEL  HZ EP   2    634 38.41                             115    0.60 4  273 256 
 HEL  HN ES   2    635 11.05                             115    1.74 4  273 256 
 HEL  HZ I         635 15.96         6.3 0.36            115            273 256 
 URE  HZ EP   4    634 41.23                             114    2.68 0  283 292 
 URE  HN ES   4    635  8.78                             114   -1.86 0  283 292 
 URE  HZ I         635 15.40         7.3 0.38            114            283 292 
 GUY2CHZ EP   2    634 41.32                             113    0.07 4  302 235 
 GUY2CHN ES   4    635 16.97                             113    1.54 0  302 235 
 GUY2CHZ I         635 23.99         6.0 0.32                           302 235 
 CBOC HZ EP   2    634 45.05                             110    0.55 3  334 252 
 CBOC HE ES        635 21.01                             110   -0.22 7  334 252 
 CBOC HZ I         635 33.86         2.5 0.48            110            334 252 
                                                                                
