 2010  5 9 0834 51.1 L   6.780 -72.978145.6  RSN 10 0.4 1.7LRSN                1
 GAP=176        0.86       5.4     9.6 10.3 -0.1850E+02 -0.2744E+02  0.1040E+02E
 Epicentro: CEPITA - SANTANDER                                                 3
 ACTION:UP  10-08-24 10:03 OP:vdl  STATUS:               ID:20100509083451 L   I
 2010-05-09-0832-05S.COL___105                                                 6
 STAT SP IPHASW D HRMM SECON CODA AMPLIT PERI AZIMU VELO SNR AR TRES W  DIS CAZ7
 BAR2 SZ EP   1    835 10.28                             168    -0.6 7   31 228 
 GIR2 SZ EP   1    835 12.00                             164     1.0 7   41 324 
 BRR  HZ IP     C  835 13.12                             147    -0.210   89 294 
 BRR  HZ I         835 13.38        18.5 0.17                            89 294 
 BRR  HN ES   1    835 30.72                             147     0.1 7   89 294 
 RUS  HZ EP   1    835 14.85                             144     0.2 7   99 187 
 RUS  HN ES   2    835 33.08                             144     0.0 5   99 187 
 RUS  HZ I         835 34.39         3.5 0.29                            99 187 
 BRI  SZ EP   1    835 14.95                             142     0.2 7  106  11 
 BRI  SZ ES   2    835 32.51                             142    -0.7 5  106  11 
 GUE  SZ EP        835 15.50                             139    -0.310  116   3 
 GRA  SZ EP   1    835 16.29                             138     0.2 7  124   9 
 GRA  SZ ES   1    835 35.83                             138     0.1 7  124   9 
 OCA  SZ EP   2    835 19.86                             129     0.0 5  166 347 
 OCA  SZ I         835 46.74         8.7 0.22                           166 347 
 HEL  HZ EP   3    835 33.10                             113    -0.1 2  290 257 
 HEL  HZ I         836 10.19         1.9 0.28                           290 257 
 PRA  HZ EP   2    835 45.29                             106    -0.2 3  400 212 
 PRA  HZ I         836 29.43         1.1 0.45                           400 212 
                                                                                
