 2014  2 9 0921 33.9 L   6.059 -73.672117.4  RSN 10 0.5 1.5LRSN                1
 GAP= 77        1.07       3.8     4.0  7.5 -0.1141E+01  0.8737E+01 -0.3381E+01E
 Epicentro: CHIPATA - SANTANDER                                                3
 ACTION:UPD 14-03-10 08:08 OP:ep   STATUS:               ID:20140209092133 L   I
 OLDACT:UP  14-02-09 13:18 OP:mh   STATUS:               ID:20140209092000     3
 OLDACT:UP  14-02-09 13:15 OP:mh   STATUS:               ID:20140209092000     3
 OLDACT:UP  14-02-09 13:11 OP:mh   STATUS:               ID:20140209092000     3
 OLDACT:UP  14-02-09 13:11 OP:mh   STATUS:               ID:20140209092000     3
 OLDACT:UP  14-02-09 13:11 OP:mh   STATUS:               ID:20140209092000     3
 OLDACT:REG 14-02-09 08:11 OP:mh   STATUS:               ID:20140209092000     3
 2014-02-09-0920-00M.COL___291                                                 6
 STAT SP IPHASW D HRMM SECON CODA AMPLIT PERI AZIMU VELO AIN AR TRES W  DIS CAZ7
 SPBC HZ EP        921 52.29                             150    0.5810 63.1 225 
 SPBC HN ES   1    922  5.91                             150    0.34 7 63.1 225 
 RUS  HZ EP   1    921 52.89                             148    0.31 7 67.8 106 
 RUS  HN ES        922  6.80                             148   -0.3210 67.8 106 
 RUS  HZ I         922  8.41         6.6 0.28            147           67.8 106 
 BAR2 SZ EP        921 53.70                             143    0.6410 80.1  43 
 BAR2 SZ ES   1    922  7.98                             143    0.01 7 80.1  43 
 BAR2 SZ I         922  9.78        30.5 0.20            141           80.1  43 
 PTB  HZ EP        921 53.81                             136   -0.6410  102 302 
 PTB  HN ES        922 10.25                             136   -0.2110  102 302 
 PTB  HZ I         922 12.46         4.3 0.28            135            102 302 
 NOR  HZ EP   1    921 59.30                             125    0.93 7  143 248 
 NOR  HN ES   1    922 16.91                             125   -0.52 7  143 248 
 NOR  HZ I         922 20.44         5.9 0.40            125            143 248 
 CHI  HZ EP   1    921 59.74                             123   -0.60 7  158 182 
 CHI  HN ES   1    922 20.32                             123   -0.62 7  158 182 
 CHI  HZ I         922 26.66         1.3 0.53            122            158 182 
 PAM  SZ EP   4    922  3.57                             119    1.09 0  178  37 
 PAM  SN ES   4    922 25.50                             119    0.76 0  178  37 
 PAM  SZ I         922 28.77         2.1 0.28            118            178  37 
 ZAR  HN ES   1    922 29.41                             115    0.39 6  206 320 
 ZAR  HZ I         922 31.69         3.5 0.08            114            206 320 
 GUY2CHZ EP        922  5.87                             115    0.02 8  209 244 
 GUY2CHN ES   1    922 31.06                             115    0.31 6  209 244 
 GUY2CHZ I         922 36.63         1.8 0.37                           209 244 
 SML  HZ EP        922 15.86                             106   -0.54 7  306 352 
 SML  HN ES   1    922 49.25                             106   -0.28 5  306 352 
 SML  HZ I         922 58.88         2.8 0.10            104            306 352 
                                                                                
