 2017  4 9 0329 11.9 L   6.811 -73.161147.9  RSN  4 0.3 1.0LRSN                1
 GAP=143        0.63       5.4     5.7  6.3 -0.3122E+01  0.7712E+01 -0.1377E+02E
 Epicentro: LOS SANTOS - SANTANDER                                             3
 ACTION:UPD 17-05-30 21:09 OP:jn   STATUS:               ID:20170409032911 L   I
 OLDACT:REG 17-04-09 12:43 OP:and  STATUS:               ID:20170409032744     3
 2017-04-09-0328-00M.COL___368                                                 6
 STAT SP IPHASW D HRMM SECON CODA AMPLIT PERI AZIMU VELO AIN AR TRES W  DIS CAZ7
 BAR2 EZ EP        329 31.60                             170   -0.1710 24.3 186 
 BAR2 EZ ES        329 47.01                             170   -0.2810 24.3 186 
 BAR2 EZ I         329 49.44         3.8 0.42            167           24.3 186 
 PAM  EZ EP        329 34.53                             151    0.2210 77.5  41 
 RUS  HZ EP        329 35.91                             143   -0.0110  102 175 
 RUS  HN ES        329 54.96                             143    0.2710  102 175 
 RUS  HZ I         329 55.86         1.2 0.42            146            102 175 
 PTB  HZ EP        329 38.69                             133   -0.19 9  146 258 
 PTB  HE ES   2    330  0.60                             133    0.65 5  146 258 
 PTB  HZ I         330  6.88         1.3 0.16            130            146 258 
                                                                                
