 2012  8 9 0929 30.6 L   6.719 -73.120146.0  RSN  7 0.3 2.0LRSN                1
 GAP=143        0.62       3.3     3.6  4.4 -0.3416E+00  0.1815E+01  0.4376E+01E
 Epicentro: JORDAN - SANTANDER                                                 3
 ACTION:UPD 12-09-10 11:55 OP:ep   STATUS:               ID:20120809092930 L   I
 2012-08-09-0924-40M.COL___207                                                 6
 STAT SP IPHASW D HRMM SECON CODA AMPLIT PERI AZIMU VELO AIN AR TRES W  DIS CAZ7
 BAR2 SZ EP        929 50.38                             174    0.2310 15.6 206 
 BAR2 SZ ES        930  5.27                             174   -0.1110 15.6 206 
 BAR2 SZ I         930  7.54        25.9 0.50                          15.6 206 
 BRR  HZ EP        929 52.25                             150    0.0410 78.3 303 
 BRR  HE ES        930  9.47                             150    0.4210 78.3 303 
 BRR  HZ I         930 11.62        19.6 0.19                          78.3 303 
 PAM  SZ EP   1    929 52.93                             149   -0.27 7 82.8  34 
 PAM  SN ES   1    930 10.53                             149   -0.27 7 82.8  34 
 RUS  HZ EP   1    929 54.03                             146    0.27 7 91.5 177 
 RUS  HN ES   1    930 11.72                             146   -0.09 7 91.5 177 
 RUS  HZ I         930 15.91         9.4 0.41                          91.5 177 
 PTB  HZ EP        929 57.38                             132   -0.35 9  149 262 
 PTB  HE ES        930 18.68                             132   -0.20 9  149 262 
 PTB  HZ I         930 20.73        30.0 0.04                           149 262 
 CHI  HZ EP   1    930  8.03                             118    0.55 6  241 196 
 CHI  HN ES   1    930 36.10                             118   -0.14 6  241 196 
 CHI  HZ I         930 43.13         3.2 0.15                           241 196 
 PRA  HZ EP        930 23.29                             107   -0.12 6  386 211 
                                                                                
