 2012  6 9 0533 35.2 L   6.803 -73.103141.4  RSN  5 0.3 1.8LRSN                1
 GAP=187        0.70       4.1     5.1  7.5  0.3317E+01  0.6921E+01 -0.9837E+01E
 Epicentro: LOS SANTOS - SANTANDER                                             3
 ACTION:UPD 12-08-06 17:48 OP:ep   STATUS:               ID:20120609053334 L   I
 2012-06-09-0530-00M.COL___201                                                 6
 STAT SP IPHASW D HRMM SECON CODA AMPLIT PERI AZIMU VELO AIN AR TRES W  DIS CAZ7
 BAR2 SZ EP        533 54.69                             170    0.3210 24.9 201 
 BAR2 SZ ES   1    534  9.42                             170    0.12 7 24.9 201 
 BAR2 SZ I         534 10.92        19.5 0.18            170           24.9 201 
 RUS  HZ EP   1    533 58.50                             143   -0.07 7  101 179 
 RUS  HN ES   1    534 16.66                             143   -0.10 7  101 179 
 RUS  HZ I         534 18.07         5.3 0.17            146            101 179 
 PTB  HZ EP   1    534  1.61                             130   -0.67 7  152 259 
 PTB  HN ES   1    534 23.06                             130   -0.31 7  152 259 
 PTB  HZ I         534 25.27         8.4 0.17            132            152 259 
 OCA  HZ EP   1    534  3.35                             128    0.11 7  161 351 
 OCA  HN ES   1    534 24.64                             128   -0.44 7  161 351 
 OCA  HZ I         534 27.16        16.0 0.27            130            161 351 
 ZAR  HZ EP   1    534  8.17                             121    0.33 6  208 292 
 ZAR  HE ES   1    534 33.79                             121    0.52 6  208 292 
 ZAR  HZ I         534 35.82         5.0 0.16            122            208 292 
                                                                                
