 2017  8 9 0920  4.9 L   7.189 -73.234115.1  RSN  6 0.4 1.6LRSN                1
 GAP=253        0.95       6.1     5.4  8.8  0.1066E+02  0.1366E+02 -0.3320E+01E
 Epicentro: LEBRIJA - SANTANDER                                                3
 ACTION:UPD 17-09-04 20:18 OP:rebc STATUS:               ID:20170809092004 L   I
 OLDACT:UP  17-08-09 17:51 OP:dhb  STATUS:               ID:20170809091742     3
 OLDACT:REG 17-08-09 12:51 OP:dhb  STATUS:               ID:20170809091742     3
 2017-08-09-0918-00M.COL___384                                                 6
 STAT SP IPHASW D HRMM SECON CODA AMPLIT PERI AZIMU VELO AIN AR TRES W  DIS CAZ7
 BAR2 EZ IP     C  920 23.17                             148    0.3010 66.2 175 
 BAR2 EZ ES        920 37.20                             148    0.3410 66.2 175 
 RUS  HZ EP        920 29.15                             125   -0.72 9  144 173 
 RUS  HN ES        920 48.89                             125   -0.44 9  144 173 
 ZAR  HN ES        920 55.00                             118   -0.29 9  182 281 
 ZAR  HZ I         921  3.31         9.8 0.23            117            182 281 
 SPBC HZ EP        920 35.08                             116    0.54 9  194 209 
 SPBC HN ES        920 57.66                             116    0.03 9  194 209 
 SPBC HZ I         921  2.59         3.3 0.14            117            194 209 
 NOR  HZ EP        920 41.79                             109    0.37 8  255 225 
 NOR  HE ES        921  9.80                             109   -0.07 8  255 225 
 NOR  HZ I         921 13.12         2.9 0.29            110            255 225 
 GUY2CHZ EP   9    920 51.19                             105    1.58 0  321 227 
 GUY2CHN ES        921 26.36                                    0.32 7  321 227 
 GUY2CHZ I         921 33.37         1.4 0.44                           321 227 
                                                                                
