 2016  5 9 0312 51.7 L   6.797 -73.179139.2  RSN  7 0.3 1.6LRSN                1
 GAP=133        0.82       3.0     4.3  5.9 -0.4780E+01  0.8321E+01 -0.3427E+01E
 Epicentro: LOS SANTOS - SANTANDER                                             3
 ACTION:UPD 16-08-18 17:43 OP:cam  STATUS:               ID:20160509031251 L   I
 OLDACT:UP  16-05-09 13:48 OP:drio STATUS:               ID:20160509030749     3
 OLDACT:REG 16-05-09 12:17 OP:drio STATUS:               ID:20160509030749     3
 2016-05-09-0307-49M.COL___292                                                 6
 STAT SP IPHASW D HRMM SECON CODA AMPLIT PERI AZIMU VELO AIN AR TRES W  DIS CAZ7
 BAR2 EZ EP        313 10.35                             170   -0.1410 22.6 181 
 BAR2 EZ ES        313 24.98                             170   -0.1910 22.6 181 
 BAR2 EZ I         313 26.21         6.3 0.14            172           22.6 181 
 BRR  HZ EP        313 12.45                             152    0.5210 68.2 300 
 BRR  HE ES   4    313 29.47                             152    1.73 0 68.2 300 
 BRR  HZ I         313 33.95         8.6 0.10            150           68.2 300 
 PAM  EZ EP        313 13.44                             149    0.0910 80.0  41 
 PAM  EE ES        313 30.70                             149    0.4410 80.0  41 
 PAM  EZ I         313 32.80         8.0 0.76            153           80.0  41 
 RUS  HZ EP        313 14.88                             142    0.1110  101 174 
 RUS  HE ES        313 32.33                             142   -0.4610  101 174 
 RUS  HZ I         313 33.75         5.1 0.34            149            101 174 
 PTB  HZ EP        313 17.48                             131   -0.29 9  144 259 
 PTB  HN ES        313 38.05                             131   -0.07 9  144 259 
 PTB  HZ I         313 42.95         2.1 0.40            132            144 259 
 OCA  HZ EP        313 19.06                             128   -0.41 9  160 354 
 OCA  HE ES        313 40.94                             128   -0.22 9  160 354 
 OCA  HZ I         313 45.17         9.1 0.16            130            160 354 
 SPBC HZ EP        313 19.59                             128    0.17 9  161 218 
 SPBC HE ES        313 41.46                             128    0.40 9  161 218 
 SPBC HZ I         313 43.61         6.4 0.60            131            161 218 
                                                                                
