 2016  9 9 0827 31.4 L   6.819 -73.175146.4  RSN 13 0.3 1.9LRSN                1
 GAP=132        0.76       2.5     3.0  4.3 -0.1300E+01  0.2571E+01  0.7632E+00E
 Epicentro: ZAPATOCA - SANTANDER                                               3
 ACTION:UPD 17-08-17 21:08 OP:lp   STATUS:               ID:20160909082731 L   I
 OLDACT:UP  16-09-09 16:22 OP:dnl  STATUS:               ID:20160909081738     3
 OLDACT:REG 16-09-09 13:17 OP:dani STATUS:               ID:20160909081738     3
 2016-09-09-0818-00M.COL___347                                                 6
 STAT SP IPHASW D HRMM SECON CODA AMPLIT PERI AZIMU VELO AIN AR TRES W  DIS CAZ7
 BAR2 EZ EP        827 51.01                             170   -0.1510 25.0 182 
 BAR2 EZ ES        828  6.19                             170   -0.3710 25.0 182 
 BAR2 EZ I         828  8.86        19.0 0.30            170           25.0 182 
 BRR  HZ EP        827 52.83                             154    0.4110 67.3 298 
 BRR  HN ES        828  9.42                             154    0.6210 67.3 298 
 BRR  HZ I         828 14.02        11.1 0.14            151           67.3 298 
 PAM  EZ EP        827 53.96                             151    0.2310 78.0  42 
 PAM  EE ES        828 11.23                             151    0.0910 78.0  42 
 PAM  EZ I         828 13.22        16.4 0.42            154           78.0  42 
 RUS  HZ EP   2    827 55.04                             143   -0.35 5  103 174 
 RUS  HN ES        828 14.20                             143    0.1010  103 174 
 RUS  HZ I         828 14.93        13.3 0.30            145            103 174 
 PTB  HZ EP        827 57.69                             133   -0.49 9  145 258 
 PTB  HN ES        828 18.69                             133   -0.37 9  145 258 
 PTB  HZ I         828 20.59         7.6 0.14            132            145 258 
 OCA  HZ EP   2    828  0.08                             130    0.53 5  158 354 
 OCA  HN ES        828 20.96                             130   -0.53 9  158 354 
 OCA  HZ I         828 25.85        14.5 0.52            131            158 354 
 SPBC HZ EP        827 59.92                             129    0.00 9  163 218 
 SPBC HE ES        828 22.22                             129    0.07 9  163 218 
 SPBC HZ I         828 28.26        17.7 0.24            129            163 218 
 ZAR  HZ EP        828  3.51                             123    0.00 9  200 292 
 ZAR  HN ES        828 28.56                             123    0.02 9  200 292 
 ZAR  HZ I         828 39.51         6.2 0.16            123            200 292 
 NOR  HZ EP   2    828  7.16                             119    0.14 4  233 234 
 NOR  HE ES        828 34.99                             119    0.19 8  233 234 
 NOR  HZ I         828 38.03         7.2 0.18            119            233 234 
 CHI  HZ EP        828  9.28                             117    0.01 8  250 194 
 CHI  HE ES   2    828 38.94                             117    0.14 4  250 194 
 CHI  HZ I         828 41.82         4.5 0.34            118            250 194 
 HEL  HZ EP   9    828 12.77                             115    1.41 0  269 255 
 HEL  HN ES        828 44.47                                    0.54 8  269 255 
 HEL  HZ I         828 50.70         3.9 0.34            115            269 255 
 GUY2CHZ EP   9    828 16.67                             113    1.79 0  300 234 
 GUY2CHN ES   2    828 50.26                                   -0.32 4  300 234 
 GUY2CHZ I         828 56.28         4.0 0.58                           300 234 
 PTGC HZ EP   4    828 14.18                             112   -1.47 0  312 158 
 PTGC HN ES   4    828 47.58                             112   -2.58 0  312 158 
 PTGC HZ I         828 53.17         5.0 0.26            113            312 158 
                                                                                
