 2012  8 9 0810 38.3 L   6.772 -73.159137.3  RSN 11 0.3 2.4LRSN                1
 GAP= 98        0.67       2.9     2.6  4.0 -0.4168E+00  0.1748E+01  0.2957E+01E
 Epicentro: LOS SANTOS - SANTANDER                                             3
 ACTION:UPD 12-09-10 11:55 OP:ep   STATUS:               ID:20120809081038 L   I
 2012-08-09-0810-00M.COL___215                                                 6
 STAT SP IPHASW D HRMM SECON CODA AMPLIT PERI AZIMU VELO AIN AR TRES W  DIS CAZ7
 BAR2 SZ EP        810 56.90                             171    0.1010 20.1 187 
 BAR2 SZ ES        811 11.15                             171   -0.1110 20.1 187 
 BAR2 SZ I         811 13.26        88.1 0.16                          20.1 187 
 BRR  HZ IP     C  810 58.65                             151    0.1510 71.4 301 
 BRR  HZ I         810 58.91        93.8 0.20                          71.4 301 
 BRR  HE ES   1    811 14.80                             151    0.50 7 71.4 301 
 PAM  SZ EP        810 59.58                             148   -0.2010 80.7  39 
 PAM  SZ I         811  0.06       133.1 0.15                          80.7  39 
 PAM  SN ES        811 16.54                             148   -0.0410 80.7  39 
 RUS  HZ EP        811  1.03                             143    0.0710 97.7 175 
 RUS  HE ES   1    811 18.81                             143    0.14 7 97.7 175 
 RUS  HZ I         811 21.17        25.9 0.27                          97.7 175 
 PTB  HZ EP        811  3.80                             130   -0.55 9  146 260 
 PTB  HN ES        811 24.41                             130   -0.29 9  146 260 
 PTB  HZ I         811 31.77        23.4 0.39                           146 260 
 TAM  HZ EP        811  5.33                             128   -0.01 9  156 104 
 ZAR  HZ EP   1    811 10.71                             120    0.58 6  204 293 
 ZAR  HN ES   1    811 34.75                             120   -0.25 6  204 293 
 ZAR  HZ I         811 40.95        34.7 0.27                           204 293 
 NOR  SZ EP   1    811 13.55                             117    0.38 6  232 235 
 CHI  HZ EP   1    811 15.13                             116    0.01 6  245 195 
 CHI  HN ES   1    811 44.15                             116    0.26 6  245 195 
 CHI  HZ I         811 51.66         8.3 0.56                           245 195 
 HEL  HZ EP   1    811 18.46                             113    0.66 6  270 256 
 HEL  HZ I         811 55.50        12.5 0.40                           270 256 
 PRA  HZ EP   1    811 30.26                             105   -0.83 4  389 210 
 PRA  HN ES   1    812 12.28                             105   -0.02 4  389 210 
                                                                                
