 2011  9 9 0425 54.3 L   6.849 -73.308122.3  RSN  6 0.3 1.7LRSN                1
 GAP=136        0.46       3.2     5.5  5.2  0.1454E+01  0.1831E+00 -0.3016E+01E
 Epicentro: ZAPATOCA - SANTANDER                                               3
 ACTION:UPD 12-07-13 15:56 OP:ep   STATUS:               ID:20110909042554 L   I
 2011-09-09-0420-04S.COL___170                                                 6
 STAT SP IPHASW D HRMM SECON CODA AMPLIT PERI AZIMU VELO AIN AR TRES W  DIS CAZ7
 GIR2 SZ EP   3    426 11.21                             166    0.10 2 28.4  27 
 GIR2 SZ ES   2    426 24.19                             166   -0.03 5 28.4  27 
 BAR2 SZ EP   1    426 11.55                             165    0.20 7 31.6 154 
 BAR2 SZ ES   2    426 24.72                             165    0.07 5 31.6 154 
 BAR2 SZ I         426 25.62        38.8 0.39                          31.6 154 
 BRR  HZ EP   1    426 11.98                             155    0.08 7 52.9 303 
 BRR  HE ES   2    426 25.83                             155    0.21 5 52.9 303 
 BRR  HZ I         426 26.71        20.3 0.18                          52.9 303 
 PAM  SZ EP   1    426 14.99                             143    0.27 7 86.4  51 
 PAM  SE ES   2    426 30.68                             143    0.04 5 86.4  51 
 RUS  HZ EP   2    426 16.41                             136   -0.09 5  109 167 
 RUS  HZ I         426 16.98         2.2 0.04                           109 167 
 RUS  HE ES   2    426 33.18                             136   -0.63 5  109 167 
 OCA  SZ EP   1    426 20.08                             125   -0.16 7  154 360 
 OCA  SZ ES   2    426 39.80                             125   -0.67 5  154 360 
 OCA  SZ I         426 45.96         6.5 0.12                           154 360 
                                                                                
