 2013 10 9 0946 59.3 L   6.863 -73.263126.9  RSN  7 0.4 1.7LRSN                1
 GAP=166        0.88       4.9     5.6  6.5  0.9065E+01  0.2359E+01 -0.8784E+01E
 Epicentro: ZAPATOCA - SANTANDER                                               3
 ACTION:UPD 13-11-25 09:20 OP:ep   STATUS:               ID:20131009094659 L   I
 OLDACT:UP  13-10-09 13:48 OP:mh   STATUS:               ID:20131009093959     3
 OLDACT:UP  13-10-09 13:48 OP:mh   STATUS:               ID:20131009093959     3
 OLDACT:REG 13-10-09 08:20 OP:mh   STATUS:               ID:20131009093959     3
 2013-10-09-0939-59M.COL___273                                                 6
 STAT SP IPHASW D HRMM SECON CODA AMPLIT PERI AZIMU VELO AIN AR TRES W  DIS CAZ7
 BAR2 SZ EP   1    947 17.46                             165    0.54 7 31.3 163 
 BAR2 SZ ES        947 30.52                             165   -0.1110 31.3 163 
 BAR2 SZ I         947 31.40        69.3 0.42            175           31.3 163 
 BRR  HZ EP   1    947 17.90                             154    0.28 7 56.4 299 
 BRR  HN ES        947 32.00                             154    0.1210 56.4 299 
 BRR  HZ I         947 40.29         5.3 0.34            153           56.4 299 
 RUS  HZ EP   1    947 22.32                             137    0.33 7  109 169 
 RUS  HN ES   1    947 39.40                             137   -0.25 7  109 169 
 RUS  HZ I         947 40.77         2.6 0.26            147            109 169 
 PTB  HZ EP   1    947 22.71                             130   -1.07 7  137 255 
 PTB  HN ES   1    947 42.64                             130   -0.20 7  137 255 
 PTB  HZ I         947 44.44         6.0 0.24            135            137 255 
 OCA  HZ EP   1    947 25.24                             126   -0.22 7  152 358 
 OCA  HN ES   2    947 45.46                             126   -0.37 5  152 358 
 OCA  HZ I         947 52.19         6.1 0.28            128            152 358 
 ZAR  HZ EP   1    947 29.86                             120    0.80 7  189 292 
 ZAR  HN ES   1    947 52.49                             120    0.25 7  189 292 
 ZAR  HZ I         947 55.85         4.5 0.24            123            189 292 
 SML  HZ EP   1    947 33.30                             114   -0.38 6  232 337 
 SML  HN ES   4    948  2.68                             114    2.21 0  232 337 
 SML  HZ I         948  7.12         8.6 0.10            117            232 337 
 SJC  HZ EP   4    947 51.51                             103   -1.30 0  396 328 
                                                                                
