 2010  5 9 0633 56.7 L   6.774 -73.078146.6  RSN 11 0.4 1.8LRSN                1
 GAP=164        0.79       6.6    13.2  7.9 -0.5420E+02  0.1178E+02  0.2773E+01E
 Epicentro: LOS SANTOS - SANTANDER                                             3
 ACTION:UP  10-08-24 10:03 OP:vdl  STATUS:               ID:20100509063356 L   I
 2010-05-09-0631-07S.COL___105                                                 6
 STAT SP IPHASW D HRMM SECON CODA AMPLIT PERI AZIMU VELO SNR AR TRES W  DIS CAZ7
 BAR2 SZ EP   1    634 16.24                             170    -0.2 7   23 210 
 BAR2 SZ ES   2    634 31.23                             170    -0.6 5   23 210 
 GIR2 SZ EP   1    634 16.33                             166    -0.2 7   36 339 
 GIR2 SZ ES   2    634 32.03                             166    -0.1 5   36 339 
 BRR  HZ EP        634 18.80                             150     0.410   79 298 
 BRR  HZ I         634 36.86        11.5 0.17                            79 298 
 RUS  HZ EP   2    634 20.78                             145     0.5 5   97 180 
 RUS  HZ I         634 40.39         6.9 0.55                            97 180 
 BRI  SZ EP   1    634 20.81                             142     0.2 7  109  17 
 BRI  SZ ES   1    634 39.98                             142     0.6 7  109  17 
 GUE  SZ EP        634 21.25                             140    -0.310  118   8 
 GRA  SZ EP        634 22.06                             137     0.010  126  14 
 GRA  SZ ES   1    634 41.60                             137    -0.2 7  126  14 
 OCA  SZ EP   1    634 24.91                             129    -0.5 7  164 351 
 OCA  SZ I         634 54.71         5.7 0.29                           164 351 
 CHI  HZ EP   2    634 34.75                             117     0.4 4  248 197 
 CHI  HZ I         635  7.44         3.2 0.34                           248 197 
 HEL  HZ EP   3    634 36.87                             114    -0.8 2  279 257 
 HEL  HZ I         635 15.08         3.2 0.22                           279 257 
 PRA  HZ EP   3    634 50.04                             107    -0.3 1  393 211 
 PRA  HZ I         635 38.81         2.9 0.27                           393 211 
                                                                                
