 2015  7 9 0024 26.0 L   6.798 -73.130147.8  RSN 11 0.3 1.9LRSN                1
 GAP=139        0.71       2.1     3.8  4.8 -0.8190E+00  0.8753E+01  0.3246E+00E
 Epicentro: LOS SANTOS - SANTANDER                                             3
 ACTION:UPD 15-09-08 21:47 OP:cam  STATUS:               ID:20150709002426 L   I
 OLDACT:UP  15-07-09 14:24 OP:spq  STATUS:               ID:20150709001748     3
 OLDACT:REG 15-07-09 12:47 OP:spq  STATUS:               ID:20150709001748     3
 2015-07-09-0017-48M.COL___346                                                 6
 STAT SP IPHASW D HRMM SECON CODA AMPLIT PERI AZIMU VELO AIN AR TRES W  DIS CAZ7
 BAR2 EZ EP        024 45.56                             171   -0.3610 23.5 194 
 BAR2 EZ ES   1    025  1.57                             171    0.15 7 23.5 194 
 BAR2 EZ I         025  3.16        12.5 0.38            169           23.5 194 
 PAM  EZ EP        024 48.53                             151    0.1110 76.4  38 
 PAM  EN ES        025  5.88                             151    0.0110 76.4  38 
 PAM  EZ I         025  7.85        12.8 0.54            155           76.4  38 
 RUS  HZ EP        024 50.04                             144    0.0710  100 177 
 RUS  HE ES        025  8.54                             144   -0.0910  100 177 
 RUS  HZ I         025 10.09         5.2 0.35            146            100 177 
 OCA  HZ EP        024 54.27                             130   -0.28 9  161 353 
 OCA  HE ES        025 17.33                             130    0.54 9  161 353 
 OCA  HZ I         025 21.61        14.0 0.24            132            161 353 
 ZAR  HZ EP   1    024 58.42                             123   -0.37 6  206 292 
 ZAR  HE ES        025 23.94                             123   -0.40 8  206 292 
 ZAR  HZ I         025 30.23        10.4 0.46            123            206 292 
 NOR  HZ EP   1    025  1.79                             119   -0.24 6  236 235 
 NOR  HN ES   1    025 30.31                             119    0.21 6  236 235 
 NOR  HZ I         025 31.99         6.2 0.24            119            236 235 
 SML  HZ EP        025  2.76                             118   -0.12 8  245 335 
 SML  HE ES   1    025 31.68                             118    0.06 6  245 335 
 SML  HZ I         025 35.39        15.0 0.10            119            245 335 
 CHI  HZ EP   1    025  3.86                             117   -0.02 6  249 196 
 CHI  HN ES   1    025 32.79                             117   -0.60 6  249 196 
 CHI  HZ I         025 38.91         3.2 0.28            119            249 196 
 GUY2CHZ EP        025 10.68                             113    0.79 7  303 235 
 GUY2CHE ES   4    025 47.89                             113    3.80 0  303 235 
 GUY2CHZ I         025 52.65         3.9 0.44                           303 235 
 TOL  SZ EP   4    025 16.40                             110    1.90 0  345 225 
 TOL  SN ES   1    025 52.66                             110    0.36 5  345 225 
 TOL  SZ I         025 59.09         3.9 0.36            111            345 225 
 PRA  HZ EP        025 19.85                             107    0.14 6  393 210 
 PRA  HE ES   1    026  2.32                             107    0.75 4  393 210 
 PRA  HZ I         026  7.30         3.7 0.42            108            393 210 
                                                                                
