 2017 10 9 0130 20.8 L   6.821 -73.150144.2  RSN 10 0.4 2.0LRSN                1
 GAP=111        0.86       3.1     3.7  5.4  0.1164E+01  0.8774E+01  0.4302E+01E
 Epicentro: LOS SANTOS - SANTANDER                                             3
 ACTION:UPD 17-11-07 19:29 OP:rebc STATUS:               ID:20171009013020 L   I
 OLDACT:UP  17-10-09 15:04 OP:leo  STATUS:               ID:20171009012548     3
 OLDACT:UP  17-10-09 14:55 OP:leo  STATUS:               ID:20171009012548     3
 OLDACT:REG 17-10-09 13:10 OP:leo  STATUS:               ID:20171009012548     3
 2017-10-09-0128-00M.COL___426                                                 6
 STAT SP IPHASW D HRMM SECON CODA AMPLIT PERI AZIMU VELO AIN AR TRES W  DIS CAZ7
 BAR2 EZ EP        130 40.16                             169   -0.1610 25.5 188 
 BAR2 EZ ES        130 55.15                             169   -0.3710 25.5 188 
 BAR2 EZ I         130 56.46        27.6 0.24            165           25.5 188 
 PAM  EZ EP        130 43.04                             151    0.2510 75.9  41 
 PAM  EN ES        131  0.09                             151    0.1710 75.9  41 
 PAM  EZ I         131  0.67        12.6 0.22            152           75.9  41 
 RUS  HZ EP        130 44.16                             143   -0.4410  103 176 
 RUS  HN ES        131  3.30                             143    0.1610  103 176 
 RUS  HZ I         131  3.96         9.5 0.36            139            103 176 
 SPBC HZ EP        130 49.15                             128   -0.20 9  165 218 
 SPBC HZ I         131 16.16        17.1 0.20            124            165 218 
 YPLC HZ EP        130 50.61                             126   -0.12 9  179 152 
 YPLC HN ES        131 14.53                             126    0.47 9  179 152 
 YPLC HZ I         131 15.44        11.7 0.30            123            179 152 
 ZAR  HZ EP        130 52.29                             122   -0.75 9  203 292 
 ZAR  HN ES        131 18.73                             122    0.57 9  203 292 
 ZAR  HZ I         131 24.27        11.6 0.26            118            203 292 
 NOR  HZ EP        130 56.56                             118   -0.01 8  236 234 
 NOR  HN ES        131 24.35                             118   -0.10 8  236 234 
 NOR  HZ I         131 29.23         8.1 0.20            114            236 234 
 CHI  HZ EP        130 58.56                             117   -0.11 8  251 195 
 CHI  HN ES        131 28.13                             117   -0.06 8  251 195 
 CHI  HZ I         131 34.82         4.8 0.46            113            251 195 
 GUY2CHZ EP        131  5.34                             112    0.87 7  302 234 
 GUY2CHN ES   3    131 40.33                             112    1.81 2  302 234 
 GUY2CHZ I         131 49.09         4.9 0.36                           302 234 
 PRA  HZ EP        131 14.77                             106    0.27 6  394 209 
 PRA  HN ES        131 56.39                             106    0.02 6  394 209 
 PRA  HZ I         132  5.12         4.5 0.36            104            394 209 
                                                                                
