 2011 10 9 0057 28.1 L   6.816 -73.083142.3  RSN  4 0.2 1.5LRSN                1
 GAP=203        0.48       5.4    10.1  5.6  0.3780E+02 -0.1790E+02 -0.6515E+01E
 Epicentro: LOS SANTOS - SANTANDER                                             3
 ACTION:UPD 12-07-13 16:02 OP:ep   STATUS:               ID:20111009005728 L   I
 2011-10-09-0040-00M.COL___171                                                 6
 STAT SP IPHASW D HRMM SECON CODA AMPLIT PERI AZIMU VELO AIN AR TRES W  DIS CAZ7
 BAR2 SZ EP   1    057 47.44                             169    0.03 7 27.1 204 
 BAR2 SZ ES   1    058  2.20                             169   -0.26 7 27.1 204 
 BAR2 SZ I         058  3.58         8.7 0.28                          27.1 204 
 GIR2 SZ EP   1    057 47.51                             167    0.13 7 31.5 337 
 GIR2 SZ ES   2    058  2.48                             167    0.08 5 31.5 337 
 BRR  HZ EP   1    057 48.80                             150   -0.40 7 76.6 295 
 BRR  HN ES   1    058  5.91                             150    0.25 7 76.6 295 
 BRR  HZ I         058 10.58        11.8 0.18                          76.6 295 
 RUS  HZ EP   1    057 51.82                             143    0.19 7  102 180 
 RUS  HZ I         057 52.78         2.5 0.17                           102 180 
 RUS  HN ES   1    058 10.00                             143    0.02 7  102 180 
                                                                                
