 2017 10 9 0407 56.7 L   6.815 -73.211142.4  RSN  5 0.2 1.5LRSN                1
 GAP=188        0.44       3.1     4.9  3.5 -0.9731E+01  0.4146E+01 -0.1407E+01E
 Epicentro: ZAPATOCA - SANTANDER                                               3
 ACTION:UPD 17-11-07 19:30 OP:rebc STATUS:               ID:20171009040756 L   I
 OLDACT:UP  17-10-09 16:11 OP:y    STATUS:               ID:20171009035744     3
 OLDACT:UP  17-10-09 16:07 OP:y    STATUS:               ID:20171009035744     3
 OLDACT:REG 17-10-09 13:56 OP:leo  STATUS:               ID:20171009035744     3
 2017-10-09-0358-00M.COL___420                                                 6
 STAT SP IPHASW D HRMM SECON CODA AMPLIT PERI AZIMU VELO AIN AR TRES W  DIS CAZ7
 BAR2 EZ EP        4 8 16.01                             170    0.0110 24.8 173 
 BAR2 EZ ES        4 8 31.15                             170    0.1210 24.8 173 
 BAR2 EZ I         4 8 33.72         8.3 0.26            173           24.8 173 
 PAM  EZ EP        4 8 18.90                             149    0.0710 81.0  44 
 PAM  EZ I         4 8 38.99         4.6 0.38            135           81.0  44 
 RUS  HZ EP        4 8 20.13                             142   -0.2110  103 172 
 RUS  HN ES        4 8 38.62                             142   -0.1310  103 172 
 RUS  HZ I         4 8 39.78         4.9 0.36            143            103 172 
 SPBC HZ EP        4 8 24.76                             129    0.08 9  160 217 
 SPBC HN ES        4 8 46.32                             129   -0.16 9  160 217 
 SPBC HZ I         4 8 48.64         5.8 0.12            127            160 217 
 CHI  HZ EP        4 8 34.21                             116   -0.02 8  248 193 
 CHI  HN ES     D  4 9  3.81                             116    0.34 8  248 193 
 CHI  HZ I         4 9  9.62         1.3 0.30            113            248 193 
                                                                                
