 2013 11 9 0141  7.3 L   6.752 -73.157153.6  RSN  5 0.4 1.3LRSN                1
 GAP=137        1.00       5.6     5.3  7.3 -0.2811E+01  0.4250E+01  0.1340E+01E
 Epicentro: LOS SANTOS - SANTANDER                                             3
 ACTION:UPD 14-01-09 16:26 OP:ep   STATUS:               ID:20131109014107 L   I
 OLDACT:REG 13-11-09 08:12 OP:stll STATUS:               ID:20131109013848     3
 2013-11-09-0138-48M.COL___213                                                 6
 STAT SP IPHASW D HRMM SECON CODA AMPLIT PERI AZIMU VELO AIN AR TRES W  DIS CAZ7
 BAR2 SZ EP        141 27.68                             173   -0.0610 17.9 189 
 BAR2 SZ ES        141 43.93                             173    0.2110 17.9 189 
 BAR2 SZ I         141 46.67         5.1 0.18            171           17.9 189 
 BRR  HZ EP        141 29.79                             153    0.4410 72.8 303 
 BRR  HN ES        141 47.14                             153    0.5610 72.8 303 
 PAM  SZ EP        141 30.73                             151    0.1310 82.3  38 
 PAM  SZ I         141 31.01         4.1 0.24            154           82.3  38 
 PAM  SN ES        141 48.18                             151   -0.6310 82.3  38 
 RUS  HZ EP        141 31.47                             147    0.0310 95.4 175 
 RUS  HZ I         141 33.18         1.4 0.14            147           95.4 175 
 RUS  HN ES        141 50.34                             147    0.0510 95.4 175 
 PTB  HZ EP        141 34.52                             134   -0.17 9  146 261 
 PTB  HN ES        141 55.41                             134   -0.67 9  146 261 
 PTB  HZ I         142  1.34         3.8 0.12            133            146 261 
                                                                                
