 2016 11 9 0105 15.3 L   6.797 -73.170145.2  RSN 12 0.2 1.9LRSN                1
 GAP=117        0.72       2.8     3.0  4.3 -0.1118E+01  0.2453E+01  0.4228E+01E
 Epicentro: LOS SANTOS - SANTANDER                                             3
 ACTION:UPD 17-10-26 21:06 OP:lp   STATUS:               ID:20161109010515 L   I
 OLDACT:DUP 16-11-09 13:50 OP:lv   STATUS:               ID:20161109005746d    3
 2016-11-09-0058-00M.COL___343                                                 6
 STAT SP IPHASW D HRMM SECON CODA AMPLIT PERI AZIMU VELO AIN AR TRES W  DIS CAZ7
 BAR2 EZ EP        1 5 34.84                             171    0.0410 22.6 184 
 BAR2 EZ ES        1 5 49.89                             171   -0.1610 22.6 184 
 BAR2 EZ I         1 5 51.02        29.2 0.27            169           22.6 184 
 BRR  HZ IP     C  1 5 36.43                             153    0.2110 69.1 300 
 BRR  HE ES        1 5 53.04                             153    0.4710 69.1 300 
 BRR  HZ I         1 5 56.80        16.6 0.28            153           69.1 300 
 PAM  EZ EP        1 5 37.61                             150    0.0810 79.4  41 
 PAM  EN ES        1 5 54.77                             150   -0.1310 79.4  41 
 PAM  EZ I         1 5 57.41         5.0 0.16            154           79.4  41 
 PTB  HZ EP        1 5 41.41                             132   -0.52 9  145 259 
 PTB  HN ES        1 6  2.51                             132   -0.23 9  145 259 
 PTB  HZ I         1 6  4.35        10.5 0.18            133            145 259 
 ZAR  HZ EP        1 5 47.41                             122   -0.01 9  202 293 
 ZAR  HN ES        1 6 12.48                             122   -0.03 9  202 293 
 ZAR  HZ I         1 6 18.03         8.4 0.42            123            202 293 
 NOR  HZ EP        1 5 50.82                             119    0.12 8  232 234 
 NOR  HN ES        1 6 18.18                             119   -0.16 8  232 234 
 NOR  HZ I         1 6 23.65         6.4 0.16            119            232 234 
 CHI  HZ EP        1 5 52.97                             117    0.16 8  248 195 
 CHI  HN ES        1 6 22.25                             117    0.15 8  248 195 
 CHI  HZ I         1 6 27.29         5.5 0.40            118            248 195 
 PTGC HZ EP   9    1 5 57.74                             111   -1.42 0  309 158 
 PTGC HE ES        1 6 31.50                                   -0.48 7  309 158 
 LL6C HZ EP   9    1 5 40.86                             110   -20.1 0  325 358 
 LL6C HN ES        1 6 15.60                                   -0.91 7  325 358 
 CBOC HZ EP   9    1 6  2.54                             110    0.70 0  331 252 
 CBOC HE ES        1 6 39.40                                    0.52 7  331 252 
 PRA  HZ EP        1 6  8.61                             106    0.04 6  390 209 
 PRA  HE ES        1 6 50.16                             106    0.01 6  390 209 
 PRA  HZ I         1 6 54.88         4.5 0.39            107            390 209 
 SJC  HZ EP   4    1 6  8.94                             106   -1.73 0  408 327 
 SJC  HE ES   4    1 6 48.34                             106   -5.54 0  408 327 
 SJC  HZ I         1 6 54.03         1.3 0.27            107            408 327 
                                                                                
