 2011 11 9 0028  7.6 L   5.858 -73.726110.3  RSN  9 0.5 2.0LRSN                1
 GAP=122        0.86       3.4     3.8  8.4 -0.5246E+01  0.1391E+02 -0.1793E+01E
 Epicentro: JESUS MARIA - SANTANDER                                            3
 ACTION:UPD 12-07-13 16:09 OP:ep   STATUS:               ID:20111109002807 L   I
 2011-11-09-0027-14S.COL___178                                                 6
 STAT SP IPHASW D HRMM SECON CODA AMPLIT PERI AZIMU VELO AIN AR TRES W  DIS CAZ7
 RUS  HZ EP   1    028 26.10                             145    0.40 7 71.2  87 
 RUS  HN ES   1    028 39.12                             145   -0.73 7 71.2  87 
 RUS  HZ I         028 41.99         9.0 0.22                          71.2  87 
 BAR2 SZ EP   1    028 27.54                             134   -0.16 7  101  37 
 BAR2 SZ ES   1    028 43.90                             134    0.49 7  101  37 
 BAR2 SZ I         028 46.13        40.6 0.23                           101  37 
 NOR  SZ EP   1    028 30.35                             126    0.12 7  131 256 
 NOR  SN ES   1    028 47.65                             126   -0.27 7  131 256 
 BRR  HZ EP   1    028 30.71                             124   -0.18 7  138   1 
 BRR  HZ I         028 31.51        19.2 0.09                           138   1 
 BRR  HN ES   1    028 49.71                             124    0.62 7  138   1 
 HEL  HZ EP   1    028 38.06                             114   -0.25 6  203 281 
 HEL  HN ES   1    029  2.81                             114    0.52 6  203 281 
 HEL  HZ I         029  6.66         8.5 0.47                           203 281 
 RREF HZ EP   1    028 38.51                             113   -0.76 6  209 240 
 RREF HN ES   1    029  4.46                             113    0.45 6  209 240 
 RREF HZ I         029  7.72         7.2 0.22                           209 240 
 ZAR  HZ EP   1    028 39.09                             111   -0.66 6  220 325 
 ZAR  HN ES   1    029  4.25                             111   -0.61 6  220 325 
 ZAR  HZ I         029  9.22         7.1 0.19                           220 325 
 OCA  SZ EP   1    028 45.68                             107    0.31 6  267  10 
 OCA  SZ ES   1    029 14.87                             107    0.00 6  267  10 
 OCA  SZ I         029 21.60         5.4 0.30                           267  10 
 PRA  HZ EP   1    028 46.27                             107    0.71 6  270 209 
 PRA  HN ES   1    029 15.30                             107    0.10 6  270 209 
 PRA  HZ I         029 20.87        14.4 0.19                           270 209 
                                                                                
