 2011  4 9 0611  3.6 L   6.815 -73.130142.2  RSN 11 0.3 2.2LRSN                1
 GAP=115        0.74       3.2     4.1  5.8 -0.3831E+01  0.2699E+01  0.6141E+01E
 Epicentro: LOS SANTOS - SANTANDER                                             3
 ACTION:UP  11-06-22 15:29 OP:REBC STATUS:               ID:20110409061103 L   I
 2011-04-09-0600-00M.COL___139                                                 6
 STAT SP IPHASW D HRMM SECON CODA AMPLIT PERI AZIMU VELO SNR AR TRES W  DIS CAZ7
 BTL  SZ EP        611 21.98                             172    -0.810   19 307 
 BAR2 SZ EP        611 22.82                             169     0.010   25 193 
 BAR2 SZ ES   1    611 37.68                             169    -0.2 7   25 193 
 BAR2 SZ I         611 39.18        39.5 0.25                            25 193 
 GIR2 SZ EP   1    611 22.80                             167     0.0 7   30 346 
 BRR  HZ IP     C  611 24.59                             151     0.210   72 297 
 BRR  HZ I         611 24.87        66.5 0.16                            72 297 
 BRR  HE ES   1    611 41.34                             151     0.7 7   72 297 
 PAM  SZ EP        611 25.54                             151     0.210   75  39 
 PAM  SE ES   1    611 42.22                             151     0.0 7   75  39 
 GRA  SZ IP        611 28.55                             137     0.210  124  17 
 GRA  SZ ES        611 47.54                             137    -0.110  124  17 
 GRA  SZ I         611 49.22        28.8 0.15                           124  17 
 YOP  SZ EP   1    611 33.61                             125     0.1 7  180 154 
 YOP  SE ES   1    611 57.01                             125     0.2 7  180 154 
 YOP  SZ I         612  2.11         9.4 0.63                           180 154 
 NOR  SZ EP   1    611 39.36                             117     0.0 6  237 234 
 NOR  SN ES   1    612  7.26                             117    -0.1 6  237 234 
 CHI  HZ EP   1    611 41.41                             116     0.1 6  251 195 
 CHI  HE ES   2    612 10.84                             116     0.1 4  251 195 
 CHI  HZ I         612 13.95         7.1 0.39                           251 195 
 HEL  HZ EP   2    611 43.93                             114     0.0 4  274 256 
 HEL  HE ES   2    612 15.11                             114    -0.2 4  274 256 
 HEL  HZ I         612 21.47         9.4 0.30                           274 256 
 RREF HZ EP   2    611 50.29                             110     0.4 3  324 229 
 RREF HE ES   2    612 25.69                             110    -0.3 3  324 229 
 RREF HZ I         612 35.23         7.2 0.23                           324 229 
                                                                                
