 2017  2 9 0633 35.0 L   6.767 -73.156147.9  RSN  5 0.3 1.1LRSN                1
 GAP=234        0.83       4.7     5.9  6.0  0.1079E+02  0.5162E+01  0.7589E+01E
 Epicentro: LOS SANTOS - SANTANDER                                             3
 ACTION:UPD 17-05-24 15:34 OP:jn   STATUS:               ID:20170209063335 L   I
 OLDACT:UP  17-02-09 19:18 OP:edw  STATUS:               ID:20170209062948     3
 OLDACT:REG 17-02-09 19:08 OP:edw  STATUS:               ID:20170209062948     3
 2017-02-09-0630-00M.COL___355                                                 6
 STAT SP IPHASW D HRMM SECON CODA AMPLIT PERI AZIMU VELO AIN AR TRES W  DIS CAZ7
 BAR2 EZ EP        633 54.95                             172    0.1210 19.5 188 
 BAR2 EZ ES        634 10.42                             172    0.1310 19.5 188 
 BAR2 EZ I         634 11.16         3.1 0.24            165           19.5 188 
 BRR  HZ EP        633 55.73                             153   -0.7110 72.0 302 
 BRR  HN ES        634 13.24                             153    0.0910 72.0 302 
 RUS  HZ EP        633 58.89                             145    0.1710 97.0 175 
 RUS  HN ES        634 17.13                             145   -0.0910 97.0 175 
 RUS  HZ I         634 18.69         2.6 0.26            143           97.0 175 
 PTB  HZ EP        634  2.57                             133    0.58 9  146 260 
 PTB  HN ES        634 22.95                             133   -0.08 9  146 260 
 PTB  HZ I         634 29.00         1.1 0.26            130            146 260 
 CHI  HZ EP        634 12.44                             118    0.03 8  245 195 
 CHI  HN ES        634 41.33                             118   -0.26 8  245 195 
 CHI  HZ I         634 46.49         1.1 0.70            117            245 195 
                                                                                
