 2012  5 9 0335 40.8 L   6.768 -73.168139.9  RSN  6 0.4 1.8LRSN                1
 GAP=135        1.03       6.3     6.2 10.0  0.3861E+01  0.2251E+02 -0.2857E+01E
 Epicentro: LOS SANTOS - SANTANDER                                             3
 ACTION:UP  12-07-05 12:03 OP:pat  STATUS:               ID:20120509033540 L   I
 2012-05-09-0330-00M.COL___192                                                 6
 STAT SP IPHASW D HRMM SECON CODA AMPLIT PERI AZIMU VELO SNR AR TRES W  DIS CAZ7
 BAR2 SZ EP        335 59.67                             172     0.010   19 185 
 BAR2 SZ ES   2    336 13.79                             172    -0.6 5   19 185 
 BAR2 SZ I         336 17.84        17.9 0.64                            19 185 
 BRR  HZ EP        336  1.66                             151     0.310   71 302 
 BRR  HN ES   2    336 18.16                             151     0.8 5   71 302 
 BRR  HZ I         336 19.78        17.9 0.16                            71 302 
 PAM  SZ EP        336  2.51                             149    -0.210   82  39 
 PAM  SN ES   1    336 19.53                             149    -0.2 7   82  39 
 RUS  HZ EP        336  3.48                             144    -0.310   97 174 
 RUS  HN ES   1    336 22.33                             144     0.7 7   97 174 
 RUS  HZ I         336 23.87         4.7 0.38                            97 174 
 PTB  HZ EP        336  6.74                             131    -0.3 9  145 260 
 PTB  HE ES   2    336 26.62                             131    -0.9 5  145 260 
 PTB  HZ I         336 31.86         5.1 0.46                           145 260 
 ZAR  HZ EP        336 13.33                             121     0.5 9  203 293 
 ZAR  HN ES   1    336 37.68                             121    -0.1 6  203 293 
 ZAR  HZ I         336 43.79         7.3 0.28                           203 293 
                                                                                
