 2011  3 9 0943 45.8 L   6.789 -73.262137.2  RSN  4 0.3 1.5LRSN                1
 GAP=189        0.81       3.8    20.3  9.6 -0.7343E+01  0.4569E+02 -0.1452E+02E
 Epicentro: ZAPATOCA - SANTANDER                                               3
 ACTION:UP  11-06-16 14:32 OP:jfem STATUS:               ID:20110309094345 L   I
 2011-03-09-0941-51S.COL___135                                                 6
 STAT SP IPHASW D HRMM SECON CODA AMPLIT PERI AZIMU VELO SNR AR TRES W  DIS CAZ7
 BAR2 SZ EP   1    944  4.14                             170    -0.3 8   23 158 
 BAR2 SZ I         944  4.57         9.0 0.07                            23 158 
 BAR2 SZ ES   1    944 18.76                             170    -0.2 8   23 158 
 RUS  HZ EP   1    944  8.26                             142    -0.5 7  101 169 
 RUS  HZ I         944  9.48         3.5 0.10                           101 169 
 RUS  HN ES        944 27.05                             142     0.410  101 169 
 GRA  SZ EP   1    944 11.00                             134     0.2 7  131  23 
 GRA  SZ ES   1    944 30.16                             134    -0.1 7  131  23 
 GRA  SZ I         944 31.62         3.6 0.44                           131  23 
 OCA  SZ EP   1    944 13.96                             128     0.4 7  160 358 
 OCA  SZ ES   1    944 35.11                             128     0.0 7  160 358 
 OCA  SZ I         944 37.41         4.5 0.19                           160 358 
                                                                                
