 2010  1 9 0813 11.0 L   6.815 -73.029142.7  RSN 13 0.5 2.8LRSN                1
 GAP=186        0.89       4.1     8.0  6.1 -0.5165E+01  0.2105E+02  0.5511E+01E
 Epicentro: CEPITA - SANTANDER                                                 3
 ACTION:UP  10-08-24 09:43 OP:vdl  STATUS:               ID:20100109081311 L   I
 2010-01-09-0811-31S.COL___097                                                 6
 STAT SP IPHASW D HRMM SECON CODA AMPLIT PERI AZIMU VELO SNR AR TRES W  DIS CAZ7
 BAR2 SZ IP        813 30.70                             168     0.310   30 215 
 BAR2 SZ ES   1    813 45.11                             168    -0.4 7   30 215 
 GIR2 SZ IP        813 30.73                             166     0.410   34 328 
 GIR2 SZ ES   1    813 45.46                             166     0.0 7   34 328 
 RUS  BZ IP        813 34.68                             143     0.110  102 183 
 RUS  BZ I         813 35.36        39.4 0.33                           102 183 
 RUS  BE ES   2    813 52.85                             143    -0.1 5  102 183 
 OCA  SZ IP        813 38.96                             129    -0.1 9  161 349 
 OCA  SZ ES   2    814  0.59                             129    -0.4 5  161 349 
 OCA  SZ I         814  4.66       120.1 0.12                           161 349 
 CHI  HZ EP        813 48.76                             116    -0.3 8  254 198 
 CHI  HE ES   2    814 18.13                             116    -0.7 4  254 198 
 CHI  HZ I         814 22.18        38.4 0.41                           254 198 
 ROSC BZ EP        813 50.47                             115     0.6 8  261 213 
 ROSC BN ES   2    814 19.91                             115    -0.2 4  261 213 
 ROSC BZ I         814 24.57        42.0 0.35                           261 213 
 HEL  HZ EP        813 52.42                             113    -0.1 7  285 256 
 HEL  HN ES   3    814 25.37                             113     0.5 2  285 256 
 HEL  HZ I         814 29.35        18.5 0.25                           285 256 
 RREF BZ EP        813 58.96                             109     0.7 7  333 231 
 RREF BN ES   2    814 35.86                             109     0.8 3  333 231 
 RREF BZ I         814 39.65        23.8 0.31                           333 231 
 DBB  SZ EP        813 59.04                             108    -0.8 6  352 274 
 TOL  SZ EP        814  0.37                             108     0.1 6  354 226 
 TOL  SZ ES   2    814 38.20                             108    -0.6 3  354 226 
 ANIL BZ EP        814  1.92                             107     0.1 6  368 226 
 ANIL BE ES   2    814 41.53                             107     0.0 3  368 226 
 ANIL BZ I         814 44.96        39.3 0.47                           368 226 
 PRA  HZ EP        814  4.38                             106    -0.9 6  400 211 
 PRA  HZ I         814 51.39        28.5 0.47                           400 211 
 GUA  SZ EP        814 13.34                             103    -0.7 5  474 175 
                                                                                
