 2012  1 9 0137 23.4 L   6.803 -73.087152.0  RSN  7 0.3 1.3LRSN                1
 GAP=144        0.68       5.3     6.7  6.4  0.5477E+01  0.7105E+01  0.1224E+02E
 Epicentro: LOS SANTOS - SANTANDER                                             3
 ACTION:UP  12-02-03 08:15 OP:REBC STATUS:               ID:20120109013723 L   I
 2012-01-09-0130-00M.COL___186                                                 6
 STAT SP IPHASW D HRMM SECON CODA AMPLIT PERI AZIMU VELO SNR AR TRES W  DIS CAZ7
 BAR2 SZ EP        137 43.81                             170     0.010   26 204 
 BAR2 SZ ES   1    137 59.75                             170     0.0 7   26 204 
 BAR2 SZ I         138  0.23         7.7 0.25                            26 204 
 GIR2 SZ EP   2    137 44.01                             167     0.2 5   33 339 
 GIR2 SZ ES   2    137 59.83                             167     0.0 5   33 339 
 PAM  SN ES   2    138  3.39                             153    -0.3 5   73  36 
 BRR  HZ EP        137 45.67                             152     0.110   77 296 
 BRR  HZ I         137 46.07         5.5 0.16                            77 296 
 BRR  HE ES   1    138  3.25                             152     0.4 7   77 296 
 RUS  HZ EP   1    137 47.77                             145     0.0 7  101 180 
 RUS  HZ I         137 48.82         1.9 0.12                           101 180 
 RUS  HN ES   2    138  6.35                             145    -0.4 5  101 180 
 PTB  HZ EP   1    137 50.76                             132    -0.7 7  154 259 
 PTB  HE ES   2    138 12.95                             132    -0.4 5  154 259 
 CHI  HZ EP   1    138  2.07                             118     0.4 6  251 197 
 CHI  HE ES   2    138 32.22                             118     0.7 4  251 197 
 CHI  HZ I         138 36.71         0.9 0.24                           251 197 
                                                                                
