 2010  7 9 0927  4.7 L   6.773 -73.148149.0  RSN  8 0.3 1.5LRSN                1
 GAP=155        0.58       3.6     6.4  5.4 -0.6767E+01 -0.1807E+01 -0.2215E+01E
 Epicentro: LOS SANTOS - SANTANDER                                             3
 ACTION:UPD 10-12-01 15:16 OP:pat  STATUS:               ID:20100709092704 L   I
 2010-07-09-0924-28S.COL___117                                                 6
 STAT SP IPHASW D HRMM SECON CODA AMPLIT PERI AZIMU VELO AIN AR TRES W  DIS CAZ7
 BAR2 SZ EP   2    927 24.45                             172    -0.3 5   20 191 
 BAR2 SZ ES   1    927 40.14                             172    -0.1 7   20 191 
 BAR2 SZ I         927 40.68        10.8 0.27                            20 191 
 GIR2 SZ EP   2    927 24.78                             166    -0.1 5   34 352 
 GIR2 SZ ES   2    927 40.74                             166     0.2 5   34 352 
 BRR  HZ EP        927 26.47                             153     0.210   72 301 
 BRR  HZ I         927 36.51        20.0 0.34                            72 301 
 BRR  HE ES   1    927 43.24                             153     0.1 7   72 301 
 RUS  HZ EP   2    927 28.82                             145     0.2 5   98 176 
 RUS  HZ I         927 30.00         2.8 0.18                            98 176 
 RUS  HE ES   2    927 46.96                             145    -0.3 5   98 176 
 BRI  SZ EP   2    927 29.78                             141     0.6 5  111  20 
 BRI  SZ ES   1    927 48.54                             141     0.3 7  111  20 
 BRI  SZ I         927 49.94         3.4 0.16                           111  20 
 GUE  SZ EP   1    927 29.76                             139    -0.2 7  119  12 
 GUE  SZ I         927 51.24         1.5 0.20                           119  12 
 GRA  SZ EP   2    927 30.43                             137    -0.1 5  129  17 
 GRA  SZ ES   1    927 50.49                             137    -0.1 7  129  17 
 GRA  SZ I         927 51.28         3.6 0.23                           129  17 
 OCA  SZ EP   2    927 33.42                             130    -0.2 5  163 353 
 OCA  SZ ES   2    927 55.29                             130    -0.8 5  163 353 
 OCA  SZ I         927 59.54         6.1 0.35                           163 353 
                                                                                
