 2016 10 9 0706 11.3 L   6.586 -73.579102.0  RSN 17 0.5 2.1LRSN                1
 GAP= 55        1.02       2.7     3.1  6.0 -0.2722E+01  0.7095E+01 -0.3294E+00E
 Epicentro: EL CARMEN - SANTANDER                                              3
 ACTION:UPD 16-11-09 19:17 OP:rebc STATUS:               ID:20161009070611 L   I
 OLDACT:UP  16-10-09 16:54 OP:dnl  STATUS:               ID:20161009065743     3
 OLDACT:REG 16-10-09 12:51 OP:dani STATUS:               ID:20161009065743     3
 2016-10-09-0658-00M.COL___354                                                 6
 STAT SP IPHASW D HRMM SECON CODA AMPLIT PERI AZIMU VELO AIN AR TRES W  DIS CAZ7
 BAR2 EZ IP     C  7 6 26.78                             156    0.2010 43.8  89 
 BAR2 EZ ES        7 6 39.32                             156    0.8610 43.8  89 
 RUS  HZ EP        7 6 29.79                             135   -0.7610 94.3 144 
 RUS  HN ES        7 6 45.60                             135    0.0710 94.3 144 
 RUS  HZ I         7 6 46.87        15.8 0.22            136           94.3 144 
 PTB  HZ IP     C  7 6 29.63                             133   -0.5310 97.2 267 
 PTB  HN ES        7 6 44.54                             133   -0.3010 97.2 267 
 PTB  HZ I         7 6 45.96        45.9 0.18            130           97.2 267 
 SPBC HZ EP        7 6 31.75                             127   -0.3610  117 208 
 SPBC HE ES        7 6 48.42                             127    0.1210  117 208 
 SPBC HZ I         7 6 52.32        32.0 0.24            127            117 208 
 PAM  EZ EP   2    7 6 34.38                             125    0.64 5  128  49 
 PAM  EN ES        7 6 50.99                             125   -0.2110  128  49 
 PAM  EZ I         7 6 52.29        17.8 0.44            124            128  49 
 ZAR  HZ EP   2    7 6 38.83                             116    0.91 4  173 305 
 ZAR  HE ES   4    7 7  1.88                             116    3.23 0  173 305 
 ZAR  HZ I         7 7  3.27        43.3 0.32            114            173 305 
 NOR  HZ EP   2    7 6 38.61                             114   -0.36 4  182 232 
 NOR  HN ES        7 7  0.37                             114   -0.15 9  182 232 
 NOR  HZ I         7 7  3.87        26.2 0.18            114            182 232 
 OCA  HZ EP        7 6 38.91                             114   -0.50 9  185   9 
 OCA  HN ES        7 7  1.30                             114   -0.00 9  185   9 
 OCA  HZ I         7 7 10.41        39.0 0.36            113            185   9 
 ROSC BZ EP        7 6 43.11                             111    0.58 8  210 203 
 ROSC BN ES   4    7 7  8.95                             111    2.10 0  210 203 
 ROSC BZ I         7 7 13.53        10.9 0.65            111            210 203 
 CHI  HZ EP   2    7 6 42.92                             110   -0.46 4  217 184 
 CHI  HN ES        7 7  8.09                             110   -0.28 8  217 184 
 CHI  HZ I         7 7 13.18         4.8 0.26            110            217 184 
 HEL  HZ EP        7 6 44.10                             110    0.42 8  220 259 
 HEL  HN ES        7 7  9.06                             110    0.16 8  220 259 
 HEL  HZ I         7 7 16.45        10.7 0.24            109            220 259 
 GUY2CHZ EP        7 6 47.71                             107    0.58 8  249 233 
 GUY2CHN ES        7 7 15.18                             107    0.15 8  249 233 
 GUY2CHZ I         7 7 22.14         9.7 0.40                           249 233 
 URE  HZ EP   4    7 6 49.30                             106    2.43 0  251 301 
 URE  HE ES   4    7 7 13.25                             106   -1.34 0  251 301 
 URE  HZ I         7 7 17.37        12.6 0.38            106            251 301 
 CBOC HZ EP   2    7 6 51.40                             104    0.84 4  281 254 
 CBOC HN ES   4    7 7 22.72                             104    1.58 0  281 254 
 CBOC HZ I         7 7 25.24         3.7 0.44            105            281 254 
 PRA  HZ EP        7 6 58.18                             100   -0.38 6  349 205 
 PRA  HN ES        7 7 35.82                             100    0.44 6  349 205 
 PRA  HZ I         7 7 40.04         7.5 0.20            102            349 205 
 ARGC HZ EP   9    7 7  4.48                              99    3.55 0  369 349 
 ARGC HE ES        7 7 43.90                              99    0.75 6  369 349 
 ARGC HZ I         7 7 54.44         2.5 0.34            101            369 349 
 SJC  HZ EP   4    7 7  4.04                              97   -1.46 0  406 334 
 SJC  HN ES   4    7 7 44.85                              97   -2.89 0  406 334 
 SJC  HZ I         7 7 49.10         1.7 0.38            100            406 334 
                                                                                
