 2017  1 9 0207 10.2 L   6.804 -73.107149.3  RSN  5 0.3 1.3LRSN                1
 GAP=141        0.72       3.9     5.3  5.4 -0.1120E+01 -0.7190E+01  0.4723E+00E
 Epicentro: LOS SANTOS - SANTANDER                                             3
 ACTION:UPD 17-05-22 15:57 OP:jn   STATUS:               ID:20170109020710 L   I
 OLDACT:UP  17-01-09 14:24 OP:e    STATUS:               ID:20170109015746d    3
 OLDACT:UP  17-01-09 14:24 OP:e    STATUS:               ID:20170109015746d    3
 OLDACT:UP  17-01-09 14:23 OP:e    STATUS:               ID:20170109015746d    3
 OLDACT:DUP 17-01-09 14:22 OP:e    STATUS:               ID:20170109015746d    3
 2017-01-09-0158-00M.COL___344                                                 6
 STAT SP IPHASW D HRMM SECON CODA AMPLIT PERI AZIMU VELO AIN AR TRES W  DIS CAZ7
 BAR2 EZ EP        2 7 30.92                             170    0.6310 24.8 200 
 BAR2 EZ ES        2 7 45.87                             170   -0.0910 24.8 200 
 BAR2 EZ I         2 7 47.27         5.1 0.29            168           24.8 200 
 PAM  EZ EP        2 7 32.44                             152   -0.1910 74.4  37 
 PAM  EZ ES        2 7 50.17                             152    0.0510 74.4  37 
 PAM  EZ I         2 7 52.09         4.4 0.50            155           74.4  37 
 BRR  HZ EP        2 7 31.84                             152   -0.1010 74.8 297 
 BRR  HN ES        2 7 48.85                             152   -0.0410 74.8 297 
 RUS  HZ EP        2 7 34.03                             144   -0.2910  101 178 
 RUS  HN ES        2 7 53.14                             144    0.0110  101 178 
 RUS  HZ I         2 7 54.05         1.9 0.18            145            101 178 
 PTB  HZ EP   9    2 7 36.56                             132   -1.28 0  152 259 
 PTB  HN ES        2 7 57.82                             134   -0.30 9  152 259 
 PTB  HZ I         2 8  5.16         3.1 0.38            130            152 259 
                                                                                
