 2016  2 9 0737  7.9 L   6.830 -73.120144.2  RSN 29 0.6 2.8LRSN                1
 GAP= 53        1.31       2.7     2.6  5.3 -0.1309E+01  0.2427E+01 -0.3529E+00E
 Epicentro: LOS SANTOS - SANTANDER                                             3
 ACTION:UPD 16-03-04 21:24 OP:rebc STATUS:               ID:20160209073707 L   I
 OLDACT:DUP 16-02-09 16:14 OP:ak   STATUS:               ID:20160209072750d    3
 2016-02-09-0727-49M.COL___322                                                 6
 STAT SP IPHASW D HRMM SECON CODA AMPLIT PERI AZIMU VELO AIN AR TRES W  DIS CAZ7
 BAR2 EZ IP     D  737 27.70                             169    0.2310 27.1 195 
 BAR2 EZ ES        737 42.16                             169   -0.5410 27.1 195 
 BAR2 EZ I         737 43.47       175.8 0.24            168           27.1 195 
 PAM  EZ EP     C  737 30.75                             152    1.0110 73.1  39 
 PAM  EN ES        737 47.37                             152    0.6310 73.1  39 
 PAM  EZ I         737 49.90       248.2 0.58            154           73.1  39 
 RUS  HZ EP        737 31.64                             143   -0.1310  104 178 
 RUS  HN ES        737 50.21                             143   -0.1410  104 178 
 RUS  HZ I         737 51.13        60.5 0.34            143            104 178 
 PTB  HZ EP        737 34.34                             131   -0.75 9  151 258 
 PTB  HN ES        737 55.40                             131   -0.87 9  151 258 
 PTB  HZ I         737 58.18        54.5 0.21            131            151 258 
 TAM  HZ IP     D  737 36.04                             130    0.71 9  153 106 
 TAM  HE ES        737 57.47                             130    0.78 9  153 106 
 OCA  HZ EP     C  737 36.04                             130    0.18 9  157 352 
 OCA  HN ES        737 57.91                             130    0.28 9  157 352 
 OCA  HZ I         738  1.50       201.0 0.44            131            157 352 
 OCA  HZ E         738  2.87                                            157 352 
 SPBC HZ EP        737 36.65                             128   -0.08 9  167 219 
 SPBC HE ES        737 58.67                             128   -0.52 9  167 219 
 SPBC HZ I         738  1.80        64.4 0.20            128            167 219 
 ZAR  HZ EP        737 40.79                             122    0.36 8  205 291 
 ZAR  HN ES        738  5.96                             122    0.19 8  205 291 
 ZAR  HZ I         738 11.83        77.6 0.40            122            205 291 
 NOR  HZ EP        737 43.86                             118   -0.17 8  239 234 
 NOR  HN ES        738 11.85                             118   -0.33 8  239 234 
 NOR  HZ I         738 14.60        25.0 0.16            118            239 234 
 SML  HZ EP        737 44.05                             117   -0.24 8  242 334 
 SML  HE ES        738 13.49                             117    0.85 8  242 334 
 SML  HZ I         738 15.91       117.7 0.10            118            242 334 
 CHI  HZ EP        737 45.83                             116   -0.15 8  253 196 
 CHI  HN ES        738 15.16                             116   -0.49 8  253 196 
 CHI  HZ I         738 21.70        15.6 0.34            117            253 196 
 ROSC BZ EP   4    737 50.51                             116    4.07 0  257 211 
 ROSC BN ES        738 16.64                             116    0.17 8  257 211 
 ROSC BZ I         738 23.93        35.6 0.40            116            257 211 
 HEL  HZ EP        737 49.19                             114    0.72 7  276 255 
 HEL  HN ES        738 19.38                             114   -0.70 7  276 255 
 HEL  HZ I         738 24.68        13.3 0.24            114            276 255 
 URE  HZ EP        737 48.34                             113   -0.75 7  285 291 
 URE  HN ES        738 20.20                             113   -0.99 7  285 291 
 URE  HZ I         738 22.08        40.7 0.12            114            285 291 
 SOCV BZ EP        737 49.50                             112   -0.95 7  297  57 
 SOCV BN ES   9    738 21.20                             112   -2.40 0  297  57 
 GUY2CHZ EP        737 52.80                             112    0.85 7  305 235 
 GUY2CHN ES        738 27.00                             112    0.72 7  305 235 
 GUY2CHZ I         738 35.68        14.3 0.34                           305 235 
 PTGC HZ EP        737 51.16                             111   -0.80 7  311 159 
 PTGC HN ES   4    738 23.93                             111   -2.37 0  311 159 
 PTGC HZ I         738 26.39        44.3 0.40            112            311 159 
 ELA  HZ EP   9    737 57.94                             110    2.73 0  333 229 
 ELA  HN ES        738 34.72                                   -0.09 7  333 229 
 ELA  HZ I         738 39.03        13.4 0.44            110            333 229 
 CBOC HZ EP        737 55.94                             109    0.73 7  337 252 
 CBOC HN ES        738 32.82                             109    0.73 7  337 252 
 CBOC HZ I         738 43.76         9.5 0.40            110            337 252 
 DBB  SZ EP        737 55.99                             109    0.34 7  342 274 
 DBB  SZ ES        738 32.18                             109   -0.68 7  342 274 
 MON  HZ EP   4    737 55.28                             108   -1.62 0  354 308 
 MON  HN ES        738 34.27                             108   -0.82 6  354 308 
 MON  HZ I         738 34.98        21.1 0.20            109            354 308 
 SDV  BZ IP        737 58.09                             108    0.66 6  356  50 
 SDV  BN ES        738 34.76                             108   -1.27 6  356  50 
 ANIL HE EP        737 58.52                             108    0.34 6  362 224 
 ANIL HZ ES        738 38.00                             108    0.63 6  362 224 
 ORTC HZ EP        738  2.80                             106    0.49 6  400 216 
 ORTC HN ES        738 45.20                             106    0.48 6  400 216 
 ORTC HZ I         738 50.79        14.7 0.34            106            400 216 
 ELOV BZ EP        738  2.26                             106   -0.30 6  402  87 
 ELOV BN ES        738 43.82                             106   -1.35 6  402  87 
 SJC  HZ EP        738  2.83                             105   -0.48 6  408 326 
 SJC  HN ES   4    738 43.45                             105   -3.05 0  408 326 
 SJC  HZ I         738 47.85        19.8 0.44            106            408 326 
 PAL  HZ EP        738  4.06                             105    0.53 6  410 239 
 PAL  HN ES        738 47.01                             105    0.12 6  410 239 
 PAL  HZ I         738 52.51         6.1 0.28            106            410 239 
 CRJC HZ EP   9    738  8.12                             103   -1.87 0  464   3 
 CRJC HN ES        738 55.56                                   -0.96 5  464   3 
 CRJC HZ I         739  0.76        11.4 0.36            104            464   3 
 GUA  SZ EP        738 10.80                             103   -0.60 5  477 173 
 GUA  SE ES   4    738 57.90                             103   -2.99 0  477 173 
 GUA  SZ I         739  5.09        21.1 0.18            103            477 173 
                                                                                
