 2013 10 9 0523 51.7 L   6.795 -73.113152.1  RSN  7 0.5 1.8LRSN                1
 GAP=203        1.20       5.3     7.6  9.5  0.1251E+02  0.2965E+01 -0.1308E+02E
 Epicentro: LOS SANTOS - SANTANDER                                             3
 ACTION:UPD 13-11-25 09:20 OP:ep   STATUS:               ID:20131009052351 L   I
 OLDACT:REG 13-10-09 07:51 OP:mh   STATUS:               ID:20131009051959     3
 2013-10-09-0519-59M.COL___273                                                 6
 STAT SP IPHASW D HRMM SECON CODA AMPLIT PERI AZIMU VELO AIN AR TRES W  DIS CAZ7
 BAR2 SZ EP   1    524 12.27                             171    0.21 7 23.7 199 
 BAR2 SZ ES   1    524 27.82                             171   -0.14 7 23.7 199 
 BAR2 SZ I         524 28.62        14.4 0.26            167           23.7 199 
 BRR  HZ EP   1    524 14.18                             153    0.50 7 74.6 298 
 BRR  HN ES        524 31.72                             153    0.8610 74.6 298 
 BRR  HZ I         524 36.29         7.4 0.14            149           74.6 298 
 RUS  HZ EP   1    524 16.08                             145    0.09 7 99.9 178 
 RUS  HN ES        524 34.45                             145   -0.5110 99.9 178 
 RUS  HZ I         524 36.01         2.9 0.46            147           99.9 178 
 PTB  HZ EP   1    524 19.19                             133   -0.27 7  151 259 
 PTB  HN ES        524 40.18                             133   -0.95 9  151 259 
 PTB  HZ I         524 46.03         7.7 0.40            131            151 259 
 SPBC HZ EP   1    524 21.21                             130    0.38 7  165 220 
 SPBC HN ES        524 43.92                             130    0.35 9  165 220 
 SPBC HZ I         524 50.10        12.0 0.26            130            165 220 
 ZAR  HZ EP   1    524 25.03                             123    0.15 6  208 292 
 ZAR  HN ES        524 51.13                             123    0.33 8  208 292 
 ZAR  HZ I         524 56.48         7.1 0.46            123            208 292 
 SML  HZ EP   1    524 28.94                             119    0.08 6  246 335 
 SML  HN ES        524 56.99                             119   -0.89 8  246 335 
 SML  HZ I         525  1.72         9.6 0.10            120            246 335 
                                                                                
