 2016 10 9 0912 41.9 L   6.584 -73.566108.4  RSN  9 0.5 1.6LRSN                1
 GAP=101        1.07       3.7     3.6  9.0 -0.5475E+01  0.1256E+02 -0.7686E+01E
 Epicentro: EL CARMEN - SANTANDER                                              3
 ACTION:UPD 16-11-09 19:17 OP:rebc STATUS:               ID:20161009091241 L   I
 OLDACT:UP  16-10-09 14:24 OP:dnl  STATUS:               ID:20161009090742     3
 OLDACT:UP  16-10-09 14:24 OP:dnl  STATUS:               ID:20161009090742     3
 OLDACT:REG 16-10-09 12:58 OP:dani STATUS:               ID:20161009090742     3
 2016-10-09-0908-00M.COL___354                                                 6
 STAT SP IPHASW D HRMM SECON CODA AMPLIT PERI AZIMU VELO AIN AR TRES W  DIS CAZ7
 BAR2 EZ EP        912 57.91                             157    0.1310 42.4  89 
 BAR2 EZ ES        913 10.55                             157    0.3910 42.4  89 
 BAR2 EZ I         913 11.70        41.4 0.40            159           42.4  89 
 RUS  HZ EP        913  1.19                             136   -0.3910 93.3 145 
 RUS  HE ES        913 17.13                             136    0.2110 93.3 145 
 RUS  HZ I         913 18.16         2.6 0.48            140           93.3 145 
 PTB  HZ EP        913  0.87                             134   -0.5110 98.6 267 
 PTB  HN ES        913 15.81                             134   -0.7610 98.6 267 
 PTB  HZ I         913 17.20         8.8 0.22            132           98.6 267 
 SPBC HZ EP        913  3.03                             129   -0.1610  117 209 
 SPBC HE ES        913 19.75                             129   -0.0410  117 209 
 SPBC HZ I         913 23.45        10.2 0.22            130            117 209 
 PAM  EZ EP   2    913  4.30                             127   -0.35 5  127  49 
 PAM  EE ES        913 22.28                             127   -0.1210  127  49 
 PAM  EZ I         913 26.64         3.5 0.34            126            127  49 
 ZAR  HZ EP   4    913 10.22                             117    1.26 0  175 305 
 ZAR  HE ES   4    913 32.48                             117    2.41 0  175 305 
 ZAR  HZ I         913 36.26         6.1 0.32            115            175 305 
 NOR  HZ EP   4    913 11.63                             116    1.67 0  183 232 
 NOR  HN ES        913 32.33                             116    0.48 9  183 232 
 NOR  HZ I         913 35.26         4.9 0.16            116            183 232 
 OCA  HZ EP   2    913 11.17                             115    0.88 4  185   8 
 OCA  HN ES        913 32.65                             115    0.22 9  185   8 
 OCA  HZ I         913 38.98         9.2 0.26            114            185   8 
 HEL  HZ EP   4    913 16.32                             111    1.66 0  222 259 
 HEL  HN ES        913 41.10                             111    0.89 8  222 259 
 HEL  HZ I         913 46.37         2.2 0.20            110            222 259 
                                                                                
