 2012  1 9 0301  6.8 L   6.796 -73.207146.3  RSN  5 0.2 1.3LRSN                1
 GAP=169        0.38       3.6     3.5  4.5  0.3200E+01  0.1804E+01  0.4268E+00E
 Epicentro: ZAPATOCA - SANTANDER                                               3
 ACTION:UP  12-02-03 08:15 OP:REBC STATUS:               ID:20120109030106 L   I
 2012-01-09-0300-00M.COL___186                                                 6
 STAT SP IPHASW D HRMM SECON CODA AMPLIT PERI AZIMU VELO SNR AR TRES W  DIS CAZ7
 BAR2 SZ EP   2    3 1 26.23                             171    -0.2 5   23 173 
 BAR2 SZ ES   2    3 1 41.52                             171    -0.3 5   23 173 
 BAR2 SZ I         3 1 43.81         4.9 0.36                            23 173 
 GIR2 SZ EP   1    3 1 26.37                             167    -0.1 7   31   3 
 GIR2 SZ ES   2    3 1 41.95                             167     0.0 5   31   3 
 BRR  HZ EP   2    3 1 27.83                             155     0.2 5   66 302 
 BRR  HN ES   2    3 1 44.30                             155     0.3 5   66 302 
 RUS  HZ EP   1    3 1 30.82                             144     0.2 7  101 172 
 RUS  HE ES   1    3 1 49.20                             144     0.0 7  101 172 
 RUS  HZ I         3 1 49.65         2.9 0.41                           101 172 
 PTB  HZ EP   1    3 1 33.10                             133    -0.1 7  141 258 
 PTB  HN ES   1    3 1 53.70                             133    -0.1 7  141 258 
                                                                                
