 2016  8 9 0448 30.6 L   6.813 -73.104145.7  RSN  5 0.5 1.2LRSN                1
 GAP=243        0.98       6.6     8.4  9.4  0.7888E+01 -0.1121E+02  0.1014E+02E
 Epicentro: LOS SANTOS - SANTANDER                                             3
 ACTION:UPD 16-10-29 15:34 OP:rebc STATUS:               ID:20160809044830 L   I
 OLDACT:REG 16-08-09 13:02 OP:dnl  STATUS:               ID:20160809043759     3
 2016-08-09-0437-59S.COL___343                                                 6
 STAT SP IPHASW D HRMM SECON CODA AMPLIT PERI AZIMU VELO AIN AR TRES W  DIS CAZ7
 BAR2 EZ EP   2    448 49.81                             170   -0.51 5 25.9 199 
 BAR2 EZ ES        449  4.97                             170   -0.7010 25.9 199 
 BAR2 EZ I         449  7.64         2.6 0.18                          25.9 199 
 BRR  HZ EP   2    448 51.94                             151   -0.05 5 74.6 296 
 BRR  HN ES        449  9.08                             151    0.4510 74.6 296 
 BRR  HZ I         449 12.97         2.3 0.28                          74.6 296 
 RUS  HZ EP   2    448 54.85                             143    0.37 5  102 179 
 RUS  HN ES        449 13.63                             143    0.5610  102 179 
 RUS  HZ I         449 14.62         1.8 0.36                           102 179 
 PTB  HZ EP   9    448 56.55                             131   -1.50 0  153 259 
 PTB  HN ES        449 17.78                                   -0.14 9  153 259 
 PTB  HZ I         449 21.36         2.0 0.14                           153 259 
 SPBC HZ EP   2    448 59.32                             128   -0.20 5  167 220 
 SPBC HN ES        449 21.78                             128   -0.27 9  167 220 
 SPBC HZ I         449 28.55         2.8 0.20                           167 220 
                                                                                
