 2012  4 9 0505 33.6 L   6.711 -73.183150.2  RSN  5 0.3 1.3LRSN                1
 GAP=226        0.63       7.6     8.8  7.7  0.4393E+02  0.2419E+02  0.7553E+01E
 Epicentro: VILLANUEVA - SANTANDER                                             3
 ACTION:UPD 12-07-05 11:52 OP:tino STATUS:               ID:20120409050533 L   I
 2012-04-09-0500-00M.COL___196                                                 6
 STAT SP IPHASW D HRMM SECON CODA AMPLIT PERI AZIMU VELO AIN AR TRES W  DIS CAZ7
 BAR2 SZ ES   1    5 6  8.70                             175    -0.5 7   13 179 
 BRR  HZ EP   1    5 5 55.32                             153     0.0 7   73 307 
 BRR  HZ I         5 5 55.67         4.5 0.18                            73 307 
 BRR  HE ES   1    5 6 12.58                             153     0.3 7   73 307 
 RUS  HZ EP   2    5 5 57.33                             147     0.2 5   91 173 
 RUS  HN ES   1    5 6 15.80                             147     0.3 7   91 173 
 PTB  HZ EP   1    5 6  0.10                             134    -0.3 7  142 262 
 PTB  HN ES   2    5 6 21.16                             134    -0.2 5  142 262 
 PTB  HZ I         5 6 22.09         2.4 0.69                           142 262 
 ZAR  HE ES   2    5 6 32.15                             123     0.3 4  204 295 
                                                                                
