 2015 11 9 0345 43.3 L   6.801 -73.097148.5  RSN 15 0.5 2.6LRSN                1
 GAP=123        1.02       2.7     4.5  5.1  0.9765E-01  0.5278E+01  0.2228E+01E
 Epicentro: LOS SANTOS - SANTANDER                                             3
 ACTION:UPD 15-12-28 16:09 OP:cam  STATUS:               ID:20151109034543 L   I
 OLDACT:DUP 15-11-19 06:50 OP:CARA STATUS:               ID:20151109034543 L   3
 OLDACT:REG 15-11-09 13:13 OP:dnl  STATUS:               ID:20151109033748     3
 2015-11-09-0337-48M.COL___316                                                 6
 STAT SP IPHASW D HRMM SECON CODA AMPLIT PERI AZIMU VELO AIN AR TRES W  DIS CAZ7
 BAR2 EZ EP     C  346  3.23                             170   -0.0210 24.9 202 
 BAR2 EZ ES        346 18.36                             170   -0.4810 24.9 202 
 BAR2 EZ I         346 19.70        96.0 0.12            165           24.9 202 
 PAM  EZ EP        346  6.07                             152    0.5010 74.0  36 
 PAM  EN ES        346 23.30                             152    0.3310 74.0  36 
 BRR  HZ EP     D  346  5.10                             151    0.1310 75.9 297 
 BRR  HN ES        346 22.18                             151    0.2710 75.9 297 
 RUS  HZ EP        346  7.29                             144    0.0210  100 179 
 RUS  HN ES        346 25.97                             144   -0.0310  100 179 
 RUS  HZ I         346 27.15        42.0 0.25            144            100 179 
 OCA  HZ EP        346 11.49                             130   -0.35 9  161 351 
 OCA  HE ES        346 33.47                             130   -0.66 9  161 351 
 SPBC HZ EP     C  346 12.20                             129   -0.10 9  167 220 
 SPBC HN ES   2    346 34.33                             129   -0.62 5  167 220 
 SPBC HZ I         346 39.39        44.6 0.12            128            167 220 
 ZAR  HZ EP   2    346 15.87                             122   -0.52 4  209 292 
 ZAR  HE ES        346 41.76                             122   -0.48 8  209 292 
 ZAR  HZ I         346 49.78        23.0 0.16            122            209 292 
 NOR  HZ EP        346 19.64                             118    0.01 8  239 235 
 NOR  HN ES        346 48.10                             118    0.11 8  239 235 
 SML  HZ EP        346 19.63                             118   -0.65 8  246 334 
 SML  HN ES        346 50.32                             118    1.17 8  246 334 
 CHI  HZ EP        346 21.39                             117    0.11 8  250 196 
 CHI  HN ES        346 51.29                             117    0.36 8  250 196 
 ROSC BZ EP        346 22.53                             117    0.68 8  256 212 
 ROSC BN ES   4    346 53.45                             117    1.51 0  256 212 
 ROSC BZ I         346 59.06        34.0 0.42            117            256 212 
 HEL  HZ EP        346 24.25                             115    0.06 7  277 256 
 HEL  HN ES   4    346 57.35                             115    1.23 0  277 256 
 HEL  HZ I         347  3.33        19.2 0.27            114            277 256 
 URE  HZ EP   4    346 23.24                             114   -1.78 0  289 291 
 URE  HE ES   4    346 54.70                             114   -2.89 0  289 291 
 URE  HZ I         346 56.29        19.5 0.14            114            289 291 
 VIL  SZ EP   2    346 27.10                             112    0.16 4  305 193 
 VIL  SE ES   4    347  2.78                             112    1.77 0  305 193 
 PTGC HZ EP        346 26.24                             112   -0.79 7  307 160 
 PTGC HN ES   4    346 59.77                             112   -1.41 0  307 160 
 SJC  HZ EP   4 C  346 37.21                             106   -2.04 0  412 326 
 SJC  HN ES   4    347 18.91                             106   -4.01 0  412 326 
                                                                                
