 2012 11 9 0223 53.3 L   6.834 -73.189149.5  RSN  5 0.2 1.6LRSN                1
 GAP=198        0.52       3.8     4.2  5.2  0.5471E+01 -0.3768E+01 -0.8480E+01E
 Epicentro: ZAPATOCA - SANTANDER                                               3
 ACTION:UPD 12-12-05 15:32 OP:}ep  STATUS:               ID:20121109022353 L   I
 2012-11-09-0220-00M.COL___228                                                 6
 STAT SP IPHASW D HRMM SECON CODA AMPLIT PERI AZIMU VELO AIN AR TRES W  DIS CAZ7
 BAR2 SZ EP        224 13.45                             169   -0.0210 26.7 178 
 BRR  HZ EP        224 14.95                             155    0.4010 65.2 298 
 BRR  HN ES        224 31.06                             155   -0.0510 65.2 298 
 BRR  HZ I         224 42.42         6.6 0.50                          65.2 298 
 RUS  HN ES        224 36.70                             143   -0.0810  105 174 
 PTB  HZ EP        224 20.21                             134   -0.03 9  144 257 
 PTB  HN ES        224 41.19                             134   -0.05 9  144 257 
 PTB  HN I         224 42.73         5.2 0.38                           144 257 
 SML  HZ EP        224 29.31                             119   -0.27 8  238 336 
                                                                                
