 2017  2 9 0355 10.8 L   6.658 -73.222142.7  RSN  5 0.4 1.3LRSN                1
 GAP=196        0.98       5.5     7.2  7.3  0.1775E+02  0.1524E+02  0.1492E+02E
 Epicentro: BARICHARA - SANTANDER                                              3
 ACTION:UPD 17-05-24 15:34 OP:jn   STATUS:               ID:20170209035510 L   I
 OLDACT:UP  17-02-09 17:34 OP:edw  STATUS:               ID:20170209034746d    3
 OLDACT:DUP 17-02-09 17:33 OP:edw  STATUS:               ID:20170209034746d    3
 OLDACT:UP  17-02-09 17:32 OP:edw  STATUS:               ID:20170209034745     3
 OLDACT:REG 17-02-09 13:07 OP:edw  STATUS:               ID:20170209034745     3
 2017-02-09-0348-00M.COL___364                                                 6
 STAT SP IPHASW D HRMM SECON CODA AMPLIT PERI AZIMU VELO AIN AR TRES W  DIS CAZ7
 BAR2 EZ ES        355 44.24                             176   -0.4510 8.44 149 
 BAR2 EZ I         355 45.43         5.1 0.07            172           8.44 149 
 BRR  HZ EP        355 31.60                             151   -0.1310 73.5 313 
 BRR  HN ES        355 48.57                             151    0.4910 73.5 313 
 RUS  HZ EP        355 33.21                             147   -0.0010 86.0 170 
 RUS  HN ES        355 50.96                             147    0.2510 86.0 170 
 RUS  HZ I         355 52.48         4.0 0.34            145           86.0 170 
 PTB  HZ EP        355 36.00                             134   -0.54 9  137 265 
 PTB  HN ES        355 56.70                             134    0.06 9  137 265 
 PTB  HZ I         355 57.72         3.4 0.14            133            137 265 
 CHI  HZ EP        355 47.14                             118    0.72 8  231 194 
 CHI  HE ES        356 13.92                             118   -0.31 8  231 194 
 CHI  HZ I         356 20.76         1.0 0.50            118            231 194 
                                                                                
