 2016  7 9 0144  9.1 L   6.877 -73.046143.7  RSN  5 0.2 1.3LRSN                1
 GAP=253        0.54       3.4     3.7  4.0  0.3210E+01  0.9437E+00  0.7045E+00E
 Epicentro: PIEDECUESTA - SANTANDER                                            3
 ACTION:UPD 17-03-29 16:48 OP:lp   STATUS:               ID:20160709014409 L   I
 OLDACT:DUP 16-07-09 15:22 OP:edw  STATUS:               ID:20160709013747d    3
 2016-07-09-0137-46M.COL___337                                                 6
 STAT SP IPHASW D HRMM SECON CODA AMPLIT PERI AZIMU VELO AIN AR TRES W  DIS CAZ7
 BAR2 EZ EP        144 28.38                             166   -0.4010 34.9 206 
 BAR2 EZ ES        144 44.08                             166   -0.0510 34.9 206 
 BAR2 EZ I         144 47.28         4.3 0.14            162           34.9 206 
 BRR  HZ EP        144 30.58                             150    0.1610 77.8 289 
 BRR  HE ES        144 47.18                             150    0.1310 77.8 289 
 RUS  HZ EP        144 33.62                             141    0.3410  109 182 
 RUS  HE ES        144 52.12                             141   -0.0210  109 182 
 RUS  HZ I         144 54.72         2.5 0.38            141            109 182 
 PTB  HZ EP        144 37.03                             129   -0.05 9  160 257 
 PTB  HN ES        144 58.78                             129   -0.11 9  160 257 
 PTB  HZ I         145  3.18         2.0 0.18            129            160 257 
 SPBC HZ EP        144 38.65                             126   -0.12 9  177 220 
 SPBC HE ES        145  1.98                             126    0.08 9  177 220 
 SPBC HZ I         145  5.43         2.6 0.24            126            177 220 
                                                                                
