 2017  9 9 0355 14.7 L   6.806 -73.105149.6  RSN 15 0.4 2.0LRSN                1
 GAP=116        0.76       2.6     2.8  4.3 -0.8599E+00  0.4133E+01  0.2220E+01E
 Epicentro: LOS SANTOS - SANTANDER                                             3
 ACTION:UPD 17-10-05 19:10 OP:rebc STATUS:               ID:20170909035514 L   I
 OLDACT:UP  17-09-09 14:56 OP:dnl  STATUS:               ID:20170909034736d    3
 OLDACT:DUP 17-09-09 14:49 OP:dnl  STATUS:               ID:20170909034736d    3
 2017-09-09-0348-00M.COL___407                                                 6
 STAT SP IPHASW D HRMM SECON CODA AMPLIT PERI AZIMU VELO AIN AR TRES W  DIS CAZ7
 BAR2 EZ EP        355 34.84                             170    0.0310 25.1 200 
 BAR2 EZ ES        355 49.86                             170   -0.6510 25.1 200 
 BAR2 EZ I         355 52.47        33.9 0.28            168           25.1 200 
 PAM  EZ EP        355 37.74                             152    0.6310 74.1  37 
 PAM  EN ES        355 54.50                             152   -0.1110 74.1  37 
 PAM  EZ I         355 59.45         9.0 0.40            156           74.1  37 
 BRR  HZ EP        355 36.73                             152    0.2810 74.9 296 
 BRR  HE ES        355 53.78                             152    0.3510 74.9 296 
 BRR  HZ I         355 57.70        19.0 0.16            150           74.9 296 
 RUS  HZ EP        355 38.71                             144   -0.1310  101 179 
 RUS  HE ES        355 57.66                             144   -0.0310  101 179 
 RUS  HZ I         355 58.36        11.1 0.20            145            101 179 
 SPBC HZ EP        355 43.78                             129   -0.01 9  167 220 
 SPBC HN ES        356  6.73                             129    0.23 9  167 220 
 SPBC HZ I         356 10.22        19.3 0.20            129            167 220 
 YPLC HZ EP   2    355 45.29                             128    0.68 4  175 153 
 YPLC HN ES        356  7.88                             128   -0.07 9  175 153 
 YPLC HZ I         356 12.47        12.7 0.34            129            175 153 
 NOR  HZ EP        355 51.03                             119   -0.04 8  239 235 
 NOR  HN ES        356 19.48                             119    0.03 8  239 235 
 NOR  HZ I         356 24.44        11.8 0.36            119            239 235 
 CHI  HZ EP   2    355 52.79                             118   -0.00 4  250 196 
 CHI  HN ES        356 22.30                             118   -0.22 8  250 196 
 CHI  HZ I         356 27.84         4.4 0.42            118            250 196 
 ROSC BZ EP   2    355 53.89                             117    0.56 4  256 212 
 ROSC BN ES   4    356 21.85                             117   -1.62 0  256 212 
 ROSC BZ I         356 32.44        14.7 0.35            117            256 212 
 HEL  HZ EP   2    355 55.78                             115    0.19 4  277 256 
 HEL  HE ES        356 27.63                             115    0.13 7  277 256 
 HEL  HZ I         356 33.72         6.0 0.24            115            277 256 
 GUY2CHZ EP   4    356  0.04                             113    1.11 0  305 235 
 GUY2CHN ES        356 33.46                             113    0.02 7  305 235 
 GUY2CHZ I         356 41.38         9.2 0.38                           305 235 
 PTGC HZ EP   2    355 58.44                             112   -0.16 4  308 159 
 PTGC HN ES   4    356 30.71                             112   -2.14 0  308 159 
 PTGC HZ I         356 33.63         3.8 0.34            113            308 159 
 CBOC HZ EP   2    356  2.17                             110   -0.10 3  338 252 
 CBOC HN ES        356 38.93                             110   -0.46 7  338 252 
 CBOC HZ I         356 52.63         2.6 0.44            110            338 252 
 PRA  HZ EP   2    356  8.37                             107   -0.30 3  395 210 
 PRA  HE ES        356 50.79                             107    0.02 6  395 210 
 PRA  HZ I         356 57.29         5.6 0.26            107            395 210 
 SJC  HZ EP        356  9.23                             106   -1.37 6  411 326 
 SJC  HN ES   4    356 49.79                             106   -4.42 0  411 326 
 SJC  HZ I         356 58.25         1.5 0.50            107            411 326 
                                                                                
