 2016  1 9 0511 18.8 L   6.765 -73.155148.3  RSN  7 0.4 1.5LRSN                1
 GAP=137        1.14       4.1     5.5  7.1 -0.3083E+01  0.7912E+01 -0.4019E+01E
 Epicentro: LOS SANTOS - SANTANDER                                             3
 ACTION:UPD 16-03-09 23:23 OP:cam  STATUS:               ID:20160109051118 L   I
 OLDACT:REG 16-01-09 12:57 OP:drio STATUS:               ID:20160109050739     3
 2016-01-09-0507-39M.COL___268                                                 6
 STAT SP IPHASW D HRMM SECON CODA AMPLIT PERI AZIMU VELO AIN AR TRES W  DIS CAZ7
 BAR2 EZ EP        511 38.75                             172    0.1110 19.3 189 
 BAR2 EZ ES        511 53.98                             172   -0.1510 19.3 189 
 BAR2 EZ I         511 55.18         7.6 0.20            173           19.3 189 
 BRR  HZ EP        511 40.84                             152    0.5810 72.2 302 
 BRR  HE ES        511 57.89                             152    0.8810 72.2 302 
 BRR  HZ I         511 58.65         7.2 0.16            151           72.2 302 
 PAM  EZ EP        511 41.89                             150    0.4010 81.1  38 
 PAM  EE ES        511 58.68                             150   -0.5210 81.1  38 
 PAM  EZ I         512  1.39         4.9 0.58            151           81.1  38 
 RUS  HZ EP        511 42.41                             145   -0.1010 96.8 175 
 RUS  HN ES        512  0.85                             145   -0.1710 96.8 175 
 RUS  HZ I         512  2.35         3.4 0.28            148           96.8 175 
 PTB  HZ EP        511 46.15                             133    0.35 9  146 260 
 PTB  HN ES        512  6.19                             133   -0.68 9  146 260 
 PTB  HZ I         512 10.52         4.2 0.14            133            146 260 
 SPBC HZ EP        511 46.93                             130   -0.20 9  159 220 
 SPBC HN ES        512  9.20                             130   -0.04 9  159 220 
 SPBC HZ I         512 11.62         3.6 0.36            131            159 220 
 SML  HZ EP        511 55.70                             117   -0.19 8  247 336 
 SML  HE ES        512 24.14                             117   -0.69 8  247 336 
 SML  HZ I         512 31.58         4.4 0.10            118            247 336 
                                                                                
