 2016 10 9 0553 57.3 L   6.893 -73.320122.7  RSN 18 0.5 2.3LRSN                1
 GAP= 52        1.02       2.8     2.8  5.9 -0.1777E+01  0.5299E+01 -0.3866E+01E
 Epicentro: BETULIA - SANTANDER                                                3
 ACTION:UPD 16-11-09 19:17 OP:rebc STATUS:               ID:20161009055357 L   I
 OLDACT:UP  16-10-09 17:13 OP:dnl  STATUS:               ID:20161009054744     3
 OLDACT:UP  16-10-09 17:13 OP:dnl  STATUS:               ID:20161009054744     3
 OLDACT:REG 16-10-09 12:48 OP:dani STATUS:               ID:20161009054744     3
 2016-10-09-0548-00M.COL___354                                                 6
 STAT SP IPHASW D HRMM SECON CODA AMPLIT PERI AZIMU VELO AIN AR TRES W  DIS CAZ7
 BAR2 EZ EP     D  554 14.88                             163    0.2710 36.6 155 
 BAR2 EZ ES        554 28.30                             163    0.2210 36.6 155 
 BAR2 EZ I         554 29.25       114.4 0.36            163           36.6 155 
 PAM  EZ EP        554 18.12                             143    0.4610 84.5  54 
 PAM  EN ES        554 33.90                             143    0.3910 84.5  54 
 PAM  EZ I         554 36.67        61.6 0.26            145           84.5  54 
 RUS  HZ EP        554 19.80                             135   -0.2010  114 167 
 RUS  HN ES        554 37.41                             135   -0.2710  114 167 
 RUS  HZ I         554 40.19        16.0 0.30            134            114 167 
 PTB  HZ EP        554 20.29                             130   -0.6810  132 253 
 PTB  HE ES        554 38.83                             130   -0.5710  132 253 
 PTB  HZ I         554 42.39        56.8 0.22            128            132 253 
 OCA  HZ EP        554 22.93                             126    0.11 9  149   0 
 OCA  HN ES        554 42.70                             126    0.00 9  149   0 
 SPBC HZ EP        554 23.95                             124    0.05 9  160 211 
 SPBC HN ES        554 44.55                             124   -0.07 9  160 211 
 SPBC HZ I         554 46.17        52.9 0.10            123            160 211 
 TAM  HZ EP        554 25.72                             121    0.23 9  176 107 
 TAM  HN ES        554 46.63                             121   -0.82 9  176 107 
 TAM  HZ I         554 46.76        23.5 0.18            122            176 107 
 ZAR  HZ EP        554 26.94                             120    0.88 9  182 291 
 ZAR  HE ES   4    554 49.97                             120    1.51 0  182 291 
 ZAR  HZ I         554 54.39        35.6 0.32            119            182 291 
 NOR  HZ EP   2    554 30.89                             114    0.04 4  226 229 
 NOR  HE ES        554 57.00                             114    0.01 8  226 229 
 NOR  HZ I         555  2.40        16.9 0.14            113            226 229 
 ROSC BZ EP   9    554 37.08                             111    2.79 0  253 206 
 ROSC BN ES        555  5.98                             111    0.08 8  253 206 
 ROSC BZ I         555 11.14         6.9 0.50            111            253 206 
 CHI  HZ EP   2    554 34.27                             111   -0.25 4  254 190 
 CHI  HN ES   4    555  1.69                             111   -1.84 0  254 190 
 CHI  HZ I         555  9.64         6.7 0.38            111            254 190 
 HEL  HZ EP   2    554 35.76                             111    1.08 4  256 252 
 HEL  HN ES        555  4.31                             111    0.50 8  256 252 
 HEL  HZ I         555  9.39        13.3 0.56            110            256 252 
 URE  HZ EP   2    554 34.18                             110   -0.71 4  262 291 
 URE  HN ES        555  3.45                             110   -0.74 8  262 291 
 URE  HZ I         555  5.21        21.8 0.38            110            262 291 
 GUY2CHZ EP   2    554 39.85                             108    0.93 4  292 231 
 GUY2CHE ES   4    555 12.79                             108    1.43 0  292 231 
 GUY2CHZ I         555 18.92        12.0 0.28                           292 231 
 CBOC HZ EP   2    554 42.85                             106    1.19 3  319 249 
 CBOC HN ES   4    555 15.05                             106   -1.18 0  319 249 
 CBOC HZ I         555 19.04         3.6 0.18            106            319 249 
 SJC  HZ EP   2    554 49.16                             102   -0.81 3  390 328 
 SJC  HN ES   4    555 28.25                             102   -2.77 0  390 328 
 SJC  HZ I         555 35.27         3.4 0.42            102            390 328 
 CRJC HZ EP        554 58.60                             100    0.36 5  459   6 
 CRJC HN ES        555 44.79                             100   -0.95 5  459   6 
 CRJC HZ I         555 52.53         8.5 0.56            100            459   6 
 URI  HZ EP   4    555  7.21                              97   -2.06 0  551  15 
 URI  HN ES   4    556  1.45                              97   -3.93 0  551  15 
 URI  HZ I         556 13.25         1.2 0.50             97            551  15 
                                                                                
