 2014 10 9 0552 18.8 L   6.764 -73.157140.5  RSN  8 0.4 1.6LRSN                1
 GAP=137        0.95       3.5     4.5  7.0 -0.2356E+01  0.1080E+02  0.1234E+01E
 Epicentro: LOS SANTOS - SANTANDER                                             3
 ACTION:UPD 14-11-29 23:48 OP:nd   STATUS:               ID:20141009055218 L   I
 OLDACT:REG 14-10-09 13:33 OP:fm   STATUS:               ID:20141009054744     3
 2014-10-09-0547-44M.COL___238                                                 6
 STAT SP IPHASW D HRMM SECON CODA AMPLIT PERI AZIMU VELO AIN AR TRES W  DIS CAZ7
 BAR2 SZ EP        552 37.99                             172    0.2610 19.2 189 
 BAR2 SZ ES   1    552 52.59                             172    0.10 7 19.2 189 
 BAR2 SZ I         552 53.85        20.3 0.16            170           19.2 189 
 BRR  HZ EP        552 40.05                             151    0.6010 72.2 302 
 BRR  HN ES        552 56.01                             151    0.4610 72.2 302 
 BRR  HZ I         553  1.79        10.0 0.22            149           72.2 302 
 PAM  SZ EP        552 40.81                             148    0.1010 81.2  38 
 PAM  SN ES        552 57.43                             148   -0.3610 81.2  38 
 PAM  SZ I         552 59.90         4.5 0.54            154           81.2  38 
 RUS  HZ EP   1    552 42.21                             144    0.44 7 96.7 175 
 RUS  HN ES        552 59.55                             144   -0.1210 96.7 175 
 RUS  HZ I         553  1.34         4.3 0.36            148           96.7 175 
 SPBC HZ EP   1    552 45.97                             128   -0.58 7  159 220 
 SPBC HN ES        553  7.58                             128   -0.59 9  159 220 
 SPBC HZ I         553 16.28         4.9 0.20            131            159 220 
 OCA  HN ES   1    553  8.45                             128   -0.69 7  164 354 
 OCA  HZ I         553 12.43         6.0 0.54            130            164 354 
 ZAR  HZ EP   1    552 50.95                             121   -0.02 6  204 293 
 ZAR  HN ES        553 15.67                             121   -0.37 9  204 293 
 ZAR  HZ I         553 22.85         6.3 0.28            122            204 293 
 GUY2CHZ EP   1    553  1.46                             111   -0.35 5  298 235 
 GUY2CHN ES        553 35.79                             111    0.44 7  298 235 
 GUY2CHZ I         553 43.24         1.7 0.30                           298 235 
                                                                                
