 2017  2 9 0356 50.1 L   6.726 -73.186140.4  RSN  5 0.4 1.4LRSN                1
 GAP=227        0.94       7.0     6.5  7.6  0.2831E+02  0.9021E+01  0.1584E+01E
 Epicentro: VILLANUEVA - SANTANDER                                             3
 ACTION:UPD 17-05-24 15:34 OP:jn   STATUS:               ID:20170209035650 L   I
 OLDACT:UP  17-02-09 17:32 OP:edw  STATUS:               ID:20170209034745     3
 OLDACT:REG 17-02-09 13:07 OP:edw  STATUS:               ID:20170209034745     3
 2017-02-09-0348-00M.COL___364                                                 6
 STAT SP IPHASW D HRMM SECON CODA AMPLIT PERI AZIMU VELO AIN AR TRES W  DIS CAZ7
 BAR2 EZ EP        357  8.09                             174   -0.8110 14.8 178 
 BAR2 EZ ES        357 23.69                             174    0.1010 14.8 178 
 BAR2 EZ I         357 24.65         6.8 0.24            171           14.8 178 
 BRR  HZ EP        357 10.80                             151    0.1410 71.8 306 
 BRR  HE ES        357 26.91                             151    0.1710 71.8 306 
 RUS  HZ EP        357 13.33                             145    0.6010 92.9 173 
 RUS  HN ES        357 30.33                             145   -0.0810 92.9 173 
 RUS  HZ I         357 31.86         4.0 0.24            144           92.9 173 
 PTB  HZ EP        357 16.02                             132   -0.04 9  142 262 
 PTB  HN ES        357 36.18                             132   -0.17 9  142 262 
 PTB  HZ I         357 38.74         2.8 0.16            132            142 262 
 ZAR  HE ES        357 47.12                             121    0.08 9  203 295 
                                                                                
