 2013  3 9 0920 30.6 L   6.773 -73.136145.0  RSN  7 0.5 2.2LRSN                1
 GAP=139        1.25       6.4     5.0  8.7 -0.1072E+02  0.4784E+01 -0.7064E+01E
 Epicentro: LOS SANTOS - SANTANDER                                             3
 ACTION:UPD 13-04-09 14:01 OP:ep   STATUS:               ID:20130309092030 L   I
 2013-03-09-0918-54M.COL___195                                                 6
 STAT SP IPHASW D HRMM SECON CODA AMPLIT PERI AZIMU VELO AIN AR TRES W  DIS CAZ7
 BAR2 SZ ES        921  5.15                             172   -0.1310 20.6 195 
 BAR2 SZ I         921  6.21        53.0 0.26            170           20.6 195 
 BRR  HZ IP     C  920 52.21                             151    0.4110 73.6 300 
 BRR  HZ I         920 52.50        19.7 0.24            151           73.6 300 
 BRR  HN ES        921  9.17                             151    0.8310 73.6 300 
 PAM  SZ EP        920 53.22                             150    0.3910 79.0  38 
 PAM  SN ES        921 10.11                             150   -0.0510 79.0  38 
 PAM  SN I         921 11.48        44.5 0.40            152           79.0  38 
 RUS  HZ EP   1    920 54.16                             145    0.11 7 97.5 177 
 RUS  HN ES   1    921 12.48                             145    0.14 7 97.5 177 
 RUS  HN I         921 13.66        17.5 0.24            145           97.5 177 
 PTB  HZ EP        920 57.24                             132   -0.31 9  148 260 
 PTB  HN ES        921 17.63                             132   -0.94 9  148 260 
 PTB  HN I         921 23.63        28.0 0.46            132            148 260 
 CAPV BZ EP        920 58.27                             131    0.19 9  151  37 
 CAPV BZ ES        921 18.65                             131   -0.87 9  151  37 
 ZAR  HE ES        921 28.76                             122    0.10 8  206 293 
                                                                                
