 2017  8 9 0719 57.1 L   6.315 -73.567109.8  RSN  4 0.1 1.1LRSN                1
 GAP=132        0.42       1.7     2.5  3.9 -0.5071E+00  0.2986E+01  0.1376E-01E
 Epicentro: SANTA HELENA DEL OPON - SANTANDER                                  3
 ACTION:UPD 17-09-04 20:18 OP:rebc STATUS:               ID:20170809071957 L   I
 OLDACT:UP  17-08-09 18:24 OP:nlst STATUS:               ID:20170809071957 L   3
 OLDACT:REG 17-08-09 12:40 OP:dhb  STATUS:               ID:20170809071743     3
 2017-08-09-0718-00M.COL___390                                                 6
 STAT SP IPHASW D HRMM SECON CODA AMPLIT PERI AZIMU VELO AIN AR TRES W  DIS CAZ7
 BAR2 EZ IP     D  720 13.79                             153    0.1710 52.4  54 
 BAR2 EZ ES        720 26.57                             153    0.0410 52.4  54 
 BAR2 EZ I         720 28.42         5.2 0.38            157           52.4  54 
 RUS  HZ EP        720 15.28                             145    0.1210 71.1 131 
 RUS  HN ES        720 29.09                             145   -0.1810 71.1 131 
 RUS  HZ I         720 30.62         2.4 0.20            148           71.1 131 
 BRR  HZ EP        720 15.74                             138   -0.0910 89.0 350 
 BRR  HN ES        720 30.44                             138   -0.0310 89.0 350 
 BRR  HZ I         720 31.14         2.1 0.21            142           89.0 350 
 SPBC HZ EP        720 16.06                             137   -0.1610 92.2 217 
 SPBC HN ES        720 31.30                             137    0.1310 92.2 217 
 SPBC HZ I         720 33.95         3.0 0.10            139           92.2 217 
                                                                                
