 2013  2 9 0534 49.3 L   6.416 -73.665102.4  RSN 10 0.4 1.8LRSN                1
 GAP= 81        0.75       2.7     2.9  5.9  0.1009E+01  0.5331E+01  0.8178E+00E
 Epicentro: SANTA HELENA DEL OPON - SANTANDER                                  3
 ACTION:UPD 13-03-12 09:31 OP:ep   STATUS:               ID:20130209053449 L   I
 2013-02-09-0530-00M.COL___240                                                 6
 STAT SP IPHASW D HRMM SECON CODA AMPLIT PERI AZIMU VELO AIN AR TRES W  DIS CAZ7
 BAR2 SZ EP        535  5.43                             149    0.1210 56.8  70 
 BAR2 SZ ES   1    535 17.91                             149    0.10 7 56.8  70 
 BAR2 SZ I         535 19.78        54.5 0.30            139           56.8  70 
 BRR  HZ EP        535  6.28                             140   -0.0910 76.6 356 
 BRR  HN ES   1    535 20.05                             140    0.35 7 76.6 356 
 BRR  HN I         535 25.31        21.0 0.14            132           76.6 356 
 RUS  HZ EP   1    535  7.74                             137   -0.13 7 86.6 132 
 RUS  HE ES   1    535 22.48                             137    0.11 7 86.6 132 
 RUS  HE I         535 24.81        24.5 0.78            129           86.6 132 
 PTB  HZ EP        535  6.80                             136   -0.5810 88.5 279 
 PTB  HN ES   1    535 20.92                             136   -0.57 7 88.5 279 
 PTB  HZ I         535 23.86        17.4 0.10            131           88.5 279 
 PAM  SZ EP   1    535 13.43                             120   -0.31 7  148  46 
 PAM  SZ I         535 33.70         4.7 0.15            113            148  46 
 ZAR  HZ EP        535 16.46                             114    0.11 9  178 312 
 ZAR  HN ES   1    535 38.30                             114    0.83 7  178 312 
 ZAR  HZ I         535 41.00        12.3 0.35            110            178 312 
 CHI  HZ EP   1    535 19.17                             112    0.04 6  198 182 
 CHI  HN ES   1    535 42.81                             112    0.40 6  198 182 
 CHI  HZ I         535 49.26         2.8 0.41            108            198 182 
 OCA  HN ES   1    535 43.21                             111   -0.12 6  205  11 
 OCA  HZ I         535 46.26         6.9 0.66            106            205  11 
 HEL  HZ EP   1    535 20.84                             111    0.63 6  208 263 
 HEL  HN ES   1    535 44.23                             111   -0.10 6  208 263 
 HEL  HZ I         535 51.60         3.1 0.22            107            208 263 
 SML  HZ EP   1    535 26.60                             104   -0.10 6  268 350 
                                                                                
