 2015  7 9 0117 20.7 L   6.790 -73.174148.0  RSN  5 0.2 1.6LRSN                1
 GAP=133        0.45       2.4     2.8  4.5  0.1049E+01  0.4170E+01 -0.2157E+01E
 Epicentro: LOS SANTOS - SANTANDER                                             3
 ACTION:UPD 15-09-08 21:47 OP:cam  STATUS:               ID:20150709011720 L   I
 OLDACT:REG 15-07-09 12:52 OP:spq  STATUS:               ID:20150709010750     3
 2015-07-09-0107-50M.COL___346                                                 6
 STAT SP IPHASW D HRMM SECON CODA AMPLIT PERI AZIMU VELO AIN AR TRES W  DIS CAZ7
 BAR2 EZ EP        117 40.46                             171   -0.1210 21.9 182 
 BAR2 EZ ES   1    117 56.42                             171    0.34 7 21.9 182 
 BAR2 EZ I         117 58.85         5.6 0.28            172           21.9 182 
 PAM  EZ EP        117 43.40                             150    0.0710 80.2  41 
 PAM  EE ES        118  0.78                             150   -0.1910 80.2  41 
 PAM  EZ I         118  2.76         9.6 0.60            154           80.2  41 
 RUS  HZ EP   1    117 44.61                             144   -0.01 7 99.8 174 
 RUS  HN ES   1    118  3.31                             144    0.04 7 99.8 174 
 RUS  HZ I         118  4.56         2.8 0.50            148           99.8 174 
 ZAR  HE ES        118 18.09                             123   -0.18 9  202 293 
 ZAR  HZ I         118 22.08         4.4 0.22            125            202 293 
 SML  HZ EP   1    117 57.59                             118    0.16 6  243 336 
 SML  HN ES   1    118 26.36                             118    0.29 6  243 336 
 SML  HZ I         118 28.54         5.1 0.10            120            243 336 
                                                                                
