 2014 10 9 0809 17.4 L   6.753 -73.130145.3  RSN 14 0.5 1.8LRSN                1
 GAP=141        1.22       3.8     5.3  7.2 -0.1139E+01  0.6129E+01  0.2901E+01E
 Epicentro: LOS SANTOS - SANTANDER                                             3
 ACTION:UPD 14-11-29 23:48 OP:nd   STATUS:               ID:20141009080917 L   I
 OLDACT:REG 14-10-09 13:39 OP:fm   STATUS:               ID:20141009080737     3
 2014-10-09-0807-37M.COL___250                                                 6
 STAT SP IPHASW D HRMM SECON CODA AMPLIT PERI AZIMU VELO AIN AR TRES W  DIS CAZ7
 BAR2 SZ ES   1    8 9 51.24                             172   -0.81 7 18.7 198 
 BAR2 SZ I         8 9 53.95        42.8 0.26            171           18.7 198 
 BRR  HZ EP        8 9 39.04                             151    0.3410 75.3 301 
 BRR  HN ES        8 9 56.37                             151    1.0410 75.3 301 
 BRR  HZ I         810  0.22        10.0 0.26            148           75.3 301 
 PAM  SZ EP        8 9 39.97                             150    0.2610 80.4  36 
 PAM  SN ES        8 9 57.00                             150   -0.1410 80.4  36 
 PAM  SZ I         8 9 59.50         4.0 0.36            152           80.4  36 
 RUS  HZ EP        8 9 41.01                             145    0.3210 95.3 177 
 RUS  HN ES        8 9 58.51                             145   -0.3810 95.3 177 
 RUS  HZ I         810  0.60         5.1 0.52            146           95.3 177 
 PTB  HZ EP   1    8 9 43.37                             132   -1.00 7  149 261 
 PTB  HN ES        810  4.96                             132   -0.47 9  149 261 
 PTB  HZ I         810  7.87         4.6 0.12            130            149 261 
 SPBC HZ EP        8 9 46.14                             129    0.59 9  160 221 
 SPBC HN ES        810  7.80                             129    0.26 9  160 221 
 SPBC HZ I         810 10.83         8.8 0.42            129            160 221 
 OCA  HN ES   1    810  8.17                             128   -0.42 7  166 353 
 OCA  HZ I         810 14.27         5.9 0.32            129            166 353 
 ZAR  HZ EP   1    8 9 50.81                             122    0.66 6  208 293 
 ZAR  HN ES        810 15.36                             122   -0.37 8  208 293 
 ZAR  HZ I         810 21.84         5.1 0.34            121            208 293 
 CHI  HZ EP        8 9 54.48                             117   -0.06 8  244 196 
 CHI  HN ES        810 23.44                             117   -0.10 8  244 196 
 CHI  HZ I         810 28.33         2.4 0.40            118            244 196 
 SML  HZ EP        8 9 53.86                             117   -0.69 8  249 335 
 SML  HN ES   4    810 21.58                             117   -1.98 0  249 335 
 SML  HZ I         810 29.62         9.3 0.10            117            249 335 
 ROSC BN ES   4    810 22.72                             117   -1.77 0  249 212 
 ROSC BZ I         810 32.75         6.7 0.40            117            249 212 
 GUY2CHZ EP   4    810  2.06                             112    1.28 0  300 236 
 GUY2CHN ES   4    810 36.02                             112    1.38 0  300 236 
 GUY2CHZ I         810 47.10         2.5 0.36                           300 236 
 TOL  SN ES   4    810 45.03                             109    2.30 0  341 225 
 TOL  SZ I         810 49.24         6.5 0.34            110            341 225 
 PRA  HZ EP   1    810 10.02                             107   -0.42 4  388 210 
                                                                                
