 2017  9 9 0609 43.0 L   6.559 -73.522133.7  RSN  6 0.3 1.1LRSN                1
 GAP= 94        0.66       2.7     3.1  6.2  0.2014E-02  0.5124E+01 -0.1832E+01E
 Epicentro: EL CARMEN - SANTANDER                                              3
 ACTION:UPD 17-10-05 19:10 OP:rebc STATUS:               ID:20170909060943 L   I
 OLDACT:UP  17-09-09 16:23 OP:dnl  STATUS:               ID:20170909060736     3
 OLDACT:REG 17-09-09 12:59 OP:dnl  STATUS:               ID:20170909060736     3
 2017-09-09-0608-00M.COL___410                                                 6
 STAT SP IPHASW D HRMM SECON CODA AMPLIT PERI AZIMU VELO AIN AR TRES W  DIS CAZ7
 BAR2 EZ EP        610  1.81                             163    0.2510 37.8  84 
 BAR2 EZ ES        610 15.74                             163   -0.3210 37.8  84 
 BAR2 EZ I         610 16.72        10.4 0.44            168           37.8  84 
 BRR  HZ EP        610  2.70                             153    0.2810 64.2 341 
 BRR  HE ES        610 18.00                             153    0.4110 64.2 341 
 BRR  HZ I         610 19.29         3.5 0.30            152           64.2 341 
 RUS  HZ EP   2    610  4.63                             145   -0.01 5 88.2 147 
 RUS  HN ES        610 21.53                             145   -0.0210 88.2 147 
 RUS  HZ I         610 22.57         1.2 0.28            147           88.2 147 
 SPBC HZ EP   2    610  6.28                             136   -0.06 5  117 211 
 SPBC HN ES        610 24.53                             136   -0.0410  117 211 
 SPBC HZ I         610 29.51         2.5 0.28            135            117 211 
 PAM  EZ EP   2    610  7.32                             134   -0.26 5  125  46 
 PAM  EN ES        610 26.61                             134   -0.1710  125  46 
 PAM  EZ I         610 28.50         1.3 0.24            137            125  46 
 ZAR  HZ EP   4    610 14.37                             123    2.21 0  180 305 
 ZAR  HN ES        610 34.51                             123   -0.42 9  180 305 
 ZAR  HZ I         610 40.99         1.3 0.26            122            180 305 
                                                                                
