 2012  5 9 0243  8.5 L   6.792 -73.201136.0  RSN  7 0.3 1.5LRSN                1
 GAP=130        0.74       5.7     5.6 11.0  0.1718E-01  0.6202E+00  0.2305E+01E
 Epicentro: ZAPATOCA - SANTANDER                                               3
 ACTION:UP  12-07-05 12:03 OP:pat  STATUS:               ID:20120509024308 L   I
 2012-05-09-0240-00M.COL___192                                                 6
 STAT SP IPHASW D HRMM SECON CODA AMPLIT PERI AZIMU VELO SNR AR TRES W  DIS CAZ7
 BAR2 SZ EP        243 26.94                             170     0.010   22 175 
 BAR2 SZ I         243 49.85        10.5 0.50                            22 175 
 BRR  HZ EP        243 28.74                             153     0.510   66 302 
 BRR  HE ES   2    243 44.03                             153     0.3 5   66 302 
 BRR  HZ I         243 49.57        17.8 0.32                            66 302 
 PAM  SZ EP        243 29.63                             148    -0.310   82  42 
 PAM  SE ES   3    243 46.36                             148    -0.3 2   82  42 
 RUS  HZ EP        243 31.41                             142     0.210  100 173 
 RUS  HN ES   2    243 48.83                             142    -0.2 5  100 173 
 RUS  HZ I         243 51.29         2.1 0.38                           100 173 
 PTB  HZ EP        243 33.82                             131    -0.2 9  142 259 
 PTB  HN ES   2    243 53.39                             131    -0.7 5  142 259 
 PTB  HZ I         243 59.94         2.3 0.22                           142 259 
 OCA  HN ES   3    243 57.35                             127    -0.2 2  160 355 
 ZAR  HZ EP   3    243 39.69                             121     0.0 2  199 293 
 ZAR  HZ I         244 10.37         3.7 0.30                           199 293 
                                                                                
