 2011  3 9 0258 40.6 L   6.768 -73.009148.8  RSN  6 0.3 1.7LRSN                1
 GAP=174        0.72       4.8    11.7  8.1 -0.2932E+02  0.4573E+02 -0.1365E+02E
 Epicentro: CEPITA - SANTANDER                                                 3
 ACTION:UP  11-06-16 14:32 OP:jfem STATUS:               ID:20110309025840 L   I
 2011-03-09-0257-07S.COL___135                                                 6
 STAT SP IPHASW D HRMM SECON CODA AMPLIT PERI AZIMU VELO SNR AR TRES W  DIS CAZ7
 BAR2 SZ EP   1    259  0.53                             169    -0.210   27 225 
 BAR2 SZ ES   1    259 16.34                             169    -0.110   27 225 
 BAR2 SZ I         259 19.22        13.4 0.50                            27 225 
 RUS  HZ EP   1    259  4.68                             145     0.210   97 185 
 RUS  HN ES   2    259 22.76                             145    -0.3 7   97 185 
 RUS  HZ I         259 23.88         5.0 0.40                            97 185 
 GRA  SZ EP   1    259  6.36                             138     0.210  126  10 
 GRA  SZ I         259  7.68         9.3 0.32                           126  10 
 GRA  SZ ES   2    259 26.60                             138     0.6 7  126  10 
 OCA  SZ EP   1    259  9.14                             129    -0.6 9  166 348 
 OCA  SZ I         259 37.12        10.0 0.39                           166 348 
 CHI  HN ES   1    259 48.32                             117     0.1 8  250 199 
 CHI  HZ I         259 52.24         2.6 0.27                           250 199 
 HEL  HZ EP        259 22.74                             114     0.210  286 257 
 HEL  HZ I         259 58.77         2.7 0.51                           286 257 
                                                                                
