 2014  6 9 0712  4.5 L   6.245 -73.676107.8  RSN 10 0.6 1.5LRSN                1
 GAP= 98        1.37       4.6     4.7  9.4  0.5257E+00  0.1775E+02 -0.1033E+01E
 Epicentro: SANTA HELENA DEL OPON - SANTANDER                                  3
 ACTION:UPD 14-07-01 22:52 OP:nd   STATUS:               ID:20140609071204 L   I
 OLDACT:REG 14-06-09 13:20 OP:fm   STATUS:               ID:20140609070813     3
 2014-06-09-0708-13M.COL___256                                                 6
 STAT SP IPHASW D HRMM SECON CODA AMPLIT PERI AZIMU VELO AIN AR TRES W  DIS CAZ7
 BAR2 SZ EP        712 22.23                             146    0.4610 66.8  55 
 BAR2 SZ ES        712 35.82                             146    0.6110 66.8  55 
 BAR2 SZ I         712 37.34        10.2 0.34            146           66.8  55 
 RUS  HZ EP        712 22.82                             142    0.0110 76.4 121 
 RUS  HE ES        712 36.35                             142   -0.7210 76.4 121 
 RUS  HZ I         712 38.26         6.0 0.24            143           76.4 121 
 SPBC HZ EP        712 21.85                             141   -0.5910 78.9 214 
 SPBC HN ES        712 37.08                             141    0.6810 78.9 214 
 SPBC HZ I         712 37.76         5.9 0.40            140           78.9 214 
 PTB  HZ IP        712 22.59                             136   -0.8210 92.2 291 
 PTB  HN ES        712 37.57                             136   -0.5710 92.2 291 
 PTB  HZ I         712 38.05         4.9 0.12            134           92.2 291 
 NOR  HN ES        712 48.79                             121    0.33 9  152 240 
 NOR  HZ I         712 49.35         6.3 0.14            119            152 240 
 CHI  HN ES   1    712 54.11                             116   -0.27 7  179 182 
 ZAR  HZ EP        712 33.28                             114    0.03 9  190 317 
 ZAR  HN ES        712 56.15                             114    0.50 9  190 317 
 ZAR  HZ I         713  1.59         6.7 0.18            113            190 317 
 HEL  HZ EP        712 34.96                             113   -0.44 9  205 268 
 HEL  HN ES   4    713  1.37                             113    1.89 0  205 268 
 HEL  HZ I         713  5.52         3.5 0.22            111            205 268 
 GUY2CHZ EP        712 37.76                             111    0.71 8  218 239 
 GUY2CHN ES   4    713  3.81                             111    1.39 0  218 239 
 GUY2CHZ I         713  8.84         2.9 0.44                           218 239 
 PRA  HN ES   1    713 21.32                             103    0.76 5  310 206 
 PRA  HZ I         713 27.14         2.0 0.22            102            310 206 
                                                                                
