 2013  3 9 0703 21.0 L   6.703 -73.175144.1  RSN  4 0.2 1.4LRSN                1
 GAP=227        0.48       5.0     4.0  4.8  0.4248E+01  0.4452E+01 -0.2599E+00E
 Epicentro: VILLANUEVA - SANTANDER                                             3
 ACTION:UPD 13-04-09 14:01 OP:ep   STATUS:               ID:20130309070321 L   I
 2013-03-09-0658-49M.COL___198                                                 6
 STAT SP IPHASW D HRMM SECON CODA AMPLIT PERI AZIMU VELO AIN AR TRES W  DIS CAZ7
 BAR2 SZ EP   1    7 3 40.41                             175    0.17 7 12.3 184 
 BAR2 SZ ES        7 3 55.02                             175   -0.2510 12.3 184 
 BAR2 SZ I         7 3 56.32         8.1 0.10            171           12.3 184 
 BRR  HZ EP        7 3 42.20                             151    0.0710 74.3 307 
 BRR  HN ES        7 3 58.74                             151    0.1110 74.3 307 
 BRR  HN I         7 3 59.80         6.3 0.34            153           74.3 307 
 RUS  HN ES   2    7 4  2.05                             146    0.37 5 90.2 174 
 RUS  HN I         7 4  4.04         3.6 0.18            145           90.2 174 
 PTB  HZ EP   1    7 3 47.09                             133   -0.28 7  143 263 
 PTB  HN ES        7 4  7.99                             133    0.03 9  143 263 
 PTB  HN I         7 4  9.79         3.0 0.32            133            143 263 
                                                                                
