 2012  5 9 0610  2.7 L   7.085 -73.176138.0  RSN  4 0.4 1.3LRSN                1
 GAP=149        0.56      35.6     9.7 10.3 -0.2837E+03 -0.3922E+02  0.2211E+03E
 Epicentro: GIRON - SANTANDER                                                  3
 ACTION:UP  12-07-05 12:03 OP:pat  STATUS:               ID:20120509061002 L   I
 2012-05-09-0610-00M.COL___192                                                 6
 STAT SP IPHASW D HRMM SECON CODA AMPLIT PERI AZIMU VELO SNR AR TRES W  DIS CAZ7
 BAR2 SZ EP   3    610 21.99                             157    -0.5 2   54 181 
 BAR2 SZ I         610 27.58         8.5 0.50                            54 181 
 BRR  HZ EP        610 22.38                             155     0.010   59 272 
 BRR  HE ES   1    610 37.59                             155    -0.1 7   59 272 
 PAM  SZ EP   2    610 22.71                             156    -0.4 5   60  62 
 PAM  SN ES   1    610 39.16                             156     0.2 7   60  62 
 PTB  HZ EP   3    610 30.93                             129     1.3 2  154 247 
 PTB  HZ I         610 58.34         1.3 0.60                           154 247 
                                                                                
