 2016  9 9 0308 34.3 L   6.786 -73.149146.8  RSN  7 0.3 1.5LRSN                1
 GAP=137        0.87       4.4     3.9  6.6 -0.2685E+01  0.4387E+01  0.2556E+01E
 Epicentro: LOS SANTOS - SANTANDER                                             3
 ACTION:UPD 17-08-17 21:08 OP:lp   STATUS:               ID:20160909030834 L   I
 OLDACT:UP  16-09-09 14:44 OP:dani STATUS:               ID:20160909030730     3
 OLDACT:REG 16-09-09 12:29 OP:dani STATUS:               ID:20160909030730     3
 2016-09-09-0308-00M.COL___359                                                 6
 STAT SP IPHASW D HRMM SECON CODA AMPLIT PERI AZIMU VELO AIN AR TRES W  DIS CAZ7
 BAR2 EZ ES        3 9  9.08                             171   -0.3810 21.7 190 
 BRR  HZ EP        3 8 55.68                             153    0.0410 71.6 300 
 BRR  HN ES        3 9 12.83                             153    0.5910 71.6 300 
 BRR  HZ I         3 9 13.42         9.0 0.10            150           71.6 300 
 PAM  EZ EP        3 8 56.74                             150   -0.0210 78.8  39 
 PAM  EE ES        3 9 14.08                             150   -0.1710 78.8  39 
 PAM  EZ I         3 9 16.09        11.5 0.51            152           78.8  39 
 RUS  HZ EP        3 8 58.40                             144    0.3110 99.0 176 
 RUS  HN ES   2    3 9 17.07                             144    0.46 5 99.0 176 
 RUS  HZ I         3 9 17.68         3.1 0.26            146           99.0 176 
 PTB  HZ EP        3 9  0.99                             132   -0.35 9  147 259 
 PTB  HE ES        3 9 21.83                             132   -0.57 9  147 259 
 PTB  HZ I         3 9 28.39         2.5 0.20            131            147 259 
 SPBC HN ES        3 9 25.17                             129    0.20 9  162 219 
 ZAR  HN ES        3 9 32.47                             122    0.20 9  204 293 
 ZAR  HZ I         3 9 38.89         3.7 0.12            122            204 293 
                                                                                
