 2014  7 9 0732 32.6 L   6.827 -73.184143.9  RSN 10 0.5 2.4LRSN                1
 GAP=116        1.15       4.1     4.9  7.1 -0.8730E+01  0.1135E+02 -0.8412E+01E
 Epicentro: ZAPATOCA - SANTANDER                                               3
 ACTION:UPD 15-03-16 20:42 OP:nd   STATUS:               ID:20140709073232 L   I
 OLDACT:DUP 14-07-09 19:00 OP:stll STATUS:               ID:20140709072819d    3
 2014-07-09-0728-17M.COL___262                                                 6
 STAT SP IPHASW D HRMM SECON CODA AMPLIT PERI AZIMU VELO AIN AR TRES W  DIS CAZ7
 BAR2 SZ EP        732 52.35                             169    0.2410 26.0 180 
 BAR2 SZ ES        733  6.93                             169   -0.3610 26.0 180 
 BAR2 SZ I         733  8.63        35.5 0.34            173           26.0 180 
 PAM  SZ EP        732 55.35                             150    0.6610 77.9  43 
 PAM  SN ES        733 12.21                             150    0.3210 77.9  43 
 PAM  SZ I         733 14.47        44.3 0.54            147           77.9  43 
 RUS  HZ EP        732 56.27                             142   -0.1910  104 174 
 RUS  HN ES        733 15.03                             142   -0.0110  104 174 
 RUS  HZ I         733 17.86        16.2 0.44            144            104 174 
 PTB  HZ EP        732 59.20                             132    0.06 9  144 257 
 PTB  HN ES        733 20.01                             132    0.20 9  144 257 
 PTB  HZ I         733 27.57        49.1 0.36            129            144 257 
 OCA  HZ EP        733  0.47                             130   -0.01 9  157 355 
 OCA  HZ I         733 32.26        19.3 0.38            125            157 355 
 SPBC HZ EP        733  1.27                             129    0.29 9  163 217 
 SPBC HN ES        733 22.89                             129   -0.19 9  163 217 
 SPBC HZ I         733 30.86        32.0 0.16            127            163 217 
 NOR  HZ EP        733  8.73                             118    0.64 8  233 233 
 NOR  HN ES        733 34.58                             118   -1.16 8  233 233 
 NOR  HZ I         733 42.45        23.3 0.16            116            233 233 
 SML  HZ EP        733  8.79                             117    0.11 8  239 336 
 SML  HN ES        733 36.36                             117   -0.43 8  239 336 
 SML  HZ I         733 40.62        29.8 0.26            114            239 336 
 GUY2CHN ES        733 50.20                             112    0.42 7  300 234 
 GUY2CHZ I         734  1.15        12.2 0.52                           300 234 
 SOCV BZ EP        733 14.57                             112   -1.25 7  303  58 
                                                                                
