 2016  7 9 0348  6.3 L   6.872 -73.063149.0  RSN 13 0.5 1.8LRSN                1
 GAP= 73        1.13       3.6     4.0  5.5 -0.1121E+01  0.4344E+01  0.2612E+01E
 Epicentro: PIEDECUESTA - SANTANDER                                            3
 ACTION:UPD 17-03-29 16:48 OP:lp   STATUS:               ID:20160709034806 L   I
 OLDACT:UP  16-07-09 16:32 OP:edw  STATUS:               ID:20160709034748     3
 OLDACT:REG 16-07-09 14:18 OP:edw  STATUS:               ID:20160709034748     3
 2016-07-09-0347-48M.COL___332                                                 6
 STAT SP IPHASW D HRMM SECON CODA AMPLIT PERI AZIMU VELO AIN AR TRES W  DIS CAZ7
 BAR2 EZ EP        348 27.50                             167    0.9110 33.6 203 
 BAR2 EZ ES        348 42.48                             167    0.0810 33.6 203 
 BAR2 EZ I         348 43.45        11.1 0.13            168           33.6 203 
 PAM  EZ EP        348 27.60                             155   -0.6310 65.4  38 
 PAM  EN ES        348 45.07                             155   -0.2510 65.4  38 
 PAM  EZ I         348 49.53        11.8 0.48            156           65.4  38 
 BRR  HE ES        348 45.81                             151    0.7010 76.3 290 
 RUS  HZ EP        348 31.37                             142    0.4110  108 181 
 RUS  HN ES        348 50.30                             142    0.1310  108 181 
 RUS  HZ I         348 50.98         9.0 0.32            145            108 181 
 TAM  HZ EP        348 33.08                             133   -0.59 9  149 109 
 PTB  HZ EP        348 34.33                             131   -0.20 9  158 257 
 PTB  HN ES        348 55.55                             131   -0.98 9  158 257 
 PTB  HZ I         348 59.35         6.8 0.12            131            158 257 
 SPBC HZ EP        348 36.17                             128   -0.04 9  175 220 
 SPBC HN ES        348 58.71                             128   -0.81 9  175 220 
 SPBC HZ I         349  1.15        10.6 0.20            129            175 220 
 ZAR  HZ EP        348 40.11                             122    0.54 8  210 289 
 ZAR  HN ES        349  5.65                             122    0.14 8  210 289 
 ZAR  HZ I         349 12.46         4.7 0.11            123            210 289 
 NOR  HZ EP        348 43.56                             118    0.02 8  247 234 
 NOR  HE ES        349 12.70                             118    0.13 8  247 234 
 CHI  HZ EP        348 45.67                             117    0.37 8  259 197 
 CHI  HN ES        349 15.98                             117    0.27 8  259 197 
 URE  HN ES   4    349 18.85                             114   -2.00 0  290 290 
 GUY2CHZ EP        348 51.34                             112   -0.11 7  313 235 
 GUY2CHE ES        349 26.41                             112   -0.23 7  313 235 
 GUY2CHZ I         349 32.61         3.0 0.28                           313 235 
 PRA  HZ EP        349  1.52                             106    0.22 6  403 210 
 PRA  HE ES        349 44.20                             106    0.03 6  403 210 
 PRA  HZ I         349 49.43         2.9 0.36            107            403 210 
 SJC  HZ EP        349  1.89                             106    0.07 6  408 325 
 SJC  HE ES        349 44.91                             106   -0.20 6  408 325 
                                                                                
