 2016 12 9 0706 13.9 L   6.710 -73.195153.1  RSN  4 0.3 1.2LRSN                1
 GAP=225        0.74       5.9     5.6  5.9  0.1592E+02  0.3353E+01  0.9132E+00E
 Epicentro: VILLANUEVA - SANTANDER                                             3
 ACTION:UPD 17-01-11 20:13 OP:rebc STATUS:               ID:20161209070614 L   I
 OLDACT:DUP 16-12-09 16:35 OP:dnl  STATUS:               ID:20161209065741d    3
 OLDACT:UP  16-12-09 16:31 OP:dnl  STATUS:               ID:20161209065740     3
 OLDACT:UP  16-12-09 16:31 OP:dnl  STATUS:               ID:20161209065740     3
 OLDACT:UP  16-12-09 16:29 OP:dnl  STATUS:               ID:20161209065740     3
 OLDACT:REG 16-12-09 16:26 OP:dnl  STATUS:               ID:20161209065740     3
 2016-12-09-0658-00M.COL___367                                                 6
 STAT SP IPHASW D HRMM SECON CODA AMPLIT PERI AZIMU VELO AIN AR TRES W  DIS CAZ7
 BAR2 EZ EP        7 6 34.36                             175    0.0610 13.1 174 
 BAR2 EZ ES        7 6 49.71                             175   -0.4710 13.1 174 
 BAR2 EZ I         7 6 51.79         5.3 0.74            170           13.1 174 
 BRR  HZ EP        7 6 36.15                             153    0.2210 72.0 308 
 BRR  HN ES        7 6 53.30                             153    0.2110 72.0 308 
 BRR  HZ I         7 6 56.37         2.9 0.70            151           72.0 308 
 RUS  HZ EP        7 6 37.87                             148    0.0810 91.3 172 
 RUS  HN ES        7 6 56.63                             148    0.2310 91.3 172 
 RUS  HZ I         7 6 58.05         2.1 0.30            148           91.3 172 
 PTB  HZ EP        7 6 40.44                             135   -0.47 9  141 262 
 PTB  HE ES        7 7  2.03                             135    0.09 9  141 262 
 PTB  HZ I         7 7  8.75         1.4 0.28            133            141 262 
                                                                                
