 2016 11 9 0103 28.0 L   6.793 -73.147137.7  RSN  9 0.5 1.6LRSN                1
 GAP=151        1.09       4.2     4.4  6.7 -0.2641E+00  0.8849E+01  0.1017E+02E
 Epicentro: LOS SANTOS - SANTANDER                                             3
 ACTION:UPD 17-10-26 21:06 OP:lp   STATUS:               ID:20161109010328 L   I
 OLDACT:REG 16-11-09 12:21 OP:lv   STATUS:               ID:20161109005745     3
 2016-11-09-0058-00M.COL___343                                                 6
 STAT SP IPHASW D HRMM SECON CODA AMPLIT PERI AZIMU VELO AIN AR TRES W  DIS CAZ7
 BAR2 EZ EP        1 3 46.49                             170   -0.1210 22.5 190 
 BAR2 EZ ES        1 4  0.70                             170   -0.4510 22.5 190 
 BAR2 EZ I         1 4  3.62        12.1 0.21            169           22.5 190 
 BRR  HZ IP     C  1 3 48.29                             151    0.0310 71.4 299 
 BRR  HN ES        1 4  4.85                             151    0.7610 71.4 299 
 BRR  HZ I         1 4  6.10         9.5 0.22            152           71.4 299 
 PAM  EZ EP        1 3 49.43                             149    0.0610 78.1  39 
 PAM  EN ES        1 4  5.95                             149   -0.1210 78.1  39 
 PAM  EZ I         1 4  8.66         6.9 0.29            153           78.1  39 
 PTB  HZ EP        1 3 53.35                             130   -0.91 9  147 259 
 PTB  HN ES        1 4 14.57                             130   -0.19 9  147 259 
 PTB  HZ I         1 4 16.18         4.2 0.11            131            147 259 
 ZAR  HZ EP        1 4  0.47                             120    0.56 9  204 292 
 ZAR  HN ES        1 4 25.06                             120    0.23 9  204 292 
 ZAR  HZ I         1 4 31.23         6.4 0.33            122            204 292 
 NOR  HZ EP        1 4  2.99                             117   -0.19 8  234 235 
 NOR  HE ES        1 4 30.98                             117    0.34 8  234 235 
 NOR  HZ I         1 4 34.31         4.4 0.42            118            234 235 
 CHI  HZ EP        1 4  5.89                             115    0.75 8  248 195 
 CHI  HN ES        1 4 34.52                             115    0.38 8  248 195 
 CHI  HZ I         1 4 38.44         1.1 0.18            117            248 195 
 URE  HZ EP   4    1 4  7.08                             112   -1.59 0  284 292 
 URE  HN ES        1 4 39.75                             112   -0.67 7  284 292 
 URE  HZ I         1 4 41.31         3.1 0.09            113            284 292 
 PRA  HZ EP        1 4 21.09                             105   -0.04 6  391 210 
 PRA  HE ES        1 5  2.01                             105   -0.58 6  391 210 
 PRA  HZ I         1 5  7.53         1.1 0.40            106            391 210 
                                                                                
