 2015 11 9 0113 36.6 L   6.799 -73.103147.0  RSN 12 0.4 1.9LRSN                1
 GAP=187        1.01       2.9     5.1  5.9  0.1078E+01  0.9062E+01 -0.2066E+00E
 Epicentro: LOS SANTOS - SANTANDER                                             3
 ACTION:UPD 15-12-28 16:09 OP:cam  STATUS:               ID:20151109011336 L   I
 OLDACT:REG 15-11-09 12:42 OP:dnl  STATUS:               ID:20151109010750     3
 2015-11-09-0107-50M.COL___316                                                 6
 STAT SP IPHASW D HRMM SECON CODA AMPLIT PERI AZIMU VELO AIN AR TRES W  DIS CAZ7
 BAR2 EZ EP     D  113 56.40                             170   -0.0210 24.5 201 
 BAR2 EZ ES        114 11.51                             170   -0.3610 24.5 201 
 BAR2 EZ I         114 24.56         6.2 0.14            169           24.5 201 
 BRR  HZ EP        113 58.42                             151    0.2810 75.4 297 
 BRR  HN ES        114 15.79                             151    0.8610 75.4 297 
 BRR  HZ I         114 19.47        15.4 0.19            150           75.4 297 
 RUS  HZ EP        114  0.55                             144    0.0810  100 179 
 RUS  HN ES        114 19.19                             144    0.1210  100 179 
 RUS  HZ I         114 20.02         8.6 0.26            145            100 179 
 OCA  HZ EP        114  4.88                             130   -0.21 9  161 351 
 OCA  HN ES        114 26.91                             130   -0.39 9  161 351 
 OCA  HZ I         114 36.17        17.3 0.28            130            161 351 
 SPBC HZ EP        114  5.29                             129   -0.19 9  166 220 
 SPBC HZ I         114 31.96        14.4 0.16            129            166 220 
 ZAR  HZ EP        114  9.48                             122   -0.11 8  208 292 
 ZAR  HN ES        114 34.85                             122   -0.47 8  208 292 
 ZAR  HZ I         114 40.63        12.2 0.12            122            208 292 
 SML  HZ EP        114 13.33                             117   -0.21 8  246 334 
 SML  HN ES        114 42.42                             117    0.08 8  246 334 
 SML  HZ I         114 51.46        12.4 0.11            118            246 334 
 CHI  HZ EP   2    114 14.04                             117   -0.47 4  250 196 
 CHI  HN ES        114 43.68                             117   -0.38 8  250 196 
 CHI  HZ I         114 53.84         4.0 0.31            118            250 196 
 HEL  HZ EP        114 18.53                             115    1.14 7  277 256 
 HEL  HN ES        114 48.74                             115   -0.46 7  277 256 
 HEL  HZ I         114 55.43         4.9 0.34            115            277 256 
 GUY2CHZ EP        114 21.30                             112    0.59 7  305 235 
 GUY2CHN ES        114 54.73                             112   -0.37 7  305 235 
 LL6C HN I      D  116 10.58                                            325 357 
 MON  HZ EP   4    114 23.59                             109   -2.51 0  357 308 
 MON  HN ES   4    115  2.70                             109   -1.99 0  357 308 
 MON  HZ I         115 17.94         3.0 0.50            109            357 308 
 SJC  HZ EP   4    114 30.11                             106   -2.42 0  412 326 
 SJC  HN ES   4    115 13.22                             106   -2.92 0  412 326 
                                                                                
