 2016  7 9 0902  4.5 L   6.786 -73.137133.7  RSN  6 0.3 1.6LRSN                1
 GAP=237        0.66       4.8     4.6  4.8  0.1389E+02  0.3134E+01 -0.1944E+01E
 Epicentro: LOS SANTOS - SANTANDER                                             3
 ACTION:UPD 17-03-29 16:48 OP:lp   STATUS:               ID:20160709090204 L   I
 OLDACT:UP  16-07-09 18:31 OP:edw  STATUS:               ID:20160709085746     3
 OLDACT:REG 16-07-09 14:41 OP:edw  STATUS:               ID:20160709085746     3
 2016-07-09-0857-46M.COL___316                                                 6
 STAT SP IPHASW D HRMM SECON CODA AMPLIT PERI AZIMU VELO AIN AR TRES W  DIS CAZ7
 BAR2 EZ EP        9 2 22.61                             170   -0.0910 22.0 193 
 BAR2 EZ ES        9 2 37.12                             170    0.2710 22.0 193 
 BAR2 EZ I         9 2 38.78         9.7 0.16            163           22.0 193 
 BRR  HZ EP        9 2 24.18                             150   -0.3210 72.8 299 
 BRR  HE ES        9 2 39.94                             150   -0.1210 72.8 299 
 RUS  HZ EP        9 2 26.84                             142   -0.1710 99.0 177 
 RUS  HE ES        9 2 44.60                             142    0.0810 99.0 177 
 RUS  HZ I         9 2 46.02        20.1 1.12            139           99.0 177 
 PTB  HZ EP        9 2 30.60                             129   -0.02 9  148 259 
 PTB  HN ES        9 2 50.84                             129   -0.11 9  148 259 
 PTB  HZ I         9 2 52.68         2.8 0.10            126            148 259 
 SPBC HZ EP   4    9 2 31.72                             126   -0.37 0  163 220 
 SPBC HN ES   4    9 2 53.82                             126    0.25 0  163 220 
 SPBC HZ I         9 2 58.98         4.5 0.38            124            163 220 
 ZAR  HZ EP        9 2 37.05                             119    0.66 8  206 292 
 ZAR  HE ES        9 3  1.21                             119   -0.02 8  206 292 
 ZAR  HZ I         9 3  9.25         2.6 0.24            118            206 292 
                                                                                
