 2015  3 9 0325 47.8 L   6.796 -73.173148.0  RSN 18 0.4 2.4LRSN                1
 GAP= 70        1.03       2.6     2.9  5.0 -0.1464E+01  0.3126E+01  0.1388E+01E
 Epicentro: LOS SANTOS - SANTANDER                                             3
 ACTION:UPD 15-04-30 16:24 OP:nd   STATUS:               ID:20150309032547 L   I
 OLDACT:UP  15-03-09 15:54 OP:cam  STATUS:               ID:20150309031748     3
 OLDACT:REG 15-03-09 14:00 OP:cam  STATUS:               ID:20150309031748     3
 2015-03-09-0317-48M.COL___281                                                 6
 STAT SP IPHASW D HRMM SECON CODA AMPLIT PERI AZIMU VELO AIN AR TRES W  DIS CAZ7
 BAR2 EZ IP     D  326  7.88                             171    0.1910 22.6 182 
 BAR2 EZ ES        326 22.28                             171   -0.9110 22.6 182 
 BAR2 EZ I         326 26.24        59.1 0.30            169           22.6 182 
 BRR  HZ IP     D  326  9.75                             154    0.6910 68.7 300 
 BRR  HN ES        326 26.68                             154    1.0510 68.7 300 
 BRR  HZ I         326 31.58        32.1 0.26            152           68.7 300 
 PAM  SZ IP     C  326 10.58                             150    0.1910 79.7  41 
 PAM  SN ES        326 27.90                             150   -0.1110 79.7  41 
 PAM  SZ I         326 30.04        29.4 0.48            155           79.7  41 
 RUS  HZ EP        326 11.74                             144   -0.0210  100 174 
 RUS  HN ES        326 30.73                             144    0.2810  100 174 
 RUS  HZ I         326 33.28        24.4 0.40            145            100 174 
 PTB  HZ EP     C  326 14.50                             133   -0.18 9  145 259 
 PTB  HN ES        326 35.51                             133   -0.13 9  145 259 
 PTB  HZ I         326 38.02        30.6 0.20            133            145 259 
 TAM  HZ IP     C  326 16.02                             130    0.10 9  158 105 
 TAM  HN ES        326 37.92                             130    0.07 9  158 105 
 TAM  HN I         326 38.31        42.1 0.34            134            158 105 
 OCA  HZ EP        326 16.23                             130   -0.06 9  160 354 
 OCA  HN ES        326 38.06                             130   -0.46 9  160 354 
 OCA  HZ I         326 43.70        15.0 0.38            132            160 354 
 SPBC HZ EP        326 16.72                             130    0.46 9  161 218 
 SPBC HN ES        326 38.11                             130   -0.35 9  161 218 
 SPBC HZ I         326 41.39        46.0 0.28            130            161 218 
 NOR  HZ EP        326 23.67                             119    0.30 8  232 234 
 NOR  HN ES        326 50.95                             119   -0.16 8  232 234 
 NOR  HZ I         326 57.31        21.9 0.46            120            232 234 
 SML  HZ EP        326 24.22                             118   -0.24 8  243 336 
 SML  HN ES        326 52.51                             118   -0.54 8  243 336 
 SML  HZ I         326 55.90        27.7 0.10            119            243 336 
 CHI  HZ EP        326 25.57                             118    0.08 8  247 195 
 CHI  HE ES        326 54.36                             118   -0.53 8  247 195 
 CHI  HZ I         327  4.68        10.0 0.32            118            247 195 
 HEL  HN ES        326 59.05                             115    0.07 8  269 256 
 HEL  HZ I         327  6.47        13.2 0.38            116            269 256 
 GUY2CHZ EP   4    326 32.66                             113    1.46 0  298 234 
 GUY2CHN ES        327  4.97                             113   -0.09 7  298 234 
 GUY2CHZ I         327 16.46        14.4 0.46                           298 234 
 CBOC HZ EP   4    326 32.12                             110   -2.34 0  331 252 
 CBOC HE ES        327 10.84                             110   -0.01 7  331 252 
 CBOC HE I         327 14.75        15.2 0.28            111            331 252 
 TOL  SZ EP   4    326 37.78                             110    1.92 0  341 224 
 TOL  SN ES   4    327 14.60                             110    1.25 0  341 224 
 TOL  SZ I         327 20.12        10.4 0.26            110            341 224 
 SDV  BZ EP   4    326 35.81                             108   -2.42 0  363  50 
 SDV  BE ES   4    327 14.47                             108   -3.10 0  363  50 
 PRA  HZ EP        326 40.30                             107   -0.88 6  390 209 
 PRA  HE ES        327 23.18                             107    0.37 6  390 209 
 PRA  HZ I         327 31.47         7.9 0.26            108            390 209 
 PAL  HZ EP   4    326 43.67                             106    0.97 0  403 239 
 PAL  HN ES   4    327 24.30                             106   -1.22 0  403 239 
 PAL  HZ I         327 41.57        19.1 0.94            107            403 239 
 YOT  HZ EP        326 50.53                             104   -0.07 5  469 229 
                                                                                
