 2011  4 9 0532 32.5 L   6.170 -73.811 99.2  RSN  9 0.4 2.0LRSN                1
 GAP=121        0.75       3.2     3.9  8.9 -0.6853E+01  0.7006E+01 -0.9630E+00E
 Epicentro: LANDAZURI - SANTANDER                                              3
 ACTION:UP  11-06-22 15:29 OP:REBC STATUS:               ID:20110409053232 L   I
 2011-04-09-0529-23S.COL___138                                                 6
 STAT SP IPHASW D HRMM SECON CODA AMPLIT PERI AZIMU VELO SNR AR TRES W  DIS CAZ7
 BAR2 SZ IP        532 50.18                             137    -0.110   84  56 
 BAR2 SZ ES   1    533  3.84                             137    -0.2 7   84  56 
 BAR2 SZ I         533  5.44        66.8 0.18                            84  56 
 BTL  SZ EP        532 52.03                             131     0.110  102  36 
 BRR  HZ EP        532 51.75                             130     0.010  104   6 
 BRR  HN ES   2    533  7.07                             130     0.3 5  104   6 
 BRR  HZ I         533 11.00        19.1 0.14                           104   6 
 NOR  SZ EP   1    532 55.12                             122     0.2 7  135 240 
 NOR  SN ES   1    533 11.77                             122    -0.6 7  135 240 
 CHI  HZ EP   1    532 58.54                             116    -0.6 7  171 177 
 CHI  HZ I         532 59.90         9.0 0.12                           171 177 
 CHI  HN ES   1    533 20.73                             116     0.8 7  171 177 
 PAM  SZ EP   1    532 59.95                             115    -0.2 7  178  43 
 HEL  HZ EP   2    533  1.74                             113     0.4 4  190 271 
 HEL  HE ES   2    533 24.23                             113     0.5 4  190 271 
 HEL  HZ I         533 29.49         5.2 0.34                           190 271 
 RREF HZ EP   1    533  5.31                             110     0.2 6  221 231 
 RREF HE ES   2    533 30.15                             110    -0.4 4  221 231 
 RREF HZ I         533 38.11         7.2 0.63                           221 231 
 OCA  SZ EP   1    533  6.09                             109    -0.1 6  235  13 
 OCA  SZ ES   1    533 32.65                             109     0.1 6  235  13 
 OCA  SZ I         533 34.87         9.5 0.21                           235  13 
                                                                                
