 2011 10 9 0820 30.5 L   6.782 -73.117137.2  RSN  5 0.3 1.7LRSN                1
 GAP=141        0.71       4.6     7.1  6.8 -0.4413E+00 -0.3832E+01  0.3485E+01E
 Epicentro: LOS SANTOS - SANTANDER                                             3
 ACTION:UPD 12-07-13 16:02 OP:ep   STATUS:               ID:20111009082030 L   I
 2011-10-09-0820-00M.COL___171                                                 6
 STAT SP IPHASW D HRMM SECON CODA AMPLIT PERI AZIMU VELO AIN AR TRES W  DIS CAZ7
 BAR2 SZ EP   1    820 48.79                             170   -0.25 7 22.2 199 
 BAR2 SZ ES   1    821  2.95                             170   -0.58 7 22.2 199 
 BAR2 SZ I         821  4.91        12.8 0.19                          22.2 199 
 GIR2 SZ EP   1    820 48.91                             165   -0.29 7 33.9 346 
 GIR2 SZ ES   1    821  4.24                             165    0.44 7 33.9 346 
 BRR  HZ EP   1    820 51.40                             150    0.48 7 74.9 299 
 BRR  HZ I         820 51.81        11.7 0.12                          74.9 299 
 BRR  HN ES   1    821  6.70                             150   -0.17 7 74.9 299 
 PAM  SZ EP   1    820 51.71                             149   -0.04 7 77.0  37 
 PAM  SN ES   1    821  8.43                             149    0.08 7 77.0  37 
 RUS  HZ EP   1    820 53.09                             143   -0.13 7 98.4 178 
 RUS  HN ES   1    821 11.42                             143    0.45 7 98.4 178 
 RUS  HZ I         821 13.05         6.8 0.22                          98.4 178 
                                                                                
