 2011  3 9 0857  1.3 L   6.736 -73.060143.9  RSN  6 0.5 1.7LRSN                1
 GAP=169        1.00       5.5    13.0 10.8 -0.2376E+02  0.1075E+02 -0.1193E+02E
 Epicentro: JORDAN - SANTANDER                                                 3
 ACTION:UP  11-06-16 14:32 OP:jfem STATUS:               ID:20110309085700 L   I
 2011-03-09-0855-57S.COL___135                                                 6
 STAT SP IPHASW D HRMM SECON CODA AMPLIT PERI AZIMU VELO SNR AR TRES W  DIS CAZ7
 BAR2 SZ EP   1    857 20.14                             171    -0.5 7   21 221 
 BAR2 SZ ES   1    857 35.45                             171    -0.3 7   21 221 
 BAR2 SZ I         857 37.66        15.7 0.28                            21 221 
 RUS  HZ EP        857 24.23                             146    -0.110   93 182 
 RUS  HN ES   1    857 42.84                             146     0.5 7   93 182 
 RUS  HZ I         857 43.54         3.8 0.28                            93 182 
 GRA  SZ IP     C  857 26.81                             136     0.010  130  13 
 GRA  SZ I         857 27.89         9.7 0.62                           130  13 
 GRA  SZ ES   1    857 47.29                             136     0.7 7  130  13 
 OCA  SZ ES   2    857 52.04                             128    -0.8 5  169 350 
 OCA  SZ I         857 54.37         9.1 0.22                           169 350 
 HEL  HE ES   2    858 15.05                             114     0.8 4  280 258 
 RREF HZ EP   3    857 48.35                             110     0.7 2  325 231 
                                                                                
