 2012  7 9 0218  4.5 L   6.717 -73.384122.0  RSN  6 0.3 1.7LRSN                1
 GAP=162        0.81       5.4     4.9  9.0  0.1318E+02  0.9924E+01 -0.2672E+01E
 Epicentro: EL CARMEN DE CHUCURI - SANTANDER                                   3
 ACTION:UP  12-08-14 11:43 OP:ep   STATUS:               ID:20120709021804 L   I
 2012-07-09-0210-00M.COL___201                                                 6
 STAT SP IPHASW D HRMM SECON CODA AMPLIT PERI AZIMU VELO AIN AR TRES W  DIS CAZ7
 BAR2 SZ EP        218 21.28                             167    -0.110   26 122 
 BAR2 SZ I         218 21.63        25.0 0.29                            26 122 
 BRR  HZ EP        218 22.16                             154    -0.110   56 320 
 BRR  HE ES   1    218 36.22                             154     0.1 7   56 320 
 RUS  HZ EP   1    218 25.97                             139     0.2 7   97 160 
 RUS  HN ES        218 42.46                             139     0.210   97 160 
 PTB  HZ EP   1    218 26.37                             132    -0.7 7  120 261 
 PTB  HE ES   1    218 44.20                             132    -0.4 7  120 261 
 PTB  HZ I         218 49.23         4.1 0.11                           120 261 
 ZAR  HZ EP   1    218 33.69                             119     0.3 7  184 298 
 ZAR  HE ES   1    218 56.43                             119     0.5 7  184 298 
 ZAR  HZ I         219  0.18         6.9 0.15                           184 298 
 HEL  HE ES   1    219  8.98                             112     0.4 6  244 256 
