 2013  2 9 0746 16.7 L   6.148 -73.727109.9  RSN  5 0.3 1.3LRSN                1
 GAP=118        0.73       3.4     4.1  7.9  0.3593E+01  0.1246E+02  0.9112E+01E
 Epicentro: LANDAZURI - SANTANDER                                              3
 ACTION:UPD 13-03-12 09:31 OP:ep   STATUS:               ID:20130209074616 L   I
 2013-02-09-0740-00M.COL___240                                                 6
 STAT SP IPHASW D HRMM SECON CODA AMPLIT PERI AZIMU VELO AIN AR TRES W  DIS CAZ7
 RUS  HZ EP        746 35.19                             143   -0.0610 76.7 112 
 RUS  HN ES        746 49.71                             143    0.0310 76.7 112 
 RUS  HN I         746 51.27         2.1 0.30            147           76.7 112 
 BAR2 SZ EP        746 35.32                             142    0.3510 77.7  51 
 BAR2 SZ ES        746 48.92                             142   -0.2610 77.7  51 
 BAR2 SZ I         746 50.33        17.1 0.14            146           77.7  51 
 PTB  HZ EP   1    746 34.93                             137   -0.82 7 91.5 298 
 PTB  HN ES   1    746 50.97                             137    0.40 7 91.5 298 
 PTB  HZ I         746 52.49         2.4 0.24            139           91.5 298 
 BRR  HZ EP   1    746 37.06                             132    0.08 7  106   1 
 BRR  HN ES   1    746 52.84                             132    0.07 7  106   1 
 BRR  HN I         746 53.98         4.9 0.32            136            106   1 
 CHI  HZ EP   1    746 43.97                             119    0.27 7  168 180 
 CHI  HN ES   1    747  4.63                             119   -0.09 7  168 180 
                                                                                
