 2017  1 9 0707  5.1 L   6.765 -73.179141.0  RSN  5 0.2 1.3LRSN                1
 GAP=134        0.59       4.9     3.6  5.0 -0.7520E+01  0.3524E+01  0.1721E+01E
 Epicentro: LOS SANTOS - SANTANDER                                             3
 ACTION:UPD 17-05-22 15:57 OP:jn   STATUS:               ID:20170109070705 L   I
 OLDACT:UP  17-01-09 17:11 OP:and  STATUS:               ID:20170109065751d    3
 OLDACT:UP  17-01-09 17:11 OP:and  STATUS:               ID:20170109065751d    3
 OLDACT:DUP 17-01-09 17:09 OP:and  STATUS:               ID:20170109065751d    3
 2017-01-09-0658-00M.COL___341                                                 6
 STAT SP IPHASW D HRMM SECON CODA AMPLIT PERI AZIMU VELO AIN AR TRES W  DIS CAZ7
 BAR2 EZ EP        7 7 24.23                             172    0.1710 19.1 181 
 BAR2 EZ ES        7 7 38.84                             172   -0.0210 19.1 181 
 BAR2 EZ I         7 7 40.04         7.0 0.44            147           19.1 181 
 BRR  HZ EP        7 7 26.05                             152    0.4010 70.0 303 
 BRR  HN ES   4    7 7 44.58                             152    2.90 0 70.0 303 
 PAM  EZ EP        7 7 27.03                             148   -0.1010 82.8  40 
 PAM  EN ES        7 7 44.20                             148   -0.1210 82.8  40 
 PAM  EZ I         7 7 48.25         1.9 0.45            138           82.8  40 
 RUS  HZ EP        7 7 28.11                             144    0.0010 97.0 174 
 RUS  HZ I         7 7 47.31         5.7 0.34            123           97.0 174 
 PTB  HZ EP        7 7 30.90                             132   -0.36 9  143 260 
 PTB  HN ES        7 7 51.66                             132   -0.02 9  143 260 
 PTB  HZ I         7 7 52.50         1.8 0.18            124            143 260 
                                                                                
