 2014 12 9 0718 48.1 L   6.681 -73.171151.8  RSN  5 0.4 1.2LRSN                1
 GAP=225        1.00       6.0     6.4  8.0  0.7423E+01  0.5145E+01 -0.6234E+00E
 Epicentro: VILLANUEVA - SANTANDER                                             3
 ACTION:UPD 15-02-10 17:01 OP:nd   STATUS:               ID:20141209071848 L   I
 OLDACT:REG 14-12-09 13:02 OP:fm   STATUS:               ID:20141209071743     3
 2014-12-09-0717-43M.COL___297                                                 6
 STAT SP IPHASW D HRMM SECON CODA AMPLIT PERI AZIMU VELO AIN AR TRES W  DIS CAZ7
 BAR2 SZ EP        719  8.45                             176    0.1510 9.93 187 
 BAR2 SZ ES        719 24.08                             176    0.0510 9.93 187 
 BAR2 SZ I         719 24.63         3.5 0.20            170           9.93 187 
 BRR  HZ EP        719 10.48                             152    0.2710 76.1 308 
 BRR  HN ES        719 27.42                             152   -0.0010 76.1 308 
 BRR  HZ I         719 31.90         2.5 0.12            151           76.1 308 
 RUS  HZ EP        719 10.92                             149   -0.7010 87.8 174 
 RUS  HN ES        719 30.01                             149    0.0710 87.8 174 
 RUS  HZ I         719 32.63         2.0 0.44            148           87.8 174 
 PTB  HZ EP        719 15.53                             134    0.35 9  143 264 
 PTB  HN ES        719 35.63                             134   -0.64 9  143 264 
 PTB  HZ I         719 39.72         2.2 0.10            133            143 264 
 SPBC HN ES        719 38.24                             133    0.48 9  151 221 
 SPBC HZ I         719 45.47         3.5 0.20            131            151 221 
                                                                                
