 2016 11 9 0316 15.6 L   6.781 -73.171147.8  RSN  7 0.4 1.4LRSN                1
 GAP=242        0.91       4.6     5.5  6.5  0.5889E+01  0.7339E+01  0.7978E+01E
 Epicentro: LOS SANTOS - SANTANDER                                             3
 ACTION:UPD 17-10-26 21:06 OP:lp   STATUS:               ID:20161109031615 L   I
 OLDACT:DUP 16-11-09 15:57 OP:lv   STATUS:               ID:20161109030743d    3
 2016-11-09-0308-00M.COL___349                                                 6
 STAT SP IPHASW D HRMM SECON CODA AMPLIT PERI AZIMU VELO AIN AR TRES W  DIS CAZ7
 BAR2 EZ EP        316 35.46                             172   -0.0010 20.9 184 
 BAR2 EZ ES        316 50.40                             172   -0.5310 20.9 184 
 BAR2 EZ I         316 51.85         4.9 0.18            169           20.9 184 
 BRR  HZ EP        316 37.07                             153    0.1410 69.9 301 
 BRR  HE ES        316 54.29                             153    0.7510 69.9 301 
 BRR  HZ I         316 57.98         3.5 0.17            152           69.9 301 
 PTB  HZ EP        316 42.60                             133    0.11 9  145 259 
 PTB  HN ES        317  3.02                             133   -0.41 9  145 259 
 PTB  HZ I         317  5.73         2.5 0.16            132            145 259 
 ZAR  HZ EP        316 47.59                             123   -0.44 9  202 293 
 ZAR  HN ES        317 13.23                             123   -0.08 9  202 293 
 ZAR  HZ I         317 18.40         3.0 0.36            123            202 293 
 NOR  HZ EP   4    316 52.53                             119    1.42 0  231 234 
 NOR  HN ES        317 18.90                             119    0.12 8  231 234 
 NOR  HZ I         317 21.58         2.3 0.18            119            231 234 
 CHI  HZ EP        316 53.23                             118    0.09 8  246 195 
 CHI  HN ES        317 22.64                             118    0.24 8  246 195 
 CHI  HZ I         317 26.21         1.3 0.40            118            246 195 
 PRA  HZ EP   4    317 10.36                             107    1.51 0  389 209 
 PRA  HE ES   4    317 52.62                             107    2.27 0  389 209 
 PRA  HZ I         317 55.37         1.7 0.24            108            389 209 
                                                                                
