 2010  3 9 0932 39.6 L   6.804 -73.022144.2  RSN 10 0.4 2.3LRSN                1
 GAP=135        0.85       4.0     5.8  5.8 -0.9592E+01 -0.1628E+01  0.3629E+01E
 Epicentro: CEPITA - SANTANDER                                                 3
 ACTION:UP  10-08-24 09:52 OP:vdl  STATUS:               ID:20100309093239 L   I
 2010-03-09-0929-30S.COL___101                                                 6
 STAT SP IPHASW D HRMM SECON CODA AMPLIT PERI AZIMU VELO SNR AR TRES W  DIS CAZ7
 BAR2 SZ EP        932 59.44                             168     0.210   29 217 
 BAR2 SZ ES   1    933 14.02                             168    -0.5 7   29 217 
 BRR  HZ EP        933  1.18                             148    -0.210   83 294 
 BRR  HZ I         933  5.18        20.8 0.11                            83 294 
 BRR  HE ES   1    933 18.51                             148     0.2 7   83 294 
 RUS  BZ EP   1    933  3.67                             143     0.4 7  101 184 
 RUS  BE ES   2    933 21.88                             143     0.2 5  101 184 
 RUS  BZ I         933 23.36        12.7 0.35                           101 184 
 OCA  SZ EP        933  7.75                             129    -0.2 9  162 348 
 OCA  SZ ES   2    933 29.83                             129    -0.3 5  162 348 
 OCA  SZ I         933 33.87        38.8 0.23                           162 348 
 CHI  HZ EP        933 17.50                             116    -0.2 8  253 198 
 CHI  HZ I         933 20.30         5.6 0.26                           253 198 
 CHI  HE ES   2    933 47.47                             116     0.1 4  253 198 
 HEL  HZ EP        933 21.04                             113    -0.2 7  285 256 
 HEL  HZ I         933 59.06         7.5 0.39                           285 256 
 RREF BZ EP        933 27.63                             110     0.7 7  332 231 
 RREF BE ES   1    934  4.78                             110     1.0 5  332 231 
 RREF BZ I         934  9.37        10.2 0.29                           332 231 
 SDV  BZ EP        933 28.76                             108     0.4 6  350  49 
 SDV  BZ I         933 29.75        15.1 0.11                           350  49 
 SDV  BZ ES   2    934  6.24                             108    -0.2 3  350  49 
 TOL  SZ EP   1    933 28.79                             108    -0.2 5  354 226 
 TOL  SZ ES   1    934  6.97                             108    -0.5 5  354 226 
 PRA  HZ EP   1    933 33.08                             106    -0.9 4  399 211 
 PRA  HE ES   1    934 15.51                             106    -0.8 4  399 211 
 PRA  HZ I         934 20.27         7.7 0.20                           399 211 
                                                                                
