 2017  6 9 0537 32.4 L   6.731 -73.234138.0  RSN  5 0.4 1.1LRSN                1
 GAP=222        0.89       5.0     6.0  7.8  0.1120E+02  0.2197E+00  0.7630E+00E
 Epicentro: VILLANUEVA - SANTANDER                                             3
 ACTION:UPD 17-09-14 16:50 OP:jn   STATUS:               ID:20170609053732 L   I
 OLDACT:UP  17-06-09 17:50 OP:edw  STATUS:               ID:20170609052742d    3
 OLDACT:UP  17-06-09 17:49 OP:edw  STATUS:               ID:20170609052742d    3
 OLDACT:DUP 17-06-09 17:42 OP:edw  STATUS:               ID:20170609052742d    3
 2017-06-09-0528-00M.COL___362                                                 6
 STAT SP IPHASW D HRMM SECON CODA AMPLIT PERI AZIMU VELO AIN AR TRES W  DIS CAZ7
 BRR  HZ EP        537 52.21                             153   -0.2810 67.2 308 
 BRR  HN ES        538  8.61                             153    0.4610 67.2 308 
 RUS  HZ EP        537 54.69                             144   -0.2510 94.2 170 
 RUS  HN ES        538 12.53                             144    0.0210 94.2 170 
 RUS  HZ I         538 14.37         1.7 0.36            147           94.2 170 
 PTB  HZ EP        537 57.57                             133   -0.18 9  137 261 
 PTB  HN ES        538 16.87                             133   -0.64 9  137 261 
 PTB  HZ I         538 24.18         0.9 0.16            131            137 261 
 SPBC HZ EP        537 59.39                             130    0.22 9  151 218 
 SPBC HN ES        538 20.48                             130    0.44 9  151 218 
 SPBC HZ I         538 21.85         2.4 0.46            130            151 218 
 ZAR  HZ EP   2    538  4.31                             122    0.57 4  198 295 
 ZAR  HN ES   2    538 28.80                             122    0.62 4  198 295 
 ZAR  HZ I         538 34.53         1.8 0.40            122            198 295 
                                                                                
