 2014  9 9 0926 37.3 L   6.840 -73.058153.1  RSN  9 0.5 2.0LRSN                1
 GAP=208        1.14       4.0     6.5  7.1 -0.3764E+01  0.1186E+01  0.4655E+01E
 Epicentro: LOS SANTOS - SANTANDER                                             3
 ACTION:UPD 14-10-03 23:03 OP:nd   STATUS:               ID:20140909092637 L   I
 OLDACT:REG 14-09-09 13:39 OP:carl STATUS:               ID:20140909091817     3
 2014-09-09-0918-17M.COL___263                                                 6
 STAT SP IPHASW D HRMM SECON CODA AMPLIT PERI AZIMU VELO AIN AR TRES W  DIS CAZ7
 BAR2 SZ EP        926 58.65                             168    0.6610 30.6 207 
 BAR2 SZ ES        927 13.58                             168   -0.5310 30.6 207 
 BAR2 SZ I         927 15.35        17.7 0.20            167           30.6 207 
 BRR  HZ EP        927  0.36                             152    0.7110 78.1 292 
 BRR  HN ES        927 17.72                             152    0.6610 78.1 292 
 BRR  HZ I         927 21.33        17.3 0.16            151           78.1 292 
 OCA  HZ EP        927  5.17                             132   -0.77 9  157 349 
 OCA  HE ES        927 28.25                             132   -0.02 9  157 349 
 OCA  HZ I         927 39.60        13.2 0.22            134            157 349 
 PTB  HZ EP        927  5.35                             132   -0.48 9  158 258 
 PTB  HE ES        927 27.52                             132   -0.54 9  158 258 
 PTB  HZ I         927 31.83        12.2 0.48            132            158 258 
 SPBC HZ EP        927  7.30                             129    0.01 9  173 221 
 SPBC HE ES        927 30.48                             129   -0.18 9  173 221 
 SPBC HZ I         927 38.53        10.6 0.20            130            173 221 
 ZAR  HZ EP        927 11.21                             123    0.20 8  212 290 
 ZAR  HN ES        927 37.09                             123   -0.20 8  212 290 
 ZAR  HZ I         927 42.90        15.1 0.72            124            212 290 
 NOR  HZ EP   4    927 13.79                             119   -0.81 0  245 235 
 NOR  HN ES   4    927 40.92                             119   -2.75 0  245 235 
 NOR  HZ I         927 50.52         7.8 0.20            120            245 235 
 CHI  HZ EP        927 15.92                             118   -0.26 8  256 197 
 CHI  HN ES        927 46.60                             118    0.12 8  256 197 
 CHI  HZ I         927 56.79         5.2 0.50            120            256 197 
 GUY2CHZ EP        927 22.56                             113    0.11 7  312 235 
 GUY2CHN ES        927 58.06                             113    0.41 7  312 235 
 GUY2CHZ I         928  4.63         4.4 0.50                           312 235 
                                                                                
