 2012  4 9 0831  8.3 L   6.782 -73.118142.1  RSN  4 0.3 1.2LRSN                1
 GAP=141        0.70       5.3     5.8  9.4  0.1097E+02 -0.1623E+00 -0.4173E+01E
 Epicentro: LOS SANTOS - SANTANDER                                             3
 ACTION:UPD 12-07-05 11:52 OP:tino STATUS:               ID:20120409083108 L   I
 2012-04-09-0830-00M.COL___196                                                 6
 STAT SP IPHASW D HRMM SECON CODA AMPLIT PERI AZIMU VELO AIN AR TRES W  DIS CAZ7
 BRR  HZ EP        831 29.23                             151     0.010   75 299 
 BRR  HE ES   1    831 46.08                             151     0.5 7   75 299 
 BRR  HZ I         831 53.17         7.2 0.34                            75 299 
 PAM  SZ EP   1    831 30.21                             150     0.1 7   77  37 
 PAM  SN ES   2    831 46.55                             150    -0.5 5   77  37 
 RUS  HZ EP   1    831 31.61                             144     0.1 7   98 178 
 RUS  HN ES   1    831 49.42                             144    -0.2 7   98 178 
 RUS  HZ I         831 51.09         1.3 0.26                            98 178 
 ZAR  HN ES   1    832  5.77                             121    -0.5 6  208 292 
                                                                                
