 2017  1 9 0320 48.9 L   7.354 -73.121  9.7  RSN  6 0.4 1.1LRSN                1
 GAP=177        0.90       3.2     2.0  4.2 -0.4482E+00  0.3381E+01  0.6672E+00E
 Epicentro: RIONEGRO - SANTANDER                                               3
 ACTION:UPD 17-05-22 15:57 OP:jn   STATUS:               ID:20170109032048 L   I
 OLDACT:UP  17-01-09 14:56 OP:e    STATUS:               ID:20170109031744     3
 OLDACT:UP  17-01-09 14:54 OP:e    STATUS:               ID:20170109031744     3
 OLDACT:REG 17-01-09 12:45 OP:and  STATUS:               ID:20170109031744     3
 2017-01-09-0318-00M.COL___347                                                 6
 STAT SP IPHASW D HRMM SECON CODA AMPLIT PERI AZIMU VELO AIN AR TRES W  DIS CAZ7
 PAM  EZ EP        320 57.04                              98   -0.0810 46.5  92 
 PAM  EN ES        321  3.35                              98   -0.1710 46.5  92 
 PAM  EZ I         321  4.17        14.8 0.17             97           46.5  92 
 BRR  HZ EP        321  0.24                              95   -0.0110 70.7 247 
 BRR  HN ES        321  9.28                              95    0.1810 70.7 247 
 BAR2 EZ ES        321 12.94                              94   -0.3010 84.5 185 
 RUS  HZ EP        321 15.39                              56    0.92 9  162 179 
 RUS  HN ES        321 34.31                              56   -0.10 9  162 179 
 RUS  HZ I         321 35.54         1.2 0.30             92            162 179 
 PTB  HE ES        321 35.68                              56   -0.21 9  173 239 
 PTB  HZ I         321 36.04         2.7 0.29             56            173 239 
 ZAR  HZ EP        321 17.99                              56    0.26 9  192 275 
 ZAR  HN ES        321 39.78                              56   -0.43 9  192 275 
 ZAR  HZ I         321 41.44         3.3 0.20             56            192 275 
                                                                                
