 2017  1 9 0518 25.1 L   6.787 -73.146149.3  RSN 10 0.4 1.5LRSN                1
 GAP= 99        1.02       4.9     3.7  5.7  0.7482E+00  0.4954E+01  0.3087E+01E
 Epicentro: LOS SANTOS - SANTANDER                                             3
 ACTION:UPD 17-05-22 15:57 OP:jn   STATUS:               ID:20170109051825 L   I
 OLDACT:UP  17-01-09 16:15 OP:e    STATUS:               ID:20170109051746     3
 OLDACT:UP  17-01-09 16:14 OP:e    STATUS:               ID:20170109051746     3
 OLDACT:UP  17-01-09 16:13 OP:e    STATUS:               ID:20170109051746     3
 OLDACT:REG 17-01-09 13:01 OP:and  STATUS:               ID:20170109051746     3
 2017-01-09-0518-00M.COL___347                                                 6
 STAT SP IPHASW D HRMM SECON CODA AMPLIT PERI AZIMU VELO AIN AR TRES W  DIS CAZ7
 BAR2 EZ EP        518 44.82                             171   -0.3510 21.9 191 
 BAR2 EZ ES        519  1.03                             171    0.2410 21.9 191 
 BAR2 EZ I         519  1.64         7.8 0.22            170           21.9 191 
 BRR  HZ EP        518 46.80                             153    0.0910 71.8 300 
 BRR  HN ES        519  4.31                             153    0.7810 71.8 300 
 BRR  HZ I         519  8.68         4.3 0.20            150           71.8 300 
 PAM  EZ EP        518 47.70                             151   -0.1010 78.5  39 
 PAM  EN ES        519  5.17                             151   -0.3010 78.5  39 
 PAM  EZ I         519  7.21         3.9 0.20            155           78.5  39 
 RUS  HZ EP        518 49.18                             145    0.0310 99.2 176 
 RUS  HN ES        519  7.89                             145    0.0210 99.2 176 
 RUS  HZ I         519  9.32         4.2 0.20            148           99.2 176 
 PTB  HZ EP        518 51.83                             133   -0.55 9  147 259 
 PTB  HN ES        519 12.95                             133   -0.66 9  147 259 
 PTB  HZ I         519 20.38         3.4 0.19            133            147 259 
 TAM  HZ IP     C  518 53.12                             131    0.05 9  155 104 
 ZAR  HZ EP        518 57.82                             123   -0.05 9  205 293 
 ZAR  HE ES        519 23.36                             123   -0.04 9  205 293 
 ZAR  HZ I         519 29.53         4.2 0.11            123            205 293 
 NOR  HZ EP        519  1.49                             119    0.50 8  234 235 
 GUY2CHZ EP   4    519 10.73                             113    1.91 0  300 235 
 GUY2CHN ES   4    519 46.57                             113    3.68 0  300 235 
 GUY2CHZ I         519 51.65         2.0 0.33                           300 235 
 CBOC HZ EP        519 13.22                             111    1.07 7  333 252 
 CBOC HN ES        519 48.54                             111   -0.28 7  333 252 
 CBOC HZ I         519 55.63         0.6 0.22            112            333 252 
                                                                                
