 2012  6 9 0633 12.3 L   6.877 -73.277130.0  RSN  4 0.6 1.5LRSN                1
 GAP=163        1.29       9.1     9.8 16.4 -0.3082E+01  0.6608E+02 -0.2655E+02E
 Epicentro: BETULIA - SANTANDER                                                3
 ACTION:UPD 12-08-06 17:48 OP:ep   STATUS:               ID:20120609063324 L   I
 2012-06-09-0630-00M.COL___201                                                 6
 STAT SP IPHASW D HRMM SECON CODA AMPLIT PERI AZIMU VELO AIN AR TRES W  DIS CAZ7
 BAR2 SZ EP        633 30.69                             165    0.3810 33.2 162 
 BAR2 SZ ES   1    633 44.40                             165    0.05 7 33.2 162 
 BAR2 SZ I         633 45.18        16.5 0.29            172           33.2 162 
 PTB  HZ EP        633 35.90                             131   -0.99 9  136 254 
 PTB  HE ES   1    633 56.17                             131    0.10 7  136 254 
 PTB  HZ I         633 57.71         2.0 0.15            132            136 254 
 OCA  HN ES   1    633 58.49                             128   -0.45 7  151 358 
 OCA  HZ I         634  2.38         9.4 0.34            128            151 358 
 ZAR  HZ EP   1    633 43.12                             121    1.11 7  187 291 
 ZAR  HN ES   1    634  5.59                             121    0.40 7  187 291 
 ZAR  HZ I         634 10.14         1.9 0.07            122            187 291 
                                                                                
