 2011  3 9 0205 14.3 L   6.756 -73.112149.0  RSN  6 0.2 1.8LRSN                1
 GAP=129        0.55       3.2     4.0  6.6 -0.5291E+01  0.7999E+01 -0.4351E+01E
 Epicentro: LOS SANTOS - SANTANDER                                             3
 ACTION:UP  11-06-16 14:32 OP:jfem STATUS:               ID:20110309020514 L   I
 2011-03-09-0203-09S.COL___135                                                 6
 STAT SP IPHASW D HRMM SECON CODA AMPLIT PERI AZIMU VELO SNR AR TRES W  DIS CAZ7
 RUS  HZ EP   1    2 5 38.24                             146     0.210   96 178 
 RUS  HN ES   1    2 5 56.35                             146    -0.210   96 178 
 RUS  HZ I         2 5 58.03         6.9 0.36                            96 178 
 GRA  SZ EP   1    2 5 40.42                             137     0.310  129  15 
 GRA  SZ ES   1    2 6  0.34                             137     0.110  129  15 
 GRA  SZ I         2 6  1.82         7.5 0.30                           129  15 
 OCA  SZ EP   1    2 5 43.06                             129    -0.3 9  166 352 
 OCA  SZ I         2 6  9.52         9.6 0.39                           166 352 
 CHI  HZ EP   1    2 5 51.74                             118     0.0 8  245 196 
 CHI  HZ I         2 5 54.98         2.9 0.32                           245 196 
 HEL  HZ EP   1    2 5 55.26                             115     0.3 7  275 257 
 HEL  HE ES        2 6 26.51                             115    -0.210  275 257 
 HEL  HZ I         2 6 34.34         5.0 0.56                           275 257 
 SDV  BZ EP   1    2 6  4.17                             109    -0.3 6  361  49 
 SDV  BZ I         2 6  4.88         1.7 0.17                           361  49 
                                                                                
