 2013  8 9 0154  4.0 L   6.806 -73.155142.0  RSN 11 0.5 1.7LRSN                1
 GAP=135        0.98       3.4     4.5  7.0 -0.2151E+01  0.4701E+01  0.4409E+01E
 Epicentro: LOS SANTOS - SANTANDER                                             3
 ACTION:UPD 14-01-14 09:00 OP:ep   STATUS:               ID:20130809015404 L   I
 OLDACT:REG 13-08-09 06:17 OP:jn   STATUS:               ID:20130809014959     3
 2013-08-09-0149-59M.COL___268                                                 6
 STAT SP IPHASW D HRMM SECON CODA AMPLIT PERI AZIMU VELO AIN AR TRES W  DIS CAZ7
 GIR2 SZ EP        154 23.41                             167    0.1810 30.5 352 
 GIR2 SZ ES   1    154 38.74                             167    0.54 7 30.5 352 
 GIR2 SZ I         154 40.22        10.2 0.30            167           30.5 352 
 BRR  HZ EP        154 25.15                             152    0.4510 70.0 298 
 BRR  HN ES   1    154 41.38                             152    0.55 7 70.0 298 
 BRR  HZ I         154 45.31         9.8 0.30            154           70.0 298 
 PAM  SZ EP        154 26.27                             150    0.4210 77.5  40 
 PAM  SZ I         154 38.29        10.4 0.24            148           77.5  40 
 PAM  SE ES   1    154 42.06                             150   -0.81 7 77.5  40 
 RUS  HZ EP        154 27.28                             143   -0.1810  101 176 
 RUS  HN ES   1    154 45.90                             143    0.16 7  101 176 
 RUS  HZ I         154 47.56         3.4 0.30            143            101 176 
 PTB  HZ EP        154 30.03                             131   -0.58 9  147 259 
 PTB  HN ES        154 50.73                             131   -0.62 9  147 259 
 PTB  HZ I         154 53.67         7.2 0.16            133            147 259 
 OCA  HN ES   1    154 53.20                             129   -0.57 7  159 353 
 SPBC HZ EP   1    154 32.27                             128    0.04 7  163 219 
 SPBC HN ES   1    154 54.63                             128    0.40 7  163 219 
 SPBC HZ I         154 58.82         9.2 0.74            129            163 219 
 ZAR  HN ES   1    155  0.97                             122   -0.16 6  203 292 
 SML  HZ EP   1    154 40.14                             117   -0.19 6  243 335 
 SML  HN ES   1    155  8.70                             117    0.05 6  243 335 
 SML  HZ I         155 13.89         5.9 0.10            117            243 335 
 CHI  HZ EP   1    154 41.53                             116   -0.03 6  249 195 
 CHI  HN ES   1    155 10.09                             116   -0.75 6  249 195 
 CHI  HZ I         155 16.01         3.1 0.22            116            249 195 
 GUY2CHZ EP   1    154 48.36                             112    0.94 5  301 235 
 GUY2CHN ES   1    155 21.67                             112    0.41 5  301 235 
 GUY2CHZ I         155 29.55         3.5 0.36                           301 235 
                                                                                
