 2015  1 9 0325 41.7 L   6.874 -73.271166.0  RSN  5 0.6 1.4LRSN                1
 GAP=214        1.31       5.6    17.6 15.3 -0.6902E+01 -0.1216E+03  0.1454E+02E
 Epicentro: BETULIA - SANTANDER                                                3
 ACTION:UPD 15-03-02 15:38 OP:nd   STATUS:               ID:20150109032541 L   I
 OLDACT:REG 15-01-09 13:53 OP:cam  STATUS:               ID:20150109031816     3
 2015-01-09-0318-16M.COL___265                                                 6
 STAT SP IPHASW D HRMM SECON CODA AMPLIT PERI AZIMU VELO AIN AR TRES W  DIS CAZ7
 BRR  HZ EP        326  3.72                             161   -0.6410 55.1 298 
 BRR  HN ES        326 22.38                             161    0.3610 55.1 298 
 BRR  HZ I         326 24.86         4.6 0.34            161           55.1 298 
 PTB  HZ EP   1    326 10.27                             139    0.81 7  136 254 
 PTB  HN ES        326 30.48                             139   -0.60 9  136 254 
 PTB  HZ I         326 33.76         2.5 0.14            140            136 254 
 SPBC HN ES        326 35.81                             134    0.71 9  162 213 
 SML  HN ES        326 46.76                             123    0.08 8  231 338 
 SML  HZ I         326 50.59         3.2 0.26            124            231 338 
 CHI  HZ EP   1    326 21.65                             121    0.53 6  253 192 
 CHI  HN ES        326 51.18                             121   -0.67 8  253 192 
 CHI  HZ I         326 56.20         1.3 0.30            122            253 192 
                                                                                
