 2013 10 9 0134 26.6 L   6.797 -73.139147.1  RSN 14 0.5 2.5LRSN                1
 GAP= 72        1.03       2.8     3.4  6.2  0.2516E+00  0.5849E+01  0.1375E+01E
 Epicentro: LOS SANTOS - SANTANDER                                             3
 ACTION:UPD 13-11-25 09:20 OP:ep   STATUS:               ID:20131009013426 L   I
 OLDACT:UP  13-10-09 11:12 OP:mh   STATUS:               ID:20131009012959     3
 OLDACT:REG 13-10-09 07:31 OP:mh   STATUS:               ID:20131009012959     3
 2013-10-09-0129-59M.COL___273                                                 6
 STAT SP IPHASW D HRMM SECON CODA AMPLIT PERI AZIMU VELO AIN AR TRES W  DIS CAZ7
 BAR2 SZ EP   1    134 46.35                             171   -0.07 8 23.2 192 
 BAR2 SZ ES   1    135  1.49                             171   -0.36 8 23.2 192 
 BAR2 SZ I         135  4.19        98.9 0.38            170           23.2 192 
 BRR  HZ EP   1    134 48.32                             152    0.35 8 72.0 298 
 BRR  HN ES   1    135  5.57                             152    0.95 8 72.0 298 
 BRR  HZ I         135  7.79        45.6 0.14            151           72.0 298 
 PAM  SZ EP   1    134 49.20                             151    0.22 8 77.1  39 
 PAM  SN ES   1    135  6.05                             151   -0.35 8 77.1  39 
 PAM  SZ I         135  8.35        19.0 0.20            147           77.1  39 
 RUS  HZ EP   1    134 50.18                             144   -0.31 7  100 176 
 RUS  HN ES        135  8.88                             144   -0.2210  100 176 
 RUS  HZ I         135 10.39        26.6 0.22            141            100 176 
 PTB  HZ EP   1    134 53.25                             132   -0.53 7  148 259 
 PTB  HN ES        135 14.42                             132   -0.52 9  148 259 
 PTB  HZ I         135 21.61        55.7 0.40            130            148 259 
 TAM  HZ IP   2    134 54.46                             131    0.12 5  154 105 
 TAM  HZ I         135 15.35        19.3 0.30            127            154 105 
 TAM  HN ES        135 16.66                             131    0.71 9  154 105 
 OCA  HZ EP   1    134 54.88                             130   -0.20 7  161 353 
 OCA  HN ES        135 17.40                             130    0.13 9  161 353 
 OCA  HZ I         135 21.13        27.3 0.20            127            161 353 
 SPBC HZ IP     D  134 55.27                             129    0.01 9  163 219 
 SPBC HN ES   1    135 17.33                             129   -0.26 7  163 219 
 SPBC HZ I         135 22.40        52.8 0.18            127            163 219 
 ZAR  HZ EP   1    134 58.95                             122   -0.30 6  205 292 
 ZAR  HN ES        135 24.97                             122    0.28 9  205 292 
 ZAR  HZ I         135 30.95        39.6 0.36            120            205 292 
 SML  HZ EP   1    135  2.73                             118   -0.67 6  244 335 
 SML  HN ES        135 31.48                             118   -0.59 8  244 335 
 SML  HZ I         135 38.31        48.4 0.26            115            244 335 
 CHI  HZ EP   1    135  4.36                             117   -0.04 6  249 195 
 CHI  HN ES        135 33.13                             117   -0.73 8  249 195 
 CHI  HZ I         135 38.59        13.0 0.50            115            249 195 
 HEL  HZ EP   1    135  7.62                             115    0.63 6  273 256 
 HEL  HN ES        135 39.47                             115    1.00 8  273 256 
 HEL  HZ I         135 44.17        12.6 0.18            113            273 256 
 GUY2CHZ EP   1    135 11.20                             112    0.84 5  302 235 
 GUY2CHN ES   4    135 46.55                             112    2.09 0  302 235 
 GUY2CHZ I         135 50.91        18.1 0.26                           302 235 
 PRA  HZ EP   1    135 19.53                             107   -0.69 4  392 210 
 PRA  HN ES        136  2.88                             107    0.87 6  392 210 
 PRA  HZ I         136  5.88        11.3 0.38            105            392 210 
 SJC  HZ EP   4    135 19.91                             106   -2.41 0  410 327 
 SJC  HN ES   4    136  1.21                             106   -4.54 0  410 327 
                                                                                
