 2014 12 9 0552 46.0 L   6.048 -74.139 17.9  RSN 10 0.6 1.3LRSN                1
 GAP= 66        1.56       2.7     3.4  5.6  0.1346E+01  0.1098E+02  0.4234E+01E
 Epicentro: LA BELLEZA - SANTANDER                                             3
 ACTION:UPD 15-02-10 17:01 OP:nd   STATUS:               ID:20141209055246 L   I
 OLDACT:REG 14-12-09 12:59 OP:fm   STATUS:               ID:20141209054746     3
 2014-12-09-0547-46M.COL___297                                                 6
 STAT SP IPHASW D HRMM SECON CODA AMPLIT PERI AZIMU VELO AIN AR TRES W  DIS CAZ7
 SPBC HZ EP        552 53.97                             109    0.2510 44.3 170 
 SPBC HE ES        552 59.23                             109   -0.5510 44.3 170 
 SPBC HZ I         553  0.63        32.5 0.28             95           44.3 170 
 PTB  HZ EP        552 57.25                             103    0.6410 64.7 327 
 PTB  HE ES        553  5.17                             103    0.2510 64.7 327 
 PTB  HZ I         553  6.98        29.1 0.16             94           64.7 327 
 RUS  HZ EP        553  5.95                              97    0.8510  118  98 
 RUS  HN ES        553 19.04                              97   -0.9910  118  98 
 RUS  HZ I         553 20.78         2.0 0.14             92            118  98 
 BAR2 SZ ES        553 19.65                              97   -0.8810  122  60 
 BAR2 SZ I         553 23.88         6.3 0.22             92            122  60 
 BRR  HZ EP        553  5.92                              96    0.1110  126  22 
 BRR  HE ES        553 21.80                              96    0.5010  126  22 
 BRR  HZ I         553 24.41         8.1 0.12             92            126  22 
 HEL  HZ EP        553  9.64                              56   -0.15 9  155 276 
 HEL  HN ES        553 27.29                              56   -1.09 9  155 276 
 HEL  HZ I         553 28.31         6.5 0.18             91            155 276 
 GUY2CHZ EP        553 11.00                              56   -0.03 9  163 236 
 GUY2CHE ES        553 30.06                              56   -0.52 9  163 236 
 GUY2CHZ I         553 32.92         4.5 0.22                           163 236 
 CHI  HZ EP        553 11.66                              56    0.74 9  163 164 
 CHI  HN ES        553 31.31                              56    0.92 9  163 164 
 CHI  HZ I         553 37.90         2.7 0.44             56            163 164 
 ZAR  HN ES        553 32.64                              56   -0.26 9  178 334 
 ZAR  HZ I         553 35.03         2.8 0.18             56            178 334 
 RREF HZ EP        553 13.91                              56    0.08 9  184 227 
 RREF HE ES        553 35.69                              56    0.12 9  184 227 
 RREF HZ I         553 38.38         4.0 0.22             56            184 227 
                                                                                
