 2017  3 9 0641 49.8 L   6.823 -73.054148.6  RSN 10 0.4 1.5LRSN                1
 GAP=227        0.99       5.2     5.7  5.8  0.9338E+01 -0.3780E+01  0.2692E+01E
 Epicentro: LOS SANTOS - SANTANDER                                             3
 ACTION:UPD 17-05-25 18:38 OP:jn   STATUS:               ID:20170309064149 L   I
 OLDACT:UP  17-03-09 16:37 OP:and  STATUS:               ID:20170309063743     3
 OLDACT:UP  17-03-09 16:37 OP:and  STATUS:               ID:20170309063743     3
 OLDACT:UP  17-03-09 16:37 OP:and  STATUS:               ID:20170309063743     3
 OLDACT:UP  17-03-09 16:36 OP:and  STATUS:               ID:20170309063743     3
 OLDACT:UP  17-03-09 16:36 OP:and  STATUS:               ID:20170309063743     3
 OLDACT:UP  17-03-09 16:35 OP:and  STATUS:               ID:20170309063743     3
 OLDACT:UP  17-03-09 16:35 OP:and  STATUS:               ID:20170309063743     3
 OLDACT:REG 17-03-09 12:45 OP:and  STATUS:               ID:20170309063743     3
 2017-03-09-0638-00M.COL___397                                                 6
 STAT SP IPHASW D HRMM SECON CODA AMPLIT PERI AZIMU VELO AIN AR TRES W  DIS CAZ7
 BAR2 EZ EP        642 10.01                             168    0.1010 29.2 209 
 BAR2 EZ ES        642 25.00                             168   -0.5910 29.2 209 
 BAR2 EZ I         642 27.23         5.3 0.40            157           29.2 209 
 BRR  HZ EP        642 11.84                             150    0.1110 79.3 293 
 BRR  HN ES        642 29.45                             150    0.6210 79.3 293 
 BRR  HZ I         642 32.52         3.8 0.18            139           79.3 293 
 RUS  HZ EP        642 14.54                             144    0.5310  103 182 
 RUS  HN ES        642 32.90                             144    0.0210  103 182 
 PTB  HZ EP   9    642 17.05                             131   -0.91 0  158 259 
 PTB  HN ES        642 38.97                             131   -0.04 9  158 259 
 PTB  HZ I         642 41.77         2.9 0.16            120            158 259 
 SPBC HZ EP        642 19.23                             128   -0.10 9  172 221 
 SPBC HN ES        642 42.39                             128    0.03 9  172 221 
 SPBC HZ I         642 48.81         4.3 0.20            119            172 221 
 ZAR  HN ES        642 48.68                             122   -0.78 8  213 290 
 NOR  HZ EP        642 26.74                             118   -0.01 8  244 235 
 NOR  HZ I         642 57.60         2.6 0.20            110            244 235 
 NOR  HN ES   4    642 58.51                             118    2.94 0  244 235 
 PTGC HZ EP        642 33.12                             112   -0.54 7  308 161 
 GUY2CHZ EP   9    642 36.80                             112    2.15 0  311 235 
 GUY2CHN ES        643 12.56                             111    0.78 7  311 235 
 GUY2CHZ  IAML     643 16.90         1.6 0.44                           311 235 
 PRA  HZ EP        642 44.58                             107    0.30 6  399 211 
 PRA  HN ES   2    643 26.56                             107   -0.21 3  399 211 
 PRA  HZ I         643 32.49         1.4 0.32            101            399 211 
                                                                                
