 2014  3 9 0645 26.9 L   6.800 -73.144146.7  RSN 19 0.4 2.6LRSN                1
 GAP= 71        0.87       2.6     2.5  4.7 -0.5602E+00  0.3970E+01 -0.5827E+00E
 Epicentro: LOS SANTOS - SANTANDER                                             3
 ACTION:UPD 14-04-09 23:15 OP:nd   STATUS:               ID:20140309064526 L   I
 OLDACT:REG 14-03-09 09:37 OP:nd   STATUS:               ID:20140309064043     3
 2014-03-09-0640-43M.COL___219                                                 6
 STAT SP IPHASW D HRMM SECON CODA AMPLIT PERI AZIMU VELO AIN AR TRES W  DIS CAZ7
 BAR2 SZ EP     C  645 46.71                             171    0.0510 23.4 190 
 BAR2 SZ ES        646  2.19                             171    0.1310 23.4 190 
 BAR2 SZ I         646  3.47       115.7 0.28            169           23.4 190 
 PAM  SZ EP     C  645 49.53                             151    0.3010 77.2  39 
 PAM  SN ES        646  6.74                             151    0.1210 77.2  39 
 PAM  SZ I         646  8.92      1873.2 0.22            146           77.2  39 
 RUS  HZ EP     D  645 50.58                             144   -0.1910  101 176 
 RUS  HN ES        646  8.83                             144   -0.5310  101 176 
 RUS  HZ I         646 10.60        28.4 0.42            139            101 176 
 PTB  HZ EP        645 53.34                             132   -0.64 9  148 259 
 PTB  HN ES        646 14.69                             132   -0.39 9  148 259 
 PTB  HZ I         646 20.62        54.1 0.22            127            148 259 
 TAM  HZ EP     D  645 54.89                             131    0.23 9  155 105 
 TAM  HZ I         646 15.75        31.6 0.42            125            155 105 
 TAM  HN ES        646 16.24                             131   -0.05 9  155 105 
 SPBC HZ EP        645 55.73                             129    0.23 9  163 219 
 SPBC HN ES        646 18.56                             129    0.76 9  163 219 
 SPBC HZ I         646 22.82        69.6 0.40            124            163 219 
 ZAR  HZ EP        645 59.47                             122    0.03 9  204 292 
 ZAR  HN ES        646 25.15                             122    0.34 9  204 292 
 ZAR  HZ I         646 31.11        52.1 0.30            118            204 292 
 NOR  HZ EP        646  2.77                             119    0.05 8  235 234 
 NOR  HN ES        646 30.91                             119    0.27 8  235 234 
 NOR  HZ I         646 34.58        31.9 0.24            114            235 234 
 SML  HZ EP        646  2.86                             118   -0.74 8  244 335 
 SML  HN ES        646 32.23                             118    0.02 8  244 335 
 SML  HZ I         646 37.78        59.7 0.10            113            244 335 
 CHI  HZ EP        646  4.67                             117   -0.01 8  249 195 
 CHI  HN ES        646 33.85                             117   -0.28 8  249 195 
 CHI  HZ I         646 40.13        14.1 0.26            112            249 195 
 ROSC BZ EP   4    646  6.39                             117    1.28 0  253 211 
 ROSC BN ES   4    646 37.07                             117    2.18 0  253 211 
 ROSC BZ I         646 44.63        40.4 0.45            112            253 211 
 HEL  HZ EP        646  7.78                             115    0.58 8  272 256 
 HEL  HN EP        646  8.14                                            272 256 
 HEL  HE ES        646 38.23                             115   -0.39 8  272 256 
 HEL  HZ I         646 45.45        16.6 0.38            111            272 256 
 HEL  HN I         646 47.74        22.7 0.38                           272 256 
 VIL  SZ EP   4    646  9.27                             112   -1.12 0  303 192 
 VIL  SN ES   4    646 43.71                             112   -0.58 0  303 192 
 VIL  SZ I         646 54.95        23.5 0.38            108            303 192 
 CBOC HZ EP        646 14.26                             110    0.37 7  334 252 
 CBOC HN ES        646 50.42                             110   -0.11 7  334 252 
 CBOC HZ I         646 59.88         6.9 0.40            106            334 252 
 DBB  SZ EP   4    646 14.31                             110   -0.15 0  340 274 
 DBB  SZ ES   4    646 51.04                             110   -0.49 0  340 274 
 DBB  SZ I         646 53.32        16.5 0.46            106            340 274 
 COD  HZ EP   4    646 14.05                             109   -1.28 0  348 355 
 COD  HN ES   4    646 51.72                             109   -1.37 0  348 355 
 COD  HZ I         646 55.71         6.1 0.18            105            348 355 
 ARGC HZ EP   4    646 16.89                             108    0.27 0  359 340 
 ARGC HN ES   4    646 53.84                             108   -1.54 0  359 340 
 ARGC HZ I         647  7.65        12.6 0.36            104            359 340 
 SJC  HZ EP   4    646 20.46                             106   -2.06 0  409 327 
 SJC  HN ES   4    647  1.88                             106   -4.01 0  409 327 
 SJC  HZ I         647 14.72         5.7 0.36            102            409 327 
 SMAR HZ EP   4    646 32.13                             102   -0.69 0  497 346 
 SMAR HN ES   4    647 19.13                             102   -5.09 0  497 346 
 SMAR HZ I         647 25.50        11.0 0.18             99            497 346 
 URI  HZ EP   4    646 36.40                             101   -3.54 0  557  13 
 URI  HN ES   4    647 33.69                             101   -3.20 0  557  13 
                                                                                
