 2016  2 9 0831  3.4 L   6.812 -73.137140.7  RSN 10 0.4 1.7LRSN                1
 GAP=184        0.96       2.5     4.3  5.9 -0.6674E+00  0.6060E+01 -0.1998E+01E
 Epicentro: LOS SANTOS - SANTANDER                                             3
 ACTION:UPD 16-03-04 21:24 OP:rebc STATUS:               ID:20160209083103 L   I
 OLDACT:REG 16-02-09 13:09 OP:ak   STATUS:               ID:20160209082750     3
 2016-02-09-0827-50M.COL___322                                                 6
 STAT SP IPHASW D HRMM SECON CODA AMPLIT PERI AZIMU VELO AIN AR TRES W  DIS CAZ7
 BAR2 EZ EP        831 22.76                             170    0.3310 24.8 192 
 BAR2 EZ ES        831 37.33                             170    0.0410 24.8 192 
 BAR2 EZ I         831 38.95         9.4 0.48            169           24.8 192 
 RUS  HZ EP        831 26.20                             142   -0.5310  102 177 
 RUS  HN ES        831 45.20                             142    0.2610  102 177 
 RUS  HZ I         831 46.59         5.6 0.26            145            102 177 
 PTB  HZ EP        831 29.28                             131   -0.77 9  149 258 
 PTB  HN ES        831 50.16                             131   -0.69 9  149 258 
 PTB  HZ I         831 55.12         4.2 0.16            131            149 258 
 OCA  HZ EP        831 31.56                             129    0.37 9  159 353 
 OCA  HN ES        831 53.03                             129    0.15 9  159 353 
 OCA  HZ I         831 56.59        13.4 0.18            131            159 353 
 SPBC HZ EP        831 31.49                             128   -0.16 9  165 219 
 SPBC HN ES        831 53.44                             128   -0.26 9  165 219 
 SPBC HZ I         832  0.31         4.8 0.17            129            165 219 
 ZAR  HZ EP        831 35.55                             121    0.01 9  204 292 
 ZAR  HN ES        832  1.31                             121    0.68 9  204 292 
 ZAR  HZ I         832  6.45         7.1 0.50            122            204 292 
 NOR  HN ES        832  7.09                             117    0.33 8  236 234 
 SML  HZ EP        831 39.47                             116   -0.17 8  243 335 
 SML  HN ES        832  7.72                             116   -0.20 8  243 335 
 SML  HZ I         832 10.83         7.8 0.09            118            243 335 
 CHI  HZ EP        831 40.98                             116    0.01 8  250 195 
 CHI  HN ES        832 10.72                             116    0.43 8  250 195 
 CHI  HZ I         832 16.14         1.5 0.34            118            250 195 
 GUY2CHZ EP        831 47.13                             111    0.19 7  303 235 
 GUY2CHN ES        832 21.40                             111    0.49 7  303 235 
 GUY2CHZ I         832 31.86         1.7 0.48                           303 235 
                                                                                
