 2010  7 9 0200 38.8 L   6.774 -73.132153.4  RSN  7 0.2 1.7LRSN                1
 GAP=160        0.44       2.2     5.2  3.9 -0.2319E+01 -0.3182E+01 -0.3992E+00E
 Epicentro: LOS SANTOS - SANTANDER                                             3
 ACTION:UPD 10-12-01 15:16 OP:pat  STATUS:               ID:20100709020038 L   I
 2010-07-09-0158-17S.COL___117                                                 6
 STAT SP IPHASW D HRMM SECON CODA AMPLIT PERI AZIMU VELO AIN AR TRES W  DIS CAZ7
 BAR2 SZ EP        2 0 59.20                             172    -0.110   21 196 
 BAR2 SZ ES   1    2 1 15.29                             172     0.0 7   21 196 
 BAR2 SZ I         2 1 15.84        17.2 0.21                            21 196 
 BRR  HZ IP     D  2 1  1.13                             153     0.210   74 300 
 BRR  HZ I         2 1  2.52        11.0 0.11                            74 300 
 BRR  HE ES   1    2 1 18.23                             153     0.0 7   74 300 
 RUS  HZ EP   1    2 1  3.15                             146     0.0 7   98 177 
 RUS  HN ES   1    2 1 22.18                             146     0.1 7   98 177 
 RUS  HZ I         2 1 23.53         4.2 0.17                            98 177 
 GUE  SZ EP   1    2 1  4.44                             140     0.0 7  119  11 
 GRA  SZ EP        2 1  5.02                             138     0.110  128  16 
 GRA  SZ ES   1    2 1 25.21                             138    -0.1 7  128  16 
 OCA  SZ EP   2    2 1  7.55                             131    -0.5 5  163 353 
 CHI  HZ EP   1    2 1 16.92                             119     0.2 6  246 196 
 CHI  HN ES   2    2 1 45.59                             119    -0.7 4  246 196 
 CHI  HZ I         2 1 54.84         2.5 0.23                           246 196 
                                                                                
