 2015  4 9 0931  1.1 L   6.867 -73.318128.0  RSN 13 0.4 2.5LRSN                1
 GAP=101        1.01       2.7     3.5  6.2 -0.1898E+01  0.7673E+01 -0.5696E+00E
 Epicentro: BETULIA - SANTANDER                                                3
 ACTION:UPD 15-06-03 16:53 OP:cam  STATUS:               ID:20150409093101 L   I
 OLDACT:REG 15-04-09 13:42 OP:akv  STATUS:               ID:20150409092748     3
 2015-04-09-0927-48M.COL___260                                                 6
 STAT SP IPHASW D HRMM SECON CODA AMPLIT PERI AZIMU VELO AIN AR TRES W  DIS CAZ7
 BAR2 EZ EP        931 19.15                             164    0.2610 33.9 154 
 BRR  HZ EP        931 19.55                             157    0.3210 51.0 301 
 BRR  HN ES        931 33.43                             157    0.0610 51.0 301 
 BRR  HZ I         931 35.46        66.6 0.07            155           51.0 301 
 PAM  SZ EP        931 22.34                             144    0.3010 86.0  53 
 PAM  SN ES        931 38.60                             144    0.2210 86.0  53 
 PAM  SZ I         931 41.16        44.8 0.18            150           86.0  53 
 RUS  HZ EP   1    931 23.94                             137   -0.04 7  111 166 
 RUS  HN ES        931 41.27                             137   -0.5610  111 166 
 RUS  HZ I         931 43.77        28.6 0.28            140            111 166 
 PTB  HZ EP   1    931 24.49                             131   -0.60 7  131 254 
 PTB  HN ES   1    931 44.29                             131    0.48 7  131 254 
 PTB  HZ I         931 46.32        75.1 0.08            132            131 254 
 OCA  HZ EP   1    931 27.12                             127   -0.12 7  152 360 
 OCA  HN ES        931 46.75                             127   -0.88 9  152 360 
 SPBC HZ EP   1    931 27.95                             125    0.15 7  158 212 
 SPBC HN ES        931 48.52                             125   -0.10 9  158 212 
 SPBC HZ I         931 54.62        33.0 0.16            127            158 212 
 ZAR  HZ EP        931 30.81                             121    0.53 9  184 292 
 ZAR  HN ES        931 53.50                             121    0.45 9  184 292 
 ZAR  HZ I         931 58.73        61.6 0.54            122            184 292 
 NOR  HZ EP        931 34.49                             116   -0.21 8  224 230 
 NOR  HE ES        932  1.42                             116    0.51 8  224 230 
 NOR  HZ I         932  9.92        19.8 0.16            117            224 230 
 SML  HZ EP        931 35.42                             115    0.22 8  229 339 
 SML  HN ES        932  1.62                             115   -0.18 8  229 339 
 SML  HZ I         932  7.09        74.2 0.26            117            229 339 
 HEL  HZ EP        931 38.76                             112    0.15 8  256 253 
 HEL  HN ES        932  6.84                             112   -1.04 8  256 253 
 HEL  HZ I         932 14.06        15.0 0.22            114            256 253 
 URE  HZ EP   1    931 38.37                             111   -0.66 6  263 292 
 URE  HN ES   4    932  7.23                             111   -1.39 0  263 292 
 GUY2CHZ EP   1    931 42.89                             109    0.19 5  290 231 
 GUY2CHE ES   4    932 16.21                             109    1.05 0  290 231 
 GUY2CHZ I         932 18.51         9.0 0.32                           290 231 
 MON  HZ EP   4    931 46.00                             106   -1.18 0  334 309 
 MON  HN ES   4    932 21.44                             106   -1.68 0  334 309 
                                                                                
