 2011  4 9 0811 53.0 L   6.788 -73.101143.0  RSN  7 0.4 1.7LRSN                1
 GAP=166        0.76       6.3     8.2  8.7 -0.2844E+02  0.5365E+01  0.2356E+01E
 Epicentro: LOS SANTOS - SANTANDER                                             3
 ACTION:UP  11-06-22 15:29 OP:REBC STATUS:               ID:20110409081153 L   I
 2011-04-09-0808-15S.COL___138                                                 6
 STAT SP IPHASW D HRMM SECON CODA AMPLIT PERI AZIMU VELO SNR AR TRES W  DIS CAZ7
 BTL  SZ EP   1    812 12.14                             170    -0.1 7   23 308 
 BAR2 SZ EP   1    812 12.56                             170     0.3 7   23 202 
 BAR2 SZ ES   2    812 26.68                             170    -0.7 5   23 202 
 BAR2 SZ I         812 31.68         8.3 0.20                            23 202 
 PAM  SZ EP        812 14.91                             151     0.110   75  36 
 PAM  SE ES   2    812 32.34                             151     0.6 5   75  36 
 BRR  HZ EP   1    812 14.13                             150     0.0 7   76 298 
 BRR  HZ I         812 16.39         9.2 0.13                            76 298 
 BRR  HE ES   2    812 31.48                             150     0.9 5   76 298 
 GRA  SZ EP   1    812 18.10                             136     0.1 7  126  15 
 GRA  SZ ES   1    812 36.81                             136    -0.6 7  126  15 
 GRA  SZ I         812 39.77         7.7 0.30                           126  15 
 OCA  SZ EP   1    812 21.37                             129     0.1 7  162 351 
 OCA  SZ ES   2    812 43.05                             129    -0.3 5  162 351 
 OCA  SZ I         812 48.37         7.8 0.41                           162 351 
 NOR  SZ EP   2    812 28.30                             117    -0.6 4  238 235 
 NOR  SE ES   2    812 56.84                             117    -0.1 4  238 235 
                                                                                
