 2011  6 9 0519 29.8 L   6.785 -73.010146.5  RSN  5 0.2 1.4LRSN                1
 GAP=174        0.55       5.0     7.9  8.8 -0.7125E+01  0.2133E+02 -0.6322E+01E
 Epicentro: CEPITA - SANTANDER                                                 3
 ACTION:UP  11-07-14 19:04 OP:ep   STATUS:               ID:20110609051929 L   I
 2011-06-09-0517-53S.COL___121                                                 6
 STAT SP IPHASW D HRMM SECON CODA AMPLIT PERI AZIMU VELO SNR AR TRES W  DIS CAZ7
 BAR2 SZ ES   1    520  5.43                             168     0.3 7   29 222 
 BAR2 SZ I         520  6.39         3.7 0.18                            29 222 
 BRR  HZ EP   1    519 52.08                             148     0.2 7   85 295 
 BRR  HE ES   1    520  8.98                             148    -0.2 7   85 295 
 BRR  HZ I         520 11.38         5.4 0.25                            85 295 
 RUS  HZ I         520  9.84         4.3 0.64                            99 185 
 RUS  HN ES   2    520 11.63                             144    -0.4 5   99 185 
 GRA  SZ ES   2    520 14.40                             138    -0.2 5  124  11 
 GRA  SZ I         520 16.90         2.8 0.28                           124  11 
 NOR  SE ES   2    520 35.70                             117     0.0 4  246 237 
                                                                                
