 2016 12 9 0546 17.1 L   6.796 -73.112150.7  RSN 14 0.6 1.9LRSN                1
 GAP=141        1.36       5.0     5.5  7.6  0.4069E+00  0.1446E+02  0.1119E+02E
 Epicentro: LOS SANTOS - SANTANDER                                             3
 ACTION:UPD 17-01-11 20:13 OP:rebc STATUS:               ID:20161209054617 L   I
 OLDACT:UP  16-12-09 14:40 OP:dnl  STATUS:               ID:20161209053745d    3
 OLDACT:DUP 16-12-09 14:33 OP:dnl  STATUS:               ID:20161209053745d    3
 2016-12-09-0538-00M.COL___373                                                 6
 STAT SP IPHASW D HRMM SECON CODA AMPLIT PERI AZIMU VELO AIN AR TRES W  DIS CAZ7
 BAR2 EZ EP        546 37.23                             171   -0.1110 23.8 199 
 BAR2 EZ ES        546 52.70                             171   -0.4210 23.8 199 
 BAR2 EZ I         546 54.05        20.8 0.46            169           23.8 199 
 BRR  HZ IP     C  546 39.06                             152    0.0810 74.7 297 
 BRR  HN ES        546 56.55                             152    0.5010 74.7 297 
 BRR  HZ I         547  1.36        11.8 0.16            152           74.7 297 
 PAM  EZ EP        546 40.27                             152    0.5410 75.5  37 
 PAM  EN ES        546 57.43                             152    0.0410 75.5  37 
 PAM  EZ I         547  1.75         7.7 0.78            156           75.5  37 
 RUS  HZ EP        546 41.32                             145    0.0310 99.9 178 
 RUS  HE ES        546 59.97                             145   -0.2010 99.9 178 
 RUS  HZ I         547  0.82         9.6 0.26            146           99.9 178 
 PTB  HZ EP        546 43.78                             132   -1.01 9  151 259 
 PTB  HE ES        547  6.45                             132    0.05 9  151 259 
 PTB  HZ I         547  9.83        12.5 0.30            133            151 259 
 ZAR  HZ EP        546 49.73                             123   -0.51 8  208 292 
 ZAR  HN ES        547 15.70                             123   -0.39 8  208 292 
 ZAR  HZ I         547 21.00        15.6 0.62            124            208 292 
 CHI  HZ EP        546 54.95                             118   -0.18 8  249 196 
 CHI  HN ES        547 24.92                             118    0.12 8  249 196 
 CHI  HZ I         547 30.48         5.1 0.30            120            249 196 
 ROSC BZ EP   4    546 56.81                             117    1.15 0  254 212 
 ROSC BN ES   4    547 29.70                             117    3.97 0  254 212 
 ROSC BZ I         547 30.81         8.7 0.45            119            254 212 
 GUY2CHZ EP        547  1.77                             113    0.52 7  304 235 
 GUY2CHE ES        547 37.73                             113    2.04 7  304 235 
 GUY2CHZ I         547 45.99         4.1 0.32                           304 235 
 PTGC HZ EP   4    547  0.03                             113   -0.95 0  307 159 
 PTGC HN ES   4    547 33.04                             113   -2.17 0  307 159 
 PTGC HZ I         547 35.13         3.0 0.38            115            307 159 
 LL6C HZ EP   9    546 42.70                             111   -20.4 0  326 357 
 LL6C HN ES        547 19.45                                    0.88 7  326 357 
 CBOC HZ EP        547  5.23                             110    0.62 7  337 252 
 CBOC HN ES        547 40.61                             110   -1.06 7  337 252 
 CBOC HZ I         547 47.72         1.5 0.36            112            337 252 
 PRA  HZ EP        547 11.06                             107    0.10 6  393 210 
 PRA  HE ES        547 52.75                             107   -0.22 6  393 210 
 PRA  HZ I         547 56.44         4.1 0.26            109            393 210 
 SJC  HZ EP   4    547 11.44                             106   -1.67 0  412 327 
 SJC  HE ES   4    547 51.76                             106   -5.04 0  412 327 
 SJC  HZ I         547 57.12         1.5 0.28            108            412 327 
                                                                                
