 2013  4 9 0411  0.5 L   6.724 -73.172148.9  RSN  5 0.2 1.6LRSN                1
 GAP=177        0.61       4.6     4.4  6.5  0.5920E+01 -0.2500E+01 -0.7324E+01E
 Epicentro: VILLANUEVA - SANTANDER                                             3
 ACTION:UPD 13-05-22 14:36 OP:EP   STATUS:               ID:20130409041100 L   I
 2013-04-09-0408-46M.COL___218                                                 6
 STAT SP IPHASW D HRMM SECON CODA AMPLIT PERI AZIMU VELO AIN AR TRES W  DIS CAZ7
 BAR2 SZ EP        411 20.17                             174   -0.2010 14.6 185 
 GIR2 SZ EP        411 20.52                             164   -0.2710 39.3 357 
 BRR  HZ EP        411 22.42                             152    0.3110 73.2 305 
 BRR  HN ES        411 39.07                             152    0.1110 73.2 305 
 BRR  HN I         411 43.31         7.5 0.14            152           73.2 305 
 RUS  HN ES        411 42.45                             147    0.1210 92.4 174 
 PTB  HZ EP        411 27.52                             134    0.17 9  144 262 
 PTB  HN ES        411 48.04                             134   -0.25 9  144 262 
 PTB  HN I         411 50.55         5.6 0.24            136            144 262 
                                                                                
