 2017  3 9 0819  5.6 L   6.743 -73.153156.0  RSN  6 0.4 1.2LRSN                1
 GAP=248        0.67       4.4     5.1  6.6  0.9051E+00 -0.4448E+01 -0.1642E+01E
 Epicentro: LOS SANTOS - SANTANDER                                             3
 ACTION:UPD 17-05-25 18:38 OP:jn   STATUS:               ID:20170309081905 L   I
 OLDACT:UP  17-03-09 17:12 OP:and  STATUS:               ID:20170309081745     3
 OLDACT:UP  17-03-09 17:12 OP:and  STATUS:               ID:20170309081745     3
 OLDACT:UP  17-03-09 17:11 OP:and  STATUS:               ID:20170309081745     3
 OLDACT:UP  17-03-09 17:11 OP:and  STATUS:               ID:20170309081745     3
 OLDACT:UP  17-03-09 17:10 OP:and  STATUS:               ID:20170309081745     3
 OLDACT:UP  17-03-09 17:10 OP:and  STATUS:               ID:20170309081745     3
 OLDACT:REG 17-03-09 12:50 OP:and  STATUS:               ID:20170309081745     3
 2017-03-09-0818-00M.COL___397                                                 6
 STAT SP IPHASW D HRMM SECON CODA AMPLIT PERI AZIMU VELO AIN AR TRES W  DIS CAZ7
 BAR2 EZ EP        819 26.28                             174   -0.1110 16.9 191 
 BAR2 EZ ES   3    819 41.53                             174   -1.05 2 16.9 191 
 BRR  HZ EP        819 28.23                             153    0.2010 73.7 303 
 BRR  HN ES        819 45.61                             153    0.1110 73.7 303 
 PTB  HZ EP        819 33.23                             135   -0.05 9  146 261 
 PTB  HN ES        819 54.39                             135   -0.46 9  146 261 
 PTB  HZ I         820  1.58         1.5 0.31            114            146 261 
 SPBC HZ EP   3    819 35.03                             132    0.59 2  158 220 
 SPBC HN ES        819 57.26                             132    0.35 9  158 220 
 SPBC HZ I         820  1.16         2.0 0.23            113            158 220 
 ZAR  HZ EP        819 38.63                             124   -0.31 8  206 294 
 ZAR  HZ I         820  4.83         1.4 0.48            107            206 294 
 ZAR  HN ES        820  5.27                             124    0.36 8  206 294 
 NOR  HN ES   3    820  8.73                             121   -0.79 2  230 236 
                                                                                
