 2015  6 9 0540 34.4 L   6.731 -73.207145.6  RSN  5 0.2 1.2LRSN                1
 GAP=223        0.65       3.6     4.7  5.7  0.8201E+01  0.1690E+01 -0.1348E+01E
 Epicentro: VILLANUEVA - SANTANDER                                             3
 ACTION:UPD 15-09-10 22:10 OP:cam  STATUS:               ID:20150609054034 L   I
 OLDACT:REG 15-06-09 13:21 OP:stll STATUS:               ID:20150609053747     3
 2015-06-09-0537-47M.COL___300                                                 6
 STAT SP IPHASW D HRMM SECON CODA AMPLIT PERI AZIMU VELO AIN AR TRES W  DIS CAZ7
 BAR2 EZ EP        540 53.56                             174   -0.3510 15.6 170 
 BAR2 EZ I         541  9.40         4.4 0.32            174           15.6 170 
 BRR  HZ EP        540 55.41                             153   -0.0610 69.6 307 
 BRR  HN ES        541 12.18                             153    0.3010 69.6 307 
 RUS  HZ EP        540 57.68                             146   -0.0010 93.8 172 
 RUS  HZ I         540 58.59         1.7 0.10            146           93.8 172 
 RUS  HE ES        541 15.84                             146    0.0210 93.8 172 
 SPBC HZ EP        541  2.39                             131    0.43 9  153 219 
 SPBC HN ES        541 23.26                             131   -0.18 9  153 219 
 SPBC HZ I         541 31.55         2.2 0.22            132            153 219 
 ZAR  HZ EP        541  6.68                             123    0.15 9  201 295 
 ZAR  HN ES        541 31.28                             123   -0.30 9  201 295 
 ZAR  HZ I         541 37.64         1.9 0.28            123            201 295 
                                                                                
