 2014  5 9 0501 27.4 L   6.519 -73.548 21.1  RSN  5 0.3 1.6LRSN                1
 GAP= 99        0.91       4.7     2.3  8.0  0.4664E+01 -0.8493E+01 -0.3272E+02E
 Epicentro: EL CARMEN DE CHUCURI - SANTANDER                                   3
 ACTION:UPD 15-03-16 16:56 OP:nd   STATUS:               ID:20140509050127 L   I
 OLDACT:DUP 14-05-09 16:39 OP:carl STATUS:               ID:20140509045820d    3
 2014-05-09-0458-10M.COL___237                                                 6
 STAT SP IPHASW D HRMM SECON CODA AMPLIT PERI AZIMU VELO AIN AR TRES W  DIS CAZ7
 RUS  HZ EP        5 1 42.00                             102    0.1410 86.3 143 
 RUS  HN ES        5 1 52.77                             102   -0.3710 86.3 143 
 PTB  HZ IP     D  5 1 43.37                             100   -0.0910  100 271 
 PTB  HN ES        5 1 55.77                             100   -0.2210  100 271 
 PTB  HZ I         5 1 56.52        27.0 0.20             94            100 271 
 SPBC HZ EP        5 1 46.10                              99    0.8310  112 211 
 SPBC HN ES        5 1 58.93                              99   -0.2810  112 211 
 SPBC HZ I         5 2  2.57        12.9 0.42             93            112 211 
 PAM  SZ EP        5 1 48.43                              56    0.3310  131  46 
 PAM  SN ES        5 2  3.98                              56   -0.2710  131  46 
 PAM  SZ I         5 2  4.61        13.0 0.28             93            131  46 
 ZAR  HZ EP        5 1 53.84                              56    0.09 9  180 307 
 ZAR  HN ES        5 2 14.17                              56   -0.13 9  180 307 
 ZAR  HZ I         5 2 18.55         3.8 0.10             56            180 307 
                                                                                
