 2011  4 9 0329 51.0 L   6.665 -73.189143.6  RSN  6 0.2 2.0LRSN                1
 GAP=176        0.60       4.2     8.9  5.8  0.8184E+01 -0.1464E+02  0.1366E+01E
 Epicentro: VILLANUEVA - SANTANDER                                             3
 ACTION:UP  11-06-22 15:29 OP:REBC STATUS:               ID:20110409032951 L   I
 2011-04-09-0320-00M.COL___138                                                 6
 STAT SP IPHASW D HRMM SECON CODA AMPLIT PERI AZIMU VELO SNR AR TRES W  DIS CAZ7
 BAR2 SZ EP        330 10.03                             177    -0.110    8 175 
 BAR2 SZ ES   1    330 25.22                             177     0.1 7    8 175 
 BAR2 SZ I         330 26.60        37.3 0.12                             8 175 
 BTL  SZ EP        330 10.37                             168    -0.110   29 343 
 GIR2 SZ EP   2    330 11.19                             161     0.3 5   46 359 
 BRR  HZ IP     C  330 11.90                             151    -0.310   76 310 
 BRR  HZ I         330 12.15        42.2 0.15                            76 310 
 BRR  HE ES        330 28.81                             151     0.110   76 310 
 OCA  SZ EP   1    330 20.93                             127     0.4 7  175 355 
 OCA  SZ ES   1    330 43.55                             127     0.0 7  175 355 
 OCA  SZ I         330 49.12         7.6 0.39                           175 355 
 CHI  HZ EP   1    330 27.24                             118     0.4 6  233 195 
 CHI  HZ I         331  1.62         2.1 0.28                           233 195 
                                                                                
