 2016  5 9 0112 44.7 L   6.817 -73.155149.6  RSN 11 0.3 1.8LRSN                1
 GAP=135        0.82       2.4     3.3  4.4 -0.6080E+00  0.2985E+01  0.1489E+01E
 Epicentro: LOS SANTOS - SANTANDER                                             3
 ACTION:UPD 16-08-18 17:43 OP:cam  STATUS:               ID:20160509011244 L   I
 OLDACT:UP  16-05-09 13:16 OP:drio STATUS:               ID:20160509010748     3
 OLDACT:REG 16-05-09 12:12 OP:drio STATUS:               ID:20160509010748     3
 2016-05-09-0107-48M.COL___292                                                 6
 STAT SP IPHASW D HRMM SECON CODA AMPLIT PERI AZIMU VELO AIN AR TRES W  DIS CAZ7
 BAR2 EZ EP        113  4.57                             170   -0.2810 25.1 187 
 BAR2 EZ ES        113 20.37                             170   -0.1810 25.1 187 
 BAR2 EZ I         113 21.22        18.1 0.26            167           25.1 187 
 BRR  HZ EP        113  6.51                             154    0.3210 69.4 298 
 BRR  HE ES        113 23.75                             154    0.8110 69.4 298 
 BRR  HZ I         113 26.70        10.2 0.18            151           69.4 298 
 PAM  EZ EP        113  7.58                             152    0.2810 76.6  41 
 PAM  EE ES        113 25.01                             152    0.1010 76.6  41 
 PAM  EZ I         113 26.78         9.3 0.54            157           76.6  41 
 RUS  HZ EP        113  8.71                             144   -0.2910  103 176 
 RUS  HE ES        113 27.59                             144   -0.3410  103 176 
 RUS  HZ I         113 28.39         4.6 0.68            145            103 176 
 PTB  HZ EP   4    113 11.04                             133   -0.92 0  147 258 
 PTB  HN ES        113 32.73                             133   -0.47 9  147 258 
 PTB  HZ I         113 39.83         6.1 0.22            131            147 258 
 SPBC HZ EP        113 13.65                             130    0.04 9  164 218 
 SPBC HN ES        113 36.23                             130    0.10 9  164 218 
 SPBC HZ I         113 40.04        12.1 0.18            129            164 218 
 ZAR  HZ EP   4    113 19.28                             123    2.02 0  202 292 
 ZAR  HN ES        113 42.32                             123   -0.31 9  202 292 
 ZAR  HZ I         113 47.79         7.5 0.30            123            202 292 
 NOR  HZ EP        113 20.89                             119    0.17 8  235 234 
 NOR  HE ES        113 48.66                             119   -0.13 8  235 234 
 NOR  HZ I         113 58.03         3.0 0.36            119            235 234 
 SML  HZ EP        113 21.05                             118   -0.29 8  242 335 
 SML  HE ES        113 49.60                             118   -0.29 8  242 335 
 CHI  HZ EP        113 23.01                             118    0.20 8  250 195 
 CHI  HE ES        113 52.55                             118    0.03 8  250 195 
 CHI  HZ I         113 55.98         4.4 0.46            119            250 195 
 PRA  HZ EP        113 38.65                             107    0.13 6  393 209 
 PRA  HE ES        114 21.21                             107    0.73 6  393 209 
 PRA  HZ I         114 26.93         3.4 0.34            108            393 209 
                                                                                
