 2013  8 9 0030 48.4 L   6.788 -73.163138.8  RSN  7 0.4 1.5LRSN                1
 GAP=135        1.06       4.4     5.7  8.0  0.4031E+01  0.6578E+01  0.5589E+00E
 Epicentro: LOS SANTOS - SANTANDER                                             3
 ACTION:UPD 14-01-14 09:00 OP:ep   STATUS:               ID:20130809003048 L   I
 OLDACT:REG 13-08-09 06:13 OP:jn   STATUS:               ID:20130809002959     3
 2013-08-09-0029-59M.COL___268                                                 6
 STAT SP IPHASW D HRMM SECON CODA AMPLIT PERI AZIMU VELO AIN AR TRES W  DIS CAZ7
 BAR2 SZ ES   1    031 21.60                             171   -0.20 7 21.8 186 
 BAR2 SZ I         031 23.47        15.5 0.16            171           21.8 186 
 GIR2 SZ EP   1    031  7.36                             166    0.09 7 32.3 354 
 GIR2 SZ ES        031 22.33                             166    0.3310 32.3 354 
 GIR2 SZ I         031 23.11         6.4 0.22            167           32.3 354 
 BRR  HZ EP        031  9.20                             152    0.4610 70.2 300 
 BRR  HN ES        031 24.58                             152   -0.0310 70.2 300 
 BRR  HZ I         031 25.54        11.0 0.54            154           70.2 300 
 PAM  SZ EP        031 10.28                             149    0.2610 79.6  40 
 PAM  SN ES        031 27.24                             149    0.3610 79.6  40 
 PAM  SZ I         031 29.60         3.7 0.52            149           79.6  40 
 RUS  HZ EP        031 11.19                             143   -0.1910 99.4 175 
 RUS  HN ES        031 28.93                             143   -0.3910 99.4 175 
 RUS  HZ I         031 30.23         3.3 0.28            144           99.4 175 
 OCA  HN ES        031 36.96                             128   -1.07 9  161 354 
 ZAR  HN ES        031 45.32                             121    0.20 9  203 293 
                                                                                
