 2017  3 9 0543 14.8 L   6.775 -73.105146.0  RSN 15 0.6 1.7LRSN                1
 GAP= 97        1.10       4.0     3.9  5.7 -0.3522E+01 -0.2562E+00  0.8302E+01E
 Epicentro: LOS SANTOS - SANTANDER                                             3
 ACTION:UPD 17-05-25 18:38 OP:jn   STATUS:               ID:20170309054314 L   I
 OLDACT:UP  17-03-09 16:05 OP:and  STATUS:               ID:20170309053745     3
 OLDACT:UP  17-03-09 16:05 OP:and  STATUS:               ID:20170309053745     3
 OLDACT:UP  17-03-09 16:04 OP:and  STATUS:               ID:20170309053745     3
 OLDACT:UP  17-03-09 16:04 OP:and  STATUS:               ID:20170309053745     3
 OLDACT:UP  17-03-09 16:02 OP:and  STATUS:               ID:20170309053745     3
 OLDACT:UP  17-03-09 16:02 OP:and  STATUS:               ID:20170309053745     3
 OLDACT:REG 17-03-09 12:41 OP:and  STATUS:               ID:20170309053745     3
 2017-03-09-0538-00M.COL___397                                                 6
 STAT SP IPHASW D HRMM SECON CODA AMPLIT PERI AZIMU VELO AIN AR TRES W  DIS CAZ7
 BAR2 EZ IP     C  543 34.33                             171   -0.1210 22.0 203 
 BAR2 EZ ES        543 49.23                             171   -0.5310 22.0 203 
 BAR2 EZ I         543 50.49        12.6 0.22            170           22.0 203 
 BRR  HZ EP        543 36.06                             151   -0.2410 76.5 299 
 BRR  HN ES        543 53.37                             151    0.3210 76.5 299 
 BRR  HZ I         544  1.99         6.1 0.18            149           76.5 299 
 PAM  EZ EP        543 37.31                             151    0.2910 76.8  36 
 PAM  EN ES        543 54.18                             151   -0.1710 76.8  36 
 PAM  EZ I         543 56.43        13.2 0.54            148           76.8  36 
 RUS  HZ EP        543 38.70                             145    0.3210 97.6 179 
 RUS  HN ES        543 57.40                             145    0.6410 97.6 179 
 RUS  HZ I         543 58.01         7.4 0.24            142           97.6 179 
 TAM  HZ IP     D  543 42.69                             132    0.64 9  150 104 
 PTB  HZ EP   9    543 40.98                             131   -1.18 0  152 260 
 PTB  HN ES        544  2.12                             132   -0.19 9  152 260 
 PTB  HZ I         544  4.95         5.3 0.15            128            152 260 
 SPBC HZ EP        543 43.21                             129   -0.20 9  164 221 
 SPBC HN ES        544  5.42                             129   -0.29 9  164 221 
 SPBC HZ I         544  8.09         9.6 0.17            126            164 221 
 ZAR  HN ES   3    544 11.81                             122   -1.75 2  209 292 
 ZAR  HZ I         544 14.41         4.0 0.08            119            209 292 
 NOR  HZ EP        543 50.39                             118   -0.40 8  237 236 
 NOR  HN ES        544 19.30                             118    0.45 8  237 236 
 NOR  HZ I         544 22.93         4.4 0.28            115            237 236 
 CHI  HZ EP   2    543 52.53                             117    0.15 4  247 196 
 CHI  HN ES        544 21.87                             117    0.20 8  247 196 
 CHI  HZ I         544 25.23         4.0 0.54            114            247 196 
 HEL  HZ EP   3    543 57.09                             114    1.63 2  276 257 
 HEL  HN ES   2    544 26.49                             114   -0.66 4  276 257 
 HEL  HZ I         544 32.32         3.3 0.28            112            276 257 
 GUY2CHZ EP   2    543 59.63                             112    0.95 4  303 236 
 GUY2CHN ES   2    544 33.22                             112    0.33 4  303 236 
 GUY2CHZ  IAML     544 38.45         2.3 0.34                           303 236 
 PTGC HZ EP        543 57.45                             112   -0.76 7  305 159 
 PTGC HZ I         544 30.29         4.1 0.42            109            305 159 
 PTGC HN ES        544 30.71                             112   -1.35 7  305 159 
 CBOC HZ EP   2    544  2.22                             110    0.08 3  337 253 
 CBOC HN ES        544 38.38                             110   -0.67 7  337 253 
 CBOC HZ I         544 42.46         0.8 0.22            107            337 253 
 PRA  HZ EP        544  8.27                             107   -0.06 6  392 210 
 PRA  HE ES        544 51.50                             107    1.43 6  392 210 
 PRA  HZ I         544 56.09         2.4 0.24            104            392 210 
                                                                                
