 2011  5 9 0423 53.5 L   6.755 -73.072140.2  RSN  8 0.4 1.4LRSN                1
 GAP=148        0.84       3.7     7.1  6.6 -0.8187E+01  0.1890E+00  0.3123E+01E
 Epicentro: LOS SANTOS - SANTANDER                                             3
 ACTION:UP  11-06-29 08:51 OP:tino STATUS:               ID:20110509042353 L   I
 2011-05-09-0421-57S.COL___131                                                 6
 STAT SP IPHASW D HRMM SECON CODA AMPLIT PERI AZIMU VELO AIN AR TRES W  DIS CAZ7
 BAR2 SZ EP        424 12.34                             171    -0.110   22 214 
 BAR2 SZ I         424 12.52         8.8 0.22                            22 214 
 BAR2 SZ ES   1    424 26.82                             171    -0.3 7   22 214 
 PAM  SZ EP        424 15.37                             150     0.310   77  33 
 PAM  SN ES   1    424 32.22                             150     0.3 7   77  33 
 BRR  HZ EP        424 14.33                             148    -0.310   81 299 
 BRR  HN ES   1    424 31.26                             148     0.2 7   81 299 
 BRR  HZ I         424 33.18         5.3 0.08                            81 299 
 RUS  HZ EP        424 16.28                             144     0.010   95 181 
 RUS  HZ I         424 17.02         2.7 0.22                            95 181 
 RUS  HN ES   2    424 34.53                             144     0.4 5   95 181 
 BRI  SZ EP   3    424 16.99                             140     0.0 2  111  16 
 GRA  SZ EP        424 18.25                             135    -0.210  128  13 
 GRA  SZ ES   1    424 37.15                             135    -0.8 7  128  13 
 GRA  SZ I         424 38.62         3.3 0.30                           128  13 
 OCA  SZ EP   1    424 22.41                             127     0.5 7  166 351 
 OCA  SZ ES   1    424 44.58                             127     0.4 7  166 351 
 OCA  SZ I         424 50.36         4.1 0.17                           166 351 
 PRA  HZ EP   1    424 46.14                             105    -0.6 4  392 211 
 PRA  HE ES   1    425 28.91                             105     0.5 4  392 211 
                                                                                
