 2017  7 9 0927  6.3 L   6.402 -73.661111.1  RSN  4 0.2 1.3LRSN                1
 GAP=141        0.49       3.5     2.6  5.7 -0.3412E+01  0.3289E+01 -0.6756E+01E
 Epicentro: SANTA HELENA DEL OPON - SANTANDER                                  3
 ACTION:UPD 17-08-30 15:31 OP:rebc STATUS:               ID:20170709092706 L   I
 OLDACT:REG 17-07-09 14:22 OP:ar   STATUS:               ID:20170709091740     3
 2017-07-09-0918-00M.COL___362                                                 6
 STAT SP IPHASW D HRMM SECON CODA AMPLIT PERI AZIMU VELO AIN AR TRES W  DIS CAZ7
 BAR2 EZ EP        927 23.20                             151   -0.0810 56.9  68 
 BAR2 EZ ES        927 36.43                             151   -0.0610 56.9  68 
 BAR2 EZ I         927 37.81        11.0 0.40             47           56.9  68 
 BRR  HZ EP        927 24.65                             142    0.2810 78.2 356 
 BRR  HZ I         927 41.32         5.2 0.46             47           78.2 356 
 PTB  HZ EP        927 25.04                             138   -0.2310 89.3 280 
 PTB  HZ I         927 37.48         1.5 0.18             47           89.3 280 
 PTB  HN ES        927 40.02                             138   -0.0110 89.3 280 
 SPBC HZ EP   4    927 28.23                             136    2.42 0 94.6 209 
 SPBC HE ES        927 41.09                             136    0.1010 94.6 209 
 SPBC HZ I         927 42.63         6.9 0.36             47           94.6 209 
                                                                                
