 2013  2 9 0230 47.2 L   6.799 -73.126145.7  RSN  8 0.4 1.8LRSN                1
 GAP=139        0.82       3.5     4.7  6.8  0.2780E+01  0.1982E+01  0.2948E+01E
 Epicentro: LOS SANTOS - SANTANDER                                             3
 ACTION:UPD 13-03-12 09:31 OP:ep   STATUS:               ID:20130209023047 L   I
 2013-02-09-0230-00M.COL___240                                                 6
 STAT SP IPHASW D HRMM SECON CODA AMPLIT PERI AZIMU VELO AIN AR TRES W  DIS CAZ7
 BAR2 SZ EP   1    231  7.13                             170    0.26 7 23.7 195 
 BRR  HZ IP     C  231  8.70                             152    0.2010 73.2 298 
 BRR  HZ EP        231  8.70                             152    0.2010 73.2 298 
 BRR  HE ES        231 25.51                             152    0.4410 73.2 298 
 BRR  HE I         231 28.21        23.2 0.18            153           73.2 298 
 PAM  SZ EP   1    231  9.20                             151   -0.18 7 76.1  38 
 PAM  SN ES   1    231 26.36                             151   -0.28 7 76.1  38 
 PAM  SZ I         231 28.45         3.6 0.32            157           76.1  38 
 RUS  HZ EP        231 11.14                             144    0.1710  100 177 
 RUS  HE ES   1    231 28.82                             144   -0.65 7  100 177 
 RUS  HE I         231 30.76        10.4 0.20            144            100 177 
 PTB  HZ EP   1    231 13.69                             132   -0.71 7  150 259 
 PTB  HN ES   1    231 35.03                             132   -0.54 7  150 259 
 PTB  HN I         231 39.98        12.2 0.37            132            150 259 
 ZAR  HE ES   1    231 45.21                             122   -0.15 6  206 292 
 SML  HZ EP   1    231 23.31                             117   -0.67 6  245 335 
 SML  HN ES   1    231 52.90                             117    0.27 6  245 335 
 CHI  HZ EP   1    231 25.34                             117    0.35 6  249 196 
 CHI  HN ES   1    231 54.85                             117    0.43 6  249 196 
 CHI  HZ I         232  2.55         2.7 0.31            118            249 196 
                                                                                
