 2012  4 9 0456 25.2 L   6.767 -73.172147.6  RSN  6 0.4 1.3LRSN                1
 GAP=135        0.92       6.2     5.5  8.8  0.3121E+01  0.9042E+01 -0.7556E+00E
 Epicentro: LOS SANTOS - SANTANDER                                             3
 ACTION:UPD 12-07-05 11:52 OP:tino STATUS:               ID:20120409045625 L   I
 2012-04-09-0450-00M.COL___196                                                 6
 STAT SP IPHASW D HRMM SECON CODA AMPLIT PERI AZIMU VELO AIN AR TRES W  DIS CAZ7
 BAR2 SZ EP   1    456 44.89                             172    -0.1 7   19 183 
 BAR2 SZ ES   1    457  0.23                             172    -0.1 7   19 183 
 BAR2 SZ I         457  3.59         8.1 0.54                            19 183 
 BRR  HZ EP        456 46.81                             153     0.310   71 302 
 BRR  HZ I         456 47.07         4.1 0.14                            71 302 
 BRR  HN ES   1    457  3.89                             153     0.8 7   71 302 
 PAM  SZ EP   1    456 47.76                             150    -0.1 7   82  39 
 PAM  SN ES   1    457  5.11                             150    -0.5 7   82  39 
 PAM  SZ I         457  7.48         2.0 0.71                            82  39 
 RUS  HZ EP   1    456 49.16                             145     0.3 7   97 174 
 RUS  HN ES   1    457  7.25                             145    -0.1 7   97 174 
 RUS  HZ I         457  9.23         2.9 0.44                            97 174 
 PTB  HZ EP   1    456 51.75                             133    -0.2 7  144 260 
 PTB  HN ES   1    457 12.51                             133    -0.4 7  144 260 
 PTB  HZ I         457 16.27         2.7 0.13                           144 260 
 ZAR  HN ES   1    457 22.46                             123    -0.4 6  203 293 
 ZAR  HZ I         457 29.22         2.9 0.13                           203 293 
                                                                                
