 2011  7 9 0232  3.9 L   6.803 -73.147141.4  RSN 13 0.4 2.0LRSN                1
 GAP=155        0.72       2.5     5.0  4.9 -0.4103E+01  0.7477E+01  0.4354E+00E
 Epicentro: LOS SANTOS - SANTANDER                                             3
 ACTION:UPD 12-07-25 13:59 OP:epov STATUS:               ID:20110709023203 L   I
 2011-07-09-0231-24S.COL___140                                                 6
 STAT SP IPHASW D HRMM SECON CODA AMPLIT PERI AZIMU VELO AIN AR TRES W  DIS CAZ7
 BAR2 SZ EP   1    232 23.16                             170    0.12 8 23.6 190 
 BAR2 SZ ES   1    232 37.51                             170   -0.43 8 23.6 190 
 BAR2 SZ I         232 39.27        22.0 0.23                          23.6 190 
 GIR2 SZ EP   1    232 23.29                             167    0.22 8 30.9 350 
 BRR  HZ EP   1    232 24.75                             152    0.17 8 70.9 298 
 BRR  HE ES   1    232 41.33                             152    0.63 8 70.9 298 
 BRR  HZ I         232 45.18        58.3 0.11                          70.9 298 
 RUS  HZ EP   1    232 27.40                             143    0.13 7  101 176 
 RUS  HN ES        232 45.35                             143   -0.1410  101 176 
 RUS  HZ I         232 47.37        12.7 0.25                           101 176 
 BRI  SZ EP   1    232 27.55                             140    0.17 7  108  21 
 BRI  SZ ES   1    232 45.60                             140   -0.07 7  108  21 
 BRI  SZ I         232 52.90         9.9 0.38                           108  21 
 GRA  SZ EP   1    232 28.74                             136   -0.02 7  125  18 
 GRA  SZ ES   1    232 48.61                             136    0.48 7  125  18 
 GRA  SZ I         232 50.57        17.4 0.32                           125  18 
 OCA  SZ EP   1    232 31.41                             129   -0.45 7  160 353 
 OCA  SZ ES   1    232 52.83                             129   -0.83 7  160 353 
 OCA  SZ I         232 56.55        17.2 0.27                           160 353 
 NOR  SZ EP   1    232 39.50                             117    0.09 6  235 234 
 NOR  SN ES   1    233  6.50                             117   -0.59 6  235 234 
 NOR  SZ I         233 13.33         1.9 0.24                           235 234 
 CHI  HZ EP   1    232 41.42                             116    0.01 6  249 195 
 CHI  HN ES   1    233 10.96                             116    0.30 6  249 195 
 HEL  HZ EP   1    232 44.45                             114    0.54 6  272 256 
 HEL  HZ I         233 21.85        14.5 0.56                           272 256 
 DBB  SZ EP   1    232 50.95                             109   -0.25 5  339 274 
 PRA  HZ EP   1    232 57.77                             106    0.45 4  392 210 
 SJA  SZ EP   1    232 57.57                             105   -0.80 4  400 193 
                                                                                
