 2017  1 9 0854  1.2 L   6.798 -73.151138.6  RSN  4 0.2 0.9LRSN                1
 GAP=136        0.59       3.4     3.5  6.5 -0.3089E+01  0.8114E+01 -0.1884E+01E
 Epicentro: LOS SANTOS - SANTANDER                                             3
 ACTION:UPD 17-05-22 15:57 OP:jn   STATUS:               ID:20170109085401 L   I
 OLDACT:UP  17-01-09 19:07 OP:and  STATUS:               ID:20170109084748     3
 OLDACT:REG 17-01-09 13:23 OP:and  STATUS:               ID:20170109084748     3
 2017-01-09-0848-00M.COL___341                                                 6
 STAT SP IPHASW D HRMM SECON CODA AMPLIT PERI AZIMU VELO AIN AR TRES W  DIS CAZ7
 BRR  HZ EP        854 21.96                             151    0.4510 70.8 299 
 BRR  HE ES   4    854 39.02                             151    1.63 0 70.8 299 
 PAM  EZ EP        854 22.57                             149   -0.0910 78.0  40 
 PAM  EN ES        854 39.32                             149   -0.1010 78.0  40 
 PAM  EZ I         854 41.68         2.5 0.56            150           78.0  40 
 RUS  HZ EP        854 24.22                             142    0.0210  100 176 
 RUS  HN ES        854 42.20                             142    0.0310  100 176 
 RUS  HZ I         854 43.28         1.0 0.26            144            100 176 
 PTB  HZ EP        854 27.19                             130   -0.30 9  147 259 
 PTB  HE ES        854 47.97                             130   -0.06 9  147 259 
                                                                                
