 2015  7 9 0527 13.3 L   6.808 -73.114137.7  RSN  5 0.3 1.4LRSN                1
 GAP=140        0.77       4.1     5.2  8.4  0.3228E+01  0.9002E+01 -0.1216E+02E
 Epicentro: LOS SANTOS - SANTANDER                                             3
 ACTION:UPD 15-09-08 21:47 OP:cam  STATUS:               ID:20150709052713 L   I
 OLDACT:REG 15-07-09 13:12 OP:spq  STATUS:               ID:20150709051744     3
 2015-07-09-0517-44M.COL___343                                                 6
 STAT SP IPHASW D HRMM SECON CODA AMPLIT PERI AZIMU VELO AIN AR TRES W  DIS CAZ7
 BAR2 EZ EP        527 31.84                             169   -0.2010 25.0 197 
 BAR2 EZ ES   1    527 46.62                             169   -0.00 7 25.0 197 
 BAR2 EZ I         527 47.95         4.4 0.24            171           25.0 197 
 PAM  EZ EP        527 34.77                             150    0.2510 74.5  38 
 RUS  HZ EP   2    527 36.54                             142    0.18 5  101 178 
 RUS  HN ES   1    527 54.31                             142   -0.01 7  101 178 
 RUS  HZ I         527 55.13         2.3 0.24            147            101 178 
 OCA  HZ EP   1    527 41.56                             128    0.57 7  160 352 
 OCA  HE ES        528  2.25                             128   -0.31 9  160 352 
 OCA  HZ I         528  7.88         6.3 0.18            129            160 352 
 ZAR  HZ EP        527 45.00                             120   -0.57 8  207 292 
 ZAR  HE ES        528 11.14                             120    0.42 8  207 292 
 ZAR  HZ I         528 16.26         3.3 0.26            122            207 292 
                                                                                
