 2010 11 9 0525 35.2 L   5.875 -73.773104.0  RSN  8 0.3 1.4LRSN                1
 GAP=119        0.79       6.1     5.7 11.9 -0.2399E+02  0.4190E+02 -0.2361E+02E
 Epicentro: JESUS MARIA - SANTANDER                                            3
 ACTION:UP  10-12-17 16:51 OP:REBC STATUS:               ID:20101109052535 L   I
 2010-11-09-0524-19S.COL___127                                                 6
 STAT SP IPHASW D HRMM SECON CODA AMPLIT PERI AZIMU VELO SNR AR TRES W  DIS CAZ7
 RUS  HZ EP        525 53.17                             142     0.010   76  88 
 RUS  HZ I         525 53.76         2.9 0.12                            76  88 
 RUS  HN ES   2    526  7.42                             142     0.3 5   76  88 
 BAR2 SZ EP        525 54.77                             132    -0.210  103  39 
 BAR2 SZ ES   1    526 10.83                             132     0.4 7  103  39 
 BAR2 SZ I         526 12.73        23.3 0.24                           103  39 
 NOR  SZ EP        525 57.08                             125     0.010  126 254 
 NOR  SN ES   2    526 13.52                             125    -0.5 5  126 254 
 NOR  SZ I         526 16.37         2.0 0.86                           126 254 
 ROSC BN ES   2    526 15.03                             125    -0.4 5  129 208 
 ROSC BZ I         526 21.58         4.4 0.45                           129 208 
 BRR  HZ EP        525 57.72                             123    -0.3 9  136   3 
 GUY  SZ EP        526  4.27                             114    -0.2 9  191 248 
 GUY  SZ I         526 30.68         4.0 0.20                           191 248 
 HEL  HZ EP   1    526  5.77                             113     0.7 6  198 280 
 HEL  HZ I         526 32.28         2.4 0.36                           198 280 
 RREF HZ EP   1    526  6.50                             112     0.2 6  205 238 
 RREF HN ES   2    526 31.02                             112     0.6 4  205 238 
 RREF HZ I         526 34.73         3.4 0.71                           205 238 
                                                                                
