 2011  9 9 0421 37.4 L   6.774 -73.114141.1  RSN  6 0.3 1.6LRSN                1
 GAP=142        0.49       4.6     4.8  5.9  0.3497E+01  0.4793E+01 -0.7077E+00E
 Epicentro: LOS SANTOS - SANTANDER                                             3
 ACTION:UPD 12-07-13 15:56 OP:ep   STATUS:               ID:20110909042137 L   I
 2011-09-09-0420-04S.COL___170                                                 6
 STAT SP IPHASW D HRMM SECON CODA AMPLIT PERI AZIMU VELO AIN AR TRES W  DIS CAZ7
 BAR2 SZ EP   1    421 56.22                             171   -0.26 7 21.4 201 
 BAR2 SZ ES   2    422 10.73                             171   -0.60 5 21.4 201 
 BAR2 SZ I         422 12.67         8.8 0.30                          21.4 201 
 GIR2 SZ EP   3    421 56.39                             165   -0.28 2 34.9 345 
 GIR2 SZ ES   2    422 11.64                             165   -0.03 5 34.9 345 
 BRR  HZ EP   1    421 58.27                             150   -0.09 7 75.7 299 
 BRR  HZ I         421 58.68        10.9 0.12                          75.7 299 
 BRR  HN ES   2    422 15.35                             150    0.67 5 75.7 299 
 PAM  SZ EP   1    421 59.28                             150    0.10 7 77.5  36 
 PAM  SE ES   2    422 16.22                             150    0.09 5 77.5  36 
 RUS  HZ EP   2    422  0.71                             144    0.19 5 97.5 178 
 RUS  HN ES   2    422 18.91                             144    0.40 5 97.5 178 
 RUS  HZ I         422 20.10         2.0 0.38                          97.5 178 
 ZAR  HZ EP   2    422 10.27                             121    0.22 4  208 293 
 ZAR  HN ES   2    422 35.16                             121   -0.32 4  208 293 
 ZAR  HZ I         422 40.65         6.7 0.61                           208 293 
                                                                                
