 2013  2 9 0054  8.5 L   6.740 -73.508116.8  RSN  5 0.4 1.6LRSN                1
 GAP=105        0.89       4.8     5.4  9.0  0.3896E+01  0.1525E+02  0.1206E+02E
 Epicentro: EL CARMEN DE CHUCURI - SANTANDER                                   3
 ACTION:UPD 13-03-12 09:31 OP:ep   STATUS:               ID:20130209005408 L   I
 2013-02-09-0050-00M.COL___240                                                 6
 STAT SP IPHASW D HRMM SECON CODA AMPLIT PERI AZIMU VELO AIN AR TRES W  DIS CAZ7
 BAR2 SZ EP   1    054 25.41                             160    0.24 7 39.6 114 
 BAR2 SZ ES   1    054 38.36                             160    0.17 7 39.6 114 
 BAR2 SZ I         054 38.88        15.9 0.22            162           39.6 114 
 BRR  HZ EP   1    054 25.82                             157    0.70 7 46.4 331 
 BRR  HN ES        054 38.21                             157    0.1010 46.4 331 
 BRR  HN I         054 39.54        19.1 0.16            145           46.4 331 
 RUS  HZ EP   1    054 30.38                             136    0.52 7  105 153 
 RUS  HN ES        054 46.33                             136   -0.2110  105 153 
 RUS  HN I         054 48.98         4.0 0.38            127            105 153 
 PTB  HZ EP     C  054 28.89                             134   -0.5110  107 258 
 PTB  HN I         054 44.82         8.3 0.24            121            107 258 
 PAM  SN ES        054 47.20                             134   -0.3110  111  53 
 PAM  SN I         054 48.78         6.6 0.16            128            111  53 
                                                                                
