 2016  3 9 0832 32.1 L   6.809 -73.184147.1  RSN  6 0.2 1.2LRSN                1
 GAP=131        0.59       2.6     2.7  4.4  0.1759E+00  0.3461E+01  0.2083E+01E
 Epicentro: ZAPATOCA - SANTANDER                                               3
 ACTION:UPD 16-05-13 21:22 OP:cam  STATUS:               ID:20160309083232 L   I
 OLDACT:REG 16-03-09 13:48 OP:cara STATUS:               ID:20160309082746     3
 2016-03-09-0827-46M.COL___288                                                 6
 STAT SP IPHASW D HRMM SECON CODA AMPLIT PERI AZIMU VELO AIN AR TRES W  DIS CAZ7
 BAR2 EZ ES        833  7.47                             170    0.0810 24.0 180 
 PAM  EZ EP        832 54.84                             150    0.2210 79.4  42 
 PAM  EN ES        833 11.81                             150   -0.3410 79.4  42 
 PAM  EZ I         833 14.09         2.2 0.40            154           79.4  42 
 RUS  HZ EP        832 56.29                             144    0.1710  102 174 
 RUS  HN ES        833 15.03                             144    0.2110  102 174 
 RUS  HZ I         833 15.58         2.3 0.24            146            102 174 
 PTB  HZ EP        832 59.05                             133    0.19 9  144 258 
 PTB  HN ES        833 19.63                             133   -0.07 9  144 258 
 PTB  HZ I         833 26.58         2.6 0.64            132            144 258 
 ZAR  HN ES        833 29.24                             123   -0.03 9  200 292 
 ZAR  HZ I         833 36.19         2.0 0.22            123            200 292 
 CHI  HZ EP        833  9.48                             117   -0.42 8  249 194 
 CHI  HN ES        833 39.11                             117   -0.24 8  249 194 
 CHI  HZ I         833 43.39         1.4 0.64            119            249 194 
                                                                                
