 2014 12 9 0055 27.4 L   6.799 -73.175131.2  RSN  8 0.5 1.5LRSN                1
 GAP=133        1.31       4.2     5.8 11.0 -0.3179E+01  0.2995E+02 -0.3775E+01E
 Epicentro: LOS SANTOS - SANTANDER                                             3
 ACTION:UPD 15-02-10 17:01 OP:nd   STATUS:               ID:20141209005527 L   I
 OLDACT:REG 14-12-09 12:45 OP:fm   STATUS:               ID:20141209004737     3
 2014-12-09-0047-37M.COL___309                                                 6
 STAT SP IPHASW D HRMM SECON CODA AMPLIT PERI AZIMU VELO AIN AR TRES W  DIS CAZ7
 PAM  SZ EP        055 48.63                             147    0.4310 79.6  41 
 PAM  SE ES        056  5.19                             147    0.7410 79.6  41 
 PAM  SZ I         056  7.62         6.1 0.52            153           79.6  41 
 RUS  HZ EP        055 49.84                             141    0.1110  101 174 
 RUS  HE ES        056  6.30                             141   -0.8710  101 174 
 RUS  HZ I         056 10.36         2.5 0.32            148            101 174 
 PTB  HZ EP        055 52.56                             129   -0.32 9  145 259 
 PTB  HE ES        056 13.33                             129    0.55 9  145 259 
 PTB  HZ I         056 18.50         3.1 0.38            133            145 259 
 OCA  HE ES        056 15.13                             126   -0.65 9  160 354 
 OCA  HZ I         056 23.24         3.1 0.52            131            160 354 
 ZAR  HZ EP        055 58.76                             119    0.17 9  201 293 
 ZAR  HN ES        056 23.22                             119    0.28 9  201 293 
 ZAR  HZ I         056 30.15         2.4 0.24            124            201 293 
 SML  HZ EP        056  2.74                             114   -0.34 8  242 336 
 SML  HN ES        056 30.26                             114   -0.68 8  242 336 
 SML  HZ I         056 33.23         4.7 0.10            119            242 336 
 GUY2CHZ EP        056 10.88                             110    0.85 7  298 234 
 GUY2CHN ES        056 42.93                             110   -0.37 7  298 234 
 GUY2CHZ I         056 53.88         1.3 0.38                           298 234 
 SJC  HZ EP   4    056 20.29                             103   -2.00 0  408 327 
 SJC  HN ES   4    057  1.33                             103   -3.80 0  408 327 
 SJC  HZ I         057  7.19         1.3 0.68            107            408 327 
                                                                                
