 2011 11 9 0315 55.2 L   6.743 -73.100144.9  RSN  7 0.4 1.6LRSN                1
 GAP=145        0.83       4.5     5.4  8.1  0.1434E+01  0.6064E+01 -0.6889E+01E
 Epicentro: JORDAN - SANTANDER                                                 3
 ACTION:UPD 12-07-13 16:09 OP:ep   STATUS:               ID:20111109031555 L   I
 2011-11-09-0313-43S.COL___178                                                 6
 STAT SP IPHASW D HRMM SECON CODA AMPLIT PERI AZIMU VELO AIN AR TRES W  DIS CAZ7
 BAR2 SZ EP   1    316 14.96                             172    0.34 7 18.9 209 
 BAR2 SZ I         316 15.12         7.8 0.11                          18.9 209 
 BAR2 SZ ES   1    316 29.21                             172   -0.57 7 18.9 209 
 BRR  HZ EP   1    316 16.80                             150    0.13 7 78.7 301 
 BRR  HZ I         316 17.32        15.6 0.12                          78.7 301 
 BRR  HN ES   1    316 34.18                             150    0.74 7 78.7 301 
 PAM  SZ EP   1    316 17.66                             150    0.24 7 79.5  34 
 PAM  SZ I         316 18.15         9.5 0.20                          79.5  34 
 PAM  SN ES   2    316 34.74                             150   -0.04 5 79.5  34 
 RUS  HZ EP   1    316 18.77                             145    0.40 7 94.0 179 
 RUS  HN ES   1    316 36.24                             145   -0.23 7 94.0 179 
 RUS  HZ I         316 39.10         3.0 0.19                          94.0 179 
 OCA  SZ EP   1    316 23.41                             128   -0.67 7  167 352 
 OCA  SZ ES   1    316 46.34                             128   -0.28 7  167 352 
 ZAR  HN ES   1    316 54.30                             121    0.17 6  211 293 
 ZAR  HZ I         316 59.48         4.7 0.14                           211 293 
 HEL  HE ES   1    317  6.70                             114   -0.65 6  275 257 
                                                                                
