 2012 11 9 0803 53.4 L   6.783 -73.177141.2  RSN  5 0.3 1.8LRSN                1
 GAP=275        0.53       4.7     4.9  5.4  0.5027E+01  0.8283E+01  0.7826E+01E
 Epicentro: LOS SANTOS - SANTANDER                                             3
 ACTION:UPD 12-12-05 15:32 OP:}ep  STATUS:               ID:20121109080353 L   I
 2012-11-09-0800-00M.COL___228                                                 6
 STAT SP IPHASW D HRMM SECON CODA AMPLIT PERI AZIMU VELO AIN AR TRES W  DIS CAZ7
 BAR2 SZ EP   1    8 4 12.71                             171    0.30 7 21.1 181 
 BAR2 SZ ES   1    8 4 27.10                             171   -0.16 7 21.1 181 
 BAR2 SZ I         8 4 29.25        27.2 0.12                          21.1 181 
 RUS  HZ EP   1    8 4 16.58                             143    0.02 7 99.0 174 
 RUS  HN ES   1    8 4 34.79                             143    0.15 7 99.0 174 
 RUS  HN I         8 4 37.09        20.4 0.19                          99.0 174 
 PTB  HZ EP   1    8 4 19.30                             132   -0.32 7  144 259 
 PTB  HN ES   1    8 4 40.20                             132    0.11 7  144 259 
 PTB  HZ I         8 4 42.66         5.3 0.21                           144 259 
 CHI  HZ EP   1    8 4 30.61                             116    0.09 6  246 194 
 CHI  HZ I         8 4 31.37         2.8 0.16                           246 194 
 CHI  HN ES   1    8 4 58.94                             116   -0.55 6  246 194 
 PRA  HZ EP   1    8 4 46.13                             106   -0.21 4  389 209 
 PRA  HN ES   1    8 5 28.31                             106    0.66 4  389 209 
 PRA  HZ I         8 5 35.44         2.1 0.28                           389 209 
                                                                                
