 2010  9 9 0318 37.7 L   6.814 -73.099142.0  RSN  5 0.1 1.2LRSN                1
 GAP=164        0.41       3.9     8.1  9.5  0.1809E+02 -0.5735E+02 -0.2483E+02E
 Epicentro: LOS SANTOS - SANTANDER                                             3
 ACTION:UP  11-02-18 11:01 OP:tino STATUS:               ID:20100909031837 L   I
 2010-09-09-0316-02S.COL___120                                                 6
 STAT SP IPHASW D HRMM SECON CODA AMPLIT PERI AZIMU VELO SNR AR TRES W  DIS CAZ7
 BAR2 SZ EP   1    318 56.74                             169    -0.2 7   26 201 
 BAR2 SZ I         319  4.78         4.9 0.60                            26 201 
 BRR  HZ EP   1    318 58.61                             151     0.0 7   75 296 
 BRR  HN ES   1    319 15.06                             151     0.1 7   75 296 
 BRR  HZ I         319 17.04         3.2 0.11                            75 296 
 RUS  HZ EP   2    319  1.41                             143     0.3 5  102 179 
 RUS  HE ES   1    319 19.46                             143     0.0 7  102 179 
 RUS  HZ I         319 21.01         1.5 0.24                           102 179 
 GUE  SZ EP   1    319  1.71                             139    -0.1 7  114  10 
 GRA  SZ EP   1    319  2.52                             137     0.2 7  123  15 
 GRA  SZ I         319 22.81         2.4 0.10                           123  15 
                                                                                
