 2015  1 9 0037  7.9 L   6.830 -73.315137.0  RSN  5 0.4 1.6LRSN                1
 GAP=151        1.09       4.8     6.7  8.9  0.5767E+01  0.8342E+01  0.2619E+00E
 Epicentro: ZAPATOCA - SANTANDER                                               3
 ACTION:UPD 15-03-02 15:38 OP:nd   STATUS:               ID:20150109003707 L   I
 OLDACT:REG 15-01-09 13:45 OP:cam  STATUS:               ID:20150109002813     3
 2015-01-09-0028-13M.COL___265                                                 6
 STAT SP IPHASW D HRMM SECON CODA AMPLIT PERI AZIMU VELO AIN AR TRES W  DIS CAZ7
 BAR2 EZ ES        037 41.03                             167   -0.2610 30.1 151 
 BAR2 EZ I         037 41.80        10.4 0.12            168           30.1 151 
 BRR  HZ EP        037 27.72                             157    0.5310 53.5 305 
 BRR  HN ES        037 42.84                             157    0.6210 53.5 305 
 BRR  HN I         037 44.22        20.6 0.34            157           53.5 305 
 RUS  HZ EP        037 31.16                             140   -0.1410  107 166 
 RUS  HN ES        037 49.59                             140    0.0510  107 166 
 RUS  HZ I         037 50.91         2.0 0.36            142            107 166 
 PTB  HZ EP        037 32.79                             134    0.1910  130 256 
 PTB  HN ES        037 51.24                             134   -0.6010  130 256 
 PTB  HZ I         037 54.27         3.2 0.12            134            130 256 
 OCA  HN ES        037 55.85                             128   -0.51 9  156 360 
 OCA  HN I         037 57.48        14.7 0.40            130            156 360 
                                                                                
