 2010  9 9 0406  8.3 L   6.878 -73.280120.0  RSN  9 0.3 2.0LRSN                1
 GAP=136        0.65       3.1     7.2  6.0  0.3941E+01 -0.1438E+02 -0.4903E+01E
 Epicentro: BETULIA - SANTANDER                                                3
 ACTION:UP  11-02-18 11:01 OP:tino STATUS:               ID:20100909040608 L   I
 2010-09-09-0405-25S.COL___120                                                 6
 STAT SP IPHASW D HRMM SECON CODA AMPLIT PERI AZIMU VELO SNR AR TRES W  DIS CAZ7
 BTL  SZ EP        4 6 24.76                             177     0.210    5  17 
 GIR2 SZ EP        4 6 24.77                             168     0.110   24  23 
 BAR2 SZ EP        4 6 25.20                             164     0.110   33 161 
 BAR2 SZ ES   1    4 6 38.36                             164     0.1 7   33 161 
 BAR2 SZ I         4 6 39.72       103.3 0.47                            33 161 
 BRR  HZ EP        4 6 25.58                             155    -0.110   54 298 
 BRR  HN ES   1    4 6 39.36                             155     0.1 7   54 298 
 BRR  HZ I         4 6 40.41        58.4 0.08                            54 298 
 RUS  HZ EP        4 6 30.21                             135    -0.310  111 169 
 RUS  HN ES   1    4 6 47.77                             135    -0.1 7  111 169 
 RUS  HZ I         4 6 49.72         3.9 0.42                           111 169 
 GUE  SZ EP   1    4 6 30.20                             134    -0.2 7  112  20 
 GUE  SZ I         4 6 30.59        17.3 0.06                           112  20 
 GRA  SZ EP        4 6 31.41                             131     0.310  123  25 
 GRA  SZ I         4 6 56.01         9.8 0.16                           123  25 
 OCA  SZ EP   1    4 6 33.24                             125    -0.5 7  151 358 
 CHI  HZ EP   2    4 6 46.07                             111     0.8 4  254 191 
 CHI  HE ES   2    4 7 13.98                             111    -0.1 4  254 191 
 CHI  HZ I         4 7 19.43         4.9 0.52                           254 191 
                                                                                
