 2016  9 9 0448 23.5 L   6.818 -73.136145.9  RSN 22 0.4 2.3LRSN                1
 GAP= 71        0.99       2.7     2.7  4.5 -0.9725E+00  0.7610E+00  0.9062E+00E
 Epicentro: LOS SANTOS - SANTANDER                                             3
 ACTION:UPD 17-08-17 21:08 OP:lp   STATUS:               ID:20160909044823 L   I
 OLDACT:UP  16-09-09 15:57 OP:dani STATUS:               ID:20160909044737     3
 OLDACT:UP  16-09-09 15:57 OP:dani STATUS:               ID:20160909044737     3
 OLDACT:UP  16-09-09 15:56 OP:dani STATUS:               ID:20160909044737     3
 OLDACT:UP  16-09-09 15:56 OP:dani STATUS:               ID:20160909044737     3
 OLDACT:UP  16-09-09 15:55 OP:dani STATUS:               ID:20160909044737     3
 OLDACT:REG 16-09-09 12:36 OP:dani STATUS:               ID:20160909044737     3
 2016-09-09-0448-00M.COL___359                                                 6
 STAT SP IPHASW D HRMM SECON CODA AMPLIT PERI AZIMU VELO AIN AR TRES W  DIS CAZ7
 BAR2 EZ EP     D  448 43.14                             170   -0.0210 25.5 192 
 BAR2 EZ ES        448 58.47                             170   -0.0610 25.5 192 
 BAR2 EZ I         448 59.28        72.1 0.26            167           25.5 192 
 BRR  HZ EP     D  448 44.96                             153    0.3310 71.2 297 
 BRR  HE ES        449  1.30                             153    0.1610 71.2 297 
 BRR  HZ I         449  6.09        30.3 0.14            148           71.2 297 
 PAM  EZ EP     D  448 45.84                             152    0.2710 75.1  40 
 PAM  EE ES        449  3.57                             152    0.7610 75.1  40 
 PAM  EZ I         449  4.43        16.8 0.14            154           75.1  40 
 RUS  HZ EP        448 47.32                             143   -0.0610  103 177 
 RUS  HE ES        449  5.53                             143   -0.5010  103 177 
 RUS  HZ I         449  6.38        23.8 0.32            143            103 177 
 PTB  HZ EP        448 49.73                             132   -0.85 9  149 258 
 PTB  HE ES        449 11.33                             132   -0.40 9  149 258 
 PTB  HZ I         449 16.78        26.4 0.40            129            149 258 
 TAM  HZ EP        448 51.21                             131    0.10 9  155 106 
 TAM  HE ES        449 12.97                             131    0.29 9  155 106 
 TAM  HZ I         449 15.11        13.3 0.42            133            155 106 
 OCA  HZ EP        448 51.11                             130   -0.50 9  158 353 
 OCA  HE ES        449 13.26                             130   -0.31 9  158 353 
 OCA  HZ I         449 17.20        77.6 0.20            129            158 353 
 SPBC HZ EP        448 52.10                             129   -0.09 9  165 219 
 SPBC HN ES        449 14.50                             129   -0.10 9  165 219 
 SPBC HZ I         449 18.26        39.5 0.12            127            165 219 
 ZAR  HZ EP        448 56.24                             122    0.29 9  204 292 
 ZAR  HE ES        449 21.56                             122    0.28 9  204 292 
 ZAR  HZ I         449 28.10        28.0 0.40            120            204 292 
 NOR  HZ EP        448 59.79                             118    0.36 8  237 234 
 NOR  HE ES        449 27.28                             118   -0.19 8  237 234 
 NOR  HZ I         449 31.85        18.0 0.25            117            237 234 
 CHI  HZ EP        449  1.49                             117    0.07 8  251 195 
 CHI  HN ES        449 30.92                             117   -0.10 8  251 195 
 CHI  HZ I         449 37.61         6.1 0.22            116            251 195 
 ROSC BZ EP   4    449  2.94                             117    1.09 0  255 211 
 ROSC BN ES   4    449 33.93                             117    2.15 0  255 211 
 ROSC BZ I         449 39.07        21.4 0.49            115            255 211 
 HEL  HZ EP   9    449  5.41                             115    1.55 0  274 255 
 HEL  HN ES        449 37.52                             115    0.61 8  274 255 
 HEL  HZ I         449 43.83         8.7 0.29            113            274 255 
 URE  HZ EP   9    449  3.36                             114   -1.21 0  284 291 
 URE  HE ES        449 35.02                             114   -0.40 7  284 291 
 URE  HZ I         449 46.46        15.3 0.19            112            284 291 
 SOCV BZ EP        449  5.66                             112   -0.64 7  299  57 
 SOCV BN ES   4    449 37.92                             112   -1.78 0  299  57 
 GUY2CHZ EP        449  8.14                             112    0.82 7  303 235 
 GUY2CHE ES   4    449 44.44                             112    2.93 0  303 235 
 GUY2CHZ I         449 50.97        10.4 0.27                           303 235 
 LL6C HZ EP   2    449  8.62                             111   -0.33 3  323 357 
 LL6C HN ES   2    449 43.22                             111   -1.20 3  323 357 
 LL6C HZ I         449 47.25         7.0 0.35            110            323 357 
 ELA  HZ EP   4    449 14.44                             110    3.87 0  331 229 
 ELA  HE ES   4    449 49.65                             110    2.34 0  331 229 
 ELA  HZ I         449 56.57        10.1 0.61            109            331 229 
 CBOC HZ EP   4    449 11.68                             110    1.10 0  335 252 
 CBOC HN ES   4    449 46.08                             110   -1.24 0  335 252 
 CBOC HZ I         449 58.69         3.8 0.55            109            335 252 
 PAL  HZ EP        449 19.74                             106    0.88 6  408 239 
 PAL  HZ I         450  7.88         2.7 0.35            105            408 239 
 SJC  HZ EP   4    449 17.40                             106   -1.50 0  408 327 
 SJC  HN ES   4    449 58.70                             106   -3.44 0  408 327 
 SJC  HZ I         450  2.57         5.6 0.52            105            408 327 
 CRJC HZ EP   4    449 23.48                             103   -2.24 0  466   3 
 CRJC HE ES   4    450 10.21                             103   -4.07 0  466   3 
 CRJC HZ I         450 17.70         7.8 0.42            103            466   3 
                                                                                
