 2015  6 9 0942 11.9 L   6.776 -73.185138.1  RSN  4 0.4 1.3LRSN                1
 GAP=240        0.94       6.0     6.9  8.2  0.1668E+02  0.1903E+02 -0.5907E+01E
 Epicentro: LOS SANTOS - SANTANDER                                             3
 ACTION:UPD 15-09-10 22:11 OP:cam  STATUS:               ID:20150609094211 L   I
 OLDACT:UP  15-06-18 14:20 OP:cam  STATUS:               ID:20150609094211 L   3
 OLDACT:UP  15-06-18 07:45 OP:AK   STATUS:               ID:20150609094211 L   3
 OLDACT:REG 15-06-09 13:39 OP:stll STATUS:               ID:20150609093749     3
 2015-06-09-0937-49M.COL___300                                                 6
 STAT SP IPHASW D HRMM SECON CODA AMPLIT PERI AZIMU VELO AIN AR TRES W  DIS CAZ7
 BAR2 EZ EP        942 30.96                             171    0.3810 20.4 179 
 BAR2 EZ ES        942 45.27                             171    0.1510 20.4 179 
 BAR2 EZ I         942 46.25         3.8 0.26            169           20.4 179 
 RUS  HZ EP        942 34.45                             143   -0.3210 98.4 173 
 RUS  HE ES        942 52.21                             143   -0.3710 98.4 173 
 RUS  HZ I         942 53.96         2.3 0.30            145           98.4 173 
 SPBC HZ EP        942 40.07                             128    0.68 9  158 218 
 SPBC HN ES        943  0.77                             128   -0.04 9  158 218 
 SPBC HZ I         943  3.97         2.4 0.10            128            158 218 
 ZAR  HZ EP        942 43.07                             121   -0.50 9  201 293 
 ZAR  HE ES        943  8.22                             121   -0.03 9  201 293 
 ZAR  HZ I         943 14.88         2.4 0.38            121            201 293 
                                                                                
