 2012  5 9 0620 38.9 L   6.816 -73.143146.0  RSN  7 0.5 1.8LRSN                1
 GAP=136        1.17       8.4     6.8 10.9  0.7680E+01  0.2583E+02  0.2389E+02E
 Epicentro: LOS SANTOS - SANTANDER                                             3
 ACTION:UP  12-07-05 12:03 OP:pat  STATUS:               ID:20120509062038 L   I
 2012-05-09-0620-00M.COL___192                                                 6
 STAT SP IPHASW D HRMM SECON CODA AMPLIT PERI AZIMU VELO SNR AR TRES W  DIS CAZ7
 BAR2 SZ EP        620 59.23                             170     0.710   25 190 
 BAR2 SZ ES   3    621 12.75                             170    -1.2 2   25 190 
 BAR2 SZ I         621 14.98        11.3 0.32                            25 190 
 BRR  HZ EP        621  0.07                             153     0.110   71 297 
 BRR  HE ES   1    621 17.44                             153     1.0 7   71 297 
 BRR  HZ I         621 21.47        14.9 0.14                            71 297 
 PAM  SZ EP        621  0.99                             152     0.010   76  40 
 PAM  SN ES   1    621 17.72                             152    -0.6 7   76  40 
 RUS  HZ EP        621  2.65                             144    -0.110  102 176 
 RUS  HN ES   2    621 21.05                             144    -0.3 5  102 176 
 PTB  HZ EP        621  5.30                             132    -0.6 9  148 258 
 PTB  HN ES   2    621 26.44                             132    -0.6 5  148 258 
 PTB  HZ I         621 29.99         5.9 0.12                           148 258 
 ZAR  HZ EP        621 10.95                             123    -0.3 9  204 292 
 ZAR  HN ES   1    621 36.35                             123    -0.2 6  204 292 
 ZAR  HZ I         621 41.50         8.3 0.40                           204 292 
 HEL  HZ EP        621 19.61                             115     0.4 8  273 255 
                                                                                
