 2013  2 9 0600 40.8 L   6.772 -73.109140.6  RSN  5 0.1 1.4LRSN                1
 GAP=143        0.33       1.9     3.0  2.6 -0.1409E+01 -0.2220E+00  0.1148E+01E
 Epicentro: LOS SANTOS - SANTANDER                                             3
 ACTION:UPD 13-03-12 09:31 OP:ep   STATUS:               ID:20130209060040 L   I
 2013-02-09-0600-00M.COL___240                                                 6
 STAT SP IPHASW D HRMM SECON CODA AMPLIT PERI AZIMU VELO AIN AR TRES W  DIS CAZ7
 BAR2 SZ EP        6 0 59.77                             171   -0.0410 21.5 202 
 BAR2 SZ ES        6 1 14.50                             171   -0.1110 21.5 202 
 BAR2 SZ I         6 1 16.01        10.2 0.19            151           21.5 202 
 BRR  HZ EP   1    6 1  1.60                             150   -0.13 7 76.3 299 
 BRR  HN ES   1    6 1 18.18                             150    0.15 7 76.3 299 
 BRR  HN I         6 1 18.95         7.6 0.19            132           76.3 299 
 PAM  SZ EP        6 1  2.62                             150    0.1210 77.3  36 
 PAM  SZ I         6 1  2.93         5.9 0.21            147           77.3  36 
 PAM  SN ES        6 1 19.36                             150   -0.0410 77.3  36 
 RUS  HZ EP        6 1  3.82                             144   -0.0210 97.3 178 
 RUS  HZ I         6 1  4.97         2.3 0.17            124           97.3 178 
 RUS  HE ES   1    6 1 21.92                             144    0.13 7 97.3 178 
 CHI  HZ EP   1    6 1 18.03                             116   -0.01 6  247 196 
 CHI  HZ I         6 1 53.32         0.8 0.57            104            247 196 
                                                                                
