 2012 10 9 0449 32.9 L   6.805 -73.129146.1  RSN  9 0.4 2.5LRSN                1
 GAP=101        0.73       3.9     3.3  5.3  0.2044E+01  0.4924E+01  0.4779E+01E
 Epicentro: LOS SANTOS - SANTANDER                                             3
 ACTION:UPD 12-11-22 17:02 OP:ep   STATUS:               ID:20121009044932 L   I
 2012-10-09-0447-59S.COL___220                                                 6
 STAT SP IPHASW D HRMM SECON CODA AMPLIT PERI AZIMU VELO AIN AR TRES W  DIS CAZ7
 BAR2 SZ EP   1    449 52.29                             170   -0.2910 24.2 194 
 BAR2 SZ ES   1    450  7.50                             170   -0.4410 24.2 194 
 BAR2 SZ I         450  9.84        83.0 0.36                          24.2 194 
 BRR  HZ EP   1    449 54.14                             152   -0.0110 72.6 297 
 BRR  HZ I         449 54.54        77.6 0.14                          72.6 297 
 BRR  HN ES   1    450 11.14                             152    0.4010 72.6 297 
 PAM  SZ EP   1    449 55.15                             151    0.1010 75.8  39 
 PAM  SN ES   1    450 12.40                             151    0.0610 75.8  39 
 PAM  SN I         450 13.69        76.6 0.40                          75.8  39 
 RUS  HZ EP   1    449 56.23                             144   -0.4810  101 177 
 RUS  HZ I         449 57.03        16.0 0.25                           101 177 
 RUS  HN ES   1    450 15.08                             144   -0.2010  101 177 
 TAM  HZ EP   1    450  0.47                             131    0.03 9  153 105 
 TAM  HZ I         450  0.62        62.4 0.34                           153 105 
 TAM  HE ES   1    450 22.15                             131    0.21 9  153 105 
 YOP  SZ EP   1    450  2.86                             126   -0.06 9  179 154 
 YOP  SN ES   1    450 26.91                             126    0.56 9  179 154 
 ZAR  HZ EP   1    450  4.91                             122   -0.60 8  206 292 
 ZAR  HZ I         450 36.54        23.5 0.12                           206 292 
 HEL  HZ IP        450 14.09                             115    0.7610  274 256 
 HEL  HZ EP        450 14.09                             114            274 256 
 HEL  HN ES   1    450 45.13                             115    0.26 7  274 256 
 HEL  HZ I         450 51.37        17.8 0.34                           274 256 
 PRA  HZ EP   1    450 25.84                             106   -0.74 6  393 210 
 PRA  HN ES   1    451  8.56                             106    0.10 6  393 210 
 PRA  HN I         451 13.64         9.1 0.56                           393 210 
                                                                                
