 2017  6 9 0606 24.9 L   6.829 -73.136150.3  RSN 10 0.6 1.7LRSN                1
 GAP=216        1.28       5.5     5.4  8.2  0.1387E+02 -0.1269E+01  0.2753E+01E
 Epicentro: LOS SANTOS - SANTANDER                                             3
 ACTION:UPD 17-09-14 16:50 OP:jn   STATUS:               ID:20170609060624 L   I
 OLDACT:UP  17-06-09 19:01 OP:ar   STATUS:               ID:20170609055726     3
 OLDACT:UP  17-06-09 19:01 OP:ar   STATUS:               ID:20170609055726     3
 OLDACT:REG 17-06-09 13:10 OP:edw  STATUS:               ID:20170609055726     3
 2017-06-09-0558-00M.COL___359                                                 6
 STAT SP IPHASW D HRMM SECON CODA AMPLIT PERI AZIMU VELO AIN AR TRES W  DIS CAZ7
 BRR  HZ IP     C  6 6 46.78                             154    0.2410 70.7 296 
 BRR  HE ES        6 7  4.08                             154    0.6910 70.7 296 
 BRR  HZ I         6 7  7.13        12.1 0.34            151           70.7 296 
 RUS  HZ EP        6 6 49.24                             144   -0.1110  104 177 
 RUS  HN ES        6 7  7.66                             144   -0.7410  104 177 
 RUS  HZ I         6 7  8.63         4.2 0.26            143            104 177 
 PTB  HZ EP        6 6 51.71                             133   -0.71 9  149 258 
 PTB  HN ES        6 7 12.93                             133   -0.93 9  149 258 
 PTB  HZ I         6 7 17.04         3.9 0.26            131            149 258 
 SPBC HZ EP        6 6 54.26                             130    0.19 9  166 219 
 SPBC HN ES        6 7 17.20                             130    0.39 9  166 219 
 SPBC HZ I         6 7 21.04        10.4 0.14            129            166 219 
 YPLC HZ EP        6 6 55.49                             127    0.21 9  179 152 
 YPLC HE ES        6 7 19.79                             127    0.84 9  179 152 
 YPLC HZ I         6 7 20.27         4.1 0.24            129            179 152 
 ZAR  HZ EP        6 6 57.47                             123   -0.18 9  204 291 
 ZAR  HN ES        6 7 23.00                             123   -0.17 9  204 291 
 ZAR  HZ I         6 7 28.41         6.0 0.30            123            204 291 
 NOR  HZ EP        6 7  1.29                             119    0.08 8  237 234 
 NOR  HN ES        6 7 29.54                             119    0.02 8  237 234 
 NOR  HZ I         6 7 35.10         3.3 0.12            119            237 234 
 CHI  HZ EP        6 7  3.48                             118    0.24 8  252 195 
 CHI  HE ES        6 7 32.96                             118   -0.17 8  252 195 
 CHI  HZ I         6 7 37.32         3.0 0.50            118            252 195 
 PTGC HZ EP        6 7  8.32                             112   -0.96 7  311 159 
 PTGC HE ES   4    6 7 41.91                             112   -1.97 0  311 159 
 CBOC HZ EP   1    6 7 13.35                             111    1.09 5  336 252 
 CBOC HE ES        6 7 50.01                             111    0.83 7  336 252 
 CBOC HZ I         6 7 58.18         0.9 0.48            111            336 252 
                                                                                
