 2016 11 9 0346  5.7 L   6.795 -73.102146.0  RSN 11 0.4 1.9LRSN                1
 GAP=123        0.83       3.6     3.9  4.9 -0.2226E+00  0.1941E+01  0.7698E+01E
 Epicentro: LOS SANTOS - SANTANDER                                             3
 ACTION:UPD 17-10-26 21:06 OP:lp   STATUS:               ID:20161109034605 L   I
 OLDACT:DUP 16-11-09 16:12 OP:lv   STATUS:               ID:20161109033745d    3
 2016-11-09-0338-00M.COL___349                                                 6
 STAT SP IPHASW D HRMM SECON CODA AMPLIT PERI AZIMU VELO AIN AR TRES W  DIS CAZ7
 BAR2 EZ IP     C  346 25.29                             170   -0.1210 24.1 202 
 BAR2 EZ ES        346 40.88                             170    0.1310 24.1 202 
 BAR2 EZ I         346 42.89         7.7 0.21            166           24.1 202 
 PAM  EZ EP        346 28.29                             151    0.4610 74.8  36 
 PAM  EN ES        346 44.70                             151   -0.3510 74.8  36 
 PAM  EZ I         346 47.22        19.4 0.46            157           74.8  36 
 BRR  HZ EP        346 27.36                             151    0.1910 75.7 297 
 BRR  HN ES        346 43.93                             151    0.0410 75.7 297 
 BRR  HZ I         346 47.93        20.8 0.21            150           75.7 297 
 PTB  HZ EP   9    346 31.95                             131   -1.20 0  152 259 
 PTB  HN ES        346 52.94                                   -0.39 9  152 259 
 PTB  HZ I         346 56.20         7.9 0.14            131            152 259 
 ZAR  HZ EP        346 38.72                             122    0.04 8  209 292 
 ZAR  HN ES        347  4.17                             122   -0.21 8  209 292 
 ZAR  HZ I         347  9.34        19.4 0.43            123            209 292 
 NOR  HZ EP        346 41.26                             118   -0.61 8  238 235 
 NOR  HN ES   4    347 10.91                             118    0.86 0  238 235 
 NOR  HZ I         347 15.15         4.9 0.17            119            238 235 
 CHI  HZ EP        346 44.14                             117    0.61 8  249 196 
 CHI  HN ES        347 12.81                             117   -0.20 8  249 196 
 CHI  HZ I         347 16.94         3.0 0.24            118            249 196 
 ROSC BZ EP   4    346 47.61                             116    3.52 0  255 212 
 ROSC BN ES   4    347 16.45                             116    2.44 0  255 212 
 ROSC BZ I         347 21.62         8.3 0.40            117            255 212 
 PTGC HZ EP        346 48.68                             112   -0.67 7  306 159 
 PTGC HE ES   4    347 21.60                             112   -1.77 0  306 159 
 PRA  HZ EP        346 59.91                             106    0.42 6  394 210 
 PRA  HN ES        347 41.73                             106    0.31 6  394 210 
 PRA  HZ I         347 45.92         3.3 0.24            107            394 210 
 SJC  HZ EP   4    347  0.41                             105   -1.26 0  412 326 
 SJC  HN ES   4    347 42.05                             105   -3.25 0  412 326 
 SJC  HZ I         347 45.32         1.7 0.32            107            412 326 
                                                                                
