 2017  3 9 0312 44.6 L   6.802 -73.451120.3  RSN  4 0.2 1.4LRSN                1
 GAP=169        0.52       4.4     3.0  5.2  0.5003E+01  0.2936E+01 -0.3136E+01E
 Epicentro: SAN VICENTE DE CHUCURI - SANTANDER                                 3
 ACTION:UPD 17-05-25 18:38 OP:jn   STATUS:               ID:20170309031244 L   I
 OLDACT:REG 17-03-09 12:34 OP:and  STATUS:               ID:20170309030742     3
 2017-03-09-0308-00M.COL___403                                                 6
 STAT SP IPHASW D HRMM SECON CODA AMPLIT PERI AZIMU VELO AIN AR TRES W  DIS CAZ7
 BAR2 EZ EP        313  1.36                             162   -0.3110 37.7 128 
 BAR2 EZ ES        313 14.90                             162   -0.0510 37.7 128 
 BAR2 EZ I         313 15.87         7.6 0.24            162           37.7 128 
 BRR  HZ EP        313  1.88                             158    0.2910 44.4 319 
 RUS  HZ EP        313  6.74                             135    0.1010  109 158 
 RUS  HN ES        313 23.91                             135    0.1010  109 158 
 PTB  HZ EP        313  6.42                             133   -0.1310  115 255 
 PTB  HN ES        313 23.64                             133   -0.0010  115 255 
                                                                                
