 2015  1 9 0746 13.7 L   6.576 -73.888 26.5  RSN  9 0.4 2.2LRSN                1
 GAP= 66        1.00       2.5     2.0  4.5 -0.5460E+00 -0.1104E+01  0.4692E+01E
 Epicentro: PUERTO PARRA - SANTANDER                                           3
 ACTION:UPD 15-03-02 15:38 OP:nd   STATUS:               ID:20150109074613 L   I
 OLDACT:UP  15-01-09 16:54 OP:cam  STATUS:               ID:20150109073816     3
 OLDACT:REG 15-01-09 15:14 OP:cam  STATUS:               ID:20150109073816     3
 2015-01-09-0738-16M.COL___259                                                 6
 STAT SP IPHASW D HRMM SECON CODA AMPLIT PERI AZIMU VELO AIN AR TRES W  DIS CAZ7
 BRR  HZ EP        746 24.04                             101   -0.1910 61.9  18 
 BRR  HE ES        746 32.59                             101    0.1210 61.9  18 
 BRR  HZ I         746 33.63        59.6 0.10            101           61.9  18 
 PTB  HZ IP     D  746 24.28                             101   -0.1210 63.0 266 
 PTB  HN ES        746 33.03                             101    0.2510 63.0 266 
 PTB  HZ I         746 34.14       215.3 0.14            102           63.0 266 
 BAR2 EZ IP     D  746 26.25                              95   -0.5310 78.1  89 
 BAR2 EZ ES   4    746 35.53                              95   -1.48 0 78.1  89 
 BAR2 EZ I         746 36.79        40.1 0.26            100           78.1  89 
 SPBC HZ EP        746 30.49                              61    0.3410  104 191 
 SPBC HN ES        746 43.30                              61    0.3010  104 191 
 SPBC HZ I         746 44.99        58.8 0.18             97            104 191 
 RUS  HZ EP        746 32.31                              61    0.1010  117 130 
 RUS  HE ES        746 46.19                              61   -0.4910  117 130 
 RUS  HZ I         746 46.94        29.2 0.16             97            117 130 
 ZAR  HZ EP        746 35.68                              61    0.21 9  147 313 
 ZAR  HN ES        746 52.08                              61   -0.39 9  147 313 
 ZAR  HN I         746 54.01        47.6 0.38             56            147 313 
 PAM  SZ EP   4 D  746 38.24                              61    1.11 0  156  57 
 PAM  SE ES        746 56.06                              61    0.64 9  156  57 
 PAM  SZ I         746 58.66        59.7 0.24             56            156  57 
 HEL  HZ EP        746 41.24                              61    0.47 9  186 257 
 HEL  HN ES        747  1.23                              61   -0.68 9  186 257 
 HEL  HZ I         747  3.05         8.1 0.26             56            186 257 
 SML  HZ EP   4    746 46.61                              61   -1.27 0  247 355 
 SML  HZ I         747 24.62        14.7 0.24             56            247 355 
                                                                                
