 2013  2 9 0330 40.9 L   6.777 -73.119142.5  RSN  4 0.1 1.4LRSN                1
 GAP=141        0.37       3.7     6.2  6.7  0.1332E+02 -0.2343E+02 -0.1110E+02E
 Epicentro: LOS SANTOS - SANTANDER                                             3
 ACTION:UPD 13-03-12 09:31 OP:ep   STATUS:               ID:20130209033040 L   I
 2013-02-09-0330-00M.COL___240                                                 6
 STAT SP IPHASW D HRMM SECON CODA AMPLIT PERI AZIMU VELO AIN AR TRES W  DIS CAZ7
 BAR2 SZ EP   1    330 59.97                             171   -0.10 7 21.6 199 
 BAR2 SZ I         331 16.16         8.0 0.19            169           21.6 199 
 BRR  HZ EP        331  2.02                             151    0.1310 75.0 299 
 BRR  HE ES   1    331 18.17                             151   -0.11 7 75.0 299 
 BRR  HE I         331 19.38         6.6 0.24            154           75.0 299 
 PAM  SZ EP   1    331  2.77                             150    0.03 7 77.5  37 
 RUS  HZ EP   1    331  3.94                             144   -0.16 7 97.9 178 
 RUS  HN ES   1    331 22.35                             144    0.12 7 97.9 178 
 RUS  HN I         331 23.64         2.5 0.15            142           97.9 178 
                                                                                
