 2014  4 9 0051 20.6 L   6.809 -73.145150.6  RSN  8 0.5 1.6LRSN                1
 GAP=119        1.20       4.3     5.6  7.5 -0.4153E+01  0.2904E+00 -0.1366E+01E
 Epicentro: LOS SANTOS - SANTANDER                                             3
 ACTION:UPD 14-05-13 23:07 OP:nd   STATUS:               ID:20140409005120 L   I
 OLDACT:UP  14-04-11 04:45 OP:CF   STATUS:               ID:20140409005120 L   3
 OLDACT:REG 14-04-09 13:23 OP:stll STATUS:               ID:20140409004817     3
 2014-04-09-0048-17M.COL___259                                                 6
 STAT SP IPHASW D HRMM SECON CODA AMPLIT PERI AZIMU VELO AIN AR TRES W  DIS CAZ7
 BRR  HZ EP        051 43.03                             153    0.7510 70.8 298 
 BRR  HN ES        051 59.79                             153    0.6210 70.8 298 
 BRR  HZ I         052  3.68         5.8 0.40            153           70.8 298 
 PAM  SZ EP   1    051 43.92                             152    0.60 7 76.6  40 
 PAM  SE ES        052  0.70                             152   -0.3210 76.6  40 
 PAM  SZ I         052  2.82         5.5 0.24            156           76.6  40 
 RUS  HZ EP        051 45.00                             144    0.0710  102 176 
 RUS  HN ES        052  3.56                             144   -0.3210  102 176 
 RUS  HZ I         052  4.87         4.3 0.34            146            102 176 
 PTB  HZ EP        051 47.64                             133   -0.38 9  148 258 
 PTB  HN ES        052  8.47                             133   -0.91 9  148 258 
 PTB  HZ I         052 13.52         5.1 0.34            133            148 258 
 SPBC HZ EP        051 50.10                             130    0.52 9  164 219 
 SPBC HN ES        052 12.32                             130    0.16 9  164 219 
 SPBC HZ I         052 17.11         8.1 0.28            131            164 219 
 SML  HZ EP        051 57.48                             118    0.05 8  243 335 
 SML  HN ES        052 25.77                             118   -0.37 8  243 335 
 SOCV BZ EP        052  3.17                             113   -0.67 7  301  57 
 SOCV BN ES   4    052 31.62                             113   -5.92 0  301  57 
 PRA  HZ EP        052 14.28                             107   -0.14 6  393 210 
 PRA  HN ES   4    052 53.14                             107   -3.24 0  393 210 
 PRA  HZ I         053  2.86         2.3 0.34            108            393 210 
                                                                                
