 2016  7 9 0453 19.6 L   6.792 -73.154151.1  RSN  8 0.3 1.5LRSN                1
 GAP=208        0.84       3.7     4.8  5.3  0.6386E+01  0.3421E+01 -0.1163E+01E
 Epicentro: LOS SANTOS - SANTANDER                                             3
 ACTION:UPD 17-03-29 16:48 OP:lp   STATUS:               ID:20160709045319 L   I
 OLDACT:DUP 16-07-09 16:48 OP:edw  STATUS:               ID:20160709044745d    3
 OLDACT:REG 16-07-09 14:26 OP:edw  STATUS:               ID:20160709044744     3
 2016-07-09-0447-44M.COL___328                                                 6
 STAT SP IPHASW D HRMM SECON CODA AMPLIT PERI AZIMU VELO AIN AR TRES W  DIS CAZ7
 BAR2 EZ EP        453 39.74                             171   -0.0810 22.4 188 
 BAR2 EZ ES        453 55.23                             171   -0.3910 22.4 188 
 BAR2 EZ I         453 56.41         6.4 0.18            168           22.4 188 
 BRR  HZ EP        453 41.53                             154    0.2610 70.8 299 
 BRR  HE ES        453 58.81                             154    0.6110 70.8 299 
 BRR  HZ I         454  1.87         6.7 0.32            151           70.8 299 
 RUS  HZ EP        453 43.98                             145    0.1910 99.8 175 
 RUS  HE ES        454  2.54                             145   -0.1510 99.8 175 
 PTB  HZ EP        453 46.53                             133   -0.35 9  147 259 
 PTB  HN ES        454  7.66                             133   -0.52 9  147 259 
 PTB  HZ I         454  8.46         3.7 0.18            132            147 259 
 SPBC HZ EP        453 48.75                             131    0.39 9  162 219 
 SPBC HN ES        454 10.93                             131    0.11 9  162 219 
 SPBC HZ I         454 18.59         2.8 0.14            130            162 219 
 ZAR  HZ EP        453 51.96                             124   -0.35 9  203 292 
 ZAR  HE ES        454 18.06                             124    0.22 9  203 292 
 ZAR  HZ I         454 23.77         3.2 0.30            123            203 292 
 CHI  HZ EP   4    454  3.10                             118    5.65 0  248 195 
 CHI  HN ES        454 27.17                             118    0.17 8  248 195 
 SJC  HZ EP        454 15.01                             106   -0.32 6  409 327 
 SJC  HN ES   4    454 57.34                             106   -1.48 0  409 327 
                                                                                
