 2011  4 9 0950 48.6 L   6.913 -73.424103.0  RSN  6 0.3 1.8LRSN                1
 GAP=108        0.67       5.8     7.8 10.4 -0.3000E+02  0.6049E+02 -0.3774E+02E
 Epicentro: SAN VICENTE DE CHUCURI - SANTANDER                                 3
 ACTION:UP  11-06-22 15:29 OP:REBC STATUS:               ID:20110409095048 L   I
 2011-04-09-0949-10S.COL___138                                                 6
 STAT SP IPHASW D HRMM SECON CODA AMPLIT PERI AZIMU VELO SNR AR TRES W  DIS CAZ7
 GIR2 SZ EP   1    951  3.42                             162     0.2 7   31  54 
 BRR  HZ EP        951  3.41                             158     0.110   38 304 
 BRR  HZ I         951 12.45        18.7 0.09                            38 304 
 BAR2 SZ IP        951  3.87                             157    -0.110   44 143 
 BAR2 SZ ES   1    951 15.77                             157    -0.2 7   44 143 
 BAR2 SZ I         951 17.38        36.3 0.20                            44 143 
 GRA  SZ EP   1    951 10.51                             125    -0.1 7  127  32 
 GRA  SZ ES   1    951 27.98                             125     0.3 7  127  32 
 GRA  SZ I         951 30.10         7.6 0.18                           127  32 
 OCA  SZ EP   1    951 12.07                             121    -0.5 7  147   4 
 OCA  SZ I         951 33.02         7.8 0.26                           147   4 
 HEL  HZ EP        951 24.33                                     0.3 8  246 251 
 HEL  HN ES   3    951 50.71                                    -0.9 2  246 251 
 HEL  HZ I         951 55.05         4.5 0.28                           246 251 
                                                                                
