 2011  2 9 0227 27.1 L   6.268 -73.721 99.0  RSN 14 0.4 2.6LRSN                1
 GAP= 85        0.92       2.6     3.1  7.8 -0.1853E+01  0.1024E+02  0.2206E+01E
 Epicentro: LANDAZURI - SANTANDER                                              3
 ACTION:UP  11-03-28 15:07 OP:jfem STATUS:               ID:20110209022726 L   I
 2011-02-09-0225-37S.COL___136                                                 6
 STAT SP IPHASW D HRMM SECON CODA AMPLIT PERI AZIMU VELO SNR AR TRES W  DIS CAZ7
 BAR2 SZ IP        227 43.71                             142     0.110   69  59 
 BAR2 SZ ES   1    227 56.24                             142    -0.3 7   69  59 
 BAR2 SZ I         227 58.00       287.7 0.31                            69  59 
 RUS  HZ IP     D  227 44.62                             138    -0.310   82 120 
 RUS  HZ I         227 45.24        56.6 0.26                            82 120 
 RUS  HN ES   1    227 58.78                             138    -0.1 7   82 120 
 BTL  SZ EP        227 45.43                             136     0.310   88  35 
 BTL  SZ ES   1    227 59.65                             136     0.5 7   88  35 
 GIR2 SZ IP        227 46.70                             129     0.010  107  33 
 GIR2 SZ ES   2    228  1.39                             129    -0.7 5  107  33 
 NOR  SZ EP        227 50.24                             120    -0.7 9  149 239 
 NOR  SE ES   1    228  9.46                             120    -0.1 7  149 239 
 YOP  SZ EP        227 54.03                             115     0.1 9  176 125 
 YOP  SN ES   1    228 15.38                             115     0.5 7  176 125 
 YOP  SZ I         228 17.37        74.6 0.46                           176 125 
 CHI  HZ EP   1    227 54.50                             115    -0.4 7  181 180 
 CHI  HE ES   1    228 16.83                             115     0.2 7  181 180 
 CHI  HZ I         228 24.06        21.1 0.40                           181 180 
 HEL  HZ EP   1    227 56.58                             112    -0.4 6  200 268 
 HEL  HN ES   1    228 21.12                             112     0.8 6  200 268 
 HEL  HZ I         228 23.81        45.7 0.40                           200 268 
 GRA  SZ ES   1    228 20.37                             111    -0.6 6  206  29 
 GRA  SZ I         228 27.60        47.3 0.28                           206  29 
 GUY  SZ EP   1    227 59.52                             111     0.6 6  216 238 
 GUY  SZ I         228 29.00        41.7 0.30                           216 238 
 OCA  SZ EP   1    227 59.67                             110     0.4 6  222  11 
 OCA  SZ ES   1    228 24.83                             110     0.4 6  222  11 
 OCA  SZ I         228 30.09        47.1 0.30                           222  11 
 RREF HZ EP   2    228  1.16                             109    -0.2 4  235 230 
 RREF HE ES   1    228 27.81                             109    -0.3 6  235 230 
 RREF HZ I         228 35.02        30.9 0.27                           235 230 
 VIL  SZ EP   1    228  1.27                             108     0.1 6  239 177 
 VIL  SN ES   1    228 28.15                             108     0.4 6  239 177 
 VIL  SZ I         228 32.10        48.9 0.51                           239 177 
 DBB  SZ EP   1    228  6.63                             105    -0.2 5  287 287 
                                                                                
