 2013  3 9 0610 34.6 L   6.813 -73.125148.9  RSN 18 0.5 3.0LRSN 3.3WRSN        1
 SPEC AVERAGE  MO 14.0 ST  7.4 OM  2.5 f0 3.49 R0.5038 AL 2.17 WI 26.1 MW  3.3 3
 SPEC SD       MO  0.2 ST  6.1 OM  0.6 f0 1.19 R0.2708 AL      WI      MW  0.1 3
 GAP= 72        1.22       3.1     3.7  5.5 -0.1599E+01  0.2008E+01  0.1826E+01E
 Epicentro: LOS SANTOS - SANTANDER                                             3
 SPEC TAM HH Z MO 14.0 ST  5.3 OM  1.5 f0 3.38 R0.4349 AL 1.60 WI 17.2 MW  3.3 3
 SPEC TAM HH Z T 611 2 K 0.000 GD  213 VP 7.60 DE 3.20 Q0300.0 QA 0.60 VS 4.20 3
 SPEC PTB HH E MO 13.9 ST 14.5 OM  2.2 f0 5.01 R0.2934 AL 2.34 WI 28.3 MW  3.2 3
 SPEC PTB HH E T 61121 K 0.000 GD  211 VS 4.20 DE 3.20 Q0300.0 QA 0.60 VS 4.20 3
 SPEC RUS HH N MO 13.7 ST  3.3 OM  2.0 f0 3.76 R0.3910 AL 2.55 WI 21.2 MW  3.0 3
 SPEC RUS HH N T 61116 K 0.000 GD  180 VS 4.20 DE 3.20 Q0300.0 QA 0.60 VS 4.20 3
 SPEC HEL HH E MO 13.9 ST  2.4 OM  2.0 f0 2.80 R0.5250 AL 1.72 WI 41.3 MW  3.2 3
 SPEC HEL HH E T 61143 K 0.000 GD  312 VS 4.20 DE 3.20 Q0300.0 QA 0.60 VS 4.20 3
 SPEC PAM SH Z MO 14.2 ST 10.6 OM  1.8 f0 3.67 R0.4005 AL 2.59 WI 16.8 MW  3.4 3
 SPEC PAM SH Z T 61057 K 0.000 GD  166 VP 7.60 DE 3.20 Q0300.0 QA 0.60 VS 4.20 3
 SPEC CHI HH N MO 14.1 ST  3.6 OM  2.2 f0 2.84 R0.5176 AL 2.22 WI 31.8 MW  3.3 3
 SPEC CHI HH N T 61141 K 0.000 GD  291 VS 4.20 DE 3.20 Q0300.0 QA 0.60 VS 4.20 3
 SPEC BRR HH Z MO 14.0 ST 18.9 OM  1.6 f0 5.20 R0.2827 AL 2.93 WI 16.4 MW  3.3 3
 SPEC BRR HH Z T 61056 K 0.000 GD  165 VP 7.60 DE 3.20 Q0300.0 QA 0.60 VS 4.20 3
 SPEC BAR2SH Z MO 14.2 ST0.394 OM  2.6 f0 1.24 R1.1855 AL 1.39 WI 36.2 MW  3.4 3
 SPEC BAR2SH Z T 611 9 K 0.000 GD  151 VS 4.20 DE 3.20 Q0300.0 QA 0.60 VS 4.20 3
 ACTION:UPD 13-04-09 14:00 OP:ep   STATUS:               ID:20130309061034 L   I
 2013-03-09-0608-50M.COL___198                                                 6
 STAT SP IPHASW D HRMM SECON CODA AMPLIT PERI AZIMU VELO AIN AR TRES W  DIS CAZ7
 BAR2 SZ IP     D  610 54.75                             170    0.0710 25.2 195 
 BAR2 SZ ES   1    611 10.10                             170   -0.22 7 25.2 195 
 BAR2 SZ I         611 12.43       166.1 0.44            161           25.2 195 
 BRR  HZ IP     C  610 56.62                             153    0.4210 72.6 297 
 BRR  HZ I         610 56.90       115.2 0.26            141           72.6 297 
 BRR  HE ES        611 13.82                             153    0.7910 72.6 297 
 PAM  SZ IP     C  610 57.42                             152    0.3810 74.8  39 
 PAM  SZ I         610 57.75       167.6 0.20            153           74.8  39 
 PAM  SN ES        611 14.69                             152    0.1810 74.8  39 
 RUS  HZ EP        610 58.62                             144   -0.1610  102 177 
 RUS  HN ES        611 16.96                             144   -0.6610  102 177 
 RUS  HE I         611 18.39       166.6 0.48            137            102 177 
 CAPV BZ IP     C  611  2.60                             133    0.54 9  147  38 
 CAPV BZ ES        611 23.03                             133   -0.42 9  147  38 
 PTB  HZ EP        611  1.22                             132   -0.87 9  150 258 
 PTB  HN ES   1    611 22.87                             132   -0.63 7  150 258 
 PTB  HE I         611 28.68       162.7 0.20            122            150 258 
 TAM  HZ IP     C  611  2.87                             132    0.48 9  153 106 
 TAM  HN ES        611 24.39                             132    0.35 9  153 106 
 OCA  HZ EP        611  3.28                             130    0.19 9  159 352 
 OCA  HN ES        611 24.78                             130   -0.50 9  159 352 
 OCA  HE I         611 29.08       316.4 0.22            124            159 352 
 ZAR  HZ EP        611  8.05                             123    0.60 8  206 292 
 SML  HZ EP        611 11.08                             118   -0.32 8  243 335 
 SML  HN ES        611 39.45                             118   -0.64 8  243 335 
 CHI  HZ EP        611 12.82                             117    0.11 8  251 196 
 CHI  HE ES        611 42.05                             117   -0.37 8  251 196 
 CHI  HN I         611 44.68        48.7 0.30            111            251 196 
 HEL  HZ EP        611 16.07                             115    0.78 8  275 256 
 HEL  HE I         611 55.45        37.6 0.40            108            275 256 
 SOCV BZ EP        611 16.77                             113   -0.75 7  299  57 
 VIL  SZ EP        611 19.35                             112    0.95 7  305 192 
 RREF HZ EP        611 21.73                             111    0.52 7  324 229 
 RREF HZ I         612  5.64        35.0 0.26            105            324 229 
 SDV  BZ EP        611 24.10                             109   -0.38 6  358  50 
 PRA  HZ EP        611 28.04                             107   -0.49 6  394 210 
 PRA  HE ES        612  9.95                             107   -0.63 6  394 210 
 PRA  HE I         612 14.39        22.4 0.28            102            394 210 
 ELOV BZ EP        611 28.52                             106   -0.96 6  403  87 
                                                                                
