 2016 11 9 0914 31.8 L   6.793 -73.162139.7  RSN  4 0.4 1.2LRSN                1
 GAP=146        0.90       5.6     5.7  7.5 -0.1384E+02  0.5313E+01  0.1271E+02E
 Epicentro: LOS SANTOS - SANTANDER                                             3
 ACTION:UPD 17-10-26 21:06 OP:lp   STATUS:               ID:20161109091431 L   I
 OLDACT:REG 16-11-09 13:08 OP:lv   STATUS:               ID:20161109090746     3
 2016-11-09-0908-00M.COL___346                                                 6
 STAT SP IPHASW D HRMM SECON CODA AMPLIT PERI AZIMU VELO AIN AR TRES W  DIS CAZ7
 BAR2 EZ EP        914 50.37                             170   -0.3210 22.3 186 
 BAR2 EZ ES        915  5.78                             170    0.3710 22.3 186 
 BAR2 EZ I         915  8.23         5.2 0.28            169           22.3 186 
 PAM  EZ EP        914 53.14                             149   -0.3510 79.1  40 
 PAM  EE ES        915 10.46                             149    0.0610 79.1  40 
 PAM  EZ I         915 12.60         3.4 0.28            154           79.1  40 
 PTB  HZ EP        914 58.64                             131    0.53 9  146 259 
 PTB  HE ES        915 18.29                             131   -0.34 9  146 259 
 PTB  HZ I         915 22.64         1.1 0.10            133            146 259 
 CHI  HZ EP        915  9.49                             116    0.45 8  247 195 
 CHI  HN ES        915 37.73                             116   -0.35 8  247 195 
 CHI  HZ I         915 41.36         0.9 0.23            118            247 195 
                                                                                
