 2010  8 9 0410 17.0 L   6.546 -73.762 93.5  RSN  5 0.2 1.2LRSN                1
 GAP=231        0.44       4.1     7.3  6.1  0.1062E+02  0.1462E+02  0.1069E+01E
 Epicentro: SANTA HELENA DEL OPON - SANTANDER                                  3
 ACTION:UP  10-09-07 10:53 OP:vdl  STATUS:               ID:20100809041017 L   I
 2010-08-09-0406-15S.COL___124                                                 6
 STAT SP IPHASW D HRMM SECON CODA AMPLIT PERI AZIMU VELO SNR AR TRES W  DIS CAZ7
 BRR  HZ EP   2    410 31.78                             144    -0.3 5   62   5 
 BRR  HN ES   2    410 44.20                             144     0.3 5   62   5 
 BRR  HZ I         410 52.36         6.4 0.09                            62   5 
 BAR2 SZ EP        410 32.54                             143     0.010   64  85 
 BAR2 SZ I         410 32.74         5.3 0.10                            64  85 
 BAR2 SZ ES   1    410 44.72                             143     0.0 7   64  85 
 BTL  SZ IP        410 32.75                             141    -0.110   68  53 
 RUS  HZ EP   2    410 36.66                             129     0.3 5  104 134 
 RUS  HN ES   3    410 51.59                             129     0.1 2  104 134 
 RUS  HZ I         410 53.65         2.1 0.17                           104 134 
 GUE  SZ EP   1    410 43.31                             114     0.3 7  169  33 
 GUE  SZ ES   2    411  3.31                             114    -0.1 5  169  33 
 GUE  SZ I         411  4.73         2.5 0.23                           169  33 
                                                                                
