 2016 10 9 0552 42.6 L   6.811 -73.168141.0  RSN 11 0.3 1.9LRSN                1
 GAP=133        0.65       2.1     3.0  6.2 -0.1124E+01  0.7841E+01  0.1974E+01E
 Epicentro: LOS SANTOS - SANTANDER                                             3
 ACTION:UPD 16-11-09 19:17 OP:rebc STATUS:               ID:20161009055242 L   I
 OLDACT:UP  16-10-09 17:21 OP:dnl  STATUS:               ID:20161009054745d    3
 OLDACT:UP  16-10-09 17:21 OP:dnl  STATUS:               ID:20161009054745d    3
 OLDACT:DUP 16-10-09 17:15 OP:dnl  STATUS:               ID:20161009054745d    3
 OLDACT:UP  16-10-09 17:13 OP:dnl  STATUS:               ID:20161009054744     3
 OLDACT:UP  16-10-09 17:13 OP:dnl  STATUS:               ID:20161009054744     3
 OLDACT:REG 16-10-09 12:48 OP:dani STATUS:               ID:20161009054744     3
 2016-10-09-0548-00M.COL___354                                                 6
 STAT SP IPHASW D HRMM SECON CODA AMPLIT PERI AZIMU VELO AIN AR TRES W  DIS CAZ7
 BAR2 EZ EP        553  1.87                             170    0.1810 24.2 184 
 BAR2 EZ I         553 16.03        17.7 0.44            171           24.2 184 
 PAM  EZ EP   2    553  4.86                             150    0.50 5 78.1  41 
 PAM  EN ES        553 21.61                             150    0.2810 78.1  41 
 PAM  EZ I         553 23.90        20.2 0.56            148           78.1  41 
 RUS  HZ EP   2    553  5.87                             142   -0.13 5  102 175 
 RUS  HN ES        553 24.01                             142   -0.2310  102 175 
 RUS  HZ I         553 25.92         7.0 0.44            142            102 175 
 PTB  HZ EP        553  8.64                             131   -0.36 9  146 258 
 PTB  HE ES        553 29.32                             131   -0.26 9  146 258 
 PTB  HZ I         553 31.07        25.4 0.94            129            146 258 
 OCA  HZ EP   2    553 10.43                             129    0.01 5  159 354 
 OCA  HN ES        553 31.57                             129   -0.53 9  159 354 
 OCA  HZ I         553 36.74        12.4 0.50            126            159 354 
 SPBC HZ EP        553 10.87                             128    0.18 9  163 218 
 SPBC HN ES        553 32.75                             128    0.15 9  163 218 
 SPBC HZ I         553 35.40         8.7 0.26            127            163 218 
 ZAR  HZ EP   4    553 12.98                             122   -1.49 0  201 292 
 ZAR  HE ES        553 39.81                             122    0.49 9  201 292 
 ZAR  HZ I         553 46.06         6.0 0.28            120            201 292 
 NOR  HZ EP   2    553 18.27                             118    0.34 4  233 234 
 NOR  HE ES        553 45.63                             118    0.15 8  233 234 
 NOR  HZ I         553 52.92         6.4 0.16            116            233 234 
 CHI  HZ EP   2    553 19.74                             116   -0.37 4  249 195 
 CHI  HN ES        553 49.26                             116   -0.09 8  249 195 
 CHI  HZ I         553 52.41         2.1 0.36            115            249 195 
 HEL  HZ EP   4    553 24.11                             114    1.75 0  270 255 
 HEL  HN ES   4    553 50.90                             114   -2.46 0  270 255 
 HEL  HZ I         554  0.78         2.6 0.36            112            270 255 
 GUY2CHZ EP   4    553 27.39                             111    1.53 0  300 234 
 GUY2CHE ES        553 59.55                             111   -0.04 7  300 234 
 GUY2CHZ I         554  6.90         3.6 0.30                           300 234 
                                                                                
