 2015  2 9 0535 13.7 L   7.432 -73.207126.7  RSN  8 0.3 1.4LRSN                1
 GAP=108        0.86       2.8     4.1  6.0  0.2020E+01  0.7778E+01  0.2853E+01E
 Epicentro: EL PLAYON - SANTANDER                                              3
 ACTION:UPD 15-04-30 21:24 OP:nd   STATUS:               ID:20150209053513 L   I
 OLDACT:DUP 15-02-09 18:45 OP:fm   STATUS:               ID:20150209052736d    3
 2015-02-09-0527-35M.COL___295                                                 6
 STAT SP IPHASW D HRMM SECON CODA AMPLIT PERI AZIMU VELO AIN AR TRES W  DIS CAZ7
 PAM  SZ EP        535 33.07                             155    0.4010 57.0 100 
 PAM  SE ES        535 47.37                             155   -0.1210 57.0 100 
 PAM  SZ I         535 49.60         4.3 0.18            156           57.0 100 
 BRR  HZ EP     C  535 32.81                             151    0.3210 66.3 237 
 BRR  HN ES        535 47.70                             151    0.5310 66.3 237 
 BRR  HZ I         535 48.66         7.5 0.36            153           66.3 237 
 OCA  HE ES        535 50.35                             142   -0.0610 90.0 352 
 OCA  HZ I         535 57.88         4.2 0.30            144           90.0 352 
 BAR2 EZ EP        535 34.74                             141    0.0910 92.9 178 
 BAR2 EZ ES        535 50.87                             141   -0.1410 92.9 178 
 BAR2 EZ I         535 52.31        13.1 0.14            145           92.9 178 
 PTB  HZ EP        535 41.43                             123    0.08 9  170 234 
 PTB  HN ES        536  2.57                             123   -0.36 9  170 234 
 PTB  HZ I         536  5.72         3.1 0.34            126            170 234 
 RUS  HZ EP        535 41.92                             123   -0.16 9  171 175 
 RUS  HE ES        536  3.74                             123   -0.50 9  171 175 
 RUS  HZ I         536 10.58         1.0 0.32            126            171 175 
 SML  HN ES        536  3.94                             122   -0.62 9  179 328 
 SML  HZ I         536  6.79         5.3 0.10            124            179 328 
 ZAR  HZ EP        535 42.94                             121    0.30 9  182 272 
                                                                                
