 2016  7 9 0852 14.0 L   6.818 -73.153143.3  RSN 16 0.4 2.2LRSN                1
 GAP= 72        0.86       2.7     2.4  4.4 -0.2967E+00  0.3856E+01  0.1161E+01E
 Epicentro: LOS SANTOS - SANTANDER                                             3
 ACTION:UPD 17-03-29 16:48 OP:lp   STATUS:               ID:20160709085214 L   I
 OLDACT:UP  16-07-09 18:22 OP:edw  STATUS:               ID:20160709084744     3
 OLDACT:UP  16-07-09 18:15 OP:edw  STATUS:               ID:20160709084744     3
 OLDACT:REG 16-07-09 14:41 OP:edw  STATUS:               ID:20160709084744     3
 2016-07-09-0847-44M.COL___316                                                 6
 STAT SP IPHASW D HRMM SECON CODA AMPLIT PERI AZIMU VELO AIN AR TRES W  DIS CAZ7
 BAR2 EZ EP        852 33.30                             170   -0.0810 25.1 187 
 BAR2 EZ ES        852 48.35                             170   -0.1410 25.1 187 
 BAR2 EZ I         852 49.95        50.5 0.36            169           25.1 187 
 PAM  EZ EP        852 36.20                             151    0.2910 76.4  41 
 PAM  EN ES        852 53.30                             151    0.3110 76.4  41 
 PAM  EZ I         852 55.40        27.3 0.52            155           76.4  41 
 RUS  HZ EP        852 37.39                             143   -0.2810  103 176 
 RUS  HN ES        852 56.06                             143   -0.0610  103 176 
 RUS  HZ I         852 56.86        12.0 0.28            144            103 176 
 PTB  HZ EP        852 40.34                             131   -0.40 9  147 258 
 PTB  HN ES        853  1.14                             131   -0.45 9  147 258 
 PTB  HZ I         853  7.13        11.5 0.32            132            147 258 
 TAM  HZ EP        852 41.59                             130   -0.03 9  156 106 
 TAM  HE ES        853  3.34                             130    0.19 9  156 106 
 SPBC HZ EP        852 42.30                             128   -0.12 9  164 218 
 SPBC HN ES        853  4.57                             128   -0.00 9  164 218 
 SPBC HZ I         853  9.06        29.5 0.24            129            164 218 
 ZAR  HZ EP        852 45.83                             122   -0.31 9  203 292 
 ZAR  HN ES        853 11.27                             122    0.07 9  203 292 
 ZAR  HZ I         853 16.63        16.9 0.40            123            203 292 
 NOR  HZ EP        852 50.20                             118    0.55 8  235 234 
 NOR  HE ES        853 17.99                             118    0.55 8  235 234 
 NOR  HZ I         853 20.88         7.6 0.15            119            235 234 
 CHI  HZ EP        852 51.78                             116    0.03 8  250 195 
 CHI  HN ES        853 20.71                             116   -0.48 8  250 195 
 CHI  HZ I         853 24.21        10.9 0.62            118            250 195 
 HEL  HZ EP        852 54.96                             114    0.90 8  272 255 
 HEL  HN ES        853 25.58                             114    0.28 8  272 255 
 HEL  HZ I         853 32.19         6.7 0.44            115            272 255 
 URE  HZ EP        852 53.90                             113   -0.89 7  282 292 
 URE  HN ES        853 26.53                             113   -0.07 7  282 292 
 GUY2CHZ EP        852 57.97                             112    0.41 7  302 234 
 GUY2CHE ES        853 31.98                             112    0.46 7  302 234 
 GUY2CHZ I         853 39.47         7.2 0.34                           302 234 
 PTGC HZ EP   9    852 56.38                             111   -1.62 0  311 159 
 PTGC HN ES        853 30.25                                   -0.44 7  311 159 
 LL6C HZ EP   4    852 57.86                             110   -1.52 0  323 358 
 LL6C HE ES   4    853 35.57                             110    0.80 0  323 358 
 ANIL HN ES   4    853 41.85                             108   -0.81 0  358 224 
 PRA  HZ EP        853  7.05                             106   -0.55 6  393 209 
 PRA  HE ES        853 49.44                             106    0.05 6  393 209 
 PRA  HZ I         853 55.47         9.1 0.32            107            393 209 
 ORTC HZ EP        853  7.84                             106   -0.13 6  397 216 
 ORTC HN ES        853 50.10                             106    0.04 6  397 216 
 ORTC HZ I         853 54.59         4.4 0.28            107            397 216 
 SJC  HZ EP   4    853  7.40                             105   -1.85 0  407 327 
 SJC  HN ES   4    853 48.29                             105   -4.04 0  407 327 
 CRJC HZ EP   9    853 13.66                             103   -2.56 0  466   4 
 CRJC HE ES        854  1.00                                   -1.18 5  466   4 
                                                                                
