 2011  2 9 0529 53.7 L   6.784 -73.012147.0  RSN  8 0.4 1.7LRSN                1
 GAP=174        0.68       3.9    10.0  8.2 -0.1675E+02  0.3564E+02 -0.2943E+01E
 Epicentro: CEPITA - SANTANDER                                                 3
 ACTION:UP  11-03-28 15:07 OP:jfem STATUS:               ID:20110209052953 L   I
 2011-02-09-0524-58S.COL___136                                                 6
 STAT SP IPHASW D HRMM SECON CODA AMPLIT PERI AZIMU VELO SNR AR TRES W  DIS CAZ7
 BAR2 SZ EP   1    530 13.53                             169    -0.1 7   28 222 
 BAR2 SZ ES   2    530 29.29                             169     0.1 5   28 222 
 BAR2 SZ I         530 32.09         8.0 0.71                            28 222 
 BTL  SZ EP   1    530 14.13                             167     0.4 7   32 298 
 RUS  HZ EP   1    530 17.49                             144     0.0 7   99 185 
 RUS  HN ES   2    530 35.63                             144    -0.4 5   99 185 
 RUS  HZ I         530 37.45         3.7 0.48                            99 185 
 GRA  SZ EP   1    530 19.19                             138     0.3 7  124  11 
 GRA  SZ ES   2    530 38.81                             138     0.2 5  124  11 
 GRA  SZ I         530 39.99         7.9 0.32                           124  11 
 OCA  SZ EP   1    530 22.02                             129    -0.5 7  164 348 
 OCA  SZ ES   2    530 44.62                             129    -0.4 5  164 348 
 OCA  SZ I         530 49.06         7.3 0.31                           164 348 
 CHI  HZ EP   1    530 31.87                             117     0.1 6  251 199 
 CHI  HE ES   2    531  0.89                             117    -0.6 4  251 199 
 CHI  HZ I         531 10.66         2.8 0.33                           251 199 
 HEL  HZ EP   1    530 35.16                             114    -0.4 6  286 257 
 HEL  HZ I         531 12.98         2.8 0.31                           286 257 
 RREF HZ EP   1    530 41.66                             110     0.6 5  332 231 
 RREF HN ES   2    531 18.63                             110     0.6 3  332 231 
 RREF HZ I         531 25.92         3.9 0.40                           332 231 
                                                                                
