 2011 12 9 0257  7.5 L   6.766 -73.017144.0  RSN  7 0.4 1.7LRSN                1
 GAP=155        0.66       4.9     9.6  9.4 -0.2201E+02  0.5171E+02 -0.1219E+02E
 Epicentro: CEPITA - SANTANDER                                                 3
 ACTION:UPD 12-07-13 16:15 OP:ep   STATUS:               ID:20111209025707 L   I
 2011-12-09-0254-42S.COL___157                                                 6
 STAT SP IPHASW D HRMM SECON CODA AMPLIT PERI AZIMU VELO AIN AR TRES W  DIS CAZ7
 BAR2 SZ EP   2    257 26.39                             169   -0.55 5 26.5 224 
 BAR2 SZ I         257 45.73        15.1 0.32                          26.5 224 
 PAM  SZ EP   1    257 29.39                             152    0.20 7 72.5  29 
 PAM  SN ES   1    257 46.47                             152    0.32 7 72.5  29 
 RUS  HZ EP   1    257 30.70                             145   -0.06 7 96.8 184 
 RUS  HN ES   1    257 48.74                             145   -0.20 7 96.8 184 
 RUS  HZ I         257 52.50         4.4 0.35                          96.8 184 
 OCA  SZ EP   1    257 35.66                             128   -0.54 7  166 348 
 OCA  SZ I         258  4.35         7.5 0.33                           166 348 
 NOR  SZ EP   2    257 45.14                             117    1.02 4  244 237 
 CHI  HZ EP   2    257 45.52                             117    0.41 4  249 199 
 CHI  HZ I         258 24.04         3.1 0.31                           249 199 
 HEL  HN ES   2    258 21.57                             113    0.12 4  285 257 
 HEL  HZ I         258 27.59         4.4 0.29                           285 257 
                                                                                
