 2015  1 9 0212 21.7 L   6.814 -73.191146.3  RSN  8 0.3 1.5LRSN                1
 GAP=130        0.72       2.3     3.4  4.3 -0.7618E+00  0.2221E+01  0.5286E-01E
 Epicentro: ZAPATOCA - SANTANDER                                               3
 ACTION:UPD 15-03-02 15:38 OP:nd   STATUS:               ID:20150109021221 L   I
 OLDACT:UP  15-01-09 15:46 OP:cam  STATUS:               ID:20150109020814     3
 OLDACT:UP  15-01-09 15:46 OP:cam  STATUS:               ID:20150109020814     3
 OLDACT:REG 15-01-09 13:49 OP:cam  STATUS:               ID:20150109020814     3
 2015-01-09-0208-14M.COL___265                                                 6
 STAT SP IPHASW D HRMM SECON CODA AMPLIT PERI AZIMU VELO AIN AR TRES W  DIS CAZ7
 BAR2 EZ EP        212 41.34                             170   -0.0810 24.5 178 
 BAR2 EZ ES        212 56.27                             170   -0.5310 24.5 178 
 BAR2 EZ I         212 57.43         7.0 0.28            171           24.5 178 
 BRR  HN ES        212 59.58                             154    0.6310 66.1 299 
 BRR  HN I         213  0.57        17.3 0.32            152           66.1 299 
 PAM  SZ EP        212 44.12                             150    0.0210 79.6  43 
 PAM  SN ES        213  1.79                             150    0.2110 79.6  43 
 PAM  SZ I         213  2.05         3.1 0.50            150           79.6  43 
 RUS  HZ EP        212 45.82                             143    0.1810  103 173 
 RUS  HN ES        213  4.14                             143   -0.1810  103 173 
 RUS  HZ I         213  5.46         2.3 0.44            144            103 173 
 PTB  HZ EP        212 48.16                             133   -0.13 9  143 258 
 PTB  HN ES        213  8.83                             133   -0.21 9  143 258 
 PTB  HZ I         213 10.98         3.6 0.18            131            143 258 
 SPBC HN ES        213 12.24                             129    0.07 9  161 217 
 SML  HZ EP        212 57.83                             118   -0.15 8  240 336 
 SML  HN ES        213 26.05                             118   -0.23 8  240 336 
 SML  HZ I         213 34.49         3.5 0.10            117            240 336 
 CHI  HZ EP        212 59.56                             117    0.12 8  249 194 
 CHI  HN ES        213 29.15                             117    0.26 8  249 194 
 CHI  HZ I         213 34.02         2.0 0.36            117            249 194 
                                                                                
