 2015 12 9 0904  3.9 L   6.793 -73.141143.6  RSN  9 0.3 1.5LRSN                1
 GAP=183        0.81       2.5     4.1  5.6 -0.1512E+01  0.8063E+01 -0.2800E+01E
 Epicentro: LOS SANTOS - SANTANDER                                             3
 ACTION:UPD 16-02-04 15:03 OP:cam  STATUS:               ID:20151209090403 L   I
 OLDACT:UP  15-12-09 15:23 OP:cara STATUS:               ID:20151209085745     3
 OLDACT:REG 15-12-09 12:46 OP:mh   STATUS:               ID:20151209085745     3
 2015-12-09-0857-45M.COL___315                                                 6
 STAT SP IPHASW D HRMM SECON CODA AMPLIT PERI AZIMU VELO AIN AR TRES W  DIS CAZ7
 BAR2 EZ ES        9 4 37.87                             171   -0.4410 22.7 192 
 BAR2 EZ I         9 4 39.64         2.8 0.22            169           22.7 192 
 RUS  HZ EP        9 4 27.62                             143    0.2810 99.8 176 
 RUS  HN ES        9 4 45.79                             143    0.1410 99.8 176 
 RUS  HZ I         9 4 46.65         1.9 0.38            147           99.8 176 
 PTB  HZ EP        9 4 29.95                             131   -0.74 9  148 259 
 PTB  HE ES        9 4 51.50                             131   -0.11 9  148 259 
 PTB  HZ I         9 4 57.48         2.2 0.24            131            148 259 
 OCA  HZ EP        9 4 32.39                             129    0.31 9  161 353 
 OCA  HN ES        9 4 54.27                             129    0.18 9  161 353 
 OCA  HZ I         9 4 58.69         8.6 0.32            131            161 353 
 SPBC HZ EP   4    9 4 30.02                             128   -2.15 0  163 219 
 SPBC HE ES        9 4 54.66                             128    0.41 9  163 219 
 SPBC HZ I         9 5  0.58         4.9 0.18            130            163 219 
 ZAR  HZ EP        9 4 36.13                             122   -0.12 9  205 292 
 ZAR  HN ES        9 5  1.97                             122    0.46 9  205 292 
 ZAR  HZ I         9 5  6.59         3.5 0.38            122            205 292 
 NOR  HZ EP        9 4 39.20                             118   -0.26 8  235 235 
 NOR  HN ES        9 5  7.09                             118   -0.14 8  235 235 
 NOR  HZ I         9 5 14.89         2.1 0.56            119            235 235 
 SML  HZ EP   4    9 4 39.41                             117   -1.05 0  245 335 
 SML  HE ES        9 5  8.84                             117   -0.18 8  245 335 
 SML  HZ I         9 5 12.58         5.2 0.22            119            245 335 
 GUY2CHZ EP        9 4 47.31                             112   -0.06 7  301 235 
 GUY2CHE ES        9 5 21.60                             112    0.29 7  301 235 
 GUY2CHZ I         9 5 31.78         1.5 0.48                           301 235 
                                                                                
