 2012 12 9 0734 23.9 L   6.799 -73.185150.0  RSN  4 0.3 1.4LRSN                1
 GAP=284        0.46       5.9     7.2  6.3 -0.7091E+01  0.1491E+02  0.1614E+02E
 Epicentro: LOS SANTOS - SANTANDER                                             3
 ACTION:UPD 13-01-04 14:26 OP:ep   STATUS:               ID:20121209073423 L   I
 2012-12-09-0730-00M.COL___243                                                 6
 STAT SP IPHASW D HRMM SECON CODA AMPLIT PERI AZIMU VELO AIN AR TRES W  DIS CAZ7
 BAR2 SZ EP   1    734 43.85                             171   -0.19 7 22.9 179 
 BAR2 SZ ES   1    734 59.92                             171    0.18 7 22.9 179 
 BAR2 SZ I         735  0.72         7.1 0.28                          22.9 179 
 CHI  HZ EP   1    735  1.66                             118   -0.06 6  247 194 
 CHI  HN ES   1    735 30.94                             118   -0.27 6  247 194 
 CHI  HZ I         735 36.52         1.5 0.48                           247 194 
 HEL  HN ES   2    735 34.83                             116   -0.21 4  268 256 
 HEL  HZ I         735 43.40         1.2 0.50                           268 256 
 PRA  HZ EP   1    735 17.78                             107    0.46 4  390 209 
 PRA  HN ES   2    735 59.64                             107    0.66 3  390 209 
 PRA  HZ I         736  4.96         1.0 0.26                           390 209 
                                                                                
