 2012 11 9 0253 14.9 L   6.792 -73.135151.2  RSN  9 0.5 1.7LRSN                1
 GAP=138        1.14       6.1     7.4  7.5  0.1136E+02  0.2279E+01 -0.2902E+00E
 Epicentro: LOS SANTOS - SANTANDER                                             3
 ACTION:UPD 12-12-05 15:32 OP:}ep  STATUS:               ID:20121109025315 L   I
 2012-11-09-0240-00M.COL___228                                                 6
 STAT SP IPHASW D HRMM SECON CODA AMPLIT PERI AZIMU VELO AIN AR TRES W  DIS CAZ7
 BAR2 SZ EP        253 35.14                             171   -0.0610 22.7 193 
 BAR2 SZ I         253 35.37        11.7 0.38                          22.7 193 
 BAR2 SZ ES        253 50.68                             171   -0.3310 22.7 193 
 BRR  HZ IP     C  253 36.97                             153    0.2210 72.6 299 
 BRR  HZ I         253 37.17        14.7 0.18                          72.6 299 
 BRR  HN ES        253 54.56                             153    0.8010 72.6 299 
 PAM  SZ EP   1    253 38.02                             152    0.30 7 77.3  38 
 RUS  HZ EP   1    253 39.51                             145    0.36 7 99.6 177 
 RUS  HN ES   1    253 57.54                             145   -0.50 7 99.6 177 
 RUS  HZ I         253 58.82         4.1 0.34                          99.6 177 
 PTB  HZ EP        253 41.80                             133   -0.63 9  149 259 
 PTB  HN ES   1    254  3.06                             133   -0.82 7  149 259 
 PTB  HN I         254  8.37        10.6 0.48                           149 259 
 PTB  HZ I         254  8.88         5.1 0.38                           149 259 
 ZAR  HN ES   1    254 13.79                             123    0.22 6  205 292 
 SML  HZ EP        253 51.42                             118   -0.58 8  245 335 
 CHI  HZ EP        253 53.43                             118    0.55 8  248 195 
 MON  HN ES   4    254 41.67                             109   -1.16 0  355 308 
 PRA  HZ EP   4    254  9.89                             107    1.27 0  392 210 
 PRA  HN ES   1    254 51.35                             107    0.85 4  392 210 
                                                                                
