 2011  7 9 0433 33.1 L   6.756 -73.522115.5  RSN  5 0.5 1.4LRSN                1
 GAP=108        0.89       5.3     7.0  9.0  0.2950E+01  0.1358E+02  0.1708E+01E
 Epicentro: EL CARMEN DE CHUCURI - SANTANDER                                   3
 ACTION:UPD 12-07-25 13:59 OP:epov STATUS:               ID:20110709043333 L   I
 2011-07-09-0431-51S.COL___140                                                 6
 STAT SP IPHASW D HRMM SECON CODA AMPLIT PERI AZIMU VELO AIN AR TRES W  DIS CAZ7
 BAR2 SZ EP   1    433 50.57                             159    0.84 7 41.7 116 
 BAR2 SZ ES   1    434  2.95                             159    0.24 7 41.7 116 
 BAR2 SZ I         434  4.25        16.0 0.21                          41.7 116 
 BRR  HZ EP   1    433 49.81                             158    0.32 7 44.1 332 
 BRR  HN ES   1    434  1.97                             158   -0.31 7 44.1 332 
 BRR  HZ I         434  3.99         7.2 0.21                          44.1 332 
 RUS  HZ EP   1    433 54.46                             134   -0.10 7  107 153 
 RUS  HN ES   1    434 10.73                             134   -0.58 7  107 153 
 RUS  HZ I         434 12.19         7.6 0.32                           107 153 
 OCA  SZ EP   1    433 59.23                             121   -0.54 7  165   8 
 NOR  SN ES   1    434 26.83                             115    0.02 6  199 229 
 NOR  SZ I         434 28.58         0.6 0.15                           199 229 
                                                                                
