 2012  1 9 0618 55.9 L   6.752 -73.143144.0  RSN  6 0.4 1.8LRSN                1
 GAP=139        0.88       7.3     7.0  8.9 -0.4698E+01 -0.3376E+01  0.7900E+01E
 Epicentro: LOS SANTOS - SANTANDER                                             3
 ACTION:UP  12-02-03 08:15 OP:REBC STATUS:               ID:20120109061855 L   I
 2012-01-09-0610-00M.COL___186                                                 6
 STAT SP IPHASW D HRMM SECON CODA AMPLIT PERI AZIMU VELO SNR AR TRES W  DIS CAZ7
 BAR2 SZ EP        619 15.25                             172     0.110   18 194 
 BAR2 SZ ES   2    619 29.19                             172    -1.1 5   18 194 
 BAR2 SZ I         619 31.63        18.8 0.31                            18 194 
 GIR2 SZ EP        619 15.36                             165    -0.110   37 351 
 GIR2 SZ ES   2    619 30.68                             165    -0.1 5   37 351 
 BRR  HZ EP        619 17.13                             151     0.110   74 302 
 BRR  HZ I         619 17.50        19.0 0.11                            74 302 
 BRR  HN ES   1    619 34.23                             151     0.8 7   74 302 
 PAM  SZ EP        619 18.08                             149    -0.110   81  37 
 PAM  SN ES   2    619 35.43                             149    -0.1 5   81  37 
 RUS  HZ EP   1    619 19.28                             145     0.2 7   95 176 
 RUS  HN ES   2    619 37.87                             145     0.7 5   95 176 
 RUS  HZ I         619 38.55         4.5 0.25                            95 176 
 PTB  HZ EP   1    619 22.17                             132    -0.5 7  147 261 
 PTB  HN ES   2    619 42.85                             132    -0.7 5  147 261 
                                                                                
