 2017 11 9 0309  5.6 L   6.819 -73.153144.6  RSN 14 0.5 2.1LRSN                1
 GAP= 65        1.16       3.4     3.2  5.5  0.2712E+00  0.2791E+01  0.3099E+01E
 Epicentro: LOS SANTOS - SANTANDER                                             3
 ACTION:UPD 17-12-12 19:53 OP:rebc STATUS:               ID:20171109025742dL   I
 OLDACT:UP  17-11-09 17:51 OP:leo  STATUS:               ID:20171109025742dL   3
 OLDACT:DUP 17-11-09 17:17 OP:leo  STATUS:               ID:20171109025742dL   3
 2017-11-09-0258-00M.COL___455                                                 6
 STAT SP IPHASW D HRMM SECON CODA AMPLIT PERI AZIMU VELO AIN AR TRES W  DIS CAZ7
 BAR2 EZ EP     C  3 9 25.03                             170   -0.0810 25.3 187 
 BAR2 EZ ES        3 9 39.74                             170   -0.6110 25.3 187 
 BAR2 EZ I         3 9 41.47        45.0 0.20            168           25.3 187 
 BRR  HZ EP        3 9 26.86                             153    0.3510 69.5 297 
 BRR  HN ES        3 9 43.79                             153    0.9610 69.5 297 
 BRR  HZ I         3 9 44.92        21.6 0.16            151           69.5 297 
 PAM  EZ EP        3 9 27.82                             151    0.2110 76.2  41 
 PAM  EN ES        3 9 45.01                             151    0.2210 76.2  41 
 PAM  EZ I         3 9 45.57        11.6 0.20            155           76.2  41 
 RUS  HZ EP     C  3 9 29.03                             143   -0.3510  103 176 
 RUS  HN ES        3 9 47.19                             143   -0.7510  103 176 
 RUS  HZ I         3 9 49.02        16.5 0.28            143            103 176 
 PTB  HZ EP        3 9 31.93                             132   -0.49 9  147 258 
 PTB  HN ES        3 9 52.84                             132   -0.52 9  147 258 
 PTB  HZ I         310  0.30         8.6 0.40            131            147 258 
 TAM  HZ EP        3 9 33.41                             130    0.12 9  156 106 
 TAM  HE ES        3 9 55.01                             130    0.11 9  156 106 
 SPBC HZ EP        3 9 34.00                             129   -0.10 9  164 218 
 SPBC HN ES        3 9 56.05                             129   -0.30 9  164 218 
 SPBC HZ I         3 9 59.35        17.1 0.22            128            164 218 
 YPLC HZ EP     C  3 9 35.46                             126   -0.05 9  179 151 
 YPLC HN ES        3 9 59.62                             126    0.76 9  179 151 
 YPLC HZ I         310  0.27         9.7 0.24            127            179 151 
 ZAR  HZ EP        3 9 37.82                             122    0.03 9  203 292 
 ZAR  HN ES        310  3.12                             122    0.20 9  203 292 
 ZAR  HZ I         310  9.13        12.0 0.38            123            203 292 
 NOR  HZ EP        3 9 41.46                             118    0.15 8  235 234 
 NOR  HN ES        310  9.49                             118    0.31 8  235 234 
 NOR  HZ I         310 14.08        11.4 0.24            118            235 234 
 CHI  HZ EP        3 9 43.38                             117   -0.04 8  251 195 
 CHI  HN ES        310 12.84                             117   -0.09 8  251 195 
 CHI  HZ I         310 19.64         7.5 0.50            117            251 195 
 GUY2CHZ EP        3 9 50.20                             112    1.00 7  302 234 
 GUY2CHE ES   4    310 27.61                             112    4.38 0  302 234 
 GUY2CHZ I         310 31.60         6.7 0.56                           302 234 
 PTGC HZ EP   4    3 9 48.17                             111   -1.47 0  311 159 
 PTGC HN ES   4    310 21.87                             111   -2.14 0  311 159 
 DRL02HZ EP        3 9 49.83                             110   -1.15 7  323 358 
 PRA  HZ EP        3 9 59.03                             106   -0.20 6  393 209 
 PRA  HN ES        310 41.75                             106    0.67 6  393 209 
 PRA  HZ I         310 46.32         7.6 0.60            107            393 209 
                                                                                
