 2012  1 9 0041 56.5 L   6.804 -73.138147.8  RSN  8 0.2 1.7LRSN                1
 GAP=137        0.49       3.6     3.0  4.4 -0.2102E+01  0.7717E+00  0.1761E+01E
 Epicentro: LOS SANTOS - SANTANDER                                             3
 ACTION:UP  12-02-03 08:15 OP:REBC STATUS:               ID:20120109004156 L   I
 2012-01-09-0040-00M.COL___186                                                 6
 STAT SP IPHASW D HRMM SECON CODA AMPLIT PERI AZIMU VELO SNR AR TRES W  DIS CAZ7
 BAR2 SZ EP   1    042 16.21                             170    -0.2 7   24 192 
 BAR2 SZ I         042 16.79         7.5 0.14                            24 192 
 BAR2 SZ ES   1    042 32.07                             170     0.2 7   24 192 
 GIR2 SZ EP   1    042 16.20                             168    -0.2 7   31 349 
 GIR2 SZ ES   2    042 31.82                             168    -0.1 5   31 349 
 BRR  HZ EP        042 17.98                             153     0.110   72 298 
 BRR  HE ES   1    042 34.90                             153     0.3 7   72 298 
 BRR  HZ I         042 35.95        12.2 0.13                            72 298 
 PAM  SZ EP        042 19.10                             151     0.210   77  39 
 PAM  SN ES   1    042 36.04                             151    -0.3 7   77  39 
 RUS  HZ EP   1    042 20.44                             144     0.0 7  101 177 
 RUS  HZ I         042 21.51         5.1 0.16                           101 177 
 RUS  HE ES   2    042 39.13                             144     0.0 5  101 177 
 PTB  HZ EP   2    042 23.84                             132     0.1 5  149 259 
 PTB  HE ES   1    042 44.66                             132    -0.3 7  149 259 
 ZAR  HN ES   2    042 54.31                             123    -0.3 4  205 292 
 ZAR  HZ I         043  0.43         5.9 0.19                           205 292 
 RREF HE ES   2    043 19.15                             111     0.2 3  323 229 
 RREF HZ I         043 28.11         2.8 0.29                           323 229 
                                                                                
