 2015  9 9 0225  9.4 L   6.790 -73.171141.1  RSN  6 0.3 1.5LRSN                1
 GAP=134        0.91       5.4     4.8  6.7 -0.1092E+02 -0.5835E+00  0.1111E+02E
 Epicentro: LOS SANTOS - SANTANDER                                             3
 ACTION:UPD 15-10-28 16:25 OP:cam  STATUS:               ID:20150909022509 L   I
 OLDACT:DUP 15-09-09 15:39 OP:stll STATUS:               ID:20150909021747d    3
 2015-09-09-0217-46M.COL___356                                                 6
 STAT SP IPHASW D HRMM SECON CODA AMPLIT PERI AZIMU VELO AIN AR TRES W  DIS CAZ7
 BAR2 EZ EP        225 28.42                             171   -0.0610 21.9 183 
 BAR2 EZ ES        225 43.28                             171   -0.0510 21.9 183 
 BAR2 EZ I         225 46.13         7.3 0.26            169           21.9 183 
 BRR  HZ EP        225 30.25                             152    0.2810 69.3 300 
 BRR  HN ES        225 46.64                             152    0.6510 69.3 300 
 BRR  HZ I         225 48.89         5.1 0.16            151           69.3 300 
 PAM  EZ EP        225 31.39                             149    0.0710 80.0  41 
 PAM  EZ I         225 31.60        15.3 0.20            155           80.0  41 
 PAM  EN ES        225 48.00                             149   -0.3910 80.0  41 
 RUS  HZ EP        225 32.71                             143    0.0410 99.7 174 
 PTB  HZ EP        225 35.47                             131   -0.29 9  145 259 
 PTB  HN ES        225 55.58                             131   -0.71 9  145 259 
 PTB  HZ I         226  3.44         2.3 0.34            131            145 259 
 SPBC HZ EP        225 37.55                             128    0.22 9  161 218 
 SPBC HN ES        225 59.28                             128    0.19 9  161 218 
 SPBC HZ I         226  3.91         5.2 0.32            129            161 218 
                                                                                
