 2010  9 9 0823  4.3 L   6.840 -73.071142.0  RSN  7 0.4 1.7LRSN                1
 GAP=166        0.74       5.7    11.8  8.8 -0.9757E+01 -0.2939E+02 -0.7157E+01E
 Epicentro: LOS SANTOS - SANTANDER                                             3
 ACTION:UP  11-02-18 11:01 OP:tino STATUS:               ID:20100909082304 L   I
 2010-09-09-0821-04S.COL___120                                                 6
 STAT SP IPHASW D HRMM SECON CODA AMPLIT PERI AZIMU VELO SNR AR TRES W  DIS CAZ7
 GIR2 SZ EP   1    823 23.44                             168     0.0 7   30 333 
 BAR2 SZ EP   1    823 23.40                             168    -0.2 7   30 204 
 BAR2 SZ ES   2    823 38.51                             168    -0.2 5   30 204 
 BAR2 SZ I         823 40.96        10.8 0.23                            30 204 
 GIR2 SZ ES   2    823 39.11                             168     0.7 5   30 333 
 BRR  HZ EP   1    823 25.19                             150    -0.2 7   77 293 
 BRR  HZ I         823 25.36        17.2 0.15                            77 293 
 BRR  HE ES   2    823 42.16                             150     0.4 5   77 293 
 RUS  HZ EP   2    823 27.71                             142    -0.3 5  105 181 
 RUS  HN ES   3    823 46.13                             142    -0.3 2  105 181 
 RUS  HZ I         823 47.20         4.2 0.22                           105 181 
 GUE  SZ EP   1    823 28.39                             140     0.2 7  111   8 
 GRA  SZ EP   1    823 29.22                             138     0.6 7  119  14 
 GRA  SZ ES   2    823 47.22                             138    -0.4 5  119  14 
 GRA  SZ I         823 50.68         5.4 0.44                           119  14 
 OCA  SZ EP   1    823 31.96                             129     0.0 7  157 350 
 OCA  SZ ES   2    823 52.64                             129    -1.0 5  157 350 
 OCA  SZ I         823 58.60         6.4 0.43                           157 350 
                                                                                
