 2011  9 9 0609 12.6 L   6.767 -73.102144.6  RSN 14 0.2 2.0LRSN                1
 GAP=144        0.34       1.6     2.4  2.7 -0.9073E+00  0.1824E+01  0.6544E+00E
 Epicentro: LOS SANTOS - SANTANDER                                             3
 ACTION:UPD 12-07-13 15:56 OP:ep   STATUS:               ID:20110909060912 L   I
 2011-09-09-0607-24S.COL___170                                                 6
 STAT SP IPHASW D HRMM SECON CODA AMPLIT PERI AZIMU VELO AIN AR TRES W  DIS CAZ7
 BAR2 SZ EP        6 9 32.05                             171    0.0010 21.2 205 
 BAR2 SZ ES   1    6 9 46.94                             171   -0.27 7 21.2 205 
 BAR2 SZ I         6 9 48.63        29.6 0.18                          21.2 205 
 GIR2 SZ EP   3    6 9 32.27                             165    0.00 2 35.9 344 
 GIR2 SZ ES   2    6 9 47.49                             165   -0.11 5 35.9 344 
 BRR  HZ EP   1    6 9 34.07                             150    0.10 7 77.2 299 
 BRR  HN ES   2    6 9 51.18                             150    0.54 5 77.2 299 
 BRR  HZ I         6 9 52.52        15.0 0.18                          77.2 299 
 PAM  SZ EP   1    6 9 34.93                             150    0.24 7 77.4  35 
 PAM  SN ES   2    6 9 52.08                             150    0.16 5 77.4  35 
 RUS  HZ EP   1    6 9 35.97                             145    0.01 7 96.7 179 
 RUS  HN ES   2    6 9 53.83                             145   -0.34 5 96.7 179 
 RUS  HZ I         6 9 55.90         7.8 0.30                          96.7 179 
 OCA  SZ EP   2    6 9 41.03                             128   -0.19 5  165 352 
 OCA  SZ ES   2    610  3.39                             128   -0.16 5  165 352 
 OCA  SZ I         610  7.39        10.0 0.46                           165 352 
 ZAR  HE ES   2    610 11.17                             121   -0.12 4  210 293 
 ZAR  HZ I         610 15.50         8.2 0.30                           210 293 
 NOR  SZ EP   1    6 9 48.24                             118   -0.22 6  237 236 
 NOR  SN ES   2    610 16.69                             118    0.26 4  237 236 
 CHI  HZ EP   1    6 9 49.99                             117    0.00 6  246 196 
 CHI  HN ES   2    610 19.28                             117    0.12 4  246 196 
 CHI  HZ I         610 25.29         5.2 0.49                           246 196 
 ROSC BZ EP   2    6 9 51.12                             116    0.53 4  252 212 
 ROSC BE ES   2    610 20.32                             116    0.10 4  252 212 
 ROSC BZ I         610 28.56         8.9 0.51                           252 212 
 HEL  HZ EP   2    6 9 52.94                             114   -0.23 4  276 257 
 HEL  HN ES   2    610 24.51                             114   -0.31 4  276 257 
 HEL  HZ I         610 30.39         4.7 0.39                           276 257 
 RREF HZ EP   2    6 9 59.05                             110    0.21 3  323 230 
 RREF HN ES   2    610 35.14                             110    0.23 3  323 230 
 RREF HZ I         610 43.48         5.8 0.43                           323 230 
 COD  HZ EP   2    610  1.18                             108   -0.23 3  352 354 
 COD  HN ES   2    610 39.19                             108   -0.28 3  352 354 
 COD  HZ I         610 50.33         5.0 0.61                           352 354 
 PRA  HZ EP   2    610  5.88                             106   -0.11 3  391 210 
 PRA  HN ES   2    610 47.47                             106   -0.16 3  391 210 
                                                                                
