 2014  6 9 0733 32.2 L   6.821 -73.135141.4  RSN 19 0.5 2.1LRSN                1
 GAP=137        1.15       3.0     4.5  5.7 -0.3459E+01  0.9855E+01  0.1293E+01E
 Epicentro: LOS SANTOS - SANTANDER                                             3
 OLDACT:REG 14-06-09 13:29 OP:fm   STATUS:               ID:20140609072811     3
 ACTION:UPD 14-07-01 22:52 OP:nd   STATUS:               ID:20140609073332 L   I
 OLDACT:UP  14-06-09 17:36 OP:fm   STATUS:               ID:20140609072811     3
 2014-06-09-0728-11M.COL___253                                                 6
 STAT SP IPHASW D HRMM SECON CODA AMPLIT PERI AZIMU VELO AIN AR TRES W  DIS CAZ7
 BAR2 SZ EP        733 51.43                             169    0.0310 25.8 192 
 BAR2 SZ ES        734  6.68                             169    0.3310 25.8 192 
 BAR2 SZ I         734  7.63        31.5 0.14            167           25.8 192 
 PAM  SZ EP        733 54.28                             151    0.4410 74.8  40 
 PAM  SE ES        734 10.95                             151    0.2610 74.8  40 
 PAM  SZ I         734 13.48        12.7 0.60            156           74.8  40 
 RUS  HZ EP        733 55.37                             142   -0.3610  103 177 
 RUS  HE ES        734 13.26                             142   -0.8010  103 177 
 RUS  SZ I         734 14.93         7.2 0.32            145            103 177 
 PTB  HZ EP        733 58.11                             131   -0.89 9  149 258 
 PTB  HN ES        734 19.05                             131   -0.83 9  149 258 
 PTB  SZ I         734 26.43        11.8 0.24            129            149 258 
 OCA  HZ EP   1    734  0.26                             129    0.25 7  158 353 
 OCA  HN ES        734 21.75                             129    0.08 9  158 353 
 OCA  SZ I         734 26.27         8.2 0.20            130            158 353 
 SPBC HZ EP        734  0.35                             128   -0.30 9  166 219 
 SPBC HN ES        734 23.33                             128    0.52 9  166 219 
 SPBC SZ I         734 25.57        13.0 0.16            128            166 219 
 ZAR  HZ EP        734  4.46                             121    0.04 9  204 291 
 ZAR  HN ES        734 29.98                             121    0.45 9  204 291 
 ZAR  SZ I         734 35.58        12.0 0.46            121            204 291 
 NOR  HZ EP        734  8.14                             117    0.17 8  237 234 
 NOR  HN ES        734 35.91                             117    0.07 8  237 234 
 NOR  SZ I         734 37.44        11.1 0.16            118            237 234 
 SML  HZ EP        734  7.51                             117   -0.94 8  242 335 
 SML  HN ES   4    734 38.27                             117    1.58 0  242 335 
 SML  SZ I         734 46.12        10.3 0.08            118            242 335 
 CHI  HZ EP        734  9.47                             116   -0.51 8  251 195 
 CHI  HN ES        734 39.61                             116    0.19 8  251 195 
 CHI  SZ I         734 46.03         5.6 1.72            118            251 195 
 ROSC BZ EP        734 11.35                             115    0.94 8  255 211 
 ROSC BN ES        734 41.14                             115    0.96 8  255 211 
 ROSC SZ I         734 47.29        10.6 0.35            117            255 211 
 HEL  HZ EP        734 12.98                             114    0.56 8  274 255 
 HEL  HE ES   4    734 42.48                             114   -1.29 0  274 255 
 HEL  SZ I         734 49.63         5.3 0.52            114            274 255 
 GUY2CHZ EP        734 16.15                             111    0.24 7  303 235 
 GUY2CHN ES        734 49.69                             111   -0.28 7  303 235 
 GUY2CSZ I         734 56.35         5.5 0.32                           303 235 
 RREF HZ EP        734 18.55                             110    0.08 7  324 229 
 RREF HN ES        734 54.60                             110    0.07 7  324 229 
 RREF SZ I         735  3.38         6.5 0.52            111            324 229 
 CBOC HZ EP        734 19.28                             109    0.09 7  335 252 
 CBOC HN ES   4    734 54.69                             109   -1.11 0  335 252 
 CBOC SZ I         735  5.75         3.7 1.92            110            335 252 
 TOL  SZ EP        734 21.36                             108    0.75 6  346 225 
 TOL  SE ES   4    735  0.21                             108    1.87 0  346 225 
 TOL  SZ I         735  7.88        11.3 0.74            109            346 225 
 PRA  HZ EP        734 25.65                             106   -0.27 6  395 210 
 PRA  HN ES        735  7.26                             106   -0.53 6  395 210 
 PRA  SZ I         735 11.60         6.5 0.72            107            395 210 
 ORTC HZ EP        734 25.99                             105   -0.32 6  398 216 
 ORTC HN ES   4    735 10.03                             105    1.54 0  398 216 
 ORTC SZ I         735 15.18         3.7 0.58            107            398 216 
 SJC  HZ EP   4    734 25.99                             105   -1.51 0  408 327 
 SJC  HN ES   4    735  8.38                             105   -2.23 0  408 327 
 SJC  SZ I         735 10.54         6.2 2.12            106            408 327 
                                                                                
