 2011  9 9 0822  5.3 L   6.771 -73.108139.7  RSN  5 0.3 1.4LRSN                1
 GAP=194        0.47       9.2    10.3  7.8  0.7648E+02 -0.5985E+01 -0.1592E+01E
 Epicentro: LOS SANTOS - SANTANDER                                             3
 ACTION:UPD 12-07-13 15:56 OP:ep   STATUS:               ID:20110909082205 L   I
 2011-09-09-0820-26S.COL___170                                                 6
 STAT SP IPHASW D HRMM SECON CODA AMPLIT PERI AZIMU VELO AIN AR TRES W  DIS CAZ7
 BAR2 SZ EP   1    822 24.09                             171   -0.08 7 21.4 203 
 BAR2 SZ ES   2    822 38.42                             171   -0.46 5 21.4 203 
 BAR2 SZ I         822 40.35         4.9 0.30                          21.4 203 
 GIR2 SZ EP   3    822 24.85                             165    0.47 2 35.4 345 
 BRR  HZ I         822 29.59         6.3 0.52                          76.4 299 
 BRR  HN ES   2    822 42.81                             150    0.46 5 76.4 299 
 RUS  HZ EP   1    822 28.22                             143    0.00 7 97.1 178 
 RUS  HN ES   2    822 46.35                             143    0.27 5 97.1 178 
 RUS  HZ I         822 48.10         2.6 0.47                          97.1 178 
 ZAR  HN ES   2    823  3.02                             120   -0.30 4  209 293 
 ZAR  HZ I         823  7.96         3.8 0.30                           209 293 
                                                                                
