 2012 10 9 0526 31.2 L   6.784 -73.185147.7  RSN  5 0.3 1.2LRSN                1
 GAP=175        0.68       8.5     9.8  7.8  0.6441E+02  0.1628E+02  0.1036E+02E
 Epicentro: LOS SANTOS - SANTANDER                                             3
 ACTION:UPD 12-11-22 17:02 OP:ep   STATUS:               ID:20121009052631 L   I
 2012-10-09-0520-00M.COL___223                                                 6
 STAT SP IPHASW D HRMM SECON CODA AMPLIT PERI AZIMU VELO AIN AR TRES W  DIS CAZ7
 BAR2 SZ EP   1    526 50.73                             171   -0.32 7 21.2 179 
 BAR2 SZ ES   1    527  6.27                             171   -0.24 7 21.2 179 
 BAR2 SZ I         527  7.17         6.0 0.25                          21.2 179 
 GIR2 SZ ES   2    527  6.33                             167   -0.38 5 32.6 358 
 BRR  HZ EP   1    526 52.66                             154    0.23 7 68.3 302 
 BRR  HZ I         526 52.79         3.5 0.14                          68.3 302 
 BRR  HN ES   1    527  9.56                             154    0.60 7 68.3 302 
 RUS  HZ EP   1    526 55.31                             145    0.23 7 99.3 173 
 RUS  HN ES   1    527 13.67                             145    0.00 7 99.3 173 
 RUS  HZ I         527 14.51         1.5 0.18                          99.3 173 
 ZAR  HN ES   1    527 28.12                             123   -0.47 6  201 293 
                                                                                
