 2015  3 9 0203 20.0 L   6.801 -73.177144.3  RSN  9 0.4 1.6LRSN                1
 GAP=133        1.00       4.1     4.3  6.3 -0.5333E+01  0.4115E+01  0.6973E+01E
 Epicentro: LOS SANTOS - SANTANDER                                             3
 ACTION:UPD 15-04-30 16:24 OP:nd   STATUS:               ID:20150309020320 L   I
 OLDACT:REG 15-03-09 13:54 OP:cam  STATUS:               ID:20150309015748     3
 2015-03-09-0157-48M.COL___278                                                 6
 STAT SP IPHASW D HRMM SECON CODA AMPLIT PERI AZIMU VELO AIN AR TRES W  DIS CAZ7
 BAR2 EZ EP        2 3 38.58                             170   -0.8810 23.1 181 
 BAR2 EZ ES        2 3 54.29                             170   -0.3410 23.1 181 
 BAR2 EZ I         2 3 57.06         8.1 0.30            170           23.1 181 
 BRR  HZ EP        2 3 41.41                             153    0.5810 68.1 300 
 BRR  HN ES        2 3 57.34                             153    0.2710 68.1 300 
 BRR  HN I         2 4  1.20        14.9 0.18            156           68.1 300 
 PAM  SZ EP        2 3 42.19                             150   -0.0210 79.6  42 
 PAM  SE ES        2 3 59.66                             150    0.1410 79.6  42 
 PAM  SZ I         2 4  4.25         4.6 0.68            153           79.6  42 
 RUS  HZ EP        2 3 43.53                             143   -0.1210  101 174 
 RUS  HN ES        2 4  2.38                             143    0.2910  101 174 
 RUS  HZ I         2 4  4.79         4.2 0.40            145            101 174 
 PTB  HZ EP        2 3 46.43                             132   -0.13 9  144 259 
 PTB  HN ES        2 4  7.41                             132    0.16 9  144 259 
 PTB  HZ I         2 4  9.56         5.0 0.20            136            144 259 
 SPBC HZ EP        2 3 48.21                             129    0.01 9  161 218 
 SPBC HN ES        2 4  9.91                             129   -0.28 9  161 218 
 SPBC HZ I         2 4 13.04         7.3 0.28            132            161 218 
 NOR  HN ES        2 4 22.46                             118   -0.47 8  232 234 
 CHI  HZ EP        2 3 57.66                             117    0.11 8  248 194 
 CHI  HE ES        2 4 27.68                             117    0.86 8  248 194 
 CHI  HE I         2 4 33.52         3.7 0.50            119            248 194 
 GUY2CHN ES        2 4 36.94                             112   -0.02 7  298 234 
 GUY2CHN I         2 4 48.33         2.8 0.42                           298 234 
                                                                                
