 2013  7 9 0820 53.2 L   7.115 -73.485 97.0  RSN  6 0.4 1.2LRSN                1
 GAP= 89        1.09       4.5     5.9  9.0 -0.9335E+01  0.2650E+02 -0.1811E+02E
 Epicentro: SAN VICENTE DE CHUCURI - SANTANDER                                 3
 ACTION:UPD 13-08-12 10:36 OP:ep   STATUS:               ID:20130709082053 L   I
 OLDACT:REG 13-07-09 07:50 OP:nd   STATUS:               ID:20130709081959     3
 2013-07-09-0819-59M.COL___266                                                 6
 STAT SP IPHASW D HRMM SECON CODA AMPLIT PERI AZIMU VELO AIN AR TRES W  DIS CAZ7
 BRR  HZ IP     D  821  6.86                             164    0.1810 25.1 268 
 BRR  HN ES   2    821 17.80                             164    0.59 5 25.1 268 
 BRR  HZ I         821 19.75         3.3 0.14            158           25.1 268 
 GIR2 SZ EP        821  6.78                             160   -0.3810 32.4  97 
 GIR2 SZ ES        821 18.20                             160    0.1310 32.4  97 
 GIR2 SZ I         821 19.29         5.9 0.10            170           32.4  97 
 BAR2 SZ EP        821  8.98                             143   -0.3510 66.8 150 
 BAR2 SZ ES        821 22.16                             143    0.2310 66.8 150 
 BAR2 SZ I         821 23.62         4.5 0.24            151           66.8 150 
 PTB  HZ EP        821 14.17                             124   -0.1010  125 239 
 PTB  HN ES        821 30.52                             124   -0.2210  125 239 
 PTB  HZ I         821 35.62         2.0 0.34            125            125 239 
 OCA  HZ EP        821 15.34                             124    0.8010  126   8 
 OCA  HN ES        821 30.42                             124   -0.7810  126   8 
 OCA  HZ I         821 31.94         3.7 0.54            126            126   8 
 SML  HZ EP        821 22.62                             112    0.42 9  197 341 
 SML  HN ES   4    821 43.01                             112   -1.83 0  197 341 
 SML  HZ I         821 51.36         2.9 0.28            112            197 341 
                                                                                
