 2016 11 9 0135 54.0 L   6.797 -73.157143.5  RSN 11 0.3 1.9LRSN                1
 GAP=118        0.80       3.2     3.5  4.8 -0.1349E+01  0.3322E+01  0.3543E+01E
 Epicentro: LOS SANTOS - SANTANDER                                             3
 ACTION:UPD 17-10-26 21:06 OP:lp   STATUS:               ID:20161109013554 L   I
 OLDACT:REG 16-11-09 12:23 OP:lv   STATUS:               ID:20161109012743     3
 2016-11-09-0128-00M.COL___343                                                 6
 STAT SP IPHASW D HRMM SECON CODA AMPLIT PERI AZIMU VELO AIN AR TRES W  DIS CAZ7
 BAR2 EZ EP        136 13.29                             171   -0.1110 22.8 187 
 BAR2 EZ ES        136 28.31                             171   -0.1810 22.8 187 
 BAR2 EZ I         136 31.24        14.5 0.14            167           22.8 187 
 BRR  HZ EP        136 15.06                             152    0.1610 70.3 299 
 BRR  HE ES        136 31.83                             152    0.6710 70.3 299 
 BRR  HZ I         136 35.22        12.1 0.21            151           70.3 299 
 PAM  EZ IP     D  136 16.21                             150    0.1310 78.4  40 
 PAM  EN ES        136 33.15                             150   -0.1310 78.4  40 
 PAM  EZ I         136 34.96        12.7 0.16            156           78.4  40 
 PTB  HZ EP        136 20.11                             132   -0.60 9  146 259 
 PTB  HN ES        136 41.01                             132   -0.50 9  146 259 
 PTB  HZ I         136 48.18         8.8 0.22            131            146 259 
 ZAR  HZ EP        136 26.10                             122   -0.14 9  203 292 
 ZAR  HE ES        136 51.39                             122    0.04 9  203 292 
 ZAR  HZ I         136 56.48         8.0 0.30            122            203 292 
 CHI  HZ EP        136 31.78                             117    0.23 8  248 195 
 CHI  HN ES        137  0.85                             117    0.04 8  248 195 
 CHI  HZ I         137  7.42         3.5 0.31            117            248 195 
 ROSC BZ EP   9    136 33.44                             116    1.50 0  252 211 
 ROSC BN ES        137  3.01                                    0.01 8  252 211 
 ROSC BZ I         137  9.71         7.0 0.40            116            252 211 
 PTGC HZ EP   9    136 36.89                             111   -0.93 0  309 158 
 PTGC HN ES        137 10.64                                   -0.39 7  309 158 
 PRA  HZ EP   9    136 44.46                             106   -2.93 0  391 209 
 PRA  HE ES        137 26.47                                    0.41 6  391 209 
 PRA  HZ I         137 32.06         3.0 0.21            107            391 209 
 ORTC HZ EP        136 48.15                             106    0.38 6  394 216 
 ORTC HE ES        137 30.26                             106    0.58 6  394 216 
 ORTC HZ I         137 37.59         2.4 0.30            107            394 216 
 SJC  HZ EP   4    136 47.52                             105   -1.97 0  409 327 
 SJC  HN ES   4    137 29.20                             105   -3.53 0  409 327 
 SJC  HZ I         137 37.14         1.5 0.28            107            409 327 
                                                                                
