 2016  4 9 0417 14.2 L   6.814 -73.141141.0  RSN 13 0.5 2.1LRSN                1
 GAP= 71        1.13       3.3     3.2  5.9 -0.1907E+01  0.2675E+01 -0.8810E+00E
 Epicentro: LOS SANTOS - SANTANDER                                             3
 ACTION:UPD 16-05-05 14:19 OP:rebc STATUS:               ID:20160409041714 L   I
 OLDACT:UP  16-04-09 14:29 OP:mh   STATUS:               ID:20160409040749     3
 OLDACT:UP  16-04-09 14:28 OP:mh   STATUS:               ID:20160409040749     3
 OLDACT:UP  16-04-09 14:27 OP:mh   STATUS:               ID:20160409040749     3
 OLDACT:REG 16-04-09 12:05 OP:mh   STATUS:               ID:20160409040749     3
 2016-04-09-0407-49M.COL___300                                                 6
 STAT SP IPHASW D HRMM SECON CODA AMPLIT PERI AZIMU VELO AIN AR TRES W  DIS CAZ7
 BAR2 EZ EP     C  417 33.43                             170    0.1510 24.9 191 
 BAR2 EZ ES        417 47.64                             170   -0.5310 24.9 191 
 BAR2 EZ I         417 49.57        60.6 0.28            171           24.9 191 
 PAM  EZ EP        417 36.44                             150    0.6410 75.9  40 
 PAM  EN ES        417 53.04                             150    0.3710 75.9  40 
 PAM  EZ I         417 54.94        34.7 0.60            152           75.9  40 
 RUS  HZ EP        417 37.42                             142   -0.1610  102 176 
 RUS  HN ES        417 56.12                             142    0.2910  102 176 
 RUS  HZ I         417 57.17        14.4 0.40            145            102 176 
 PTB  HZ EP        417 40.13                             131   -0.71 9  149 258 
 PTB  HN ES        418  1.30                             131   -0.34 9  149 258 
 PTB  HZ I         418  3.78        10.6 0.28            131            149 258 
 TAM  HZ EP     C  417 41.81                             129    0.33 9  155 106 
 TAM  HN ES        418  2.88                             129    0.11 9  155 106 
 OCA  HZ EP        417 41.57                             129   -0.42 9  159 353 
 OCA  HE ES        418  3.30                             129   -0.38 9  159 353 
 OCA  HZ I         418  9.24        33.9 0.66            129            159 353 
 SPBC HZ EP        417 42.34                             128   -0.13 9  165 219 
 SPBC HN ES        418  4.72                             128    0.19 9  165 219 
 SPBC HZ I         418  7.35        19.5 0.20            129            165 219 
 ZAR  HZ EP   1    417 46.52                             121    0.21 6  204 292 
 ZAR  HN ES        418 12.18                             121    0.80 9  204 292 
 ZAR  HZ I         418 21.22        14.1 0.26            121            204 292 
 CHI  HZ EP   1    417 52.54                             116    0.74 6  250 195 
 CHI  HN ES        418 20.21                             116   -0.93 8  250 195 
 CHI  HZ I         418 24.13         5.7 0.30            118            250 195 
 ROSC BZ EP   1    417 52.99                             115    0.77 6  254 211 
 ROSC BN ES   4    418 24.71                             115    2.82 0  254 211 
 URE  HZ EP   4    417 56.18                             113    1.16 0  284 292 
 URE  HN ES   4    418 25.60                             113   -1.27 0  284 292 
 SOCV BZ EP        417 56.47                             111   -0.40 7  300  57 
 SOCV BN ES   4    418 27.98                             111   -2.19 0  300  57 
 CBOC HZ EP        418  1.86                             109    0.84 7  335 252 
 CBOC HN ES        418 37.25                             109   -0.30 7  335 252 
 CBOC HZ I         418 41.53         2.5 0.61            110            335 252 
 SDV  BZ EP        418  3.23                             107   -0.66 6  359  50 
 SDV  BN ES   4    418 39.86                             107   -2.79 0  359  50 
 SDV  BZ I         418 42.75         2.3 0.40            109            359  50 
                                                                                
