 2010  2 9 0025 48.0 L   6.828 -73.169132.7  RSN  5 0.4 1.7LRSN                1
 GAP=189        0.76       4.0    12.4  9.0 -0.8091E+01  0.4164E+02 -0.6368E-01E
 Epicentro: LOS SANTOS - SANTANDER                                             3
 ACTION:UP  10-08-24 09:48 OP:vdl  STATUS:               ID:20100209002548 L   I
 2010-02-09-0023-55S.COL___094                                                 6
 STAT SP IPHASW D HRMM SECON CODA AMPLIT PERI AZIMU VELO SNR AR TRES W  DIS CAZ7
 BAR2 SZ EP   2    026  6.33                             168     0.2 5   26 183 
 BAR2 SZ ES   1    026 19.83                             168    -0.4 7   26 183 
 GIR2 SZ EP   1    026  6.40                             167     0.4 7   28 354 
 OCA  SZ EP   1    026 14.53                             127    -0.4 7  157 354 
 OCA  SZ ES   1    026 36.30                             127     0.3 7  157 354 
 CHI  HZ EP   1    026 24.68                             114    -0.6 6  251 194 
 CHI  HN ES   1    026 54.89                             114     0.6 6  251 194 
 CHI  HZ I         027  1.87         3.7 0.35                           251 194 
 DBB  SZ ES   2    027 10.80                             107    -0.2 3  337 274 
                                                                                
