 2011  2 9 0154 28.7 L   6.866 -73.196142.3  RSN  6 0.4 1.3LRSN                1
 GAP=152        0.99       6.1    14.1 12.0 -0.5111E+02  0.7564E+02 -0.1471E+02E
 Epicentro: ZAPATOCA - SANTANDER                                               3
 ACTION:UP  11-03-28 15:07 OP:jfem STATUS:               ID:20110209015429 L   I
 2011-02-09-0151-41S.COL___136                                                 6
 STAT SP IPHASW D HRMM SECON CODA AMPLIT PERI AZIMU VELO SNR AR TRES W  DIS CAZ7
 BTL  SZ EP        154 48.46                             175     0.710   10 306 
 BAR2 SZ EP   1    154 48.16                             168     0.1 7   30 177 
 BAR2 SZ ES   2    155  3.34                             168     0.1 5   30 177 
 BAR2 SZ I         155  4.63         5.2 0.44                            30 177 
 RUS  HZ EP   1    154 53.10                             141     0.4 7  108 173 
 RUS  HN ES   1    155 10.98                             141    -0.4 7  108 173 
 RUS  HZ I         155 11.90         2.8 0.59                           108 173 
 GRA  SZ EP        154 53.01                             137    -0.210  121  21 
 GRA  SZ ES   1    155 11.80                             137    -0.5 7  121  21 
 GRA  SZ I         155 13.82         2.9 0.37                           121  21 
 NOR  SZ EP   1    155  3.90                             118    -0.3 6  235 232 
 NOR  SE ES   2    155 31.81                             118    -0.1 4  235 232 
 CHI  HZ EP   1    155  6.71                             116    -0.1 6  254 194 
 CHI  HZ I         155  7.00         1.1 0.48                           254 194 
 CHI  HN ES   2    155 35.81                             116    -0.8 4  254 194 
                                                                                
