 2010  6 9 0928  2.9 L   6.795 -73.348130.0  RSN  5 0.5 1.4LRSN                1
 GAP=198        0.93       6.1    28.8 11.4 -0.7810E+02  0.1311E+03 -0.2226E+02E
 Epicentro: ZAPATOCA - SANTANDER                                               3
 ACTION:UP  10-08-24 10:09 OP:vdl  STATUS:               ID:20100609092802 L   I
 2010-06-09-0926-00S.COL___111                                                 6
 STAT SP IPHASW D HRMM SECON CODA AMPLIT PERI AZIMU VELO SNR AR TRES W  DIS CAZ7
 BAR2 SZ EP        928 20.45                             167    -0.310   29 141 
 BAR2 SZ ES   1    928 35.10                             167     0.4 7   29 141 
 GIR2 SZ EP   1    928 21.57                             164     0.8 7   36  29 
 GIR2 SZ ES   2    928 33.95                             164    -0.9 5   36  29 
 RUS  HZ EP   1    928 24.89                             140    -0.5 7  104 164 
 RUS  HE ES   1    928 43.17                             140     0.2 7  104 164 
 RUS  HZ I         928 44.54         5.3 0.33                           104 164 
 GRA  SZ EP   2    928 27.83                             132     0.3 5  135  26 
 GRA  SZ ES   1    928 46.70                             132    -0.1 7  135  26 
 OCA  SZ EP   2    928 29.97                             126     0.0 5  160   1 
 OCA  SZ I         928 55.32         3.3 0.56                           160   1 
                                                                                
