 2014  3 9 0533 40.0 L   6.804 -73.174144.2  RSN  8 0.3 2.0LRSN                1
 GAP=141        0.71       3.1     3.4  5.5 -0.2695E+01  0.7672E+01 -0.3191E+01E
 Epicentro: LOS SANTOS - SANTANDER                                             3
 ACTION:UPD 14-04-09 23:15 OP:nd   STATUS:               ID:20140309053340 L   I
 OLDACT:REG 14-03-09 09:35 OP:nd   STATUS:               ID:20140309053044     3
 2014-03-09-0530-44M.COL___220                                                 6
 STAT SP IPHASW D HRMM SECON CODA AMPLIT PERI AZIMU VELO AIN AR TRES W  DIS CAZ7
 BAR2 SZ EP        533 59.51                             170    0.1010 23.4 182 
 BAR2 SZ ES        534 14.64                             170    0.0710 23.4 182 
 BAR2 SZ I         534 16.06        22.4 0.22            170           23.4 182 
 PAM  SZ EP        534  2.37                             150    0.2510 79.1  41 
 PAM  SN ES        534 19.30                             150   -0.0910 79.1  41 
 PAM  SZ I         534 21.80       368.4 0.50            154           79.1  41 
 PTB  HZ EP        534  6.63                             132    0.10 9  145 258 
 PTB  HN ES        534 27.35                             132    0.10 9  145 258 
 PTB  HZ I         534 29.56         8.2 0.16            132            145 258 
 SPBC HZ EP        534  8.31                             129    0.12 9  162 218 
 SPBC HN ES        534 29.64                             129   -0.56 9  162 218 
 SPBC HZ I         534 33.37        13.7 0.22            130            162 218 
 ZAR  HZ EP        534 11.97                             122   -0.02 9  201 292 
 ZAR  HN ES        534 37.42                             122    0.45 9  201 292 
 ZAR  HZ I         534 45.07         2.7 0.10            123            201 292 
 SML  HZ EP   2    534 15.80                             117   -0.52 4  242 336 
 SML  HN ES        534 44.09                             117   -0.59 8  242 336 
 SML  HZ I         534 48.11        10.5 0.10            119            242 336 
 ROSC BZ EP   4    534 19.67                             116    1.81 0  252 210 
 ROSC BN ES   4    534 42.94                             116   -4.48 0  252 210 
 ROSC BZ I         534 52.06         5.0 0.45            118            252 210 
 SJC  HZ EP   4    534 33.69                             105   -1.54 0  407 327 
 SJC  HN ES   4    535 15.97                             105   -2.37 0  407 327 
 SJC  HZ I         535 16.08         1.2 0.58            107            407 327 
                                                                                
