 2010  2 9 0452  8.3 L   6.853 -73.063141.1  RSN  8 0.3 2.1LRSN                1
 GAP=147        0.44       4.2     4.5  4.3 -0.9584E+01  0.1354E+01 -0.2281E+01E
 Epicentro: LOS SANTOS - SANTANDER                                             3
 ACTION:UP  10-08-24 09:48 OP:vdl  STATUS:               ID:20100209045208 L   I
 2010-02-09-0448-39S.COL___094                                                 6
 STAT SP IPHASW D HRMM SECON CODA AMPLIT PERI AZIMU VELO SNR AR TRES W  DIS CAZ7
 GIR2 SZ EP        452 27.50                             168     0.110   29 330 
 BAR2 SZ IP        452 27.45                             167    -0.110   32 205 
 BAR2 SZ ES   1    452 42.62                             167     0.0 7   32 205 
 OCA  SZ ES   2    452 57.47                             129     0.1 5  156 350 
 CHI  HZ EP   3    452 47.09                             115     0.4 2  257 197 
 HEL  HZ EP   1    452 48.97                             113    -0.5 6  282 255 
 HEL  HN ES   2    453 21.91                             113     0.4 4  282 255 
 HEL  HZ I         453 26.22         3.4 0.61                           282 255 
 RREF BZ EP   2    452 55.75                             109     0.3 3  333 230 
 RREF BZ I         453 35.98         2.7 0.33                           333 230 
 SDV  BZ EP        452 56.97                             108     0.0 6  350  50 
 PRA  HZ EP   3    453  2.32                             105    -0.5 1  402 210 
 PRA  HN ES   2    453 45.83                             105     0.5 3  402 210 
 PRA  HZ I         453 46.66        17.0 0.17                           402 210 
                                                                                
