 2017  2 9 0552  9.2 L   6.794 -73.187144.4  RSN  6 0.3 1.5LRSN                1
 GAP=233        0.78       4.4     5.7  5.5  0.1334E+02  0.3068E+01 -0.1471E+01E
 Epicentro: ZAPATOCA - SANTANDER                                               3
 ACTION:UPD 17-05-24 15:34 OP:jn   STATUS:               ID:20170209055209 L   I
 OLDACT:UP  17-02-09 18:32 OP:edw  STATUS:               ID:20170209054741     3
 OLDACT:REG 17-02-09 13:29 OP:edw  STATUS:               ID:20170209054741     3
 2017-02-09-0548-00M.COL___358                                                 6
 STAT SP IPHASW D HRMM SECON CODA AMPLIT PERI AZIMU VELO AIN AR TRES W  DIS CAZ7
 BAR2 EZ IP     C  552 28.55                             171   -0.0810 22.4 179 
 BAR2 EZ ES        552 43.77                             171   -0.0310 22.4 179 
 BAR2 EZ I         552 46.33         5.9 0.26            166           22.4 179 
 BRR  HZ EP        552 30.51                             153    0.5310 67.5 301 
 BRR  HE ES   4    552 47.87                             153    1.66 0 67.5 301 
 RUS  HZ EP        552 32.84                             144    0.0510  100 173 
 RUS  HN ES        552 51.06                             144   -0.1410  100 173 
 RUS  HZ I         552 52.16         5.5 0.26            143            100 173 
 PTB  HZ EP   9    552 35.42                             133   -0.20 0  143 259 
 PTB  HN ES        552 56.54                             134    0.50 9  143 259 
 PTB  HZ I         552 58.60         4.9 0.16            130            143 259 
 ZAR  HZ EP        552 40.52                             123   -0.61 9  200 293 
 ZAR  HN ES        553  6.05                             123    0.01 9  200 293 
 ZAR  HZ I         553 13.40         5.2 0.38            122            200 293 
 CHI  HZ EP        552 46.65                             117    0.04 8  247 194 
 CHI  HN ES        553 15.96                             117    0.15 8  247 194 
 CHI  HZ I         553 21.81         1.6 0.30            117            247 194 
                                                                                
