 2010  8 9 0106 34.5 L   6.791 -73.083149.1  RSN 21 0.5 3.6LRSN                1
 GAP=131        1.09       3.7     6.4  6.3 -0.9804E+01  0.7111E+01  0.2868E+01E
 Epicentro: LOS SANTOS - SANTANDER                                             3
 ACTION:DUP 10-09-07 10:53 OP:vdl  STATUS:               ID:20100809010635dL   I
 2010-08-09-0105-11S.COL___124                                                 6
 STAT SP IPHASW D HRMM SECON CODA AMPLIT PERI AZIMU VELO SNR AR TRES W  DIS CAZ7
 BAR2 SZ IP        1 6 54.38                             170    -0.110   25 207 
 BAR2 SZ ES   2    1 7  9.78                             170    -0.4 5   25 207 
 BAR2 SZ I         1 7 11.34       981.9 0.32                            25 207 
 GIR2 SZ IP        1 6 54.47                             166    -0.110   34 339 
 GIR2 SZ ES   2    1 7 10.67                             166     0.3 5   34 339 
 URB  SZ EP        1 6 54.87                                    -0.510   57 331 
 BRR  HZ IP     C  1 6 56.29                             151    -0.110   78 297 
 BRR  HZ I         1 6 56.50      2473.3 0.17                            78 297 
 BRR  HE ES   1    1 7 13.62                             151     0.2 7   78 297 
 RUS  HZ EP        1 6 58.19                             145    -0.310   99 180 
 RUS  HN ES        1 7 17.13                             145     0.010   99 180 
 RUS  HZ I         1 7 18.14       378.6 0.28                            99 180 
 GUE  SZ EP   1    1 6 59.23                             140    -0.2 7  116   9 
 GUE  SZ I         1 7 21.11       192.3 0.26                           116   9 
 GRA  SZ EP        1 7  1.11                             138     1.210  125  14 
 GRA  SZ ES   1    1 7 20.51                             138     0.7 7  125  14 
 GRA  SZ I         1 7 22.01       919.1 0.37                           125  14 
 OCA  SZ EP        1 7  2.89                             130    -0.3 9  162 351 
 OCA  SZ ES   1    1 7 24.99                             130    -0.7 7  162 351 
 OCA  SZ I         1 7 30.57       812.7 0.29                           162 351 
 CHI  HZ EP   1    1 7 12.30                             117    -0.1 6  250 197 
 CHI  HZ I         1 7 14.97       130.0 0.27                           250 197 
 CHI  HE ES   2    1 7 41.13                             117    -0.9 4  250 197 
 ROSC BZ EP        1 7 14.00                             117     0.9 8  255 212 
 ROSC BN ES   2    1 7 42.95                             117    -0.2 4  255 212 
 ROSC BZ I         1 7 50.41       245.6 0.58                           255 212 
 CVER SZ EP   1    1 7 15.65                             115     0.5 6  274 204 
 CVER SZ I         1 7 57.26       186.4 0.55                           274 204 
 HEL  HZ EP   1    1 7 15.67                             115     0.1 6  279 256 
 HEL  HN ES   2    1 7 47.00                             115    -0.6 4  279 256 
 HEL  HZ I         1 7 52.90       332.2 0.29                           279 256 
 GUY  SZ EP   1    1 7 19.01                             112     0.2 5  306 236 
 GUY  SE ES   2    1 7 53.58                                     0.2 4  306 236 
 RREF HZ EP   1    1 7 21.27                             111     0.0 5  326 230 
 RREF HE ES   2    1 7 58.43                             111     0.7 3  326 230 
 RREF HZ I         1 8  5.83       318.9 0.56                           326 230 
 DBB  SZ EP   1    1 7 22.21                             109    -0.7 5  346 274 
 DBB  SZ I         1 8  1.26        51.9 0.43                           346 274 
 TOL  SZ EP   2    1 7 23.65                             109     0.3 3  348 226 
 TOL  SZ ES   2    1 8  1.33                             109    -0.1 3  348 226 
 SDV  BZ EP        1 7 23.56                             109    -0.5 6  356  49 
 SDV  BZ I         1 7 24.88        96.9 0.36                           356  49 
 ANIL HZ EP        1 7 25.25                             109     0.4 6  361 225 
 ANIL HN ES   1    1 8  4.73                             109     0.5 5  361 225 
 PRA  HZ EP        1 7 27.76                             107    -0.6 6  395 211 
 PRA  HN ES   2    1 8 10.73                             107     0.3 3  395 211 
 PRA  HZ I         1 8 15.14       142.4 0.25                           395 211 
 MARA HZ EP        1 7 45.17                             101    -0.8 4  540 216 
 PCON HZ EP   2    1 7 54.75                             100    -0.5 1  615 217 
 PCON HZ I         1 7 56.16        24.9 0.35                           615 217 
                                                                                
