 2010 11 9 0706 44.6 L   6.847 -72.976139.0  RSN  4 0.2 1.5LRSN                1
 GAP=200        0.46       3.8     8.8  7.2  0.1762E+02 -0.4501E+02 -0.1400E+02E
 Epicentro: CEPITA - SANTANDER                                                 3
 ACTION:UP  10-12-17 16:51 OP:REBC STATUS:               ID:20101109070644 L   I
 2010-11-09-0703-18S.COL___128                                                 6
 STAT SP IPHASW D HRMM SECON CODA AMPLIT PERI AZIMU VELO SNR AR TRES W  DIS CAZ7
 BAR2 SZ ES   2    7 7 18.89                             165     0.2 5   36 219 
 BRR  HZ EP        7 7  5.81                             147    -0.210   86 290 
 BRR  HN ES        7 7 22.72                             147     0.110   86 290 
 BRR  HZ I         7 7 26.66         7.9 0.19                            86 290 
 RUS  HZ EP   1    7 7  8.20                             141     0.1 7  106 186 
 RUS  HN ES   2    7 7 26.25                             141    -0.2 5  106 186 
 RUS  HZ I         7 7 27.51         3.0 2.07                           106 186 
 OCA  SZ EP        7 7 12.41                             128     0.2 9  159 346 
 OCA  SZ ES   2    7 7 33.45                             128    -0.3 5  159 346 
 OCA  SZ I         7 7 37.56         7.0 0.32                           159 346 
                                                                                
