 2010  3 9 0355  7.5 L   6.770 -73.088148.9  RSN  6 0.2 1.8LRSN                1
 GAP=189        0.47       3.6     7.7  4.6  0.1134E+02 -0.1019E+02 -0.1417E+01E
 Epicentro: LOS SANTOS - SANTANDER                                             3
 ACTION:UP  10-08-24 09:52 OP:vdl  STATUS:               ID:20100309035507 L   I
 2010-03-09-0350-00S.COL___101                                                 6
 STAT SP IPHASW D HRMM SECON CODA AMPLIT PERI AZIMU VELO SNR AR TRES W  DIS CAZ7
 BAR2 SZ EP   1    355 27.31                             171    -0.2 7   22 208 
 BAR2 SZ ES   1    355 42.85                             171    -0.2 7   22 208 
 BRR  HZ IP        355 29.23                             151    -0.210   78 298 
 BRR  HE ES        355 46.62                             151     0.110   78 298 
 BRR  HZ I         355 50.51        10.1 0.28                            78 298 
 RUS  BZ EP   2    355 31.60                             145     0.3 5   97 180 
 RUS  BE ES   2    355 50.19                             145     0.3 5   97 180 
 RUS  BZ I         355 51.48         6.0 0.40                            97 180 
 OCA  SZ EP   1    355 36.67                             129     0.2 7  164 351 
 OCA  SZ I         356  1.51         7.3 0.18                           164 351 
 CHI  HZ EP   2    355 45.19                             118     0.0 4  247 197 
 CHI  HE ES   2    356 14.49                             118    -0.1 4  247 197 
 CHI  HZ I         356 29.12         3.6 0.51                           247 197 
 PRA  HZ EP   2    356  1.23                             107     0.1 3  392 211 
 PRA  HZ I         356 14.77         3.2 0.37                           392 211 
                                                                                
