 2017  5 9 0633 41.3 L   6.709 -73.223151.0  RSN  4 0.3 1.1LRSN                1
 GAP=221        0.71       5.8     5.8  6.3  0.2248E+02 -0.9299E+00 -0.5597E+01E
 Epicentro: VILLANUEVA - SANTANDER                                             3
 ACTION:UPD 17-06-16 13:34 OP:jn   STATUS:               ID:20170509063341 L   I
 OLDACT:REG 17-05-09 13:02 OP:lv   STATUS:               ID:20170509062741     3
 2017-05-09-0628-00M.COL___356                                                 6
 STAT SP IPHASW D HRMM SECON CODA AMPLIT PERI AZIMU VELO AIN AR TRES W  DIS CAZ7
 BRR  HZ EP        634  2.48                             154   -0.4810 69.7 309 
 BRR  HN ES        634 20.06                             154    0.2310 69.7 309 
 BRR  HZ I         634 24.85         3.6 0.34            154           69.7 309 
 RUS  HZ EP        634  5.05                             147    0.0710 91.6 170 
 RUS  HN ES        634 23.43                             147    0.0010 91.6 170 
 RUS  HZ I         634 26.19         0.9 0.28            151           91.6 170 
 PTB  HZ EP        634  7.79                             135   -0.05 9  138 262 
 PTB  HN ES        634 28.48                             135   -0.04 9  138 262 
 PTB  HZ I         634 34.53         1.8 0.35            136            138 262 
 ZAR  HZ EP        634 14.28                             124    0.54 9  200 296 
 ZAR  HE ES        634 38.82                             124   -0.20 9  200 296 
 ZAR  HZ I         634 44.40         1.9 0.15            126            200 296 
                                                                                
