 2014  8 9 0233  5.0 L   6.796 -73.130147.8  RSN  8 0.4 1.5LRSN                1
 GAP=202        0.89       3.8     5.1  6.8  0.2188E+01  0.2885E+01 -0.1767E+01E
 Epicentro: LOS SANTOS - SANTANDER                                             3
 ACTION:UPD 14-09-15 21:48 OP:nd   STATUS:               ID:20140809023305 L   I
 OLDACT:DUP 14-08-09 19:25 OP:spq  STATUS:               ID:20140809022816d    3
 OLDACT:REG 14-08-09 12:45 OP:spq  STATUS:               ID:20140809022815     3
 2014-08-09-0228-15M.COL___266                                                 6
 STAT SP IPHASW D HRMM SECON CODA AMPLIT PERI AZIMU VELO AIN AR TRES W  DIS CAZ7
 BAR2 SZ EP   1    233 24.37                             171   -0.55 7 23.3 194 
 BAR2 SZ ES   1    233 40.01                             171   -0.41 7 23.3 194 
 BAR2 SZ I         233 41.61         6.0 0.20            169           23.3 194 
 BRR  HZ EP        233 26.50                             152   -0.0110 72.9 298 
 BRR  HE ES        233 44.00                             152    0.7510 72.9 298 
 BRR  HZ I         233 48.00         5.3 0.12            150           72.9 298 
 RUS  HZ EP   1    233 29.35                             144    0.39 7  100 177 
 RUS  HE ES   1    233 47.46                             144   -0.15 7  100 177 
 RUS  HZ I         233 48.97         3.4 0.26            146            100 177 
 PTB  HZ EP        233 32.25                             132   -0.07 9  149 259 
 PTB  HN ES        233 53.04                             132   -0.56 9  149 259 
 PTB  HZ I         233 55.59         4.3 0.46            131            149 259 
 SPBC HZ EP        233 34.27                             129    0.50 9  164 220 
 SPBC HE ES        233 56.07                             129   -0.11 9  164 220 
 SPBC HZ I         233 57.45         5.0 0.16            130            164 220 
 ZAR  HN ES        234  3.27                             123   -0.08 8  206 292 
 ZAR  HZ I         234 10.24         4.6 0.34            123            206 292 
 NOR  HE ES        234  9.21                             119    0.14 8  236 235 
 NOR  HZ I         234 16.02         3.1 0.14            119            236 235 
 SML  HZ EP   1    233 41.59                             118   -0.31 6  245 335 
 SML  HN ES   1    234 10.52                             118   -0.13 6  245 335 
                                                                                
