 2012  9 9 0810  5.0 L   6.746 -73.157140.0  RSN  9 0.4 2.4LRSN                1
 GAP= 72        0.71       5.9     3.5  5.5 -0.1429E+01  0.5183E+00  0.4474E+01E
 Epicentro: JORDAN - SANTANDER                                                 3
 ACTION:UPD 12-10-22 14:17 OP:ep   STATUS:               ID:20120909081005 L   I
 2012-09-09-0810-00M.COL___227                                                 6
 STAT SP IPHASW D HRMM SECON CODA AMPLIT PERI AZIMU VELO AIN AR TRES W  DIS CAZ7
 BAR2 SZ IP        810 24.01                             173    0.1610 17.3 189 
 BAR2 SZ ES   1    810 38.53                             173   -0.01 7 17.3 189 
 BAR2 SZ I         810 39.63        60.7 0.24                          17.3 189 
 GIR2 SZ IP        810 24.08                             165   -0.1110 37.0 354 
 GIR2 SZ ES   3    810 38.65                             165   -0.48 2 37.0 354 
 BRR  HZ IP     C  810 25.91                             151    0.2410 73.2 303 
 BRR  HZ I         810 26.29        53.7 0.10                          73.2 303 
 BRR  HN ES   1    810 42.68                             151    0.90 7 73.2 303 
 PAM  SZ EP        810 26.83                             148   -0.1410 82.8  38 
 PAM  SN ES   1    810 43.65                             148   -0.44 7 82.8  38 
 PAM  SN I         810 45.02        80.5 0.48                          82.8  38 
 RUS  HZ EP   2    810 28.18                             144    0.39 5 94.7 175 
 RUS  HN ES   3    810 45.70                             144    0.15 2 94.7 175 
 PTB  HZ EP        810 30.90                             131   -0.42 9  146 261 
 PTB  HN ES   1    810 51.36                             131   -0.47 7  146 261 
 PTB  HN I         810 53.76        25.1 0.76                           146 261 
 TAM  HZ EP        810 32.36                             129    0.13 9  155 103 
 TAM  HZ I         810 32.43        28.7 0.12                           155 103 
 ZAR  HZ EP        810 37.20                             121   -0.03 8  205 294 
 ZAR  HN ES   3    811  2.62                             121    0.28 2  205 294 
 HEL  HZ EP   3    810 45.22                             114    0.56 2  269 257 
                                                                                
