 2016 11 9 0731 16.9 L   6.745 -73.140152.9  RSN  4 0.2 1.1LRSN                1
 GAP=159        0.60       6.4     3.9  4.9 -0.1247E+02  0.1170E+01  0.3479E+01E
 Epicentro: LOS SANTOS - SANTANDER                                             3
 ACTION:UPD 17-10-26 21:06 OP:lp   STATUS:               ID:20161109073116 L   I
 OLDACT:DUP 16-11-09 17:13 OP:lv   STATUS:               ID:20161109072750d    3
 2016-11-09-0728-00M.COL___346                                                 6
 STAT SP IPHASW D HRMM SECON CODA AMPLIT PERI AZIMU VELO AIN AR TRES W  DIS CAZ7
 BAR2 EZ EP        731 37.11                             173   -0.1510 17.5 196 
 BAR2 EZ ES        731 53.36                             173    0.2010 17.5 196 
 BRR  HZ EP        731 39.21                             153    0.2210 74.9 302 
 BRR  HN ES        731 56.43                             153    0.1810 74.9 302 
 BRR  HZ I         732  0.05         3.1 0.44            148           74.9 302 
 PAM  EZ EP        731 40.31                             151    0.2010 81.8  36 
 PAM  EE ES        731 57.88                             151   -0.3510 81.8  36 
 PAM  EZ I         731 59.21         2.0 0.26            152           81.8  36 
 PTB  HZ EP        731 44.29                             134   -0.10 9  147 261 
 PTB  HN ES        732  5.62                             134   -0.23 9  147 261 
 PTB  HZ I         732 12.62         1.6 0.38            132            147 261 
                                                                                
