 2016  8 9 0631 11.2 L   6.900 -73.242144.8  RSN  5 0.2 1.5LRSN                1
 GAP=275        0.55       5.2     3.5  5.6  0.8787E+00  0.2248E+01 -0.2254E+01E
 Epicentro: BETULIA - SANTANDER                                                3
 ACTION:UPD 16-10-29 15:34 OP:rebc STATUS:               ID:20160809063111 L   I
 OLDACT:REG 16-08-09 13:06 OP:dnl  STATUS:               ID:20160809062759     3
 2016-08-09-0627-59S.COL___340                                                 6
 STAT SP IPHASW D HRMM SECON CODA AMPLIT PERI AZIMU VELO AIN AR TRES W  DIS CAZ7
 BAR2 EZ EP        631 30.89                             166   -0.0910 34.7 169 
 BAR2 EZ ES        631 46.58                             166    0.1610 34.7 169 
 BAR2 EZ I         631 47.46         8.2 0.28                          34.7 169 
 RUS  HZ EP        631 35.83                             140    0.0710  113 171 
 RUS  HN ES        631 54.71                             140   -0.2110  113 171 
 RUS  HZ I         631 55.26         3.3 0.30                           113 171 
 PTB  HZ EP   2    631 37.97                             133    0.59 5  140 254 
 PTB  HN ES        631 57.60                             133   -0.21 9  140 254 
 PTB  HZ I         632  1.59         2.1 0.40                           140 254 
 SPBC HZ EP   2    631 39.45                             128   -0.41 5  166 214 
 SPBC HE ES        632  2.46                             128    0.24 9  166 214 
 SPBC HZ I         632  5.62         4.3 0.12                           166 214 
 ZAR  HZ EP   4    631 47.17                             124    5.02 0  190 290 
 ZAR  HN ES   4    632  9.93                             124    3.64 0  190 290 
 ZAR  HZ I         632 16.15         4.2 0.40                           190 290 
                                                                                
