 2013 11 9 0219  7.2 L   6.779 -73.170148.4  RSN  6 0.4 1.6LRSN                1
 GAP=134        1.11       5.8     5.5  7.5 -0.6469E+01 -0.1666E+00 -0.3741E+01E
 Epicentro: LOS SANTOS - SANTANDER                                             3
 ACTION:UPD 14-01-09 16:26 OP:ep   STATUS:               ID:20131109021907 L   I
 OLDACT:DUP 13-11-09 10:00 OP:stll STATUS:               ID:20131109020849d    3
 2013-11-09-0208-48M.COL___213                                                 6
 STAT SP IPHASW D HRMM SECON CODA AMPLIT PERI AZIMU VELO AIN AR TRES W  DIS CAZ7
 BAR2 SZ EP        219 27.16                             172    0.0710 20.7 184 
 BAR2 SZ ES        219 42.34                             172   -0.2710 20.7 184 
 BAR2 SZ I         219 43.72        18.5 0.24            174           20.7 184 
 BRR  HZ EP        219 29.04                             153    0.4810 70.0 301 
 BRR  HN ES        219 45.98                             153    0.7510 70.0 301 
 BRR  HZ I         219 58.07         6.0 0.46            151           70.0 301 
 PAM  SZ EP        219 30.02                             150    0.1210 80.9  40 
 PAM  SZ I         219 30.25         8.8 0.22            152           80.9  40 
 PAM  SN ES        219 47.24                             150   -0.3810 80.9  40 
 RUS  HZ EP        219 31.07                             145    0.0110 98.5 174 
 RUS  HN ES        219 49.94                             145    0.2710 98.5 174 
 RUS  HZ I         219 51.00         4.0 0.28            152           98.5 174 
 PTB  HZ EP        219 34.13                             133    0.03 9  145 260 
 PTB  HN ES        219 54.20                             133   -0.89 9  145 260 
 PTB  HZ I         219 57.33         3.4 0.28            135            145 260 
 CAPV BZ EP        219 34.78                             132   -0.34 9  153  38 
                                                                                
