 2011 11 9 0752 36.2 L   6.746 -73.112144.9  RSN  6 0.4 1.7LRSN                1
 GAP=143        0.78       5.1     5.8  7.3 -0.4083E+01  0.8979E+01 -0.5681E+01E
 Epicentro: LOS SANTOS - SANTANDER                                             3
 ACTION:UPD 12-07-13 16:09 OP:ep   STATUS:               ID:20111109075236 L   I
 2011-11-09-0751-04S.COL___178                                                 6
 STAT SP IPHASW D HRMM SECON CODA AMPLIT PERI AZIMU VELO AIN AR TRES W  DIS CAZ7
 BAR2 SZ EP   1    752 55.95                             172    0.34 7 18.7 205 
 BAR2 SZ I         752 56.30         9.7 0.10                          18.7 205 
 BAR2 SZ ES   1    753 10.31                             172   -0.46 7 18.7 205 
 BRR  HZ IP     C  752 57.89                             150    0.3010 77.4 301 
 BRR  HZ I         752 58.25        24.0 0.11                          77.4 301 
 BRR  HN ES   1    753 14.78                             150    0.49 7 77.4 301 
 PAM  SZ EP   1    752 58.71                             150    0.27 7 79.8  35 
 PAM  SZ I         752 59.15         3.4 0.24                          79.8  35 
 PAM  SN ES   1    753 15.51                             150   -0.30 7 79.8  35 
 RUS  HZ EP   1    752 59.34                             145   -0.06 7 94.5 178 
 RUS  HN ES   1    753 17.58                             145    0.06 7 94.5 178 
 RUS  HZ I         753 19.83         5.4 0.29                          94.5 178 
 OCA  SZ EP   1    753  4.39                             128   -0.63 7  167 352 
 OCA  SZ I         753 28.68         6.6 0.23                           167 352 
 HEL  HN ES   1    753 47.47                             114   -0.65 6  274 257 
                                                                                
