 2013  2 9 0322 31.7 L   6.783 -73.128149.0  RSN 11 0.4 2.7LRSN                1
 GAP=140        0.84       2.7     3.6  4.6 -0.6423E-01  0.4306E+01  0.1301E+00E
 Epicentro: LOS SANTOS - SANTANDER                                             3
 ACTION:UPD 13-03-12 09:31 OP:ep   STATUS:               ID:20130209032231 L   I
 2013-02-09-0320-00M.COL___240                                                 6
 STAT SP IPHASW D HRMM SECON CODA AMPLIT PERI AZIMU VELO AIN AR TRES W  DIS CAZ7
 BAR2 SZ IP        322 51.67                             171    0.0110 21.9 196 
 BAR2 SZ ES        323  7.28                             171    0.0310 21.9 196 
 BAR2 SZ I         323  8.39       114.4 0.36            163           21.9 196 
 BRR  HZ IP     C  322 53.55                             152    0.2310 73.8 299 
 BRR  HE ES        323 10.92                             152    0.7210 73.8 299 
 BRR  HE I         323 12.06       190.7 0.28            145           73.8 299 
 PAM  SZ EP        322 54.44                             151    0.1910 77.6  38 
 PAM  SZ I         322 54.95        41.7 0.26            151           77.6  38 
 PAM  SN ES        323 11.80                             151   -0.0510 77.6  38 
 RUS  HZ EP        322 55.65                             145    0.0510 98.6 177 
 RUS  HE ES        323 13.80                             145   -0.4610 98.6 177 
 RUS  HE I         323 15.37        93.3 0.56            136           98.6 177 
 PTB  HZ EP        322 58.25                             132   -0.79 9  149 260 
 PTB  HE ES        323 20.01                             132   -0.38 9  149 260 
 PTB  HZ I         323 23.18        45.8 0.19            124            149 260 
 OCA  HZ EP   1    323  0.11                             130   -0.32 7  162 353 
 OCA  HN ES   1    323 22.64                             130   -0.22 7  162 353 
 OCA  HZ I         323 27.64        62.3 0.25            125            162 353 
 ZAR  HZ EP        323  4.61                             123    0.02 8  207 292 
 ZAR  HE ES   1    323 29.97                             123   -0.29 6  207 292 
 ZAR  HZ I         323 36.76        53.1 0.24            116            207 292 
 SML  HZ EP        323  8.67                             118   -0.08 8  246 335 
 SML  HE ES   1    323 37.56                             118   -0.12 6  246 335 
 CHI  HZ IP     C  323  9.65                             118    0.24 8  247 196 
 CHI  HN ES   1    323 39.23                             118    0.39 6  247 196 
 CHI  HZ I         323 45.03        13.7 0.39            111            247 196 
 ROSC BZ EP   1    323 10.50                             117    0.60 6  252 212 
 ROSC BZ I         323 47.09        34.8 0.44            110            252 212 
 HEL  HZ EP   1    323 12.74                             115    0.53 6  274 256 
 HEL  HN ES   1    323 44.12                             115    0.29 6  274 256 
 HEL  HZ I         323 52.03        17.1 0.29            109            274 256 
                                                                                
