 2010  9 9 0801 55.6 L   6.813 -73.072142.0  RSN  4 0.2 1.7LRSN                1
 GAP=167        0.48       4.0     9.9 11.6  0.1090E+02 -0.7392E+02 -0.1735E+02E
 Epicentro: LOS SANTOS - SANTANDER                                             3
 ACTION:UP  11-02-18 11:01 OP:tino STATUS:               ID:20100909080155 L   I
 2010-09-09-0758-42S.COL___120                                                 6
 STAT SP IPHASW D HRMM SECON CODA AMPLIT PERI AZIMU VELO SNR AR TRES W  DIS CAZ7
 BAR2 SZ EP   1    8 2 14.73                             169    -0.1 8   27 207 
 BRR  HZ EP   1    8 2 16.45                             150    -0.3 8   78 295 
 BRR  HZ I         8 2 16.83        11.0 0.06                            78 295 
 BRR  HN ES   2    8 2 33.48                             150     0.3 5   78 295 
 RUS  HZ EP        8 2 19.17                             143     0.110  102 181 
 RUS  HZ I         8 2 28.10         4.5 1.19                           102 181 
 RUS  HN ES   2    8 2 37.13                             143    -0.2 5  102 181 
 GRA  SZ EP        8 2 20.21                             137     0.010  122  14 
 GRA  SZ I         8 2 28.90        12.8 0.65                           122  14 
                                                                                
