 2017  8 9 0203 53.4 L   6.164 -73.420134.3  RSN  5 0.4 1.1LRSN                1
 GAP=103        1.05       5.3     7.0  8.6 -0.5394E+01  0.2206E+02 -0.5299E+01E
 Epicentro: SUAITA - SANTANDER                                                 3
 ACTION:UPD 17-09-04 20:18 OP:rebc STATUS:               ID:20170809020353 L   I
 OLDACT:UP  17-08-09 14:28 OP:dhb  STATUS:               ID:20170809015741     3
 OLDACT:REG 17-08-09 12:00 OP:dhb  STATUS:               ID:20170809015741     3
 2017-08-09-0158-00M.COL___399                                                 6
 STAT SP IPHASW D HRMM SECON CODA AMPLIT PERI AZIMU VELO AIN AR TRES W  DIS CAZ7
 RUS  HZ EP        2 4 13.33                             159    0.5210 47.9 129 
 RUS  HN ES        2 4 27.94                             159   -0.0210 47.9 129 
 RUS  HE ES        2 4 27.95                             160           47.9 129 
 BAR2 EZ EP        2 4 11.94                             157   -0.7810 54.1  29 
 BAR2 EZ ES        2 4 27.69                             157   -0.1110 54.1  29 
 SPBC HZ EP        2 4 15.14                             144    0.3410 91.8 232 
 SPBC HN ES        2 4 31.36                             144   -0.1510 91.8 232 
 SPBC HZ I         2 4 33.50         2.8 0.10            131           91.8 232 
 BRR  HZ EP        2 4 16.25                             138    0.2410  109 343 
 BRR  HN ES        2 4 34.04                             138    0.3810  109 343 
 BRR  HZ I         2 4 34.93         2.6 0.12            128            109 343 
 PTB  HZ EP        2 4 16.67                             135   -0.4310  122 290 
 PTB  HZ I         2 4 35.24         1.3 0.16            123            122 290 
                                                                                
