 2017 11 9 0022 12.1 L   6.783 -73.133145.8  RSN 15 0.7 2.1LRSN                1
 GAP= 67        1.55       3.9     4.0  7.1  0.7433E+00  0.3799E+01  0.4285E+01E
 Epicentro: LOS SANTOS - SANTANDER                                             3
 ACTION:UPD 17-12-12 19:53 OP:rebc STATUS:               ID:20171109002212 L   I
 OLDACT:REG 17-11-09 12:54 OP:dnl  STATUS:               ID:20171109001740     3
 2017-11-09-0018-00M.COL___455                                                 6
 STAT SP IPHASW D HRMM SECON CODA AMPLIT PERI AZIMU VELO AIN AR TRES W  DIS CAZ7
 BAR2 EZ EP        022 31.58                             171   -0.1710 21.8 195 
 BAR2 EZ ES        022 46.58                             171   -0.4610 21.8 195 
 BRR  HZ EP        022 32.72                             152   -0.7010 73.4 299 
 BRR  HN ES        022 50.46                             152    0.4410 73.4 299 
 BRR  HZ I         022 53.62        25.6 0.22            151           73.4 299 
 PAM  EZ EP        022 34.57                             151    0.1710 77.9  38 
 PAM  EN ES        022 51.66                             151   -0.1010 77.9  38 
 PAM  EZ I         022 53.72        21.9 0.54            155           77.9  38 
 RUS  HZ EP        022 35.50                             144   -0.2610 98.6 177 
 RUS  HN ES        022 54.18                             144    0.0010 98.6 177 
 RUS  HZ I         022 55.86         9.7 0.46            145           98.6 177 
 PTB  HZ EP        022 38.89                             132   -0.32 9  149 260 
 PTB  HZ ES        023  0.31                             132   -0.01 9  149 260 
 PTB  HZ I         023  5.97         9.0 0.42            132            149 260 
 TAM  HZ EP        022 40.02                             131    0.37 9  153 104 
 TAM  HN ES        023  1.86                             131    0.75 9  153 104 
 SPBC HZ EP        022 40.59                             129   -0.00 9  163 220 
 SPBC HN ES        023  1.86                             129   -0.93 9  163 220 
 SPBC HZ I         023  6.79        22.8 0.16            130            163 220 
 YPLC HZ EP     C  022 42.01                             127    0.30 9  174 151 
 YPLC HE ES        023  5.40                             127    0.63 9  174 151 
 ZAR  HZ EP        022 44.68                             122   -0.12 8  206 292 
 ZAR  HE ES        023  9.60                             122   -0.68 8  206 292 
 ZAR  HZ I         023 14.78        16.3 0.26            123            206 292 
 NOR  HZ EP        022 47.46                             118   -0.42 8  235 235 
 NOR  HE ES        023 16.47                             118    0.71 8  235 235 
 NOR  HZ I         023 22.99         6.8 0.26            119            235 235 
 CHI  HZ EP        022 49.92                             117    0.23 8  247 196 
 CHI  HN ES        023 19.13                             117    0.16 8  247 196 
 CHI  HZ I         023 22.65         9.7 0.64            119            247 196 
 DRL03HZ EP        022 54.33                             113    0.35 7  291 353 
 DRL03HE ES        023 27.07                             113    0.45 7  291 353 
 GUY2CHZ EP        022 55.83                             112    0.07 7  301 235 
 GUY2CHE ES        023 32.64                             112    2.85 7  301 235 
 PTGC HZ EP        022 54.60                             112   -1.14 7  306 159 
 PTGC HN ES        023 28.40                             112   -1.35 7  306 159 
 PRA  HZ EP        023  5.57                             106    0.01 6  391 210 
 PRA  HE ES        023 46.94                             106   -0.28 6  391 210 
 PRA  HZ I         023 53.72         8.1 0.72            108            391 210 
                                                                                
