 2013  4 9 0455 54.9 L   6.761 -73.160146.4  RSN  8 0.4 2.1LRSN                1
 GAP=109        1.12       5.1     5.3  6.6  0.1044E+02 -0.2433E+01 -0.6514E+01E
 Epicentro: LOS SANTOS - SANTANDER                                             3
 ACTION:UPD 13-05-22 14:36 OP:EP   STATUS:               ID:20130409045554 L   I
 2013-04-09-0448-40M.COL___218                                                 6
 STAT SP IPHASW D HRMM SECON CODA AMPLIT PERI AZIMU VELO AIN AR TRES W  DIS CAZ7
 BAR2 SZ EP        456 14.49                             172   -0.0110 18.8 187 
 BAR2 SZ ES        456 29.58                             172   -0.2310 18.8 187 
 BAR2 SZ I         456 30.69        31.3 0.20            174           18.8 187 
 GIR2 SZ EP        456 14.95                             166    0.2110 35.3 354 
 GIR2 SZ ES        456 29.78                             166   -0.4610 35.3 354 
 GIR2 SZ I         456 32.05         9.2 0.52            164           35.3 354 
 BRR  HZ EP        456 16.74                             152    0.6010 72.0 302 
 BRR  HN ES        456 33.45                             152    0.7310 72.0 302 
 BRR  HN I         456 34.33        29.3 0.18            151           72.0 302 
 RUS  HZ EP        456 18.38                             145   -0.0210 96.4 175 
 RUS  HN ES        456 36.75                             145    0.0110 96.4 175 
 PTB  HZ EP        456 21.32                             133   -0.36 9  145 260 
 PTB  HN ES        456 41.92                             133   -0.67 9  145 260 
 TAM  HZ IP     D  456 22.86                             130    0.20 9  156 103 
 TAM  HZ I         456 22.98        21.2 0.18            132            156 103 
 ZAR  HE ES        456 53.42                             122    0.68 9  204 293 
 ZAR  HN I         456 58.25        14.7 0.16            122            204 293 
 SML  HZ EP        456 31.59                             117   -0.31 8  247 336 
 SML  HN ES        457  0.13                             117   -0.64 8  247 336 
 SML  HN I         457  3.34        17.3 0.10            117            247 336 
                                                                                
