 2012  4 9 0628 43.6 L   6.758 -73.151138.5  RSN  6 0.4 1.4LRSN                1
 GAP=138        0.71       6.2     4.7  8.5  0.1040E+00  0.7420E+01 -0.9512E+01E
 Epicentro: LOS SANTOS - SANTANDER                                             3
 ACTION:UPD 12-07-05 11:52 OP:tino STATUS:               ID:20120409062843 L   I
 2012-04-09-0627-29S.COL___204                                                 6
 STAT SP IPHASW D HRMM SECON CODA AMPLIT PERI AZIMU VELO AIN AR TRES W  DIS CAZ7
 BAR2 SZ EP   1    629  2.18                             172    -0.1 7   19 191 
 BAR2 SZ ES   1    629 16.36                             172    -0.4 7   19 191 
 BAR2 SZ I         629 18.30         5.8 0.26                            19 191 
 BRR  HZ EP   1    629  4.05                             150     0.0 7   73 302 
 BRR  HZ I         629  4.41         5.0 0.10                            73 302 
 BRR  HN ES   1    629 20.47                             150     0.5 7   73 302 
 PAM  SZ EP   1    629  5.12                             148    -0.2 7   81  38 
 PAM  SN ES   1    629 22.28                             148     0.1 7   81  38 
 RUS  HN ES   2    629 24.68                             144     0.7 5   96 176 
 PTB  HE ES   2    629 29.58                             131    -0.7 5  146 261 
 ZAR  HN ES   1    629 40.86                             121     0.1 6  205 293 
                                                                                
