 2011  1 9 0921  0.6 L   6.771 -73.310146.0  RSN  4 0.3 1.6LRSN                1
 GAP=166        0.81       8.7    12.7 11.8 -0.3006E+02  0.5127E+02 -0.5521E+02E
 Epicentro: ZAPATOCA - SANTANDER                                               3
 ACTION:UP  11-02-08 08:39 OP:pat  STATUS:               ID:20110109092100 L   I
 2011-01-09-0920-00M.COL___136                                                 6
 STAT SP IPHASW D HRMM SECON CODA AMPLIT PERI AZIMU VELO SNR AR TRES W  DIS CAZ7
 BAR2 SZ EP   1    921 19.91                             170    -0.3 8   24 145 
 BAR2 SZ ES   1    921 35.74                             170     0.1 8   24 145 
 BAR2 SZ I         921 36.24        13.2 0.36                            24 145 
 GRA  SZ IP        921 27.04                             135     0.410  135  24 
 GRA  SZ I         921 28.15         3.8 0.17                           135  24 
 GRA  SZ ES   1    921 46.68                             135    -0.3 7  135  24 
 OCA  SZ EP   2    921 28.56                             129    -0.5 5  162 360 
 OCA  SZ I         921 58.66         4.1 0.47                           162 360 
 MON  HE ES   2    922 25.46                             109     0.2 3  341 311 
 MON  HZ I         922 42.89         1.7 0.78                           341 311 
                                                                                
