 2010 10 9 0743 23.8 L   7.138 -73.440113.4  RSN  5 0.3 1.7LRSN                1
 GAP=114        0.68       3.7     7.0  7.4 -0.4501E+01 -0.1236E+02 -0.5960E+01E
 Epicentro: LEBRIJA - SANTANDER                                                3
 ACTION:UP  11-02-18 11:08 OP:tino STATUS:               ID:20101009074323 L   I
 2010-10-09-0739-00S.COL___119                                                 6
 STAT SP IPHASW D HRMM SECON CODA AMPLIT PERI AZIMU VELO SNR AR TRES W  DIS CAZ7
 BRR  HZ EP   1    743 39.51                             164     0.1 7   30 264 
 BRR  HN ES   1    743 51.77                             164     0.2 7   30 264 
 BRR  HZ I         743 52.31        13.5 0.14                            30 264 
 BAR2 SZ EP        743 41.56                             147     0.010   67 155 
 BAR2 SZ ES   1    743 55.27                             147    -0.2 7   67 155 
 BAR2 SZ I         743 59.18        15.4 0.52                            67 155 
 GUE  SZ EP   1    743 43.56                             137    -0.3 7   95  37 
 GRA  SZ EP   1    743 44.97                             133     0.2 7  108  40 
 GRA  SZ ES   1    744  1.48                             133     0.4 7  108  40 
 GRA  SZ I         744  2.88        13.0 0.24                           108  40 
 OCA  SZ EP   1    743 46.26                             129     0.2 7  122   6 
 OCA  SZ ES   1    744  2.88                             129    -0.5 7  122   6 
 OCA  SZ I         744  6.39         7.8 0.63                           122   6 
                                                                                
