 2013  8 9 0451 37.1 L   6.290 -73.170182.0  RSN  7 0.5 1.4LRSN                1
 GAP=169        0.98       6.2     7.2  8.6 -0.2249E+01  0.4316E+01 -0.1502E+01E
 Epicentro: CHARALA - SANTANDER                                                3
 ACTION:UPD 14-01-14 09:00 OP:ep   STATUS:               ID:20130809045137 L   I
 OLDACT:REG 13-08-09 06:26 OP:jn   STATUS:               ID:20130809044959     3
 2013-08-09-0449-59M.COL___267                                                 6
 STAT SP IPHASW D HRMM SECON CODA AMPLIT PERI AZIMU VELO AIN AR TRES W  DIS CAZ7
 BAR2 SZ EP   1    452  0.99                             169   -0.28 8 33.4 358 
 BAR2 SZ ES   1    452 19.96                             169   -0.18 8 33.4 358 
 BAR2 SZ I         452 20.55         6.8 0.42            170           33.4 358 
 RUS  HZ EP   1    452  1.94                             166   -0.02 8 45.0 168 
 RUS  HN ES   1    452 20.93                             166   -0.43 8 45.0 168 
 RUS  HZ I         452 22.46         1.9 0.24            166           45.0 168 
 GIR2 SZ EP   1    452  3.01                             153   -0.24 8 87.2 358 
 GIR2 SZ ES   1    452 23.57                             153   -0.10 8 87.2 358 
 GIR2 SZ I         452 26.31         3.9 0.32            155           87.2 358 
 BRR  HZ EP   1    452  4.70                             148    0.39 8  108 326 
 BRR  HN ES   1    452 26.80                             148    1.24 8  108 326 
 BRR  HZ I         452 28.52         4.3 0.14            149            108 326 
 SPBC HZ EP   1    452  5.87                             145    0.48 7  122 235 
 SPBC HE ES        452 27.64                             145    0.1710  122 235 
 SPBC HZ I         452 33.90         2.6 0.24            144            122 235 
 PTB  HZ EP   1    452  6.73                             140   -0.25 7  145 281 
 PTB  HN ES   1    452 30.08                             140   -0.22 7  145 281 
 PTB  HZ I         452 31.73         3.6 0.18            140            145 281 
 ZAR  HN ES   1    452 42.76                             126   -0.98 6  229 306 
                                                                                
