 2010  8 9 0106  9.7 L   6.750 -73.139144.4  RSN  5 0.4 1.9LRSN                1
 GAP=160        1.25       7.7    16.5 12.8 -0.5079E+02 -0.3254E+02  0.5606E+01E
 Epicentro: LOS SANTOS - SANTANDER                                             3
 ACTION:UP  10-09-07 10:53 OP:vdl  STATUS:               ID:20100809010634 L   I
 2010-08-09-0105-11S.COL___124                                                 6
 STAT SP IPHASW D HRMM SECON CODA AMPLIT PERI AZIMU VELO SNR AR TRES W  DIS CAZ7
 BAR2 SZ EP        1 6 29.08                             172     0.010   18 196 
 BAR2 SZ ES   1    1 6 43.70                             172    -0.5 7   18 196 
 BAR2 SZ I         1 6 46.72        26.3 0.38                            18 196 
 BRR  HZ EP        1 6 30.79                             151    -0.110   75 302 
 BRR  HE ES   2    1 6 47.91                             151     0.5 5   75 302 
 BRR  HZ I         1 6 51.47        16.8 0.16                            75 302 
 RUS  HZ EP        1 6 33.24                             145     0.310   95 176 
 RUS  HZ I         1 6 53.60        18.0 0.27                            95 176 
 GUE  SZ EP        1 6 33.92                             138    -0.810  122  11 
 GUE  SZ I         1 6 55.10         3.5 0.18                           122  11 
 GRA  SZ EP        1 6 35.72                             135     0.510  131  16 
 GRA  SZ ES        1 6 55.36                             135     0.210  131  16 
 GRA  SZ I         1 6 56.43        16.8 0.29                           131  16 
                                                                                
