 2017 10 9 0722 26.5 L   6.837 -73.131147.6  RSN  4 0.2 1.2LRSN                1
 GAP=182        0.66       5.3     8.1  5.6 -0.3226E+02  0.1467E+02 -0.4461E+01E
 Epicentro: LOS SANTOS - SANTANDER                                             3
 ACTION:UPD 17-11-07 19:30 OP:rebc STATUS:               ID:20171009072226 L   I
 OLDACT:UP  17-10-09 17:13 OP:y    STATUS:               ID:20171009071741     3
 OLDACT:REG 17-10-09 14:23 OP:leo  STATUS:               ID:20171009071741     3
 2017-10-09-0718-00M.COL___417                                                 6
 STAT SP IPHASW D HRMM SECON CODA AMPLIT PERI AZIMU VELO AIN AR TRES W  DIS CAZ7
 BAR2 EZ EP        722 46.18                             169   -0.2210 27.7 192 
 BAR2 EZ ES        723  1.63                             169   -0.3310 27.7 192 
 BAR2 EZ I         723  4.44         3.6 0.34            167           27.7 192 
 PAM  EZ EP        722 48.87                             152    0.2510 73.2  41 
 PAM  EN ES        723  6.05                             152    0.1410 73.2  41 
 PAM  EZ I         723  7.67         3.6 0.20            157           73.2  41 
 RUS  HZ EP        722 50.37                             143   -0.3110  105 177 
 RUS  HN ES        723  9.84                             143    0.2710  105 177 
 RUS  HZ I         723 11.46         1.1 0.34            146            105 177 
 SPBC HZ EP        722 55.52                             129    0.02 9  167 219 
 SPBC HN ES        723 18.40                             129    0.25 9  167 219 
 SPBC HZ I         723 24.74         3.4 0.62            129            167 219 
                                                                                
