 2013 12 9 0615  1.4 L   6.443 -73.725106.3  RSN  5 0.5 1.1LRSN                1
 GAP= 84        1.26       5.1     5.5 11.2  0.5558E+00  0.1157E+02  0.8404E+01E
 Epicentro: SANTA HELENA DEL OPON - SANTANDER                                  3
 ACTION:UPD 14-01-13 10:16 OP:ep   STATUS:               ID:20131209061501 L   I
 OLDACT:REG 13-12-09 06:22 OP:jn   STATUS:               ID:20131209061000     3
 2013-12-09-0610-00M.COL___285                                                 6
 STAT SP IPHASW D HRMM SECON CODA AMPLIT PERI AZIMU VELO AIN AR TRES W  DIS CAZ7
 BAR2 SZ EP        615 18.37                             148    0.1710 62.3  75 
 BAR2 SZ ES        615 31.21                             148   -0.0710 62.3  75 
 BAR2 SZ I         615 32.20        10.4 0.22            150           62.3  75 
 BRR  HZ EP        615 18.80                             143    0.1610 73.5   1 
 BRR  HE ES        615 32.54                             143    0.4710 73.5   1 
 BRR  HZ I         615 46.91         3.3 0.50            142           73.5   1 
 PTB  HZ EP        615 19.08                             139   -0.2110 81.5 278 
 PTB  HN ES   1    615 31.94                             139   -1.28 7 81.5 278 
 PTB  HZ I         615 33.07         2.3 0.32            143           81.5 278 
 RUS  HZ EP        615 20.56                             136   -0.3710 93.6 131 
 RUS  HN ES        615 35.72                             136   -0.4310 93.6 131 
 RUS  HZ I         615 36.76         1.3 0.26            145           93.6 131 
 SPBC HZ EP        615 20.74                             135    0.1910 95.5 204 
 SPBC HN ES        615 36.27                             135    0.8010 95.5 204 
 SPBC HZ I         615 36.66         2.3 0.26            146           95.5 204 
                                                                                
