 2017  1 9 0404 51.1 L   6.802 -73.095153.6  RSN 11 0.5 1.7LRSN                1
 GAP=123        1.14       4.5     5.1  6.9 -0.7843E+00 -0.7747E+00  0.9335E+01E
 Epicentro: LOS SANTOS - SANTANDER                                             3
 ACTION:UPD 17-05-22 15:57 OP:jn   STATUS:               ID:20170109040451 L   I
 OLDACT:UP  17-01-09 15:19 OP:e    STATUS:               ID:20170109035750     3
 OLDACT:UP  17-01-09 15:18 OP:e    STATUS:               ID:20170109035750     3
 OLDACT:UP  17-01-09 15:17 OP:e    STATUS:               ID:20170109035750     3
 OLDACT:UP  17-01-09 15:17 OP:e    STATUS:               ID:20170109035750     3
 OLDACT:UP  17-01-09 15:15 OP:e    STATUS:               ID:20170109035750     3
 OLDACT:REG 17-01-09 12:51 OP:and  STATUS:               ID:20170109035750     3
 2017-01-09-0358-00M.COL___347                                                 6
 STAT SP IPHASW D HRMM SECON CODA AMPLIT PERI AZIMU VELO AIN AR TRES W  DIS CAZ7
 BAR2 EZ EP        4 5 11.58                             170   -0.1210 25.2 203 
 BAR2 EZ ES        4 5 27.75                             170   -0.0210 25.2 203 
 BAR2 EZ I         4 5 28.22         7.9 0.23            167           25.2 203 
 PAM  EZ EP        4 5 14.40                             153    0.4610 73.7  36 
 PAM  EN ES        4 5 31.57                             153   -0.2010 73.7  36 
 PAM  EZ I         4 5 34.35         4.3 0.67            156           73.7  36 
 BRR  HZ EP        4 5 13.38                             152    0.0210 76.0 296 
 BRR  HN ES        4 5 31.38                             152    0.6510 76.0 296 
 BRR  HZ I         4 5 35.26         6.2 0.16            149           76.0 296 
 RUS  HZ EP        4 5 15.37                             145   -0.2510  101 179 
 RUS  HN ES        4 5 34.15                             145   -0.6110  101 179 
 RUS  HZ I         4 5 35.37         5.4 0.34            144            101 179 
 PTB  HZ EP   9    4 5 18.44                             132   -0.76 0  153 259 
 PTB  HN ES        4 5 39.97                             130   -0.39 9  153 259 
 PTB  HZ I         4 5 42.45         5.0 0.19            130            153 259 
 ZAR  HN ES        4 5 50.16                             123   -0.54 8  209 292 
 ZAR  HZ I         4 5 55.94         6.2 0.28            122            209 292 
 NOR  HN ES        4 5 56.20                             119   -0.21 8  239 235 
 NOR  HZ I         4 6  0.88         4.2 0.28            118            239 235 
 CHI  HZ EP        4 5 30.10                             118    0.67 8  250 196 
 CHI  HN ES        4 6  0.18                             118    0.85 8  250 196 
 CHI  HZ I         4 6  5.08         1.8 0.33            118            250 196 
 ROSC BZ EP   4    4 5 32.62                             118    2.63 0  256 212 
 ROSC BN ES   4    4 6  3.77                             118    3.44 0  256 212 
 ROSC BZ I         4 6  9.52         5.2 0.35            117            256 212 
 GUY2CHZ EP   4    4 5 37.97                             113    2.37 0  306 235 
 GUY2CHN ES   4    4 6 13.46                             113    3.14 0  306 235 
 GUY2CHZ I         4 6 18.76         2.6 0.30                           306 235 
 PTGC HZ EP        4 5 34.41                             113   -0.70 7  307 160 
                                                                                
