 2011  6 9 0828 36.2 L   6.803 -73.044149.0  RSN  5 0.2 1.4LRSN                1
 GAP=170        0.52       3.1     8.6  6.9  0.2939E+01 -0.1260E+02 -0.7573E+01E
 Epicentro: LOS SANTOS - SANTANDER                                             3
 ACTION:UP  11-07-14 19:04 OP:ep   STATUS:               ID:20110609082836 L   I
 2011-06-09-0820-00M.COL___122                                                 6
 STAT SP IPHASW D HRMM SECON CODA AMPLIT PERI AZIMU VELO SNR AR TRES W  DIS CAZ7
 BAR2 SZ EP   1    828 56.25                             169    -0.1 7   28 213 
 BAR2 SZ ES   2    829 11.96                             169    -0.1 5   28 213 
 BAR2 SZ I         829 12.38         5.5 0.48                            28 213 
 BRR  HZ EP   1    828 58.02                             150    -0.3 7   81 295 
 BRR  HZ I         828 58.35        10.2 0.17                            81 295 
 BRR  HN ES   2    829 15.79                             150     0.3 5   81 295 
 RUS  HZ EP   2    829  0.30                             144     0.0 5  101 182 
 RUS  HE ES   1    829 19.10                             144     0.0 7  101 182 
 RUS  HZ I         829 19.98         2.2 0.35                           101 182 
 GRA  SZ EP   1    829  1.94                             138     0.4 7  123  12 
 GRA  SZ ES   2    829 20.84                             138    -0.4 5  123  12 
 GRA  SZ I         829 23.65         2.6 0.19                           123  12 
 OCA  SZ EP   1    829  4.82                             130    -0.1 7  162 349 
 OCA  SZ ES   1    829 27.35                             130     0.1 7  162 349 
 OCA  SZ I         829 32.42         3.8 0.30                           162 349 
                                                                                
