 2016  7 9 0216 45.9 L   6.297 -73.520109.9  RSN  4 0.3 0.8LRSN                1
 GAP=152        0.76       4.5     4.1  7.2  0.7723E+01  0.1083E+02  0.4969E+01E
 Epicentro: CONTRATACION - SANTANDER                                           3
 ACTION:UPD 17-03-29 16:48 OP:lp   STATUS:               ID:20160709021645 L   I
 OLDACT:DUP 16-07-09 15:40 OP:edw  STATUS:               ID:20160709020747d    3
 OLDACT:REG 16-07-09 12:48 OP:edw  STATUS:               ID:20160709020746     3
 2016-07-09-0207-46M.COL___338                                                 6
 STAT SP IPHASW D HRMM SECON CODA AMPLIT PERI AZIMU VELO AIN AR TRES W  DIS CAZ7
 BAR2 EZ EP        217  2.11                             154   -0.1910 49.6  49 
 BAR2 EZ ES        217 15.01                             154   -0.0810 49.6  49 
 BAR2 EZ I         217 15.78         4.0 0.28            169           49.6  49 
 RUS  HZ EP        217  3.50                             147   -0.1410 65.9 133 
 RUS  HE ES        217 17.67                             147    0.1910 65.9 133 
 RUS  HZ I         217 23.40         1.2 0.12            150           65.9 133 
 BRR  HZ EP        217  5.52                             137    0.6110 92.0 347 
 BRR  HZ IP        217  5.52                                           92.0 347 
 BRR  HE ES        217 19.57                             137   -0.1810 92.0 347 
 SPBC HN ES   4    217 14.10                             136   -6.16 0 93.9 221 
 PTB  HZ EP        217  5.90                             132   -0.3410  107 285 
 PTB  HN ES        217 22.23                             132    0.1310  107 285 
 PTB  HZ I         217 29.56         1.2 0.18            135            107 285 
                                                                                
