 2016  5 9 0601 31.3 L   6.831 -73.159142.6  RSN 22 0.4 2.4LRSN                1
 GAP= 69        0.93       2.1     2.6  4.5 -0.4279E+00  0.3492E+01 -0.1654E+00E
 Epicentro: LOS SANTOS - SANTANDER                                             3
 ACTION:UPD 16-08-18 17:43 OP:cam  STATUS:               ID:20160509060131 L   I
 OLDACT:UP  16-05-15 07:32 OP:ar   STATUS:               ID:20160509060131 L   3
 OLDACT:UP  16-05-09 14:29 OP:drio STATUS:               ID:20160509055750     3
 OLDACT:UP  16-05-09 14:28 OP:drio STATUS:               ID:20160509055750     3
 OLDACT:REG 16-05-09 12:22 OP:drio STATUS:               ID:20160509055750     3
 2016-05-09-0557-50M.COL___290                                                 6
 STAT SP IPHASW D HRMM SECON CODA AMPLIT PERI AZIMU VELO AIN AR TRES W  DIS CAZ7
 BAR2 EZ IP        6 1 50.64                             169   -0.0110 26.6 186 
 BAR2 EZ ES        6 2  5.65                             169   -0.0710 26.6 186 
 BAR2 EZ I         6 2  7.05        34.5 0.28            166           26.6 186 
 BRR  HZ IP     D  6 1 52.34                             153    0.3710 68.3 297 
 BRR  HE ES   4    6 2  9.52                             153    1.45 0 68.3 297 
 BRR  HZ I         6 2 10.05        23.8 0.24            150           68.3 297 
 PAM  EZ EP        6 1 53.27                             151    0.1610 75.7  42 
 PAM  EE ES        6 2 10.57                             151    0.4710 75.7  42 
 PAM  EZ I         6 2 12.39        36.4 0.46            156           75.7  42 
 RUS  HZ EP        6 1 54.99                             142   -0.0510  104 175 
 RUS  HE ES        6 2 13.58                             142    0.0610  104 175 
 RUS  HZ I         6 2 14.80        32.4 0.24            142            104 175 
 PTB  HZ EP        6 1 57.42                             131   -0.55 9  147 257 
 PTB  HN ES        6 2 18.45                             131   -0.30 9  147 257 
 PTB  HZ I         6 2 24.81        28.4 0.30            130            147 257 
 OCA  HZ EP        6 1 58.48                             130   -0.57 9  157 354 
 OCA  HE ES        6 2 20.12                             130   -0.56 9  157 354 
 OCA  HZ I         6 2 24.20        56.8 0.18            131            157 354 
 TAM  HZ EP        6 1 59.13                             129    0.15 9  157 106 
 TAM  HE ES        6 2 20.53                             129   -0.02 9  157 106 
 SPBC HZ EP        6 1 59.76                             128    0.00 9  165 218 
 SPBC HE ES        6 2 21.34                             128   -0.59 9  165 218 
 SPBC HZ I         6 2 28.41        35.8 0.22            127            165 218 
 ZAR  HZ EP        6 2  4.05                             122    0.75 9  201 291 
 ZAR  HE ES        6 2 28.95                             122    0.72 9  201 291 
 ZAR  HZ I         6 2 34.32        30.0 0.30            122            201 291 
 NOR  HZ EP        6 2  7.24                             118    0.27 8  236 234 
 NOR  HE ES        6 2 34.58                             118   -0.18 8  236 234 
 NOR  HZ I         6 2 42.07        17.2 0.38            117            236 234 
 SML  HZ EP        6 2  6.84                             117   -0.53 8  240 335 
 SML  HE ES        6 2 35.07                             117   -0.41 8  240 335 
 SML  HZ I         6 2 38.32        32.4 0.10            118            240 335 
 CHI  HZ EP        6 2  9.08                             116   -0.10 8  252 195 
 CHI  HN ES        6 2 39.12                             116    0.42 8  252 195 
 CHI  HZ I         6 2 45.10         9.9 0.32            117            252 195 
 ROSC BZ EP   4    6 2 10.89                             116    1.37 0  255 210 
 ROSC BE ES   4    6 2 42.30                             116    2.99 0  255 210 
 ROSC BZ I         6 2 47.89        23.1 0.40            116            255 210 
 HEL  HZ EP   4    6 2 13.11                             114    1.79 0  272 255 
 HEL  HE ES        6 2 43.11                             114    0.60 8  272 255 
 HEL  HZ I         6 2 49.40        12.5 0.36            114            272 255 
 URE  HZ EP        6 2 12.40                             113    0.45 7  281 291 
 URE  HE ES   4    6 2 41.80                             113   -1.83 0  281 291 
 VIL  SZ EP        6 2 14.59                             111   -0.37 7  306 191 
 VIL  SN ES   4    6 2 47.96                             111   -1.02 0  306 191 
 ELA  HZ EP   4    6 2 21.12                             110    2.94 0  330 229 
 ELA  HN ES   4    6 2 53.68                             110   -1.04 0  330 229 
 ELA  HZ I         6 3  7.02         6.7 0.40            110            330 229 
 CBOC HZ EP   4    6 2 19.24                             109    1.16 0  333 251 
 CBOC HE ES        6 2 54.02                             109   -0.52 7  333 251 
 CBOC HZ I         6 3  6.17         3.4 0.64            109            333 251 
 ARGC HZ EP        6 2 20.87                             108    0.44 6  355 340 
 ARGC HN ES        6 2 58.85                             108    0.12 6  355 340 
 ARGC HZ I         6 3  6.97         3.6 0.26            109            355 340 
 PRA  HZ EP        6 2 24.52                             106   -0.49 6  394 209 
 PRA  HN ES        6 3  7.08                             106    0.20 6  394 209 
 PRA  HZ I         6 3 11.56        10.3 0.48            106            394 209 
 ORTC HZ EP        6 2 25.69                             106    0.32 6  397 216 
 ORTC HN ES   4    6 3  8.59                             106    1.07 0  397 216 
 ORTC HZ I         6 3 15.00         8.2 0.50            106            397 216 
 SJC  HZ EP   4    6 2 23.87                             105   -2.48 0  406 327 
 SJC  HN ES   4    6 3  5.69                             105   -3.58 0  406 327 
 CRJC HZ EP   4    6 2 30.30                             103   -3.04 0  464   4 
 CRJC HN ES   4    6 3 15.57                             103   -6.14 0  464   4 
 CRJC HZ I         6 3 19.87         7.0 0.44            104            464   4 
                                                                                
