 2014  7 9 0428  8.8 L   6.705 -73.145141.3  RSN  6 0.5 1.6LRSN                1
 GAP=156        1.35       7.5     6.5  9.2  0.5581E+01 -0.6322E+01  0.1695E+01E
 Epicentro: VILLANUEVA - SANTANDER                                             3
 ACTION:UPD 15-03-16 20:42 OP:nd   STATUS:               ID:20140709042808 L   I
 OLDACT:UP  14-07-10 09:34 OP:SPQ  STATUS:               ID:20140709042808 L   3
 OLDACT:DUP 14-07-09 18:05 OP:stll STATUS:               ID:20140709041813d    3
 2014-07-09-0418-09M.COL___265                                                 6
 STAT SP IPHASW D HRMM SECON CODA AMPLIT PERI AZIMU VELO AIN AR TRES W  DIS CAZ7
 BAR2 SZ EP        428 27.72                             174    0.0410 13.1 198 
 BAR2 SZ ES        428 42.61                             174    0.1710 13.1 198 
 BAR2 SZ I         428 44.26        10.6 0.26            171           13.1 198 
 BRR  HZ EP        428 29.65                             150   -0.1110 76.8 305 
 BRR  HE ES        428 46.66                             150    0.5210 76.8 305 
 BRR  HZ I         428 49.99         5.4 0.24            151           76.8 305 
 RUS  HZ EP        428 32.12                             146    0.7910 90.1 176 
 RUS  HN ES        428 48.40                             146   -0.5310 90.1 176 
 RUS  HZ I         428 51.78         5.2 0.50            146           90.1 176 
 PTB  HZ EP        428 35.11                             131   -0.11 9  146 263 
 PTB  HN ES        428 54.84                             131   -1.01 9  146 263 
 TAM  HZ EP        428 35.18                             130   -0.68 9  153 101 
 SPBC HZ EP        428 36.64                             129    0.48 9  155 221 
 SPBC HN ES        428 57.85                             129    0.32 9  155 221 
 SPBC HZ I         429  3.66        11.7 0.16            130            155 221 
 SOCV BZ EP   4    428 49.84                             111   -2.43 0  307  55 
 SOCV BN ES   4    429 20.65                             111   -5.55 0  307  55 
                                                                                
