 2017  3 9 0339 46.4 L   6.791 -73.190148.0  RSN  7 0.3 1.4LRSN                1
 GAP=163        0.82       5.2     4.2  6.2  0.1983E+01 -0.3669E+01 -0.2171E+00E
 Epicentro: ZAPATOCA - SANTANDER                                               3
 ACTION:UPD 17-05-25 18:38 OP:jn   STATUS:               ID:20170309033946 L   I
 OLDACT:UP  17-03-09 15:20 OP:and  STATUS:               ID:20170309033742     3
 OLDACT:UP  17-03-09 15:19 OP:and  STATUS:               ID:20170309033742     3
 OLDACT:UP  17-03-09 15:19 OP:and  STATUS:               ID:20170309033742     3
 OLDACT:UP  17-03-09 15:18 OP:and  STATUS:               ID:20170309033742     3
 OLDACT:REG 17-03-09 12:35 OP:and  STATUS:               ID:20170309033742     3
 2017-03-09-0338-00M.COL___403                                                 6
 STAT SP IPHASW D HRMM SECON CODA AMPLIT PERI AZIMU VELO AIN AR TRES W  DIS CAZ7
 BAR2 EZ EP        340  6.19                             171   -0.0510 22.0 178 
 BAR2 EZ ES        340 21.26                             171   -0.4810 22.0 178 
 BAR2 EZ I         340 23.58         7.3 0.25            163           22.0 178 
 BRR  HZ EP   2    340  7.90                             154    0.35 5 67.4 301 
 BRR  HN ES        340 24.55                             154    0.4710 67.4 301 
 RUS  HZ EP   2    340 10.46                             145    0.16 5  100 173 
 RUS  HN ES        340 29.47                             145    0.5010  100 173 
 RUS  HZ I         340 29.79         3.8 0.24            139            100 173 
 PTB  HZ EP        340 12.73                             134   -0.34 9  143 259 
 PTB  HN ES        340 33.81                             134   -0.09 9  143 259 
 PTB  HZ I         340 35.81         2.6 0.16            129            143 259 
 SPBC HZ EP   2    340 15.28                             131    0.60 5  159 218 
 SPBC HN ES        340 36.57                             131   -0.19 9  159 218 
 SPBC HZ I         340 44.08         3.3 0.23            125            159 218 
 TAM  HZ IP     D  340 14.47                             130   -0.17 9  160 104 
 NOR  HN ES   4    340 53.06                             120    3.73 0  230 234 
 NOR  HZ I         340 57.84         2.2 0.20            116            230 234 
                                                                                
