 2013  2 9 0055 21.0 L   6.707 -73.198154.7  RSN  4 0.2 1.5LRSN                1
 GAP=134        0.53       7.8     5.9  9.6 -0.1682E+02 -0.3263E+02  0.4478E+02E
 Epicentro: VILLANUEVA - SANTANDER                                             3
 ACTION:UPD 13-03-12 09:31 OP:ep   STATUS:               ID:20130209005521 L   I
 2013-02-09-0050-00M.COL___240                                                 6
 STAT SP IPHASW D HRMM SECON CODA AMPLIT PERI AZIMU VELO AIN AR TRES W  DIS CAZ7
 BRR  HZ EP   1    055 43.43                             154    0.23 7 72.1 308 
 BRR  HN ES        056  0.60                             154    0.1110 72.1 308 
 BRR  HN I         056  0.90        14.9 0.22            158           72.1 308 
 PAM  SZ EP   1    055 44.55                             149   -0.35 7 89.0  38 
 PAM  SN I         056  5.04         3.7 0.50            131           89.0  38 
 RUS  HZ EP   1    055 45.13                             148    0.11 7 90.9 172 
 RUS  HN I         056  5.05         3.9 0.30            123           90.9 172 
 PTB  HZ EP   1    055 48.25                             135    0.15 7  140 263 
 PTB  HN ES   1    056  8.86                             135   -0.36 7  140 263 
 PTB  HN I         056  9.40         3.6 0.30            143            140 263 
                                                                                
