 2011  3 9 0659 44.7 L   6.762 -73.125129.8  RSN  5 0.3 1.5LRSN                1
 GAP=161        0.65       3.9     9.9  7.2 -0.1388E+02  0.2591E+02 -0.5237E+01E
 Epicentro: LOS SANTOS - SANTANDER                                             3
 ACTION:UP  11-06-16 14:32 OP:jfem STATUS:               ID:20110309065944 L   I
 2011-03-09-0657-39S.COL___135                                                 6
 STAT SP IPHASW D HRMM SECON CODA AMPLIT PERI AZIMU VELO SNR AR TRES W  DIS CAZ7
 BAR2 SZ EP   1    7 0  2.45                             171     0.1 7   20 199 
 BAR2 SZ ES   1    7 0 16.08                             171     0.0 7   20 199 
 BAR2 SZ I         7 0 20.71        14.2 0.46                            20 199 
 RUS  HZ EP   1    7 0  6.35                             141    -0.2 7   96 177 
 RUS  HZ I         7 0 26.65         3.0 0.14                            96 177 
 GRA  SZ EP   1    7 0  9.20                             132     0.3 7  129  16 
 GRA  SZ ES   1    7 0 27.92                             132     0.2 7  129  16 
 GRA  SZ I         7 0 30.08         4.9 0.42                           129  16 
 OCA  SZ EP   1    7 0 11.84                             125    -0.4 7  165 353 
 OCA  SZ ES   1    7 0 33.55                             125    -0.2 7  165 353 
 OCA  SZ I         7 0 36.01         6.5 0.24                           165 353 
 HEL  HZ EP   1    7 0 24.65                             111     0.4 6  273 257 
 HEL  HZ I         7 1  2.86         1.9 0.22                           273 257 
                                                                                
