 2010 12 9 0442 38.3 L   6.762 -73.054143.4  RSN  8 0.3 1.5LRSN                1
 GAP=185        0.51       4.2    10.2  6.2 -0.1781E+02  0.5337E+01 -0.1974E+00E
 Epicentro: LOS SANTOS - SANTANDER                                             3
 ACTION:UP  11-01-14 15:23 OP:pat  STATUS:               ID:20101209044238 L   I
 2010-12-09-0440-55S.COL___135                                                 6
 STAT SP IPHASW D HRMM SECON CODA AMPLIT PERI AZIMU VELO SNR AR TRES W  DIS CAZ7
 BAR2 SZ EP   2    442 57.20                             170    -0.4 5   24 217 
 BAR2 SZ ES   2    443 12.68                             170    -0.1 5   24 217 
 BAR2 SZ I         443 16.07         7.4 0.47                            24 217 
 BTL  SZ EP        442 57.81                             168     0.010   29 306 
 BTL  SZ ES   2    443 12.85                             168    -0.1 5   29 306 
 GIR2 SZ EP   3    442 57.90                             164     0.0 2   38 336 
 GUE  SZ EP   2    443  2.92                             138    -0.1 5  119   7 
 GRA  SZ EP   2    443  4.13                             136     0.7 5  127  13 
 GRA  SZ I         443 29.90         3.1 0.36                           127  13 
 OCA  SZ EP   2    443  6.53                             128    -0.4 5  166 350 
 OCA  SZ ES   2    443 29.50                             128     0.2 5  166 350 
 OCA  SZ I         443 34.87         3.8 0.25                           166 350 
 CHI  HZ EP   2    443 15.63                             117    -0.1 4  248 198 
 CHI  HE ES   2    443 45.37                             117     0.4 4  248 198 
 CHI  HZ I         443 54.64         2.2 0.39                           248 198 
 HEL  HZ EP   2    443 18.99                             113    -0.4 4  281 257 
 HEL  HE ES   3    443 52.21                             113     0.8 2  281 257 
 HEL  HZ I         443 56.54         2.2 0.45                           281 257 
                                                                                
