 2014  6 9 0228 27.4 L   6.802 -73.129148.8  RSN 14 0.5 1.9LRSN                1
 GAP=185        1.01       3.0     4.7  6.2 -0.2124E+01  0.9327E+01 -0.2777E+01E
 Epicentro: LOS SANTOS - SANTANDER                                             3
 ACTION:UPD 14-07-01 22:52 OP:nd   STATUS:               ID:20140609022827 L   I
 OLDACT:REG 14-06-09 13:01 OP:fm   STATUS:               ID:20140609021820     3
 2014-06-09-0218-20M.COL___256                                                 6
 STAT SP IPHASW D HRMM SECON CODA AMPLIT PERI AZIMU VELO AIN AR TRES W  DIS CAZ7
 BAR2 SZ EP        228 47.40                             171   -0.0110 24.0 194 
 BAR2 SZ ES        229  3.34                             171    0.3210 24.0 194 
 BAR2 SZ I         229  5.56        10.2 0.32            168           24.0 194 
 RUS  HZ EP        228 51.65                             145    0.1910  101 177 
 RUS  HN ES        229  9.73                             145   -0.5010  101 177 
 RUS  HZ I         229 12.93         4.7 0.34            147            101 177 
 PTB  HZ EP        228 54.06                             132   -0.73 9  150 259 
 PTB  HN ES        229 15.50                             132   -0.65 9  150 259 
 PTB  HZ I         229 21.17        13.1 0.42            132            150 259 
 OCA  HZ EP        228 55.96                             130    0.01 9  160 352 
 OCA  HN ES        229 18.61                             130    0.40 9  160 352 
 OCA  HZ I         229 22.71         7.2 0.24            133            160 352 
 SPBC HZ EP        228 56.55                             130    0.28 9  165 219 
 SPBC HN ES        229 18.88                             130    0.10 9  165 219 
 SPBC HZ I         229 25.51         9.5 0.18            130            165 219 
 ZAR  HN E         227  3.03                                            206 292 
 ZAR  HZ EP        229  0.23                             123    0.01 8  206 292 
 ZAR  HE ES        229 26.19                             123    0.38 8  206 292 
 ZAR  HZ I         229 28.66        10.4 0.10            123            206 292 
 NOR  HZ EP        229  3.11                             119   -0.38 8  236 235 
 NOR  HE ES   4    229 29.66                             119   -1.98 0  236 235 
 NOR  HZ I         229 38.63         5.8 0.20            120            236 235 
 SML  HZ EP        229  4.12                             118   -0.14 8  244 335 
 SML  HN ES   1    229 33.21                             118    0.20 6  244 335 
 SML  HZ I         229 40.09        10.7 0.34            120            244 335 
 CHI  HN ES   2    229 35.52                             118    0.57 4  249 196 
 ROSC BZ EP   4    229  7.59                             117    1.77 0  254 211 
 ROSC BN ES   4    229 37.88                             117    2.09 0  254 211 
 ROSC BZ I         229 40.93         8.0 0.40            119            254 211 
 HEL  HZ EP   2    229  8.74                             115    0.76 4  274 256 
 HEL  HN ES   1    229 39.31                             115   -0.32 6  274 256 
 HEL  HZ I         229 45.92         3.5 0.38            116            274 256 
 GUY2CHZ EP        229 10.35                             113   -0.99 7  303 235 
 GUY2CHN ES        229 46.21                             113    0.59 7  303 235 
 GUY2CHZ I         229 52.93         3.3 0.46                           303 235 
 RREF HN ES   1    229 50.70                             111    0.60 5  323 230 
 RREF HZ I         229 55.95         5.2 0.26            113            323 230 
 TOL  SZ EP   1    229 17.33                             110    1.37 5  345 225 
 TOL  SN ES   1    229 54.41                             110    0.58 5  345 225 
 TOL  SZ I         230  0.82         8.1 0.42            111            345 225 
                                                                                
