 2011  4 9 0835 44.3 L   6.778 -73.094140.3  RSN  7 0.4 1.8LRSN                1
 GAP=182        0.81       5.0     7.7  7.5 -0.2013E+02 -0.4501E+01  0.2628E+01E
 Epicentro: LOS SANTOS - SANTANDER                                             3
 ACTION:UP  11-06-22 15:29 OP:REBC STATUS:               ID:20110409083544 L   I
 2011-04-09-0832-16S.COL___138                                                 6
 STAT SP IPHASW D HRMM SECON CODA AMPLIT PERI AZIMU VELO SNR AR TRES W  DIS CAZ7
 BAR2 SZ EP        836  3.34                             170     0.110   23 205 
 BAR2 SZ ES   1    836 18.09                             170     0.1 7   23 205 
 BAR2 SZ I         836 19.76        23.0 0.27                            23 205 
 GIR2 SZ EP   1    836  3.54                             165     0.1 7   35 342 
 BRR  HZ EP   1    836  5.24                             149     0.0 7   77 298 
 BRR  HE ES   1    836 21.20                             149    -0.3 7   77 298 
 BRR  HZ I         836 26.82        12.9 0.17                            77 298 
 GRA  SZ EP        836  9.20                             135     0.110  126  15 
 GRA  SZ ES   1    836 27.89                             135    -0.6 7  126  15 
 GRA  SZ I         836 29.98         5.2 0.33                           126  15 
 OCA  SZ EP   1    836 11.93                             128    -0.5 7  163 351 
 OCA  SZ ES   1    836 35.29                             128     0.8 7  163 351 
 OCA  SZ I         836 38.21         8.0 0.22                           163 351 
 NOR  SZ EP   2    836 19.72                             117    -0.3 4  238 236 
 NOR  SE ES   1    836 48.00                             117     0.0 6  238 236 
 CHI  HZ EP   2    836 21.60                             116     0.0 4  248 197 
 CHI  HZ I         836 58.73         3.0 0.56                           248 197 
                                                                                
