 2011  6 9 0151 22.1 L   6.817 -73.087141.2  RSN  5 0.2 1.7LRSN                1
 GAP=162        0.48       3.5     7.4  5.9 -0.2857E+01 -0.1257E+02 -0.4843E+01E
 Epicentro: LOS SANTOS - SANTANDER                                             3
 ACTION:UP  11-07-14 19:04 OP:ep   STATUS:               ID:20110609015122 L   I
 2011-06-09-0149-57S.COL___121                                                 6
 STAT SP IPHASW D HRMM SECON CODA AMPLIT PERI AZIMU VELO SNR AR TRES W  DIS CAZ7
 BAR2 SZ EP   1    151 41.05                             169    -0.2 7   27 203 
 BAR2 SZ ES   1    151 56.16                             169    -0.1 7   27 203 
 BAR2 SZ I         151 57.74        19.6 0.23                            27 203 
 BRR  HZ EP   1    151 42.85                             150    -0.2 7   76 295 
 BRR  HZ I         151 43.11        22.1 0.14                            76 295 
 BRR  HE ES   2    151 59.75                             150     0.3 5   76 295 
 RUS  HZ EP   1    151 45.63                             142     0.1 7  102 180 
 RUS  HN ES   2    152  3.97                             142     0.1 5  102 180 
 RUS  HZ I         152  4.46         6.2 0.23                           102 180 
 BRI  SZ EP   1    151 45.52                             141     0.2 7  105  18 
 BRI  SZ I         151 49.59         5.1 0.42                           105  18 
 GRA  SZ EP   1    151 46.77                             137     0.1 7  122  15 
 GRA  SZ I         151 47.93         4.7 0.35                           122  15 
 GRA  SZ ES   2    152  5.62                             137    -0.2 5  122  15 
                                                                                
