 2011  7 9 0514  6.0 L   6.684 -73.094146.9  RSN  4 0.3 1.3LRSN                1
 GAP=166        0.67       4.7     8.9 10.6  0.7155E-01 -0.2586E+02 -0.1469E+02E
 Epicentro: JORDAN - SANTANDER                                                 3
 *BAR2-BRR-RUS-GRA                                                             3
 ACTION:UPD 12-07-25 13:59 OP:epov STATUS:               ID:20110709051258 L   I
 2011-07-09-0512-58S.COL___139                                                 6
 STAT SP IPHASW D HRMM SECON CODA AMPLIT PERI AZIMU VELO AIN AR TRES W  DIS CAZ7
 BAR2 SZ EP   1    514 25.11                             174   -0.51 7 14.1 224 
 BAR2 SZ I         514 25.97         4.8 0.21                          14.1 224 
 BRR  HZ EP   1    514 27.84                             149   -0.12 7 82.7 304 
 BRR  HZ I         514 29.60         4.6 0.13                          82.7 304 
 BRR  HN ES   1    514 45.23                             149    0.15 7 82.7 304 
 RUS  HN ES   1    514 47.08                             148    0.19 7 87.6 179 
 RUS  HZ I         514 48.46         1.9 0.34                          87.6 179 
 GRA  SZ EP   1    514 32.79                             135    0.53 7  137  14 
 GRA  SZ ES   1    514 52.54                             135   -0.21 7  137  14 
 GRA  SZ I         514 53.96         2.2 0.42                           137  14 
                                                                                
