 2015 12 9 0325 11.0 L   6.783 -73.147144.8  RSN 10 0.4 1.7LRSN                1
 GAP=137        0.98       2.9     4.0  5.8 -0.1993E+01  0.5908E+01 -0.2609E+01E
 Epicentro: LOS SANTOS - SANTANDER                                             3
 ACTION:UPD 16-02-04 15:03 OP:cam  STATUS:               ID:20151209032511 L   I
 OLDACT:UP  15-12-09 16:12 OP:mh   STATUS:               ID:20151209031749     3
 OLDACT:REG 15-12-09 12:39 OP:mh   STATUS:               ID:20151209031749     3
 2015-12-09-0317-49M.COL___322                                                 6
 STAT SP IPHASW D HRMM SECON CODA AMPLIT PERI AZIMU VELO AIN AR TRES W  DIS CAZ7
 BAR2 EZ EP   1    325 30.51                             171    0.07 7 21.5 190 
 BAR2 EZ ES        325 45.28                             171   -0.3510 21.5 190 
 BAR2 EZ I         325 47.05        18.0 0.19            167           21.5 190 
 BRR  HZ EP   1    325 32.24                             152    0.19 7 71.9 300 
 BRR  HN ES        325 49.23                             152    0.7410 71.9 300 
 BRR  HZ I         325 50.04         7.6 0.12            147           71.9 300 
 PAM  EZ EP        325 33.31                             150    0.1510 78.9  39 
 PAM  EN ES        325 50.36                             150   -0.1210 78.9  39 
 PAM  EZ I         325 52.31         6.5 0.48            147           78.9  39 
 RUS  HZ EP        325 34.51                             144    0.0210 98.8 176 
 RUS  HN ES        325 52.98                             144    0.1510 98.8 176 
 RUS  HZ I         325 54.00         6.4 0.30            138           98.8 176 
 PTB  HZ EP   1    325 37.08                             132   -0.72 7  147 260 
 PTB  HN ES        325 58.21                             132   -0.53 9  147 260 
 PTB  HZ I         326  2.50         4.1 0.14            126            147 260 
 OCA  HZ EP        325 39.14                             129   -0.23 9  162 353 
 OCA  HN ES        326  1.01                             129   -0.51 9  162 353 
 SPBC HZ EP        325 39.33                             129    0.09 9  162 219 
 SPBC HN ES        326  1.36                             129    0.07 9  162 219 
 SPBC HZ I         326  3.63        10.8 0.20            123            162 219 
 ZAR  HZ EP        325 44.22                             122    0.82 9  205 293 
 ZAR  HN ES        326  8.41                             122   -0.29 9  205 293 
 ZAR  HZ I         326 16.52         4.6 0.44            117            205 293 
 NOR  HE ES        326 14.23                             118    0.00 8  233 235 
 NOR  HZ I         326 15.34         4.5 0.14            113            233 235 
 SML  HZ EP   1    325 47.07                             117   -0.64 6  245 336 
 SML  HN ES        326 16.98                             117    0.62 8  245 336 
 SML  HZ I         326 23.71         4.9 0.24            112            245 336 
                                                                                
