 2013 12 9 0217 34.4 L   5.977 -73.776113.5  RSN  4 0.5 1.0LRSN                1
 GAP=147        0.97       7.1     3.9  9.3  0.6913E+00  0.4210E+01 -0.3734E+01E
 Epicentro: GUAVATA - SANTANDER                                                3
 ACTION:UPD 14-01-13 10:16 OP:ep   STATUS:               ID:20131209021734 L   I
 OLDACT:REG 13-12-09 06:14 OP:jn   STATUS:               ID:20131209021000     3
 2013-12-09-0210-00M.COL___285                                                 6
 STAT SP IPHASW D HRMM SECON CODA AMPLIT PERI AZIMU VELO AIN AR TRES W  DIS CAZ7
 SPBC HN ES        218  3.33                             155   -0.5010 48.6 222 
 RUS  HZ EP        217 53.15                             143   -0.1410 77.3  97 
 RUS  HN ES        218  8.25                             143    0.2210 77.3  97 
 RUS  HZ I         218  9.21         0.9 0.40            144           77.3  97 
 PTB  HZ EP   2    217 53.02                             135   -1.21 5 97.7 310 
 PTB  HN ES        218  9.94                             135    0.2410 97.7 310 
 PTB  HZ I         218 10.80         1.4 0.16            136           97.7 310 
 NOR  HZ EP        217 57.65                             127    0.4810  129 249 
 NOR  HN ES        218 15.00                             127    0.0610  129 249 
 NOR  HZ I         218 16.72         7.3 0.32            128            129 249 
                                                                                
