 2012 12 9 0856 38.7 L   6.811 -73.163146.3  RSN 10 0.4 1.8LRSN                1
 GAP=191        0.75       3.4     4.9  5.6 -0.5506E+00  0.7825E+01  0.1284E+01E
 Epicentro: LOS SANTOS - SANTANDER                                             3
 ACTION:UPD 13-01-04 14:26 OP:ep   STATUS:               ID:20121209085638 L   I
 2012-12-09-0850-00M.COL___243                                                 6
 STAT SP IPHASW D HRMM SECON CODA AMPLIT PERI AZIMU VELO AIN AR TRES W  DIS CAZ7
 BAR2 SZ EP   1    856 58.40                             170    0.01 7 24.3 185 
 BAR2 SZ ES   1    857 13.21                             170   -0.56 7 24.3 185 
 BAR2 SZ I         857 16.31        15.4 0.42                          24.3 185 
 GIR2 SZ EP   1    856 58.28                             168   -0.10 7 29.8 354 
 GIR2 SZ ES   1    857 14.56                             168    0.82 7 29.8 354 
 GIR2 SZ I         857 15.88         5.2 0.40                          29.8 354 
 PTB  HZ EP   1    857  5.09                             132   -0.45 7  146 258 
 PTB  HN ES   1    857 26.25                             132   -0.24 7  146 258 
 PTB  HZ I         857 28.39         8.1 0.18                           146 258 
 OCA  HZ EP   1    857  7.32                             130    0.42 7  159 354 
 ZAR  HZ EP   1    857 10.85                             123   -0.08 6  202 292 
 ZAR  HN ES   1    857 36.34                             123    0.26 6  202 292 
 ZAR  HZ I         857 41.97         6.0 0.36                           202 292 
 SML  HZ EP   1    857 14.77                             118   -0.36 6  242 336 
 SML  HN ES   1    857 43.00                             118   -0.56 6  242 336 
 SML  HZ I         857 46.69         6.6 0.10                           242 336 
 CHI  HZ EP   1    857 16.67                             117    0.19 6  249 195 
 CHI  HN ES   1    857 45.79                             117   -0.17 6  249 195 
 CHI  HZ I         857 55.45         2.2 0.32                           249 195 
 HEL  HZ EP   1    857 19.56                             115    0.81 6  270 255 
 HEL  HN ES   1    857 50.05                             115    0.05 6  270 255 
 HEL  HZ I         857 56.84         3.3 0.40                           270 255 
 URE  HZ I         858  3.25         3.6 0.18                           282 292 
 PRA  HZ EP   1    857 32.00                             107   -0.23 4  392 209 
 PRA  HE ES   1    858 14.31                             107    0.31 4  392 209 
 PRA  HZ I         858 18.14         2.6 0.66                           392 209 
                                                                                
