 2016  7 9 0017 20.9 L   6.845 -73.148142.5  RSN 22 0.6 2.8LRSN                1
 GAP=111        1.38       4.1     3.6  7.2  0.1894E+00  0.9309E+01  0.3431E+01E
 Epicentro: LOS SANTOS - SANTANDER                                             3
 ACTION:UPD 17-03-29 16:48 OP:lp   STATUS:               ID:20160709001720 L   I
 OLDACT:UP  16-07-15 05:37 OP:edw  STATUS:               ID:20160709001720 L   3
 OLDACT:UP  16-07-09 14:56 OP:edw  STATUS:               ID:20160709000743     3
 OLDACT:UP  16-07-09 14:53 OP:edw  STATUS:               ID:20160709000743     3
 OLDACT:REG 16-07-09 12:19 OP:edw  STATUS:               ID:20160709000743     3
 2016-07-09-0007-43M.COL___340                                                 6
 STAT SP IPHASW D HRMM SECON CODA AMPLIT PERI AZIMU VELO AIN AR TRES W  DIS CAZ7
 BAR2 EZ IP     C  017 40.49                             168    0.2510 28.2 188 
 BAR2 EZ ES        017 55.57                             168    0.2310 28.2 188 
 BAR2 EZ I         017 58.14       164.0 0.20            165           28.2 188 
 PAM  EZ EP        017 43.23                             151    0.6810 73.8  42 
 PAM  EN ES        017 58.91                             151   -0.5310 73.8  42 
 PAM  EZ I         018  1.19        38.1 0.20            156           73.8  42 
 RUS  HZ IP     C  017 44.31        62.2 0.24            142   -0.3910  106 176 
 RUS  HE ES        018  2.75                             142   -0.5210  106 176 
 RUS  HZ I         018  4.30        62.2 0.24            141            106 176 
 PTB  HZ EP        017 47.06                             131   -0.61 9  149 257 
 PTB  HN ES        018  8.49                             131   -0.06 9  149 257 
 PTB  HZ I         018 10.12        63.9 0.14            130            149 257 
 TAM  HZ IP     D  017 48.71                             129    0.24 9  157 107 
 TAM  HN ES        018 10.43                             129    0.45 9  157 107 
 TAM  HZ I         018 11.99        35.5 0.28            132            157 107 
 SPBC HZ EP        017 49.45                             128   -0.05 9  167 218 
 SPBC HN ES        018 11.35                             128   -0.47 9  167 218 
 SPBC HZ I         018 15.46       115.0 0.28            127            167 218 
 ZAR  HZ EP        017 53.32                             122    0.41 9  202 291 
 ZAR  HN ES        018 18.96                             122    1.07 9  202 291 
 ZAR  HZ I         018 24.88        55.6 0.22            122            202 291 
 NOR  HZ EP        017 56.06                             117   -0.67 8  237 233 
 NOR  HN ES        018 24.61                             117   -0.07 8  237 233 
 NOR  HZ I         018 30.74        48.4 0.36            117            237 233 
 CHI  HZ EP        017 58.63                             116   -0.30 8  253 195 
 CHI  HN ES        018 28.70                             116    0.10 8  253 195 
 CHI  HZ I         018 33.45        22.4 0.22            116            253 195 
 ROSC BZ EP        018  0.18                             115    0.89 8  257 210 
 ROSC BN ES        018 29.90                             115    0.65 8  257 210 
 ROSC BZ I         018 38.34        80.4 0.35            116            257 210 
 HEL  HZ EP        018  1.33                             114    0.28 8  273 255 
 HEL  HE ES        018 33.25                             114    0.87 8  273 255 
 HEL  HZ I         018 39.96        33.6 0.24            114            273 255 
 URE  HZ EP        018  1.21                             113   -0.36 7  282 291 
 URE  HN ES        018 31.41                             113   -1.89 7  282 291 
 URE  HZ I         018 37.94        32.4 0.14            113            282 291 
 GUY2CHZ EP        018  4.41                             111   -0.25 7  304 234 
 GUY2CHE ES        018 39.69                             111    0.90 7  304 234 
 GUY2CHZ I         018 46.88        49.1 0.38                           304 234 
 VIL  SZ EP        018  4.08                             111   -0.63 7  308 191 
 VIL  SN ES        018 38.40                             111   -0.49 7  308 191 
 PTGC HZ EP   4    018  3.45                             111   -1.70 0  313 159 
 PTGC HN ES   4    018 36.66                             111   -3.01 0  313 159 
 ELA  HZ EP   4    018  9.41                             109    1.45 0  332 229 
 ELA  HN ES   4    018 45.36                             109    0.69 0  332 229 
 ELA  HZ I         018 53.35        29.2 0.38            110            332 229 
 CBOC HZ EP   4    018  8.58                             109    0.76 0  335 251 
 CBOC HN ES   4    018 45.01                             109    0.58 0  335 251 
 CBOC HZ I         018 59.23        11.3 0.38            109            335 251 
 DBB  SZ EP   4    018  8.07                             109   -0.10 0  339 273 
 DBB  SZ ES        018 45.26                             109    0.22 7  339 273 
 DBB  SZ I         018 47.18        64.0 0.58            109            339 273 
 ANIL HZ EP   4    018 10.93                             108   -0.04 0  361 224 
 ANIL HE ES   4    018 52.47                             108    2.45 0  361 224 
 ANIL HZ I         018 58.39        59.6 0.38            108            361 224 
 PRA  HZ EP   4    018 13.87                             106   -0.93 0  396 209 
 PRA  HE ES   4    018 56.50                             106   -0.34 0  396 209 
 PRA  HZ I         019  2.97        40.4 0.26            106            396 209 
 ORTC HZ EP   4    018 14.94                             106   -0.22 0  399 216 
 ORTC HN ES   4    018 57.97                             106    0.48 0  399 216 
 ORTC HZ I         019  3.57        23.3 0.44            106            399 216 
 SJC  HZ EP   4    018 14.81                             105   -1.03 0  405 327 
 SJC  HN ES   4    018 55.87                             105   -2.83 0  405 327 
 SJC  HZ I         019  0.60         5.0 0.28            106            405 327 
 PAL  HZ EP   4    018 16.08                             105   -0.14 0  408 238 
 PAL  HN ES   4    018 59.41                             105    0.03 0  408 238 
 CRJC HZ EP   4    018 20.99                             103   -1.72 0  463   4 
 CRJC HN ES   4    019  8.85                             103   -2.08 0  463   4 
 CRJC HZ I         019 10.86         8.6 0.44            104            463   4 
 YOT  HZ EP   4    018 22.99                             102   -1.23 0  475 228 
 YOT  HN ES   4    019 15.93                             102    2.32 0  475 228 
 MACC HZ EP   4    018 27.40                             101   -2.71 0  525 189 
 MACC HE ES   4    019 20.27                             101   -3.83 0  525 189 
                                                                                
