 2010  9 9 0811 23.5 L   6.739 -73.100151.3  RSN  5 0.3 1.7LRSN                1
 GAP=164        0.62       6.0    11.4 14.2  0.2166E+02 -0.9127E+02 -0.4464E+02E
 Epicentro: JORDAN - SANTANDER                                                 3
 ACTION:UP  11-02-18 11:01 OP:tino STATUS:               ID:20100909081123 L   I
 2010-09-09-0806-07S.COL___120                                                 6
 STAT SP IPHASW D HRMM SECON CODA AMPLIT PERI AZIMU VELO SNR AR TRES W  DIS CAZ7
 BAR2 SZ EP        811 43.68                             172     0.010   19 210 
 BAR2 SZ I         812  1.69        13.7 0.41                            19 210 
 BRR  HZ EP        811 45.63                             151    -0.110   79 301 
 BRR  HZ I         812  1.87        30.7 0.66                            79 301 
 BRR  HN ES   2    812  3.16                             151     0.1 5   79 301 
 RUS  HZ EP   1    811 47.52                             147     0.2 7   94 179 
 RUS  HN ES   2    812  5.73                             147    -0.2 5   94 179 
 RUS  HZ I         812  7.55         3.8 0.40                            94 179 
 GUE  SZ EP   2    811 49.97                             139     0.8 5  122   9 
 GRA  SZ EP        811 49.49                             137    -0.210  131  14 
 GRA  SZ I         812 12.32         4.8 0.38                           131  14 
                                                                                
