 2014  2 9 0118  9.7 L   6.348 -73.601105.5  RSN 17 0.4 2.1LRSN                1
 GAP= 53        0.87       2.4     2.4  5.2 -0.1716E+01  0.2927E+01  0.1447E+01E
 Epicentro: SANTA HELENA DEL OPON - SANTANDER                                  3
 ACTION:UPD 14-03-10 08:08 OP:ep   STATUS:               ID:20140209011809 L   I
 OLDACT:UP  14-02-09 09:52 OP:mh   STATUS:               ID:20140209011640     3
 OLDACT:UP  14-02-09 09:51 OP:mh   STATUS:               ID:20140209011640     3
 OLDACT:UP  14-02-09 09:50 OP:mh   STATUS:               ID:20140209011640     3
 OLDACT:UP  14-02-09 09:50 OP:mh   STATUS:               ID:20140209011640     3
 OLDACT:UP  14-02-09 09:34 OP:mh   STATUS:               ID:20140209011640     3
 OLDACT:REG 14-02-09 08:35 OP:mh   STATUS:               ID:20140209011640     3
 2014-02-09-0116-40M.COL___236                                                 6
 STAT SP IPHASW D HRMM SECON CODA AMPLIT PERI AZIMU VELO AIN AR TRES W  DIS CAZ7
 BAR2 SZ IP     C  118 26.22                             151    0.3310 53.6  60 
 BAR2 SZ ES   1    118 39.05                             151    0.56 7 53.6  60 
 BAR2 SZ I         118 40.57       178.6 0.34            142           53.6  60 
 RUS  HZ EP   1    118 27.49                             141   -0.30 7 76.3 131 
 RUS  HN ES   1    118 41.82                             141   -0.05 7 76.3 131 
 RUS  HZ I         118 43.19        15.7 0.16            132           76.3 131 
 BRR  HZ IP     D  118 27.78                             138    0.0110 84.8 352 
 BRR  HN ES   1    118 42.16                             138    0.32 7 84.8 352 
 BRR  HZ I         118 47.78        17.9 0.13            129           84.8 352 
 SPBC HZ EP   1    118 28.36                             135   -0.22 7 93.0 214 
 SPBC HZ I         118 45.18        21.7 0.19            126           93.0 214 
 PTB  HZ EP   1    118 27.98                             134   -0.85 7 97.0 283 
 PTB  HE ES        118 42.96                             134   -0.7510 97.0 283 
 PTB  HZ I         118 45.76        56.6 0.17            126           97.0 283 
 PAM  SZ EP   1    118 34.19                             121   -0.24 7  148  42 
 PAM  SN ES        118 54.00                             121    0.32 9  148  42 
 PAM  SZ I         118 56.45        11.2 0.18            113            148  42 
 NOR  HZ EP        118 35.62                             117   -0.05 9  165 238 
 NOR  HN ES   1    118 56.12                             117    0.23 7  165 238 
 NOR  HZ I         119  0.75        19.0 0.11            110            165 238 
 ZAR  HZ EP        118 38.15                             114    0.04 9  188 312 
 ZAR  HZ I         119  4.65        31.0 0.51            108            188 312 
 CHI  HZ EP   1    118 38.67                             114   -0.26 7  191 184 
 CHI  HN ES   1    119  1.36                             114   -0.34 7  191 184 
 CHI  HZ I         119  7.53         3.5 0.20            107            191 184 
 TAM  HZ EP     C  118 38.99                             112   -0.57 9  200  87 
 TAM  HZ I         119  1.48        13.9 0.23            106            200  87 
 OCA  HZ EP   1    118 40.95                             111    0.01 6  211   8 
 OCA  HN ES        119  5.14                             111   -0.14 8  211   8 
 OCA  HZ I         119 11.35        12.3 0.14            105            211   8 
 HEL  HZ EP   1    118 41.77                             111    0.25 6  214 265 
 HEL  HN ES        119  6.62                             111    0.31 8  214 265 
 HEL  HZ I         119 10.38         8.3 0.23            105            214 265 
 GUY2CHZ EP   1    118 43.32                             109   -0.34 6  232 238 
 GUY2CHE ES   4    119 11.96                             109    1.84 0  232 238 
 GUY2CHZ I         119 15.44        10.9 0.23                           232 238 
 RREF BZ EP        118 46.54                             107    0.41 8  251 230 
 RREF BN ES   4    119 15.94                             107    1.43 0  251 230 
 RREF BZ I         119 20.61        13.1 0.18            103            251 230 
 URE  HZ EP   4    118 44.78                             106   -2.07 0  264 306 
 URE  HN ES   4    119 13.27                             106   -2.53 0  264 306 
 CBOC HZ EP        118 47.99                             105   -0.04 8  272 259 
 CBOC HN ES        119 18.10                             105    0.21 8  272 259 
 CBOC HZ I         119 22.08         3.0 0.14            101            272 259 
 SML  HZ EP   1    118 48.90                             105    0.63 6  276 349 
 SML  HN ES   2    119 18.43                             105    0.10 4  276 349 
 PRA  HZ EP   4    118 55.55                             101    1.50 0  324 206 
 PRA  HE ES        119 29.65                             101    1.05 7  324 206 
 PRA  HZ I         119 34.05         7.2 0.27             99            324 206 
                                                                                
