 2013  3 9 0659 17.4 L   6.670 -73.198141.9  RSN  4 0.3 1.4LRSN                1
 GAP=218        0.67       6.9     6.3  7.0  0.5606E+01  0.1268E+02  0.3648E+01E
 Epicentro: VILLANUEVA - SANTANDER                                             3
 ACTION:UPD 13-04-09 14:01 OP:ep   STATUS:               ID:20130309065917 L   I
 2013-03-09-0658-49M.COL___198                                                 6
 STAT SP IPHASW D HRMM SECON CODA AMPLIT PERI AZIMU VELO AIN AR TRES W  DIS CAZ7
 BAR2 SZ ES   1    659 50.62                             176   -0.51 7 8.75 168 
 BAR2 SZ I         659 52.91         5.4 0.28            175           8.75 168 
 BRR  HZ EP        659 38.46                             151    0.1310 74.6 310 
 BRR  HN ES        659 54.84                             151    0.1910 74.6 310 
 RUS  HN ES   2    659 57.99                             147    0.70 5 86.9 172 
 PTB  HZ EP        659 43.18                             133   -0.15 9  140 264 
 PTB  HN ES        7 0  3.47                             133   -0.09 9  140 264 
                                                                                
