 2011  9 9 0743 52.3 L   6.802 -73.113141.3  RSN 10 0.2 2.0LRSN                1
 GAP=141        0.37       2.2     2.8  3.6 -0.8626E+00  0.3746E+01  0.8701E-01E
 Epicentro: LOS SANTOS - SANTANDER                                             3
 ACTION:UPD 12-07-13 15:56 OP:ep   STATUS:               ID:20110909074352 L   I
 2011-09-09-0739-12S.COL___169                                                 6
 STAT SP IPHASW D HRMM SECON CODA AMPLIT PERI AZIMU VELO AIN AR TRES W  DIS CAZ7
 BAR2 SZ EP   1    744 11.49                             170    0.05 7 24.4 198 
 BAR2 SZ ES   2    744 26.16                             170   -0.20 5 24.4 198 
 BAR2 SZ I         744 27.70        20.5 0.13                          24.4 198 
 GIR2 SZ EP   2    744 11.52                             167    0.03 5 31.9 344 
 GIR2 SZ ES   2    744 25.95                             167   -0.48 5 31.9 344 
 BRR  HZ EP   1    744 13.34                             151    0.16 7 74.3 297 
 BRR  HN ES   2    744 29.91                             151    0.47 5 74.3 297 
 BRR  HZ I         744 34.56        33.0 0.24                          74.3 297 
 PAM  SZ EP   2    744 14.25                             151    0.33 5 74.9  38 
 PAM  SE ES   2    744 30.85                             151    0.08 5 74.9  38 
 RUS  HZ EP   1    744 15.64                             143    0.00 7  101 178 
 RUS  HN ES   2    744 33.83                             143    0.00 5  101 178 
 RUS  HZ I         744 35.64         6.3 0.36                           101 178 
 OCA  SZ EP   1    744 20.18                             129   -0.14 7  161 352 
 OCA  SZ ES   2    744 42.09                             129   -0.06 5  161 352 
 OCA  SZ I         744 45.14        14.0 0.47                           161 352 
 ZAR  HZ EP   1    744 24.74                             121   -0.09 6  207 292 
 ZAR  HN ES   2    744 49.81                             121   -0.37 4  207 292 
 ZAR  HZ I         744 56.06        12.6 0.33                           207 292 
 NOR  SN ES   2    744 56.14                             117    0.07 4  238 235 
 HEL  HZ EP   2    744 32.64                             113   -0.07 4  276 256 
 HEL  HE ES   2    745  4.77                             113    0.55 4  276 256 
 HEL  HZ I         745 11.29         3.9 0.35                           276 256 
 RREF HZ EP   2    744 38.23                             110   -0.38 3  325 230 
 RREF HN ES   2    745 14.44                             110   -0.27 3  325 230 
 RREF HZ I         745 20.81         3.2 0.24                           325 230 
                                                                                
