 2010  7 9 0108 19.0 L   6.804 -73.046137.7  RSN  7 0.3 1.5LRSN                1
 GAP=167        0.57       3.8     6.6  7.0  0.2292E+01 -0.2760E+02 -0.9365E+01E
 Epicentro: LOS SANTOS - SANTANDER                                             3
 ACTION:UPD 10-12-01 15:16 OP:pat  STATUS:               ID:20100709010819 L   I
 2010-07-09-0105-16S.COL___117                                                 6
 STAT SP IPHASW D HRMM SECON CODA AMPLIT PERI AZIMU VELO AIN AR TRES W  DIS CAZ7
 BAR2 SZ EP   1    1 8 37.67                             168    -0.1 7   28 213 
 BAR2 SZ ES   1    1 8 52.29                             168    -0.1 7   28 213 
 BAR2 SZ I         1 8 53.92         8.1 0.20                            28 213 
 BRR  HZ EP   1    1 8 39.62                             148    -0.3 7   81 295 
 BRR  HZ I         1 8 54.03        12.5 0.39                            81 295 
 BRR  HE ES        1 8 56.27                             148     0.110   81 295 
 RUS  HZ EP   2    1 8 41.81                             142    -0.2 5  101 182 
 RUS  HZ I         1 8 42.96         2.8 0.15                           101 182 
 RUS  HN ES   2    1 9  0.31                             142     0.4 5  101 182 
 BRI  SZ EP   1    1 8 42.24                             141     0.4 7  105  15 
 BRI  SZ I         1 9  5.64         4.1 0.55                           105  15 
 GUE  SZ EP        1 8 42.68                             138    -0.110  114   7 
 GRA  SZ IP        1 8 43.46                             136     0.210  123  13 
 GRA  SZ ES   2    1 9  1.68                             136    -0.5 5  123  13 
 OCA  SZ EP   3    1 8 46.27                             127    -0.6 2  162 349 
 OCA  SZ ES   2    1 9  8.75                             127     0.2 5  162 349 
 OCA  SZ I         1 9 12.53         4.4 0.24                           162 349 
                                                                                
