 2010  1 9 0447 26.6 L   6.810 -73.054145.9  RSN  5 0.4 1.6LRSN                1
 GAP=192        0.71       4.1    31.3  7.7 -0.2745E+02  0.6284E+02 -0.3094E+00E
 Epicentro: LOS SANTOS - SANTANDER                                             3
 ACTION:UP  10-08-24 09:43 OP:vdl  STATUS:               ID:20100109044726 L   I
 2010-01-09-0445-15S.COL___097                                                 6
 STAT SP IPHASW D HRMM SECON CODA AMPLIT PERI AZIMU VELO SNR AR TRES W  DIS CAZ7
 BAR2 SZ EP        447 46.52                             169     0.110   28 211 
 BAR2 SZ ES   2    448  1.49                             169    -0.3 5   28 211 
 GIR2 SZ EP        447 46.68                             167     0.310   34 333 
 GIR2 SZ ES   2    448  2.45                             167     0.7 5   34 333 
 RUS  BZ EP   2    447 50.53                             144     0.1 5  101 182 
 RUS  BN ES   2    448  8.31                             144    -0.7 5  101 182 
 RUS  BZ I         448 10.09         5.1 0.55                           101 182 
 OCA  SZ EP        447 54.72                             130    -0.3 9  161 350 
 OCA  SZ ES   2    448 16.55                             130    -0.6 5  161 350 
 OCA  SZ I         448 24.09         9.4 0.24                           161 350 
 CHI  HZ EP        448  4.69                             117    -0.1 8  252 197 
 CHI  HZ I         448  5.11         1.3 0.16                           252 197 
 CHI  HE ES   2    448 34.47                             117     0.0 4  252 197 
                                                                                
