 2016  1 9 0715 53.4 L   6.831 -73.164149.2  RSN 13 0.5 1.8LRSN                1
 GAP=133        1.23       3.1     5.1  6.5 -0.1182E+01  0.5997E+01 -0.1386E-01E
 Epicentro: LOS SANTOS - SANTANDER                                             3
 ACTION:UPD 16-03-09 23:23 OP:cam  STATUS:               ID:20160109071553 L   I
 OLDACT:DUP 16-01-09 15:33 OP:drio STATUS:               ID:20160109070752d    3
 2016-01-09-0707-50M.COL___270                                                 6
 STAT SP IPHASW D HRMM SECON CODA AMPLIT PERI AZIMU VELO AIN AR TRES W  DIS CAZ7
 BAR2 EZ EP        716 13.53                             169    0.0410 26.4 185 
 BAR2 EZ ES        716 28.41                             169   -0.7610 26.4 185 
 BAR2 EZ I         716 29.47        12.4 0.34            168           26.4 185 
 BRR  HZ EP        716 15.47                             154    0.7510 67.9 297 
 BRR  HE ES        716 32.41                             154    1.0410 67.9 297 
 BRR  HZ I         716 35.19        13.8 0.24            152           67.9 297 
 PAM  EZ EP        716 16.47                             152    0.5810 76.1  42 
 PAM  EN ES        716 33.35                             152   -0.1010 76.1  42 
 PAM  EZ I         716 35.40        21.7 0.50            155           76.1  42 
 RUS  HZ EP        716 17.78                             143    0.0510  104 175 
 RUS  HN ES        716 36.72                             143    0.0110  104 175 
 RUS  HZ I         716 38.15         4.3 0.32            144            104 175 
 PTB  HZ EP        716 20.09                             133   -0.43 9  147 257 
 PTB  HN ES        716 41.33                             133   -0.36 9  147 257 
 PTB  HZ I         716 42.68         5.6 0.18            132            147 257 
 OCA  HZ EP        716 21.56                             131   -0.07 9  157 354 
 OCA  HE ES        716 42.88                             131   -0.78 9  157 354 
 OCA  HZ I         716 46.54        13.7 0.18            132            157 354 
 SPBC HZ EP        716 22.91                             129    0.63 9  165 218 
 SPBC HN ES        716 44.98                             129    0.16 9  165 218 
 SPBC HZ I         716 51.71         7.3 0.26            129            165 218 
 ZAR  HZ EP   4    716 27.85                             123    2.11 0  201 291 
 ZAR  HN ES        716 50.73                             123   -0.25 9  201 291 
 ZAR  HZ I         716 57.91         9.2 0.44            123            201 291 
 SML  HZ EP        716 29.73                             119   -0.05 8  240 335 
 SML  HE ES        716 58.24                             119    0.06 8  240 335 
 SML  HZ I         717  2.84         9.3 0.24            119            240 335 
 CHI  HZ EP        716 30.99                             117   -0.58 8  251 195 
 CHI  HN ES        717  0.90                             117   -0.46 8  251 195 
 CHI  HZ I         717  6.72         2.5 0.44            118            251 195 
 GUY2CHZ EP   4    716 40.25                             113    3.06 0  302 234 
 GUY2CHN ES   4    717 12.49                             113    1.13 0  302 234 
 GUY2CHZ I         717 21.53         1.7 0.28                           302 234 
 PRA  HZ EP   4    716 48.67                             107    1.42 0  394 209 
 PRA  HN ES        717 29.66                             107    0.39 6  394 209 
 PRA  HZ I         717 37.33         2.7 0.38            107            394 209 
 SJC  HZ EP        716 48.07                             106   -0.53 6  405 327 
 SJC  HE ES   4    717 27.80                             106   -3.87 0  405 327 
 SJC  HZ I         717 33.00         1.7 0.50            107            405 327 
                                                                                
