 2012 10 9 0531 35.2 L   6.808 -73.006145.5  RSN  4 0.2 1.4LRSN                1
 GAP=219        0.42       6.3    11.6  5.2  0.5892E+02 -0.1094E+02 -0.3302E+01E
 Epicentro: CEPITA - SANTANDER                                                 3
 ACTION:UPD 12-11-22 17:02 OP:ep   STATUS:               ID:20121009053135 L   I
 2012-10-09-0530-00M.COL___223                                                 6
 STAT SP IPHASW D HRMM SECON CODA AMPLIT PERI AZIMU VELO AIN AR TRES W  DIS CAZ7
 BAR2 SZ ES   1    532 10.16                             167   -0.25 7 30.8 219 
 BAR2 SZ I         532 11.18         7.7 0.22                          30.8 219 
 GIR2 SZ ES   2    532 10.69                             165    0.25 5 36.4 325 
 BRR  HZ EP   1    531 57.24                             148    0.09 7 84.7 293 
 BRR  HZ I         531 58.46         2.6 0.15                          84.7 293 
 BRR  HN ES   1    532 14.24                             148   -0.02 7 84.7 293 
 RUS  HZ EP   1    531 58.89                             143   -0.12 7  102 185 
 RUS  HN ES   1    532 17.77                             143    0.20 7  102 185 
 RUS  HN I         532 18.46         4.9 0.31                           102 185 
                                                                                
