 2013  2 9 0426 24.4 L   6.712 -73.207144.1  RSN  4 0.1 1.4LRSN                1
 GAP=220        0.29       2.7     2.8  3.5  0.3732E+01 -0.1305E+01  0.2986E+00E
 Epicentro: VILLANUEVA - SANTANDER                                             3
 ACTION:UPD 13-03-12 09:31 OP:ep   STATUS:               ID:20130209042624 L   I
 2013-02-09-0420-00M.COL___240                                                 6
 STAT SP IPHASW D HRMM SECON CODA AMPLIT PERI AZIMU VELO AIN AR TRES W  DIS CAZ7
 BAR2 SZ EP        426 43.66                             174   -0.0110 13.6 168 
 BAR2 SZ I         427  1.05         5.7 0.41            172           13.6 168 
 BRR  HZ EP        426 45.38                             152    0.0310 70.8 308 
 BRR  HZ I         426 45.68         7.0 0.23            151           70.8 308 
 BRR  HE ES        427  1.67                             152   -0.0110 70.8 308 
 RUS  HZ EP   1    426 47.43                             146    0.07 7 91.7 171 
 RUS  HN ES   1    427  5.23                             146   -0.04 7 91.7 171 
 RUS  HN I         427  6.61         2.5 0.32            142           91.7 171 
 PTB  HZ EP   1    426 50.37                             133   -0.11 7  139 262 
 PTB  HN ES   1    427 10.89                             133    0.06 7  139 262 
 PTB  HZ I         427 18.82         2.6 0.23            130            139 262 
                                                                                
