 2017  7 9 0503 27.7 L   6.154 -73.745101.8  RSN  8 0.4 1.6LRSN                1
 GAP=123        1.00       3.8     2.6  7.9  0.6404E+00  0.4890E+01  0.1206E+02E
 Epicentro: LANDAZURI - SANTANDER                                              3
 ACTION:UPD 17-08-30 15:31 OP:rebc STATUS:               ID:20170709050327 L   I
 OLDACT:UP  17-07-09 16:27 OP:ar   STATUS:               ID:20170709045648     3
 OLDACT:REG 17-07-09 14:06 OP:ar   STATUS:               ID:20170709045648     3
 2017-07-09-0457-00M.COL___368                                                 6
 STAT SP IPHASW D HRMM SECON CODA AMPLIT PERI AZIMU VELO AIN AR TRES W  DIS CAZ7
 BAR2 EZ EP        5 3 45.11                             139   -0.1010 78.9  52 
 BAR2 EZ ES        5 3 58.92                             139    0.0310 78.9  52 
 BAR2 EZ I         5 3 59.38        33.6 0.26            140           78.9  52 
 PTB  HZ EP        5 3 45.64                             135   -0.1510 89.5 298 
 PTB  HN ES        5 3 59.06                             135   -0.8610 89.5 298 
 PTB  HZ I         5 3 59.52         5.2 0.16            134           89.5 298 
 BRR  HZ EP        5 3 46.87                             130   -0.3310  105   2 
 BRR  HE ES        5 4  3.02                             130    0.5910  105   2 
 BRR  HZ I         5 4  4.12         5.1 0.64            130            105   2 
 NOR  HZ EP        5 3 50.73                             121   -0.04 9  141 242 
 NOR  HN ES        5 4  9.01                             121    0.22 9  141 242 
 NOR  HZ I         5 4 11.22         8.1 0.36            120            141 242 
 YPLC HN EP        5 3 53.95                             115   -0.31 9  173 119 
 YPLC HE ES        5 4 15.42                             115    0.42 9  173 119 
 YPLC HN I         5 4 16.16        11.5 0.34            115            173 119 
 ZAR  HZ EP        5 3 55.87                             112   -0.51 9  192 320 
 ZAR  HE ES        5 4 19.45                             112    0.67 9  192 320 
 ZAR  HZ I         5 4 22.26         5.8 0.28            111            192 320 
 HEL  HZ EP        5 3 57.35                             112   -0.05 9  198 271 
 HEL  HN ES        5 4 20.92                             112    0.32 9  198 271 
 HEL  HZ I         5 4 25.08         3.2 0.20            111            198 271 
 CBOC HZ EP        5 4  3.72                             106    0.14 8  253 263 
 CBOC HN ES        5 4 31.88                             106    0.28 8  253 263 
 CBOC HZ I         5 4 37.23         1.3 0.28            105            253 263 
                                                                                
