 2012  5 9 0723 14.5 L   6.892 -74.120 11.6  RSN  4 0.3 0.9LRSN                1
 GAP=113        0.63       3.5     2.6  7.7 -0.4748E+01 -0.6891E+01  0.1300E+02E
 Epicentro: PUERTO PARRA - SANTANDER                                           3
 ACTION:UP  12-07-05 12:03 OP:pat  STATUS:               ID:20120509072314 L   I
 2012-05-09-0720-00M.COL___192                                                 6
 STAT SP IPHASW D HRMM SECON CODA AMPLIT PERI AZIMU VELO SNR AR TRES W  DIS CAZ7
 BRR  HZ IP     D  723 23.10                              99     0.210   51  62 
 BRR  HN ES   1    723 29.20                              99    -0.3 7   51  62 
 BRR  HZ I         723 30.26         9.6 0.16                            51  62 
 PTB  HZ EP        723 23.33                              99     0.010   54 224 
 PTB  HN ES   2    723 30.20                              99    -0.1 5   54 224 
 ZAR  HZ EP   2    723 31.80                              94     0.7 5  105 309 
 ZAR  HN ES   2    723 43.51                              94    -0.5 5  105 309 
 ZAR  HZ I         723 45.27         2.1 0.50                           105 309 
 RUS  HZ EP        723 39.55                              56    -0.1 9  159 134 
                                                                                
