 2017  1 9 0826 37.9 L   6.775 -73.139144.6  RSN  6 0.4 1.4LRSN                1
 GAP=139        0.91       4.6     4.1  6.6  0.1601E+01  0.5346E+01  0.2551E+00E
 Epicentro: LOS SANTOS - SANTANDER                                             3
 ACTION:UPD 17-05-22 15:57 OP:jn   STATUS:               ID:20170109082637 L   I
 OLDACT:UP  17-01-09 18:52 OP:and  STATUS:               ID:20170109081745d    3
 OLDACT:UP  17-01-09 18:52 OP:and  STATUS:               ID:20170109081745d    3
 OLDACT:DUP 17-01-09 18:50 OP:and  STATUS:               ID:20170109081745d    3
 OLDACT:UP  17-01-09 18:49 OP:and  STATUS:               ID:20170109081744     3
 OLDACT:UP  17-01-09 18:48 OP:and  STATUS:               ID:20170109081744     3
 OLDACT:REG 17-01-09 13:19 OP:and  STATUS:               ID:20170109081744     3
 2017-01-09-0818-00M.COL___341                                                 6
 STAT SP IPHASW D HRMM SECON CODA AMPLIT PERI AZIMU VELO AIN AR TRES W  DIS CAZ7
 BAR2 EZ EP        826 57.11                             171   -0.2010 20.7 193 
 BAR2 EZ ES        827 12.71                             171    0.2410 20.7 193 
 BAR2 EZ I         827 14.71         5.6 0.48            172           20.7 193 
 BRR  HZ EP        826 59.10                             152    0.0910 73.2 300 
 BRR  HN ES        827 16.11                             152    0.6210 73.2 300 
 BRR  HZ I         827 19.16         3.8 0.33            150           73.2 300 
 PAM  EZ EP        826 59.99                             150   -0.0710 79.1  38 
 PAM  EN ES        827 16.96                             150   -0.4110 79.1  38 
 PAM  EZ I         827 19.24         4.0 0.53            153           79.1  38 
 RUS  HZ EP        827  1.65                             144    0.3510 97.8 176 
 RUS  HN ES        827 19.56                             144   -0.0210 97.8 176 
 RUS  HZ I         827 20.79         4.3 0.30            148           97.8 176 
 PTB  HZ EP        827  4.68                             132   -0.08 9  148 260 
 PTB  HN ES        827 24.99                             132   -0.74 9  148 260 
 PTB  HZ I         827 29.00         1.7 0.20            132            148 260 
 ZAR  HZ EP   3    827 11.47                             122    1.05 2  206 293 
 ZAR  HN ES        827 35.90                             122    0.09 8  206 293 
 ZAR  HZ I         827 41.92         3.0 0.50            123            206 293 
                                                                                
