 2016 11 9 0223 55.8 L   6.783 -73.130141.3  RSN  7 0.2 1.5LRSN                1
 GAP=157        0.53       2.4     2.6  3.9 -0.9578E+00  0.1785E+01  0.4413E+01E
 Epicentro: LOS SANTOS - SANTANDER                                             3
 ACTION:UPD 17-10-26 21:06 OP:lp   STATUS:               ID:20161109022355 L   I
 OLDACT:DUP 16-11-09 14:52 OP:lv   STATUS:               ID:20161109021746d    3
 2016-11-09-0218-00M.COL___343                                                 6
 STAT SP IPHASW D HRMM SECON CODA AMPLIT PERI AZIMU VELO AIN AR TRES W  DIS CAZ7
 BAR2 EZ EP        224 14.77                             171   -0.1110 21.9 195 
 BAR2 EZ ES        224 29.37                             171   -0.3810 21.9 195 
 BAR2 EZ I         224 31.27         9.0 0.23            168           21.9 195 
 BRR  HZ EP        224 16.59                             151   -0.0310 73.6 299 
 BRR  HE ES        224 33.14                             151    0.2910 73.6 299 
 BRR  HZ I         224 36.09         5.0 0.18            150           73.6 299 
 PAM  EZ IP     D  224 17.64                             150    0.0610 77.8  38 
 PAM  EN ES        224 34.74                             150    0.1810 77.8  38 
 PAM  EZ I         224 36.89         6.2 0.43            154           77.8  38 
 ZAR  HZ EP   4    224 30.23                             121    2.02 0  206 292 
 ZAR  HN ES        224 53.23                             121   -0.25 8  206 292 
 ZAR  HZ I         224 58.01         2.2 0.19            122            206 292 
 NOR  HE ES        224 59.20                             117    0.18 8  235 235 
 NOR  HZ I         225  3.42         2.3 0.18            118            235 235 
 CHI  HZ EP        224 33.07                             116   -0.05 8  247 196 
 CHI  HE ES        225  2.47                             116    0.25 8  247 196 
 CHI  HZ I         225  7.94         1.6 0.32            117            247 196 
 PRA  HZ EP        224 48.90                             106   -0.19 6  391 210 
 PRA  HE ES        225 30.68                             106    0.03 6  391 210 
 PRA  HZ I         225 36.89         1.5 0.40            106            391 210 
                                                                                
