 2013  4 9 0246 54.4 L   7.325 -73.681102.9  RSN  6 0.2 1.9LRSN                1
 GAP=121        0.53       2.1     4.4  4.6  0.1030E+01 -0.5739E+00 -0.2405E+01E
 Epicentro: SABANA DE TORRES - SANTANDER                                       3
 ACTION:UPD 13-05-22 14:36 OP:EP   STATUS:               ID:20130409024654 L   I
 2013-04-09-0238-49M.COL___218                                                 6
 STAT SP IPHASW D HRMM SECON CODA AMPLIT PERI AZIMU VELO AIN AR TRES W  DIS CAZ7
 BRR  HZ IP     C  247  8.87                             166    0.3010 24.3 188 
 BRR  HN ES        247 19.72                             166    0.0910 24.3 188 
 BRR  HN I         247 20.60        69.0 0.38            159           24.3 188 
 GIR2 SZ EP        247 10.36                             147   -0.1910 60.3 117 
 BAR2 SZ EP        247 13.62                             133   -0.0310 98.0 146 
 BAR2 SZ I         247 14.57         9.7 0.30            135           98.0 146 
 OCA  HN ES        247 30.09                             130   -0.1210  109  22 
 OCA  HN I         247 30.83        21.6 0.32            130            109  22 
 PTB  HN ES   2    247 31.62                             126   -0.57 5  122 225 
 PTB  HN I         247 38.22         7.6 0.46            121            122 225 
 SML  HZ EP        247 20.69                             116    0.19 9  169 345 
 SML  HN ES        247 40.76                             116   -0.11 9  169 345 
 SML  HN I         247 46.23        22.0 0.10            115            169 345 
                                                                                
