 2012 12 9 0111 17.3 L   6.831 -73.176134.4  RSN 12 0.5 1.9LRSN                1
 GAP=131        0.89       3.0     4.4  6.1 -0.5148E+00  0.1196E+02  0.2870E+01E
 Epicentro: ZAPATOCA - SANTANDER                                               3
 ACTION:UPD 13-01-04 14:26 OP:ep   STATUS:               ID:20121209011117 L   I
 2012-12-09-0110-00M.COL___243                                                 6
 STAT SP IPHASW D HRMM SECON CODA AMPLIT PERI AZIMU VELO AIN AR TRES W  DIS CAZ7
 BAR2 SZ EP        111 35.80                             168    0.1210 26.4 182 
 BAR2 SZ ES   1    111 50.38                             168    0.40 7 26.4 182 
 BAR2 SZ I         111 51.89        30.1 0.34                          26.4 182 
 GIR2 SZ EP        111 35.93                             168    0.3710 27.4 356 
 GIR2 SZ ES   1    111 49.06                             168   -0.71 7 27.4 356 
 GIR2 SZ I         111 52.68        10.9 0.32                          27.4 356 
 PAM  SZ EP   1    111 38.82                             149    0.49 7 77.0  43 
 PAM  SN ES   1    111 54.60                             149   -0.11 7 77.0  43 
 PAM  SZ I         111 57.76        14.8 0.58                          77.0  43 
 RUS  HZ EP   1    111 39.81                             140   -0.47 7  104 174 
 RUS  HN ES   1    111 58.33                             140    0.16 7  104 174 
 RUS  HZ I         112  0.29         7.5 0.64                           104 174 
 PTB  HZ EP     D  111 42.55                             130   -0.61 9  145 257 
 PTB  HN ES   1    112  2.54                             130   -0.77 7  145 257 
 PTB  HZ I         112  7.29        11.3 0.28                           145 257 
 OCA  HN ES   1    112  6.06                             128    0.51 7  156 354 
 OCA  HZ I         112  8.82        11.5 0.22                           156 354 
 ZAR  HZ EP   1    111 48.76                             120    0.16 6  200 292 
 ZAR  HN ES   1    112 13.39                             120    0.40 6  200 292 
 ZAR  HZ I         112 20.06        10.1 0.36                           200 292 
 SML  HZ EP   1    111 52.48                             115   -0.37 6  239 336 
 SML  HN ES   1    112 20.09                             115   -0.46 6  239 336 
 SML  HZ I         112 26.58        13.8 0.22                           239 336 
 CHI  HZ EP     C  111 54.37                             114   -0.34 8  251 194 
 CHI  HN ES   1    112 24.32                             114    0.46 6  251 194 
 CHI  HZ I         112 31.54         4.6 0.38                           251 194 
 HEL  HZ EP   1    111 57.50                             113    0.77 6  270 255 
 HEL  HN ES   1    112 28.10                             113    0.65 6  270 255 
 HEL  HZ I         112 32.65         3.5 0.32                           270 255 
 RREF HN ES   1    112 38.67                             109    0.08 5  322 229 
 MON  HZ EP   4    112  3.19                             107   -2.17 0  349 308 
 MON  HN ES   4    112 40.38                             107   -2.44 0  349 308 
 PRA  HZ EP   1    112 10.21                             104   -0.44 4  393 209 
 PRA  HN ES   1    112 52.45                             104    0.21 4  393 209 
 PRA  HZ I         112 56.68         4.8 0.32                           393 209 
                                                                                
