 2015  6 9 0421 29.1 L   6.790 -73.114141.3  RSN  6 0.6 1.6LRSN                1
 GAP=141        1.56       6.7     8.4 10.4  0.1445E+02  0.1941E+02 -0.1499E+02E
 Epicentro: LOS SANTOS - SANTANDER                                             3
 ACTION:UPD 15-09-10 22:10 OP:cam  STATUS:               ID:20150609042129 L   I
 OLDACT:REG 15-06-09 13:08 OP:stll STATUS:               ID:20150609041747     3
 2015-06-09-0417-47M.COL___300                                                 6
 STAT SP IPHASW D HRMM SECON CODA AMPLIT PERI AZIMU VELO AIN AR TRES W  DIS CAZ7
 BAR2 EZ EP        421 48.33                             170    0.1510 23.1 199 
 BAR2 EZ ES        422  2.97                             170   -0.1010 23.1 199 
 BAR2 EZ I         422  4.13         5.7 0.12            168           23.1 199 
 BRR  HZ EP        421 50.41                             150    0.4410 74.8 298 
 BRR  HN ES        422  6.49                             150    0.2310 74.8 298 
 BRR  HZ I         422  8.71         6.8 0.16            146           74.8 298 
 PAM  SZ EP        421 51.38                             150    0.6310 76.1  37 
 PAM  SZ I         421 51.60        13.7 0.20            152           76.1  37 
 PAM  SN ES        422  7.80                             150    0.1510 76.1  37 
 RUS  HZ EP        421 52.71                             143    0.4010 99.3 178 
 RUS  HN ES        422  9.39                             143   -1.0310 99.3 178 
 RUS  HZ I         422 11.90         2.2 0.28            145           99.3 178 
 ZAR  HZ EP        422  1.18                             121   -0.45 8  208 292 
 ZAR  HE ES        422 27.87                             121    0.85 8  208 292 
 ZAR  HZ I         422 35.57         3.2 0.22            120            208 292 
 SML  HZ EP        422  5.40                             116   -0.34 8  246 335 
 SML  HE ES        422 32.82                             116   -1.51 8  246 335 
 SML  HZ I         422 40.42         5.7 0.22            116            246 335 
                                                                                
