 2010  8 9 0401 41.3 L   6.773 -73.066144.0  RSN  6 0.4 1.7LRSN                1
 GAP=168        0.73       4.4     7.6  7.9 -0.8138E+01 -0.2358E+02  0.6462E+01E
 Epicentro: LOS SANTOS - SANTANDER                                             3
 ACTION:UP  10-09-07 10:53 OP:vdl  STATUS:               ID:20100809040141 L   I
 2010-08-09-0358-58S.COL___124                                                 6
 STAT SP IPHASW D HRMM SECON CODA AMPLIT PERI AZIMU VELO SNR AR TRES W  DIS CAZ7
 BAR2 SZ EP        4 2  0.51                             170    -0.210   24 213 
 BAR2 SZ ES   2    4 2 15.81                             170    -0.1 5   24 213 
 BAR2 SZ I         4 2 18.43        14.8 0.33                            24 213 
 BRR  HZ EP        4 2  2.45                             150    -0.410   80 297 
 BRR  HE ES        4 2 19.77                             150     0.210   80 297 
 BRR  HZ I         4 2 22.08        12.2 0.18                            80 297 
 RUS  HZ EP   1    4 2  4.64                             145     0.0 7   97 181 
 RUS  HE ES   2    4 2 23.26                             145     0.4 5   97 181 
 RUS  HZ I         4 2 25.78         4.1 0.46                            97 181 
 GUE  SZ EP   2    4 2  6.92                             139     1.0 5  118   8 
 GRA  SZ EP        4 2  6.38                             137    -0.110  126  13 
 GRA  SZ ES   1    4 2 26.16                             137     0.1 7  126  13 
 GRA  SZ I         4 2 27.06         5.5 0.31                           126  13 
 PRA  HZ EP   2    4 2 35.15                             106     0.2 3  394 211 
 PRA  HE ES   2    4 3 17.62                             106     0.8 3  394 211 
 PRA  HZ I         4 3 22.34         3.4 0.27                           394 211 
                                                                                
