 2016  8 9 0319 29.6 L   6.766 -73.095144.0  RSN  8 0.4 1.8LRSN                1
 GAP=240        0.95       4.9     6.5  7.5  0.7853E+01  0.2045E+02  0.2169E+01E
 Epicentro: LOS SANTOS - SANTANDER                                             3
 ACTION:UPD 16-10-29 15:34 OP:rebc STATUS:               ID:20160809031929 L   I
 OLDACT:REG 16-08-09 12:57 OP:dnl  STATUS:               ID:20160809031659     3
 2016-08-09-0316-59S.COL___343                                                 6
 STAT SP IPHASW D HRMM SECON CODA AMPLIT PERI AZIMU VELO AIN AR TRES W  DIS CAZ7
 BAR2 EZ EP        319 49.06                             171    0.0610 21.5 207 
 BAR2 EZ ES        320  3.77                             171   -0.3410 21.5 207 
 BAR2 EZ I         320  5.35        10.4 0.28                          21.5 207 
 BRR  HZ EP        319 51.03                             150    0.0610 78.0 299 
 BRR  HN ES        320  8.07                             150    0.4410 78.0 299 
 BRR  HZ I         320 15.83        14.3 0.28                          78.0 299 
 RUS  HZ EP   2    319 53.13                             145    0.23 5 96.5 179 
 RUS  HE ES        320 11.41                             145    0.3410 96.5 179 
 RUS  HZ I         320 12.60         8.9 0.26                          96.5 179 
 PTB  HZ EP        319 55.87                             131   -1.02 9  153 261 
 PTB  HN ES   4    320 16.59                             131   -1.57 0  153 261 
 PTB  HZ I         320 19.56         5.2 0.10                           153 261 
 SPBC HZ EP   2    319 58.28                             129    0.23 5  164 221 
 SPBC HE ES        320 19.97                             129   -0.25 9  164 221 
 SPBC HZ I         320 21.21        11.0 0.16                           164 221 
 ZAR  HZ EP   2    320  2.77                             121    0.13 4  211 293 
 ZAR  HN ES        320 28.51                             121    0.11 8  211 293 
 ZAR  HZ I         320 34.94         6.6 0.26                           211 293 
 URE  HZ EP   4    320 13.30                             113    1.95 0  290 292 
 URE  HN ES   4    320 41.13                             113   -2.77 0  290 292 
 URE  HZ I         320 54.30         3.8 0.18                           290 292 
 GUY2CHZ EP   2    320 14.25                             112    0.83 4  304 236 
 GUY2CHN ES        320 48.00                             112    0.41 7  304 236 
 GUY2CHZ I         320 54.13         3.3 0.44                           304 236 
                                                                                
