 2017  8 9 0248 46.5 L   6.547 -73.533110.0  RSN 26 0.5 2.3LRSN                1
 GAP= 42        1.13       2.1     2.2  4.8  0.2142E-01  0.3618E+01  0.9609E+00E
 Epicentro: EL CARMEN - SANTANDER                                              3
     108.0      73.0    -126.0  9.0  8.0  6.0  0.0  0.1           RSN FPFIT    F
 ACTION:UPD 17-09-04 20:18 OP:rebc STATUS:               ID:20170809024846 L   I
 OLDACT:UP  17-08-09 15:22 OP:dhb  STATUS:               ID:20170809024740     3
 OLDACT:REG 17-08-09 12:10 OP:dhb  STATUS:               ID:20170809024740     3
 2017-08-09-0248-00M.COL___399                                                 6
 STAT SP IPHASW D HRMM SECON CODA AMPLIT PERI AZIMU VELO AIN AR TRES W  DIS CAZ7
 BAR2 EZ IP     D  249  2.59                             160    0.1510 39.1  83 
 BAR2 HN ES        249 15.40                             160    0.5510 39.1  83 
 BRR  HZ IP     C  249  3.55                             148    0.0210 65.0 342 
 BRR  HE ES        249 17.21                             148    0.4310 65.0 342 
 BRR  HZ I         249 26.34        35.8 0.12            147           65.0 342 
 RUS  HZ IP     D  249  5.47                             139   -0.4310 87.9 145 
 RUS  HE ES        249 21.52                             139    0.5110 87.9 145 
 RUS  HZ I         249 24.77        25.1 0.12            137           87.9 145 
 PTB  HZ IP     D  249  5.37                             134   -1.0810  102 270 
 PTB  HN ES   2    249 20.47                             134   -1.51 5  102 270 
 PTB  HZ I         249 21.96        40.0 0.08            134            102 270 
 SPBC HZ EP        249  7.38                             130   -0.3910  116 211 
 SPBC HE ES        249 24.53                             130    0.1910  116 211 
 SPBC HZ I         249 27.25        73.6 0.15            129            116 211 
 PAM  EZ IP     C  249  9.34                             128   -0.0710  127  46 
 PAM  EN ES        249 27.10                             128   -0.1610  127  46 
 PAM  EZ I         249 28.89        31.9 0.24            126            127  46 
 ZAR  HZ EP        249 14.93                             117    0.68 9  180 306 
 ZAR  HN ES        249 36.59                             117    0.71 9  180 306 
 ZAR  HZ I         249 39.63        35.1 0.30            116            180 306 
 YPLC HZ IP     D  249 14.39                             117    0.01 9  180 135 
 YPLC HE ES        249 36.57                             117    0.46 9  180 135 
 YPLC HZ I         249 38.74        48.0 0.30            115            180 135 
 NOR  HZ IP     C  249 14.17                             117   -0.55 9  184 234 
 NOR  HN ES   2    249 35.79                             117   -0.91 4  184 234 
 NOR  HZ I         249 39.11        30.7 0.20            116            184 234 
 TABC EZ EP        249 14.93                             117   -0.51 9  185 204 
 TABC EZ ES        249 38.15                             117    0.16 9  185 204 
 TABC EZ I         249 42.37        22.6 0.49            115            185 204 
 TAM  HZ IP     C  249 15.35                             115   -0.40 9  193  94 
 TAM  HN ES        249 37.83                             115   -0.72 9  193  94 
 TAM  HZ I         249 40.87        16.8 0.26            114            193  94 
 ROSC BZ EP   3    249 19.15                             113    1.30 2  208 205 
 ROSC BN ES        249 42.65                             113    0.37 8  208 205 
 ROSC BZ I         249 49.32        24.7 0.45            112            208 205 
 CHI  HZ EP        249 18.71                             113    0.24 8  213 186 
 CHI  HN ES        249 42.74                             113   -0.64 8  213 186 
 CHI  HZ I         249 48.47         9.8 0.24            112            213 186 
 HEL  HZ EP        249 19.92                             112    0.25 8  224 260 
 HEL  HN ES        249 45.31                             112   -0.21 8  224 260 
 HEL  HZ I         249 48.76        12.6 0.28            111            224 260 
 GUY2CHZ EP   9    249 23.90                             109    1.13 0  250 234 
 GUY2CHN ES        249 53.10                                    0.94 8  250 234 
 GUY2CHZ I         249 55.03        18.7 0.30                           250 234 
 URE  HZ EP        249 22.96                             108   -0.14 8  258 301 
 URE  HN ES        249 51.05                             108   -0.57 8  258 301 
 URE  HZ I         249 55.95        14.1 0.12            107            258 301 
 VIL  EZ EP        249 24.65                             107    0.01 8  270 184 
 VIL  HN ES        249 54.72                             107    0.36 8  270 184 
 VIL  EZ I         250  3.07        26.7 0.78            106            270 184 
 CBOC HZ EP        249 27.05                             106    0.64 7  285 255 
 CBOC HN ES        249 56.92                             106   -0.60 7  285 255 
 CBOC HZ I         250  1.54         5.1 0.00            105            285 255 
 DBB  EZ EP        249 28.05                             105   -0.12 7  300 280 
 DBB  EN ES        250  0.53                             105   -0.12 7  300 280 
 DBB  EZ I         250  3.52         5.7 0.21            104            300 280 
 PTGC HZ IP   9 D  249 26.86                             105   -1.45 0  302 149 
 PTGC HN ES        249 58.93                                   -0.52 7  302 149 
 PTGC HZ I         250  4.99        12.1 0.30            103            302 149 
 PRA  HZ EP        249 33.66                             102   -0.04 6  347 206 
 PRA  HE ES        250 10.81                             102    0.32 6  347 206 
 PRA  HZ I         250 15.32        19.5 0.24            101            347 206 
 ORTC HZ EP        249 34.44                             102    0.66 6  348 213 
 ORTC HN ES        250 11.24                             102    0.61 6  348 213 
 ORTC HZ I         250 16.65         7.1 0.16            101            348 213 
 LL6C HZ EP   4    249 34.96                             102    0.54 0  354   5 
 LL6C HE ES        250 12.63                             102    0.86 6  354   5 
 LL6C HZ I         250 20.04         9.8 0.50            101            354   5 
 PAL  HZ EP        249 34.78                             102    0.18 6  355 239 
 PAL  HE ES        250 12.50                             102    0.41 6  355 239 
 PAL  HZ I         250 15.91         5.5 0.28            101            355 239 
 ARGC HZ EP        249 37.12                             101    0.22 6  374 348 
 ARGC HE ES   4    250 19.97                             101    3.78 0  374 348 
 ARGC HZ I         250 28.29         7.5 0.36            100            374 348 
 SJC  HZ EP        249 40.93                              99   -0.62 6  412 334 
 SJC  HN ES   4    250 22.15                              99   -2.31 0  412 334 
 SJC  HZ I         250 25.50         3.7 0.36             98            412 334 
                                                                                
