 2013  6 9 0832 57.1 L   6.557 -73.626102.0  RSN  4 0.1 1.4LRSN                1
 GAP=183        0.32       4.6     2.6  4.9  0.2795E+00  0.5737E+01  0.1297E+01E
 Epicentro: EL CARMEN DE CHUCURI - SANTANDER                                   3
 ACTION:UPD 14-01-08 09:53 OP:ep   STATUS:               ID:20130609083257 L   I
 OLDACT:REG 13-06-09 07:44 OP:mh   STATUS:               ID:20130609083000     3
 2013-06-09-0830-00M.COL___257                                                 6
 STAT SP IPHASW D HRMM SECON CODA AMPLIT PERI AZIMU VELO AIN AR TRES W  DIS CAZ7
 BAR2 SZ EP   1    833 12.77                             152    0.11 7 49.2  85 
 BAR2 SZ ES   1    833 24.70                             152   -0.07 7 49.2  85 
 BAR2 SZ I         833 26.11         8.3 0.14            163           49.2  85 
 BRR  HZ EP        833 13.03                             146   -0.0610 61.6 351 
 BRR  HE ES   2    833 25.65                             146    0.12 5 61.6 351 
 BRR  HE I         833 26.35         7.3 0.20            148           61.6 351 
 PTB  HZ EP   1    833 15.47                             134   -0.00 7 91.8 269 
 PTB  HN ES   2    833 29.78                             134    0.00 5 91.8 269 
 PTB  HN I         833 36.14         3.7 0.20            132           91.8 269 
 SML  HZ EP   4    833 28.17                             106   -4.66 0  253 349 
 SML  HN ES   4    833 59.38                             106   -1.29 0  253 349 
 SML  HN I         834  3.19         3.1 0.10            109            253 349 
                                                                                
