 2017  4 9 0711 39.6 L   6.797 -73.118148.0  RSN 12 0.5 1.7LRSN                1
 GAP=122        0.98       3.9     4.0  5.7 -0.2539E+01  0.3653E+01  0.7162E+01E
 Epicentro: LOS SANTOS - SANTANDER                                             3
 ACTION:UPD 17-05-30 21:10 OP:jn   STATUS:               ID:20170409071139 L   I
 OLDACT:UP  17-04-09 16:55 OP:and  STATUS:               ID:20170409070608d    3
 OLDACT:UP  17-04-09 16:54 OP:and  STATUS:               ID:20170409070608d    3
 OLDACT:UP  17-04-09 16:54 OP:and  STATUS:               ID:20170409070608d    3
 OLDACT:UP  17-04-09 16:53 OP:and  STATUS:               ID:20170409070608d    3
 OLDACT:UP  17-04-09 16:52 OP:and  STATUS:               ID:20170409070608d    3
 OLDACT:UP  17-04-09 16:52 OP:and  STATUS:               ID:20170409070608d    3
 OLDACT:UP  17-04-09 16:52 OP:and  STATUS:               ID:20170409070608d    3
 OLDACT:DUP 17-04-09 16:50 OP:and  STATUS:               ID:20170409070608d    3
 2017-04-09-0707-00M.COL___371                                                 6
 STAT SP IPHASW D HRMM SECON CODA AMPLIT PERI AZIMU VELO AIN AR TRES W  DIS CAZ7
 BAR2 EZ EP        711 59.21                             170   -0.3110 23.8 198 
 BAR2 EZ ES        712 14.73                             170   -0.3210 23.8 198 
 BAR2 EZ I         712 16.03        11.5 0.22            168           23.8 198 
 BRR  HZ EP   2    712  1.32                             152    0.15 5 74.1 298 
 BRR  HN ES        712 18.59                             152    0.6110 74.1 298 
 BRR  HZ I         712 22.45         9.8 0.14            149           74.1 298 
 PAM  EZ IP     C  712  2.26                             152    0.2910 75.7  38 
 PAM  EN ES        712 19.38                             152   -0.0310 75.7  38 
 PAM  EZ I         712 21.72        10.6 0.52            155           75.7  38 
 RUS  HZ EP        712  3.55                             144   -0.0010  100 178 
 RUS  HN ES        712 22.29                             144    0.0610  100 178 
 RUS  HZ I         712 23.45         7.4 0.32            144            100 178 
 PTB  HZ EP        712  6.46                             132   -0.58 9  151 259 
 PTB  HE ES        712 28.02                             132   -0.40 9  151 259 
 PTB  HZ I         712 29.92         3.3 0.16            130            151 259 
 SPBC HN ES   2    712 30.69                             129   -0.25 5  165 220 
 SPBC HZ I         712 33.16        11.2 0.28            128            165 220 
 ZAR  HZ EP   2    712 12.69                             122    0.18 4  207 292 
 ZAR  HN ES   3    712 37.40                             122   -0.77 2  207 292 
 ZAR  HZ I         712 43.26         6.2 0.28            122            207 292 
 NOR  HN ES        712 43.53                             119   -0.36 8  237 235 
 NOR  HZ I         712 46.43         3.0 0.20            118            237 235 
 CHI  HZ EP        712 17.77                             117    0.27 8  249 196 
 CHI  HN ES        712 47.55                             117    0.51 8  249 196 
 CHI  HZ I         712 56.98         2.5 0.40            117            249 196 
 ROSC BN ES        712 48.77                             117    0.82 8  254 212 
 ROSC BZ I         712 54.21         5.4 0.45            117            254 212 
 PTGC HZ EP        712 22.65                             112   -0.76 7  307 159 
 PTGC HN ES   3    712 56.22                             112   -1.36 2  307 159 
 CBOC HZ EP        712 27.92                             110    0.97 7  336 252 
 CBOC HN ES        713  3.44                             110   -0.43 7  336 252 
 CBOC HZ I         713 16.58         0.7 0.20            110            336 252 
 SJC  HZ EP   4    712 33.74                             106   -1.74 0  411 327 
 SJC  HN ES   4    713 14.89                             106   -4.16 0  411 327 
                                                                                
