 2014 11 9 0843 15.4 L   6.797 -73.195146.8  RSN  5 0.4 1.4LRSN                1
 GAP=131        1.15       6.7     6.1  9.1 -0.7486E+01  0.1126E+02 -0.6745E+01E
 Epicentro: ZAPATOCA - SANTANDER                                               3
 ACTION:UPD 14-12-19 15:40 OP:nd   STATUS:               ID:20141109084315 L   I
 OLDACT:DUP 14-11-09 18:21 OP:carl STATUS:               ID:20141109083743d    3
 2014-11-09-0837-42M.COL___292                                                 6
 STAT SP IPHASW D HRMM SECON CODA AMPLIT PERI AZIMU VELO AIN AR TRES W  DIS CAZ7
 BAR2 SZ EP        843 35.07                             171   -0.0510 22.7 177 
 BAR2 SZ ES        843 50.88                             171    0.3510 22.7 177 
 BRR  HZ EP        843 36.82                             154    0.4210 66.7 301 
 BRR  HN ES        843 53.34                             154    0.5510 66.7 301 
 PAM  SZ EP        843 37.98                             150    0.0410 81.2  42 
 PAM  SN ES        843 54.88                             150   -0.6510 81.2  42 
 PAM  SZ I         843 57.10         9.7 0.46            151           81.2  42 
 RUS  HN ES        843 57.86                             144   -0.0110  101 173 
 RUS  HZ I         843 58.77         3.7 0.32            145            101 173 
 PTB  HZ EP        843 42.05                             133    0.10 9  142 259 
 PTB  HN ES        844  1.83                             133   -0.85 9  142 259 
 PTB  HZ I         844  4.87         2.1 0.32            134            142 259 
                                                                                
