 2012 12 9 0714 37.0 L   7.444 -73.210129.3  RSN  6 0.5 1.5LRSN                1
 GAP=185        0.87       3.9     6.3  8.4  0.1333E+01  0.2115E+02 -0.2911E+01E
 Epicentro: EL PLAYON - SANTANDER                                              3
 ACTION:UPD 13-01-04 14:26 OP:ep   STATUS:               ID:20121209071437 L   I
 2012-12-09-0710-00M.COL___243                                                 6
 STAT SP IPHASW D HRMM SECON CODA AMPLIT PERI AZIMU VELO AIN AR TRES W  DIS CAZ7
 GIR2 SZ EP   1    714 55.06                             162   -0.02 8 40.4 177 
 GIR2 SZ ES   1    715  8.91                             162   -0.24 8 40.4 177 
 GIR2 SZ I         715  9.96         4.2 0.10                          40.4 177 
 OCA  HZ EP   1    714 58.24                             143    0.39 8 88.7 352 
 OCA  HN ES   1    715 14.49                             143    0.41 8 88.7 352 
 OCA  HZ I         715 16.70         5.0 0.26                          88.7 352 
 BAR2 SZ EP   1    714 58.34                             142   -0.03 8 94.2 178 
 BAR2 SZ ES   1    715 15.13                             142    0.12 8 94.2 178 
 BAR2 SZ I         715 15.72        11.5 0.40                          94.2 178 
 PTB  HZ EP        715  4.89                             124   -0.0510  170 234 
 PTB  HN ES   1    715 26.12                             124   -0.59 7  170 234 
 PTB  HZ I         715 30.75         3.4 0.22                           170 234 
 SML  HZ EP   1    715  5.26                             122   -0.41 7  178 328 
 SML  HN ES   1    715 27.07                             122   -0.93 7  178 328 
 SML  HZ I         715 34.47         4.9 0.10                           178 328 
 ZAR  HZ EP   1    715  6.62                             122    0.48 7  182 272 
 ZAR  HN ES   1    715 29.62                             122    0.78 7  182 272 
 ZAR  HZ I         715 31.01         5.1 0.18                           182 272 
                                                                                
