 2013  8 9 0543 47.7 L   6.769 -73.139152.4  RSN  7 0.3 1.5LRSN                1
 GAP=186        0.83       4.6     4.9  6.0  0.5796E+01  0.2739E+01  0.4068E+00E
 Epicentro: LOS SANTOS - SANTANDER                                             3
 ACTION:UPD 14-01-14 09:00 OP:ep   STATUS:               ID:20130809054347 L   I
 OLDACT:REG 13-08-09 06:41 OP:jn   STATUS:               ID:20130809053959     3
 2013-08-09-0539-59M.COL___268                                                 6
 STAT SP IPHASW D HRMM SECON CODA AMPLIT PERI AZIMU VELO AIN AR TRES W  DIS CAZ7
 BAR2 SZ EP        544  7.89                             172   -0.1510 20.1 194 
 BAR2 SZ ES        544 23.68                             172   -0.2510 20.1 194 
 BAR2 SZ I         544 25.74         3.3 0.24            176           20.1 194 
 GIR2 SZ EP   1    544  7.76                             166   -0.47 7 34.8 350 
 GIR2 SZ I         544 23.51         4.9 0.36            161           34.8 350 
 BRR  HZ EP        544 10.02                             153    0.3510 73.5 301 
 BRR  HN ES        544 27.36                             153    0.5410 73.5 301 
 BRR  HZ I         544 29.61         3.7 0.14            149           73.5 301 
 RUS  HZ EP        544 11.84                             146    0.0010 97.1 176 
 RUS  HN ES        544 30.70                             146    0.0110 97.1 176 
 RUS  HZ I         544 31.50         2.2 0.60            148           97.1 176 
 PTB  HZ EP        544 14.87                             133   -0.33 9  148 260 
 PTB  HN ES        544 36.24                             133   -0.43 9  148 260 
 PTB  HZ I         544 41.86         5.0 0.26            132            148 260 
 SPBC HZ EP        544 16.96                             131    0.47 9  161 220 
 SPBC HN ES        544 39.09                             131    0.13 9  161 220 
 SPBC HZ I         544 46.13         6.7 0.32            130            161 220 
 ZAR  HN ES   1    544 46.34                             123   -0.23 6  206 293 
 ZAR  HZ I         544 52.44         4.6 0.18            121            206 293 
                                                                                
