 2010  9 9 0147 19.2 L   6.806 -73.026144.7  RSN  7 0.3 1.7LRSN                1
 GAP=172        0.72       4.1     8.5  7.3 -0.7169E+00 -0.1211E+02 -0.7257E+01E
 Epicentro: CEPITA - SANTANDER                                                 3
 ACTION:UP  11-02-18 11:01 OP:tino STATUS:               ID:20100909014719 L   I
 2010-09-09-0143-00S.COL___120                                                 6
 STAT SP IPHASW D HRMM SECON CODA AMPLIT PERI AZIMU VELO SNR AR TRES W  DIS CAZ7
 BTL  SZ EP        147 39.06                             168     0.210   29 295 
 BAR2 SZ EP   1    147 38.63                             168    -0.2 7   29 216 
 BAR2 SZ ES   1    147 54.24                             168     0.1 7   29 216 
 BAR2 SZ I         147 55.20        12.6 0.43                            29 216 
 GIR2 SZ EP   2    147 38.27                             166    -0.6 5   35 328 
 BRR  HZ IP     C  147 40.61                             149    -0.310   83 294 
 BRR  HZ I         147 40.89        25.8 0.10                            83 294 
 BRR  HN ES   1    147 58.09                             149     0.2 7   83 294 
 RUS  HZ EP   1    147 43.01                             143     0.1 7  101 184 
 RUS  HN ES   1    148  1.21                             143    -0.1 7  101 184 
 RUS  HZ I         148  2.62         4.1 0.33                           101 184 
 GRA  SZ EP   1    147 44.53                             138     0.5 7  122  12 
 GRA  SZ ES   1    148  3.05                             138    -0.3 7  122  12 
 GRA  SZ I         148  5.85         6.8 0.12                           122  12 
 OCA  SZ EP   1    147 47.52                             129     0.0 7  162 348 
 OCA  SZ I         148 15.04         5.9 0.43                           162 348 
                                                                                
