 2011  5 9 0804 31.1 L   6.793 -73.059140.1  RSN  6 0.4 1.5LRSN                1
 GAP=166        0.94       4.3    10.1  9.1 -0.5436E+00 -0.3010E+02 -0.8832E+01E
 Epicentro: LOS SANTOS - SANTANDER                                             3
 ACTION:UP  11-06-29 08:51 OP:tino STATUS:               ID:20110509080431 L   I
 2011-05-09-0759-50S.COL___131                                                 6
 STAT SP IPHASW D HRMM SECON CODA AMPLIT PERI AZIMU VELO AIN AR TRES W  DIS CAZ7
 BAR2 SZ IP   3    8 4 49.94                             169    -0.2 2   26 212 
 BAR2 SZ ES   1    8 5  4.09                             169    -0.8 7   26 212 
 BAR2 SZ I         8 5  6.08        10.4 0.78                            26 212 
 BRR  HZ EP        8 4 51.80                             149    -0.410   80 296 
 BRR  HZ I         8 4 52.16        10.6 0.19                            80 296 
 BRR  HN ES   1    8 5  9.20                             149     0.6 7   80 296 
 RUS  HZ EP        8 4 54.25                             143     0.010  100 182 
 RUS  HE ES   1    8 5 12.74                             143     0.5 7  100 182 
 RUS  HZ I         8 5 13.36         2.7 0.38                           100 182 
 BRI  SZ EP        8 4 54.43                             141     0.210  106  16 
 GRA  SZ EP        8 4 55.70                             136     0.010  124  13 
 GRA  SZ ES   1    8 5 15.06                             136     0.2 7  124  13 
 GRA  SZ I         8 5 18.33         4.4 0.42                           124  13 
 OCA  SZ EP   1    8 4 59.05                             128    -0.1 7  162 350 
 OCA  SZ ES   1    8 5 21.04                             128     0.0 7  162 350 
 OCA  SZ I         8 5 26.35         5.2 0.25                           162 350 
                                                                                
