 2015  2 9 0134  1.5 L   6.821 -73.175138.8  RSN 11 0.5 1.8LRSN                1
 GAP=132        1.24       3.3     4.9  6.7 -0.3035E+01  0.9527E+01  0.1425E+01E
 Epicentro: ZAPATOCA - SANTANDER                                               3
 ACTION:UPD 15-04-30 21:24 OP:nd   STATUS:               ID:20150209013401 L   I
 OLDACT:DUP 15-02-09 15:22 OP:fm   STATUS:               ID:20150209012750d    3
 2015-02-09-0127-48M.COL___296                                                 6
 STAT SP IPHASW D HRMM SECON CODA AMPLIT PERI AZIMU VELO AIN AR TRES W  DIS CAZ7
 BAR2 EZ EP        134 20.65                             169    0.3010 25.3 182 
 BAR2 EZ ES        134 34.16                             169   -0.8810 25.3 182 
 BAR2 EZ I         134 37.00        18.7 0.10            169           25.3 182 
 BRR  HZ EP     D  134 22.55                             153    0.8610 67.3 298 
 BRR  HE ES        134 38.32                             153    0.9010 67.3 298 
 BRR  HZ I         134 40.05        14.3 0.38            150           67.3 298 
 PAM  SZ EP        134 23.59                             149    0.5810 77.7  42 
 PAM  SN ES        134 39.90                             149    0.1210 77.7  42 
 PAM  SZ I         134 42.62        15.3 0.58            153           77.7  42 
 RUS  HZ EP        134 24.76                             142   -0.0210  103 174 
 RUS  HE ES        134 42.68                             142   -0.2410  103 174 
 RUS  HZ I         134 45.23         6.4 0.30            144            103 174 
 PTB  HZ EP        134 27.51                             131   -0.16 9  145 258 
 PTB  HN ES        134 47.74                             131   -0.34 9  145 258 
 PTB  HZ I         134 51.30         6.9 0.14            131            145 258 
 OCA  HE ES        134 49.81                             128   -0.69 9  158 354 
 OCA  HZ I         134 54.39         7.9 0.18            130            158 354 
 SPBC HZ EP        134 29.64                             127    0.17 9  163 218 
 SPBC HN ES        134 51.66                             127    0.39 9  163 218 
 SPBC HZ I         134 59.23         7.6 0.22            128            163 218 
 NOR  HZ EP        134 36.79                             117    0.08 8  233 234 
 NOR  HE ES        135  4.40                             117    0.23 8  233 234 
 NOR  HZ I         135 11.91         4.3 0.16            118            233 234 
 SML  HZ EP        134 36.88                             116   -0.50 8  240 336 
 SML  HE ES        135  4.83                             116   -0.53 8  240 336 
 SML  HZ I         135 11.52         8.4 0.10            118            240 336 
 CHI  HZ EP        134 38.51                             115   -0.48 8  250 194 
 CHI  HE ES        135  7.80                             115   -0.42 8  250 194 
 CHI  HZ I         135 11.05         1.6 0.24            117            250 194 
 HEL  HZ EP   1    134 41.60                             113    0.50 6  270 255 
 HEL  HE ES        135 11.60                             113   -0.38 8  270 255 
 HEL  HZ I         135 19.03         4.2 0.42            114            270 255 
                                                                                
