 2012  5 9 0155 40.3 L   6.743 -73.162145.0  RSN  7 0.5 1.8LRSN                1
 GAP=137        1.02       6.3     6.6  8.9  0.1175E+01  0.1063E+02  0.1555E+01E
 Epicentro: VILLANUEVA - SANTANDER                                             3
 ACTION:UP  12-07-05 12:03 OP:pat  STATUS:               ID:20120509015540 L   I
 2012-05-09-0150-00M.COL___192                                                 6
 STAT SP IPHASW D HRMM SECON CODA AMPLIT PERI AZIMU VELO SNR AR TRES W  DIS CAZ7
 BAR2 SZ EP        155 59.74                             174     0.010   17 188 
 BAR2 SZ ES   1    156 14.53                             174    -0.4 7   17 188 
 BAR2 SZ I         156 16.30        16.4 0.38                            17 188 
 BRR  HZ EP        156  2.08                             152     0.610   73 304 
 BRR  HZ I         156  3.79        11.5 0.10                            73 304 
 BRR  HN ES   1    156 18.77                             152     0.8 7   73 304 
 PAM  SZ EP        156  2.94                             148     0.110   84  38 
 PAM  SN ES   1    156 20.01                             148    -0.4 7   84  38 
 RUS  HZ EP        156  3.44                             146    -0.110   94 175 
 RUS  HN ES   1    156 21.67                             146     0.0 7   94 175 
 RUS  HZ I         156 23.29        11.6 0.56                            94 175 
 PTB  HZ EP        156  6.48                             132    -0.5 9  145 261 
 PTB  HN ES   2    156 27.17                             132    -0.6 5  145 261 
 PTB  HZ I         156 28.66         6.2 0.26                           145 261 
 OCA  HN ES   3    156 30.32                             128    -1.3 2  166 354 
 ZAR  HZ EP   3    156 13.48                             122     0.7 2  205 294 
 ZAR  HN ES   2    156 37.48                             122    -0.6 4  205 294 
 ZAR  HZ I         156 45.49         7.2 0.28                           205 294 
                                                                                
