 2014  4 9 0032 50.8 L   6.726 -73.325127.2  RSN  7 0.5 1.6LRSN                1
 GAP= 63        1.20       4.2     4.9  9.5 -0.4129E+01 -0.3999E+01  0.8295E+01E
 Epicentro: GALAN - SANTANDER                                                  3
 ACTION:UPD 14-05-13 23:07 OP:nd   STATUS:               ID:20140409003250 L   I
 OLDACT:REG 14-04-09 13:22 OP:stll STATUS:               ID:20140409002812     3
 2014-04-09-0028-12M.COL___259                                                 6
 STAT SP IPHASW D HRMM SECON CODA AMPLIT PERI AZIMU VELO AIN AR TRES W  DIS CAZ7
 BRR  HZ IP     C  033  9.18                             153   -0.1110 60.0 315 
 BRR  HZ I         033  9.45        16.2 0.16            155           60.0 315 
 BRR  HN ES        033 23.79                             153    0.0610 60.0 315 
 RUS  HZ EP        033 12.32                             141   -0.0810 96.0 164 
 RUS  HN ES        033 29.47                             141    0.2110 96.0 164 
 RUS  HZ I         033 30.74         4.5 0.20            141           96.0 164 
 PAM  SN ES        033 28.74                             141   -0.6210 96.8  46 
 PTB  HZ EP        033 13.61                             132   -0.7210  127 261 
 PTB  HN ES        033 32.32                             132   -0.3810  127 261 
 PTB  HZ I         033 34.54         9.1 0.38            132            127 261 
 SPBC HZ EP        033 16.45                             128    0.34 9  145 215 
 SPBC HN ES        033 36.38                             128    0.51 9  145 215 
 SPBC HZ I         033 44.13         6.0 0.18            128            145 215 
 OCA  HN ES        033 40.98                             124    1.00 9  167   0 
 TAM  HZ EP        033 18.79                             123   -0.03 9  173 101 
                                                                                
