 2010  8 9 0839 37.3 L   6.781 -73.101147.5  RSN 16 0.4 3.1LRSN                1
 GAP=164        0.87       2.8     5.7  4.7 -0.6023E+01  0.7626E+01  0.1111E+01E
 Epicentro: LOS SANTOS - SANTANDER                                             3
 ACTION:UP  10-09-07 10:53 OP:vdl  STATUS:               ID:20100809083937 L   I
 2010-08-09-0837-25S.COL___125                                                 6
 STAT SP IPHASW D HRMM SECON CODA AMPLIT PERI AZIMU VELO SNR AR TRES W  DIS CAZ7
 BAR2 SZ IP        839 56.97                             171    -0.110   23 204 
 BAR2 SZ ES   1    840 12.63                             171     0.1 7   23 204 
 BAR2 SZ I         840 13.76       199.9 0.23                            23 204 
 BTL  SZ EP        839 57.21                             170     0.110   24 310 
 BTL  SZ ES   1    840 11.88                             170    -0.7 7   24 310 
 GIR2 SZ EP        839 57.20                             166     0.010   34 343 
 GIR2 SZ ES   2    840 12.74                             166    -0.1 5   34 343 
 BRR  HZ IP     C  839 58.98                             151     0.110   77 298 
 BRR  HZ I         839 59.39       303.8 0.12                            77 298 
 BRR  HN ES   1    840 16.31                             151     0.5 7   77 298 
 RUS  HZ IP     C  840  0.72                             145    -0.310   98 179 
 RUS  HZ I         840  1.36        82.8 0.29                            98 179 
 RUS  HE ES        840 19.56                             145     0.010   98 179 
 GUE  SZ EP        840  2.17                             140     0.010  118  10 
 GRA  SZ IP        840  3.04                             138     0.310  126  15 
 GRA  SZ ES        840 22.83                             138     0.310  126  15 
 GRA  SZ I         840 23.91       130.4 0.45                           126  15 
 OCA  SZ EP        840  5.72                             130    -0.2 9  163 352 
 OCA  SZ ES   1    840 28.04                             130    -0.3 7  163 352 
 OCA  SZ I         840 33.31        89.3 0.13                           163 352 
 CHI  HZ EP        840 14.71                             118    -0.3 8  248 196 
 CHI  HZ I         840 17.53        37.2 0.23                           248 196 
 CHI  HN ES   1    840 44.79                             118     0.4 6  248 196 
 ROSC BZ EP        840 16.42                             117     0.9 8  254 212 
 ROSC BE ES   2    840 44.95                             117    -0.5 4  254 212 
 ROSC BZ I         840 52.77        62.9 0.38                           254 212 
 HEL  HZ EP   1    840 17.45                             115    -0.6 6  276 256 
 HEL  HN ES   2    840 50.09                             115     0.3 4  276 256 
 HEL  HZ I         840 56.09        67.0 0.28                           276 256 
 GUY  SZ EP   1    840 22.01                             113     0.7 5  304 236 
 RREF HZ EP        840 23.23                             111    -0.5 7  324 230 
 RREF HN ES   2    840 59.71                             111    -0.3 3  324 230 
 RREF HZ I         841  6.48        83.0 0.13                           324 230 
 DBB  SZ EP   1    840 24.95                             110    -0.4 5  345 275 
 ANIL HZ EP   1    840 27.76                                     0.4 5  359 225 
 ANIL HE ES   2    841  6.64                                     0.2 3  359 225 
 ANIL HZ I         841 13.36       134.9 0.32                           359 225 
 PRA  HZ EP   1    840 30.14                             107    -0.8 4  393 210 
 PRA  HN ES   2    841 13.52                             107     0.8 3  393 210 
 PRA  HZ I         841 17.86        43.0 0.46                           393 210 
                                                                                
