 2014  1 9 0812 58.6 L   6.849 -73.169144.1  RSN  7 0.4 1.4LRSN                1
 GAP=200        1.01       3.9     5.6  8.4  0.5661E+01  0.5743E+01 -0.9514E+01E
 Epicentro: LOS SANTOS - SANTANDER                                             3
 ACTION:UPD 14-03-13 09:53 OP:ep   STATUS:               ID:20140109081258 L   I
 OLDACT:DUP 14-01-09 12:21 OP:carl STATUS:               ID:20140109081002d    3
 2014-01-09-0810-00M.COL___285                                                 6
 STAT SP IPHASW D HRMM SECON CODA AMPLIT PERI AZIMU VELO AIN AR TRES W  DIS CAZ7
 BAR2 SZ EP        813 18.34                             168    0.1710 28.4 183 
 BAR2 SZ ES        813 33.25                             168   -0.1610 28.4 183 
 BAR2 SZ I         813 34.62         6.4 0.20            170           28.4 183 
 RUS  HZ EP        813 22.59                             142   -0.0310  106 175 
 RUS  HN ES        813 41.65                             142    0.3110  106 175 
 RUS  HZ I         813 43.37         2.0 0.28            143            106 175 
 PTB  HZ EP        813 25.55                             132    0.23 9  146 257 
 PTB  HN ES        813 46.60                             132    0.45 9  146 257 
 PTB  HZ I         813 48.24         3.1 0.46            132            146 257 
 SPBC HN ES        813 48.47                             128   -1.10 9  166 217 
 ZAR  HN ES        813 55.53                             123    0.16 9  200 291 
 SML  HZ EP        813 34.17                             118   -0.33 8  238 335 
 SML  HN ES        814  2.37                             118   -0.12 8  238 335 
 SML  HZ I         814  9.49         1.9 0.28            118            238 335 
 CHI  HN ES        814  6.78                             116    0.34 8  253 194 
 CHI  HN I         814  9.63         1.7 0.30            117            253 194 
                                                                                
