 2015  7 9 0455 59.6 L   6.800 -73.111139.9  RSN 16 0.5 2.1LRSN                1
 GAP=141        0.94       2.5     4.0  5.9 -0.1509E+01  0.1231E+02  0.1525E+01E
 Epicentro: LOS SANTOS - SANTANDER                                             3
 ACTION:UPD 15-09-08 21:47 OP:cam  STATUS:               ID:20150709045559 L   I
 OLDACT:REG 15-07-09 13:10 OP:spq  STATUS:               ID:20150709044750     3
 2015-07-09-0447-50M.COL___343                                                 6
 STAT SP IPHASW D HRMM SECON CODA AMPLIT PERI AZIMU VELO AIN AR TRES W  DIS CAZ7
 BAR2 EZ EP     D  456 18.51                             170   -0.0310 24.3 199 
 BAR2 EZ ES   1    456 32.99                             170   -0.33 7 24.3 199 
 BAR2 EZ I         456 34.23        36.2 0.18            166           24.3 199 
 PAM  EZ EP     C  456 21.59                             151    0.5510 75.0  37 
 PAM  EN ES        456 38.44                             151    0.6710 75.0  37 
 PAM  EZ I         456 41.15        15.4 0.44            156           75.0  37 
 RUS  HZ EP        456 22.73                             143   -0.0310  100 178 
 RUS  HE ES        456 40.53                             143   -0.3010  100 178 
 RUS  HZ I         456 42.22        22.7 0.23            144            100 178 
 OCA  HZ EP        456 27.39                             128   -0.11 9  161 352 
 OCA  HN ES        456 48.57                             128   -0.69 9  161 352 
 OCA  HZ I         456 52.60        47.0 0.18            131            161 352 
 ZAR  HZ EP        456 31.94                             121   -0.09 8  208 292 
 ZAR  HN ES        456 57.73                             121    0.39 8  208 292 
 ZAR  HZ I         457  3.89        16.0 0.30            121            208 292 
 NOR  HN ES   4    457  2.02                             117   -1.19 0  238 235 
 NOR  HZ I         457  4.23         9.2 0.18            118            238 235 
 SML  HZ EP        456 35.36                             116   -0.71 8  245 334 
 SML  HN ES   1    457  4.05                             116   -0.47 6  245 334 
 SML  HZ I         457  7.54        25.4 0.10            118            245 334 
 CHI  HZ EP        456 36.91                             116   -0.18 8  250 196 
 CHI  HN ES   1    457  5.88                             116   -0.46 6  250 196 
 CHI  HZ I         457 13.09         3.8 0.44            118            250 196 
 ROSC BN ES   4    457  8.96                             115    1.67 0  255 212 
 ROSC BZ I         457 15.90        10.8 0.40            117            255 212 
 HEL  HZ EP   1    456 40.50                             113    0.57 6  276 256 
 HEL  HN ES        457 11.79                             113    0.40 7  276 256 
 HEL  HZ I         457 19.11         5.5 0.49            114            276 256 
 GUY2CHZ EP   1    456 44.25                             111    0.95 5  304 235 
 GUY2CHE ES   1    457 17.59                             111    0.21 5  304 235 
 GUY2CHZ I         457 23.82         5.6 0.32                           304 235 
 PTGC HZ EP   4    456 41.70                             110   -1.34 0  307 159 
 CBOC HZ EP        456 47.18                             109    0.49 7  337 252 
 CBOC HN ES        457 23.00                             109   -0.43 7  337 252 
 CBOC HZ I         457 32.67         2.5 0.46            110            337 252 
 TOL  SZ EP        456 48.64                             108    0.71 6  346 225 
 TOL  SN ES        457 25.52                             108   -0.12 6  346 225 
 TOL  SZ I         457 31.14         4.5 0.21            109            346 225 
 PRA  HZ EP        456 52.69                             105   -0.45 6  394 210 
 PRA  HN ES        457 34.36                             105   -0.55 6  394 210 
 PRA  HZ I         457 40.39         3.5 0.28            107            394 210 
 ORTC HZ EP        456 53.40                             105   -0.19 6  398 217 
 ORTC HN ES        457 35.92                             105    0.21 6  398 217 
 ORTC HZ I         457 41.43         3.9 0.38            107            398 217 
 SJC  HZ EP   4    456 53.15                             105   -2.06 0  411 327 
 SJC  HN ES   4    457 34.72                             105   -3.87 0  411 327 
 SJC  HZ I         457 38.91         4.4 0.48            106            411 327 
                                                                                
