 2011  1 9 0429 53.4 L   6.789 -73.128144.3  RSN 10 0.4 2.1LRSN                1
 GAP=161        0.71       3.1     5.8  6.1 -0.9066E+01  0.1458E+02 -0.1422E+01E
 Epicentro: LOS SANTOS - SANTANDER                                             3
 ACTION:UP  11-02-08 08:39 OP:pat  STATUS:               ID:20110109042953 L   I
 2011-01-09-0425-21S.COL___135                                                 6
 STAT SP IPHASW D HRMM SECON CODA AMPLIT PERI AZIMU VELO SNR AR TRES W  DIS CAZ7
 BTL  SZ EP        430 13.18                             172     0.410   21 313 
 BAR2 SZ EP   1    430 12.84                             171     0.0 7   23 196 
 BAR2 SZ ES   1    430 27.87                             171    -0.1 7   23 196 
 BAR2 SZ I         430 30.03        28.8 0.36                            23 196 
 RUS  HZ EP   1    430 16.96                             144     0.1 7   99 177 
 RUS  HN ES   1    430 35.03                             144    -0.2 7   99 177 
 RUS  HZ I         430 36.81        15.0 0.41                            99 177 
 GRA  SZ IP        430 18.68                             136     0.210  126  16 
 GRA  SZ ES   1    430 38.20                             136     0.0 7  126  16 
 GRA  SZ I         430 39.36        21.2 0.33                           126  16 
 OCA  SZ EP   1    430 21.47                             129    -0.2 7  162 353 
 OCA  SZ ES   1    430 43.30                             129    -0.5 7  162 353 
 OCA  SZ I         430 49.23        30.2 0.19                           162 353 
 NOR  SZ EP   1    430 28.47                             118    -0.6 6  236 235 
 NOR  SE ES   1    430 56.41                             118    -0.6 6  236 235 
 CHI  HZ EP   1    430 30.68                             117    -0.2 6  248 196 
 CHI  HN ES   2    431  0.49                             117     0.3 4  248 196 
 CHI  HZ I         431  6.21         7.7 0.40                           248 196 
 HEL  HZ EP   2    430 34.56                             114     0.9 4  274 256 
 HEL  HE ES   2    431  5.53                             114     0.4 4  274 256 
 HEL  HZ I         431 14.03         5.4 0.26                           274 256 
 RREF HZ EP   1    430 39.59                             110     0.1 5  322 230 
 RREF HE ES   1    431 16.11                             110     0.6 5  322 230 
 RREF HZ I         431 22.95         9.3 0.29                           322 230 
 PRA  HZ EP   1    430 46.56                             106    -0.3 4  392 210 
 PRA  HN ES   1    431 28.51                             106     0.0 4  392 210 
                                                                                
