 2017  2 9 0923 59.9 L   6.802 -73.116146.1  RSN  8 0.5 1.6LRSN                1
 GAP=122        1.21       4.8     6.4  7.6  0.6274E+01  0.1079E+02  0.8620E+01E
 Epicentro: LOS SANTOS - SANTANDER                                             3
 ACTION:UPD 17-05-24 15:34 OP:jn   STATUS:               ID:20170209092359 L   I
 OLDACT:REG 17-02-09 13:53 OP:edw  STATUS:               ID:20170209091740     3
 2017-02-09-0918-00M.COL___352                                                 6
 STAT SP IPHASW D HRMM SECON CODA AMPLIT PERI AZIMU VELO AIN AR TRES W  DIS CAZ7
 BAR2 EZ EP        924 19.47                             170   -0.0910 24.3 198 
 BAR2 EZ ES        924 34.01                             170   -0.9010 24.3 198 
 BAR2 EZ I         924 37.26        14.0 0.42            167           24.3 198 
 BRR  HZ EP        924 21.28                             151    0.0710 74.0 297 
 BRR  HN ES        924 38.68                             151    0.8210 74.0 297 
 PAM  EZ EP        924 22.35                             151    0.3610 75.2  38 
 PAM  EE ES        924 38.92                             151   -0.3210 75.2  38 
 PAM  EZ I         924 44.16         5.1 0.33            142           75.2  38 
 RUS  HZ EP        924 24.24                             144    0.5910  101 178 
 RUS  HN ES        924 42.49                             144    0.2910  101 178 
 RUS  HZ I         924 42.95         6.0 0.28            137            101 178 
 ZAR  HZ EP        924 32.24                             122   -0.40 8  207 292 
 ZAR  HN ES        924 57.83                             122   -0.37 8  207 292 
 ZAR  HZ I         925  3.61         4.4 0.12            111            207 292 
 CHI  HZ EP        924 37.83                             117    0.13 8  250 196 
 CHI  HE ES        925  7.07                             117   -0.14 8  250 196 
 CHI  HZ I         925 16.50         2.5 0.36            109            250 196 
 URE  HZ EP   4    924 39.82                             113   -1.47 0  287 292 
 URE  HZ I         925 24.21         3.3 0.20            104            287 292 
 PTGC HZ EP   1    924 42.75                             112   -0.88 5  308 159 
 PTGC HN ES   4    925 15.81                             112   -1.94 0  308 159 
                                                                                
