 2014  3 9 0719 34.4 L   6.814 -73.173142.7  RSN  5 0.4 2.1LRSN                1
 GAP=132        0.98       3.7     5.2  8.8 -0.5139E+01  0.1648E+02 -0.8323E+01E
 Epicentro: LOS SANTOS - SANTANDER                                             3
 ACTION:UPD 14-04-09 23:15 OP:nd   STATUS:               ID:20140309071934 L   I
 OLDACT:REG 14-03-09 09:38 OP:nd   STATUS:               ID:20140309071044     3
 2014-03-09-0710-44M.COL___220                                                 6
 STAT SP IPHASW D HRMM SECON CODA AMPLIT PERI AZIMU VELO AIN AR TRES W  DIS CAZ7
 PAM  SZ EP        719 56.51                             150    0.1810 78.2  42 
 PAM  SN ES        720 13.74                             150    0.3010 78.2  42 
 PAM  SZ I         720 16.13       297.0 0.58            154           78.2  42 
 RUS  HZ EP        719 57.60                             143   -0.3710  102 174 
 RUS  HN ES        720 15.86                             143   -0.5010  102 174 
 RUS  HZ I         720 17.61         8.6 0.30            147            102 174 
 PTB  HZ EP        720  0.56                             132   -0.30 9  145 258 
 PTB  HN ES        720 21.36                             132   -0.15 9  145 258 
 PTB  HZ I         720 24.89         6.6 0.14            134            145 258 
 SPBC HZ EP        720  2.88                             128    0.29 9  162 218 
 SPBC HN ES        720 25.34                             128    0.76 9  162 218 
 SPBC HZ I         720 30.58        11.2 0.28            131            162 218 
 SML  HZ EP        720 10.83                             117    0.27 8  241 336 
 SML  HN ES        720 38.35                             117   -0.42 8  241 336 
 SML  HZ I         720 41.86         5.9 0.12            120            241 336 
                                                                                
