 2015  8 9 0048 10.5 L   5.904 -73.636120.0  RSN  9 0.3 1.7LRSN                1
 GAP= 93        0.70       2.2     3.4  4.8 -0.1658E+01  0.5890E+01 -0.3098E+01E
 Epicentro: BARBOSA - SANTANDER                                                3
 ACTION:UPD 15-09-15 23:01 OP:cam  STATUS:               ID:20150809004810 L   I
 OLDACT:UP  15-08-09 15:01 OP:mh   STATUS:               ID:20150809003751d    3
 OLDACT:DUP 15-08-09 15:01 OP:mh   STATUS:               ID:20150809003751d    3
 2015-08-09-0037-50M.COL___352                                                 6
 STAT SP IPHASW D HRMM SECON CODA AMPLIT PERI AZIMU VELO AIN AR TRES W  DIS CAZ7
 SPBC HZ EP        048 28.03                             154   -0.0610 55.8 240 
 SPBC HN ES        048 42.13                             154    0.2910 55.8 240 
 SPBC HZ I         048 44.25        13.0 0.20            150           55.8 240 
 RUS  HZ EP        048 29.02                             152    0.0410 61.2  91 
 RUS  HN ES        048 43.31                             152   -0.1210 61.2  91 
 RUS  HZ I         048 44.32         6.8 0.22            152           61.2  91 
 BAR2 EZ EP        048 30.78                             141    0.1110 91.1  33 
 BAR2 EZ ES        048 46.62                             141    0.1910 91.1  33 
 BAR2 EZ I         048 47.88        32.9 0.20            141           91.1  33 
 BRR  HZ EP        048 33.87                             129   -0.1610  133 356 
 BRR  HN ES        048 52.60                             129    0.1910  133 356 
 BRR  HZ I         048 53.75         7.3 0.18            128            133 356 
 CHI  HN ES        048 54.42                             127   -0.37 9  141 184 
 CHI  HZ I         048 57.64         5.9 0.32            125            141 184 
 GUY2CHZ EP   4    048 42.71                             116    0.55 0  206 249 
 GUY2CHN ES   4    049  9.65                             116    2.77 0  206 249 
 GUY2CHZ I         049 12.91         3.4 0.38                           206 249 
 ZAR  HZ EP   1    048 43.52                             114    0.21 6  222 322 
 ZAR  HN ES        049  8.53                             114   -0.39 8  222 322 
 ZAR  HZ I         049 10.55         5.8 0.18            113            222 322 
 TOL  SZ EP        048 45.66                             113    0.21 8  237 232 
 TOL  SN ES   4    049 13.37                             113    0.64 0  237 232 
 TOL  SZ I         049 18.35         2.8 0.54            111            237 232 
 OCA  HZ EP   1    048 48.65                             110    0.75 6  261   8 
 OCA  HZ I         048 54.57         8.0 0.42            109            261   8 
 OCA  HN ES        049 16.51                             110   -0.60 8  261   8 
                                                                                
