 2015  2 9 0524 51.8 L   6.816 -73.166138.8  RSN 10 0.5 1.7LRSN                1
 GAP=133        1.29       4.0     5.3  8.2 -0.4514E+01  0.1472E+02  0.2482E+01E
 Epicentro: LOS SANTOS - SANTANDER                                             3
 ACTION:UPD 15-04-30 21:24 OP:nd   STATUS:               ID:20150209052451 L   I
 OLDACT:REG 15-02-09 13:24 OP:fm   STATUS:               ID:20150209051746     3
 2015-02-09-0517-46M.COL___295                                                 6
 STAT SP IPHASW D HRMM SECON CODA AMPLIT PERI AZIMU VELO AIN AR TRES W  DIS CAZ7
 BAR2 EZ EP        525 10.95                             169    0.3210 24.8 184 
 BAR2 EZ ES   1    525 26.19                             169    0.88 7 24.8 184 
 BAR2 EZ I         525 27.34        14.7 0.16            170           24.8 184 
 BRR  HZ EP        525 12.90                             152    0.8510 68.4 298 
 BRR  HN ES        525 28.30                             152    0.4710 68.4 298 
 BRR  HZ I         525 33.56         6.2 0.48            150           68.4 298 
 PAM  SZ EP        525 13.88                             149    0.5910 77.5  42 
 PAM  SN ES        525 29.63                             149   -0.4210 77.5  42 
 PAM  SZ I         525 32.98         4.9 0.50            154           77.5  42 
 RUS  HZ EP        525 14.84                             142   -0.1810  102 175 
 RUS  HE ES        525 32.68                             142   -0.4510  102 175 
 PTB  HZ EP        525 17.35                             131   -0.70 9  146 258 
 PTB  HN ES        525 38.00                             131   -0.51 9  146 258 
 PTB  HZ I         525 42.32         4.5 0.70            132            146 258 
 OCA  HE ES        525 40.19                             128   -0.72 9  158 354 
 OCA  HZ I         525 44.42         5.2 0.22            131            158 354 
 SPBC HZ EP        525 19.80                             127    0.02 9  163 218 
 SPBC HN ES        525 41.13                             127   -0.46 9  163 218 
 SPBC HZ I         525 47.35         7.6 0.18            130            163 218 
 SML  HE ES        525 55.53                             116   -0.31 8  241 336 
 SML  HZ I         525 59.69         4.0 0.10            118            241 336 
 HEL  HZ EP   1    525 32.29                             113    0.80 6  270 255 
 HEL  HE ES        526  3.00                             113    0.57 8  270 255 
 HEL  HZ I         526 10.43         5.6 0.92            115            270 255 
 GUY2CHZ EP        525 34.74                             111   -0.27 7  300 234 
 GUY2CHE ES        526  8.90                             111    0.19 7  300 234 
 GUY2CHZ I         526 17.55         3.5 0.36                           300 234 
                                                                                
