 2015  2 9 0433 32.2 L   6.811 -73.180133.9  RSN 18 0.5 1.9LRSN                1
 GAP= 69        1.18       2.7     3.2  5.6 -0.1426E+01  0.5307E+01  0.1141E+01E
 Epicentro: ZAPATOCA - SANTANDER                                               3
 ACTION:UPD 15-04-30 21:24 OP:nd   STATUS:               ID:20150209043332 L   I
 OLDACT:DUP 15-02-09 17:27 OP:fm   STATUS:               ID:20150209042745d    3
 2015-02-09-0427-43M.COL___292                                                 6
 STAT SP IPHASW D HRMM SECON CODA AMPLIT PERI AZIMU VELO AIN AR TRES W  DIS CAZ7
 BAR2 EZ EP        433 50.88                             169    0.4810 24.2 181 
 BAR2 EZ ES        434  4.78                             169    0.1710 24.2 181 
 BAR2 EZ I         434  7.08        29.0 0.14            168           24.2 181 
 BRR  HZ EP        433 52.72                             152    0.9010 67.3 299 
 BRR  HE ES        434  7.90                             152    0.7610 67.3 299 
 BRR  HZ I         434 13.43        16.4 0.12            152           67.3 299 
 PAM  SZ EP        433 53.77                             148    0.5310 78.9  42 
 PAM  SE ES        434  9.80                             148    0.1310 78.9  42 
 PAM  SZ I         434 12.57        19.9 0.46            154           78.9  42 
 RUS  HZ EP        433 54.92                             141    0.0210  102 174 
 RUS  HE ES        434 12.28                             141   -0.3410  102 174 
 RUS  HZ I         434 15.20         8.8 0.28            143            102 174 
 PTB  HZ EP        433 58.05                             130    0.17 9  144 258 
 PTB  HN ES        434 17.61                             130   -0.31 9  144 258 
 PTB  HZ I         434 24.35        11.0 0.20            131            144 258 
 OCA  HZ EP        433 59.03                             127   -0.40 9  159 354 
 OCA  HE ES        434 19.88                             127   -0.81 9  159 354 
 OCA  HZ I         434 24.06        11.6 0.26            131            159 354 
 TAM  HZ EP        433 59.26                             127   -0.07 9  159 105 
 TAM  HN ES        434 20.02                             127   -0.49 9  159 105 
 TAM  HZ I         434 22.43         6.5 0.36            132            159 105 
 SPBC HZ EP        433 59.92                             126    0.26 9  162 218 
 SPBC HE ES        434 20.70                             126   -0.39 9  162 218 
 SPBC HZ I         434 27.84        14.5 0.26            128            162 218 
 NOR  HZ EP        434  7.47                             116    0.48 8  232 234 
 NOR  HE ES        434 32.99                             116   -1.15 8  232 234 
 NOR  HZ I         434 43.41         7.5 0.36            118            232 234 
 SML  HZ EP        434  7.73                             115   -0.14 8  241 336 
 SML  HE ES        434 35.08                             115   -0.63 8  241 336 
 SML  HZ I         434 39.52         8.6 0.10            118            241 336 
 CHI  HN ES        434 37.49                             115   -0.71 8  249 194 
 CHI  HZ I         434 46.32         5.4 0.40            117            249 194 
 ROSC BZ EP        434  9.59                             114    0.01 8  252 210 
 ROSC BE ES        434 38.76                             114    0.01 8  252 210 
 ROSC BZ I         434 44.62         6.8 0.30            116            252 210 
 HEL  HE ES        434 42.14                             113    0.09 8  269 255 
 GUY2CHZ EP        434 14.60                             110   -0.39 7  299 234 
 GUY2CHE ES        434 48.61                             110    0.22 7  299 234 
 GUY2CHZ I         434 56.34         3.8 0.38                           299 234 
 CBOC HZ EP        434 19.21                             108    0.96 7  330 252 
 CBOC HE ES        434 54.18                             108   -0.01 7  330 252 
 CBOC HZ I         434 58.83         1.6 0.22            110            330 252 
 TOL  SE ES   4    434 53.32                             107   -3.58 0  342 224 
 TOL  SZ I         435  5.55         3.8 0.50            109            342 224 
 MON  HZ EP   4    434 18.60                             107   -1.71 0  350 309 
 MON  HE ES        434 57.32                             107   -0.53 6  350 309 
 MON  HZ I         434 57.83         2.2 0.18            109            350 309 
 ORTC HZ EP        434 25.56                             104   -0.01 6  394 216 
 ORTC HE ES        435  8.04                             104    0.82 6  394 216 
 ORTC HZ I         435 13.68         2.6 0.44            106            394 216 
                                                                                
