 2012  5 9 0026 28.3 L   6.770 -73.175136.0  RSN 14 0.5 2.3LRSN 3.1WRSN        1
 SPEC AVERAGE  MO 13.7 ST  1.5 OM 26.9 f0 2.78 R  0.54 AL 2.19 WI 22.4 MW  3.1 3
 GAP=134        0.98       4.8     5.1  6.9 -0.8660E+00  0.1622E+02  0.3554E+01E
 Epicentro: LOS SANTOS - SANTANDER                                             3
 SPEC RUS HH Z MO 13.4 ST  1.3 OM  1.8 f0 3.41 R0.4563 AL 2.57 WI 13.0 MW  2.9 3
 SPEC RUS HH Z T 027 7 K 0.020 GD  167 VS 4.20 DE 3.20 Q0230.0 QA 0.60 VS 4.20 3
 SPEC PAM SH N MO 14.0 ST  2.3 OM  2.4 f0 2.62 R0.5937 AL 2.88 WI 18.6 MW  3.3 3
 SPEC PAM SH N T 027 6 K 0.020 GD  158 VS 4.20 DE 3.20 Q0230.0 QA 0.60 VS 4.20 3
 SPEC HEL HH Z MO 13.6 ST0.547 OM  1.7 f0 2.32 R0.6691 AL 1.12 WI 35.6 MW  3.0 3
 SPEC HEL HH Z T 02733 K 0.020 GD  300 VS 4.20 DE 3.20 Q0230.0 QA 0.60 VS 4.20 3
 ACTION:UP  12-07-05 12:03 OP:pat  STATUS:               ID:20120509002628 L   I
 2012-05-09-0020-00M.COL___192                                                 6
 STAT SP IPHASW D HRMM SECON CODA AMPLIT PERI AZIMU VELO SNR AR TRES W  DIS CAZ7
 BAR2 SZ EP        026 46.63                             171    -0.110   20 182 
 BAR2 SZ ES   1    027  1.21                             171     0.2 7   20 182 
 BAR2 SZ I         027  3.56        82.0 0.26                            20 182 
 BRR  HZ IP        026 48.64                             151     0.310   70 302 
 BRR  HZ I         026 48.94       133.4 0.30                            70 302 
 BRR  HN ES   2    027  4.41                             151     0.4 5   70 302 
 PAM  SZ EP        026 49.76                             147    -0.110   82  40 
 PAM  SN ES   1    027  6.38                             147    -0.2 7   82  40 
 RUS  HZ EP        026 50.86                             143     0.010   98 174 
 RUS  HE ES   1    027  8.90                             143     0.4 7   98 174 
 RUS  HZ I         027 10.40        17.6 0.42                            98 174 
 PTB  HZ EP        026 53.28                             130    -0.9 9  144 260 
 PTB  HN ES   1    027 13.90                             130    -0.4 7  144 260 
 PTB  HZ I         027 17.05        33.4 0.12                           144 260 
 ZAR  HZ EP        026 59.88                             120    -0.1 9  202 293 
 ZAR  HN ES   2    027 24.84                             120     0.2 4  202 293 
 ZAR  HZ I         027 27.76        24.7 0.10                           202 293 
 NOR  SN ES   3    027 30.45                             117     0.4 2  230 235 
 CHI  HZ EP   2    027  5.29                             115     0.2 4  245 195 
 CHI  HN ES   2    027 33.15                             115    -0.5 4  245 195 
 CHI  HZ I         027 40.76         4.6 0.38                           245 195 
 HEL  HZ EP        027  8.67                             113     1.1 8  268 256 
 HEL  HN ES   2    027 38.18                             113    -0.1 4  268 256 
 HEL  HZ I         027 45.35        15.7 0.50                           268 256 
 URE  HZ EP   3    027 11.25                             112     2.5 2  282 293 
 GUY  SZ EP   3    027 11.72                             111     0.5 2  299 235 
 GUY  SE ES   3    027 44.63                             111    -0.1 2  299 235 
 GUY  SZ I         027 50.71        11.9 0.42                           299 235 
 RREF HZ EP        027 12.91                             109    -0.6 7  317 229 
 DBB  SZ EP        027 15.38                             108     0.3 7  336 275 
 PRA  HZ EP        027 20.93                             105    -0.1 6  387 209 
 PRA  HN ES   2    028  3.12                             105     1.0 3  387 209 
                                                                                
