 2013  3 9 0646 14.4 L   6.770 -73.154148.4  RSN  5 0.4 1.9LRSN                1
 GAP=137        1.04       6.2     5.6  9.6 -0.6854E+01  0.7834E+01 -0.4450E+00E
 Epicentro: LOS SANTOS - SANTANDER                                             3
 ACTION:UPD 13-04-09 14:01 OP:ep   STATUS:               ID:20130309064614 L   I
 2013-03-09-0638-52M.COL___198                                                 6
 STAT SP IPHASW D HRMM SECON CODA AMPLIT PERI AZIMU VELO AIN AR TRES W  DIS CAZ7
 BAR2 SZ EP        646 34.27                             172    0.0010 19.9 189 
 BAR2 SZ I         646 50.45        16.3 0.42            166           19.9 189 
 BRR  HZ EP        646 36.25                             153    0.3810 72.0 301 
 BRR  HE ES        646 53.19                             153    0.5710 72.0 301 
 BRR  HN I         646 53.79        36.9 0.26            152           72.0 301 
 PAM  SZ IP     C  646 37.30                             150    0.2310 80.5  39 
 PAM  SZ I         646 37.50        10.2 0.22            150           80.5  39 
 PAM  SN ES        646 54.17                             150   -0.5910 80.5  39 
 RUS  HN ES        646 56.87                             145    0.1510 97.4 175 
 RUS  HE I         646 59.04         6.2 0.20            139           97.4 175 
 PTB  HZ EP        646 41.10                             133   -0.33 9  146 260 
 PTB  HN ES        647  2.02                             133   -0.51 9  146 260 
 PTB  HE I         647  8.03         7.7 0.32            129            146 260 
                                                                                
