 2010  8 9 0437 47.4 L   6.769 -73.081146.0  RSN  9 0.4 1.7LRSN                1
 GAP=166        0.86       4.3     8.7  8.0 -0.5201E+01 -0.2275E+02  0.2812E+01E
 Epicentro: LOS SANTOS - SANTANDER                                             3
 ACTION:UP  10-09-07 10:53 OP:vdl  STATUS:               ID:20100809043747 L   I
 2010-08-09-0434-19S.COL___124                                                 6
 STAT SP IPHASW D HRMM SECON CODA AMPLIT PERI AZIMU VELO SNR AR TRES W  DIS CAZ7
 BAR2 SZ EP        438  6.85                             171    -0.210   23 210 
 BAR2 SZ ES   2    438 21.85                             171    -0.5 5   23 210 
 BAR2 SZ I         438 23.03        18.4 0.29                            23 210 
 BTL  SZ EP        438  7.09                             169    -0.110   26 309 
 BRR  HZ EP        438  8.68                             150    -0.410   79 298 
 BRR  HN ES        438 26.22                             150     0.310   79 298 
 BRR  HZ I         438 27.67        12.2 0.14                            79 298 
 RUS  HZ EP   1    438 10.81                             145    -0.1 7   97 180 
 RUS  HZ I         438 11.59         4.4 0.10                            97 180 
 RUS  HN ES   1    438 29.79                             145     0.5 7   97 180 
 GUE  SZ EP   1    438 13.13                             139     0.8 7  119   8 
 GRA  SZ EP        438 12.74                             137    -0.110  127  14 
 GRA  SZ ES   2    438 32.17                             137    -0.4 5  127  14 
 GRA  SZ I         438 36.66         4.1 0.31                           127  14 
 CHI  HZ EP   2    438 24.99                             117     0.0 4  247 197 
 CHI  HE ES   2    438 54.04                             117    -0.3 4  247 197 
 CHI  HZ I         439  0.17         2.2 0.26                           247 197 
 ROSC BZ EP   2    438 26.38                             117     0.7 4  254 213 
 ROSC BZ I         439  1.56         6.3 0.45                           254 213 
 PRA  HZ EP   2    438 40.65                             106    -0.4 3  393 211 
 PRA  HN ES   2    439 22.61                             106    -0.2 3  393 211 
 PRA  HZ I         439 28.24         2.4 0.48                           393 211 
                                                                                
