 2013 12 9 0402 52.8 L   6.815 -73.181142.7  RSN  7 0.4 1.3LRSN                1
 GAP=131        1.02       4.1     5.3  7.2 -0.2655E+01  0.9521E+01 -0.4771E+01E
 Epicentro: LOS SANTOS - SANTANDER                                             3
 ACTION:UPD 14-01-13 10:16 OP:ep   STATUS:               ID:20131209040252 L   I
 OLDACT:DUP 13-12-09 07:23 OP:jn   STATUS:               ID:20131209040001d    3
 2013-12-09-0400-00M.COL___285                                                 6
 STAT SP IPHASW D HRMM SECON CODA AMPLIT PERI AZIMU VELO AIN AR TRES W  DIS CAZ7
 BAR2 SZ ES        4 3 26.53                             170   -0.5710 24.6 180 
 BAR2 SZ I         4 3 28.91         7.3 0.33            171           24.6 180 
 BRR  HZ EP        4 3 13.97                             153    0.6210 67.0 299 
 BRR  HN ES   1    4 3 30.35                             153    0.95 7 67.0 299 
 BRR  HZ I         4 3 33.94         4.4 0.28            154           67.0 299 
 PAM  SZ EP        4 3 14.96                             150    0.2210 78.7  42 
 PAM  SE ES        4 3 32.03                             150    0.1610 78.7  42 
 PAM  SZ I         4 3 34.12         5.1 0.62            153           78.7  42 
 RUS  HZ EP        4 3 16.53                             142    0.1610  103 174 
 RUS  HN ES   2    4 3 34.36                             142   -0.41 5  103 174 
 RUS  HZ I         4 3 36.09         1.2 0.32            146            103 174 
 PTB  HZ EP        4 3 18.96                             132   -0.21 9  144 258 
 PTB  HN ES        4 3 39.59                             132   -0.17 9  144 258 
 PTB  HZ I         4 3 42.43         3.8 0.12            134            144 258 
 OCA  HN ES        4 3 41.93                             129   -0.46 9  158 354 
 OCA  HZ I         4 3 43.29         3.7 0.32            132            158 354 
 SML  HZ EP        4 3 28.47                             117   -0.42 8  241 336 
 SML  HN ES        4 3 57.03                             117   -0.03 8  241 336 
                                                                                
