 2017  6 9 0121  7.3 L   6.969 -73.419128.0  RSN  5 0.4 1.2LRSN                1
 GAP=227        1.04       6.7     9.2  8.4 -0.1206E+02  0.1906E+02 -0.5389E+01E
 Epicentro: SAN VICENTE DE CHUCURI - SANTANDER                                 3
 ACTION:UPD 17-09-14 16:50 OP:jn   STATUS:               ID:20170609012107 L   I
 OLDACT:UP  17-06-30 01:54 OP:nlst STATUS:               ID:20170609012107 L   3
 OLDACT:UP  17-06-09 14:25 OP:edw  STATUS:               ID:20170609011738     3
 OLDACT:REG 17-06-09 12:38 OP:edw  STATUS:               ID:20170609011738     3
 2017-06-09-0118-00M.COL___368                                                 6
 STAT SP IPHASW D HRMM SECON CODA AMPLIT PERI AZIMU VELO AIN AR TRES W  DIS CAZ7
 BRR  HZ EP     C  121 24.58                             163   -0.2710 35.8 295 
 BRR  HN ES        121 38.72                             163    0.2210 35.8 295 
 BRR  HZ I         121 41.82         4.5 0.12            152           35.8 295 
 PTB  HZ EP        121 30.13                             133   -0.5910  124 248 
 PTB  HN ES        121 49.00                             133    0.0410  124 248 
 PTB  HZ I         121 53.41         1.4 0.14            129            124 248 
 RUS  HZ EP   9    121 26.81                             133   -4.61 0  125 163 
 RUS  HN ES        121 45.28                             132   -0.3110  125 163 
 RUS  HZ I         121 47.10         1.6 0.28            140            125 163 
 ZAR  HZ EP        121 35.85                             123    0.81 9  169 290 
 ZAR  HN ES        121 56.28                             123   -0.36 9  169 290 
 ZAR  HZ I         122  7.49         3.5 0.34            121            169 290 
 NOR  HN ES        122  7.30                             115    0.29 8  223 226 
 NOR  HZ I         122 10.99         1.5 0.24            116            223 226 
                                                                                
