 2017  2 9 0340 10.5 L   7.342 -73.118 11.2  RSN  7 0.5 1.6LRSN                1
 GAP=170        1.00       3.4     2.3  4.5 -0.3852E+00  0.4333E+01  0.3920E+00E
 Epicentro: RIONEGRO - SANTANDER                                               3
 ACTION:UPD 17-05-24 15:34 OP:jn   STATUS:               ID:20170209034010 L   I
 OLDACT:REG 17-02-09 13:06 OP:edw  STATUS:               ID:20170209033745     3
 2017-02-09-0338-00M.COL___364                                                 6
 STAT SP IPHASW D HRMM SECON CODA AMPLIT PERI AZIMU VELO AIN AR TRES W  DIS CAZ7
 PAM  EZ IP     D  340 18.64                             101   -0.0110 46.2  90 
 PAM  EN ES        340 24.80                             101   -0.2510 46.2  90 
 PAM  EZ I         340 25.83        50.0 0.16             97           46.2  90 
 BRR  HZ EP        340 21.81                              96    0.0110 70.6 248 
 BRR  HN ES        340 30.68                              96    0.0310 70.6 248 
 BRR  HZ I         340 31.23         9.8 0.10             94           70.6 248 
 BAR2 EZ ES        340 34.43                              95   -0.0510 83.2 185 
 RUS  HZ EP        340 36.47                              56    0.74 9  160 179 
 RUS  HN ES        340 55.40                              56   -0.04 9  160 179 
 RUS  HZ I         340 59.34         7.9 0.18             56            160 179 
 PTB  HZ EP        340 37.12                              56    0.44 9  172 239 
 PTB  HN ES        340 56.30                              56   -0.83 9  172 239 
 PTB  HZ I         340 57.65         8.5 0.24             56            172 239 
 ZAR  HZ EP        340 38.81                              56   -0.40 9  193 275 
 ZAR  HN ES        341  1.60                              56   -0.04 9  193 275 
 ZAR  HZ I         341  2.99        13.5 0.22             56            193 275 
 URE  HZ EP   2    340 49.76                              56    0.85 4  270 280 
 URE  HN ES   2    341 20.37                              56    1.47 4  270 280 
                                                                                
