 2017  6 9 0353 40.8 L   6.796 -73.125147.9  RSN  4 0.2 1.2LRSN                1
 GAP=239        0.52       3.3     4.4  6.1  0.8162E+01 -0.1486E+01 -0.1790E+01E
 Epicentro: LOS SANTOS - SANTANDER                                             3
 ACTION:UPD 17-09-14 16:50 OP:jn   STATUS:               ID:20170609035340 L   I
 OLDACT:UP  17-06-09 16:47 OP:edw  STATUS:               ID:20170609034734d    3
 OLDACT:DUP 17-06-09 16:45 OP:edw  STATUS:               ID:20170609034734d    3
 OLDACT:REG 17-06-09 12:54 OP:edw  STATUS:               ID:20170609034733     3
 2017-06-09-0348-00M.COL___368                                                 6
 STAT SP IPHASW D HRMM SECON CODA AMPLIT PERI AZIMU VELO AIN AR TRES W  DIS CAZ7
 BRR  HZ EP        354  2.35                             152    0.0010 73.4 298 
 BRR  HN ES        354 19.30                             152    0.1810 73.4 298 
 BRR  HZ I         354 22.36         4.3 0.36            154           73.4 298 
 RUS  HZ EP        354  4.88                             144    0.1210  100 177 
 RUS  HN ES        354 23.17                             144   -0.2510  100 177 
 RUS  HZ I         354 24.14         1.6 0.48            148            100 177 
 SPBC HE ES        354 32.20                             129    0.16 9  164 220 
 ZAR  HE ES        354 39.00                             122   -0.26 8  206 292 
                                                                                
