 2011  8 9 0300 23.2 L   6.865 -72.981136.0  RSN  5 0.3 1.6LRSN                1
 GAP=200        0.49       4.1     6.7  5.3  0.1098E+02 -0.2438E+01 -0.3837E+01E
 Epicentro: CEPITA - SANTANDER                                                 3
 ACTION:UPD 12-07-25 14:07 OP:epov STATUS:               ID:20110809030023 L   I
 2011-08-09-0256-58S.COL___144                                                 6
 STAT SP IPHASW D HRMM SECON CODA AMPLIT PERI AZIMU VELO AIN AR TRES W  DIS CAZ7
 BAR2 SZ ES   1    3 0 56.88                             164    0.15 7 37.5 216 
 BAR2 SZ I         3 0 58.15         9.1 0.26                          37.5 216 
 BRR  HZ EP        3 0 43.89                             146   -0.2810 85.1 288 
 BRR  HZ I         3 0 58.55        15.2 0.41                          85.1 288 
 BRR  HN ES   1    3 1  0.67                             146    0.12 7 85.1 288 
 RUS  HZ EP   1    3 0 46.37                             140   -0.20 7  108 186 
 RUS  HN ES   1    3 1  4.93                             140    0.12 7  108 186 
 RUS  HZ I         3 1  5.94         2.6 0.28                           108 186 
 OCA  SZ EP   2    3 0 50.96                             128    0.58 5  156 346 
 OCA  SZ I         3 1  5.41         5.1 0.22                           156 346 
 NOR  SZ EP   2    3 1  0.77                             115    0.31 4  254 236 
 NOR  SN ES   2    3 1 29.54                             115    0.00 4  254 236 
                                                                                
