 2012  1 9 0925 57.3 L   6.758 -73.096139.2  RSN 12 0.3 2.2LRSN                1
 GAP=145        0.57       2.8     3.7  4.2 -0.1654E+01  0.3956E+01  0.2688E+01E
 Epicentro: LOS SANTOS - SANTANDER                                             3
 ACTION:UP  12-02-03 08:15 OP:REBC STATUS:               ID:20120109092557 L   I
 2012-01-09-0920-00M.COL___186                                                 6
 STAT SP IPHASW D HRMM SECON CODA AMPLIT PERI AZIMU VELO SNR AR TRES W  DIS CAZ7
 BAR2 SZ EP        926 16.05                             171    -0.110   21 207 
 BAR2 SZ ES   1    926 30.56                             171    -0.2 7   21 207 
 BAR2 SZ I         926 31.73        68.8 0.30                            21 207 
 GIR2 SZ EP        926 16.16                             164    -0.310   37 343 
 GIR2 SZ ES   2    926 31.18                             164    -0.1 5   37 343 
 PAM  SZ EP   1    926 18.90                             149     0.0 7   78  34 
 PAM  SN ES   1    926 35.72                             149     0.0 7   78  34 
 BRR  HZ IP     C  926 17.94                             149    -0.310   78 300 
 BRR  HZ I         926 18.33        56.5 0.12                            78 300 
 BRR  HE ES   1    926 34.83                             149     0.3 7   78 300 
 RUS  HZ EP   1    926 20.10                             144     0.0 7   96 179 
 RUS  HE ES   2    926 38.60                             144     0.7 5   96 179 
 RUS  HZ I         926 40.02        20.4 0.33                            96 179 
 OCA  SZ EP   1    926 26.02                             127     0.4 7  166 351 
 OCA  SZ ES   2    926 48.47                             127     0.7 5  166 351 
 OCA  SZ I         926 52.95        32.1 0.36                           166 351 
 ZAR  HZ EP   2    926 29.72                             120    -0.4 4  211 293 
 ZAR  HN ES   2    926 55.44                             120    -0.2 4  211 293 
 ZAR  HZ I         927  2.80        23.8 0.38                           211 293 
 NOR  SZ EP   2    926 33.60                             117     0.7 4  237 236 
 NOR  SN ES   2    927  0.68                             117     0.0 4  237 236 
 CHI  HZ EP   1    926 34.46                             116     0.1 6  246 197 
 CHI  HN ES   2    927  3.05                             116    -0.2 4  246 197 
 CHI  HZ I         927 10.36         6.7 0.45                           246 197 
 HEL  HZ EP   2    926 37.56                             113    -0.1 4  276 257 
 HEL  HN ES   2    927  9.04                             113    -0.2 4  276 257 
 HEL  HZ I         927 10.48         6.1 0.39                           276 257 
 RREF HZ EP   2    926 43.41                             109     0.1 3  323 231 
 RREF HN ES   2    927 19.45                             109     0.2 3  323 231 
 RREF HZ I         927 24.54         5.2 0.29                           323 231 
 PRA  HZ EP   1    926 50.76                             105     0.3 4  391 211 
                                                                                
