 2012  5 9 0730  4.6 L   6.784 -73.151147.0  RSN 11 0.4 2.0LRSN                1
 GAP=137        0.78       3.6     4.1  5.8 -0.1697E+01  0.6362E+01  0.2703E+01E
 Epicentro: LOS SANTOS - SANTANDER                                             3
 ACTION:UP  12-07-05 12:03 OP:pat  STATUS:               ID:20120509073004 L   I
 2012-05-09-0730-00M.COL___192                                                 6
 STAT SP IPHASW D HRMM SECON CODA AMPLIT PERI AZIMU VELO SNR AR TRES W  DIS CAZ7
 BAR2 SZ IP        730 24.40                             171     0.110   22 189 
 BAR2 SZ ES   1    730 39.53                             171    -0.2 7   22 189 
 BAR2 SZ I         730 40.85        31.2 0.20                            22 189 
 BRR  HZ IP     C  730 26.22                             153     0.310   72 300 
 BRR  HZ I         730 26.48        54.5 0.15            153             72 300 
 BRR  HE ES   1    730 43.39                             153     0.9 7   72 300 
 PAM  SZ EP        730 27.18                             150     0.110   79  39 
 PAM  SN ES   1    730 44.25                             150    -0.3 7   79  39 
 RUS  HZ EP        730 28.27                             145    -0.110   99 176 
 RUS  HN ES   1    730 46.70                             145    -0.2 7   99 176 
 PTB  HZ EP        730 31.11                             132    -0.5 9  147 259 
 PTB  HN ES   1    730 52.17                             132    -0.5 7  147 259 
 PTB  HZ I         730 55.29         7.8 0.12                           147 259 
 OCA  HZ EP   3    730 32.37                             130    -0.8 2  162 353 
 ZAR  HZ EP        730 36.98                             123    -0.2 9  204 293 
 ZAR  HE ES   2    731  1.91                             123    -0.6 4  204 293 
 ZAR  HZ I         731  9.05        10.7 0.24                           204 293 
 NOR  SZ EP   1    730 40.60                             119     0.4 6  233 235 
 NOR  SN ES   1    731  8.20                             119     0.2 6  233 235 
 CHI  HZ EP   1    730 42.52                             118     0.4 6  247 195 
 CHI  HN ES   1    731 11.49                             118     0.0 6  247 195 
 CHI  HZ I         731 17.56         3.7 0.35                           247 195 
 RREF HN ES   2    731 26.94                             111     0.4 3  320 230 
 PRA  HN ES   2    731 39.78                             107     0.2 3  390 210 
                                                                                
