 2016  6 9 0846 41.9 L   6.851 -73.084153.5  RSN 19 0.6 2.1LRSN                1
 GAP=142        1.35       3.8     5.9  7.5 -0.7278E+01  0.1475E+02  0.2157E+01E
 Epicentro: LOS SANTOS - SANTANDER                                             3
 ACTION:UPD 16-07-21 22:16 OP:rebc STATUS:               ID:20160609084641 L   I
 OLDACT:UP  16-06-09 19:13 OP:dani STATUS:               ID:20160609083742     3
 OLDACT:UP  16-06-09 19:12 OP:dani STATUS:               ID:20160609083742     3
 OLDACT:REG 16-06-09 13:38 OP:dani STATUS:               ID:20160609083742     3
 2016-06-09-0837-42M.COL___334                                                 6
 STAT SP IPHASW D HRMM SECON CODA AMPLIT PERI AZIMU VELO AIN AR TRES W  DIS CAZ7
 BAR2 EZ EP     D  847  2.52                             168   -0.1010 30.6 201 
 BAR2 EZ I         847 19.21        19.4 0.22                          30.6 201 
 PAM  EZ EP        847  4.48                             155    0.0010 68.8  38 
 PAM  EN ES        847 22.63                             155    0.5410 68.8  38 
 PAM  EZ I         847 24.59        36.5 0.54                          68.8  38 
 BRR  HZ EP     D  847  4.51                             153    0.4110 74.9 292 
 BRR  HE ES        847 21.87                             153    0.4610 74.9 292 
 BRR  HZ I         847 24.96        15.5 0.43                          74.9 292 
 RUS  HZ EP     D  847  6.38                             144   -0.4210  106 180 
 RUS  HE ES        847 25.61                             144   -0.6210  106 180 
 RUS  HZ I         847 26.86        12.1 0.46                           106 180 
 OCA  HZ EP        847 11.51                             132    1.10 9  156 350 
 OCA  HN ES        847 32.52                             132   -0.12 9  156 350 
 OCA  HZ I         847 36.72        24.2 0.18                           156 350 
 PTB  HZ EP        847  9.58                             132   -0.63 9  156 257 
 PTB  HE ES   4    847 30.80                             132   -1.49 0  156 257 
 PTB  HZ I         847 36.58        11.5 0.16                           156 257 
 SPBC HZ EP        847 11.56                             129   -0.25 9  172 220 
 SPBC HN ES        847 34.83                             129   -0.32 9  172 220 
 SPBC HZ I         847 44.73        35.6 0.20                           172 220 
 NOR  HZ EP        847 18.77                             119   -0.25 8  243 234 
 NOR  HN ES        847 47.63                             119   -0.35 8  243 234 
 NOR  HZ I         847 53.84        10.0 0.18                           243 234 
 CHI  HZ EP        847 20.91                             118    0.09 8  256 196 
 CHI  HN ES        847 51.68                             118    0.51 8  256 196 
 CHI  HZ I         847 56.43         5.3 0.64                           256 196 
 ROSC BZ EP   4    847 23.64                             117    2.29 0  261 212 
 ROSC BN ES   4    847 56.96                             117    4.83 0  261 212 
 ROSC BZ I         847 59.46        10.9 0.40                           261 212 
 HEL  HZ EP        847 24.43                             116    1.04 7  280 255 
 HEL  HN ES        847 55.45                             116   -0.31 7  280 255 
 HEL  HZ I         848  1.10         6.2 0.26                           280 255 
 URE  HZ EP   4    847 29.23                             115    5.40 0  288 290 
 URE  HN ES   4    847 53.73                             115   -2.81 0  288 290 
 URE  HZ I         847 57.42         8.7 0.18                           288 290 
 PTGC HZ EP   4    847 25.46                             113   -0.98 0  312 160 
 PTGC HN ES   4    847 59.30                             113   -1.88 0  312 160 
 PTGC HZ I         848 10.49         6.4 0.38                           312 160 
 LL6C HZ EP   4    847 23.35                             112   -4.00 0  320 356 
 LL6C HE ES        848  0.87                             112   -1.92 7  320 356 
 LL6C HZ I         848  9.76         8.3 0.74                           320 356 
 CBOC HZ EP        847 31.11                             111    1.03 7  342 252 
 CBOC HN ES        848  7.61                             111   -0.05 7  342 252 
 CBOC HZ I         848 13.07         2.8 0.48                           342 252 
 PRA  HZ EP        847 37.08                             107    0.42 6  400 210 
 PRA  HE ES   4    848 21.45                             107    2.08 0  400 210 
 PRA  HZ I         848 26.86         4.5 0.48                           400 210 
 ORTC HZ EP     D  847 36.93                             107   -0.16 6  404 216 
 ORTC HE ES   4    848 22.15                             107    2.02 0  404 216 
 ORTC HZ I         848 27.37         4.1 0.26                           404 216 
 SJC  HZ EP     C  847 36.69                             107   -0.93 6  408 326 
 SJC  HN ES   4    848 18.25                             107   -2.83 0  408 326 
 SJC  HZ I         848 22.14         3.1 0.46                           408 326 
 PAL  HZ EP        847 38.80                             107    0.46 6  414 239 
 PAL  HN ES        848 22.49                             107    0.12 6  414 239 
 PAL  HZ I         848 27.40         3.3 0.37                           414 239 
                                                                                
