 2012  2 9 0922 28.3 L   6.811 -73.195141.3  RSN 12 0.4 1.8LRSN                1
 GAP=130        0.73       3.2     3.5  6.7 -0.2601E+01  0.1055E+02 -0.6530E+00E
 ACTION:UP  12-03-07 16:28 OP:epov STATUS:               ID:20120209092228 L   I
 2012-02-09-0920-00M.COL___187                                                 6
 STAT SP IPHASW D HRMM SECON CODA AMPLIT PERI AZIMU VELO AIN AR TRES W  DIS CAZ7
 BAR2 SZ EP        922 47.38                             170   -0.0410 24.2 177 
 BAR2 SZ I         923  4.19        25.0 0.18                          24.2 177 
 GIR2 SZ EP   1    922 47.44                             167    0.04 7 29.6   0 
 BRR  HZ EP        922 49.28                             153    0.6010 65.9 300 
 BRR  HZ I         923  8.96        36.3 0.21                          65.9 300 
 PAM  SZ EP        922 50.29                             149    0.0710 80.1  43 
 PAM  SN ES        923  7.23                             149   -0.0710 80.1  43 
 RUS  HZ EP   1    922 51.26                             142   -0.49 7  102 173 
 RUS  HN ES        923  9.91                             142   -0.1210  102 173 
 PTB  HZ EP   1    922 53.88                             132   -0.57 7  143 258 
 PTB  HN ES   1    923 15.03                             132    0.19 7  143 258 
 OCA  SZ EP   1    922 56.24                             129    0.13 7  159 355 
 OCA  SZ I         923 24.58         0.4 0.38                           159 355 
 ZAR  HZ EP   1    922 59.34                             122   -0.56 6  199 292 
 ZAR  HE ES   1    923 24.42                             122   -0.12 6  199 292 
 ZAR  HZ I         923 32.49        20.4 0.33                           199 292 
 NOR  SZ EP   1    923  3.52                             118    0.13 6  231 233 
 NOR  SE ES   1    923 30.97                             118    0.23 6  231 233 
 CHI  HZ EP   1    923  5.76                             116    0.02 6  248 194 
 CHI  HZ I         923 40.64         5.3 0.31                           248 194 
 HEL  HN ES   1    923 38.06                             114   -0.45 6  267 255 
 HEL  HZ I         923 44.80         6.4 0.23                           267 255 
 PRA  HE ES   1    924  4.06                             106    1.09 4  390 209 
                                                                                
