 2012  1 9 0627  0.7 L   6.777 -73.107142.0  RSN 13 0.3 2.2LRSN                1
 GAP=143        0.55       3.0     3.2  4.5 -0.1226E+01  0.3071E+01  0.4046E+01E
 Epicentro: LOS SANTOS - SANTANDER                                             3
 ACTION:UP  12-02-03 08:15 OP:REBC STATUS:               ID:20120109062700 L   I
 2012-01-09-0620-00M.COL___186                                                 6
 STAT SP IPHASW D HRMM SECON CODA AMPLIT PERI AZIMU VELO SNR AR TRES W  DIS CAZ7
 BAR2 SZ IP        627 19.82                             171    -0.110   22 202 
 BAR2 SZ I         627 20.36        53.1 0.37                            22 202 
 BAR2 SZ ES   2    627 35.10                             171     0.3 5   22 202 
 GIR2 SZ EP        627 19.92                             166    -0.110   35 344 
 GIR2 SZ ES   2    627 34.47                             166    -0.7 5   35 344 
 BRR  HZ IP     C  627 21.75                             150     0.010   76 299 
 BRR  HZ I         627 22.09        51.7 0.11                            76 299 
 BRR  HE ES   1    627 38.68                             150     0.5 7   76 299 
 PAM  SZ EP        627 22.73                             150     0.210   77  36 
 PAM  SN ES   2    627 39.48                             150     0.0 5   77  36 
 RUS  HZ EP   1    627 23.78                             144    -0.1 7   98 178 
 RUS  HE ES   2    627 41.87                             144    -0.1 5   98 178 
 RUS  HZ I         627 43.34        14.0 0.34                            98 178 
 PTB  HZ EP   2    627 27.59                             130    -0.2 5  151 260 
 PTB  HE ES   2    627 48.40                             130    -0.4 5  151 260 
 OCA  SZ ES   2    627 51.56                             128     0.4 5  163 352 
 OCA  SZ I         627 54.37        16.1 0.22                           163 352 
 ZAR  HZ EP   1    627 32.90                             121    -0.6 6  209 292 
 ZAR  HN ES   2    627 58.90                             121    -0.1 4  209 292 
 ZAR  HZ I         628  6.90        17.7 0.34                           209 292 
 NOR  SZ EP   1    627 36.24                             118    -0.2 6  237 236 
 NOR  SN ES   2    628  4.46                             118     0.1 4  237 236 
 CHI  HZ EP   1    627 38.26                             117     0.2 6  247 196 
 CHI  HN ES   2    628  7.75                             117     0.5 4  247 196 
 CHI  HZ I         628 10.52         4.3 0.40                           247 196 
 HEL  HZ EP   1    627 41.27                             114     0.1 6  276 257 
 HEL  HN ES   2    628 13.16                             114     0.5 4  276 257 
 HEL  HZ I         628 18.87        11.0 0.55                           276 257 
 RREF HZ EP   2    627 47.02                             110     0.1 3  323 230 
 RREF HE ES   2    628 22.99                             110     0.1 3  323 230 
 RREF HZ I         628 27.96         7.9 0.62                           323 230 
 PRA  HZ EP   2    627 54.44                             106     0.3 3  392 210 
                                                                                
