 2011  5 9 0959 55.7 L   6.781 -73.111144.6  RSN  8 0.3 2.2LRSN                1
 GAP=160        0.67       2.7     5.6  4.8 -0.5683E+01  0.3692E+01  0.5195E+00E
 Epicentro: LOS SANTOS - SANTANDER                                             3
 ACTION:UP  11-06-29 08:51 OP:tino STATUS:               ID:20110509095955 L   I
 2011-05-09-0959-26S.COL___131                                                 6
 STAT SP IPHASW D HRMM SECON CODA AMPLIT PERI AZIMU VELO AIN AR TRES W  DIS CAZ7
 BAR2 SZ IP       10 0 15.21                             171     0.010   22 201 
 BAR2 SZ ES   1   10 0 30.03                             171    -0.3 7   22 201 
 BAR2 SZ I        10 0 30.91        30.7 0.62                            22 201 
 BRR  HZ IP     C 10 0 17.14                             151     0.210   76 299 
 BRR  HN ES   1   10 0 34.01                             151     0.4 7   76 299 
 BRR  HZ I        10 0 35.05        31.5 0.10                            76 299 
 RUS  HZ EP       10 0 19.20                             144     0.010   98 178 
 RUS  HN ES   1   10 0 37.43                             144     0.0 7   98 178 
 BRI  SZ EP       10 0 19.83                             141     0.310  109  19 
 BRI  SZ ES   1   10 0 37.85                             141    -0.3 7  109  19 
 GRA  SZ IP       10 0 21.13                             136     0.210  127  16 
 GRA  SZ ES   1   10 0 40.78                             136     0.2 7  127  16 
 GRA  SZ I        10 0 41.79        17.9 0.47                           127  16 
 OCA  SZ EP       10 0 23.68                             129    -0.5 9  163 352 
 OCA  SZ ES   1   10 0 45.97                             129    -0.4 7  163 352 
 OCA  SZ I        10 0 49.09        18.0 0.33                           163 352 
 NOR  SZ EP       10 0 31.48                             118    -0.1 8  237 235 
 PRA  HZ EP   1   10 0 49.23                             106     0.0 4  392 210 
 PRA  HN ES   1   10 1 30.61                             106    -0.3 4  392 210 
                                                                                
