 2015 12 9 0349 33.1 L   6.814 -73.165147.8  RSN 15 0.5 1.9LRSN                1
 GAP=133        1.06       2.9     4.0  5.9 -0.2661E+01  0.6054E+01  0.2022E+01E
 Epicentro: LOS SANTOS - SANTANDER                                             3
 ACTION:UPD 16-02-04 15:03 OP:cam  STATUS:               ID:20151209034933 L   I
 OLDACT:UP  15-12-09 16:35 OP:mh   STATUS:               ID:20151209034745     3
 OLDACT:UP  15-12-09 16:35 OP:mh   STATUS:               ID:20151209034745     3
 OLDACT:REG 15-12-09 12:39 OP:mh   STATUS:               ID:20151209034745     3
 2015-12-09-0347-45M.COL___322                                                 6
 STAT SP IPHASW D HRMM SECON CODA AMPLIT PERI AZIMU VELO AIN AR TRES W  DIS CAZ7
 BAR2 EZ EP        349 52.90                             170   -0.0710 24.6 184 
 BAR2 EZ I         350  8.45        23.7 0.32            169           24.6 184 
 BRR  HZ EP     D  349 54.67                             154    0.3810 68.6 298 
 BRR  HN ES        350 11.48                             154    0.6310 68.6 298 
 BRR  HZ I         350 14.39        16.7 0.44            154           68.6 298 
 PAM  EZ EP        349 55.77                             151    0.2610 77.6  41 
 PAM  EN ES        350 12.84                             151   -0.1810 77.6  41 
 PAM  EZ I         350 14.48        19.6 0.46            154           77.6  41 
 RUS  HZ EP   1    349 57.01                             144   -0.13 7  102 175 
 RUS  HN ES        350 15.81                             144   -0.1110  102 175 
 RUS  HZ I         350 17.37         4.8 0.22            144            102 175 
 PTB  HZ EP        349 59.55                             133   -0.49 9  146 258 
 PTB  HN ES        350 20.41                             133   -0.67 9  146 258 
 PTB  HZ I         350 25.98         7.2 0.22            133            146 258 
 OCA  HZ EP        350  1.16                             130   -0.21 9  158 354 
 OCA  HE ES        350 23.46                             130    0.02 9  158 354 
 OCA  HZ I         350 25.24        21.1 0.20            132            158 354 
 SPBC HZ EP   1    350  2.08                             129    0.37 7  163 218 
 SPBC HE ES        350 24.22                             129    0.17 9  163 218 
 SPBC HZ I         350 26.11         9.8 0.12            130            163 218 
 ZAR  HZ EP        350  5.66                             123    0.28 9  201 292 
 ZAR  HN ES        350 30.56                             123   -0.03 9  201 292 
 ZAR  HZ I         350 36.86         8.3 0.44            124            201 292 
 NOR  HZ EP   1    350  9.40                             119    0.57 6  234 234 
 NOR  HN ES        350 36.21                             119   -0.51 8  234 234 
 NOR  HZ I         350 43.70         5.1 0.16            120            234 234 
 SML  HZ EP   1    350  9.14                             118   -0.42 6  241 336 
 SML  HN ES        350 37.22                             118   -0.80 8  241 336 
 SML  HZ I         350 41.06        12.8 0.10            119            241 336 
 HEL  HZ EP        350 14.08                             115    0.88 8  270 255 
 HEL  HE ES        350 44.95                             115    0.45 8  270 255 
 HEL  HZ I         350 50.90         6.3 0.42            116            270 255 
 URE  HZ EP   4    350 13.56                             114   -0.39 0  281 292 
 URE  HE ES   4    350 43.20                             114   -2.64 0  281 292 
 URE  HZ I         350 45.67         4.5 0.16            115            281 292 
 GUY2CHZ EP        350 17.72                             113    1.05 7  300 234 
 GUY2CHE ES   4    350 52.83                             113    2.14 0  300 234 
 PRA  HZ EP        350 26.45                             107   -0.24 6  392 209 
 PRA  HN ES        351  8.40                             107   -0.12 6  392 209 
 PRA  HZ I         351 16.03         2.5 0.48            107            392 209 
 ORTC HZ EP        350 26.17                             107   -0.89 6  395 216 
 ORTC HN ES        351  8.36                             107   -0.81 6  395 216 
 ORTC HZ I         351 16.37         1.6 0.42            107            395 216 
                                                                                
