 2017  9 9 0953 34.7 L   6.800 -73.108146.4  RSN  6 0.3 1.4LRSN                1
 GAP=141        0.76       3.5     4.0  6.3 -0.1054E+01  0.5737E+01 -0.8454E+00E
 Epicentro: LOS SANTOS - SANTANDER                                             3
 ACTION:UPD 17-10-05 19:10 OP:rebc STATUS:               ID:20170909095335dL   I
 OLDACT:REG 17-09-09 13:06 OP:dnl  STATUS:               ID:20170909094741     3
 2017-09-09-0948-00M.COL___401                                                 6
 STAT SP IPHASW D HRMM SECON CODA AMPLIT PERI AZIMU VELO AIN AR TRES W  DIS CAZ7
 BAR2 EZ EP        953 54.24                             170   -0.2410 24.4 200 
 BAR2 EZ ES        954  9.80                             170   -0.0710 24.4 200 
 BAR2 EZ I         954 14.57         4.0 0.40            170           24.4 200 
 PAM  EZ EP        953 57.03                             152    0.1410 74.8  37 
 PAM  EN ES        954 13.97                             152   -0.1910 74.8  37 
 PAM  EZ I         954 16.02         3.2 0.56            148           74.8  37 
 BRR  HZ EP   2    953 56.24                             151    0.06 5 74.9 297 
 BRR  HZ I         954 12.65         8.2 0.48            145           74.9 297 
 BRR  HE ES        954 13.57                             151    0.6710 74.9 297 
 RUS  HZ EP   2    953 58.78                             144    0.23 5  100 178 
 RUS  HN ES        954 17.01                             144   -0.1010  100 178 
 RUS  HZ I         954 18.90         2.3 0.32            142            100 178 
 SPBC HZ EP   2    954  4.43                             129    0.88 5  166 220 
 SPBC HN ES        954 25.91                             129   -0.10 9  166 220 
 SPBC HZ I         954 28.09         5.0 0.24            125            166 220 
 ZAR  HZ EP   2    954  7.28                             122   -0.36 4  208 292 
 ZAR  HE ES        954 32.86                             122   -0.43 8  208 292 
 ZAR  HZ I         954 38.24         3.8 0.44            117            208 292 
                                                                                
