 2010  9 9 0556 31.2 L   6.761 -73.115143.1  RSN 11 0.5 1.9LRSN                1
 GAP=162        1.16       5.3    13.1  9.4 -0.2729E+02  0.2041E+02 -0.7528E+01E
 Epicentro: LOS SANTOS - SANTANDER                                             3
 ACTION:UP  11-02-18 11:01 OP:tino STATUS:               ID:20100909055631 L   I
 2010-09-09-0554-40S.COL___120                                                 6
 STAT SP IPHASW D HRMM SECON CODA AMPLIT PERI AZIMU VELO SNR AR TRES W  DIS CAZ7
 BAR2 SZ EP        556 50.29                             172    -0.210   20 202 
 BAR2 SZ ES   1    557  5.09                             172    -0.4 7   20 202 
 BAR2 SZ I         557  6.97        15.1 0.22                            20 202 
 GIR2 SZ EP   2    556 50.53                             165    -0.2 5   36 346 
 BRR  HZ EP   1    556 52.14                             150    -0.3 7   76 300 
 BRR  HZ I         556 53.72        17.8 0.12                            76 300 
 BRR  HN ES   2    557  9.42                             150     0.5 5   76 300 
 RUS  HZ EP        556 54.28                             144    -0.110   96 178 
 RUS  HN ES   1    557 12.72                             144     0.2 7   96 178 
 RUS  HZ I         557 14.34         6.7 0.34                            96 178 
 GUE  SZ EP        556 55.61                             138    -0.410  120  10 
 GRA  SZ EP        556 57.55                             135     1.010  129  15 
 GRA  SZ I         557 21.61         6.8 0.38                           129  15 
 OCA  SZ EP   1    556 59.19                             128    -0.6 7  165 352 
 OCA  SZ I         557 25.28         9.1 0.25                           165 352 
 CHI  HZ EP   1    557  8.46                             117     0.0 6  245 196 
 CHI  HN ES   1    557 37.85                             117     0.4 6  245 196 
 CHI  HZ I         557 43.56         3.0 0.52                           245 196 
 HEL  HZ EP   2    557 12.62                             114     1.1 4  274 257 
 HEL  HZ I         557 49.30         5.6 0.10                           274 257 
 RREF HZ EP   2    557 17.41                             110     0.2 3  322 230 
 RREF HZ I         558  1.66         3.8 0.17                           322 230 
 PRA  HZ EP   1    557 23.95                             106    -0.5 4  390 210 
 PRA  HN ES   1    558  5.68                             106    -0.2 4  390 210 
 PRA  HZ I         558 12.50         4.1 0.39                           390 210 
                                                                                
