 2017 12 9 0916 28.7 L   6.793 -73.141138.8  RSN  5 0.1 1.3LRSN                1
 GAP=107        0.38       3.1     1.8  2.9  0.5521E+00  0.1541E+01  0.5497E+00E
 Epicentro: LOS SANTOS - SANTANDER                                             3
 ACTION:UPD 18-01-04 13:18 OP:rebc STATUS:               ID:20171209091628 L   I
 OLDACT:DUP 17-12-09 14:56 OP:dnl  STATUS:               ID:20171209090743d    3
 2017-12-09-0908-00M.COL___469                                                 6
 STAT SP IPHASW D HRMM SECON CODA AMPLIT PERI AZIMU VELO AIN AR TRES W  DIS CAZ7
 BAR2 EZ EP        916 47.29                             170   -0.1810 22.7 192 
 BAR2 EZ ES        917  2.17                             170    0.0610 22.7 192 
 BAR2 EZ I         917  3.54         5.5 0.36            160           22.7 192 
 PAM  EZ EP        916 50.33                             149    0.1510 77.6  39 
 PAM  EN ES        917  6.92                             149   -0.0210 77.6  39 
 PAM  EZ I         917  9.19         5.4 0.46            154           77.6  39 
 PTB  HZ EP        916 55.30                             130    0.16 9  148 259 
 PTB  HZ I         917 17.00         1.4 0.14            122            148 259 
 TAM  HZ EP        916 55.69                             129   -0.06 9  154 105 
 TAM  HN ES   4    917 14.16                             129   -2.70 0  154 105 
 TAM  HZ I         917 15.55         4.6 0.32            127            154 105 
 ZAR  HZ EP        917  0.73                             121   -0.04 9  205 292 
 ZAR  HE ES        917 25.72                             121   -0.08 9  205 292 
 ZAR  HZ I         917 29.65         1.9 0.34            115            205 292 
                                                                                
