 2012  5 9 0321 52.3 L   6.876 -73.333128.8  RSN  5 0.4 1.5LRSN                1
 GAP=151        1.09       9.7    12.0 11.5  0.5178E+02  0.3737E+02  0.3806E+02E
 Epicentro: BETULIA - SANTANDER                                                3
 ACTION:UP  12-07-05 12:03 OP:pat  STATUS:               ID:20120509032152 L   I
 2012-05-09-0320-00M.COL___192                                                 6
 STAT SP IPHASW D HRMM SECON CODA AMPLIT PERI AZIMU VELO SNR AR TRES W  DIS CAZ7
 BAR2 SZ EP        322 10.55                             164     0.310   36 152 
 BAR2 SZ ES   1    322 23.61                             164    -0.6 7   36 152 
 BAR2 SZ I         322 24.60        15.6 0.24                            36 152 
 BRR  HZ EP        322 10.87                             158     0.410   49 301 
 BRR  HZ I         322 11.07         7.7 0.30                            49 301 
 BRR  HE ES   1    322 24.87                             158     0.3 7   49 301 
 RUS  HZ EP        322 15.43                             136     0.110  112 166 
 PTB  HZ EP        322 15.81                             132    -0.410  130 253 
 PTB  HZ I         322 18.29         2.4 0.26                           130 253 
 OCA  HN ES   2    322 38.05                             127    -0.7 5  151   1 
                                                                                
