 2015 12 9 0649 29.9 L   6.819 -73.133149.2  RSN 24 0.4 2.7LRSN                1
 GAP= 71        0.85       2.0     2.2  3.7 -0.7041E+00  0.2736E+01  0.9506E-01E
 Epicentro: LOS SANTOS - SANTANDER                                             3
 ACTION:UPD 16-02-04 15:03 OP:cam  STATUS:               ID:20151209064929 L   I
 OLDACT:UP  15-12-09 16:53 OP:cara STATUS:               ID:20151209064746     3
 OLDACT:REG 15-12-09 12:43 OP:mh   STATUS:               ID:20151209064746     3
 2015-12-09-0647-46M.COL___319                                                 6
 STAT SP IPHASW D HRMM SECON CODA AMPLIT PERI AZIMU VELO AIN AR TRES W  DIS CAZ7
 BAR2 EZ IP        649 49.86                             170   -0.1610 25.6 192 
 BAR2 EZ ES        650  5.68                             170   -0.0110 25.6 192 
 BAR2 EZ I         650  6.59        78.6 0.26            170           25.6 192 
 BRR  HZ EP        649 51.75                             153    0.2810 71.4 297 
 BRR  HN ES        650  8.72                             153    0.4610 71.4 297 
 BRR  HZ I         650 14.09        60.0 0.14            152           71.4 297 
 PAM  EZ EP        649 52.67                             152    0.3010 74.9  40 
 PAM  EN ES        650 10.01                             152    0.1410 74.9  40 
 PAM  EZ I         650 12.05        77.5 0.54            152           74.9  40 
 RUS  HZ EP        649 53.74                             144   -0.4210  103 177 
 RUS  HE ES        650 12.61                             144   -0.4510  103 177 
 RUS  HZ I         650 15.41        43.3 0.36            143            103 177 
 PTB  HZ EP        649 56.67                             132   -0.67 9  150 258 
 PTB  HN ES        650 18.06                             132   -0.65 9  150 258 
 PTB  HZ I         650 23.86        78.6 0.60            132            150 258 
 TAM  HZ IP     D  649 58.01                             131    0.20 9  154 106 
 TAM  HZ I         650 18.85        27.6 0.36            131            154 106 
 TAM  HN ES        650 19.76                             131    0.20 9  154 106 
 OCA  HZ EP        649 58.48                             131    0.14 9  158 353 
 OCA  HN ES        650 20.63                             131    0.14 9  158 353 
 OCA  HZ I         650 25.84       104.5 0.20            130            158 353 
 SPBC HZ EP        649 58.86                             129   -0.07 9  166 219 
 SPBC HN ES        650 21.32                             129   -0.22 9  166 219 
 SPBC HZ I         650 28.03       116.8 0.38            128            166 219 
 ZAR  HZ EP        650  2.53                             123   -0.12 9  205 291 
 ZAR  HE ES        650 28.23                             123    0.06 9  205 291 
 ZAR  HZ I         650 34.42        81.5 0.50            122            205 291 
 NOR  HZ IP     D  650  6.03                             119   -0.08 8  237 234 
 NOR  HE ES        650 34.26                             119   -0.07 8  237 234 
 NOR  HZ I         650 41.17        48.4 0.32            118            237 234 
 SML  HZ EP        650  6.79                             118    0.18 8  242 335 
 SML  HE ES        650 34.74                             118   -0.48 8  242 335 
 SML  HZ I         650 37.85        64.2 0.32            117            242 335 
 HEL  HZ EP   4    650 11.72                             115    1.20 0  274 255 
 HEL  HN ES        650 42.67                             115    0.49 8  274 255 
 HEL  HZ I         650 48.64        31.7 0.32            114            274 255 
 URE  HZ EP        650 10.33                             114   -0.90 7  284 291 
 URE  HE ES   4    650 41.77                             114   -1.66 0  284 291 
 URE  HZ I         650 50.69        32.9 0.32            113            284 291 
 GUY2CHZ EP        650 14.45                             113    0.49 7  303 235 
 GUY2CHN ES        650 48.56                             113    0.26 7  303 235 
 GUY2CHZ I         650 56.92        35.9 0.42                           303 235 
 PTGC HZ EP   4    650 12.70                             112   -1.41 0  310 159 
 PTGC HN ES   4    650 46.81                             112   -1.75 0  310 159 
 PTGC HZ I         650 50.72        13.7 0.66            111            310 159 
 ELA  HZ EP   4    650 19.12                             111    1.92 0  332 229 
 ELA  HE ES        650 54.80                             111    0.73 7  332 229 
 ELA  HZ I         651  1.69        25.6 0.38            110            332 229 
 CBOC HZ EP        650 17.49                             110    0.28 7  336 252 
 CBOC HN ES        650 54.44                             110    0.35 7  336 252 
 CBOC HZ I         651  1.55         9.0 0.38            110            336 252 
 DBB  SZ EP        650 17.44                             110   -0.25 7  341 274 
 DBB  SZ ES        650 54.66                             110   -0.28 7  341 274 
 ARGC HZ EP        650 20.08                             109    0.53 6  358 340 
 ARGC HN ES        650 58.13                             109   -0.12 6  358 340 
 ARGC HZ I         651  9.30         8.2 0.40            108            358 340 
 PRA  HZ EP        650 23.42                             107   -0.44 6  394 210 
 PRA  HE ES        651  6.03                             107    0.10 6  394 210 
 PRA  HZ I         651 14.29        25.8 0.48            106            394 210 
 ORTC HZ EP        650 24.05                             107   -0.21 6  398 216 
 ORTC HN ES        651  7.52                             107    0.88 6  398 216 
 ORTC HZ I         651 11.50        14.9 0.36            106            398 216 
 ELOV BZ EP   4    650 23.70                             106   -1.20 0  404  87 
 ELOV BN ES   4    651  5.12                             106   -2.66 0  404  87 
 PAL  HN ES        651  9.49                             106    0.70 6  408 239 
 PAL  HZ I         651 14.34        10.0 0.48            106            408 239 
 SJC  HZ EP   4    650 24.15                             106   -1.34 0  408 327 
 SJC  HN ES   4    651  5.31                             106   -3.52 0  408 327 
 SJC  HZ I         651  9.52         6.5 0.38            106            408 327 
 PAL  HZ EP        650 25.42                             106   -0.05 6  408 239 
 CRJC HZ EP   4    650 30.00                             104   -2.28 0  465   3 
 CRJC HE ES   4    651 19.27                             104   -1.63 0  465   3 
 CRJC HZ I         651 26.55        13.9 0.20            103            465   3 
                                                                                
