 2011 12 9 0343  1.5 L   6.832 -73.175128.0  RSN  4 0.2 1.3LRSN                1
 GAP=174        0.47       5.9    17.0 11.4 -0.7142E+02  0.1184E+03 -0.1567E+02E
 Epicentro: LOS SANTOS - SANTANDER                                             3
 ACTION:UPD 12-07-13 16:15 OP:ep   STATUS:               ID:20111209034301 L   I
 2011-12-09-0340-42S.COL___160                                                 6
 STAT SP IPHASW D HRMM SECON CODA AMPLIT PERI AZIMU VELO AIN AR TRES W  DIS CAZ7
 BAR2 SZ EP   1    343 18.87                             167   -0.25 7 26.5 182 
 BAR2 SZ I         343 19.77         6.4 0.37                          26.5 182 
 GIR2 SZ EP   2    343 19.32                             167    0.32 5 27.4 356 
 PAM  SZ EP   1    343 22.11                             147    0.24 7 76.9  43 
 PAM  SN ES   1    343 37.58                             147   -0.14 7 76.9  43 
 RUS  HZ EP   1    343 23.78                             138   -0.12 7  104 174 
 RUS  HN ES   2    343 41.63                             138    0.30 5  104 174 
 RUS  HZ I         343 43.07         2.6 0.32                           104 174 
                                                                                
