 2012  1 9 0819 54.7 L   6.763 -73.085149.2  RSN 11 0.4 2.0LRSN                1
 GAP=146        0.67       4.0     4.4  5.4 -0.3565E+01  0.4820E+01  0.3097E+01E
 Epicentro: LOS SANTOS - SANTANDER                                             3
 ACTION:UP  12-02-03 08:15 OP:REBC STATUS:               ID:20120109081954 L   I
 2012-01-09-0820-00M.COL___186                                                 6
 STAT SP IPHASW D HRMM SECON CODA AMPLIT PERI AZIMU VELO SNR AR TRES W  DIS CAZ7
 BAR2 SZ EP   1    820 14.56                             171    -0.2 7   22 210 
 BAR2 SZ ES   2    820 29.82                             171    -0.5 5   22 210 
 BAR2 SZ I         820 31.25        18.1 0.17                            22 210 
 GIR2 SZ EP   1    820 14.98                             165     0.0 7   37 341 
 GIR2 SZ ES   1    820 30.57                             165    -0.2 7   37 341 
 PAM  SZ EP   1    820 17.42                             152     0.1 7   77  34 
 PAM  SN ES   2    820 34.76                             152    -0.1 5   77  34 
 BRR  HZ EP   1    820 16.53                             151    -0.2 7   79 299 
 BRR  HZ I         820 17.84        17.6 0.10                            79 299 
 BRR  HN ES   1    820 34.34                             151     0.5 7   79 299 
 RUS  HZ EP   1    820 18.55                             146     0.0 7   96 180 
 RUS  HN ES   2    820 37.47                             146     0.4 5   96 180 
 RUS  HZ I         820 38.53         6.0 0.60                            96 180 
 PTB  HN ES   2    820 43.97                             132    -0.2 5  154 261 
 OCA  SZ EP   1    820 24.31                             129     0.5 7  165 351 
 OCA  SZ ES   2    820 46.52                             129     0.1 5  165 351 
 OCA  SZ I         820 50.53        13.7 0.37                           165 351 
 ZAR  HZ EP   1    820 27.57                             122    -0.6 6  212 292 
 ZAR  HE ES   2    820 53.73                             122    -0.6 4  212 292 
 ZAR  HZ I         820 58.93        10.2 0.36                           212 292 
 NOR  SZ EP   1    820 30.50                             119    -0.5 6  238 236 
 NOR  SE ES   2    820 59.68                             119     0.4 4  238 236 
 HEL  HZ EP   2    820 36.04                             115     0.3 4  278 257 
 HEL  HN ES   2    821  8.24                             115     0.5 4  278 257 
 HEL  HZ I         821 14.22         6.1 0.52                           278 257 
 RREF HZ EP   2    820 41.79                             111     0.5 3  324 231 
 RREF HN ES   2    821 18.22                             111     0.6 3  324 231 
 RREF HZ I         821 24.25         4.5 0.24                           324 231 
                                                                                
