 2016  2 9 0949 20.2 L   6.822 -73.148145.5  RSN 25 0.5 2.5LRSN                1
 GAP=102        1.10       2.3     3.1  4.9 -0.1929E+01  0.3845E+01 -0.7108E+00E
 Epicentro: LOS SANTOS - SANTANDER                                             3
 ACTION:UPD 16-03-04 21:24 OP:rebc STATUS:               ID:20160209094920 L   I
 OLDACT:REG 16-02-09 13:14 OP:ak   STATUS:               ID:20160209094749     3
 2016-02-09-0947-49M.COL___318                                                 6
 STAT SP IPHASW D HRMM SECON CODA AMPLIT PERI AZIMU VELO AIN AR TRES W  DIS CAZ7
 BAR2 EZ EP        949 40.23                             170    0.3510 25.6 189 
 BAR2 EZ ES        949 55.18                             170   -0.0210 25.6 189 
 BAR2 EZ I         949 57.89        91.3 0.12            168           25.6 189 
 PAM  EZ EP        949 43.06                             151    0.7410 75.7  41 
 PAM  EN ES        950  0.09                             151    0.5510 75.7  41 
 PAM  EZ I         950  2.36        66.5 0.48            153           75.7  41 
 RUS  HZ EP        949 44.01                             143   -0.1210  103 176 
 RUS  HN ES        950  2.82                             143    0.0510  103 176 
 RUS  HZ I         950  3.97        45.2 0.24            143            103 176 
 PTB  HZ EP        949 46.70                             132   -0.50 9  148 258 
 PTB  HN ES        950  7.56                             132   -0.67 9  148 258 
 PTB  HZ I         950 15.19        39.9 0.54            129            148 258 
 OCA  HZ EP        949 48.37                             130    0.08 9  158 353 
 OCA  HN ES        950  9.50                             130   -0.68 9  158 353 
 OCA  HZ I         950 13.49        70.6 0.18            128            158 353 
 SPBC HZ EP        949 48.89                             129    0.02 9  165 218 
 SPBC HN ES        950 10.70                             129   -0.51 9  165 218 
 SPBC HZ I         950 13.93        87.8 0.18            127            165 218 
 ZAR  HZ EP        949 53.03                             122    0.49 9  203 292 
 ZAR  HN ES        950 17.88                             122    0.14 9  203 292 
 ZAR  HZ I         950 24.35        24.0 0.28            120            203 292 
 NOR  HZ EP        949 56.51                             118    0.44 8  236 234 
 NOR  HN ES        950 23.85                             118   -0.18 8  236 234 
 NOR  HZ I         950 29.17        30.1 0.22            117            236 234 
 SML  HZ EP        949 56.49                             118   -0.10 8  241 335 
 SML  HN ES        950 24.63                             118   -0.33 8  241 335 
 SML  HZ E      D  950 28.33                                            241 335 
 SML  HZ I         950 28.33        30.2 0.12            116            241 335 
 CHI  HZ EP        949 58.43                             117    0.27 8  251 195 
 CHI  HE ES        950 27.60                             117   -0.14 8  251 195 
 CHI  HZ I         950 31.50        12.7 0.46            116            251 195 
 ROSC BZ EP   9    949 59.97                             116    1.42 0  255 211 
 ROSC BN ES        950 30.33                                    0.48 8  255 211 
 ROSC BZ I         950 34.18        33.0 0.35            115            255 211 
 HEL  HZ EP        950  1.49                             115    1.02 8  272 255 
 HEL  HN ES        950 31.93                             115    0.08 8  272 255 
 HEL  HZ I         950 40.12        17.2 0.28            113            272 255 
 URE  HZ EP        950  0.97                             114   -0.19 7  283 291 
 URE  HN ES        950 33.39                             114    0.31 7  283 291 
 URE  HZ I         950 41.67        23.6 0.28            112            283 291 
 SOCV BZ EP        950  2.13                             112   -1.01 7  300  57 
 SOCV BN ES   4    950 33.56                             112   -3.05 0  300  57 
 GUY2CHZ EP   4    950  5.90                             112    1.94 0  302 234 
 GUY2CHE ES        950 38.01                             112   -0.06 7  302 234 
 GUY2CHZ I         950 50.86        14.6 0.48                           302 234 
 PTGC HZ EP        950  3.45                             111   -0.89 7  311 159 
 PTGC HN ES   4    950 36.32                             111   -2.42 0  311 159 
 PTGC HZ I         950 38.84        16.1 0.36            111            311 159 
 LL6C HZ EP        950  4.94                             110   -0.71 7  322 358 
 LL6C HE ES        950 41.96                             110    0.89 7  322 358 
 ELA  HZ EP   4    950  9.86                             110    2.63 0  330 229 
 ELA  HN ES        950 43.83                             110   -0.05 7  330 229 
 ELA  HZ I         950 57.01        11.9 0.60            109            330 229 
 CBOC HZ EP        950  8.41                             110    1.22 7  334 252 
 CBOC HN ES        950 43.35                             110   -0.47 7  334 252 
 CBOC HZ I         950 53.79         4.6 0.46            109            334 252 
 MON  HZ EP   9    950  7.46                             109   -1.57 0  352 308 
 MON  HN ES        950 45.21                                   -0.31 6  352 308 
 MON  HZ I         950 47.87         4.1 0.28            107            352 308 
 ANIL HZ EP   2    950 10.90                             108    0.70 3  359 224 
 ANIL HN ES        950 49.96                             108    0.78 6  359 224 
 ANIL HZ I         950 59.00        29.9 0.42            107            359 224 
 ORTC HZ EP        950 14.34                             106   -0.01 6  397 216 
 ORTC HN ES        950 56.22                             106   -0.34 6  397 216 
 ORTC HZ I         951  2.95         8.5 0.30            105            397 216 
 SJC  HZ EP        950 14.66                             106   -0.87 6  407 327 
 SJC  HE ES   4    950 55.83                             106   -2.84 0  407 327 
 SJC  HZ I         951  3.51         5.1 0.54            105            407 327 
 PAL  HZ EP        950 15.74                             106    0.24 6  407 239 
 PAL  HN ES        950 57.81                             106   -0.80 6  407 239 
 PAL  HZ I         951  2.08         5.9 0.22            105            407 239 
 CRJC HZ EP   9    950 20.59                             103   -1.85 0  465   4 
 CRJC HN ES        951  8.41                                   -0.70 5  465   4 
 CRJC HZ I         951 13.68         5.9 0.21            103            465   4 
 MACC HZ EP   4    950 26.98                             101   -2.23 0  523 189 
 MACC HN ES   4    951 17.54                             101   -5.48 0  523 189 
                                                                                
