 2015  6 9 0328 22.5 L   6.778 -73.148141.7  RSN  5 0.3 1.4LRSN                1
 GAP=236        0.68       3.9     4.9  5.3  0.9474E+01  0.4418E+01 -0.1764E+01E
 Epicentro: LOS SANTOS - SANTANDER                                             3
 ACTION:UPD 15-09-10 22:10 OP:cam  STATUS:               ID:20150609032822 L   I
 OLDACT:REG 15-06-09 13:06 OP:stll STATUS:               ID:20150609031746     3
 2015-06-09-0317-46M.COL___300                                                 6
 STAT SP IPHASW D HRMM SECON CODA AMPLIT PERI AZIMU VELO AIN AR TRES W  DIS CAZ7
 BAR2 EZ EP        328 41.74                             171    0.1610 20.9 191 
 BAR2 EZ ES        328 56.43                             171   -0.0510 20.9 191 
 BAR2 EZ I         328 57.56         6.1 0.30            157           20.9 191 
 BRR  HZ EP     C  328 43.26                             151    0.0010 72.2 300 
 BRR  HZ I         328 43.48         6.4 0.24            168           72.2 300 
 BRR  HN ES        328 59.76                             151    0.3010 72.2 300 
 RUS  HZ EP        328 45.59                             144   -0.0810 98.2 176 
 RUS  HN ES        329  3.45                             144   -0.3010 98.2 176 
 RUS  HZ I         329  5.17         2.5 0.28            134           98.2 176 
 SPBC HN ES        329 12.61                             128    0.29 9  161 219 
 SPBC HZ I         329 15.68         3.5 0.12            128            161 219 
 ZAR  HZ EP        328 54.93                             121    0.18 9  205 293 
 ZAR  HN ES        329 19.35                             121   -0.56 9  205 293 
 ZAR  HZ I         329 21.75         2.2 0.32            127            205 293 
                                                                                
