 2010 10 9 0826 18.4 L   6.543 -73.521112.0  RSN 14 0.6 2.5LRSN                1
 GAP=105        1.19       4.4     6.8  8.7 -0.1671E+02  0.1397E+02  0.4363E+01E
 Epicentro: EL CARMEN DE CHUCURI - SANTANDER                                   3
 ACTION:UP  11-02-18 11:08 OP:tino STATUS:               ID:20101009082618 L   I
 2010-10-09-0824-00S.COL___119                                                 6
 STAT SP IPHASW D HRMM SECON CODA AMPLIT PERI AZIMU VELO SNR AR TRES W  DIS CAZ7
 BAR2 SZ IP        826 34.80                             160     0.310   38  82 
 BAR2 SZ ES   1    826 46.83                             160    -0.2 7   38  82 
 BAR2 SZ I         826 48.59       232.1 0.49                            38  82 
 BRR  HZ IP     D  826 35.62                             147     0.010   66 341 
 BRR  HZ I         826 35.89        79.0 0.10                            66 341 
 BRR  HE ES   1    826 49.63                             147     0.5 7   66 341 
 GUE  SZ IP        826 43.92                             122    -0.2 9  157  25 
 GRA  SZ EP   1    826 43.97                             120    -1.2 7  168  28 
 GRA  SZ ES   1    827  5.86                             120    -0.2 7  168  28 
 GRA  SZ I         827  9.56        71.2 0.53                           168  28 
 NOR  SZ EP   1    826 46.32                             117    -0.5 7  185 234 
 NOR  SE ES   1    827  7.61                             117    -1.3 7  185 234 
 OCA  SZ EP        826 47.18                             116    -0.2 9  189   7 
 OCA  SZ ES   1    827 10.77                             116     0.8 7  189   7 
 OCA  SZ I         827 11.68        43.5 0.63                           189   7 
 ROSC BZ EP   2    826 49.87                             114     0.1 4  208 205 
 ROSC BZ I         827 19.36        18.3 0.34                           208 205 
 CHI  HZ EP   1    826 50.34                             113     0.0 6  213 186 
 CHI  HZ I         826 52.41        18.7 0.42                           213 186 
 CHI  HN ES   1    827 15.77                             113     0.4 6  213 186 
 HEL  HZ EP   2    826 52.31                             112     0.6 4  226 260 
 HEL  HE ES   2    827 17.66                             112    -0.1 4  226 260 
 HEL  HZ I         827 25.83        16.2 0.43                           226 260 
 CVER SZ EP   2    826 53.62                             111     1.0 4  232 195 
 CVER SZ I         826 54.37        37.3 0.21                           232 195 
 RREF HZ EP   1    826 57.84                             107     0.4 6  272 228 
 RREF HN ES   1    827 27.97                             107     0.1 6  272 228 
 RREF HZ I         827 34.86        19.7 0.24                           272 228 
 TOL  SZ EP   1    827  0.65                             106     1.0 5  294 223 
 DBB  SZ EP   1    827  0.82                             105     0.6 5  302 280 
 DBB  SZ I         827 37.65         3.0 0.53                           302 280 
 PRA  HZ EP   1    827  5.19                             102    -0.4 5  348 206 
 PRA  HE ES   1    827 42.39                             102    -0.1 5  348 206 
 PRA  HZ I         827 55.77        37.6 0.23                           348 206 
                                                                                
