 2014  5 9 0632 21.7 L   7.434 -73.234128.6  RSN  8 0.5 2.0LRSN                1
 GAP=106        1.25       3.6     5.2 10.0  0.1217E+01  0.2184E+02  0.9722E+01E
 Epicentro: EL PLAYON - SANTANDER                                              3
 ACTION:UPD 15-03-16 16:56 OP:nd   STATUS:               ID:20140509063221 L   I
 OLDACT:REG 14-05-09 14:19 OP:carl STATUS:               ID:20140509062810     3
 2014-05-09-0628-10M.COL___236                                                 6
 STAT SP IPHASW D HRMM SECON CODA AMPLIT PERI AZIMU VELO AIN AR TRES W  DIS CAZ7
 PAM  SZ EP        632 41.11                             154    0.0810 59.9 100 
 PAM  SN ES        632 56.47                             154    0.3410 59.9 100 
 PAM  SZ I         632 57.51        21.8 0.46            160           59.9 100 
 OCA  HZ EP        632 42.87                             143    0.4210 89.5 354 
 OCA  HN ES        632 58.79                             143    0.1310 89.5 354 
 OCA  HZ I         633  1.37        15.2 0.16            148           89.5 354 
 PTB  HZ EP        632 48.86                             124   -0.37 9  167 234 
 PTB  HN ES        633 10.00                             124   -0.74 9  167 234 
 PTB  HZ I         633 14.50         7.7 0.28            126            167 234 
 RUS  HZ EP        632 49.62                             124   -0.63 9  171 174 
 RUS  HN ES        633 12.00                             124   -0.54 9  171 174 
 SML  HZ EP        632 50.10                             122   -0.09 9  177 329 
 SML  HN ES        633 11.41                             122   -1.04 9  177 329 
 ZAR  HZ EP        632 51.10                             122    0.65 9  179 272 
 ZAR  HN ES        633 13.46                             122    0.56 9  179 272 
 ZAR  HZ I         633 16.78        17.9 0.56            124            179 272 
 SPBC HZ EP        632 55.11                             117    0.47 8  218 205 
 SPBC HE ES        633 20.79                             117    0.42 8  218 205 
 SPBC HZ I         633 28.17         8.1 0.34            119            218 205 
 URE  HZ EP   4    632 58.77                             112   -0.03 0  256 278 
 URE  HN ES   4    633 26.34                             112   -1.43 0  256 278 
 NOR  HZ EP   4    632 56.78                             111   -4.19 0  275 221 
 NOR  HE ES        633 31.98                             111    0.35 8  275 221 
 NOR  HZ I         633 40.26         5.5 0.20            113            275 221 
 HEL  HZ EP   4    633  4.72                             110    1.78 0  289 242 
 HEL  HN ES   4    633 32.39                             110   -2.75 0  289 242 
                                                                                
