 2012 10 9 0307 23.1 L   6.772 -73.101143.4  RSN  5 0.1 1.7LRSN                1
 GAP=196        0.29       2.7     3.4  2.9  0.5898E+01  0.1389E+01  0.6774E+00E
 Epicentro: LOS SANTOS - SANTANDER                                             3
 ACTION:UPD 12-11-22 17:02 OP:ep   STATUS:               ID:20121009030723 L   I
 2012-10-09-0300-00M.COL___223                                                 6
 STAT SP IPHASW D HRMM SECON CODA AMPLIT PERI AZIMU VELO AIN AR TRES W  DIS CAZ7
 BAR2 SZ EP   1    3 7 42.41                             171    0.04 7 21.9 204 
 BAR2 SZ I         3 7 42.75         9.5 0.09                          21.9 204 
 BAR2 SZ ES   1    3 7 57.28                             171   -0.15 7 21.9 204 
 GIR2 SZ EP   1    3 7 42.52                             165   -0.04 7 35.4 343 
 GIR2 SZ ES   1    3 7 57.80                             165    0.02 7 35.4 343 
 BRR  HZ EP   1    3 7 44.28                             150   -0.01 7 77.0 299 
 BRR  HZ I         3 7 44.56         7.7 0.18                          77.0 299 
 BRR  HN ES   1    3 8  0.98                             150    0.13 7 77.0 299 
 RUS  HZ EP   1    3 7 46.35                             144    0.02 7 97.3 179 
 RUS  HN ES   1    3 8  4.53                             144    0.04 7 97.3 179 
 ZAR  HN ES   1    3 8 21.51                             121   -0.08 6  210 292 
 ZAR  HN I         3 8 22.44         4.5 0.14                           210 292 
                                                                                
