 2017  4 9 0852 17.9 L   6.804 -73.146148.0  RSN  8 0.3 1.4LRSN                1
 GAP=136        0.67       2.7     3.0  4.6  0.5699E+00  0.3040E+01  0.1597E+01E
 Epicentro: LOS SANTOS - SANTANDER                                             3
 ACTION:UPD 17-05-30 21:10 OP:jn   STATUS:               ID:20170409085217 L   I
 OLDACT:UP  17-04-09 17:37 OP:and  STATUS:               ID:20170409084744d    3
 OLDACT:UP  17-04-09 17:36 OP:and  STATUS:               ID:20170409084744d    3
 OLDACT:UP  17-04-09 17:35 OP:and  STATUS:               ID:20170409084744d    3
 OLDACT:DUP 17-04-09 17:34 OP:and  STATUS:               ID:20170409084744d    3
 2017-04-09-0848-00M.COL___371                                                 6
 STAT SP IPHASW D HRMM SECON CODA AMPLIT PERI AZIMU VELO AIN AR TRES W  DIS CAZ7
 BAR2 EZ EP        852 37.61                             170   -0.1710 23.8 190 
 BAR2 EZ ES        852 53.32                             170    0.0110 23.8 190 
 BAR2 EZ I         852 54.23         5.5 0.14            168           23.8 190 
 BRR  HZ EP   2    852 39.38                             153    0.13 5 71.0 298 
 BRR  HN ES        852 56.57                             153    0.6410 71.0 298 
 BRR  HZ I         852 59.59         4.9 0.46            151           71.0 298 
 PAM  EZ IP     D  852 40.56                             151    0.2510 77.0  40 
 PAM  EN ES        852 57.49                             151   -0.3110 77.0  40 
 PAM  EZ I         852 59.76         6.5 0.52            155           77.0  40 
 RUS  HZ EP        852 41.75                             144   -0.1310  101 176 
 RUS  HN ES        853  0.63                             144    0.0310  101 176 
 RUS  HZ I         853  1.85         2.0 0.42            144            101 176 
 PTB  HZ EP   2    852 45.48                             133    0.45 5  148 259 
 PTB  HE ES        853  5.94                             133   -0.28 9  148 259 
 PTB  HZ I         853  8.25         1.8 0.15            131            148 259 
 ZAR  HZ EP        852 50.32                             123   -0.13 9  204 292 
 ZAR  HE ES        853 15.55                             123   -0.31 9  204 292 
 ZAR  HZ I         853 21.09         2.5 0.33            122            204 292 
 NOR  HN ES   2    853 21.97                             119    0.22 4  235 234 
 NOR  HZ I         853 30.82         1.7 0.16            119            235 234 
 CHI  HZ EP   2    852 56.24                             118    0.50 4  249 195 
 CHI  HN ES        853 25.28                             118   -0.00 8  249 195 
 CHI  HZ I         853 28.56         1.5 0.48            118            249 195 
                                                                                
