 2017  6 9 0533 51.1 L   6.717 -73.248154.0  RSN  5 0.3 0.8LRSN                1
 GAP=219        0.65       3.9     4.4  7.2  0.7822E+01 -0.2457E+01 -0.3070E+01E
 Epicentro: BARICHARA - SANTANDER                                              3
 ACTION:UPD 17-09-14 16:50 OP:jn   STATUS:               ID:20170609053351 L   I
 OLDACT:UP  17-06-09 17:57 OP:edw  STATUS:               ID:20170609052744d    3
 OLDACT:DUP 17-06-09 17:55 OP:edw  STATUS:               ID:20170609052744d    3
 OLDACT:DUP 17-06-09 17:52 OP:edw  STATUS:               ID:20170609052743d    3
 OLDACT:UP  17-06-09 17:50 OP:edw  STATUS:               ID:20170609052742d    3
 OLDACT:UP  17-06-09 17:49 OP:edw  STATUS:               ID:20170609052742d    3
 OLDACT:DUP 17-06-09 17:42 OP:edw  STATUS:               ID:20170609052742d    3
 2017-06-09-0528-00M.COL___362                                                 6
 STAT SP IPHASW D HRMM SECON CODA AMPLIT PERI AZIMU VELO AIN AR TRES W  DIS CAZ7
 BRR  HZ EP        534 12.43                             155   -0.4810 67.0 310 
 BRR  HN ES        534 30.04                             155    0.1010 67.0 310 
 RUS  HZ EP        534 15.38                             148    0.2410 93.0 169 
 RUS  HN ES        534 33.96                             148    0.0510 93.0 169 
 RUS  HZ I         534 35.48         1.5 0.44            148           93.0 169 
 PTB  HZ EP   2    534 17.98                             137    0.33 5  135 262 
 PTB  HN ES        534 38.23                             137   -0.1410  135 262 
 PTB  HZ I         534 40.78         0.5 0.28            137            135 262 
 SPBC HN ES        534 40.57                             134   -0.11 9  149 218 
 ZAR  HN ES        534 48.96                             125    0.31 9  197 296 
                                                                                
