 2012  1 9 0942 53.0 L   6.470 -73.714 97.0  RSN  9 0.5 1.5LRSN                1
 GAP=100        1.18       5.4     4.2 10.5 -0.7948E+00  0.8380E+01 -0.6812E+01E
 Epicentro: SANTA HELENA DEL OPON - SANTANDER                                  3
 ACTION:UP  12-02-03 08:15 OP:REBC STATUS:               ID:20120109094253 L   I
 2012-01-09-0940-00M.COL___186                                                 6
 STAT SP IPHASW D HRMM SECON CODA AMPLIT PERI AZIMU VELO SNR AR TRES W  DIS CAZ7
 BAR2 SZ EP   1    943  9.15                             146     0.4 7   60  77 
 BAR2 SZ ES   1    943 21.48                             146     0.5 7   60  77 
 BAR2 SZ I         943 23.22        68.0 0.21                            60  77 
 BRR  HZ EP        943  9.08                             141     0.010   70   0 
 BRR  HN ES   1    943 21.74                             141     0.1 7   70   0 
 BRR  HZ I         943 27.58        14.1 0.10                            70   0 
 PTB  HZ EP        943  9.60                             137    -0.510   82 275 
 PTB  HE ES   1    943 22.52                             137    -0.9 7   82 275 
 PTB  HZ I         943 23.93         0.1 0.13                            82 275 
 GIR2 SZ EP   1    943 10.99                             134     0.2 7   89  40 
 RUS  HZ EP   1    943 11.99                             133     0.2 7   95 132 
 RUS  HN ES   1    943 26.70                             133     0.2 7   95 132 
 RUS  HZ I         943 28.33         5.8 0.27                            95 132 
 PAM  SZ EP   1    943 16.78                             119    -0.4 7  148  49 
 PAM  SN ES   1    943 35.17                             119    -0.8 7  148  49 
 NOR  SN ES   1    943 37.98                             117     0.2 7  162 232 
 ZAR  HZ EP        943 19.22                             115     0.3 9  170 312 
 ZAR  HN ES   1    943 40.17                             115     1.0 7  170 312 
 ZAR  HZ I         943 43.80         9.5 0.23                           170 312 
 OCA  SZ EP   2    943 22.35                             111    -0.3 4  200  13 
 OCA  SZ I         943 51.51        10.5 0.21                           200  13 
                                                                                
