 2013  2 9 0742 43.7 L   6.803 -73.162144.5  RSN  9 0.3 2.0LRSN                1
 GAP=134        0.67       2.4     3.6  4.6  0.1170E+01  0.3287E+01 -0.3673E+00E
 Epicentro: LOS SANTOS - SANTANDER                                             3
 ACTION:UPD 13-03-12 09:31 OP:ep   STATUS:               ID:20130209074243 L   I
 2013-02-09-0740-00M.COL___240                                                 6
 STAT SP IPHASW D HRMM SECON CODA AMPLIT PERI AZIMU VELO AIN AR TRES W  DIS CAZ7
 BAR2 SZ EP   1    743  3.22                             170    0.06 7 23.4 186 
 BAR2 SZ ES   1    743 17.96                             170   -0.39 7 23.4 186 
 BAR2 SZ I         743 19.79        32.8 0.11            169           23.4 186 
 BRR  HZ IP     C  743  4.94                             153    0.3510 69.5 299 
 BRR  HN ES   1    743 21.59                             153    0.68 7 69.5 299 
 BRR  HZ I         743 26.15        11.5 0.14            150           69.5 299 
 PAM  SZ EP        743  6.01                             150    0.2010 78.3  41 
 PAM  SN ES   1    743 23.17                             150    0.09 7 78.3  41 
 PAM  SZ I         743 25.56        16.6 0.41            156           78.3  41 
 RUS  HZ EP        743  7.12                             143   -0.2210  101 175 
 RUS  HN ES        743 25.58                             143   -0.2110  101 175 
 RUS  HN I         743 27.85        24.4 0.34            146            101 175 
 PTB  HZ EP   1    743 10.27                             132   -0.12 7  146 259 
 PTB  HE ES   1    743 30.94                             132   -0.28 7  146 259 
 PTB  HZ I         743 38.30         9.3 0.30            132            146 259 
 ZAR  HZ EP   1    743 16.15                             122    0.29 6  202 292 
 ZAR  HN ES   1    743 40.81                             122   -0.15 6  202 292 
 ZAR  HZ I         743 46.73         4.9 0.33            123            202 292 
 SML  HZ EP        743 19.80                             117   -0.32 8  243 336 
 SML  HE ES   1    743 47.98                             117   -0.57 6  243 336 
 SML  HZ I         743 50.37        13.1 0.11            119            243 336 
 CHI  HZ EP        743 21.36                             117    0.07 8  248 195 
 CHI  HZ I         743 22.18         3.7 0.10            119            248 195 
 CHI  HN ES        743 50.84                             117    0.22 8  248 195 
 ROSC BZ EP   4    743 22.77                             116    1.11 0  252 211 
 ROSC BZ I         743 24.92         7.6 0.24            118            252 211 
                                                                                
