 2010  4 9 0858 54.7 L   6.838 -72.919139.5  RSN  4 0.4 2.0LRSN                1
 GAP=243        0.88       6.7    10.1  7.8 -0.4311E+01  0.2298E+01  0.2523E+01E
 Epicentro: SAN ANDRES - SANTANDER                                             3
 ACTION:UPD 10-08-24 09:58 OP:vdl  STATUS:               ID:20100409085854 L   I
 2010-04-09-0854-21S.COL___097                                                 6
 STAT SP IPHASW D HRMM SECON CODA AMPLIT PERI AZIMU VELO AIN AR TRES W  DIS CAZ7
 BAR2 SZ EP        859 14.22                             164     0.210   40 227 
 BAR2 SZ ES        859 29.26                             164     0.110   40 227 
 BRR  HZ IP     C  859 16.26                             145    -0.310   93 289 
 BRR  HZ I         859 16.51        16.1 0.10                            93 289 
 BRR  HE ES        859 33.33                             145    -0.310   93 289 
 OCA  SZ EP   2    859 23.05                             128     0.4 5  161 344 
 OCA  SZ ES   2    859 45.04                             128     0.7 5  161 344 
 OCA  SZ I         859 47.49        15.7 0.13                           161 344 
 RREF BZ EP   1    859 42.47                             108    -0.6 5  344 232 
 RREF BN ES   1    9 0 21.73                             108     0.9 5  344 232 
 RREF BZ I         9 0 23.89         3.6 0.40                           344 232 
                                                                                
