 2014  8 9 0829 32.8 L   6.871 -73.247128.3  RSN  5 0.3 1.3LRSN                1
 GAP=170        0.84       3.9     5.9  7.6 -0.7038E+01  0.9906E+01 -0.1411E+01E
 Epicentro: BETULIA - SANTANDER                                                3
 ACTION:UPD 14-09-15 21:48 OP:nd   STATUS:               ID:20140809082932 L   I
 OLDACT:REG 14-08-09 13:42 OP:spq  STATUS:               ID:20140809082818     3
 2014-08-09-0828-18M.COL___260                                                 6
 STAT SP IPHASW D HRMM SECON CODA AMPLIT PERI AZIMU VELO AIN AR TRES W  DIS CAZ7
 BAR2 SZ EP        829 50.14                             165   -0.4210 31.6 167 
 BAR2 SZ ES        830  4.61                             165    0.2010 31.6 167 
 BAR2 SZ I         830  5.79         7.8 0.42            166           31.6 167 
 BRR  HZ EP        829 51.72                             154    0.4110 57.6 297 
 BRR  HN ES        830  5.89                             154    0.1510 57.6 297 
 PTB  HZ EP        829 57.96                             130    0.42 9  139 255 
 PTB  HN ES        830 16.49                             130   -0.34 9  139 255 
 PTB  HZ I         830 18.88         2.1 0.30            130            139 255 
 OCA  HN ES        830 19.05                             127   -0.30 9  152 357 
 SPBC HN ES        830 20.99                             125   -0.19 9  163 214 
                                                                                
