 2016  7 9 0044 33.8 L   6.670 -73.144151.6  RSN  4 0.2 1.3LRSN                1
 GAP=228        0.51       4.2     4.3  4.2  0.9618E+01  0.3580E+01  0.1331E+01E
 Epicentro: VILLANUEVA - SANTANDER                                             3
 ACTION:UPD 17-03-29 16:48 OP:lp   STATUS:               ID:20160709004433 L   I
 OLDACT:REG 16-07-09 12:36 OP:edw  STATUS:               ID:20160709003748     3
 2016-07-09-0037-48M.COL___340                                                 6
 STAT SP IPHASW D HRMM SECON CODA AMPLIT PERI AZIMU VELO AIN AR TRES W  DIS CAZ7
 BAR2 EZ ES        045  9.63                             176   -0.0310 9.62 206 
 BRR  HZ EP        044 56.27                             151    0.2310 79.2 308 
 BRR  HN ES        045 13.28                             151   -0.1010 79.2 308 
 BRR  HZ I         045 14.33         4.0 0.20            151           79.2 308 
 RUS  HZ EP        044 56.88                             149   -0.3110 86.3 175 
 RUS  HE ES        045 15.61                             149    0.1910 86.3 175 
 RUS  HZ I         045 17.76         2.2 0.22            148           86.3 175 
 PTB  HZ EP        045  1.17                             134    0.08 9  146 264 
 PTB  HN ES        045 22.30                             134   -0.06 9  146 264 
 PTB  HZ I         045 25.05         4.0 0.12            133            146 264 
                                                                                
