 2012  7 9 0551 49.1 L   6.790 -73.132147.9  RSN 13 0.4 2.0LRSN                1
 GAP=115        0.97       3.2     4.2  6.1 -0.6237E+00  0.4274E+01  0.3909E+01E
 Epicentro: LOS SANTOS - SANTANDER                                             3
 ACTION:UPD 12-08-14 11:43 OP:ep   STATUS:               ID:20120709055149 L   I
 2012-07-09-0550-00M.COL___201                                                 6
 STAT SP IPHASW D HRMM SECON CODA AMPLIT PERI AZIMU VELO AIN AR TRES W  DIS CAZ7
 BAR2 SZ EP   1    552  9.05                             171     0.1 7   23 194 
 BAR2 SZ ES   1    552 24.14                             171    -0.4 7   23 194 
 BAR2 SZ I         552 25.86        28.9 0.31                            23 194 
 BRR  HZ EP   1    552 10.96                             152     0.4 7   73 299 
 BRR  HZ I         552 11.26        20.1 0.18                            73 299 
 BRR  HN ES        552 28.20                             152     0.810   73 299 
 PAM  SZ EP   1    552 11.85                             151     0.3 7   77  38 
 PAM  SN ES   1    552 29.06                             151     0.0 7   77  38 
 RUS  HZ EP   1    552 12.94                             145    -0.1 7   99 177 
 RUS  HN ES   1    552 30.91                             145    -0.7 7   99 177 
 RUS  HZ I         552 32.56         9.0 0.35                            99 177 
 PTB  HZ EP   1    552 15.93                             132    -0.5 7  149 259 
 PTB  HN ES   1    552 36.78                             132    -0.9 7  149 259 
 PTB  HZ I         552 43.01        15.4 0.27                           149 259 
 OCA  HZ EP   1    552 17.19                             130    -0.5 7  162 353 
 OCA  HN ES        552 40.01                             130     0.0 9  162 353 
 YOP  SZ EP   1    552 19.49                             127     0.3 7  177 154 
 ZAR  HZ EP   1    552 22.00                             123     0.1 6  206 292 
 ZAR  HE ES        552 47.49                             123     0.0 8  206 292 
 ZAR  HZ I         552 54.42         9.4 0.11                           206 292 
 NOR  SZ EP   1    552 24.96                             119    -0.1 6  235 235 
 NOR  SN ES   1    552 53.10                             119     0.0 6  235 235 
 CHI  HZ EP   1    552 27.03                             118     0.2 6  248 196 
 CHI  HN ES   1    552 56.56                             118     0.2 6  248 196 
 CHI  HZ I         553  4.81         4.7 0.32                           248 196 
 HEL  HZ EP   1    552 29.90                             115     0.3 6  273 256 
 HEL  HN ES   1    553  0.75                             115    -0.4 6  273 256 
 HEL  HZ I         553  7.41         3.7 0.27                           273 256 
 COD  HN ES   1    553 14.69                             109    -1.0 5  350 354 
 PRA  HZ EP   1    552 43.47                             107     0.8 4  392 210 
 PRA  HN ES   1    553 24.85                             107     0.4 4  392 210 
