 2013  4 9 0926 54.6 L   6.778 -73.171143.6  RSN  6 0.4 1.9LRSN                1
 GAP=179        0.98       5.0     6.4  6.9  0.8735E+01  0.3749E+01  0.7255E+01E
 Epicentro: LOS SANTOS - SANTANDER                                             3
 ACTION:UPD 13-05-22 14:36 OP:EP   STATUS:               ID:20130409092654 L   I
 2013-04-09-0918-48M.COL___218                                                 6
 STAT SP IPHASW D HRMM SECON CODA AMPLIT PERI AZIMU VELO AIN AR TRES W  DIS CAZ7
 BAR2 SZ EP        927 13.77                             171   -0.1010 20.6 184 
 BAR2 SZ ES        927 28.48                             171   -0.4610 20.6 184 
 BAR2 SZ I         927 29.64        17.3 0.34            173           20.6 184 
 GIR2 SZ EP        927 13.75                             166   -0.2810 33.3 356 
 BRR  HZ EP        927 15.68                             152    0.2810 70.0 301 
 BRR  HN ES        927 32.34                             152    0.6810 70.0 301 
 BRR  HN I         927 35.64        20.2 0.18            152           70.0 301 
 RUS  HZ EP        927 18.03                             144    0.0910 98.4 174 
 RUS  HN ES        927 36.30                             144    0.1210 98.4 174 
 PTB  HZ EP        927 20.45                             132   -0.61 9  145 260 
 PTB  HN ES        927 41.51                             132   -0.22 9  145 260 
 CHI  HZ EP        927 32.40                             117    0.60 8  246 195 
 CHI  HN ES        928  0.86                             117    0.00 8  246 195 
                                                                                
