 2015  4 9 0454 35.0 L   6.452 -73.822 85.0  RSN 11 0.4 1.6LRSN                1
 GAP= 70        1.09       2.9     2.6  7.2 -0.1746E+01  0.4659E+01  0.4908E+00E
 Epicentro: CIMITARRA - SANTANDER                                              3
 ACTION:UPD 15-06-03 16:53 OP:cam  STATUS:               ID:20150409045435 L   I
 OLDACT:UP  15-04-09 14:33 OP:mh   STATUS:               ID:20150409044749d    3
 OLDACT:DUP 15-04-09 14:23 OP:mh   STATUS:               ID:20150409044749d    3
 OLDACT:UP  15-04-09 14:22 OP:mh   STATUS:               ID:20150409044748     3
 OLDACT:REG 15-04-09 13:06 OP:akv  STATUS:               ID:20150409044748     3
 2015-04-09-0447-48M.COL___266                                                 6
 STAT SP IPHASW D HRMM SECON CODA AMPLIT PERI AZIMU VELO AIN AR TRES W  DIS CAZ7
 PTB  HN ES        455  1.19                             137   -0.6110 70.8 278 
 BAR2 EZ EP        454 50.49                             136   -0.0310 72.4  78 
 BAR2 EZ ES        455  2.94                             136    0.3610 72.4  78 
 BAR2 EZ I         455  4.94        19.1 0.40            143           72.4  78 
 BRR  HZ EP   1    454 49.93                             136   -0.35 7 73.5  10 
 BRR  HN ES        455  2.51                             136    0.3510 73.5  10 
 BRR  HZ I         455  9.95         8.5 0.32            139           73.5  10 
 SPBC HZ EP        454 52.20                             128    0.0310 92.7 197 
 SPBC HN ES        455  5.76                             128    0.2410 92.7 197 
 SPBC HZ I         455  7.61         8.3 0.18            135           92.7 197 
 RUS  HZ EP   1    454 53.32                             126   -0.35 7  103 127 
 RUS  HN ES        455  8.13                             126   -0.0610  103 127 
 RUS  HZ I         455 10.10         4.4 0.32            134            103 127 
 NOR  HZ EP        454 57.75                             114   -0.66 9  152 230 
 NOR  HN ES        455 16.44                             114   -0.19 9  152 230 
 NOR  HZ I         455 19.73         9.8 0.17            119            152 230 
 PAM  SZ EP        455  0.52                             113    0.86 9  158  52 
 PAM  SE ES        455 18.16                             113   -0.70 9  158  52 
 PAM  SZ I         455 19.06         6.6 0.16            118            158  52 
 ZAR  HZ EP        454 59.06                             112   -0.46 9  162 315 
 ZAR  HN ES        455 18.81                             112    0.19 9  162 315 
 ZAR  HZ I         455 22.66         5.8 0.24            115            162 315 
 HEL  HZ EP   1    455  3.57                             109    0.27 7  191 261 
 HEL  HN ES        455 26.08                             109    0.75 9  191 261 
 HEL  HZ I         455 29.06         4.8 0.30            112            191 261 
 GUY2CHZ EP   1    455  7.13                             106    0.50 6  218 232 
 GUY2CHN ES        455 31.36                             106    0.10 8  218 232 
 GUY2CHZ I         455 37.77         3.5 0.20                           218 232 
 URE  HZ EP   4    455  5.81                             105   -2.53 0  237 307 
 URE  HN ES   4    455 37.74                             105    3.43 0  237 307 
 URE  HZ I         455 39.18         4.4 0.38            106            237 307 
                                                                                
