 2016 11 9 0153 28.2 L   6.770 -73.150142.6  RSN  7 0.4 1.3LRSN                1
 GAP=152        0.94       6.2     4.4  6.8 -0.9647E+01  0.9374E+01 -0.1968E+00E
 Epicentro: LOS SANTOS - SANTANDER                                             3
 ACTION:UPD 17-10-26 21:06 OP:lp   STATUS:               ID:20161109015328 L   I
 OLDACT:REG 16-11-09 12:28 OP:lv   STATUS:               ID:20161109014745     3
 2016-11-09-0148-00M.COL___343                                                 6
 STAT SP IPHASW D HRMM SECON CODA AMPLIT PERI AZIMU VELO AIN AR TRES W  DIS CAZ7
 BAR2 EZ EP        153 47.41                             172   -0.0210 20.0 190 
 BAR2 EZ ES        154  2.25                             172   -0.1410 20.0 190 
 BAR2 EZ I         154  3.24         7.6 0.33            165           20.0 190 
 BRR  HZ EP        153 49.22                             152    0.1010 72.4 301 
 BRR  HN ES        154  5.60                             152    0.2010 72.4 301 
 PAM  EZ EP        153 50.24                             149   -0.0610 80.3  38 
 PAM  EN ES        154  7.65                             149    0.1510 80.3  38 
 PAM  EZ I         154 10.18         3.8 0.53            151           80.3  38 
 PTB  HZ EP        153 54.13                             131   -0.72 9  147 260 
 PTB  HN ES        154 15.12                             131   -0.49 9  147 260 
 PTB  HZ I         154 16.55         2.4 0.19            130            147 260 
 ZAR  HZ EP        154  0.97                             121    0.40 9  205 293 
 ZAR  HN ES        154 25.74                             121   -0.04 9  205 293 
 NOR  HZ EP   4    154  5.07                             118    1.53 0  232 235 
 NOR  HN ES        154 31.90                             118    0.83 8  232 235 
 NOR  HZ I         154 37.17         1.3 0.25            116            232 235 
 PRA  HN ES   4    155  4.44                             106    1.77 0  389 210 
 PRA  HN I         155 10.94         0.6 0.29            104            389 210 
                                                                                
