 2017  2 9 0032 40.0 L   6.752 -73.170139.5  RSN 11 0.5 1.9LRSN                1
 GAP=136        1.12       4.0     4.2  6.5  0.1727E+01  0.1101E+02  0.5535E+01E
 Epicentro: LOS SANTOS - SANTANDER                                             3
 ACTION:UPD 17-05-24 15:34 OP:jn   STATUS:               ID:20170209003240 L   I
 OLDACT:UP  17-02-09 14:23 OP:edw  STATUS:               ID:20170209002744     3
 OLDACT:UP  17-02-09 14:22 OP:edw  STATUS:               ID:20170209002744     3
 OLDACT:UP  17-02-09 14:14 OP:edw  STATUS:               ID:20170209002744     3
 OLDACT:REG 17-02-09 12:48 OP:edw  STATUS:               ID:20170209002744     3
 2017-02-09-0028-00M.COL___364                                                 6
 STAT SP IPHASW D HRMM SECON CODA AMPLIT PERI AZIMU VELO AIN AR TRES W  DIS CAZ7
 BAR2 EZ EP        032 59.57                             172    0.8410 17.7 184 
 BAR2 EZ ES        033 13.20                             172   -0.1710 17.7 184 
 BAR2 EZ I         033 14.14        23.4 0.28            171           17.7 184 
 BRR  HZ IP     D  033  0.37                             151   -0.0910 71.6 303 
 BRR  HN ES        033 17.32                             151    0.8710 71.6 303 
 BRR  HZ I         033 21.95        17.6 0.10            151           71.6 303 
 PAM  EZ IP     C  033  1.61                             148   -0.2710 83.2  39 
 PAM  EN ES        033 18.27                             148   -0.7110 83.2  39 
 PAM  EZ I         033 20.65        15.3 0.62            151           83.2  39 
 RUS  HZ EP        033  2.64                             144   -0.0910 95.5 174 
 RUS  HN ES        033 20.56                             144    0.0710 95.5 174 
 RUS  HZ I         033 21.38         6.0 0.30            146           95.5 174 
 PTB  HZ EP        033  6.22                             131    0.13 9  144 261 
 PTB  HN ES        033 25.77                             131   -0.70 9  144 261 
 PTB  HZ I         033 29.19        18.4 0.44            132            144 261 
 ZAR  HZ EP        033 11.88                             121   -0.08 9  204 294 
 ZAR  HN ES        033 37.40                             121    0.48 9  204 294 
 ZAR  HZ I         033 40.50        21.0 0.88            122            204 294 
 CHI  HZ EP        033 17.13                             116    0.45 8  243 195 
 CHI  HN ES        033 45.14                             116   -0.18 8  243 195 
 CHI  HZ I         033 48.25         1.9 0.36            118            243 195 
 URE  HE ES   4    033 50.09                             112   -2.35 0  283 293 
 PTGC HZ EP   4    033 21.61                             111   -1.48 0  305 158 
 PTGC HN ES   4    033 54.75                             111   -1.99 0  305 158 
 CBOC HN EP   4    033 24.13                             109   -2.01 0  329 253 
 CBOC HE ES        034  1.61                             109   -0.55 7  329 253 
 DBB  EZ EP        033 27.00                             108    0.07 7  337 275 
 DBB  EN ES        034  3.02                             108   -0.54 7  337 275 
 DBB  EZ I         034  8.04         4.5 0.24            110            337 275 
 PRA  HZ EP   2    033 33.19                             106    0.62 3  386 210 
 PRA  HN ES        034 13.61                             106    0.00 6  386 210 
 PRA  HZ I         034 18.91         2.9 0.74            107            386 210 
 SJC  HZ EP   4    033 32.93                             104   -2.75 0  412 328 
 SJC  HN ES   4    034 14.33                             104   -4.81 0  412 328 
 SJC  HZ I         034 17.75         3.2 0.42            106            412 328 
                                                                                
