 2014  4 9 0808 39.7 L   6.818 -73.164139.8  RSN 13 0.4 1.9LRSN                1
 GAP=133        0.86       4.0     4.3  6.6 -0.6379E+01  0.1009E+02  0.2798E+01E
 Epicentro: LOS SANTOS - SANTANDER                                             3
 OLDACT:UP  14-04-09 19:19 OP:fm   STATUS:               ID:20140409080814     3
 OLDACT:REG 14-04-09 14:30 OP:stll STATUS:               ID:20140409080814     3
 ACTION:UPD 14-05-13 23:07 OP:nd   STATUS:               ID:20140409080839 L   I
 OLDACT:UP  14-04-09 19:25 OP:fm   STATUS:               ID:20140409080814     3
 2014-04-09-0808-14M.COL___250                                                 6
 STAT SP IPHASW D HRMM SECON CODA AMPLIT PERI AZIMU VELO AIN AR TRES W  DIS CAZ7
 PAM  SZ EP        8 9  1.20                             150   -0.0410 77.2  42 
 PAM  SE ES        8 9 18.49                             150    0.4310 77.2  42 
 PAM  SZ I         8 9 20.52         8.6 0.34            162           77.2  42 
 RUS  HZ EP        8 9  2.67                             142   -0.3310  103 175 
 RUS  HN ES   1    8 9 20.68                             142   -0.52 7  103 175 
 RUS  SZ I         8 9 35.32         6.4 2.08            143            103 175 
 PTB  HZ EP        8 9  5.23                             131   -0.78 9  146 258 
 PTB  HN ES        8 9 26.50                             131   -0.05 9  146 258 
 PTB  SZ I         8 9 32.35         9.8 0.40            136            146 258 
 SPBC HZ EP        8 9  7.49                             128   -0.26 9  163 218 
 SPBC HN ES        8 9 30.13                             128    0.49 9  163 218 
 SPBC SZ I         8 9 36.49        12.9 0.22            132            163 218 
 NOR  HN ES   1    8 9 42.74                             117    0.17 6  234 234 
 SML  HN ES   2    8 9 42.94                             116   -0.81 4  241 336 
 CHI  HE ES   2    8 9 46.51                             116    0.04 4  250 195 
 HEL  HZ EP        8 9 20.07                             114    0.65 8  271 255 
 HEL  HN ES   1    8 9 50.21                             114   -0.21 6  271 255 
 HEL  SZ I         8 9 54.57         2.6 0.80            120            271 255 
 GUY2CHZ EP        8 9 23.48                             111    0.53 7  301 234 
 GUY2CHN ES   4    810  0.03                             111    3.32 0  301 234 
 GUY2CSZ I         810 10.17         3.9 0.74                           301 234 
 RREF HZ EP   1    8 9 25.62                             110    0.09 5  322 229 
 RREF HN ES   4    810  5.47                             110    4.17 0  322 229 
 RREF SZ I         810  7.33         4.5 0.98            115            322 229 
 CBOC HZ EP        8 9 26.63                             109    0.44 7  332 252 
 CBOC HN ES   4    810  0.68                             109   -1.79 0  332 252 
 CBOC SZ I         810  9.25         4.4 3.92            114            332 252 
 ARGC HE ES   4    810  6.23                             107   -0.89 0  357 341 
 PRA  HZ EP        8 9 32.95                             105   -0.13 6  393 209 
 PRA  HN ES   1    810 15.11                             105    0.37 4  393 209 
 PRA  SZ I         810 21.21         7.2 3.64            110            393 209 
 ORTC HE ES   2    810 15.18                             105   -0.20 3  396 216 
                                                                                
