 2017  5 9 0117  5.6 L   6.754 -73.176146.7  RSN  4 0.1 1.4LRSN                1
 GAP=230        0.34       2.8     2.8  3.5  0.5421E+01 -0.1800E+00 -0.6840E+00E
 Epicentro: LOS SANTOS - SANTANDER                                             3
 ACTION:UPD 17-06-16 13:34 OP:jn   STATUS:               ID:20170509011705 L   I
 OLDACT:REG 17-05-09 12:34 OP:lv   STATUS:               ID:20170509010742     3
 2017-05-09-0108-00M.COL___354                                                 6
 STAT SP IPHASW D HRMM SECON CODA AMPLIT PERI AZIMU VELO AIN AR TRES W  DIS CAZ7
 BRR  HZ EP        117 26.76                             153   -0.1210 70.9 303 
 BRR  HN ES        117 43.50                             153    0.0610 70.9 303 
 BRR  HZ I         117 47.13         5.4 0.25            152           70.9 303 
 RUS  HZ EP        117 29.30                             145    0.1510 95.8 174 
 RUS  HN ES        117 47.41                             145   -0.0710 95.8 174 
 RUS  HZ I         117 49.81         1.5 0.35            149           95.8 174 
 PTB  HZ EP        117 32.26                             133   -0.05 9  144 261 
 PTB  HN ES        117 53.11                             133    0.00 9  144 261 
 PTB  HZ I         117 55.73         3.5 0.57            134            144 261 
 ZAR  HN ES        118  3.34                             123    0.04 9  203 294 
 ZAR  HZ I         118  9.57         3.9 0.16            124            203 294 
                                                                                
