 2015  5 9 0417  4.4 L   6.846 -73.256121.7  RSN  7 0.4 1.9LRSN                1
 GAP=166        1.07       3.6     6.0  7.7  0.2328E+01  0.1000E+02 -0.1105E+02E
 Epicentro: ZAPATOCA - SANTANDER                                               3
 ACTION:UPD 15-09-10 22:02 OP:cam  STATUS:               ID:20150509041704 L   I
 OLDACT:UP  15-05-09 17:18 OP:drio STATUS:               ID:20150509040748     3
 OLDACT:REG 15-05-09 12:30 OP:drio STATUS:               ID:20150509040748     3
 2015-05-09-0407-48M.COL___285                                                 6
 STAT SP IPHASW D HRMM SECON CODA AMPLIT PERI AZIMU VELO AIN AR TRES W  DIS CAZ7
 BAR2 EZ EP        417 21.94                             166    0.6210 29.2 164 
 BAR2 EZ ES        417 34.63                             166    0.1210 29.2 164 
 BAR2 EZ I         417 36.62        25.2 0.32            168           29.2 164 
 BRR  HZ EP        417 22.67                             153    0.4410 58.1 300 
 BRR  HN ES        417 36.29                             153    0.1710 58.1 300 
 BRR  HZ I         417 36.97        11.6 0.12            150           58.1 300 
 RUS  HN ES        417 43.19                             136   -0.4110  107 170 
 OCA  HZ EP        417 30.44                             125    0.08 9  154 357 
 OCA  HN ES        417 50.17                             125   -0.43 9  154 357 
 OCA  HZ I         417 56.54        21.4 0.24            125            154 357 
 SPBC HN ES        417 50.81                             124   -0.68 9  160 214 
 SPBC HZ I         417 56.15         7.8 0.36            124            160 214 
 ZAR  HZ EP        417 34.43                             118    0.44 9  191 292 
 ZAR  HN ES        417 57.26                             118    0.20 9  191 292 
 ZAR  HZ I         418  3.96         5.7 0.22            118            191 292 
 SML  HZ EP        417 38.61                             113   -0.13 8  234 337 
 SML  HN ES        418  4.79                             113   -0.72 8  234 337 
                                                                                
