 2013  2 9 0706 50.3 L   6.867 -73.127146.6  RSN  6 0.2 1.4LRSN                1
 GAP=135        0.52       2.9     3.1  5.6  0.8262E+00  0.1213E+01  0.5823E+01E
 Epicentro: LOS SANTOS - SANTANDER                                             3
 ACTION:UPD 13-03-12 09:31 OP:ep   STATUS:               ID:20130209070650 L   I
 2013-02-09-0700-00M.COL___240                                                 6
 STAT SP IPHASW D HRMM SECON CODA AMPLIT PERI AZIMU VELO AIN AR TRES W  DIS CAZ7
 BRR  HZ EP        7 7 11.63                             153    0.1910 69.9 292 
 BRR  HE ES   1    7 7 28.07                             153    0.13 7 69.9 292 
 BRR  HE I         7 7 31.68         9.5 0.25            150           69.9 292 
 PAM  SZ EP   1    7 7 12.16                             153   -0.02 7 70.4  42 
 PAM  SN ES   1    7 7 29.40                             153    0.13 7 70.4  42 
 PAM  SZ I         7 7 30.55         3.1 0.31            154           70.4  42 
 RUS  HZ EP        7 7 14.46                             142   -0.1810  108 177 
 RUS  HN ES   1    7 7 33.33                             142   -0.31 7  108 177 
 PTB  HE ES   1    7 7 38.81                             131   -0.17 7  151 256 
 PTB  HZ I         7 7 40.14         2.7 0.32            131            151 256 
 ZAR  HN ES   1    7 7 47.80                             123   -0.18 6  203 290 
 ZAR  HZ I         7 7 53.19         2.8 0.32            122            203 290 
 CHI  HZ EP   1    7 7 28.72                             116   -0.13 6  256 195 
 CHI  HZ I         7 7 30.15         0.8 0.34            117            256 195 
 CHI  HN ES   1    7 7 59.57                             116    0.63 6  256 195 
                                                                                
