 2010  3 9 0347 41.3 L   6.839 -73.051145.8  RSN  5 0.2 1.7LRSN                1
 GAP=193        0.52       3.1     8.8  5.8  0.6368E+01 -0.1637E+02 -0.5297E+01E
 Epicentro: LOS SANTOS - SANTANDER                                             3
 ACTION:UP  10-08-24 09:52 OP:vdl  STATUS:               ID:20100309034741 L   I
 2010-03-09-0346-08S.COL___101                                                 6
 STAT SP IPHASW D HRMM SECON CODA AMPLIT PERI AZIMU VELO SNR AR TRES W  DIS CAZ7
 BAR2 SZ EP   1    348  1.19                             168     0.1 7   31 208 
 BAR2 SZ ES   1    348 16.35                             168    -0.2 7   31 208 
 BRR  HZ IP        348  2.75                             150    -0.110   79 292 
 BRR  HZ I         348  2.93        13.3 0.08                            79 292 
 BRR  HN ES   1    348 19.64                             150    -0.1 7   79 292 
 RUS  BZ EP   2    348  5.13                             143    -0.2 5  105 182 
 RUS  BN ES   2    348 24.33                             143     0.2 5  105 182 
 RUS  BZ I         348 25.55         4.6 0.46                           105 182 
 OCA  SZ IP        348  9.21                             130    -0.1 9  158 349 
 OCA  SZ ES   1    348 31.63                             130     0.4 7  158 349 
 OCA  SZ I         348 35.64        15.4 0.11                           158 349 
 CHI  HE ES   2    348 50.22                             116     0.5 4  256 197 
 CHI  HZ I         348 54.71         1.8 0.36                           256 197 
                                                                                
