 2012 10 9 0923 48.6 L   7.413 -73.121135.8  RSN  5 0.2 1.4LRSN                1
 GAP=187        0.42       5.9     4.9  8.0  0.5117E+00  0.2835E+02 -0.1495E+02E
 Epicentro: EL PLAYON - SANTANDER                                              3
 ACTION:UPD 12-11-22 17:02 OP:ep   STATUS:               ID:20121009092348 L   I
 2012-10-09-0920-00M.COL___223                                                 6
 STAT SP IPHASW D HRMM SECON CODA AMPLIT PERI AZIMU VELO AIN AR TRES W  DIS CAZ7
 GIR2 SZ ES   2    924 21.54                             164   -0.31 5 37.8 192 
 PAM  SN ES   1    924 23.45                             160    0.04 7 47.2 100 
 BRR  HZ EP   1    924  9.01                             150    0.22 7 73.5 243 
 BRR  HZ I         924  9.16         8.7 0.12                          73.5 243 
 BAR2 SZ ES   1    924 27.25                             144    0.01 7 91.0 184 
 BAR2 SZ I         924 29.91         4.0 0.17                          91.0 184 
 ZAR  HZ EP   1    924 18.83                             122   -0.28 7  192 273 
 ZAR  HN ES   1    924 43.05                             122    0.11 7  192 273 
 ZAR  HZ I         924 49.57         1.9 0.32                           192 273 
                                                                                
