 2015 11 9 0522  8.0 L   6.778 -73.136150.2  RSN 13 0.5 2.1LRSN                1
 GAP=121        1.19       3.1     5.2  6.4  0.5685E+00  0.4982E+01  0.7396E+00E
 Epicentro: LOS SANTOS - SANTANDER                                             3
 ACTION:UPD 15-12-28 16:09 OP:cam  STATUS:               ID:20151109052208 L   I
 OLDACT:REG 15-11-09 13:29 OP:dnl  STATUS:               ID:20151109051748     3
 2015-11-09-0517-48M.COL___313                                                 6
 STAT SP IPHASW D HRMM SECON CODA AMPLIT PERI AZIMU VELO AIN AR TRES W  DIS CAZ7
 BAR2 EZ EP        522 28.50                             172    0.4110 21.2 194 
 BAR2 EZ ES        522 43.23                             172   -0.5510 21.2 194 
 BAR2 EZ I         522 44.95        28.1 0.34            169           21.2 194 
 BRR  HZ IP     C  522 30.26                             152    0.5510 73.3 300 
 BRR  HN ES        522 47.09                             152    0.4210 73.3 300 
 BRR  HZ I         522 51.26        19.8 0.44            147           73.3 300 
 PAM  EZ EP        522 31.34                             151    0.6210 78.6  38 
 PAM  EN ES        522 48.51                             151    0.0410 78.6  38 
 PAM  EZ I         522 50.61        21.7 0.56            154           78.6  38 
 RUS  HZ EP        522 32.40                             145    0.4210 98.1 177 
 RUS  HE ES        522 50.52                             145   -0.1910 98.1 177 
 RUS  HZ I         522 52.11         7.4 0.30            147           98.1 177 
 SPBC HZ EP        522 37.40                             130    0.70 9  162 220 
 SPBC HN ES        522 59.28                             130    0.17 9  162 220 
 SPBC HZ I         523  3.87        14.4 0.64            129            162 220 
 OCA  HZ EP        522 36.45                             130   -0.41 9  163 353 
 OCA  HE ES        522 59.06                             130   -0.33 9  163 353 
 OCA  HZ I         523  6.94        20.9 0.44            129            163 353 
 ZAR  HZ EP        522 41.08                             123    0.18 8  206 293 
 ZAR  HN ES   4    523  5.44                             123   -1.15 0  206 293 
 ZAR  HZ I         523 13.10        13.7 0.26            121            206 293 
 SML  HZ EP        522 44.53                             118   -0.60 8  246 335 
 SML  HE ES        523 13.38                             118   -0.73 8  246 335 
 SML  HZ I         523 20.99        18.5 0.24            117            246 335 
 CHI  HZ EP   4    522 47.08                             118    1.39 0  247 196 
 CHI  HN ES        523 14.54                             118   -0.58 8  247 196 
 CHI  HZ I         523 19.51         5.9 0.60            119            247 196 
 HEL  HZ EP   4    522 50.20                             115    1.74 0  273 256 
 HEL  HN ES        523 19.62                             115   -0.42 8  273 256 
 HEL  HZ I         523 27.44         3.8 0.40            115            273 256 
 PTGC HZ EP        522 51.72                             113   -0.01 7  306 159 
 PTGC HN ES        523 24.85                             113   -1.01 7  306 159 
 MON  HZ EP   4    522 55.54                             109   -1.87 0  356 309 
 MON  HN ES   4    523 34.05                             109   -1.93 0  356 309 
 MON  HZ I         523 49.36         2.7 0.36            109            356 309 
 SJC  HZ EP   4    523  2.71                             106   -1.27 0  412 327 
 SJC  HN ES   4    523 43.83                             106   -3.84 0  412 327 
 SJC  HZ I         523 50.52         2.5 0.56            106            412 327 
                                                                                
