 2010  8 9 0720 52.9 L   6.419 -73.640107.0  RSN  8 0.3 1.5LRSN                1
 GAP=130        0.66       4.5     4.8  6.7 -0.2273E+01  0.1021E+02 -0.8758E+01E
 Epicentro: SANTA HELENA DEL OPON - SANTANDER                                  3
 ACTION:UP  10-09-07 10:53 OP:vdl  STATUS:               ID:20100809072052 L   I
 2010-08-09-0719-38S.COL___125                                                 6
 STAT SP IPHASW D HRMM SECON CODA AMPLIT PERI AZIMU VELO SNR AR TRES W  DIS CAZ7
 BAR2 SZ EP   1    721  9.40                             151     0.1 7   54  69 
 BAR2 SZ ES   1    721 22.13                             151     0.1 7   54  69 
 BTL  SZ IP        721 10.29                             145     0.110   69  37 
 BRR  HZ EP        721 10.03                             141    -0.410   77 354 
 BRR  HZ I         721 10.29        22.8 0.14                            77 354 
 BRR  HE ES   2    721 24.41                             141     0.3 5   77 354 
 RUS  HZ EP   1    721 11.64                             139    -0.1 7   85 133 
 RUS  HE ES   2    721 26.53                             139     0.1 5   85 133 
 RUS  HZ I         721 28.80         6.3 0.44                            85 133 
 GUE  SZ IP        721 20.33                             117     0.0 9  175  27 
 GUE  SZ I         721 20.50         3.9 0.16                           175  27 
 GUE  SZ ES   2    721 40.97                             117    -0.8 4  175  27 
 GRA  SZ EP        721 21.72                             115     0.3 9  187  30 
 GRA  SZ I         721 51.79         2.9 0.35                           187  30 
 OCA  SZ EP   2    721 23.90                             112     0.5 4  204  10 
 OCA  SZ I         721 55.16         4.3 0.25                           204  10 
 HEL  HZ EP   2    721 24.12                             112    -0.2 4  210 263 
 HEL  HE ES   2    721 49.20                             112     0.3 4  210 263 
 HEL  HZ I         721 55.00         2.3 0.24                           210 263 
                                                                                
