 2017  3 9 0611  2.3 L   6.769 -73.090144.0  RSN 11 0.5 1.6LRSN                1
 GAP=125        1.07       4.3     4.5  5.9 -0.4398E+01 -0.7933E+00  0.1007E+02E
 Epicentro: LOS SANTOS - SANTANDER                                             3
 ACTION:UPD 17-05-25 18:38 OP:jn   STATUS:               ID:20170309061102 L   I
 OLDACT:UP  17-03-09 16:28 OP:and  STATUS:               ID:20170309060745     3
 OLDACT:UP  17-03-09 16:28 OP:and  STATUS:               ID:20170309060745     3
 OLDACT:UP  17-03-09 16:27 OP:and  STATUS:               ID:20170309060745     3
 OLDACT:UP  17-03-09 16:27 OP:and  STATUS:               ID:20170309060745     3
 OLDACT:UP  17-03-09 16:26 OP:and  STATUS:               ID:20170309060745     3
 OLDACT:UP  17-03-09 16:26 OP:and  STATUS:               ID:20170309060745     3
 OLDACT:REG 17-03-09 12:42 OP:and  STATUS:               ID:20170309060745     3
 2017-03-09-0608-00M.COL___397                                                 6
 STAT SP IPHASW D HRMM SECON CODA AMPLIT PERI AZIMU VELO AIN AR TRES W  DIS CAZ7
 BAR2 EZ EP        611 21.67                             171    0.0210 22.1 207 
 BAR2 EZ ES        611 35.83                             171   -0.9510 22.1 207 
 BAR2 EZ I         611 39.39        10.5 0.30            170           22.1 207 
 PAM  EZ IP     C  611 24.57                             151    0.3410 76.4  34 
 PAM  EN ES        611 41.41                             151    0.0510 76.4  34 
 PAM  EZ I         611 43.75         7.7 0.46            154           76.4  34 
 BRR  HZ EP        611 23.32                             150   -0.3110 78.2 299 
 BRR  HN ES        611 40.50                             150    0.2010 78.2 299 
 BRR  HZ I         611 44.52         5.2 0.16            151           78.2 299 
 RUS  HZ EP        611 25.85                             144    0.2710 97.0 180 
 RUS  HN ES        611 44.68                             144    0.9110 97.0 180 
 RUS  HZ I         611 45.49         9.1 0.30            145           97.0 180 
 PTB  HZ EP   9    611 28.36                             130   -1.22 0  153 261 
 PTB  HN ES        611 49.28                             131   -0.39 9  153 261 
 PTB  HZ I         611 50.47         2.8 0.16            132            153 261 
 SPBC HZ EP        611 30.80                             128    0.04 9  165 221 
 SPBC HN ES        611 52.79                             128   -0.19 9  165 221 
 SPBC HZ I         611 54.40         6.6 0.11            129            165 221 
 NOR  HZ EP        611 38.34                             118    0.12 8  238 236 
 NOR  HN ES        612  6.07                             118   -0.20 8  238 236 
 NOR  HZ I         612 13.44         3.3 0.16            119            238 236 
 CHI  HZ EP        611 39.51                             117   -0.18 8  247 197 
 CHI  HN ES   3    612 10.50                             117    1.61 2  247 197 
 CHI  HZ I         612 12.30         1.7 0.21            118            247 197 
 PTGC HZ EP        611 44.91                             111   -0.52 7  303 160 
 PTGC HN ES        612 18.53                             111   -0.57 7  303 160 
 PTGC HZ I         612 20.84         3.3 0.46            113            303 160 
 GUY2CHZ EP   4    611 48.30                             112    2.16 0  304 236 
 GUY2CHN ES        612 21.02                             112    0.65 7  304 236 
 GUY2CHZ  IAML     612 27.61         1.8 0.32                           304 236 
 PRA  HZ EP        611 55.52                             106   -0.22 6  392 211 
                                                                                
