 2012  1 9 0338 42.0 L   6.803 -73.129148.5  RSN  7 0.4 1.6LRSN                1
 GAP=138        0.69       5.0     6.3  6.4 -0.4129E+01  0.4210E+01  0.7473E+01E
 Epicentro: LOS SANTOS - SANTANDER                                             3
 ACTION:UP  12-02-03 08:15 OP:REBC STATUS:               ID:20120109033842 L   I
 2012-01-09-0330-00M.COL___186                                                 6
 STAT SP IPHASW D HRMM SECON CODA AMPLIT PERI AZIMU VELO SNR AR TRES W  DIS CAZ7
 BAR2 SZ EP        339  1.90                             170     0.010   24 194 
 BAR2 SZ ES   1    339 16.88                             170    -0.6 7   24 194 
 BAR2 SZ I         339 19.31        11.4 0.25                            24 194 
 GIR2 SZ EP   1    339  1.93                             167     0.0 7   31 347 
 GIR2 SZ ES   2    339 17.98                             167     0.4 5   31 347 
 BRR  HZ EP   1    339  3.75                             152     0.3 7   73 298 
 BRR  HE ES   2    339 21.03                             152     0.8 5   73 298 
 BRR  HZ I         339 24.51        10.5 0.25                            73 298 
 PAM  SZ EP   1    339  4.46                             151     0.1 7   76  39 
 PAM  SN ES   2    339 21.60                             151    -0.3 5   76  39 
 RUS  HZ EP   1    339  6.01                             144     0.0 7  101 177 
 RUS  HN ES   2    339 25.28                             144     0.5 5  101 177 
 RUS  HZ I         339 26.54         5.7 0.49                           101 177 
 PTB  HZ EP   1    339  8.95                             132    -0.4 7  150 259 
 PTB  HE ES   2    339 30.24                             132    -0.4 5  150 259 
 CHI  HZ EP   1    339 20.11                             117     0.2 6  249 196 
 CHI  HE ES   2    339 49.69                             117     0.2 4  249 196 
 CHI  HZ I         339 52.77         2.2 0.36                           249 196 
                                                                                
