 2015  2 9 0608 33.4 L   6.694 -73.576101.5  RSN  7 0.5 1.6LRSN                1
 GAP= 82        1.35       4.1     4.6  9.1 -0.2189E+01  0.4915E+01 -0.1010E+01E
 Epicentro: EL CARMEN - SANTANDER                                              3
 ACTION:UPD 15-04-30 21:24 OP:nd   STATUS:               ID:20150209060833 L   I
 OLDACT:DUP 15-02-09 19:11 OP:fm   STATUS:               ID:20150209055736d    3
 2015-02-09-0557-35M.COL___292                                                 6
 STAT SP IPHASW D HRMM SECON CODA AMPLIT PERI AZIMU VELO AIN AR TRES W  DIS CAZ7
 BAR2 EZ EP        6 8 49.15                             154    0.5010 45.0 105 
 BAR2 EZ ES        6 9  0.73                             154    0.1910 45.0 105 
 BAR2 EZ I         6 9  3.11        14.6 0.22            157           45.0 105 
 BRR  HZ EP        6 8 49.00                             153    0.5310 48.0 342 
 BRR  HE ES        6 9  0.88                             153    0.6610 48.0 342 
 BRR  HZ I         6 9  4.31         6.2 0.14            153           48.0 342 
 PTB  HZ EP        6 8 52.19                             132   -0.1410 98.8 260 
 PTB  HN ES        6 9  6.12                             132   -0.9710 98.8 260 
 PTB  HZ I         6 9  8.06         7.3 0.16            134           98.8 260 
 RUS  HZ EP        6 8 53.70                             131    0.2410  104 148 
 RUS  HE ES        6 9  8.90                             131   -0.2010  104 148 
 RUS  HZ I         6 9 10.84        10.9 0.22            134            104 148 
 PAM  SZ EP        6 8 54.59                             126   -0.4110  120  54 
 PAM  SE ES        6 9 10.92                             126   -0.9310  120  54 
 PAM  SZ I         6 9 15.27         5.7 0.30            129            120  54 
 SPBC HZ EP        6 8 55.70                             124    0.4910  128 205 
 SPBC HN ES        6 9 12.09                             124   -0.1210  128 205 
 SPBC HZ I         6 9 16.80         7.9 0.10            127            128 205 
 SML  HE ES        6 9 34.22                             107    0.16 8  239 347 
 SML  HZ I         6 9 39.30         9.6 0.22            109            239 347 
                                                                                
