 2014  8 9 0535 32.7 L   6.776 -73.186149.2  RSN  5 0.5 1.2LRSN                1
 GAP=231        1.33       8.0     9.2 10.5  0.1139E+02  0.2329E+02  0.4367E+01E
 Epicentro: LOS SANTOS - SANTANDER                                             3
 ACTION:UPD 14-09-15 21:48 OP:nd   STATUS:               ID:20140809053532 L   I
 OLDACT:UP  14-08-10 00:01 OP:carl STATUS:               ID:20140809052808     3
 OLDACT:REG 14-08-09 13:09 OP:spq  STATUS:               ID:20140809052808     3
 2014-08-09-0528-08M.COL___260                                                 6
 STAT SP IPHASW D HRMM SECON CODA AMPLIT PERI AZIMU VELO AIN AR TRES W  DIS CAZ7
 BAR2 SZ EP        535 52.53                             172   -0.1910 20.3 179 
 BAR2 SZ ES        536  7.48                             172   -0.8310 20.3 179 
 BAR2 SZ I         536  9.16         3.3 0.20            165           20.3 179 
 BRR  HZ EP        535 54.53                             154    0.4210 68.7 302 
 BRR  HN ES        536 11.53                             154    0.7410 68.7 302 
 RUS  HE ES        536 15.68                             145    0.3510 98.3 173 
 RUS  HZ I         536 16.39         1.9 0.18            142           98.3 173 
 PTB  HZ EP        535 58.92                             134   -0.62 9  143 260 
 PTB  HN ES        536 19.95                             134   -0.51 9  143 260 
 PTB  HZ I         536 23.39         1.6 0.30            131            143 260 
 SPBC HZ EP        536  1.24                             131    0.21 9  158 218 
 SPBC HN ES        536 23.50                             131    0.39 9  158 218 
 SPBC HZ I         536 30.84         2.9 0.40            128            158 218 
                                                                                
