 2016  9 9 0613 35.5 L   6.796 -73.124143.5  RSN  6 0.4 1.4LRSN                1
 GAP=139        1.07       5.7     5.3  8.7 -0.8122E+01  0.8309E+01  0.7446E+01E
 Epicentro: LOS SANTOS - SANTANDER                                             3
 ACTION:UPD 17-08-17 21:08 OP:lp   STATUS:               ID:20160909061335 L   I
 OLDACT:UP  16-09-09 16:34 OP:dani STATUS:               ID:20160909060730     3
 OLDACT:REG 16-09-09 13:06 OP:dani STATUS:               ID:20160909060730     3
 2016-09-09-0608-00M.COL___347                                                 6
 STAT SP IPHASW D HRMM SECON CODA AMPLIT PERI AZIMU VELO AIN AR TRES W  DIS CAZ7
 BRR  HZ EP        613 56.38                             151   -0.1810 73.5 298 
 BRR  HE ES        614 13.25                             151    0.2810 73.5 298 
 BRR  HZ I         614 16.82         4.2 0.13            153           73.5 298 
 PAM  EZ EP        613 57.48                             151    0.0510 76.2  38 
 PAM  EE ES        614 14.46                             151   -0.0510 76.2  38 
 PAM  EZ I         614 16.30         3.5 0.56            157           76.2  38 
 RUS  HN ES   2    614 17.10                             144   -0.22 5100.0 177 
 PTB  HZ EP        614  1.59                             131   -0.93 9  150 259 
 PTB  HE ES        614 23.53                             131   -0.04 9  150 259 
 PTB  HZ I         614 25.14         2.4 0.18            133            150 259 
 SPBC HZ EP        614  4.03                             128    0.07 9  164 220 
 SPBC HN ES        614 26.49                             128    0.35 9  164 220 
 SPBC HZ I         614 33.65         2.8 0.19            130            164 220 
 ZAR  HZ EP        614  9.05                             122    0.98 8  206 292 
 ZAR  HE ES        614 33.11                             122   -0.35 8  206 292 
 ZAR  HZ I         614 38.48         4.0 0.30            124            206 292 
 HEL  HZ EP   4    614 17.52                             114    1.65 0  274 256 
                                                                                
