 2016  1 9 0247 11.5 L   6.866 -73.191139.6  RSN  4 0.2 1.2LRSN                1
 GAP=128        0.67       2.9     3.7  7.4 -0.1023E+01  0.1032E+02 -0.2575E+01E
 Epicentro: ZAPATOCA - SANTANDER                                               3
 ACTION:UPD 16-03-09 23:23 OP:cam  STATUS:               ID:20160109024711 L   I
 OLDACT:DUP 16-01-09 13:31 OP:drio STATUS:               ID:20160109023752d    3
 2016-01-09-0237-50M.COL___278                                                 6
 STAT SP IPHASW D HRMM SECON CODA AMPLIT PERI AZIMU VELO AIN AR TRES W  DIS CAZ7
 PAM  EZ EP        247 33.35                             150    0.4510 75.5  46 
 PAM  EN ES        247 49.40                             150   -0.2210 75.5  46 
 PAM  EZ I         247 52.16         4.4 0.50            157           75.5  46 
 RUS  HZ EP        247 35.07                             140   -0.1110  108 174 
 RUS  HN ES        247 53.70                             140    0.0110  108 174 
 RUS  HZ I         247 54.98         1.0 0.40            146            108 174 
 PTB  HZ EP        247 37.30                             131   -0.32 9  144 256 
 PTB  HN ES        247 58.25                             131    0.22 9  144 256 
 PTB  HZ I         248  5.97         1.9 0.50            133            144 256 
 SML  HZ EP   4    247 44.71                             117   -2.08 0  235 336 
 SML  HN ES        248 14.28                             117   -0.08 8  235 336 
 SML  HZ I         248 17.90         3.4 0.26            121            235 336 
                                                                                
