 2016  9 9 0539 48.1 L   6.753 -73.147155.9  RSN  4 0.3 1.2LRSN                1
 GAP=183        0.65       5.3     4.9 16.1  0.2035E+00 -0.3642E+02 -0.3594E+02E
 Epicentro: LOS SANTOS - SANTANDER                                             3
 ACTION:UPD 17-08-17 21:08 OP:lp   STATUS:               ID:20160909053948 L   I
 OLDACT:UP  16-09-09 16:20 OP:dani STATUS:               ID:20160909053730     3
 OLDACT:REG 16-09-09 12:39 OP:dani STATUS:               ID:20160909053730     3
 2016-09-09-0538-00M.COL___353                                                 6
 STAT SP IPHASW D HRMM SECON CODA AMPLIT PERI AZIMU VELO AIN AR TRES W  DIS CAZ7
 PAM  EZ EP        540 11.61                             151   -0.0110 81.5  37 
 PTB  HZ EP        540 15.94                             134    0.14 9  147 261 
 PTB  HE ES        540 37.80                             134    0.38 9  147 261 
 PTB  HZ I         540 38.87         1.7 0.19            137            147 261 
 SPBC HN ES        540 39.31                             132   -0.26 9  159 220 
 SPBC HZ I         540 46.48         1.6 0.29            132            159 220 
 ZAR  HN ES        540 47.06                             124   -0.32 8  206 293 
                                                                                
