 2010  6 9 0055 58.1 L   6.791 -73.145133.3  RSN  5 0.2 1.6LRSN                1
 GAP=164        0.49       2.6    17.3  5.9  0.6225E+01 -0.2419E+02 -0.5806E+01E
 Epicentro: LOS SANTOS - SANTANDER                                             3
 ACTION:UP  10-08-24 10:09 OP:vdl  STATUS:               ID:20100609005558 L   I
 2010-06-09-0054-17S.COL___111                                                 6
 STAT SP IPHASW D HRMM SECON CODA AMPLIT PERI AZIMU VELO SNR AR TRES W  DIS CAZ7
 BAR2 SZ IP        056 16.42                             170     0.210   22 191 
 BAR2 SZ ES   1    056 30.42                             170     0.1 7   22 191 
 GIR2 SZ EP   2    056 16.65                             166     0.3 5   32 350 
 RUS  HZ EP   1    056 20.36                             141    -0.2 7  100 176 
 RUS  HN ES   1    056 37.83                             141    -0.3 7  100 176 
 RUS  HZ I         056 41.97         3.3 0.34                           100 176 
 GUE  SZ EP        056 21.88                             136     0.110  117  12 
 GUE  SZ ES   2    056 40.07                             136    -0.1 5  117  12 
 OCA  SZ EP   2    056 25.27                             126    -0.3 5  161 353 
 OCA  SZ ES   1    056 46.80                             126    -0.2 7  161 353 
 OCA  SZ I         056 51.62         9.0 0.45                           161 353 
                                                                                
