 2013 10 9 0038  2.5 L   6.772 -73.131139.1  RSN 11 0.5 1.9LRSN                1
 GAP=140        1.06       3.4     4.7  6.4  0.1958E+00  0.7980E+01  0.3488E+01E
 Epicentro: LOS SANTOS - SANTANDER                                             3
 ACTION:UPD 13-11-25 09:20 OP:ep   STATUS:               ID:20131009003802 L   I
 OLDACT:UP  13-10-09 13:59 OP:mh   STATUS:               ID:20131009003635     3
 OLDACT:REG 13-10-09 13:53 OP:mh   STATUS:               ID:20131009003635     3
 2013-10-09-0036-35M.COL___235                                                 6
 STAT SP IPHASW D HRMM SECON CODA AMPLIT PERI AZIMU VELO AIN AR TRES W  DIS CAZ7
 BAR2 SZ EP   1    038 21.31                             171    0.08 7 20.7 196 
 BAR2 SZ ES   1    038 36.28                             171    0.40 7 20.7 196 
 BAR2 SZ I         038 37.38        33.1 0.14            170           20.7 196 
 BRR  HZ EP   1    038 23.18                             150    0.12 7 74.1 300 
 BRR  HN ES        038 39.64                             150    0.5010 74.1 300 
 BRR  HZ I         038 42.78        10.6 0.26            149           74.1 300 
 PAM  SZ EP   1    038 24.33                             149    0.27 7 78.8  37 
 PAM  SN ES        038 40.40                             149   -0.5110 78.8  37 
 PAM  SZ I         038 42.66        10.0 0.18            151           78.8  37 
 RUS  HZ EP   1    038 25.24                             143   -0.08 7 97.4 177 
 RUS  HN ES        038 43.37                             143    0.2110 97.4 177 
 RUS  HZ I         038 46.38         3.0 0.36            144           97.4 177 
 PTB  HZ EP   1    038 28.37                             130   -0.61 7  149 260 
 PTB  HN ES        038 48.89                             130   -0.78 9  149 260 
 PTB  HZ I         038 51.35        11.4 0.12            129            149 260 
 SPBC HZ EP        038 30.20                             128   -0.12 9  162 220 
 SPBC HN ES        038 51.51                             128   -0.54 9  162 220 
 SPBC HZ I         038 57.11        11.4 0.18            127            162 220 
 ZAR  HZ EP   1    038 35.64                             120    0.88 6  207 293 
 ZAR  HN ES        039  0.14                             120    0.19 8  207 293 
 ZAR  HZ I         039  6.00        10.7 0.46            120            207 293 
 CHI  HZ EP   1    038 38.72                             116   -0.79 6  246 196 
 CHI  HN ES        039  8.94                             116    0.52 8  246 196 
 CHI  HZ I         039 14.67         3.6 0.30            116            246 196 
 SML  HZ EP   1    038 38.18                             116   -0.92 6  247 335 
 SML  HN ES   1    039  8.38                             116    0.70 6  247 335 
 SML  HZ I         039 14.92         9.0 0.26            116            247 335 
 GUY2CHZ EP   1    038 45.89                             111    0.18 5  301 235 
 GUY2CHN ES   4    039 19.90                             111    0.45 0  301 235 
 GUY2CHZ I         039 26.55         4.4 0.34                           301 235 
 PRA  HZ EP        038 56.19                             105    0.66 6  390 210 
 PRA  HN ES   1    039 37.66                             105    0.73 4  390 210 
 PRA  HZ I         039 44.12         5.5 0.26            106            390 210 
                                                                                
