 2010  9 9 0513 46.7 L   6.802 -73.105146.7  RSN  4 0.4 1.0LRSN                1
 GAP=163        1.14       8.4    15.9 17.9 -0.1287E+02 -0.1567E+03 -0.1199E+02E
 Epicentro: LOS SANTOS - SANTANDER                                             3
 ACTION:UP  11-02-18 11:01 OP:tino STATUS:               ID:20100909051346 L   I
 2010-09-09-0510-35S.COL___120                                                 6
 STAT SP IPHASW D HRMM SECON CODA AMPLIT PERI AZIMU VELO SNR AR TRES W  DIS CAZ7
 BRR  HZ EP        514  7.90                             152    -0.310   75 297 
 BRR  HN ES   1    514 25.08                             152     0.2 7   75 297 
 BRR  HZ I         514 29.05         3.5 0.13                            75 297 
 RUS  HZ EP   1    514 10.34                             144    -0.2 7  101 179 
 RUS  HN ES   2    514 29.47                             144     0.3 5  101 179 
 RUS  HZ I         514 40.93         0.7 0.50                           101 179 
 GUE  SZ EP        514 11.00                             140    -0.410  115  10 
 GRA  SZ EP        514 12.65                             138     0.810  124  16 
 GRA  SZ ES   2    514 30.89                             138    -0.7 5  124  16 
 GRA  SZ I         514 35.39         2.3 0.41                           124  16 
                                                                                
