 2013  4 9 0448 20.7 L   6.820 -73.159145.6  RSN 12 0.5 2.6LRSN                1
 GAP= 70        1.22       3.3     4.2  6.0 -0.2730E+01  0.3017E+00  0.2459E+01E
 Epicentro: LOS SANTOS - SANTANDER                                             3
 ACTION:UPD 13-05-22 14:36 OP:EP   STATUS:               ID:20130409044820 L   I
 2013-04-09-0438-42M.COL___218                                                 6
 STAT SP IPHASW D HRMM SECON CODA AMPLIT PERI AZIMU VELO AIN AR TRES W  DIS CAZ7
 BAR2 SZ EP        448 40.54                             170    0.1410 25.3 186 
 BAR2 SZ ES        448 55.40                             170   -0.3310 25.3 186 
 BAR2 SZ I         448 56.49        98.4 0.28            167           25.3 186 
 GIR2 SZ EP        448 40.58                             168    0.2410 28.9 352 
 GIR2 SZ ES        448 55.44                             168   -0.1810 28.9 352 
 BRR  HZ IP     C  448 42.31                             153    0.5610 68.9 297 
 BRR  HN ES        448 59.10                             153    0.9710 68.9 297 
 BRR  HN I         448 59.99       189.7 0.16            151           68.9 297 
 RUS  HZ IP     D  448 44.60                             143   -0.0510  103 175 
 RUS  HZ I         448 45.76        14.9 0.20            142            103 175 
 RUS  HE ES        449  3.39                             143    0.1010  103 175 
 PTB  HZ EP        448 47.07                             132   -0.54 9  147 258 
 PTB  HN ES        449  8.11                             132   -0.46 9  147 258 
 PTB  HE I         449 13.85        57.8 0.28            130            147 258 
 CAPV BZ IP        448 48.51                             132    0.46 9  148  39 
 CAPV BZ ES        449  8.03                             132   -1.32 9  148  39 
 TAM  HZ IP     D  448 49.04                             130    0.45 9  157 106 
 TAM  HN ES        449 10.39                             130    0.08 9  157 106 
 OCA  HZ EP        448 48.61                             130   -0.21 9  158 354 
 OCA  HN ES        449 10.85                             130    0.13 9  158 354 
 SML  HZ EP        448 56.87                             118   -0.21 8  241 335 
 CHI  HZ EP        448 59.09                             117    0.46 8  250 195 
 CHI  HN ES        449 28.10                             117   -0.07 8  250 195 
 CHI  HN I         449 30.89        53.6 0.30            116            250 195 
 ROSC BE ES        449 28.71                             116   -0.10 8  254 210 
 ROSC BZ I         449 36.00        26.7 0.30            116            254 210 
 PRA  HE EP        449 14.65                             106    0.24 6  393 209 
 PRA  HN ES        449 55.25                             106   -1.01 6  393 209 
 PRA  HN I         450  1.12        10.3 0.38            106            393 209 
                                                                                
