 2014 12 9 0429 51.1 L   6.814 -73.173138.0  RSN  8 0.5 1.3LRSN                1
 GAP=133        1.28       4.5     5.3  8.5 -0.4376E+00  0.9759E+01 -0.7719E+01E
 Epicentro: LOS SANTOS - SANTANDER                                             3
 ACTION:UPD 15-02-10 17:01 OP:nd   STATUS:               ID:20141209042951 L   I
 OLDACT:REG 14-12-09 12:57 OP:fm   STATUS:               ID:20141209042744     3
 2014-12-09-0427-44M.COL___309                                                 6
 STAT SP IPHASW D HRMM SECON CODA AMPLIT PERI AZIMU VELO AIN AR TRES W  DIS CAZ7
 BAR2 SZ EP        430  9.51                             169   -0.2910 24.5 183 
 BAR2 SZ ES        430 24.49                             169    0.0910 24.5 183 
 BAR2 SZ I         430 26.18         5.5 0.18            173           24.5 183 
 BRR  HZ EP        430 12.07                             152    0.8710 67.9 299 
 BRR  HN ES        430 27.36                             152    0.4710 67.9 299 
 BRR  HZ I         430 30.66         5.9 0.20            151           67.9 299 
 PAM  SZ EP        430 13.11                             149    0.5910 78.1  42 
 PAM  SN ES        430 28.61                             149   -0.6310 78.1  42 
 PAM  SZ I         430 35.60         2.0 0.18            150           78.1  42 
 RUS  HZ EP        430 14.48                             142    0.2710  102 174 
 RUS  HN ES        430 32.04                             142   -0.2110  102 174 
 RUS  HZ I         430 33.65         1.6 0.40            147            102 174 
 PTB  HZ EP        430 16.88                             131   -0.30 9  145 258 
 PTB  HE ES        430 36.73                             131   -0.81 9  145 258 
 PTB  HZ I         430 42.42         2.5 0.10            133            145 258 
 SPBC HE ES        430 40.73                             127    0.08 9  163 218 
 SPBC HZ I         430 44.65         3.0 0.24            131            163 218 
 ZAR  HN ES        430 47.77                             121    0.44 9  201 292 
 SML  HZ EP        430 26.22                             116   -0.77 8  241 336 
 SML  HN ES        430 54.87                             116   -0.13 8  241 336 
 SML  HZ I         431  5.30         2.6 0.10            118            241 336 
                                                                                
