 2011 10 9 0323 33.6 L   6.787 -73.086143.3  RSN  9 0.4 2.0LRSN                1
 GAP=145        0.75       3.6     5.3  5.3 -0.4703E+01  0.8777E+01 -0.3261E+00E
 Epicentro: LOS SANTOS - SANTANDER                                             3
 ACTION:UPD 12-07-13 16:02 OP:ep   STATUS:               ID:20111009032333 L   I
 2011-10-09-0320-00M.COL___171                                                 6
 STAT SP IPHASW D HRMM SECON CODA AMPLIT PERI AZIMU VELO AIN AR TRES W  DIS CAZ7
 BAR2 SZ EP   1    323 52.85                             170   -0.07 7 24.0 206 
 BAR2 SZ ES   1    324  7.52                             170   -0.50 7 24.0 206 
 BAR2 SZ I         324  9.21        24.6 0.23                          24.0 206 
 GIR2 SZ EP   1    323 52.79                             166   -0.25 7 34.4 340 
 GIR2 SZ ES   1    324  8.33                             166    0.10 7 34.4 340 
 PAM  SZ EP        323 55.68                             151    0.3210 74.5  35 
 PAM  SN ES   1    324 12.50                             151    0.15 7 74.5  35 
 BRR  HZ EP   1    323 54.55                             150   -0.29 7 77.7 297 
 BRR  HE ES   1    324 11.48                             150    0.04 7 77.7 297 
 BRR  HZ I         324 13.86        19.6 0.15                          77.7 297 
 RUS  HZ EP   1    323 56.78                             144   -0.18 7 98.9 180 
 RUS  HE ES   1    324 15.63                             144    0.42 7 98.9 180 
 RUS  HZ I         324 16.62        11.3 0.24                          98.9 180 
 OCA  SZ EP   1    324  1.56                             129   -0.36 7  163 351 
 OCA  SZ ES   1    324 23.95                             129   -0.07 7  163 351 
 OCA  SZ I         324 28.24        10.4 0.33                           163 351 
 ZAR  HZ EP   1    324  7.05                             121    0.50 6  211 292 
 ZAR  HZ I         324 36.68         9.5 0.33                           211 292 
 NOR  SZ EP   1    324  8.78                             117   -0.88 6  239 236 
 NOR  SE ES   1    324 37.95                             117    0.15 6  239 236 
 HEL  HZ EP   1    324 15.22                             114    0.88 6  278 256 
 HEL  HZ I         324 52.41         4.5 0.34                           278 256 
                                                                                
