 2016  8 9 0957 25.8 L   6.806 -73.144147.5  RSN 28 0.6 2.9LRSN                1
 GAP= 54        1.19       3.6     3.2  4.8 -0.1695E+01  0.2122E+01  0.1399E+01E
 Epicentro: LOS SANTOS - SANTANDER                                             3
 ACTION:UPD 16-10-29 15:34 OP:rebc STATUS:               ID:20160809095725 L   I
 OLDACT:UP  16-08-09 16:38 OP:dami STATUS:               ID:20160809094759     3
 OLDACT:UP  16-08-09 16:33 OP:dani STATUS:               ID:20160809094759     3
 OLDACT:UP  16-08-09 16:33 OP:dani STATUS:               ID:20160809094759     3
 OLDACT:REG 16-08-09 13:35 OP:dnl  STATUS:               ID:20160809094759     3
 2016-08-09-0947-59S.COL___337                                                 6
 STAT SP IPHASW D HRMM SECON CODA AMPLIT PERI AZIMU VELO AIN AR TRES W  DIS CAZ7
 BAR2 EZ IP     C  957 45.75                             171    0.1210 24.0 190 
 BAR2 HN ES        958  0.62                             171   -0.4910 24.0 190 
 BAR2 EZ I         958  1.45       409.9 0.24                          24.0 190 
 BRR  HZ IP     C  957 47.66                             153    0.5510 71.1 298 
 BRR  HE ES        958  4.60                             153    0.8610 71.1 298 
 BRR  HZ I         958  8.81       206.1 0.14                          71.1 298 
 PAM  EZ EP        957 48.63                             151    0.4910 76.8  40 
 PAM  EE ES        958  5.54                             151   -0.0510 76.8  40 
 PAM  EZ I         958  7.97       421.4 0.56                          76.8  40 
 RUS  HZ EP        957 49.86                             144    0.1210  101 176 
 RUS  HN ES        958  7.61                             144   -0.8210  101 176 
 RUS  HZ I         958  9.00        76.3 0.22                           101 176 
 PTB  HZ EP        957 52.30                             132   -0.61 9  148 259 
 PTB  HE ES        958 14.22                             132    0.14 9  148 259 
 PTB  HZ I         958 16.24       195.4 0.14                           148 259 
 TAM  HZ IP     D  957 54.11                             131    0.52 9  155 105 
 TAM  HE ES        958 15.50                             131    0.22 9  155 105 
 TAM  HZ I         958 16.06        52.2 0.24                           155 105 
 SPBC HZ EP        957 54.68                             129    0.22 9  164 219 
 SPBC HN ES        958 16.35                             129   -0.49 9  164 219 
 SPBC HZ I         958 22.60        80.8 0.12                           164 219 
 ZAR  HZ EP        957 58.80                             123    0.47 9  204 292 
 ZAR  HN ES        958 23.56                             123   -0.16 9  204 292 
 ZAR  HZ I         958 26.51       100.8 0.20                           204 292 
 NOR  HZ EP        958  1.83                             119    0.17 8  235 234 
 NOR  HE ES        958 29.84                             119    0.19 8  235 234 
 NOR  HZ I         958 36.22        64.9 0.18                           235 234 
 CHI  HZ EP        958  3.88                             117    0.24 8  249 195 
 CHI  HE ES   4    958 31.10                             117   -2.07 0  249 195 
 CHI  HZ I         958 39.81        24.1 0.28                           249 195 
 ROSC BZ EP   4    958  5.77                             117    1.71 0  253 211 
 ROSC BN ES   4    958 30.86                             117   -3.06 0  253 211 
 ROSC BZ I         958 43.46        36.3 0.45                           253 211 
 HEL  HZ EP   4    958  7.16                             115    1.05 0  272 256 
 HEL  HN ES   4    958 36.63                             115   -0.95 0  272 256 
 HEL  HZ I         958 44.77        59.4 0.32                           272 256 
 URE  HZ EP        958  6.33                             114   -0.59 7  284 292 
 URE  HE ES   4    958 37.15                             114   -1.87 0  284 292 
 URE  HZ I         958 39.91        83.1 0.14                           284 292 
 SOCV BZ EP        958  8.89                             112    0.04 7  301  57 
 SOCV BN ES   4    958 36.58                             112   -5.86 0  301  57 
 GUY2CHZ EP        958 10.43                             113    0.91 7  302 235 
 GUY2CHE ES        958 43.21                             113   -0.43 7  302 235 
 GUY2CHZ I         958 53.53        37.9 0.48                           302 235 
 VIL  EZ EP        958  9.89                             112    0.55 7  304 192 
 VIL  EE ES   4    958 44.05                             112    0.72 0  304 192 
 VIL  EZ I         958 53.79        34.7 0.44                           304 192 
 PTGC HZ EP        958  9.07                             112   -0.70 7  309 159 
 PTGC HN ES   4    958 41.08                             112   -3.00 0  309 159 
 PTGC HZ I         958 44.51        47.6 0.38                           309 159 
 LL6C HZ EP        958 10.67                             111   -0.81 7  324 358 
 LL6C HE ES   4    958 44.98                             111   -2.15 0  324 358 
 LL6C HZ I         958 55.73        14.6 0.26                           324 358 
 ELA  HZ EP   4    958 15.22                             111    2.46 0  330 229 
 ELA  HE ES   4    958 50.92                             111    1.51 0  330 229 
 ELA  HZ I         959  8.85        19.1 0.42                           330 229 
 CBOC HZ EP   4    958 13.90                             110    1.10 0  334 252 
 CBOC HE ES   4    958 47.37                             110   -2.12 0  334 252 
 CBOC HZ I         958 54.25        15.6 0.22                           334 252 
 ANIL HZ EP        958 14.92                             109   -0.79 6  358 224 
 ANIL HE ES   4    958 56.50                             109    1.84 0  358 224 
 ANIL HZ I         959  6.10        59.3 0.23                           358 224 
 PRA  HZ EP        958 19.79                             107    0.36 6  393 210 
 PRA  HE ES        959  0.82                             107   -0.46 6  393 210 
 PRA  HZ I         959  6.45        32.5 0.28                           393 210 
 PAL  HZ EP        958 21.84                             106    0.79 6  406 239 
 PAL  HE ES   4    959  5.72                             106    1.56 0  406 239 
 PAL  HZ I         959  7.10        14.2 0.24                           406 239 
 SJC  HZ EP        958 20.21                             106   -1.14 6  409 327 
 SJC  HE ES   4    959  1.69                             106   -3.00 0  409 327 
 SJC  HZ I         959  6.13        38.9 0.58                           409 327 
 LCBC HZ EP   4    958 23.35                             105    0.57 0  422 303 
 CRJC HZ EP        958 26.60                             104   -1.65 5  467   4 
 CRJC HE ES   4    959 12.91                             104   -4.07 0  467   4 
 CRJC HZ I         959 18.60        21.1 0.30                           467   4 
 YOT  HZ EP        958 29.03                             103    0.10 5  472 229 
 MACC HZ EP   4    958 32.31                             102   -2.29 0  521 189 
 MACC HE ES   4    959 24.40                             102   -3.89 0  521 189 
 MACC HZ I         959 30.12         6.3 0.40                           521 189 
 GARC HZ EP        958 40.46                             100   -0.68 3  573 207 
 GARC HE ES   4    959 37.01                             100   -2.92 0  573 207 
 GARC HZ I         959 40.32        10.4 0.26                           573 207 
 POP2 HZ EP   4    958 48.98                             100    3.09 0  613 220 
                                                                                
