 2011  6 9 0353 33.3 L   6.823 -73.095142.0  RSN  5 0.3 1.4LRSN                1
 GAP=164        0.58       4.6     9.4  9.3 -0.2377E+01 -0.1764E+02 -0.1195E+02E
 Epicentro: LOS SANTOS - SANTANDER                                             3
 ACTION:UP  11-07-14 19:04 OP:ep   STATUS:               ID:20110609035333 L   I
 2011-06-09-0351-49S.COL___121                                                 6
 STAT SP IPHASW D HRMM SECON CODA AMPLIT PERI AZIMU VELO SNR AR TRES W  DIS CAZ7
 BAR2 SZ EP   1    353 52.35                             169    -0.2 7   27 201 
 BAR2 SZ I         353 52.64         4.4 0.08                            27 201 
 BAR2 SZ ES   2    354  7.24                             169    -0.4 5   27 201 
 BRR  HZ EP   1    353 54.12                             151    -0.2 7   75 295 
 BRR  HZ I         353 54.59         6.1 0.10                            75 295 
 BRR  HN ES   2    354 11.08                             151     0.4 5   75 295 
 RUS  HN ES   2    354 15.60                             142     0.4 5  103 179 
 GRA  SZ EP   1    353 58.19                             137     0.3 7  122  15 
 GRA  SZ ES   2    354 17.07                             137     0.0 5  122  15 
 GRA  SZ I         354 18.78         3.0 0.25                           122  15 
 OCA  SZ ES   2    354 22.70                             129    -0.2 5  159 351 
 OCA  SZ I         354 23.02         2.8 0.23                           159 351 
                                                                                
