 2011  6 9 0509 59.6 L   6.781 -73.080146.7  RSN  5 0.2 1.3LRSN                1
 GAP=166        0.47       4.5     6.4  7.9 -0.1606E+02  0.1804E+02 -0.8863E+01E
 Epicentro: LOS SANTOS - SANTANDER                                             3
 ACTION:UP  11-07-14 19:04 OP:ep   STATUS:               ID:20110609050959 L   I
 2011-06-09-0509-33S.COL___121                                                 6
 STAT SP IPHASW D HRMM SECON CODA AMPLIT PERI AZIMU VELO SNR AR TRES W  DIS CAZ7
 BAR2 SZ ES   2    510 34.73                             170    -0.1 5   24 209 
 BAR2 SZ I         510 37.37         5.5 0.40                            24 209 
 BRR  HZ EP   1    510 21.38                             150     0.1 7   79 297 
 BRR  HZ I         510 21.72         2.2 0.13                            79 297 
 BRR  HE ES   2    510 38.53                             150     0.3 5   79 297 
 RUS  HN ES   2    510 41.85                             145     0.1 5   98 180 
 RUS  HZ I         510 43.25         4.5 0.51                            98 180 
 GRA  SZ EP   2    510 25.22                             137     0.3 5  126  14 
 GRA  SZ ES   2    510 44.28                             137    -0.4 5  126  14 
 GRA  SZ I         510 46.20         2.2 0.30                           126  14 
 NOR  SN ES   1    511  4.04                             118    -0.2 6  239 236 
                                                                                
