 2016  5 9 0931  9.4 L   6.791 -73.169147.6  RSN  7 0.4 1.4LRSN                1
 GAP=134        1.10       3.9     5.5  6.9 -0.3023E+00  0.5589E+01 -0.6467E+01E
 Epicentro: LOS SANTOS - SANTANDER                                             3
 ACTION:UPD 16-08-18 17:43 OP:cam  STATUS:               ID:20160509093109 L   I
 OLDACT:REG 16-05-09 12:30 OP:drio STATUS:               ID:20160509092750     3
 2016-05-09-0927-50M.COL___279                                                 6
 STAT SP IPHASW D HRMM SECON CODA AMPLIT PERI AZIMU VELO AIN AR TRES W  DIS CAZ7
 BAR2 EZ EP        931 28.88                             171   -0.3310 22.0 184 
 BAR2 EZ ES        931 44.37                             171   -0.3010 22.0 184 
 BAR2 EZ I         931 44.81         5.5 0.32            174           22.0 184 
 BRR  HZ EP        931 31.10                             153    0.4610 69.4 300 
 BRR  HE ES        931 48.09                             153    0.8810 69.4 300 
 PAM  EZ EP        931 32.03                             150    0.0910 79.8  41 
 PAM  EN ES        931 49.39                             150   -0.1510 79.8  41 
 PAM  EZ I         931 54.11         3.1 0.18            150           79.8  41 
 RUS  HZ EP        931 33.60                             144    0.3410 99.8 175 
 RUS  HE ES        931 51.74                             144   -0.1410 99.8 175 
 RUS  HZ I         931 52.79         2.4 0.32            147           99.8 175 
 PTB  HZ EP        931 35.95                             133   -0.31 9  145 259 
 PTB  HN ES        931 56.84                             133   -0.37 9  145 259 
 PTB  HZ I         931 58.70         3.4 0.20            135            145 259 
 OCA  HZ EP        931 38.59                             130    0.68 9  161 354 
 OCA  HN ES        931 59.65                             130   -0.50 9  161 354 
 SML  HZ EP        931 45.68                             118   -0.42 8  244 336 
 SML  HE ES        932 14.51                             118   -0.22 8  244 336 
 SML  HZ I         932 20.54         3.8 0.10            118            244 336 
                                                                                
