 2015  8 9 0847 50.7 L   6.854 -73.124141.4  RSN 10 0.4 2.2LRSN                1
 GAP=186        0.95       2.8     4.8  5.6 -0.2278E+01  0.6915E+01 -0.5577E+00E
 Epicentro: LOS SANTOS - SANTANDER                                             3
 ACTION:UPD 15-09-15 23:01 OP:cam  STATUS:               ID:20150809084752dL   I
 OLDACT:UP  15-08-09 18:51 OP:mh   STATUS:               ID:20150809084443     3
 OLDACT:UP  15-08-09 18:51 OP:mh   STATUS:               ID:20150809084443     3
 OLDACT:UP  15-08-09 18:50 OP:mh   STATUS:               ID:20150809084443     3
 OLDACT:UP  15-08-09 18:50 OP:mh   STATUS:               ID:20150809084443     3
 OLDACT:UP  15-08-09 18:50 OP:mh   STATUS:               ID:20150809084443     3
 OLDACT:UP  15-08-09 18:48 OP:mh   STATUS:               ID:20150809084443     3
 OLDACT:UP  15-08-09 18:48 OP:mh   STATUS:               ID:20150809084443     3
 OLDACT:REG 15-08-09 18:42 OP:mh   STATUS:               ID:20150809084443     3
 2015-08-09-0844-43M.COL___349                                                 6
 STAT SP IPHASW D HRMM SECON CODA AMPLIT PERI AZIMU VELO AIN AR TRES W  DIS CAZ7
 BAR2 EZ EP        848 10.07                             168    0.0910 29.6 192 
 BAR2 EZ ES        848 24.55                             168   -0.4510 29.6 192 
 BAR2 EZ I         848 26.58        17.7 0.16            168           29.6 192 
 BRR  HZ EP        848 11.69                             152    0.3110 70.7 293 
 BRR  HN ES        848 28.46                             152    0.9710 70.7 293 
 BRR  HZ I         848 31.30        14.4 0.12            150           70.7 293 
 RUS  HZ EP        848 14.62                             141    0.1310  106 178 
 RUS  HN ES   1    848 33.16                             141    0.14 7  106 178 
 RUS  HZ I         848 34.86         8.1 0.34            145            106 178 
 OCA  HZ EP        848 17.81                             130   -0.36 9  155 352 
 OCA  HN ES        848 39.35                             130   -0.23 9  155 352 
 OCA  HZ I         848 43.68        20.2 0.16            132            155 352 
 SPBC HZ EP        848 19.51                             127    0.03 9  169 218 
 SPBC HN ES        848 41.25                             127   -0.67 9  169 218 
 SPBC HZ I         848 46.80       194.1 0.04            129            169 218 
 ZAR  HZ EP        848 22.72                             121   -0.17 9  204 290 
 ZAR  HN ES        848 47.76                             121   -0.22 9  204 290 
 ZAR  HZ I         848 53.43        20.9 0.20            123            204 290 
 SML  HZ EP        848 26.82                             117    0.19 8  239 334 
 SML  HN ES   1 C  848 54.19                             117   -0.45 6  239 334 
 SML  HZ I         848 58.79        15.6 0.10            119            239 334 
 NOR  HZ EP   1    848 26.54                             117   -0.25 6  240 234 
 NOR  HN ES        848 54.76                             117   -0.16 8  240 234 
 NOR  HZ I         848 57.15        10.5 0.16            119            240 234 
 URE  HZ EP   4    848 33.23                             113    1.64 0  284 291 
 URE  HN ES   4    849  7.58                             113    4.12 0  284 291 
 GUY2CHZ EP        848 35.34                             111    0.60 7  307 234 
 GUY2CHN ES        849  8.94                             111   -0.14 7  307 234 
 GUY2CHZ I         849 18.04         6.7 0.36                           307 234 
 TOL  SZ EP   4    848 41.37                             108    1.88 0  349 224 
 TOL  SN ES        849 17.97                             108    0.44 6  349 224 
 SJC  HZ EP   4    848 43.25                             105   -2.46 0  406 326 
                                                                                
