 2011  8 9 0926 29.2 L   6.750 -73.043144.0  RSN  5 0.3 1.7LRSN                1
 GAP=260        0.54       6.7     7.6  6.3  0.8373E+01  0.1722E+01  0.1227E+02E
 Epicentro: ARATOCA - SANTANDER                                                3
 ACTION:UPD 12-07-25 14:07 OP:epov STATUS:               ID:20110809092629 L   I
 2011-08-09-0920-00M.COL___145                                                 6
 STAT SP IPHASW D HRMM SECON CODA AMPLIT PERI AZIMU VELO AIN AR TRES W  DIS CAZ7
 BAR2 SZ EP        926 48.83                             170    0.1810 23.3 221 
 BAR2 SZ ES   1    927  3.62                             170   -0.17 7 23.3 221 
 BAR2 SZ I         927  5.21        14.1 0.24                          23.3 221 
 BRR  HZ EP        926 50.65                             148   -0.3010 83.8 298 
 BRR  HZ I         926 52.16        13.9 0.11                          83.8 298 
 BRR  HE ES   1    927  8.26                             148    0.36 7 83.8 298 
 NOR  SN ES   2    927 33.67                             118   -0.19 4  241 237 
 CHI  HZ EP   2    927  6.91                             117    0.30 4  247 198 
 CHI  HZ I         927 43.37         1.8 0.32                           247 198 
 PRA  HZ EP   2    927 22.81                             106    0.00 3  393 211 
                                                                                
