 2014  6 9 0158 27.1 L   6.863 -73.132140.5  RSN  9 0.6 1.8LRSN                1
 GAP=185        1.20       4.8     8.6 10.4 -0.5677E+01  0.2321E+02 -0.8264E+01E
 Epicentro: LOS SANTOS - SANTANDER                                             3
 ACTION:UPD 14-07-01 22:52 OP:nd   STATUS:               ID:20140609015827 L   I
 OLDACT:REG 14-06-09 12:57 OP:fm   STATUS:               ID:20140609014818     3
 2014-06-09-0148-18M.COL___256                                                 6
 STAT SP IPHASW D HRMM SECON CODA AMPLIT PERI AZIMU VELO AIN AR TRES W  DIS CAZ7
 BAR2 SZ ES   1    159  2.01                             167    0.83 8 30.5 190 
 BAR2 SZ I         159  2.78         7.1 0.40            170           30.5 190 
 RUS  HN ES   2    159  9.20                             141   -0.15 5  107 177 
 RUS  HZ I         159 10.94         4.0 0.26            145            107 177 
 PTB  HZ EP        158 53.23                             130   -0.6510  151 256 
 PTB  HE ES        159 14.15                             130   -0.6510  151 256 
 PTB  HZ I         159 18.99         8.5 0.12            133            151 256 
 OCA  HE ES   2    159 14.75                             130   -0.85 5  154 352 
 OCA  HZ I         159 21.20         7.0 0.48            131            154 352 
 SPBC HZ EP   1    158 55.26                             127   -0.52 7  170 218 
 SPBC HN ES   1    159 18.12                             127   -0.06 7  170 218 
 SPBC HZ I         159 21.61         6.7 0.22            130            170 218 
 ZAR  HZ EP        158 59.54                             121    0.49 9  203 290 
 ZAR  HN ES        159 24.53                             121    0.53 9  203 290 
 ZAR  HZ I         159 24.79         9.7 0.10            123            203 290 
 SML  HZ EP   1    159  2.89                             117    0.11 6  238 334 
 SML  HE ES        159 30.52                             117   -0.12 9  238 334 
 SML  HZ I         159 37.04         9.0 0.24            119            238 334 
 NOR  HN ES   1    159 30.19                             117   -0.96 6  240 233 
 NOR  HZ I         159 35.92         4.8 0.22            119            240 233 
 GUY2CHZ EP        159 11.64                             111    0.61 8  306 234 
 GUY2CHN ES        159 46.28                             111    0.95 8  306 234 
 GUY2CHZ I         159 52.89         3.2 0.60                           306 234 
                                                                                
