 2015 12 9 0549 16.5 L   6.807 -73.149146.0  RSN  8 0.4 1.4LRSN                1
 GAP=136        0.95       3.3     4.5  6.2 -0.1817E+01  0.8563E+01  0.6271E+00E
 Epicentro: LOS SANTOS - SANTANDER                                             3
 ACTION:UPD 16-02-04 15:03 OP:cam  STATUS:               ID:20151209054916 L   I
 OLDACT:REG 15-12-09 12:42 OP:mh   STATUS:               ID:20151209054749     3
 2015-12-09-0547-49M.COL___319                                                 6
 STAT SP IPHASW D HRMM SECON CODA AMPLIT PERI AZIMU VELO AIN AR TRES W  DIS CAZ7
 BAR2 EZ EP        549 35.45                             170   -0.7410 24.1 189 
 BAR2 EZ ES        549 51.20                             170   -0.3410 24.1 189 
 BAR2 EZ I         549 52.53         9.4 0.20            169           24.1 189 
 BRR  HZ EP        549 37.94                             153    0.2910 70.5 298 
 BRR  HE ES        549 54.63                             153    0.4910 70.5 298 
 BRR  HZ I         549 57.53         3.4 0.22            151           70.5 298 
 PAM  EZ EP        549 39.00                             151    0.2710 77.0  40 
 PAM  EN ES        549 56.24                             151    0.1810 77.0  40 
 PAM  EZ I         549 56.74         2.4 0.22            155           77.0  40 
 RUS  HZ EP        549 40.58                             144    0.2310  101 176 
 RUS  HN ES        549 58.89                             144   -0.0510  101 176 
 RUS  HZ I         549 59.94         3.6 0.30            146            101 176 
 PTB  HZ EP        549 43.71                             132    0.22 9  148 259 
 PTB  HN ES        550  4.21                             132   -0.31 9  148 259 
 PTB  HZ I         550 11.18         2.6 0.12            132            148 259 
 OCA  HE ES        550  6.88                             130    0.08 9  159 353 
 SML  HE ES        550 20.93                             118   -0.64 8  243 335 
 GUY2CHZ EP        549 59.84                             112   -0.32 7  301 235 
 GUY2CHE ES        550 34.70                             112    0.51 7  301 235 
 GUY2CHZ I         550 42.57         2.7 0.30                           301 235 
                                                                                
