 2012  7 9 0858 43.4 L   6.730 -73.197147.4  RSN  5 0.4 1.3LRSN                1
 GAP=226        0.97       8.7     8.0 11.5  0.3551E+02  0.2079E+02 -0.1570E+02E
 Epicentro: VILLANUEVA - SANTANDER                                             3
 ACTION:UPD 12-08-14 11:43 OP:ep   STATUS:               ID:20120709085843 L   I
 2012-07-09-0850-00M.COL___201                                                 6
 STAT SP IPHASW D HRMM SECON CODA AMPLIT PERI AZIMU VELO AIN AR TRES W  DIS CAZ7
 BAR2 SZ EP   1    859  2.57                             174    -0.6 7   15 174 
 BAR2 SZ ES   1    859 17.92                             174    -0.6 7   15 174 
 BAR2 SZ I         859 20.05         5.1 0.15                            15 174 
 BRR  HZ EP   1    859  5.32                             153     0.6 7   71 306 
 BRR  HZ I         859 16.50         4.9 0.29                            71 306 
 BRR  HN ES   1    859 21.76                             153     0.4 7   71 306 
 RUS  HE ES        859 25.37                             146     0.310   93 172 
 PTB  HZ EP   1    859  9.87                             134     0.0 7  141 261 
 PTB  HE ES        859 30.50                             134    -0.1 9  141 261 
 PTB  HZ I         859 33.84         1.9 0.17                           141 261 
 ZAR  HN ES   1    859 40.67                             123    -0.3 6  202 295 
