 2013  8 9 0404 36.9 L   7.072 -73.318118.8  RSN 12 0.5 2.1LRSN                1
 GAP= 77        1.32       3.4     4.6  7.0 -0.2084E+01  0.6859E+01  0.2058E+00E
 Epicentro: LEBRIJA - SANTANDER                                                3
 ACTION:UPD 14-01-14 09:00 OP:ep   STATUS:               ID:20130809040436 L   I
 OLDACT:REG 13-08-09 06:24 OP:jn   STATUS:               ID:20130809035959     3
 2013-08-09-0359-59M.COL___267                                                 6
 STAT SP IPHASW D HRMM SECON CODA AMPLIT PERI AZIMU VELO AIN AR TRES W  DIS CAZ7
 GIR2 SZ EP        4 4 53.03                             173    0.1010 13.8  87 
 GIR2 SZ I         4 5  6.62        18.8 0.38            173           13.8  87 
 BRR  HZ IP     C  4 4 53.74                             159    0.1210 43.7 275 
 BRR  HN ES        4 5  7.10                             159    0.4110 43.7 275 
 BRR  HZ I         4 5  8.27        36.8 0.14            158           43.7 275 
 BAR2 SZ IP     D  4 4 54.95                             154    0.4110 55.1 164 
 BAR2 SZ ES        4 5  8.21                             154   -0.1210 55.1 164 
 BAR2 SZ I         4 5  9.94       146.3 0.38            153           55.1 164 
 PAM  SZ EP        4 4 56.54                             146    0.4510 74.5  67 
 PAM  SN ES        4 5 11.44                             146    0.3610 74.5  67 
 PAM  SZ I         4 5 13.41        21.4 0.44            146           74.5  67 
 OCA  HZ EP        4 4 59.48                             129   -0.6710  129 360 
 OCA  HN ES        4 5 17.50                             129   -0.8110  129 360 
 OCA  HZ I         4 5 19.20        53.6 0.24            129            129 360 
 RUS  HZ EP        4 5  0.78                             129   -0.1910  133 169 
 RUS  HN ES   1    4 5 19.58                             129   -0.19 7  133 169 
 RUS  HZ I         4 5 21.12        12.8 0.32            128            133 169 
 PTB  HZ EP        4 5  0.15                             127   -0.76 9  139 245 
 PTB  HN ES        4 5 18.68                             127   -0.98 9  139 245 
 PTB  HZ I         4 5 23.09        15.4 0.44            126            139 245 
 ZAR  HZ EP        4 5  5.24                             120    0.52 9  176 285 
 ZAR  HN ES        4 5 27.59                             120    1.16 9  176 285 
 ZAR  HZ I         4 5 31.22        15.6 0.30            119            176 285 
 SPBC HZ EP        4 5  4.99                             120    0.01 9  178 208 
 SPBC HN ES        4 5 26.35                             120   -0.56 9  178 208 
 SPBC HZ I         4 5 34.06        14.7 0.34            119            178 208 
 URE  HN ES   4    4 5 40.49                             110   -1.65 0  256 287 
 CHI  HZ EP   1    4 5 16.36                             109    0.23 6  274 190 
 CHI  HN ES        4 5 47.27                             109    0.52 8  274 190 
 CHI  HZ I         4 5 54.65         4.1 0.58            108            274 190 
 GUY2CHZ EP   1    4 5 20.66                             106    0.83 5  305 228 
 GUY2CHZ I         4 6  3.27         5.9 0.54                           305 228 
 COD  HZ EP        4 5 20.33                             105   -0.30 7  317 358 
 COD  HN ES   1    4 5 55.17                             105    0.41 5  317 358 
 COD  HZ I         4 6  3.72         3.2 0.56            105            317 358 
                                                                                
