 2015  8 9 0700 14.6 L   6.831 -73.037139.9  RSN  7 0.4 1.7LRSN                1
 GAP=250        1.05       5.4     7.4  7.7  0.1294E+02  0.2067E+02  0.1239E+01E
 Epicentro: LOS SANTOS - SANTANDER                                             3
 OLDACT:UP  15-08-09 17:32 OP:mh   STATUS:               ID:20150809065745     3
 OLDACT:UP  15-08-09 17:31 OP:mh   STATUS:               ID:20150809065745     3
 OLDACT:UP  15-08-09 17:31 OP:mh   STATUS:               ID:20150809065745     3
 OLDACT:UP  15-08-09 17:30 OP:mh   STATUS:               ID:20150809065745     3
 OLDACT:UP  15-08-09 17:27 OP:mh   STATUS:               ID:20150809065745     3
 OLDACT:UP  15-08-09 17:26 OP:mh   STATUS:               ID:20150809065745     3
 OLDACT:UP  15-08-09 17:25 OP:mh   STATUS:               ID:20150809065745     3
 OLDACT:UP  15-08-09 17:13 OP:mh   STATUS:               ID:20150809065745     3
 OLDACT:UP  15-08-09 13:43 OP:mh   STATUS:               ID:20150809065745     3
 OLDACT:REG 15-08-09 12:36 OP:mh   STATUS:               ID:20150809065745     3
 ACTION:UPD 15-09-15 23:01 OP:cam  STATUS:               ID:20150809070014 L   I
 OLDACT:UP  15-08-09 17:52 OP:mh   STATUS:               ID:20150809065746d    3
 OLDACT:UP  15-08-09 17:52 OP:mh   STATUS:               ID:20150809065746d    3
 OLDACT:UP  15-08-09 17:47 OP:mh   STATUS:               ID:20150809065746d    3
 OLDACT:UP  15-08-09 17:46 OP:mh   STATUS:               ID:20150809065746d    3
 OLDACT:DUP 15-08-09 17:36 OP:mh   STATUS:               ID:20150809065746d    3
 OLDACT:UP  15-08-09 17:34 OP:mh   STATUS:               ID:20150809065745     3
 2015-08-09-0657-45M.COL___346                                                 6
 STAT SP IPHASW D HRMM SECON CODA AMPLIT PERI AZIMU VELO AIN AR TRES W  DIS CAZ7
 BAR2 EZ EP        7 0 34.08                             167    0.3610 30.9 211 
 BAR2 EZ ES        7 0 48.70                             167    0.0710 30.9 211 
 BAR2 EZ I         7 0 50.11         9.7 0.16            165           30.9 211 
 BRR  HZ EP        7 0 34.90                             148   -0.8010 80.5 292 
 BRR  HN ES        7 0 52.57                             148    0.4210 80.5 292 
 BRR  HZ I         7 0 57.28        11.1 0.15            147           80.5 292 
 RUS  HZ EP   1    7 0 37.76                             142   -0.28 7  104 183 
 RUS  HN ES        7 0 56.21                             142   -0.1110  104 183 
 RUS  HZ I         7 0 57.61         6.3 0.31            145            104 183 
 SPBC HN ES        7 1  6.18                             126   -0.17 9  174 221 
 SPBC HZ I         7 1  8.79         7.6 0.16            128            174 221 
 ZAR  HZ EP        7 0 48.48                             120    0.75 8  214 290 
 ZAR  HN ES        7 1 13.02                             120   -0.54 8  214 290 
 ZAR  HZ I         7 1 18.15         7.5 0.30            121            214 290 
 CBOC HZ EP        7 1  2.99                             108    0.26 6  346 252 
 TOL  SN ES        7 1 42.61                             108    0.26 6  354 226 
                                                                                
