 2016  7 9 0031 29.3 L   6.738 -73.169140.5  RSN  6 0.2 1.6LRSN                1
 GAP=230        0.63       3.5     4.0  4.7  0.5849E+01  0.4414E+01 -0.1089E+01E
 Epicentro: VILLANUEVA - SANTANDER                                             3
 ACTION:UPD 17-03-29 16:48 OP:lp   STATUS:               ID:20160709003129 L   I
 OLDACT:REG 16-07-09 12:34 OP:edw  STATUS:               ID:20160709002744     3
 2016-07-09-0027-44M.COL___341                                                 6
 STAT SP IPHASW D HRMM SECON CODA AMPLIT PERI AZIMU VELO AIN AR TRES W  DIS CAZ7
 BAR2 EZ ES        032  2.63                             173   -0.2810 16.2 185 
 BRR  HZ EP        031 49.83                             151   -0.1510 72.6 304 
 BRR  HN ES        032  6.30                             151    0.2110 72.6 304 
 BRR  HZ I         032  7.85         8.6 0.16            149           72.6 304 
 RUS  HZ EP        031 52.24                             145    0.1610 94.0 174 
 RUS  HN ES        032 10.02                             145    0.1910 94.0 174 
 RUS  HZ I         032 11.41         2.7 0.34            146           94.0 174 
 PTB  HZ EP        031 55.02                             132   -0.50 9  144 261 
 PTB  HN ES        032 15.95                             132   -0.01 9  144 261 
 PTB  HZ I         032 18.38         5.3 0.42            131            144 261 
 SPBC HN ES        032 18.16                             129    0.00 9  156 220 
 ZAR  HZ EP        032  1.78                             121    0.32 9  204 294 
 ZAR  HN ES        032 26.62                             121    0.09 9  204 294 
 ZAR  HZ I         032 32.77         6.1 0.32            121            204 294 
                                                                                
