 2011 11 9 0302  5.6 L   6.777 -73.141140.0  RSN 10 0.4 2.4LRSN                1
 GAP=138        0.70       3.1     4.3  5.3 -0.9386E+00  0.8259E+01  0.1568E+01E
 Epicentro: LOS SANTOS - SANTANDER                                             3
 ACTION:UPD 12-07-13 16:09 OP:ep   STATUS:               ID:20111109030205 L   I
 2011-11-09-0300-31S.COL___178                                                 6
 STAT SP IPHASW D HRMM SECON CODA AMPLIT PERI AZIMU VELO AIN AR TRES W  DIS CAZ7
 BAR2 SZ EP   1    3 2 24.43                             171   -0.01 7 21.0 193 
 BAR2 SZ ES   1    3 2 39.09                             171   -0.09 7 21.0 193 
 BAR2 SZ I         3 2 41.86        71.0 0.29                          21.0 193 
 BRR  HZ IP     C  3 2 26.47                             151    0.2910 72.9 300 
 BRR  HN ES   1    3 2 42.87                             151    0.60 7 72.9 300 
 BRR  HZ I         3 2 44.73        89.1 0.17                          72.9 300 
 PAM  SZ EP   1    3 2 27.34                             149    0.08 7 79.0  38 
 PAM  SZ I         3 2 27.76        28.7 0.17                          79.0  38 
 PAM  SN ES   1    3 2 44.26                             149    0.07 7 79.0  38 
 RUS  HZ EP   1    3 2 28.48                             143   -0.08 7 98.1 176 
 RUS  HN ES   1    3 2 46.35                             143   -0.15 7 98.1 176 
 RUS  HZ I         3 2 48.69        26.5 0.36                          98.1 176 
 OCA  SZ EP   1    3 2 33.60                             128   -0.06 7  163 353 
 OCA  SZ ES   1    3 2 54.94                             128   -0.65 7  163 353 
 OCA  SZ I         3 2 58.48        44.7 0.30                           163 353 
 ZAR  HZ EP   1    3 2 38.14                             121    0.36 6  205 293 
 ZAR  HN ES   1    3 3  2.25                             121   -0.66 6  205 293 
 ZAR  HZ I         3 3  5.77        35.4 0.24                           205 293 
 NOR  SZ EP   1    3 2 40.85                             117    0.01 6  234 235 
 NOR  SE ES   1    3 3  8.16                             117   -0.21 6  234 235 
 NOR  SZ I         3 3 10.80         2.2 0.32                           234 235 
 ROSC BZ EP   1    3 2 42.41                             116   -0.75 6  251 211 
 HEL  HZ EP   1    3 2 46.02                             114    0.55 6  272 256 
 HEL  HZ I         3 3 24.46        20.0 0.34                           272 256 
 PRA  HZ EP   1    3 2 59.06                             106    0.40 4  390 210 
 PRA  HZ I         3 3 44.94        24.5 0.22                           390 210 
                                                                                
