 2011  6 9 0652 21.0 L   6.694 -73.143149.4  RSN  4 0.1 1.4LRSN                1
 GAP=230        0.40       3.0     3.5  5.1  0.1008E+01  0.4989E+01  0.6097E+00E
 Epicentro: VILLANUEVA - SANTANDER                                             3
 ACTION:UP  11-07-14 19:04 OP:ep   STATUS:               ID:20110609065221 L   I
 2011-06-09-0652-06S.COL___121                                                 6
 STAT SP IPHASW D HRMM SECON CODA AMPLIT PERI AZIMU VELO SNR AR TRES W  DIS CAZ7
 BAR2 SZ EP   1    652 41.10                             175     0.2 7   12 201 
 BAR2 SZ ES   2    652 56.09                             175    -0.3 5   12 201 
 BAR2 SZ I         652 58.27         7.4 0.30                            12 201 
 BRR  HZ EP   1    652 42.87                             151    -0.1 7   78 306 
 BRR  HE ES   1    653  0.08                             151     0.1 7   78 306 
 BRR  HZ I         653  3.76         4.5 0.26                            78 306 
 RUS  HZ EP   1    652 44.18                             148    -0.1 7   89 176 
 RUS  HN ES        653  2.56                             148     0.110   89 176 
 RUS  HZ I         653  5.43         3.1 0.33                            89 176 
 NOR  SN ES        653 23.77                             120     0.0 8  228 237 
                                                                                
