 2015  8 9 0526 27.7 L   6.863 -73.296120.4  RSN 14 0.5 1.9LRSN                1
 GAP=158        1.01       2.7     4.2  5.9 -0.1398E+01  0.1119E+02 -0.5615E+00E
 Epicentro: BETULIA - SANTANDER                                                3
 ACTION:UPD 15-09-15 23:01 OP:cam  STATUS:               ID:20150809052627 L   I
 OLDACT:UP  15-08-09 16:24 OP:mh   STATUS:               ID:20150809051751d    3
 OLDACT:UP  15-08-09 16:24 OP:mh   STATUS:               ID:20150809051751d    3
 OLDACT:DUP 15-08-09 16:15 OP:mh   STATUS:               ID:20150809051751d    3
 OLDACT:UP  15-08-09 16:14 OP:mh   STATUS:               ID:20150809051750     3
 OLDACT:UP  15-08-09 16:14 OP:mh   STATUS:               ID:20150809051750     3
 OLDACT:UP  15-08-09 16:13 OP:mh   STATUS:               ID:20150809051750     3
 OLDACT:UP  15-08-09 16:02 OP:mh   STATUS:               ID:20150809051750     3
 OLDACT:UP  15-08-09 16:01 OP:mh   STATUS:               ID:20150809051750     3
 OLDACT:REG 15-08-09 12:33 OP:mh   STATUS:               ID:20150809051750     3
 2015-08-09-0517-50M.COL___346                                                 6
 STAT SP IPHASW D HRMM SECON CODA AMPLIT PERI AZIMU VELO AIN AR TRES W  DIS CAZ7
 BAR2 EZ IP        526 44.93                             164    0.3710 32.5 157 
 BAR2 EZ ES        526 57.81                             164    0.1110 32.5 157 
 BRR  HZ IP     D  526 45.27                             155    0.1710 53.3 300 
 BRR  HN ES        526 59.33                             155    0.6610 53.3 300 
 BRR  HZ I         526 59.66        22.8 0.12            150           53.3 300 
 RUS  HZ EP   1    526 50.04                             135    0.21 7  110 168 
 RUS  HN ES        527  6.44                             135   -0.6610  110 168 
 RUS  HZ I         527  8.24         6.4 0.28            136            110 168 
 OCA  HZ EP   1    526 52.94                             125   -0.41 7  152 359 
 OCA  HN ES        527 12.84                             125   -0.52 9  152 359 
 SPBC HZ EP        526 53.96                             123   -0.01 9  159 213 
 SPBC HN ES        527 14.26                             123   -0.19 9  159 213 
 SPBC HZ I         527 15.95                             122            159 213 
 ZAR  HZ EP   1    526 56.84                             119    0.16 7  186 292 
 ZAR  HN ES        527 19.45                             119    0.18 9  186 292 
 ZAR  HZ I         527 24.53        15.3 0.24            117            186 292 
 NOR  HZ EP   1    527  1.36                             114    0.27 6  226 231 
 NOR  HE ES        527 27.41                             114    0.28 8  226 231 
 NOR  HZ I         527 31.42         6.5 0.34            113            226 231 
 SML  HZ EP        527  1.50                             113   -0.08 8  231 338 
 SML  HN ES   1    527 27.51                             113   -0.48 6  231 338 
 SML  HZ I         527 30.58        25.2 0.10            113            231 338 
 HEL  HZ EP   1    527  5.63                             111    0.51 6  258 253 
 HEL  HN ES        527 33.95                             111   -0.36 8  258 253 
 HEL  HZ I         527 38.94         7.3 0.50            110            258 253 
 URE  HZ EP   4    527  4.29                             110   -1.29 0  266 292 
 URE  HN ES   4    527 32.68                             110   -2.45 0  266 292 
 URE  HZ I         527 41.71        11.0 0.18            109            266 292 
 GUY2CHZ EP        527 10.11                             108    0.91 7  292 232 
 GUY2CHN ES        527 40.72                             108   -0.84 7  292 232 
 GUY2CHZ I         527 48.49         4.8 0.40                           292 232 
 CBOC HZ EP   1    527 12.59                             106    0.49 5  320 250 
 CBOC HN ES        527 45.80                             106   -0.94 7  320 250 
 CBOC HZ I         527 49.11         3.5 0.28            105            320 250 
 MON  HZ EP   4    527 12.01                             105   -1.78 0  336 309 
 MON  HN ES   4    527 47.31                             105   -2.43 0  336 309 
 MON  HZ I         527 49.77         2.0 0.20            104            336 309 
 TOL  SZ EP   4    527 15.60                             105    1.29 0  337 222 
 TOL  SN ES   1    527 50.98                             105    0.31 5  337 222 
 TOL  SZ I         528  0.69         2.0 0.32            104            337 222 
                                                                                
