 2013  1 9 0312 28.1 L   6.807 -73.159142.3  RSN  7 0.4 1.9LRSN                1
 GAP=182        1.04       3.9     6.2  7.6  0.6900E+01  0.1061E+02  0.4923E+01E
 Epicentro: LOS SANTOS - SANTANDER                                             3
 ACTION:UPD 13-02-15 09:13 OP:ep   STATUS:               ID:20130109031228 L   I
 2013-01-09-0310-00M.COL___242                                                 6
 STAT SP IPHASW D HRMM SECON CODA AMPLIT PERI AZIMU VELO AIN AR TRES W  DIS CAZ7
 BAR2 SZ EP        312 47.31                             170   -0.0310 23.8 186 
 BAR2 SZ ES        313  1.95                             170   -0.3910 23.8 186 
 BAR2 SZ I         313  3.55        12.6 0.18            168           23.8 186 
 BRR  HZ EP        312 49.24                             152    0.4410 69.5 299 
 BRR  HN ES        313  5.75                             152    0.8210 69.5 299 
 BRR  HN I         313  6.50        20.4 0.22            149           69.5 299 
 RUS  HN ES        313  9.78                             143   -0.1210  101 175 
 RUS  HN I         313 10.94         5.3 0.20            143            101 175 
 PTB  HZ EP        312 54.14                             131   -0.55 9  146 258 
 PTB  HN ES        313 14.98                             131   -0.42 9  146 258 
 PTB  HN I         313 20.13        10.7 0.38            129            146 258 
 OCA  HN ES        313 17.60                             129   -0.29 9  159 354 
 OCA  HN I         313 19.69        26.0 0.24            129            159 354 
 ZAR  HN ES        313 25.13                             122   -0.03 9  202 292 
 ZAR  HN I         313 32.50         7.6 0.18            121            202 292 
 CHI  HZ EP        313  5.94                             116    0.28 8  249 195 
 CHI  HN ES        313 35.30                             116    0.36 8  249 195 
 CHI  HN I         313 37.64         5.0 0.34            116            249 195 
                                                                                
