 2013  8 9 0252  0.9 L   6.750 -73.209151.4  RSN  6 0.3 1.3LRSN                1
 GAP=225        0.85       5.1     5.7  8.2  0.6809E+01 -0.5096E+01  0.3014E+01E
 Epicentro: VILLANUEVA - SANTANDER                                             3
 ACTION:UPD 14-01-14 09:00 OP:ep   STATUS:               ID:20130809025200 L   I
 OLDACT:REG 13-08-09 06:18 OP:jn   STATUS:               ID:20130809024959     3
 2013-08-09-0249-59M.COL___268                                                 6
 STAT SP IPHASW D HRMM SECON CODA AMPLIT PERI AZIMU VELO AIN AR TRES W  DIS CAZ7
 BAR2 SZ EP        252 20.70                             173   -0.4310 17.7 170 
 BRR  HZ EP        252 22.62                             154    0.1010 68.2 305 
 BRR  HN ES        252 39.66                             154    0.2910 68.2 305 
 BRR  HZ I         252 41.29         4.2 0.48            151           68.2 305 
 RUS  HZ EP   1    252 25.25                             146    0.35 7 95.8 172 
 RUS  HN ES   1    252 43.43                             146   -0.18 7 95.8 172 
 RUS  HZ I         252 44.34         1.7 0.44            148           95.8 172 
 PTB  HZ EP        252 27.15                             135   -0.51 9  140 261 
 PTB  HN ES        252 48.43                             135   -0.09 9  140 261 
 PTB  HZ I         252 51.26         1.7 0.16            133            140 261 
 SPBC HZ EP        252 29.72                             132    0.66 9  154 218 
 SPBC HN ES        252 50.93                             132   -0.07 9  154 218 
 SPBC HZ I         252 53.06         3.5 0.20            132            154 218 
 ZAR  HN ES   1    252 58.56                             124   -0.01 6  200 294 
 ZAR  HZ I         253  5.17         3.4 0.40            123            200 294 
                                                                                
