 2016  8 9 0827 16.6 L   6.524 -73.511114.3  RSN  4 0.2 1.2LRSN                1
 GAP=193        0.45       4.2     2.6  5.1  0.3510E+01  0.6101E+01  0.2111E+01E
 Epicentro: EL CARMEN - SANTANDER                                              3
 ACTION:UPD 16-10-29 15:34 OP:rebc STATUS:               ID:20160809082716 L   I
 OLDACT:REG 16-08-09 13:22 OP:dnl  STATUS:               ID:20160809081759     3
 2016-08-09-0817-59S.COL___337                                                 6
 STAT SP IPHASW D HRMM SECON CODA AMPLIT PERI AZIMU VELO AIN AR TRES W  DIS CAZ7
 BAR2 EZ EP        827 33.04                             161    0.1310 37.1  78 
 BAR2 EZ ES        827 45.63                             161    0.0010 37.1  78 
 BAR2 EZ I         827 47.13        12.8 0.42                          37.1  78 
 BRR  HN ES        827 47.80                             147   -0.2010 68.2 341 
 BRR  HZ I         827 53.27         2.6 0.42                          68.2 341 
 PTB  HZ EP   2    827 36.59                             134   -0.50 5  105 271 
 PTB  HN ES        827 53.15                             134    0.0810  105 271 
 PTB  HZ I         827 58.99         1.5 0.10                           105 271 
 ZAR  HZ EP   2    827 44.84                             117   -0.09 4  183 306 
 ZAR  HN ES        828  7.19                             117    0.16 9  183 306 
 ZAR  HZ I         828 12.82         1.8 0.30                           183 306 
                                                                                
