 2015  3 9 0554 35.4 L   6.820 -73.254160.9  RSN  5 0.3 1.6LRSN                1
 GAP=215        0.72       2.7     9.1  7.0 -0.1368E+01 -0.3538E+02  0.1628E+01E
 Epicentro: ZAPATOCA - SANTANDER                                               3
 ACTION:UPD 15-04-30 16:24 OP:nd   STATUS:               ID:20150309055435 L   I
 OLDACT:REG 15-03-09 14:20 OP:cam  STATUS:               ID:20150309054745     3
 2015-03-09-0547-45M.COL___281                                                 6
 STAT SP IPHASW D HRMM SECON CODA AMPLIT PERI AZIMU VELO AIN AR TRES W  DIS CAZ7
 BRR  HZ EP        554 57.87                             159    0.1810 59.7 302 
 BRR  HN ES        555 15.11                             159    0.0610 59.7 302 
 BRR  HN I         555 19.13         8.9 0.26            163           59.7 302 
 PTB  HZ EP        555  2.97                             138    0.24 9  136 257 
 PTB  HN ES        555 24.12                             138    0.10 9  136 257 
 PTB  HZ I         555 26.78         2.8 0.16            142            136 257 
 SPBC HZ EP        555  4.82                             133    0.17 9  158 215 
 SPBC HN ES        555 26.99                             133   -0.45 9  158 215 
 SPBC HZ I         555 32.49         4.5 0.42            137            158 215 
 SML  HZ EP        555 11.57                             121   -0.68 8  237 338 
 SML  HE ES        555 41.01                             121    0.06 8  237 338 
 SML  HE I         555 44.35         5.3 0.10            125            237 338 
 CHI  HZ EP        555 14.29                             120    0.34 8  248 192 
 CHI  HN ES        555 43.81                             120   -0.17 8  248 192 
 CHI  HN I         555 51.24         1.8 0.32            123            248 192 
                                                                                
