 2017  6 9 0417 50.9 L   6.836 -73.144150.3  RSN 20 0.5 2.2LRSN                1
 GAP=148        1.02       3.6     3.7  5.8  0.4191E+01  0.2129E+01  0.1774E+01E
 Epicentro: LOS SANTOS - SANTANDER                                             3
 ACTION:UPD 17-09-14 16:50 OP:jn   STATUS:               ID:20170609041750 L   I
 OLDACT:UP  17-06-09 17:07 OP:edw  STATUS:               ID:20170609041740     3
 OLDACT:REG 17-06-09 12:58 OP:edw  STATUS:               ID:20170609041740     3
 2017-06-09-0418-00M.COL___368                                                 6
 STAT SP IPHASW D HRMM SECON CODA AMPLIT PERI AZIMU VELO AIN AR TRES W  DIS CAZ7
 BRR  HZ EP     C  418 12.79                             154    0.3810 69.6 296 
 BRR  HN ES        418 29.93                             154    0.7110 69.6 296 
 BRR  HZ I         418 31.78        20.0 0.32            152           69.6 296 
 RUS  HZ EP     C  418 15.24                             144   -0.0910  105 176 
 RUS  HN ES        418 34.28                             144   -0.1510  105 176 
 RUS  HZ I         418 34.79        43.4 0.24            142            105 176 
 PTB  HZ EP        418 17.78                             133   -0.50 9  149 257 
 PTB  HN ES        418 38.87                             133   -0.81 9  149 257 
 PTB  HZ I         418 40.72        15.0 0.40            131            149 257 
 SPBC HZ EP        418 19.97                             130   -0.03 9  166 218 
 SPBC HN ES        418 42.27                             130   -0.47 9  166 218 
 SPBC HZ I         418 44.45        38.8 0.24            128            166 218 
 YPLC HZ EP        418 21.26                             127   -0.05 9  180 152 
 YPLC HN ES        418 45.59                             127    0.53 9  180 152 
 YPLC HZ I         418 46.37        30.2 0.28            127            180 152 
 ZAR  HZ EP        418 23.47                             123    0.00 9  203 291 
 ZAR  HE ES        418 48.93                             123    0.03 9  203 291 
 ZAR  HZ I         418 54.57        12.3 0.40            123            203 291 
 TABC EZ EP   4    418 28.62                             120    1.38 0  233 210 
 TABC EZ ES   4    418 51.05                             120   -4.58 0  233 210 
 TABC EZ I         419  2.68        14.3 0.36            119            233 210 
 NOR  HZ EP        418 27.55                             119    0.44 8  237 234 
 NOR  HN ES        418 55.13                             119   -0.26 8  237 234 
 NOR  HZ I         418 59.70        14.3 0.28            118            237 234 
 CHI  HZ EP        418 29.23                             118    0.01 8  252 195 
 CHI  HN ES        418 58.77                             118   -0.38 8  252 195 
 CHI  HZ I         419  2.26         9.0 0.62            117            252 195 
 ROSC BZ EP   4    418 31.23                             117    1.63 0  256 211 
 ROSC BN ES   4    419  2.30                             117    2.48 0  256 211 
 ROSC BZ I         419  9.22        17.3 0.35            116            256 211 
 HEL  HZ EP   4    418 33.12                             116    1.69 0  273 255 
 HEL  HN ES        419  3.06                             116   -0.01 8  273 255 
 HEL  HZ I         419  8.64         8.0 0.50            115            273 255 
 VIL  EZ EP        418 34.88                             113   -0.04 7  307 191 
 VIL  EN ES   4    419  6.81                             113   -2.48 0  307 191 
 VIL  EZ I         419 11.70        14.0 0.50            112            307 191 
 PTGC HZ EP   9 C  418 34.26                             112   -1.06 0  312 159 
 PTGC HN ES        419  7.87                             112   -1.08 7  312 159 
 PTGC HZ I         419 12.46        12.1 0.30            112            312 159 
 ELA  HZ EP   4    418 40.11                             111    1.91 0  332 229 
 ELA  HN ES        419 14.66                             111   -0.48 7  332 229 
 ELA  HZ I         419 22.82         5.5 0.40            110            332 229 
 CBOC HZ EP   4    418 39.47                             111    1.35 0  335 251 
 CBOC HN ES        419 15.46                             111    0.48 7  335 251 
 CBOC HZ I         419 19.14         2.5 0.20            110            335 251 
 DBB  EZ EP   2    418 38.19                             110   -0.31 3  339 274 
 DBB  EN ES   4    419 14.27                             110   -1.40 0  339 274 
 DBB  EZ I         419 15.90         6.0 0.16            110            339 274 
 ORTC HZ EP        418 45.61                             107    0.30 6  399 216 
 ORTC HN ES        419 28.89                             107    1.10 6  399 216 
 ORTC HZ I         419 32.26         5.8 0.48            107            399 216 
 SJC  HZ EP        418 45.22                             106   -0.97 6  406 327 
 SJC  HN ES   4    419 26.30                             106   -3.06 0  406 327 
 SJC  HZ I         419 32.83         2.4 0.30            107            406 327 
 PAL  HZ EP        418 46.70                             106    0.28 6  408 239 
 PAL  HN ES        419 30.44                             106    0.68 6  408 239 
 PAL  HZ I         419 32.95         3.5 0.44            106            408 239 
 CRJC HZ EP   9    418 50.48                             104   -2.54 0  464   4 
 CRJC HN ES        419 39.25                             104    0.28 5  464   4 
 SMAR HZ EP   4    418 56.96                             103    0.57 0  493 346 
 SMAR HN ES   4    419 44.48                             103   -3.04 0  493 346 
                                                                                
