 2011 10 9 0630 43.7 L   6.846 -73.276143.0  RSN  5 0.2 1.7LRSN                1
 GAP=132        0.52       4.0     8.6  6.3 -0.3383E+01  0.2371E+02  0.2340E+01E
 Epicentro: ZAPATOCA - SANTANDER                                               3
 ACTION:UPD 12-07-13 16:02 OP:ep   STATUS:               ID:20111009063043 L   I
 2011-10-09-0620-00M.COL___171                                                 6
 STAT SP IPHASW D HRMM SECON CODA AMPLIT PERI AZIMU VELO AIN AR TRES W  DIS CAZ7
 GIR2 SZ EP   1    631  3.29                             169    0.37 7 27.3  19 
 GIR2 SZ ES   1    631 18.20                             169    0.27 7 27.3  19 
 BAR2 SZ EP   1    631  3.27                             168    0.14 7 29.9 160 
 BAR2 SZ I         631  3.55         3.2 0.19                          29.9 160 
 BAR2 SZ ES   1    631 18.06                             168   -0.24 7 29.9 160 
 BRR  HZ EP   1    631  3.44                             157   -0.31 7 56.2 301 
 BRR  HZ I         631  3.83       105.0 0.08                          56.2 301 
 PAM  SN ES   1    631 23.22                             148   -0.20 7 83.9  49 
 RUS  HZ EP   1    631  7.55                             141   -0.13 7  108 169 
 RUS  HN ES   1    631 26.50                             141    0.10 7  108 169 
 RUS  HZ I         631 28.14         3.8 0.40                           108 169 
                                                                                
