 2012 11 9 0931 59.8 L   6.687 -73.161148.0  RSN  5 0.3 1.7LRSN                1
 GAP=227        0.52       5.5     5.1  6.2  0.1169E+02  0.2425E+01 -0.2000E+01E
 Epicentro: VILLANUEVA - SANTANDER                                             3
 ACTION:UPD 12-12-05 15:32 OP:}ep  STATUS:               ID:20121109093159 L   I
 2012-11-09-0920-00M.COL___228                                                 6
 STAT SP IPHASW D HRMM SECON CODA AMPLIT PERI AZIMU VELO AIN AR TRES W  DIS CAZ7
 BAR2 SZ EP        932 19.22                             176   -0.2710 10.8 193 
 BAR2 SZ I         932 37.11         9.7 0.19                          10.8 193 
 BRR  HZ EP   1    932 21.64                             151    0.17 7 76.6 307 
 BRR  HE ES   1    932 38.62                             151    0.22 7 76.6 307 
 BRR  HZ I         932 41.96         9.8 0.08                          76.6 307 
 RUS  HZ EP   2    932 23.09                             148    0.19 5 88.3 174 
 RUS  HN ES   1    932 41.12                             148    0.17 7 88.3 174 
 RUS  HE I         932 43.52         7.5 0.13                          88.3 174 
 PTB  HZ EP        932 26.47                             133   -0.13 9  144 264 
 PTB  HN ES   1    932 47.35                             133   -0.18 7  144 264 
 PTB  HZ I         932 50.14         5.2 0.25                           144 264 
 HEL  HZ EP   2    932 40.35                             116    0.74 4  268 258 
 HEL  HZ I         933 19.13         2.9 0.45                           268 258 
                                                                                
