 2014  7 9 0511 10.7 L   6.847 -73.318123.2  RSN  4 0.5 1.5LRSN                1
 GAP=209        1.14       7.7    10.6 10.9 -0.7288E+00  0.4322E+02  0.1244E+02E
 Epicentro: ZAPATOCA - SANTANDER                                               3
 ACTION:UPD 15-03-16 20:42 OP:nd   STATUS:               ID:20140709051110 L   I
 OLDACT:REG 14-07-09 12:10 OP:stll STATUS:               ID:20140709050805     3
 2014-07-09-0508-05M.COL___265                                                 6
 STAT SP IPHASW D HRMM SECON CODA AMPLIT PERI AZIMU VELO AIN AR TRES W  DIS CAZ7
 BAR2 SZ EP        511 28.33                             165    0.4410 31.9 152 
 BAR2 SZ I         511 28.42        12.5 0.12            165           31.9 152 
 BAR2 SZ ES        511 40.77                             165   -0.5110 31.9 152 
 BRR  HZ EP        511 28.61                             155    0.2310 52.2 303 
 BRR  HN ES        511 42.39                             155    0.2310 52.2 303 
 BRR  HZ I         511 43.71         6.0 0.12            153           52.2 303 
 PTB  HZ EP        511 33.54                             130   -0.7510  130 255 
 PTB  HZ I         511 36.19         4.9 0.16            128            130 255 
 SPBC HN ES        511 57.67                             125    0.35 9  156 212 
 SPBC HZ I         511 59.35         3.5 0.22            124            156 212 
                                                                                
