 2011  1 9 0747  6.1 L   6.769 -73.150152.0  RSN  4 0.3 1.5LRSN                1
 GAP=163        0.66       3.6    17.7  8.4 -0.8182E+01  0.9302E+01 -0.8686E+01E
 Epicentro: LOS SANTOS - SANTANDER                                             3
 ACTION:UP  11-02-08 08:39 OP:pat  STATUS:               ID:20110109074706 L   I
 2011-01-09-0744-54S.COL___135                                                 6
 STAT SP IPHASW D HRMM SECON CODA AMPLIT PERI AZIMU VELO SNR AR TRES W  DIS CAZ7
 BAR2 SZ EP   2    747 26.32                             172    -0.1 5   20 191 
 BAR2 SZ ES   2    747 41.76                             172    -0.5 5   20 191 
 BAR2 SZ I         747 44.01         9.3 0.42                            20 191 
 RUS  HZ EP   1    747 30.44                             146     0.2 8   97 176 
 RUS  HE ES   1    747 49.10                             146     0.1 8   97 176 
 RUS  HZ I         747 50.20         2.4 0.44                            97 176 
 GRA  SZ IP        747 32.12                             138     0.010  129  17 
 GRA  SZ I         747 33.58         5.0 0.28                           129  17 
 GRA  SZ ES   1    747 52.48                             138     0.0 7  129  17 
 OCA  SZ EP   1    747 34.66                             130    -0.5 7  164 353 
 OCA  SZ ES   1    747 58.31                             130     0.4 7  164 353 
 OCA  SZ I         748  0.14         4.9 0.25                           164 353 
                                                                                
