 2010  9 9 0842 21.1 L   6.496 -73.976 23.1  RSN  4 0.1 1.4LRSN                1
 GAP=259        0.38       3.9     5.1  4.7  0.1205E+02  0.1154E+02  0.1384E+02E
 Epicentro: PUERTO PARRA - SANTANDER                                           3
 ACTION:UP  11-02-18 11:01 OP:tino STATUS:               ID:20100909084221 L   I
 2010-09-09-0839-18S.COL___120                                                 6
 STAT SP IPHASW D HRMM SECON CODA AMPLIT PERI AZIMU VELO SNR AR TRES W  DIS CAZ7
 BRR  HZ EP   1    842 33.01                             105    -0.2 7   74  23 
 BRR  HZ I         842 33.22        15.1 0.09                            74  23 
 BRR  HE ES   2    842 42.91                             105     0.2 5   74  23 
 BAR2 SZ EP   1    842 35.72                             103     0.1 7   88  83 
 BAR2 SZ ES   2    842 46.85                             103    -0.1 5   88  83 
 BAR2 SZ I         842 47.83         9.7 0.09                            88  83 
 GIR2 SZ EP   1    842 38.35                              56     0.0 7  108  53 
 RUS  HZ EP   1    842 40.31                              56     0.1 7  119 124 
 RUS  HN ES   2    842 54.98                              56    -0.1 5  119 124 
 RUS  HZ I         842 56.18         8.9 0.21                           119 124 
                                                                                
