 2014 12 9 0841 37.8 L   6.766 -73.212150.0  RSN  5 0.4 1.1LRSN                1
 GAP=226        0.95       7.2     6.9  7.1  0.2247E+02  0.9085E+01  0.8818E+01E
 Epicentro: ZAPATOCA - SANTANDER                                               3
 ACTION:UPD 15-02-10 17:01 OP:nd   STATUS:               ID:20141209084137 L   I
 OLDACT:REG 14-12-09 13:06 OP:fm   STATUS:               ID:20141209083746     3
 2014-12-09-0837-46M.COL___297                                                 6
 STAT SP IPHASW D HRMM SECON CODA AMPLIT PERI AZIMU VELO AIN AR TRES W  DIS CAZ7
 BAR2 SZ EP        841 57.76                             172   -0.1010 19.5 170 
 BAR2 SZ ES        842 13.42                             172   -0.0910 19.5 170 
 BAR2 SZ I         842 16.28         4.2 0.34            174           19.5 170 
 BRR  HZ EP        841 58.51                             155   -0.6610 66.9 304 
 BRR  HN ES        842 16.29                             155    0.4510 66.9 304 
 BRR  HZ I         842 20.37         2.6 0.26            155           66.9 304 
 RUS  HZ EP        842  2.16                             145    0.4110 97.6 172 
 RUS  HN ES        842 20.35                             145   -0.0910 97.6 172 
 RUS  HZ I         842 22.14         1.7 0.28            149           97.6 172 
 PTB  HZ EP        842  4.90                             135    0.49 9  140 260 
 PTB  HE ES        842 24.92                             135   -0.25 9  140 260 
 PTB  HZ I         842 28.31         1.7 0.16            136            140 260 
 SPBC HZ EP        842  5.77                             131   -0.15 9  156 218 
                                                                                
