 2016 10 9 0140  7.3 L   6.790 -73.135150.7  RSN  8 0.4 1.6LRSN                1
 GAP=138        0.79       3.3     3.5  6.3 -0.1746E+01  0.6130E+01  0.8548E+00E
 Epicentro: LOS SANTOS - SANTANDER                                             3
 ACTION:UPD 16-11-09 19:17 OP:rebc STATUS:               ID:20161009014007 L   I
 OLDACT:UP  16-10-09 14:03 OP:dani STATUS:               ID:20161009013747     3
 OLDACT:UP  16-10-09 14:03 OP:dani STATUS:               ID:20161009013747     3
 OLDACT:UP  16-10-09 14:03 OP:dani STATUS:               ID:20161009013747     3
 OLDACT:UP  16-10-09 14:02 OP:dani STATUS:               ID:20161009013747     3
 OLDACT:UP  16-10-09 14:01 OP:dani STATUS:               ID:20161009013747     3
 OLDACT:UP  16-10-09 14:00 OP:dani STATUS:               ID:20161009013747     3
 OLDACT:REG 16-10-09 12:24 OP:dani STATUS:               ID:20161009013747     3
 2016-10-09-0138-00M.COL___363                                                 6
 STAT SP IPHASW D HRMM SECON CODA AMPLIT PERI AZIMU VELO AIN AR TRES W  DIS CAZ7
 PAM  EZ EP        140 30.24                             152    0.1810 77.5  38 
 PAM  EE ES        140 47.51                             152   -0.2910 77.5  38 
 PAM  EZ I         140 49.92         4.8 0.29            157           77.5  38 
 RUS  HZ EP        140 31.28                             145   -0.1810 99.4 177 
 RUS  HE ES        140 50.73                             145    0.4310 99.4 177 
 RUS  HZ I         140 53.04         2.3 0.20            148           99.4 177 
 PTB  HZ EP        140 34.46                             133   -0.31 9  149 259 
 PTB  HE ES        140 56.04                             133   -0.15 9  149 259 
 PTB  HZ I         141  2.65         5.5 0.15            134            149 259 
 OCA  HN ES   3    141  0.02                             130    1.42 2  162 353 
 OCA  HZ I         141  3.88        10.6 0.33            134            162 353 
 SPBC HZ EP        140 36.36                             130    0.18 9  163 220 
 SPBC HN ES        140 58.16                             130   -0.54 9  163 220 
 SPBC HZ I         141  4.82         6.8 0.23            132            163 220 
 ZAR  HZ EP        140 40.10                             123   -0.14 8  206 292 
 ZAR  HN ES        141  6.40                             123    0.48 8  206 292 
 ZAR  HZ I         141 11.59         4.2 0.13            126            206 292 
 NOR  HN ES        141 11.71                             119    0.22 8  235 235 
 NOR  HZ I         141 15.31         3.8 0.20            122            235 235 
 CHI  HZ EP        140 45.25                             118    0.04 8  248 196 
 CHI  HN ES   3    141 16.65                             118    1.89 2  248 196 
 CHI  HZ I         141 24.43         1.5 0.29            121            248 196 
                                                                                
