 2012  4 9 0641 46.0 L   6.762 -73.142144.2  RSN 10 0.4 2.1LRSN                1
 GAP=139        1.04       5.2     5.2  7.4 -0.2176E+01  0.8923E+01  0.1897E+01E
 Epicentro: LOS SANTOS - SANTANDER                                             3
 ACTION:UPD 12-07-05 11:52 OP:tino STATUS:               ID:20120409064146 L   I
 2012-04-09-0640-00M.COL___196                                                 6
 STAT SP IPHASW D HRMM SECON CODA AMPLIT PERI AZIMU VELO AIN AR TRES W  DIS CAZ7
 BAR2 SZ EP        642  5.50                             172     0.110   19 193 
 BAR2 SZ ES   1    642 20.26                             172    -0.2 7   19 193 
 BAR2 SZ I         642 22.28        40.0 0.20                            19 193 
 BRR  HZ EP        642  7.37                             151     0.210   74 301 
 BRR  HE ES   1    642 24.39                             151     0.8 7   74 301 
 BRR  HZ I         642 26.17        36.1 0.13                            74 301 
 PAM  SZ EP        642  8.32                             150     0.110   80  37 
 PAM  SE ES   1    642 25.75                             150     0.2 7   80  37 
 PAM  SZ I         642 27.75        20.3 0.46                            80  37 
 RUS  HZ EP        642  9.34                             145     0.010   96 176 
 RUS  HN ES   1    642 27.01                             145    -0.5 7   96 176 
 RUS  HZ I         642 31.05        11.0 0.29                            96 176 
 PTB  HZ EP   1    642 12.38                             132    -0.4 7  147 260 
 PTB  HE ES   1    642 33.37                             132    -0.4 7  147 260 
 PTB  HZ I         642 35.01         8.9 0.26                           147 260 
 OCA  SZ EP   1    642 13.83                             128    -0.8 7  164 353 
 ZAR  HZ EP   1    642 18.82                             122     0.3 6  206 293 
 ZAR  HE ES   1    642 43.09                             122    -0.9 6  206 293 
 ZAR  HZ I         642 50.49        12.5 0.33                           206 293 
 NOR  SZ EP   1    642 21.40                             118     0.0 6  233 235 
 NOR  SN ES   1    642 49.56                             118     0.5 6  233 235 
 CHI  HZ EP   1    642 23.19                             117     0.0 6  245 196 
 CHI  HZ I         642 56.42         9.2 0.55                           245 196 
 HEL  HZ EP   1    642 26.91                             114     0.8 6  272 257 
 HEL  HZ I         643  3.48         4.9 0.44                           272 257 
                                                                                
