 2010  6 9 0342  3.1 L   6.779 -72.973143.8  RSN  8 0.4 1.9LRSN                1
 GAP=178        0.94       4.4    10.9  8.2 -0.2574E+02  0.3246E+02 -0.7971E+01E
 Epicentro: CEPITA - SANTANDER                                                 3
 ACTION:UP  10-08-24 10:09 OP:vdl  STATUS:               ID:20100609034203 L   I
 2010-06-09-0339-17S.COL___111                                                 6
 STAT SP IPHASW D HRMM SECON CODA AMPLIT PERI AZIMU VELO SNR AR TRES W  DIS CAZ7
 BAR2 SZ EP        342 22.46                             167    -0.210   31 228 
 BAR2 SZ ES   1    342 37.10                             167    -0.8 7   31 228 
 GIR2 SZ EP   1    342 22.61                             163    -0.2 7   41 324 
 RUS  HZ EP   1    342 26.61                             144     0.1 7   99 187 
 RUS  HN ES   1    342 45.41                             144     0.7 7   99 187 
 RUS  HZ I         342 46.31         6.5 0.24                            99 187 
 GUE  SZ EP        342 27.47                             139    -0.110  116   3 
 GUE  SZ ES   1    342 46.64                             139    -0.1 7  116   3 
 GRA  SZ IP        342 28.25                             137     0.310  124   9 
 GRA  SZ ES   1    342 47.65                             137     0.3 7  124   9 
 OCA  SZ EP        342 31.16                             128    -0.6 9  166 347 
 OCA  SZ ES   1    342 54.87                             128     0.7 7  166 347 
 HEL  HZ EP   1    342 45.35                             113     0.2 5  290 257 
 HEL  HZ I         343 21.17         6.2 0.26                           290 257 
 RREF BZ EP   1    342 50.55                             109    -0.1 5  335 232 
 RREF BN ES   1    343 28.08                             109     0.3 5  335 232 
 RREF BZ I         343 34.66         5.1 0.35                           335 232 
                                                                                
