 2011  6 9 0913 54.6 L   6.797 -73.037143.5  RSN  4 0.3 1.5LRSN                1
 GAP=171        0.57       4.8     9.4  8.7 -0.3206E+01 -0.1997E+02 -0.8840E+01E
 Epicentro: CEPITA - SANTANDER                                                 3
 ACTION:UP  11-07-14 19:04 OP:ep   STATUS:               ID:20110609091354 L   I
 2011-06-09-0912-45S.COL___121                                                 6
 STAT SP IPHASW D HRMM SECON CODA AMPLIT PERI AZIMU VELO SNR AR TRES W  DIS CAZ7
 BAR2 SZ EP   1    914 14.00                             169     0.0 7   28 215 
 BAR2 SZ ES   2    914 29.31                             169     0.1 5   28 215 
 BAR2 SZ I         914 30.73        10.8 0.26                            28 215 
 BRR  HZ EP   1    914 15.84                             149    -0.3 7   82 295 
 BRR  HZ I         914 16.10        14.0 0.11                            82 295 
 BRR  HN ES   2    914 33.19                             149     0.2 5   82 295 
 RUS  HZ EP   2    914 17.98                             143    -0.1 5  100 183 
 RUS  HN ES   2    914 36.36                             143     0.0 5  100 183 
 RUS  HZ I         914 37.90         2.8 0.25                           100 183 
 GRA  SZ EP   1    914 19.79                             137     0.4 7  123  12 
 GRA  SZ I         914 20.93         3.3 0.28                           123  12 
 GRA  SZ ES   2    914 38.27                             137    -0.5 5  123  12 
                                                                                
