 2015 12 9 0755  6.1 L   6.796 -73.141147.1  RSN  9 0.3 1.4LRSN                1
 GAP=137        0.69       2.3     2.8  4.2 -0.1239E+01  0.3076E+01 -0.4650E+00E
 Epicentro: LOS SANTOS - SANTANDER                                             3
 ACTION:UPD 16-02-04 15:03 OP:cam  STATUS:               ID:20151209075506 L   I
 OLDACT:DUP 15-12-09 16:26 OP:cara STATUS:               ID:20151209074750d    3
 OLDACT:UP  15-12-09 16:14 OP:cara STATUS:               ID:20151209074748d    3
 OLDACT:DUP 15-12-09 15:56 OP:cara STATUS:               ID:20151209074748d    3
 OLDACT:UP  15-12-09 15:55 OP:cara STATUS:               ID:20151209074747     3
 OLDACT:UP  15-12-09 15:50 OP:cara STATUS:               ID:20151209074747     3
 OLDACT:REG 15-12-09 12:45 OP:mh   STATUS:               ID:20151209074747     3
 2015-12-09-0747-47M.COL___319                                                 6
 STAT SP IPHASW D HRMM SECON CODA AMPLIT PERI AZIMU VELO AIN AR TRES W  DIS CAZ7
 BAR2 EZ EP        755 25.71                             171   -0.2010 23.0 192 
 BAR2 EZ ES        755 40.96                             171   -0.3810 23.0 192 
 BAR2 EZ I         755 44.13         3.8 0.22            170           23.0 192 
 BRR  HZ EP        755 27.62                             152    0.1610 71.9 299 
 BRR  HE ES        755 44.70                             152    0.6010 71.9 299 
 BRR  HZ I         755 48.44         2.4 0.12            152           71.9 299 
 PAM  EZ EP        755 28.57                             151    0.0810 77.4  39 
 PAM  EN ES        755 46.01                             151    0.0810 77.4  39 
 PAM  EZ I         755 48.10         6.6 0.60            155           77.4  39 
 RUS  HZ EP        755 30.12                             144    0.1510  100 176 
 RUS  HN ES        755 48.58                             144    0.0110  100 176 
 RUS  HZ I         755 51.18         2.3 0.36            147            100 176 
 PTB  HZ EP        755 33.21                             132   -0.03 9  148 259 
 PTB  HE ES        755 54.10                             132   -0.29 9  148 259 
 PTB  HZ I         755 54.72         1.8 0.28            134            148 259 
 OCA  HZ EP        755 34.87                             130    0.28 9  161 353 
 OCA  HN ES        755 56.37                             130   -0.42 9  161 353 
 SPBC HZ IP     C  755 34.77                             129    0.05 9  163 219 
 SPBC HN ES        755 57.07                             129    0.04 9  163 219 
 SPBC HZ I         756  2.54         6.6 0.40            131            163 219 
 ZAR  HZ EP        755 38.30                             123   -0.43 9  205 292 
 ZAR  HE ES        756  4.27                             123    0.11 9  205 292 
 ZAR  HZ I         756 12.31         2.1 0.18            124            205 292 
 GUY2CHZ EP   4    755 51.89                             113    2.07 0  301 235 
 GUY2CHN ES        756 24.00                             113    0.11 7  301 235 
 GUY2CHZ I         756 36.47         1.3 0.50                           301 235 
                                                                                
