 2010 11 9 0949 48.0 L   6.837 -73.345120.6  RSN  4 0.1 1.6LRSN                1
 GAP=200        0.45       4.5     5.3  6.0  0.9704E+01  0.2533E+00  0.7416E+01E
 Epicentro: ZAPATOCA - SANTANDER                                               3
 ACTION:UP  10-12-17 16:51 OP:REBC STATUS:               ID:20101109094948 L   I
 2010-11-09-0948-04S.COL___128                                                 6
 STAT SP IPHASW D HRMM SECON CODA AMPLIT PERI AZIMU VELO SNR AR TRES W  DIS CAZ7
 BAR2 SZ EP        950  5.07                             164     0.210   32 147 
 BAR2 SZ ES   2    950 17.96                             164    -0.1 5   32 147 
 BAR2 SZ I         950 19.50        18.3 0.35                            32 147 
 BRR  HZ EP        950  5.11                             156    -0.210   50 306 
 BRR  HZ I         950 15.71        16.1 0.08                            50 306 
 BRR  HN ES        950 18.76                             156     0.010   50 306 
 RUS  HN ES   2    950 27.01                             135    -0.2 5  108 165 
 RUS  HZ I         950 29.34         3.8 0.62                           108 165 
 NOR  SN ES   2    950 46.39                             114     0.1 4  220 230 
                                                                                
