 2017  3 9 0059 29.9 L   6.846 -73.109145.9  RSN 12 0.6 1.7LRSN                1
 GAP=120        0.85       3.5     4.1  5.0  0.1940E+01  0.4196E+01  0.3704E+01E
 Epicentro: LOS SANTOS - SANTANDER                                             3
 ACTION:UPD 17-05-25 18:38 OP:jn   STATUS:               ID:20170309005929 L   I
 OLDACT:UP  17-03-09 14:06 OP:and  STATUS:               ID:20170309005741d    3
 OLDACT:UP  17-03-09 14:06 OP:and  STATUS:               ID:20170309005741d    3
 OLDACT:UP  17-03-09 14:04 OP:and  STATUS:               ID:20170309005741d    3
 OLDACT:UP  17-03-09 14:04 OP:and  STATUS:               ID:20170309005741d    3
 OLDACT:UP  17-03-09 14:03 OP:and  STATUS:               ID:20170309005741d    3
 OLDACT:UP  17-03-09 14:01 OP:and  STATUS:               ID:20170309005741d    3
 OLDACT:UP  17-03-09 14:01 OP:and  STATUS:               ID:20170309005741d    3
 OLDACT:UP  17-03-09 14:01 OP:and  STATUS:               ID:20170309005741d    3
 OLDACT:DUP 17-03-09 13:59 OP:and  STATUS:               ID:20170309005741d    3
 2017-03-09-0058-00M.COL___403                                                 6
 STAT SP IPHASW D HRMM SECON CODA AMPLIT PERI AZIMU VELO AIN AR TRES W  DIS CAZ7
 BAR2 EZ EP        059 49.59                             168   -0.1110 29.2 196 
 BAR2 EZ ES        1 0  4.40                             168   -0.7310 29.2 196 
 BAR2 EZ I         1 0  6.74         8.1 0.09            165           29.2 196 
 PAM  EZ IP     C  059 52.25                             152    0.4710 70.9  40 
 PAM  EN ES        1 0  8.87                             152    0.0410 70.9  40 
 PAM  EZ I         1 0  9.84         4.6 0.29            159           70.9  40 
 BRR  HZ IP     D  059 51.20                             152    0.0410 72.6 293 
 BRR  HN ES        1 0  8.28                             152    0.5410 72.6 293 
 BRR  HZ I         1 0 16.08         9.7 0.54            149           72.6 293 
 RUS  HZ EP        059 53.92                             142   -0.1210  105 178 
 RUS  HN ES        1 0 12.83                             142   -0.0210  105 178 
 RUS  HZ I         1 0 14.35         7.4 0.36            144            105 178 
 PTB  HN ES   2    1 0 18.05                             131   -0.71 5  153 257 
 SPBC HZ EP        059 59.17                             128    0.12 9  170 219 
 SPBC HN ES   2    1 0 22.30                             128    0.53 5  170 219 
 SPBC HZ I         1 0 29.04         5.3 0.12            128            170 219 
 ZAR  HZ EP   3    1 0  4.38                             122    1.81 2  206 290 
 ZAR  HN ES        1 0 27.57                             122   -0.48 8  206 290 
 ZAR  HZ I         1 0 33.07         6.3 0.40            123            206 290 
 NOR  HZ EP   2    1 0  7.13                             118    0.80 4  241 234 
 NOR  HN ES   3    1 0 35.93                             118    1.20 2  241 234 
 NOR  HZ I         1 0 40.74         3.3 0.22            119            241 234 
 CHI  HZ EP        1 0  8.54                             116    0.27 8  255 196 
 CHI  HN ES   3    1 0 39.54                             116    1.35 2  255 196 
 GUY2CHZ EP   4    1 0 15.68                             112    1.44 0  307 234 
 GUY2CHN ES   4    1 0 51.67                             112    2.86 0  307 234 
 PTGC HZ EP   2    1 0 13.04                             111   -1.11 3  312 160 
 PTGC HN ES   2    1 0 48.36                             111   -0.29 3  312 160 
 PRA  HZ EP   2    1 0 24.79                             106    0.60 3  398 210 
 PRA  HN ES   2    1 1  6.19                             106   -0.33 3  398 210 
 SJC  HZ EP        1 0 24.87                             106   -0.38 6  407 326 
 SJC  HN ES   3    1 1  6.20                             106   -2.21 1  407 326 
                                                                                
