 2013  9 9 0228 33.0 L   6.833 -73.146147.6  RSN  8 0.5 1.9LRSN                1
 GAP=135        1.13       4.5     5.8  7.6 -0.1197E+01  0.7537E+01  0.3146E+01E
 Epicentro: LOS SANTOS - SANTANDER                                             3
 ACTION:UPD 13-10-22 09:21 OP:ep   STATUS:               ID:20130909022833 L   I
 OLDACT:UP  13-09-09 09:13 OP:carl STATUS:               ID:20130909021959     3
 OLDACT:REG 13-09-09 08:03 OP:carl STATUS:               ID:20130909021959     3
 2013-09-09-0219-59M.COL___269                                                 6
 STAT SP IPHASW D HRMM SECON CODA AMPLIT PERI AZIMU VELO AIN AR TRES W  DIS CAZ7
 BAR2 SZ EP        228 52.76                             169   -0.1610 26.9 189 
 BAR2 SZ ES        229  7.91                             169   -0.5610 26.9 189 
 BAR2 SZ I         229  8.73        17.8 0.28            167           26.9 189 
 BRR  HZ EP        228 54.64                             153    0.3910 69.5 296 
 BRR  HN ES        229 11.70                             153    0.8710 69.5 296 
 BRR  HZ I         229 15.26        21.3 0.12            151           69.5 296 
 PAM  SZ EP        228 55.56                             152    0.3110 74.6  41 
 PAM  SN ES   1    229 12.72                             152    0.12 7 74.6  41 
 PAM  SZ I         229 14.34        13.4 0.18            157           74.6  41 
 RUS  HZ EP        228 57.41                             143    0.2210  104 176 
 RUS  HN ES   1    229 16.03                             143   -0.03 7  104 176 
 RUS  HZ I         229 17.43         9.0 0.28            145            104 176 
 PTB  HZ EP        228 59.49                             132   -0.69 9  148 257 
 PTB  HN ES   1    229 20.63                             132   -0.75 7  148 257 
 PTB  HZ I         229 26.10         9.7 0.12            131            148 257 
 OCA  HN ES        229 22.39                             131   -0.66 9  157 353 
 SPBC HZ EP        229  1.90                             129   -0.00 9  166 218 
 SPBC HN ES   1    229 24.81                             129    0.36 7  166 218 
 SPBC HZ I         229 30.61         9.5 0.20            129            166 218 
 ZAR  HZ EP   1    229  5.73                             123    0.31 6  203 291 
 ZAR  HE ES   1    229 30.98                             123    0.26 6  203 291 
 ZAR  HZ I         229 36.53        12.7 0.28            123            203 291 
                                                                                
