 2015  2 9 0607 19.6 L   6.578 -73.542104.7  RSN 26 0.5 2.2LRSN                1
 GAP= 52        1.14       2.2     2.5  4.9 -0.1701E+01  0.3569E+01 -0.1072E+00E
 Epicentro: EL CARMEN - SANTANDER                                              3
 ACTION:UPD 15-04-30 21:24 OP:nd   STATUS:               ID:20150209060719 L   I
 OLDACT:REG 15-02-09 13:25 OP:fm   STATUS:               ID:20150209055735     3
 2015-02-09-0557-35M.COL___292                                                 6
 STAT SP IPHASW D HRMM SECON CODA AMPLIT PERI AZIMU VELO AIN AR TRES W  DIS CAZ7
 BAR2 EZ EP        6 7 35.81                             158    0.8410 39.8  88 
 BAR2 EZ ES        6 7 47.20                             158    0.2710 39.8  88 
 BRR  HZ IP     C  6 7 36.54                             147    0.6910 61.5 342 
 BRR  HE ES        6 7 48.92                             147    0.4210 61.5 342 
 BRR  HZ I         6 8  0.16        43.7 0.14            145           61.5 342 
 RUS  HZ EP        6 7 39.03                             136    0.2310 91.2 146 
 RUS  HN ES        6 7 53.47                             136   -0.2910 91.2 146 
 PTB  HZ EP     C  6 7 38.68                             132   -0.3510  101 268 
 PTB  HN ES        6 7 53.26                             132   -0.9010  101 268 
 PTB  HZ I         6 7 57.17        29.6 0.34            131            101 268 
 SPBC HZ EP        6 7 40.84                             127    0.1410  118 210 
 SPBC HE ES        6 7 56.98                             127   -0.1610  118 210 
 SPBC HZ I         6 8  1.58        34.0 0.38            129            118 210 
 PAM  SZ EP        6 7 42.41                             126    0.4510  126  48 
 PAM  SE ES        6 7 58.74                             126   -0.6410  126  48 
 PAM  SZ I         6 8  1.44        22.3 0.40            129            126  48 
 NOR  HZ EP        6 7 47.61                             114   -0.07 9  185 233 
 NOR  HE ES        6 8  9.36                             114   -0.21 9  185 233 
 NOR  HZ I         6 8 12.63        18.8 0.18            115            185 233 
 OCA  HZ EP        6 7 47.79                             114   -0.07 9  185   8 
 OCA  HE ES        6 8  9.10                             114   -0.78 9  185   8 
 OCA  HZ I         6 8 16.70        39.6 0.32            116            185   8 
 TAM  HZ EP        6 7 48.60                             113   -0.12 9  194  95 
 TAM  HE ES        6 8 11.04                             113   -0.37 9  194  95 
 ROSC BZ EP        6 7 50.86                             111   -0.16 8  211 204 
 ROSC BE ES        6 8 15.53                             111    0.03 8  211 204 
 ROSC BZ I         6 8 24.06         8.0 0.25            112            211 204 
 CHI  HE ES        6 8 16.46                             110   -0.27 8  216 186 
 CHI  HZ I         6 8 22.24         5.9 0.28            112            216 186 
 HEL  HZ EP        6 7 52.88                             109    0.37 8  224 259 
 HEL  HE ES        6 8 18.10                             109   -0.06 8  224 259 
 HEL  HZ I         6 8 26.16        12.8 0.26            110            224 259 
 GUY2CHZ EP        6 7 56.52                             107    0.70 8  251 234 
 GUY2CHN ES        6 8 24.02                             107   -0.02 8  251 234 
 GUY2CHZ I         6 8 33.66         9.4 0.40                           251 234 
 SML  HZ EP        6 7 55.45                             106    0.07 8  253 347 
 SML  HE ES        6 8 24.26                             106    1.00 8  253 347 
 SML  HZ I         6 8 29.68        28.0 0.24            107            253 347 
 URE  HE ES   4    6 8 20.34                             106   -3.52 0  255 301 
 URE  HZ I         6 8 31.26        24.1 0.34            107            255 301 
 RREF HZ EP   4    6 8  0.51                             105    1.98 0  273 227 
 RREF HZ I         6 8  1.42                                            273 227 
 RREF HN ES        6 8 28.68                             105   -0.19 8  273 227 
 RREF HZ I         6 8 40.73         8.1 0.26            106            273 227 
 CBOC HZ EP        6 8  0.23                             104    0.88 7  285 254 
 CBOC HN ES   4    6 8 31.37                             104    1.04 0  285 254 
 CBOC HZ I         6 8 38.92         4.8 0.26            105            285 254 
 TOL  SZ EP        6 8  1.31                             103    0.45 7  296 222 
 TOL  SE ES   4    6 8 30.39                             103   -2.63 0  296 222 
 TOL  SZ I         6 8 43.54         4.2 0.16            104            296 222 
 PTGC HZ EP   4    6 8  0.47                             102   -1.19 0  306 149 
 PTGC HE ES   4    6 8 32.34                             102   -2.11 0  306 149 
 PTGC HZ I         6 8 34.36         7.3 0.26            105            306 149 
 MON  HZ EP        6 8  4.50                             100   -0.97 7  338 316 
 MON  HE ES        6 8 40.46                             100   -0.77 7  338 316 
 MON  HZ I         6 8 43.28         7.8 0.18            101            338 316 
 ORTC HZ EP        6 8  7.20                             100    0.16 6  350 213 
 ORTC HE ES        6 8 43.79                             100   -0.24 6  350 213 
 ORTC HZ I         6 8 52.85         4.1 0.40            101            350 213 
 PAL  HZ EP        6 8  8.14                              99    0.45 6  356 239 
 PAL  HE ES        6 8 44.91                              99   -0.28 6  356 239 
 PAL  HZ I         6 8 51.89         3.6 0.38            101            356 239 
 ARGC HZ EP   4    6 8 11.35                              99    1.88 0  371 348 
 ARGC HE ES   4    6 8 50.13                              99    1.79 0  371 348 
 ARGC HZ I         6 9  0.05         5.4 0.32            100            371 348 
 SDV  BZ EP        6 8 13.57                              97   -0.84 6  410  51 
 SDV  BE ES   4 C  6 8 50.78                              97   -6.37 0  410  51 
 SDV  BZ I         6 8 58.36         4.6 0.40             99            410  51 
 CRJC HZ EP   1    6 8 23.90                              94   -0.91 3  497   8 
 CRJC HE ES   4    6 9 11.49                              94   -4.17 0  497   8 
 CRJC HZ I         6 9 24.43         8.2 0.48             96            497   8 
 URI  HE ES   4    6 9 32.30                              92   -3.74 0  592  17 
 URI  HZ I         6 9 40.90         1.8 0.78             94            592  17 
                                                                                
