 2013  7 9 0544 34.6 L   6.064 -73.517125.6  RSN  4 0.3 1.4LRSN                1
 GAP=265        0.78       8.3     4.6  7.9  0.7229E+01  0.1318E+02  0.2240E+02E
 Epicentro: SAN BENITO - SANTANDER                                             3
 ACTION:UPD 13-08-12 10:36 OP:ep   STATUS:               ID:20130709054434 L   I
 OLDACT:REG 13-07-09 07:44 OP:nd   STATUS:               ID:20130709053959     3
 2013-07-09-0539-59M.COL___266                                                 6
 STAT SP IPHASW D HRMM SECON CODA AMPLIT PERI AZIMU VELO AIN AR TRES W  DIS CAZ7
 BAR2 SZ EP        544 53.93                             149    0.0910 69.2  32 
 BAR2 SZ ES        545  9.05                             149    0.2210 69.2  32 
 BAR2 SZ I         545  9.91         8.5 0.16            143           69.2  32 
 PTB  HZ EP        544 57.25                             134    0.1310  117 297 
 PTB  HN ES        545 14.45                             134   -0.2210  117 297 
 PTB  HZ I         545 15.79         3.0 0.16            130            117 297 
 BRR  HZ EP        544 57.14                             134   -0.0310  117 349 
 BRR  HN ES        545 14.38                             134   -0.3810  117 349 
 BRR  HZ I         545 17.37         3.1 0.48            129            117 349 
 ZAR  HZ EP        545  6.81                             116   -0.40 8  217 317 
 ZAR  HE ES        545 33.26                             116    0.64 8  217 317 
 ZAR  HZ I         545 38.75         3.3 0.28            113            217 317 
                                                                                
