 2013  7 9 0923 18.0 L   6.859 -73.185143.6  RSN  5 0.5 1.8LRSN                1
 GAP=204        1.05       6.1     8.3  8.0 -0.6453E+01  0.1530E+02 -0.4939E+01E
 Epicentro: ZAPATOCA - SANTANDER                                               3
 ACTION:UPD 13-08-12 10:36 OP:ep   STATUS:               ID:20130709092318 L   I
 OLDACT:REG 13-07-09 07:52 OP:nd   STATUS:               ID:20130709091959     3
 2013-07-09-0919-59M.COL___265                                                 6
 STAT SP IPHASW D HRMM SECON CODA AMPLIT PERI AZIMU VELO AIN AR TRES W  DIS CAZ7
 BAR2 SZ EP        923 37.19                             168   -0.3610 29.5 179 
 BAR2 SZ ES        923 52.62                             168   -0.1510 29.5 179 
 BAR2 SZ I         923 54.95        11.7 0.30            166           29.5 179 
 BRR  HZ IP     D  923 39.21                             154    0.6310 64.3 295 
 BRR  HN ES   2    923 55.64                             154    1.05 5 64.3 295 
 BRR  HZ I         923 59.76         5.4 0.16            148           64.3 295 
 PTB  HZ EP        923 44.33                             132   -0.24 9  145 256 
 PTB  HN ES        924  4.83                             132   -0.43 9  145 256 
 PTB  HZ I         924 12.62         7.6 0.46            130            145 256 
 SML  HZ EP        923 53.90                             118    0.19 8  236 336 
 SML  HN ES   2    924 20.70                             118   -0.82 4  236 336 
 SML  HZ I         924 25.82        13.9 0.26            119            236 336 
 PRA  HZ EP        924 11.56                             106   -0.35 6  396 209 
 PRA  HN ES        924 54.88                             106    0.96 6  396 209 
 PRA  HZ I         924 59.05         2.2 0.38            108            396 209 
                                                                                
