 2013  2 9 0932 25.9 L   6.777 -73.169154.0  RSN  7 0.4 1.6LRSN                1
 GAP=198        0.79       4.1     6.6  7.1  0.1268E+02 -0.8309E+01  0.2859E+00E
 Epicentro: LOS SANTOS - SANTANDER                                             3
 ACTION:UPD 13-03-12 09:31 OP:ep   STATUS:               ID:20130209093225 L   I
 2013-02-09-0930-00M.COL___240                                                 6
 STAT SP IPHASW D HRMM SECON CODA AMPLIT PERI AZIMU VELO AIN AR TRES W  DIS CAZ7
 BAR2 SZ EP   1    932 46.30                             172   -0.19 7 20.5 184 
 BAR2 SZ I         933  3.28         8.4 0.18            172           20.5 184 
 BRR  HZ EP   1    932 48.12                             154    0.21 7 70.2 301 
 BRR  HZ I         932 48.96         6.6 0.58            155           70.2 301 
 BRR  HN ES        933  5.48                             154    0.4210 70.2 301 
 RUS  HZ EP        932 50.15                             146   -0.1810 98.3 174 
 RUS  HN ES   1    933  8.85                             146   -0.52 7 98.3 174 
 RUS  HN I         933  9.74         6.8 0.34            145           98.3 174 
 PTB  HZ EP   1    932 53.19                             134   -0.12 7  145 260 
 PTB  HN ES   1    933 14.11                             134   -0.56 7  145 260 
 PTB  HN I         933 17.78         8.0 0.25            134            145 260 
 ZAR  HE ES   1    933 24.21                             124   -0.18 6  203 293 
 ZAR  HZ I         933 30.38         3.6 0.27            124            203 293 
 SML  HZ EP   1    933  2.62                             119   -0.53 6  245 336 
 SML  HN ES   1    933 32.55                             119    0.36 6  245 336 
 CHI  HZ EP        933  4.21                             119    0.46 8  246 195 
 CHI  HN ES   1    933 33.91                             119    0.65 6  246 195 
 CHI  HZ I         933 39.53         1.3 0.35            118            246 195 
                                                                                
