 2014  2 9 0302 50.6 L   6.769 -73.167147.5  RSN  9 0.5 1.8LRSN                1
 GAP=135        0.91       4.2     6.0  7.3 -0.2845E+01  0.5779E+01  0.4653E+01E
 Epicentro: LOS SANTOS - SANTANDER                                             3
 ACTION:UPD 14-03-10 08:08 OP:ep   STATUS:               ID:20140209030250 L   I
 OLDACT:UP  14-02-09 10:11 OP:mh   STATUS:               ID:20140209030000     3
 OLDACT:UP  14-02-09 10:11 OP:mh   STATUS:               ID:20140209030000     3
 OLDACT:UP  14-02-09 10:08 OP:mh   STATUS:               ID:20140209030000     3
 OLDACT:REG 14-02-09 07:54 OP:mh   STATUS:               ID:20140209030000     3
 2014-02-09-0300-00M.COL___291                                                 6
 STAT SP IPHASW D HRMM SECON CODA AMPLIT PERI AZIMU VELO AIN AR TRES W  DIS CAZ7
 BAR2 SZ EP   1    3 3 10.36                             172   -0.05 7 19.6 185 
 BAR2 SZ ES   1    3 3 26.06                             172    0.22 7 19.6 185 
 BAR2 SZ I         3 3 26.90        37.6 0.21            171           19.6 185 
 BRR  HZ EP     D  3 3 12.31                             153    0.3510 70.9 302 
 BRR  HN ES   1    3 3 29.41                             153    0.81 7 70.9 302 
 BRR  HZ I         3 3 30.45         8.2 0.33            150           70.9 302 
 PAM  SZ EP   1    3 3 13.36                             150    0.07 7 81.5  39 
 PAM  SZ I         3 3 32.78         6.1 0.53            140           81.5  39 
 RUS  HZ EP     C  3 3 14.28                             145   -0.0510 97.3 175 
 RUS  HN ES   1    3 3 32.48                             145   -0.33 7 97.3 175 
 RUS  HZ I         3 3 34.30         4.4 0.29            140           97.3 175 
 PTB  HZ EP   1    3 3 17.22                             133   -0.27 7  145 260 
 PTB  HN ES   1    3 3 38.10                             133   -0.33 7  145 260 
 PTB  HZ I         3 3 42.91         9.5 0.17            129            145 260 
 OCA  HN ES        3 3 41.18                             130   -0.63 9  163 354 
 NOR  HZ EP   1    3 3 26.79                             119    0.73 6  231 235 
 NOR  HN ES   1    3 3 53.00                             119   -0.68 6  231 235 
 NOR  HZ I         3 4  0.70         7.1 0.17            115            231 235 
 HEL  HZ EP   4    3 3 32.26                             115    1.66 0  269 256 
 HEL  HN ES   4    3 4  4.91                             115    3.14 0  269 256 
 GUY2CHZ EP   1    3 3 34.57                             113    0.68 5  297 235 
 GUY2CHE ES   4    3 4 10.35                             113    2.72 0  297 235 
 PRA  HZ EP   1    3 3 43.25                             107   -0.49 4  388 210 
 PRA  HN ES   4    3 4 26.85                             107    1.70 0  388 210 
 PRA  HZ I         3 4 32.98         3.9 0.21            103            388 210 
 ORTC HE ES   4    3 4 27.64                             107    1.78 0  391 216 
                                                                                
