 2012 12 9 0327 41.5 L   6.733 -73.184152.1  RSN  6 0.3 1.3LRSN                1
 GAP=178        0.45       3.9     4.7  8.8  0.5723E+00  0.1855E+01 -0.1822E+02E
 Epicentro: VILLANUEVA - SANTANDER                                             3
 ACTION:UPD 13-01-04 14:26 OP:ep   STATUS:               ID:20121209032741 L   I
 2012-12-09-0320-00M.COL___243                                                 6
 STAT SP IPHASW D HRMM SECON CODA AMPLIT PERI AZIMU VELO AIN AR TRES W  DIS CAZ7
 BAR2 SZ EP   1    328  1.95                             174    0.23 7 15.6 179 
 BAR2 SZ I         328 18.83         3.9 0.28                          15.6 179 
 RUS  HN ES   2    328 23.49                             147   -0.51 5 93.6 173 
 PTB  HZ EP   1    328  8.57                             134    0.10 7  142 261 
 PTB  HN ES   1    328 29.63                             134    0.09 7  142 261 
 PTB  HZ I         328 38.02         1.2 0.10                           142 261 
 OCA  HN ES   2    328 34.16                             130    0.29 5  167 355 
 SML  HZ EP   1    328 18.81                             118   -0.17 6  249 337 
 SML  HN ES   2    328 47.86                             118   -0.39 4  249 337 
 SML  HZ I         328 50.84         3.8 0.24                           249 337 
 MON  HN ES   2    329  9.05                             110   -0.36 3  355 310 
                                                                                
