 2012  1 9 0218 18.4 L   7.368 -73.199130.0  RSN  7 0.2 1.4LRSN                1
 GAP=179        0.38       4.2     2.7  4.2  0.1646E+00 -0.3726E+00  0.3471E+01E
 Epicentro: RIONEGRO - SANTANDER                                               3
 ACTION:UP  12-02-03 08:15 OP:REBC STATUS:               ID:20120109021818 L   I
 2012-01-09-0210-00M.COL___186                                                 6
 STAT SP IPHASW D HRMM SECON CODA AMPLIT PERI AZIMU VELO SNR AR TRES W  DIS CAZ7
 GIR2 SZ EP   1    218 36.19                             165     0.0 7   32 179 
 GIR2 SZ ES   2    218 49.78                             165    -0.3 5   32 179 
 PAM  SZ EP   1    218 37.57                             156    -0.1 7   55  93 
 PAM  SN ES   2    218 52.60                             156    -0.1 5   55  93 
 BRR  HZ EP        218 37.38                             152     0.010   64 243 
 BRR  HN ES   1    218 52.50                             152     0.3 7   64 243 
 BRR  HZ I         218 53.48        12.2 0.14                            64 243 
 BAR2 SZ EP        218 39.25                             145     0.110   86 179 
 BAR2 SZ I         218 39.82         6.7 0.10                            86 179 
 RUS  HZ EP   1    218 46.15                             125    -0.1 7  164 176 
 RUS  HZ I         218 47.00         1.4 0.25                           164 176 
 RUS  HN ES   2    219  7.98                             125    -0.1 5  164 176 
 PTB  HZ EP   2    218 45.96                             125     0.0 5  166 237 
 PTB  HE ES   2    219  7.12                             125    -0.3 5  166 237 
 ZAR  HN ES   2    219 10.22                             122    -0.3 4  184 274 
                                                                                
