 2015  1 9 0253 53.8 L   6.859 -73.175139.2  RSN  4 0.1 1.2LRSN                1
 GAP=278        0.40       3.5     3.1  4.7  0.4835E+01 -0.2637E+01 -0.4310E+01E
 Epicentro: ZAPATOCA - SANTANDER                                               3
 ACTION:UPD 15-03-02 15:38 OP:nd   STATUS:               ID:20150109025353 L   I
 OLDACT:REG 15-01-09 13:51 OP:cam  STATUS:               ID:20150109024814     3
 2015-01-09-0248-14M.COL___265                                                 6
 STAT SP IPHASW D HRMM SECON CODA AMPLIT PERI AZIMU VELO AIN AR TRES W  DIS CAZ7
 RUS  HZ EP        254 17.45                             140    0.0510  107 175 
 RUS  HN ES        254 35.77                             140   -0.0510  107 175 
 RUS  HZ I         254 37.35         1.6 0.36            138            107 175 
 PTB  HZ EP        254 20.00                             131   -0.05 9  146 256 
 PTB  HN ES        254 40.46                             131   -0.08 9  146 256 
 PTB  HZ I         254 42.98         2.7 0.40            129            146 256 
 SPBC HN ES        254 44.40                             127    0.24 9  166 217 
 CHI  HZ EP        254 31.79                             115    0.07 8  254 194 
 CHI  HN ES        255  1.10                             115   -0.21 8  254 194 
 CHI  HZ I         255  5.90         1.5 0.56            114            254 194 
                                                                                
