 2013  8 9 0538 28.0 L   6.809 -73.158148.0  RSN  9 0.3 1.6LRSN                1
 GAP=135        0.78       3.5     4.8  5.1 -0.1212E+01  0.5797E+01  0.3592E+01E
 Epicentro: LOS SANTOS - SANTANDER                                             3
 ACTION:UPD 14-01-14 09:00 OP:ep   STATUS:               ID:20130809053828 L   I
 OLDACT:REG 13-08-09 06:41 OP:jn   STATUS:               ID:20130809052959     3
 2013-08-09-0529-59M.COL___266                                                 6
 STAT SP IPHASW D HRMM SECON CODA AMPLIT PERI AZIMU VELO AIN AR TRES W  DIS CAZ7
 BAR2 SZ EP        538 47.91                             170   -0.0310 24.1 186 
 BAR2 SZ ES        539  3.13                             170   -0.3410 24.1 186 
 BAR2 SZ I         539  5.62        10.4 0.28            167           24.1 186 
 GIR2 SZ EP        538 48.04                             168    0.1010 30.1 352 
 GIR2 SZ ES        539  3.71                             168    0.2510 30.1 352 
 GIR2 SZ I         539  4.53         7.9 0.14            159           30.1 352 
 BRR  HZ EP        538 49.71                             153    0.3810 69.5 298 
 BRR  HN ES        539  6.34                             153    0.4010 69.5 298 
 BRR  HZ I         539 10.13         8.7 0.16            141           69.5 298 
 PAM  SN ES   1    539  8.03                             151    0.03 7 77.5  41 
 RUS  HZ EP        538 51.90                             144   -0.1810  102 175 
 RUS  HN ES   1    539 10.76                             144   -0.08 7  102 175 
 RUS  HZ I         539 12.66         3.4 0.26            139            102 175 
 PTB  HZ EP   1    538 55.00                             133   -0.08 7  147 258 
 PTB  HN ES   1    539 15.34                             133   -0.83 7  147 258 
 PTB  HZ I         539 16.77         5.9 0.16            122            147 258 
 OCA  HN ES   1    539 17.80                             130   -0.74 7  159 354 
 OCA  HZ I         539 21.45         4.0 0.28            121            159 354 
 SPBC HZ EP        538 56.87                             130    0.17 9  163 218 
 SPBC HN ES   1    539 19.30                             130    0.25 7  163 218 
 SPBC HZ I         539 25.17         6.8 0.26            121            163 218 
 ZAR  HZ EP   1    539  0.41                             123   -0.04 6  202 292 
 ZAR  HZ I         539 30.75         3.7 0.22            113            202 292 
                                                                                
