 2012  5 9 0701  9.3 L   6.737 -73.120140.0  RSN  6 0.5 1.3LRSN                1
 GAP=143        0.92       7.1     7.6 12.1  0.2064E+01 -0.1660E+02  0.1130E+02E
 Epicentro: JORDAN - SANTANDER                                                 3
 ACTION:UP  12-07-05 12:03 OP:pat  STATUS:               ID:20120509070109 L   I
 2012-05-09-0700-00M.COL___192                                                 6
 STAT SP IPHASW D HRMM SECON CODA AMPLIT PERI AZIMU VELO SNR AR TRES W  DIS CAZ7
 BAR2 SZ EP        7 1 28.16                             173     0.010   17 203 
 BRR  HZ EP        7 1 29.97                             150    -0.210   77 302 
 BRR  HN ES   1    7 1 47.04                             150     0.5 7   77 302 
 BRR  HZ I         7 1 49.92         5.0 0.12                            77 302 
 PAM  SZ EP        7 1 31.15                             149     0.010   81  35 
 PAM  SN ES   2    7 1 47.94                             149    -0.3 5   81  35 
 RUS  HZ EP        7 1 31.92                             145    -0.110   93 177 
 RUS  HN ES   2    7 1 50.33                             145     0.6 5   93 177 
 RUS  HZ I         7 1 51.88         1.9 0.24                            93 177 
 PTB  HN ES   2    7 1 55.70                             131    -1.1 5  149 262 
 ZAR  HZ EP   2    7 1 42.98                             121     1.0 4  209 294 
 ZAR  HZ I         7 2 13.74         2.8 0.26                           209 294 
                                                                                
