 2011 11 9 0341 46.9 L   6.797 -73.109149.1  RSN  8 0.3 1.7LRSN                1
 GAP=141        0.60       2.9     3.6  5.5 -0.2975E+00  0.2766E+01  0.3595E+01E
 Epicentro: LOS SANTOS - SANTANDER                                             3
 ACTION:UPD 12-07-13 16:09 OP:ep   STATUS:               ID:20111109034148dL   I
 2011-11-09-0340-16S.COL___178                                                 6
 STAT SP IPHASW D HRMM SECON CODA AMPLIT PERI AZIMU VELO AIN AR TRES W  DIS CAZ7
 BAR2 SZ EP   1    342  6.84                             170   -0.16 7 24.0 200 
 BAR2 SZ I         342  8.25         9.8 0.38                          24.0 200 
 BRR  HZ EP   1    342  8.88                             152    0.21 7 74.9 297 
 BRR  HZ I         342  9.21        12.8 0.14                          74.9 297 
 BRR  HN ES        342 25.83                             152    0.2110 74.9 297 
 PAM  SZ EP   1    342  9.59                             152    0.20 7 75.1  37 
 PAM  SN ES   1    342 26.92                             152    0.02 7 75.1  37 
 PAM  SZ I         342 29.34         3.0 0.22                          75.1  37 
 RUS  HZ EP   1    342 10.89                             145   -0.11 7  100 178 
 RUS  HN ES   1    342 29.55                             145   -0.20 7  100 178 
 RUS  HZ I         342 30.92         3.1 0.28                           100 178 
 OCA  SZ EP   1    342 15.99                             130    0.39 7  161 352 
 OCA  SZ ES   1    342 37.53                             130   -0.42 7  161 352 
 OCA  SZ I         342 43.51         6.0 0.22                           161 352 
 ZAR  HE ES   1    342 45.15                             123   -0.65 6  208 292 
 HEL  HN ES   1    343  0.03                             115    0.44 6  276 256 
 PRA  HZ EP   1    342 40.28                             107   -0.51 4  394 210 
 PRA  HN ES   1    343 23.01                             107    0.23 4  394 210 
 PRA  HZ I         343 26.15         4.5 0.32                           394 210 
                                                                                
