 2012  4 9 0700 44.7 L   6.789 -73.146146.2  RSN  6 0.3 1.4LRSN                1
 GAP=137        0.65       5.3     4.3  7.6  0.2254E+01  0.4945E+01  0.7153E+01E
 Epicentro: LOS SANTOS - SANTANDER                                             3
 ACTION:UPD 12-07-05 11:52 OP:tino STATUS:               ID:20120409070044 L   I
 2012-04-09-0657-29S.COL___204                                                 6
 STAT SP IPHASW D HRMM SECON CODA AMPLIT PERI AZIMU VELO AIN AR TRES W  DIS CAZ7
 BAR2 SZ EP   2    7 1  4.32                             171     0.0 5   22 190 
 BAR2 SZ ES   2    7 1 19.33                             171    -0.3 5   22 190 
 BRR  HZ EP   1    7 1  6.04                             152     0.2 7   72 299 
 BRR  HE ES   1    7 1 22.95                             152     0.5 7   72 299 
 BRR  HZ I         7 1 27.63         6.5 0.21                            72 299 
 PAM  SZ EP   1    7 1  6.99                             151     0.0 7   78  39 
 PAM  SN ES   1    7 1 24.07                             151    -0.3 7   78  39 
 PAM  SZ I         7 1 25.90         3.9 0.51                            78  39 
 RUS  HZ EP   1    7 1  8.70                             144     0.3 7   99 176 
 RUS  HE ES   2    7 1 26.84                             144     0.0 5   99 176 
 RUS  HZ I         7 1 28.74         4.8 0.31                            99 176 
 PTB  HZ EP   2    7 1 10.97                             132    -0.7 5  147 259 
 PTB  HN ES   2    7 1 32.12                             132    -0.6 5  147 259 
 ZAR  HN ES   1    7 1 42.45                             122    -0.1 6  204 292 
                                                                                
