 2011  7 9 0326 35.1 L   6.807 -73.156139.1  RSN  7 0.4 1.6LRSN                1
 GAP=154        0.77       3.5     6.3  7.1 -0.5936E+01 -0.1469E+00 -0.4189E+01E
 Epicentro: LOS SANTOS - SANTANDER                                             3
 ACTION:UPD 12-07-25 13:59 OP:epov STATUS:               ID:20110709032634 L   I
 2011-07-09-0324-54S.COL___140                                                 6
 STAT SP IPHASW D HRMM SECON CODA AMPLIT PERI AZIMU VELO AIN AR TRES W  DIS CAZ7
 BAR2 SZ EP   1    326 54.00                             170    0.07 7 23.9 187 
 BAR2 SZ ES   1    327  8.12                             170   -0.50 7 23.9 187 
 BAR2 SZ I         327  9.47        11.4 0.28                          23.9 187 
 BRR  HZ EP        326 55.64                             152    0.2010 69.9 298 
 BRR  HE ES   1    327 12.11                             152    0.79 7 69.9 298 
 BRR  HZ I         327 13.87        11.5 0.15                          69.9 298 
 RUS  HZ EP   1    326 58.49                             142    0.24 7  101 175 
 RUS  HN ES   1    327 16.47                             142    0.15 7  101 175 
 RUS  HZ I         327 17.15         3.6 0.20                           101 175 
 BRI  SZ EP   1    326 58.34                             140    0.02 7  108  21 
 BRI  SZ I         327 21.79         5.3 0.33                           108  21 
 GRA  SZ EP   1    326 59.66                             136   -0.05 7  125  18 
 GRA  SZ ES   1    327 18.47                             136   -0.45 7  125  18 
 GRA  SZ I         327 20.26         4.8 0.39                           125  18 
 OCA  SZ EP   1    327  2.83                             128    0.03 7  159 353 
 OCA  SZ ES   1    327 24.23                             128   -0.19 7  159 353 
 OCA  SZ I         327 25.48         5.5 0.27                           159 353 
 NOR  SN ES   1    327 37.13                             117   -0.79 6  234 234 
                                                                                
