 2017  5 9 0537 47.1 L   6.777 -73.406124.0  RSN  4 0.3 1.6LRSN                1
 GAP=203        0.74       5.0     4.9  6.4  0.1608E+02  0.2810E+01  0.5276E+00E
 Epicentro: SAN VICENTE DE CHUCURI - SANTANDER                                 3
 ACTION:UPD 17-06-16 13:34 OP:jn   STATUS:               ID:20170509053747 L   I
 OLDACT:DUP 17-05-09 15:07 OP:lv   STATUS:               ID:20170509052739d    3
 2017-05-09-0528-00M.COL___356                                                 6
 STAT SP IPHASW D HRMM SECON CODA AMPLIT PERI AZIMU VELO AIN AR TRES W  DIS CAZ7
 BRR  HZ EP        538  4.33                             157   -0.3810 49.7 317 
 BRR  HN ES        538 18.47                             157    0.0110 49.7 317 
 BRR  HZ I         538 19.33        11.7 0.08            156           49.7 317 
 RUS  HZ EP        538  9.21                             138    0.1610  104 160 
 RUS  HN ES        538 26.34                             138    0.1510  104 160 
 PTB  HZ EP        538  9.24                             133   -0.4410  119 257 
 PTB  HN ES        538 27.23                             133   -0.0710  119 257 
 PTB  HZ I         538 32.72         5.3 0.45            131            119 257 
 ZAR  HZ EP        538 15.88                             121    0.36 9  179 296 
 ZAR  HE ES        538 38.04                             121    0.34 9  179 296 
                                                                                
