 2016 10 9 0511 16.5 L   6.785 -73.164148.0  RSN  7 0.2 1.7LRSN                1
 GAP=135        0.61       2.2     2.8  5.3 -0.7481E+00  0.3124E+01  0.1970E+01E
 Epicentro: LOS SANTOS - SANTANDER                                             3
 ACTION:UPD 16-11-09 19:17 OP:rebc STATUS:               ID:20161009051116 L   I
 OLDACT:UP  16-10-09 17:24 OP:dani STATUS:               ID:20161009050750d    3
 OLDACT:DUP 16-10-09 17:21 OP:dani STATUS:               ID:20161009050750d    3
 OLDACT:UP  16-10-09 17:21 OP:dani STATUS:               ID:20161009050749     3
 OLDACT:UP  16-10-09 17:19 OP:dani STATUS:               ID:20161009050749     3
 OLDACT:UP  16-10-09 17:19 OP:dani STATUS:               ID:20161009050749     3
 OLDACT:UP  16-10-09 17:19 OP:dani STATUS:               ID:20161009050749     3
 OLDACT:UP  16-10-09 17:19 OP:dani STATUS:               ID:20161009050749     3
 OLDACT:REG 16-10-09 12:44 OP:dani STATUS:               ID:20161009050749     3
 2016-10-09-0508-00M.COL___354                                                 6
 STAT SP IPHASW D HRMM SECON CODA AMPLIT PERI AZIMU VELO AIN AR TRES W  DIS CAZ7
 PAM  EZ EP        511 39.11                             150   -0.0210 79.9  40 
 PAM  EN ES        511 56.90                             150    0.1410 79.9  40 
 PAM  EZ I         511 58.69         6.6 0.62             47           79.9  40 
 RUS  HZ EP        511 40.07                             145   -0.3310 99.1 175 
 RUS  HE ES        511 59.08                             145    0.0710 99.1 175 
 RUS  HZ I         512  0.21         6.9 0.25             47           99.1 175 
 PTB  HZ EP        511 43.15                             133   -0.33 9  146 259 
 PTB  HN ES        512  4.24                             133   -0.26 9  146 259 
 PTB  HZ I         512  6.77         3.9 0.19             47            146 259 
 SPBC HZ EP        511 45.27                             130    0.30 9  161 219 
 SPBC HN ES        512  7.20                             130    0.05 9  161 219 
 SPBC HZ I         512 10.67        12.1 0.13             47            161 219 
 OCA  HE ES        512  7.37                             130   -0.09 9  162 354 
 ZAR  HN ES        512 14.69                             123    0.37 9  203 293 
 CHI  HZ EP        511 54.41                             118    0.28 8  247 195 
 CHI  HZ I         512 28.03         4.4 0.08             37            247 195 
                                                                                
