 2015 12 9 0024 14.6 L   6.004 -73.684114.7  RSN 18 0.5 2.2LRSN                1
 GAP= 80        1.11       2.4     2.8  5.3 -0.1868E+01  0.4356E+01 -0.8233E+00E
 Epicentro: VELEZ - SANTANDER                                                  3
 ACTION:UPD 16-02-04 15:03 OP:cam  STATUS:               ID:20151209002414 L   I
 OLDACT:UP  15-12-09 15:07 OP:mh   STATUS:               ID:20151209001746     3
 OLDACT:REG 15-12-09 12:32 OP:mh   STATUS:               ID:20151209001746     3
 2015-12-09-0017-46M.COL___329                                                 6
 STAT SP IPHASW D HRMM SECON CODA AMPLIT PERI AZIMU VELO AIN AR TRES W  DIS CAZ7
 SPBC HZ EP        024 31.87                             151    0.0610 57.9 228 
 SPBC HN ES        024 45.19                             151   -0.0210 57.9 228 
 SPBC HZ I         024 51.57        51.5 0.10            152           57.9 228 
 RUS  HZ IP     D  024 32.83                             148   -0.1610 67.7 100 
 RUS  HN ES        024 46.56                             148   -0.7510 67.7 100 
 BAR2 EZ EP        024 34.18                             141    0.2710 85.5  40 
 BAR2 EZ ES        024 49.15                             141    0.2110 85.5  40 
 BAR2 EZ I         024 50.76       107.0 0.18            142           85.5  40 
 PTB  HZ EP     C  024 34.31                             135   -0.8010  104 305 
 PTB  HN ES        024 50.65                             135   -0.4310  104 305 
 PTB  HZ I         024 53.28        14.7 0.38            135            104 305 
 BRR  HZ EP        024 36.85                             130    0.1210  122 359 
 BRR  HN ES        024 54.74                             130    0.7810  122 359 
 BRR  HZ I         024 56.01        30.2 0.14            131            122 359 
 NOR  HZ EP   1    024 37.74                             125   -0.79 7  140 250 
 NOR  HN ES        024 57.51                             125    0.33 9  140 250 
 NOR  HZ I         024 59.28        24.5 0.18            127            140 250 
 ROSC BZ EP   4    024 42.80                             124    3.14 0  147 209 
 ROSC BN ES   4    025  0.55                             124    1.38 0  147 209 
 ROSC BZ I         025  2.23        14.3 0.35            126            147 209 
 PAM  EZ EP   1    024 43.63                             118   -0.00 7  184  36 
 PAM  EN ES        025  6.20                             118   -0.05 9  184  36 
 PAM  EZ I         025  8.87        14.2 0.20            119            184  36 
 GUY2CHZ EP   1    024 46.36                             115    0.37 6  205 245 
 GUY2CHE ES   4    025 11.72                             115    1.28 0  205 245 
 GUY2CHZ I         025 18.43         7.2 0.28                           205 245 
 HEL  HZ EP   1    024 46.26                             115    0.40 6  205 276 
 HEL  HN ES        025  9.66                             115   -0.55 9  205 276 
 VIL  SN ES        025 11.36                             114    0.90 8  209 180 
 ZAR  HZ EP   1    024 45.35                             114   -0.53 6  210 322 
 ZAR  HN ES        025 10.83                             114    0.58 8  210 322 
 ZAR  HZ I         025 12.00        17.7 0.28            115            210 322 
 OCA  HZ EP        024 50.36                             109   -0.34 8  250   9 
 OCA  HN ES        025 19.58                             109    0.75 8  250   9 
 OCA  HZ I         025 23.43        18.7 0.30            111            250   9 
 CBOC HZ EP        024 51.51                             109   -0.11 8  258 267 
 CBOC HN ES        025 20.13                             109   -0.33 8  258 267 
 URE  HZ EP   4    024 52.30                             107   -1.79 0  281 314 
 URE  HN ES   4    025 22.91                             107   -1.95 0  281 314 
 PRA  HZ EP        024 54.19                             106   -0.51 7  286 208 
 PRA  HN ES        025 26.17                             106    0.22 7  286 208 
 PRA  HZ I         025 31.37         9.5 0.30            108            286 208 
 ORTC HZ EP        024 54.84                             106   -0.22 7  289 217 
 ORTC HE ES        025 27.45                             106    0.87 7  289 217 
 ORTC HZ I         025 31.97         5.6 0.56            107            289 217 
 DBB  SZ EP        024 56.45                             105   -0.04 7  301 292 
 DBB  SZ ES        025 29.59                             105    0.46 7  301 292 
 SML  HZ EP        024 57.13                             105   -0.58 7  312 352 
 SML  HN ES        025 31.36                             105    0.05 7  312 352 
 SML  HZ I         025 46.53        11.3 0.10            106            312 352 
                                                                                
