 2013  2 9 0631 15.5 L   6.857 -73.172141.1  RSN  5 0.4 1.1LRSN                1
 GAP=130        0.73       3.8     5.5  8.3 -0.4434E+01  0.1680E+02  0.3137E+00E
 Epicentro: ZAPATOCA - SANTANDER                                               3
 ACTION:UPD 13-03-12 09:31 OP:ep   STATUS:               ID:20130209063115 L   I
 2013-02-09-0630-00M.COL___240                                                 6
 STAT SP IPHASW D HRMM SECON CODA AMPLIT PERI AZIMU VELO AIN AR TRES W  DIS CAZ7
 PAM  SZ EP   1    631 37.45                             151    0.35 8 74.6  44 
 PAM  SZ I         631 37.72         2.5 0.24            157           74.6  44 
 PAM  SN ES   1    631 53.85                             151   -0.06 8 74.6  44 
 RUS  HZ EP   1    631 38.75                             141   -0.58 8  107 175 
 RUS  HN ES   1    631 57.85                             141   -0.04 8  107 175 
 RUS  HN I         632  0.31         2.7 0.35            141            107 175 
 PTB  HZ EP        631 42.34                             131    0.3310  146 256 
 PTB  HE ES   1    632  2.34                             131   -0.30 7  146 256 
 PTB  HZ I         632  7.29         1.9 0.18            131            146 256 
 SML  HZ EP   1    631 51.03                             117   -0.13 6  237 335 
 CHI  HZ EP   1    631 53.02                             115   -0.56 6  254 194 
 CHI  HN ES        632 23.70                             115    0.45 8  254 194 
 CHI  HZ I         632 30.11         0.7 0.42            116            254 194 
                                                                                
