 2013 10 9 0923 24.7 L   6.789 -73.161150.7  RSN 11 0.4 1.7LRSN                1
 GAP=199        0.90       3.3     5.5  5.8  0.2535E+01  0.3515E+01 -0.2389E+00E
 Epicentro: LOS SANTOS - SANTANDER                                             3
 ACTION:UPD 13-11-25 09:20 OP:ep   STATUS:               ID:20131009092324 L   I
 OLDACT:UP  13-10-09 13:23 OP:mh   STATUS:               ID:20131009091959     3
 OLDACT:UP  13-10-09 13:22 OP:mh   STATUS:               ID:20131009091959     3
 OLDACT:UP  13-10-09 13:22 OP:mh   STATUS:               ID:20131009091959     3
 OLDACT:UP  13-10-09 13:21 OP:mh   STATUS:               ID:20131009091959     3
 OLDACT:UP  13-10-09 13:19 OP:mh   STATUS:               ID:20131009091959     3
 OLDACT:REG 13-10-09 08:19 OP:mh   STATUS:               ID:20131009091959     3
 2013-10-09-0919-59M.COL___273                                                 6
 STAT SP IPHASW D HRMM SECON CODA AMPLIT PERI AZIMU VELO AIN AR TRES W  DIS CAZ7
 BAR2 SZ EP   1    923 45.03                             171    0.13 7 21.9 186 
 BAR2 SZ ES   1    924  0.37                             171   -0.29 7 21.9 186 
 BAR2 SZ I         924  1.39        12.5 0.40            164           21.9 186 
 BRR  HZ EP   1    923 46.91                             154    0.57 7 70.3 300 
 BRR  HN ES        924  3.84                             154    0.6210 70.3 300 
 BRR  HZ I         924  7.86         5.3 0.28            148           70.3 300 
 RUS  HZ EP        923 48.31                             145   -0.5610 99.5 175 
 RUS  HN ES        924  7.78                             145    0.0610 99.5 175 
 RUS  HZ I         924 10.99         1.9 0.48            144           99.5 175 
 PTB  HZ EP   1    923 51.96                             134    0.05 7  146 259 
 PTB  HN ES        924 12.64                             134   -0.49 9  146 259 
 PTB  HZ I         924 20.18         6.9 0.44            130            146 259 
 SPBC HZ EP        923 53.88                             131    0.48 9  161 219 
 SPBC HN ES        924 15.95                             131    0.17 9  161 219 
 SPBC HZ I         924 21.74         7.1 0.22            128            161 219 
 ZAR  HZ EP   1    923 57.53                             124    0.17 6  203 293 
 ZAR  HN ES   4    924 26.22                             124    3.39 0  203 293 
 ZAR  HZ I         924 29.74         4.3 0.44            122            203 293 
 NOR  HZ EP   1    924  0.65                             120    0.15 6  233 234 
 NOR  HN ES   1    924 27.92                             120   -0.51 6  233 234 
 NOR  HZ I         924 32.72         3.9 0.28            118            233 234 
 SML  HZ EP   1    924  1.02                             119   -0.63 6  244 336 
 SML  HN ES        924 30.17                             119   -0.30 8  244 336 
 SML  HZ I         924 33.34         6.0 0.10            119            244 336 
 CHI  HN ES   1    924 31.77                             118   -0.23 6  247 195 
 CHI  HZ I         924 42.00         2.2 0.66            118            247 195 
 PRA  HZ EP   1    924 19.01                             108    0.83 4  390 209 
 PRA  HN ES   2    925  0.69                             108    0.80 3  390 209 
 PRA  HZ I         925  6.72         1.6 0.38            107            390 209 
 ORTC HZ EP   1    924 17.78                             107   -0.79 4  393 216 
 ORTC HN ES   4    925  3.35                             107    2.77 0  393 216 
 ORTC HZ I         925  8.36         1.6 0.64            107            393 216 
                                                                                
