 2016  5 9 0741 19.5 L   6.781 -73.136146.4  RSN 19 0.4 2.2LRSN                1
 GAP=121        1.04       2.5     3.8  4.8 -0.1443E+01  0.5546E+01  0.1044E+01E
 Epicentro: LOS SANTOS - SANTANDER                                             3
 ACTION:UPD 16-08-18 17:43 OP:cam  STATUS:               ID:20160509074119 L   I
 OLDACT:UP  16-05-15 07:32 OP:ar   STATUS:               ID:20160509074119 L   3
 OLDACT:UP  16-05-09 14:49 OP:drio STATUS:               ID:20160509073749     3
 OLDACT:UP  16-05-09 14:49 OP:drio STATUS:               ID:20160509073749     3
 OLDACT:REG 16-05-09 12:26 OP:drio STATUS:               ID:20160509073749     3
 2016-05-09-0737-49M.COL___280                                                 6
 STAT SP IPHASW D HRMM SECON CODA AMPLIT PERI AZIMU VELO AIN AR TRES W  DIS CAZ7
 BAR2 EZ EP        741 39.14                             171   -0.0110 21.4 194 
 BAR2 EZ ES        741 54.10                             171   -0.4010 21.4 194 
 BAR2 EZ I         741 55.22        49.3 0.18            168           21.4 194 
 BRR  HZ EP        741 41.08                             152    0.2710 73.2 300 
 BRR  HE ES        741 58.43                             152    0.9810 73.2 300 
 BRR  HZ I         741 59.89        42.0 0.12            149           73.2 300 
 PAM  EZ EP        741 42.19                             151    0.3610 78.4  38 
 PAM  EE ES        741 59.29                             151    0.0310 78.4  38 
 PAM  EZ I         742  1.38        25.5 0.52            154           78.4  38 
 RUS  HZ EP        741 42.95                             145   -0.1910 98.4 177 
 RUS  HE ES        742  1.96                             145    0.3710 98.4 177 
 RUS  HZ I         742  3.10        23.7 0.26            145           98.4 177 
 PTB  HZ EP        741 46.01                             132   -0.55 9  148 260 
 PTB  HE ES        742  6.93                             132   -0.75 9  148 260 
 PTB  HZ I         742 12.60        23.4 0.32            130            148 260 
 SPBC HZ EP        741 48.12                             129    0.19 9  162 220 
 SPBC HN ES        742  9.82                             129   -0.31 9  162 220 
 SPBC HZ I         742 15.64        30.7 0.28            129            162 220 
 OCA  HZ EP        741 48.67                             129    0.62 9  163 353 
 OCA  HE ES        742  9.75                             129   -0.59 9  163 353 
 OCA  HZ I         742 17.66        31.1 0.44            130            163 353 
 ZAR  HZ EP        741 52.26                             122    0.11 8  206 293 
 ZAR  HE ES        742 17.58                             122   -0.06 8  206 293 
 ZAR  HZ I         742 25.27        23.7 0.28            122            206 293 
 NOR  HZ EP        741 55.12                             119   -0.09 8  234 235 
 NOR  HE ES        742 23.35                             119    0.28 8  234 235 
 NOR  HZ I         742 27.27        15.0 0.14            118            234 235 
 SML  HZ EP        741 55.61                             117   -0.79 8  246 335 
 SML  HE ES        742 24.67                             117   -0.53 8  246 335 
 SML  HZ I         742 33.27        21.8 0.10            118            246 335 
 CHI  HZ EP        741 56.91                             117   -0.11 8  247 196 
 CHI  HN ES        742 25.85                             117   -0.45 8  247 196 
 CHI  HZ I         742 36.12         5.8 0.40            118            247 196 
 ROSC BZ EP   4    741 59.29                             117    1.80 0  251 211 
 ROSC BE ES   4    742 29.40                             117    2.26 0  251 211 
 ROSC BZ I         742 36.73        11.3 0.35            117            251 211 
 HEL  HZ EP        742  0.57                             115    0.79 8  273 256 
 HEL  HE ES        742 31.71                             115    0.49 8  273 256 
 HEL  HZ I         742 39.11         6.8 0.42            115            273 256 
 PTGC HZ EP   9    742  1.82                             112   -1.28 0  306 159 
 PTGC HE ES        742 35.40                             112   -0.44 7  306 159 
 PTGC HZ I         742 41.64         5.7 0.62            113            306 159 
 CBOC HZ EP        742  6.74                             110    0.28 7  334 253 
 CBOC HE ES   4    742 41.98                             110   -1.13 0  334 253 
 CBOC HZ I         742 52.05         2.5 0.60            110            334 253 
 PRA  HZ EP        742 12.77                             107   -0.10 6  391 210 
 PRA  HE ES        742 54.69                             107    0.19 6  391 210 
 PRA  HZ I         742 59.51         6.9 0.32            107            391 210 
 ORTC HZ EP        742 13.23                             106   -0.06 6  394 216 
 ORTC HN ES        742 54.97                             106   -0.29 6  394 216 
 ORTC HZ I         743  3.20         4.4 0.18            107            394 216 
 PAL  HZ EP        742 14.77                             106    0.13 6  405 239 
 SJC  HZ EP   4    742 13.33                             106   -2.01 0  412 327 
 SJC  HN ES   4    742 54.96                             106   -3.95 0  412 327 
 SJC  HZ I         742 58.85         3.2 0.52            106            412 327 
                                                                                
