 2011 11 9 0103 59.8 L   6.811 -73.161137.9  RSN  8 0.4 2.0LRSN                1
 GAP=134        0.73       3.1     4.5  5.7 -0.7014E+00  0.9294E+01  0.2053E+01E
 Epicentro: LOS SANTOS - SANTANDER                                             3
 ACTION:UPD 12-07-13 16:09 OP:ep   STATUS:               ID:20111109010359 L   I
 2011-11-09-0102-24S.COL___178                                                 6
 STAT SP IPHASW D HRMM SECON CODA AMPLIT PERI AZIMU VELO AIN AR TRES W  DIS CAZ7
 BAR2 SZ EP        1 4 18.57                             170    0.1110 24.3 185 
 BAR2 SZ I         1 4 19.01        21.2 0.10                          24.3 185 
 BAR2 SZ ES   1    1 4 32.46                             170   -0.59 7 24.3 185 
 BRR  HZ EP   1    1 4 20.37                             152    0.43 7 69.1 298 
 BRR  HN ES   1    1 4 36.22                             152    0.54 7 69.1 298 
 BRR  HZ I         1 4 38.14        34.0 0.15                          69.1 298 
 PAM  SZ EP   1    1 4 21.34                             149    0.18 7 77.6  41 
 PAM  SN ES   1    1 4 38.16                             149    0.31 7 77.6  41 
 PAM  SZ I         1 4 40.77        16.1 0.43                          77.6  41 
 RUS  HZ EP   1    1 4 22.62                             142   -0.22 7  102 175 
 RUS  HN ES   1    1 4 40.81                             142   -0.04 7  102 175 
 RUS  HZ I         1 4 42.54         9.9 0.39                           102 175 
 OCA  SZ EP   1    1 4 26.94                             128   -0.40 7  159 354 
 OCA  SZ ES   1    1 4 48.37                             128   -0.48 7  159 354 
 OCA  SZ I         1 4 52.89        15.3 0.20                           159 354 
 ZAR  HZ EP   1    1 4 31.95                             121    0.46 6  202 292 
 ZAR  HN ES   1    1 4 55.70                             121   -0.53 6  202 292 
 ZAR  HZ I         1 5  2.35        13.2 0.29                           202 292 
 RREF HZ EP   1    1 4 45.86                             109    0.36 5  321 229 
 RREF HN ES   1    1 5 21.11                             109   -0.08 5  321 229 
 PRA  HZ EP   1    1 4 52.35                             105   -0.68 4  392 209 
 PRA  HN ES   1    1 5 34.81                             105    0.22 4  392 209 
                                                                                
