 2016  8 9 0758  9.1 L   6.790 -73.146148.0  RSN  7 0.4 1.6LRSN                1
 GAP=237        1.05       5.8     6.0  7.5  0.1353E+02  0.8074E+01  0.1850E+01E
 Epicentro: LOS SANTOS - SANTANDER                                             3
 ACTION:UPD 16-10-29 15:34 OP:rebc STATUS:               ID:20160809075809 L   I
 OLDACT:REG 16-08-09 13:20 OP:dnl  STATUS:               ID:20160809074759     3
 2016-08-09-0747-59S.COL___340                                                 6
 STAT SP IPHASW D HRMM SECON CODA AMPLIT PERI AZIMU VELO AIN AR TRES W  DIS CAZ7
 BAR2 EZ EP        758 29.02                             171   -0.0010 22.2 190 
 BAR2 EZ ES        758 43.69                             171   -0.8410 22.2 190 
 BAR2 EZ I         758 46.97         7.3 0.36                          22.2 190 
 BRR  HZ EP        758 30.48                             153   -0.0810 71.7 299 
 BRR  HE ES        758 48.11                             153    0.8410 71.7 299 
 BRR  HZ I         758 53.41         9.4 0.42                          71.7 299 
 RUS  HZ EP        758 33.37                             145    0.3410 99.5 176 
 RUS  HN ES        758 51.84                             145    0.1710 99.5 176 
 RUS  HZ I         758 52.64         3.8 0.30                          99.5 176 
 PTB  HZ EP        758 35.73                             132   -0.54 9  148 259 
 PTB  HN ES        758 57.24                             132   -0.19 9  148 259 
 PTB  HZ I         758 59.12         6.5 0.16                           148 259 
 SPBC HZ EP        758 37.95                             130    0.22 9  162 219 
 SPBC HN ES        759  0.21                             130    0.18 9  162 219 
 SPBC HZ I         759  2.19         5.0 0.24                           162 219 
 ZAR  HZ EP   2    758 41.55                             123   -0.23 4  204 292 
 ZAR  HN ES        759  7.21                             123   -0.02 9  204 292 
 ZAR  HZ I         759 14.07         4.8 0.16                           204 292 
 HEL  HZ EP   4    758 51.18                             115    1.74 0  272 256 
 HEL  HE ES   2    759 20.49                             115   -0.38 4  272 256 
 HEL  HZ I         759 28.18         2.4 0.38                           272 256 
                                                                                
