 2016 10 9 0123 22.7 L   6.799 -73.173145.0  RSN  5 0.3 1.3LRSN                1
 GAP=133        0.67       3.2     3.2  5.9  0.6992E+00  0.6148E+01  0.1952E+01E
 Epicentro: LOS SANTOS - SANTANDER                                             3
 ACTION:UPD 16-11-09 19:17 OP:rebc STATUS:               ID:20161009012322 L   I
 OLDACT:REG 16-10-09 12:20 OP:dani STATUS:               ID:20161009011742     3
 2016-10-09-0118-00M.COL___363                                                 6
 STAT SP IPHASW D HRMM SECON CODA AMPLIT PERI AZIMU VELO AIN AR TRES W  DIS CAZ7
 PAM  EZ EP        123 44.99                             150    0.0810 79.4  41 
 PAM  EE ES        124  2.21                             150   -0.0710 79.4  41 
 PAM  EZ I         124  4.29         2.0 0.31            153           79.4  41 
 RUS  HZ EP        123 46.12                             144   -0.2210  101 174 
 RUS  HE ES        124  4.99                             144    0.1710  101 174 
 RUS  HZ I         124  6.80         2.6 0.29            146            101 174 
 PTB  HZ EP        123 48.71                             132   -0.58 9  145 259 
 PTB  HN ES        124 10.05                             132   -0.01 9  145 259 
 PTB  HZ I         124 11.72         3.3 0.15            133            145 259 
 ZAR  HZ EP        123 55.02                             123    0.25 9  201 292 
 ZAR  HN ES        124 20.02                             123    0.21 9  201 292 
 ZAR  HZ I         124 25.56         2.8 0.27            124            201 292 
 CHI  HZ EP        124  0.64                             117    0.42 8  248 194 
 CHI  HN ES   2    124 29.25                             117   -0.26 4  248 194 
 CHI  HZ I         124 32.79         1.3 0.22            119            248 194 
                                                                                
