 2010  2 9 0259 22.9 L   6.767 -73.018146.5  RSN  9 0.4 2.5LRSN                1
 GAP=150        0.80       5.8     9.5  5.6 -0.3360E+02  0.5536E+00  0.6172E+01E
 Epicentro: CEPITA - SANTANDER                                                 3
 ACTION:UP  10-08-24 09:48 OP:vdl  STATUS:               ID:20100209025922 L   I
 2010-02-09-0257-58S.COL___094                                                 6
 STAT SP IPHASW D HRMM SECON CODA AMPLIT PERI AZIMU VELO SNR AR TRES W  DIS CAZ7
 BAR2 SZ EP        259 42.82                             169     0.210   27 223 
 BAR2 SZ ES   1    259 57.56                             169    -0.5 7   27 223 
 GIR2 SZ EP   1    259 42.85                             164     0.0 7   40 331 
 GIR2 SZ ES   1    259 58.98                             164     0.5 7   40 331 
 OCA  SZ EP   1    259 51.25                             129    -0.6 7  166 348 
 CHI  HZ EP   1    3 0  0.58                             117    -0.1 6  249 199 
 CHI  HZ I         3 0  1.21        16.1 0.17                           249 199 
 CHI  HE ES   1    3 0 30.19                             117     0.0 6  249 199 
 HEL  HZ EP   1    3 0  4.35                             114    -0.2 6  285 257 
 HEL  HZ I         3 0 40.66        10.1 0.21                           285 257 
 RREF BZ EP        3 0 10.73                             110     0.7 7  330 231 
 RREF BZ I         3 0 51.09        17.4 0.53                           330 231 
 TOL  SZ EP        3 0 12.00                             109     0.0 6  351 227 
 SDV  BZ IP        3 0 12.21                             109     0.2 6  352  48 
 PRA  HZ EP   1    3 0 16.11                             106    -0.8 4  396 212 
 PRA  HN ES   2    3 0 59.03                             106     0.0 3  396 212 
 PRA  HZ I         3 1  4.47        17.2 0.47                           396 212 
                                                                                
