 2012 10 9 0745  0.6 L   6.766 -73.129142.6  RSN  6 0.4 1.5LRSN                1
 GAP=140        0.87       5.8     6.4  8.3  0.6848E+01  0.7292E+01  0.1436E+01E
 Epicentro: LOS SANTOS - SANTANDER                                             3
 ACTION:UPD 12-11-22 17:02 OP:ep   STATUS:               ID:20121009074500 L   I
 2012-10-09-0740-00M.COL___223                                                 6
 STAT SP IPHASW D HRMM SECON CODA AMPLIT PERI AZIMU VELO AIN AR TRES W  DIS CAZ7
 BAR2 SZ ES   1    745 34.97                             172    0.26 7 20.1 197 
 BAR2 SZ I         745 35.87         7.5 0.22                          20.1 197 
 GIR2 SZ EP   1    745 19.28                             165   -0.69 7 35.3 348 
 GIR2 SZ ES   1    745 34.40                             165   -0.71 7 35.3 348 
 BRR  HZ EP   1    745 21.86                             151    0.30 7 74.6 300 
 BRR  HN ES   1    745 38.61                             151    0.66 7 74.6 300 
 BRR  HZ I         745 43.11         7.2 0.14                          74.6 300 
 PAM  SZ EP   1    745 22.84                             150    0.30 7 79.2  37 
 PAM  SN ES   1    745 39.84                             150    0.14 7 79.2  37 
 PAM  SN I         745 40.65         8.6 0.48                          79.2  37 
 RUS  HZ EP   1    745 23.88                             144    0.17 7 96.7 177 
 RUS  HN ES   1    745 41.57                             144   -0.21 7 96.7 177 
 RUS  HZ I         745 43.57         2.2 0.42                          96.7 177 
 ZAR  HN ES   1    745 58.20                             121   -0.32 6  207 293 
                                                                                
