 2016  6 9 0647 55.2 L   6.851 -73.153153.4  RSN  6 0.4 1.4LRSN                1
 GAP=133        1.01       5.6     5.6  9.5 -0.7684E+01 -0.3341E+01  0.2058E+02E
 Epicentro: LOS SANTOS - SANTANDER                                             3
 ACTION:UPD 16-07-21 22:16 OP:rebc STATUS:               ID:20160609064755 L   I
 OLDACT:UP  16-06-09 17:55 OP:dani STATUS:               ID:20160609063746d    3
 OLDACT:DUP 16-06-09 17:52 OP:dani STATUS:               ID:20160609063746d    3
 OLDACT:UP  16-06-09 17:51 OP:dani STATUS:               ID:20160609063745     3
 OLDACT:UP  16-06-09 17:49 OP:dani STATUS:               ID:20160609063745     3
 OLDACT:UP  16-06-09 17:44 OP:dani STATUS:               ID:20160609063745     3
 OLDACT:REG 16-06-09 13:21 OP:dani STATUS:               ID:20160609063745     3
 2016-06-09-0637-45M.COL___337                                                 6
 STAT SP IPHASW D HRMM SECON CODA AMPLIT PERI AZIMU VELO AIN AR TRES W  DIS CAZ7
 BAR2 EZ EP        648 15.69                             169   -0.1810 28.8 186 
 BAR2 EZ I         648 33.37         3.5 0.15                          28.8 186 
 BRR  HZ EP     C  648 17.42                             155    0.4110 67.9 295 
 BRR  HN ES        648 34.58                             155    0.5610 67.9 295 
 BRR  HZ I         648 38.92         6.2 0.14                          67.9 295 
 PAM  EZ EP     D  648 18.51                             153    0.4810 73.7  43 
 PAM  EE ES        648 35.58                             153   -0.2510 73.7  43 
 PAM  EZ I         648 36.98         5.2 0.34                          73.7  43 
 RUS  HZ EP     C  648 20.28                             144    0.1710  106 176 
 RUS  HN ES   2    648 38.89                             144   -0.65 5  106 176 
 RUS  HZ I         648 40.78         1.7 0.40                           106 176 
 PTB  HZ EP        648 22.45                             134   -0.38 9  148 257 
 PTB  HE ES        648 44.13                             134   -0.26 9  148 257 
 PTB  HZ I         648 47.23         3.7 0.15                           148 257 
 OCA  HN ES        648 45.19                             132   -0.56 9  155 353 
 OCA  HZ I         648 49.51         5.7 0.16                           155 353 
                                                                                
