 2013  2 9 0404 11.6 L   6.757 -73.128150.5  RSN  5 0.1 1.4LRSN                1
 GAP=141        0.39       3.1     4.1  4.6  0.4141E+01 -0.6491E+01 -0.2074E+01E
 Epicentro: LOS SANTOS - SANTANDER                                             3
 ACTION:UPD 13-03-12 09:31 OP:ep   STATUS:               ID:20130209040411 L   I
 2013-02-09-0400-00M.COL___240                                                 6
 STAT SP IPHASW D HRMM SECON CODA AMPLIT PERI AZIMU VELO AIN AR TRES W  DIS CAZ7
 BAR2 SZ EP        4 4 31.58                             172   -0.1510 19.2 198 
 BAR2 SZ I         4 4 47.65         6.2 0.17             96           19.2 198 
 BRR  HZ EP        4 4 33.69                             152    0.2010 75.2 301 
 BRR  HN ES        4 4 50.50                             152   -0.0610 75.2 301 
 BRR  HZ I         4 4 51.90         4.2 0.44             37           75.2 301 
 PAM  SZ EP        4 4 34.49                             151    0.0210 79.9  36 
 RUS  HZ EP   1    4 4 35.39                             146   -0.10 7 95.8 177 
 RUS  HE ES   1    4 4 54.25                             146    0.13 7 95.8 177 
 RUS  HE I         4 4 56.84         3.7 0.71             43           95.8 177 
 PTB  HZ EP   1    4 4 39.03                             133   -0.03 7  149 261 
 PTB  HZ I         4 5  3.91         2.6 0.08             37            149 261 
                                                                                
