 2013  2 9 0225 47.5 L   6.766 -73.112142.2  RSN  5 0.3 1.7LRSN                1
 GAP=142        0.66       3.7     4.2  6.0 -0.1717E+01  0.5138E+01  0.1848E+01E
 Epicentro: LOS SANTOS - SANTANDER                                             3
 ACTION:UPD 13-03-12 09:31 OP:ep   STATUS:               ID:20130209022547 L   I
 2013-02-09-0220-00M.COL___240                                                 6
 STAT SP IPHASW D HRMM SECON CODA AMPLIT PERI AZIMU VELO AIN AR TRES W  DIS CAZ7
 BAR2 SZ ES   1    226 21.45                             171   -0.11 7 20.8 202 
 BAR2 SZ I         226 22.76        12.8 0.25            168           20.8 202 
 BRR  HZ EP   1    226  8.73                             150    0.20 7 76.2 300 
 BRR  HE ES   1    226 25.50                             150    0.54 7 76.2 300 
 BRR  HZ I         226 28.86         7.5 0.13            148           76.2 300 
 PAM  SZ EP   1    226  9.60                             150    0.25 7 78.1  36 
 PAM  SN ES        226 26.09                             150   -0.3210 78.1  36 
 RUS  HZ EP        226 10.72                             144    0.1310 96.7 178 
 RUS  HN ES        226 28.66                             144    0.0410 96.7 178 
 RUS  HN I         226 30.87         8.5 0.21            146           96.7 178 
 PTB  HZ EP   1    226 13.94                             130   -0.48 7  151 260 
 PTB  HE ES   1    226 35.20                             130   -0.24 7  151 260 
 PTB  HE I         226 40.25         9.1 0.45            130            151 260 
                                                                                
