 2013  4 9 0512 31.0 L   6.722 -73.470108.5  RSN  9 0.5 2.5LRSN                1
 GAP= 76        1.16       4.3     4.1  7.0  0.1457E+01  0.1332E+02  0.4015E+01E
 Epicentro: EL CARMEN DE CHUCURI - SANTANDER                                   3
 ACTION:UPD 13-05-22 14:36 OP:EP   STATUS:               ID:20130409051230 L   I
 2013-04-09-0508-50M.COL___218                                                 6
 STAT SP IPHASW D HRMM SECON CODA AMPLIT PERI AZIMU VELO AIN AR TRES W  DIS CAZ7
 BAR2 SZ IP        512 46.73                             161    0.1410 34.9 114 
 BAR2 SZ I         512 46.90        94.3 0.20            163           34.9 114 
 BAR2 SZ ES        512 58.89                             161    0.1710 34.9 114 
 GIR2 SZ IP     D  512 46.95                             154   -0.2110 49.9  38 
 GIR2 SZ I         512 47.08       111.8 0.10            157           49.9  38 
 GIR2 SZ ES        512 59.42                             154   -0.3210 49.9  38 
 BRR  HZ IP     C  512 46.73                             153   -0.2410 50.3 328 
 BRR  HN ES        512 59.54                             153    0.1310 50.3 328 
 BRR  HN I         513  0.09       406.5 0.16            149           50.3 328 
 RUS  HZ IP     D  512 51.39                             134    0.0010  101 155 
 RUS  HE ES        513  7.61                             134    0.3410  101 155 
 PTB  HZ IP     C  512 50.47                             131   -1.1510  111 260 
 PTB  HN I         513 12.16        49.2 0.42            125            111 260 
 OCA  HN ES   4    513 16.19                             118   -2.20 0  169   6 
 ZAR  HZ EP        512 58.23                             117    0.04 9  175 299 
 ZAR  HN ES        513 20.16                             117    0.79 9  175 299 
 ZAR  HN I         513 21.93        43.9 0.24            114            175 299 
 CAPV BZ EP        512 59.09                             116    0.16 9  180  45 
 NOR  HN ES        513 24.46                             113   -0.05 9  201 230 
 HEL  HZ EP        513  6.22                             109    0.86 8  235 256 
 HEL  HN ES        513 31.82                             109   -0.32 8  235 256 
 HEL  HN I         513 39.42         8.0 0.30            107            235 256 
                                                                                
