 2014  8 9 0431 47.2 L   6.809 -73.150145.0  RSN 18 0.5 2.0LRSN                1
 GAP=136        1.05       2.7     4.1  5.3 -0.1611E+01  0.4960E+01  0.1424E+01E
 Epicentro: LOS SANTOS - SANTANDER                                             3
 ACTION:UPD 14-09-15 21:48 OP:nd   STATUS:               ID:20140809043147 L   I
 OLDACT:REG 14-08-09 12:56 OP:spq  STATUS:               ID:20140809042819     3
 2014-08-09-0428-19M.COL___266                                                 6
 STAT SP IPHASW D HRMM SECON CODA AMPLIT PERI AZIMU VELO AIN AR TRES W  DIS CAZ7
 BAR2 SZ EP        432  6.62                             170   -0.1010 24.2 188 
 BAR2 SZ ES   1    432 21.19                             170   -0.78 7 24.2 188 
 BAR2 SZ I         432 23.43        26.7 0.11            168           24.2 188 
 BRR  HZ IP     C  432  8.53                             153    0.3510 70.3 298 
 BRR  HE ES        432 25.52                             153    0.9510 70.3 298 
 BRR  HZ I         432 29.06        17.5 0.30            148           70.3 298 
 PAM  SZ EP        432  9.51                             151    0.2410 76.9  40 
 PAM  SN ES        432 26.44                             151   -0.0710 76.9  40 
 PAM  SZ I         432 28.92        19.1 0.52            155           76.9  40 
 RUS  HZ EP        432 10.67                             143   -0.2410  102 176 
 RUS  HE ES        432 29.40                             143   -0.0410  102 176 
 RUS  HZ I         432 30.58        19.5 0.28            144            102 176 
 PTB  HZ EP        432 13.42                             132   -0.62 9  147 258 
 PTB  HN ES        432 34.45                             132   -0.56 9  147 258 
 PTB  HZ I         432 36.63         7.8 0.24            130            147 258 
 OCA  HZ EP        432 15.84                             130    0.53 9  159 353 
 OCA  HN ES        432 37.38                             130    0.11 9  159 353 
 OCA  HZ I         432 40.58         8.4 0.15            130            159 353 
 SPBC HZ EP        432 15.46                             129   -0.18 9  164 219 
 SPBC HN ES        432 37.54                             129   -0.32 9  164 219 
 SPBC HZ I         432 40.19        20.4 0.42            128            164 219 
 ZAR  HZ EP        432 19.12                             122   -0.35 9  203 292 
 ZAR  HE ES        432 44.67                             122   -0.00 9  203 292 
 ZAR  HZ I         432 50.99         5.3 0.36            121            203 292 
 NOR  HZ EP        432 23.06                             118    0.20 8  235 234 
 NOR  HN ES        432 51.20                             118    0.49 8  235 234 
 NOR  HZ I         432 56.40         6.1 0.18            118            235 234 
 SML  HZ EP        432 23.10                             117   -0.52 8  243 335 
 SML  HE ES        432 51.46                             117   -0.60 8  243 335 
 SML  HZ I         433  0.40        13.3 0.22            117            243 335 
 CHI  HZ EP   1    432 24.72                             117   -0.19 6  249 195 
 CHI  HN ES   1    432 54.18                             117   -0.17 6  249 195 
 CHI  HZ I         433  3.95         6.5 0.52            117            249 195 
 ROSC BZ EP        432 26.07                             116    0.77 8  253 211 
 ROSC BN ES   1    432 55.72                             116    0.66 6  253 211 
 ROSC BZ I         433  1.29         8.5 0.35            116            253 211 
 HEL  HN ES   4    433  0.63                             115    2.01 0  272 256 
 HEL  HZ I         433  5.74         4.2 0.24            114            272 256 
 GUY2CHZ EP        432 31.23                             112    0.48 7  301 235 
 GUY2CHN ES   4    433  8.09                             112    3.33 0  301 235 
 GUY2CHZ I         433 14.24         4.4 0.66                           301 235 
 TOL  SZ EP        432 35.72                             109    0.29 7  344 224 
 TOL  SN ES   4    433 14.05                             109    0.98 0  344 224 
 TOL  SZ I         433 20.77        10.5 0.66            109            344 224 
 MON  HZ I         433 27.11         2.8 0.76            108            353 308 
 PRA  HZ EP        432 40.23                             106   -0.50 6  393 209 
 PRA  HN ES   4    433 23.53                             106    1.02 0  393 209 
 PRA  HZ I         433 27.86         3.8 0.20            107            393 209 
 SJC  HZ EP   4    432 40.94                             106   -1.63 0  408 327 
 SJC  HN ES   4    433 21.64                             106   -4.14 0  408 327 
 SJC  HZ I         433 26.21         1.8 0.48            106            408 327 
                                                                                
