 2016  1 9 0407  8.5 L   6.682 -73.237154.2  RSN  4 0.3 1.3LRSN                1
 GAP=190        0.77       5.5     6.3  7.0  0.1632E+02 -0.8857E+01 -0.1290E+02E
 Epicentro: BARICHARA - SANTANDER                                              3
 ACTION:UPD 16-03-09 23:23 OP:cam  STATUS:               ID:20160109040708 L   I
 OLDACT:REG 16-01-09 12:54 OP:drio STATUS:               ID:20160109035748     3
 2016-01-09-0357-48M.COL___281                                                 6
 STAT SP IPHASW D HRMM SECON CODA AMPLIT PERI AZIMU VELO AIN AR TRES W  DIS CAZ7
 BRR  HZ EP        4 7 30.80                             154    0.2910 70.4 312 
 BRR  HN ES        4 7 47.83                             154    0.1410 70.4 312 
 BRR  HZ I         4 7 48.42         3.7 0.18            154           70.4 312 
 RUS  HZ EP        4 7 32.28                             149   -0.0310 89.0 169 
 RUS  HN ES        4 7 50.76                             149   -0.1310 89.0 169 
 RUS  HZ I         4 7 52.14         1.7 0.36            150           89.0 169 
 PTB  HZ EP        4 7 35.54                             136    0.42 9  136 263 
 PTB  HN ES        4 7 55.54                             136   -0.35 9  136 263 
 PTB  HZ I         4 7 57.23         2.2 0.12            137            136 263 
 SML  HZ EP        4 7 45.93                             118   -0.52 8  252 339 
 SML  HN ES   4    4 8 12.60                             118   -3.47 0  252 339 
 SML  HZ I         4 8 17.40         2.0 0.44            119            252 339 
                                                                                
