 2016  6 9 0851 26.1 L   6.765 -73.160154.2  RSN  6 0.4 1.5LRSN                1
 GAP=181        1.01       4.3     7.2  9.5 -0.2589E+01  0.1527E+01  0.6838E+00E
 Epicentro: LOS SANTOS - SANTANDER                                             3
 ACTION:UPD 16-07-21 22:16 OP:rebc STATUS:               ID:20160609085126 L   I
 OLDACT:UP  16-06-09 19:19 OP:dani STATUS:               ID:20160609084743     3
 OLDACT:REG 16-06-09 13:40 OP:dani STATUS:               ID:20160609084743     3
 2016-06-09-0847-43M.COL___334                                                 6
 STAT SP IPHASW D HRMM SECON CODA AMPLIT PERI AZIMU VELO AIN AR TRES W  DIS CAZ7
 BAR2 EZ EP        851 46.42                             173   -0.2610 19.3 187 
 BAR2 EZ I         852  2.66         7.0 0.22                          19.3 187 
 BRR  HZ EP     D  851 48.55                             154    0.3410 71.7 302 
 BRR  HN ES        852  5.79                             154    0.3510 71.7 302 
 BRR  HZ I         852 10.93         5.9 0.34                          71.7 302 
 RUS  HN ES        852  9.13                             146   -0.3010 96.9 175 
 PTB  HZ EP        851 53.04                             134   -0.54 9  145 260 
 PTB  HN ES        852 14.47                             134   -0.53 9  145 260 
 PTB  HZ I         852 17.23         2.7 0.07                           145 260 
 SPBC HZ EP        851 55.43                             132    0.53 9  159 219 
 SPBC HE ES        852 17.80                             132    0.44 9  159 219 
 SPBC HZ I         852 23.95         4.3 0.29                           159 219 
 OCA  HE ES        852 18.28                             131   -0.00 9  164 354 
                                                                                
