 2013  4 9 0629 36.5 L   6.781 -73.148148.7  RSN  6 0.4 1.8LRSN                1
 GAP=182        1.07       4.7     6.8  7.5  0.4225E+01  0.5870E+01  0.1824E+01E
 Epicentro: LOS SANTOS - SANTANDER                                             3
 ACTION:UPD 13-05-22 14:36 OP:EP   STATUS:               ID:20130409062936 L   I
 2013-04-09-0628-50M.COL___218                                                 6
 STAT SP IPHASW D HRMM SECON CODA AMPLIT PERI AZIMU VELO AIN AR TRES W  DIS CAZ7
 BAR2 SZ EP        629 56.41                             171   -0.0310 21.2 190 
 BAR2 SZ ES        630 11.79                             171   -0.2110 21.2 190 
 BAR2 SZ I         630 13.26        12.1 0.36            170           21.2 190 
 GIR2 SZ EP        629 56.69                             167    0.1210 33.3 351 
 GIR2 SZ ES        630 11.67                             167   -0.5610 33.3 351 
 BRR  HZ EP        629 58.29                             153    0.2910 72.0 300 
 BRR  HN ES        630 15.74                             153    0.9610 72.0 300 
 BRR  HN I         630 16.26        17.7 0.22            152           72.0 300 
 RUS  HZ EP        630  0.57                             145    0.1810 98.5 176 
 RUS  HN ES        630 19.14                             145    0.1110 98.5 176 
 RUS  HN I         630 19.73         8.9 0.30            145           98.5 176 
 PTB  HZ EP        630  3.22                             133   -0.42 9  147 260 
 PTB  HN ES        630 24.43                             133   -0.39 9  147 260 
 PTB  HZ I         630 27.28         6.0 0.26            132            147 260 
 OCA  HN ES        630 27.43                             130   -0.20 9  162 353 
                                                                                
