 2013  7 9 0654 30.8 L   6.803 -73.161151.3  RSN  4 0.4 1.4LRSN                1
 GAP=210        0.91       5.9     7.3  7.4  0.2574E+01  0.3301E+01 -0.1594E+02E
 Epicentro: LOS SANTOS - SANTANDER                                             3
 ACTION:UPD 13-08-12 10:36 OP:ep   STATUS:               ID:20130709065430 L   I
 OLDACT:REG 13-07-09 07:47 OP:nd   STATUS:               ID:20130709064959     3
 2013-07-09-0649-59M.COL___265                                                 6
 STAT SP IPHASW D HRMM SECON CODA AMPLIT PERI AZIMU VELO AIN AR TRES W  DIS CAZ7
 BAR2 SZ EP        654 50.99                             171   -0.0610 23.5 186 
 BAR2 SZ ES        655  6.51                             171   -0.3710 23.5 186 
 BAR2 SZ I         655  8.51         4.2 0.26            171           23.5 186 
 BRR  HZ IP     D  654 52.80                             154    0.3910 69.5 299 
 BRR  HN ES        655  9.85                             154    0.5510 69.5 299 
 BRR  HZ I         655 13.84         3.6 0.26            150           69.5 299 
 PTB  HZ EP        654 58.30                             133    0.27 9  146 259 
 PTB  HN ES        655 18.89                             133   -0.42 9  146 259 
 PTB  HZ I         655 24.53         1.7 0.26            133            146 259 
 SML  HZ EP        655  7.37                             119   -0.21 8  243 336 
 SML  HN ES        655 35.94                             119   -0.37 8  243 336 
 SML  HZ I         655 41.85         3.1 0.10            120            243 336 
                                                                                
