 2013  6 9 0413 31.4 L   6.772 -73.154153.0  RSN  6 0.4 1.8LRSN                1
 GAP=200        0.68       5.4     7.7 10.7 -0.6483E+01  0.5169E+01 -0.1974E+02E
 Epicentro: LOS SANTOS - SANTANDER                                             3
 ACTION:UPD 14-01-08 09:53 OP:ep   STATUS:               ID:20130609041331 L   I
 OLDACT:REG 13-06-09 07:35 OP:mh   STATUS:               ID:20130609041000     3
 2013-06-09-0410-00M.COL___257                                                 6
 STAT SP IPHASW D HRMM SECON CODA AMPLIT PERI AZIMU VELO AIN AR TRES W  DIS CAZ7
 BRR  HZ EP        413 53.72                             153    0.3210 71.9 301 
 BRR  HZ I         414 10.92         4.4 0.42            156           71.9 301 
 BRR  HN ES   2    414 11.09                             153    0.55 5 71.9 301 
 RUS  HN ES   2    414 13.96                             146   -0.64 5 97.5 175 
 PTB  HZ EP   1    413 58.61                             134   -0.25 7  146 260 
 PTB  HN ES   2    414 19.71                             134   -0.54 5  146 260 
 PTB  HN I         414 25.21        11.0 0.36            137            146 260 
 ZAR  HE ES   2    414 29.48                             124   -0.61 4  204 293 
 NOR  HN ES   1    414 35.73                             120    0.43 6  232 235 
 NOR  HN I         414 40.56         5.2 0.16            122            232 235 
 SML  HZ EP   1    414  8.54                             119   -0.19 6  246 336 
 SML  HN ES   2    414 37.57                             119   -0.26 4  246 336 
 SML  HN I         414 45.50         7.1 0.10            118            246 336 
                                                                                
