 2014  2 9 0545 19.0 L   6.847 -73.193139.7  RSN  5 0.4 1.6LRSN                1
 GAP=179        0.72       4.0     7.6 11.0 -0.2831E+01  0.2071E+02 -0.1651E+02E
 Epicentro: ZAPATOCA - SANTANDER                                               3
 ACTION:UPD 14-03-10 08:08 OP:ep   STATUS:               ID:20140209054519 L   I
 OLDACT:UP  14-02-09 10:50 OP:mh   STATUS:               ID:20140209054000     3
 OLDACT:REG 14-02-09 08:04 OP:mh   STATUS:               ID:20140209054000     3
 2014-02-09-0540-00M.COL___291                                                 6
 STAT SP IPHASW D HRMM SECON CODA AMPLIT PERI AZIMU VELO AIN AR TRES W  DIS CAZ7
 RUS  HZ EP   1    545 43.21                             141    0.6013  106 173 
 RUS  HN ES   1    546  0.45                             141   -0.5613  106 173 
 RUS  HZ I         546  3.29        81.8 0.03            145            106 173 
 PTB  HZ EP   1    545 45.05                             131   -0.0812  144 256 
 PTB  HN ES   2    546  5.65                             131    0.15 8  144 256 
 PTB  HZ I         546 11.59         1.5 0.20            132            144 256 
 OCA  HN ES   1    546  7.79                             129    0.1712  155 355 
 SPBC HN ES   1    546  9.22                             127    0.1312  164 216 
 SPBC HZ I         546 12.00         1.7 0.14            130            164 216 
 SJC  HZ EP        546 13.06                             105   -0.4810  402 327 
                                                                                
