 2013  4 9 0658 38.6 L   6.720 -73.164138.0  RSN  5 0.3 1.5LRSN                1
 GAP=179        0.90       5.7     6.1  6.8  0.1358E+02  0.1253E+02  0.1079E+02E
 Epicentro: VILLANUEVA - SANTANDER                                             3
 ACTION:UPD 13-05-22 14:36 OP:EP   STATUS:               ID:20130409065838 L   I
 2013-04-09-0648-51M.COL___218                                                 6
 STAT SP IPHASW D HRMM SECON CODA AMPLIT PERI AZIMU VELO AIN AR TRES W  DIS CAZ7
 BAR2 SZ EP        658 56.94                             174   -0.2010 14.3 188 
 BAR2 SZ ES        659 11.74                             174    0.1410 14.3 188 
 BAR2 SZ I         659 13.05         7.5 0.44            176           14.3 188 
 GIR2 SZ ES        659 11.88                             163   -0.5810 39.8 355 
 BRR  HZ EP        658 59.57                             150    0.4810 74.1 305 
 BRR  HN ES        659 15.55                             150    0.4810 74.1 305 
 BRR  HE I         659 20.80         6.5 0.22            149           74.1 305 
 RUS  HZ EP        659  0.98                             145    0.0110 92.0 174 
 RUS  HN ES        659 18.56                             145    0.1410 92.0 174 
 PTB  HZ EP        659  4.37                             131   -0.25 9  144 262 
 PTB  HN ES        659 24.64                             131   -0.28 9  144 262 
                                                                                
