 2012  5 9 0810 58.4 L   6.559 -73.576111.9  RSN  6 0.3 1.7LRSN                1
 GAP= 89        0.77       5.5     4.5  7.1 -0.2256E+01  0.7924E+01  0.8147E+01E
 Epicentro: EL CARMEN DE CHUCURI - SANTANDER                                   3
 ACTION:UP  12-07-05 12:03 OP:pat  STATUS:               ID:20120509081058 L   I
 2012-05-09-0810-00M.COL___192                                                 6
 STAT SP IPHASW D HRMM SECON CODA AMPLIT PERI AZIMU VELO SNR AR TRES W  DIS CAZ7
 BAR2 SZ EP        811 14.94                             157     0.210   44  85 
 BAR2 SZ ES   1    811 27.45                             157     0.0 7   44  85 
 BAR2 SZ I         811 28.36        35.8 0.42                            44  85 
 BRR  HZ EP        811 15.75                             149     0.310   62 346 
 BRR  HN ES   1    811 28.74                             149     0.1 7   62 346 
 BRR  HZ I         811 35.29         8.8 0.14                            62 346 
 RUS  HZ EP   2    811 17.97                             138    -0.3 5   92 143 
 RUS  HE ES   2    811 33.56                             138    -0.2 5   92 143 
 PTB  HZ EP        811 17.67                             136    -0.410   97 269 
 PTB  HZ I         811 18.04         5.8 0.34                            97 269 
 PTB  HE ES   2    811 33.07                             136    -0.3 5   97 269 
 PAM  SZ EP        811 21.29                             127    -0.410  130  48 
 NOR  SZ EP        811 26.72                             117     0.4 9  181 232 
                                                                                
