 2017  8 9 0337 48.3 L   7.453 -73.198127.5  RSN 16 0.6 2.0LRSN                1
 GAP=105        1.21       3.6     3.3  6.2 -0.9687E+00  0.4978E+01 -0.2035E+01E
 Epicentro: EL PLAYON - SANTANDER                                              3
 ACTION:UPD 17-09-04 20:18 OP:rebc STATUS:               ID:20170809033748 L   I
 OLDACT:UP  17-08-09 15:47 OP:dhb  STATUS:               ID:20170809032736     3
 OLDACT:UP  17-08-09 15:47 OP:dhb  STATUS:               ID:20170809032736     3
 OLDACT:REG 17-08-09 12:13 OP:dhb  STATUS:               ID:20170809032736     3
 2017-08-09-0328-00M.COL___399                                                 6
 STAT SP IPHASW D HRMM SECON CODA AMPLIT PERI AZIMU VELO AIN AR TRES W  DIS CAZ7
 PAM  EZ IP     C  338  7.64                             155    0.2910 56.4 103 
 PAM  EN ES        338 22.92                             155    0.7010 56.4 103 
 PAM  EZ I         338 25.37        20.5 0.28            157           56.4 103 
 BRR  HZ IP     C  338  7.23                             150   -0.0910 68.4 236 
 BRR  HN ES        338 22.48                             150    0.3210 68.4 236 
 BRR  HZ I         338 23.27        44.4 0.15            149           68.4 236 
 BAR2 EZ IP     C  338  9.41                             141   -0.1110 95.2 179 
 BAR2 EZ ES        338 25.43                             141   -0.6410 95.2 179 
 BAR2 EZ I         338 26.76        44.0 0.12            142           95.2 179 
 PTB  HZ EP        338 15.88                             123   -0.36 9  172 234 
 PTB  HN ES        338 37.85                             123   -0.18 9  172 234 
 PTB  HZ I         338 39.05         9.4 0.40            123            172 234 
 RUS  HZ EP        338 16.65                             123   -0.33 9  173 176 
 RUS  HN ES        338 38.46                             123   -0.90 9  173 176 
 RUS  HZ I         338 45.76         6.2 0.28            124            173 176 
 ZAR  HZ IP     C  338 17.40                             121   -0.01 9  183 271 
 ZAR  HN ES        338 40.69                             121    0.57 9  183 271 
 ZAR  HZ I         338 43.80        18.6 0.06            120            183 271 
 TAM  HZ IP     C  338 18.39                             120    0.03 9  192 126 
 TAM  HE ES        338 41.66                             120   -0.15 9  192 126 
 TAM  HZ I         338 42.95        11.1 0.33            121            192 126 
 SPBC HZ EP        338 21.70                             116    0.10 8  221 206 
 SPBC HE ES        338 48.15                             116    0.56 8  221 206 
 SPBC HZ I         338 53.27         8.0 0.08            116            221 206 
 LL6C HZ EP        338 24.72                             112   -0.23 8  253 358 
 LL6C HN ES        338 53.43                             112   -0.12 8  253 358 
 LL6C HZ I         339  4.49         7.1 0.68            112            253 358 
 URE  HZ EP   9    338 24.09                             112   -1.70 0  260 277 
 URE  HN ES        338 52.89                                   -0.45 8  260 277 
 URE  HZ I         339  2.15         9.2 0.16            111            260 277 
 NOR  HZ EP        338 28.21                             110    0.18 7  279 222 
 NOR  HE ES        338 58.72                             110   -0.31 7  279 222 
 NOR  HZ I         339  7.05         4.8 0.34            110            279 222 
 HEL  HZ EP   3    338 31.18                             109    1.14 2  293 242 
 HEL  HN ES        339  1.91                             109   -0.69 7  293 242 
 HEL  HZ I         339  9.19         5.5 0.20            109            293 242 
 DBB  EZ EP        338 34.24                             106   -0.45 7  336 262 
 DBB  EN ES   4    339  8.61                             106   -2.27 0  336 262 
 DBB  EZ I         339 12.26         6.1 0.22            106            336 262 
 GUY2CHZ EP   4    338 38.60                             106    2.51 0  344 224 
 GUY2CHN ES   4    339 16.80                             106    3.43 0  344 224 
 GUY2CHZ I         339 21.78         5.5 0.32                           344 224 
 CBOC HZ EP        338 37.84                             105    0.54 6  357 241 
 CBOC HN ES        339 14.91                             105   -0.61 6  357 241 
 CBOC HZ I         339 18.88         1.5 0.23            105            357 241 
 PRA  HZ EP  4     338 50.64                             101    2.03 5  454 204 
 PRA  HE ES  4     339 37.74                             101    2.08 5  454 204 
 PRA  HZ I         339 39.28         1.6 0.24            101            454 204 
                                                                                
