 2012  1 9 0052 16.2 L   6.800 -73.162150.1  RSN  5 0.4 1.2LRSN                1
 GAP=135        0.70       7.2     6.8  8.9  0.3961E+01  0.7345E+01  0.2445E+02E
 Epicentro: LOS SANTOS - SANTANDER                                             3
 ACTION:UP  12-02-03 08:15 OP:REBC STATUS:               ID:20120109005216 L   I
 2012-01-09-0050-00M.COL___186                                                 6
 STAT SP IPHASW D HRMM SECON CODA AMPLIT PERI AZIMU VELO SNR AR TRES W  DIS CAZ7
 GIR2 SZ EP   1    052 36.11                             168    -0.3 7   31 353 
 GIR2 SZ ES   2    052 52.20                             168     0.1 5   31 353 
 BRR  HZ EP   1    052 38.30                             154     0.5 7   70 299 
 BRR  HE ES   1    052 54.82                             154     0.3 7   70 299 
 BRR  HZ I         052 56.07         6.3 0.45                            70 299 
 PAM  SN ES   2    052 56.22                             151    -0.5 5   79  41 
 RUS  HZ EP   1    052 40.46                             145     0.1 7  101 175 
 RUS  HN ES   2    052 59.39                             145     0.1 5  101 175 
 RUS  HZ I         053  0.30         1.4 0.18                           101 175 
 PTB  HZ EP   1    052 43.20                             133    -0.2 7  146 259 
 PTB  HN ES   2    053  3.81                             133    -0.8 5  146 259 
                                                                                
