 2013  8 9 0633 19.7 L   6.760 -73.172145.8  RSN  6 0.3 1.3LRSN                1
 GAP=178        0.64       3.5     4.4  5.4  0.1653E+01  0.1846E+01  0.2186E+01E
 Epicentro: LOS SANTOS - SANTANDER                                             3
 ACTION:UPD 14-01-14 09:00 OP:ep   STATUS:               ID:20130809063319 L   I
 OLDACT:REG 13-08-09 06:42 OP:jn   STATUS:               ID:20130809062959     3
 2013-08-09-0629-59M.COL___267                                                 6
 STAT SP IPHASW D HRMM SECON CODA AMPLIT PERI AZIMU VELO AIN AR TRES W  DIS CAZ7
 BAR2 SZ EP   1    633 39.21                             172   -0.05 7 18.6 183 
 BAR2 SZ ES   1    633 54.43                             172   -0.08 7 18.6 183 
 BAR2 SZ I         633 55.78         5.0 0.38            169           18.6 183 
 GIR2 SZ EP   1    633 39.20                             166   -0.30 7 35.3 356 
 GIR2 SZ ES   1    633 54.69                             166   -0.25 7 35.3 356 
 GIR2 SZ I         633 56.69         3.8 0.40            166           35.3 356 
 BRR  HZ EP     C  633 40.91                             153    0.0610 70.9 303 
 BRR  HN ES        633 57.76                             153    0.4310 70.9 303 
 BRR  HZ I         633 59.10         4.1 0.36            151           70.9 303 
 RUS  HZ EP        633 43.42                             145    0.2510 96.5 174 
 RUS  HN ES        634  1.34                             145   -0.1310 96.5 174 
 RUS  HZ I         634  3.17         2.4 0.26            146           96.5 174 
 PTB  HZ EP   1    633 46.17                             133   -0.18 7  144 260 
 PTB  HN ES   1    634  6.53                             133   -0.60 7  144 260 
 PTB  HZ I         634 12.81         1.8 0.34            132            144 260 
 SPBC HN ES        634  9.76                             130    0.20 9  158 219 
 SPBC HZ I         634 12.71         2.5 0.28            130            158 219 
                                                                                
