 2011  3 9 0735  9.5 L   6.759 -74.024101.7  RSN  5 0.6 1.7LRSN                1
 GAP=164        0.85      15.6    16.8 59.2 -0.2060E+03  0.8009E+03 -0.8029E+03E
 Epicentro: PUERTO PARRA - SANTANDER                                           3
 ACTION:UP  11-06-16 14:32 OP:jfem STATUS:               ID:20110309073226 L   I
 2011-03-09-0732-26S.COL___135                                                 6
 STAT SP IPHASW D HRMM SECON CODA AMPLIT PERI AZIMU VELO SNR AR TRES W  DIS CAZ7
 BAR2 SZ EP        735 28.79                             134     0.410   95 101 
 BAR2 SZ ES   3    735 42.98                             134    -0.1 2   95 101 
 RUS  HZ EP   3    735 33.09                             122    -0.2 2  141 133 
 RUS  HE ES   3    735 50.73                             122    -1.0 2  141 133 
 RUS  HZ I         735 52.48         4.1 0.29                           141 133 
 OCA  SZ EP        735 36.83                             115    -0.3 9  181  25 
 OCA  SZ I         736  1.89         6.0 0.17                           181  25 
 GRA  SZ IP   3    735 35.52                             114    -1.9 2  183  47 
 GUY  SN ES   2    736  8.12                             109    -0.3 4  226 221 
 GUY  SZ I         736 10.04         7.0 0.15                           226 221 
                                                                                
