 2017  3 9 0200  5.0 L   6.818 -73.157149.6  RSN  6 0.2 0.9LRSN                1
 GAP=134        0.52       2.9     2.8  4.4 -0.1109E+01  0.2096E+01 -0.9765E+00E
 Epicentro: LOS SANTOS - SANTANDER                                             3
 ACTION:UPD 17-05-25 18:38 OP:jn   STATUS:               ID:20170309020005 L   I
 OLDACT:REG 17-03-09 12:30 OP:and  STATUS:               ID:20170309015747     3
 2017-03-09-0158-00M.COL___403                                                 6
 STAT SP IPHASW D HRMM SECON CODA AMPLIT PERI AZIMU VELO AIN AR TRES W  DIS CAZ7
 BAR2 EZ EP        2 0 24.86                             170   -0.2910 25.2 186 
 BAR2 EZ ES        2 0 40.85                             170    0.0010 25.2 186 
 BRR  HZ EP        2 0 26.80                             154    0.3310 69.1 298 
 BRR  HN ES   2    2 0 43.47                             154    0.27 5 69.1 298 
 PAM  EZ IP     D  2 0 27.74                             152    0.1410 76.7  41 
 PAM  EN ES        2 0 45.10                             152   -0.1210 76.7  41 
 PAM  EZ I         2 0 45.60         1.6 0.26            153           76.7  41 
 RUS  HZ EP        2 0 29.19                             144   -0.1110  103 175 
 RUS  HN ES        2 0 48.27                             144    0.0310  103 175 
 RUS  HZ I         2 0 49.46         1.0 0.30            144            103 175 
 PTB  HZ EP   2    2 0 32.53                             133    0.30 5  147 258 
 PTB  HN ES        2 0 53.46                             133    0.01 9  147 258 
 PTB  HZ I         2 0 54.19         1.4 0.32            133            147 258 
 ZAR  HN ES   2    2 1  2.20                             123   -0.67 4  202 292 
                                                                                
