 2010  9 9 0155 41.0 L   6.796 -73.059138.4  RSN 10 0.4 2.5LRSN                1
 GAP=168        0.89       3.3     7.4  6.6 -0.1016E+02  0.2346E+01  0.2056E+01E
 Epicentro: LOS SANTOS - SANTANDER                                             3
 ACTION:DUP 11-02-18 11:01 OP:tino STATUS:               ID:20100909015542dL   I
 2010-09-09-0153-31S.COL___120                                                 6
 STAT SP IPHASW D HRMM SECON CODA AMPLIT PERI AZIMU VELO SNR AR TRES W  DIS CAZ7
 BAR2 SZ IP        156  0.05                             169     0.310   26 211 
 BAR2 SZ ES   1    156 14.31                             169    -0.1 7   26 211 
 BAR2 SZ I         156 16.21        76.9 0.18                            26 211 
 GIR2 SZ EP   1    155 59.13                             165    -0.7 7   35 335 
 BRR  HZ IP     C  156  1.91                             148     0.110   80 296 
 BRR  HE ES   1    156 18.39                             148     0.2 7   80 296 
 BRR  HZ I         156 22.82        57.4 0.19                            80 296 
 RUS  HZ EP   1    156  4.02                             142     0.1 7  100 182 
 RUS  HZ I         156  5.30        32.3 0.05                           100 182 
 RUS  HN ES   1    156 22.09                             142     0.2 7  100 182 
 GUE  SZ EP        156  5.13                             138     0.210  115   7 
 GRA  SZ IP        156  5.87                             136     0.510  124  13 
 GRA  SZ ES   1    156 23.66                             136    -0.8 7  124  13 
 GRA  SZ I         156 26.44        23.4 0.17                           124  13 
 OCA  SZ EP   1    156  8.37                             127    -0.5 7  162 350 
 OCA  SZ ES   1    156 30.73                             127     0.1 7  162 350 
 OCA  SZ I         156 34.87        37.4 0.34                           162 350 
 CHI  HZ EP   1    156 18.40                             115    -0.1 6  251 197 
 CHI  HE ES   1    156 47.66                             115    -0.1 6  251 197 
 CHI  HZ I         156 51.08        10.7 0.42                           251 197 
 RREF HZ EP   1    156 27.90                             109     0.3 5  329 231 
 RREF HN ES   1    157  4.02                             109     0.0 5  329 231 
 RREF HZ I         157 11.78        17.6 0.42                           329 231 
 PRA  HZ EP   1    156 34.64                             105    -0.1 4  396 211 
 PRA  HE ES   1    157 15.89                             105    -0.8 4  396 211 
 PRA  HZ I         157 22.89        21.7 0.51                           396 211 
                                                                                
