 2014  3 9 0335 28.5 L   6.792 -73.191135.3  RSN  6 0.5 2.0LRSN                1
 GAP=131        1.23       6.2     5.5  9.7 -0.4541E+00  0.2103E+02 -0.1004E+02E
 Epicentro: ZAPATOCA - SANTANDER                                               3
 ACTION:UPD 14-04-09 23:15 OP:nd   STATUS:               ID:20140309033528 L   I
 OLDACT:REG 14-03-09 09:32 OP:nd   STATUS:               ID:20140309033044     3
 2014-03-09-0330-44M.COL___217                                                 6
 STAT SP IPHASW D HRMM SECON CODA AMPLIT PERI AZIMU VELO AIN AR TRES W  DIS CAZ7
 BAR2 SZ EP        335 46.77                             170   -0.0410 22.1 177 
 BAR2 SZ ES        336  1.55                             170    0.4310 22.1 177 
 BAR2 SZ I         336  2.70        25.6 0.34            172           22.1 177 
 PAM  SZ EP     D  335 49.74                             147   -0.0910 81.3  42 
 PAM  SN ES        336  6.23                             147   -0.2610 81.3  42 
 PAM  SZ I         336  8.67       451.5 0.48            150           81.3  42 
 RUS  HZ EP        335 50.82                             142   -0.3510  100 173 
 RUS  HN ES        336  9.11                             142    0.2310  100 173 
 RUS  HZ I         336 11.41         2.7 0.32            145            100 173 
 PTB  HZ EP        335 53.63                             131   -0.49 9  143 259 
 PTB  HN ES        336 13.79                             131   -0.34 9  143 259 
 PTB  HZ I         336 15.94         6.0 0.18            132            143 259 
 ZAR  HZ EP        336  1.14                             121    1.35 9  200 293 
 ZAR  HN ES        336 23.96                             121   -0.27 9  200 293 
 ZAR  HZ I         336 31.15         7.1 0.46            122            200 293 
 URE  HZ EP   4    336  9.50                             112    0.95 0  280 292 
 URE  HN ES   4    336 37.17                             112   -2.65 0  280 292 
 URE  HZ I         336 38.99         3.7 0.16            114            280 292 
                                                                                
