 2017  8 9 0414 47.5 L   6.820 -73.150143.9  RSN 17 0.7 2.0LRSN                1
 GAP=111        1.40       4.3     4.2  7.0  0.1848E+01  0.1039E+02  0.4882E+01E
 Epicentro: LOS SANTOS - SANTANDER                                             3
 ACTION:UPD 17-09-04 20:18 OP:rebc STATUS:               ID:20170809041447 L   I
 OLDACT:UP  17-08-09 16:13 OP:dhb  STATUS:               ID:20170809040735     3
 OLDACT:REG 17-08-09 12:25 OP:dhb  STATUS:               ID:20170809040735     3
 2017-08-09-0408-00M.COL___399                                                 6
 STAT SP IPHASW D HRMM SECON CODA AMPLIT PERI AZIMU VELO AIN AR TRES W  DIS CAZ7
 BAR2 EZ EP        415  6.80                             170   -0.1910 25.5 188 
 BAR2 EZ ES        415 21.74                             170   -0.4210 25.5 188 
 BAR2 EZ I         415 23.26        39.3 0.24            167           25.5 188 
 BRR  HZ IP     C  415  8.76                             153    0.3510 69.8 297 
 BRR  HN ES        415 25.76                             153    1.0810 69.8 297 
 BRR  HZ I         415 26.85        22.3 0.14            151           69.8 297 
 PAM  EZ EP        415  9.71                             151    0.2410 76.0  41 
 PAM  EN ES        415 26.76                             151    0.1810 76.0  41 
 PAM  EZ I         415 27.31        11.6 0.13            154           76.0  41 
 RUS  HZ EP        415 11.09                             143   -0.1810  103 176 
 RUS  HN ES        415 29.39                             143   -0.3910  103 176 
 RUS  HZ I         415 30.01        19.9 0.42            142            103 176 
 PTB  HZ EP        415 13.68                             132   -0.68 9  148 258 
 PTB  HN ES        415 34.55                             132   -0.72 9  148 258 
 PTB  HZ I         415 36.73        10.8 0.18            130            148 258 
 SPBC HZ EP        415 15.87                             128   -0.17 9  165 218 
 SPBC HN ES        415 37.99                             128   -0.27 9  165 218 
 SPBC HZ I         415 41.54        18.3 0.19            127            165 218 
 YPLC HZ IP     D  415 17.08                             126   -0.34 9  179 152 
 YPLC HE ES        415 41.51                             126    0.80 9  179 152 
 YPLC HZ I         415 44.93         5.6 0.26            126            179 152 
 ZAR  HZ EP        415 20.61                             122    0.87 9  203 292 
 ZAR  HE ES        415 44.71                             122   -0.14 9  203 292 
 ZAR  HZ I         415 51.62        20.6 0.22            122            203 292 
 NOR  HZ EP        415 23.56                             118    0.29 8  236 234 
 NOR  HN ES        415 50.66                             118   -0.47 8  236 234 
 NOR  HZ I         415 56.25         6.5 0.12            117            236 234 
 HEL  HZ EP   3    415 29.47                             114    1.79 2  272 255 
 HEL  HE ES        415 59.45                             114    0.47 8  272 255 
 HEL  HZ I         416  7.30         7.8 0.20            114            272 255 
 URE  HZ EP   4    415 31.48                             113    3.10 0  283 292 
 URE  HE ES   4    415 58.68                             113   -1.56 0  283 292 
 URE  HZ I         416  0.14         8.6 0.14            113            283 292 
 GUY2CHZ EP        415 31.94                             112    0.77 7  302 234 
 GUY2CHN ES        416  5.30                             112    0.10 7  302 234 
 GUY2CHZ I         416 11.45         5.6 0.32                           302 234 
 PTGC HZ EP   3    415 29.80                             111   -1.77 2  311 159 
 PTGC HN ES   3    416  3.10                             111   -2.81 2  311 159 
 PTGC HZ I         416  9.06         4.9 0.34            111            311 159 
 CBOC HZ EP   2    415 34.99                             109    0.58 3  334 252 
 CBOC HE ES        416 11.86                             109    0.89 7  334 252 
 CBOC HZ I         416 22.76         2.6 0.12            109            334 252 
 DBB  EZ EP        415 35.65                             109    0.77 7  339 274 
 DBB  EN ES        416 11.39                             109   -0.40 7  339 274 
 DBB  EZ I         416 14.10         3.4 0.13            109            339 274 
 PRA  HZ EP        415 41.20                             106   -0.00 6  394 209 
 PRA  HN ES        416 22.17                             106   -0.88 6  394 209 
 PRA  HZ I         416 28.51         2.2 0.26            106            394 209 
 SJC  HZ EP   4    415 41.47                             105   -1.33 0  407 327 
 SJC  HN ES        416 23.29                             105   -2.60 6  407 327 
 SJC  HZ I         416 26.88         3.3 0.58            106            407 327 
                                                                                
