 2017 11 9 0417 17.5 L   6.819 -73.138141.7  RSN 18 0.4 2.0LRSN                1
 GAP= 66        0.84       2.2     2.3  4.0 -0.7483E-01  0.1357E+01  0.1202E+01E
 Epicentro: LOS SANTOS - SANTANDER                                             3
 ACTION:UPD 17-12-12 19:53 OP:rebc STATUS:               ID:20171109041717 L   I
 OLDACT:UP  17-11-09 14:29 OP:dnl  STATUS:               ID:20171109040738     3
 OLDACT:REG 17-11-09 13:55 OP:dnl  STATUS:               ID:20171109040738     3
 2017-11-09-0408-00M.COL___455                                                 6
 STAT SP IPHASW D HRMM SECON CODA AMPLIT PERI AZIMU VELO AIN AR TRES W  DIS CAZ7
 BAR2 EZ IP     C  417 36.52                             169   -0.1910 25.6 191 
 BAR2 EZ ES        417 50.87                             169   -0.8010 25.6 191 
 BAR2 EZ I         417 52.73        34.2 0.16            166           25.6 191 
 BRR  HZ EP        417 38.39                             152    0.1710 71.0 297 
 BRR  HN ES        417 54.98                             152    0.6210 71.0 297 
 BRR  HZ I         417 59.08        22.8 0.12            151           71.0 297 
 PAM  EZ EP        417 39.45                             151    0.2810 75.2  40 
 PAM  EN ES        417 56.07                             151    0.0110 75.2  40 
 PAM  EZ I         417 56.78        11.7 0.34            156           75.2  40 
 RUS  HZ EP        417 40.61                             142   -0.4210  103 177 
 RUS  HE ES        417 59.36                             142    0.0010  103 177 
 RUS  HZ I         418  1.19         4.6 0.16            142            103 177 
 PTB  HZ EP        417 44.49                             131    0.21 9  149 258 
 PTB  HN ES        418  4.76                             131   -0.39 9  149 258 
 PTB  HZ I         418 10.06         6.5 0.10            130            149 258 
 TAM  HZ EP        417 45.00                             130    0.15 9  155 106 
 TAM  HN ES        418  6.45                             130    0.28 9  155 106 
 TAM  HZ I         418  6.94         9.2 0.40            132            155 106 
 SPBC HZ EP        417 45.64                             128   -0.28 9  165 219 
 SPBC HE ES        418  8.23                             128    0.16 9  165 219 
 SPBC HZ I         418 12.18        17.6 0.16            127            165 219 
 YPLC HZ EP        417 47.14                             125   -0.03 9  178 152 
 YPLC HE ES        418 10.64                             125    0.35 9  178 152 
 YPLC HZ I         418 16.11         7.7 0.26            126            178 152 
 ZAR  HZ EP   2    417 49.42                             121   -0.29 4  204 291 
 ZAR  HE ES        418 14.94                             121    0.13 9  204 291 
 ZAR  HZ I         418 21.08        13.1 0.70            122            204 291 
 CHI  HZ EP        417 55.06                             116   -0.19 8  251 195 
 CHI  HE ES   4    418 26.15                             116    1.48 0  251 195 
 CHI  HZ I         418 31.82         3.7 0.36            116            251 195 
 ROSC BZ EP   4    417 57.05                             115    1.38 0  255 211 
 ROSC BN ES        418 25.40                             115   -0.03 8  255 211 
 ROSC BZ I         418 35.41         8.8 0.35            116            255 211 
 URE  HZ EP   4    417 56.96                             113   -1.44 0  284 291 
 URE  HN ES   4    418 27.27                             113   -3.01 0  284 291 
 URE  HZ I         418 31.63         6.8 0.36            114            284 291 
 DRL03HZ EP        417 58.12                             112   -0.59 7  287 353 
 DRL03HE ES        418 30.82                             112   -0.02 7  287 353 
 GUY2CHZ EP        418  1.82                             111    0.66 7  303 235 
 GUY2CHN ES        418 35.69                             111    0.49 7  303 235 
 GUY2CHZ I         418 42.94         3.2 0.60                           303 235 
 PTGC HZ EP   4    418  0.03                             111   -1.36 0  310 159 
 PTGC HE ES   4    418 33.60                             111   -2.00 0  310 159 
 PTGC HZ I         418 37.88         5.2 0.34            111            310 159 
 PRA  HZ EP        418 10.70                             106   -0.47 6  394 210 
 PRA  HN ES        418 52.80                             106   -0.22 6  394 210 
 PRA  HZ I         418 58.55         5.7 0.28            106            394 210 
 ORTC HZ EP        418 11.65                             105    0.08 6  398 216 
 ORTC HE ES   4    418 55.90                             105    2.18 0  398 216 
 ORTC HZ I         418 58.97         1.6 0.52            106            398 216 
 SJC  HZ EP   4    418 11.28                             105   -1.52 0  408 327 
 SJC  HN ES   4    418 51.25                             105   -4.67 0  408 327 
 SJC  HZ I         418 56.42         2.8 0.50            106            408 327 
                                                                                
