 2015  9 9 0835 52.7 L   6.818 -73.138143.8  RSN  5 0.6 1.1LRSN                1
 GAP=216        1.59       8.6    12.5 11.4  0.8644E+01  0.9797E+01 -0.1675E+02E
 Epicentro: LOS SANTOS - SANTANDER                                             3
 ACTION:UPD 15-10-28 16:25 OP:cam  STATUS:               ID:20150909083552 L   I
 OLDACT:DUP 15-09-09 19:01 OP:stll STATUS:               ID:20150909082749d    3
 2015-09-09-0827-48M.COL___355                                                 6
 STAT SP IPHASW D HRMM SECON CODA AMPLIT PERI AZIMU VELO AIN AR TRES W  DIS CAZ7
 BAR2 EZ EP        836 12.41                             169    0.2510 25.5 191 
 BAR2 EZ ES        836 26.44                             169   -0.8910 25.5 191 
 BAR2 EZ I         836 30.20         2.3 0.38            167           25.5 191 
 BRR  HZ EP        836 14.23                             152    0.5810 71.0 297 
 BRR  HN ES        836 31.05                             152    1.0810 71.0 297 
 BRR  HZ I         836 36.48         3.3 0.50            149           71.0 297 
 PTB  HZ EP        836 19.30                             131   -0.34 9  149 258 
 PTB  HN ES        836 40.03                             131   -0.62 9  149 258 
 PTB  HZ I         836 47.55         1.5 0.30            131            149 258 
 SPBC HZ EP        836 21.78                             128    0.51 9  165 219 
 SML  HZ EP        836 28.55                             117   -0.53 8  242 335 
 SML  HE ES        836 57.01                             117   -0.42 8  242 335 
 SML  HZ I         837  0.46         1.2 0.10            120            242 335 
                                                                                
