 2012  4 9 0041 52.9 L   6.756 -73.135148.0  RSN  5 0.3 1.4LRSN                1
 GAP=140        0.70       4.9     4.4  9.1  0.1646E+01  0.3498E+01  0.1775E+01E
 Epicentro: LOS SANTOS - SANTANDER                                             3
 ACTION:UPD 12-07-05 11:51 OP:tino STATUS:               ID:20120409004152 L   I
 2012-04-09-0040-00M.COL___196                                                 6
 STAT SP IPHASW D HRMM SECON CODA AMPLIT PERI AZIMU VELO AIN AR TRES W  DIS CAZ7
 BRR  HZ EP   1    042 14.61                             152     0.1 7   75 301 
 BRR  HE ES   1    042 31.78                             152     0.5 7   75 301 
 BRR  HZ I         042 36.81         6.9 0.14                            75 301 
 PAM  SZ EP   1    042 15.56                             150     0.0 7   80  37 
 PAM  SZ I         042 15.80         4.5 0.20                            80  37 
 PAM  SN ES   1    042 32.83                             150    -0.4 7   80  37 
 RUS  HZ EP   1    042 16.56                             146     0.1 7   96 177 
 RUS  HN ES   1    042 35.01                             146     0.1 7   96 177 
 RUS  HZ I         042 36.72         2.0 0.39                            96 177 
 PTB  HN ES   1    042 40.79                             132    -0.5 7  148 261 
 PTB  HZ I         042 46.44         2.9 0.31                           148 261 
 ZAR  HN ES   1    042 51.45                             122     0.0 6  207 293 
 ZAR  HZ I         042 58.22         3.0 0.15                           207 293 
                                                                                
