 2015 10 9 0758 48.3 L   6.726 -73.588104.1  RSN  8 0.5 1.5LRSN                1
 GAP= 98        1.05       3.0     4.2  8.2  0.1666E+01  0.1431E+02 -0.9424E+00E
 Epicentro: EL CARMEN - SANTANDER                                              3
 ACTION:UPD 15-12-22 20:38 OP:cam  STATUS:               ID:20151009075848 L   I
 OLDACT:UP  15-10-09 18:24 OP:nlst STATUS:               ID:20151009075848 L   3
 OLDACT:UP  15-10-09 17:58 OP:ak   STATUS:               ID:20151009074750     3
 OLDACT:UP  15-10-09 17:55 OP:ak   STATUS:               ID:20151009074750     3
 OLDACT:REG 15-10-09 13:19 OP:ak   STATUS:               ID:20151009074750     3
 2015-10-09-0747-50M.COL___292                                                 6
 STAT SP IPHASW D HRMM SECON CODA AMPLIT PERI AZIMU VELO AIN AR TRES W  DIS CAZ7
 BRR  HZ EP   1    759  3.66                             155    0.21 7 44.3 342 
 BRR  HN ES        759 14.93                             155   -0.3310 44.3 342 
 BAR2 EZ EP        759  4.09                             154    0.1410 47.2 108 
 BAR2 EZ ES        759 16.47                             154    0.3210 47.2 108 
 BAR2 EZ I         759 17.63         5.6 0.15            151           47.2 108 
 RUS  HZ EP        759  8.56                             131   -0.3410  108 149 
 RUS  HN ES        759 24.90                             131   -0.0610  108 149 
 RUS  HZ I         759 25.84         7.1 0.23            129            108 149 
 SPBC HN ES        759 27.91                             124    0.0210  130 204 
 ZAR  HN ES        759 33.42                             117   -0.57 9  164 301 
 OCA  HN ES        759 35.36                             116   -0.13 9  170  10 
 OCA  HZ I         759 41.25         8.1 0.30            114            170  10 
 HEL  HZ EP   1    759 20.08                             109   -0.94 6  223 255 
 HEL  HN ES        759 47.41                             109    0.87 8  223 255 
 SML  HE ES        759 49.05                             108    0.69 8  236 347 
                                                                                
