 2015  1 9 0140 28.0 L   6.814 -73.182142.7  RSN  6 0.5 1.5LRSN                1
 GAP=198        1.23       4.9     8.0  8.3  0.8331E+01  0.5927E+01 -0.8033E+01E
 Epicentro: ZAPATOCA - SANTANDER                                               3
 ACTION:UPD 15-03-02 15:38 OP:nd   STATUS:               ID:20150109014028 L   I
 OLDACT:REG 15-01-09 13:47 OP:cam  STATUS:               ID:20150109013813     3
 2015-01-09-0138-13M.COL___265                                                 6
 STAT SP IPHASW D HRMM SECON CODA AMPLIT PERI AZIMU VELO AIN AR TRES W  DIS CAZ7
 BAR2 EZ ES        141  1.86                             170   -0.4610 24.5 180 
 BAR2 EZ I         141  3.68        12.6 0.22            170           24.5 180 
 BRR  HZ EP        140 49.20                             153    0.6210 66.9 299 
 BRR  HN ES        141  5.17                             153    0.5410 66.9 299 
 RUS  HZ EP        140 51.41                             143   -0.1810  102 174 
 RUS  HN ES        141  9.90                             143   -0.0810  102 174 
 RUS  HZ I         141 11.76         2.4 0.18            144            102 174 
 PTB  HZ EP        140 54.14                             132   -0.24 9  144 258 
 PTB  HN ES        141 14.09                             132   -0.87 9  144 258 
 PTB  HZ I         141 18.38         2.0 0.32            131            144 258 
 SPBC HZ EP        140 56.47                             129    0.33 9  162 218 
 SPBC HN ES        141 18.71                             129    0.63 9  162 218 
 SPBC HZ I         141 22.92         5.8 0.42            128            162 218 
 SML  HZ EP        141  3.53                             117   -0.60 8  241 336 
 SML  HN ES        141 32.49                             117    0.19 8  241 336 
 SML  HZ I         141 37.99         4.9 0.26            117            241 336 
                                                                                
