 2010 11 9 0314  1.1 L   6.814 -73.008143.3  RSN 10 0.5 2.5LRSN                1
 GAP=170        0.94       3.6     5.9  6.5  0.4167E+00  0.8026E+00  0.2996E+01E
 Epicentro: CEPITA - SANTANDER                                                 3
 ACTION:UP  10-12-17 16:51 OP:REBC STATUS:               ID:20101109031400 L   I
 2010-11-09-0311-50S.COL___125                                                 6
 STAT SP IPHASW D HRMM SECON CODA AMPLIT PERI AZIMU VELO SNR AR TRES W  DIS CAZ7
 BAR2 SZ EP        314 20.60                             167     0.010   31 218 
 BAR2 SZ ES   1    314 35.31                             167    -0.5 7   31 218 
 BAR2 SZ I         314 38.36        58.4 0.03                            31 218 
 BRR  HZ EP        314 22.38                             148    -0.410   84 293 
 BRR  HZ I         314 22.69       101.7 0.27                            84 293 
 BRR  HN ES        314 39.92                             148     0.210   84 293 
 RUS  HZ EP        314 24.36                             143    -0.310  102 185 
 RUS  HN ES        314 43.27                             143     0.110  102 185 
 RUS  HZ I         314 44.32        21.8 0.39                           102 185 
 OCA  SZ EP        314 28.97                             129    -0.3 9  161 348 
 OCA  SZ ES   1    314 52.10                             129     0.8 7  161 348 
 OCA  SZ I         314 57.30        31.1 0.50                           161 348 
 YOP  SZ EP        314 30.87                             127     0.4 9  174 158 
 YOP  SN ES   3    314 55.12                             127     1.7 2  174 158 
 ROSC BN ES   1    315 11.00                             115     0.5 6  262 214 
 ROSC BZ I         315 16.56        15.3 0.76                           262 214 
 HEL  HZ EP   2    314 42.84                             113     0.0 4  287 256 
 HEL  HE ES   3    315 15.90                             113     0.4 2  287 256 
 HEL  HZ  AML      315 19.25        13.1 0.29                           287 256 
 GUY  SZ EP   2    314 46.89                             111     0.8 3  315 236 
 GUY  SN ES   1    315 20.73                             111    -0.5 5  315 236 
 GUY  SZ  AML      315 26.64        15.3 0.43                           315 236 
 RREF HZ EP   1    314 48.67                             110     0.1 5  334 231 
 RREF HN ES   1    315 26.14                             110     0.5 5  334 231 
 RREF HZ I         315 28.84        11.6 0.16                           334 231 
 PRA  HZ EP   2    314 54.96                             106    -0.6 3  401 211 
 PRA  HE ES   1    315 37.72                             106    -0.4 4  401 211 
 PRA  HZ I         315 42.26        26.2 1.70                           401 211 
                                                                                
