 2015 11 9 0827 33.1 L   6.822 -73.188144.5  RSN 19 0.4 2.2LRSN                1
 GAP=130        0.99       2.3     3.5  5.0 -0.1104E+01  0.7234E+01  0.5082E+00E
 Epicentro: ZAPATOCA - SANTANDER                                               3
 ACTION:UPD 15-12-28 16:09 OP:cam  STATUS:               ID:20151109082733 L   I
 OLDACT:REG 15-11-09 13:53 OP:dnl  STATUS:               ID:20151109081737     3
 2015-11-09-0817-37M.COL___313                                                 6
 STAT SP IPHASW D HRMM SECON CODA AMPLIT PERI AZIMU VELO AIN AR TRES W  DIS CAZ7
 BAR2 EZ EP     D  827 52.70                             170    0.1010 25.4 179 
 BAR2 EZ ES        828  7.04                             170   -0.7910 25.4 179 
 BAR2 EZ I         828  8.87        31.0 0.26            170           25.4 179 
 BRR  HZ EP     C  827 54.55                             154    0.7510 65.9 299 
 BRR  HN ES        828 10.63                             154    0.6710 65.9 299 
 BRR  HZ I         828 15.64        21.0 0.30            149           65.9 299 
 PAM  EZ EP        827 55.67                             150    0.4410 78.6  43 
 PAM  EE ES        828 12.44                             150   -0.0710 78.6  43 
 PAM  EZ I         828 14.86        22.3 0.50            154           78.6  43 
 RUS  HZ EP        827 56.58                             143   -0.3310  103 174 
 RUS  HE ES        828 15.50                             143   -0.0010  103 174 
 RUS  HZ I         828 16.93        11.9 0.46            147            103 174 
 OCA  HZ EP        828  0.58                             130   -0.43 9  157 355 
 OCA  HE ES        828 22.63                             130   -0.17 9  157 355 
 OCA  HZ I         828 31.19        33.7 0.22            130            157 355 
 SPBC HZ EP        828  1.49                             129    0.10 9  162 217 
 SPBC HN ES        828 23.67                             129    0.20 9  162 217 
 SPBC HZ I         828 28.33        27.8 0.32            130            162 217 
 ZAR  HZ EP        828  4.93                             123    0.03 9  199 292 
 ZAR  HN ES        828 29.77                             123    0.05 9  199 292 
 ZAR  HZ I         828 36.00        16.8 0.40            122            199 292 
 NOR  HZ EP        828  8.92                             118    0.44 8  232 233 
 NOR  HE ES        828 36.44                             118    0.34 8  232 233 
 NOR  HZ I         828 44.69        10.0 0.12            119            232 233 
 SML  HZ EP        828  8.73                             118   -0.45 8  240 336 
 SML  HN ES        828 37.57                             118    0.23 8  240 336 
 SML  HZ I         828 47.36        26.5 0.10            118            240 336 
 CHI  HZ EP        828 11.00                             117    0.17 8  250 194 
 CHI  HE ES        828 39.61                             117   -0.67 8  250 194 
 CHI  HZ I         828 43.71        11.0 0.60            119            250 194 
 ROSC BZ EP   4    828 12.58                             116    1.48 0  253 210 
 ROSC BN ES   4    828 39.44                             116   -1.32 0  253 210 
 ROSC BZ I         828 47.04        22.6 0.40            118            253 210 
 HEL  HZ EP        828 12.64                             115   -0.15 8  268 255 
 HEL  HE ES        828 43.47                             115   -0.30 8  268 255 
 HEL  HZ I         828 50.75         9.1 0.28            115            268 255 
 URE  HZ EP   4    828 10.25                             114   -3.25 0  279 292 
 URE  HN ES   4    828 42.98                             114   -2.05 0  279 292 
 URE  HZ I         828 55.38         9.5 0.22            114            279 292 
 GUY2CHZ EP   4    828 17.71                             112    1.35 0  299 234 
 GUY2CHE ES        828 49.85                             112   -0.27 7  299 234 
 GUY2CHZ I         828 58.93         7.2 0.38                           299 234 
 PTGC HZ EP   4    828 15.21                             111   -2.12 0  313 158 
 PTGC HN ES   4    828 49.55                             111   -2.30 0  313 158 
 PTGC HZ I         828 51.23         6.7 0.20            114            313 158 
 CBOC HZ EP        828 19.61                             110    0.09 7  330 251 
 CBOC HE ES        828 55.36                             110   -0.38 7  330 251 
 MON  HZ EP   4    828 19.67                             109   -1.76 0  349 309 
 MON  HE ES        828 58.12                             109   -1.02 6  349 309 
 MON  HZ I         829 13.57         3.3 0.56            109            349 309 
 ORTC HZ EP        828 27.55                             106    0.69 6  395 215 
 ORTC HN ES        829  9.08                             106    0.26 6  395 215 
 ORTC HZ I         829 14.10         5.5 0.20            107            395 215 
 SJC  HZ EP   4    828 26.37                             106   -1.69 0  405 327 
 SJC  HN ES   4    829  7.42                             106   -3.52 0  405 327 
 SJC  HZ I         829 15.77         2.3 0.40            106            405 327 
                                                                                
