 2011 10 9 0349 35.7 L   6.756 -73.099141.4  RSN  5 0.3 1.4LRSN                1
 GAP=145        0.66       4.7     6.9  6.7 -0.1261E+01 -0.2405E+01 -0.1198E+01E
 Epicentro: LOS SANTOS - SANTANDER                                             3
 ACTION:UPD 12-07-13 16:02 OP:ep   STATUS:               ID:20111009034935 L   I
 2011-10-09-0340-00M.COL___171                                                 6
 STAT SP IPHASW D HRMM SECON CODA AMPLIT PERI AZIMU VELO AIN AR TRES W  DIS CAZ7
 BAR2 SZ EP        349 54.88                             171    0.1710 20.3 207 
 BAR2 SZ ES   1    350  9.78                             171    0.21 7 20.3 207 
 BAR2 SZ I         350 11.29         5.1 0.22                          20.3 207 
 GIR2 SZ EP   1    349 54.96                             164   -0.04 7 37.2 344 
 GIR2 SZ ES   1    350  9.54                             164   -0.54 7 37.2 344 
 BRR  HZ EP   1    349 56.27                             149   -0.49 7 78.1 300 
 BRR  HE ES   1    350 13.63                             149    0.41 7 78.1 300 
 BRR  HZ I         350 16.58         6.2 0.15                          78.1 300 
 PAM  SZ EP   1    349 57.73                             150    0.26 7 78.2  34 
 PAM  SN ES   1    350 14.51                             150    0.04 7 78.2  34 
 RUS  HN ES   1    350 16.39                             144   -0.14 7 95.5 179 
 RUS  HZ I         350 16.79         2.8 0.86                          95.5 179 
                                                                                
