 2012  8 9 0017 20.7 L   6.737 -73.122142.1  RSN  5 0.2 1.7LRSN                1
 GAP=168        0.51       5.0     2.9  4.1 -0.2618E+01  0.2489E+01 -0.2704E+01E
 Epicentro: JORDAN - SANTANDER                                                 3
 ACTION:UPD 12-09-10 11:55 OP:ep   STATUS:               ID:20120809001720 L   I
 2012-08-09-0010-00M.COL___215                                                 6
 STAT SP IPHASW D HRMM SECON CODA AMPLIT PERI AZIMU VELO AIN AR TRES W  DIS CAZ7
 BAR2 SZ EP   1    017 39.92                             173    0.16 7 17.3 203 
 BAR2 SZ ES        017 54.67                             173    0.0410 17.3 203 
 BAR2 SZ I         017 58.38        15.0 0.20                          17.3 203 
 BRR  HZ EP        017 41.94                             150    0.1610 77.0 302 
 BRR  HN ES        017 58.43                             150    0.2010 77.0 302 
 BRR  HZ I         018  0.47        13.8 0.31                          77.0 302 
 PAM  SZ EP        017 42.82                             149    0.0710 81.3  35 
 PAM  SE ES   1    017 59.52                             149   -0.44 7 81.3  35 
 PTB  HZ EP   1    017 47.12                             131   -0.36 7  149 262 
 PTB  HE ES   1    018  8.10                             131   -0.28 7  149 262 
 PTB  HZ I         018 12.31         3.7 0.20                           149 262 
 ZAR  HZ EP   1    017 53.43                             121    0.00 6  209 294 
 ZAR  HN ES   1    018 18.94                             121   -0.03 6  209 294 
 ZAR  HZ I         018 24.86         5.7 0.24                           209 294 
                                                                                
