 2017  4 9 0718 50.5 L   6.791 -73.136150.0  RSN 10 0.4 1.6LRSN                1
 GAP=120        0.81       3.2     3.5  5.2  0.1217E+01  0.2975E+01  0.4716E+01E
 Epicentro: LOS SANTOS - SANTANDER                                             3
 ACTION:UPD 17-05-30 21:10 OP:jn   STATUS:               ID:20170409071850 L   I
 OLDACT:UP  17-04-09 17:03 OP:and  STATUS:               ID:20170409071745     3
 OLDACT:UP  17-04-09 17:03 OP:and  STATUS:               ID:20170409071745     3
 OLDACT:UP  17-04-09 17:01 OP:and  STATUS:               ID:20170409071745     3
 OLDACT:UP  17-04-09 17:01 OP:and  STATUS:               ID:20170409071745     3
 OLDACT:UP  17-04-09 17:00 OP:and  STATUS:               ID:20170409071745     3
 OLDACT:UP  17-04-09 17:00 OP:and  STATUS:               ID:20170409071745     3
 OLDACT:UP  17-04-09 17:00 OP:and  STATUS:               ID:20170409071745     3
 OLDACT:UP  17-04-09 16:59 OP:and  STATUS:               ID:20170409071745     3
 OLDACT:UP  17-04-09 16:58 OP:and  STATUS:               ID:20170409071745     3
 OLDACT:REG 17-04-09 13:02 OP:and  STATUS:               ID:20170409071745     3
 2017-04-09-0718-00M.COL___371                                                 6
 STAT SP IPHASW D HRMM SECON CODA AMPLIT PERI AZIMU VELO AIN AR TRES W  DIS CAZ7
 BAR2 EZ EP        719 10.63                             171    0.0110 22.6 193 
 BAR2 EZ ES        719 25.83                             171   -0.4910 22.6 193 
 BAR2 EZ I         719 28.49        13.5 0.42            167           22.6 193 
 BRR  HZ EP   2    719 12.47                             152    0.29 5 72.6 299 
 BRR  HN ES        719 29.62                             152    0.5310 72.6 299 
 BRR  HZ I         719 33.63         6.8 0.18            151           72.6 299 
 PAM  EZ IP     C  719 13.44                             151    0.2710 77.5  38 
 PAM  EN ES        719 30.68                             151   -0.1810 77.5  38 
 PAM  EZ I         719 32.83         5.3 0.52            157           77.5  38 
 RUS  HZ EP        719 14.69                             145    0.0910 99.5 177 
 RUS  HN ES        719 33.26                             145   -0.1310 99.5 177 
 RUS  HZ I         719 34.56         9.9 0.32            145           99.5 177 
 PTB  HZ EP        719 17.62                             132   -0.27 9  149 259 
 PTB  HE ES        719 38.87                             132   -0.38 9  149 259 
 PTB  HZ I         719 45.25         2.6 0.11            131            149 259 
 ZAR  HZ EP   2    719 23.42                             123    0.06 4  205 292 
 ZAR  HN ES        719 49.00                             123    0.01 8  205 292 
 ZAR  HZ I         719 54.36         4.0 0.26            123            205 292 
 NOR  HN ES   2    719 53.96                             119   -0.63 4  235 235 
 NOR  HZ I         720  0.39         2.2 0.19            119            235 235 
 CHI  HZ EP        719 28.90                             118    0.54 8  248 195 
 CHI  HN ES        719 58.49                             118    0.59 8  248 195 
 CHI  HZ I         720  8.07         1.8 0.40            118            248 195 
 ROSC BZ EP   4    719 31.04                             117    2.22 0  252 211 
 ROSC BN ES   4    720  2.39                             117    3.68 0  252 211 
 PTGC HZ EP   2    719 33.74                             112   -0.66 4  307 159 
 PTGC HN ES   2    720  7.76                             112   -0.89 4  307 159 
 SJC  HZ EP   3    719 44.67                             106   -1.69 1  411 327 
 SJC  HN ES   4    720 27.23                             106   -2.71 0  411 327 
                                                                                
