 2015  8 9 0847 50.4 L   6.850 -73.127144.8  RSN 11 0.4 2.0LRSN                1
 GAP=115        1.00       2.8     5.2  6.1  0.1669E+01 -0.2255E+01  0.3246E+00E
 Epicentro: LOS SANTOS - SANTANDER                                             3
 ACTION:UPD 15-09-15 23:01 OP:cam  STATUS:               ID:20150809084751dL   I
 OLDACT:UP  15-08-09 18:16 OP:nlst STATUS:               ID:20150809084751dL   3
 OLDACT:UP  15-08-09 13:20 OP:mh   STATUS:               ID:20150809084443     3
 OLDACT:UP  15-08-09 13:20 OP:mh   STATUS:               ID:20150809084443     3
 OLDACT:UP  15-08-09 13:18 OP:mh   STATUS:               ID:20150809084443     3
 OLDACT:REG 15-08-09 12:59 OP:mh   STATUS:               ID:20150809084443     3
 2015-08-09-0844-43M.COL___346                                                 6
 STAT SP IPHASW D HRMM SECON CODA AMPLIT PERI AZIMU VELO AIN AR TRES W  DIS CAZ7
 BAR2 EZ EP        848  9.92                             168   -0.1710 29.2 192 
 BAR2 EZ ES        848 25.20                             168   -0.2210 29.2 192 
 BAR2 EZ I         848 26.48        17.7 0.16            168           29.2 192 
 BRR  HZ EP     D  848 11.70                             153    0.2410 70.6 294 
 BRR  HN ES        848 28.71                             153    0.8710 70.6 294 
 BRR  HZ I         848 31.14        14.6 0.12            145           70.6 294 
 RUS  HZ EP        848 14.59                             142    0.0910  106 177 
 RUS  HN ES        848 33.49                             142    0.2210  106 177 
 RUS  HZ I         848 34.80         8.1 0.34            139            106 177 
 TAM  HZ EP        848 18.23                             130    0.22 9  155 107 
 OCA  HZ EP   1    848 17.79                             130   -0.40 7  155 352 
 OCA  HN ES        848 39.28                             130   -0.55 9  155 352 
 OCA  HZ I         848 43.76        20.2 0.16            123            155 352 
 SPBC HZ EP        848 19.45                             128    0.04 9  169 218 
 SPBC HN ES        848 41.34                             128   -0.66 9  169 218 
 SPBC HZ I         848 49.44        15.4 0.28            123            169 218 
 ZAR  HN ES   1    848 47.68                             122   -0.39 6  204 290 
 ZAR  HZ I         848 53.38        20.3 0.40            116            204 290 
 SML  HZ EP   1    848 27.07                             118    0.50 6  240 334 
 SML  HN ES        848 54.60                             118   -0.15 8  240 334 
 SML  HZ I         848 58.65        15.6 0.10            112            240 334 
 CHI  HZ EP        848 29.08                             116    0.35 8  255 195 
 CHI  HN ES        848 57.99                             116   -0.61 8  255 195 
 CHI  HZ I         849  2.50         4.7 0.60            112            255 195 
 TOL  SZ EP   4    848 40.43                             109    1.15 0  349 224 
 TOL  SN ES   1    849 18.14                             109    0.76 5  349 224 
 TOL  SZ I         849 25.19         4.1 0.64            104            349 224 
 CVALLEZ EP   4    848 27.08                             106   -18.3 0  405 358 
 CVALLEN ES   4    848 31.62                             106   -56.7 0  405 358 
 SJC  HZ EP   4    848 43.26                             106   -2.31 0  406 326 
 SJC  HN ES   4    849 24.09                             106   -4.47 0  406 326 
 SJC  HZ I         849 36.10         1.6 0.38            101            406 326 
                                                                                
