 2014  3 9 0411  5.2 L   6.851 -73.196141.0  RSN  4 0.4 1.8LRSN                1
 GAP=128        1.05       4.5     5.8 10.4 -0.3062E+01  0.2250E+02 -0.1261E+02E
 Epicentro: ZAPATOCA - SANTANDER                                               3
 ACTION:UPD 14-04-09 23:15 OP:nd   STATUS:               ID:20140309041105 L   I
 OLDACT:REG 14-03-09 09:33 OP:nd   STATUS:               ID:20140309041036     3
 2014-03-09-0410-36M.COL___220                                                 6
 STAT SP IPHASW D HRMM SECON CODA AMPLIT PERI AZIMU VELO AIN AR TRES W  DIS CAZ7
 PAM  SZ EP        411 27.27                             150    0.4210 77.0  45 
 PAM  SN ES        411 44.04                             150    0.2710 77.0  45 
 PAM  SZ I         411 46.51       108.6 0.60            154           77.0  45 
 RUS  HZ EP        411 28.67                             141   -0.2410  107 173 
 RUS  HN ES        411 46.92                             141   -0.5110  107 173 
 RUS  HZ I         411 48.89         3.0 0.34            147            107 173 
 PTB  HZ EP        411 31.75                             132    0.39 9  144 256 
 PTB  HN ES        411 52.09                             132    0.29 9  144 256 
 PTB  HZ I         411 57.03         3.1 0.18            134            144 256 
 SML  HZ EP        411 40.75                             117    0.03 8  236 336 
 SML  HN ES        412  7.59                             117   -0.87 8  236 336 
 SML  HZ I         412 12.83         4.2 0.10            120            236 336 
                                                                                
