 2014  4 9 0319 22.3 L   6.832 -73.143132.0  RSN 16 0.4 2.2LRSN                1
 GAP=135        0.86       2.0     3.6  5.2 -0.8977E+00  0.2975E+01  0.8295E+00E
 Epicentro: LOS SANTOS - SANTANDER                                             3
 ACTION:UPD 14-05-13 23:07 OP:nd   STATUS:               ID:20140409031922 L   I
 OLDACT:UP  14-04-11 04:45 OP:CF   STATUS:               ID:20140409031922 L   3
 OLDACT:DUP 14-04-09 17:00 OP:stll STATUS:               ID:20140409031815d    3
 2014-04-09-0318-14M.COL___253                                                 6
 STAT SP IPHASW D HRMM SECON CODA AMPLIT PERI AZIMU VELO AIN AR TRES W  DIS CAZ7
 PAM  SZ EP   9    319 44.17                             150    1.28 0 74.5  41 
 PAM  SN ES        320  1.00                                    0.7710 74.5  41 
 PAM  HZ I         320  3.16        31.7 0.56            154           74.5  41 
 RUS  HZ EP        319 45.14                             140    0.1410  104 176 
 RUS  HN ES        320  2.66                             140   -0.0510  104 176 
 RUS  HZ I         320  5.90        12.7 0.28            144            104 176 
 PTB  HZ EP        319 47.95                             129   -0.33 9  149 258 
 PTB  HE ES        320  8.46                             129   -0.09 9  149 258 
 PTB  HZ I         320 12.46        14.2 0.32            132            149 258 
 OCA  HZ EP        319 48.80                             128   -0.44 9  157 353 
 OCA  HN ES        320 10.51                             128    0.26 9  157 353 
 OCA  HZ I         320 15.70        15.7 0.14            132            157 353 
 SPBC HZ EP        319 50.30                             126    0.22 9  166 218 
 SPBC HN ES        320 11.86                             126    0.12 9  166 218 
 SPBC HZ I         320 14.66        19.7 0.26            129            166 218 
 ZAR  HZ EP        319 53.78                             120   -0.00 9  203 291 
 ZAR  HN ES        320 19.05                             120    0.72 9  203 291 
 ZAR  HZ I         320 23.93        11.0 0.28            123            203 291 
 NOR  HN ES        320 24.38                             116   -0.63 8  237 234 
 SML  HZ EP        319 57.53                             115   -0.32 8  241 335 
 SML  HN ES        320 25.30                             115   -0.28 8  241 335 
 SML  HZ I         320 30.74        27.3 0.08            119            241 335 
 CHI  HZ EP        319 59.57                             114   -0.10 8  252 195 
 CHI  HN ES        320 28.89                             114    0.08 8  252 195 
 CHI  HZ I         320 38.74         8.4 1.36            118            252 195 
 ROSC BZ EP   4    320  1.55                             114    1.48 0  256 211 
 ROSC BN ES   4    320 27.95                             114   -1.57 0  256 211 
 ROSC BZ I         320 34.97        16.9 0.30            117            256 211 
 HEL  HZ EP        320  2.37                             112    0.38 8  273 255 
 HEL  HN ES        320 32.38                             112   -0.56 8  273 255 
 HEL  HZ I         320 39.99         9.7 0.42            115            273 255 
 GUY2CHZ EP        320  5.84                             110    0.26 7  303 234 
 GUY2CHE ES        320 39.98                             110    0.65 7  303 234 
 GUY2CHZ I         320 47.05         7.3 0.44                           303 234 
 TOL  SZ EP        320 11.00                             107    0.64 6  346 224 
 TOL  SZ ES        320 47.93                             107    0.08 6  346 224 
 ANIL HN ES        320 50.61                             106   -0.04 6  360 224 
 PRA  HZ EP        320 15.18                             104   -0.58 6  395 209 
 PRA  HE ES        320 57.14                             104   -0.32 6  395 209 
 PRA  HZ I         321  1.60         6.2 0.70            107            395 209 
 ORTC HZ EP        320 16.30                             104    0.15 6  398 216 
 ORTC HN ES        320 58.24                             104    0.10 6  398 216 
 ORTC HZ I         321  0.02         3.6 1.06            107            398 216 
 ELOV BZ EP   4    320 15.54                             104   -1.30 0  405  87 
                                                                                
