 2013  9 9 0145 56.1 L   6.771 -73.168141.6  RSN  7 0.4 1.8LRSN                1
 GAP=135        1.03       4.5     4.7  7.5  0.7968E+00  0.8309E+01 -0.2539E+01E
 Epicentro: LOS SANTOS - SANTANDER                                             3
 ACTION:UPD 13-10-22 09:21 OP:ep   STATUS:               ID:20130909014556 L   I
 OLDACT:REG 13-09-09 08:03 OP:carl STATUS:               ID:20130909013959     3
 2013-09-09-0139-59M.COL___269                                                 6
 STAT SP IPHASW D HRMM SECON CODA AMPLIT PERI AZIMU VELO AIN AR TRES W  DIS CAZ7
 BAR2 SZ EP        146 15.06                             172   -0.0610 19.8 185 
 BAR2 SZ ES        146 30.04                             172    0.0510 19.8 185 
 BAR2 SZ I         146 30.82        17.3 0.26            172           19.8 185 
 BRR  HZ EP        146 16.81                             152    0.0810 70.7 302 
 BRR  HN ES   1    146 33.69                             152    0.84 7 70.7 302 
 BRR  HN I         146 34.25        30.8 0.30            152           70.7 302 
 PAM  SZ EP        146 17.96                             149   -0.1210 81.4  39 
 PAM  SN ES   1    146 34.51                             149   -0.75 7 81.4  39 
 PAM  SZ I         146 36.46         8.3 0.62            150           81.4  39 
 RUS  HZ EP        146 19.44                             144    0.2610 97.6 174 
 RUS  HN ES   1    146 37.57                             144    0.35 7 97.6 174 
 RUS  HZ I         146 39.13         6.5 0.66            145           97.6 174 
 PTB  HZ EP        146 21.76                             132   -0.65 9  145 260 
 PTB  HN ES        146 42.42                             132   -0.55 9  145 260 
 OCA  HN ES        146 46.49                             128    0.12 9  163 354 
 ZAR  HZ EP        146 28.83                             122    0.70 9  203 293 
 ZAR  HN ES        146 53.13                             122   -0.01 9  203 293 
 ZAR  HZ I         146 55.66         6.4 0.20            123            203 293 
 GUY2CHN ES   4    147 13.08                             112    0.52 0  297 235 
                                                                                
