 2015  1 9 0303 30.1 L   6.312 -73.584114.7  RSN  5 0.5 1.3LRSN                1
 GAP=102        1.16       6.3     5.0 12.3  0.4951E+01  0.1841E+02 -0.2301E+02E
 Epicentro: SANTA HELENA DEL OPON - SANTANDER                                  3
 ACTION:UPD 15-03-02 15:38 OP:nd   STATUS:               ID:20150109030330 L   I
 OLDACT:REG 15-01-09 13:53 OP:cam  STATUS:               ID:20150109025812     3
 2015-01-09-0258-12M.COL___265                                                 6
 STAT SP IPHASW D HRMM SECON CODA AMPLIT PERI AZIMU VELO AIN AR TRES W  DIS CAZ7
 BAR2 EZ EP        3 3 47.34                             153    0.0610 54.1  55 
 BAR2 EZ ES        3 4  0.12                             153   -0.5610 54.1  55 
 BAR2 EZ I         3 4  2.35        11.0 0.42            156           54.1  55 
 RUS  HZ EP   1    3 3 49.03                             146    0.26 7 72.3 130 
 RUS  HN ES        3 4  3.93                             146    0.6010 72.3 130 
 RUS  HZ I         3 4  4.93         1.7 0.22            148           72.3 130 
 SPBC HN ES        3 4  4.51                             139   -0.2810 90.8 217 
 SPBC HZ I         3 4  7.13         5.7 0.36            141           90.8 217 
 PTB  HZ EP        3 3 49.56                             136   -0.6710 99.7 285 
 PTB  HN ES        3 4  6.20                             136    0.2810 99.7 285 
 PTB  HZ I         3 4  7.21         4.6 0.10            139           99.7 285 
 ZAR  HN ES        3 4 22.82                             116    0.55 9  192 313 
                                                                                
