 2016 12 9 0312  1.5 L   6.696 -73.148137.3  RSN  4 0.2 1.1LRSN                1
 GAP=252        0.49       6.2     3.8  4.4  0.2805E+01  0.3692E+01  0.3412E+01E
 Epicentro: VILLANUEVA - SANTANDER                                             3
 ACTION:UPD 17-01-11 20:13 OP:rebc STATUS:               ID:20161209031201 L   I
 OLDACT:REG 16-12-09 12:23 OP:dnl  STATUS:               ID:20161209030744     3
 2016-12-09-0308-00M.COL___373                                                 6
 STAT SP IPHASW D HRMM SECON CODA AMPLIT PERI AZIMU VELO AIN AR TRES W  DIS CAZ7
 BAR2 EZ EP        312 20.14                             175    0.2610 12.1 198 
 BAR2 EZ ES        312 34.11                             175   -0.1510 12.1 198 
 BAR2 EZ I         312 36.15         4.9 0.22            160           12.1 198 
 BRR  HZ EP        312 22.00                             149   -0.0610 77.2 306 
 BRR  HE ES        312 38.16                             149    0.0310 77.2 306 
 BRR  HZ I         312 43.14         4.6 0.40            153           77.2 306 
 RUS  HZ EP   4    312 18.00                             145   -5.56 0 89.1 175 
 RUS  HZ I         312 37.28         1.7 0.50            133           89.1 175 
 PTB  HZ EP        312 27.34                             130   -0.22 9  146 263 
 PTB  HE ES        312 48.04                             130    0.12 9  146 263 
 PTB  HZ I         312 52.97         1.2 0.14            126            146 263 
                                                                                
