 2015  3 9 0656 52.9 L   6.799 -73.231156.0  RSN  4 0.4 1.4LRSN                1
 GAP=250        1.00       6.8    10.1 11.1 -0.1572E+02 -0.4218E+02  0.4230E+02E
 Epicentro: ZAPATOCA - SANTANDER                                               3
 ACTION:UPD 15-04-30 16:24 OP:nd   STATUS:               ID:20150309065652 L   I
 OLDACT:REG 15-03-09 14:23 OP:cam  STATUS:               ID:20150309064748     3
 2015-03-09-0647-48M.COL___278                                                 6
 STAT SP IPHASW D HRMM SECON CODA AMPLIT PERI AZIMU VELO AIN AR TRES W  DIS CAZ7
 BRR  HZ EP        657 14.82                             157    0.0210 63.2 303 
 BRR  HN ES        657 32.19                             157    0.3510 63.2 303 
 BRR  HZ I         657 34.34         3.2 0.24            155           63.2 303 
 PTB  HZ EP        657 19.53                             136   -0.43 9  139 258 
 PTB  HN ES        657 40.43                             136   -0.61 9  139 258 
 PTB  HZ I         657 46.42         4.3 0.20            135            139 258 
 NOR  HZ EP        657 28.96                             122    0.48 8  227 233 
 NOR  HN ES        657 56.88                             122    0.68 8  227 233 
 NOR  HZ I         658  3.77         2.7 0.20            122            227 233 
 CHI  HZ EP        657 30.80                             120   -0.17 8  246 193 
 CHI  HN ES        658  0.46                             120   -0.17 8  246 193 
 CHI  HZ I         658  4.23         1.1 0.48            120            246 193 
                                                                                
