 2011  9 9 0548 26.2 L   6.826 -73.106143.4  RSN 13 0.2 1.9LRSN                1
 GAP=140        0.37       1.7     2.5  3.0 -0.7664E+00  0.4828E+00  0.7726E+00E
 Epicentro: LOS SANTOS - SANTANDER                                             3
 ACTION:UPD 12-07-13 15:56 OP:ep   STATUS:               ID:20110909054826 L   I
 2011-09-09-0546-52S.COL___170                                                 6
 STAT SP IPHASW D HRMM SECON CODA AMPLIT PERI AZIMU VELO AIN AR TRES W  DIS CAZ7
 BAR2 SZ EP   1    548 45.45                             169   -0.16 7 27.2 198 
 BAR2 SZ ES   2    549  0.16                             169   -0.60 5 27.2 198 
 BAR2 SZ I         549  1.92        10.7 0.23                          27.2 198 
 PAM  SZ EP   1    548 48.27                             152    0.41 7 72.4  38 
 PAM  SN ES   2    549  5.09                             152    0.33 5 72.4  38 
 BRR  HZ EP        548 47.19                             151   -0.0410 73.8 295 
 BRR  HN ES        549  3.71                             151    0.0710 73.8 295 
 BRR  HZ I         549  7.92        19.1 0.15                          73.8 295 
 RUS  HZ EP   1    548 49.73                             143   -0.17 7  103 179 
 RUS  HZ I         548 50.74         5.4 0.21                           103 179 
 RUS  HN ES   2    549  8.47                             143    0.08 5  103 179 
 OCA  SZ EP   1    548 53.83                             129   -0.27 7  158 351 
 OCA  SZ ES   2    549 15.99                             129    0.12 5  158 351 
 OCA  SZ I         549 20.54        11.0 0.32                           158 351 
 ZAR  HZ EP   2    548 58.93                             121    0.14 4  207 291 
 ZAR  HN ES   2    549 24.15                             121   -0.07 4  207 291 
 ZAR  HZ I         549 28.57        11.6 0.53                           207 291 
 NOR  SN ES   2    549 30.68                             117    0.14 4  240 235 
 CHI  HN ES   2    549 33.91                             116    0.10 4  253 196 
 CHI  HZ I         549 39.74         4.6 0.22                           253 196 
 ROSC BZ EP   2    549  4.90                             116    0.21 4  257 212 
 ROSC BN ES   2    549 34.57                             116   -0.15 4  257 212 
 ROSC BZ I         549 41.65         7.4 0.37                           257 212 
 HEL  HZ EP   2    549  7.16                             114    0.33 4  277 255 
 HEL  HN ES   2    549 38.46                             114   -0.06 4  277 255 
 HEL  HZ I         549 42.28         3.8 0.33                           277 255 
 RREF HZ EP   2    549 12.72                             110   -0.10 3  327 229 
 RREF HN ES   2    549 49.38                             110    0.19 3  327 229 
 RREF HZ I         549 56.70         3.1 0.37                           327 229 
 COD  HZ EP   2    549 14.05                             109   -0.14 3  346 354 
 COD  HN ES   2    549 51.12                             109   -0.51 3  346 354 
 COD  HZ I         549 58.91         3.8 0.56                           346 354 
 PRA  HZ EP   2    549 20.34                             106    0.17 3  397 210 
 PRA  HN ES   2    550  2.37                             106    0.10 3  397 210 
                                                                                
