 2011  6 9 0444  0.9 L   6.765 -73.130148.9  RSN  5 0.3 1.6LRSN                1
 GAP=161        0.53       4.1     6.7  7.4 -0.1219E+02  0.2547E+01 -0.2489E+01E
 Epicentro: LOS SANTOS - SANTANDER                                             3
 ACTION:UP  11-07-14 19:04 OP:ep   STATUS:               ID:20110609044400 L   I
 2011-06-09-0440-00M.COL___122                                                 6
 STAT SP IPHASW D HRMM SECON CODA AMPLIT PERI AZIMU VELO SNR AR TRES W  DIS CAZ7
 BAR2 SZ EP   2    444 20.65                             172    -0.2 5   20 197 
 BAR2 SZ ES   2    444 35.91                             172    -0.5 5   20 197 
 BAR2 SZ I         444 37.02        12.3 0.21                            20 197 
 BRR  HZ EP   1    444 22.75                             152     0.2 7   75 300 
 BRR  HE ES   2    444 39.73                             152     0.2 5   75 300 
 BRR  HZ I         444 43.82         9.8 0.17                            75 300 
 RUS  HZ EP   2    444 24.48                             145    -0.2 5   97 177 
 RUS  HN ES   2    444 43.79                             145     0.6 5   97 177 
 RUS  HZ I         444 45.04         4.4 0.48                            97 177 
 GRA  SZ EP   1    444 26.72                             137     0.0 7  129  16 
 GRA  SZ ES   1    444 46.73                             137    -0.1 7  129  16 
 GRA  SZ I         444 47.00         3.5 0.26                           129  16 
 NOR  SN ES   2    445  4.38                             119    -0.3 4  234 235 
                                                                                
