 2017  3 9 0844 19.9 L   6.613 -73.162142.5  RSN  4 0.3 0.9LRSN                1
 GAP=272        0.74       8.4     5.5  7.1  0.1261E+02  0.3729E+01  0.7801E+01E
 Epicentro: VILLANUEVA - SANTANDER                                             3
 *BAR2-BRR-PTB-ZAR                                                             3
 ACTION:UPD 17-05-25 18:38 OP:jn   STATUS:               ID:20170309084419 L   I
 OLDACT:UP  17-03-09 17:19 OP:and  STATUS:               ID:20170309083747d    3
 OLDACT:UP  17-03-09 17:18 OP:and  STATUS:               ID:20170309083747d    3
 OLDACT:UP  17-03-09 17:18 OP:and  STATUS:               ID:20170309083747d    3
 OLDACT:DUP 17-03-09 17:16 OP:and  STATUS:               ID:20170309083747d    3
 2017-03-09-0838-00M.COL___397                                                 6
 STAT SP IPHASW D HRMM SECON CODA AMPLIT PERI AZIMU VELO AIN AR TRES W  DIS CAZ7
 BAR2 EZ IP     D  844 39.05                             179    0.1610 3.16 224 
 BAR2 EZ ES   2    844 54.23                             179    0.52 5 3.16 224 
 BRR  HZ EP        844 40.85                             148   -0.4810 81.7 312 
 BRR  HN ES        844 57.94                             148   -0.1110 81.7 312 
 PTB  HZ EP        844 46.04                             132   -0.16 9  143 267 
 PTB  HE ES        845  6.63                             132   -0.08 9  143 267 
 PTB  HZ I         845  9.99         1.0 0.12            131            143 267 
 ZAR  HZ EP        844 53.39                             120    0.52 8  211 298 
 ZAR  HN ES        845 18.77                             120    0.19 8  211 298 
                                                                                
