 2010 12 9 0935 44.6 L   6.585 -73.388120.0  RSN  5 0.4 1.6LRSN                1
 GAP=172        0.67       7.4     8.6 12.0 -0.3684E+02  0.5830E+02 -0.4283E+02E
 Epicentro: HATO - SANTANDER                                                   3
 ACTION:UP  11-01-14 15:23 OP:pat  STATUS:               ID:20101209093544 L   I
 2010-12-09-0930-29S.COL___132                                                 6
 STAT SP IPHASW D HRMM SECON CODA AMPLIT PERI AZIMU VELO SNR AR TRES W  DIS CAZ7
 BAR2 SZ EP        936  1.18                             169     0.110   23  88 
 BAR2 SZ ES   2    936 13.84                             169    -0.2 5   23  88 
 BAR2 SZ I         936 15.49        12.1 0.13                            23  88 
 GUE  SZ EP   2    936  9.16                             126    -0.8 5  147  20 
 GRA  SZ EP   2    936 10.52                             123    -0.3 5  158  24 
 GRA  SZ ES   2    936 31.97                             123     0.8 5  158  24 
 GRA  SZ I         936 33.88         3.9 0.28                           158  24 
 OCA  SZ EP   2    936 13.81                             119     0.4 4  183   2 
 OCA  SZ ES   2    936 35.50                             119    -0.4 4  183   2 
 OCA  SZ I         936 41.97         4.9 0.30                           183   2 
 HEL  HZ EP   2    936 20.39                             112     0.3 4  241 260 
 HEL  HN ES   2    936 47.63                             112    -0.1 4  241 260 
 HEL  HZ I         936 52.21         2.7 0.62                           241 260 
                                                                                
