 2011  2 9 0338  1.0 L   6.783 -73.132146.1  RSN  9 0.4 2.2LRSN                1
 GAP=137        0.66       2.9     5.5  6.2 -0.6439E+00  0.8606E+01  0.9261E+00E
 Epicentro: LOS SANTOS - SANTANDER                                             3
 ACTION:UP  11-03-28 15:07 OP:jfem STATUS:               ID:20110209033800 L   I
 2011-02-09-0332-18S.COL___136                                                 6
 STAT SP IPHASW D HRMM SECON CODA AMPLIT PERI AZIMU VELO SNR AR TRES W  DIS CAZ7
 BTL  SZ IP        338 20.79                             171     0.210   21 315 
 BTL  SZ ES   2    338 36.47                             171     0.5 5   21 315 
 BAR2 SZ IP        338 20.58                             171    -0.110   22 195 
 BAR2 SZ ES   2    338 35.82                             171    -0.2 5   22 195 
 BAR2 SZ I         338 36.89        47.4 0.37                            22 195 
 RUS  HZ EP   1    338 24.51                             144    -0.1 7   99 177 
 RUS  HN ES   2    338 42.68                             144    -0.4 5   99 177 
 RUS  HZ I         338 44.47        22.0 0.39                            99 177 
 GRA  SZ IP        338 26.40                             137     0.010  127  17 
 GRA  SZ ES   2    338 46.21                             137     0.0 5  127  17 
 GRA  SZ I         338 47.07        37.9 0.32                           127  17 
 OCA  SZ EP   1    338 29.24                             129    -0.3 7  162 353 
 OCA  SZ ES   2    338 51.85                             129     0.1 5  162 353 
 OCA  SZ I         338 57.01        33.6 0.30                           162 353 
 YOP  SZ EP   1    338 31.02                             127     0.2 7  177 153 
 YOP  SN ES   1    338 54.07                             127    -0.1 7  177 153 
 YOP  SZ I         338 56.95         8.9 0.20                           177 153 
 NOR  SZ EP   1    338 36.20                             119    -0.6 6  235 235 
 NOR  SE ES   2    339  4.05                             119    -0.6 4  235 235 
 CHI  HZ EP   1    338 38.60                             117     0.0 6  247 196 
 CHI  HZ I         338 41.27         7.0 0.33                           247 196 
 CHI  HN ES   2    339  8.66                             117     0.8 4  247 196 
 HEL  HZ EP   1    338 42.15                             115     0.8 6  273 256 
                                                                                
