 2016 10 9 0050  1.4 L   7.448 -73.159138.5  RSN  7 0.5 1.8LRSN                1
 GAP=115        1.17       5.7     5.5 10.5 -0.3388E+01  0.2103E+02  0.2135E+02E
 Epicentro: EL PLAYON - SANTANDER                                              3
 ACTION:UPD 16-11-09 19:17 OP:rebc STATUS:               ID:20161009005001 L   I
 OLDACT:UP  16-10-09 13:35 OP:dani STATUS:               ID:20161009004744     3
 OLDACT:UP  16-10-09 13:35 OP:dani STATUS:               ID:20161009004744     3
 OLDACT:UP  16-10-09 13:35 OP:dani STATUS:               ID:20161009004744     3
 OLDACT:REG 16-10-09 12:16 OP:dani STATUS:               ID:20161009004744     3
 2016-10-09-0048-00M.COL___366                                                 6
 STAT SP IPHASW D HRMM SECON CODA AMPLIT PERI AZIMU VELO AIN AR TRES W  DIS CAZ7
 PAM  EZ EP        050 20.64                             158   -0.8610 52.2 103 
 PAM  EN ES        050 37.28                             158    0.1110 52.2 103 
 PAM  EZ I         050 39.41        11.0 0.39            161           52.2 103 
 OCA  HZ EP        050 23.51                             145    0.3510 89.2 349 
 OCA  HE ES        050 40.40                             145    0.2810 89.2 349 
 OCA  HZ I         050 42.28        16.8 0.17            148           89.2 349 
 RUS  HZ EP        050 31.43                             126    0.66 9  172 177 
 PTB  HZ EP        050 29.91                             125   -0.51 9  175 235 
 PTB  HE ES        050 52.53                             125   -0.52 9  175 235 
 PTB  HZ I         050 55.04         4.0 0.12            128            175 235 
 ZAR  HZ EP        050 31.67                             123   -0.01 9  188 272 
 ZAR  HE ES        050 55.24                             123   -0.05 9  188 272 
 ZAR  HZ I         050 56.26         7.5 0.19            126            188 272 
 SPBC HE ES   2    051  2.20                             118    0.14 4  223 207 
 URE  HE ES   4    051  7.50                             114   -2.44 0  264 277 
 NOR  HE ES        051 14.30                             112    0.80 7  281 222 
                                                                                
