 2013  9 9 0017 56.8 L   6.808 -73.164149.3  RSN 10 0.5 2.1LRSN                1
 GAP=134        1.03       3.1     5.2  7.4 -0.2866E+01  0.1201E+02  0.1741E+01E
 Epicentro: LOS SANTOS - SANTANDER                                             3
 ACTION:UPD 13-10-22 09:21 OP:ep   STATUS:               ID:20130909001756 L   I
 OLDACT:REG 13-09-09 07:59 OP:carl STATUS:               ID:20130909000959     3
 2013-09-09-0009-59M.COL___269                                                 6
 STAT SP IPHASW D HRMM SECON CODA AMPLIT PERI AZIMU VELO AIN AR TRES W  DIS CAZ7
 BRR  HZ IP     C  018 18.56                             154    0.3710 68.9 299 
 BRR  HE ES   1    018 35.37                             154    0.48 7 68.9 299 
 BRR  HZ I         018 38.58        34.4 0.28            153           68.9 299 
 PAM  SZ EP        018 19.70                             151    0.2910 78.0  41 
 PAM  SN ES        018 36.80                             151   -0.2610 78.0  41 
 PAM  SZ I         018 39.38        16.5 0.30            157           78.0  41 
 RUS  HZ EP        018 20.84                             144   -0.1210  102 175 
 RUS  HN ES   1    018 39.27                             144   -0.55 7  102 175 
 RUS  HZ I         018 40.90        15.9 0.28            147            102 175 
 PTB  HZ EP        018 23.56                             133   -0.31 9  146 258 
 PTB  HN ES   4    018 43.73                             133   -1.28 0  146 258 
 PTB  HZ I         018 49.97        19.5 0.30            134            146 258 
 OCA  HZ EP        018 24.84                             131   -0.42 9  159 354 
 OCA  HE ES        018 48.23                             131    0.76 9  159 354 
 OCA  HZ I         018 51.41        30.6 0.16            134            159 354 
 SPBC HZ EP        018 25.76                             130    0.26 9  163 218 
 SPBC HN ES   1    018 47.51                             130   -0.39 7  163 218 
 SPBC HZ I         018 50.38        16.6 0.18            132            163 218 
 ZAR  HZ EP   1    018 29.82                             123    0.59 6  202 292 
 ZAR  HE ES   1    018 54.81                             123    0.27 6  202 292 
 ZAR  HZ I         019  2.97        16.2 0.16            125            202 292 
 NOR  HZ EP        018 32.93                             119    0.33 8  234 234 
 NOR  HE ES        019  0.05                             119   -0.48 8  234 234 
 NOR  HZ I         019  3.77         7.3 0.16            121            234 234 
 SML  HZ EP        018 32.74                             118   -0.68 8  242 336 
 SML  HE ES        019  1.27                             118   -0.74 8  242 336 
 CHI  HZ EP   1    018 35.33                             118    0.61 6  249 195 
 CHI  HN ES   1    019  4.72                             118    0.41 6  249 195 
 CHI  HZ I         019 15.68         5.9 0.46            121            249 195 
 HEL  HE ES   4    019 10.00                             116    1.66 0  270 256 
                                                                                
