 2011  5 9 0959 56.0 L   6.779 -73.110142.8  RSN 10 0.3 2.1LRSN                1
 GAP=142        0.70       3.1     5.5  4.9 -0.7050E+01  0.3670E+01  0.4101E-01E
 Epicentro: LOS SANTOS - SANTANDER                                             3
 ACTION:UP  11-06-29 08:51 OP:tino STATUS:               ID:20110509095956 L   I
 2011-05-09-0959-26S.COL___131                                                 6
 STAT SP IPHASW D HRMM SECON CODA AMPLIT PERI AZIMU VELO SNR AR TRES W  DIS CAZ7
 BAR2 SZ IP       10 0 15.21                             171     0.010   22 201 
 BAR2 SZ ES   1   10 0 30.03                             171    -0.2 7   22 201 
 BAR2 SZ I        10 0 30.91        30.7 0.62                            22 201 
 BRR  HZ IP     C 10 0 17.14                             151     0.110   76 299 
 BRR  HN ES   1   10 0 34.01                             151     0.5 7   76 299 
 BRR  HZ I        10 0 35.05        31.5 0.10                            76 299 
 PAM  SZ EP       10 0 18.23                             151     0.410   77  36 
 PAM  SN ES   3   10 0 33.93                             151    -1.0 2   77  36 
 RUS  HZ EP       10 0 19.20                             144    -0.110   98 178 
 RUS  HN ES   1   10 0 37.43                             144     0.0 7   98 178 
 BRI  SZ EP       10 0 19.83                             141     0.210  109  18 
 BRI  SZ ES   1   10 0 37.85                             141    -0.3 7  109  18 
 GRA  SZ IP       10 0 21.13                             136     0.110  127  15 
 GRA  SZ ES   1   10 0 40.78                             136     0.2 7  127  15 
 GRA  SZ I        10 0 41.79        17.9 0.47                           127  15 
 OCA  SZ EP       10 0 23.68                             129    -0.7 9  163 352 
 NOR  SZ EP       10 0 31.48                             118    -0.3 8  237 235 
 HEL  HZ EP   3   10 0 37.23                             114     0.8 2  275 256 
 HEL  HN ES   3   10 1  7.16                             114    -0.8 2  275 256 
 HEL  HZ I        10 1 13.53         5.8 0.59                           275 256 
 PRA  HZ EP       10 0 49.69                             106     0.3 6  392 210 
 PRA  HN ES   3   10 1 31.33                             106     0.3 1  392 210 
                                                                                
