 2017 12 9 0518 46.1 L   6.789 -73.160141.2  RSN  7 0.5 1.4LRSN                1
 GAP=147        1.06       5.1     4.7  7.7 -0.6081E+01  0.1641E+02 -0.3765E+00E
 Epicentro: LOS SANTOS - SANTANDER                                             3
 ACTION:UPD 18-01-04 13:18 OP:rebc STATUS:               ID:20171209051846 L   I
 OLDACT:UP  17-12-09 17:21 OP:leo  STATUS:               ID:20171209051736     3
 OLDACT:UP  17-12-09 17:20 OP:leo  STATUS:               ID:20171209051736     3
 OLDACT:REG 17-12-09 13:50 OP:leo  STATUS:               ID:20171209051736     3
 2017-12-09-0518-00M.COL___482                                                 6
 STAT SP IPHASW D HRMM SECON CODA AMPLIT PERI AZIMU VELO AIN AR TRES W  DIS CAZ7
 BAR2 EZ EP        519  5.05                             171   -0.0910 21.8 187 
 BAR2 EZ ES        519 20.03                             171    0.0310 21.8 187 
 BAR2 EZ I         519 20.88         7.1 0.26            173           21.8 187 
 PAM  EZ EP        519  8.05                             149    0.1110 79.3  40 
 PAM  EN ES        519 24.99                             149    0.0010 79.3  40 
 PAM  EZ I         519 29.53         3.0 0.58            151           79.3  40 
 PTB  HZ EP        519 11.76                             131   -0.77 9  146 259 
 PTB  HN ES        519 32.93                             131   -0.22 9  146 259 
 PTB  HZ I         519 34.62         2.2 0.24            133            146 259 
 SPBC HZ EP        519 13.92                             128   -0.14 9  161 219 
 SPBC HN ES        519 35.98                             128    0.11 9  161 219 
 SPBC HZ I         519 39.37         5.3 0.18            131            161 219 
 ZAR  HZ EP        519 18.27                             121    0.12 9  203 293 
 ZAR  HN ES        519 44.08                             121    0.93 9  203 293 
 ZAR  HZ I         519 49.37         3.5 0.36            123            203 293 
 URE  HZ EP   4    519 29.64                             113    2.80 0  283 292 
 URE  HN ES        519 57.80                             113   -0.82 7  283 292 
 GUY2CHZ EP        519 30.12                             112    0.85 7  299 235 
 GUY2CHN ES        520  3.09                             112    0.15 7  299 235 
                                                                                
