 2016  1 9 0103 22.9 L   6.780 -73.165148.0  RSN 10 0.4 1.9LRSN                1
 GAP=135        0.90       2.7     3.6  5.2 -0.4964E+00  0.4124E+01  0.7182E+00E
 Epicentro: LOS SANTOS - SANTANDER                                             3
 ACTION:UPD 16-03-09 23:23 OP:cam  STATUS:               ID:20160109010322 L   I
 OLDACT:REG 16-01-09 12:50 OP:drio STATUS:               ID:20160109005750     3
 2016-01-09-0057-50M.COL___296                                                 6
 STAT SP IPHASW D HRMM SECON CODA AMPLIT PERI AZIMU VELO AIN AR TRES W  DIS CAZ7
 BAR2 EZ EP        1 3 42.59                             172   -0.1310 20.8 185 
 BAR2 EZ ES        1 3 57.94                             172   -0.2610 20.8 185 
 BAR2 EZ I         1 3 59.42        21.4 0.48            170           20.8 185 
 BRR  HZ EP        1 3 44.50                             153    0.2910 70.4 301 
 BRR  HE ES        1 4  1.60                             153    0.7310 70.4 301 
 PAM  EZ EP        1 3 45.60                             150    0.0910 80.5  40 
 PAM  EE ES        1 4  3.11                             150   -0.0510 80.5  40 
 PAM  EZ I         1 4  4.98        11.2 0.52            153           80.5  40 
 RUS  HZ EP        1 3 46.80                             145    0.1110 98.5 175 
 RUS  HE ES        1 4  4.98                             145   -0.2910 98.5 175 
 RUS  HZ I         1 4  6.61        10.8 0.34            145           98.5 175 
 PTB  HZ EP        1 3 49.72                             133   -0.07 9  145 260 
 PTB  HN ES        1 4 10.58                             133   -0.21 9  145 260 
 PTB  HZ I         1 4 17.65         6.1 0.68            132            145 260 
 SPBC HZ EP        1 3 51.76                             130    0.52 9  160 219 
 SPBC HN ES        1 4 13.60                             130    0.22 9  160 219 
 SPBC HZ I         1 4 18.79        24.7 0.20            129            160 219 
 ZAR  HZ E         1 0 37.25                                            203 293 
 ZAR  HE ES        1 4 20.69                             123    0.02 9  203 293 
 SML  HZ EP        1 3 59.69                             118   -0.05 8  245 336 
 SML  HN ES        1 4 27.64                             118   -0.87 8  245 336 
 SML  HZ I         1 4 37.10         9.9 0.10            118            245 336 
 CHI  HZ EP        1 4  0.77                             118    0.38 8  246 195 
 CHI  HN ES        1 4 29.12                             118   -0.54 8  246 195 
 CHI  HZ I         1 4 39.97         2.7 0.50            118            246 195 
 GUY2CHZ EP   4    1 4  8.50                             113    2.27 0  298 235 
 GUY2CHN ES        1 4 39.68                             113   -0.38 7  298 235 
 GUY2CHZ I         1 4 53.19         2.9 0.48                           298 235 
                                                                                
