 2013 10 9 0906 26.4 L   6.774 -73.164150.1  RSN  9 0.4 1.8LRSN                1
 GAP=135        0.92       3.4     4.6  6.6 -0.9987E+00  0.9124E+01 -0.5028E+01E
 Epicentro: LOS SANTOS - SANTANDER                                             3
 ACTION:UPD 13-11-25 09:20 OP:ep   STATUS:               ID:20131009090626 L   I
 OLDACT:UP  13-10-09 13:14 OP:mh   STATUS:               ID:20131009085959     3
 OLDACT:REG 13-10-09 08:19 OP:mh   STATUS:               ID:20131009085959     3
 2013-10-09-0859-59M.COL___273                                                 6
 STAT SP IPHASW D HRMM SECON CODA AMPLIT PERI AZIMU VELO AIN AR TRES W  DIS CAZ7
 BAR2 SZ EP   1    9 6 46.63                             172    0.10 7 20.2 186 
 BAR2 SZ ES   1    9 7  1.75                             172   -0.46 7 20.2 186 
 BAR2 SZ I         9 7  2.54        14.6 0.34            172           20.2 186 
 BRR  HZ EP   1    9 6 48.25                             153    0.21 7 70.9 301 
 BRR  HN ES   1    9 7  5.75                             153    0.86 7 70.9 301 
 BRR  HZ I         9 7 10.89         8.7 0.16            150           70.9 301 
 PAM  SZ EP   1    9 6 49.55                             150    0.23 7 80.9  39 
 PAM  SN ES        9 7  7.18                             150    0.0110 80.9  39 
 PAM  SZ I         9 7  8.94        12.9 0.88            154           80.9  39 
 RUS  HZ EP   1    9 6 51.18                             145    0.75 7 97.9 175 
 RUS  HN ES        9 7  8.76                             145   -0.3810 97.9 175 
 RUS  HZ I         9 7 10.05         5.0 0.52            150           97.9 175 
 PTB  HZ EP   1    9 6 53.08                             133   -0.45 7  145 260 
 PTB  HN ES   1    9 7 14.04                             133   -0.64 7  145 260 
 PTB  HZ I         9 7 16.75         5.4 0.12            133            145 260 
 SPBC HZ EP   1    9 6 55.39                             131    0.45 7  160 219 
 SPBC HN ES   1    9 7 16.91                             131   -0.27 7  160 219 
 SPBC HZ I         9 7 24.25         6.0 0.30            132            160 219 
 OCA  HZ EP   1    9 6 54.93                             130   -0.40 7  163 354 
 OCA  HN ES   1    9 7 17.91                             130    0.04 7  163 354 
 OCA  HZ I         9 7 22.87         6.0 0.26            132            163 354 
 ZAR  HZ EP   1    9 6 59.39                             123    0.30 6  203 293 
 ZAR  HN ES        9 7 25.06                             123    0.50 9  203 293 
 ZAR  HZ I         9 7 30.90         7.4 0.30            124            203 293 
 SML  HZ EP        9 7  3.10                             118   -0.40 8  245 336 
 SML  HN ES   1    9 7 31.82                             118   -0.59 6  245 336 
 SML  HZ I         9 7 37.24         8.9 0.20            120            245 336 
                                                                                
