 2013  8 9 0329 15.9 L   6.684 -73.221147.7  RSN  5 0.4 1.3LRSN                1
 GAP=153        0.92       6.3     7.5  7.4  0.2028E+02  0.1472E+02  0.1275E+02E
 Epicentro: BARICHARA - SANTANDER                                              3
 ACTION:UPD 14-01-14 09:00 OP:ep   STATUS:               ID:20130809032915 L   I
 OLDACT:REG 13-08-09 06:52 OP:jn   STATUS:               ID:20130809032751     3
 2013-08-09-0327-51M.COL___236                                                 6
 STAT SP IPHASW D HRMM SECON CODA AMPLIT PERI AZIMU VELO AIN AR TRES W  DIS CAZ7
 BAR2 SZ EP        329 35.35                             175   -0.2010 11.1 157 
 BAR2 SZ ES        329 51.03                             175    0.1310 11.1 157 
 BAR2 SZ I         329 51.49         4.8 0.24            174           11.1 157 
 GIR2 SZ ES        329 51.43                             163   -0.5610 43.7   4 
 BRR  HZ EP        329 37.41                             153    0.1610 71.6 311 
 BRR  HN ES        329 54.54                             153    0.6210 71.6 311 
 BRR  HZ I         329 55.31         3.6 0.16            153           71.6 311 
 RUS  HZ EP        329 38.99                             148   -0.0210 88.9 170 
 RUS  HN ES        329 57.23                             148    0.1710 88.9 170 
 RUS  HZ I         329 59.02         2.9 0.34            147           88.9 170 
 PTB  HZ EP   1    329 42.15                             135    0.06 7  138 263 
 PTB  HN ES   1    330  1.86                             135   -0.68 7  138 263 
 PTB  HZ I         330  4.05         3.1 0.10            135            138 263 
                                                                                
