 2015  1 9 0243 29.3 L   6.814 -73.137146.7  RSN  9 0.4 1.7LRSN                1
 GAP=137        1.02       3.2     5.1  6.6 -0.2176E+01  0.7395E+01  0.1183E+01E
 Epicentro: LOS SANTOS - SANTANDER                                             3
 ACTION:UPD 15-03-02 15:38 OP:nd   STATUS:               ID:20150109024329 L   I
 OLDACT:REG 15-01-09 13:50 OP:cam  STATUS:               ID:20150109023819     3
 2015-01-09-0238-19M.COL___265                                                 6
 STAT SP IPHASW D HRMM SECON CODA AMPLIT PERI AZIMU VELO AIN AR TRES W  DIS CAZ7
 BAR2 EZ EP   1    243 49.13                             170    0.05 7 25.0 191 
 BAR2 EZ ES        244  3.88                             170   -0.6310 25.0 191 
 BRR  HZ EP        243 51.21                             153    0.6510 71.3 297 
 BRR  HE ES   1    244  7.28                             153    0.14 7 71.3 297 
 PAM  SZ EP        243 50.75                             152   -0.7610 75.6  40 
 PAM  SN ES        244  9.39                             152    0.5610 75.6  40 
 PAM  SZ I         244 11.32         4.8 0.22            154           75.6  40 
 RUS  HZ EP        243 53.02                             144   -0.2410  102 177 
 RUS  HN ES        244 12.24                             144    0.3010  102 177 
 PTB  HZ EP        243 56.13                             132   -0.33 9  149 258 
 PTB  HN ES        244 17.55                             132   -0.09 9  149 258 
 PTB  HN I         244 22.32         6.0 0.48            132            149 258 
 OCA  HN ES        244 19.64                             130    0.05 9  159 353 
 SPBC HZ EP        243 58.37                             129    0.32 9  165 219 
 SPBC HN ES        244 20.46                             129   -0.00 9  165 219 
 SPBC HZ I         244 24.31         5.1 0.22            130            165 219 
 SML  HN ES        244 34.28                             118   -0.11 8  243 335 
 SML  HZ I         244 37.37         6.6 0.10            119            243 335 
 CHI  HZ EP        244  7.48                             117    0.23 8  250 195 
                                                                                
