 2011  3 9 0830 31.8 L   6.993 -73.530124.9  RSN  4 0.2 1.5LRSN                1
 GAP=212        0.45       2.3    10.4  6.7 -0.6758E+01  0.4208E+02 -0.5041E+01E
 Epicentro: SAN VICENTE DE CHUCURI - SANTANDER                                 3
 ACTION:UP  11-06-16 14:32 OP:jfem STATUS:               ID:20110309083031 L   I
 2011-03-09-0829-00S.COL___135                                                 6
 STAT SP IPHASW D HRMM SECON CODA AMPLIT PERI AZIMU VELO SNR AR TRES W  DIS CAZ7
 BAR2 SZ IP     C  830 50.54                             153     0.210   59 139 
 BAR2 SZ ES   1    831  4.91                             153     0.1 7   59 139 
 BAR2 SZ I         831  5.84        15.4 0.22                            59 139 
 GRA  SZ EP        830 55.53                             132     0.110  127  39 
 GRA  SZ ES   1    831 13.70                             132    -0.1 7  127  39 
 RUS  HZ EP        830 56.29                             131     0.010  131 158 
 RUS  HZ I         830 56.36         2.9 0.13                           131 158 
 RUS  HN ES   2    831 14.89                             131    -0.4 5  131 158 
 OCA  SZ EP        830 56.42                             129    -0.2 9  140  10 
 OCA  SZ ES   2    831 16.00                             129     0.1 5  140  10 
 OCA  SZ I         831 17.58         5.0 0.47                           140  10 
                                                                                
