 2010  7 9 0726 53.9 L   6.844 -73.106150.2  RSN  6 0.4 1.3LRSN                1
 GAP=159        0.96       7.9    12.9 13.9 -0.1037E+02 -0.8179E+02 -0.2661E+02E
 Epicentro: LOS SANTOS - SANTANDER                                             3
 ACTION:UPD 10-12-01 15:16 OP:pat  STATUS:               ID:20100709072653 L   I
 2010-07-09-0722-40S.COL___117                                                 6
 STAT SP IPHASW D HRMM SECON CODA AMPLIT PERI AZIMU VELO AIN AR TRES W  DIS CAZ7
 BRR  HZ EP        727 15.73                             153     0.110   73 294 
 BRR  HZ I         727 15.91         9.2 0.15                            73 294 
 BRR  HN ES   1    727 32.61                             153     0.0 7   73 294 
 BRI  SZ EP   2    727 18.20                             144     0.4 5  102  19 
 BRI  SZ I         727 52.64         3.3 0.57                           102  19 
 RUS  HZ EP   2    727 18.24                             143    -0.2 5  105 179 
 RUS  HE ES   2    727 37.66                             143     0.1 5  105 179 
 RUS  HZ I         727 38.45         1.2 0.34                           105 179 
 GUE  SZ EP   1    727 17.72                             142    -0.9 7  111  10 
 GUE  SZ I         727 18.31         1.4 0.24                           111  10 
 GRA  SZ EP        727 19.54                             139     0.410  120  16 
 GRA  SZ I         727 20.83         4.0 0.29                           120  16 
 GRA  SZ ES   2    727 38.64                             139    -0.1 5  120  16 
 OCA  SZ EP        727 22.22                             131     0.0 9  156 351 
 OCA  SZ I         727 50.42         5.0 0.50                           156 351 
                                                                                
