 2011 11 9 0239 50.5 L   6.821 -73.117144.9  RSN  8 0.4 2.0LRSN                1
 GAP=139        0.79       3.7     4.8  6.5 -0.8409E+00  0.9932E+01  0.2328E+01E
 Epicentro: LOS SANTOS - SANTANDER                                             3
 ACTION:UPD 12-07-13 16:09 OP:ep   STATUS:               ID:20111109023950 L   I
 2011-11-09-0238-18S.COL___178                                                 6
 STAT SP IPHASW D HRMM SECON CODA AMPLIT PERI AZIMU VELO AIN AR TRES W  DIS CAZ7
 BAR2 SZ EP   1    240 10.10                             169    0.03 7 26.3 196 
 BAR2 SZ ES   1    240 24.76                             169   -0.59 7 26.3 196 
 BAR2 SZ I         240 26.62        18.6 0.15                          26.3 196 
 BRR  HZ EP   1    240 11.76                             152    0.13 7 72.9 296 
 BRR  HN ES   1    240 28.64                             152    0.50 7 72.9 296 
 BRR  HZ I         240 31.36        19.0 0.22                          72.9 296 
 PAM  SZ EP   1    240 12.97                             152    0.59 7 73.6  39 
 PAM  SZ I         240 13.27        16.0 0.15                          73.6  39 
 PAM  SN ES   1    240 29.69                             152    0.22 7 73.6  39 
 RUS  HZ EP   1    240 14.26                             143   -0.04 7  103 178 
 RUS  HN ES   1    240 32.78                             143   -0.10 7  103 178 
 RUS  HZ I         240 34.07        12.3 0.21                           103 178 
 OCA  SZ EP   1    240 18.76                             130    0.21 7  158 352 
 OCA  SZ ES   1    240 39.60                             130   -0.84 7  158 352 
 OCA  SZ I         240 45.19         8.6 0.29                           158 352 
 ZAR  HE ES   1    240 48.50                             122   -0.01 6  206 291 
 ZAR  HZ I         240 54.80        11.0 0.27                           206 291 
 HEL  HZ EP   1    240 30.18                             114   -0.87 6  276 256 
 HEL  HN ES   1    241  3.12                             114    0.43 6  276 256 
 HEL  HZ I         241 10.95         2.7 0.19                           276 256 
 PRA  HZ EP   1    240 44.29                             106   -0.09 4  396 210 
 PRA  HN ES   1    241 26.59                             106    0.16 4  396 210 
 PRA  HZ I         241 28.07         6.1 0.21                           396 210 
                                                                                
