 2011  5 9 0211 18.1 L   6.784 -73.083139.6  RSN  8 0.2 1.6LRSN                1
 GAP=163        0.54       2.6     3.8  4.2 -0.2455E+01  0.3071E+01 -0.1614E+01E
 Epicentro: LOS SANTOS - SANTANDER                                             3
 ACTION:UP  11-06-29 08:51 OP:tino STATUS:               ID:20110509021118 L   I
 2011-05-09-0209-46S.COL___131                                                 6
 STAT SP IPHASW D HRMM SECON CODA AMPLIT PERI AZIMU VELO AIN AR TRES W  DIS CAZ7
 BAR2 SZ EP        211 37.04                             170     0.110   24 207 
 BAR2 SZ ES   1    211 51.17                             170    -0.5 7   24 207 
 BAR2 SZ I         211 52.93        11.2 0.23                            24 207 
 BRR  HZ EP        211 39.00                             149     0.010   78 297 
 BRR  HN ES   1    211 55.59                             149     0.3 7   78 297 
 BRR  HZ I         211 59.14         8.1 0.08                            78 297 
 RUS  HZ EP        211 41.16                             143     0.110   99 180 
 RUS  HN ES   1    211 59.24                             143     0.2 7   99 180 
 RUS  HZ I         212  1.44         6.7 0.30                            99 180 
 BRI  SZ ES   3    211 59.47                             140     0.0 2  108  17 
 GRA  SZ EP        211 42.87                             136     0.110  126  14 
 GRA  SZ ES   1    212  1.96                             136    -0.1 7  126  14 
 GRA  SZ I         212  4.43         5.4 0.26                           126  14 
 OCA  SZ EP        211 46.07                             128    -0.1 9  163 351 
 NOR  SZ EP   1    211 53.69                             117    -0.3 6  239 236 
 HEL  HZ EP   1    211 58.46                             113    -0.2 6  278 257 
 HEL  HE ES   1    212 30.42                             113     0.1 6  278 257 
 HEL  HZ I         212 34.90         2.7 0.53                           278 257 
                                                                                
