 2016  5 9 0938 36.1 L   6.845 -73.169148.3  RSN  7 0.4 1.5LRSN                1
 GAP=131        1.07       3.8     5.4  6.8 -0.1905E+00  0.5383E+01 -0.5678E+01E
 Epicentro: ZAPATOCA - SANTANDER                                               3
 ACTION:UPD 16-08-18 17:43 OP:cam  STATUS:               ID:20160509093836 L   I
 OLDACT:DUP 16-05-09 15:24 OP:drio STATUS:               ID:20160509092751d    3
 2016-05-09-0927-50M.COL___279                                                 6
 STAT SP IPHASW D HRMM SECON CODA AMPLIT PERI AZIMU VELO AIN AR TRES W  DIS CAZ7
 BAR2 EZ EP        938 55.73                             169   -0.4110 28.0 183 
 BAR2 EZ ES        939 11.39                             169   -0.3810 28.0 183 
 BAR2 EZ I         939 12.20         5.8 0.30            169           28.0 183 
 BRR  HZ EP        938 57.66                             154    0.3810 66.6 296 
 BRR  HE ES        939 14.62                             154    0.8210 66.6 296 
 BRR  HZ I         939 19.58         5.2 0.12            153           66.6 296 
 PAM  EZ EP        938 58.65                             152    0.1710 75.4  43 
 PAM  EN ES        939 16.05                             152    0.1310 75.4  43 
 PAM  EZ I         939 17.86        11.4 0.50            157           75.4  43 
 RUS  HZ EP        939  1.05                             143    0.5710  106 175 
 RUS  HE ES        939 19.23                             143   -0.2610  106 175 
 RUS  HZ I         939 26.16         1.4 0.44            146            106 175 
 PTB  HZ EP        939  2.98                             133   -0.17 9  146 257 
 PTB  HN ES        939 23.91                             133   -0.33 9  146 257 
 PTB  HZ I         939 31.00         2.3 0.52            134            146 257 
 OCA  HZ EP        939  4.27                             131    0.13 9  155 354 
 OCA  HN ES        939 25.32                             131   -0.67 9  155 354 
 OCA  HZ I         939 30.52         7.8 0.26            134            155 354 
 SML  HZ EP        939 11.93                             119   -0.35 8  238 335 
 SML  HE ES        939 40.65                             119    0.16 8  238 335 
 SML  HZ I         939 43.97         4.6 0.10            121            238 335 
                                                                                
