 2017  3 9 0002 22.1 L   6.828 -73.172144.9  RSN  4 0.1 1.3LRSN                1
 GAP=145        0.32       2.0     1.9  2.7 -0.1168E+01  0.1412E+01 -0.4751E+00E
 Epicentro: ZAPATOCA - SANTANDER                                               3
 ACTION:UPD 17-05-25 18:38 OP:jn   STATUS:               ID:20170309000222 L   I
 OLDACT:UP  17-03-09 12:59 OP:and  STATUS:               ID:20170309000001     3
 OLDACT:REG 17-03-09 12:23 OP:and  STATUS:               ID:20170309000001     3
 2017-03-09-0000-15M.COL___401                                                 6
 STAT SP IPHASW D HRMM SECON CODA AMPLIT PERI AZIMU VELO AIN AR TRES W  DIS CAZ7
 BAR2 EZ EP        0 2 41.63                             169   -0.0910 26.1 182 
 BAR2 EZ ES        0 2 56.95                             169   -0.0410 26.1 182 
 BAR2 EZ I         0 2 57.92         4.9 0.36            171           26.1 182 
 BRR  HZ EP   4    0 2 39.49                             154   -3.47 0 67.1 297 
 BRR  HN ES   4    0 3  0.99                             154    1.78 0 67.1 297 
 PAM  EZ EP     C  0 2 44.35                             151    0.1210 77.0  43 
 PAM  EN ES        0 3  1.44                             151   -0.0310 77.0  43 
 PAM  EZ I         0 3  3.74         4.1 0.56            152           77.0  43 
 RUS  HZ EP        0 2 46.06                             143    0.0210  104 175 
 RUS  HN ES        0 3  4.72                             143    0.0310  104 175 
 RUS  HZ I         0 3  5.91         4.1 0.38            145            104 175 
 PTB  HZ EP        0 2 48.71                             132   -0.11 9  146 257 
 PTB  HN ES        0 3  9.73                             132    0.09 9  146 257 
 PTB  HZ I         0 3 11.85         2.3 0.16            133            146 257 
                                                                                
