 2011 10 9 0236  4.2 L   6.753 -73.117138.6  RSN 10 0.4 2.0LRSN                1
 GAP=142        0.69       3.1     4.7  4.8 -0.3632E+01  0.7401E+01  0.7178E+00E
 Epicentro: LOS SANTOS - SANTANDER                                             3
 ACTION:UPD 12-07-13 16:02 OP:ep   STATUS:               ID:20111009023604 L   I
 2011-10-09-0220-00M.COL___171                                                 6
 STAT SP IPHASW D HRMM SECON CODA AMPLIT PERI AZIMU VELO AIN AR TRES W  DIS CAZ7
 BAR2 SZ IP        236 22.83                             172   -0.0410 19.2 202 
 BAR2 SZ ES   1    236 37.01                             172   -0.44 7 19.2 202 
 BAR2 SZ I         236 39.35        22.0 0.13                          19.2 202 
 GIR2 SZ EP   1    236 22.83                             164   -0.35 7 37.0 347 
 GIR2 SZ ES   1    236 38.05                             164    0.06 7 37.0 347 
 BRR  HZ EP        236 24.60                             149   -0.2810 76.5 301 
 BRR  HN ES   1    236 41.25                             149    0.22 7 76.5 301 
 BRR  HZ I         236 42.26        35.1 0.11                          76.5 301 
 PAM  SZ EP        236 25.72                             149   -0.0610 79.6  35 
 PAM  SZ I         236 25.87        14.0 0.16                          79.6  35 
 PAM  SE ES   1    236 42.37                             149   -0.25 7 79.6  35 
 RUS  HZ EP   1    236 26.85                             144    0.01 7 95.2 178 
 RUS  HZ I         236 28.10        13.4 0.15                          95.2 178 
 RUS  HN ES   1    236 45.29                             144    0.78 7 95.2 178 
 OCA  SZ EP   1    236 32.66                             127    0.18 7  166 352 
 OCA  SZ ES   1    236 55.21                             127    0.65 7  166 352 
 OCA  SZ I         236 57.12        16.0 0.21                           166 352 
 ZAR  HZ EP   1    236 37.02                             120    0.33 6  209 293 
 ZAR  HZ I         237  6.47        15.1 0.25                           209 293 
 NOR  SZ EP   1    236 38.97                             117   -0.50 6  234 236 
 NOR  SN ES   1    237  6.70                             117   -0.29 6  234 236 
 HEL  HZ EP   1    236 44.32                             113    0.07 6  274 257 
 HEL  HZ I         237 21.22         5.9 0.34                           274 257 
 PRA  HZ EP   1    236 57.33                             105    0.21 4  389 210 
 PRA  HN ES   2    237 39.22                             105    0.81 3  389 210 
                                                                                
