 2016  8 9 0835  8.6 L   6.064 -73.718114.7  RSN 14 0.5 1.9LRSN                1
 GAP= 75        1.22       3.3     3.6  7.0 -0.6274E+00  0.1074E+02  0.7068E+00E
 Epicentro: VELEZ - SANTANDER                                                  3
 ACTION:UPD 16-10-29 15:34 OP:rebc STATUS:               ID:20160809083508 L   I
 OLDACT:REG 16-08-09 13:32 OP:dnl  STATUS:               ID:20160809082759     3
 2016-08-09-0827-59S.COL___331                                                 6
 STAT SP IPHASW D HRMM SECON CODA AMPLIT PERI AZIMU VELO AIN AR TRES W  DIS CAZ7
 SPBC HZ EP        835 26.05                             150    0.1610 60.1 221 
 SPBC HN ES        835 39.20                             150   -0.1910 60.1 221 
 SPBC HZ I         835 41.68        45.5 0.22                          60.1 221 
 RUS  HZ EP        835 27.22                             146   -0.0610 72.8 105 
 RUS  HN ES        835 42.19                             146    0.3210 72.8 105 
 RUS  HZ I         835 42.95         6.5 0.26                          72.8 105 
 BAR2 EZ EP        835 27.98                             142    0.3010 83.2  45 
 BAR2 EZ ES        835 42.18                             142   -0.3910 83.2  45 
 BAR2 EZ I         835 43.57        43.4 0.12                          83.2  45 
 PTB  HZ EP        835 27.77                             137   -0.7210 97.2 303 
 PTB  HE ES        835 43.63                             137   -0.3810 97.2 303 
 PTB  HZ I         835 46.08        13.2 0.44                          97.2 303 
 BRR  HZ EP   2    835 30.26                             131    0.20 5  115   0 
 BRR  HN ES        835 47.29                             131    0.4810  115   0 
 BRR  HZ I         835 50.33        21.3 0.16                           115   0 
 NOR  HZ EP        835 32.31                             126   -0.08 9  139 247 
 NOR  HN ES        835 51.84                             126    0.88 9  139 247 
 NOR  HZ I         835 53.34        24.7 0.38                           139 247 
 ROSC BZ EP   4    835 35.33                             123    1.29 0  151 206 
 ROSC BN ES   4    835 55.94                             123    2.05 0  151 206 
 ROSC BZ I         836  1.06         9.2 0.30                           151 206 
 CHI  HZ EP   2    835 34.00                             122   -0.85 5  159 181 
 CHI  HN ES        835 54.77                             122   -0.57 9  159 181 
 CHI  HZ I         835 57.94         7.0 0.36                           159 181 
 HEL  HZ EP        835 39.99                             115    0.65 9  201 274 
 HEL  HN ES        836  3.34                             115    0.02 9  201 274 
 HEL  HZ I         836  9.08         5.0 0.22                           201 274 
 ZAR  HZ EP        835 39.02                             115    0.02 9  202 321 
 ZAR  HN ES        836  2.99                             115    0.27 9  202 321 
 ZAR  HZ I         836  5.12        14.8 0.24                           202 321 
 GUY2CHZ EP        835 40.59                             115    0.70 9  205 243 
 GUY2CHE ES   4    836  6.29                             115    1.98 0  205 243 
 GUY2CHZ I         836 12.36         5.5 0.30                           205 243 
 CBOC HZ EP        835 45.82                             109    0.62 8  255 265 
 CBOC HE ES        836 12.81                             109   -0.95 8  255 265 
 URE  HZ EP        835 45.97                             107   -1.23 8  274 313 
 URE  HN ES   4    836 14.61                             107   -2.70 0  274 313 
 URE  HZ I         836 17.21         5.7 0.20                           274 313 
 PRA  HZ EP   2    835 49.24                             106    0.09 4  290 207 
 PRA  HE ES        836 20.94                             106    0.16 7  290 207 
 PRA  HZ I         836 27.40         4.0 0.24                           290 207 
                                                                                
