 2014  2 9 0647 53.8 L   6.768 -73.163141.6  RSN  9 0.4 2.0LRSN                1
 GAP=106        0.84       3.7     3.4  5.2 -0.3122E+01  0.4284E+01  0.8097E+00E
 Epicentro: LOS SANTOS - SANTANDER                                             3
 ACTION:UPD 14-03-10 08:08 OP:ep   STATUS:               ID:20140209064753 L   I
 OLDACT:UP  14-02-09 11:32 OP:mh   STATUS:               ID:20140209064738     3
 OLDACT:REG 14-02-09 08:36 OP:mh   STATUS:               ID:20140209064738     3
 2014-02-09-0647-38M.COL___223                                                 6
 STAT SP IPHASW D HRMM SECON CODA AMPLIT PERI AZIMU VELO AIN AR TRES W  DIS CAZ7
 BAR2 SZ EP        648 12.89                             172    0.0510 19.5 186 
 BAR2 SZ ES        648 27.57                             172   -0.1310 19.5 186 
 BAR2 SZ I         648 28.98        29.1 0.17            168           19.5 186 
 PAM  SZ EP   1    648 15.73                             149   -0.07 7 81.3  39 
 PAM  SZ ES        648 33.01                             149    0.0410 81.3  39 
 PAM  SZ I         648 35.25        13.0 0.51            153           81.3  39 
 RUS  HZ EP        648 16.83                             144   -0.0410 97.2 175 
 RUS  HN ES        648 35.23                             144    0.3410 97.2 175 
 RUS  HZ I         648 36.32       117.8 0.06            142           97.2 175 
 PTB  HZ EP        648 19.58                             132   -0.60 9  145 260 
 PTB  HN ES        648 40.29                             132   -0.48 9  145 260 
 PTB  HZ I         648 42.65        10.1 0.08            132            145 260 
 TAM  HZ EP     C  648 21.17                             129   -0.05 9  156 104 
 SPBC HZ EP        648 21.83                             129    0.25 9  159 219 
 SPBC HN ES   1    648 43.31                             129    0.04 7  159 219 
 SPBC HZ I         648 49.88         9.6 0.18            128            159 219 
 ZAR  HZ EP        648 26.51                             121    0.59 9  204 293 
 ZAR  HE ES   2    648 51.72                             121    0.73 4  204 293 
 NOR  HZ EP   1    648 28.26                             118   -0.62 6  231 235 
 NOR  HN ES        648 56.82                             118    0.56 8  231 235 
 NOR  HZ I         649  1.61         6.7 0.20            118            231 235 
 CHI  HZ EP   1    648 31.03                             117    0.21 6  245 195 
 CHI  HN ES   1    648 59.05                             117   -0.66 6  245 195 
 CHI  HZ I         649  7.68         2.6 0.36            117            245 195 
 GUY2CHZ EP   4    648 38.14                             112    1.35 0  298 235 
 GUY2CHE ES   4    649 13.70                             112    3.36 0  298 235 
                                                                                
