 2015  8 9 0622 37.6 L   6.797 -73.149148.6  RSN  7 0.3 1.6LRSN                1
 GAP=183        0.80       2.8     5.5  5.7  0.3628E+01  0.4254E+01 -0.2528E+01E
 Epicentro: LOS SANTOS - SANTANDER                                             3
 ACTION:UPD 15-09-15 23:01 OP:cam  STATUS:               ID:20150809062237 L   I
 OLDACT:UP  15-08-09 16:54 OP:mh   STATUS:               ID:20150809061750d    3
 OLDACT:UP  15-08-09 16:54 OP:mh   STATUS:               ID:20150809061750d    3
 OLDACT:UP  15-08-09 16:54 OP:mh   STATUS:               ID:20150809061750d    3
 OLDACT:DUP 15-08-09 16:47 OP:mh   STATUS:               ID:20150809061750d    3
 OLDACT:DUP 15-08-09 16:46 OP:mh   STATUS:               ID:20150809061749d    3
 OLDACT:DUP 15-08-09 16:40 OP:mh   STATUS:               ID:20150809061748d    3
 OLDACT:UP  15-08-09 16:38 OP:mh   STATUS:               ID:20150809061747     3
 OLDACT:UP  15-08-09 16:36 OP:mh   STATUS:               ID:20150809061747     3
 OLDACT:UP  15-08-09 16:35 OP:mh   STATUS:               ID:20150809061747     3
 OLDACT:UP  15-08-09 16:34 OP:mh   STATUS:               ID:20150809061747     3
 OLDACT:UP  15-08-09 16:32 OP:mh   STATUS:               ID:20150809061747     3
 OLDACT:UP  15-08-09 16:29 OP:mh   STATUS:               ID:20150809061747     3
 OLDACT:REG 15-08-09 12:35 OP:mh   STATUS:               ID:20150809061747     3
 2015-08-09-0617-47M.COL___343                                                 6
 STAT SP IPHASW D HRMM SECON CODA AMPLIT PERI AZIMU VELO AIN AR TRES W  DIS CAZ7
 BAR2 EZ ES        623 12.78                             171   -0.3610 22.9 189 
 BAR2 EZ I         623 15.06         6.9 0.40            170           22.9 189 
 BRR  HZ EP        622 59.28                             153    0.2210 71.1 299 
 BRR  HN ES        623 16.18                             153    0.3910 71.1 299 
 BRR  HZ I         623 20.65         3.4 0.21            148           71.1 299 
 RUS  HZ EP        623  1.56                             144   -0.0610  100 176 
 RUS  HN ES        623 20.42                             144    0.0810  100 176 
 RUS  HZ I         623 21.07         3.6 0.28            148            100 176 
 OCA  HN ES        623 28.63                             130    0.18 9  161 353 
 OCA  HZ I         623 32.80         7.3 0.20            130            161 353 
 SPBC HZ EP        623  6.07                             130   -0.22 9  163 219 
 SPBC HN ES        623 28.69                             130    0.04 9  163 219 
 SPBC HZ I         623 31.03         7.9 0.20            131            163 219 
 ZAR  HN ES        623 35.58                             123   -0.08 9  204 292 
 ZAR  HZ I         623 44.48         2.5 0.32            122            204 292 
 SML  HZ EP        623 14.88                             118    0.46 8  244 335 
 SML  HN ES        623 42.33                             118   -0.80 8  244 335 
 SML  HZ I         623 51.09         4.0 0.10            118            244 335 
                                                                                
