 2010 10 9 0325 27.3 L   6.770 -73.495114.4  RSN  8 0.4 2.1LRSN                1
 GAP= 88        0.96       4.4     6.3  7.5 -0.4525E+01  0.1187E+02 -0.5206E+01E
 Epicentro: EL CARMEN DE CHUCURI - SANTANDER                                   3
 ACTION:UP  11-02-18 11:08 OP:tino STATUS:               ID:20101009032527 L   I
 2010-10-09-0321-35S.COL___119                                                 6
 STAT SP IPHASW D HRMM SECON CODA AMPLIT PERI AZIMU VELO SNR AR TRES W  DIS CAZ7
 BAR2 SZ IP        325 43.81                             160     0.110   40 120 
 BAR2 SZ ES   1    325 56.25                             160    -0.3 7   40 120 
 BAR2 SZ I         325 56.82        77.3 0.12                            40 120 
 BRR  HZ IP     D  325 43.81                             157     0.210   44 327 
 BRR  HE ES   1    325 56.60                             157     0.3 7   44 327 
 BRR  HZ I         325 57.54        94.7 0.21                            44 327 
 GUE  SZ IP        325 50.65                             127    -0.210  133  28 
 GUE  SZ ES   1    326  8.28                             127    -0.9 7  133  28 
 GUE  SZ I         326  9.47        19.5 0.09                           133  28 
 GRA  SZ IP        325 52.06                             124     0.3 9  145  32 
 GRA  SZ ES   1    326 11.53                             124     0.6 7  145  32 
 GRA  SZ I         326 12.54        23.0 0.25                           145  32 
 OCA  SZ EP   1    325 53.92                             121     0.2 7  164   7 
 OCA  SZ ES   1    326 13.92                             121    -0.4 7  164   7 
 OCA  SZ I         326 17.44        20.3 0.50                           164   7 
 HEL  HZ EP   2    326  1.42                             111    -0.3 4  234 254 
 HEL  HZ I         326 32.53         4.7 0.41                           234 254 
 CHI  HZ EP   2    326  2.88                             111     0.6 4  238 186 
 CHI  HE ES   2    326 28.76                             111    -0.8 4  238 186 
 CHI  HZ I         326 30.79         2.5 0.37                           238 186 
 MON  HZ EP   1    326 11.47                             104    -0.5 5  326 313 
 MON  HZ I         326 12.05         4.3 0.27                           326 313 
 MON  HE ES   1    326 47.00                             104     0.1 5  326 313 
                                                                                
