 2013  3 9 0945  9.2 L   6.618 -73.313133.1  RSN  4 0.2 1.7LRSN                1
 GAP=165        0.52       7.1     4.1  7.6 -0.5332E+01 -0.7574E+01  0.2845E+02E
 Epicentro: GALAN - SANTANDER                                                  3
 ACTION:UPD 13-04-09 14:01 OP:ep   STATUS:               ID:20130309094509 L   I
 2013-03-09-0938-49M.COL___195                                                 6
 STAT SP IPHASW D HRMM SECON CODA AMPLIT PERI AZIMU VELO AIN AR TRES W  DIS CAZ7
 BAR2 SZ EP        945 27.42                             173    0.2410 14.7 101 
 BRR  HZ IP     C  945 28.76                             151   -0.1810 69.8 321 
 BRR  HN ES        945 44.21                             151   -0.1010 69.8 321 
 PTB  HZ EP        945 33.18                             134   -0.0910  127 266 
 PTB  HN ES        945 52.02                             134    0.0110  127 266 
 PTB  HN I         945 54.24         7.3 0.20            134            127 266 
 ZAR  HN ES   2    946  4.70                             121    0.61 4  196 300 
                                                                                
