 2017 11 9 0502 31.1 L   6.793 -73.130144.7  RSN 14 0.3 1.8LRSN                1
 GAP= 67        0.76       2.5     2.2  4.5  0.7459E+00  0.1382E+01  0.2147E+01E
 Epicentro: LOS SANTOS - SANTANDER                                             3
 ACTION:UPD 17-12-12 19:53 OP:rebc STATUS:               ID:20171109050231 L   I
 OLDACT:UP  17-11-09 15:39 OP:dnl  STATUS:               ID:20171109045642     3
 OLDACT:REG 17-11-09 13:06 OP:dnl  STATUS:               ID:20171109045642     3
 2017-11-09-0457-00M.COL___428                                                 6
 STAT SP IPHASW D HRMM SECON CODA AMPLIT PERI AZIMU VELO AIN AR TRES W  DIS CAZ7
 BAR2 EZ EP        5 2 50.41                             171   -0.1410 22.9 195 
 BAR2 EZ I         5 3  6.47        21.5 0.18            168           22.9 195 
 BRR  HZ EP        5 2 52.43                             151    0.2310 73.1 298 
 BRR  HN ES        5 3  9.22                             151    0.5410 73.1 298 
 BRR  HZ I         5 3 13.37        11.8 0.12            151           73.1 298 
 PAM  EZ EP        5 2 53.32                             150    0.1910 76.9  38 
 PAM  EE ES        5 3 10.27                             150   -0.0810 76.9  38 
 PAM  EZ I         5 3 12.26        14.3 0.54            154           76.9  38 
 RUS  HZ EP        5 2 54.43                             144   -0.2110 99.7 177 
 RUS  HN ES        5 3 12.78                             144   -0.2510 99.7 177 
 RUS  HZ I         5 3 14.57         7.8 0.36            144           99.7 177 
 PTB  HZ EP        5 2 57.56                             131   -0.52 9  149 259 
 PTB  HE ES        5 3 18.79                             131   -0.36 9  149 259 
 PTB  HZ I         5 3 21.14         6.6 0.44            131            149 259 
 TAM  HZ EP        5 2 58.77                             130    0.29 9  153 105 
 TAM  HN ES        5 3 19.52                             130   -0.34 9  153 105 
 TAM  HZ I         5 3 20.86         4.9 0.28            133            153 105 
 SPBC HZ EP        5 2 59.61                             129    0.09 9  164 220 
 SPBC HN ES        5 3 21.36                             129   -0.35 9  164 220 
 SPBC HZ I         5 3 25.26         9.0 0.22            128            164 220 
 YPLC HZ EP        5 3  0.90                             126    0.28 9  175 152 
 YPLC HN ES        5 3 23.80                             126    0.12 9  175 152 
 YPLC HZ I         5 3 27.33        13.4 0.28            128            175 152 
 ZAR  HZ EP        5 3  3.64                             122    0.01 8  206 292 
 ZAR  HN ES        5 3 29.22                             122    0.19 8  206 292 
 ZAR  HZ I         5 3 36.55         5.8 0.46            122            206 292 
 NOR  HZ EP        5 3  7.05                             118    0.23 8  236 235 
 NOR  HN ES   4    5 3 34.09                             118   -0.63 0  236 235 
 NOR  HZ I         5 3 41.58         4.2 0.42            118            236 235 
 CHI  HZ EP   2    5 3  8.60                             117   -0.06 4  248 196 
 CHI  HN ES        5 3 38.19                             117    0.20 8  248 196 
 CHI  HZ I         5 3 47.79         1.5 0.36            117            248 196 
 GUY2CHZ EP   4    5 3 16.77                             112    2.05 0  302 235 
 GUY2CHN ES   4    5 3 50.53                             112    1.75 0  302 235 
 GUY2CHZ I         5 3 57.05         2.3 0.38                           302 235 
 DRL02HZ EP   2    5 3 15.29                             110   -1.52 3  326 357 
 PRA  HZ EP        5 3 25.08                             106    0.52 6  392 210 
 PRA  HE ES   4    5 4  4.79                             106   -1.50 0  392 210 
 PRA  HZ I         5 4 13.11         1.8 0.70            107            392 210 
                                                                                
