 2014  2 9 0143 20.7 L   5.948 -73.684121.3  RSN  6 0.4 1.0LRSN                1
 GAP= 90        0.81       4.6     4.3  8.0  0.4097E+01  0.4485E+01  0.1071E+02E
 Epicentro: VELEZ - SANTANDER                                                  3
 ACTION:UPD 14-03-10 08:08 OP:ep   STATUS:               ID:20140209014320 L   I
 OLDACT:UP  14-02-09 09:58 OP:mh   STATUS:               ID:20140209014000     3
 OLDACT:UP  14-02-09 09:58 OP:mh   STATUS:               ID:20140209014000     3
 OLDACT:REG 14-02-09 07:50 OP:mh   STATUS:               ID:20140209014000     3
 2014-02-09-0140-00M.COL___291                                                 6
 STAT SP IPHASW D HRMM SECON CODA AMPLIT PERI AZIMU VELO AIN AR TRES W  DIS CAZ7
 SPBC HZ EP   1    143 37.88                             154   -0.45 7 54.0 233 
 SPBC HN ES   1    143 52.54                             154    0.43 7 54.0 233 
 SPBC HZ I         143 54.34         6.4 0.25            154           54.0 233 
 RUS  HZ EP        143 39.61                             149   -0.0310 66.8  95 
 RUS  HN ES   1    143 53.79                             149   -0.65 7 66.8  95 
 RUS  HZ I         143 55.26         1.5 0.27            156           66.8  95 
 BAR2 SZ ES   1    143 57.34                             141    0.62 7 90.3  38 
 BAR2 SZ I         143 58.24         8.1 0.18            146           90.3  38 
 PTB  HZ EP        143 42.17                             135    0.1510  108 307 
 PTB  HN ES        143 58.42                             135   -0.2610  108 307 
 PTB  HZ I         144  4.74         1.1 0.07            137            108 307 
 CHI  HZ EP        143 46.23                             126    0.14 9  146 182 
 CHI  HN ES   2    144  6.10                             126    0.18 5  146 182 
 CHI  HZ I         144  9.02         0.5 0.16            130            146 182 
 LCBC HE E         143 33.95                                            437 318 
                                                                                
