 2017  2 9 0550 44.1 L   6.699 -73.306138.0  RSN  5 0.3 1.2LRSN                1
 GAP=176        0.74       4.0     4.7  5.5  0.7146E+01  0.6124E+01  0.7781E+01E
 Epicentro: GALAN - SANTANDER                                                  3
 ACTION:UPD 17-05-24 15:34 OP:jn   STATUS:               ID:20170209055044 L   I
 OLDACT:UP  17-02-09 18:35 OP:edw  STATUS:               ID:20170209054742d    3
 OLDACT:DUP 17-02-09 18:32 OP:edw  STATUS:               ID:20170209054742d    3
 OLDACT:UP  17-02-09 18:32 OP:edw  STATUS:               ID:20170209054741     3
 OLDACT:REG 17-02-09 13:29 OP:edw  STATUS:               ID:20170209054741     3
 2017-02-09-0548-00M.COL___358                                                 6
 STAT SP IPHASW D HRMM SECON CODA AMPLIT PERI AZIMU VELO AIN AR TRES W  DIS CAZ7
 BAR2 EZ EP        551  3.04                             172    0.3510 18.1 131 
 BAR2 EZ ES        551 17.25                             172    0.0510 18.1 131 
 BAR2 EZ I         551 18.18         5.8 0.30            172           18.1 131 
 BRR  HZ EP        551  3.63                             154   -0.3510 63.6 315 
 BRR  HN ES        551 19.67                             154    0.1710 63.6 315 
 BRR  HZ I         551 24.25         4.7 0.42            151           63.6 315 
 RUS  HZ EP        551  6.04                             145   -0.4610 92.5 165 
 RUS  HN ES        551 23.94                             145   -0.0410 92.5 165 
 RUS  HZ I         551 25.80         1.6 0.40            147           92.5 165 
 PTB  HZ EP        551  9.06                             134    0.3610  128 262 
 PTB  HN ES        551 27.61                             134   -0.2710  128 262 
 PTB  HZ I         551 36.64         1.5 0.44            133            128 262 
 CHI  HZ EP        551 19.91                             117    0.17 8  234 192 
 CHI  HN ES        551 47.67                             117    0.13 8  234 192 
                                                                                
