 2011  2 9 0307 59.4 L   6.805 -73.091132.4  RSN  6 0.4 1.7LRSN                1
 GAP=188        1.00       4.6     9.1  9.8 -0.5881E+01  0.3289E+02 -0.2639E+01E
 Epicentro: LOS SANTOS - SANTANDER                                             3
 ACTION:UP  11-03-28 15:07 OP:jfem STATUS:               ID:20110209030759 L   I
 2011-02-09-0304-00S.COL___130                                                 6
 STAT SP IPHASW D HRMM SECON CODA AMPLIT PERI AZIMU VELO SNR AR TRES W  DIS CAZ7
 BAR2 SZ IP        3 8 17.76                             168     0.310   26 203 
 BAR2 SZ I         3 8 18.06        22.7 0.10                            26 203 
 BAR2 SZ ES   1    3 8 30.75                             168    -0.9 7   26 203 
 RUS  HZ EP        3 8 21.64                             141    -0.310  101 179 
 RUS  HN ES   1    3 8 40.18                             141     0.7 7  101 179 
 RUS  HZ I         3 8 41.04         4.6 0.27                           101 179 
 OCA  SZ EP   1    3 8 26.67                             126    -0.1 7  161 351 
 OCA  SZ ES   1    3 8 48.48                             126     0.4 7  161 351 
 OCA  SZ I         3 8 55.16         9.4 0.24                           161 351 
 NOR  SN ES   1    3 9  2.95                             115     0.2 6  240 235 
 CHI  HZ EP   1    3 8 36.38                             114    -0.3 6  251 196 
 CHI  HN ES   1    3 9  5.86                             114     0.2 6  251 196 
 CHI  HZ I         3 9  7.84         1.4 0.25                           251 196 
 HEL  HZ EP   1    3 8 39.25                             111    -0.4 6  278 256 
 HEL  HN ES   2    3 9 11.19                             111     0.1 4  278 256 
 HEL  HZ I         3 9 17.51         3.8 0.22                           278 256 
                                                                                
