 2012  3 9 0721 33.0 L   6.754 -73.170147.1  RSN  4 0.4 1.2LRSN                1
 GAP=136        0.79       6.8     6.2 11.1 -0.4002E+01  0.3907E+01 -0.6369E+01E
 ACTION:UP  12-03-31 23:18 OP:EP   STATUS:               ID:20120309072133 L   I
 2012-03-09-0720-00M.COL___193                                                 6
 STAT SP IPHASW D HRMM SECON CODA AMPLIT PERI AZIMU VELO SNR AR TRES W  DIS CAZ7
 BRR  HZ I         721 48.22         2.6 0.10                            72 303 
 BRR  HN ES   1    722 11.29                             153     0.4 7   72 303 
 PAM  SZ EP   1    721 56.12                             149     0.4 7   83  39 
 PAM  SZ I         721 56.37         2.7 0.13                            83  39 
 PAM  SN ES   2    722 12.59                             149    -0.8 5   83  39 
 RUS  HN ES   1    722 14.90                             146     0.0 7   96 174 
 PTB  HZ EP   1    721 59.50                             133    -0.3 7  144 261 
 PTB  HN ES   1    722 20.42                             133    -0.2 7  144 261 
                                                                                
