 2016 11 9 0948 40.8 L   6.769 -73.160144.1  RSN  4 0.2 1.2LRSN                1
 GAP=148        0.63       5.6     3.3  5.5 -0.6017E+01  0.8024E+01 -0.7083E+01E
 Epicentro: LOS SANTOS - SANTANDER                                             3
 ACTION:UPD 17-10-26 21:06 OP:lp   STATUS:               ID:20161109094840 L   I
 OLDACT:REG 16-11-09 13:10 OP:lv   STATUS:               ID:20161109093746     3
 2016-11-09-0938-00M.COL___340                                                 6
 STAT SP IPHASW D HRMM SECON CODA AMPLIT PERI AZIMU VELO AIN AR TRES W  DIS CAZ7
 BAR2 EZ EP        949  0.08                             172   -0.0410 19.7 187 
 BAR2 EZ ES        949 15.50                             172    0.2910 19.7 187 
 BAR2 EZ I         949 16.47         3.9 0.14            173           19.7 187 
 PAM  EZ EP        949  3.29                             149    0.2810 81.0  39 
 PAM  EN ES        949 20.04                             149   -0.3410 81.0  39 
 PAM  EZ I         949 20.88         2.6 0.20            151           81.0  39 
 PTB  HZ EP        949  7.14                             132   -0.25 9  146 260 
 PTB  HN ES        949 27.96                             132   -0.21 9  146 260 
 PTB  HZ I         949 30.56         1.8 0.11            132            146 260 
 ZAR  HZ EP        949 13.15                             122    0.07 9  204 293 
 ZAR  HN ES        949 38.51                             122    0.22 9  204 293 
 ZAR  HZ I         949 43.30         2.4 0.32            122            204 293 
                                                                                
