 2017  2 9 0759 38.5 L   6.734 -73.218145.4  RSN  4 0.4 1.2LRSN                1
 GAP=219        1.05       8.1     7.6  8.4  0.3040E+02  0.7984E+01  0.3587E+01E
 Epicentro: VILLANUEVA - SANTANDER                                             3
 ACTION:UPD 17-05-24 15:34 OP:jn   STATUS:               ID:20170209075938 L   I
 OLDACT:DUP 17-02-09 20:10 OP:edw  STATUS:               ID:20170209075746d    3
 OLDACT:REG 17-02-09 13:39 OP:edw  STATUS:               ID:20170209075745     3
 2017-02-09-0758-00M.COL___352                                                 6
 STAT SP IPHASW D HRMM SECON CODA AMPLIT PERI AZIMU VELO AIN AR TRES W  DIS CAZ7
 BAR2 EZ EP        759 57.52                             173   -0.4110 16.2 166 
 BAR2 EZ ES        8 0 12.51                             173   -0.5910 16.2 166 
 BAR2 EZ I         8 0 13.65         3.6 0.20            171           16.2 166 
 BRR  HZ EP        759 59.53                             153    0.1110 68.4 307 
 BRR  HN ES        8 0 16.35                             153    0.5910 68.4 307 
 RUS  HZ EP        8 0  1.81                             146    0.0810 94.2 171 
 RUS  HN ES        8 0 20.37                             146    0.4910 94.2 171 
 PTB  HZ EP        8 0  4.64                             134    0.05 9  139 261 
 PTB  HN ES        8 0 24.60                             134   -0.36 9  139 261 
 PTB  HZ I         8 0 28.06         2.2 0.32            132            139 261 
                                                                                
