 2017 12 9 0713 10.9 L   6.086 -73.713114.7  RSN  5 0.5 1.3LRSN                1
 GAP=134        1.21       4.1     5.9  9.4  0.3479E+01  0.3551E+01 -0.7045E+00E
 Epicentro: CHIPATA - SANTANDER                                                3
 ACTION:UPD 18-01-04 13:18 OP:rebc STATUS:               ID:20171209071310 L   I
 OLDACT:REG 17-12-09 14:01 OP:leo  STATUS:               ID:20171209070640     3
 2017-12-09-0707-00M.COL___481                                                 6
 STAT SP IPHASW D HRMM SECON CODA AMPLIT PERI AZIMU VELO AIN AR TRES W  DIS CAZ7
 SPBC HZ EP        713 28.24                             149   -0.0610 62.3 220 
 SPBC HE ES        713 42.75                             149    0.8410 62.3 220 
 SPBC HZ I         713 47.51         5.0 0.20            150           62.3 220 
 BAR2 EZ EP        713 30.21                             142    0.4210 81.1  46 
 BAR2 EZ ES        713 44.29                             142   -0.2710 81.1  46 
 BAR2 EZ I         713 45.76         9.8 0.14            148           81.1  46 
 PTB  HZ EP        713 30.26                             137   -0.4310 96.4 301 
 PTB  HN ES        713 45.41                             137   -0.7510 96.4 301 
 PTB  HZ I         713 47.96         2.9 0.40            139           96.4 301 
 CHI  HZ EP        713 37.31                             122   -0.06 9  161 181 
 CHI  HE ES        713 57.74                             122   -0.32 9  161 181 
 CHI  HZ I         714  0.03         1.7 0.30            125            161 181 
 ZAR  HZ EP        713 41.30                             115    0.20 9  201 321 
 ZAR  HE ES        714  5.26                             115    0.57 9  201 321 
 ZAR  HZ I         714 10.22         3.3 0.50            118            201 321 
                                                                                
