 2012  1 9 0840 18.7 L   6.800 -73.121149.2  RSN  5 0.2 1.4LRSN                1
 GAP=140        0.47       5.2     4.1  7.4 -0.3301E+01  0.6184E+01 -0.2482E+01E
 Epicentro: LOS SANTOS - SANTANDER                                             3
 ACTION:UP  12-02-03 08:15 OP:REBC STATUS:               ID:20120109084018 L   I
 2012-01-09-0840-00M.COL___186                                                 6
 STAT SP IPHASW D HRMM SECON CODA AMPLIT PERI AZIMU VELO SNR AR TRES W  DIS CAZ7
 BRR  HZ EP   1    840 40.58                             152     0.2 7   74 298 
 BRR  HN ES   2    840 57.45                             152     0.2 5   74 298 
 BRR  HZ I         840 57.90         6.5 0.55                            74 298 
 PAM  SZ EP   1    840 41.44                             152     0.2 7   76  38 
 PAM  SN ES   2    840 58.35                             152    -0.4 5   76  38 
 RUS  HN ES   2    841  1.66                             145     0.1 5  100 178 
 PTB  HZ EP   1    840 45.90                             132    -0.3 7  150 259 
 PTB  HN ES   2    841  7.60                             132    -0.1 5  150 259 
 ZAR  HN ES   2    841 17.30                             123     0.0 4  207 292 
 ZAR  HZ I         841 23.39         1.8 0.45                           207 292 
                                                                                
