 2013  8 9 0124 16.4 L   6.760 -73.132159.9  RSN  5 0.3 1.2LRSN                1
 GAP=201        0.56       4.3     5.2  7.7  0.1105E+02 -0.3728E+01 -0.7072E+01E
 Epicentro: LOS SANTOS - SANTANDER                                             3
 ACTION:UPD 14-01-14 09:00 OP:ep   STATUS:               ID:20130809012416 L   I
 OLDACT:REG 13-08-09 06:16 OP:jn   STATUS:               ID:20130809011960d    3
 2013-08-09-0119-59M.COL___267                                                 6
 STAT SP IPHASW D HRMM SECON CODA AMPLIT PERI AZIMU VELO AIN AR TRES W  DIS CAZ7
 BRR  HN ES   1    124 57.40                             154    0.28 8 74.7 301 
 RUS  HZ EP   1    124 41.43                             148    0.17 8 96.1 177 
 RUS  HN ES   1    125  0.52                             148   -0.13 8 96.1 177 
 RUS  HZ I         125  1.79         1.8 0.32            148           96.1 177 
 PTB  HZ EP   1    124 44.65                             135    0.04 7  148 261 
 PTB  HN ES        125  6.32                             135   -0.2910  148 261 
 PTB  HZ I         125  8.27         2.5 0.12            135            148 261 
 ZAR  HN ES   1    125 16.83                             125    0.43 7  207 293 
 SML  HN ES   1    125 23.59                             120   -0.35 6  248 335 
                                                                                
