 2011 11 9 0858 56.9 L   6.791 -73.135146.2  RSN  6 0.4 1.6LRSN                1
 GAP=138        0.77       4.1     5.4  6.9  0.3217E+01  0.7023E+01 -0.4296E+01E
 Epicentro: LOS SANTOS - SANTANDER                                             3
 ACTION:UPD 12-07-13 16:09 OP:ep   STATUS:               ID:20111109085856 L   I
 2011-11-09-0857-47S.COL___178                                                 6
 STAT SP IPHASW D HRMM SECON CODA AMPLIT PERI AZIMU VELO AIN AR TRES W  DIS CAZ7
 BAR2 SZ EP   1    859 16.37                             171   -0.24 7 22.6 193 
 BAR2 SZ ES   1    859 31.54                             171   -0.40 7 22.6 193 
 BAR2 SZ I         859 33.34         8.9 0.35                          22.6 193 
 BRR  HZ EP   1    859 18.34                             152    0.12 7 72.7 299 
 BRR  HZ I         859 18.75        15.0 0.15                          72.7 299 
 BRR  HN ES   1    859 35.40                             152    0.59 7 72.7 299 
 PAM  SZ EP   1    859 18.80                             151   -0.40 7 77.5  38 
 PAM  SZ I         859 19.62         2.6 0.18                          77.5  38 
 PAM  SN ES   1    859 36.67                             151    0.10 7 77.5  38 
 RUS  HZ EP   1    859 21.09                             144    0.43 7 99.5 177 
 RUS  HN ES   1    859 39.10                             144   -0.05 7 99.5 177 
 OCA  SZ EP   1    859 25.10                             129   -0.29 7  161 353 
 OCA  SZ ES   1    859 47.84                             129    0.26 7  161 353 
 OCA  SZ I         859 53.07         7.6 0.23                           161 353 
 ZAR  HZ EP   1    859 30.10                             122    0.54 6  205 292 
 ZAR  HE ES   1    859 54.29                             122   -0.71 6  205 292 
 ZAR  HZ I         9 0  1.70         4.8 0.27                           205 292 
                                                                                
