 2017  1 9 0725 14.2 L   6.826 -73.104148.2  RSN  4 0.2 0.8LRSN                1
 GAP=141        0.58       3.2     4.7  4.7 -0.4650E+00 -0.1449E+01  0.8152E+00E
 Epicentro: LOS SANTOS - SANTANDER                                             3
 ACTION:UPD 17-05-22 15:57 OP:jn   STATUS:               ID:20170109072514 L   I
 OLDACT:DUP 17-01-09 17:14 OP:and  STATUS:               ID:20170109071748d    3
 2017-01-09-0718-00M.COL___341                                                 6
 STAT SP IPHASW D HRMM SECON CODA AMPLIT PERI AZIMU VELO AIN AR TRES W  DIS CAZ7
 BAR2 EZ EP        725 33.79                             169   -0.3610 27.3 199 
 BAR2 EZ ES        725 49.79                             169    0.0310 27.3 199 
 PAM  EZ EP        725 36.70                             153    0.3710 72.2  38 
 PAM  EN ES        725 53.46                             153   -0.1610 72.2  38 
 PAM  EZ I         725 54.27         1.2 0.24            154           72.2  38 
 BRR  HZ EP        725 35.61                             152   -0.1110 74.0 295 
 BRR  HN ES        725 52.66                             152    0.1210 74.0 295 
 RUS  HZ EP        725 38.37                             144    0.0410  103 179 
 RUS  HN ES        725 57.27                             144    0.0810  103 179 
 RUS  HZ I         725 58.92         1.0 0.60            143            103 179 
                                                                                
