 2016  1 9 0416 23.8 L   6.777 -73.155150.0  RSN  6 0.4 1.3LRSN                1
 GAP=136        0.94       4.0     4.8  6.2  0.5898E+00  0.4953E+01 -0.5069E+01E
 Epicentro: LOS SANTOS - SANTANDER                                             3
 ACTION:UPD 16-03-09 23:23 OP:cam  STATUS:               ID:20160109041623 L   I
 OLDACT:REG 16-01-09 12:55 OP:drio STATUS:               ID:20160109040750     3
 2016-01-09-0407-50M.COL___279                                                 6
 STAT SP IPHASW D HRMM SECON CODA AMPLIT PERI AZIMU VELO AIN AR TRES W  DIS CAZ7
 BAR2 EZ EP        416 43.84                             172   -0.0610 20.6 188 
 BAR2 EZ ES        416 59.44                             172   -0.1310 20.6 188 
 BAR2 EZ I         417  0.03         4.5 0.20            175           20.6 188 
 BRR  HZ EP        416 45.80                             153    0.3610 71.6 301 
 BRR  HE ES        417  3.05                             153    0.7410 71.6 301 
 PAM  EZ EP        416 46.71                             151    0.0810 80.0  39 
 PAM  EE ES        417  4.18                             151   -0.2610 80.0  39 
 PAM  EZ I         417  6.33         3.3 0.70            150           80.0  39 
 RUS  HZ EP        416 48.26                             145    0.4610 98.1 175 
 RUS  HE ES        417  6.15                             145   -0.3710 98.1 175 
 RUS  HZ I         417  7.13         1.2 0.52            148           98.1 175 
 PTB  HZ EP        416 50.75                             133   -0.24 9  146 260 
 PTB  HN ES        417 11.84                             133   -0.36 9  146 260 
 PTB  HZ I         417 13.54         3.3 0.20            133            146 260 
 SML  HZ EP        417  0.90                             118    0.02 8  246 336 
 SML  HN ES        417 29.31                             118   -0.49 8  246 336 
 SML  HZ I         417 37.57         3.3 0.10            118            246 336 
                                                                                
