 2016  5 9 0123 11.2 L   6.766 -73.169138.8  RSN  6 0.5 1.5LRSN                1
 GAP=135        1.26       6.0     5.4  8.5  0.3316E+01  0.1219E+02 -0.2398E+01E
 Epicentro: LOS SANTOS - SANTANDER                                             3
 ACTION:UPD 16-08-18 17:43 OP:cam  STATUS:               ID:20160509012311 L   I
 OLDACT:DUP 16-05-09 13:17 OP:drio STATUS:               ID:20160509011748d    3
 2016-05-09-0117-47M.COL___292                                                 6
 STAT SP IPHASW D HRMM SECON CODA AMPLIT PERI AZIMU VELO AIN AR TRES W  DIS CAZ7
 BAR2 EZ EP        123 30.37                             172    0.4110 19.3 184 
 BAR2 EZ ES        123 43.99                             172   -0.5710 19.3 184 
 BAR2 EZ I         123 45.46         8.1 0.36            171           19.3 184 
 BRR  HZ EP        123 31.51                             151   -0.1110 70.9 302 
 BRR  HN ES        123 48.44                             151    0.9210 70.9 302 
 PAM  EZ EP        123 32.65                             148   -0.3610 81.9  39 
 PAM  EE ES        123 49.80                             148   -0.1810 81.9  39 
 PAM  EZ I         123 51.48         5.1 0.58            150           81.9  39 
 RUS  HZ EP        123 34.51                             143    0.4510 97.1 174 
 RUS  HE ES        123 51.98                             143    0.1310 97.1 174 
 RUS  HZ I         123 54.05         3.5 0.16            147           97.1 174 
 PTB  HZ EP        123 36.61                             131   -0.74 9  145 260 
 PTB  HN ES        123 57.38                             131   -0.34 9  145 260 
 PTB  HZ I         123 60.00         3.2 0.16            130            145 260 
 ZAR  HZ EP        123 43.75                             121    0.60 9  203 293 
 ZAR  HE ES        124  7.80                             121   -0.23 9  203 293 
 ZAR  HZ I         124 23.03         4.2 0.10            120            203 293 
                                                                                
