 2013  3 9 0556 34.4 L   6.329 -73.621113.0  RSN  4 0.2 1.6LRSN                1
 GAP=225        0.50       4.4     2.4  4.3 -0.4655E+01 -0.1417E+01  0.8562E+00E
 Epicentro: SANTA HELENA DEL OPON - SANTANDER                                  3
 ACTION:UPD 13-04-09 14:00 OP:ep   STATUS:               ID:20130309055634 L   I
 2013-03-09-0548-44M.COL___198                                                 6
 STAT SP IPHASW D HRMM SECON CODA AMPLIT PERI AZIMU VELO AIN AR TRES W  DIS CAZ7
 BAR2 SZ EP        556 51.75                             152    0.2210 56.6  59 
 BAR2 SZ ES        557  4.77                             152   -0.1310 56.6  59 
 BAR2 SZ I         557  5.60        14.5 0.26            152           56.6  59 
 BRR  HZ EP        556 53.33                             140    0.0610 86.6 353 
 BRR  HN ES        557  8.03                             140    0.0410 86.6 353 
 BRR  HE I         557  8.53         6.9 0.20            140           86.6 353 
 PTB  HZ EP        556 54.12                             137    0.1210 95.3 284 
 PTB  HN ES        557  9.12                             137   -0.1610 95.3 284 
 CAPV BZ EP   1    557  6.82                             112   -0.52 6  223  40 
 CAPV BZ ES        557 33.11                             112    0.07 8  223  40 
                                                                                
