 2013  8 9 0715 35.9 L   6.728 -73.175143.9  RSN  5 0.4 1.3LRSN                1
 GAP=228        0.90       6.3     7.8 10.2  0.2108E+02 -0.1366E+01  0.2478E+00E
 Epicentro: VILLANUEVA - SANTANDER                                             3
 ACTION:UPD 14-01-14 09:00 OP:ep   STATUS:               ID:20130809071535 L   I
 OLDACT:REG 13-08-09 06:43 OP:jn   STATUS:               ID:20130809070959     3
 2013-08-09-0709-59M.COL___267                                                 6
 STAT SP IPHASW D HRMM SECON CODA AMPLIT PERI AZIMU VELO AIN AR TRES W  DIS CAZ7
 BRR  HZ EP        715 56.77                             152   -0.1710 72.7 305 
 BRR  HN ES   1    716 14.01                             152    0.67 7 72.7 305 
 RUS  HZ EP   1    715 59.30                             146    0.37 7 92.9 174 
 RUS  HN ES   1    716 16.18                             146   -0.71 7 92.9 174 
 RUS  HZ I         716 19.16         1.8 0.40            145           92.9 174 
 PTB  HZ EP   1    716  2.25                             132   -0.06 7  143 262 
 PTB  HN ES   1    716 22.44                             132   -0.46 7  143 262 
 PTB  HZ I         716 24.91         2.8 0.40            130            143 262 
 SPBC HZ EP        716  3.60                             130    0.11 9  155 220 
 SPBC HN ES   1    716 25.64                             130    0.64 7  155 220 
 SPBC HZ I         716 30.82         3.1 0.24            128            155 220 
 ZAR  HE ES   1    716 33.10                             122   -0.38 6  204 295 
 ZAR  HZ I         716 41.19         1.8 0.22            121            204 295 
                                                                                
