 2011  9 9 0045  3.3 L   6.811 -73.093145.6  RSN  5 0.2 1.7LRSN                1
 GAP=143        0.38       3.4     4.9  4.6 -0.6429E+01 -0.2754E+00  0.3829E+01E
 Epicentro: LOS SANTOS - SANTANDER                                             3
 ACTION:UPD 12-07-13 15:56 OP:ep   STATUS:               ID:20110909004503 L   I
 2011-09-09-0041-52S.COL___170                                                 6
 STAT SP IPHASW D HRMM SECON CODA AMPLIT PERI AZIMU VELO AIN AR TRES W  DIS CAZ7
 BAR2 SZ EP   2    045 22.72                             169   -0.24 5 26.1 202 
 BAR2 SZ ES   2    045 37.85                             169   -0.46 5 26.1 202 
 BAR2 SZ I         045 39.00        10.1 0.62                          26.1 202 
 GIR2 SZ EP   3    045 22.85                             167   -0.11 2 31.7 339 
 GIR2 SZ ES   3    045 38.79                             167    0.49 2 31.7 339 
 PAM  SZ EP        045 25.19                             152   -0.0410 72.8  37 
 PAM  SE ES        045 42.36                             152    0.0210 72.8  37 
 BRR  HZ EP   2    045 24.53                             151   -0.16 5 75.9 296 
 BRR  HN ES   2    045 41.60                             151    0.21 5 75.9 296 
 BRR  HZ I         045 45.14        13.5 0.13                          75.9 296 
 RUS  HZ EP   1    045 27.31                             143    0.21 7  102 179 
 RUS  HN ES   2    045 45.80                             143    0.13 5  102 179 
 RUS  HZ I         045 47.17         7.9 0.38                           102 179 
                                                                                
