 2013  3 9 0619 59.0 L   6.793 -73.128143.4  RSN  8 0.5 2.2LRSN                1
 GAP= 72        1.16       4.6     3.8  7.6  0.3116E+01  0.2933E+01  0.1079E+01E
 Epicentro: LOS SANTOS - SANTANDER                                             3
 ACTION:UPD 13-04-09 14:01 OP:ep   STATUS:               ID:20130309061959 L   I
 2013-03-09-0618-47M.COL___198                                                 6
 STAT SP IPHASW D HRMM SECON CODA AMPLIT PERI AZIMU VELO AIN AR TRES W  DIS CAZ7
 BAR2 SZ IP     D  620 18.32                             170    0.0310 23.0 195 
 BAR2 SZ I         620 18.45        42.1 0.40            173           23.0 195 
 BAR2 SZ ES   1    620 33.56                             170    0.18 7 23.0 195 
 BRR  HZ IP     C  620 20.24                             151    0.2710 73.3 298 
 BRR  HZ I         620 20.55        16.7 0.10            151           73.3 298 
 BRR  HN ES        620 36.98                             151    0.6210 73.3 298 
 PAM  SZ EP        620 21.33                             151    0.4510 76.7  38 
 PAM  SN ES        620 37.85                             151   -0.1210 76.7  38 
 PAM  SN I         620 39.01        42.1 0.48            149           76.7  38 
 RUS  HZ EP        620 22.19                             144   -0.2210 99.7 177 
 RUS  HN ES        620 40.47                             144   -0.2310 99.7 177 
 PTB  HZ EP        620 25.07                             131   -0.83 9  150 259 
 PTB  HN ES        620 46.60                             131   -0.31 9  150 259 
 TAM  HZ EP        620 26.47                             130    0.22 9  153 105 
 TAM  HN ES        620 47.56                             130    0.03 9  153 105 
 OCA  HN ES        620 48.21                             129   -0.98 9  161 352 
 OCA  HN I         620 52.42        27.0 0.16            128            161 352 
 ZAR  HZ EP        620 32.18                             121    0.71 8  206 292 
 ZAR  HN ES        620 57.08                             121    0.25 8  206 292 
                                                                                
