 2014  2 9 0503 45.0 L   5.862 -73.775112.8  RSN  5 0.4 1.3LRSN                1
 GAP= 91        0.85       3.6     3.5  9.3  0.7354E+00  0.9065E+01  0.7208E+01E
 Epicentro: JESUS MARIA - SANTANDER                                            3
 ACTION:UPD 14-03-10 08:08 OP:ep   STATUS:               ID:20140209050345 L   I
 OLDACT:UP  14-02-09 10:23 OP:mh   STATUS:               ID:20140209050000     3
 OLDACT:REG 14-02-09 08:02 OP:mh   STATUS:               ID:20140209050000     3
 2014-02-09-0500-00M.COL___291                                                 6
 STAT SP IPHASW D HRMM SECON CODA AMPLIT PERI AZIMU VELO AIN AR TRES W  DIS CAZ7
 RUS  HZ EP        5 4  3.84                             143    0.0210 76.7  87 
 RUS  HN ES        5 4 18.13                             143   -0.3410 76.7  87 
 RUS  HZ I         5 4 21.22                             150           76.7  87 
 BAR2 SZ EP   1    5 4  6.04                             134    0.38 7  104  39 
 BAR2 SZ ES   1    5 4 22.34                             134    0.59 7  104  39 
 BAR2 SZ I         5 4 23.52        38.3 0.32            142            104  39 
 PTB  HZ EP   1    5 4  5.57                             133    0.01 7  106 315 
 PTB  HN ES        5 4 21.14                             133   -0.4310  106 315 
 PTB  HZ I         5 4 23.47         3.1 0.19            139            106 315 
 NOR  HZ EP        5 4  7.39                             128   -0.0010  126 255 
 NOR  HN ES   1    5 4 25.49                             128    0.66 7  126 255 
 NOR  HZ I         5 4 29.40         2.1 0.09            133            126 255 
 CHI  HZ EP   1    5 4  8.36                             126   -0.56 7  136 178 
 CHI  HN ES        5 4 27.71                             126    0.16 9  136 178 
 CHI  HZ I         5 4 31.33         1.0 0.28            131            136 178 
                                                                                
