 2011 11 9 0947 42.3 L   6.788 -73.140148.9  RSN 22 0.5 3.4LRSN                1
 GAP= 71        0.89       3.3     4.7  4.7 -0.1113E+01  0.9918E+01  0.2590E+01E
 Epicentro: LOS SANTOS - SANTANDER                                             3
 ACTION:UPD 12-07-13 16:09 OP:ep   STATUS:               ID:20111109094742 L   I
 2011-11-09-0946-08S.COL___178                                                 6
 STAT SP IPHASW D HRMM SECON CODA AMPLIT PERI AZIMU VELO AIN AR TRES W  DIS CAZ7
 SAN  SZ EP        948  2.51                             177    0.5110 7.78 110 
 SAN  SZ ES   1    948 17.79                             177    0.39 7 7.78 110 
 BTL  SZ EP        948  2.40                             172    0.2010 20.2 316 
 BAR2 SZ IP        948  2.08                             171   -0.1510 22.2 192 
 BAR2 SZ ES   1    948 17.17                             171   -0.65 7 22.2 192 
 BAR2 SZ I         948 18.86       503.7 0.32                          22.2 192 
 GIR2 SZ IP        948  2.16                             167   -0.1710 32.7 350 
 GIR2 SZ ES   1    948 17.94                             167   -0.05 7 32.7 350 
 BRR  HZ IP     C  948  3.92                             153    0.1210 72.4 299 
 BRR  HZ I         948  4.11       829.2 0.16                          72.4 299 
 BRR  HE ES   1    948 21.31                             153    0.70 7 72.4 299 
 PAM  SZ IP        948  4.83                             151    0.0010 78.0  39 
 PAM  SN ES   1    948 22.22                             151   -0.23 7 78.0  39 
 RUS  HZ IP     C  948  6.01                             145   -0.2110 99.3 176 
 RUS  HN ES   1    948 24.62                             145   -0.29 7 99.3 176 
 RUS  HZ I         948 26.27       211.7 0.34                          99.3 176 
 OCA  SZ EP        948 10.63                             130   -0.30 9  162 353 
 OCA  SZ ES   1    948 33.69                             130    0.39 7  162 353 
 OCA  SZ I         948 38.70       200.4 0.27                           162 353 
 YOP  SZ EP   2    948 11.96                             127   -0.42 4  177 153 
 YOP  SN ES   2    948 36.51                             127    0.63 4  177 153 
 ZAR  HZ EP        948 14.32                             123   -0.69 9  205 292 
 ZAR  HE ES   2    948 40.19                             123   -0.38 4  205 292 
 ZAR  HZ I         948 47.07       320.2 0.36                           205 292 
 NOR  SZ EP        948 17.60                             119   -0.54 8  234 235 
 NOR  SE ES   1    948 45.37                             119   -0.76 6  234 235 
 ROSC BZ EP   1    948 21.71                             117    1.25 6  252 211 
 ROSC BZ I         948 55.61       152.2 0.45                           252 211 
 CVER SZ EP   3    948 23.60                             115    0.93 2  271 202 
 HEL  HZ EP   1    948 22.87                             115    0.21 6  272 256 
 HEL  HZ I         949  0.87        93.1 0.42                           272 256 
 VIL  SZ EP   2    948 25.34                             113   -0.35 4  302 192 
 GUY  SZ EP   1    948 26.23                             113   -0.02 5  303 235 
 GUY  SZ I         949  8.43       151.8 0.32                           303 235 
 RREF HZ EP        948 28.95                             111    0.46 7  321 230 
 RREF HZ I         949 13.28       103.7 0.40                           321 230 
 DBB  SZ EP        948 30.62                             110    0.68 7  340 274 
 TOL  SZ EP        948 31.17                             110    0.59 7  343 225 
 COD  HZ EP   1    948 30.33                             109   -0.58 5  350 355 
 COD  HZ I         949 14.80        51.9 0.18                           350 355 
 ANIL HZ EP   2    948 32.19                             109    0.06 3  357 225 
 ANIL HZ I         949 21.19       166.9 0.34                           357 225 
 PRA  HZ EP        948 35.48                             107   -0.31 6  391 210 
                                                                                
