 2011  2 9 0242 20.7 L   6.806 -73.006142.1  RSN  9 0.4 2.2LRSN                1
 GAP=174        0.99       4.1     9.3  6.9 -0.1486E+02  0.2164E+02  0.8480E+00E
 Epicentro: CEPITA - SANTANDER                                                 3
 ACTION:UP  11-03-28 15:07 OP:jfem STATUS:               ID:20110209024220 L   I
 2011-02-09-0241-28S.COL___136                                                 6
 STAT SP IPHASW D HRMM SECON CODA AMPLIT PERI AZIMU VELO SNR AR TRES W  DIS CAZ7
 BAR2 SZ IP        242 40.25                             167     0.210   31 220 
 BTL  SZ IP        242 40.52                             167     0.410   31 293 
 BTL  SZ ES   1    242 55.80                             167     0.6 7   31 293 
 BAR2 SZ ES   1    242 54.58                             167    -0.6 7   31 220 
 BAR2 SZ I         242 55.91        40.8 0.24                            31 220 
 RUS  HZ EP        242 44.22                             143     0.110  101 185 
 RUS  HN ES   1    243  2.36                             143    -0.1 7  101 185 
 RUS  HZ I         243  4.21        24.9 0.39                           101 185 
 GRA  SZ IP        242 45.30                             137     0.110  121  11 
 GRA  SZ ES   1    243  3.85                             137    -0.5 7  121  11 
 GRA  SZ I         243  6.15        27.2 0.34                           121  11 
 OCA  SZ EP   1    242 49.11                             128     0.2 7  162 348 
 OCA  SZ ES   1    243 10.50                             128    -0.4 7  162 348 
 OCA  SZ I         243 15.02        26.4 0.18                           162 348 
 NOR  SZ EP        242 56.83                             116    -0.8 8  248 237 
 CHI  HZ EP        242 58.64                             116    -0.1 8  254 198 
 CHI  HE ES   2    243 27.74                             116    -0.7 4  254 198 
 CHI  HZ I         243 31.20         9.4 0.66                           254 198 
 HEL  HZ EP        243  2.59                             113     0.2 7  287 256 
 HEL  HZ I         243 39.00         8.0 0.34                           287 256 
 RREF HZ EP   1    243  8.46                             109     0.4 5  334 231 
 RREF HN ES   1    243 45.36                             109     0.3 5  334 231 
 RREF HZ I         243 48.69         7.9 0.30                           334 231 
                                                                                
