 2017  3 9 0848 54.4 L   6.638 -73.166142.8  RSN  4 0.3 1.5LRSN                1
 GAP=248        0.55       8.0     4.2  5.7  0.1265E+02  0.7236E+01 -0.7667E+01E
 Epicentro: VILLANUEVA - SANTANDER                                             3
 ACTION:UPD 17-05-25 18:38 OP:jn   STATUS:               ID:20170309084854 L   I
 OLDACT:UP  17-03-09 17:23 OP:and  STATUS:               ID:20170309084740     3
 OLDACT:UP  17-03-09 17:23 OP:and  STATUS:               ID:20170309084740     3
 OLDACT:UP  17-03-09 17:22 OP:and  STATUS:               ID:20170309084740     3
 OLDACT:REG 17-03-09 12:52 OP:and  STATUS:               ID:20170309084740     3
 2017-03-09-0848-00M.COL___397                                                 6
 STAT SP IPHASW D HRMM SECON CODA AMPLIT PERI AZIMU VELO AIN AR TRES W  DIS CAZ7
 BAR2 EZ IP     D  849 13.75                             177    0.2710 5.41 199 
 BAR2 EZ ES        849 28.19                             177   -0.1510 5.41 199 
 BAR2 EZ I         849 29.27         6.8 0.36            170           5.41 199 
 BRR  HZ EP   2    849 15.21                             149   -0.55 5 79.5 311 
 BRR  HZ I         849 23.98         7.4 0.24            141           79.5 311 
 BRR  HN ES   3    849 33.57                             149    1.17 2 79.5 311 
 PTB  HZ EP        849 20.73                             132   -0.01 9  143 266 
 PTB  HN ES        849 41.27                             132    0.02 9  143 266 
 PTB  HZ I         849 45.25         1.9 0.16            130            143 266 
 ZAR  HZ EP   2    849 27.48                             121    0.23 4  209 297 
 ZAR  HN ES        849 52.69                             121   -0.15 8  209 297 
 ZAR  HZ I         849 58.57         3.6 0.36            117            209 297 
                                                                                
