 2012  2 9 0152 34.5 L   6.704 -73.252141.6  RSN  5 0.4 1.5LRSN                1
 GAP=197        0.87       8.9     8.5  9.8  0.4867E+02  0.2456E+02  0.1106E+02E
 ACTION:UP  12-03-07 16:28 OP:epov STATUS:               ID:20120209015234 L   I
 2012-02-09-0150-00M.COL___188                                                 6
 STAT SP IPHASW D HRMM SECON CODA AMPLIT PERI AZIMU VELO AIN AR TRES W  DIS CAZ7
 BAR2 SZ ES   1    153  7.56                             174   -0.71 7 14.6 148 
 BAR2 SZ I         153  9.35        10.4 0.16                          14.6 148 
 BRR  HZ EP   1    152 54.72                             153   -0.26 7 67.5 311 
 BRR  HE ES   1    153 11.51                             153    0.55 7 67.5 311 
 BRR  HZ I         153 16.01         5.0 0.32                          67.5 311 
 RUS  HZ EP   1    152 57.37                             145    0.17 7 91.7 168 
 RUS  HN ES   1    153 15.44                             145    0.53 7 91.7 168 
 PTB  HZ EP   1    152 59.64                             134   -0.27 7  134 262 
 PTB  HN ES   1    153 19.38                             134   -0.37 7  134 262 
 ZAR  HN ES   1    153 30.99                             122    0.42 6  198 296 
 ZAR  HZ I         153 41.64         3.2 0.29                           198 296 
                                                                                
