 2016 11 9 0012 48.2 L   6.702 -73.143145.5  RSN  5 0.4 1.3LRSN                1
 GAP=165        1.04       9.6     5.4  8.5 -0.1753E+02  0.1220E+02 -0.4967E+01E
 Epicentro: VILLANUEVA - SANTANDER                                             3
 ACTION:UPD 17-10-26 21:06 OP:lp   STATUS:               ID:20161109001248 L   I
 OLDACT:REG 16-11-09 12:18 OP:lv   STATUS:               ID:20161109000745     3
 2016-11-09-0008-00M.COL___343                                                 6
 STAT SP IPHASW D HRMM SECON CODA AMPLIT PERI AZIMU VELO AIN AR TRES W  DIS CAZ7
 BAR2 EZ ES        013 22.90                             175    0.0810 12.9 200 
 BAR2 EZ I         013 23.94         5.5 0.24            175           12.9 200 
 BRR  HZ EP        013 10.09                             150    0.3910 77.2 306 
 BRR  HE ES        013 27.10                             150    0.6510 77.2 306 
 PAM  EZ EP        013 11.04                             148    0.0910 85.9  35 
 PAM  EN ES        013 28.11                             148   -0.5510 85.9  35 
 PAM  EZ I         013 31.03         2.8 0.36            146           85.9  35 
 PTB  HZ EP        013 15.07                             132    0.02 9  146 263 
 PTB  HN ES        013 35.40                             132   -0.56 9  146 263 
 PTB  HZ I         013 37.32         2.6 0.18            132            146 263 
 ZAR  HZ EP   4    013 22.78                             122    1.65 0  209 295 
 ZAR  HE ES        013 46.53                             122   -0.26 8  209 295 
 ZAR  HZ I         013 52.85         1.3 0.11            121            209 295 
                                                                                
