 2011 11 9 0720 17.4 L   6.780 -73.094151.2  RSN  6 0.4 1.5LRSN                1
 GAP=144        0.87       5.3     5.6  8.2  0.3477E+01  0.1540E+02 -0.4463E+01E
 Epicentro: LOS SANTOS - SANTANDER                                             3
 ACTION:UPD 12-07-13 16:09 OP:ep   STATUS:               ID:20111109072019dL   I
 2011-11-09-0718-03S.COL___178                                                 6
 STAT SP IPHASW D HRMM SECON CODA AMPLIT PERI AZIMU VELO AIN AR TRES W  DIS CAZ7
 BAR2 SZ EP   1    720 37.77                             171    0.13 7 22.9 205 
 BAR2 SZ ES   1    720 53.05                             171   -0.40 7 22.9 205 
 BAR2 SZ I         720 55.45         7.6 0.30                          22.9 205 
 PAM  SZ EP   1    720 40.39                             152    0.33 7 75.7  35 
 PAM  SN ES   1    720 57.11                             152   -0.65 7 75.7  35 
 BRR  HZ EP   1    720 40.00                             151    0.56 7 77.3 298 
 BRR  HZ I         720 40.30         8.9 0.19                          77.3 298 
 BRR  HN ES   1    720 57.38                             151    0.71 7 77.3 298 
 RUS  HZ EP   1    720 41.48                             146    0.00 7 98.1 179 
 RUS  HN ES        721  0.36                             146    0.0710 98.1 179 
 RUS  HZ I         721  2.55         2.0 0.15                          98.1 179 
 ZAR  HZ EP   1    720 50.14                             123   -0.65 6  210 292 
 ZAR  HN ES   1    721 16.82                             123   -0.05 6  210 292 
 ZAR  HZ I         721 21.92         3.8 0.27                           210 292 
 HEL  HN ES   1    721 29.88                             115   -0.55 6  277 257 
                                                                                
