 2010  3 9 0921 14.8 L   6.810 -73.072145.7  RSN 12 0.3 2.5LRSN                1
 GAP=131        0.54       2.6     3.3  4.0 -0.2773E+01  0.2990E+00  0.1262E+01E
 Epicentro: LOS SANTOS - SANTANDER                                             3
 ACTION:UP  10-08-24 09:52 OP:vdl  STATUS:               ID:20100309092114 L   I
 2010-03-09-0919-15S.COL___101                                                 6
 STAT SP IPHASW D HRMM SECON CODA AMPLIT PERI AZIMU VELO SNR AR TRES W  DIS CAZ7
 BAR2 SZ IP        921 34.60                             169     0.110   27 207 
 BAR2 SZ ES   2    921 49.13                             169    -0.7 5   27 207 
 BRR  HZ IP        921 36.40                             150     0.110   78 295 
 BRR  HE ES   1    921 53.35                             150     0.3 7   78 295 
 BRR  HZ I         921 54.09        62.5 0.11                            78 295 
 RUS  BZ EP        921 38.64                             144     0.110  101 181 
 RUS  BE ES   2    921 57.19                             144     0.1 5  101 181 
 RUS  BZ I         921 59.14        26.7 0.32                           101 181 
 OCA  SZ EP        921 43.08                             130     0.0 9  160 350 
 OCA  SZ ES   2    922  4.61                             130    -0.5 5  160 350 
 OCA  SZ I         922  7.92        62.8 0.24                           160 350 
 CHI  HZ EP   1    921 52.72                             117    -0.1 6  252 197 
 CHI  HE ES   3    922 22.69                             117     0.2 2  252 197 
 CHI  HZ I         922 26.14        10.9 0.37                           252 197 
 HEL  HZ EP   1    921 55.90                             114     0.0 6  280 256 
 HEL  HN ES   2    922 28.14                             114     0.2 4  280 256 
 HEL  HZ I         922 32.98        16.2 0.27                           280 256 
 GUY  HZ EP   1    921 59.25                             112     0.0 5  309 236 
 GUY  HN ES   2    922 34.33                             112     0.5 4  309 236 
 RREF BZ EP   1    922  1.69                             110     0.0 5  329 230 
 RREF BN ES   2    922 37.41                             110    -0.9 3  329 230 
 RREF BZ I         922 44.47        12.4 0.33                           329 230 
 DBB  SZ IP        922  2.67                             109    -0.5 6  348 274 
 TOL  SZ EP        922  4.05                             109     0.3 6  350 225 
 TOL  SZ ES   2    922 41.87                             109    -0.1 3  350 225 
 SDV  BZ IP        922  4.15                             109     0.2 6  353  49 
 SDV  BZ I         922  5.13        22.9 0.10                           353  49 
 SDV  BZ ES   2    922 41.83                             109    -0.5 3  353  49 
 PRA  HZ EP   1    922  8.45                             106    -0.4 4  397 211 
 PRA  HE ES   2    922 50.57                             106    -0.5 3  397 211 
 PRA  HZ I         922 55.31        16.4 0.46                           397 211 
                                                                                
