 2016  8 9 0258 35.4 L   6.497 -73.541111.2  RSN  7 0.5 1.4LRSN                1
 GAP=128        1.03       5.1     4.1  9.6  0.1679E+01  0.1831E+02 -0.1044E+02E
 Epicentro: SANTA HELENA DEL OPON - SANTANDER                                  3
 ACTION:UPD 16-10-29 15:34 OP:rebc STATUS:               ID:20160809025835 L   I
 OLDACT:REG 16-08-09 12:56 OP:dnl  STATUS:               ID:20160809024759     3
 2016-08-09-0247-59S.COL___343                                                 6
 STAT SP IPHASW D HRMM SECON CODA AMPLIT PERI AZIMU VELO AIN AR TRES W  DIS CAZ7
 BAR2 EZ EP        258 51.84                             158    0.3510 41.0  75 
 BAR2 EZ ES        259  4.25                             158    0.1910 41.0  75 
 RUS  HZ EP   2    258 54.69                             141    0.16 5 83.9 143 
 RUS  HN ES        259  8.88                             141   -0.6010 83.9 143 
 RUS  HZ I         259 12.01         3.7 0.26                          83.9 143 
 PTB  HZ EP        258 54.63                             134   -0.6810  101 273 
 PTB  HN ES        259 10.55                             134   -0.3210  101 273 
 PTB  HZ I         259 14.37         5.9 0.12                           101 273 
 SPBC HZ EP   2    258 56.73                             132    0.51 5  110 212 
 SPBC HE ES        259 13.16                             132    0.6710  110 212 
 SPBC HZ I         259 20.15         6.6 0.24                           110 212 
 ZAR  HZ EP   2    259  4.06                             116    0.63 4  182 307 
 ZAR  HE ES        259 25.56                             116    0.23 9  182 307 
 ZAR  HZ I         259 30.33         2.9 0.26                           182 307 
 HEL  HZ EP   2    259  7.57                             111   -0.79 4  223 261 
 HEL  HN ES        259 34.20                             111    0.11 8  223 261 
 HEL  HZ I         259 36.59         2.2 0.30                           223 261 
 GUY2CHZ EP   9    259 13.37                             109    2.17 0  246 235 
 GUY2CHE ES        259 41.03                                   -0.29 8  246 235 
 GUY2CHZ I         259 48.65         1.5 0.36                           246 235 
                                                                                
