 2012  8 9 0045 37.2 L   6.751 -73.138145.6  RSN  6 0.2 1.6LRSN                1
 GAP=140        0.50       3.0     3.0  4.0 -0.1478E+01  0.1918E+01  0.2563E+01E
 Epicentro: LOS SANTOS - SANTANDER                                             3
 ACTION:UPD 12-09-10 11:55 OP:ep   STATUS:               ID:20120809004537 L   I
 2012-08-09-0040-00M.COL___215                                                 6
 STAT SP IPHASW D HRMM SECON CODA AMPLIT PERI AZIMU VELO AIN AR TRES W  DIS CAZ7
 BAR2 SZ EP        045 56.64                             172   -0.0410 18.2 196 
 BAR2 SZ I         045 57.18        13.0 0.25                          18.2 196 
 BAR2 SZ ES   1    046 12.16                             172    0.26 7 18.2 196 
 BRR  HZ EP        045 58.70                             151    0.2010 74.7 302 
 BRR  HZ I         046  0.92        11.3 0.12                          74.7 302 
 BRR  HN ES   1    046 15.28                             151    0.14 7 74.7 302 
 PAM  SZ EP        045 59.69                             150    0.1010 81.2  37 
 PAM  SE ES        046 16.76                             150   -0.3210 81.2  37 
 PAM  SZ I         046 18.98         7.1 0.24                          81.2  37 
 RUS  HZ EP        046  0.72                             145    0.2110 95.1 176 
 RUS  HZ I         046  1.95         2.5 0.21                          95.1 176 
 RUS  HN ES   1    046 18.63                             145   -0.09 7 95.1 176 
 PTB  HZ EP        046  3.97                             132   -0.14 9  148 261 
 PTB  HN ES   1    046 24.91                             132   -0.22 7  148 261 
 PTB  HZ I         046 30.76         4.8 0.27                           148 261 
 CHI  HZ EP   1    046 14.07                             117   -0.24 6  244 196 
 CHI  HZ I         046 50.21         2.1 0.37                           244 196 
                                                                                
