 2010 11 9 0410 13.7 L   7.348 -73.107  4.0  RSN  7 0.4 1.4LRSN                1
 GAP=150        1.11       2.5     4.2 79.8 -0.3602E+01 -0.4317E+02  0.1368E+02E
 Epicentro: MATANZA - SANTANDER                                                3
 ACTION:UP  10-12-17 16:51 OP:REBC STATUS:               ID:20101109041013 L   I
 2010-11-09-0408-06S.COL___128                                                 6
 STAT SP IPHASW D HRMM SECON CODA AMPLIT PERI AZIMU VELO SNR AR TRES W  DIS CAZ7
 GIR2 SZ EP   1    410 19.09                              99    -0.1 7   31 198 
 GUE  SZ EP        410 23.96                              95     0.710   57  21 
 GRA  SZ ES   1    410 33.31                              94    -0.1 7   68  29 
 BRR  HZ EP        410 25.45                              93     0.310   72 248 
 BRR  HN ES        410 34.27                              93     0.110   72 248 
 BRR  HZ I         410 34.71        18.9 0.26                            72 248 
 BAR2 SZ ES   2    410 37.02                              93    -0.8 5   84 186 
 OCA  SZ EP        410 29.51                              92    -0.310  101 347 
 OCA  SZ ES   1    410 41.57                              92    -0.8 7  101 347 
 OCA  SZ I         410 45.03         6.9 0.26                           101 347 
 RUS  HZ EP   1    410 39.52                              92     0.3 7  161 179 
 RUS  HN ES        410 58.76                              92    -0.3 9  161 179 
 RUS  HZ I         411  0.78         4.3 1.04                           161 179 
                                                                                
