 2012  8 9 0025 36.4 L   6.761 -73.184141.3  RSN  6 0.2 1.7LRSN                1
 GAP=134        0.47       2.6     2.7  4.3  0.1093E+01  0.4388E+01  0.1538E+01E
 Epicentro: VILLANUEVA - SANTANDER                                             3
 ACTION:UPD 12-09-10 11:55 OP:ep   STATUS:               ID:20120809002536 L   I
 2012-08-09-0020-00M.COL___215                                                 6
 STAT SP IPHASW D HRMM SECON CODA AMPLIT PERI AZIMU VELO AIN AR TRES W  DIS CAZ7
 BAR2 SZ EP        025 55.43                             172    0.0010 18.7 180 
 BAR2 SZ ES   1    026 10.22                             172   -0.04 7 18.7 180 
 BAR2 SZ I         026 13.21        20.4 0.27                          18.7 180 
 BRR  HZ EP        025 57.38                             152    0.3610 69.8 303 
 BRR  HZ I         025 57.86        15.3 0.10                          69.8 303 
 BRR  HE ES   1    026 13.18                             152    0.11 7 69.8 303 
 PAM  SE ES        026 15.63                             148   -0.1710 83.4  40 
 RUS  HZ EP        025 59.45                             144   -0.0110 96.7 173 
 RUS  HN ES        026 17.49                             144    0.0710 96.7 173 
 RUS  HZ I         026 19.19         5.6 0.18                          96.7 173 
 PTB  HZ EP        026  2.32                             132   -0.27 9  143 260 
 PTB  HN ES   1    026 22.86                             132   -0.13 7  143 260 
 PTB  HZ I         026 26.40         4.3 0.25                           143 260 
 ZAR  HN ES   1    026 33.28                             122    0.02 6  202 294 
 ZAR  HZ I         026 40.52         5.0 0.43                           202 294 
                                                                                
