 2016 12 9 0932 58.6 L   6.795 -73.157146.5  RSN 17 0.5 2.3LRSN                1
 GAP=135        1.07       3.6     4.2  5.5  0.1051E+00  0.7934E+01  0.4291E+01E
 Epicentro: LOS SANTOS - SANTANDER                                             3
 ACTION:UPD 17-01-11 20:13 OP:rebc STATUS:               ID:20161209093258 L   I
 OLDACT:UP  16-12-09 15:58 OP:dnl  STATUS:               ID:20161209092749     3
 OLDACT:UP  16-12-09 15:58 OP:dnl  STATUS:               ID:20161209092749     3
 OLDACT:REG 16-12-09 12:43 OP:dnl  STATUS:               ID:20161209092749     3
 2016-12-09-0928-00M.COL___355                                                 6
 STAT SP IPHASW D HRMM SECON CODA AMPLIT PERI AZIMU VELO AIN AR TRES W  DIS CAZ7
 BAR2 EZ EP        933 18.16                             171   -0.1210 22.6 187 
 BAR2 EZ ES        933 33.41                             171   -0.2410 22.6 187 
 BAR2 EZ I         933 34.85        70.6 0.16            165           22.6 187 
 BRR  HZ IP     C  933 19.96                             153    0.2010 70.3 299 
 BRR  HE ES        933 37.23                             153    0.9510 70.3 299 
 BRR  HZ I         933 37.61        44.4 0.34            151           70.3 299 
 PAM  EZ EP        933 21.06                             151    0.1110 78.6  40 
 PAM  EN ES        933 38.00                             151   -0.3910 78.6  40 
 PAM  EZ I         933 40.36        58.1 0.52            158           78.6  40 
 RUS  HZ EP        933 22.11                             144   -0.2610  100 175 
 RUS  HN ES        933 41.15                             144    0.2210  100 175 
 RUS  HZ I         933 42.72        15.0 0.30            143            100 175 
 PTB  HZ EP        933 25.34                             132   -0.14 9  146 259 
 PTB  HE ES        933 46.09                             132   -0.38 9  146 259 
 PTB  HZ I         933 53.25        14.6 0.44            131            146 259 
 ZAR  HZ EP        933 30.89                             123   -0.08 9  203 292 
 ZAR  HN ES        933 56.29                             123    0.06 9  203 292 
 ZAR  HZ I         934  2.98        24.8 0.40            123            203 292 
 CHI  HZ EP        933 36.29                             117    0.07 8  248 195 
 CHI  HN ES        934  5.60                             117    0.01 8  248 195 
 CHI  HZ I         934  9.15        11.3 0.56            118            248 195 
 ROSC BZ EP   9    933 38.20                             117    1.58 0  252 211 
 ROSC BN ES        934  7.05                                   -0.82 8  252 211 
 ROSC BZ I         934 14.15        16.1 0.45            117            252 211 
 URE  HZ EP        933 38.74                             114   -0.83 7  283 292 
 URE  HN ES   4    934  9.20                             114   -2.35 0  283 292 
 URE  HZ I         934 18.77        10.8 0.18            114            283 292 
 GUY2CHZ EP   4    933 43.38                             113    1.31 0  300 235 
 GUY2CHN ES   4    934 18.26                             113    2.27 0  300 235 
 GUY2CHZ I         934 24.45         8.0 0.34                           300 235 
 PTGC HZ EP   4    933 41.31                             112   -1.15 0  309 158 
 PTGC HN ES   4    934 14.75                             112   -1.95 0  309 158 
 PTGC HZ I         934 21.81        14.6 0.36            113            309 158 
 LL6C HZ EP   4    933 23.35                             110   -21.0 0  325 358 
 LL6C HN ES   4    933 55.59                             110   -24.5 0  325 358 
 LL6C HZ I         934  4.62         8.5 0.44            113            325 358 
 CBOC HZ EP        933 46.57                             110    1.21 7  332 252 
 CBOC HN ES        934 20.96                             110   -0.89 7  332 252 
 CBOC HZ I         934 30.44         2.7 0.38            110            332 252 
 PRA  HZ EP        933 52.07                             107    0.07 6  391 209 
 PRA  HN ES        934 33.78                             107    0.12 6  391 209 
 PRA  HZ I         934 37.08         9.6 0.32            107            391 209 
 ORTC HZ EP        933 52.47                             106    0.09 6  394 216 
 ORTC HN ES        934 34.84                             106    0.49 6  394 216 
 ORTC HZ I         934 41.51         6.0 0.44            107            394 216 
 SJC  HZ EP   4    933 52.40                             106   -1.73 0  409 327 
 SJC  HN ES   4    934 32.49                             106   -4.98 0  409 327 
 SJC  HZ I         934 40.21         4.8 0.68            107            409 327 
 CRJC HZ EP   4    933 58.48                             103   -2.69 0  468   4 
 CRJC HN ES   4    934 46.71                             103   -3.28 0  468   4 
 CRJC HZ I         934 56.53         6.1 0.64            105            468   4 
                                                                                
