 2014 12 9 0849 41.6 L   6.826 -73.126152.0  RSN 21 0.5 2.1LRSN                1
 GAP= 67        1.21       3.1     3.3  5.6 -0.4888E-01  0.4387E+01  0.1834E+01E
 Epicentro: LOS SANTOS - SANTANDER                                             3
 ACTION:UPD 15-02-10 17:01 OP:nd   STATUS:               ID:20141209084941 L   I
 OLDACT:REG 14-12-09 13:06 OP:fm   STATUS:               ID:20141209084743     3
 2014-12-09-0847-43M.COL___297                                                 6
 STAT SP IPHASW D HRMM SECON CODA AMPLIT PERI AZIMU VELO AIN AR TRES W  DIS CAZ7
 BAR2 SZ EP        850  2.66                             170    0.6510 26.6 194 
 BAR2 SZ ES   1    850 17.72                             170   -0.24 7 26.6 194 
 BAR2 SZ I         850 19.51        19.8 0.46            168           26.6 194 
 BRR  HZ EP        850  3.47                             153    0.0410 71.8 296 
 BRR  HE ES        850 21.18                             153    0.7110 71.8 296 
 BRR  HZ I         850 24.97        16.4 0.32            152           71.8 296 
 PAM  SZ EP        850  3.68                             153   -0.5610 73.8  40 
 PAM  SN ES        850 22.54                             153    0.6110 73.8  40 
 PAM  SZ I         850 24.99        17.2 0.50            157           73.8  40 
 RUS  HZ EP        850  6.58                             144    0.4510  103 177 
 RUS  HE ES        850 24.69                             144   -0.6010  103 177 
 RUS  HZ I         850 26.86        13.4 0.28            146            103 177 
 PTB  HZ EP        850  9.11                             133   -0.18 9  150 258 
 PTB  HN ES        850 30.39                             133   -0.52 9  150 258 
 PTB  HZ I         850 36.15        17.6 0.54            132            150 258 
 TAM  HZ EP        850  9.70                             132    0.07 9  154 106 
 TAM  HN ES        850 31.04                             132   -0.47 9  154 106 
 TAM  HZ I         850 33.22         5.1 0.46            136            154 106 
 OCA  HE ES        850 32.27                             131   -0.14 9  158 352 
 OCA  HZ I         850 36.50         7.4 0.32            133            158 352 
 SPBC HZ EP        850 11.61                             130    0.72 9  167 219 
 SPBC HN ES        850 33.45                             130   -0.31 9  167 219 
 SPBC HZ I         850 39.82        25.3 0.26            130            167 219 
 ZAR  HZ EP        850 14.14                             124   -0.38 9  205 291 
 ZAR  HN ES        850 39.76                             124   -0.46 9  205 291 
 ZAR  HZ I         850 46.37        15.4 0.34            124            205 291 
 NOR  HZ EP        850 18.82                             119    0.79 8  238 234 
 NOR  HE ES        850 46.86                             119    0.39 8  238 234 
 NOR  HZ I         850 51.56        11.2 0.20            120            238 234 
 SML  HZ EP        850 18.65                             119    0.28 8  242 335 
 SML  HN ES        850 46.99                             119   -0.08 8  242 335 
 SML  HZ I         850 55.15        13.2 0.24            120            242 335 
 CHI  HZ EP        850 19.85                             118   -0.13 8  252 195 
 CHI  HN ES        850 49.59                             118   -0.35 8  252 195 
 CHI  HZ I         850 53.92         6.7 0.38            119            252 195 
 ROSC BZ EP   1    850 20.59                             118    0.17 6  256 211 
 ROSC BE ES   4    850 52.01                             118    1.28 0  256 211 
 ROSC BZ I         850 58.81        13.2 0.35            119            256 211 
 HEL  HZ EP        850 22.29                             116   -0.12 8  275 255 
 HEL  HN ES        850 54.18                             116   -0.09 8  275 255 
 HEL  HZ I         851  3.37         7.1 0.24            116            275 255 
 URE  HN ES   4    850 52.11                             115   -3.30 0  285 291 
 GUY2CHZ EP        850 26.59                             113    0.73 7  305 235 
 GUY2CHN ES   4    851  2.94                             113    2.54 0  305 235 
 GUY2CHZ I         851  9.04         7.7 0.28                           305 235 
 PTGC HZ EP        850 25.40                             113   -0.53 7  311 159 
 PTGC HN ES   4    850 57.44                             113   -3.09 0  311 159 
 PTGC HZ I         851  3.12         4.1 0.26            114            311 159 
 CBOC HZ EP        850 30.10                             111    1.02 7  337 252 
 CBOC HE ES        851  5.78                             111   -0.37 7  337 252 
 CBOC HZ I         851 14.28         2.4 0.46            112            337 252 
 TOL  SZ EP   4    850 28.01                             110   -2.48 0  347 225 
 TOL  SE ES   4    851  7.06                             110   -1.59 0  347 225 
 TOL  SZ I         851 16.03        14.9 0.48            111            347 225 
 MON  HZ EP        850 29.13                             110   -1.68 6  354 308 
 MON  HN ES   4    851  6.52                             110   -2.69 0  354 308 
 MON  HZ I         851 11.17         2.4 0.48            111            354 308 
 ORTC HZ EP   4    850 34.58                             107   -1.55 0  399 216 
 ORTC HN ES   4    851 20.06                             107    1.38 0  399 216 
 ORTC HZ I         851 26.36         4.4 0.20            108            399 216 
 SJC  HZ EP        850 37.02                             107   -0.18 6  408 326 
 SJC  HN ES   4    851 15.01                             107   -5.57 0  408 326 
 SJC  HZ I         851 26.31         2.3 0.48            108            408 326 
                                                                                
