 2016  6 9 0714 33.2 L   6.835 -73.038153.7  RSN 24 0.6 2.3LRSN                1
 GAP=127        0.96       2.4     4.5  5.1 -0.3765E+01  0.5451E+01  0.1734E+01E
 Epicentro: LOS SANTOS - SANTANDER                                             3
 ACTION:UPD 16-07-21 22:16 OP:rebc STATUS:               ID:20160609071433 L   I
 OLDACT:UP  16-06-09 18:49 OP:dani STATUS:               ID:20160609070741     3
 OLDACT:UP  16-06-09 18:45 OP:dani STATUS:               ID:20160609070741     3
 OLDACT:UP  16-06-09 18:44 OP:dani STATUS:               ID:20160609070741     3
 OLDACT:REG 16-06-09 13:29 OP:dani STATUS:               ID:20160609070741     3
 2016-06-09-0707-41M.COL___334                                                 6
 STAT SP IPHASW D HRMM SECON CODA AMPLIT PERI AZIMU VELO AIN AR TRES W  DIS CAZ7
 BAR2 EZ IP     C  714 53.97                             168   -0.0310 31.2 211 
 BAR2 EZ I         715 10.10        23.5 0.26                          31.2 211 
 PAM  EZ EP   4    714 56.85                             155    1.09 0 67.2  34 
 PAM  EN ES        715 14.04                             155    0.7210 67.2  34 
 PAM  EZ I         715 16.63        42.9 0.59                          67.2  34 
 BRR  HZ EP        714 55.80                             151    0.0310 80.3 292 
 BRR  HN ES        715 13.35                             151    0.0110 80.3 292 
 BRR  HZ I         715 17.71        15.8 0.29                          80.3 292 
 RUS  HZ EP     C  714 57.85                             144   -0.1910  104 183 
 RUS  HE ES        715 16.85                             144   -0.5410  104 183 
 RUS  HZ I         715 17.24         7.6 0.26                           104 183 
 TAM  HZ EP   4 C  715  2.15                             134    1.50 0  145 108 
 OCA  HZ EP        715  2.06                             132    0.05 9  158 349 
 OCA  HE ES        715 24.35                             132   -0.09 9  158 349 
 OCA  HZ I         715 28.08        37.0 0.20                           158 349 
 PTB  HZ EP   4    715  0.61                             131   -1.37 0  160 258 
 PTB  HN ES   4    715 22.23                             131   -2.17 0  160 258 
 PTB  HZ I         715 29.19        21.8 0.32                           160 258 
 SPBC HZ EP        715  2.87                             129   -0.49 9  174 221 
 SPBC HE ES   4    715 25.54                             129   -1.30 0  174 221 
 SPBC HZ I         715 29.99        20.6 0.09                           174 221 
 NOR  HZ EP        715 10.14                             119   -0.57 8  247 235 
 NOR  HE ES        715 39.48                             119   -0.46 8  247 235 
 NOR  HZ I         715 44.01        11.3 0.16                           247 235 
 CHI  HZ EP        715 12.42                             118    0.27 8  256 198 
 CHI  HE ES        715 42.54                             118    0.04 8  256 198 
 CHI  HZ I         715 43.92         5.3 0.32                           256 198 
 ROSC BZ EP   4    715 14.12                             117    1.28 0  262 213 
 ROSC BN ES        715 44.52                             117    0.80 8  262 213 
 ROSC BZ I         715 51.66        17.9 0.45                           262 213 
 HEL  HZ EP   4    715 16.60                             115    1.36 0  285 256 
 HEL  HN ES   4    715 50.45                             115    2.45 0  285 256 
 HEL  HZ I         715 52.68         6.9 0.30                           285 256 
 URE  HZ EP   4    715 18.60                             114    2.81 0  294 290 
 URE  HE ES   4    715 46.39                             114   -2.58 0  294 290 
 URE  HZ I         715 57.52        10.9 0.20                           294 290 
 PTGC HZ EP        715 16.96                             113   -0.45 7  308 161 
 PTGC HE ES   4    715 50.14                             113   -1.72 0  308 161 
 PTGC HZ I         715 52.89        10.9 0.42                           308 161 
 VIL  SN ES   2    715 52.17                             113   -0.29 4  310 194 
 VIL  SZ I         716  3.14       254.8 0.30                           310 194 
 LL6C HZ EP        715 19.04                             112    0.10 7  322 355 
 LL6C HE ES        715 54.33                             112   -0.25 7  322 355 
 LL6C HZ I         716  6.00         7.3 0.68                           322 355 
 ELA  HE ES   4    716  1.68                             111    2.09 0  341 230 
 ELA  HZ I         716  6.57         7.9 0.52                           341 230 
 CBOC HZ EP        715 22.70                             110    0.78 6  346 252 
 CBOC HN ES        715 59.41                             110   -0.48 6  346 252 
 CBOC HZ I         716  6.15         2.4 0.34                           346 252 
 ANIL HN ES        716  5.02                             109    0.29 6  368 225 
 PRA  HZ EP        715 28.14                             107    0.01 6  401 211 
 PRA  HN ES        716 10.69                             107   -0.25 6  401 211 
 PRA  HZ I         716 13.53         6.9 0.62                           401 211 
 ORTC HZ EP        715 29.50                             107    0.87 6  406 217 
 ORTC HE ES        716 12.02                             107    0.19 6  406 217 
 ORTC HZ I         716 18.73         4.3 0.32                           406 217 
 SJC  HZ EP   9 C  715 28.26                             107   -1.22 0  413 325 
 SJC  HN ES   2    716 11.97                             106   -0.15 3  413 325 
 SJC  HZ I         716 13.72         4.2 0.28                           413 325 
 PAL  HZ EP        715 31.66                             107    1.56 5  418 239 
 PAL  HE ES        716 14.32                             107   -0.13 5  418 239 
 PAL  HZ I         716 21.83         2.0 0.34                           418 239 
 CRJC HZ EP   4    715 34.22                             105   -1.23 0  463   2 
 CRJC HE ES        716 23.75                             105   -0.22 5  463   2 
 CRJC HZ I         716 29.73         8.2 0.46                           463   2 
 SMAR HZ EP   2    715 39.07                             103   -0.17 2  496 345 
 SMAR HZ I    2    716 27.77         3.9 0.15                           496 345 
 SMAR HN ES   2    716 27.81                             103   -2.91 2  496 345 
                                                                                
