 2011  3 9 0907 36.6 L   6.818 -73.315127.7  RSN  5 0.3 1.7LRSN                1
 GAP=153        0.61       2.8    10.6  7.2 -0.1379E+02  0.4464E+02 -0.6201E+01E
 Epicentro: ZAPATOCA - SANTANDER                                               3
 ACTION:UP  11-06-16 14:32 OP:jfem STATUS:               ID:20110309090736 L   I
 2011-03-09-0905-26S.COL___135                                                 6
 STAT SP IPHASW D HRMM SECON CODA AMPLIT PERI AZIMU VELO SNR AR TRES W  DIS CAZ7
 BAR2 SZ EP   1    9 7 54.42                             166     0.2 7   29 150 
 BAR2 SZ ES   1    9 8  7.68                             166    -0.3 7   29 150 
 BAR2 SZ I         9 8 12.95        14.5 0.36                            29 150 
 RUS  HZ EP   1    9 7 58.66                             138    -0.4 7  106 166 
 RUS  HN ES   1    9 8 16.85                             138     0.3 7  106 166 
 RUS  HZ I         9 8 19.21         9.5 0.12                           106 166 
 GRA  SZ EP   1    9 8  1.00                             131     0.2 7  131  26 
 GRA  SZ ES   1    9 8 19.70                             131     0.1 7  131  26 
 GRA  SZ I         9 8 23.20         5.6 0.26                           131  26 
 OCA  SZ EP   1    9 8  2.95                             126    -0.4 7  157 360 
 OCA  SZ ES   1    9 8 24.27                             126     0.2 7  157 360 
 OCA  SZ I         9 8 29.42         6.5 0.24                           157 360 
 PRA  HZ EP   1    9 8 28.75                             104     0.0 4  385 207 
 PRA  HE ES   1    9 9  9.70                             104     0.3 4  385 207 
                                                                                
