 2011  8 9 0811 22.1 L   6.767 -73.020146.5  RSN  6 0.4 1.8LRSN                1
 GAP=206        0.60       2.9     8.9  5.4 -0.1854E+01 -0.1974E+02  0.1601E+01E
 Epicentro: CEPITA - SANTANDER                                                 3
 ACTION:UPD 12-07-13 15:50 OP:ep   STATUS:               ID:20110809081122 L   I
 2011-08-09-0810-07S.COL___144                                                 6
 STAT SP IPHASW D HRMM SECON CODA AMPLIT PERI AZIMU VELO AIN AR TRES W  DIS CAZ7
 BAR2 SZ EP        811 42.08                             169    0.2310 26.4 223 
 BAR2 SZ ES   1    811 56.95                             169   -0.32 7 26.4 223 
 BAR2 SZ I         811 58.96        10.8 0.24                          26.4 223 
 BRR  HZ EP        811 44.03                             148   -0.1110 85.2 296 
 BRR  HN ES        812  1.41                             148    0.0610 85.2 296 
 BRR  HZ I         812  3.80        11.9 0.18                          85.2 296 
 OCA  SZ EP        811 51.15                             128    0.17 9  166 349 
 OCA  SZ ES   1    812 13.57                             128    0.04 7  166 349 
 OCA  SZ I         812 17.53        12.1 0.34                           166 349 
 CHI  HZ EP   1    812  0.20                             117    0.34 6  249 198 
 CHI  HN ES   1    812 28.84                             117   -0.50 6  249 198 
 CHI  HZ I         812 38.11         3.0 0.59                           249 198 
 COD  HZ EP   2    812 10.11                             108   -0.96 3  353 352 
 COD  HN ES   2    812 48.35                             108   -0.94 3  353 352 
 PRA  HZ EP   1    812 16.50                             106    0.43 4  396 212 
                                                                                
