 2011 12 9 0411 35.6 L   5.870 -74.147 83.4  RSN  4 0.2 1.1LRSN                1
 GAP=142        0.43       4.7     2.4  7.3 -0.7638E+01  0.1800E+01 -0.9340E+01E
 Epicentro: FLORIAN - SANTANDER                                                3
 ACTION:UPD 12-07-13 16:15 OP:ep   STATUS:               ID:20111209041135 L   I
 2011-12-09-0410-00M.COL___170                                                 6
 STAT SP IPHASW D HRMM SECON CODA AMPLIT PERI AZIMU VELO AIN AR TRES W  DIS CAZ7
 NOR  SZ EP   1    411 51.76                             130   -0.22 7 86.8 247 
 NOR  SE ES   1    412  4.79                             130    0.02 7 86.8 247 
 RUS  HZ EP   1    411 55.88                             121    0.19 7  118  89 
 RUS  HN ES   1    412 11.26                             121   -0.11 7  118  89 
 RUS  HZ I         412 13.32         1.3 0.20                           118  89 
 BRR  HZ EP   1    411 58.12                             115    0.10 7  145  19 
 BRR  HZ I         412  1.60         2.5 0.12                           145  19 
 RREF HZ EP   1    412  1.53                             111   -0.23 7  171 231 
 RREF HE ES   1    412 22.45                             111    0.28 7  171 231 
 RREF HZ I         412 24.18         2.8 0.30                           171 231 
                                                                                
