 2011  3 9 0507 19.4 L   6.851 -73.306140.2  RSN  4 0.2 1.6LRSN                1
 GAP=193        0.44       2.7    16.8  5.4  0.2084E+02 -0.1901E+02 -0.4997E+01E
 Epicentro: ZAPATOCA - SANTANDER                                               3
 ACTION:UP  11-06-16 14:32 OP:jfem STATUS:               ID:20110309050719 L   I
 2011-03-09-0505-39S.COL___135                                                 6
 STAT SP IPHASW D HRMM SECON CODA AMPLIT PERI AZIMU VELO SNR AR TRES W  DIS CAZ7
 BAR2 SZ EP   1    5 7 38.59                             167     0.0 8   32 155 
 BAR2 SZ ES   1    5 7 53.44                             167    -0.1 8   32 155 
 BAR2 SZ I         5 7 56.60        12.2 0.53                            32 155 
 RUS  HZ EP   1    5 7 42.99                             140    -0.2 8  109 167 
 RUS  HZ I         5 8  0.91         8.4 0.61                           109 167 
 RUS  HN ES   2    5 8  2.13                             140     0.3 5  109 167 
 GRA  SZ EP        5 7 44.26                             135     0.010  127  26 
 GRA  SZ I         5 8  6.17         4.5 0.40                           127  26 
 OCA  SZ EP   1    5 7 46.86                             130     0.2 7  154 359 
 OCA  SZ ES        5 8  7.82                             130    -0.110  154 359 
 OCA  SZ I         5 8 13.88         4.9 0.31                           154 359 
                                                                                
