 2011 11 9 0120 30.1 L   6.729 -73.079159.0  RSN  5 0.5 1.6LRSN                1
 GAP=148        0.91       6.8     7.3 11.4  0.1081E+02  0.8984E+01  0.5442E+01E
 Epicentro: JORDAN - SANTANDER                                                 3
 ACTION:UPD 12-07-13 16:09 OP:ep   STATUS:               ID:20111109012030 L   I
 2011-11-09-0118-10S.COL___178                                                 6
 STAT SP IPHASW D HRMM SECON CODA AMPLIT PERI AZIMU VELO AIN AR TRES W  DIS CAZ7
 BAR2 SZ EP   1    120 52.14                             173    0.86 7 18.9 217 
 BAR2 SZ I         121 10.27         5.3 0.20                          18.9 217 
 PAM  SZ EP   1    120 53.34                             152   -0.55 7 79.5  32 
 PAM  SN ES   1    121 12.58                             152    0.16 7 79.5  32 
 BRR  HZ EP   1    120 53.71                             151    0.41 7 81.4 301 
 BRR  HN ES   1    121 11.02                             151   -0.34 7 81.4 301 
 BRR  HN I         121 16.09        18.4 0.14                          81.4 301 
 RUS  HZ EP   1    120 54.15                             149   -0.53 7 92.5 180 
 RUS  HZ I         120 57.32         3.0 0.28                          92.5 180 
 RUS  HN ES   1    121 13.84                             149    0.02 7 92.5 180 
 ZAR  HN ES   1    121 31.18                             124   -0.05 6  214 293 
                                                                                
