 2017  4 9 0936  8.3 L   6.828 -73.153148.0  RSN 16 0.6 2.0LRSN                1
 GAP=110        1.10       3.6     3.5  5.7  0.2323E+01  0.4619E+01  0.3120E+01E
 Epicentro: LOS SANTOS - SANTANDER                                             3
 ACTION:UPD 17-05-30 21:10 OP:jn   STATUS:               ID:20170409093608 L   I
 OLDACT:UP  17-04-09 18:05 OP:and  STATUS:               ID:20170409092742     3
 OLDACT:UP  17-04-09 18:05 OP:and  STATUS:               ID:20170409092742     3
 OLDACT:UP  17-04-09 18:04 OP:and  STATUS:               ID:20170409092742     3
 OLDACT:UP  17-04-09 18:04 OP:and  STATUS:               ID:20170409092742     3
 OLDACT:UP  17-04-09 18:03 OP:and  STATUS:               ID:20170409092742     3
 OLDACT:UP  17-04-09 18:03 OP:and  STATUS:               ID:20170409092742     3
 OLDACT:UP  17-04-09 18:02 OP:and  STATUS:               ID:20170409092742     3
 OLDACT:UP  17-04-09 18:01 OP:and  STATUS:               ID:20170409092742     3
 OLDACT:REG 17-04-09 13:13 OP:and  STATUS:               ID:20170409092742     3
 2017-04-09-0928-00M.COL___371                                                 6
 STAT SP IPHASW D HRMM SECON CODA AMPLIT PERI AZIMU VELO AIN AR TRES W  DIS CAZ7
 BAR2 EZ IP     C  936 28.21                             170   -0.1010 26.3 187 
 BAR2 EZ ES        936 43.42                             170   -0.4610 26.3 187 
 BAR2 EZ I         936 44.02        21.7 0.33            167           26.3 187 
 BRR  HZ EP        936 29.95                             154    0.3310 69.0 297 
 BRR  HN ES        936 46.94                             154    0.7210 69.0 297 
 BRR  HZ I         936 51.42        20.2 0.22            145           69.0 297 
 PAM  EZ IP     C  936 30.92                             152    0.2210 75.5  42 
 PAM  EN ES        936 47.92                             152   -0.2110 75.5  42 
 PAM  EZ I         936 49.98        15.6 0.54            143           75.5  42 
 RUS  HZ EP        936 32.29                             143   -0.2610  104 176 
 RUS  HN ES        936 51.04                             143   -0.3810  104 176 
 RUS  HZ I         936 52.73        17.4 0.30            134            104 176 
 PTB  HZ EP        936 35.06                             133   -0.42 9  148 258 
 PTB  HN ES        936 56.00                             133   -0.65 9  148 258 
 PTB  HZ I         937  0.42        11.9 0.12            123            148 258 
 SPBC HZ EP        936 37.85                             129    0.65 9  165 218 
 SPBC HN ES   3    937  0.92                             129    1.21 2  165 218 
 SPBC HZ I         937  5.06        14.3 0.10            119            165 218 
 YPLC HZ IP     C  936 38.83                             127    0.22 9  180 152 
 YPLC HN ES        937  2.72                             127    0.51 9  180 152 
 YPLC HZ I         937  7.36         7.7 0.26            117            180 152 
 ZAR  HZ EP        936 41.07                             123    0.32 9  202 291 
 ZAR  HN ES        937  6.78                             123    0.77 9  202 291 
 ZAR  HZ I         937 11.56        14.2 0.24            114            202 291 
 NOR  HZ EP   3    936 46.13                             119    1.80 2  236 234 
 NOR  HN ES        937 12.67                             119    0.27 8  236 234 
 NOR  HZ I         937 17.61         4.6 0.21            110            236 234 
 CHI  HZ EP   2    936 47.11                             117    0.64 4  251 195 
 CHI  HN ES        937 16.58                             117    0.37 8  251 195 
 CHI  HZ I         937 23.43         2.8 0.34            109            251 195 
 ROSC BZ EP   4    936 49.17                             117    2.33 0  255 211 
 ROSC BN ES   4    937 21.42                             117    4.56 0  255 211 
 ROSC BZ I         937 23.54         8.1 0.40            108            255 211 
 HEL  HN ES        937 19.44                             115   -0.69 8  272 255 
 HEL  HZ I         937 27.26         5.2 0.24            107            272 255 
 URE  HZ EP        936 49.01                             114   -0.31 7  282 291 
 URE  HZ I         937 31.07         6.8 0.20            106            282 291 
 PTGC HZ EP        936 52.07                             112   -0.60 7  312 159 
 PTGC HZ I         937 24.20         6.1 0.38            104            312 159 
 PTGC HN ES   3    937 25.28                             112   -1.95 2  312 159 
 CBOC HZ EP   3    936 56.75                             110    1.37 2  334 252 
 CBOC HE ES        937 31.40                             110   -0.66 7  334 252 
 CBOC HZ I         937 33.74         1.7 0.14            102            334 252 
 SJC  HZ EP        937  2.68                             106   -0.95 6  406 327 
 SJC  HN ES   4    937 44.31                             106   -2.43 0  406 327 
 SJC  HZ I         937 47.12         1.7 0.38             99            406 327 
                                                                                
