 2016  5 9 0418 55.8 L   6.803 -73.117146.8  RSN 21 0.5 2.6LRSN                1
 GAP=121        1.13       2.6     4.0  4.9 -0.1517E+01  0.4865E+01  0.1772E+01E
 Epicentro: LOS SANTOS - SANTANDER                                             3
 ACTION:UPD 16-08-18 17:43 OP:cam  STATUS:               ID:20160509041855 L   I
 OLDACT:UP  16-05-15 07:32 OP:ar   STATUS:               ID:20160509041855 L   3
 OLDACT:UP  16-05-09 14:00 OP:drio STATUS:               ID:20160509041747     3
 OLDACT:REG 16-05-09 12:18 OP:drio STATUS:               ID:20160509041747     3
 2016-05-09-0417-47M.COL___291                                                 6
 STAT SP IPHASW D HRMM SECON CODA AMPLIT PERI AZIMU VELO AIN AR TRES W  DIS CAZ7
 BAR2 EZ IP     C  419 15.71                             170    0.1310 24.4 197 
 BAR2 EZ ES        419 30.57                             170   -0.4310 24.4 197 
 BAR2 EZ I         419 31.60        79.5 0.12            165           24.4 197 
 BRR  HZ IP     C  419 17.61                             152    0.4010 73.8 297 
 BRR  HE ES        419 34.75                             152    0.8410 73.8 297 
 BRR  HZ I         419 36.02        65.2 0.12            146           73.8 297 
 PAM  EZ EP        419 18.63                             152    0.6410 75.1  38 
 PAM  EE ES        419 35.68                             152    0.3810 75.1  38 
 PAM  EZ I         419 36.13        52.0 0.30            157           75.1  38 
 RUS  HZ IP     C  419 19.58                             144   -0.0910  101 178 
 RUS  HN ES        419 38.01                             144   -0.2710  101 178 
 RUS  HZ I         419 39.11        24.4 0.16            144            101 178 
 PTB  HZ EP        419 22.25                             132   -0.89 9  151 259 
 PTB  HN ES        419 43.63                             132   -0.83 9  151 259 
 PTB  HZ I         419 49.78        33.8 0.66            128            151 259 
 OCA  HZ EP        419 24.23                             130    0.04 9  160 352 
 OCA  HE ES        419 45.86                             130   -0.48 9  160 352 
 OCA  HZ I         419 51.63        46.2 0.30            130            160 352 
 SPBC HZ EP        419 24.71                             129    0.12 9  165 220 
 SPBC HN ES        419 46.60                             129   -0.46 9  165 220 
 SPBC HZ I         419 52.58        74.1 0.22            127            165 220 
 ZAR  HZ EP        419 28.91                             122    0.31 8  207 292 
 ZAR  HE ES        419 54.58                             122    0.40 8  207 292 
 ZAR  HZ I         419 59.73        61.6 0.58            120            207 292 
 NOR  HZ EP        419 31.71                             118   -0.18 8  237 235 
 NOR  HE ES        419 59.82                             118   -0.22 8  237 235 
 NOR  HZ I         420  3.91        42.2 0.24            117            237 235 
 SML  HZ EP        419 32.37                             118   -0.22 8  245 335 
 SML  HN ES        420  0.72                             118   -0.57 8  245 335 
 SML  HZ I         420  5.98        29.7 0.10            117            245 335 
 CHI  HZ EP        419 33.74                             117    0.06 8  250 196 
 CHI  HN ES        420  3.28                             117    0.04 8  250 196 
 CHI  HZ I         420  9.16        10.7 0.24            117            250 196 
 ROSC BZ EP        419 34.62                             117    0.43 8  255 212 
 ROSC BN ES        420  4.78                             117    0.65 8  255 212 
 ROSC BZ I         420 11.32        30.7 0.35            116            255 212 
 HEL  HZ EP        419 37.11                             115    0.70 8  275 256 
 HEL  HN ES   4    420 10.13                             115    2.04 0  275 256 
 HEL  HZ I         420 17.33        19.8 0.26            114            275 256 
 URE  HZ EP        419 36.44                             113   -0.79 7  287 292 
 URE  HE ES   4    420  7.89                             113   -1.66 0  287 292 
 URE  HZ I         420 20.34        32.6 0.32            113            287 292 
 PTGC HZ EP        419 38.74                             112   -0.87 7  308 159 
 PTGC HE ES   4    420 11.51                             112   -2.28 0  308 159 
 PTGC HZ I         420 12.51        11.6 0.32            113            308 159 
 ELA  HZ EP   4    419 44.26                             110    1.26 0  332 230 
 ELA  HN ES   4    420 18.08                             110   -1.73 0  332 230 
 ELA  HZ I         420 25.81        15.5 0.54            110            332 230 
 CBOC HZ EP        419 43.77                             110    0.66 7  337 252 
 CBOC HN ES   4    420 22.38                             110    2.36 0  337 252 
 CBOC HZ I         420 32.38        11.4 0.66            109            337 252 
 ANIL HZ EP   9    419 47.21                             108    1.28 0  360 225 
 ANIL HN ES        420 26.63                             108    0.32 6  360 225 
 ANIL HZ I         420 35.01        42.0 0.26            108            360 225 
 PRA  HZ EP        419 48.72                             107   -0.86 6  394 210 
 PRA  HE ES        420 31.90                             107    0.38 6  394 210 
 PRA  HZ I         420 38.14        16.2 0.38            107            394 210 
 ORTC HZ EP        419 50.37                             106    0.36 6  398 217 
 ORTC HN ES        420 32.94                             106    0.65 6  398 217 
 ORTC HZ I         420 40.28        11.3 0.30            106            398 217 
 PAL  HZ EP        419 51.56                             106    0.23 6  409 239 
 PAL  HN ES        420 34.62                             106   -0.03 6  409 239 
 PAL  HZ I         420 38.54         7.6 0.26            106            409 239 
 CRJC HZ EP   4    419 56.48                             103   -1.78 0  467   3 
 CRJC HE ES   4    420 42.31                             103   -4.67 0  467   3 
                                                                                
