 2013  5 9 0532  7.8 L   6.831 -73.134148.7  RSN  9 0.4 1.6LRSN                1
 GAP=136        0.79       3.1     4.7  5.4 -0.1614E+01  0.7051E+01 -0.2566E-01E
 Epicentro: LOS SANTOS - SANTANDER                                             3
 ACTION:UPD 13-06-20 09:48 OP:ep   STATUS:               ID:20130509053207 L   I
 2013-05-09-0530-00M.COL___256                                                 6
 STAT SP IPHASW D HRMM SECON CODA AMPLIT PERI AZIMU VELO AIN AR TRES W  DIS CAZ7
 BAR2 SZ IP     C  532 27.86                             169    0.0310 26.9 191 
 BAR2 SZ ES   1    532 43.20                             169   -0.27 7 26.9 191 
 BAR2 SZ I         532 45.39         8.6 0.28            169           26.9 191 
 GIR2 SZ EP   1    532 27.83                             169    0.12 7 28.2 347 
 GIR2 SZ ES   1    532 43.11                             169   -0.16 7 28.2 347 
 GIR2 SZ I         532 44.03         6.6 0.36            167           28.2 347 
 BRR  HZ EP        532 29.63                             153    0.4210 70.8 296 
 BRR  HN ES   1    532 46.95                             153    1.01 7 70.8 296 
 BRR  HZ I         532 51.55        10.5 0.14            151           70.8 296 
 PAM  SZ EP   1    532 30.50                             152    0.40 7 74.0  40 
 PAM  SN ES   1    532 47.38                             152   -0.14 7 74.0  40 
 PAM  SZ I         532 49.71         6.7 0.60            156           74.0  40 
 RUS  HZ EP        532 31.89                             143   -0.1610  104 177 
 RUS  HN ES   1    532 50.82                             143   -0.16 7  104 177 
 RUS  HZ I         532 53.09         2.5 0.28            146            104 177 
 PTB  HZ EP        532 34.82                             132   -0.33 9  150 258 
 PTB  HN ES   1    532 56.15                             132   -0.36 7  150 258 
 PTB  HZ I         532 57.74         4.8 0.16            132            150 258 
 OCA  HN ES        532 57.82                             131   -0.22 9  157 353 
 NOR  HZ EP   1    532 44.54                             119    0.55 6  238 234 
 NOR  HE ES   1    533 12.07                             119   -0.17 6  238 234 
 NOR  HZ I         533 19.32         4.2 0.20            120            238 234 
 SML  HZ EP        532 44.23                             118   -0.06 8  241 335 
 SML  HE ES   1    533 12.21                             118   -0.56 6  241 335 
 SML  HZ I         533 19.28         5.6 0.24            120            241 335 
                                                                                
