 2017  1 9 0905 29.6 L   6.781 -73.099140.0  RSN  6 0.3 1.1LRSN                1
 GAP=143        0.67       3.3     3.0  4.8  0.8119E+00  0.3565E+01 -0.1494E+01E
 Epicentro: LOS SANTOS - SANTANDER                                             3
 ACTION:UPD 17-05-22 15:57 OP:jn   STATUS:               ID:20170109090529 L   I
 OLDACT:UP  17-01-09 19:16 OP:and  STATUS:               ID:20170109085748d    3
 OLDACT:UP  17-01-09 19:16 OP:and  STATUS:               ID:20170109085748d    3
 OLDACT:DUP 17-01-09 19:14 OP:and  STATUS:               ID:20170109085748d    3
 2017-01-09-0858-00M.COL___341                                                 6
 STAT SP IPHASW D HRMM SECON CODA AMPLIT PERI AZIMU VELO AIN AR TRES W  DIS CAZ7
 BAR2 EZ ES        9 6  3.12                             170   -0.1510 22.8 204 
 BAR2 EZ I         9 6  6.52         5.8 0.70            174           22.8 204 
 PAM  EZ EP        9 5 51.19                             150    0.0910 75.9  36 
 PAM  EN ES        9 6  7.75                             150   -0.1310 75.9  36 
 PAM  EZ I         9 6 14.08         1.9 0.42            150           75.9  36 
 BRR  HZ EP        9 5 50.26                             149   -0.1810 76.7 298 
 BRR  HE ES        9 6  7.12                             149    0.4110 76.7 298 
 RUS  HZ EP        9 5 52.82                             143    0.2210 98.2 179 
 RUS  HN ES        9 6 10.42                             143   -0.1310 98.2 179 
 RUS  HZ I         9 6 12.56         2.1 0.42            148           98.2 179 
 PTB  HZ EP   3 C  9 5 55.26                             130   -1.26 2  152 260 
 PTB  HE ES     D  9 6 17.59                             130    0.06 9  152 260 
 PTB  HZ I         9 6 17.83         1.1 0.15            133            152 260 
 ZAR  HZ EP        9 6  2.56                             120    0.32 8  210 292 
 ZAR  HN ES        9 6 27.25                             120   -0.46 8  210 292 
 ZAR  HZ I         9 6 32.26         1.4 0.22            123            210 292 
 GUY2CHZ EP   4    9 6 13.73                             111    0.46 0  304 236 
                                                                                
