 2016  4 9 0744 21.2 L   6.814 -73.174144.5  RSN  9 0.4 1.7LRSN                1
 GAP=132        0.99       3.0     4.2  6.2 -0.1339E+01  0.8107E+01 -0.1124E+01E
 Epicentro: LOS SANTOS - SANTANDER                                             3
 ACTION:UPD 16-05-05 14:19 OP:rebc STATUS:               ID:20160409074421 L   I
 OLDACT:UP  16-04-09 15:36 OP:mh   STATUS:               ID:20160409073746     3
 OLDACT:UP  16-04-09 15:35 OP:mh   STATUS:               ID:20160409073746     3
 OLDACT:REG 16-04-09 12:12 OP:mh   STATUS:               ID:20160409073746     3
 2016-04-09-0737-46M.COL___299                                                 6
 STAT SP IPHASW D HRMM SECON CODA AMPLIT PERI AZIMU VELO AIN AR TRES W  DIS CAZ7
 BAR2 EZ EP        744 40.94                             170    0.2010 24.5 182 
 BAR2 EZ ES        744 55.70                             170   -0.2410 24.5 182 
 BAR2 EZ I         744 57.11        12.6 0.37            171           24.5 182 
 PAM  EZ EP        744 43.85                             150    0.4810 78.3  42 
 PAM  EN ES        745  0.97                             150    0.3410 78.3  42 
 PAM  EZ I         745  3.15        10.9 0.40            154           78.3  42 
 RUS  HZ EP        744 44.41                             143   -0.5810  102 174 
 RUS  HN ES        745  3.37                             143   -0.1510  102 174 
 RUS  HZ I         745  4.66         2.6 0.15            147            102 174 
 PTB  HZ EP        744 47.67                             132   -0.18 9  145 258 
 PTB  HN ES        745  8.59                             132   -0.01 9  145 258 
 PTB  HZ I         745 14.37         3.8 0.11            132            145 258 
 OCA  HZ EP        744 48.99                             130   -0.28 9  158 354 
 OCA  HN ES   1    745 10.46                             130   -0.67 7  158 354 
 OCA  HZ I         745 19.39         9.1 0.10            131            158 354 
 SPBC HZ EP        744 49.82                             129    0.26 9  162 218 
 SPBC HN ES        745 11.84                             129    0.18 9  162 218 
 SPBC HZ I         745 17.78         7.3 0.06            131            162 218 
 ZAR  HZ EP        744 53.39                             122    0.15 9  201 292 
 ZAR  HN ES        745 18.72                             122    0.52 9  201 292 
 ZAR  HZ I         745 25.51         6.2 0.53            123            201 292 
 CHI  HZ EP        744 59.55                             117    0.61 8  249 194 
 CHI  HN ES        745 27.84                             117   -0.50 8  249 194 
 CHI  HZ I         745 31.90         3.0 0.56            120            249 194 
 MON  HZ EP   4    745  5.45                             108   -4.34 0  350 308 
 MON  HN ES   4    745 45.62                             108   -2.04 0  350 308 
 SJC  HZ EP   4    745 12.08                             106   -4.32 0  406 327 
 SJC  HN ES   1    745 57.93                             106   -1.50 4  406 327 
 SJC  HZ I         746  2.61         1.6 0.56            107            406 327 
                                                                                
