 2015 10 9 0009 42.4 L   6.786 -73.108144.8  RSN  9 0.5 1.7LRSN                1
 GAP=142        1.14       3.5     5.2  6.6 -0.9264E+00  0.1302E+02  0.1568E+01E
 Epicentro: LOS SANTOS - SANTANDER                                             3
 ACTION:UPD 15-12-22 20:38 OP:cam  STATUS:               ID:20151009000942 L   I
 OLDACT:UP  15-10-09 15:23 OP:ak   STATUS:               ID:20151009000006d    3
 OLDACT:UP  15-10-09 15:20 OP:ak   STATUS:               ID:20151009000006d    3
 OLDACT:DUP 15-10-09 15:05 OP:ak   STATUS:               ID:20151009000006d    3
 OLDACT:REG 15-10-09 12:10 OP:ak   STATUS:               ID:20151009000005     3
 2015-10-09-0000-05M.COL___328                                                 6
 STAT SP IPHASW D HRMM SECON CODA AMPLIT PERI AZIMU VELO AIN AR TRES W  DIS CAZ7
 BAR2 EZ EP   1    010  1.27                             171   -0.64 7 22.9 201 
 BAR2 EZ ES        010 16.60                             171   -0.5210 22.9 201 
 BAR2 EZ I         010 19.01         8.2 0.09            171           22.9 201 
 BRR  HZ EP        010  4.11                             151    0.4110 75.6 298 
 BRR  HE ES        010 20.99                             151    0.6810 75.6 298 
 BRR  HZ I         010 25.04         8.6 0.10            152           75.6 298 
 PAM  EZ EP        010  5.16                             151    0.7210 76.1  36 
 PAM  EN ES        010 21.66                             151    0.0310 76.1  36 
 PAM  EZ I         010 24.22        16.8 0.66            153           76.1  36 
 RUS  HZ EP   1    010  6.43                             144    0.50 7 98.8 178 
 RUS  HE ES        010 23.88                             144   -0.4010 98.8 178 
 RUS  HZ I         010 25.62         4.8 0.36            147           98.8 178 
 ZAR  HZ EP   1    010 15.74                             121    0.50 6  208 292 
 ZAR  HN ES        010 40.37                             121   -0.49 8  208 292 
 NOR  HZ EP   1    010 18.55                             118    0.21 6  237 235 
 NOR  HN ES        010 46.64                             118    0.27 8  237 235 
 NOR  HZ I         010 48.05         3.3 0.14            120            237 235 
 SML  HZ EP        010 18.49                             117   -0.83 8  247 335 
 SML  HE ES        010 47.73                             117   -0.38 8  247 335 
 SML  HZ I         010 48.92        11.2 0.05            119            247 335 
 CHI  HZ EP        010 20.22                             117    0.21 8  248 196 
 CHI  HN ES        010 49.17                             117   -0.16 8  248 196 
 GUY2CHZ EP        010 25.55                             112   -0.70 7  304 235 
 GUY2CHN ES        011  0.74                             112    0.29 7  304 235 
 GUY2CHZ I         011  9.54         2.2 0.42                           304 235 
 SJC  HZ EP   4    010 36.59                             105   -1.77 0  413 327 
 SJC  HE ES   4    011 17.15                             105   -4.85 0  413 327 
                                                                                
