 2011  3 9 0857  0.0 L   6.740 -73.425146.0  RSN  4 0.4 1.7LRSN                1
 GAP=206        0.96       6.2    38.4 13.7  0.8760E+02  0.9762E+02 -0.1919E+02E
 Epicentro: EL CARMEN DE CHUCURI - SANTANDER                                   3
 *PRA-RREF-RUS                                                                 3
 ACTION:UP  11-06-16 14:32 OP:jfem STATUS:               ID:20110309085501dL   I
 2011-03-09-0855-57S.COL___135                                                 6
 STAT SP IPHASW D HRMM SECON CODA AMPLIT PERI AZIMU VELO SNR AR TRES W  DIS CAZ7
 BAR2 SZ EP        857 20.03                             168     0.210   31 122 
 BAR2 SZ ES   2    857 34.78                             168    -0.6 5   31 122 
 BAR2 SZ I         857 36.79        18.6 0.43                            31 122 
 RUS  HZ EP        857 24.06                             144     0.210  101 158 
 RUS  HE ES   2    857 42.18                             144    -0.2 5  101 158 
 RUS  HZ I         857 43.47         3.9 0.37                           101 158 
 GRA  SZ EP        857 26.81                             133    -0.1 9  144  28 
 GRA  SZ I         857 27.94        10.3 0.31                           144  28 
 OCA  SZ EP        857 28.35                             129    -0.6 9  166   4 
 OCA  SZ ES   1    857 52.13                             129     0.7 7  166   4 
                                                                                
