 2014  4 9 0839 25.9 L   6.870 -73.590 92.8  RSN  4 0.1 0.9LRSN                1
 GAP=122        0.39       1.7     1.6  6.2 -0.5544E+00  0.3756E+00  0.7652E+00E
 Epicentro: SAN VICENTE DE CHUCURI - SANTANDER                                 3
 ACTION:UPD 14-05-13 23:07 OP:nd   STATUS:               ID:20140409083925 L   I
 OLDACT:DUP 14-04-09 19:44 OP:fm   STATUS:               ID:20140409083819d    3
 2014-04-09-0838-17M.COL___244                                                 6
 STAT SP IPHASW D HRMM SECON CODA AMPLIT PERI AZIMU VELO AIN AR TRES W  DIS CAZ7
 PTB  HZ EP        839 44.34                             128   -0.1710  103 249 
 PTB  HN ES        839 59.08                             128    0.0910  103 249 
 PTB  HZ I         840  0.52         2.2 0.10            131            103 249 
 PAM  SN ES        840  1.62                             126   -0.0110  111  62 
 RUS  HZ EP        839 47.22                             124    0.1610  122 153 
 RUS  HE ES        840  3.46                             124   -0.0810  122 153 
 RUS  HZ I         840  6.03         1.5 0.26            126            122 153 
 OCA  HN ES   1    840  8.97                             117    0.02 7  154  11 
                                                                                
