 2012  7 9 0714 53.1 L   6.618 -73.083137.0  RSN  6 0.4 1.2LRSN                1
 GAP=188        0.93       6.7     7.9  9.4  0.2528E+02  0.1301E+02  0.2243E+00E
 Epicentro: CURITI - SANTANDER                                                 3
 ACTION:UPD 12-08-14 11:43 OP:ep   STATUS:               ID:20120709071453 L   I
 2012-07-09-0710-00M.COL___201                                                 6
 STAT SP IPHASW D HRMM SECON CODA AMPLIT PERI AZIMU VELO AIN AR TRES W  DIS CAZ7
 BAR2 SZ EP   1    715 11.53                             175     0.1 7   11 255 
 BAR2 SZ ES   1    715 25.63                             175    -0.2 7   11 255 
 BAR2 SZ I         715 30.55         3.7 0.15                            11 255 
 RUS  HZ EP   1    715 15.34                             148     0.8 7   80 180 
 RUS  HN ES   1    715 30.91                             148    -0.4 7   80 180 
 RUS  HZ I         715 36.12         3.8 0.45                            80 180 
 BRR  HZ EP   1    715 14.19                             145    -0.2 7   88 308 
 BRR  HZ I         715 14.51         3.7 0.15                            88 308 
 BRR  HE ES        715 31.37                             145     0.410   88 308 
 PTB  HZ EP   1    715 19.54                             129    -0.2 7  152 267 
 PTB  HN ES   1    715 40.16                             129    -0.4 7  152 267 
 PTB  HZ I         715 46.22         2.1 0.39                           152 267 
 OCA  HN ES   2    715 45.22                             124    -0.8 4  181 352 
 ZAR  HN ES   1    715 52.82                             118     0.2 6  219 296 
