 2016 11 9 0338  0.4 L   6.801 -73.178148.9  RSN  5 0.4 1.5LRSN                1
 GAP=241        0.89       5.6     6.2  7.2  0.1429E+02  0.9552E+01  0.1513E+02E
 Epicentro: LOS SANTOS - SANTANDER                                             3
 ACTION:UPD 17-10-26 21:06 OP:lp   STATUS:               ID:20161109033800 L   I
 OLDACT:REG 16-11-09 12:38 OP:lv   STATUS:               ID:20161109032744     3
 2016-11-09-0328-00M.COL___349                                                 6
 STAT SP IPHASW D HRMM SECON CODA AMPLIT PERI AZIMU VELO AIN AR TRES W  DIS CAZ7
 BAR2 EZ EP        338 20.22                             171   -0.2010 23.1 181 
 BAR2 EZ ES        338 35.78                             171   -0.2510 23.1 181 
 BAR2 EZ I         338 36.13         7.6 0.30            166           23.1 181 
 BRR  HZ EP        338 21.96                             154    0.2210 68.1 300 
 BRR  HE ES        338 38.80                             154    0.4310 68.1 300 
 BRR  HZ I         338 42.04         4.6 0.37            149           68.1 300 
 PTB  HZ EP        338 26.86                             133   -0.47 9  144 259 
 PTB  HN ES        338 47.85                             133   -0.48 9  144 259 
 PTB  HZ I         338 54.85         3.0 0.20            130            144 259 
 ZAR  HZ EP   4    338 30.95                             123   -1.78 0  201 292 
 ZAR  HE ES        338 58.25                             123    0.31 9  201 292 
 ZAR  HZ I         339  3.48         2.5 0.25            122            201 292 
 CHI  HZ EP        338 38.34                             118    0.14 8  248 194 
 CHI  HE ES        339  8.18                             118    0.51 8  248 194 
 CHI  HZ I         339 10.81         2.1 0.34            118            248 194 
                                                                                
