 2017  1 9 0302  1.3 L   6.737 -73.060141.8  RSN  9 0.4 1.6LRSN                1
 GAP=129        0.90       3.6     4.1  4.9  0.5034E+00  0.1873E+01  0.4703E+01E
 Epicentro: JORDAN - SANTANDER                                                 3
 ACTION:UPD 17-05-22 15:57 OP:jn   STATUS:               ID:20170109030201 L   I
 OLDACT:UP  17-01-09 14:47 OP:e    STATUS:               ID:20170109025747d    3
 OLDACT:UP  17-01-09 14:47 OP:e    STATUS:               ID:20170109025747d    3
 OLDACT:UP  17-01-09 14:46 OP:e    STATUS:               ID:20170109025747d    3
 OLDACT:UP  17-01-09 14:45 OP:e    STATUS:               ID:20170109025747d    3
 OLDACT:DUP 17-01-09 14:44 OP:e    STATUS:               ID:20170109025747d    3
 2017-01-09-0258-00M.COL___355                                                 6
 STAT SP IPHASW D HRMM SECON CODA AMPLIT PERI AZIMU VELO AIN AR TRES W  DIS CAZ7
 BAR2 EZ EP        3 2 20.43                             171    0.0410 20.9 220 
 BAR2 EZ ES        3 2 35.46                             171    0.1710 20.9 220 
 BAR2 EZ I         3 2 36.98        15.3 0.20            169           20.9 220 
 PAM  EZ EP        3 2 23.40                             150    0.3110 77.7  31 
 PAM  EN ES        3 2 39.63                             150   -0.4710 77.7  31 
 PAM  EZ I         3 2 41.54         3.7 0.17            152           77.7  31 
 BRR  HZ EP        3 2 22.49                             148   -0.2310 82.9 300 
 BRR  HN ES        3 2 39.39                             148   -0.0510 82.9 300 
 BRR  HZ I         3 2 40.44         9.8 0.18            147           82.9 300 
 RUS  HZ EP        3 2 24.20                             145    0.0710 93.4 182 
 RUS  HN ES        3 2 42.50                             145    0.5510 93.4 182 
 RUS  HZ I         3 2 43.49        12.1 0.24            146           93.4 182 
 PTB  HZ EP   9    3 2 27.41                             129   -1.28 0  156 262 
 PTB  HN ES        3 2 48.32                             130   -0.47 9  156 262 
 PTB  HZ I         3 2 50.89         3.9 0.11            129            156 262 
 ZAR  HZ EP        3 2 35.03                             120    0.36 8  215 293 
 ZAR  HN ES   4    3 2 58.97                             120   -1.74 0  215 293 
 ZAR  HZ I         3 3  4.59         5.6 0.24            120            215 293 
 NOR  HZ EP        3 2 36.70                             117   -0.50 8  239 237 
 NOR  HN ES        3 3  4.91                             117   -0.31 8  239 237 
 NOR  HZ I         3 3  9.61         3.0 0.16            117            239 237 
 PTGC HZ EP        3 2 43.72                             111   -0.11 7  299 160 
 PTGC HN ES        3 3 16.35                             111   -0.68 7  299 160 
 GUY2CHZ EP        3 2 45.68                             111    0.53 7  305 237 
 GUY2CHN ES   4    3 3 20.71                             111    1.34 0  305 237 
 GUY2CHZ I         3 3 26.95         1.7 0.50                           305 237 
                                                                                
