 2016  7 9 0909 18.9 L   6.547 -73.230145.9  RSN  5 0.4 1.1LRSN                1
 GAP=224        0.84       9.6     6.3  7.3  0.2313E+02  0.1756E+02  0.1050E+02E
 Epicentro: CABRERA - SANTANDER                                                3
 ACTION:UPD 17-03-29 16:48 OP:lp   STATUS:               ID:20160709090918 L   I
 OLDACT:UP  16-07-15 05:37 OP:edw  STATUS:               ID:20160709090918 L   3
 OLDACT:REG 16-07-09 14:42 OP:edw  STATUS:               ID:20160709090741     3
 2016-07-09-0907-41M.COL___316                                                 6
 STAT SP IPHASW D HRMM SECON CODA AMPLIT PERI AZIMU VELO AIN AR TRES W  DIS CAZ7
 BAR2 EZ EP        9 9 37.84                             177   -0.4710 7.25  46 
 BAR2 EZ ES        9 9 53.70                             177    0.2410 7.25  46 
 BRR  HZ EP   3    9 9 39.99                             149   -0.68 2 81.8 319 
 BRR  HE ES        9 9 57.72                             149    0.0610 81.8 319 
 SPBC HZ I         910  9.77         1.2 0.10             37            136 223 
 PTB  HZ EP        9 9 44.81                             135    0.03 9  136 270 
 PTB  HN ES        910  4.98                             135   -0.01 9  136 270 
 PTB  HZ I         910 11.44         1.5 0.30             37            136 270 
 SPBC HZ EP   4    9 9 43.31                             135   -1.60 0  136 223 
 SPBC HN ES   4    910  8.19                             135    2.98 0  136 223 
 ZAR  HZ EP        9 9 52.44                             122    0.69 8  208 300 
 ZAR  HE ES        910 16.96                             122   -0.43 8  208 300 
 ZAR  HZ I         910 22.68         2.2 0.40             37            208 300 
                                                                                
