 2015  4 9 0001 58.5 L   6.801 -73.158142.7  RSN 15 0.6 2.2LRSN                1
 GAP=135        1.26       3.4     4.4  6.6 -0.2878E+01  0.1063E+02 -0.2833E+01E
 Epicentro: LOS SANTOS - SANTANDER                                             3
 ACTION:UPD 15-06-03 16:53 OP:cam  STATUS:               ID:20150409000158 L   I
 OLDACT:REG 15-04-09 12:35 OP:akv  STATUS:               ID:20150409000000     3
 2015-04-09-0000-00M.COL___266                                                 6
 STAT SP IPHASW D HRMM SECON CODA AMPLIT PERI AZIMU VELO AIN AR TRES W  DIS CAZ7
 BAR2 EZ EP        0 2 17.74                             170   -0.0110 23.2 187 
 BAR2 EZ ES        0 2 32.61                             170   -0.1710 23.2 187 
 BAR2 EZ I         0 2 33.69        38.9 0.34            171           23.2 187 
 BRR  HZ EP        0 2 19.94                             152    0.7010 70.0 299 
 BRR  HN ES        0 2 36.43                             152    1.0010 70.0 299 
 BRR  HZ I         0 2 41.11        27.7 0.09            151           70.0 299 
 PAM  SZ EP        0 2 20.80                             150    0.3710 78.2  40 
 PAM  SN ES        0 2 37.53                             150   -0.0210 78.2  40 
 PAM  SZ I         0 2 39.72        29.3 0.46            154           78.2  40 
 RUS  HZ EP        0 2 21.93                             143   -0.0210  101 175 
 RUS  HN ES        0 2 39.87                             143   -0.3910  101 175 
 RUS  HZ I         0 2 42.05        14.4 0.42            147            101 175 
 PTB  HZ EP        0 2 24.76                             132   -0.33 9  146 259 
 PTB  HN ES        0 2 45.15                             132   -0.69 9  146 259 
 PTB  HZ I         0 2 47.86        14.5 0.16            133            146 259 
 OCA  HZ EP        0 2 26.55                             129    0.01 9  160 354 
 OCA  HN ES        0 2 47.84                             129   -0.59 9  160 354 
 OCA  HZ I         0 2 53.24        40.9 0.26            131            160 354 
 SPBC HZ EP        0 2 26.92                             129    0.24 9  162 219 
 SPBC HN ES        0 2 48.18                             129   -0.49 9  162 219 
 SPBC HZ I         0 2 53.40        14.8 0.20            131            162 219 
 ZAR  HZ EP        0 2 31.06                             122    0.46 9  203 292 
 ZAR  HE ES        0 2 56.39                             122    0.73 9  203 292 
 ZAR  HZ I         0 3  2.73        17.3 0.32            123            203 292 
 NOR  HZ EP        0 2 34.62                             118    0.69 8  234 234 
 NOR  HN ES        0 3  1.53                             118   -0.04 8  234 234 
 NOR  HZ I         0 3  7.66         8.9 0.18            120            234 234 
 SML  HZ EP        0 2 34.27                             117   -0.61 8  243 336 
 SML  HN ES        0 3  3.10                             117   -0.16 8  243 336 
 SML  HZ I         0 3  5.81        23.8 0.10            119            243 336 
 HEL  HZ EP   2    0 2 40.13                             114    1.73 4  271 256 
 HEL  HN ES        0 3  9.84                             114    0.30 8  271 256 
 HEL  HZ I         0 3 16.20         5.4 0.24            116            271 256 
 URE  HZ EP        0 2 38.49                             113   -0.78 7  283 292 
 URE  HE ES        0 3 10.08                             113   -1.00 7  283 292 
 URE  HZ I         0 3 12.59         9.1 0.12            115            283 292 
 GUY2CHZ EP   4    0 2 43.42                             112    1.59 0  300 235 
 GUY2CHE ES   4    0 3 16.54                             112    0.89 0  300 235 
 GUY2CHZ I         0 3 23.31         6.8 0.27                           300 235 
 RREF HN ES        0 3 20.10                             110   -0.09 7  321 229 
 MON  HZ EP   4    0 2 45.80                             108   -1.44 0  353 309 
 MON  HN ES   4    0 3 23.72                             108   -1.56 0  353 309 
 SJC  HZ EP   2    0 2 52.53                             105   -1.33 3  408 327 
 SJC  HN ES   4    0 3 34.23                             105   -2.82 0  408 327 
 SJC  HZ I         0 3 37.85         6.4 0.52            107            408 327 
                                                                                
