 2010  7 9 0150 12.3 L   6.781 -73.127139.2  RSN  7 0.3 1.7LRSN                1
 GAP=158        0.72       3.7     7.6  6.4 -0.7251E+00 -0.1376E+02 -0.8509E+01E
 Epicentro: LOS SANTOS - SANTANDER                                             3
 ACTION:UPD 10-12-01 15:16 OP:pat  STATUS:               ID:20100709015012 L   I
 2010-07-09-0147-52S.COL___117                                                 6
 STAT SP IPHASW D HRMM SECON CODA AMPLIT PERI AZIMU VELO AIN AR TRES W  DIS CAZ7
 BAR2 SZ EP        150 30.98                             171    -0.210   22 197 
 BAR2 SZ ES        150 45.52                             171    -0.310   22 197 
 BAR2 SZ I         150 46.72        13.3 0.23                            22 197 
 BRR  HZ EP        150 32.88                             150    -0.110   74 299 
 BRR  HZ I         150 33.28        14.2 0.10                            74 299 
 BRR  HE ES   1    150 49.40                             150     0.4 7   74 299 
 RUS  HZ EP   1    150 35.21                             143    -0.1 7   98 177 
 RUS  HE ES   1    150 53.38                             143     0.2 7   98 177 
 RUS  HZ I         150 55.39         4.4 0.39                            98 177 
 BRI  SZ EP        150 36.14                             139     0.410  110  19 
 BRI  SZ ES   2    150 54.14                             139     0.2 5  110  19 
 BRI  SZ I         150 59.22         6.5 0.47                           110  19 
 GUE  SZ EP   1    150 36.52                             137     0.0 7  118  11 
 GRA  SZ EP        150 37.07                             135     0.010  127  16 
 GRA  SZ ES   2    150 56.48                             135     0.0 5  127  16 
 GRA  SZ I         150 58.82         7.0 0.27                           127  16 
 OCA  SZ EP   2    150 39.99                             127    -0.4 5  163 353 
 OCA  SZ ES   2    151  1.38                             127    -0.8 5  163 353 
 OCA  SZ I         151  8.86         7.6 0.48                           163 353 
                                                                                
