 2011  9 9 0025 38.4 L   6.734 -73.155156.3  RSN  4 0.2 1.5LRSN                1
 GAP=231        0.38       7.7     9.0  6.0  0.5703E+02 -0.6691E+01 -0.6400E+01E
 Epicentro: VILLANUEVA - SANTANDER                                             3
 ACTION:UPD 12-07-13 15:56 OP:ep   STATUS:               ID:20110909002538 L   I
 2011-09-09-0021-26S.COL___170                                                 6
 STAT SP IPHASW D HRMM SECON CODA AMPLIT PERI AZIMU VELO AIN AR TRES W  DIS CAZ7
 BAR2 SZ EP   1    025 58.98                             174   -0.19 7 16.0 191 
 BAR2 SZ ES   2    026 15.15                             174   -0.23 5 16.0 191 
 BAR2 SZ I         026 15.98         4.3 0.73                          16.0 191 
 BRR  HZ EP   1    026  1.00                             153    0.16 7 74.1 304 
 BRR  HZ I         026  6.04        10.9 0.24                          74.1 304 
 BRR  HN ES   2    026 18.59                             153    0.23 5 74.1 304 
 RUS  HZ EP   1    026  2.75                             148    0.04 7 93.4 175 
 RUS  HZ I         026 20.29         3.3 0.74                          93.4 175 
 RUS  HN ES   2    026 21.82                             148    0.14 5 93.4 175 
 ZAR  HN ES   2    026 37.50                             124   -0.25 4  206 294 
 ZAR  HZ I         026 44.25         3.6 0.72                           206 294 
                                                                                
