 2014  5 9 0252 26.6 L   6.833 -73.169139.1  RSN 14 0.5 2.3LRSN                1
 GAP=132        1.18       2.9     4.3  7.7 -0.2783E+01  0.1140E+02  0.1657E+01E
 Epicentro: LOS SANTOS - SANTANDER                                             3
 ACTION:UPD 15-03-16 16:56 OP:nd   STATUS:               ID:20140509025226 L   I
 OLDACT:UP  14-05-09 16:02 OP:carl STATUS:               ID:20140509024805     3
 OLDACT:REG 14-05-09 14:14 OP:carl STATUS:               ID:20140509024805     3
 2014-05-09-0248-05M.COL___239                                                 6
 STAT SP IPHASW D HRMM SECON CODA AMPLIT PERI AZIMU VELO AIN AR TRES W  DIS CAZ7
 PAM  SZ EP        252 48.39                             150    0.3310 76.3  43 
 PAM  SN ES        253  5.30                             150    0.5110 76.3  43 
 PAM  SZ I         253  7.37        27.0 0.50            156           76.3  43 
 RUS  HZ EP        252 49.66                             141   -0.3510  104 175 
 RUS  HN ES        253  8.21                             141   -0.0510  104 175 
 RUS  HZ I         253 10.04        28.7 0.20            145            104 175 
 PTB  HZ EP        252 52.18                             131   -0.70 9  146 257 
 PTB  HN ES        253 12.29                             131   -1.08 9  146 257 
 PTB  HZ I         253 15.66        41.1 0.12            132            146 257 
 OCA  HZ EP        252 53.87                             129   -0.17 9  156 354 
 OCA  HE ES        253 15.62                             129    0.19 9  156 354 
 OCA  HZ I         253 21.45        18.2 0.54            133            156 354 
 SPBC HZ EP        252 54.47                             127   -0.27 9  164 217 
 SPBC HN ES        253 17.00                             127    0.33 9  164 217 
 SPBC HZ I         253 23.82        30.4 0.38            130            164 217 
 ZAR  HZ EP   4    252 54.49                             121   -3.75 0  200 291 
 ZAR  HN ES        253 23.24                             121    0.33 9  200 291 
 ZAR  HZ I         253 28.73        20.5 0.20            124            200 291 
 NOR  HZ EP        253  1.64                             117   -0.34 8  235 233 
 NOR  HN ES        253 29.54                             117   -0.01 8  235 233 
 NOR  HZ I         253 35.39        15.3 0.18            120            235 233 
 SML  HZ EP        253  1.96                             116   -0.43 8  239 335 
 SML  HE ES        253 30.23                             116   -0.07 8  239 335 
 SML  HZ I         253 32.37        25.0 0.26            120            239 335 
 CHI  HZ EP        253  4.11                             115   -0.16 8  252 194 
 CHI  HN ES        253 33.13                             115   -0.52 8  252 194 
 ROSC BZ EP   4    253  5.98                             115    1.39 0  255 210 
 ROSC BE ES   4    253 34.12                             115   -0.08 0  255 210 
 ROSC BZ I         253 40.29        16.6 0.40            118            255 210 
 HEL  HZ EP        253  7.30                             113    0.98 8  270 255 
 HEL  HN ES        253 37.41                             113    0.12 8  270 255 
 HEL  HZ I         253 44.50        14.4 0.60            116            270 255 
 URE  HZ EP   4    253  5.74                             112   -1.20 0  280 291 
 URE  HN ES   4    253 36.34                             112   -2.06 0  280 291 
 CBOC HZ EP        253 13.47                             109    0.36 7  332 251 
 CBOC HE ES        253 49.38                             109    0.00 7  332 251 
 ANIL HN ES        253 56.31                             107    1.31 6  358 224 
 ORTC HZ EP        253 20.58                             105    0.09 6  397 216 
 ORTC HN ES        254  3.77                             105    1.26 6  397 216 
 ORTC HZ I         254 10.44         6.3 0.22            108            397 216 
                                                                                
