 2017  2 9 0347 20.7 L   6.714 -73.257149.4  RSN  4 0.3 1.3LRSN                1
 GAP=198        0.77       6.0     5.6  6.2  0.1597E+02  0.4432E+01  0.2336E+01E
 Epicentro: GALAN - SANTANDER                                                  3
 ACTION:UPD 17-05-24 15:34 OP:jn   STATUS:               ID:20170209034720 L   I
 OLDACT:UP  17-02-09 17:28 OP:edw  STATUS:               ID:20170209033746d    3
 OLDACT:DUP 17-02-09 17:25 OP:edw  STATUS:               ID:20170209033746d    3
 OLDACT:REG 17-02-09 13:06 OP:edw  STATUS:               ID:20170209033745     3
 2017-02-09-0338-00M.COL___364                                                 6
 STAT SP IPHASW D HRMM SECON CODA AMPLIT PERI AZIMU VELO AIN AR TRES W  DIS CAZ7
 BAR2 EZ EP        347 40.51                             174   -0.1210 15.8 149 
 BAR2 EZ ES        347 56.00                             174   -0.1810 15.8 149 
 BAR2 EZ I         347 56.97         6.5 0.16            167           15.8 149 
 BRR  HZ EP        347 42.27                             155    0.2910 66.5 311 
 BRR  HN ES        347 58.61                             155    0.0210 66.5 311 
 RUS  HZ EP        347 44.61                             147    0.3410 92.8 168 
 RUS  HN ES        348  2.62                             147   -0.0310 92.8 168 
 RUS  HZ I         348  4.25         1.8 0.44            144           92.8 168 
 PTB  HZ EP        347 46.16                             136   -0.6010  134 262 
 PTB  HN ES        348  7.34                             136    0.2510  134 262 
 PTB  HZ I         348 15.34         2.4 0.46            131            134 262 
                                                                                
