 2016  5 9 0542 24.0 L   6.766 -73.158147.1  RSN  6 0.4 1.4LRSN                1
 GAP=181        1.11       4.8     6.1  8.2  0.6810E+01  0.8558E+00 -0.8481E+01E
 Epicentro: LOS SANTOS - SANTANDER                                             3
 ACTION:UPD 16-08-18 17:43 OP:cam  STATUS:               ID:20160509054224 L   I
 OLDACT:REG 16-05-09 12:21 OP:drio STATUS:               ID:20160509053748     3
 2016-05-09-0537-48M.COL___291                                                 6
 STAT SP IPHASW D HRMM SECON CODA AMPLIT PERI AZIMU VELO AIN AR TRES W  DIS CAZ7
 BAR2 EZ EP        542 43.98                             172    0.2310 19.4 188 
 BAR2 EZ ES        542 58.30                             172   -0.8310 19.4 188 
 BAR2 EZ I         542 59.72         4.9 0.28            172           19.4 188 
 BRR  HZ EP        542 45.48                             152    0.1210 71.9 302 
 BRR  HE ES        543  2.86                             152    0.8610 71.9 302 
 BRR  HZ I         543  6.52         3.3 0.18            151           71.9 302 
 RUS  HZ EP        542 47.79                             145    0.1410 96.9 175 
 RUS  HE ES        543  6.37                             145    0.2910 96.9 175 
 RUS  HZ I         543  8.63         1.8 0.48            148           96.9 175 
 PTB  HZ EP        542 50.49                             133   -0.43 9  146 260 
 PTB  HN ES        543 11.62                             133   -0.28 9  146 260 
 PTB  HZ I         543 13.45         3.1 0.38            133            146 260 
 OCA  HZ EP        542 52.79                             129    0.01 9  164 354 
 OCA  HE ES        543 14.93                             129   -0.27 9  164 354 
 OCA  HZ I         543 17.71         7.1 0.24            130            164 354 
 ZAR  HE ES        543 21.99                             123    0.02 9  204 293 
 ZAR  HZ I         543 29.44         2.9 0.22            123            204 293 
                                                                                
