 2014  4 9 0150  7.8 L   6.797 -73.180137.0  RSN  7 0.5 1.8LRSN                1
 GAP= 69        1.18       5.1     4.3 10.3 -0.5217E+01  0.6021E+01  0.1304E+01E
 Epicentro: LOS SANTOS - SANTANDER                                             3
 ACTION:UPD 14-05-13 23:07 OP:nd   STATUS:               ID:20140409015007 L   I
 OLDACT:REG 14-04-09 13:28 OP:stll STATUS:               ID:20140409014813     3
 2014-04-09-0148-13M.COL___256                                                 6
 STAT SP IPHASW D HRMM SECON CODA AMPLIT PERI AZIMU VELO AIN AR TRES W  DIS CAZ7
 BRR  HZ EP        150 28.58                             152    0.7910 68.0 300 
 PAM  SZ EP        150 29.59                             148    0.3510 80.1  41 
 PAM  SZ I         150 29.81        13.7 0.26            151           80.1  41 
 PAM  SN ES        150 46.36                             148    0.3910 80.1  41 
 RUS  HZ EP        150 30.67                             142    0.0010  101 174 
 RUS  HN ES        150 48.62                             142    0.1010  101 174 
 RUS  HZ I         150 50.15         7.4 0.30            143            101 174 
 PTB  HZ EP        150 33.45                             131   -0.23 9  144 259 
 PTB  HN ES        150 53.25                             131   -0.64 9  144 259 
 PTB  HZ I         150 56.81         4.9 0.28            131            144 259 
 TAM  HZ IP     C  150 34.91                             128   -0.21 9  159 104 
 TAM  HZ I         150 35.05        13.2 0.18            130            159 104 
 TAM  HE ES        150 55.74                             128   -0.70 9  159 104 
 OCA  HN ES   2    150 55.44                             127   -1.53 5  160 355 
 SPBC HZ EP        150 35.61                             127    0.26 9  161 218 
 SPBC HN ES        150 56.87                             127    0.01 9  161 218 
 SPBC HZ I         151  0.81         7.3 0.24            128            161 218 
 SOCV BN ES   4    151 20.73                             110   -3.67 0  305  57 
                                                                                
