 2011  5 9 0247 38.7 L   6.748 -73.186144.0  RSN  5 0.1 1.4LRSN                1
 GAP=155        0.33       2.1     2.9  3.3 -0.2984E+00 -0.8998E+00 -0.1282E+01E
 Epicentro: VILLANUEVA - SANTANDER                                             3
 ACTION:UP  11-06-29 08:51 OP:tino STATUS:               ID:20110509024738 L   I
 2011-05-09-0245-12S.COL___131                                                 6
 STAT SP IPHASW D HRMM SECON CODA AMPLIT PERI AZIMU VELO AIN AR TRES W  DIS CAZ7
 BAR2 SZ EP        247 57.99                             173     0.010   17 179 
 BAR2 SZ ES   1    248 13.00                             173    -0.1 7   17 179 
 BAR2 SZ I         248 14.48         9.6 0.11                            17 179 
 BRR  HZ EP        247 59.57                             152    -0.110   70 304 
 BRR  HN ES   1    248 16.03                             152     0.1 7   70 304 
 BRR  HZ I         248 20.76         5.1 0.18                            70 304 
 RUS  HZ EP        248  1.89                             145     0.010   95 173 
 RUS  HE ES   1    248 20.15                             145     0.1 7   95 173 
 RUS  HZ I         248 22.31         3.8 0.48                            95 173 
 GRA  SZ EP        248  4.50                             135     0.110  133  19 
 GRA  SZ I         248 31.19         2.2 0.24                           133  19 
 NOR  SN ES   1    248 40.85                             119     0.0 6  228 235 
                                                                                
