 2017  1 9 0755 22.0 L   6.317 -73.701105.9  RSN  7 0.3 1.0LRSN                1
 GAP=162        0.73       3.9     3.0  6.0  0.5099E+01  0.1897E+01 -0.8442E+00E
 Epicentro: SANTA HELENA DEL OPON - SANTANDER                                  3
 ACTION:UPD 17-05-22 15:57 OP:jn   STATUS:               ID:20170109075522 L   I
 OLDACT:UP  17-01-09 18:10 OP:and  STATUS:               ID:20170109074743d    3
 OLDACT:UP  17-01-09 18:09 OP:and  STATUS:               ID:20170109074743d    3
 OLDACT:UP  17-01-09 18:08 OP:and  STATUS:               ID:20170109074743d    3
 OLDACT:UP  17-01-09 18:08 OP:and  STATUS:               ID:20170109074743d    3
 OLDACT:UP  17-01-09 18:08 OP:and  STATUS:               ID:20170109074743d    3
 OLDACT:DUP 17-01-09 17:26 OP:and  STATUS:               ID:20170109074743d    3
 2017-01-09-0748-00M.COL___341                                                 6
 STAT SP IPHASW D HRMM SECON CODA AMPLIT PERI AZIMU VELO AIN AR TRES W  DIS CAZ7
 BAR2 EZ EP        755 39.10                             146    0.1610 64.9  62 
 BAR2 EZ ES        755 52.10                             146   -0.0310 64.9  62 
 RUS  HZ EP        755 40.94                             139    0.3210 82.9 124 
 RUS  HN ES        755 55.19                             139    0.0610 82.9 124 
 PTB  HZ EP        755 40.07                             137   -0.2410 87.1 286 
 PTB  HN ES        755 54.31                             137   -0.2610 87.1 286 
 PTB  HZ I         755 57.52         2.3 0.09            139           87.1 286 
 BRR  HZ EP        755 40.05                             137   -0.2610 87.4 359 
 BRR  HN ES        755 54.60                             137    0.0310 87.4 359 
 PAM  EZ EP        755 47.48                             119   -0.32 9  158  44 
 PAM  EN ES   4    756  6.08                             119   -1.83 0  158  44 
 PAM  EZ I         756 25.52         2.4 0.48            115            158  44 
 ZAR  HN ES        756 12.09                             115    0.61 9  182 316 
 GUY2CHZ EP   4    755 57.36                             110    2.68 0  220 237 
 GUY2CHN ES   4    756 25.60                             110    5.45 0  220 237 
 GUY2CHZ I         756 26.79         0.8 0.34                           220 237 
                                                                                
