 2011  9 9 0849 59.9 L   7.429 -73.184133.1  RSN  5 0.3 1.8LRSN                1
 GAP=116        0.49       6.8     6.7  8.1 -0.8383E+01  0.1019E+02 -0.2435E+02E
 Epicentro: EL PLAYON - SANTANDER                                              3
 ACTION:UPD 12-07-13 15:56 OP:ep   STATUS:               ID:20110909084959 L   I
 2011-09-09-0840-00M.COL___171                                                 6
 STAT SP IPHASW D HRMM SECON CODA AMPLIT PERI AZIMU VELO AIN AR TRES W  DIS CAZ7
 GIR2 SZ EP   1    850 18.37                             163    0.09 7 38.7 182 
 PAM  SZ EP   2    850 19.80                             157    0.35 5 54.4 100 
 PAM  SN ES   2    850 34.70                             157   -0.03 5 54.4 100 
 BRR  HZ EP   1    850 19.57                             151    0.09 7 68.3 239 
 BRR  HN ES   2    850 34.90                             151    0.12 5 68.3 239 
 BRR  HZ I         850 34.95        10.4 0.14                          68.3 239 
 BAR2 SZ EP   1    850 21.50                             143    0.07 7 92.5 180 
 BAR2 SZ ES   2    850 37.59                             143   -0.66 5 92.5 180 
 BAR2 SZ I         850 39.70        13.1 0.43                          92.5 180 
 COD  HZ EP   2    850 39.11                             111   -0.62 4  279 354 
 COD  HZ I         851 11.40         4.2 0.26                           279 354 
                                                                                
