 2012  5 9 0634 40.3 L   6.709 -73.180152.3  RSN  4 0.1 1.5LRSN                1
 GAP=226        0.45       5.4     5.4  6.1  0.1510E+02 -0.3210E+00  0.5598E+01E
 Epicentro: VILLANUEVA - SANTANDER                                             3
 ACTION:UP  12-07-05 12:03 OP:pat  STATUS:               ID:20120509063440 L   I
 2012-05-09-0630-00M.COL___192                                                 6
 STAT SP IPHASW D HRMM SECON CODA AMPLIT PERI AZIMU VELO SNR AR TRES W  DIS CAZ7
 BAR2 SZ EP        635  0.36                             175    -0.210   13 181 
 BAR2 SZ I         635 18.46         7.6 0.32                            13 181 
 BRR  HZ EP        635  2.20                             153    -0.110   73 307 
 BRR  HN ES   1    635 19.56                             153     0.2 7   73 307 
 BRR  HZ I         635 22.42         5.4 0.18                            73 307 
 RUS  HZ EP        635  4.24                             148     0.210   91 173 
 RUS  HN ES   2    635 22.40                             148    -0.1 5   91 173 
 PTB  HZ EP        635  7.30                             135     0.0 9  142 263 
 PTB  HN ES   2    635 28.37                             135     0.0 5  142 263 
 PTB  HZ I         635 35.56         3.1 0.32                           142 263 
                                                                                
