 2010 10 9 0742 34.8 L   6.800 -72.954140.9  RSN  5 0.3 1.7LRSN                1
 GAP=214        0.69       4.1     8.4  6.6 -0.1320E+02  0.2631E+01  0.4848E+01E
 Epicentro: CEPITA - SANTANDER                                                 3
 ACTION:UP  11-02-18 11:08 OP:tino STATUS:               ID:20101009074234 L   I
 2010-10-09-0739-00S.COL___119                                                 6
 STAT SP IPHASW D HRMM SECON CODA AMPLIT PERI AZIMU VELO SNR AR TRES W  DIS CAZ7
 BAR2 SZ EP   1    742 54.34                             166     0.2 7   34 228 
 BAR2 SZ ES   1    743  9.38                             166     0.2 7   34 228 
 BAR2 SZ I         743 10.59        12.2 0.32                            34 228 
 BRR  HZ IP     C  742 56.19                             146    -0.410   90 292 
 BRR  HZ I         742 56.42        12.7 0.15                            90 292 
 BRR  HE ES   1    743 13.49                             146    -0.2 7   90 292 
 OCA  SZ EP   1    743  3.27                             128     0.2 7  164 346 
 OCA  SZ ES   1    743 25.41                             128     0.2 7  164 346 
 OCA  SZ I         743 29.92         3.3 0.08                           164 346 
 CHI  HZ EP   2    743 12.65                             115    -0.3 4  255 200 
 CHI  HN ES   2    743 42.31                             115    -0.3 4  255 200 
 CHI  HZ I         743 49.83         1.8 0.42                           255 200 
 RREF HZ EP   1    743 23.01                             109     0.4 5  338 232 
 RREF HE ES        744  0.14                             109     0.2 7  338 232 
 RREF HZ I         744  3.64         2.5 0.35                           338 232 
                                                                                
