 2016  7 9 0710 28.5 L   6.798 -73.140141.7  RSN 27 0.4 2.8LRSN                1
 GAP= 66        0.90       1.9     2.3  4.0 -0.8746E+00  0.3645E+01 -0.4474E+00E
 Epicentro: LOS SANTOS - SANTANDER                                             3
 ACTION:UPD 17-03-29 16:48 OP:lp   STATUS:               ID:20160709071028 L   I
 OLDACT:UP  16-07-09 17:31 OP:edw  STATUS:               ID:20160709070742     3
 OLDACT:UP  16-07-09 17:27 OP:edw  STATUS:               ID:20160709070742     3
 OLDACT:UP  16-07-09 17:24 OP:edw  STATUS:               ID:20160709070742     3
 OLDACT:REG 16-07-09 14:35 OP:edw  STATUS:               ID:20160709070742     3
 2016-07-09-0707-42M.COL___328                                                 6
 STAT SP IPHASW D HRMM SECON CODA AMPLIT PERI AZIMU VELO AIN AR TRES W  DIS CAZ7
 BAR2 EZ IP     C  710 47.57                             170   -0.0910 23.3 192 
 BAR2 EZ ES        711  2.57                             170   -0.0210 23.3 192 
 BAR2 EZ I         711  4.12       148.5 0.18            170           23.3 192 
 PAM  EZ EP        710 50.53                             150    0.2410 77.1  39 
 PAM  EN ES        711  7.57                             150    0.3010 77.1  39 
 PAM  EZ I         711  9.64       109.5 0.48            150           77.1  39 
 RUS  HZ EP        710 51.59                             143   -0.2710  100 176 
 RUS  HN ES        711 10.05                             143   -0.0110  100 176 
 RUS  HZ I         711 11.39        72.0 0.24            142            100 176 
 PTB  HZ EP        710 54.03                             131   -1.18 9  148 259 
 PTB  HN ES        711 15.11                             131   -0.92 9  148 259 
 PTB  HZ I         711 21.61        74.2 0.21            130            148 259 
 TAM  HZ IP     C  710 55.96                             130    0.14 9  154 105 
 TAM  HZ I         711 16.88        35.7 0.40            129            154 105 
 TAM  HN ES        711 17.35                             130    0.24 9  154 105 
 SPBC HZ EP        710 56.41                             128   -0.33 9  163 219 
 SPBC HN ES        711 19.24                             128    0.50 9  163 219 
 SPBC HZ I         711 24.35        89.3 0.14            127            163 219 
 ZAR  HZ EP        711  0.17                             121   -0.60 9  205 292 
 ZAR  HN ES        711 25.56                             121   -0.36 9  205 292 
 ZAR  HZ I         711 27.68        87.8 0.10            121            205 292 
 NOR  HZ EP        711  3.82                             117   -0.24 8  235 235 
 NOR  HN ES        711 32.15                             117    0.37 8  235 235 
 NOR  HZ I         711 41.12        42.4 0.18            117            235 235 
 CHI  HZ EP        711  5.85                             116   -0.15 8  249 195 
 CHI  HN ES        711 35.27                             116    0.05 8  249 195 
 CHI  HZ I         711 38.57        56.4 0.34            116            249 195 
 HEL  HZ EP        711  9.12                             114    0.53 8  273 256 
 HEL  HN ES        711 40.44                             114    0.60 8  273 256 
 HEL  HZ I         711 46.69        33.7 0.30            113            273 256 
 URE  HN ES   4    711 37.71                             113   -3.70 0  284 292 
 GUY2CHZ EP        711 12.05                             111    0.06 7  302 235 
 GUY2CHN ES        711 45.94                             111    0.05 7  302 235 
 GUY2CHZ I         711 54.14        33.5 0.48                           302 235 
 VIL  SZ EP        711 11.43                             111   -0.32 7  303 192 
 VIL  SN ES        711 45.64                             111    0.17 7  303 192 
 LL1C HZ EP        711 12.28                             111    0.31 7  307 351 
 LL1C HN ES        711 46.02                             111    0.17 7  307 351 
 PTGC HZ EP   9    711 10.85                             111   -1.31 0  308 159 
 PTGC HN ES        711 44.54                             112   -0.34 7  308 159 
 PTGC HZ I         711 46.95        27.9 0.40            110            308 159 
 LL6C HZ EP   4    711 12.21                             110   -1.87 0  325 357 
 LL6C HE ES        711 49.89                             110    0.28 7  325 357 
 LL6C HZ I         711 53.50        21.9 0.42            109            325 357 
 ELA  HZ EP        711 15.35                             109    0.11 7  329 230 
 ELA  HN ES        711 51.84                             109    0.16 7  329 230 
 ELA  HZ I         711 59.72        28.3 0.62            109            329 230 
 CBOC HZ EP        711 15.94                             109    0.61 7  334 252 
 CBOC HN ES        711 52.46                             109    0.62 7  334 252 
 CBOC HZ I         712  1.11        10.8 0.36            109            334 252 
 DBB  SZ EP        711 15.95                             109    0.04 7  340 274 
 DBB  SZ ES   4    711 51.54                             109   -1.33 0  340 274 
 ANIL HZ EP        711 19.06                             108    0.85 6  358 225 
 ANIL HE ES        711 56.95                             108   -0.01 6  358 225 
 ARGC HZ EP        711 17.81                             107   -0.26 6  360 340 
 ARGC HE ES        711 56.81                             107    0.09 6  360 340 
 PRA  HZ EP        711 21.43                             106   -0.49 6  392 210 
 PRA  HN ES        712  3.41                             106   -0.16 6  392 210 
 PRA  HZ I         712  8.01        47.4 0.50            105            392 210 
 ORTC HZ EP        711 22.03                             106   -0.30 6  396 216 
 ORTC HN ES        712  4.98                             106    0.68 6  396 216 
 ORTC HZ I         712  8.55        17.2 0.36            105            396 216 
 PAL  HZ EP        711 23.23                             105   -0.37 6  406 239 
 PAL  HE ES        712  6.64                             105    0.08 6  406 239 
 PAL  HZ I         712 13.77         8.1 0.40            105            406 239 
 SJC  HZ EP   4    711 21.74                             105   -2.27 0  410 327 
 SJC  HN ES   4    712  3.00                             105   -4.29 0  410 327 
 SJC  HZ I         712 17.21        11.8 0.68            105            410 327 
 LCBC HE ES        712 10.57                             104    0.74 5  423 303 
 CRJC HZ EP   4    711 27.83                             103   -3.10 0  468   3 
 CRJC HE ES   4    712 17.01                             103   -2.60 0  468   3 
 CRJC HZ I         712 21.70        18.4 0.19            102            468   3 
 YOT  HZ EP   4    711 29.52                             102   -1.98 0  472 229 
 YOT  HE ES   4    712 24.41                             102    3.80 0  472 229 
 MACC HZ EP   4    711 34.95                             101   -2.18 0  520 189 
 MACC HN ES   4    712 25.78                             101   -4.85 0  520 189 
 POP2 HZ EP        711 47.50                              99   -0.99 3  613 220 
 POP2 HE ES        712 50.81                              99   -0.05 3  613 220 
                                                                                
