 2012  4 9 0410 18.2 L   7.095 -73.099142.0  RSN  5 0.3 1.2LRSN                1
 GAP=147        0.67       5.9     5.1  9.6 -0.6758E+01  0.2561E+01  0.9612E+01E
 Epicentro: FLORIDABLANCA - SANTANDER                                          3
 ACTION:UPD 12-07-05 11:52 OP:tino STATUS:               ID:20120409041018 L   I
 2012-04-09-0410-00M.COL___196                                                 6
 STAT SP IPHASW D HRMM SECON CODA AMPLIT PERI AZIMU VELO AIN AR TRES W  DIS CAZ7
 PAM  SZ EP   1    410 38.85                             159     0.2 7   52  58 
 PAM  SZ I         410 38.96         2.4 0.12                            52  58 
 PAM  SN ES   1    410 54.29                             159    -0.3 7   52  58 
 BAR2 SZ EP   1    410 38.43                             157    -0.1 7   56 189 
 BAR2 SZ I         410 38.52         6.3 0.12                            56 189 
 BRR  HZ EP   1    410 38.70                             153     0.0 7   68 271 
 BRR  HZ I         410 38.95         6.8 0.15                            68 271 
 BRR  HN ES   1    410 55.13                             153     0.4 7   68 271 
 RUS  HZ I         410 45.00         1.1 0.46                           133 179 
 RUS  HN ES   1    411  4.53                             135     0.1 7  133 179 
 PTB  HN ES   1    411  7.65                             128    -0.4 7  162 248 
 PTB  HZ I         411  9.47         1.3 0.40                           162 248 
                                                                                
