 2011 11 9 0333 52.2 L   6.798 -73.096145.9  RSN  6 0.5 1.7LRSN                1
 GAP=143        0.83       5.6     5.6  7.5  0.2309E+00  0.1637E+02  0.4318E+00E
 Epicentro: LOS SANTOS - SANTANDER                                             3
 ACTION:UPD 12-07-13 16:09 OP:ep   STATUS:               ID:20111109033352 L   I
 2011-11-09-0332-20S.COL___178                                                 6
 STAT SP IPHASW D HRMM SECON CODA AMPLIT PERI AZIMU VELO AIN AR TRES W  DIS CAZ7
 BAR2 SZ EP   1    334 11.91                             170    0.07 7 24.7 203 
 BAR2 SZ ES   1    334 26.85                             170   -0.33 7 24.7 203 
 BAR2 SZ I         334 28.67        11.3 0.32                          24.7 203 
 PAM  SZ EP   1    334 14.38                             152    0.17 7 74.1  36 
 PAM  SN ES   1    334 31.51                             152    0.11 7 74.1  36 
 PAM  SZ I         334 34.41         6.4 0.34                          74.1  36 
 BRR  HZ EP   1    334 13.95                             151    0.33 7 76.2 297 
 BRR  HZ I         334 16.17        15.0 0.10                          76.2 297 
 BRR  HN ES   1    334 30.35                             151    0.00 7 76.2 297 
 RUS  HZ EP   1    334 15.12                             144   -0.78 7  100 179 
 RUS  HZ I         334 16.51         3.3 0.15                           100 179 
 RUS  HN ES   1    334 34.85                             144    0.44 7  100 179 
 ZAR  HZ EP   1    334 24.44                             122   -0.72 6  209 292 
 ZAR  HE ES   2    334 50.79                             122   -0.11 4  209 292 
 ZAR  HZ I         334 55.94         5.1 0.13                           209 292 
 HEL  HZ EP   1    334 33.95                             114    0.97 6  277 256 
 HEL  HE ES   1    335  4.81                             114    0.00 6  277 256 
 HEL  HZ I         335 10.89         5.8 0.34                           277 256 
                                                                                
