 2010  5 9 0958 30.6 L   7.431 -73.029124.4  RSN  4 0.2 1.9LRSN                1
 GAP=202        0.42       2.9     9.0  7.7 -0.7055E+01 -0.4087E+02  0.2021E+01E
 Epicentro: SURATA - SANTANDER                                                 3
 ACTION:UP  10-08-24 10:03 OP:vdl  STATUS:               ID:20100509095830 L   I
 2010-05-09-0940-00S.COL___107                                                 6
 STAT SP IPHASW D HRMM SECON CODA AMPLIT PERI AZIMU VELO SNR AR TRES W  DIS CAZ7
 BRR  HZ EP   1    958 50.58                             144     0.2 7   83 245 
 BRR  HN ES   1    959  5.55                             144    -0.2 7   83 245 
 BRR  HZ I         959  6.82        16.0 0.07                            83 245 
 BAR2 SZ EP   2    958 51.64                             140     0.1 5   94 190 
 BAR2 SZ ES   2    959  7.85                             140     0.1 5   94 190 
 OCA  SZ EP        958 51.43                             140     0.010   95 340 
 OCA  SZ ES   1    959  7.67                             140     0.0 7   95 340 
 OCA  SZ I         959 10.58        13.7 0.20                            95 340 
 RUS  HZ EP   3    958 57.99                             122    -0.8 2  170 182 
                                                                                
