 2016  8 9 0815 11.1 L   6.178 -73.683110.6  RSN  5 0.4 1.1LRSN                1
 GAP=101        1.14       4.8     4.8 10.2 -0.3727E+00  0.1888E+01 -0.4476E+01E
 Epicentro: LA PAZ - SANTANDER                                                 3
 ACTION:UPD 16-10-29 15:34 OP:rebc STATUS:               ID:20160809081511 L   I
 OLDACT:REG 16-08-09 13:21 OP:dnl  STATUS:               ID:20160809080759     3
 2016-08-09-0807-59S.COL___337                                                 6
 STAT SP IPHASW D HRMM SECON CODA AMPLIT PERI AZIMU VELO AIN AR TRES W  DIS CAZ7
 BAR2 EZ EP        815 29.09                             145    0.1310 71.9  50 
 BAR2 EZ ES        815 42.99                             145    0.0910 71.9  50 
 BAR2 EZ I         815 44.13         9.1 0.22                          71.9  50 
 SPBC HZ EP        815 28.94                             144    0.1510 72.4 217 
 SPBC HN ES        815 43.28                             144    0.6910 72.4 217 
 SPBC HZ I         815 46.64         2.9 0.28                          72.4 217 
 RUS  HZ EP        815 29.23                             144   -0.2110 73.5 115 
 RUS  HN ES        815 43.19                             144   -0.5510 73.5 115 
 RUS  HZ I         815 44.34         2.0 0.34                          73.5 115 
 PTB  HZ EP   2    815 29.95                             136   -0.46 5 94.5 295 
 PTB  HE ES        815 44.66                             136   -0.8110 94.5 295 
 PTB  HZ I         815 46.03         1.1 0.14                          94.5 295 
 BRR  HZ EP        815 31.23                             134    0.1310  103 358 
 BRR  HN ES        815 47.20                             134    0.4910  103 358 
 BRR  HZ I         815 48.94         3.2 0.46                           103 358 
                                                                                
