 2016 12 9 0622 31.1 L   6.676 -73.222144.4  RSN  4 0.3 1.1LRSN                1
 GAP=203        0.82       6.3     5.9  6.6  0.1798E+02  0.5990E+01  0.2651E+01E
 Epicentro: BARICHARA - SANTANDER                                              3
 ACTION:UPD 17-01-11 20:13 OP:rebc STATUS:               ID:20161209062231 L   I
 OLDACT:REG 16-12-09 12:34 OP:dnl  STATUS:               ID:20161209061741     3
 2016-12-09-0618-00M.COL___367                                                 6
 STAT SP IPHASW D HRMM SECON CODA AMPLIT PERI AZIMU VELO AIN AR TRES W  DIS CAZ7
 BAR2 EZ EP        622 50.13                             176   -0.2010 10.2 154 
 BAR2 EZ ES        623  4.92                             176   -0.4510 10.2 154 
 BAR2 EZ I         623  6.83         9.9 0.88            167           10.2 154 
 BRR  HZ EP        622 52.03                             152   -0.0910 72.1 311 
 BRR  HN ES        623  9.02                             152    0.4810 72.1 311 
 BRR  HZ I         623 10.05         2.1 0.44            150           72.1 311 
 RUS  HZ EP        622 54.22                             147    0.4210 88.0 170 
 RUS  HN ES        623 11.66                             147    0.1210 88.0 170 
 RUS  HZ I         623 14.37         1.2 0.46            145           88.0 170 
 PTB  HZ EP        622 56.73                             134   -0.25 9  137 264 
 PTB  HE ES        623 17.13                             134   -0.07 9  137 264 
 PTB  HZ I         623 25.14         1.6 0.46            131            137 264 
                                                                                
