 2014  7 9 0131 23.3 L   6.808 -73.152146.5  RSN 22 0.6 2.8LRSN                1
 GAP= 55        1.30       3.2     3.2  5.4 -0.1898E+01  0.3284E+01  0.3791E+01E
 Epicentro: LOS SANTOS - SANTANDER                                             3
 ACTION:UPD 15-03-16 20:42 OP:nd   STATUS:               ID:20140709013123 L   I
 OLDACT:REG 14-07-09 12:03 OP:stll STATUS:               ID:20140709012817     3
 2014-07-09-0128-17M.COL___264                                                 6
 STAT SP IPHASW D HRMM SECON CODA AMPLIT PERI AZIMU VELO AIN AR TRES W  DIS CAZ7
 BAR2 SZ IP     C  131 43.20                             170    0.1410 24.1 188 
 BAR2 SZ I         131 43.78        95.4 0.26            171           24.1 188 
 BAR2 SZ ES        131 58.44                             170   -0.0110 24.1 188 
 BRR  HZ EP        131 45.01                             153    0.5210 70.1 298 
 BRR  HZ I         131 46.62        54.4 0.28            148           70.1 298 
 BRR  HN ES        132  2.06                             153    1.0610 70.1 298 
 PAM  SZ IP     C  131 45.99                             151    0.3910 77.1  40 
 PAM  SZ I         131 46.36       201.8 0.28            147           77.1  40 
 PAM  SE ES        132  2.96                             151   -0.0210 77.1  40 
 RUS  HZ IP     D  131 47.14                             144   -0.0810  102 176 
 RUS  HZ I         131 48.35        71.1 0.26            142            102 176 
 RUS  HN ES        132  5.32                             144   -0.5310  102 176 
 PTB  HZ EP     D  131 49.67                             132   -0.64 9  147 258 
 PTB  HE ES        132 10.56                             132   -0.79 9  147 258 
 TAM  HZ IP     C  131 51.47                             131    0.32 9  156 105 
 TAM  HZ I         131 51.95       155.3 0.42            128            156 105 
 TAM  HN ES        132 12.72                             131   -0.12 9  156 105 
 OCA  HZ EP        131 51.22                             130   -0.38 9  159 353 
 OCA  HN ES        132 13.14                             130   -0.51 9  159 353 
 SPBC HZ EP        131 52.08                             129    0.17 9  163 219 
 SPBC HZ I         131 52.57        80.7 0.20            125            163 219 
 SPBC HN ES        132 14.55                             129    0.35 9  163 219 
 ZAR  HZ EP        131 55.48                             123   -0.24 9  203 292 
 ZAR  HE ES        132 21.08                             123    0.10 9  203 292 
 NOR  HZ EP        131 59.16                             119    0.07 8  235 234 
 NOR  HN ES        132 26.83                             119   -0.16 8  235 234 
 CHI  HZ EP        132  1.02                             117   -0.12 8  249 195 
 CHI  HN ES        132 30.60                             117   -0.03 8  249 195 
 ROSC BZ IP     D  132  3.06                             117    1.53 8  253 211 
 ROSC BN ES        132 31.73                             117    0.40 8  253 211 
 HEL  HZ EP        132  4.20                             115    0.67 8  272 256 
 HEL  HN ES        132 34.71                             115   -0.17 8  272 256 
 HEL  HZ I         132 43.89        89.0 0.56            111            272 256 
 GUY2CHZ EP        132  7.54                             112    0.58 7  301 235 
 GUY2CHN ES        132 40.21                             112   -0.79 7  301 235 
 SOCV BZ IP     C  132  5.39                             112   -1.03 7  301  57 
 PTGC HZ IP     D  132  6.29                             112   -1.05 7  310 159 
 RREF HZ EP        132  9.57                             111    0.06 7  322 229 
 RREF HE ES        132 45.44                             111   -0.09 7  322 229 
 DBB  SZ IP     C  132 10.75                             110    0.01 7  339 274 
 DBB  SZ ES        132 47.12                             110   -0.61 7  339 274 
 TOL  SZ EP        132 12.63                             109    1.00 7  344 224 
 ANIL HZ EP        132 14.46                             109    1.28 6  357 224 
 ANIL HE ES        132 50.58                             109   -1.48 6  357 224 
 PRA  HZ EP        132 16.52                             107   -0.40 6  392 209 
 PRA  HN ES        132 58.85                             107    0.12 6  392 209 
 ORTC HZ EP        132 17.48                             106    0.17 6  396 216 
 ORTC HN ES        132 58.89                             106   -0.52 6  396 216 
                                                                                
