 2012  8 9 0247  5.3 L   6.144 -73.669108.0  RSN  4 0.2 1.8LRSN                1
 GAP=175        0.48       2.2     5.7  6.9  0.4602E+01  0.2658E+02  0.7079E+01E
 Epicentro: LA PAZ - SANTANDER                                                 3
 ACTION:UPD 12-09-10 11:55 OP:ep   STATUS:               ID:20120809024705 L   I
 2012-08-09-0240-00M.COL___215                                                 6
 STAT SP IPHASW D HRMM SECON CODA AMPLIT PERI AZIMU VELO AIN AR TRES W  DIS CAZ7
 RUS  HZ EP        247 23.19                             145   -0.0310 70.6 113 
 RUS  HN ES   1    247 36.88                             145   -0.28 7 70.6 113 
 BAR2 SZ EP        247 23.15                             143    0.1010 73.2  47 
 BAR2 SZ ES        247 37.01                             143    0.1510 73.2  47 
 BAR2 SZ I         247 38.21        40.5 0.21                          73.2  47 
 BRR  HZ EP        247 25.21                             132   -0.2710  107 357 
 BRR  HZ I         247 25.59        14.4 0.10                           107 357 
 BRR  HN ES        247 41.25                             132    0.0610  107 357 
 CHI  HZ EP   1    247 32.46                             118    0.31 7  168 182 
 CHI  HN ES   1    247 53.03                             118   -0.02 7  168 182 
 CHI  HZ I         247 56.10         2.5 0.26                           168 182 
                                                                                
