 2015  2 9 0430 26.9 L   6.706 -73.824 85.8  RSN 16 0.6 2.0LRSN                1
 GAP= 56        1.38       2.6     3.1  6.9 -0.1822E+01  0.7383E+01 -0.1113E+01E
 Epicentro: PUERTO PARRA - SANTANDER                                           3
 ACTION:UPD 15-04-30 21:24 OP:nd   STATUS:               ID:20150209043026 L   I
 OLDACT:REG 15-02-09 13:20 OP:fm   STATUS:               ID:20150209042743     3
 2015-02-09-0427-43M.COL___292                                                 6
 STAT SP IPHASW D HRMM SECON CODA AMPLIT PERI AZIMU VELO AIN AR TRES W  DIS CAZ7
 BRR  HZ EP        430 40.68                             149    0.5110 46.0  16 
 BRR  HN ES        430 51.42                             149    0.9210 46.0  16 
 BRR  HZ I         430 53.30        68.2 0.10            150           46.0  16 
 BAR2 EZ EP     C  430 42.94                             137    0.5010 72.0 100 
 BAR2 EZ ES        430 54.96                             137    0.4210 72.0 100 
 BAR2 EZ I         430 56.01        73.2 0.48            138           72.0 100 
 PTB  HZ EP     D  430 42.00                             136   -0.1710 72.4 255 
 PTB  HN ES        430 53.16                             136   -0.8910 72.4 255 
 PTB  HZ I         430 54.09        32.1 0.20            136           72.4 255 
 SPBC HZ EP        430 47.17                             121    0.3110  120 193 
 SPBC HE ES        431  1.41                             121   -1.0010  120 193 
 SPBC HZ I         431  4.65        25.2 0.30            122            120 193 
 RUS  HZ EP        430 47.56                             121   -0.0310  122 138 
 RUS  HE ES        431  2.96                             121   -0.7410  122 138 
 RUS  HZ I         431  5.07         9.7 0.16            122            122 138 
 PAM  SZ EP        430 49.76                             116   -0.08 9  143  61 
 PAM  SE ES        431  7.83                             116    0.12 9  143  61 
 PAM  SZ I         431  9.33        15.6 0.46            117            143  61 
 NOR  HZ EP        430 52.85                             112    0.31 9  171 223 
 NOR  HE ES        431 11.71                             112   -0.81 9  171 223 
 NOR  HZ I         431 16.79        23.4 0.18            112            171 223 
 OCA  HZ EP        430 53.09                             111   -0.39 9  178  18 
 OCA  HE ES        431 13.79                             111   -0.39 9  178  18 
 OCA  HZ I         431 20.74        10.1 0.36            111            178  18 
 HEL  HZ EP        430 57.00                             109    1.08 9  197 253 
 HEL  HN ES        431 19.17                             109    0.64 9  197 253 
 HEL  HZ I         431 22.59        21.9 0.34            109            197 253 
 ROSC BZ EP        430 57.75                             107   -0.14 8  214 195 
 ROSC BE ES        431 22.04                             107    0.01 8  214 195 
 ROSC BZ I         431 29.66         7.3 0.35            107            214 195 
 URE  HZ EP        430 58.87                             106    0.53 8  221 302 
 URE  HE ES        431 22.69                             106   -0.14 8  221 302 
 URE  HZ I         431 28.94        17.5 0.38            106            221 302 
 SML  HZ EP        430 59.20                             105   -0.53 8  233 353 
 SML  HE ES        431 24.50                             105   -0.81 8  233 353 
 SML  HZ I         431 29.13        10.8 0.10            105            233 353 
 GUY2CHZ EP        431  0.56                             105   -0.16 8  237 226 
 GUY2CHN ES        431 27.74                             105    0.66 8  237 226 
 GUY2CHZ I         431 35.47         7.7 0.44                           237 226 
 CBOC HZ EP        431  2.73                             104   -0.35 8  259 249 
 TOL  SZ EP        431  7.39                             102    0.76 7  287 215 
 TOL  SE ES        431 38.04                             102    0.45 7  287 215 
 TOL  SZ I         431 44.41         5.8 0.48            102            287 215 
 MON  HZ EP        431  7.88                             101   -0.62 7  306 319 
 MON  HE ES        431 41.01                             101    0.08 7  306 319 
 MON  HZ I         431 43.94         1.7 0.48            101            306 319 
                                                                                
