 2016  1 9 0506 13.6 L   6.803 -73.155147.9  RSN 14 0.5 1.9LRSN                1
 GAP=135        1.28       3.3     4.5  6.5 -0.2950E+01  0.8565E+01  0.1055E+01E
 Epicentro: LOS SANTOS - SANTANDER                                             3
 ACTION:UPD 16-03-09 23:23 OP:cam  STATUS:               ID:20160109050613 L   I
 OLDACT:UP  16-01-09 15:06 OP:drio STATUS:               ID:20160109045737     3
 OLDACT:REG 16-01-09 12:56 OP:drio STATUS:               ID:20160109045737     3
 2016-01-09-0457-37M.COL___294                                                 6
 STAT SP IPHASW D HRMM SECON CODA AMPLIT PERI AZIMU VELO AIN AR TRES W  DIS CAZ7
 BAR2 EZ EP        5 6 33.31                             171   -0.1710 23.5 187 
 BAR2 EZ ES        5 6 48.97                             171   -0.0210 23.5 187 
 BAR2 EZ I         5 6 50.11        22.3 0.86            171           23.5 187 
 BRR  HZ EP        5 6 35.58                             153    0.6710 70.1 299 
 BRR  HE ES        5 6 52.75                             153    1.2110 70.1 299 
 BRR  HZ I         5 6 57.57         9.5 0.16            152           70.1 299 
 PAM  EZ EP        5 6 35.61                             151   -0.4510 77.8  40 
 PAM  EN ES        5 6 53.11                             151   -0.4710 77.8  40 
 PAM  EZ I         5 6 55.61        11.5 0.58            155           77.8  40 
 RUS  HZ EP        5 6 37.23                             144   -0.3510  101 175 
 RUS  HN ES        5 6 56.37                             144    0.0810  101 175 
 RUS  HZ I         5 6 58.64         8.0 0.54            148            101 175 
 PTB  HZ EP        5 6 40.55                             133   -0.10 9  147 259 
 PTB  HN ES        5 7  1.60                             133   -0.15 9  147 259 
 PTB  HZ I         5 7  8.94        11.1 0.42            134            147 259 
 OCA  HZ EP        5 6 42.69                             130    0.66 9  160 354 
 OCA  HE ES        5 7  3.74                             130   -0.46 9  160 354 
 OCA  HZ I         5 7 15.55         8.8 0.26            133            160 354 
 SPBC HZ EP        5 6 42.60                             130    0.38 9  163 219 
 SPBC HN ES        5 7  4.52                             130   -0.03 9  163 219 
 SPBC HZ I         5 7  9.47        13.6 0.20            132            163 219 
 ZAR  HZ EP   4    5 6 47.78                             123    1.72 0  203 292 
 ZAR  HN ES        5 7 11.43                             123    0.04 9  203 292 
 ZAR  HZ I         5 7 13.61         8.7 0.30            125            203 292 
 NOR  HZ EP        5 6 49.32                             119   -0.06 8  234 234 
 NOR  HN ES        5 7 16.45                             119   -0.84 8  234 234 
 NOR  HZ I         5 7 19.75         5.2 0.28            121            234 234 
 SML  HZ EP        5 6 50.48                             118    0.22 8  243 335 
 SML  HN ES        5 7 18.34                             118   -0.51 8  243 335 
 SML  HZ I         5 7 21.37        11.0 0.30            120            243 335 
 CHI  HZ EP        5 6 51.61                             118    0.19 8  249 195 
 CHI  HN ES        5 7 21.04                             118    0.12 8  249 195 
 CHI  HZ I         5 7 26.68         3.4 0.28            121            249 195 
 HEL  HZ EP        5 6 53.20                             115   -0.61 8  271 256 
 HEL  HN ES        5 7 24.25                             115   -0.93 8  271 256 
 HEL  HZ I         5 7 31.73         4.0 0.28            117            271 256 
 GUY2CHZ EP        5 6 58.67                             113    1.44 7  301 235 
 GUY2CHN ES        5 7 31.05                             113   -0.21 7  301 235 
 GUY2CHZ I         5 7 40.07         4.4 0.74                           301 235 
 CBOC HZ EP   4    5 7  1.47                             110    0.97 0  333 252 
 CBOC HE ES        5 7 37.21                             110    0.13 7  333 252 
 CBOC HZ I         5 7 39.03         1.2 0.40            112            333 252 
                                                                                
