 2011  6 9 0801 50.9 L   6.803 -73.121141.0  RSN 12 0.3 2.3LRSN                1
 GAP=140        0.59       2.6     5.1  4.4 -0.6351E+01  0.7057E+01 -0.7526E-01E
 Epicentro: LOS SANTOS - SANTANDER                                             3
 ACTION:UP  11-07-14 19:04 OP:ep   STATUS:               ID:20110609080150 L   I
 2011-06-09-0759-51S.COL___119                                                 6
 STAT SP IPHASW D HRMM SECON CODA AMPLIT PERI AZIMU VELO SNR AR TRES W  DIS CAZ7
 BAR2 SZ IP        8 2  9.87                             170    -0.110   24 196 
 BAR2 SZ ES   1    8 2 24.43                             170    -0.4 7   24 196 
 BAR2 SZ I         8 2 25.70        51.8 0.30                            24 196 
 GIR2 SZ EP   1    8 2  9.88                             167    -0.1 7   32 345 
 BRR  HZ IP     C  8 2 11.67                             151     0.010   74 297 
 BRR  HZ I         8 2 11.95        99.5 0.19                            74 297 
 BRR  HN ES   2    8 2 28.58                             151     0.8 5   74 297 
 PAM  SZ EP   1    8 2 12.80                             150     0.4 7   75  38 
 PAM  SN ES   1    8 2 29.61                             150     0.3 7   75  38 
 RUS  HZ EP   1    8 2 13.99                             143    -0.2 7  101 178 
 RUS  HN ES   1    8 2 32.29                             143     0.0 7  101 178 
 RUS  HZ I         8 2 34.79        21.7 0.19                           101 178 
 BRI  SZ EP   1    8 2 14.33                             141     0.1 7  107  19 
 BRI  SZ I         8 2 15.17        22.8 0.11                           107  19 
 BRI  SZ ES   1    8 2 32.50                             141     0.1 7  107  19 
 GRA  SZ IP        8 2 15.64                             136     0.110  125  16 
 GRA  SZ I         8 2 17.07        41.0 0.22                           125  16 
 GRA  SZ ES   1    8 2 34.48                             136    -0.4 7  125  16 
 OCA  SZ EP   1    8 2 18.37                             128    -0.4 7  160 352 
 OCA  SZ ES   2    8 2 40.45                             128    -0.2 5  160 352 
 OCA  SZ I         8 2 46.10        39.9 0.17                           160 352 
 NOR  SZ EP   1    8 2 26.36                             117    -0.2 6  237 235 
 NOR  SN ES   2    8 2 54.47                             117     0.0 4  237 235 
 CHI  HZ EP   1    8 2 28.70                             116     0.3 6  250 196 
 CHI  HZ I         8 3  5.11         9.8 0.60                           250 196 
 TOL  SZ EP   2    8 2 39.13                             108     0.0 3  346 225 
 PRA  HZ EP   1    8 2 44.81                             106     0.4 4  394 210 
                                                                                
