 2016  2 9 0719  0.2 L   5.779 -73.892105.8  RSN 17 0.5 2.0LRSN                1
 GAP= 50        1.26       2.8     3.0  6.1 -0.2065E+01  0.4366E+01 -0.2631E+01E
 Epicentro: ALBANIA - SANTANDER                                                3
 ACTION:UPD 16-03-04 21:24 OP:rebc STATUS:               ID:20160209071900 L   I
 OLDACT:REG 16-02-09 13:05 OP:ak   STATUS:               ID:20160209071749     3
 2016-02-09-0717-49M.COL___325                                                 6
 STAT SP IPHASW D HRMM SECON CODA AMPLIT PERI AZIMU VELO AIN AR TRES W  DIS CAZ7
 SPBC HZ EP        719 14.82                             166   -0.0510 24.4 235 
 SPBC HE ES        719 26.59                             166    0.2910 24.4 235 
 SPBC HZ I         719 27.24        48.2 0.26            167           24.4 235 
 RUS  HZ EP        719 19.24                             137   -0.1810 90.5  82 
 RUS  HN ES        719 34.78                             137    0.3810 90.5  82 
 PTB  HZ EP        719 19.10                             132   -0.9210  105 323 
 PTB  HN ES        719 34.78                             132   -0.6910  105 323 
 PTB  HZ I         719 39.32        16.9 0.16            131            105 323 
 NOR  HZ EP        719 20.71                             130    0.0810  111 258 
 NOR  HN ES        719 36.18                             130   -0.3810  111 258 
 NOR  HZ I         719 38.49        23.9 0.26            131            111 258 
 BAR2 EZ EP        719 21.88                             128    0.1810  119  41 
 BAR2 EZ ES        719 38.85                             128    0.3910  119  41 
 BAR2 EZ I         719 41.58        36.0 0.20            128            119  41 
 CHI  HZ EP        719 22.34                             126   -0.4610  128 172 
 CHI  HN ES        719 39.95                             126   -0.4710  128 172 
 CHI  HZ I         719 42.50         6.0 0.52            127            128 172 
 GUY2CHZ EP        719 26.99                             117   -0.71 9  174 249 
 GUY2CHN ES        719 49.75                             117    0.61 9  174 249 
 GUY2CHZ I         719 58.34         4.6 0.60                           174 249 
 HEL  HZ EP        719 29.51                             115    0.57 9  187 284 
 HEL  HN ES        719 51.30                             115   -0.05 9  187 284 
 HEL  HZ I         719 53.09         8.4 0.36            115            187 284 
 ZAR  HZ EP        719 31.13                             110   -0.81 8  218 331 
 ZAR  HN ES        719 56.88                             110    0.18 8  218 331 
 ZAR  HZ I         719 58.03        11.8 0.22            111            218 331 
 ANIL HZ EP        719 33.52                             110    0.95 8  220 230 
 ANIL HE ES        719 58.76                             110    0.95 8  220 230 
 ANIL HZ I         719 59.96        20.8 0.34            111            220 230 
 CBOC HZ EP        719 34.12                             109   -0.04 8  235 272 
 CBOC HN ES        720  0.83                             109    0.19 8  235 272 
 CBOC HZ I         720  3.09         3.6 0.32            109            235 272 
 ORTC HZ EP        719 36.12                             107   -0.26 8  256 216 
 ORTC HN ES        720  4.86                             107    0.27 8  256 216 
 ORTC HZ I         720  8.94         6.3 0.56            107            256 216 
 PTGC HZ EP   9    719 34.95                             106   -2.12 0  262 132 
 PTGC HN ES        720  3.55                                   -0.15 8  262 132 
 PTGC HZ I         720  5.28         7.8 0.34            107            262 132 
 OCA  HZ EP        719 39.25                             105   -0.07 7  279  13 
 OCA  HN ES        720 10.66                             105    0.83 7  279  13 
 OCA  HZ I         720 19.17        12.0 0.36            105            279  13 
 URE  HZ EP   4    719 42.97                             104    3.31 0  284 320 
 URE  HN ES   4    720  8.31                             104   -2.13 0  284 320 
 URE  HZ I         720 10.65         9.7 0.16            105            284 320 
 SML  HZ EP        719 44.86                             101   -0.86 7  335 357 
 SML  HN ES        720 22.12                             101    0.90 7  335 357 
 SML  HZ I         720 25.65         5.4 0.09            101            335 357 
 MON  HZ EP   9    719 49.81                              98   -1.97 0  385 330 
 MON  HN ES        720 30.62                                    0.59 6  385 330 
 MON  HZ I         720 32.28         3.3 0.26             99            385 330 
                                                                                
