 2013  9 9 0136  8.7 L   6.843 -73.139145.7  RSN 10 0.5 2.1LRSN                1
 GAP=135        1.08       3.6     4.7  7.1 -0.2086E+01  0.6375E+01  0.3363E+01E
 Epicentro: LOS SANTOS - SANTANDER                                             3
 ACTION:UPD 13-10-22 09:21 OP:ep   STATUS:               ID:20130909013608 L   I
 OLDACT:REG 13-09-09 08:02 OP:carl STATUS:               ID:20130909012959     3
 2013-09-09-0129-59M.COL___269                                                 6
 STAT SP IPHASW D HRMM SECON CODA AMPLIT PERI AZIMU VELO AIN AR TRES W  DIS CAZ7
 BAR2 SZ EP        136 28.33                             169   -0.1210 28.1 190 
 BAR2 SZ ES   1    136 43.63                             169   -0.20 7 28.1 190 
 BAR2 SZ I         136 44.42        28.4 0.24            167           28.1 190 
 BRR  HZ IP     C  136 30.10                             153    0.3310 69.7 295 
 BRR  HN ES   1    136 47.16                             153    0.96 7 69.7 295 
 BRR  HZ I         136 50.24        27.9 0.36            152           69.7 295 
 PAM  SZ EP        136 31.00                             152    0.3110 73.3  41 
 PAM  SN ES   1    136 47.95                             152    0.12 7 73.3  41 
 PAM  SZ I         136 49.95        26.5 0.44            157           73.3  41 
 RUS  HZ EP        136 32.67                             142   -0.1310  105 177 
 RUS  HN ES   1    136 51.17                             142   -0.42 7  105 177 
 RUS  HZ I         136 52.63         8.3 0.40            144            105 177 
 PTB  HZ EP        136 35.10                             132   -0.73 9  149 257 
 PTB  HN ES   1    136 55.94                             132   -1.04 7  149 257 
 PTB  HZ I         136 58.66        15.3 0.12            132            149 257 
 OCA  HZ EP   1    136 36.39                             130   -0.20 7  156 353 
 OCA  HN ES   1    136 57.60                             130   -0.73 7  156 353 
 OCA  HZ I         137  2.15         8.1 0.28            133            156 353 
 SPBC HZ EP        136 37.70                             128    0.10 9  167 218 
 SPBC HE ES        137  0.86                             128    0.73 9  167 218 
 SPBC HZ I         137  7.92        19.2 0.20            129            167 218 
 ZAR  HZ EP        136 41.38                             122    0.33 9  203 291 
 ZAR  HE ES        137  6.10                             122   -0.16 9  203 291 
 ZAR  HZ I         137 11.72        19.8 0.48            124            203 291 
 NOR  HZ EP        136 45.48                             118    0.68 8  238 234 
 NOR  HE ES        137 12.94                             118   -0.01 8  238 234 
 NOR  HZ I         137 19.06        12.9 0.78            119            238 234 
 CHI  HZ EP        136 46.84                             117   -0.09 8  253 195 
 CHI  HN ES        137 16.33                             117   -0.40 8  253 195 
 CHI  HZ I         137 24.40         5.3 0.44            118            253 195 
                                                                                
