 2012  4 9 0850 14.6 L   7.545 -73.337124.0  RSN  6 0.3 1.5LRSN                1
 GAP=200        0.58       5.8     3.2  5.8  0.3167E+01  0.3818E+01 -0.4101E+01E
 Epicentro: EL PLAYON - SANTANDER                                              3
 ACTION:UPD 12-07-05 11:52 OP:tino STATUS:               ID:20120409085014 L   I
 2012-04-09-0850-00M.COL___196                                                 6
 STAT SP IPHASW D HRMM SECON CODA AMPLIT PERI AZIMU VELO AIN AR TRES W  DIS CAZ7
 BRR  HZ EP   1    850 32.98                             151     0.0 8   64 221 
 BRR  HE ES   1    850 47.46                             151     0.1 8   64 221 
 BRR  HZ I         850 48.12        11.3 0.14                            64 221 
 PAM  SZ EP   1    850 34.27                             147    -0.1 8   74 108 
 PAM  SN ES   1    850 49.57                             147    -0.2 8   74 108 
 BAR2 SZ EP        850 36.82                             137     0.410  107 171 
 BAR2 SZ ES   1    850 53.38                             137    -0.1 7  107 171 
 PTB  HZ EP   1    850 41.51                             123    -0.3 7  166 228 
 PTB  HN ES   2    851  2.30                             123    -0.7 5  166 228 
 PTB  HZ I         851  5.31         2.1 0.24                           166 228 
 ZAR  HZ EP   1    850 41.69                             123    -0.3 7  168 268 
 ZAR  HN ES   1    851  3.56                             123     0.3 7  168 268 
 ZAR  HZ I         851  4.68         4.8 0.24                           168 268 
 RUS  HZ EP   1    850 44.46                             120     0.1 7  185 171 
                                                                                
