 2016  7 9 0218  7.3 L   6.258 -73.187150.7  RSN  5 0.4 1.4LRSN                1
 GAP=163        0.96       7.2     6.0  8.2 -0.3303E+01  0.1049E+02 -0.1925E+02E
 Epicentro: CHARALA - SANTANDER                                                3
 ACTION:UPD 17-03-29 16:48 OP:lp   STATUS:               ID:20160709021807 L   I
 OLDACT:REG 16-07-09 12:48 OP:edw  STATUS:               ID:20160709020746     3
 2016-07-09-0207-46M.COL___338                                                 6
 STAT SP IPHASW D HRMM SECON CODA AMPLIT PERI AZIMU VELO AIN AR TRES W  DIS CAZ7
 BAR2 EZ EP        218 27.98                             166    0.0910 36.9   1 
 BAR2 EZ ES        218 44.13                             166    0.2010 36.9   1 
 BAR2 EZ I         218 46.50         7.8 0.16            169           36.9   1 
 RUS  HZ EP        218 27.90                             164   -0.5310 42.0 164 
 RUS  HN ES        218 44.93                             164    0.0410 42.0 164 
 RUS  HZ I         218 53.83         4.5 0.32            165           42.0 164 
 BRR  HZ EP        218 31.47                             142   -0.1110  110 328 
 BRR  HN ES   4    218 49.21                             142   -1.29 0  110 328 
 SPBC HN ES        218 52.10                             140    0.2210  119 236 
 PTB  HZ EP        218 35.00                             134    0.65 9  144 283 
 PTB  HN ES        218 54.88                             134   -0.55 9  144 283 
 PTB  HZ I         219  2.84         1.7 0.12            138            144 283 
 PTGC HZ EP   4    218 43.22                             117   -2.34 0  256 153 
 PTGC HN ES   4    219 10.17                             117   -5.21 0  256 153 
                                                                                
