 2011  5 9 0209 47.0 L   6.755 -73.089134.8  RSN  8 0.3 1.8LRSN                1
 GAP=163        0.73       3.4     5.3  5.5 -0.5822E+01  0.5205E+01  0.1768E+01E
 Epicentro: LOS SANTOS - SANTANDER                                             3
 ACTION:UP  11-06-29 08:51 OP:tino STATUS:               ID:20110509020948dL   I
 2011-05-09-0209-46S.COL___131                                                 6
 STAT SP IPHASW D HRMM SECON CODA AMPLIT PERI AZIMU VELO AIN AR TRES W  DIS CAZ7
 BAR2 SZ EP        210  5.55                             171     0.310   21 210 
 BAR2 SZ ES   1    210 18.99                             171    -0.5 7   21 210 
 BAR2 SZ I         210 21.45        15.8 0.26                            21 210 
 BRR  HZ EP        210  7.37                             148    -0.110   79 300 
 BRR  HN ES   1    210 24.11                             148     0.6 7   79 300 
 BRR  HZ I         210 27.62        11.6 0.16                            79 300 
 RUS  HZ EP        210  9.66                             143     0.310   95 180 
 RUS  HN ES   1    210 26.71                             143     0.0 7   95 180 
 RUS  HZ I         210 29.96        11.7 0.42                            95 180 
 BRI  SZ EP   2    210 10.05                             138    -0.1 5  111  17 
 GRA  SZ EP        210 11.39                             134    -0.210  129  14 
 GRA  SZ ES   1    210 30.65                             134    -0.1 7  129  14 
 GRA  SZ I         210 31.97         9.5 0.29                           129  14 
 NOR  SZ EP        210 22.34                             116    -0.1 8  237 236 
 NOR  SN ES   2    210 49.11                             116    -0.9 4  237 236 
 HEL  HZ EP   2    210 27.28                             112     0.0 4  277 257 
 HEL  HN ES   2    210 58.44                             112    -0.2 4  277 257 
 HEL  HZ I         211  4.29         4.0 0.36                           277 257 
 PRA  HZ EP        210 39.97                             105    -0.1 6  391 211 
 PRA  HN ES   1    211 21.61                             105     0.2 4  391 211 
                                                                                
