 2012 12 9 0955 32.8 L   6.835 -73.165139.2  RSN  4 0.3 1.4LRSN                1
 GAP=190        0.62       4.5     6.6  7.8  0.6026E+01  0.2083E+02 -0.9282E+01E
 Epicentro: LOS SANTOS - SANTANDER                                             3
 ACTION:UPD 13-01-04 14:26 OP:ep   STATUS:               ID:20121209095532 L   I
 2012-12-09-0950-00M.COL___243                                                 6
 STAT SP IPHASW D HRMM SECON CODA AMPLIT PERI AZIMU VELO AIN AR TRES W  DIS CAZ7
 BAR2 SZ EP        955 51.76                             168    0.0110 27.0 184 
 BAR2 SZ ES   1    956  6.31                             168   -0.19 7 27.0 184 
 BAR2 SZ I         956  7.70         8.7 0.30                          27.0 184 
 OCA  HN ES   1    956 22.06                             129    0.44 7  156 354 
 ZAR  HZ EP        956  4.80                             121    0.31 9  201 291 
 ZAR  HN ES   1    956 29.17                             121   -0.02 6  201 291 
 ZAR  HZ I         956 36.18         1.5 0.34                           201 291 
 SML  HZ EP   1    956  8.09                             116   -0.52 6  239 335 
 SML  HN ES   1    956 36.11                             116   -0.40 6  239 335 
 SML  HZ I         956 41.36         2.5 0.38                           239 335 
                                                                                
