 2013 12 9 0005 54.3 L   6.684 -73.259137.7  RSN  5 0.5 1.2LRSN                1
 GAP=161        1.10       8.4     7.7 10.3  0.2292E+02  0.1671E+02 -0.2055E+02E
 Epicentro: BARICHARA - SANTANDER                                              3
 ACTION:UPD 14-01-13 10:16 OP:ep   STATUS:               ID:20131209000554 L   I
 OLDACT:REG 13-12-09 06:08 OP:jn   STATUS:               ID:20131209000000     3
 2013-12-09-0000-00M.COL___285                                                 6
 STAT SP IPHASW D HRMM SECON CODA AMPLIT PERI AZIMU VELO AIN AR TRES W  DIS CAZ7
 BAR2 SZ EP   1    0 6 11.84                             174   -0.91 7 13.2 140 
 BAR2 SZ ES        0 6 27.69                             174    0.5210 13.2 140 
 BAR2 SZ I         0 6 28.31         5.5 0.16            177           13.2 140 
 BRR  HZ EP        0 6 14.33                             152   -0.0610 68.6 313 
 BRR  HN ES   4    0 6 31.10                             152    1.01 0 68.6 313 
 BRR  HZ I         0 6 36.74         3.1 0.16            151           68.6 313 
 RUS  HZ EP        0 6 16.92                             146    0.4810 89.6 167 
 RUS  HN ES        0 6 33.20                             146   -0.5310 89.6 167 
 RUS  HZ I         0 6 35.38         1.6 0.44            153           89.6 167 
 PTB  HZ EP        0 6 19.60                             133    0.3310  133 263 
 PTB  HE ES        0 6 38.62                             133   -0.1610  133 263 
 SML  HN ES   2    0 6 59.78                             115   -0.27 4  251 339 
                                                                                
