 2013  4 9 0041  9.7 L   6.727 -73.186146.6  RSN  5 0.4 1.8LRSN                1
 GAP=174        1.16       7.1     7.5  8.3  0.1439E+02  0.1083E+02  0.8968E+01E
 Epicentro: VILLANUEVA - SANTANDER                                             3
 ACTION:UPD 13-05-22 14:36 OP:EP   STATUS:               ID:20130409004109 L   I
 2013-04-09-0038-48M.COL___224                                                 6
 STAT SP IPHASW D HRMM SECON CODA AMPLIT PERI AZIMU VELO AIN AR TRES W  DIS CAZ7
 BAR2 SZ EP        041 29.14                             174   -0.1010 14.9 179 
 BAR2 SZ ES        041 44.29                             174   -0.2310 14.9 179 
 BAR2 SZ I         041 45.83        14.3 0.26            174           14.9 179 
 GIR2 SZ EP        041 29.61                             164   -0.0410 38.9 359 
 GIR2 SZ ES        041 44.59                             164   -0.6610 38.9 359 
 GIR2 SZ I         041 46.63         7.0 0.42            165           38.9 359 
 BRR  HZ EP        041 31.37                             152    0.4410 71.8 306 
 BRR  HN ES        041 48.39                             152    0.8710 71.8 306 
 BRR  HN I         041 48.72        21.4 0.22            152           71.8 306 
 RUS  HZ EP        041 32.91                             146   -0.0410 92.9 173 
 RUS  HN ES        041 51.53                             146    0.4110 92.9 173 
 PTB  HZ EP        041 35.91                             133   -0.27 9  142 262 
 PTB  HN ES        041 56.41                             133   -0.45 9  142 262 
 PTB  HE I         041 59.42         7.2 0.20            134            142 262 
                                                                                
