 2012  1 9 0836 53.7 L   5.921 -73.756115.1  RSN  7 0.3 1.5LRSN                1
 GAP=160        0.68       5.0     3.2  7.6 -0.5523E+01  0.1442E+01  0.1405E+01E
 Epicentro: GUAVATA - SANTANDER                                                3
 ACTION:UP  12-02-03 08:15 OP:REBC STATUS:               ID:20120109083653 L   I
 2012-01-09-0830-00M.COL___186                                                 6
 STAT SP IPHASW D HRMM SECON CODA AMPLIT PERI AZIMU VELO SNR AR TRES W  DIS CAZ7
 RUS  HZ EP   1    837 12.60                             145     0.1 7   75  92 
 RUS  HE ES   2    837 26.70                             145    -0.6 5   75  92 
 RUS  HZ I         837 28.32         3.0 0.22                            75  92 
 BAR2 SZ IP        837 14.10                             137     0.110   98  41 
 BAR2 SZ I         837 14.41        17.4 0.25                            98  41 
 BAR2 SZ ES   2    837 30.26                             137     0.5 5   98  41 
 PTB  HZ EP   1    837 13.61                             135    -0.5 7  103 311 
 PTB  HN ES   1    837 29.89                             135    -0.2 7  103 311 
 NOR  SZ EP   1    837 16.78                             128     0.2 7  129 252 
 NOR  SN ES   1    837 34.60                             128     0.1 7  129 252 
 BRR  HZ EP        837 16.40                             127    -0.310  131   2 
 BRR  HN ES   2    837 35.27                             127     0.6 5  131   2 
 BRR  HZ I         837 37.52         7.2 0.15                           131   2 
 GIR2 SZ EP   1    837 18.21                             125     0.2 7  142  26 
 HEL  HZ EP        837 24.31                             116     0.1 9  199 279 
 HEL  HN ES   2    837 48.13                             116     0.1 4  199 279 
 HEL  HZ I         837 51.38         2.8 0.37                           199 279 
                                                                                
