 2013 12 9 0337  1.1 L   6.755 -73.134145.8  RSN  7 0.5 1.5LRSN                1
 GAP=140        1.29       6.1     6.1  8.8 -0.1109E+02  0.9583E+01  0.6986E+01E
 Epicentro: LOS SANTOS - SANTANDER                                             3
 ACTION:UPD 14-01-13 10:16 OP:ep   STATUS:               ID:20131209033701 L   I
 OLDACT:REG 13-12-09 06:16 OP:jn   STATUS:               ID:20131209033000     3
 2013-12-09-0330-00M.COL___285                                                 6
 STAT SP IPHASW D HRMM SECON CODA AMPLIT PERI AZIMU VELO AIN AR TRES W  DIS CAZ7
 BAR2 SZ EP        337 20.90                             172    0.2210 18.8 197 
 BAR2 SZ ES        337 35.98                             172    0.0510 18.8 197 
 BAR2 SZ I         337 37.12        10.5 0.16            172           18.8 197 
 BRR  HZ EP        337 22.81                             151    0.3210 74.8 301 
 BRR  HN ES        337 39.84                             151    0.6910 74.8 301 
 BRR  HZ I         337 43.47         7.4 0.24            150           74.8 301 
 PAM  SZ EP        337 23.85                             150    0.3110 80.5  37 
 PAM  SN ES        337 40.37                             150   -0.6410 80.5  37 
 PAM  SZ I         337 42.64         3.5 0.20            153           80.5  37 
 RUS  HZ EP        337 24.74                             145    0.2210 95.5 177 
 RUS  HN ES        337 42.37                             145   -0.4010 95.5 177 
 RUS  HZ I         337 44.31         2.6 0.20            148           95.5 177 
 PTB  HZ EP        337 27.08                             132   -1.06 9  148 261 
 PTB  HN ES        337 48.72                             132   -0.48 9  148 261 
 PTB  HZ I         337 54.71         4.8 0.46            132            148 261 
 SPBC HZ EP        337 29.69                             130    0.34 9  160 220 
 SPBC HN ES   1    337 52.21                             130    0.85 7  160 220 
 SPBC HZ I         337 54.02         4.6 0.10            131            160 220 
 NOR  HN ES        338  4.22                             119   -0.17 8  233 236 
                                                                                
