 2017  3 9 0038 24.5 L   6.765 -73.103150.0  RSN 11 0.4 1.7LRSN                1
 GAP=124        0.92       3.8     4.1  5.4 -0.1035E+01 -0.1262E+01  0.2817E+01E
 Epicentro: LOS SANTOS - SANTANDER                                             3
 ACTION:UPD 17-05-25 18:38 OP:jn   STATUS:               ID:20170309003824 L   I
 OLDACT:UP  17-03-09 13:15 OP:and  STATUS:               ID:20170309003745     3
 OLDACT:UP  17-03-09 13:15 OP:and  STATUS:               ID:20170309003745     3
 OLDACT:UP  17-03-09 13:14 OP:and  STATUS:               ID:20170309003745     3
 OLDACT:UP  17-03-09 13:14 OP:and  STATUS:               ID:20170309003745     3
 OLDACT:UP  17-03-09 13:13 OP:and  STATUS:               ID:20170309003745     3
 OLDACT:UP  17-03-09 13:12 OP:and  STATUS:               ID:20170309003745     3
 OLDACT:REG 17-03-09 12:25 OP:and  STATUS:               ID:20170309003745     3
 2017-03-09-0038-00M.COL___397                                                 6
 STAT SP IPHASW D HRMM SECON CODA AMPLIT PERI AZIMU VELO AIN AR TRES W  DIS CAZ7
 BAR2 EZ EP        038 44.53                             172   -0.0910 21.0 205 
 BAR2 EZ ES        038 59.72                             172   -0.5710 21.0 205 
 BAR2 EZ I         039  1.96        11.6 0.26            166           21.0 205 
 BRR  HZ IP     C  038 46.36                             151   -0.1210 77.3 299 
 BRR  HE ES        039  4.27                             151    0.6710 77.3 299 
 BRR  HZ I         039 25.37         9.8 0.26            142           77.3 299 
 PAM  EZ EP     C  038 47.27                             151    0.0610 77.6  35 
 PAM  EN ES        039  4.75                             151   -0.1510 77.6  35 
 PAM  EZ I         039  9.42         4.6 0.20            151           77.6  35 
 RUS  HZ EP        038 48.72                             146    0.3110 96.4 179 
 RUS  HN ES        039  7.13                             146    0.1010 96.4 179 
 RUS  HZ I         039  8.35         7.3 0.32            145           96.4 179 
 PTB  HZ EP   9    038 51.22                             132   -0.98 0  152 261 
 PTB  HN ES        039 12.46                             133   -0.34 9  152 261 
 PTB  HZ I         039 19.76         6.3 0.34            126            152 261 
 SPBC HZ EP        038 53.59                             130    0.23 9  163 221 
 SPBC HN ES        039 16.13                             130    0.28 9  163 221 
 SPBC HZ I         039 22.61         9.6 0.20            126            163 221 
 ZAR  HZ EP   2    038 58.60                             122    0.75 4  210 293 
 ZAR  HN ES        039 23.32                             122   -0.53 8  210 293 
 ZAR  HZ I         039 29.61         7.5 0.32            117            210 293 
 NOR  HN ES   2    039 28.33                             119   -0.55 4  236 236 
 NOR  HZ I         039 33.09         3.7 0.20            115            236 236 
 PTGC HZ EP        039  7.34                             113   -0.63 7  303 159 
 GUY2CHZ EP   9    039 12.94                             113    4.42 0  303 236 
 GUY2CHN ES        039 46.78                             112   -0.48 7  303 236 
 GUY2CHZ  IAML     039 50.77         2.1 0.44                           303 236 
 PRA  HZ EP   4    039 19.26                             107    1.18 0  391 210 
 PRA  HZ I         039 57.34         2.2 0.24            105            391 210 
 SJC  HZ EP   4    039 19.38                             106   -1.54 0  415 327 
 SJC  HN ES   4    040  2.00                             106   -2.90 0  415 327 
                                                                                
