 2015  2 9 0205 14.9 L   6.699 -73.520 18.1  RSN  8 0.6 1.3LRSN                1
 GAP= 74        1.55       3.2     3.1  6.0  0.1134E+01  0.8235E+01  0.4960E+01E
 Epicentro: EL CARMEN - SANTANDER                                              3
 ACTION:UPD 15-04-30 21:24 OP:nd   STATUS:               ID:20150209020514 L   I
 OLDACT:REG 15-02-09 13:09 OP:fm   STATUS:               ID:20150209015746     3
 2015-02-09-0157-46M.COL___296                                                 6
 STAT SP IPHASW D HRMM SECON CODA AMPLIT PERI AZIMU VELO AIN AR TRES W  DIS CAZ7
 BAR2 EZ EP        2 5 22.49                             113    0.3510 39.2 108 
 BAR2 EZ ES        2 5 27.58                             113   -0.1810 39.2 108 
 BAR2 EZ I         2 5 28.55        16.5 0.32            110           39.2 108 
 BRR  HZ EP        2 5 23.56                             107    0.1610 49.8 335 
 BRR  HE ES        2 5 29.81                             107   -0.1910 49.8 335 
 BRR  HZ I         2 5 30.64        33.0 0.10            107           49.8 335 
 RUS  HZ EP        2 5 32.11                              99    0.5410  101 152 
 RUS  HE ES        2 5 43.83                              99   -0.7210  101 152 
 RUS  HZ I         2 5 52.62         2.3 0.18             97            101 152 
 PTB  HZ EP        2 5 31.98                              98    0.3710  105 260 
 PTB  HN ES        2 5 44.49                              98   -0.1210  105 260 
 PTB  HZ I         2 5 47.00        14.4 0.20             97            105 260 
 PAM  SZ EP        2 5 34.34                              97    0.7410  115  52 
 PAM  SN ES        2 5 47.13                              97   -1.0210  115  52 
 PAM  SZ I         2 5 48.70         9.2 0.38             97            115  52 
 SPBC HZ EP        2 5 35.99                              56    0.5310  131 208 
 SPBC HN ES        2 5 51.70                              56    0.2210  131 208 
 SPBC HZ I         2 5 57.32         4.6 0.34             56            131 208 
 OCA  HN ES   1    2 6  1.29                              56    0.62 7  172   7 
 HEL  HZ EP        2 5 48.32                              56    0.24 8  229 256 
 HEL  HN ES        2 6 12.33                              56   -1.61 8  229 256 
 HEL  HZ I         2 6 17.15         3.2 0.18             56            229 256 
                                                                                
