 2017  5 9 0449 52.9 L   6.782 -73.180148.4  RSN  5 0.3 1.5LRSN                1
 GAP=133        0.91       4.7     4.1  7.2  0.1727E+01  0.6502E+01  0.9253E+00E
 Epicentro: LOS SANTOS - SANTANDER                                             3
 ACTION:UPD 17-06-16 13:34 OP:jn   STATUS:               ID:20170509044952 L   I
 OLDACT:REG 17-05-09 12:49 OP:lv   STATUS:               ID:20170509044744     3
 2017-05-09-0448-00M.COL___356                                                 6
 STAT SP IPHASW D HRMM SECON CODA AMPLIT PERI AZIMU VELO AIN AR TRES W  DIS CAZ7
 BRR  HZ EP        450 14.29                             154    0.1310 68.9 302 
 BRR  HN ES        450 31.34                             154    0.5610 68.9 302 
 BRR  HZ I         450 35.40                             153           68.9 302 
 PAM  EZ EP        450 15.36                             150   -0.2310 81.4  41 
 PAM  EN ES        450 33.17                             150   -0.1510 81.4  41 
 PAM  EZ I         450 35.10         5.2 0.27            155           81.4  41 
 RUS  HZ EP        450 17.34                             145    0.6010 98.9 174 
 RUS  HN ES        450 34.92                             145   -0.4610 98.9 174 
 RUS  HZ I         450 37.49         2.3 0.13            149           98.9 174 
 PTB  HZ EP        450 19.51                             133   -0.16 9  144 259 
 PTB  HN ES        450 40.59                             133    0.01 9  144 259 
 PTB  HZ I         450 45.98         5.0 0.31            135            144 259 
 ZAR  HZ EP        450 25.20                             123    0.01 9  201 293 
 ZAR  HN ES        450 49.96                             123   -0.45 9  201 293 
 ZAR  HZ I         450 55.85         7.4 0.07            125            201 293 
                                                                                
