 2013  2 9 0714 37.6 L   6.755 -73.431123.9  RSN  5 0.4 1.6LRSN                1
 GAP=163        0.85       7.0    12.8  8.5  0.6606E+02 -0.2470E+02 -0.2309E+02E
 Epicentro: EL CARMEN DE CHUCURI - SANTANDER                                   3
 ACTION:UPD 13-03-12 09:31 OP:ep   STATUS:               ID:20130209071437 L   I
 2013-02-09-0710-00M.COL___240                                                 6
 STAT SP IPHASW D HRMM SECON CODA AMPLIT PERI AZIMU VELO AIN AR TRES W  DIS CAZ7
 BAR2 SZ IP        714 54.83                             164   -0.0110 32.8 123 
 BAR2 SZ ES   1    715  7.67                             164   -0.65 7 32.8 123 
 BAR2 SZ I         715  9.16        29.3 0.23             95           32.8 123 
 BRR  HZ EP   1    714 55.22                             157    0.04 7 49.8 321 
 BRR  HN ES   1    715  9.32                             157    0.39 7 49.8 321 
 BRR  HN I         715  9.93        16.7 0.21             97           49.8 321 
 RUS  HZ EP   1    714 59.77                             138    0.35 7  103 158 
 RUS  HN ES   1    715 16.40                             138   -0.06 7  103 158 
 RUS  HN I         715 18.58         6.0 0.21             93            103 158 
 PAM  SZ EP   1    714 59.95                             138    0.49 7  103  51 
 PAM  SZ I         715 23.07         2.9 0.38             91            103  51 
 SML  HZ EP   1    715 11.33                             113   -0.98 6  237 343 
 SML  HE ES   1    715 39.57                             113    0.16 6  237 343 
                                                                                
