 2016 12 9 0100 31.2 L   6.800 -73.173146.8  RSN  5 0.3 1.2LRSN                1
 GAP=133        0.67       4.0     3.7  7.2 -0.5520E+01  0.1000E+02  0.1104E+00E
 Epicentro: LOS SANTOS - SANTANDER                                             3
 ACTION:UPD 17-01-11 20:13 OP:rebc STATUS:               ID:20161209010031 L   I
 OLDACT:REG 16-12-09 12:16 OP:dnl  STATUS:               ID:20161209005741     3
 2016-12-09-0058-00M.COL___372                                                 6
 STAT SP IPHASW D HRMM SECON CODA AMPLIT PERI AZIMU VELO AIN AR TRES W  DIS CAZ7
 PAM  EZ EP        1 0 53.97                             150    0.3210 79.4  41 
 PAM  EN ES        1 1 10.82                             150   -0.3310 79.4  41 
 PAM  EZ I         1 1 12.70         2.0 0.16            153           79.4  41 
 RUS  HZ EP        1 0 55.06                             144   -0.0110  101 174 
 RUS  HN ES        1 1 13.83                             144    0.1410  101 174 
 RUS  HZ I         1 1 14.94         1.8 0.46            146            101 174 
 PTB  HZ EP        1 0 57.91                             133   -0.07 9  145 259 
 PTB  HE ES        1 1 19.11                             133    0.24 9  145 259 
 PTB  HZ I         1 1 21.20         3.2 0.14            135            145 259 
 ZAR  HE ES   3    1 1 29.14                             123    0.58 2  201 292 
 GUY2CHZ EP   4    1 1 16.67                             113    2.09 0  299 234 
 GUY2CHE ES        1 1 47.85                             113   -0.56 7  299 234 
 GUY2CHZ I         1 2  1.57         1.3 0.60                           299 234 
                                                                                
