 2017  9 9 0816 40.0 L   6.771 -73.124140.0  RSN  6 0.4 1.3LRSN                1
 GAP=141        0.88       3.9     4.5  7.1 -0.1391E+01  0.8141E+01 -0.2275E+01E
 Epicentro: LOS SANTOS - SANTANDER                                             3
 ACTION:UPD 17-10-05 19:10 OP:rebc STATUS:               ID:20170909081640 L   I
 OLDACT:DUP 17-09-09 16:49 OP:dnl  STATUS:               ID:20170909080740d    3
 2017-09-09-0808-00M.COL___410                                                 6
 STAT SP IPHASW D HRMM SECON CODA AMPLIT PERI AZIMU VELO AIN AR TRES W  DIS CAZ7
 BAR2 EZ EP        816 58.67                             171   -0.2210 20.8 198 
 BAR2 EZ ES        817 13.28                             171   -0.3410 20.8 198 
 BAR2 EZ I         817 15.17         6.7 0.32            170           20.8 198 
 BRR  HZ EP        817  0.61                             150   -0.1310 74.8 300 
 BRR  HN ES        817 17.58                             150    0.6610 74.8 300 
 BRR  HZ I         817 19.18         4.5 0.12            147           74.8 300 
 PAM  EZ EP        817  1.71                             150    0.0410 78.5  37 
 PAM  EN ES        817 18.48                             150   -0.0910 78.5  37 
 PAM  EZ I         817 20.18         2.3 0.44            152           78.5  37 
 RUS  HZ EP   2    817  3.52                             144    0.58 5 97.2 177 
 RUS  HN ES        817 21.14                             144    0.3010 97.2 177 
 RUS  HZ I         817 22.08         2.0 0.18            145           97.2 177 
 SPBC HZ EP   2    817  7.13                             128   -0.84 5  162 220 
 SPBC HE ES        817 29.68                             128   -0.10 9  162 220 
 SPBC HZ I         817 33.20         3.3 0.20            128            162 220 
 ZAR  HZ EP   2    817 13.47                             121    1.04 4  207 293 
 ZAR  HN ES        817 37.33                             121   -0.40 8  207 293 
 ZAR  HZ I         817 45.59         2.7 0.32            120            207 293 
                                                                                
