 2012  8 9 0434 56.1 L   6.659 -73.219150.2  RSN  4 0.1 1.3LRSN                1
 GAP=199        0.42       3.7     3.4  3.8  0.5940E+01  0.1704E+01  0.2221E+01E
 Epicentro: BARICHARA - SANTANDER                                              3
 ACTION:UPD 12-09-10 11:55 OP:ep   STATUS:               ID:20120809043456 L   I
 2012-08-09-0430-00M.COL___215                                                 6
 STAT SP IPHASW D HRMM SECON CODA AMPLIT PERI AZIMU VELO AIN AR TRES W  DIS CAZ7
 BAR2 SZ ES   1    435 31.47                             177   -0.18 7 8.39 151 
 BAR2 SZ I         435 32.65        10.2 0.26                          8.39 151 
 BRR  HZ EP        435 17.85                             152   -0.0410 73.7 312 
 BRR  HZ I         435 18.46         4.2 0.13                          73.7 312 
 BRR  HN ES        435 34.98                             152    0.1110 73.7 312 
 RUS  HZ EP        435 19.22                             149   -0.1110 86.0 170 
 RUS  HE ES   1    435 37.65                             149    0.21 7 86.0 170 
 RUS  HZ I         435 39.73         2.2 0.23                          86.0 170 
 PTB  HZ EP        435 22.71                             135    0.16 9  137 265 
 PTB  HN ES        435 43.03                             135   -0.14 9  137 265 
 PTB  HZ I         435 51.48         2.2 0.52                           137 265 
                                                                                
