 2012  1 9 0930 16.0 L   6.754 -73.230151.1  RSN  4 0.2 1.3LRSN                1
 GAP=217        0.53       5.9     6.0  7.4  0.1692E+02 -0.1218E+01 -0.2871E+01E
 Epicentro: ZAPATOCA - SANTANDER                                               3
 ACTION:UP  12-02-03 08:15 OP:REBC STATUS:               ID:20120109093016 L   I
 2012-01-09-0930-00M.COL___186                                                 6
 STAT SP IPHASW D HRMM SECON CODA AMPLIT PERI AZIMU VELO SNR AR TRES W  DIS CAZ7
 BAR2 SZ EP   2    930 35.87                             173    -0.4 5   19 163 
 BAR2 SZ I         930 52.52         3.3 0.13                            19 163 
 BRR  HZ EP   1    930 37.30                             155    -0.2 7   66 306 
 BRR  HN ES   1    930 54.41                             155     0.2 7   66 306 
 BRR  HZ I         930 55.68         5.1 0.14                            66 306 
 RUS  HZ EP   2    930 40.13                             146     0.1 5   97 170 
 RUS  HN ES   1    930 58.80                             146     0.0 7   97 170 
 PTB  HZ EP   1    930 42.89                             135     0.3 7  138 260 
 PTB  HN ES   1    931  3.01                             135    -0.2 7  138 260 
 PTB  HZ I         931  5.86         0.0 0.13                           138 260 
                                                                                
