 2013 11 9 0813 22.7 L   6.773 -73.126140.8  RSN  6 0.6 1.4LRSN                1
 GAP=237        1.49       8.2     8.5 10.1  0.7729E+01  0.2278E+02  0.1502E+02E
 Epicentro: LOS SANTOS - SANTANDER                                             3
 ACTION:UPD 14-01-09 16:26 OP:ep   STATUS:               ID:20131109081322 L   I
 OLDACT:UP  13-11-09 13:26 OP:stll STATUS:               ID:20131109080848     3
 OLDACT:REG 13-11-09 08:21 OP:stll STATUS:               ID:20131109080848     3
 2013-11-09-0808-48M.COL___209                                                 6
 STAT SP IPHASW D HRMM SECON CODA AMPLIT PERI AZIMU VELO AIN AR TRES W  DIS CAZ7
 BAR2 SZ EP        813 41.77                             171    0.0810 20.9 197 
 BAR2 SZ ES        813 56.15                             171   -0.3510 20.9 197 
 BRR  HZ EP        813 43.66                             151    0.1410 74.6 300 
 BRR  HN ES        814  0.63                             151    0.8710 74.6 300 
 RUS  HZ EP        813 45.47                             144   -0.2710 97.4 177 
 RUS  HN ES        814  4.14                             144    0.4310 97.4 177 
 RUS  HZ I         814  6.01         2.3 0.22            143           97.4 177 
 PTB  HZ EP        813 48.42                             131   -1.00 9  149 260 
 PTB  HN ES        814  9.42                             131   -0.84 9  149 260 
 PTB  HZ I         814 17.23         3.1 0.28            130            149 260 
 SPBC HZ EP        813 50.77                             128    0.03 9  162 220 
 SPBC HN ES        814 12.23                             128   -0.38 9  162 220 
 SPBC HZ I         814 17.69         4.1 0.20            127            162 220 
 GUY2CHZ EP        814  7.09                             111    0.99 7  301 235 
 GUY2CHN ES        814 40.91                             111    0.97 7  301 235 
 GUY2CHZ I         814 48.23         2.2 0.80                           301 235 
                                                                                
