 2017  3 9 0431 33.9 L   6.806 -73.110147.4  RSN 13 0.4 1.5LRSN                1
 GAP=101        0.81       3.4     3.8  4.8 -0.5638E+01 -0.3503E+01  0.5620E+01E
 Epicentro: LOS SANTOS - SANTANDER                                             3
 ACTION:UPD 17-05-25 18:38 OP:jn   STATUS:               ID:20170309043133 L   I
 OLDACT:UP  17-03-09 15:43 OP:and  STATUS:               ID:20170309042744     3
 OLDACT:UP  17-03-09 15:42 OP:and  STATUS:               ID:20170309042744     3
 OLDACT:UP  17-03-09 15:41 OP:and  STATUS:               ID:20170309042744     3
 OLDACT:UP  17-03-09 15:41 OP:and  STATUS:               ID:20170309042744     3
 OLDACT:UP  17-03-09 15:41 OP:and  STATUS:               ID:20170309042744     3
 OLDACT:UP  17-03-09 15:39 OP:and  STATUS:               ID:20170309042744     3
 OLDACT:UP  17-03-09 15:39 OP:and  STATUS:               ID:20170309042744     3
 OLDACT:REG 17-03-09 12:37 OP:and  STATUS:               ID:20170309042744     3
 2017-03-09-0428-00M.COL___397                                                 6
 STAT SP IPHASW D HRMM SECON CODA AMPLIT PERI AZIMU VELO AIN AR TRES W  DIS CAZ7
 BAR2 EZ EP        431 53.48                             170   -0.3110 24.9 199 
 BAR2 EZ ES        432  8.97                             170   -0.3110 24.9 199 
 BAR2 EZ I         432  9.66         8.6 0.24            169           24.9 199 
 PAM  EZ IP     D  431 56.43                             152    0.2910 74.4  38 
 PAM  EN ES        432 13.16                             152   -0.3110 74.4  38 
 PAM  EZ I         432 15.61         6.6 0.52            153           74.4  38 
 BRR  HZ EP        431 55.47                             151    0.0410 74.4 297 
 BRR  HN ES        432 12.69                             151    0.4810 74.4 297 
 RUS  HZ EP        431 58.03                             144    0.1610  101 178 
 RUS  HN ES        432 16.37                             144   -0.1810  101 178 
 RUS  HZ I         432 17.18         3.0 0.26            144            101 178 
 TAM  HZ IP     D  432  1.82                             131    0.42 9  151 106 
 PTB  HZ EP   9    432  0.45                             131   -0.94 0  152 259 
 PTB  HN ES        432 21.29                             132   -0.58 9  152 259 
 PTB  HZ I         432 24.10         2.9 0.14            130            152 259 
 SPBC HZ EP   2    432  3.07                             128    0.24 5  166 220 
 SPBC HE ES        432 25.53                             128    0.15 9  166 220 
 SPBC HZ I         432 27.67         5.8 0.10            128            166 220 
 ZAR  HN ES   3    432 30.84                             122   -1.65 2  207 292 
 NOR  HZ EP   2    432  9.61                             118   -0.52 4  238 235 
 NOR  HN ES        432 38.58                             118    0.20 8  238 235 
 NOR  HZ I         432 42.08         2.2 0.24            118            238 235 
 CHI  HZ EP        432 11.42                             117   -0.48 8  250 196 
 CHI  HN ES        432 41.14                             117   -0.38 8  250 196 
 CHI  HZ I         432 42.95         1.3 0.22            117            250 196 
 GUY2CHZ EP   9    432 19.39                             112    1.37 0  305 235 
 GUY2CHN ES        432 54.10                             112    0.32 7  305 235 
 GUY2CHZ  IAML     432 59.67         1.5 0.34                           305 235 
 PTGC HZ EP   3    432 16.64                             112   -1.13 2  308 159 
 PRA  HZ EP   2    432 27.43                             106   -0.37 3  395 210 
 PRA  HN ES        433 10.48                             106    0.66 6  395 210 
 PRA  HZ I         433 15.34         1.3 0.28            106            395 210 
                                                                                
