 2017 12 9 0414 55.2 L   6.866 -73.138150.0  RSN 28 0.9 2.8LRSN                1
 GAP= 57        1.82       3.5     4.4  8.0 -0.2956E+01  0.9265E+01 -0.4657E+00E
 Epicentro: LOS SANTOS - SANTANDER                                             3
 ACTION:UPD 18-01-04 13:18 OP:rebc STATUS:               ID:20171209041455 L   I
 OLDACT:UP  17-12-09 16:54 OP:leo  STATUS:               ID:20171209040739     3
 OLDACT:UP  17-12-09 16:45 OP:leo  STATUS:               ID:20171209040739     3
 OLDACT:REG 17-12-09 13:03 OP:leo  STATUS:               ID:20171209040739     3
 2017-12-09-0408-00M.COL___482                                                 6
 STAT SP IPHASW D HRMM SECON CODA AMPLIT PERI AZIMU VELO AIN AR TRES W  DIS CAZ7
 BAR2 HZ EP        415 15.43                             168   -0.1110 30.7 189 
 BAR2 HE ES        415 30.70                             168   -0.6810 30.7 189 
 PAM  EZ EP        415 18.25                             153    0.6910 71.3  43 
 PAM  EN ES        415 35.30                             153    0.3310 71.3  43 
 PAM  EZ I         415 37.45        69.5 0.54            157           71.3  43 
 PTB  HZ EP        415 22.04                             132   -0.72 9  150 256 
 PTB  HN ES        415 43.27                             132   -0.97 9  150 256 
 PTB  HZ I         415 44.98        39.4 0.40            133            150 256 
 OCA  HZ EP        415 23.39                             132    0.17 9  153 353 
 OCA  HN ES        415 45.68                             132    0.63 9  153 353 
 OCA  HZ I         415 49.58       156.0 0.20            134            153 353 
 TAM  HZ IP     C  415 23.76                             131    0.39 9  156 108 
 TAM  HN ES        415 45.57                             131    0.26 9  156 108 
 SPBC HZ EP        415 24.22                             129   -0.43 9  169 218 
 SPBC HN ES        415 46.63                             129   -0.97 9  169 218 
 SPBC HZ I         415 50.66        80.6 0.18            130            169 218 
 YPLC HZ IP        415 25.73                             127   -0.20 9  183 153 
 YPLC HE ES        415 50.72                             127    0.84 9  183 153 
 YPLC HZ I         415 52.46        25.6 0.30            128            183 153 
 ZAR  HZ EP        415 27.88                             124    0.11 9  202 290 
 ZAR  HN ES        415 53.23                             124    0.09 9  202 290 
 ZAR  HZ I         415 58.52        61.6 0.26            125            202 290 
 TABC EZ EP   4    415 32.80                             119    0.85 0  237 210 
 NOR  HZ EP        415 31.45                             119   -0.29 8  240 233 
 NOR  HN ES        415 59.22                             119   -1.00 8  240 233 
 NOR  HZ I         416  8.88        33.2 0.38            120            240 233 
 CHI  HZ EP        415 33.51                             117   -0.45 8  256 195 
 CHI  HN ES        416  2.91                             117   -1.25 8  256 195 
 CHI  HZ I         416  8.16        29.5 0.30            118            256 195 
 ROSC BZ EP   4    415 35.35                             117    1.03 0  259 210 
 ROSC HN ES   4    416  5.92                             117    1.12 0  259 210 
 ROSC BZ I         416 10.14        87.2 0.40            118            259 210 
 CVER HZ EP        415 36.90                             115    0.30 7  279 202 
 CVER HN ES        416  8.29                             115   -0.57 7  279 202 
 CVER HZ I         416 15.14        30.3 0.32            116            279 202 
 DRL03HZ EP        415 36.52                             115    0.27 7  282 352 
 DRL03HE ES        416  9.97                             115    1.73 7  282 352 
 URE  HZ EP        415 35.79                             115   -0.51 7  282 290 
 URE  HE ES   4    416  5.94                             115   -2.40 0  282 290 
 URE  HZ I         416  7.88        28.7 0.16            116            282 290 
 GUY2CHZ EP        415 39.53                             113   -0.07 7  306 234 
 GUY2CHN ES        416 16.89                             113    2.69 7  306 234 
 VIL  EZ EP        415 39.06                             112   -0.62 7  311 191 
 VIL  EN ES        416 13.44                             112   -0.90 7  311 191 
 VIL  EZ I         416 16.08        46.9 0.40            113            311 191 
 PTGC HZ EP   4    415 38.45                             112   -1.57 0  315 159 
 PTGC HN ES   4    416 12.26                             112   -2.70 0  315 159 
 PTGC HZ I         416 14.56        18.9 0.40            113            315 159 
 DRL02HZ EP        415 39.89                             112   -0.40 7  318 357 
 DRL02HN ES        416 14.88                             112   -0.55 7  318 357 
 ELA  HZ EP        415 44.47                             111    1.58 7  335 229 
 ELA  HN ES        416 21.07                             111    1.02 7  335 229 
 ELA  HZ I         416 28.02        24.5 0.62            112            335 229 
 CBOC HZ EP        415 43.01                             110    0.33 7  337 251 
 CBOC HN ES        416 20.31                             110    0.62 7  337 251 
 CBOC HZ I         416 25.19         7.5 0.20            111            337 251 
 DBB  HZ EP        415 43.86                             110    0.93 7  340 273 
 DBB  EN ES        416 19.27                             110   -0.86 7  340 273 
 SDV  BZ EP        415 44.85                             109    0.02 6  355  51 
 SDV  B1 ES   4    416 20.74                             109   -2.77 0  355  51 
 PRA  HZ EP        415 49.03                             107   -0.67 6  399 209 
 PRA  HE ES   4    416 30.64                             107   -1.54 0  399 209 
 PRA  HZ I         416 37.83        27.2 0.26            108            399 209 
 ORTC HZ EP        415 49.58                             107   -0.47 6  402 216 
 ORTC HN ES        416 35.87                             107    3.06 6  402 216 
 ORTC HZ I         416 36.73        18.0 0.24            108            402 216 
 SJC  HZ EP        415 49.52                             107   -0.75 6  404 326 
 SJC  HE ES   4    416 30.98                             107   -2.22 0  404 326 
 PAL  HZ EP        415 50.87                             106   -0.19 6  410 238 
 PAL  HN ES        416 36.15                             106    1.54 6  410 238 
 PAL  HZ I         416 38.93         7.0 0.72            107            410 238 
 CRJC HZ EP        415 55.61                             104   -1.37 5  460   3 
 CRJC HE ES        416 43.48                             104   -1.66 5  460   3 
 CRJC HZ I         416 48.01        15.0 0.72            106            460   3 
 SMAR HZ EP   2    416  0.58                             103    0.19 2  490 346 
 SMAR HN ES   2    416 48.25                             103   -2.97 2  490 346 
                                                                                
