 2015  6 9 0336 33.5 L   6.813 -73.125148.8  RSN 24 0.6 2.5LRSN                1
 GAP= 91        1.17       2.6     3.2  4.8 -0.2471E+01  0.2605E+01  0.8992E+00E
 Epicentro: LOS SANTOS - SANTANDER                                             3
 ACTION:UPD 15-09-10 22:10 OP:cam  STATUS:               ID:20150609033633 L   I
 OLDACT:REG 15-06-09 13:06 OP:stll STATUS:               ID:20150609032750     3
 2015-06-09-0327-50M.COL___300                                                 6
 STAT SP IPHASW D HRMM SECON CODA AMPLIT PERI AZIMU VELO AIN AR TRES W  DIS CAZ7
 BAR2 EZ IP     D  336 53.71                             170    0.1710 25.2 195 
 BAR2 EZ ES        337  9.14                             170   -0.0210 25.2 195 
 BAR2 EZ I         337 11.13        59.2 0.20            169           25.2 195 
 BRR  HZ IP     C  336 55.63                             153    0.5710 72.6 297 
 BRR  HZ I         336 55.80       110.5 0.20            146           72.6 297 
 BRR  HE ES        337 12.23                             153    0.3610 72.6 297 
 PAM  SZ EP        336 56.36                             152    0.4610 74.9  39 
 PAM  SN ES        337 13.68                             152    0.3210 74.9  39 
 PAM  SZ I         337 15.78        65.7 0.56            149           74.9  39 
 RUS  HZ EP     D  336 57.56                             144   -0.0810  102 177 
 RUS  HE ES        337 16.12                             144   -0.3510  102 177 
 RUS  HZ I         337 17.92        28.5 0.38            141            102 177 
 OCA  HZ EP        337  1.66                             130   -0.29 9  159 352 
 OCA  HN ES        337 24.09                             130   -0.05 9  159 352 
 OCA  HZ I         337 29.61        95.5 0.38            125            159 352 
 SPBC HZ EP        337  2.68                             129    0.21 9  166 219 
 SPBC HN ES        337 25.15                             129    0.08 9  166 219 
 SPBC HZ I         337 31.79        57.9 0.22            124            166 219 
 ZAR  HZ EP        337  6.07                             123   -0.24 8  206 292 
 ZAR  HE ES        337 31.92                             123    0.02 8  206 292 
 ZAR  HZ I         337 37.38        37.3 0.40            117            206 292 
 NOR  HZ EP        337  9.83                             119    0.13 8  237 235 
 NOR  HE ES        337 37.05                             119   -0.87 8  237 235 
 NOR  HZ I         337 40.97        26.3 0.16            114            237 235 
 SML  HZ EP        337 10.25                             118   -0.02 8  243 335 
 SML  HE ES        337 38.95                             118    0.00 8  243 335 
 SML  HZ I         337 41.62        72.8 0.10            113            243 335 
 CHI  HZ EP        337 11.79                             117    0.21 8  251 196 
 CHI  HZ I         337 14.22         9.8 0.30            114            251 196 
 CHI  HN ES        337 40.88                             117   -0.40 8  251 196 
 HEL  HZ EP        337 14.81                             115    0.65 8  275 256 
 HEL  HN ES        337 45.79                             115   -0.07 8  275 256 
 HEL  HZ I         337 53.32        14.2 0.32            111            275 256 
 URE  HZ EP   4    337 13.33                             114   -1.57 0  285 291 
 URE  HE ES        337 45.42                             114   -1.77 7  285 291 
 SOCV BZ EP        337 16.42                             113    0.03 7  299  57 
 SOCV BN ES        337 48.35                             113   -1.49 7  299  57 
 GUY2CHZ EP        337 18.23                             113    0.67 7  304 235 
 GUY2CHN ES        337 51.93                             113    0.02 7  304 235 
 GUY2CHZ I         338  0.58        14.0 0.36                           304 235 
 RREF HZ EP        337 20.86                             111    0.78 7  324 229 
 RREF HE ES        337 56.47                             111    0.06 7  324 229 
 RREF HZ I         338  3.34         5.9 0.30            107            324 229 
 CBOC HZ EP        337 21.18                             110    0.33 7  336 252 
 CBOC HZ I         338  8.74         9.3 0.80            106            336 252 
 TOL  SZ EP        337 23.15                             110    0.97 6  346 225 
 TOL  SN ES        338  0.24                             110    0.09 6  346 225 
 TOL  SZ I         338  7.14        14.2 0.38            106            346 225 
 MON  HZ EP   9    337 20.84                             109   -1.89 0  355 308 
 MON  HN ES        337 58.53                                   -0.71 6  355 308 
 MON  HZ I         338  2.05         8.1 0.36            105            355 308 
 ARGC HZ EP        337 24.32                             109    1.10 6  359 340 
 ARGC HZ I         338  8.66         8.5 0.26            105            359 340 
 ANIL HN ES        338  2.53                             109   -0.37 6  360 225 
 ANIL HZ I         338 10.21        36.4 0.44            105            360 225 
 PRA  HZ EP        337 27.13                             107   -0.28 6  394 210 
 PRA  HN ES        338  8.59                             107   -0.85 6  394 210 
 PRA  HZ I         338 12.67         6.9 0.36            104            394 210 
 ORTC HZ EP        337 28.20                             107    0.38 6  398 216 
 ORTC HN ES        338  9.85                             107   -0.33 6  398 216 
 ORTC HZ I         338 17.24         6.7 0.34            103            398 216 
 ELOV BZ EP        337 27.92                             106   -0.44 6  403  87 
 SJC  HZ EP        337 28.06                             106   -1.12 6  409 327 
 SJC  HE ES   4    338  8.53                             106   -4.07 0  409 327 
 SJC  HE E         338  8.53                                            409 327 
 SJC  HZ I         338 13.50         7.8 0.48            103            409 327 
                                                                                
