 2017 12 9 0627 19.9 L   6.829 -73.142138.0  RSN 16 0.6 2.1LRSN                1
 GAP= 65        1.37       3.3     3.6  7.3 -0.1086E+01  0.6967E+01  0.2558E+01E
 Epicentro: LOS SANTOS - SANTANDER                                             3
 ACTION:UPD 18-01-04 13:18 OP:rebc STATUS:               ID:20171209062719 L   I
 OLDACT:UP  17-12-09 17:57 OP:leo  STATUS:               ID:20171209061737     3
 OLDACT:UP  17-12-09 17:35 OP:leo  STATUS:               ID:20171209061737     3
 OLDACT:REG 17-12-09 13:57 OP:leo  STATUS:               ID:20171209061737     3
 2017-12-09-0618-00M.COL___482                                                 6
 STAT SP IPHASW D HRMM SECON CODA AMPLIT PERI AZIMU VELO AIN AR TRES W  DIS CAZ7
 BAR2 EZ IP        627 38.47                             169   -0.1810 26.5 190 
 BAR2 EZ ES        627 52.76                             169   -0.5310 26.5 190 
 BAR2 EZ I         627 54.69        25.7 0.16            166           26.5 190 
 PAM  EZ EP        627 41.36                             150    0.2510 74.7  41 
 PAM  EN ES        627 58.32                             150    0.6510 74.7  41 
 PAM  EZ I         627 59.30        21.6 0.18            155           74.7  41 
 PTB  HZ EP        627 45.02                             130   -1.31 9  149 258 
 PTB  HN ES        628  6.86                             130   -0.09 9  149 258 
 PTB  HZ I         628  8.46        17.2 0.62            131            149 258 
 TAM  HZ EP        627 46.84                             129   -0.16 9  156 106 
 TAM  HN ES        628  8.30                             129    0.15 9  156 106 
 TAM  HZ I         628  8.76        11.2 0.26            132            156 106 
 OCA  HZ EP        627 46.83                             128   -0.48 9  157 353 
 OCA  HN ES        628  8.60                             128   -0.10 9  157 353 
 SPBC HZ EP        627 47.37                             127   -0.69 9  166 218 
 SPBC HN ES        628  9.95                             127   -0.09 9  166 218 
 SPBC HZ I         628 18.87        16.3 0.54            127            166 218 
 YPLC HZ EP        627 48.84                             124   -0.54 9  179 152 
 YPLC HN ES        628 12.75                             124    0.36 9  179 152 
 YPLC HZ I         628 15.20        15.8 0.22            126            179 152 
 ZAR  HZ EP        627 51.51                             121   -0.24 9  203 291 
 ZAR  HN ES        628 17.53                             121    0.92 9  203 291 
 ZAR  HZ I         628 25.24        17.8 0.54            122            203 291 
 NOR  HZ EP        627 55.08                             117   -0.33 8  237 234 
 NOR  HN ES        628 22.98                             117   -0.14 8  237 234 
 NOR  HZ I         628 24.40        10.1 0.18            118            237 234 
 CHI  HZ EP        627 56.85                             115   -0.66 8  252 195 
 CHI  HN ES        628 27.86                             115    1.00 8  252 195 
 CHI  HZ I         628 32.65         2.8 0.26            116            252 195 
 ROSC BZ EP   4    627 57.48                             115   -0.43 0  256 211 
 ROSC BN ES   4    628 31.58                             115    4.00 0  256 211 
 ROSC BZ I         628 33.51         9.4 0.35            116            256 211 
 URE  HN ES   2    628 30.96                             112   -1.22 4  283 291 
 DRL03HZ EP        628  1.46                             112    0.68 7  286 353 
 DRL03HN ES        628 33.28                             112    0.59 7  286 353 
 GUY2CHZ EP        628  3.49                             111    0.10 7  303 234 
 GUY2CHN ES        628 37.87                             111    0.54 7  303 234 
 GUY2CHZ I         628 43.86         6.7 0.28                           303 234 
 CBOC HZ EP   2    628  6.91                             108    0.26 3  335 252 
 CBOC HN ES        628 43.53                             108    0.41 7  335 252 
 CBOC HZ I         628 46.29         2.9 0.20            110            335 252 
 PRA  HZ EP        628 14.09                             105    0.60 6  395 209 
 PRA  HE ES        628 57.33                             105    2.02 6  395 209 
 PRA  HZ I         629  1.80         3.2 0.26            106            395 209 
                                                                                
