 2014  8 9 0038 52.3 L   6.799 -73.129146.8  RSN 29 0.5 2.8LRSN                1
 GAP= 67        0.98       2.1     2.5  4.3 -0.2960E+00  0.2770E+01  0.1390E+01E
 Epicentro: LOS SANTOS - SANTANDER                                             3
 ACTION:UPD 14-09-15 21:48 OP:nd   STATUS:               ID:20140809003852 L   I
 OLDACT:UP  14-08-09 15:51 OP:spq  STATUS:               ID:20140809003819     3
 OLDACT:REG 14-08-09 12:22 OP:spq  STATUS:               ID:20140809003819     3
 2014-08-09-0038-19M.COL___272                                                 6
 STAT SP IPHASW D HRMM SECON CODA AMPLIT PERI AZIMU VELO AIN AR TRES W  DIS CAZ7
 BAR2 SZ IP     C  039 12.13                             170    0.0810 23.7 195 
 BAR2 SZ ES   1    039 27.24                             170   -0.22 7 23.7 195 
 BAR2 SZ I         039 29.86       122.1 0.26            169           23.7 195 
 BRR  HZ EP     D  039 14.02                             152    0.3710 72.9 298 
 BRR  HE ES        039 30.92                             152    0.6210 72.9 298 
 BRR  HZ I         039 34.99        68.3 0.52            151           72.9 298 
 PAM  SZ EP     C  039 14.91                             151    0.3610 76.3  38 
 PAM  SE ES        039 31.83                             151   -0.0810 76.3  38 
 PAM  SZ I         039 34.32       128.9 0.56            155           76.3  38 
 RUS  HZ EP     D  039 15.97                             144   -0.1610  100 177 
 RUS  HN ES        039 34.77                             144    0.0510  100 177 
 RUS  HZ I         039 35.82        55.8 0.28            146            100 177 
 PTB  HZ EP        039 19.05                             132   -0.46 9  150 259 
 PTB  HN ES        039 40.02                             132   -0.72 9  150 259 
 PTB  HZ I         039 47.73       109.8 0.38            132            150 259 
 TAM  HZ IP     D  039 20.31                             131    0.43 9  153 105 
 TAM  HE ES        039 41.51                             131    0.11 9  153 105 
 TAM  HZ I         039 43.13        31.1 0.34            135            153 105 
 OCA  HZ EP        039 20.38                             130   -0.33 9  161 352 
 OCA  HN ES        039 42.67                             130   -0.21 9  161 352 
 OCA  HZ I         039 47.32        66.0 0.32            132            161 352 
 SPBC HZ EP        039 20.92                             129   -0.06 9  164 220 
 SPBC HN ES        039 43.04                             129   -0.31 9  164 220 
 SPBC HZ I         039 48.22       148.5 0.22            130            164 220 
 ZAR  HZ EP        039 24.84                             122   -0.15 8  206 292 
 ZAR  HN ES        039 50.28                             122   -0.21 8  206 292 
 ZAR  HZ I         039 56.67        57.3 0.56            123            206 292 
 NOR  HZ EP        039 27.87                             118   -0.37 8  236 235 
 NOR  HE ES        039 55.71                             118   -0.57 8  236 235 
 NOR  HZ I         040  0.81        47.2 0.24            120            236 235 
 SML  HZ EP        039 28.71                             117   -0.36 8  245 335 
 SML  HE ES   1    039 58.24                             117    0.49 6  245 335 
 SML  HZ I         040  0.79        72.6 0.07            119            245 335 
 CHI  HZ EP        039 30.08                             117   -0.01 8  249 196 
 CHI  HN ES        039 58.96                             117   -0.62 8  249 196 
 CHI  HZ I         040  8.18        35.8 0.64            119            249 196 
 ROSC BZ EP   4    039 31.72                             117    1.15 0  254 211 
 ROSC BE ES        040  0.92                             117    0.50 8  254 211 
 ROSC BZ I         040  6.66        75.2 0.40            118            254 211 
 HEL  HZ EP        039 33.54                             115    0.78 8  274 256 
 HEL  HN ES        040  4.64                             115    0.32 8  274 256 
 HEL  HZ I         040 10.65        41.8 0.40            116            274 256 
 URE  HZ EP   1    039 32.89                             114   -0.72 6  286 292 
 URE  HN ES   4    040  2.75                             114   -3.09 0  286 292 
 URE  HZ I         040 12.95        37.5 0.24            115            286 292 
 GUY2CHZ EP        039 36.23                             112    0.11 7  303 235 
 GUY2CHE ES   4    040 12.73                             112    2.43 0  303 235 
 GUY2CHZ I         040 18.83        46.2 0.32                           303 235 
 VIL  SZ EP   1    039 36.02                             112    0.23 5  304 192 
 VIL  SN ES        040  9.89                             112    0.17 7  304 192 
 VIL  SZ I         040 15.74        49.2 0.52            114            304 192 
 PTGC HZ EP        039 34.96                             112   -1.15 7  308 159 
 PTGC HN ES   4    040  6.22                             112   -4.07 0  308 159 
 PTGC HZ I         040 13.43        21.0 0.26            114            308 159 
 CBOC HZ EP        039 40.31                             110    0.86 7  335 252 
 CBOC HE ES        040 17.04                             110    0.80 7  335 252 
 CBOC HZ I         040 22.61        11.9 0.48            111            335 252 
 DBB  SZ EP        039 39.71                             109   -0.32 7  341 274 
 DBB  SZ ES   1    040 16.87                             109   -0.39 5  341 274 
 TOL  SZ EP        039 41.64                             109    0.90 7  345 225 
 TOL  SE ES   4    040 19.85                             109    1.33 0  345 225 
 MON  HZ EP   4    039 39.46                             109   -2.05 0  355 308 
 MON  HE ES   4    040 18.25                             109   -1.65 0  355 308 
 MON  HZ I         040 20.74        11.1 0.34            110            355 308 
 ANIL HZ EP   4    039 43.42                             108    1.14 0  359 225 
 ANIL HN ES   4    040 22.39                             108    1.11 0  359 225 
 ANIL HZ I         040 26.00         9.8 0.50            110            359 225 
 ARGC HN ES        040 20.99                             108    0.09 6  360 340 
 ARGC HZ I         040 31.52        17.4 0.41            110            360 340 
 PRA  HZ EP        039 45.48                             107   -0.47 6  393 210 
 PRA  HE ES        040 28.62                             107    0.82 6  393 210 
 PRA  HZ I         040 33.65        33.6 0.27            108            393 210 
 ORTC HZ EP     D  039 46.53                             106    0.16 6  396 216 
 ORTC HE ES        040 28.81                             106    0.26 6  396 216 
 ORTC HZ I         040 36.90        28.1 0.26            108            396 216 
 SJC  HZ EP   4 C  039 46.38                             106   -1.64 0  410 327 
 SJC  HE ES   4    040 26.77                             106   -4.71 0  410 327 
 SJC  HZ I         040 31.86        10.4 0.46            107            410 327 
 CAP2 HE ES   4    040 47.98                             102   -4.28 0  509 294 
 CAP2 HZ I         040 49.68         6.0 0.30            103            509 294 
 URI  HZ EP   4    040  2.31                             101   -2.97 0  556  13 
 URI  HN ES   4    040 56.55                             101   -5.65 0  556  13 
 URI  HZ I         041  5.16         2.8 0.32            102            556  13 
                                                                                
