 2011 12 9 0035  6.7 L   7.154 -73.047146.0  RSN  5 0.3 1.4LRSN                1
 GAP=120        0.58       4.4    12.8  7.4 -0.2436E+02  0.4605E+02 -0.1103E+02E
 Epicentro: BUCARAMANGA - SANTANDER                                            3
 ACTION:UPD 12-07-13 16:15 OP:ep   STATUS:               ID:20111209003506 L   I
 2011-12-09-0033-38S.COL___165                                                 6
 STAT SP IPHASW D HRMM SECON CODA AMPLIT PERI AZIMU VELO AIN AR TRES W  DIS CAZ7
 GIR2 SZ EP   1    035 26.03                             173   -0.08 7 18.2 243 
 PAM  SZ EP   1    035 27.02                             163   -0.27 7 43.5  62 
 PAM  SN ES   1    035 43.53                             163    0.17 7 43.5  62 
 BAR2 SZ EP   1    035 28.42                             155    0.60 7 63.9 194 
 BAR2 SZ ES   1    035 44.24                             155   -0.06 7 63.9 194 
 BAR2 SZ I         035 48.72         7.2 0.51                          63.9 194 
 OCA  SZ EP   1    035 31.61                             138   -0.17 7  124 346 
 OCA  SZ I         035 59.34         4.8 0.25                           124 346 
 RUS  HZ EP   1    035 33.65                             134    0.06 7  140 182 
 RUS  HE ES   1    035 54.29                             134   -0.29 7  140 182 
 RUS  HZ I         035 56.97         1.2 0.19                           140 182 
                                                                                
