 2013  3 9 0916 40.4 L   6.619 -73.631107.6  RSN  4 0.1 1.5LRSN                1
 GAP=122        0.38       3.0     2.0  4.5  0.9877E+00  0.6084E+00  0.1657E+01E
 Epicentro: EL CARMEN DE CHUCURI - SANTANDER                                   3
 ACTION:UPD 13-04-09 14:01 OP:ep   STATUS:               ID:20130309091640 L   I
 2013-03-09-0908-50M.COL___195                                                 6
 STAT SP IPHASW D HRMM SECON CODA AMPLIT PERI AZIMU VELO AIN AR TRES W  DIS CAZ7
 BAR2 SZ EP        916 56.67                             154    0.1310 49.7  93 
 BAR2 SZ ES        917  9.04                             154   -0.1110 49.7  93 
 BAR2 SZ I         917 10.75         9.6 0.36            154           49.7  93 
 BRR  HZ EP        916 56.36                             151   -0.1210 54.7 351 
 BRR  HE ES        917  9.15                             151    0.1110 54.7 351 
 PTB  HN ES        917 13.87                             136   -0.0110 91.7 265 
 RUS  HN ES   2    917 16.45                             134    0.04 5  101 143 
                                                                                
