 2012  2 9 0148 37.9 L   6.766 -73.149151.3  RSN  7 0.5 2.2LRSN                1
 GAP=138        1.02       6.8     6.0  8.9  0.3992E+01  0.1112E+02 -0.4484E+01E
 ACTION:UP  12-03-07 16:28 OP:epov STATUS:               ID:20120209014837 L   I
 2012-02-09-0140-00M.COL___188                                                 6
 STAT SP IPHASW D HRMM SECON CODA AMPLIT PERI AZIMU VELO AIN AR TRES W  DIS CAZ7
 BAR2 SZ EP        148 58.30                             172    0.2210 19.6 191 
 BAR2 SZ ES   1    149 13.45                             172   -0.41 7 19.6 191 
 BAR2 SZ I         149 16.18        40.4 0.29                          19.6 191 
 GIR2 SZ EP   1    148 58.23                             166   -0.05 7 34.9 352 
 BRR  HZ EP        149  0.23                             153    0.5510 72.7 301 
 BRR  HZ I         149  0.44        37.2 0.11                          72.7 301 
 BRR  HE ES   1    149 17.81                             153    1.10 7 72.7 301 
 PAM  SZ EP   1    149  0.72                             151   -0.12 7 80.5  38 
 PAM  SN ES   1    149 18.07                             151   -0.70 7 80.5  38 
 RUS  HZ EP   1    149  1.74                             146   -0.16 7 96.9 176 
 RUS  HN ES   1    149 20.88                             146    0.23 7 96.9 176 
 RUS  HZ I         149 22.05        15.6 0.38                          96.9 176 
 PTB  HZ EP   1    149  4.98                             133   -0.20 7  147 260 
 PTB  HN ES   1    149 25.75                             133   -0.75 7  147 260 
 ZAR  HZ EP   1    149 10.61                             123   -0.16 6  205 293 
 ZAR  HE ES   1    149 36.02                             123   -0.43 6  205 293 
                                                                                
