 2015  9 9 0115 52.7 L   6.764 -73.184142.3  RSN  4 0.3 1.4LRSN                1
 GAP=230        0.73       5.6     5.4  5.8  0.1512E+02  0.3483E+01  0.1289E+01E
 Epicentro: LOS SANTOS - SANTANDER                                             3
 ACTION:UPD 15-10-28 16:25 OP:cam  STATUS:               ID:20150909011552 L   I
 OLDACT:DUP 15-09-09 15:05 OP:stll STATUS:               ID:20150909010747d    3
 2015-09-09-0107-46M.COL___356                                                 6
 STAT SP IPHASW D HRMM SECON CODA AMPLIT PERI AZIMU VELO AIN AR TRES W  DIS CAZ7
 BAR2 EZ EP        116 11.80                             172   -0.0710 19.0 180 
 BAR2 EZ ES        116 26.37                             172   -0.4110 19.0 180 
 BAR2 EZ I         116 27.91         7.9 0.14            164           19.0 180 
 BRR  HZ EP        116 13.76                             152    0.3410 69.6 303 
 BRR  HN ES        116 29.70                             152    0.1510 69.6 303 
 BRR  HZ I         116 30.05         5.8 0.38            148           69.6 303 
 RUS  HZ EP        116 15.92                             144    0.0310 97.0 173 
 RUS  HN ES        116 34.22                             144    0.2710 97.0 173 
 RUS  HZ I         116 35.18         2.0 0.28            141           97.0 173 
 PTB  HZ EP        116 18.55                             132   -0.43 9  143 260 
 PTB  HN ES        116 39.51                             132    0.06 9  143 260 
 PTB  HZ I         116 46.90         3.4 0.40            128            143 260 
                                                                                
