 2016 10 9 0452  0.4 L   6.850 -73.188147.5  RSN  4 0.4 1.1LRSN                1
 GAP=277        0.86       7.7     6.8  9.3  0.2266E+02 -0.1244E+02 -0.2023E+02E
 Epicentro: ZAPATOCA - SANTANDER                                               3
 OLDACT:UP  16-10-09 16:47 OP:dani STATUS:               ID:20161009044740     3
 OLDACT:UP  16-10-09 16:46 OP:dani STATUS:               ID:20161009044740     3
 OLDACT:UP  16-10-09 16:46 OP:dani STATUS:               ID:20161009044740     3
 OLDACT:UP  16-10-09 16:45 OP:dani STATUS:               ID:20161009044740     3
 OLDACT:REG 16-10-09 12:41 OP:dani STATUS:               ID:20161009044740     3
 ACTION:UPD 16-11-09 19:17 OP:rebc STATUS:               ID:20161009045200 L   I
 OLDACT:UP  16-10-09 16:56 OP:dani STATUS:               ID:20161009044741d    3
 OLDACT:UP  16-10-09 16:56 OP:dani STATUS:               ID:20161009044741d    3
 OLDACT:DUP 16-10-09 16:51 OP:dani STATUS:               ID:20161009044741d    3
 OLDACT:UP  16-10-09 16:50 OP:dani STATUS:               ID:20161009044740     3
 OLDACT:UP  16-10-09 16:47 OP:dani STATUS:               ID:20161009044740     3
 2016-10-09-0448-00M.COL___360                                                 6
 STAT SP IPHASW D HRMM SECON CODA AMPLIT PERI AZIMU VELO AIN AR TRES W  DIS CAZ7
 RUS  HZ EP        452 24.70                             143   -0.0310  107 174 
 RUS  HN ES        452 43.76                             143    0.0410  107 174 
 RUS  HZ I         452 44.49         1.8 0.32            142            107 174 
 PTB  HZ EP        452 27.54                             133    0.36 9  144 256 
 PTB  HN ES        452 48.12                             133    0.03 9  144 256 
 PTB  HZ I         452 51.93         1.1 0.13            131            144 256 
 SPBC HZ EP        452 28.33                             129   -0.82 9  165 217 
 SPBC HN ES        452 51.53                             129   -0.06 9  165 217 
 SPBC HZ I         452 54.74         2.2 0.11            128            165 217 
 CHI  HZ EP        452 39.07                             117    0.45 8  253 194 
 CHI  HN ES        453  8.62                             117    0.16 8  253 194 
 CHI  HZ I         453 11.51         0.6 0.10            117            253 194 
 GUY2CHE ES   4    453 19.99                             113    1.96 0  301 233 
                                                                                
