 2012  8 9 0133 57.1 L   6.774 -73.129140.2  RSN 10 0.4 2.2LRSN                1
 GAP= 73        0.85       3.2     3.5  5.3 -0.6512E+00  0.2425E+01  0.4910E+00E
 Epicentro: LOS SANTOS - SANTANDER                                             3
 ACTION:UPD 12-09-10 11:55 OP:ep   STATUS:               ID:20120809013357 L   I
 2012-08-09-0130-00M.COL___215                                                 6
 STAT SP IPHASW D HRMM SECON CODA AMPLIT PERI AZIMU VELO AIN AR TRES W  DIS CAZ7
 BAR2 SZ EP        134 16.12                             171    0.0610 20.9 196 
 BAR2 SZ ES   1    134 30.89                             171    0.08 7 20.9 196 
 BAR2 SZ I         134 32.64        50.9 0.20                          20.9 196 
 BRR  HZ EP        134 17.96                             150    0.0810 74.3 300 
 BRR  HE ES   1    134 35.00                             150    0.95 7 74.3 300 
 BRR  HZ I         134 37.37        29.8 0.24                          74.3 300 
 PAM  SZ EP        134 19.03                             149    0.1910 78.5  37 
 PAM  SZ I         134 19.45        52.4 0.21                          78.5  37 
 PAM  SN ES        134 35.47                             149   -0.2910 78.5  37 
 RUS  HZ EP        134 19.98                             143   -0.1510 97.5 177 
 RUS  HE ES        134 37.82                             143   -0.2410 97.5 177 
 RUS  HZ I         134 40.38        18.5 0.31                          97.5 177 
 PTB  HZ EP   1    134 23.39                             130   -0.40 7  149 260 
 PTB  HE ES   1    134 44.24                             130   -0.33 7  149 260 
 TAM  HZ EP        134 24.55                             130    0.40 9  153 104 
 OCA  HZ EP        134 24.71                             128   -0.62 9  163 353 
 OCA  HZ I         134 53.79        22.5 0.17                           163 353 
 ZAR  HZ EP        134 30.09                             121    0.56 8  207 293 
 ZAR  HN ES   1    134 54.36                             121   -0.43 6  207 293 
 ZAR  HZ I         135  0.77        14.9 0.24                           207 293 
 NOR  SN ES   1    135  0.29                             117    0.14 6  235 235 
 NOR  SZ I         135  5.27         6.9 0.35                           235 235 
 CHI  HZ EP        134 34.29                             116    0.00 8  246 196 
 CHI  HN ES   1    135  3.27                             116    0.01 6  246 196 
 CHI  HZ I         135 11.15         5.4 0.48                           246 196 
                                                                                
