 2017  7 9 0118 36.8 L   7.425 -73.192134.4  RSN  4 0.1 1.6LRSN                1
 GAP=187        0.44       5.2     2.2  3.9 -0.4222E+01  0.3801E+01 -0.5143E+01E
 Epicentro: EL PLAYON - SANTANDER                                              3
 ACTION:UPD 17-08-30 15:31 OP:rebc STATUS:               ID:20170709011836 L   I
 OLDACT:REG 17-07-09 13:04 OP:ar   STATUS:               ID:20170709011742     3
 2017-07-09-0118-00M.COL___371                                                 6
 STAT SP IPHASW D HRMM SECON CODA AMPLIT PERI AZIMU VELO AIN AR TRES W  DIS CAZ7
 PAM  EZ EP        118 56.61                             157    0.0510 55.2 100 
 PAM  EN ES        119 12.10                             157    0.1210 55.2 100 
 PAM  EZ I         119 16.60         6.9 0.42            160           55.2 100 
 BRR  HZ EP        118 56.36                             152   -0.1310 67.3 239 
 BRR  HN ES        119 11.62                             152   -0.2310 67.3 239 
 BRR  HZ I         119 12.90        10.6 0.28            155           67.3 239 
 PTB  HZ EP        119  4.99                             125   -0.09 9  171 235 
 PTB  HE ES        119 27.37                             125    0.23 9  171 235 
 PTB  HZ I         119 29.63         3.1 0.12            129            171 235 
 ZAR  HZ EP        119  6.41                             123   -0.02 9  184 272 
 ZAR  HN ES        119 29.67                             123    0.12 9  184 272 
 ZAR  HZ I         119 33.96         5.8 0.12            125            184 272 
                                                                                
