 2011  4 9 0108  4.8 L   6.819 -73.124144.9  RSN 15 0.4 3.0LRSN                1
 GAP=104        0.82       3.6     4.1  5.5 -0.2334E+01  0.2899E+01  0.4688E+01E
 Epicentro: LOS SANTOS - SANTANDER                                             3
 ACTION:UP  11-06-22 15:29 OP:REBC STATUS:               ID:20110409010804 L   I
 2011-04-09-0106-30S.COL___138                                                 6
 STAT SP IPHASW D HRMM SECON CODA AMPLIT PERI AZIMU VELO SNR AR TRES W  DIS CAZ7
 BTL  SZ EP   1    1 8 24.54                             172     0.3 7   19 305 
 BAR2 SZ IP        1 8 24.36                             169     0.010   26 195 
 BAR2 SZ ES   1    1 8 38.80                             169    -0.8 7   26 195 
 BAR2 SZ I         1 8 40.46       269.2 0.29                            26 195 
 GIR2 SZ EP   1    1 8 24.40                             168     0.1 7   30 345 
 BRR  HZ EP   1    1 8 26.18                             152     0.3 7   72 296 
 BRR  HE ES   1    1 8 42.99                             152     0.6 7   72 296 
 BRR  HZ I         1 8 47.27       269.7 0.14                            72 296 
 PAM  SZ EP   1    1 8 27.22                             152     0.5 7   74  39 
 PAM  SE ES   1    1 8 43.53                             152    -0.3 7   74  39 
 OCA  SZ EP   1    1 8 32.71                             130    -0.1 7  159 352 
 OCA  SZ ES   2    1 8 54.09                             130    -0.6 5  159 352 
 OCA  SZ I         1 8 57.70       183.2 0.21                           159 352 
 YOP  SZ EP   1    1 8 35.10                             126     0.3 7  180 154 
 YOP  SZ I         1 8 35.65        53.7 0.19                           180 154 
 YOP  SN ES   1    1 8 58.61                             126     0.4 7  180 154 
 NOR  SZ EP   2    1 8 40.67                             118    -0.1 4  238 234 
 NOR  SE ES   1    1 9  8.63                             118    -0.2 6  238 234 
 CHI  HZ EP   1    1 8 42.63                             117    -0.1 6  251 196 
 CHI  HN ES   2    1 9 11.83                             117    -0.4 4  251 196 
 CHI  HZ I         1 9 19.21        53.1 0.55                           251 196 
 HEL  HZ EP   1    1 8 45.18                             114    -0.1 6  275 256 
 HEL  HN ES   1    1 9 16.78                             114     0.0 6  275 256 
 HEL  HZ I         1 9 23.46        70.2 0.53                           275 256 
 VIL  SZ EP   1    1 8 48.26                             112    -0.2 5  306 192 
 VIL  SE ES   2    1 9 21.69                             112    -0.8 4  306 192 
 VIL  SZ I         1 9 29.69        48.6 0.57                           306 192 
 GUY  SZ EP   1    1 8 49.00                             112     0.1 5  307 235 
 DBB  SZ EP   1    1 8 51.68                             109    -0.8 5  342 274 
 TOL  SZ EP   1    1 8 53.86                             109     0.5 5  347 225 
 SDV  BZ EP        1 8 53.80                             108    -0.6 6  357  50 
 SDV  BZ I         1 8 54.70        30.6 0.28                           357  50 
                                                                                
