 2011  2 9 0948 20.0 L   6.832 -72.983149.6  RSN  7 0.3 1.8LRSN                1
 GAP=176        0.63       4.9    12.1  8.0 -0.2935E+02  0.3112E+02 -0.5133E+01E
 Epicentro: CEPITA - SANTANDER                                                 3
 ACTION:UP  11-03-28 15:07 OP:jfem STATUS:               ID:20110209094820 L   I
 2011-02-09-0944-34S.COL___136                                                 6
 STAT SP IPHASW D HRMM SECON CODA AMPLIT PERI AZIMU VELO SNR AR TRES W  DIS CAZ7
 BTL  SZ EP   1    948 40.69                             167     0.4 7   33 287 
 BAR2 SZ IP        948 40.31                                    -0.110   35 220 
 BAR2 SZ ES   2    948 56.34                             166     0.1 5   35 220 
 BAR2 SZ I         948 57.98        13.0 0.25                            35 220 
 GIR2 SZ EP   1    948 40.39                             166     0.1 7   36 320 
 RUS  HZ EP   1    948 44.51                             143     0.1 7  104 186 
 RUS  HE ES   2    949  3.42                             143     0.0 5  104 186 
 RUS  HZ I         949  5.70         5.4 0.21                           104 186 
 GRA  SZ IP        948 45.11                             140     0.110  118  10 
 GRA  SZ ES   2    949  3.60                             140    -0.9 5  118  10 
 CHI  HZ EP   1    948 58.40                             117    -0.5 6  257 199 
 CHI  HZ I         949 35.58         2.9 0.39                           257 199 
 HEL  HZ EP   1    949  2.32                             114    -0.1 5  290 256 
 HEL  HZ I         949 38.64         6.2 0.32                           290 256 
                                                                                
