 2012  6 9 0304 31.7 L   6.822 -73.145142.0  RSN  7 0.4 1.8LRSN                1
 GAP=183        0.71       3.2     4.6  6.6  0.5626E+00  0.6423E+01  0.2864E+00E
 Epicentro: LOS SANTOS - SANTANDER                                             3
 ACTION:UPD 12-08-06 17:48 OP:ep   STATUS:               ID:20120609030432 L   I
 2012-06-09-0300-00M.COL___201                                                 6
 STAT SP IPHASW D HRMM SECON CODA AMPLIT PERI AZIMU VELO AIN AR TRES W  DIS CAZ7
 BAR2 SZ EP        3 4 51.07                             169    0.1210 25.8 189 
 BAR2 SZ ES   1    3 5  5.87                             169   -0.08 7 25.8 189 
 BAR2 SZ I         3 5  8.46        19.7 0.20            172           25.8 189 
 RUS  HZ EP   1    3 4 55.27                             142   -0.01 7  103 176 
 RUS  HN ES   1    3 5 13.88                             142    0.22 7  103 176 
 RUS  HZ I         3 5 14.52        12.1 0.37            146            103 176 
 PTB  HZ EP   1    3 4 57.64                             131   -0.79 7  148 258 
 PTB  HN ES   1    3 5 18.78                             131   -0.50 7  148 258 
 PTB  HZ I         3 5 21.81         5.9 0.06            132            148 258 
 OCA  HZ EP   1    3 4 59.43                             129   -0.07 7  158 353 
 OCA  HN ES   1    3 5 21.08                             129   -0.10 7  158 353 
 OCA  HZ I         3 5 26.40        17.7 0.43            129            158 353 
 ZAR  HN ES   1    3 5 29.76                             122    0.87 6  203 291 
 ZAR  HZ I         3 5 33.70         6.1 0.09            122            203 291 
 NOR  SZ EP   1    3 5  7.66                             117    0.27 6  236 234 
 NOR  SN ES   1    3 5 35.19                             117   -0.03 6  236 234 
 CHI  HZ EP   1    3 5  9.71                             116    0.24 6  251 195 
 CHI  HZ I         3 5 12.61         2.7 0.23            118            251 195 
 CHI  HN ES   1    3 5 38.89                             116   -0.03 6  251 195 
                                                                                
