 2010  8 9 0844 12.3 L   6.796 -73.050138.3  RSN 12 0.4 2.6LRSN                1
 GAP=169        0.97       3.4     6.9  6.3 -0.8455E+01 -0.2055E+00  0.3548E+01E
 Epicentro: LOS SANTOS - SANTANDER                                             3
 ACTION:UP  10-09-07 10:53 OP:vdl  STATUS:               ID:20100809084412 L   I
 2010-08-09-0842-38S.COL___125                                                 6
 STAT SP IPHASW D HRMM SECON CODA AMPLIT PERI AZIMU VELO SNR AR TRES W  DIS CAZ7
 BAR2 SZ IP        844 31.18                             168     0.110   27 213 
 BAR2 SZ ES   1    844 45.70                             168     0.0 7   27 213 
 BAR2 SZ I         844 47.34       116.4 0.10                            27 213 
 BTL  SZ EP        844 31.28                             168     0.210   28 299 
 BRR  HZ EP        844 33.01                             148    -0.210   81 295 
 BRR  HE ES        844 49.63                             148     0.110   81 295 
 BRR  HZ I         844 54.28       180.7 0.13                            81 295 
 RUS  HZ EP        844 35.24                             142     0.010  100 182 
 RUS  HN ES   1    844 52.73                             142    -0.4 7  100 182 
 RUS  HZ I         844 55.96        34.7 0.22                           100 182 
 GUE  SZ EP        844 36.06                             138    -0.110  115   7 
 GUE  SZ I         844 37.90        22.5 0.14                           115   7 
 GRA  SZ IP        844 37.02                             136     0.410  123  13 
 GRA  SZ I         844 38.14        68.8 0.37                           123  13 
 GRA  SZ ES   1    844 56.14                             136     0.5 7  123  13 
 OCA  SZ EP        844 39.66                             128    -0.5 9  162 349 
 OCA  SZ ES   1    845  1.33                             128    -0.6 7  162 349 
 OCA  SZ I         845  4.78        72.8 0.28                           162 349 
 CHI  HZ EP   1    844 49.64                             115    -0.2 6  251 198 
 CHI  HN ES   2    845 18.61                             115    -0.5 4  251 198 
 CHI  HZ I         845 22.34        16.1 0.25                           251 198 
 ROSC BZ EP   1    844 51.26                             115     0.7 6  258 213 
 ROSC BN ES   2    845 21.97                             115     1.5 4  258 213 
 ROSC BZ I         845 28.08        23.5 0.51                           258 213 
 HEL  HZ EP   1    844 53.07                             112    -0.2 6  282 256 
 HEL  HZ I         845 29.80        20.1 0.49                           282 256 
 RREF HZ EP   1    844 59.54                             109     0.6 5  330 231 
 RREF HN ES   1    845 35.53                             109     0.1 5  330 231 
 RREF HZ I         845 42.76        22.0 0.31                           330 231 
 PRA  HZ EP   1    845  5.66                             105    -0.4 4  397 211 
 PRA  HE ES   1    845 47.28                             105    -0.8 4  397 211 
 PRA  HZ I         845 53.18        21.6 0.22                           397 211 
                                                                                
