 2016  3 9 0859 20.1 L   6.788 -73.150145.8  RSN  7 0.2 1.4LRSN                1
 GAP=243        0.64       3.2     3.5  4.4  0.3936E+01  0.2037E+01 -0.1039E+01E
 Epicentro: LOS SANTOS - SANTANDER                                             3
 ACTION:UPD 16-05-13 21:22 OP:cam  STATUS:               ID:20160309085920 L   I
 OLDACT:REG 16-03-09 13:52 OP:cara STATUS:               ID:20160309085748     3
 2016-03-09-0857-48M.COL___288                                                 6
 STAT SP IPHASW D HRMM SECON CODA AMPLIT PERI AZIMU VELO AIN AR TRES W  DIS CAZ7
 BAR2 EZ IP        859 39.66                             171    0.0110 21.9 189 
 BAR2 EZ ES        859 54.96                             171    0.0210 21.9 189 
 BAR2 EZ I         859 55.70        10.4 0.22            166           21.9 189 
 RUS  HZ EP        859 43.53                             144   -0.1810 99.2 176 
 RUS  HN ES        9 0  2.06                             144   -0.1010 99.2 176 
 RUS  HZ I         9 0  2.87         2.0 0.30            144           99.2 176 
 PTB  HZ EP        859 46.76                             132   -0.19 9  147 259 
 PTB  HN ES        9 0  7.70                             132   -0.23 9  147 259 
 PTB  HZ I         9 0 14.72         4.1 0.34            130            147 259 
 SPBC HZ IP        859 48.55                             129    0.13 9  162 219 
 SPBC HN ES        9 0 10.76                             129    0.22 9  162 219 
 SPBC HZ I         9 0 16.57         3.8 0.22            128            162 219 
 ZAR  HZ EP        859 52.47                             122   -0.03 9  204 293 
 ZAR  HN ES        9 0 18.06                             122    0.25 9  204 293 
 ZAR  HZ I         9 0 23.03         2.0 0.18            122            204 293 
 CHI  HZ EP        859 57.72                             117    0.13 8  247 195 
 CHI  HN ES        9 0 27.00                             117    0.13 8  247 195 
 CHI  HZ I         9 0 29.17         1.0 0.36            118            247 195 
 GUY2CHZ EP   9    9 0  5.94                             112    2.42 0  300 235 
 GUY2CHN ES        9 0 38.92                                   -0.93 7  300 235 
 GUY2CHZ I         9 0 45.48         1.2 0.34                           300 235 
                                                                                
