 2010  9 9 0607 40.5 L   6.776 -73.059146.0  RSN 13 0.6 2.4LRSN                1
 GAP=169        1.43       5.0     9.3  9.9 -0.1940E+02  0.1396E+02  0.4270E+01E
 Epicentro: LOS SANTOS - SANTANDER                                             3
 ACTION:UP  11-02-18 11:01 OP:tino STATUS:               ID:20100909060740 L   I
 2010-09-09-0604-26S.COL___120                                                 6
 STAT SP IPHASW D HRMM SECON CODA AMPLIT PERI AZIMU VELO SNR AR TRES W  DIS CAZ7
 BAR2 SZ IP        6 7 60.00                             170    -0.210   25 214 
 BAR2 SZ ES   1    6 8 14.99                             170    -0.6 7   25 214 
 BAR2 SZ I         6 8 17.84        70.8 0.34                            25 214 
 BTL  SZ IP        6 8  0.98                             169     0.710   28 304 
 GIR2 SZ EP   1    6 8  0.10                             165    -0.3 7   37 336 
 BRR  HZ EP        6 8  1.90                             149    -0.410   81 297 
 BRR  HE ES   1    6 8 19.25                             149     0.0 7   81 297 
 BRR  HZ I         6 8 21.55        52.4 0.19                            81 297 
 RUS  HZ EP        6 8  3.83                             145    -0.310   98 182 
 RUS  HE ES   1    6 8 22.54                             145     0.0 7   98 182 
 RUS  HZ I         6 8 24.05        15.2 0.21                            98 182 
 GUE  SZ EP        6 8  5.07                             139    -0.310  117   7 
 GUE  SZ I         6 8  6.44        12.1 0.10                           117   7 
 GRA  SZ IP        6 8  6.80                             137     1.010  126  13 
 GRA  SZ ES   1    6 8 26.46                             137     0.9 7  126  13 
 GRA  SZ I         6 8 27.75        37.0 0.39                           126  13 
 OCA  SZ EP        6 8  8.43                             129    -0.8 9  164 350 
 OCA  SZ ES   1    6 8 31.27                             129    -0.4 7  164 350 
 OCA  SZ I         6 8 35.42        29.7 0.48                           164 350 
 CHI  HZ EP   1    6 8 17.81                             117    -0.5 6  249 197 
 CHI  HN ES   1    6 8 47.56                             117    -0.1 6  249 197 
 CHI  HZ I         6 8 55.82        11.2 0.39                           249 197 
 ROSC BZ EP   1    6 8 20.06                             116     1.1 6  256 213 
 ROSC BE ES   1    6 8 50.03                             116     1.1 6  256 213 
 ROSC BZ I         6 8 56.27        23.5 0.55                           256 213 
 HEL  HZ EP   1    6 8 21.98                             114     0.2 6  281 257 
 HEL  HN ES   1    6 8 54.42                             114     0.6 6  281 257 
 HEL  HZ I         6 8 58.23        11.0 0.54                           281 257 
 RREF HZ EP   1    6 8 27.05                             110    -0.3 5  327 231 
 RREF HN ES   1    6 9  3.31                             110    -0.5 5  327 231 
 RREF HZ I         6 9  9.43        16.3 0.37                           327 231 
 PRA  HZ EP   1    6 8 33.66                             106    -0.7 4  395 211 
 PRA  HE ES   1    6 9 16.66                             106     0.3 4  395 211 
 PRA  HZ I         6 9 21.63        17.9 0.18                           395 211 
                                                                                
