 2011  4 9 0047 14.2 L   6.789 -73.171144.0  RSN 13 0.3 2.8LRSN                1
 GAP=112        0.72       3.1     4.3  5.4 -0.2244E+01  0.4493E+01  0.4066E+01E
 Epicentro: LOS SANTOS - SANTANDER                                             3
 ACTION:UP  11-06-22 15:29 OP:REBC STATUS:               ID:20110409004714 L   I
 2011-04-09-0044-10S.COL___138                                                 6
 STAT SP IPHASW D HRMM SECON CODA AMPLIT PERI AZIMU VELO SNR AR TRES W  DIS CAZ7
 BTL  SZ EP        047 33.78                             173     0.310   18 323 
 BAR2 SZ IP        047 33.61                             171     0.110   22 183 
 BAR2 SZ ES   1    047 48.61                             171    -0.1 7   22 183 
 BAR2 SZ I         047 51.29       133.4 0.20                            22 183 
 GIR2 SZ EP   1    047 33.65                             167     0.0 7   32 356 
 BRR  HZ IP     C  047 35.38                             153     0.410   69 300 
 BRR  HN ES   1    047 50.89                             153    -0.4 7   69 300 
 BRR  HZ I         047 56.22       197.9 0.18                            69 300 
 PAM  SZ EP        047 36.51                             149     0.210   80  41 
 PAM  SN ES   1    047 53.33                             149    -0.3 7   80  41 
 GRA  SZ EP   1    047 39.24                             136    -0.2 7  128  18 
 GRA  SZ I         048  3.50        45.7 0.21                           128  18 
 OCA  SZ EP   1    047 41.68                             129    -0.7 7  161 354 
 OCA  SZ ES   1    048  4.96                             129     0.5 7  161 354 
 OCA  SZ I         048  8.26        86.3 0.39                           161 354 
 YOP  SZ EP   1    047 44.06                             126     0.0 7  179 152 
 YOP  SN ES   2    048  7.23                             126    -0.2 4  179 152 
 YOP  SZ I         048 10.66        60.5 0.46                           179 152 
 NOR  SZ EP   1    047 49.40                             118    -0.1 6  232 234 
 NOR  SE ES   2    048 17.48                             118     0.5 4  232 234 
 CHI  HZ EP   1    047 51.65                             117     0.1 6  247 195 
 CHI  HN ES   1    048 20.56                             117    -0.2 6  247 195 
 CHI  HZ I         048 24.43        53.6 0.33                           247 195 
 HEL  HZ EP   2    047 54.57                             115     0.6 4  269 256 
 HEL  HN ES   2    048 24.50                             115    -0.5 4  269 256 
 HEL  HZ I         048 34.02        46.5 0.48                           269 256 
 DBB  SZ EP   1    048  0.55                             109    -0.7 5  337 274 
 TOL  SZ EP   1    048  2.09                             109     0.1 5  341 224 
                                                                                
