 2013  4 9 0415  1.9 L   6.741 -73.160146.3  RSN  4 0.3 1.3LRSN                1
 GAP=231        0.73       5.8     5.8  7.4  0.1754E+02 -0.5095E+01 -0.3609E+01E
 Epicentro: VILLANUEVA - SANTANDER                                             3
 ACTION:UPD 13-05-22 14:36 OP:EP   STATUS:               ID:20130409041501 L   I
 2013-04-09-0408-46M.COL___218                                                 6
 STAT SP IPHASW D HRMM SECON CODA AMPLIT PERI AZIMU VELO AIN AR TRES W  DIS CAZ7
 BAR2 SZ EP        415 21.35                             173   -0.0810 16.6 188 
 BRR  HZ EP        415 23.01                             152   -0.1610 73.2 304 
 BRR  HN ES        415 39.92                             152    0.1310 73.2 304 
 BRR  HN I         415 43.33         4.8 0.44            151           73.2 304 
 RUS  HZ EP        415 25.73                             146    0.5210 94.2 175 
 RUS  HN ES        415 43.16                             146   -0.2610 94.2 175 
 PTB  HZ EP        415 28.30                             133   -0.32 9  145 261 
 PTB  HN ES        415 49.65                             133    0.16 9  145 261 
 PTB  HZ I         415 52.20         1.7 0.38            134            145 261 
                                                                                
