 2012  3 9 0345  4.0 L   7.267 -72.906  1.6  RSN  4 0.2 1.2LRSN                1
 GAP=154        0.46       2.4     3.4  6.5  0.7688E+00  0.1700E+02  0.1462E+01E
 ACTION:UP  12-03-31 23:18 OP:EP   STATUS:               ID:20120309034504 L   I
 2012-03-09-0340-00M.COL___194                                                 6
 STAT SP IPHASW D HRMM SECON CODA AMPLIT PERI AZIMU VELO SNR AR TRES W  DIS CAZ7
 PAM  SZ EP   1    345  9.13                              47     0.0 9   24  71 
 PAM  SZ I         345 34.83        29.5 0.11                            24  71 
 RUS  HZ EP   1    345 28.94                              47     0.2 8  153 187 
 RUS  HN ES   1    345 47.87                              47    -0.1 8  153 187 
 RUS  HZ I         345 50.38         4.0 0.31                           153 187 
 PTB  HZ EP   1    345 33.13                              37    -0.3 8  189 245 
 PTB  HZ I         345 56.27                                            189 245 
 ZAR  HN ES        346  2.47                              37     0.110  217 277 
                                                                                
