 2016  7 9 0322 59.7 L   6.827 -73.116151.4  RSN 11 0.4 1.6LRSN                1
 GAP=212        0.80       2.7     3.9  4.3  0.2117E+01  0.3221E+01  0.6426E+00E
 Epicentro: LOS SANTOS - SANTANDER                                             3
 ACTION:UPD 17-03-29 16:48 OP:lp   STATUS:               ID:20160709032259 L   I
 OLDACT:UP  16-07-09 16:25 OP:edw  STATUS:               ID:20160709031742     3
 OLDACT:REG 16-07-09 14:16 OP:edw  STATUS:               ID:20160709031742     3
 2016-07-09-0317-42M.COL___333                                                 6
 STAT SP IPHASW D HRMM SECON CODA AMPLIT PERI AZIMU VELO AIN AR TRES W  DIS CAZ7
 BAR2 EZ EP        323 20.24                             170    0.1810 27.0 196 
 BAR2 EZ ES        323 35.84                             170   -0.1210 27.0 196 
 BAR2 EZ I         323 36.49         7.2 0.18            168           27.0 196 
 BRR  HZ EP        323 21.53                             153    0.0110 72.8 295 
 BRR  HN ES        323 38.76                             153    0.2010 72.8 295 
 RUS  HZ EP        323 24.31                             144    0.1310  103 178 
 RUS  HE ES        323 43.20                             144   -0.1010  103 178 
 RUS  HZ I         323 44.54         2.6 0.36            144            103 178 
 PTB  HZ EP        323 26.80                             133   -0.64 9  152 258 
 PTB  HE ES        323 48.98                             133   -0.13 9  152 258 
 PTB  HZ I         323 50.92         3.3 0.11            132            152 258 
 SPBC HZ EP        323 29.51                             130    0.49 9  168 219 
 SPBC HE ES        323 52.16                             130    0.25 9  168 219 
 SPBC HZ I         323 54.50         8.1 0.10            129            168 219 
 ZAR  HZ EP        323 32.76                             123    0.07 8  206 291 
 ZAR  HE ES        323 58.77                             123    0.33 8  206 291 
 ZAR  HZ I         324  3.43         3.7 0.30            123            206 291 
 NOR  HN ES        324  4.03                             119   -0.66 8  239 234 
 CHI  HZ EP        323 37.74                             118   -0.35 8  252 196 
 CHI  HN ES        324  7.76                             118   -0.30 8  252 196 
 GUY2CHZ EP        323 44.04                             113    0.00 7  306 235 
 GUY2CHN ES        324 18.76                             113    0.12 7  306 235 
 GUY2CHZ I         324 25.47         1.5 0.38                           306 235 
 PRA  HZ EP        323 54.83                             107    0.95 6  396 210 
 PRA  HE ES        324 36.50                             107    0.34 6  396 210 
 PRA  HZ I         324 41.46         2.6 0.34            107            396 210 
 SJC  HZ EP        323 54.61                             107   -0.73 6  409 326 
 SJC  HE ES        324 38.83                             107    0.06 6  409 326 
                                                                                
