 2010  3 9 0232 49.5 L   7.127 -73.453 34.6  RSN  5 0.4 2.4LRSN                1
 GAP=146        1.10       3.5     7.1 13.7  0.9846E+01 -0.6615E+02 -0.9825E+01E
 Epicentro: SAN VICENTE DE CHUCURI - SANTANDER                                 3
 ACTION:UP  10-08-24 09:52 OP:vdl  STATUS:               ID:20100309023249 L   I
 2010-03-09-0229-44S.COL___101                                                 6
 STAT SP IPHASW D HRMM SECON CODA AMPLIT PERI AZIMU VELO SNR AR TRES W  DIS CAZ7
 BRR  HZ IP        232 56.19                             128    -0.210   29 266 
 BRR  HE ES   1    233  2.03                             128     0.2 7   29 266 
 BRR  HZ I         233  3.02       253.6 0.13                            29 266 
 BAR2 SZ IP        233  0.63                              95    -0.410   66 153 
 BAR2 SZ ES        233  9.55                              95    -0.510   66 153 
 OCA  SZ IP        233  8.35                              91     0.210  124   7 
 OCA  SZ ES   1    233 22.65                              91     0.0 7  124   7 
 OCA  SZ I         233 27.12       154.0 0.50                           124   7 
 RUS  BZ EP   1    233 11.20                              91     0.3 7  142 163 
 RUS  BN ES        233 28.36                              91     0.8 9  142 163 
 RUS  BZ I         233 29.81        24.1 0.54                           142 163 
 HEL  HZ EP   2    233 24.67                              81     0.3 4  252 246 
 HEL  HN ES   2    233 50.82                              81    -0.7 4  252 246 
                                                                                
