 2012 11 9 0001 23.8 L   6.085 -73.716112.9  RSN  4 0.4 2.4LRSN                1
 GAP=139        1.04       7.0     3.9 11.7 -0.1877E+01  0.1071E+02  0.6936E+01E
 Epicentro: BOLIVAR - SANTANDER                                                3
 ACTION:UPD 12-12-05 15:32 OP:}ep  STATUS:               ID:20121109000123 L   I
 OLDACT:REG 12-11-09 08:58 OP:stll STATUS:               ID:20121109000000     3
 2012-11-09-0000-00M.COL___228                                                 6
 STAT SP IPHASW D HRMM SECON CODA AMPLIT PERI AZIMU VELO AIN AR TRES W  DIS CAZ7
 RUS  HZ EP        0 1 42.26                             145   -0.1210 73.2 107 
 RUS  HN ES        0 1 56.43                             145   -0.4110 73.2 107 
 RUS  HN I         0 1 57.88         9.0 0.30                          73.2 107 
 BAR2 SZ EP        0 1 42.99                             142    0.3710 81.4  46 
 BAR2 SZ ES        0 1 57.73                             142    0.4510 81.4  46 
 BAR2 SZ I         0 1 58.44        65.5 0.16                          81.4  46 
 PTB  HZ EP        0 1 43.00                             136   -0.4910 96.1 302 
 PTB  HN ES        0 1 58.54                             136   -0.2810 96.1 302 
 PTB  HN I         0 2  0.61       258.0 0.14                          96.1 302 
 NOR  HE ES        0 2  6.72                             125    0.54 9  140 246 
                                                                                
