 2012  4 9 0430 45.6 L   6.707 -73.207152.4  RSN  4 0.2 1.3LRSN                1
 GAP=223        0.51       5.7     5.7  6.8  0.2158E+02 -0.3844E+00 -0.2608E+01E
 Epicentro: VILLANUEVA - SANTANDER                                             3
 *BRR-PTB-RUS                                                                  3
 ACTION:UPD 12-07-05 11:52 OP:tino STATUS:               ID:20120409043045 L   I
 2012-04-09-0430-00M.COL___196                                                 6
 STAT SP IPHASW D HRMM SECON CODA AMPLIT PERI AZIMU VELO AIN AR TRES W  DIS CAZ7
 BRR  HZ EP   1    431  7.35                             154    -0.1 7   71 308 
 BRR  HZ I         431  7.63         5.2 0.32                            71 308 
 BRR  HE ES   1    431 24.69                             154     0.1 7   71 308 
 RUS  HZ EP   1    431  9.67                             148     0.3 7   91 171 
 RUS  HN ES   1    431 27.66                             148    -0.3 7   91 171 
 RUS  HZ I         431 30.49         1.9 0.38                            91 171 
 PTB  HZ EP   1    431 12.30                             135    -0.1 7  139 262 
 PTB  HN ES   1    431 33.47                             135     0.2 7  139 262 
 PTB  HZ I         431 37.04         2.6 0.55                           139 262 
 ZAR  HE ES   1    431 43.58                             124    -0.2 6  202 296 
                                                                                
