 2011 10 9 0904 56.4 L   6.821 -73.012148.1  RSN  4 0.2 1.4LRSN                1
 GAP=219        0.41       4.3     8.4  4.5  0.2227E+02 -0.9964E+01 -0.2090E+01E
 Epicentro: CEPITA - SANTANDER                                                 3
 ACTION:UPD 12-07-13 16:02 OP:ep   STATUS:               ID:20111009090456 L   I
 2011-10-09-0900-00M.COL___171                                                 6
 STAT SP IPHASW D HRMM SECON CODA AMPLIT PERI AZIMU VELO AIN AR TRES W  DIS CAZ7
 BAR2 SZ EP   1    9 5 16.76                             167    0.22 7 31.5 217 
 BAR2 SZ ES   1    9 5 31.93                             167   -0.29 7 31.5 217 
 BAR2 SZ I         9 5 32.81         6.5 0.34                          31.5 217 
 GIR2 SZ EP   1    9 5 16.39                             166   -0.10 7 34.9 325 
 GIR2 SZ ES   1    9 5 32.28                             166    0.15 7 34.9 325 
 BRR  HZ EP   1    9 5 18.39                             149   -0.19 7 83.6 292 
 BRR  HN ES   1    9 5 35.96                             149    0.12 7 83.6 292 
 BRR  HZ I         9 5 41.35         6.0 0.13                          83.6 292 
 RUS  HZ EP   1    9 5 20.62                             144    0.03 7  103 184 
 RUS  HN ES   1    9 5 39.50                             144    0.07 7  103 184 
 RUS  HZ I         9 5 40.37         3.2 0.53                           103 184 
                                                                                
