 2017  1 9 0404 52.2 L   6.812 -73.155144.1  RSN 10 0.4 1.6LRSN                1
 GAP=135        0.99       4.0     4.2  6.7 -0.1130E+01  0.9456E+01  0.4505E+01E
 Epicentro: LOS SANTOS - SANTANDER                                             3
 ACTION:UPD 17-05-22 15:57 OP:jn   STATUS:               ID:20170109040452 L   I
 OLDACT:UP  17-01-09 15:38 OP:e    STATUS:               ID:20170109035754d    3
 OLDACT:UP  17-01-09 15:38 OP:e    STATUS:               ID:20170109035754d    3
 OLDACT:UP  17-01-09 15:37 OP:e    STATUS:               ID:20170109035754d    3
 OLDACT:UP  17-01-09 15:36 OP:e    STATUS:               ID:20170109035754d    3
 OLDACT:UP  17-01-09 15:35 OP:e    STATUS:               ID:20170109035754d    3
 OLDACT:DUP 17-01-09 15:33 OP:e    STATUS:               ID:20170109035754d    3
 OLDACT:UP  17-01-09 15:24 OP:e    STATUS:               ID:20170109035751d    3
 OLDACT:UP  17-01-09 15:24 OP:e    STATUS:               ID:20170109035751d    3
 OLDACT:UP  17-01-09 15:23 OP:e    STATUS:               ID:20170109035751d    3
 OLDACT:DUP 17-01-09 15:19 OP:e    STATUS:               ID:20170109035751d    3
 OLDACT:UP  17-01-09 15:19 OP:e    STATUS:               ID:20170109035750     3
 OLDACT:UP  17-01-09 15:18 OP:e    STATUS:               ID:20170109035750     3
 OLDACT:UP  17-01-09 15:17 OP:e    STATUS:               ID:20170109035750     3
 OLDACT:UP  17-01-09 15:17 OP:e    STATUS:               ID:20170109035750     3
 OLDACT:UP  17-01-09 15:15 OP:e    STATUS:               ID:20170109035750     3
 OLDACT:REG 17-01-09 12:51 OP:and  STATUS:               ID:20170109035750     3
 2017-01-09-0358-00M.COL___347                                                 6
 STAT SP IPHASW D HRMM SECON CODA AMPLIT PERI AZIMU VELO AIN AR TRES W  DIS CAZ7
 BAR2 EZ EP        4 5 11.59                             170   -0.0610 24.4 187 
 BAR2 EZ ES        4 5 27.23                             170    0.4110 24.4 187 
 BAR2 EZ I         4 5 28.22         8.1 0.33            167           24.4 187 
 BRR  HZ EP        4 5 13.33                             153    0.2510 69.7 298 
 BRR  HN ES   3    4 5 30.74                             153    1.37 2 69.7 298 
 BRR  HZ I         4 5 35.26         6.2 0.16            150           69.7 298 
 PAM  EZ EP        4 5 14.44                             150    0.2310 77.1  41 
 PAM  EN ES        4 5 31.44                             150    0.0510 77.1  41 
 PAM  EZ I         4 5 33.90         3.6 0.27            157           77.1  41 
 RUS  HZ EP        4 5 15.34                             143   -0.5410  102 176 
 RUS  HN ES        4 5 33.93                             143   -0.4210  102 176 
 RUS  HZ I         4 5 35.37         5.4 0.34            144            102 176 
 PTB  HZ EP        4 5 18.47                             132   -0.49 9  147 258 
 PTB  HN ES        4 5 39.60                             132   -0.23 9  147 258 
 PTB  HZ I         4 5 42.44         4.9 0.22            131            147 258 
 ZAR  HN ES        4 5 49.10                             122   -0.39 9  203 292 
 ZAR  HZ I         4 5 56.07         6.1 0.21            123            203 292 
 NOR  HN ES        4 5 55.94                             118    0.33 8  235 234 
 NOR  HZ I         4 6  3.25         3.9 0.16            119            235 234 
 CHI  HZ EP        4 5 29.85                             117   -0.06 8  250 195 
 CHI  HN ES        4 5 59.62                             117    0.30 8  250 195 
 CHI  HZ I         4 6  4.14         1.8 0.22            118            250 195 
 ROSC BZ EP   4    4 5 32.20                             116    1.91 0  253 211 
 ROSC BN ES   4    4 5 58.37                             116   -1.63 0  253 211 
 ROSC BZ I         4 6  9.54         5.2 0.35            117            253 211 
 GUY2CHZ EP        4 5 36.79                             112    1.07 7  301 234 
 GUY2CHN ES   4    4 6 13.14                             112    3.47 0  301 234 
 GUY2CHZ I         4 6 18.77         2.6 0.30                           301 234 
 PTGC HZ EP   4    4 5 34.42                             111   -1.74 0  310 159 
                                                                                
