 2012 11 9 0110 36.8 L   6.743 -73.185145.2  RSN  4 0.3 1.8LRSN                1
 GAP=228        0.87       6.8     6.5  7.0  0.2165E+02  0.4972E+01  0.1662E+01E
 Epicentro: VILLANUEVA - SANTANDER                                             3
 ACTION:UPD 12-12-05 15:32 OP:}ep  STATUS:               ID:20121109011036 L   I
 2012-11-09-0100-00M.COL___228                                                 6
 STAT SP IPHASW D HRMM SECON CODA AMPLIT PERI AZIMU VELO AIN AR TRES W  DIS CAZ7
 BAR2 SZ EP        110 56.02                             173   -0.2010 16.7 179 
 BAR2 SZ ES        111 10.84                             173   -0.5410 16.7 179 
 BAR2 SZ I         111 12.10         8.8 0.22                          16.7 179 
 BRR  HZ EP        110 57.95                             153    0.1210 70.8 305 
 BRR  HN ES        111 14.71                             153    0.4510 70.8 305 
 BRR  HN I         111 15.33        23.0 0.24                          70.8 305 
 RUS  HZ EP        110 59.99                             145   -0.0610 94.7 173 
 RUS  HN ES        111 18.67                             145    0.4610 94.7 173 
 PTB  HZ EP        111  3.22                             133    0.02 9  142 261 
 PTB  HN ES        111 23.55                             133   -0.27 9  142 261 
                                                                                
