 2012  4 9 0400 47.7 L   5.846 -73.844114.3  RSN  4 0.2 1.2LRSN                1
 GAP=232        0.46       5.0     3.6  6.4  0.1170E+02  0.1829E+01 -0.6639E+00E
 Epicentro: JESUS MARIA - SANTANDER                                            3
 ACTION:UP  12-07-05 11:52 OP:tino STATUS:               ID:20120409040047 L   I
 2012-04-09-0400-00M.COL___196                                                 6
 STAT SP IPHASW D HRMM SECON CODA AMPLIT PERI AZIMU VELO AIN AR TRES W  DIS CAZ7
 RUS  HZ EP   1    4 1  7.40                             141     0.2 8   84  86 
 RUS  HN ES   1    4 1 22.27                             141    -0.2 8   84  86 
 PTB  HZ EP   1    4 1  8.17                             135     0.1 7  102 319 
 PTB  HE ES        4 1 23.85                             135     0.010  102 319 
 BRR  HZ EP   1    4 1 11.28                             125    -0.3 7  140   6 
 BRR  HZ I         4 1 12.41         2.2 0.38                           140   6 
 BRR  HE ES   1    4 1 30.36                             125     0.2 7  140   6 
 ZAR  HN ES   1    4 1 44.01                             113    -0.1 6  214 328 
 ZAR  HZ I         4 1 47.69         1.5 0.12                           214 328 
                                                                                
