 2016  6 9 0629 49.6 L   6.832 -73.132147.8  RSN 12 0.6 1.9LRSN                1
 GAP=137        1.38       4.2     5.9  8.3 -0.7896E+01  0.6724E+01  0.9124E+01E
 Epicentro: LOS SANTOS - SANTANDER                                             3
 ACTION:UPD 16-07-21 22:16 OP:rebc STATUS:               ID:20160609062949 L   I
 OLDACT:REG 16-06-09 13:19 OP:dani STATUS:               ID:20160609062744     3
 2016-06-09-0627-44M.COL___337                                                 6
 STAT SP IPHASW D HRMM SECON CODA AMPLIT PERI AZIMU VELO AIN AR TRES W  DIS CAZ7
 BAR2 EZ EP        630  9.20                             169   -0.3610 27.1 192 
 BAR2 EZ I         630 25.38        18.9 0.22                          27.1 192 
 BRR  HZ EP        630 11.01                             153    0.0510 71.0 295 
 BRR  HE ES        630 28.27                             153    0.6510 71.0 295 
 BRR  HZ I         630 28.65        13.2 0.10                          71.0 295 
 PAM  EZ EP        630 12.18                             152    0.3510 73.6  40 
 PAM  EE ES        630 29.27                             152    0.1210 73.6  40 
 PAM  EZ I         630 31.30        21.5 0.50                          73.6  40 
 RUS  HZ EP        630 13.64                             143   -0.1710  104 177 
 RUS  HE ES        630 32.55                             143   -0.1410  104 177 
 RUS  HZ I         630 32.91         8.5 0.26                           104 177 
 PTB  HZ EP        630 16.03                             132   -0.92 9  150 258 
 PTB  HE ES        630 38.08                             132   -0.19 9  150 258 
 PTB  HZ I         630 39.85         5.7 0.17                           150 258 
 OCA  HZ EP        630 17.51                             131   -0.26 9  157 352 
 OCA  HE ES        630 39.73                             131    0.00 9  157 352 
 OCA  HZ I         630 43.97        16.8 0.48                           157 352 
 SPBC HZ EP        630 18.35                             129   -0.27 9  167 219 
 SPBC HN ES        630 40.45                             129   -0.80 9  167 219 
 SPBC HZ I         630 46.71        10.1 0.11                           167 219 
 NOR  HE ES        630 53.72                             118   -0.33 8  238 234 
 NOR  HZ I         630 54.52         5.6 0.16                           238 234 
 CHI  HZ EP        630 27.70                             117   -0.14 8  252 195 
 CHI  HN ES        630 57.22                             117   -0.43 8  252 195 
 CHI  HZ I         631  0.10         4.5 0.56                           252 195 
 ROSC BZ EP        630 29.36                             117    1.10 8  257 211 
 ROSC BN ES        631  0.14                             117    1.73 8  257 211 
 ROSC BZ I         631  2.99         7.9 0.35                           257 211 
 CBOC HZ EP        630 37.96                             110    1.06 7  336 252 
 CBOC HN ES        631 13.59                             110   -0.20 7  336 252 
 CBOC HZ I         631 17.27         1.0 0.20                           336 252 
 PRA  HZ EP        630 43.12                             107   -0.53 6  396 210 
 PRA  HE ES        631 26.40                             107    0.60 6  396 210 
 PRA  HZ I         631 31.20         2.8 0.24                           396 210 
                                                                                
