 2013  7 9 0153 40.0 L   6.776 -73.265135.7  RSN  5 0.3 1.3LRSN                1
 GAP=143        0.84       5.1     5.2  6.4  0.4980E+01  0.9299E+01  0.3448E+01E
 Epicentro: ZAPATOCA - SANTANDER                                               3
 ACTION:UPD 13-08-12 10:36 OP:ep   STATUS:               ID:20130709015340 L   I
 OLDACT:REG 13-07-09 07:32 OP:nd   STATUS:               ID:20130709014959     3
 2013-07-09-0149-59M.COL___267                                                 6
 STAT SP IPHASW D HRMM SECON CODA AMPLIT PERI AZIMU VELO AIN AR TRES W  DIS CAZ7
 BAR2 SZ EP        153 58.14                             170   -0.2810 22.3 156 
 BAR2 SZ ES        154 12.88                             170    0.1110 22.3 156 
 BAR2 SZ I         154 14.18         6.9 0.22            172           22.3 156 
 GIR2 SZ EP        153 58.29                             165   -0.3010 34.4  13 
 GIR2 SZ ES        154 12.94                             165   -0.1310 34.4  13 
 GIR2 SZ I         154 14.29         4.2 0.10            166           34.4  13 
 BRR  HZ EP        154  0.16                             154    0.6210 61.5 307 
 BRR  HN ES   2    154 15.08                             154    0.32 5 61.5 307 
 BRR  HZ I         154 19.45         7.9 0.42            153           61.5 307 
 RUS  HZ EP        154  2.48                             142   -0.2510 99.8 168 
 RUS  HN ES        154 20.71                             142    0.2610 99.8 168 
 RUS  HZ I         154 21.65         2.4 0.36            145           99.8 168 
 PTB  HZ EP        154  5.23                             132    0.2810  134 259 
 PTB  HN ES        154 24.00                             132   -0.3910  134 259 
 PTB  HZ I         154 28.32         3.0 0.16            133            134 259 
                                                                                
