 2013  8 9 0514 38.3 L   6.788 -73.162146.2  RSN 10 0.4 1.7LRSN                1
 GAP=135        0.86       2.8     4.2  5.3 -0.9446E+00  0.5931E+01  0.4008E+01E
 Epicentro: LOS SANTOS - SANTANDER                                             3
 ACTION:UPD 14-01-14 09:00 OP:ep   STATUS:               ID:20130809051438 L   I
 OLDACT:REG 13-08-09 06:27 OP:jn   STATUS:               ID:20130809050960d    3
 2013-08-09-0509-59M.COL___266                                                 6
 STAT SP IPHASW D HRMM SECON CODA AMPLIT PERI AZIMU VELO AIN AR TRES W  DIS CAZ7
 BAR2 SZ EP        514 57.96                             171    0.0210 21.8 186 
 BAR2 SZ ES        515 13.11                             171   -0.1610 21.8 186 
 BAR2 SZ I         515 16.51        10.0 0.18            167           21.8 186 
 GIR2 SZ EP        514 58.38                             167    0.3410 32.3 354 
 GIR2 SZ ES        515 13.37                             167   -0.0810 32.3 354 
 GIR2 SZ I         515 15.08         8.5 0.12            165           32.3 354 
 BRR  HZ EP        514 59.94                             153    0.5110 70.2 300 
 BRR  HN ES   1    515 16.86                             153    0.94 7 70.2 300 
 BRR  HZ I         515 21.21         9.2 0.12            147           70.2 300 
 PAM  SN ES        515 18.01                             150   -0.1410 79.6  40 
 PAM  SZ I         515 20.52         6.2 0.74            149           79.6  40 
 RUS  HZ EP        515  1.86                             144   -0.1410 99.4 175 
 RUS  HN ES        515 20.33                             144   -0.1610 99.4 175 
 RUS  HZ I         515 21.87         5.3 0.22            139           99.4 175 
 PTB  HZ EP        515  4.63                             132   -0.48 9  146 259 
 PTB  HN ES        515 25.63                             132   -0.39 9  146 259 
 PTB  HZ I         515 31.26         8.5 0.26            126            146 259 
 SPBC HZ EP        515  6.96                             129    0.35 9  161 219 
 SPBC HN ES        515 29.08                             129    0.37 9  161 219 
 SPBC HZ I         515 35.94        15.0 0.18            124            161 219 
 OCA  HN ES        515 28.59                             129   -0.33 9  161 354 
 ZAR  HN ES   1    515 35.54                             123   -0.33 6  203 293 
 ZAR  HZ I         515 42.35         9.9 0.42            117            203 293 
 CHI  HZ EP        515 15.75                             117   -0.07 8  247 195 
 CHI  HN ES        515 44.91                             117   -0.18 8  247 195 
 CHI  HZ I         515 51.15         3.3 0.30            113            247 195 
                                                                                
