 2011  1 9 0456 21.7 L   6.777 -73.171142.0  RSN 15 0.4 2.7LRSN                1
 GAP=134        0.83       2.7     4.2  6.1 -0.2389E+01  0.9234E+01  0.1933E+01E
 Epicentro: LOS SANTOS - SANTANDER                                             3
 ACTION:UP  11-02-08 08:39 OP:pat  STATUS:               ID:20110109045621 L   I
 2011-01-09-0455-11S.COL___135                                                 6
 STAT SP IPHASW D HRMM SECON CODA AMPLIT PERI AZIMU VELO SNR AR TRES W  DIS CAZ7
 BTL  SZ IP        456 41.22                             172     0.410   19 326 
 BAR2 SZ IP        456 40.81                             171     0.010   21 184 
 BAR2 SZ ES   1    456 55.90                             171     0.2 7   21 184 
 BAR2 SZ I         456 57.30       244.6 0.21                            21 184 
 RUS  HZ IP     C  456 44.72                             144    -0.210   98 174 
 RUS  HN ES   1    457  2.43                             144    -0.6 7   98 174 
 RUS  HZ I         457  4.58        96.5 0.24                            98 174 
 GRA  SZ EP        456 46.60                             135    -0.310  129  18 
 GRA  SZ ES   1    457  6.77                             135     0.3 7  129  18 
 GRA  SZ I         457 12.35        38.0 0.23                           129  18 
 OCA  SZ EP   1    456 49.26                             128    -0.7 7  163 354 
 OCA  SZ ES   1    457 12.01                             128     0.1 7  163 354 
 OCA  SZ I         457 15.88        52.2 0.22                           163 354 
 YOP  SZ IP        456 51.29                             126    -0.1 9  178 152 
 YOP  SZ I         456 52.50        22.0 0.16                           178 152 
 YOP  SE ES   1    457 15.09                             126     0.6 7  178 152 
 NOR  SZ EP   1    456 56.33                             118    -0.5 6  231 235 
 NOR  SE ES   1    457 24.06                             118    -0.1 6  231 235 
 CHI  HZ EP        456 58.68                             117    -0.1 8  245 195 
 CHI  HE ES   1    457 27.21                             117    -0.6 6  245 195 
 CHI  HZ I         457 32.29        27.1 0.43                           245 195 
 ROSC BZ EP   1    457  0.09                             116     0.9 6  249 211 
 ROSC BE ES   1    457 29.04                             116     0.6 6  249 211 
 ROSC BZ I         457 35.16        56.0 0.42                           249 211 
 HEL  HZ EP   1    457  1.66                             114     0.3 6  269 256 
 HEL  HE ES   1    457 31.86                             114    -0.4 6  269 256 
 HEL  HZ I         457 38.69        26.1 0.37                           269 256 
 VIL  SZ EP   2    457  4.39                             112     0.0 4  299 189 
 VIL  SN ES   2    457 37.49                             112    -0.2 4  299 189 
 VIL  SZ I         457 45.69        23.0 0.52                           299 189 
 RREF HZ EP   1    457  7.50                             110     0.3 5  318 229 
 RREF HN ES   1    457 43.06                             110     0.3 5  318 229 
 RREF HZ I         457 52.26        34.0 0.45                           318 229 
 DBB  SZ EP   1    457  8.90                             109     0.2 5  337 275 
 TOL  SZ EP   1    457  9.97                             109     0.6 5  340 225 
 PRA  HZ EP   1    457 14.36                             106    -0.3 4  388 209 
 PRA  HE ES   1    457 55.56                             106    -0.4 4  388 209 
                                                                                
