 2017  8 9 0840 35.5 L   6.813 -73.083147.1  RSN  4 0.2 1.1LRSN                1
 GAP=245        0.47       2.9     4.4  3.8  0.2866E+01  0.4196E+00  0.1248E+01E
 Epicentro: LOS SANTOS - SANTANDER                                             3
 ACTION:UPD 17-09-04 20:18 OP:rebc STATUS:               ID:20170809084035 L   I
 OLDACT:DUP 17-08-09 17:26 OP:dhb  STATUS:               ID:20170809083741d    3
 2017-08-09-0838-00M.COL___387                                                 6
 STAT SP IPHASW D HRMM SECON CODA AMPLIT PERI AZIMU VELO AIN AR TRES W  DIS CAZ7
 BAR2 EZ EP        840 55.24                             169   -0.1310 26.8 204 
 BAR2 EZ ES        841 10.65                             169   -0.2110 26.8 204 
 BAR2 EZ I         841 11.51         2.8 0.16            173           26.8 204 
 BRR  HZ EP        840 57.14                             151    0.0310 76.7 295 
 BRR  HZ I         841 10.29         3.2 0.29            143           76.7 295 
 BRR  HN ES        841 14.11                             151    0.1510 76.7 295 
 RUS  HZ EP        840 59.72                             144    0.2410  102 180 
 RUS  HN ES        841 18.27                             144    0.1010  102 180 
 RUS  HZ I         841 19.05         1.6 0.22            144            102 180 
 SPBC HZ EP        841  4.41                             128   -0.22 9  169 220 
 SPBC HE ES        841 27.36                             128    0.01 9  169 220 
 SPBC HZ I         841 29.09         1.6 0.13            125            169 220 
                                                                                
