 2013 10 9 0423 44.8 L   6.773 -73.110151.8  RSN 12 0.4 1.9LRSN                1
 GAP=142        0.77       2.6     4.2  4.9  0.9603E+00  0.6423E+01  0.1170E+01E
 Epicentro: LOS SANTOS - SANTANDER                                             3
 ACTION:UPD 13-11-25 09:20 OP:ep   STATUS:               ID:20131009042344 L   I
 OLDACT:UP  13-10-09 11:39 OP:mh   STATUS:               ID:20131009041959     3
 OLDACT:REG 13-10-09 07:49 OP:mh   STATUS:               ID:20131009041959     3
 2013-10-09-0419-59M.COL___273                                                 6
 STAT SP IPHASW D HRMM SECON CODA AMPLIT PERI AZIMU VELO AIN AR TRES W  DIS CAZ7
 BAR2 SZ EP   1    424  5.17                             172    0.00 7 21.5 202 
 BAR2 SZ ES        424 20.97                             172   -0.0510 21.5 202 
 BAR2 SZ I         424 21.82        16.9 0.40            167           21.5 202 
 BRR  HZ EP        424  7.08                             152    0.1610 76.0 299 
 BRR  HN ES        424 24.64                             152    0.5010 76.0 299 
 BRR  HZ I         424 27.58        11.2 0.32            150           76.0 299 
 PAM  SZ EP   1    424  8.02                             152    0.32 7 77.4  36 
 PAM  SN ES   1    424 25.27                             152   -0.26 7 77.4  36 
 PAM  SZ I         424 27.48         8.8 0.74            157           77.4  36 
 RUS  HZ EP   1    424  8.99                             146    0.02 7 97.4 178 
 RUS  HN ES        424 27.66                             146   -0.1310 97.4 178 
 RUS  HZ I         424 29.26         4.8 0.42            145           97.4 178 
 PTB  HZ EP   1    424 12.07                             133   -0.53 7  151 260 
 PTB  HN ES   4    424 33.01                             133   -1.25 0  151 260 
 PTB  HZ I         424 38.97         9.2 0.18            131            151 260 
 SPBC HZ EP   1    424 14.13                             130    0.30 7  163 221 
 SPBC HN ES        424 36.06                             130   -0.38 9  163 221 
 SPBC HZ I         424 42.91        14.9 0.24            129            163 221 
 ZAR  HZ EP   1    424 17.33                             123   -0.84 6  209 293 
 ZAR  HN ES        424 43.99                             123   -0.18 8  209 293 
 ZAR  HZ I         424 49.11        10.1 0.42            123            209 293 
 NOR  HZ EP   1    424 21.08                             120   -0.01 6  236 236 
 NOR  HN ES   1    424 50.10                             120    0.74 6  236 236 
 NOR  HZ I         424 53.62         5.8 0.18            119            236 236 
 CHI  HZ EP   1    424 23.48                             119    0.79 6  247 196 
 CHI  HN ES        424 51.97                             119   -0.24 8  247 196 
 CHI  HZ I         425  0.58         2.9 0.38            119            247 196 
 SML  HZ EP   4    424 22.12                             118   -0.16 0  248 335 
 SML  HN ES        424 51.36                             118   -0.12 8  248 335 
 SML  HZ I         424 52.75         9.1 0.28            120            248 335 
 GUY2CHZ EP   4    424 31.09                             113    2.18 0  303 236 
 GUY2CHE ES   4    425  6.44                             113    3.17 0  303 236 
 GUY2CHZ I         425 12.05         3.2 0.32                           303 236 
 PRA  HZ EP   1    424 38.75                             108    0.25 4  391 210 
 PRA  HN ES   4    425 21.97                             108    1.61 0  391 210 
 PRA  HZ I         425 26.34         3.3 0.62            108            391 210 
                                                                                
