 2017  5 9 0013 16.7 L   6.775 -73.170139.2  RSN  8 0.3 2.1LRSN                1
 GAP=110        0.84       3.1     2.9  6.0  0.8894E+00  0.2408E+01  0.4919E+01E
 Epicentro: LOS SANTOS - SANTANDER                                             3
 ACTION:UPD 17-06-16 13:34 OP:jn   STATUS:               ID:20170509001316 L   I
 OLDACT:DUP 17-05-09 13:17 OP:lv   STATUS:               ID:20170509000744d    3
 2017-05-09-0008-00M.COL___362                                                 6
 STAT SP IPHASW D HRMM SECON CODA AMPLIT PERI AZIMU VELO AIN AR TRES W  DIS CAZ7
 BRR  HZ EP        013 37.24                             152    0.1710 70.3 302 
 BRR  HN ES        013 53.44                             152    0.4710 70.3 302 
 PAM  EZ EP        013 38.35                             148   -0.0910 81.3  40 
 PAM  EN ES        013 55.25                             148   -0.1710 81.3  40 
 RUS  HZ EP        013 39.44                             143   -0.1610 98.0 174 
 RUS  HN ES        013 57.53                             143    0.0510 98.0 174 
 PTB  HZ EP        013 42.52                             131   -0.30 9  145 260 
 PTB  HN ES        014  2.37                             131   -0.85 9  145 260 
 PTB  HZ I         014  7.20        27.7 0.04            131            145 260 
 SPBC HZ EP        013 44.50                             128    0.19 9  159 219 
 SPBC HN ES        014  6.23                             128    0.37 9  159 219 
 SPBC HZ I         014  9.11        11.3 0.11            129            159 219 
 YPLC HZ EP        013 45.86                             125   -0.03 9  176 150 
 YPLC HN ES        014  8.63                             125   -0.05 9  176 150 
 ZAR  HZ EP   4    013 50.79                             121    2.23 0  203 293 
 ZAR  HN ES        014 13.60                             121    0.18 9  203 293 
 NOR  HZ EP        013 52.14                             117    0.52 8  231 235 
 NOR  HE ES        014 18.65                             117   -0.22 8  231 235 
                                                                                
