 2013  4 9 1154 34.6 L   6.691 -73.187145.0  RSN  5 0.4 1.5LRSN                1
 GAP=178        0.82       9.7     6.7  7.6  0.1812E+02  0.2168E+02  0.1511E+02E
 Epicentro: VILLANUEVA - SANTANDER                                             3
 ACTION:UPD 13-05-22 14:36 OP:EP   STATUS:               ID:20130409115434 L   I
 2013-04-09-1150-00M.COL___245                                                 6
 STAT SP IPHASW D HRMM SECON CODA AMPLIT PERI AZIMU VELO AIN AR TRES W  DIS CAZ7
 BAR2 SZ EP       1154 54.02                             175    0.1110 10.9 177 
 BAR2 SZ ES       1155  8.90                             175   -0.1110 10.9 177 
 BAR2 SZ I        1155 11.43        10.1 0.24            172           10.9 177 
 GIR2 SZ ES   1   1155  9.52                             163   -0.55 7 42.9 359 
 GIR2 SZ I        1155 11.43         3.9 0.15            167           42.9 359 
 BRR  HZ EP       1154 55.82                             151    0.0410 74.0 308 
 BRR  HE ES   1   1155 13.22                             151    0.88 7 74.0 308 
 PTB  HZ EP       1155  0.91                             133    0.03 9  141 263 
 PTB  HN ES   1   1155 21.30                             133   -0.12 7  141 263 
 PTB  HZ I        1155 24.24         4.3 0.10            134            141 263 
 ZAR  HN ES   1   1155 31.87                             122   -0.48 6  205 296 
                                                                                
