 2012  4 9 1202 43.0 L   6.771 -73.117140.6  RSN  7 0.3 2.1LRSN                1
 GAP=142        0.61       2.9     3.3  5.2  0.3299E-01  0.5436E+01  0.3131E+00E
 Epicentro: LOS SANTOS - SANTANDER                                             3
 ACTION:UPD 12-07-05 11:52 OP:tino STATUS:               ID:20120409120243 L   I
 2012-04-09-1200-00M.COL___196                                                 6
 STAT SP IPHASW D HRMM SECON CODA AMPLIT PERI AZIMU VELO AIN AR TRES W  DIS CAZ7
 BAR2 SZ EP       12 3  2.00                             171     0.110   21 200 
 BAR2 SZ I        12 3  2.67        24.9 0.21                            21 200 
 BAR2 SZ ES   1   12 3 16.89                             171     0.2 7   21 200 
 BRR  HZ EP       12 3  3.84                             150     0.010   76 300 
 BRR  HZ I        12 3  4.32        33.1 0.14                            76 300 
 BRR  HE ES   1   12 3 20.54                             150     0.5 7   76 300 
 PAM  SZ EP       12 3  4.82                             150     0.110   78  36 
 PAM  SE ES   1   12 3 21.29                             150    -0.3 7   78  36 
 RUS  HZ EP   1   12 3  5.98                             144     0.0 7   97 178 
 RUS  HE ES   1   12 3 23.70                             144    -0.2 7   97 178 
 RUS  HZ I        12 3 25.59        13.7 0.30                            97 178 
 OCA  SZ ES   1   12 3 32.93                             128    -0.3 7  164 352 
 ZAR  HZ EP   1   12 3 16.00                             121     0.5 6  208 293 
 ZAR  HE ES       12 3 40.68                             121    -0.2 8  208 293 
 ZAR  HZ I        12 3 46.22        21.2 0.38                           208 293 
 NOR  SZ EP   1   12 3 18.35                             117    -0.1 6  235 236 
 NOR  SN ES   1   12 3 45.92                             117    -0.3 6  235 236 
                                                                                
