 2014  2 9 1701 47.2 L   6.640 -73.670  4.3  RSN  4 0.2 1.1LRSN                1
 GAP=121        0.63       1.7     1.4  4.0  0.6604E+00 -0.2761E+00 -0.9043E-01E
 Epicentro: EL CARMEN DE CHUCURI - SANTANDER                                   3
 ACTION:UPD 14-03-10 08:09 OP:ep   STATUS:               ID:20140209170147 L   I
 OLDACT:REG 14-02-09 16:18 OP:nd   STATUS:               ID:20140209170000     3
 2014-02-09-1700-00M.COL___291                                                 6
 STAT SP IPHASW D HRMM SECON CODA AMPLIT PERI AZIMU VELO AIN AR TRES W  DIS CAZ7
 BRR  HZ EP       17 1 55.63                              47    0.0110 51.9 355 
 BRR  HN ES       17 2  2.40                              47    0.1810 51.9 355 
 BRR  HZ I        17 2  3.12        16.4 0.10             47           51.9 355 
 BAR2 SZ EP       17 1 56.35                              47    0.1410 54.1  96 
 BAR2 SZ ES       17 2  2.78                              47   -0.4810 54.1  96 
 BAR2 SZ I        17 2  3.85        16.5 0.22             47           54.1  96 
 PTB  HZ EP       17 2  0.98                              47   -0.0810 87.7 263 
 PTB  HN ES       17 2 11.73                              47   -0.1710 87.7 263 
 PTB  HZ I        17 2 13.80        15.9 0.14             47           87.7 263 
 RUS  HZ EP       17 2  4.36                              47    0.1810  105 142 
 RUS  HN ES       17 2 17.69                              47    0.2310  105 142 
 RUS  HZ I        17 2 18.64         1.2 0.28             47            105 142 
                                                                                
