 2010  7 9 1834 23.6 L   6.776 -73.170142.8  RSN  5 0.3 1.5LRSN                1
 GAP=153        0.60       3.7     9.4  9.3 -0.6107E+01 -0.1940E+02  0.6647E+01E
 Epicentro: LOS SANTOS - SANTANDER                                             3
 ACTION:UPD 10-12-01 15:16 OP:pat  STATUS:               ID:20100709183423 L   I
 2010-07-09-1831-18S.COL___120                                                 6
 STAT SP IPHASW D HRMM SECON CODA AMPLIT PERI AZIMU VELO AIN AR TRES W  DIS CAZ7
 BAR2 SZ EP   1   1834 42.59                             171    -0.3 7   20 184 
 BAR2 SZ I        1835  0.30        10.5 0.27                            20 184 
 BRR  HZ EP   1   1834 44.35                                    -0.1 7   70 301 
 BRR  HE ES   2   1835  0.68                             153     0.1 5   70 301 
 RUS  HZ EP       1834 46.83                             144    -0.110   98 174 
 RUS  HN ES   2   1835  5.62                             144     0.5 5   98 174 
 RUS  HZ I        1835  6.49         4.9 0.27                            98 174 
 BRI  SZ ES   3   1835  5.33                             140    -0.8 2  112  22 
 BRI  SZ I        1835 10.81         7.1 0.54                           112  22 
 GUE  SZ EP       1834 48.60                             138     0.310  120  13 
 GUE  SZ ES   1   1835  7.51                             138    -0.1 7  120  13 
 GUE  SZ I        1835  9.39         1.7 0.34                           120  13 
                                                                                
