 2017  4 9 1233 56.9 L   6.764 -73.186140.8  RSN  6 0.2 1.6LRSN                1
 GAP=133        0.55       2.5     2.6  4.3 -0.5637E-01  0.2666E+01  0.7031E+00E
 Epicentro: LOS SANTOS - SANTANDER                                             3
 ACTION:UPD 17-05-30 21:10 OP:jn   STATUS:               ID:20170409123356 L   I
 OLDACT:UP  17-04-09 23:30 OP:edw  STATUS:               ID:20170409122712     3
 OLDACT:UP  17-04-09 23:28 OP:edw  STATUS:               ID:20170409122712     3
 OLDACT:REG 17-04-09 20:36 OP:edw  STATUS:               ID:20170409122712     3
 2017-04-09-1228-00M.COL___371                                                 6
 STAT SP IPHASW D HRMM SECON CODA AMPLIT PERI AZIMU VELO AIN AR TRES W  DIS CAZ7
 BAR2 EZ EP       1234 15.78                             172   -0.0610 19.0 179 
 BAR2 EZ ES       1234 30.44                             172   -0.1910 19.0 179 
 BAR2 EZ I        1234 31.61        10.6 0.14            173           19.0 179 
 BRR  HZ EP       1234 17.74                             152    0.3310 69.5 303 
 BRR  HN ES       1234 33.65                             152    0.2410 69.5 303 
 PAM  EZ EP       1234 18.72                             148   -0.2310 83.3  40 
 PAM  EN ES       1234 36.08                             148   -0.0810 83.3  40 
 PAM  EZ I        1234 37.96         4.8 0.66            149           83.3  40 
 RUS  HZ EP       1234 20.09                             144    0.1910 97.0 173 
 RUS  HN ES       1234 37.91                             144    0.0710 97.0 173 
 RUS  HZ I        1234 39.94         6.8 0.38            146           97.0 173 
 PTB  HN ES   4   1234 41.81                             132   -1.55 0  143 260 
 ZAR  HZ EP   4   1234 30.43                             122    1.67 0  202 294 
 ZAR  HN ES       1234 53.43                             122   -0.18 9  202 294 
 ZAR  HZ I        1235  0.72         4.2 0.46            121            202 294 
 NOR  HN ES       1234 58.65                             118   -0.20 8  229 235 
                                                                                
