 2015  3 9 1045 14.8 L   6.823 -73.130145.2  RSN 12 0.4 1.7LRSN                1
 GAP=137        0.95       3.1     4.9  5.8 -0.2908E+01  0.6341E+01  0.1360E+01E
 Epicentro: LOS SANTOS - SANTANDER                                             3
 ACTION:UPD 15-04-30 16:24 OP:nd   STATUS:               ID:20150309104514 L   I
 OLDACT:DUP 15-03-09 23:39 OP:spq  STATUS:               ID:20150309103748d    3
 2015-03-09-1037-47M.COL___281                                                 6
 STAT SP IPHASW D HRMM SECON CODA AMPLIT PERI AZIMU VELO AIN AR TRES W  DIS CAZ7
 BAR2 EZ EP       1045 34.34                             169   -0.0510 26.2 193 
 BAR2 EZ ES   1   1045 49.08                             169   -0.61 7 26.2 193 
 BAR2 EZ I        1045 51.59        15.4 0.26            169           26.2 193 
 BRR  HZ EP       1045 36.36                             152    0.4910 71.6 296 
 BRR  HE ES       1045 53.08                             152    0.7410 71.6 296 
 BRR  HZ I        1045 53.47        13.5 0.12            150           71.6 296 
 PAM  SZ EP       1045 37.25                             152    0.5110 74.3  40 
 PAM  SN ES   1   1045 53.95                             152    0.07 7 74.3  40 
 PAM  SZ I        1045 56.66         6.8 0.41            153           74.3  40 
 RUS  HZ EP   1   1045 38.83                             143    0.19 7  103 177 
 RUS  HE ES       1045 56.78                             143   -0.4810  103 177 
 RUS  HZ I        1045 58.80         6.7 0.26            144            103 177 
 PTB  HZ EP       1045 41.29                             131   -0.60 9  150 258 
 PTB  HE ES   1   1046  2.66                             131   -0.39 7  150 258 
 PTB  HZ I        1046  6.61         5.9 0.14            130            150 258 
 OCA  HN ES   1   1046  4.30                             130   -0.39 7  158 352 
 OCA  HZ I        1046  7.50         5.9 0.22            130            158 352 
 SPBC HZ EP       1045 43.39                             128   -0.12 9  166 219 
 SPBC HE ES   1   1046  6.43                             128    0.49 7  166 219 
 SPBC HZ I        1046  9.81         8.2 0.40            128            166 219 
 NOR  HZ EP       1045 50.81                             118    0.04 8  238 234 
 NOR  HE ES       1046 18.88                             118    0.02 8  238 234 
 NOR  HZ I        1046 21.12         5.1 0.24            118            238 234 
 SML  HZ EP       1045 50.88                             117   -0.31 8  242 335 
 SML  HE ES   1   1046 18.84                             117   -0.76 6  242 335 
 SML  HZ I        1046 28.50         5.5 0.24            117            242 335 
 CHI  HZ EP   1   1045 52.75                             117   -0.00 6  252 195 
 CHI  HN ES   1   1046 22.20                             117   -0.18 6  252 195 
 CHI  HZ I        1046 27.93         2.1 0.30            117            252 195 
 MON  HZ EP   4   1046  3.17                             108   -0.55 0  353 308 
 MON  HE ES   4   1046 41.14                             108   -0.77 0  353 308 
 MON  HZ I        1046 46.17         1.1 0.52            108            353 308 
 PRA  HZ EP   1   1046  9.30                             106    0.67 4  395 210 
 PRA  HE ES   1   1046 51.26                             106    0.62 4  395 210 
 PRA  HZ I        1046 56.02         2.7 0.32            107            395 210 
                                                                                
