 2016 10 9 1759 17.8 L   6.798 -73.146140.0  RSN  8 0.3 1.7LRSN                1
 GAP=137        0.87       3.0     3.7  6.3 -0.3278E+01  0.9236E+01 -0.4588E+01E
 Epicentro: LOS SANTOS - SANTANDER                                             3
 ACTION:UPD 16-11-09 19:18 OP:rebc STATUS:               ID:20161009175917 L   I
 OLDACT:DUP 16-10-10 01:58 OP:lv   STATUS:               ID:20161009175745d    3
 2016-10-09-1758-00M.COL___354                                                 6
 STAT SP IPHASW D HRMM SECON CODA AMPLIT PERI AZIMU VELO AIN AR TRES W  DIS CAZ7
 BAR2 EZ EP       1759 36.65                             170   -0.1010 23.2 190 
 BAR2 EZ ES       1759 51.43                             170   -0.0910 23.2 190 
 BAR2 EZ I        1759 52.61         9.5 0.18            169           23.2 190 
 PAM  EZ IP     C 1759 39.62                             150    0.1910 77.5  39 
 PAM  EN ES       1759 56.48                             150    0.1910 77.5  39 
 PAM  EZ I        1759 58.73        11.3 0.59            154           77.5  39 
 RUS  HZ EP       1759 41.04                             143    0.0510  100 176 
 RUS  HN ES       1759 59.15                             143    0.0810  100 176 
 PTB  HZ EP       1759 43.68                             131   -0.64 9  148 259 
 PTB  HN ES       18 0  4.78                             131   -0.21 9  148 259 
 PTB  HZ I        18 0  7.39         8.5 0.17            131            148 259 
 OCA  HZ EP       1759 46.00                             128    0.30 9  160 353 
 OCA  HE ES       18 0  6.81                             128   -0.64 9  160 353 
 SPBC HN ES       18 0  7.95                             128    0.21 9  163 219 
 SPBC HZ I        18 0 14.20         3.9 0.14            128            163 219 
 ZAR  HZ EP       1759 50.02                             121    0.12 9  204 292 
 ZAR  HN ES       18 0 15.69                             121    0.77 9  204 292 
 ZAR  HZ I        18 0 19.72         5.8 0.18            122            204 292 
 NOR  HE ES       18 0 20.64                             117   -0.17 8  235 234 
 NOR  HZ I        18 0 26.03         4.4 0.16            118            235 234 
                                                                                
