 2013  4 9 1630 45.6 L   6.803 -73.156147.4  RSN 10 0.4 2.3LRSN                1
 GAP=237        0.90       4.9     6.4  6.0  0.1419E+02  0.1205E+02  0.1143E+02E
 Epicentro: LOS SANTOS - SANTANDER                                             3
 ACTION:UPD 13-05-22 14:37 OP:EP   STATUS:               ID:20130409163046dL   I
 2013-04-09-1630-00M.COL___245                                                 6
 STAT SP IPHASW D HRMM SECON CODA AMPLIT PERI AZIMU VELO AIN AR TRES W  DIS CAZ7
 BAR2 SZ EP       1631  5.32                             171   -0.0810 23.5 187 
 BAR2 SZ ES       1631 20.23                             171   -0.6310 23.5 187 
 BAR2 SZ I        1631 21.62        77.9 0.22            161           23.5 187 
 BRR  HZ EP       1631  7.18                             153    0.3510 70.0 299 
 BRR  HE ES       1631 24.15                             153    0.7410 70.0 299 
 BRR  HZ I        1631 28.38        27.7 0.31            139           70.0 299 
 RUS  HZ EP       1631  9.52                             144    0.0110  101 175 
 RUS  HN ES   1   1631 28.33                             144    0.15 7  101 175 
 RUS  HZ I        1631 29.16        28.0 0.28            138            101 175 
 PTB  HZ EP   1   1631 11.93                             133   -0.64 7  147 259 
 PTB  HN ES   1   1631 33.27                             133   -0.37 7  147 259 
 PTB  HZ I        1631 40.00        21.2 0.40            121            147 259 
 ZAR  HN ES   1   1631 43.09                             123   -0.20 6  203 292 
 ZAR  HZ I        1631 48.99        16.0 0.42            114            203 292 
 NOR  HZ EP       1631 21.26                             119   -0.05 8  234 234 
 CHI  HZ EP       1631 23.60                             117    0.24 8  249 195 
 CHI  HN ES       1631 52.93                             117    0.09 8  249 195 
 CHI  HZ I        1631 56.20        11.0 0.34            111            249 195 
 HEL  HZ EP   3   1631 26.99                             115    1.24 2  271 256 
 HEL  HZ I        1632  3.51         8.2 0.28            108            271 256 
 URE  HZ EP   1   1631 25.76                             114   -0.82 6  283 292 
 PRA  HZ EP       1631 39.43                             107    0.32 6  392 209 
 PRA  HN ES   1   1632 21.03                             107    0.15 4  392 209 
 PRA  HZ I        1632 25.40         9.2 0.28            102            392 209 
                                                                                
