 2010  9 9 1213 20.2 L   6.784 -73.102142.1  RSN  6 0.1 1.5LRSN                1
 GAP=164        0.35       2.6     5.7  5.0 -0.9670E+00 -0.8792E+01 -0.2718E+01E
 Epicentro: LOS SANTOS - SANTANDER                                             3
 ACTION:UP  11-02-18 11:01 OP:tino STATUS:               ID:20100909121320 L   I
 2010-09-09-1213-10S.COL___120                                                 6
 STAT SP IPHASW D HRMM SECON CODA AMPLIT PERI AZIMU VELO SNR AR TRES W  DIS CAZ7
 BAR2 SZ EP   1   1213 39.42                             170     0.1 7   23 203 
 BAR2 SZ I        1213 39.72         9.1 0.40                            23 203 
 BAR2 SZ ES   2   1213 54.06                             170    -0.2 5   23 203 
 GIR2 SZ EP   1   1213 39.45                             166     0.0 7   34 343 
 BRR  HZ EP   1   1213 41.19                             150     0.0 7   76 298 
 BRR  HE ES   2   1213 57.73                             150     0.1 5   76 298 
 BRR  HZ I        1214 12.83         9.8 0.54                            76 298 
 RUS  HZ EP   1   1213 43.45                             144     0.1 7   99 179 
 RUS  HN ES   2   1214  1.55                             144     0.0 5   99 179 
 RUS  HZ I        1214  3.61         3.4 0.34                            99 179 
 GUE  SZ EP   1   1213 44.34                             138    -0.2 7  117  10 
 GRA  SZ EP   1   1213 45.20                             136     0.1 7  126  15 
 GRA  SZ ES   2   1214  4.76                             136     0.2 5  126  15 
 GRA  SZ I        1214  6.62         4.9 0.28                           126  15 
                                                                                
