 2013  3 9 1838 25.0 L   5.935 -73.780108.9  RSN  9 0.3 2.1LRSN                1
 GAP= 84        0.67       1.8     2.5  5.1  0.2154E+00  0.4602E+01  0.1244E+01E
 Epicentro: GUAVATA - SANTANDER                                                3
 ACTION:UPD 13-04-09 14:01 OP:ep   STATUS:               ID:20130309183825 L   I
 2013-03-09-1830-00M.COL___231                                                 6
 STAT SP IPHASW D HRMM SECON CODA AMPLIT PERI AZIMU VELO AIN AR TRES W  DIS CAZ7
 RUS  HZ EP       1838 43.63                             142    0.2110 77.3  93 
 RUS  HE ES       1838 57.46                             142   -0.3510 77.3  93 
 RUS  HE I        1838 59.88        26.9 0.37            142           77.3  93 
 BAR2 SZ IP       1838 45.18                             135    0.4210 98.3  42 
 BAR2 SZ ES       1839  0.33                             135    0.1210 98.3  42 
 PTB  HZ EP   1   1838 44.01                             134   -0.63 7  100 312 
 PTB  HE ES       1839  0.26                             134    0.2710  100 312 
 PTB  HZ I        1839  1.79        24.3 0.14            127            100 312 
 BRR  HZ IP     C 1838 47.34                             126   -0.0510  130   3 
 BRR  HN ES       1839  4.94                             126    0.0710  130   3 
 BRR  HN I        1839  8.73        69.2 0.26            122            130   3 
 CHI  HZ EP       1838 49.52                             123    0.12 9  144 178 
 CHI  HN ES       1839  8.28                             123   -0.17 9  144 178 
 CHI  HZ I        1839 16.27        10.1 0.36            117            144 178 
 HEL  HZ EP   1   1838 55.25                             114    0.41 6  196 278 
 HEL  HZ I        1839 22.15         9.0 0.58            109            196 278 
 PAM  SZ EP   1   1838 54.85                             114   -0.17 6  196  37 
 PAM  SN ES       1839 18.45                             114   -0.02 9  196  37 
 PAM  SZ I        1839 21.81         9.7 0.23            112            196  37 
 ZAR  HZ EP       1838 55.46                             112   -0.47 8  209 325 
 ZAR  HN ES       1839 19.90                             112   -0.18 8  209 325 
 ZAR  HZ I        1839 23.87        18.8 0.38            109            209 325 
 PRA  HZ EP   1   1839  3.68                             106    0.21 6  275 207 
 PRA  HE ES   1   1839 33.59                             106    0.08 6  275 207 
 PRA  HZ I        1839 37.91         7.6 0.21            103            275 207 
                                                                                
