 2017  3 9 1002 16.0 L   6.803 -73.125142.9  RSN 11 0.3 1.6LRSN                1
 GAP=139        0.62       2.4     2.5  3.4 -0.8152E+00  0.2563E+01  0.1196E+01E
 Epicentro: LOS SANTOS - SANTANDER                                             3
 ACTION:UPD 17-05-25 18:38 OP:jn   STATUS:               ID:20170309100216 L   I
 OLDACT:UP  17-03-09 21:38 OP:cara STATUS:               ID:20170309095634d    3
 OLDACT:DUP 17-03-09 21:28 OP:cara STATUS:               ID:20170309095634d    3
 2017-03-09-0958-00M.COL___394                                                 6
 STAT SP IPHASW D HRMM SECON CODA AMPLIT PERI AZIMU VELO AIN AR TRES W  DIS CAZ7
 BAR2 EZ IP       10 2 35.29                             170   -0.0010 24.1 195 
 BAR2 EZ ES       10 2 50.01                             170   -0.3410 24.1 195 
 BAR2 EZ I        10 2 55.03         7.1 0.19            168           24.1 195 
 BRR  HZ EP       10 2 37.03                             151    0.0910 73.1 297 
 BRR  HE ES       10 2 53.34                             151    0.0610 73.1 297 
 BRR  HZ I        10 2 54.56         9.4 0.12            149           73.1 297 
 PAM  EZ EP       10 2 38.10                             151    0.3010 75.7  38 
 PAM  EE ES       10 2 54.78                             151   -0.0310 75.7  38 
 PAM  EZ I        10 2 57.25         5.2 0.32            155           75.7  38 
 RUS  HZ EP       10 2 39.58                             143    0.1110  101 177 
 RUS  HN ES       10 2 57.77                             143   -0.0210  101 177 
 RUS  HZ I        10 3  0.32         3.6 0.26            144            101 177 
 PTB  HZ EP   9   10 2 42.14                             131   -0.80 0  150 259 
 PTB  HN ES       10 3  2.97                                   -0.19 9  150 259 
 PTB  HZ I        10 3  5.75         5.0 0.14            130            150 259 
 SPBC HZ EP       10 2 44.30                             128   -0.13 9  165 220 
 SPBC HN ES       10 3  6.77                             128    0.15 9  165 220 
 SPBC HZ I        10 3 13.59         6.6 0.30            128            165 220 
 ZAR  HZ EP       10 2 47.92                             121   -0.54 8  206 292 
 ZAR  HE ES       10 3 14.17                             121    0.38 8  206 292 
 ZAR  HZ I        10 3 18.99         4.4 0.16            122            206 292 
 URE  HZ EP   4   10 2 55.03                             113   -2.12 0  286 292 
 URE  HN ES   4   10 3 23.25                             113   -6.01 0  286 292 
 URE  HZ I        10 3 37.49         2.7 0.28            113            286 292 
 GUY2CHZ EP   4   10 3  1.06                             111    1.36 0  303 235 
 GUY2CHE ES       10 3 34.13                             111    0.33 7  303 235 
 GUY2CHZ  IAML    10 3 43.62         2.6 0.70                           303 235 
 CBOC HZ EP       10 3  2.88                             109   -0.17 7  336 252 
 CBOC HE ES       10 3 39.35                             109   -0.41 7  336 252 
 CBOC HZ I        10 3 51.20         1.0 0.40            110            336 252 
 PRA  HZ EP       10 3  9.16                             106   -0.42 6  393 210 
 PRA  HE ES       10 3 51.83                             106    0.45 6  393 210 
 PRA  HZ I        10 3 55.17         1.4 0.56            107            393 210 
 SJC  HZ EP   4   10 3  9.60                             105   -1.98 0  410 327 
 SJC  HN ES   4   10 3 50.92                             105   -4.02 0  410 327 
                                                                                
