 2017  5 9 1041  7.4 L   6.796 -73.418125.8  RSN  4 0.2 1.0LRSN                1
 GAP=203        0.60       4.3     4.1  6.0  0.1117E+02  0.2456E+01  0.3677E+01E
 Epicentro: SAN VICENTE DE CHUCURI - SANTANDER                                 3
 ACTION:UPD 17-06-16 13:34 OP:jn   STATUS:               ID:20170509104107 L   I
 OLDACT:REG 17-05-09 20:05 OP:edw  STATUS:               ID:20170509103745     3
 2017-05-09-1038-00M.COL___356                                                 6
 STAT SP IPHASW D HRMM SECON CODA AMPLIT PERI AZIMU VELO AIN AR TRES W  DIS CAZ7
 BRR  HZ EP       1041 24.71                             158   -0.3510 47.3 317 
 BRR  HN ES       1041 38.97                             158    0.1010 47.3 317 
 RUS  HZ EP       1041 29.99                             137    0.3210  107 160 
 RUS  HN ES       1041 47.03                             137   -0.0510  107 160 
 PTB  HZ EP       1041 29.88                             134   -0.1410  118 256 
 PTB  HN ES       1041 47.63                             134   -0.0810  118 256 
 PTB  HZ I        1041 51.89         1.9 0.32            132            118 256 
 ZAR  HN ES       1041 58.04                             122    0.26 9  177 296 
                                                                                
