 2010 10 9 1956 41.0 L   6.718 -73.125133.3  RSN 10 0.6 2.3LRSN                1
 GAP=181        1.38       7.9     9.0 10.0 -0.4662E+02 -0.1003E+02  0.2991E+02E
 Epicentro: JORDAN - SANTANDER                                                 3
 ACTION:UP  11-02-18 11:08 OP:tino STATUS:               ID:20101009195641 L   I
 2010-10-09-1952-53S.COL___121                                                 6
 STAT SP IPHASW D HRMM SECON CODA AMPLIT PERI AZIMU VELO SNR AR TRES W  DIS CAZ7
 BAR2 SZ EP       1956 58.40                             173    -0.610   15 205 
 BAR2 SZ ES   1   1957 13.17                             173     0.1 7   15 205 
 BAR2 SZ I        1957 15.91        81.0 0.19                            15 205 
 BTL  SZ EP       1956 59.03                             168    -0.210   27 325 
 BRR  HZ EP       1957  0.55                             147    -0.710   78 304 
 BRR  HN ES       1957 17.36                             147     0.310   78 304 
 BRR  HZ I        1957 18.72        42.6 0.26                            78 304 
 GUE  SZ EP       1957  5.56                             134     0.210  125  10 
 GUE  SZ I        1957 32.55         8.1 0.17                           125  10 
 GRA  SZ EP       1957  6.26                             132     0.410  134  15 
 GRA  SZ ES   1   1957 25.68                             132     0.4 7  134  15 
 GRA  SZ I        1957 26.97        23.6 0.23                           134  15 
 NOR  SZ EP   1   1957 15.20                             116    -0.5 6  232 237 
 NOR  SN ES       1957 42.21                             116    -0.6 8  232 237 
 NOR  SZ I        1957 46.34         3.1 0.48                           232 237 
 CHI  HZ EP   1   1957 17.42                             115     0.3 6  241 196 
 CHI  HZ I        1957 51.64        10.9 0.09                           241 196 
 HEL  HZ EP   1   1957 20.40                             112    -0.2 6  272 258 
 HEL  HN ES   1   1957 51.59                             112     0.0 6  272 258 
 HEL  HZ I        1957 57.57        13.6 0.71                           272 258 
 RREF HZ EP       1957 26.99                             109     0.8 7  318 231 
 RREF HN ES       1958  2.26                             109     0.9 7  318 231 
 RREF HZ I        1958  7.15        15.6 0.73                           318 231 
 PRA  HZ EP   1   1957 32.43                             105    -0.9 4  385 211 
 PRA  HN ES   1   1958 15.59                             105     1.4 4  385 211 
 PRA  HZ I        1958 20.85        45.5 0.14                           385 211 
                                                                                
