 2014  5 9 1846 10.4 L   7.252 -73.842 25.1  RSN  6 0.5 2.0LRSN                1
 GAP=104        1.09       3.5     3.1  3.7 -0.1212E+01  0.2706E+01 -0.4015E+01E
 Epicentro: PUERTO WILCHES - SANTANDER                                         3
 OLDACT:REG 14-05-09 21:01 OP:stll STATUS:               ID:20140509183816     3
 ACTION:UPD 15-03-16 16:56 OP:nd   STATUS:               ID:20140509184610 L   I
 OLDACT:UP  14-05-12 07:43 OP:FM   STATUS:               ID:20140509184610 L   3
 OLDACT:UP  14-05-10 01:53 OP:mh   STATUS:               ID:20140509183816     3
 2014-05-09-1838-16M.COL___236                                                 6
 STAT SP IPHASW D HRMM SECON CODA AMPLIT PERI AZIMU VELO AIN AR TRES W  DIS CAZ7
 BRR  HZ IP     C 1846 15.72                             137    0.0210 21.5 138 
 BRR  HN ES   1   1846 19.69                             137   -0.16 7 21.5 138 
 BRR  HZ I        1846 19.81       251.6 0.06            131           21.5 138 
 PTB  HZ EP       1846 26.09                              56   -0.7610  104 221 
 PTB  HN ES   1   1846 39.29                              56   -0.40 7  104 221 
 PTB  HZ I        1846 39.60        58.1 0.20            100            104 221 
 ZAR  HZ EP       1846 28.58                              56    0.3310  115 283 
 ZAR  HN ES   1   1846 42.41                              56    0.22 7  115 283 
 ZAR  HZ I        1846 43.65        59.3 0.28             56            115 283 
 OCA  HN ES       1846 44.41                              56    0.0810  123  28 
 OCA  HZ I        1846 46.58                              56            123  28 
 PAM  SZ EP       1846 30.14                              56   -0.1110  127  86 
 PAM  SN ES   1   1846 45.04                              56   -0.70 7  127  86 
 PAM  SZ I        1846 47.83        16.2 0.22             56            127  86 
 RUS  HZ EP       1846 36.80                              56    0.85 9  172 151 
 RUS  HN ES       1846 56.30                              56    0.41 9  172 151 
 RUS  HZ I        1846 57.70         8.4 0.42             56            172 151 
                                                                                
