 2014  3 9 1633 58.5 L   6.817 -73.179142.5  RSN 13 0.6 2.4LRSN                1
 GAP=132        1.51       4.1     5.3  7.5 -0.2263E+01  0.1272E+02  0.2861E+01E
 Epicentro: LOS SANTOS - SANTANDER                                             3
 OLDACT:DUP 14-03-09 21:41 OP:stll STATUS:               ID:20140309162820d    3
 ACTION:UPD 14-04-09 23:15 OP:nd   STATUS:               ID:20140309163358 L   I
 OLDACT:UP  14-03-09 21:48 OP:stll STATUS:               ID:20140309162820d    3
 2014-03-09-1628-19M.COL___229                                                 6
 STAT SP IPHASW D HRMM SECON CODA AMPLIT PERI AZIMU VELO AIN AR TRES W  DIS CAZ7
 BAR2 SZ IP     D 1634 17.74                             170   -0.0110 24.8 181 
 BAR2 SZ ES       1634 32.42                             170   -0.3510 24.8 181 
 BAR2 SZ I        1634 35.57        60.7 0.52            168           24.8 181 
 BRR  HZ IP     C 1634 20.01                             153    0.9610 67.1 299 
 BRR  HN ES       1634 36.62                             153    1.5310 67.1 299 
 BRR  SZ I        1634 43.01        22.8 0.16            151           67.1 299 
 PAM  SZ EP       1634 20.55                             150    0.1410 78.4  42 
 PAM  SN ES       1634 37.42                             150   -0.0910 78.4  42 
 PAM  SZ I        1634 39.65       721.5 0.46            157           78.4  42 
 RUS  HZ EP       1634 21.68                             143   -0.3910  103 174 
 RUS  HN ES       1634 40.34                             143   -0.1210  103 174 
 RUS  SZ I        1634 41.84        17.8 0.22            146            103 174 
 PTB  HZ EP       1634 24.20                             132   -0.69 9  145 258 
 PTB  HN ES       1634 44.87                             132   -0.62 9  145 258 
 PTB  SZ I        1634 52.25        22.8 0.46            132            145 258 
 SPBC HZ EP       1634 26.52                             128   -0.13 9  162 218 
 SPBC HN ES       1634 48.43                             128   -0.19 9  162 218 
 SPBC SZ I        1634 55.65        27.5 0.20            130            162 218 
 ZAR  HZ EP       1634 30.42                             122    0.13 9  200 292 
 ZAR  HN ES       1634 54.69                             122   -0.42 9  200 292 
 ZAR  SZ I        1635  5.35        12.2 0.32            124            200 292 
 NOR  HZ EP       1634 33.71                             118   -0.11 8  233 234 
 NOR  HN ES       1635  0.87                             118   -0.51 8  233 234 
 NOR  SZ I        1635  6.72        16.5 0.38            120            233 234 
 SML  HZ EP       1634 33.90                             117   -0.68 8  241 336 
 SML  HN ES       1635  1.75                             117   -0.99 8  241 336 
 SML  SZ I        1635  7.28        29.8 0.08            120            241 336 
 CHI  HZ EP       1634 35.89                             116   -0.20 8  249 194 
 CHI  HE ES       1635  4.94                             116   -0.49 8  249 194 
 CHI  SZ I        1635 11.34         8.5 0.34            120            249 194 
 ROSC BZ EP       1634 37.21                             116    0.82 8  252 210 
 ROSC BE ES       1635  6.28                             116    0.32 8  252 210 
 ROSC SZ I        1635 14.03        11.1 0.35            119            252 210 
 HEL  HZ EP       1634 39.68                             114    1.49 8  269 255 
 HEL  HE ES       1635  8.90                             114   -0.26 8  269 255 
 HEL  SZ I        1635 17.22        10.2 0.22            116            269 255 
 GUY2CHZ EP       1634 42.47                             112    0.75 7  299 234 
 GUY2CHN ES       1635 15.60                             112    0.15 7  299 234 
 GUY2CSZ I        1635 23.74         9.4 0.30                           299 234 
                                                                                
