 2016  8 9 1104 50.0 L   6.837 -73.092145.2  RSN  5 0.4 1.7LRSN                1
 GAP=246        0.85       5.5     6.3  6.9  0.1483E+02  0.1779E+02  0.4743E+00E
 Epicentro: LOS SANTOS - SANTANDER                                             3
 ACTION:UPD 16-10-29 15:34 OP:rebc STATUS:               ID:20160809110450 L   I
 OLDACT:REG 16-08-09 19:43 OP:lv   STATUS:               ID:20160809105759     3
 2016-08-09-1057-59S.COL___346                                                 6
 STAT SP IPHASW D HRMM SECON CODA AMPLIT PERI AZIMU VELO AIN AR TRES W  DIS CAZ7
 BAR2 EZ EP       11 5  9.65                             168    0.0110 28.9 200 
 BAR2 EZ ES       11 5 24.73                             168   -0.2710 28.9 200 
 BAR2 EZ I        11 5 27.25         8.2 0.25                          28.9 200 
 BRR  HZ EP       11 5 11.59                             151    0.3510 74.7 294 
 BRR  HE ES   2   11 5 28.65                             151    0.80 5 74.7 294 
 BRR  HZ I        11 5 32.10         9.5 0.25                          74.7 294 
 RUS  HZ EP       11 5 13.65                             143   -0.2810  104 179 
 RUS  HE ES       11 5 32.82                             143    0.1810  104 179 
 RUS  HZ I        11 5 34.17         8.5 0.32                           104 179 
 ZAR  HZ EP       11 5 22.32                             122   -0.45 8  208 290 
 ZAR  HE ES       11 5 48.26                             122   -0.11 8  208 290 
 ZAR  HZ I        11 5 53.12         3.4 0.09                           208 290 
 GUY2CHZ EP       11 5 35.13                             112    0.78 7  308 235 
 GUY2CHE ES       11 6  8.65                             112   -0.33 7  308 235 
 GUY2CHZ I        11 6 15.88         2.5 0.50                           308 235 
                                                                                
