 2010  9 9 1210 41.5 L   6.771 -73.168152.7  RSN  6 0.3 1.8LRSN                1
 GAP=156        0.69       5.2    11.5  8.1 -0.4783E+01 -0.2268E+02 -0.5172E+01E
 Epicentro: LOS SANTOS - SANTANDER                                             3
 ACTION:UP  11-02-18 11:01 OP:tino STATUS:               ID:20100909121041 L   I
 2010-09-09-1208-08S.COL___120                                                 6
 STAT SP IPHASW D HRMM SECON CODA AMPLIT PERI AZIMU VELO SNR AR TRES W  DIS CAZ7
 BAR2 SZ EP   1   1211  2.00                             172     0.0 7   20 185 
 BAR2 SZ ES   2   1211 17.17                             172    -0.7 5   20 185 
 BAR2 SZ I        1211 19.63        16.7 0.21                            20 185 
 GIR2 SZ EP   1   1211  2.30                             167     0.2 7   34 355 
 GIR2 SZ ES   2   1211 18.20                             167     0.0 5   34 355 
 BRR  HZ EP   1   1211  2.82                             154    -0.6 7   71 302 
 BRR  HN ES   2   1211 21.12                             154     0.6 5   71 302 
 BRR  HZ I        1211 24.63        12.4 0.18                            71 302 
 RUS  HZ EP   1   1211  5.88                             146     0.1 7   98 174 
 RUS  HN ES   2   1211 24.91                             146     0.2 5   98 174 
 RUS  HZ I        1211 26.23         7.3 0.39                            98 174 
 GUE  SZ EP   1   1211  7.38                             140     0.2 7  120  13 
 GRA  SZ EP   1   1211  7.80                             137     0.1 7  130  18 
 GRA  SZ ES   2   1211 28.02                             137    -0.1 5  130  18 
 GRA  SZ I        1211 28.87         7.0 0.25                           130  18 
                                                                                
