 2010  9 9 1457 55.4 L   6.746 -73.089139.7  RSN  6 0.5 1.6LRSN                1
 GAP=166        0.88       6.8    14.4 12.3  0.4933E+00 -0.4512E+02 -0.1091E+02E
 Epicentro: JORDAN - SANTANDER                                                 3
 ACTION:UP  11-02-18 11:01 OP:tino STATUS:               ID:20100909145755 L   I
 2010-09-09-1454-28S.COL___120                                                 6
 STAT SP IPHASW D HRMM SECON CODA AMPLIT PERI AZIMU VELO SNR AR TRES W  DIS CAZ7
 BAR2 SZ EP   1   1458 14.20                             172     0.0 7   20 212 
 BAR2 SZ ES   2   1458 28.52                             172    -0.4 5   20 212 
 BAR2 SZ I        1458 31.88        19.1 0.24                            20 212 
 BTL  SZ EP   1   1458 14.50                             169     0.1 7   27 314 
 GIR2 SZ EP   2   1458 13.27                             164    -1.3 5   39 343 
 GIR2 SZ ES   3   1458 29.20                             164    -0.3 2   39 343 
 BRR  HZ EP   1   1458 16.04                             149    -0.4 7   80 300 
 BRR  HE ES   2   1458 33.46                             149     0.7 5   80 300 
 RUS  HZ EP   1   1458 18.09                             144     0.0 7   94 180 
 RUS  HN ES   2   1458 36.38                             144     0.6 5   94 180 
 RUS  HZ I        1458 38.07         5.3 0.30                            94 180 
 GRA  SZ EP   1   1458 21.02                             135     0.6 7  130  14 
 GRA  SZ ES   2   1458 39.97                             135     0.0 5  130  14 
 GRA  SZ I        1458 41.70         5.0 0.47                           130  14 
                                                                                
