 2015  7 9 1325 15.6 L   6.801 -73.160140.0  RSN 10 0.4 2.1LRSN                1
 GAP=135        0.76       2.9     4.5  7.4 -0.6987E+00  0.1855E+02  0.6495E+01E
 Epicentro: LOS SANTOS - SANTANDER                                             3
 ACTION:UPD 15-09-08 21:47 OP:cam  STATUS:               ID:20150709132515 L   I
 OLDACT:REG 15-07-09 21:09 OP:ar   STATUS:               ID:20150709131749     3
 2015-07-09-1317-49M.COL___343                                                 6
 STAT SP IPHASW D HRMM SECON CODA AMPLIT PERI AZIMU VELO AIN AR TRES W  DIS CAZ7
 BAR2 EZ EP       1325 34.31                             170   -0.2310 23.2 186 
 BAR2 EZ I        1325 52.06        24.5 0.26            170           23.2 186 
 PAM  EZ EP       1325 37.30                             149    0.0310 78.3  40 
 PAM  EE ES       1325 54.34                             149    0.1810 78.3  40 
 PAM  EZ I        1325 56.68        20.0 0.32            151           78.3  40 
 RUS  HZ EP       1325 38.78                             142   -0.0310  101 175 
 RUS  HN ES       1325 56.99                             142    0.0810  101 175 
 ZAR  HE ES       1326 12.29                             121   -0.14 9  203 292 
 ZAR  HZ I        1326 17.40        13.2 0.34            121            203 292 
 SML  HE ES   2   1326 19.70                             116   -0.39 4  243 336 
 CHI  HZ EP   2   1325 53.07                             116    0.11 4  248 195 
 CHI  HN ES       1326 21.87                             116   -0.22 8  248 195 
 CHI  HZ I        1326 27.05         7.4 0.30            116            248 195 
 GUY2CHZ EP   2   1326  0.33                             111    1.51 4  300 235 
 GUY2CHE ES   4   1326 36.80                             111    4.28 0  300 235 
 GUY2CHZ I        1326 40.62         6.5 0.56                           300 235 
 TOL  SZ EP       1326  3.31                             108   -0.21 7  342 224 
 TOL  SE ES       1326 41.78                             108    0.89 7  342 224 
 TOL  SZ I        1326 48.06         4.8 0.38            109            342 224 
 ANIL HE ES   4   1326 46.76                             107    3.10 0  356 224 
 PRA  HZ EP       1326  8.81                             106   -0.04 6  391 209 
 PRA  HN ES       1326 49.47                             106   -0.91 6  391 209 
 PRA  HZ I        1326 56.69         6.7 0.26            106            391 209 
 ORTC HN ES       1326 51.33                             105    0.26 6  395 216 
 ORTC HZ I        1326 55.68         4.6 0.18            106            395 216 
                                                                                
