 2013  8 9 1453  7.5 L   6.753 -73.178130.5  RSN  5 0.2 1.6LRSN                1
 GAP=135        0.47       3.0     3.3  6.2  0.2196E+01  0.2906E+01  0.1746E+01E
 Epicentro: VILLANUEVA - SANTANDER                                             3
 ACTION:UPD 14-01-14 09:00 OP:ep   STATUS:               ID:20130809145307 L   I
 OLDACT:UP  13-08-09 18:03 OP:mh   STATUS:               ID:20130809144959     3
 OLDACT:UP  13-08-09 18:03 OP:mh   STATUS:               ID:20130809144959     3
 OLDACT:UP  13-08-09 18:02 OP:mh   STATUS:               ID:20130809144959     3
 OLDACT:REG 13-08-09 16:35 OP:mh   STATUS:               ID:20130809144959     3
 2013-08-09-1449-59M.COL___268                                                 6
 STAT SP IPHASW D HRMM SECON CODA AMPLIT PERI AZIMU VELO AIN AR TRES W  DIS CAZ7
 BAR2 SZ EP   1   1453 25.37                             172    0.16 7 17.8 182 
 BAR2 SZ I        1453 46.20         4.1 0.36            167           17.8 182 
 BRR  HZ EP   1   1453 26.94                             150   -0.08 7 70.8 304 
 BRR  HN ES   1   1453 41.92                             150   -0.31 7 70.8 304 
 BRR  HN I        1453 45.37         9.0 0.26            146           70.8 304 
 PAM  SZ EP   1   1453 28.31                             146   -0.25 7 83.6  39 
 PAM  SN ES   1   1453 45.20                             146    0.24 7 83.6  39 
 PAM  SN I        1453 46.33        10.1 0.44            143           83.6  39 
 RUS  HZ EP   1   1453 29.40                             142   -0.04 7 95.8 174 
 RUS  HN ES   1   1453 46.58                             142    0.05 7 95.8 174 
 RUS  HN I        1453 48.98         6.8 0.24            135           95.8 174 
 ZAR  HN ES   1   1454  3.68                             119    0.32 6  203 294 
 ZAR  HN I        1454  8.66         7.5 0.30            114            203 294 
                                                                                
