 2011  2 9 1748 15.7 L   6.764 -73.116147.6  RSN 17 0.5 3.1LRSN                1
 GAP=104        1.00       3.0     4.8  5.4 -0.1989E+01  0.5774E+01  0.1809E+01E
 Epicentro: LOS SANTOS - SANTANDER                                             3
 ACTION:UP  11-03-28 15:07 OP:jfem STATUS:               ID:20110209174815 L   I
 2011-02-09-1746-32S.COL___136                                                 6
 STAT SP IPHASW D HRMM SECON CODA AMPLIT PERI AZIMU VELO SNR AR TRES W  DIS CAZ7
 BAR2 SZ EP       1748 35.47                             172     0.010   20 201 
 BAR2 SZ ES   1   1748 50.07                             172    -0.8 7   20 201 
 BAR2 SZ I        1748 53.51       207.6 0.34                            20 201 
 BTL  SZ EP       1748 35.80                             170     0.310   24 316 
 BTL  SZ ES   1   1748 51.72                             170     0.7 7   24 316 
 GIR2 SZ EP   1   1748 35.55                             166    -0.1 7   36 346 
 GIR2 SZ ES   1   1748 51.67                             166     0.4 7   36 346 
 RUS  HZ IP     D 1748 39.32                             145     0.010   96 178 
 RUS  HE ES   1   1748 57.98                             145     0.2 7   96 178 
 RUS  HZ I        1749  0.82       139.1 0.44                            96 178 
 GUE  SZ EP   1   1748 41.57                             139     0.8 7  120  10 
 GRA  SZ EP       1748 41.41                             137     0.110  129  16 
 GRA  SZ ES   1   1749  1.03                             137    -0.3 7  129  16 
 GRA  SZ I        1749  3.57       146.8 0.27                           129  16 
 OCA  SZ EP   1   1748 44.39                             129    -0.1 7  165 352 
 OCA  SZ ES   1   1749  6.70                             129    -0.3 7  165 352 
 OCA  SZ I        1749 11.05       234.7 0.31                           165 352 
 YOP  SZ EP   1   1748 45.71                             128     0.4 7  174 154 
 YOP  SE ES       1749  8.27                             128    -0.2 9  174 154 
 YOP  SZ I        1749 11.05        80.1 0.66                           174 154 
 NOR  SZ EP   1   1748 51.07                             119    -0.5 6  235 236 
 NOR  SN ES   1   1749 18.90                             119    -0.7 6  235 236 
 CHI  HZ EP   1   1748 52.96                             118    -0.2 6  246 196 
 CHI  HE ES   1   1749 22.14                             118    -0.2 6  246 196 
 CHI  HZ I        1749 31.17        75.4 0.39                           246 196 
 ROSC BZ EP   1   1748 54.14                             117     0.4 6  251 212 
 ROSC BZ I        1749 30.53       144.8 0.54                           251 212 
 HEL  HZ EP   1   1748 56.77                             115     0.6 6  274 257 
 HEL  HN ES   1   1749 27.28                             115    -0.6 6  274 257 
 HEL  HZ I        1749 33.84        71.6 0.35                           274 257 
 VIL  SZ EP   1   1748 58.30                             113    -0.3 5  298 191 
 VIL  SE ES   1   1749 32.13                             113     0.1 5  298 191 
 GUY  SZ EP   1   1749  0.17                             113     0.7 5  302 236 
 GUY  SZ I        1749 45.87       141.6 0.57                           302 236 
 TOL  SZ EP   1   1749  4.84                             110     0.9 5  343 226 
 DBB  SZ EP       1749  3.30                             110    -0.3 7  343 275 
 SDV  BZ EP       1749  4.85                             109    -0.9 6  360  49 
 SDV  BZ I        1749 44.28        27.6 0.50                           360  49 
                                                                                
