 2016  5 9 1050 39.8 L   6.800 -73.132148.0  RSN 15 0.4 1.8LRSN                1
 GAP=138        0.85       2.1     3.2  4.4 -0.1050E+01  0.3521E+01  0.4364E+00E
 Epicentro: LOS SANTOS - SANTANDER                                             3
 ACTION:UPD 16-08-18 17:43 OP:cam  STATUS:               ID:20160509105039 L   I
 OLDACT:REG 16-05-09 20:37 OP:ak   STATUS:               ID:20160509104747     3
 2016-05-09-1047-47M.COL___279                                                 6
 STAT SP IPHASW D HRMM SECON CODA AMPLIT PERI AZIMU VELO AIN AR TRES W  DIS CAZ7
 BAR2 EZ EP       1050 59.84                             170    0.1010 23.6 194 
 BAR2 EZ ES       1051 15.08                             170   -0.1910 23.6 194 
 BAR2 EZ I        1051 18.27         7.2 0.22            170           23.6 194 
 BRR  HZ IP     C 1051  1.71                             152    0.4110 72.5 298 
 BRR  HN ES       1051 18.56                             152    0.5110 72.5 298 
 BRR  HZ I        1051 22.30         9.4 0.23            151           72.5 298 
 PAM  EZ EP       1051  2.54                             151    0.3010 76.5  39 
 PAM  EE ES       1051 19.03                             151   -0.6810 76.5  39 
 PAM  EZ I        1051 22.38         9.4 0.26            154           76.5  39 
 RUS  HZ EP       1051  4.01                             144    0.2110  100 177 
 RUS  HN ES       1051 22.35                             144   -0.1410  100 177 
 RUS  HZ I        1051 23.96         4.8 0.20            147            100 177 
 PTB  HZ EP       1051  6.62                             132   -0.50 9  149 259 
 PTB  HE ES       1051 28.11                             132   -0.29 9  149 259 
 PTB  HZ I        1051 29.85         9.5 0.19            133            149 259 
 OCA  HZ EP       1051  8.76                             130    0.42 9  160 353 
 OCA  HE ES       1051 30.97                             130    0.39 9  160 353 
 OCA  HZ I        1051 34.88        13.9 0.21            132            160 353 
 SPBC HZ EP       1051  8.42                             129   -0.18 9  164 219 
 SPBC HN ES       1051 30.95                             129   -0.07 9  164 219 
 SPBC HZ I        1051 33.86        10.1 0.19            131            164 219 
 ZAR  HZ EP   2   1051 12.51                             122   -0.06 4  205 292 
 ZAR  HN ES       1051 38.07                             122   -0.03 8  205 292 
 ZAR  HZ I        1051 43.44         8.0 0.10            123            205 292 
 NOR  HZ EP       1051 15.85                             119    0.02 8  236 235 
 NOR  HN ES       1051 43.40                             119   -0.49 8  236 235 
 NOR  HZ I        1051 46.34         3.2 0.12            120            236 235 
 SML  HZ EP       1051 16.46                             118   -0.20 8  244 335 
 SML  HN IS       1051 44.89                             118   -0.49 8  244 335 
 SML  HN ES       1051 45.15                                            244 335 
 CHI  HZ EP   2   1051 17.08                             117   -0.62 4  249 195 
 CHI  HN ES       1051 47.46                             117    0.23 8  249 195 
 HEL  HZ EP   2   1051 20.56                             115    0.24 4  273 256 
 HEL  HE ES       1051 52.49                             115    0.59 8  273 256 
 HEL  HZ I        1051 58.81         3.5 0.62            116            273 256 
 URE  HZ EP   2   1051 20.29                             114   -0.88 4  285 292 
 URE  HE ES   4   1051 50.90                             114   -2.51 0  285 292 
 URE  HZ I        1051 58.47         3.2 0.14            115            285 292 
 PRA  HZ IP       1051 33.54                             107    0.02 6  393 210 
 PRA  HN ES       1052 15.92                             107    0.53 6  393 210 
 PRA  HZ I        1052 19.88         2.9 0.30            108            393 210 
 SJC  HZ EP   9   1051 34.11                             106   -1.46 0  410 327 
 SJC  HE ES       1052 16.93                                   -0.65 6  410 327 
 SJC  HZ I        1052 19.66         1.3 0.20            107            410 327 
                                                                                
