 2010  6 9 1505 46.8 L   6.825 -73.277140.2  RSN  7 0.5 2.1LRSN                1
 GAP=151        0.95       6.6    26.9 12.8 -0.1190E+03  0.1558E+03 -0.3790E+02E
 Epicentro: ZAPATOCA - SANTANDER                                               3
 ACTION:UP  10-08-24 10:09 OP:vdl  STATUS:               ID:20100609150546 L   I
 2010-06-09-1504-01S.COL___111                                                 6
 STAT SP IPHASW D HRMM SECON CODA AMPLIT PERI AZIMU VELO SNR AR TRES W  DIS CAZ7
 BAR2 SZ IP       15 6  6.23                             167     0.310   28 158 
 BAR2 SZ ES   2   15 6 20.48                             167    -0.3 5   28 158 
 GIR2 SZ EP   2   15 6  5.45                             167    -0.3 5   30  18 
 GIR2 SZ ES   3   15 6 20.55                             167     0.0 2   30  18 
 RUS  HZ EP   1   15 6 10.28                             141    -0.1 7  105 168 
 RUS  HN ES   1   15 6 28.75                             141     0.0 7  105 168 
 RUS  HZ I        15 6 30.11        13.6 0.42                           105 168 
 GUE  SZ EP       15 6 10.47                             137    -0.710  118  19 
 GUE  SZ ES   2   15 6 29.19                             137    -0.9 5  118  19 
 GRA  SZ EP       15 6 12.33                             135     0.510  128  24 
 GRA  SZ ES   1   15 6 31.75                             135     0.5 7  128  24 
 CHI  HZ EP   3   15 6 24.08                             116    -0.1 2  248 192 
 CHI  HZ I        15 7  3.35         7.1 0.57                           248 192 
 RREF BE ES   3   15 7  7.47                             110     0.8 2  313 227 
 RREF BZ I        15 7 14.40         9.5 0.09                           313 227 
                                                                                
