 2012  7 9 1551 20.8 L   6.151 -73.201180.1  RSN  5 0.1 1.6LRSN                1
 GAP=153        0.36       4.5     2.9  3.8  0.4833E+01  0.2221E+01  0.7772E+01E
 Epicentro: ENCINO - SANTANDER                                                 3
 ACTION:UPD 12-08-14 11:43 OP:ep   STATUS:               ID:20120709155120 L   I
 2012-07-09-1550-00M.COL___201                                                 6
 STAT SP IPHASW D HRMM SECON CODA AMPLIT PERI AZIMU VELO AIN AR TRES W  DIS CAZ7
 RUS  HZ EP   1   1551 45.19                             170     0.1 7   31 155 
 RUS  HZ I        1552  7.41         3.6 0.43                            31 155 
 BAR2 SZ EP       1551 45.09                             164    -0.110   49   2 
 BAR2 SZ ES       1552  4.20                             164     0.010   49   2 
 BAR2 SZ I        1552  5.30         5.2 0.07                            49   2 
 BRR  HZ EP       1551 48.76                             145     0.110  120 332 
 BRR  HZ I        1551 50.92        10.8 0.49                           120 332 
 BRR  HE ES       1552 10.33                             145     0.010  120 332 
 PTB  HZ EP       1551 50.47                             139    -0.1 9  145 287 
 PTB  HN ES       1552 13.81                             139     0.0 9  145 287 
 PTB  HZ I        1552 17.08         2.6 0.08                           145 287 
 ZAR  HZ I        1551 54.73         3.3 0.53                           236 309 
 ZAR  HE ES   1   1552 28.29                             125    -0.1 6  236 309 
