 2016 11 9 1226 34.2 L   6.775 -73.102144.9  RSN  6 0.2 1.9LRSN                1
 GAP=161        0.49       2.8     4.0  4.0 -0.4550E+01 -0.8951E+00  0.5486E+01E
 Epicentro: LOS SANTOS - SANTANDER                                             3
 ACTION:UPD 17-10-26 21:06 OP:lp   STATUS:               ID:20161109122634 L   I
 OLDACT:REG 16-11-09 20:53 OP:dnl  STATUS:               ID:20161109121745     3
 2016-11-09-1218-00M.COL___349                                                 6
 STAT SP IPHASW D HRMM SECON CODA AMPLIT PERI AZIMU VELO AIN AR TRES W  DIS CAZ7
 BAR2 EZ EP       1226 53.38                             171   -0.3110 22.1 204 
 BAR2 EZ ES       1227  8.91                             171    0.0110 22.1 204 
 BAR2 EZ I        1227  9.68        21.1 0.36            167           22.1 204 
 PAM  EZ EP     C 1226 56.50                             151    0.2410 76.6  35 
 PAM  EN ES       1227 13.39                             151   -0.1010 76.6  35 
 PAM  EZ I        1227 15.82        11.7 0.48            153           76.6  35 
 BRR  HZ EP       1226 55.43                             150   -0.1410 76.8 299 
 BRR  HN ES       1227 12.37                             150    0.1210 76.8 299 
 BRR  HZ I        1227 16.46        10.6 0.38            146           76.8 299 
 ZAR  HZ EP   4   1227  8.51                             121    1.36 0  210 292 
 ZAR  HE ES   4   1227 31.32                             121   -1.54 0  210 292 
 ZAR  HZ I        1227 38.40         6.4 0.40            119            210 292 
 CHI  HZ EP       1227 12.00                             117    0.31 8  247 196 
 CHI  HN ES       1227 40.98                             117    0.04 8  247 196 
 CHI  HZ I        1227 44.55         3.4 0.62            117            247 196 
 PRA  HZ EP   2   1227 27.20                             106   -0.47 3  392 210 
 PRA  HN ES       1228  9.34                             106   -0.06 6  392 210 
 PRA  HZ I        1228 14.80         4.3 0.34            106            392 210 
                                                                                
