 2016 10 9 1703 24.4 L   6.814 -73.171141.0  RSN 15 0.4 2.3LRSN                1
 GAP=133        0.89       2.6     3.5  5.0 -0.2138E+01  0.4365E+01  0.1629E+01E
 Epicentro: LOS SANTOS - SANTANDER                                             3
 ACTION:UPD 16-11-09 19:18 OP:rebc STATUS:               ID:20161009170324 L   I
 OLDACT:REG 16-10-09 20:30 OP:lv   STATUS:               ID:20161009165746     3
 2016-10-09-1658-00M.COL___354                                                 6
 STAT SP IPHASW D HRMM SECON CODA AMPLIT PERI AZIMU VELO AIN AR TRES W  DIS CAZ7
 BAR2 EZ IP     C 17 3 43.40                             170   -0.1010 24.5 183 
 BAR2 EZ ES       17 3 58.29                             170   -0.0910 24.5 183 
 BAR2 EZ I        17 3 59.47        79.8 0.36            169           24.5 183 
 PAM  EZ EP       17 3 46.40                             150    0.2310 78.0  42 
 PAM  EE ES       17 4  3.74                             150    0.6110 78.0  42 
 PAM  EZ I        17 4  5.90        22.4 0.28            153           78.0  42 
 RUS  HZ EP       17 3 47.53                             142   -0.3110  102 175 
 RUS  HN ES       17 4  5.84                             142   -0.2610  102 175 
 RUS  HZ I        17 4  7.51        23.2 0.22            145            102 175 
 PTB  HZ EP       17 3 50.39                             131   -0.39 9  145 258 
 PTB  HN ES       17 4 11.00                             131   -0.34 9  145 258 
 PTB  HZ I        17 4 16.77        28.9 0.18            129            145 258 
 OCA  HZ EP       17 3 51.70                             129   -0.49 9  158 354 
 OCA  HN ES       17 4 13.94                             129    0.09 9  158 354 
 OCA  HZ I        17 4 17.29        62.6 0.18            129            158 354 
 SPBC HZ EP       17 3 52.41                             128   -0.10 9  163 218 
 SPBC HE ES       17 4 14.48                             128    0.07 9  163 218 
 SPBC HZ I        17 4 16.25        34.1 0.22            128            163 218 
 ZAR  HZ EP   4   17 3 57.37                             122    1.14 0  201 292 
 ZAR  HN ES       17 4 21.10                             122    0.05 9  201 292 
 ZAR  HZ I        17 4 28.23        26.8 0.43            120            201 292 
 NOR  HZ EP       17 3 59.74                             118    0.01 8  233 234 
 NOR  HN ES       17 4 27.78                             118    0.50 8  233 234 
 NOR  HZ I        17 4 33.78        11.6 0.20            117            233 234 
 CHI  HZ EP       17 4  1.75                             116   -0.19 8  249 194 
 CHI  HN ES       17 4 31.15                             116   -0.06 8  249 194 
 CHI  HZ I        17 4 36.25         8.1 0.34            117            249 194 
 ROSC BZ EP   4   17 4  3.93                             116    1.65 0  253 210 
 ROSC BN ES   4   17 4 35.07                             116    3.27 0  253 210 
 ROSC BZ I        17 4 38.10        26.3 0.40            116            253 210 
 HEL  HZ EP   9   17 4  6.21                             114    2.07 0  270 255 
 HEL  HN ES       17 4 37.67                                    0.48 8  270 255 
 HEL  HZ I        17 4 43.60         9.1 0.24            114            270 255 
 GUY2CHZ EP       17 4  8.58                             112    0.92 7  300 234 
 GUY2CHN ES   4   17 4 44.98                             112    3.60 0  300 234 
 GUY2CHZ I        17 4 53.65         7.2 0.48                           300 234 
 PRA  HZ EP       17 4 17.57                             106   -0.21 6  392 209 
 PRA  HN ES       17 5  0.30                             106    0.90 6  392 209 
 SJC  HZ EP   4   17 4 17.62                             105   -1.88 0  406 327 
 SJC  HE ES   4   17 4 58.87                             105   -3.59 0  406 327 
 SJC  HZ I        17 5 13.01         4.6 0.32            105            406 327 
 CRJC HZ EP   9   17 4 24.02                             103   -2.61 0  466   4 
 CRJC HN ES       17 5 11.70                                   -0.84 5  466   4 
                                                                                
