 2012  3 9 1817  7.9 L   7.311 -73.935  9.4  RSN  5 0.2 1.6LRSN                1
 GAP=211        0.60       3.6     1.9  4.4  0.3889E+01 -0.5648E-01  0.1270E+01E
 ACTION:UP  12-03-31 23:18 OP:EP   STATUS:               ID:20120309181707 L   I
 2012-03-09-1810-00M.COL___193                                                 6
 STAT SP IPHASW D HRMM SECON CODA AMPLIT PERI AZIMU VELO SNR AR TRES W  DIS CAZ7
 BRR  HZ EP       1817 13.68                              99     0.010   33 132 
 BRR  HE ES       1817 17.89                              99    -0.210   33 132 
 BRR  HZ I        1817 19.32       115.2 0.15                            33 132 
 PTB  HZ EP       1817 24.44                              93     0.310  103 214 
 PTB  HE ES   1   1817 36.65                              93    -0.1 7  103 214 
 ZAR  HZ EP   1   1817 24.17                              93    -0.1 7  104 281 
 ZAR  HN ES   1   1817 36.93                              93    -0.1 7  104 281 
 ZAR  HZ I        1817 40.08        12.0 0.33                           104 281 
 BAR2 SZ EP   1   1817 26.02                              93    -0.2 7  115 134 
 BAR2 SZ ES   2   1817 40.73                              93     0.3 5  115 134 
 BAR2 SZ I        1817 42.24         6.1 0.66                           115 134 
 RUS  HZ EP       1817 36.50                              56     0.3 9  183 149 
 RUS  HN ES   1   1817 57.90                              56    -0.3 7  183 149 
 RUS  HZ I        1818  0.41         6.6 0.67                           183 149 
                                                                                
