 2015  3 9 1042 45.3 L   6.434 -73.620107.7  RSN 19 0.5 1.9LRSN                1
 GAP= 66        1.03       2.4     2.8  5.8 -0.1863E+01  0.4560E+01  0.5720E+00E
 Epicentro: SANTA HELENA DEL OPON - SANTANDER                                  3
 ACTION:UPD 15-04-30 16:24 OP:nd   STATUS:               ID:20150309104245 L   I
 OLDACT:REG 15-03-09 22:20 OP:spq  STATUS:               ID:20150309103747     3
 2015-03-09-1037-47M.COL___281                                                 6
 STAT SP IPHASW D HRMM SECON CODA AMPLIT PERI AZIMU VELO AIN AR TRES W  DIS CAZ7
 BAR2 EZ EP       1043  1.51                             153   -0.0710 51.4  70 
 BAR2 EZ ES   1   1043 13.98                             153   -0.29 7 51.4  70 
 BAR2 EZ I        1043 15.97        72.9 0.24            154           51.4  70 
 BRR  HZ EP       1043  2.37                             142   -0.4310 75.1 352 
 BRR  HE ES       1043 16.77                             142    0.3410 75.1 352 
 BRR  HZ I        1043 21.86        22.4 0.14            142           75.1 352 
 RUS  HZ EP       1043  3.89                             139   -0.3110 84.3 135 
 RUS  HE ES   1   1043 18.95                             139    0.03 7 84.3 135 
 RUS  HZ I        1043 20.09        12.3 0.32            141           84.3 135 
 PTB  HZ EP   4   1043  2.75                             136   -1.52 0 93.2 277 
 PTB  HN ES   4   1043 17.11                             136   -1.94 0 93.2 277 
 PTB  HZ I        1043 20.25        22.1 0.14            134           93.2 277 
 SPBC HZ EP       1043  4.45                             134   -0.5010 99.9 210 
 SPBC HE ES       1043 20.04                             134   -0.2210 99.9 210 
 SPBC HZ I        1043 22.07        26.3 0.10            133           99.9 210 
 PAM  SE ES       1043 28.74                             123    0.22 9  143  45 
 PAM  SZ I        1043 29.27        14.1 0.36            123            143  45 
 NOR  HZ EP   1   1043 11.46                             118   -0.28 7  169 235 
 NOR  HN ES       1043 31.73                             118   -0.62 9  169 235 
 NOR  HZ I        1043 33.71         9.0 0.16            117            169 235 
 CHI  HZ EP       1043 15.36                             113   -0.30 9  200 184 
 CHI  HE ES       1043 39.97                             113    0.64 9  200 184 
 CHI  HZ I        1043 45.57         4.7 0.32            113            200 184 
 TAM  HZ EP   1   1043 15.50                             113    0.04 6  202  90 
 TAM  HN ES       1043 39.48                             113    0.52 9  202  90 
 TAM  HZ I        1043 40.38         8.4 0.26            113            202  90 
 OCA  HZ EP   1   1043 15.04                             113   -0.56 6  202   9 
 OCA  HN ES       1043 39.88                             113    0.66 9  202   9 
 OCA  HZ I        1043 44.30        12.2 0.32            113            202   9 
 HEL  HZ EP       1043 17.34                             112    0.27 8  213 263 
 HEL  HN ES       1043 42.74                             112    0.91 8  213 263 
 HEL  HZ I        1043 44.01         7.4 0.16            111            213 263 
 GUY2CHZ EP   1   1043 20.59                             109    0.86 6  235 235 
 GUY2CHN ES   4   1043 47.70                             109    1.12 0  235 235 
 GUY2CHZ I        1043 51.55         6.6 0.32                           235 235 
 SML  HZ EP       1043 21.91                             106   -0.87 8  266 349 
 SML  HN ES   1   1043 51.64                             106   -0.36 6  266 349 
 SML  HZ I        1044  0.80        11.4 0.24            106            266 349 
 TOL  SZ EP       1043 24.88                             105    0.32 7  278 223 
 TOL  SE ES   4   1043 57.39                             105    2.22 0  278 223 
 TOL  SZ I        1044  0.63         5.4 0.32            105            278 223 
 ANIL HE ES   4   1044  1.09                             104    3.10 0  292 223 
 ANIL HZ I        1044  5.59         2.0 0.24            104            292 223 
 DBB  SZ EP   1   1043 26.02                             104   -0.06 5  294 283 
 DBB  SZ ES   1   1043 57.95                             104    0.09 5  294 283 
 DBB  SZ I        1043 59.78        14.1 0.32            104            294 283 
 PRA  HZ EP       1043 30.44                             102   -0.16 7  332 205 
 PRA  HN ES       1044  6.46                             102    0.55 7  332 205 
 PRA  HZ I        1044  9.35         5.3 0.48            102            332 205 
 ORTC HN ES   4   1044  7.75                             102    1.76 0  332 213 
 ORTC HZ I        1044 12.15         4.1 0.46            102            332 213 
 MON  HZ EP   4   1043 30.28                             101   -1.66 0  344 319 
 MON  HN ES   4   1044  6.82                             101   -1.49 0  344 319 
 MON  HZ I        1044 10.56         1.7 0.38            101            344 319 
                                                                                
