 2011 11 9 1026  1.8 L   6.384 -72.996177.4  RSN  4 0.2 2.0LRSN                1
 GAP=173        0.45       5.5     8.5  5.2  0.2997E+02 -0.2102E+02 -0.1151E+02E
 Epicentro: COROMORO - SANTANDER                                               3
 ACTION:UPD 12-07-13 16:09 OP:ep   STATUS:               ID:20111109102601 L   I
 2011-11-09-1022-56S.COL___178                                                 6
 STAT SP IPHASW D HRMM SECON CODA AMPLIT PERI AZIMU VELO AIN AR TRES W  DIS CAZ7
 BAR2 SZ EP       1026 25.22                             170   -0.1910 30.9 318 
 BAR2 SZ ES   1   1026 43.66                             170   -0.15 7 30.9 318 
 BAR2 SZ I        1026 45.23        35.2 0.34                          30.9 318 
 RUS  HZ EP   1   1026 26.78                             162    0.27 7 55.2 190 
 RUS  HN ES   1   1026 45.78                             162    0.01 7 55.2 190 
 RUS  HZ I        1026 47.81         8.1 0.47                          55.2 190 
 PAM  SZ EP   1   1026 29.61                             147    0.17 7  111  17 
 BRR  HZ EP       1026 28.76                             146   -0.1110  113 315 
 BRR  HZ I        1026 29.51        14.3 0.09                           113 315 
 BRR  HE ES       1026 50.10                             146    0.1310  113 315 
                                                                                
