 2016  4 9 1048 47.2 L   6.794 -73.188126.7  RSN  6 0.5 1.8LRSN                1
 GAP=132        1.21       5.4     5.1  9.6 -0.4324E+01  0.2288E+02 -0.7714E+01E
 Epicentro: ZAPATOCA - SANTANDER                                               3
 ACTION:UPD 16-05-05 14:19 OP:rebc STATUS:               ID:20160409104847 L   I
 OLDACT:UP  16-04-09 21:48 OP:drio STATUS:               ID:20160409104750     3
 OLDACT:REG 16-04-09 19:42 OP:drio STATUS:               ID:20160409104750     3
 2016-04-09-1047-50M.COL___303                                                 6
 STAT SP IPHASW D HRMM SECON CODA AMPLIT PERI AZIMU VELO AIN AR TRES W  DIS CAZ7
 BAR2 EZ EP       1049  4.25                             169   -0.2710 22.3 178 
 BAR2 EZ ES       1049 17.53                             169   -0.5010 22.3 178 
 BAR2 EZ I        1049 20.25        26.1 0.26            172           22.3 178 
 PAM  EZ EP       1049  7.34                             146   -0.3210 80.9  42 
 PAM  EE ES       1049 24.10                             146    0.4710 80.9  42 
 PAM  EZ I        1049 26.68        15.2 0.60            149           80.9  42 
 RUS  HZ EP       1049  9.32                             140    0.2110  100 173 
 RUS  HN ES       1049 26.54                             140    0.3410  100 173 
 RUS  HZ I        1049 27.86         6.5 0.22            145            100 173 
 PTB  HZ EP       1049 11.28                             128   -0.94 9  143 259 
 PTB  HN ES       1049 32.15                             128    0.40 9  143 259 
 PTB  HZ I        1049 34.55        11.2 0.44            130            143 259 
 ZAR  HZ EP       1049 18.85                             118    0.81 9  200 293 
 ZAR  HE ES       1049 41.93                             118   -0.16 9  200 293 
 ZAR  HZ I        1049 49.08        10.1 0.28            120            200 293 
 NOR  HE ES       1049 48.23                             115    0.10 8  230 234 
 NOR  HZ I        1049 51.40         5.2 0.16            117            230 234 
 URE  HZ EP   4   1049 28.48                             110    1.54 0  280 292 
 URE  HN ES   4   1049 56.49                             110   -1.45 0  280 292 
                                                                                
