 2015  6 9 1446 39.3 L   7.094 -73.073160.0  RSN  7 0.5 2.0LRSN                1
 GAP=124        1.15       4.9     6.4  7.9  0.5440E+01  0.6129E+01 -0.3443E+01E
 Epicentro: FLORIDABLANCA - SANTANDER                                          3
 ACTION:UPD 15-09-10 22:11 OP:cam  STATUS:               ID:20150609144639 L   I
 OLDACT:DUP 15-06-09 22:55 OP:ak   STATUS:               ID:20150609143750d    3
 OLDACT:DUP 15-06-09 22:05 OP:ak   STATUS:               ID:20150609143749d    3
 2015-06-09-1437-48M.COL___305                                                 6
 STAT SP IPHASW D HRMM SECON CODA AMPLIT PERI AZIMU VELO AIN AR TRES W  DIS CAZ7
 PAM  SZ EP       1447  1.81                             162    0.0510 49.4  57 
 PAM  SE ES   1   1447 18.51                             162   -0.76 7 49.4  57 
 PAM  SZ I        1447 21.04        19.1 0.24            168           49.4  57 
 BAR2 EZ EP       1447  1.91                             160    0.2210 56.8 192 
 BAR2 EZ ES       1447 19.52                             160    0.3810 56.8 192 
 BAR2 EZ I        1447 20.88        12.6 0.17            159           56.8 192 
 BRR  HZ EP       1447  2.47                             155    0.4810 70.6 271 
 BRR  HN ES       1447 20.25                             155    0.5810 70.6 271 
 BRR  HZ I        1447 26.79        12.6 0.48            152           70.6 271 
 RUS  HZ EP       1447  7.31                             139    0.4210  133 180 
 RUS  HN ES       1447 27.82                             139   -0.5810  133 180 
 RUS  HZ I        1447 31.68         4.7 0.34            141            133 180 
 SPBC HZ EP       1447 11.82                             127   -0.03 9  194 215 
 SPBC HN ES       1447 36.26                             127   -0.96 9  194 215 
 SPBC HZ I        1447 43.95         9.5 0.29            128            194 215 
 ZAR  HZ EP   1   1447 12.86                             126    0.34 6  202 283 
 ZAR  HN ES       1447 38.25                             126   -0.17 9  202 283 
 ZAR  HZ I        1447 43.97         9.5 0.29            126            202 283 
 SML  HZ EP   1   1447 13.74                             123   -0.43 6  219 330 
 SML  HE ES   1   1447 40.72                             123   -0.63 6  219 330 
 SML  HZ I        1447 45.73        14.3 0.10            125            219 330 
                                                                                
