 2010  3 9 1131 56.5 L   6.804 -73.062143.5  RSN  5 0.4 1.6LRSN                1
 GAP=132        0.68       4.2     7.6  7.3  0.2961E+01 -0.2186E+02  0.5288E+01E
 Epicentro: LOS SANTOS - SANTANDER                                             3
 ACTION:UP  10-08-24 09:52 OP:vdl  STATUS:               ID:20100309113156 L   I
 2010-03-09-1128-27S.COL___101                                                 6
 STAT SP IPHASW D HRMM SECON CODA AMPLIT PERI AZIMU VELO SNR AR TRES W  DIS CAZ7
 BRR  HZ EP       1132 17.79                             149    -0.110   79 295 
 BRR  HZ I        1132 21.20        12.3 0.24                            79 295 
 BRR  HN ES       1132 34.59                             149     0.010   79 295 
 RUS  BZ EP   1   1132 20.48                             143     0.4 7  101 181 
 RUS  BN ES   1   1132 38.21                             143    -0.2 7  101 181 
 RUS  BZ I        1132 39.54         5.2 0.29                           101 181 
 CHI  HZ EP   2   1132 34.10                             116    -0.3 4  252 197 
 CHI  HN ES   2   1133  3.75                             116    -0.2 4  252 197 
 CHI  HZ I        1133  6.69         2.0 0.56                           252 197 
 SDV  BZ EP   1   1132 45.76                             108     0.2 5  353  49 
 PRA  HZ EP   1   1132 49.71                             106    -0.8 4  397 211 
 PRA  HE ES   1   1133 33.46                             106     0.8 4  397 211 
                                                                                
