 2017  1 9 1348 34.3 L   6.787 -73.175141.7  RSN  6 0.3 1.4LRSN                1
 GAP=133        0.68       3.3     3.4  4.9 -0.1058E+01  0.2014E+01  0.2040E+01E
 Epicentro: LOS SANTOS - SANTANDER                                             3
 ACTION:UPD 17-05-22 15:57 OP:jn   STATUS:               ID:20170109134834 L   I
 OLDACT:UP  17-01-09 22:19 OP:ar   STATUS:               ID:20170109134747     3
 OLDACT:REG 17-01-09 18:04 OP:ar   STATUS:               ID:20170109134747     3
 2017-01-09-1348-00M.COL___347                                                 6
 STAT SP IPHASW D HRMM SECON CODA AMPLIT PERI AZIMU VELO AIN AR TRES W  DIS CAZ7
 BAR2 EZ EP       1348 53.41                             171   -0.0410 21.6 182 
 BAR2 EZ ES       1349  8.46                             171    0.1110 21.6 182 
 BAR2 EZ I        1349 10.73         7.6 0.48            172           21.6 182 
 BRR  HZ EP       1348 55.57                             152    0.6410 69.1 301 
 BRR  HN ES       1349 11.04                             152    0.0510 69.1 301 
 BRR  HZ I        1349 24.43         5.0 0.34            149           69.1 301 
 PAM  EZ EP       1348 56.41                             149    0.0910 80.5  41 
 PAM  EN ES       1349 13.15                             149   -0.3110 80.5  41 
 PAM  EZ I        1349 15.22         3.7 0.54            153           80.5  41 
 RUS  HZ EP       1348 57.44                             143   -0.1710 99.5 174 
 RUS  HN ES       1349 15.84                             143    0.0810 99.5 174 
 RUS  HZ I        1349 16.93         3.4 0.32            151           99.5 174 
 PTB  HZ EP       1349  0.33                             132   -0.34 9  144 259 
 PTB  HN ES       1349 20.98                             132   -0.22 9  144 259 
 PTB  HZ I        1349 25.43         3.4 0.16            133            144 259 
 CHI  HZ EP   2   1349 11.51                             116   -0.07 4  246 195 
 CHI  HN ES   2   1349 40.96                             116    0.34 4  246 195 
                                                                                
