 2011  4 9 1234  5.8 L   6.813 -73.113146.8  RSN 14 0.4 2.1LRSN                1
 GAP=105        0.84       3.8     4.5  4.9 -0.7442E+01  0.4184E+00  0.5488E+01E
 Epicentro: LOS SANTOS - SANTANDER                                             3
 ACTION:UP  11-06-22 15:29 OP:REBC STATUS:               ID:20110409123405 L   I
 2011-04-09-1231-20S.COL___138                                                 6
 STAT SP IPHASW D HRMM SECON CODA AMPLIT PERI AZIMU VELO SNR AR TRES W  DIS CAZ7
 BTL  SZ EP       1234 25.31                             172    -0.210   21 304 
 BAR2 SZ IP       1234 25.39                             170    -0.210   26 198 
 BAR2 SZ I        1234 25.71        23.7 0.24                            26 198 
 BAR2 SZ ES   1   1234 40.94                             170    -0.1 7   26 198 
 GIR2 SZ EP       1234 25.49                             167    -0.110   31 343 
 GIR2 SZ ES   1   1234 41.34                             167     0.4 7   31 343 
 BRR  HZ EP       1234 27.29                             152     0.110   74 296 
 BRR  HN ES   1   1234 43.03                             152    -0.9 7   74 296 
 BRR  HZ I        1234 47.00        34.2 0.11                            74 296 
 PAM  SZ IP       1234 28.22                             152     0.310   74  38 
 PAM  SN ES   1   1234 45.40                             152     0.2 7   74  38 
 PAM  SZ I        1234 47.56         6.9 0.08                            74  38 
 GRA  SZ EP       1234 30.98                             138     0.110  123  16 
 GRA  SZ ES   1   1234 50.67                             138     0.1 7  123  16 
 GRA  SZ I        1234 51.96        18.8 0.68                           123  16 
 OCA  SZ EP       1234 34.22                             130     0.1 9  159 352 
 OCA  SZ I        1235  1.51        11.9 0.45                           159 352 
 YOP  SZ EP       1234 35.79                             126    -0.1 9  179 155 
 NOR  SZ EP       1234 41.50                             118    -0.5 8  238 235 
 NOR  SN ES   2   1235  9.74                             118    -0.5 4  238 235 
 CHI  HZ EP   1   1234 43.56                             117    -0.2 6  251 196 
 CHI  HN ES   1   1235 14.11                             117     0.7 6  251 196 
 CHI  HZ I        1235 16.90         5.5 0.55                           251 196 
 HEL  HZ EP       1234 46.95                             115     0.5 7  276 256 
 HEL  HN ES   1   1235 18.77                             115     0.6 6  276 256 
 HEL  HZ I        1235 24.01         6.5 0.22                           276 256 
 RREF HZ EP       1234 52.60                             111     0.2 7  325 230 
 RREF HZ I        1235 36.96         8.9 0.35                           325 230 
 SDV  BZ EP       1234 54.80                             109    -0.6 6  357  50 
 PRA  HZ EP   2   1234 59.97                             106     0.3 3  395 210 
 PRA  HN ES   2   1235 41.15                             106    -0.6 3  395 210 
 PRA  HZ I        1235 46.32        14.8 0.15                           395 210 
                                                                                
