 2010 10 9 1328 59.8 L   6.757 -73.030144.0  RSN  5 0.2 1.7LRSN                1
 GAP=211        0.63       7.4     8.5  8.9  0.1245E+02 -0.4774E+02 -0.3113E+02E
 Epicentro: CEPITA - SANTANDER                                                 3
 ACTION:UP  11-02-18 11:08 OP:tino STATUS:               ID:20101009132859 L   I
 2010-10-09-1326-01S.COL___121                                                 6
 STAT SP IPHASW D HRMM SECON CODA AMPLIT PERI AZIMU VELO SNR AR TRES W  DIS CAZ7
 BAR2 SZ EP       1329 19.43                             170     0.110   25 223 
 BAR2 SZ ES   1   1329 34.20                             170    -0.3 7   25 223 
 BAR2 SZ I        1329 35.71        14.5 0.39                            25 223 
 BTL  SZ EP       1329 19.68                             167     0.210   32 304 
 BRR  HZ EP       1329 21.30                             148    -0.310   85 297 
 BRR  HN ES       1329 38.76                             148     0.110   85 297 
 GUE  SZ EP       1329 24.50                             138    -0.110  119   6 
 GUE  SZ I        1329 25.94         3.3 0.16                           119   6 
 GRA  SZ EP       1329 25.10                             136     0.110  127  11 
 GRA  SZ I        1329 26.38        10.1 0.23                           127  11 
                                                                                
