 2010 12 9 1759 22.4 L   6.810 -73.193138.9  RSN  8 0.3 1.9LRSN                1
 GAP=158        0.54       2.6     5.4  4.8 -0.8797E+01  0.8882E+01  0.1087E+00E
 Epicentro: ZAPATOCA - SANTANDER                                               3
 ACTION:UP  11-01-14 15:23 OP:pat  STATUS:               ID:20101209175922 L   I
 2010-12-09-1757-41S.COL___132                                                 6
 STAT SP IPHASW D HRMM SECON CODA AMPLIT PERI AZIMU VELO SNR AR TRES W  DIS CAZ7
 BAR2 SZ EP       1759 41.35                             170     0.110   24 178 
 BAR2 SZ ES   1   1759 55.93                             170     0.0 7   24 178 
 GRA  SZ EP       1759 47.13                             135     0.010  126  20 
 GRA  SZ ES   1   18 0  6.19                             135    -0.2 7  126  20 
 GRA  SZ I        18 0  9.39         8.8 0.22                           126  20 
 OCA  SZ EP       1759 50.16                             128     0.1 9  159 355 
 OCA  SZ ES   1   18 0 11.53                             128    -0.1 7  159 355 
 OCA  SZ I        18 0 17.30         9.5 0.31                           159 355 
 NOR  SZ EP       1759 57.30                             117    -0.1 8  231 234 
 NOR  SN ES   1   18 0 24.67                             117     0.0 6  231 234 
 CHI  HZ EP       1759 59.44                             116    -0.3 8  248 194 
 CHI  HZ I        18 0  0.11         5.7 0.21                           248 194 
 CHI  HN ES   1   18 0 29.21                             116     0.4 6  248 194 
 HEL  HZ EP   3   18 0  1.88                             114     0.1 2  267 255 
 HEL  HZ I        18 0 41.58         6.5 0.35                           267 255 
 RREF HZ EP   1   18 0  8.72                             110     0.8 5  319 229 
 RREF HN ES   2   18 0 43.10                             110    -0.3 3  319 229 
 RREF HZ I        18 0 55.56         5.3 0.42                           319 229 
 PRA  HZ EP   1   18 0 15.29                             105    -0.3 4  390 209 
 PRA  HN ES   2   18 0 56.20                             105    -0.8 3  390 209 
                                                                                
