 2010  9 9 1402 37.3 L   6.800 -73.084145.4  RSN  6 0.3 1.8LRSN                1
 GAP=166        0.51       3.7     7.7  6.2 -0.5265E+01 -0.3577E+01  0.1935E+01E
 Epicentro: LOS SANTOS - SANTANDER                                             3
 ACTION:UP  11-02-18 11:01 OP:tino STATUS:               ID:20100909140237 L   I
 2010-09-09-1359-24S.COL___120                                                 6
 STAT SP IPHASW D HRMM SECON CODA AMPLIT PERI AZIMU VELO SNR AR TRES W  DIS CAZ7
 BAR2 SZ IP     C 14 2 56.80                             170    -0.110   26 206 
 BAR2 SZ ES   2   14 3 12.36                             170     0.1 5   26 206 
 BAR2 SZ I        14 3 12.82        13.1 0.57                            26 206 
 GIR2 SZ EP   2   14 2 56.80                             167    -0.2 5   33 339 
 BRR  HZ EP   1   14 2 58.52                             151    -0.3 7   77 296 
 BRR  HE ES   2   14 3 15.68                             151     0.2 5   77 296 
 BRR  HZ I        14 3 20.10        13.5 0.35                            77 296 
 RUS  HZ EP   1   14 3  0.91                             144    -0.1 7  100 180 
 RUS  HN ES   2   14 3 19.80                             144     0.3 5  100 180 
 RUS  HZ I        14 3 21.41         7.4 0.30                           100 180 
 GRA  SZ EP   1   14 3  2.78                             137     0.4 7  124  14 
 GRA  SZ ES   2   14 3 21.74                             137    -0.2 5  124  14 
 GRA  SZ I        14 3 22.81        10.6 0.46                           124  14 
 PRA  HZ EP   1   14 3 31.34                             106     0.1 4  395 210 
 PRA  HN ES   3   14 4 14.56                             106     1.3 1  395 210 
                                                                                
