 2017 10 9 1549  6.8 L   6.772 -73.113146.1  RSN  5 0.3 1.6LRSN                1
 GAP=142        0.86       4.2     4.7  6.8 -0.2937E+01  0.1590E+02 -0.2193E+01E
 Epicentro: LOS SANTOS - SANTANDER                                             3
 ACTION:UPD 17-11-07 19:30 OP:rebc STATUS:               ID:20171009154906 L   I
 OLDACT:REG 17-10-09 20:52 OP:lv   STATUS:               ID:20171009154223     3
 2017-10-09-1548-00M.COL___435                                                 6
 STAT SP IPHASW D HRMM SECON CODA AMPLIT PERI AZIMU VELO AIN AR TRES W  DIS CAZ7
 BAR2 EZ EP       1549 26.28                             171   -0.1510 21.2 201 
 BAR2 EZ ES       1549 41.22                             171   -0.5210 21.2 201 
 BAR2 EZ I        1549 42.64         7.9 0.24            170           21.2 201 
 PAM  EZ EP       1549 29.12                             151    0.0610 77.7  36 
 PAM  EN ES       1549 46.74                             151    0.3110 77.7  36 
 PAM  EZ I        1549 47.07         4.3 0.26            153           77.7  36 
 RUS  HZ EP       1549 30.19                             145   -0.1510 97.3 178 
 RUS  HN ES       1549 49.05                             145    0.3410 97.3 178 
 RUS  HZ I        1549 49.81         3.3 0.30            147           97.3 178 
 ZAR  HZ EP       1549 39.13                             122   -0.60 8  209 293 
 ZAR  HE ES       1550  5.78                             122    0.37 8  209 293 
 ZAR  HZ I        1550 10.54         7.0 0.28            122            209 293 
 NOR  HZ EP       1549 43.11                             118    0.45 8  236 236 
 NOR  HN ES       1550 10.62                             118   -0.02 8  236 236 
 NOR  HZ I        1550 13.85         3.1 0.16            119            236 236 
                                                                                
