 2012  2 9 1035  8.5 L   6.771 -73.131137.2  RSN 11 0.4 2.2LRSN                1
 GAP=140        0.84       4.3     4.1  7.2 -0.1048E+01  0.8610E+01  0.9433E+01E
 ACTION:UP  12-03-07 16:28 OP:epov STATUS:               ID:20120209103508 L   I
 2012-02-09-1030-00M.COL___187                                                 6
 STAT SP IPHASW D HRMM SECON CODA AMPLIT PERI AZIMU VELO AIN AR TRES W  DIS CAZ7
 BAR2 SZ EP       1035 27.25                             171    0.2210 20.5 196 
 BAR2 SZ I        1035 42.93        29.5 0.27                          20.5 196 
 GIR2 SZ EP       1035 27.25                             165    0.0010 34.8 349 
 BRR  HZ EP       1035 29.02                             150    0.1210 74.2 300 
 BRR  HZ I        1035 30.11        64.9 0.11                          74.2 300 
 BRR  HN ES   1   1035 45.33                             150    0.52 7 74.2 300 
 PAM  SZ EP   1   1035 29.97                             149    0.07 7 79.0  37 
 PAM  SN ES   1   1035 46.28                             149   -0.32 7 79.0  37 
 PAM  SZ I        1035 49.41        18.6 0.44                          79.0  37 
 RUS  HZ EP   1   1035 31.32                             143    0.16 7 97.2 177 
 RUS  HN ES   1   1035 48.75                             143   -0.09 7 97.2 177 
 RUS  HZ I        1035 51.01        10.7 0.30                          97.2 177 
 PTB  HZ EP   1   1035 33.86                             130   -1.00 7  149 260 
 PTB  HN ES   1   1035 54.76                             130   -0.67 7  149 260 
 ZAR  HZ EP   1   1035 41.43                             120    0.75 6  207 293 
 ZAR  HN ES   1   1036  5.35                             120   -0.43 6  207 293 
 ZAR  HZ I        1036 11.01        25.7 0.26                           207 293 
 NOR  SZ EP   1   1035 43.07                             117   -0.60 6  234 235 
 NOR  SN ES   1   1036 11.33                             117    0.22 6  234 235 
 CHI  HZ EP   1   1035 45.20                             115   -0.23 6  246 196 
 HEL  HZ EP   1   1035 48.24                             113   -0.13 6  273 257 
 HEL  HN ES   1   1036 20.26                             113    0.80 6  273 257 
 HEL  HZ I        1036 25.66         8.0 0.29                           273 257 
 PRA  HZ EP   1   1036  1.92                             105    0.43 4  390 210 
 PRA  HN ES   1   1036 43.20                             105    0.38 4  390 210 
                                                                                
