 2016  6 9 1342 49.9 L   6.669 -73.568108.9  RSN  4 0.2 1.7LRSN                1
 GAP=119        0.61       3.8     3.1  5.5  0.5095E+01  0.4342E+01  0.6581E+01E
 Epicentro: EL CARMEN - SANTANDER                                              3
 ACTION:UPD 16-07-21 22:17 OP:rebc STATUS:               ID:20160609134249 L   I
 OLDACT:UP  16-06-09 22:41 OP:edw  STATUS:               ID:20160609133744     3
 OLDACT:REG 16-06-09 20:23 OP:edw  STATUS:               ID:20160609133744     3
 2016-06-09-1337-44M.COL___337                                                 6
 STAT SP IPHASW D HRMM SECON CODA AMPLIT PERI AZIMU VELO AIN AR TRES W  DIS CAZ7
 BAR2 EZ EP     D 1343  5.65                             157   -0.2010 43.4 101 
 BAR2 EZ ES       1343 17.96                             157   -0.3510 43.4 101 
 BAR2 EZ I        1343 18.74        10.6 0.10                          43.4 101 
 BRR  HZ EP       1343  5.90                             153    0.0110 51.0 342 
 BRR  HN ES       1343 18.72                             153    0.3310 51.0 342 
 BRR  HZ I        1343 19.19        36.7 0.12                          51.0 342 
 PTB  HZ EP     C 1343  9.43                             134   -0.0110 99.3 262 
 PTB  HN ES       1343 24.58                             134   -0.1410 99.3 262 
 PTB  HZ I        1343 25.74        12.2 0.30                          99.3 262 
 RUS  HZ EP       1343 10.34                             134    0.0810  101 148 
 RUS  HN ES       1343 26.45                             134    0.2810  101 148 
 RUS  HZ I        1343 27.53         9.5 0.22                           101 148 
                                                                                
