 2016 10 9 1610  6.5 L   6.843 -73.123144.1  RSN  9 0.4 1.7LRSN                1
 GAP=247        1.03       5.1     5.1  6.7  0.8017E+01  0.8837E+01 -0.7193E-01E
 Epicentro: LOS SANTOS - SANTANDER                                             3
 ACTION:UPD 16-11-09 19:18 OP:rebc STATUS:               ID:20161009161006 L   I
 OLDACT:REG 16-10-09 20:28 OP:lv   STATUS:               ID:20161009160748     3
 2016-10-09-1608-00M.COL___360                                                 6
 STAT SP IPHASW D HRMM SECON CODA AMPLIT PERI AZIMU VELO AIN AR TRES W  DIS CAZ7
 BAR2 EZ EP       1610 26.31                             168    0.2910 28.5 193 
 BAR2 EZ ES       1610 41.11                             168   -0.1510 28.5 193 
 BAR2 EZ I        1610 42.46        14.1 0.22            167           28.5 193 
 RUS  HZ EP       1610 30.45                             142    0.0510  105 178 
 RUS  HN ES       1610 49.42                             142    0.3610  105 178 
 RUS  HZ I        1610 50.15         5.7 0.28            143            105 178 
 PTB  HZ EP       1610 32.80                             131   -0.81 9  151 257 
 PTB  HN ES       1610 54.04                             131   -0.75 9  151 257 
 PTB  HZ I        1610 55.95         4.5 0.18            131            151 257 
 SPBC HZ EP       1610 35.17                             128   -0.18 9  168 219 
 SPBC HE ES       1610 58.37                             128    0.50 9  168 219 
 SPBC HZ I        1611  1.62         8.1 0.22            128            168 219 
 ZAR  HZ EP       1610 39.17                             122    0.31 9  205 291 
 ZAR  HN ES       1611  4.36                             122    0.23 9  205 291 
 ZAR  HZ I        1611 10.07         3.6 0.19            122            205 291 
 NOR  HZ EP       1610 42.39                             118   -0.23 8  239 234 
 NOR  HE ES       1611 10.64                             118   -0.18 8  239 234 
 CHI  HZ EP       1610 44.37                             116   -0.28 8  254 195 
 CHI  HN ES       1611 14.16                             116   -0.27 8  254 195 
 CHI  HZ I        1611 18.83         3.4 0.48            117            254 195 
 HEL  HZ EP   4   1610 49.06                             114    2.06 0  276 255 
 HEL  HN ES       1611 19.23                             114    0.62 7  276 255 
 GUY2CHZ EP       1610 51.33                             112    0.79 7  306 234 
 GUY2CHN ES   4   1611 26.03                             112    1.11 0  306 234 
 GUY2CHZ I        1611 32.53         2.1 0.32                           306 234 
                                                                                
