 2016 11 9 1257 56.1 L   6.711 -73.113147.1  RSN  5 0.4 1.5LRSN                1
 GAP=177        0.77       7.9     4.8  6.5 -0.1835E+02  0.1412E+01  0.8107E+01E
 Epicentro: JORDAN - SANTANDER                                                 3
 ACTION:UPD 17-10-26 21:06 OP:lp   STATUS:               ID:20161109125756 L   I
 OLDACT:UP  16-11-09 21:52 OP:dnl  STATUS:               ID:20161109124749d    3
 OLDACT:DUP 16-11-09 21:51 OP:dnl  STATUS:               ID:20161109124749d    3
 OLDACT:REG 16-11-09 20:54 OP:dnl  STATUS:               ID:20161109124748     3
 2016-11-09-1248-00M.COL___349                                                 6
 STAT SP IPHASW D HRMM SECON CODA AMPLIT PERI AZIMU VELO AIN AR TRES W  DIS CAZ7
 BAR2 EZ EP       1258 16.07                             174    0.3610 15.2 210 
 BAR2 EZ ES       1258 30.89                             174   -0.1510 15.2 210 
 BAR2 EZ I        1258 32.65         8.8 0.18            174           15.2 210 
 BRR  HZ EP   2   1258 17.87                             150    0.04 5 79.4 304 
 BRR  HE ES       1258 35.20                             150    0.4010 79.4 304 
 PAM  EZ EP       1258 18.99                             149    0.2310 83.2  33 
 PAM  EN ES       1258 36.08                             149   -0.3910 83.2  33 
 PAM  EZ I        1258 40.64         4.3 0.44            148           83.2  33 
 PTB  HZ EP       1258 22.91                             132   -0.40 9  150 263 
 PTB  HE ES       1258 44.50                             132   -0.07 9  150 263 
 PTB  HZ I        1258 48.92         3.1 0.16            132            150 263 
 ZAR  HE ES   3   1258 54.12                             122   -1.17 2  211 294 
 ZAR  HZ I        1258 58.99         3.3 0.24            121            211 294 
                                                                                
