 2010 11 9 1340 54.4 L   6.779 -73.041139.6  RSN  6 0.3 1.9LRSN                1
 GAP=171        0.61       3.6     8.8  6.9 -0.5314E+01 -0.9939E+01 -0.5288E+01E
 Epicentro: LOS SANTOS - SANTANDER                                             3
 ACTION:UP  10-12-17 16:51 OP:REBC STATUS:               ID:20101109134054 L   I
 2010-11-09-1338-07S.COL___128                                                 6
 STAT SP IPHASW D HRMM SECON CODA AMPLIT PERI AZIMU VELO SNR AR TRES W  DIS CAZ7
 BAR2 SZ EP   1   1341 13.58                             169     0.3 7   26 217 
 BAR2 SZ ES   1   1341 27.98                             169    -0.1 7   26 217 
 BAR2 SZ I        1341 30.65        22.0 0.36                            26 217 
 BTL  SZ EP   2   1341 13.51                             168     0.1 5   29 302 
 BRR  HZ EP   1   1341 15.44                             148    -0.1 7   83 296 
 BRR  HE ES   2   1341 32.18                             148     0.1 5   83 296 
 BRR  HZ I        1341 33.44        17.8 0.10                            83 296 
 RUS  HZ EP   1   1341 17.37                             143     0.0 7   98 183 
 RUS  HN ES   1   1341 35.14                             143    -0.1 7   98 183 
 RUS  HZ I        1341 37.15        12.8 0.42                            98 183 
 GUE  SZ EP   2   1341 17.64                             138    -0.9 5  117   6 
 GRA  SZ EP   1   1341 19.34                             136     0.3 7  125  12 
 GRA  SZ ES   1   1341 38.29                             136     0.1 7  125  12 
 GRA  SZ I        1341 40.43         6.8 0.29                           125  12 
                                                                                
