 2011  5 9 1447 57.5 L   6.756 -73.099141.6  RSN  9 0.4 2.1LRSN                1
 GAP=162        0.64       4.4     8.5  6.4 -0.2451E+02  0.2028E+02 -0.4580E+01E
 Epicentro: LOS SANTOS - SANTANDER                                             3
 ACTION:UP  11-06-29 08:51 OP:tino STATUS:               ID:20110509144757 L   I
 2011-05-09-1444-13S.COL___133                                                 6
 STAT SP IPHASW D HRMM SECON CODA AMPLIT PERI AZIMU VELO SNR AR TRES W  DIS CAZ7
 BAR2 SZ EP   1   1448 16.50                             171    -0.1 8   20 207 
 BAR2 SZ ES   1   1448 31.19                             171    -0.3 8   20 207 
 BAR2 SZ I        1448 34.01        41.0 0.28                            20 207 
 BTL  SZ EP   1   1448 16.68                             169     0.0 8   26 314 
 BRR  HZ EP   1   1448 18.54                             149    -0.1 8   78 300 
 BRR  HZ I        1448 39.74        25.8 0.15                            78 300 
 RUS  HZ EP   1   1448 20.60                             144     0.1 8   95 179 
 RUS  HN ES   2   1448 38.72                             144     0.3 5   95 179 
 RUS  HZ I        1448 40.34        13.7 0.32                            95 179 
 BRI  SZ EP   2   1448 21.29                             140     0.1 5  111  17 
 BRI  SZ ES   2   1448 40.11                             140     0.4 5  111  17 
 BRI  SZ I        1448 45.18        17.6 0.53                           111  17 
 GRA  SZ IP       1448 22.45                             135    -0.210  129  15 
 GRA  SZ ES   1   1448 42.28                             135     0.0 7  129  15 
 GRA  SZ I        1448 43.91        14.3 0.45                           129  15 
 NOR  SZ EP   2   1448 32.80                             117    -0.3 4  236 236 
 NOR  SN ES   2   1449  1.05                             117     0.1 4  236 236 
 RREF HZ EP   1   1448 44.68                             110     1.1 5  323 231 
 RREF HZ I        1449 30.49        10.4 0.56                           323 231 
 PRA  HZ EP   2   1448 50.10                             106    -0.6 3  390 211 
 PRA  HE ES   2   1449 31.72                             106    -0.4 3  390 211 
                                                                                
