 2012  4 9 1659 59.9 L   6.766 -73.135140.5  RSN  8 0.3 1.9LRSN                1
 GAP=139        0.61       3.3     3.6  4.9 -0.1691E+01  0.5111E+01 -0.7044E+00E
 Epicentro: LOS SANTOS - SANTANDER                                             3
 ACTION:UPD 12-07-05 11:52 OP:tino STATUS:               ID:20120409165959 L   I
 2012-04-09-1700-00M.COL___196                                                 6
 STAT SP IPHASW D HRMM SECON CODA AMPLIT PERI AZIMU VELO AIN AR TRES W  DIS CAZ7
 BAR2 SZ EP       17 0 18.85                             172     0.010   20 195 
 BAR2 SZ ES   1   17 0 33.23                             172    -0.4 7   20 195 
 BAR2 SZ I        17 0 36.78        22.7 0.31                            20 195 
 BRR  HZ EP       17 0 20.88                             151     0.210   74 301 
 BRR  HE ES   1   17 0 37.12                             151     0.3 7   74 301 
 BRR  HZ I        17 0 41.96        30.3 0.15                            74 301 
 PAM  SZ EP       17 0 21.79                             149     0.110   80  37 
 PAM  SE ES   1   17 0 38.62                             149    -0.1 7   80  37 
 RUS  HZ EP   1   17 0 22.90                             144     0.1 7   97 177 
 RUS  HE ES   1   17 0 40.83                             144     0.1 7   97 177 
 RUS  HZ I        17 0 42.83         4.0 0.30                            97 177 
 OCA  SZ EP   1   17 0 27.72                             128    -0.5 7  164 353 
 ZAR  HN ES   1   17 0 57.31                             121    -0.2 6  207 293 
 ZAR  HZ I        17 1  2.71        12.4 0.42                           207 293 
 NOR  SZ EP   1   17 0 34.75                             117    -0.4 6  233 235 
 NOR  SE ES   1   17 1  2.60                             117    -0.1 6  233 235 
 HEL  HZ EP   1   17 0 40.28                             114     0.4 6  272 257 
 HEL  HZ I        17 1 19.09         4.6 0.41                           272 257 
                                                                                
