 2011 11 9 1358  1.1 L   6.792 -73.063148.2  RSN  5 0.3 1.8LRSN                1
 GAP=148        0.60       4.1     4.8  5.4  0.3931E+01 -0.6777E+00 -0.5363E+00E
 Epicentro: LOS SANTOS - SANTANDER                                             3
 ACTION:UPD 12-07-13 16:09 OP:ep   STATUS:               ID:20111109135801 L   I
 2011-11-09-1354-17S.COL___178                                                 6
 STAT SP IPHASW D HRMM SECON CODA AMPLIT PERI AZIMU VELO AIN AR TRES W  DIS CAZ7
 BAR2 SZ EP       1358 21.08                             170   -0.0110 25.7 211 
 BAR2 SZ ES       1358 36.90                             170    0.2310 25.7 211 
 BAR2 SZ I        1358 41.40         9.4 0.63                          25.7 211 
 PAM  SZ EP   1   1358 23.40                             153    0.08 7 72.6  34 
 PAM  SE ES   1   1358 40.36                             153   -0.27 7 72.6  34 
 BRR  HZ EP       1358 23.00                             150   -0.0210 79.7 296 
 BRR  HZ I        1358 29.35        12.3 0.28                          79.7 296 
 BRR  HN ES       1358 40.23                             150    0.1210 79.7 296 
 RUS  HZ EP   1   1358 25.36                             145    0.33 7 99.5 181 
 RUS  HN ES   1   1358 43.19                             145   -0.49 7 99.5 181 
 ZAR  HE ES   2   1359  0.08                             122   -0.69 4  213 291 
 ZAR  HZ I        1359  5.13         8.9 0.37                           213 291 
                                                                                
