 2011  6 9 1307 39.1 L   6.788 -73.103147.3  RSN 11 0.4 2.5LRSN                1
 GAP=161        0.70       3.1     5.4  5.2 -0.8700E+01  0.4412E+01  0.3111E+01E
 Epicentro: LOS SANTOS - SANTANDER                                             3
 ACTION:UP  11-07-14 19:04 OP:ep   STATUS:               ID:20110609130739 L   I
 2011-06-09-1305-10S.COL___121                                                 6
 STAT SP IPHASW D HRMM SECON CODA AMPLIT PERI AZIMU VELO SNR AR TRES W  DIS CAZ7
 BAR2 SZ IP       13 7 58.93                             171     0.010   23 202 
 BAR2 SZ ES   1   13 8 14.32                             171    -0.1 7   23 202 
 BAR2 SZ I        13 8 15.73        61.6 0.35                            23 202 
 BRR  HZ EP   1   13 8  0.81                             151     0.1 7   76 298 
 BRR  HN ES   1   13 8 17.76                             151     0.2 7   76 298 
 BRR  HZ I        13 8 20.10        66.3 0.15                            76 298 
 RUS  HZ EP   1   13 8  2.80                             144    -0.1 7   99 179 
 RUS  HN ES   1   13 8 21.70                             144     0.2 7   99 179 
 RUS  HZ I        13 8 22.89        30.7 0.23                            99 179 
 BRI  SZ EP   1   13 8  3.52                             142     0.4 7  108  18 
 BRI  SZ ES   1   13 8 21.76                             142    -0.1 7  108  18 
 BRI  SZ I        13 8 25.09        36.4 0.23                           108  18 
 GRA  SZ EP   1   13 8  4.68                             137     0.2 7  126  15 
 GRA  SZ ES   1   13 8 23.83                             137    -0.4 7  126  15 
 GRA  SZ I        13 8 25.52        54.0 0.25                           126  15 
 OCA  SZ EP   2   13 8  7.73                             130     0.0 5  162 352 
 NOR  SZ EP   1   13 8 14.83                             118    -0.4 6  238 235 
 NOR  SN ES   1   13 8 42.84                             118    -0.6 6  238 235 
 CHI  HZ EP   1   13 8 16.95                             117     0.1 6  249 196 
 CHI  HE ES   1   13 8 46.01                             117    -0.4 6  249 196 
 CHI  HZ I        13 8 50.43        19.4 0.36                           249 196 
 RREF HN ES   1   13 9  2.55                             111     0.6 5  325 230 
 RREF HZ I        13 9 10.56        32.4 0.36                           325 230 
 TOL  SZ EP   1   13 8 28.07                             109     0.4 5  346 225 
 PRA  HZ EP   1   13 8 32.07                             107    -0.8 4  393 210 
 PRA  HE ES   1   13 9 15.41                             107     0.7 4  393 210 
                                                                                
