 2012  8 9 1532  6.3 L   6.770 -73.121142.8  RSN  7 0.3 1.4LRSN                1
 GAP=141        0.65       4.5     4.0  6.4 -0.1061E+01  0.7235E+01 -0.1471E+01E
 Epicentro: LOS SANTOS - SANTANDER                                             3
 ACTION:UPD 12-09-10 11:55 OP:ep   STATUS:               ID:20120809153206 L   I
 2012-08-09-1530-00M.COL___219                                                 6
 STAT SP IPHASW D HRMM SECON CODA AMPLIT PERI AZIMU VELO AIN AR TRES W  DIS CAZ7
 BAR2 SZ EP   2   1532 25.55                             171    0.04 5 20.8 199 
 BAR2 SZ ES   1   1532 40.59                             171    0.09 7 20.8 199 
 BAR2 SZ I        1532 42.87         8.1 0.24                          20.8 199 
 GIR2 SZ EP   1   1532 25.70                             165   -0.02 7 35.1 347 
 GIR2 SZ ES   1   1532 40.24                             165   -0.63 7 35.1 347 
 BRR  HN ES   1   1532 43.85                             151    0.07 7 75.3 300 
 PAM  SZ EP   1   1532 28.55                             150    0.31 7 78.3  36 
 PAM  SE ES   1   1532 45.55                             150    0.18 7 78.3  36 
 RUS  HN ES   1   1532 47.69                             144    0.10 7 97.1 178 
 RUS  HZ I        1532 48.81         1.6 0.21                          97.1 178 
 PTB  HZ EP   1   1532 32.55                             131   -0.66 7  150 260 
 PTB  HE ES   1   1532 54.51                             131    0.30 7  150 260 
 PTB  HZ I        1532 55.13         5.8 0.58                           150 260 
 ZAR  HN ES   1   1533  4.66                             121    0.25 6  208 293 
                                                                                
