 2017  7 9 1223  3.2 L   6.781 -73.144134.3  RSN  6 0.3 1.7LRSN                1
 GAP=280        0.67       3.5     5.7  6.1 -0.4038E+01 -0.6498E+01  0.6574E+01E
 Epicentro: LOS SANTOS - SANTANDER                                             3
 ACTION:UPD 17-08-30 15:31 OP:rebc STATUS:               ID:20170709122303 L   I
 OLDACT:REG 17-07-09 20:27 OP:dhb  STATUS:               ID:20170709121738     3
 2017-07-09-1218-00M.COL___383                                                 6
 STAT SP IPHASW D HRMM SECON CODA AMPLIT PERI AZIMU VELO AIN AR TRES W  DIS CAZ7
 BRR  HZ EP       1223 23.12                             150   -0.0410 72.3 300 
 BRR  HN ES       1223 38.82                             150    0.0710 72.3 300 
 BRR  HZ I        1223 41.38         6.3 0.14            145           72.3 300 
 PTB  HZ EP       1223 28.83                             129   -0.37 9  148 260 
 PTB  HN ES       1223 49.08                             129   -0.43 9  148 260 
 PTB  HZ I        1223 52.81         4.0 0.18            127            148 260 
 SPBC HZ EP       1223 30.69                             127    0.02 9  162 219 
 SPBC HE ES       1223 52.51                             127    0.40 9  162 219 
 SPBC HZ I        1223 53.96         8.2 0.16            126            162 219 
 ZAR  HZ EP       1223 35.31                             120    0.32 9  205 293 
 ZAR  HE ES       1224  0.03                             120    0.22 9  205 293 
 ZAR  HZ I        1224  6.24         8.0 0.38            118            205 293 
 NOR  HZ EP       1223 38.00                             116   -0.14 8  234 235 
 NOR  HN ES       1224  5.19                             116   -0.23 8  234 235 
 NOR  HZ I        1224  9.11         4.0 0.24            116            234 235 
 GUY2CHZ EP   4   1223 47.80                             110    1.65 0  300 235 
 GUY2CHE ES       1224 20.02                             110    0.35 7  300 235 
 GUY2CHZ I        1224 26.38         2.8 0.34                           300 235 
                                                                                
