 2013  9 9 1243 17.0 L   6.666 -73.172140.0  RSN  5 0.3 1.5LRSN                1
 GAP=224        0.68       8.5     6.1  7.6  0.2975E+02  0.1090E+02  0.2314E+02E
 Epicentro: VILLANUEVA - SANTANDER                                             3
 ACTION:UPD 13-10-22 09:21 OP:ep   STATUS:               ID:20130909124317 L   I
 OLDACT:UP  13-09-09 16:52 OP:cam  STATUS:               ID:20130909123959     3
 OLDACT:REG 13-09-09 15:30 OP:cam  STATUS:               ID:20130909123959     3
 2013-09-09-1239-59M.COL___269                                                 6
 STAT SP IPHASW D HRMM SECON CODA AMPLIT PERI AZIMU VELO AIN AR TRES W  DIS CAZ7
 BAR2 SZ EP       1243 35.57                             176   -0.1210 8.26 188 
 BAR2 SZ ES   1   1243 50.25                             176   -0.04 7 8.26 188 
 BAR2 SZ I        1243 54.18         8.0 0.38            173           8.26 188 
 BRR  HZ EP   1   1243 37.49                             150   -0.36 7 77.1 309 
 BRR  HN ES       1243 54.22                             150    0.0810 77.1 309 
 BRR  HZ I        1243 55.44         6.0 0.14            154           77.1 309 
 RUS  HZ EP   1   1243 39.70                             147    0.56 7 86.1 173 
 PTB  HZ EP   1   1243 42.66                             132   -0.35 7  143 264 
 PTB  HN ES   1   1244  3.11                             132   -0.21 7  143 264 
 PTB  HZ I        1244  5.43         4.8 0.12            135            143 264 
 ZAR  HN ES   1   1244 15.27                             121    0.57 6  207 296 
                                                                                
