 2013 11 9 1102 18.7 L   6.535 -73.868 23.8  RSN  5 0.3 1.3LRSN                1
 GAP=141        0.90       3.0     2.2  3.9 -0.1358E+01 -0.4036E+01  0.5240E+01E
 Epicentro: PUERTO PARRA - SANTANDER                                           3
 ACTION:UPD 14-01-09 16:26 OP:ep   STATUS:               ID:20131109110218 L   I
 OLDACT:REG 13-11-09 14:39 OP:jn   STATUS:               ID:20131109110000     3
 2013-11-09-1100-00M.COL___273                                                 6
 STAT SP IPHASW D HRMM SECON CODA AMPLIT PERI AZIMU VELO AIN AR TRES W  DIS CAZ7
 PTB  HZ EP       11 2 29.55                             108   -0.0910 65.0 271 
 PTB  HN ES       11 2 37.93                             108   -0.2410 65.0 271 
 PTB  HZ I        11 2 38.65        14.0 0.18             96           65.0 271 
 BRR  HZ EP       11 2 29.69                             108   -0.0110 65.6  15 
 BRR  HN ES       11 2 38.53                             108    0.2410 65.6  15 
 BRR  HZ I        11 2 39.04        19.0 0.48             94           65.6  15 
 BAR2 SZ EP       11 2 31.99                             106    0.5110 76.1  85 
 BAR2 SZ ES       11 2 40.93                             106   -0.5310 76.1  85 
 BAR2 SZ I        11 2 44.38        11.3 0.48             91           76.1  85 
 RUS  HZ EP       11 2 37.22                              56    0.3510  112 129 
 RUS  HN ES       11 2 50.98                              56   -0.0710  112 129 
 RUS  HZ I        11 2 52.68         6.8 0.36             61            112 129 
 PAM  SZ EP       11 2 42.80                              56    0.35 9  157  55 
 PAM  SN ES       11 3  0.47                              56   -0.51 9  157  55 
 PAM  SZ I        11 3  2.54         3.7 0.20             61            157  55 
                                                                                
