 2013 10 9 1644  3.5 L   6.644 -73.201145.8  RSN  4 0.1 1.7LRSN                1
 GAP=208        0.35       4.6     2.7  3.2  0.9425E+00  0.1719E+01  0.2545E+01E
 Epicentro: BARICHARA - SANTANDER                                              3
 ACTION:UPD 13-11-25 09:20 OP:ep   STATUS:               ID:20131009164403 L   I
 OLDACT:REG 13-10-09 18:21 OP:nd   STATUS:               ID:20131009163959     3
 2013-10-09-1639-59M.COL___273                                                 6
 STAT SP IPHASW D HRMM SECON CODA AMPLIT PERI AZIMU VELO AIN AR TRES W  DIS CAZ7
 BAR2 SZ EP       1644 22.77                             177   -0.1210 6.09 161 
 BAR2 SZ ES       1644 38.10                             177    0.0710 6.09 161 
 BAR2 SZ I        1644 41.23         8.8 0.26            164           6.09 161 
 BRR  HZ EP       1644 24.94                             151    0.0210 76.3 312 
 BRR  HZ I        1644 40.20        11.6 0.22            137           76.3 312 
 BRR  HN ES       1644 41.64                             151   -0.0110 76.3 312 
 PTB  HZ EP       1644 29.82                             134    0.12 9  139 265 
 PTB  HN ES       1644 50.08                             134   -0.07 9  139 265 
 PTB  HZ I        1644 52.65         5.8 0.48            128            139 265 
 ZAR  HZ EP   4   1644 36.04                             122   -0.06 0  206 297 
 ZAR  HN ES   4   1645  1.79                             122    0.25 0  206 297 
 ZAR  HZ I        1645  7.02         6.8 0.56            113            206 297 
                                                                                
