 2011  3 9 1839 48.9 L   6.836 -73.185137.9  RSN  6 0.5 2.0LRSN                1
 GAP=154        1.29       7.4    15.2 14.0 -0.4313E+02  0.1310E+03 -0.3350E+02E
 Epicentro: ZAPATOCA - SANTANDER                                               3
 ACTION:UP  11-06-16 14:32 OP:jfem STATUS:               ID:20110309183948 L   I
 2011-03-09-1837-14S.COL___135                                                 6
 STAT SP IPHASW D HRMM SECON CODA AMPLIT PERI AZIMU VELO SNR AR TRES W  DIS CAZ7
 BAR2 SZ EP   1   1840  7.69                             168     0.1 8   27 180 
 BAR2 SZ I        1840  8.09        26.5 0.12                            27 180 
 BAR2 SZ ES   1   1840 22.22                             168    -0.1 8   27 180 
 RUS  HZ EP       1840 11.70                             141    -0.510  105 174 
 RUS  HN ES   1   1840 30.84                             141     0.5 7  105 174 
 RUS  HZ I        1840 31.81        12.5 0.23                           105 174 
 GRA  SZ EP       1840 13.95                             135     0.710  123  20 
 GRA  SZ ES   1   1840 31.48                             135    -0.7 7  123  20 
 GRA  SZ I        1840 34.24        18.5 0.31                           123  20 
 CHI  HZ EP   2   1840 25.84                             115    -0.6 4  251 194 
 CHI  HZ I        1841  0.88         7.2 0.34                           251 194 
 HEL  HZ EP   1   1840 28.91                             113     0.6 6  269 255 
 HEL  HZ I        1841  6.09         6.9 0.22                           269 255 
 DBB  SZ EP       1840 35.12                             108    -0.4 7  335 274 
                                                                                
