 2014  5 9 1744 44.3 L   6.833 -73.160138.5  RSN 11 0.4 2.2LRSN                1
 GAP= 78        1.02       2.9     3.3  7.1 -0.1277E+01  0.8260E+01  0.9814E+00E
 Epicentro: LOS SANTOS - SANTANDER                                             3
 OLDACT:DUP 14-05-10 01:48 OP:mh   STATUS:               ID:20140509173814d    3
 ACTION:UPD 15-03-16 16:56 OP:nd   STATUS:               ID:20140509174444 L   I
 OLDACT:UP  14-05-10 01:48 OP:mh   STATUS:               ID:20140509173814d    3
 2014-05-09-1738-13M.COL___233                                                 6
 STAT SP IPHASW D HRMM SECON CODA AMPLIT PERI AZIMU VELO AIN AR TRES W  DIS CAZ7
 PAM  SZ EP       1745  6.34                             150    0.6610 75.7  42 
 PAM  SN ES       1745 22.89                             150    0.5610 75.7  42 
 PAM  SZ I        1745 25.06        53.0 0.42            148           75.7  42 
 RUS  HZ EP       1745  7.54                             141   -0.1310  104 175 
 RUS  HN ES       1745 25.61                             141   -0.2510  104 175 
 RUS  SZ I        1745 27.31        22.6 0.28            141            104 175 
 PTB  HZ EP       1745 10.50                             130   -0.15 9  147 257 
 PTB  HN ES       1745 30.82                             130   -0.34 9  147 257 
 OCA  HZ EP       1745 11.69                             129   -0.04 9  156 354 
 OCA  HN ES       1745 32.65                             129   -0.44 9  156 354 
 OCA  SZ I        1745 36.74        23.3 0.48            129            156 354 
 OCA  HZ I        1745 37.03        22.8 0.25                           156 354 
 TAM  HZ EP       1745 11.93                             128    0.24 9  158 106 
 TAM  HN ES       1745 32.64                             128   -0.39 9  158 106 
 TAM  SZ I        1745 53.81        15.3 0.40            127            158 106 
 NOR  HZ EP       1745 19.83                             117    0.08 8  236 234 
 NOR  HN ES       1745 47.75                             117    0.38 8  236 234 
 NOR  HZ I        1745 53.36        11.5 0.14            118            236 234 
 NOR  SZ I        1745 55.01         7.5 0.16                           236 234 
 SML  HZ EP       1745 19.67                             116   -0.46 8  240 335 
 SML  HE ES   1   1745 47.95                             116   -0.10 6  240 335 
 SML  SZ I        1745 58.10        21.7 0.12            117            240 335 
 CHI  HZ EP       1745 21.19                             115   -0.80 8  252 195 
 CHI  HN ES       1745 51.60                             115    0.25 8  252 195 
 CHI  SZ I        1745 55.36         7.1 0.26            116            252 195 
 CHI  HZ I        1745 55.51        16.7 0.05                           252 195 
 HEL  HZ EP   4   1745 25.48                             113    1.36 0  271 255 
 HEL  HN ES   4   1745 51.70                             113   -3.45 0  271 255 
 HEL  SZ I        1746  3.37         8.1 0.48            115            271 255 
 URE  HZ EP   4   1745 25.40                             112    0.66 0  281 291 
 URE  HN ES   4   1745 53.21                             112   -3.05 0  281 291 
 URE  SZ I        1745 56.70        15.9 0.12            113            281 291 
 CBOC HZ EP       1745 32.00                             108    1.08 7  333 251 
 CBOC HN ES       1746  7.25                             108    0.00 7  333 251 
                                                                                
