 2010 10 9 1540 54.1 L   6.000 -73.777128.0  RSN  4 0.4 1.9LRSN                1
 GAP=153        0.86       6.4    10.1 13.3 -0.4578E+02 -0.4449E+02  0.2507E+02E
 Epicentro: BOLIVAR - SANTANDER                                                3
 ACTION:UP  11-02-18 11:08 OP:tino STATUS:               ID:20101009154054 L   I
 2010-10-09-1536-57S.COL___121                                                 6
 STAT SP IPHASW D HRMM SECON CODA AMPLIT PERI AZIMU VELO SNR AR TRES W  DIS CAZ7
 BRR  HZ EP       1541 16.76                             134    -0.510  123   3 
 BRR  HE ES       1541 35.67                             134     0.310  123   3 
 BRR  HZ I        1541 37.01        11.8 0.28                           123   3 
 NOR  SZ EP       1541 18.46                             132     0.410  131 248 
 NOR  SN ES   1   1541 36.42                             132    -0.4 7  131 248 
 CHI  HN ES   2   1541 41.26                             127     0.1 5  152 178 
 GUE  SZ EP   1   1541 27.98                             116     0.1 6  223  25 
                                                                                
