 2017  9 9 1927 20.2 L   6.806 -73.138145.7  RSN  6 0.3 1.4LRSN                1
 GAP=137        0.77       3.6     4.0  5.9 -0.4063E+01  0.9678E+01  0.2121E+00E
 Epicentro: LOS SANTOS - SANTANDER                                             3
 ACTION:UPD 17-10-05 19:10 OP:rebc STATUS:               ID:20170909192720 L   I
 OLDACT:REG 17-09-09 19:55 OP:lv   STATUS:               ID:20170909191745     3
 2017-09-09-1918-00M.COL___416                                                 6
 STAT SP IPHASW D HRMM SECON CODA AMPLIT PERI AZIMU VELO AIN AR TRES W  DIS CAZ7
 BAR2 EZ EP       1927 39.55                             170   -0.2710 24.1 192 
 BAR2 EZ ES       1927 55.10                             170   -0.0410 24.1 192 
 BAR2 EZ I        1927 56.42         6.7 0.17            169           24.1 192 
 PAM  EZ EP       1927 42.62                             151    0.2910 76.4  39 
 PAM  EN ES       1927 59.82                             151    0.2210 76.4  39 
 PAM  EZ I        1928  2.01         4.1 0.29            154           76.4  39 
 RUS  HZ EP       1927 43.75                             144   -0.2210  101 177 
 RUS  HN ES       1928  2.42                             144   -0.1010  101 177 
 RUS  HZ I        1928  3.75         2.4 0.38            145            101 177 
 SPBC HZ EP       1927 48.71                             129   -0.07 9  164 219 
 SPBC HN ES       1928 10.95                             129   -0.12 9  164 219 
 SPBC HZ I        1928 16.06         4.8 0.17            130            164 219 
 ZAR  HE ES       1928 17.65                             122   -0.38 9  205 292 
 NOR  HZ EP       1927 56.04                             118    0.01 8  236 234 
 NOR  HE ES       1928 24.83                             118    0.85 8  236 234 
 NOR  HZ I        1928 27.51         2.5 0.21            120            236 234 
                                                                                
