 2012  1 9 1515 26.8 L   6.780 -73.163140.0  RSN 16 0.5 2.9LRSN                1
 GAP=113        1.14       4.7     5.1  7.7 -0.2147E+01  0.1139E+02  0.7216E+01E
 Epicentro: LOS SANTOS - SANTANDER                                             3
 ACTION:UP  12-02-03 08:15 OP:REBC STATUS:               ID:20120109151526 L   I
 2012-01-09-1510-00M.COL___186                                                 6
 STAT SP IPHASW D HRMM SECON CODA AMPLIT PERI AZIMU VELO SNR AR TRES W  DIS CAZ7
 BAR2 SZ IP       1515 45.57                             171    -0.110   21 186 
 BAR2 SZ ES   1   1516  0.62                             171     0.2 7   21 186 
 GIR2 SZ IP     D 1515 45.62                             166    -0.210   33 354 
 BRR  HZ IP     C 1515 47.41                             152     0.210   71 301 
 BRR  HE ES   1   1516  4.00                             152     0.8 7   71 301 
 BRR  HZ I        1516  8.47       250.7 0.15                            71 301 
 PAM  SZ IP     D 1515 48.31                             149    -0.210   80  40 
 PAM  SN ES   1   1516  5.35                             149    -0.2 7   80  40 
 RUS  HZ EP   1   1515 49.40                             143    -0.4 7   99 175 
 RUS  HN ES   1   1516  7.70                             143    -0.1 7   99 175 
 RUS  HZ I        1516  9.01        80.5 0.23                            99 175 
 PTB  HZ EP       1515 51.98                             131    -1.1 9  145 260 
 PTB  HN ES       1516 13.52                             131     0.0 9  145 260 
 OCA  SZ ES   1   1516 17.48                             128     0.8 7  162 354 
 OCA  SZ I        1516 23.66       181.0 0.24                           162 354 
 YOP  SN ES   2   1516 20.42                             125     1.1 4  178 152 
 YOP  SZ I        1516 21.18        39.0 0.10                           178 152 
 ZAR  HZ EP   1   1515 58.25                             122    -0.5 6  203 293 
 ZAR  HN ES   1   1516 23.50                             122    -0.2 6  203 293 
 ZAR  HZ I        1516 29.45        62.7 0.11                           203 293 
 NOR  SZ EP   1   1516  1.55                             118    -0.3 6  232 235 
 NOR  SN ES   1   1516 29.28                             118     0.1 6  232 235 
 HEL  HZ EP   1   1516  7.14                             114     0.7 6  270 256 
 HEL  HZ I        1516 44.91        57.8 0.24                           270 256 
 VIL  SZ EP   2   1516 10.34                             111     0.7 4  301 191 
 VIL  SZ I        1516 53.06        26.6 0.42                           301 191 
 GUY  SZ EP   1   1516 10.55                             111     0.5 5  301 235 
 GUY  SZ I        1516 52.75        88.8 0.40                           301 235 
 RREF HZ EP   1   1516 13.19                             110     0.9 5  319 229 
 RREF HZ I        1516 55.29        68.8 0.14                           319 229 
 TOL  SZ EP   1   1516 15.09                             109     0.6 5  341 225 
 PRA  HN ES   1   1517  1.09                             106     0.0 4  389 209 
                                                                                
