 2015  1 9 1416  2.8 L   6.814 -73.171145.3  RSN 10 0.5 2.0LRSN                1
 GAP=133        1.07       3.2     4.5  6.4 -0.1905E+01  0.1012E+02 -0.2393E+01E
 Epicentro: LOS SANTOS - SANTANDER                                             3
 ACTION:UPD 15-03-02 15:38 OP:nd   STATUS:               ID:20150109141602 L   I
 OLDACT:UP  15-01-10 00:34 OP:mh   STATUS:               ID:20150109140748     3
 OLDACT:REG 15-01-09 21:44 OP:mh   STATUS:               ID:20150109140748     3
 2015-01-09-1407-48M.COL___268                                                 6
 STAT SP IPHASW D HRMM SECON CODA AMPLIT PERI AZIMU VELO AIN AR TRES W  DIS CAZ7
 BAR2 EZ EP       1416 22.56                             170    0.1410 24.5 183 
 BAR2 EZ ES       1416 37.45                             170   -0.2610 24.5 183 
 BAR2 EZ I        1416 38.71        18.8 0.20            169           24.5 183 
 PAM  SZ EP       1416 25.54                             150    0.5210 78.0  42 
 PAM  SN ES       1416 42.28                             150   -0.0710 78.0  42 
 PAM  SZ I        1416 43.79        27.5 0.56            154           78.0  42 
 RUS  HZ EP   1   1416 26.93                             143    0.28 7  102 175 
 RUS  HN ES       1416 45.24                             143    0.0010  102 175 
 RUS  HZ I        1416 46.10         9.5 0.32            145            102 175 
 PTB  HZ EP       1416 29.75                             132    0.22 9  145 258 
 PTB  HN ES       1416 50.00                             132   -0.36 9  145 258 
 PTB  HZ I        1416 52.32        12.0 0.18            131            145 258 
 SPBC HZ EP       1416 31.52                             129    0.29 9  163 218 
 SPBC HN ES       1416 53.65                             129    0.26 9  163 218 
 SPBC HZ I        1417  0.50        13.6 0.40            129            163 218 
 ZAR  HZ EP   1   1416 35.76                             123    0.85 6  201 292 
 ZAR  HN ES       1417  0.87                             123    0.93 9  201 292 
 ZAR  HZ I        1417  7.13        15.5 0.62            123            201 292 
 NOR  HZ EP       1416 38.29                             118   -0.08 8  233 234 
 NOR  HN ES       1417  5.69                             118   -0.42 8  233 234 
 NOR  HZ I        1417 12.57         6.3 0.18            119            233 234 
 SML  HZ EP       1416 38.60                             117   -0.54 8  241 336 
 SML  HN ES       1417  6.79                             117   -0.69 8  241 336 
 SML  HZ I        1417 12.89        11.6 0.20            118            241 336 
 CHI  HZ EP       1416 40.63                             117    0.06 8  249 194 
 CHI  HN ES       1417  9.20                             117   -0.82 8  249 194 
 CHI  HZ I        1417 13.90         2.9 0.28            118            249 194 
 SJC  HZ EP       1416 57.16                             106   -0.88 6  406 327 
 SJC  HN ES   4   1417 37.76                             106   -3.35 0  406 327 
                                                                                
