 2011 12 9 1156  7.6 L   6.754 -73.107141.2  RSN  5 0.2 1.7LRSN                1
 GAP=144        0.40       3.2     3.8  4.3 -0.6378E+00 -0.3663E+00  0.7344E+00E
 Epicentro: LOS SANTOS - SANTANDER                                             3
 ACTION:UPD 12-07-13 16:15 OP:ep   STATUS:               ID:20111209115607 L   I
 2011-12-09-1153-00S.MAN___173                                                 6
 STAT SP IPHASW D HRMM SECON CODA AMPLIT PERI AZIMU VELO AIN AR TRES W  DIS CAZ7
 BAR2 SZ EP   1   1156 26.71                             172    0.08 7 19.7 205 
 BAR2 SZ ES   1   1156 41.19                             172   -0.27 7 19.7 205 
 BAR2 SZ I        1156 42.57         9.9 0.18                          19.7 205 
 BRR  HZ IP     D 1156 28.55                             149   -0.1010 77.5 300 
 BRR  HZ I        1156 28.71        20.5 0.18                          77.5 300 
 BRR  HN ES   1   1156 45.33                             149    0.27 7 77.5 300 
 PAM  SZ EP   1   1156 29.38                             149   -0.06 7 78.9  35 
 PAM  SZ I        1156 29.92        10.6 0.16                          78.9  35 
 PAM  SN ES   2   1156 46.47                             149    0.00 5 78.9  35 
 RUS  HZ EP   1   1156 30.71                             144    0.17 7 95.2 178 
 RUS  HN ES   2   1156 48.58                             144    0.16 5 95.2 178 
 RUS  HZ I        1156 50.85         6.6 0.30                          95.2 178 
 NOR  SN ES   2   1157 10.65                             117   -0.22 4  235 236 
                                                                                
