 2013  5 9 1600 27.9 L   6.662 -73.619106.0  RSN  5 0.3 1.9LRSN                1
 GAP=111        0.66       4.1     3.3  7.1  0.3309E+01  0.8499E+01  0.9416E+01E
 Epicentro: EL CARMEN DE CHUCURI - SANTANDER                                   3
 ACTION:UPD 13-06-20 09:49 OP:ep   STATUS:               ID:20130509160027 L   I
 2013-05-09-1600-00M.COL___256                                                 6
 STAT SP IPHASW D HRMM SECON CODA AMPLIT PERI AZIMU VELO AIN AR TRES W  DIS CAZ7
 BAR2 SZ IP     C 16 0 43.76                             154   -0.1210 48.9  99 
 BAR2 SZ ES   1   16 0 56.15                             154   -0.16 7 48.9  99 
 BAR2 SZ I        16 0 57.04        29.4 0.15            161           48.9  99 
 BRR  HZ EP   1   16 0 43.53                             153   -0.08 7 50.3 348 
 BRR  HE ES   1   16 0 56.44                             153    0.61 7 50.3 348 
 BRR  HZ I        16 0 56.93        30.0 0.12            159           50.3 348 
 PTB  HZ EP       16 0 46.53                             135   -0.2410 93.6 262 
 PTB  HN ES   1   16 1  1.06                             135   -0.40 7 93.6 262 
 PTB  HZ I        16 1  6.42        18.8 0.20            136           93.6 262 
 RUS  HZ EP   1   16 0 48.29                             133   -0.02 7  104 145 
 RUS  HN ES       16 1  4.27                             133    0.0710  104 145 
 RUS  HZ I        16 1  6.45        16.9 0.28            137            104 145 
 NOR  HZ EP   2   16 0 56.63                             115    0.65 4  184 229 
 NOR  HN ES   1   16 1 18.28                             115    0.43 7  184 229 
 NOR  HZ I        16 1 22.02         7.1 0.18            118            184 229 
                                                                                
