 2010  4 9 1250  6.7 L   6.777 -72.937142.5  RSN  4 0.4 2.2LRSN                1
 GAP=280        0.68       9.6    11.7 10.1 -0.1607E+02  0.1307E+02  0.4902E+02E
 Epicentro: CEPITA - SANTANDER                                                 3
 ACTION:UPD 10-08-24 09:58 OP:vdl  STATUS:               ID:20100409125006 L   I
 2010-04-09-1246-50S.COL___097                                                 6
 STAT SP IPHASW D HRMM SECON CODA AMPLIT PERI AZIMU VELO AIN AR TRES W  DIS CAZ7
 BAR2 SZ IP       1250 26.28                             166     0.110   34 233 
 BAR2 SZ ES   2   1250 41.61                             166     0.2 5   34 233 
 BRR  HZ EP   1   1250 28.51                             145    -0.4 7   93 293 
 BRR  HE ES   2   1250 46.09                             145    -0.1 5   93 293 
 RREF BZ EP   1   1250 55.36                             109     0.8 5  338 232 
 RREF BN ES   2   1251 32.32                             109     0.4 3  338 232 
 RREF BZ I        1251 37.84         6.3 0.25                           338 232 
 PRA  HZ EP   1   1251  0.74                             106    -0.5 4  402 213 
 PRA  HN ES   2   1251 42.87                             106    -0.9 3  402 213 
 PRA  HZ I        1251 47.56         4.9 0.53                           402 213 
                                                                                
