 2014  1 9 1907  2.4 L   6.809 -73.168139.9  RSN 11 0.4 2.3LRSN                1
 GAP=133        0.96       2.7     3.6  5.0 -0.8617E+00  0.5495E+01  0.8020E+00E
 Epicentro: LOS SANTOS - SANTANDER                                             3
 ACTION:UPD 14-03-13 09:53 OP:ep   STATUS:               ID:20140109190702 L   I
 OLDACT:UP  14-01-09 21:49 OP:stll STATUS:               ID:20140109185815     3
 OLDACT:REG 14-01-09 14:35 OP:stll STATUS:               ID:20140109185815     3
 2014-01-09-1858-15M.COL___246                                                 6
 STAT SP IPHASW D HRMM SECON CODA AMPLIT PERI AZIMU VELO AIN AR TRES W  DIS CAZ7
 BAR2 SZ IP     D 19 7 21.30                             170   -0.0210 24.0 184 
 BAR2 SZ I        19 7 21.44        62.8 0.40            168           24.0 184 
 BAR2 SZ ES       19 7 36.03                             170   -0.0610 24.0 184 
 BRR  HZ IP     C 19 7 23.07                             152    0.3310 68.6 299 
 BRR  HZ I        19 7 23.29        28.9 0.26            149           68.6 299 
 BRR  HN ES       19 7 39.37                             152    0.7410 68.6 299 
 PAM  SZ IP     D 19 7 24.22                             149    0.2010 78.2  41 
 PAM  SZ I        19 7 24.34        27.5 0.22            154           78.2  41 
 PAM  SN ES       19 7 40.77                             149   -0.1410 78.2  41 
 RUS  HZ IP     C 19 7 25.35                             142   -0.2910  102 175 
 RUS  HZ I        19 7 26.47        19.1 0.10            143            102 175 
 RUS  HN ES       19 7 43.76                             142   -0.0310  102 175 
 PTB  HZ EP       19 7 28.30                             131   -0.37 9  146 258 
 PTB  HE ES       19 7 48.48                             131   -0.70 9  146 258 
 PTB  HZ I        19 7 54.82        30.3 0.76            130            146 258 
 SPBC HZ EP       19 7 30.28                             128   -0.08 9  162 218 
 SPBC HN ES       19 7 52.56                             128    0.38 9  162 218 
 SPBC HZ I        19 7 59.81        22.6 0.30            127            162 218 
 ZAR  HZ EP       19 7 33.99                             121   -0.18 9  201 292 
 ZAR  HE ES       19 7 58.99                             121    0.02 9  201 292 
 ZAR  HZ I        19 8  5.54        24.0 0.44            121            201 292 
 NOR  HZ EP       19 7 37.65                             117    0.03 8  233 234 
 NOR  HN ES       19 8  4.53                             117   -0.58 8  233 234 
 NOR  HZ I        19 8 11.41        18.5 0.14            117            233 234 
 SML  HZ EP       19 7 38.85                             116    0.38 8  242 336 
 SML  HE ES       19 8  6.00                             116   -0.62 8  242 336 
 SML  HZ I        19 8 12.14        18.6 0.24            117            242 336 
 CHI  HZ EP       19 7 39.69                             116   -0.10 8  249 195 
 CHI  HN ES       19 8  8.79                             116   -0.19 8  249 195 
 CHI  HZ I        19 8 14.15         7.5 0.26            117            249 195 
 GUY2CHZ EP       19 7 46.27                             111    0.71 7  300 234 
 GUY2CHN ES       19 8 20.04                             111    0.80 7  300 234 
 GUY2CHZ I        19 8 28.26         6.5 0.32                           300 234 
                                                                                
