 2010 10 9 1510 43.4 L   6.791 -73.069142.0  RSN 10 0.5 2.3LRSN                1
 GAP=183        1.07       4.9     8.8  7.9 -0.2479E+02 -0.1159E+02  0.1218E+02E
 Epicentro: LOS SANTOS - SANTANDER                                             3
 ACTION:UP  11-02-18 11:08 OP:tino STATUS:               ID:20101009151043 L   I
 2010-10-09-1506-53S.COL___121                                                 6
 STAT SP IPHASW D HRMM SECON CODA AMPLIT PERI AZIMU VELO SNR AR TRES W  DIS CAZ7
 BAR2 SZ EP       1511  2.69                             169     0.010   25 210 
 BAR2 SZ ES   1   1511 16.89                             169    -0.8 7   25 210 
 BAR2 SZ I        1511 18.79        47.0 0.28                            25 210 
 BTL  SZ EP       1511  2.95                             169     0.310   26 303 
 BRR  HZ EP       1511  4.51                             149    -0.110   79 296 
 BRR  HN ES       1511 21.64                             149     0.410   79 296 
 BRR  HZ I        1511 22.52        51.0 0.55                            79 296 
 GUE  SZ EP       1511  7.59                             139    -0.210  116   8 
 GRA  SZ EP       1511  8.44                             137     0.210  124  14 
 GRA  SZ ES       1511 27.51                             137    -0.110  124  14 
 GRA  SZ I        1511 30.38        16.6 0.26                           124  14 
 OCA  SZ EP       1511 11.56                             128    -0.1 9  162 350 
 OCA  SZ ES   1   1511 33.88                             128     0.2 7  162 350 
 OCA  SZ I        1511 36.88        25.6 0.35                           162 350 
 NOR  SZ EP       1511 18.99                             117    -0.7 8  241 236 
 NOR  SN ES   2   1511 46.30                             117    -1.6 4  241 236 
 CHI  HZ EP   1   1511 21.02                             116    -0.1 6  250 197 
 CHI  HN ES   1   1511 51.29                             116     0.8 6  250 197 
 CHI  HZ I        1511 53.95         5.9 0.49                           250 197 
 RREF HN ES   2   1512  7.15                             110     0.7 3  328 230 
 RREF HZ I        1512 11.13         6.6 0.33                           328 230 
 PRA  HZ EP   2   1511 37.24                             106     0.0 3  395 211 
 PRA  HN ES   1   1512 20.03                             106     0.9 4  395 211 
 PRA  HZ I        1512 25.73        19.2 0.04                           395 211 
                                                                                
