 2010  5 9 1735 33.6 L   7.125 -72.961150.8  RSN  5 0.2 1.7LRSN                1
 GAP=243        0.42       9.6    10.2  6.0 -0.8108E+02 -0.2690E+02  0.2659E+02E
 Epicentro: TONA - SANTANDER                                                   3
 ACTION:UP  10-08-24 10:03 OP:vdl  STATUS:               ID:20100509173533 L   I
 2010-05-09-1730-39S.COL___105                                                 6
 STAT SP IPHASW D HRMM SECON CODA AMPLIT PERI AZIMU VELO SNR AR TRES W  DIS CAZ7
 GIR2 SZ EP   1   1735 53.60                             170    -0.1 7   26 259 
 GIR2 SZ ES   2   1736  9.32                             170    -0.1 5   26 259 
 BRI  SZ EP   1   1735 55.60                             155     0.2 7   68  15 
 BRI  SZ ES   2   1736 12.77                             155     0.4 5   68  15 
 GUE  SZ EP   1   1735 56.07                             151    -0.1 7   78   3 
 GUE  SZ ES   2   1736 13.31                             151    -0.4 5   78   3 
 BRR  HZ EP   1   1735 56.11                             150     0.1 7   83 269 
 BRR  HE ES   2   1736 13.47                             150     0.0 5   83 269 
 BRR  HZ I        1736 18.95         8.3 0.08                            83 269 
 GRA  SZ EP   1   1735 56.19                             149    -0.2 7   86  12 
 GRA  SZ ES   2   1736 14.23                             149     0.1 5   86  12 
                                                                                
