 2015  2 9 1055 30.9 L   6.822 -73.102145.7  RSN 15 0.5 2.0LRSN                1
 GAP= 72        1.30       3.4     4.0  6.1 -0.4049E+01  0.7631E+00  0.1115E+01E
 Epicentro: LOS SANTOS - SANTANDER                                             3
 ACTION:UPD 15-04-30 21:24 OP:nd   STATUS:               ID:20150209105530 L   I
 OLDACT:ARG 15-02-09 20:42 OP:stll STATUS:               ID:20150209104745     3
 2015-02-09-1047-45M.COL___286                                                 6
 STAT SP IPHASW D HRMM SECON CODA AMPLIT PERI AZIMU VELO AIN AR TRES W  DIS CAZ7
 BAR2 EZ EP       1055 50.99                             169    0.4010 26.9 199 
 BAR2 EZ ES       1056  5.96                             169   -0.0010 26.9 199 
 BAR2 EZ I        1056  7.58        18.4 0.24            168           26.9 199 
 PAM  SE ES       1056  9.99                             152    0.0810 72.4  38 
 BRR  HZ EP       1055 52.96                             152    0.7410 74.4 295 
 BRR  HE ES       1056  9.36                             152    0.5110 74.4 295 
 BRR  HZ I        1056 13.99        15.3 0.26            151           74.4 295 
 RUS  HZ EP       1055 54.82                             143    0.0210  103 179 
 RUS  HN ES       1056 13.23                             143   -0.2210  103 179 
 RUS  HZ I        1056 16.38         7.6 0.42            145            103 179 
 TAM  HZ EP       1055 58.99                             131    0.79 9  151 106 
 TAM  HZ I        1055 59.20        18.8 0.22            134            151 106 
 PTB  HN ES       1056 18.63                             131   -1.11 9  153 258 
 OCA  HZ EP       1055 58.89                             130   -0.14 9  158 351 
 OCA  HN ES       1056 21.15                             130    0.17 9  158 351 
 OCA  HZ I        1056 26.69         9.1 0.24            132            158 351 
 SPBC HZ EP       1055 59.94                             128    0.08 9  168 220 
 SPBC HN ES       1056 22.28                             128   -0.18 9  168 220 
 SPBC HZ I        1056 27.73        20.8 0.24            129            168 220 
 NOR  HZ EP       1056  6.81                             118   -0.39 8  240 235 
 NOR  HN ES       1056 35.48                             118   -0.03 8  240 235 
 NOR  HZ I        1056 42.06         7.1 0.32            119            240 235 
 SML  HZ EP       1056  7.19                             117   -0.31 8  244 334 
 SML  HN ES       1056 35.38                             117   -0.67 8  244 334 
 SML  HZ I        1056 39.47        14.2 0.10            119            244 334 
 CHI  HZ EP       1056  8.09                             117   -0.90 8  252 196 
 CHI  HN ES       1056 38.43                             117   -0.27 8  252 196 
 CHI  HZ I        1056 44.62         4.4 0.58            118            252 196 
 HEL  HZ EP       1056 13.08                             114    1.39 7  277 256 
 HEL  HN ES       1056 43.59                             114    0.08 7  277 256 
 HEL  HZ I        1056 49.36         4.9 0.48            115            277 256 
 SOCV BZ EP       1056 13.47                             112    0.14 7  296  57 
 SOCV BN ES       1056 45.36                             112   -1.07 7  296  57 
 GUY2CHZ EP       1056 15.04                             112   -0.07 7  307 235 
 GUY2CHN ES       1056 49.79                             112    0.20 7  307 235 
 GUY2CHZ I        1056 57.73         7.0 0.70                           307 235 
 MON  HZ EP   9   1056 18.14                             108   -2.02 0  356 308 
 MON  HN ES       1056 55.50                                   -1.07 6  356 308 
 MON  HZ I        1056 58.30         2.0 0.34            109            356 308 
                                                                                
