 2010  1 9 1813 13.8 L   6.832 -73.257143.5  RSN  7 0.2 1.4LRSN                1
 GAP=140        0.44       2.4     6.8  4.2  0.3606E+00  0.8382E+01 -0.1856E+01E
 Epicentro: ZAPATOCA - SANTANDER                                               3
 ACTION:UP  10-08-24 09:43 OP:vdl  STATUS:               ID:20100109181313 L   I
 2010-01-09-1812-29S.COL___097                                                 6
 STAT SP IPHASW D HRMM SECON CODA AMPLIT PERI AZIMU VELO SNR AR TRES W  DIS CAZ7
 BAR2 SZ EP   3   1813 33.21                             169     0.0 3   28 163 
 BAR2 SZ ES   1   1813 48.43                             169     0.0 8   28 163 
 GIR2 SZ EP   3   1813 33.32                             168     0.2 3   28  14 
 GIR2 SZ ES   1   1813 48.35                             168     0.2 8   28  14 
 RUS  BZ EP   1   1813 38.04                             142     0.4 8  106 169 
 RUS  BN ES   2   1813 55.80                             142    -0.5 5  106 169 
 RUS  BZ I        1813 57.77         2.4 0.44                           106 169 
 GUE  SZ EP   1   1813 37.97                             139    -0.3 8  116  18 
 GUE  SZ ES   1   1813 57.34                             139     0.0 8  116  18 
 GRA  SZ ES   2   1813 58.42                             136    -0.1 5  127  23 
 OCA  SZ EP       1813 41.56                             130     0.110  156 357 
 OCA  SZ ES   1   1814  3.12                             130     0.0 7  156 357 
 MON  HN ES   2   1814 38.20                             109    -0.2 4  341 309 
 MON  HZ I        1814 45.68         2.0 0.11                           341 309 
                                                                                
