 2017  3 9 1006  2.1 L   6.766 -73.159139.0  RSN  8 0.3 1.5LRSN                1
 GAP=233        0.66       3.4     3.4  4.3  0.9834E+00  0.2159E+01  0.5264E+01E
 Epicentro: LOS SANTOS - SANTANDER                                             3
 ACTION:UPD 17-05-25 18:38 OP:jn   STATUS:               ID:20170309100602 L   I
 OLDACT:DUP 17-03-09 21:41 OP:cara STATUS:               ID:20170309095635d    3
 OLDACT:UP  17-03-09 21:38 OP:cara STATUS:               ID:20170309095634d    3
 OLDACT:DUP 17-03-09 21:28 OP:cara STATUS:               ID:20170309095634d    3
 2017-03-09-0958-00M.COL___394                                                 6
 STAT SP IPHASW D HRMM SECON CODA AMPLIT PERI AZIMU VELO AIN AR TRES W  DIS CAZ7
 BAR2 EZ IP       10 6 20.86                             172   -0.0110 19.4 188 
 BAR2 EZ ES       10 6 35.49                             172   -0.0110 19.4 188 
 BAR2 EZ I        10 6 37.33        11.3 0.18            169           19.4 188 
 BRR  HZ EP       10 6 22.53                             151   -0.0610 71.8 302 
 BRR  HE ES       10 6 38.73                             151    0.1910 71.8 302 
 BRR  HZ I        10 6 42.22         4.4 0.26            149           71.8 302 
 RUS  HZ EP       10 6 25.23                             143    0.2710 97.0 175 
 RUS  HN ES       10 6 42.39                             143   -0.3810 97.0 175 
 RUS  HZ I        10 6 45.13         2.8 0.48            144           97.0 175 
 PTB  HZ EP   2   10 6 27.67                             131   -0.68 5  146 260 
 PTB  HN ES       10 6 48.45                             131   -0.36 9  146 260 
 PTB  HZ I        10 6 50.44         3.0 0.40            130            146 260 
 SPBC HZ EP       10 6 29.97                             128    0.22 9  159 219 
 SPBC HN ES       10 6 51.76                             128    0.47 9  159 219 
 SPBC HZ I        10 6 58.11         5.7 0.22            128            159 219 
 ZAR  HZ EP   9   10 6 30.62                             121   -3.53 0  204 293 
 ZAR  HN ES       10 6 55.89                                    0.29 9  204 293 
 ZAR  HZ I        10 7  4.93         3.5 0.36            121            204 293 
 GUY2CHZ EP   2   10 6 45.54                             111    0.49 4  298 235 
 GUY2CHN ES       10 7 18.26                             111   -0.27 7  298 235 
 GUY2CHZ  IAML    10 7 26.92         2.0 0.30                           298 235 
 PRA  HZ EP       10 6 54.83                             105   -0.13 6  388 210 
 PRA  HN ES       10 7 36.17                             105    0.01 6  388 210 
 PRA  HZ I        10 7 43.06         1.7 0.32            106            388 210 
                                                                                
