 2015 11 9 1524 19.7 L   6.830 -73.099147.9  RSN 14 0.4 2.3LRSN                1
 GAP=188        0.89       2.8     4.2  4.9  0.6198E+00  0.7418E+01  0.2196E+01E
 Epicentro: LOS SANTOS - SANTANDER                                             3
 ACTION:UPD 15-12-28 16:09 OP:cam  STATUS:               ID:20151109152419 L   I
 OLDACT:REG 15-11-09 21:12 OP:cara STATUS:               ID:20151109151750     3
 2015-11-09-1517-50M.COL___316                                                 6
 STAT SP IPHASW D HRMM SECON CODA AMPLIT PERI AZIMU VELO AIN AR TRES W  DIS CAZ7
 BAR2 EZ IP     C 1524 39.64                             169    0.0010 27.9 199 
 BAR2 EZ ES       1524 55.06                             169   -0.1610 27.9 199 
 BAR2 EZ I        1524 57.33        36.9 0.24            164           27.9 199 
 BRR  HZ IP     C 1524 41.57                             152    0.3610 74.3 294 
 BRR  HN ES       1524 58.83                             152    0.8110 74.3 294 
 BRR  HZ I        1525  2.04        32.3 0.28            149           74.3 294 
 RUS  HZ EP     D 1524 44.09                             143    0.2510  104 179 
 RUS  HE ES       1525  2.47                             143   -0.2310  104 179 
 OCA  HE ES       1525  9.26                             131   -0.65 9  158 351 
 SPBC HZ EP     D 1524 48.81                             128   -0.06 9  169 220 
 SPBC HE ES       1525 11.27                             128   -0.38 9  169 220 
 SPBC HZ I        1525 15.24        29.5 0.14            128            169 220 
 ZAR  HZ EP       1524 52.88                             122    0.28 8  208 291 
 ZAR  HN ES       1525 18.14                             122   -0.16 8  208 291 
 ZAR  HZ I        1525 23.75        23.8 0.34            122            208 291 
 NOR  HZ EP       1524 55.73                             118   -0.43 8  241 235 
 NOR  HN ES       1525 24.35                             118   -0.28 8  241 235 
 NOR  HZ I        1525 32.26        13.2 0.22            118            241 235 
 SML  HZ EP   4   1524 56.01                             118   -0.30 0  243 334 
 SML  HE ES   4   1525 24.81                             118   -0.09 0  243 334 
 SML  HZ I        1525 27.87        35.8 0.10            120            243 334 
 CHI  HZ EP       1524 57.76                             117   -0.20 8  253 196 
 CHI  HE ES       1525 28.20                             117    0.35 8  253 196 
 CHI  HZ I        1525 36.83         7.5 0.26            118            253 196 
 HEL  HZ EP       1525  0.88                             115    0.27 7  278 255 
 HEL  HN ES       1525 32.71                             115    0.15 7  278 255 
 HEL  HZ I        1525 38.36        10.1 0.28            115            278 255 
 URE  HZ EP       1525  0.68                             114   -0.54 7  287 291 
 GUY2CHZ EP       1525  4.27                             112    0.22 7  307 235 
 GUY2CHN ES       1525 38.30                             112   -0.37 7  307 235 
 GUY2CHZ I        1525 48.42        11.2 0.52                           307 235 
 ELA  HZ EP       1525  8.02                             110    0.74 7  335 230 
 ELA  HE ES       1525 44.32                             110   -0.12 7  335 230 
 ELA  HZ I        1525 52.27         8.0 0.52            111            335 230 
 MON  HN ES   4   1525 45.95                             109   -1.48 0  356 307 
 SJC  HZ EP   4   1525 14.25                             106   -1.04 0  409 326 
 SJC  HN ES   4   1525 56.18                             106   -2.50 0  409 326 
 SJC  HZ I        1525 59.37         4.0 0.42            107            409 326 
                                                                                
