 2015  2 9 1627  3.1 L   6.779 -73.120142.0  RSN  8 0.6 1.9LRSN                1
 GAP=141        1.49       6.7     6.8  9.4 -0.1224E+02  0.1301E+02  0.1152E+02E
 Epicentro: LOS SANTOS - SANTANDER                                             3
 ACTION:UPD 15-04-30 21:24 OP:nd   STATUS:               ID:20150209162703 L   I
 OLDACT:DUP 15-02-10 01:04 OP:stll STATUS:               ID:20150209161747d    3
 2015-02-09-1617-46M.COL___287                                                 6
 STAT SP IPHASW D HRMM SECON CODA AMPLIT PERI AZIMU VELO AIN AR TRES W  DIS CAZ7
 BAR2 EZ EP       1627 22.25                             171    0.0410 21.8 199 
 BAR2 EZ I        1627 22.34        19.7 0.20            171           21.8 199 
 BAR2 EZ ES       1627 37.17                             171    0.0310 21.8 199 
 BRR  HZ EP       1627 24.28                             151    0.2610 74.9 299 
 BRR  HN ES       1627 40.99                             151    0.6210 74.9 299 
 PAM  SZ EP       1627 25.06                             150    0.1810 77.4  37 
 PAM  SZ I        1627 25.26         6.0 0.12            150           77.4  37 
 PAM  SN ES       1627 41.82                             150   -0.0810 77.4  37 
 RUS  HZ EP       1627 26.11                             144   -0.1510 98.1 178 
 RUS  HN ES       1627 44.43                             144    0.0710 98.1 178 
 RUS  HZ I        1627 45.81         9.2 0.24            144           98.1 178 
 PTB  HZ EP       1627 28.68                             131   -1.27 9  150 260 
 PTB  HN ES       1627 49.94                             131   -0.98 9  150 260 
 PTB  HZ I        1627 52.34        17.6 0.18            130            150 260 
 SPBC HZ EP       1627 31.26                             128   -0.02 9  163 220 
 SPBC HZ I        1627 31.59        22.2 0.10            128            163 220 
 SPBC HN ES       1627 53.04                             128   -0.25 9  163 220 
 GUY2CHZ EP       1627 47.27                             112    0.65 7  302 235 
 GUY2CHE ES       1628 22.31                             112    1.72 7  302 235 
 GUY2CHZ I        1628 30.89         6.3 0.54                           302 235 
 MON  HZ EP   9   1627 48.81                             108   -3.54 0  357 308 
 MON  HZ I        1627 56.82         2.3 0.44            107            357 308 
 MON  HN ES       1628 27.70                                    0.44 6  357 308 
                                                                                
