 2014 11 9 1642 27.5 L   6.751 -73.099142.0  RSN  7 0.3 1.6LRSN                1
 GAP=145        0.85       4.0     4.9  5.4 -0.7769E+01  0.6548E+01  0.3048E+01E
 Epicentro: LOS SANTOS - SANTANDER                                             3
 ACTION:UPD 14-12-19 15:40 OP:nd   STATUS:               ID:20141109164227 L   I
 OLDACT:REG 14-11-09 20:43 OP:cam\ STATUS:               ID:20141109163816     3
 2014-11-09-1638-16M.COL___298                                                 6
 STAT SP IPHASW D HRMM SECON CODA AMPLIT PERI AZIMU VELO AIN AR TRES W  DIS CAZ7
 BAR2 SZ EP       1642 46.45                             172   -0.1110 19.9 208 
 BAR2 SZ ES       1643  1.08                             172   -0.3910 19.9 208 
 BAR2 SZ I        1643  4.99        16.8 0.60            169           19.9 208 
 BRR  HZ EP       1642 48.52                             149   -0.1010 78.4 300 
 BRR  HN ES       1643  5.42                             149    0.2810 78.4 300 
 BRR  HZ I        1643  9.39         8.6 0.26            150           78.4 300 
 PAM  SZ EP     C 1642 49.46                             150    0.1210 78.6  34 
 PAM  SN ES       1643  6.46                             150    0.0510 78.6  34 
 PAM  SZ I        1643  8.78         4.5 0.54            155           78.6  34 
 RUS  HZ EP       1642 50.38                             145   -0.0510 95.0 179 
 RUS  HE ES       1643  8.74                             145    0.3910 95.0 179 
 RUS  HZ I        1643 10.39         3.1 0.28            147           95.0 179 
 SPBC HZ EP       1642 55.03                             128   -0.56 9  162 222 
 SPBC HN ES       1643 17.72                             128    0.18 9  162 222 
 SPBC HZ I        1643 24.39         5.9 0.26            131            162 222 
 NOR  HZ EP       1643  2.76                             118   -0.34 8  236 236 
 NOR  HN ES       1643 30.72                             118   -0.18 8  236 236 
 NOR  HZ I        1643 34.11         3.8 0.12            120            236 236 
 GUY2CHZ EP       1643 11.96                             112    0.93 7  302 236 
 GUY2CHZ I        1643 53.14         2.0 0.34                           302 236 
                                                                                
