 2010  3 9 1631 50.0 L   6.865 -72.983137.6  RSN  5 0.3 1.9LRSN                1
 GAP=257        0.58       5.4     7.9  5.7  0.2385E+02 -0.3732E-01  0.3385E+01E
 Epicentro: CEPITA - SANTANDER                                                 3
 ACTION:UP  10-08-24 09:53 OP:vdl  STATUS:               ID:20100309163149 L   I
 2010-03-09-1630-39S.COL___101                                                 6
 STAT SP IPHASW D HRMM SECON CODA AMPLIT PERI AZIMU VELO SNR AR TRES W  DIS CAZ7
 BAR2 SZ EP   1   1632  8.64                             164    -0.4 7   37 216 
 BAR2 SZ ES   1   1632 23.84                             164     0.0 7   37 216 
 BRR  HZ IP       1632 11.02                             146    -0.110   85 288 
 BRR  HZ I        1632 11.28        24.1 0.17                            85 288 
 BRR  HN ES       1632 27.69                             146     0.110   85 288 
 RUS  BZ EP   1   1632 14.02                             140     0.5 7  108 186 
 RUS  BN ES   1   1632 31.75                             140    -0.1 7  108 186 
 RUS  BZ I        1632 33.71         6.8 0.96                           108 186 
 RREF BZ EP   1   1632 37.66                             108    -0.2 5  340 230 
 RREF BN ES   2   1633 15.58                             108     0.3 3  340 230 
 RREF BZ I        1633 19.57         3.5 0.20                           340 230 
 PRA  HN ES   3   1633 27.23                             104    -0.7 1  407 211 
                                                                                
