 2015  2 9 1504 52.8 L   6.775 -73.120139.2  RSN  6 0.3 2.1LRSN                1
 GAP=141        0.81       3.7     4.9  5.6 -0.5029E+01  0.5595E+01  0.1922E+01E
 Epicentro: LOS SANTOS - SANTANDER                                             3
 ACTION:UPD 15-04-30 21:24 OP:nd   STATUS:               ID:20150209150452 L   I
 OLDACT:ARG 15-02-09 20:42 OP:stll STATUS:               ID:20150209145744     3
 2015-02-09-1457-44M.COL___284                                                 6
 STAT SP IPHASW D HRMM SECON CODA AMPLIT PERI AZIMU VELO AIN AR TRES W  DIS CAZ7
 BAR2 EZ EP       15 5 11.71                             171    0.1310 21.3 199 
 BAR2 EZ ES       15 5 26.18                             171   -0.0610 21.3 199 
 BAR2 EZ I        15 5 27.64        44.8 0.30            162           21.3 199 
 BRR  HZ EP       15 5 13.48                             150    0.0310 75.0 299 
 BRR  HZ I        15 5 13.87        41.7 0.22            139           75.0 299 
 BRR  HE ES       15 5 30.00                             150    0.4210 75.0 299 
 PAM  SZ EP       15 5 14.62                             149    0.2910 77.8  37 
 PAM  SN ES       15 5 30.68                             149   -0.4610 77.8  37 
 PAM  SZ I        15 5 33.35        25.0 0.56            150           77.8  37 
 RUS  HZ EP       15 5 15.98                             143    0.3110 97.6 178 
 RUS  HN ES       15 5 33.47                             143   -0.0610 97.6 178 
 RUS  HZ I        15 5 34.99        11.5 0.22            140           97.6 178 
 PTB  HZ EP       15 5 18.79                             130   -0.64 9  150 260 
 PTB  HZ I        15 5 41.16        17.9 0.52            122            150 260 
 SPBC HZ EP       15 5 20.79                             127    0.04 9  163 220 
 SPBC HN ES       15 5 42.47                             127   -0.09 9  163 220 
 SPBC HZ I        15 5 51.11        19.2 0.36            121            163 220 
                                                                                
