 2017  9 9 1742 27.4 L   6.790 -73.153145.8  RSN 20 0.5 2.3LRSN                1
 GAP=100        0.98       2.9     2.5  4.6  0.4578E+00  0.3958E+01  0.3491E+01E
 Epicentro: LOS SANTOS - SANTANDER                                             3
 ACTION:UPD 17-10-05 19:10 OP:rebc STATUS:               ID:20170909173745 L   I
 OLDACT:UPD 17-09-12 07:57 OP:dani STATUS:               ID:20170909173745 L   3
 2017-09-09-1738-00M.COL___416                                                 6
 STAT SP IPHASW D HRMM SECON CODA AMPLIT PERI AZIMU VELO AIN AR TRES W  DIS CAZ7
 BAR2 EZ IP     D 1742 46.87                             171   -0.1210 22.1 188 
 BAR2 EZ ES       1743  2.04                             171   -0.2410 22.1 188 
 BAR2 EZ I        1743  3.48       119.2 0.20            166           22.1 188 
 BRR  HZ IP     C 1742 48.70                             152    0.1810 71.0 300 
 BRR  HE ES       1743  5.68                             152    0.6710 71.0 300 
 BRR  HZ I        1743  9.29        32.5 0.09            151           71.0 300 
 PAM  EZ IP     C 1742 49.68                             150   -0.0010 78.8  40 
 PAM  EN ES       1743  6.94                             150   -0.1410 78.8  40 
 PAM  EZ I        1743  9.39        19.3 0.29            152           78.8  40 
 RUS  HZ EP       1742 50.79                             144   -0.2710 99.5 176 
 RUS  HN ES       1743  9.13                             144   -0.4010 99.5 176 
 RUS  HZ I        1743 10.65        24.6 0.46            139           99.5 176 
 TAM  HZ EP       1742 55.13                             130    0.02 9  156 105 
 TAM  HN ES       1743 16.64                             130   -0.10 9  156 105 
 SPBC HZ EP       1742 55.82                             129    0.07 9  162 219 
 SPBC HN ES       1743 17.87                             129   -0.01 9  162 219 
 SPBC HZ I        1743 22.63        42.3 0.20            125            162 219 
 YPLC HZ IP     D 1742 57.08                             127   -0.05 9  176 151 
 YPLC HN ES       1743 20.93                             127    0.61 9  176 151 
 YPLC HZ I        1743 30.01        10.5 0.26            123            176 151 
 ZAR  HZ EP       1742 59.89                             122    0.10 9  204 293 
 ZAR  HN ES       1743 25.10                             122    0.03 9  204 293 
 ZAR  HZ I        1743 30.46        18.9 0.15            120            204 293 
 NOR  HZ EP       1743  2.85                             119   -0.12 8  233 235 
 NOR  HN ES       1743 30.53                             119   -0.20 8  233 235 
 NOR  HZ I        1743 35.29        10.8 0.10            115            233 235 
 CHI  HZ EP       1743  5.07                             117    0.13 8  247 195 
 CHI  HN ES       1743 34.28                             117    0.04 8  247 195 
 CHI  HZ I        1743 40.08        11.0 0.48            114            247 195 
 ROSC BZ EP   4   1743  7.12                             117    1.76 0  251 211 
 ROSC BN ES   4   1743 39.86                             117    4.89 0  251 211 
 ROSC BZ I        1743 41.19        25.0 0.45            114            251 211 
 HEL  HZ EP       1743  8.08                             115    0.60 8  271 256 
 HEL  HN ES       1743 38.05                             115   -0.70 8  271 256 
 HEL  HZ I        1743 45.10         9.8 0.56            112            271 256 
 URE  HN ES   4   1743 37.28                             114   -3.14 0  283 292 
 GUY2CHZ EP       1743 11.95                             112    1.11 7  300 235 
 GUY2CHN ES       1743 45.10                             112    0.36 7  300 235 
 GUY2CHZ I        1743 56.22        14.3 0.53                           300 235 
 VIL  EZ EP       1743 10.21                             112   -0.45 7  302 191 
 VIL  EZ I        1743 54.11        17.7 0.40            109            302 191 
 PTGC HZ EP   4   1743  9.91                             112   -1.25 0  308 158 
 PTGC HN ES   4   1743 44.40                             112   -0.90 0  308 158 
 ELA  HZ EP   4   1743 16.76                             110    2.68 0  328 230 
 ELA  HN ES   4   1743 54.64                             110    4.14 0  328 230 
 ELA  HZ I        1743 58.36        10.1 0.40            108            328 230 
 CBOC HZ EP       1743 14.91                             110    0.74 7  332 252 
 CBOC HN ES       1743 51.35                             110    0.69 7  332 252 
 CBOC HZ I        1744  5.06         2.9 0.39            108            332 252 
 DBB  EZ EP       1743 13.43                             109   -1.34 7  339 274 
 DBB  EN ES       1743 50.89                             109   -0.85 7  339 274 
 DBB  EZ I        1743 51.85         7.4 0.18            107            339 274 
 PRA  HZ EP       1743 20.69                             107   -0.06 6  391 210 
 PRA  HN ES       1744  2.51                             107    0.14 6  391 210 
 PRA  HZ I        1744  8.58        13.5 0.24            104            391 210 
 ORTC HZ EP       1743 21.01                             106   -0.13 6  394 216 
 ORTC HN ES       1744  2.46                             106   -0.61 6  394 216 
 ORTC HZ I        1744 11.40         7.6 0.46            104            394 216 
 PAL  HE ES   4   1744  7.39                             106    2.09 0  404 239 
 SJC  HZ EP   4   1743 18.09                             106   -4.91 0  410 327 
 SJC  HN ES   4   1744  0.88                             106   -5.50 0  410 327 
 SJC  HZ I        1744 11.62         5.8 0.10            104            410 327 
                                                                                
