 2015  2 9 1654 10.3 L   6.769 -73.124139.7  RSN  4 0.6 1.6LRSN                1
 GAP=141        1.62       9.6     9.6 13.5 -0.2901E+02  0.3637E+02 -0.1189E+02E
 Epicentro: LOS SANTOS - SANTANDER                                             3
 ACTION:UPD 15-04-30 21:24 OP:nd   STATUS:               ID:20150209165410 L   I
 OLDACT:ARG 15-02-09 20:42 OP:stll STATUS:               ID:20150209164744     3
 2015-02-09-1647-44M.COL___287                                                 6
 STAT SP IPHASW D HRMM SECON CODA AMPLIT PERI AZIMU VELO AIN AR TRES W  DIS CAZ7
 BAR2 EZ EP       1654 29.49                             171    0.3410 20.5 198 
 BAR2 EZ I        1654 29.94         8.5 0.20            168           20.5 198 
 BAR2 EZ ES       1654 44.99                             171    1.1410 20.5 198 
 PAM  SZ EP       1654 32.30                             149    0.3410 78.6  37 
 PAM  SZ I        1654 32.56         8.6 0.24            153           78.6  37 
 PAM  SE ES       1654 48.03                             149   -0.8210 78.6  37 
 RUS  HZ EP       1654 33.48                             144    0.2810 97.0 177 
 RUS  HE ES       1654 50.22                             144   -0.8410 97.0 177 
 RUS  HZ I        1654 55.42         5.6 0.40            143           97.0 177 
 PTB  HZ EP       1654 36.71                             130   -0.23 9  149 260 
 PTB  HN ES       1654 57.44                             130   -0.28 9  149 260 
 PTB  HZ I        1655  1.97         6.1 0.32            130            149 260 
                                                                                
