 2013  2 9 1128 44.7 L   6.834 -73.372123.8  RSN  5 0.3 1.5LRSN                1
 GAP=104        0.69       5.3     4.6  6.9  0.5212E+01 -0.1781E+01 -0.1714E+01E
 Epicentro: SAN VICENTE DE CHUCURI - SANTANDER                                 3
 ACTION:UPD 13-03-12 09:31 OP:ep   STATUS:               ID:20130209112844 L   I
 2013-02-09-1120-00M.COL___240                                                 6
 STAT SP IPHASW D HRMM SECON CODA AMPLIT PERI AZIMU VELO AIN AR TRES W  DIS CAZ7
 BAR2 SZ EP       1129  2.05                             164    0.0910 34.0 142 
 BAR2 SZ ES   1   1129 14.96                             164   -0.50 7 34.0 142 
 BAR2 SZ I        1129 16.45        29.5 0.23            165           34.0 142 
 BRR  HZ EP   1   1129  2.58                             157    0.39 7 48.2 309 
 BRR  HN ES   1   1129 16.26                             157    0.40 7 48.2 309 
 BRR  HN I        1129 17.06        12.1 0.27            155           48.2 309 
 PAM  SZ EP   1   1129  5.32                             141   -0.39 7 93.0  53 
 PAM  SZ I        1129  6.31         2.8 0.23            141           93.0  53 
 RUS  HZ EP   1   1129  7.24                             136    0.24 7  109 163 
 RUS  HN ES   1   1129 24.66                             136    0.23 7  109 163 
 PTB  HZ EP   1   1129  7.41                             132   -0.29 7  124 255 
 PTB  HZ I        1129 10.67         2.0 0.21            130            124 255 
 PTB  HN ES   1   1129 25.40                             132   -0.27 7  124 255 
                                                                                
