 2010 11 9 1638 13.0 L   6.815 -73.030144.9  RSN  5 0.4 1.6LRSN                1
 GAP=171        0.86       7.5    13.8 16.5  0.2614E+01 -0.2736E+02 -0.4492E+01E
 Epicentro: CEPITA - SANTANDER                                                 3
 ACTION:UP  10-12-17 16:51 OP:REBC STATUS:               ID:20101109163813 L   I
 2010-11-09-1634-57S.COL___128                                                 6
 STAT SP IPHASW D HRMM SECON CODA AMPLIT PERI AZIMU VELO SNR AR TRES W  DIS CAZ7
 BTL  SZ EP       1638 32.10                             168    -0.510   29 294 
 BAR2 SZ EP       1638 32.87                             168     0.210   30 214 
 BAR2 SZ I        1638 33.19        12.9 0.10                            30 214 
 BRR  HZ EP       1638 34.71                             149     0.010   82 293 
 BRR  HE ES   2   1638 51.99                             149     0.4 5   82 293 
 BRR  HZ I        1638 54.38        13.3 0.15                            82 293 
 RUS  HZ EP   2   1638 36.88                             143     0.1 5  102 183 
 RUS  HE ES   2   1638 55.51                             143     0.2 5  102 183 
 RUS  HZ I        1638 58.94         2.5 0.38                           102 183 
 GRA  SZ EP   2   1638 38.59                             138     0.8 5  121  12 
 GRA  SZ ES   2   1638 56.93                             138    -0.1 5  121  12 
 GRA  SZ I        1638 59.25         3.7 0.36                           121  12 
                                                                                
