 2017  6 9 1032 16.9 L   6.778 -73.086148.0  RSN  6 0.3 1.5LRSN                1
 GAP=242        0.66       3.4     4.6  5.2  0.5301E+01  0.3608E+01 -0.9450E-01E
 Epicentro: LOS SANTOS - SANTANDER                                             3
 ACTION:UPD 17-09-14 16:50 OP:jn   STATUS:               ID:20170609103216 L   I
 OLDACT:REG 17-06-09 20:47 OP:osc  STATUS:               ID:20170609102728     3
 2017-06-09-1028-00M.COL___350                                                 6
 STAT SP IPHASW D HRMM SECON CODA AMPLIT PERI AZIMU VELO AIN AR TRES W  DIS CAZ7
 BRR  HZ EP       1032 39.04                             151    0.3910 78.1 298 
 BRR  HE ES       1032 55.64                             151   -0.0010 78.1 298 
 RUS  HZ EP       1032 40.86                             145    0.2210 97.9 180 
 RUS  HE ES       1032 58.92                             145   -0.2710 97.9 180 
 RUS  HZ I        1033  1.89         1.6 0.28            144           97.9 180 
 PTB  HZ EP       1032 43.97                             131   -0.59 9  154 260 
 PTB  HN ES   4   1033  4.63                             131   -1.52 0  154 260 
 PTB  HZ I        1033  9.32         3.1 0.14            130            154 260 
 SPBC HZ EP       1032 45.76                             129    0.01 9  166 221 
 SPBC HE ES       1033  8.48                             129    0.19 9  166 221 
 SPBC HZ I        1033 12.83         5.4 0.22            128            166 221 
 ZAR  HZ EP       1032 50.11                             122   -0.06 8  211 292 
 ZAR  HE ES       1033 16.11                             122   -0.04 8  211 292 
 ZAR  HZ I        1033 21.20         3.1 0.14            122            211 292 
 NOR  HZ EP       1032 53.11                             118   -0.04 8  239 236 
 NOR  HN ES       1033 21.60                             118    0.15 8  239 236 
 NOR  HZ I        1033 27.26         2.7 0.16            118            239 236 
                                                                                
