 2010  9 9 1455 37.2 L   6.669 -73.154150.9  RSN  6 0.6 1.8LRSN                1
 GAP=159        1.04       9.0    18.3 15.2 -0.1727E+02 -0.9347E+02 -0.1244E+02E
 Epicentro: VILLANUEVA - SANTANDER                                             3
 ACTION:UP  11-02-18 11:01 OP:tino STATUS:               ID:20100909145537 L   I
 2010-09-09-1452-28S.COL___120                                                 6
 STAT SP IPHASW D HRMM SECON CODA AMPLIT PERI AZIMU VELO SNR AR TRES W  DIS CAZ7
 BAR2 SZ EP   1   1455 57.33                             176     0.1 7    9 201 
 BAR2 SZ ES   2   1456 12.71                             176    -0.2 5    9 201 
 BAR2 SZ I        1456 13.57        15.1 0.36                             9 201 
 BTL  SZ EP   1   1455 57.81                             168     0.2 7   30 336 
 BRR  HZ EP   1   1455 59.34                             151     0.1 7   78 308 
 BRR  HN ES   2   1456 16.47                             151    -0.1 5   78 308 
 BRR  HZ I        1456 23.58        19.4 0.12                            78 308 
 RUS  HZ EP   1   1456  0.05                             149    -0.4 7   86 175 
 RUS  HE ES   3   1456 20.07                             149     1.4 2   86 175 
 RUS  HZ I        1456 22.38         3.8 0.15                            86 175 
 GUE  SZ EP   1   1456  2.79                             137    -0.7 7  131  11 
 GRA  SZ EP   1   1456  5.02                             135     1.0 7  140  16 
 GRA  SZ ES   2   1456 24.50                             135    -0.5 5  140  16 
 GRA  SZ I        1456 26.03         9.0 0.31                           140  16 
                                                                                
