 2011  1 9 1557 47.4 L   6.780 -73.155145.9  RSN  7 0.3 1.9LRSN                1
 GAP=182        0.53       4.2     6.3  8.0 -0.7671E+01  0.2433E+02 -0.5864E+01E
 Epicentro: LOS SANTOS - SANTANDER                                             3
 ACTION:UP  11-02-08 08:39 OP:pat  STATUS:               ID:20110109155747 L   I
 2011-01-09-1555-45S.COL___136                                                 6
 STAT SP IPHASW D HRMM SECON CODA AMPLIT PERI AZIMU VELO SNR AR TRES W  DIS CAZ7
 BTL  SZ EP       1558  7.25                             172     0.310   20 321 
 BAR2 SZ EP       1558  6.99                             171     0.010   21 189 
 BAR2 SZ ES   2   1558 21.82                             171    -0.5 5   21 189 
 BAR2 SZ I        1558 23.87        19.3 0.40                            21 189 
 RUS  HZ EP   2   1558 11.05                             144     0.0 5   98 175 
 RUS  HN ES   2   1558 29.62                             144     0.2 5   98 175 
 RUS  HZ I        1558 30.92         9.2 0.27                            98 175 
 OCA  SZ EP   2   1558 15.51                             129    -0.4 5  162 354 
 OCA  SZ ES   2   1558 38.05                             129    -0.1 5  162 354 
 OCA  SZ I        1558 43.64        11.8 0.35                           162 354 
 NOR  SZ EP   2   1558 22.53                             119    -0.4 4  233 235 
 NOR  SN ES   2   1558 50.46                             119    -0.2 4  233 235 
 HEL  HZ EP   2   1558 28.06                             115     0.6 4  271 256 
 HEL  HN ES   2   1558 58.79                             115     0.1 4  271 256 
 HEL  HZ I        1559  5.51         4.0 0.17                           271 256 
 PRA  HZ EP   2   1558 39.98                             106    -0.7 3  390 210 
                                                                                
