 2010  7 9 1025 57.5 L   6.785 -73.090147.7  RSN  5 0.2 1.6LRSN                1
 GAP=165        0.47       3.4     7.7  5.8 -0.3573E+01 -0.7349E+01  0.2658E+01E
 Epicentro: LOS SANTOS - SANTANDER                                             3
 ACTION:UPD 10-12-01 15:16 OP:pat  STATUS:               ID:20100709102557 L   I
 2010-07-09-1021-26S.COL___120                                                 6
 STAT SP IPHASW D HRMM SECON CODA AMPLIT PERI AZIMU VELO AIN AR TRES W  DIS CAZ7
 BAR2 SZ IP     D 1026 17.47                             170     0.110   24 206 
 BAR2 SZ ES   2   1026 32.68                             170    -0.2 5   24 206 
 BRR  HZ EP   1   1026 18.95                             151    -0.3 7   77 297 
 BRR  HE ES   2   1026 36.53                             151     0.3 5   77 297 
 RUS  HZ EP   1   1026 21.33                             145     0.0 7   99 180 
 RUS  HE ES   2   1026 40.12                             145     0.2 5   99 180 
 RUS  HZ I        1026 41.31         4.4 0.44                            99 180 
 GRA  SZ EP   1   1026 23.21                             137     0.3 7  126  15 
 GRA  SZ ES   2   1026 42.38                             137    -0.4 5  126  15 
 CHI  HZ EP   1   1026 35.28                             117    -0.1 6  249 197 
 CHI  HZ I        1027 10.66         3.1 0.31                           249 197 
                                                                                
