 2010  7 9 1200  2.4 L   7.283 -73.952 12.8  RSN 10 0.4 2.0LRSN                1
 GAP=158        0.78       2.9     4.8  8.0  0.1179E+00  0.2595E+02  0.7571E+01E
 Epicentro: PUERTO WILCHES - SANTANDER                                         3
 ACTION:UPD 10-12-01 15:16 OP:pat  STATUS:               ID:20100709120002 L   I
 2010-07-09-1157-17S.COL___120                                                 6
 STAT SP IPHASW D HRMM SECON CODA AMPLIT PERI AZIMU VELO AIN AR TRES W  DIS CAZ7
 BRR  HZ EP   1   12 0  7.87                             106    -0.3 8   33 126 
 BRR  HE ES   2   12 0 12.07                             106    -0.6 5   33 126 
 BRR  HZ I        12 0 13.48       125.9 0.21                            33 126 
 GIR2 SZ EP   1   12 0 17.21                              96     0.9 8   87 105 
 BAR2 SZ EP   1   12 0 20.05                              94    -0.5 8  114 132 
 BAR2 SZ ES   2   12 0 35.30                              94     0.5 5  114 132 
 OCA  SZ IP     D 12 0 22.40                              94     0.010  127  33 
 OCA  SZ ES   2   12 0 37.91                              94     0.0 5  127  33 
 OCA  SZ I        12 0 39.92        20.6 0.32                           127  33 
 GUE  SZ EP   1   12 0 22.51                              94    -0.3 7  129  62 
 BRI  SZ IP     D 12 0 23.98                              94     0.210  136  69 
 BRI  SZ ES   2   12 0 40.20                              94    -0.4 5  136  69 
 GRA  SZ EP   1   12 0 24.84                              93     0.0 7  143  62 
 GRA  SZ ES   2   12 0 42.03                              93    -0.4 5  143  62 
 RUS  HZ IP     D 12 0 30.28                              56     0.2 9  181 148 
 RUS  HZ I        12 0 30.70        33.8 0.24                           181 148 
 RUS  HE ES   2   12 0 51.53                              56    -0.2 5  181 148 
 HEL  HZ EP   1   12 0 33.61                              56    -0.2 7  212 235 
 HEL  HZ I        12 1  1.38         5.9 0.21                           212 235 
 GUY  HZ EP   1   12 0 42.46                              56     0.5 6  276 215 
 GUY  HN ES   2   12 1 12.16                              56    -0.7 4  276 215 
                                                                                
