 2017  4 9 1353 30.8 L   6.777 -73.045148.5  RSN  5 0.3 1.1LRSN                1
 GAP=151        0.85       6.3     9.8  8.5  0.3041E+02 -0.3874E+02 -0.2035E+02E
 Epicentro: LOS SANTOS - SANTANDER                                             3
 ACTION:UPD 17-05-30 21:10 OP:jn   STATUS:               ID:20170409135330 L   I
 OLDACT:UP  17-05-08 18:58 OP:nlst STATUS:               ID:20170409135330 L   3
 OLDACT:REG 17-04-09 20:43 OP:edw  STATUS:               ID:20170409134743     3
 2017-04-09-1348-00M.COL___377                                                 6
 STAT SP IPHASW D HRMM SECON CODA AMPLIT PERI AZIMU VELO AIN AR TRES W  DIS CAZ7
 BAR2 EZ EP       1353 50.16                             170   -0.6810 25.5 217 
 BAR2 EZ ES       1354  6.71                             170    0.2710 25.5 217 
 BAR2 EZ I        1354  9.02         5.0 0.44            169           25.5 217 
 PAM  EZ EP       1353 53.12                             153    0.0310 72.9  31 
 BRR  HZ EP       1353 53.26                             149    0.3310 82.3 296 
 BRR  HN ES       1354 10.04                             149   -0.1310 82.3 296 
 RUS  HZ EP       1353 55.01                             145    0.3410 97.9 182 
 RUS  HN ES       1354 13.12                             145   -0.1410 97.9 182 
 RUS  HZ I        1354 17.11         1.2 0.36            145           97.9 182 
 ZAR  HE ES   3   1354 30.82                             121   -0.17 2  215 292 
 ZAR  HE E        1354 30.82                                            215 292 
                                                                                
