 2013 12 9 1943 44.7 L   6.743 -73.171154.9  RSN  7 0.3 1.5LRSN                1
 GAP=198        0.58       4.4     4.4  5.4  0.9890E+01 -0.2733E+01 -0.3200E+01E
 Epicentro: VILLANUEVA - SANTANDER                                             3
 ACTION:UPD 14-01-13 10:17 OP:ep   STATUS:               ID:20131209194344 L   I
 OLDACT:UP  13-12-09 16:33 OP:cam  STATUS:               ID:20131209194000     3
 OLDACT:UP  13-12-09 16:33 OP:cam  STATUS:               ID:20131209194000     3
 OLDACT:REG 13-12-09 15:11 OP:cam  STATUS:               ID:20131209194000     3
 2013-12-09-1940-00M.COL___285                                                 6
 STAT SP IPHASW D HRMM SECON CODA AMPLIT PERI AZIMU VELO AIN AR TRES W  DIS CAZ7
 BAR2 SZ EP       1944  5.05                             174   -0.2210 16.8 184 
 BRR  HZ EP       1944  6.94                             154    0.1010 72.0 304 
 BRR  HN ES       1944 24.32                             154    0.1810 72.0 304 
 RUS  HZ EP       1944  8.95                             147    0.0510 94.6 174 
 RUS  HN ES       1944 27.88                             147    0.0610 94.6 174 
 RUS  HZ I        1944 28.78         2.6 0.40            110           94.6 174 
 PTB  HZ EP       1944 12.13                             135    0.09 9  144 261 
 PTB  HN ES       1944 32.96                             135   -0.44 9  144 261 
 PTB  HZ I        1944 38.71         5.4 0.26            102            144 261 
 ZAR  HN ES   2   1944 43.83                             124    0.37 4  204 294 
 NOR  HZ EP   2   1944 21.05                             121    0.75 4  229 235 
 NOR  HZ I        1944 52.74         3.0 0.22             97            229 235 
 SML  HZ EP   2   1944 21.89                             119   -0.40 4  248 336 
                                                                                
