 2012  9 9 1404 22.7 L   7.112 -73.998 76.0  RSN  6 0.2 1.6LRSN                1
 GAP=157        0.41       3.6     2.4  3.5 -0.2345E+01  0.1218E+01  0.1266E+01E
 Epicentro: BARRANCABERMEJA - SANTANDER                                        3
 ACTION:UPD 12-10-22 14:17 OP:ep   STATUS:               ID:20120909140422 L   I
 2012-09-09-1400-00M.COL___227                                                 6
 STAT SP IPHASW D HRMM SECON CODA AMPLIT PERI AZIMU VELO AIN AR TRES W  DIS CAZ7
 BRR  HZ EP       14 4 34.11                             155    0.0310 31.6  91 
 BRR  HN ES       14 4 42.99                             155    0.0710 31.6  91 
 BRR  HZ I        14 4 43.09        23.2 0.15                          31.6  91 
 PTB  HZ EP   1   14 4 38.04                             129    0.09 7 81.1 219 
 PTB  HN ES   1   14 4 49.69                             129   -0.12 7 81.1 219 
 PTB  HZ I        14 4 50.25         9.4 0.18                          81.1 219 
 GIR2 SZ EP   1   14 4 38.72                             126   -0.17 7 88.9  92 
 ZAR  HZ EP   1   14 4 40.26                             121    0.01 7  104 294 
 ZAR  HZ I        14 4 58.82        10.6 0.13                           104 294 
 BAR2 SZ EP   1   14 4 40.61                             120   -0.27 7  107 122 
 BAR2 SZ I        14 4 58.90         9.1 0.13                           107 122 
 RUS  HZ EP   1   14 4 48.49                             109    0.33 7  169 143 
                                                                                
