 2011  4 9 1309 48.7 L   6.748 -73.072134.0  RSN  6 0.4 1.8LRSN                1
 GAP=183        0.87       9.2     9.9  9.7 -0.2102E+02 -0.4134E+02 -0.3923E+01E
 Epicentro: LOS SANTOS - SANTANDER                                             3
 ACTION:UP  11-06-22 15:30 OP:REBC STATUS:               ID:20110409130948 L   I
 2011-04-09-1309-16S.COL___138                                                 6
 STAT SP IPHASW D HRMM SECON CODA AMPLIT PERI AZIMU VELO SNR AR TRES W  DIS CAZ7
 BAR2 SZ EP       1310  6.99                             171     0.110   21 215 
 BAR2 SZ ES   2   1310 21.31                             171     0.3 5   21 215 
 BAR2 SZ I        1310 22.64        13.2 0.23                            21 215 
 BTL  SZ ES   2   1310 20.69                             168    -0.7 5   29 311 
 GIR2 SZ EP       1310  6.92                             163    -0.310   39 340 
 GIR2 SZ ES   2   1310 21.49                             163    -0.2 5   39 340 
 PAM  SZ EP       1310 10.08                             149     0.410   77  32 
 PAM  SZ I        1310 10.24         7.7 0.17                            77  32 
 BRR  HZ EP       1310  8.94                             147    -0.310   81 299 
 BRR  HN ES   1   1310 25.84                             147     0.6 7   81 299 
 BRR  HZ I        1310 27.89        32.5 0.25                            81 299 
 GRA  SZ EP       1310 13.05                             134    -0.210  129  13 
 GRA  SZ ES   2   1310 32.41                             134     0.1 5  129  13 
 GRA  SZ I        1310 34.74         6.2 0.19                           129  13 
                                                                                
