 2014  6 9 1049 52.7 L   6.812 -73.166143.1  RSN 12 0.4 2.0LRSN                1
 GAP=133        0.83       3.1     3.7  5.5 -0.2694E+01  0.7422E+01  0.1416E+01E
 Epicentro: LOS SANTOS - SANTANDER                                             3
 ACTION:UPD 14-07-01 22:52 OP:nd   STATUS:               ID:20140609104952 L   I
 OLDACT:UP  14-06-09 23:41 OP:mh   STATUS:               ID:20140609104819     3
 OLDACT:REG 14-06-09 20:18 OP:spq  STATUS:               ID:20140609104819     3
 2014-06-09-1048-19M.COL___250                                                 6
 STAT SP IPHASW D HRMM SECON CODA AMPLIT PERI AZIMU VELO AIN AR TRES W  DIS CAZ7
 BAR2 SZ EP       1050 12.20                             170    0.1710 24.4 184 
 BAR2 SZ ES   1   1050 27.19                             170    0.08 7 24.4 184 
 BAR2 SZ I        1050 30.06        33.6 0.05            166           24.4 184 
 PAM  SZ EP       1050 14.82                             150    0.1610 77.8  41 
 PAM  SN ES       1050 32.13                             150    0.3410 77.8  41 
 RUS  HZ EP       1050 15.56                             143   -0.7410  102 175 
 RUS  HN ES   2   1050 34.64                             143   -0.07 5  102 175 
 RUS  HZ I        1050 36.51        10.1 0.21            144            102 175 
 PTB  HZ EP       1050 18.76                             132   -0.52 9  146 258 
 PTB  HN ES       1050 39.61                             132   -0.39 9  146 258 
 PTB  HZ I        1050 43.19        14.0 0.08            132            146 258 
 SPBC HZ EP   1   1050 21.04                             128    0.08 7  163 218 
 SPBC HN ES   1   1050 43.02                             128    0.02 7  163 218 
 SPBC HZ I        1050 49.03        19.0 0.17            129            163 218 
 ZAR  HZ EP       1050 24.73                             122    0.02 9  201 292 
 ZAR  HN ES   1   1050 49.99                             122    0.32 6  201 292 
 ZAR  HZ I        1050 56.65        10.3 0.25            124            201 292 
 NOR  HZ EP       1050 28.07                             118   -0.10 8  234 234 
 NOR  HN ES       1050 56.19                             118    0.37 8  234 234 
 NOR  HZ I        1051  2.81         7.9 0.11            119            234 234 
 SML  HZ EP   1   1050 28.47                             117   -0.48 6  242 336 
 SML  HN ES   1   1050 56.96                             117   -0.26 6  242 336 
 CHI  HZ EP   1   1050 30.44                             116    0.11 6  249 195 
 CHI  HN ES   1   1050 59.69                             116    0.01 6  249 195 
 CHI  HZ I        1051  8.45         4.5 0.18            118            249 195 
 HEL  HZ EP   1   1050 33.28                             114    0.70 6  270 255 
 HEL  HN ES   4   1051  3.22                             114   -0.45 0  270 255 
 HEL  HZ I        1051 11.28         7.2 0.05            116            270 255 
 GUY2CHZ EP       1050 36.30                             112    0.23 7  300 234 
 GUY2CHN ES   4   1051 12.61                             112    2.72 0  300 234 
 GUY2CHZ I        1051 18.75         5.9 0.31                           300 234 
 TOL  SZ EP       1050 41.79                             109    1.01 7  343 224 
 TOL  SN ES   1   1051 17.99                             109   -0.29 5  343 224 
 SJC  HZ EP   4   1050 45.80                             105   -2.11 0  407 327 
 SJC  HN ES   4   1051 20.08                             105   -10.9 0  407 327 
                                                                                
