 2016 10 9 1311 26.3 L   6.763 -73.174148.5  RSN  4 0.2 1.2LRSN                1
 GAP=240        0.54       5.6     4.1  5.1  0.1529E+02  0.2303E+01 -0.4510E+01E
 Epicentro: LOS SANTOS - SANTANDER                                             3
 ACTION:UPD 16-11-09 19:17 OP:rebc STATUS:               ID:20161009131126 L   I
 OLDACT:REG 16-10-09 20:21 OP:lv   STATUS:               ID:20161009130745     3
 2016-10-09-1308-00M.COL___363                                                 6
 STAT SP IPHASW D HRMM SECON CODA AMPLIT PERI AZIMU VELO AIN AR TRES W  DIS CAZ7
 BAR2 EZ EP       1311 45.98                             172   -0.2010 18.9 183 
 BAR2 EZ ES       1312  1.67                             172   -0.0210 18.9 183 
 RUS  HZ EP       1311 50.34                             145    0.2910 96.7 174 
 RUS  HN ES       1312  8.61                             145    0.0310 96.7 174 
 RUS  HZ I        1312 11.25         1.4 0.23            148           96.7 174 
 PTB  HZ EP       1311 52.90                             133   -0.25 9  144 260 
 PTB  HN ES       1312 14.01                             133   -0.08 9  144 260 
 PTB  HZ I        1312 16.11         2.5 0.18            133            144 260 
 ZAR  HE ES       1312 24.40                             123    0.26 9  203 294 
 ZAR  HZ I        1312 30.98         2.7 0.25            123            203 294 
                                                                                
