 2010  9 9 1723 53.5 L   6.770 -73.085144.5  RSN 13 0.5 2.5LRSN                1
 GAP=163        0.88       4.2     7.7  8.0 -0.1411E+02  0.1065E+02  0.3117E+01E
 Epicentro: LOS SANTOS - SANTANDER                                             3
 ACTION:UP  11-02-18 11:01 OP:tino STATUS:               ID:20100909172353 L   I
 2010-09-09-1721-37S.COL___120                                                 6
 STAT SP IPHASW D HRMM SECON CODA AMPLIT PERI AZIMU VELO SNR AR TRES W  DIS CAZ7
 BAR2 SZ IP     D 1724 12.77                             171    -0.210   22 209 
 BAR2 SZ ES   2   1724 27.54                             171    -0.6 5   22 209 
 BAR2 SZ I        1724 29.70        67.0 0.26                            22 209 
 GIR2 SZ EP   2   1724 12.85                             165    -0.3 5   36 341 
 GIR2 SZ ES   3   1724 28.63                             165     0.1 2   36 341 
 BRR  HZ EP   1   1724 14.64                             150    -0.3 7   79 298 
 BRR  HN ES   2   1724 32.21                             150     0.5 5   79 298 
 BRR  HZ I        1724 36.37        57.0 0.11                            79 298 
 RUS  HZ EP   1   1724 16.61                             144    -0.3 7   97 180 
 RUS  HN ES   2   1724 35.70                             144     0.6 5   97 180 
 RUS  HZ I        1724 36.90        43.0 0.39                            97 180 
 BRI  SZ EP   1   1724 17.75                             141     0.4 7  109  17 
 GUE  SZ EP   1   1724 17.73                             138    -0.6 7  119   9 
 GRA  SZ EP   1   1724 19.63                             136     0.9 7  127  14 
 GRA  SZ ES   2   1724 39.17                             136     0.7 5  127  14 
 OCA  SZ EP   1   1724 21.63                             128    -0.5 7  165 351 
 OCA  SZ ES   2   1724 44.03                             128    -0.4 5  165 351 
 OCA  SZ I        1724 48.05        41.7 0.23                           165 351 
 CHI  HZ EP   1   1724 30.87                             117    -0.1 6  247 197 
 CHI  HE ES   2   1724 59.77                             117    -0.5 4  247 197 
 CHI  HZ I        1725  6.34        18.1 0.55                           247 197 
 ROSC BZ EP   1   1724 32.39                             116     0.7 6  253 213 
 ROSC BN ES   2   1725  2.03                             116     0.7 4  253 213 
 ROSC BZ I        1725  7.41        17.9 0.26                           253 213 
 HEL  HZ EP   1   1724 34.77                             114     0.5 6  278 257 
 HEL  HN ES   2   1725  5.82                             114    -0.3 4  278 257 
 HEL  HZ I        1725 11.50        16.8 0.45                           278 257 
 RREF HZ EP   1   1724 39.86                             110    -0.1 5  325 231 
 RREF HN ES   2   1725 16.60                             110     0.4 3  325 231 
 RREF HZ I        1725 24.43        21.5 0.38                           325 231 
 PRA  HZ EP   2   1724 46.30                             106    -0.7 3  392 211 
 PRA  HN ES   3   1725 28.24                             106    -0.6 1  392 211 
 PRA  HZ I        1725 33.86        16.3 0.22                           392 211 
                                                                                
