 2012  9 9 1600  7.3 L   6.646 -73.217142.0  RSN  4 0.1 1.9LRSN                1
 GAP=194        0.35       5.5     3.2  4.0  0.6276E+01  0.1935E+01 -0.4522E+01E
 Epicentro: BARICHARA - SANTANDER                                              3
 ACTION:UPD 12-10-22 14:18 OP:ep   STATUS:               ID:20120909160007 L   I
 2012-09-09-1600-00M.COL___227                                                 6
 STAT SP IPHASW D HRMM SECON CODA AMPLIT PERI AZIMU VELO AIN AR TRES W  DIS CAZ7
 BAR2 SZ EP   1   16 0 26.35                             177    0.10 7 7.13 147 
 BAR2 SZ ES   1   16 0 41.03                             177   -0.01 7 7.13 147 
 BAR2 SZ I        16 0 42.38        17.4 0.36                          7.13 147 
 BRR  HZ EP       16 0 28.09                             151   -0.1610 74.7 313 
 BRR  HN ES   1   16 0 44.72                             151    0.13 7 74.7 313 
 BRR  HZ I        16 0 51.34        20.2 0.40                          74.7 313 
 PTB  HE ES   1   16 0 53.10                             133   -0.01 7  138 265 
 ZAR  HZ EP   1   16 0 39.66                             122    0.17 6  204 297 
 ZAR  HE ES   1   16 1  4.55                             122   -0.06 6  204 297 
 ZAR  HZ I        16 1 10.11         4.5 0.24                           204 297 
                                                                                
