 2012 11 9 1038 19.0 L   6.809 -73.133148.6  RSN  7 0.5 2.0LRSN                1
 GAP=138        0.98       5.6     5.8  8.7  0.5794E+01  0.9481E+01  0.1536E+02E
 Epicentro: LOS SANTOS - SANTANDER                                             3
 ACTION:UPD 12-12-05 15:32 OP:}ep  STATUS:               ID:20121109103819 L   I
 2012-11-09-1029-48M.COL___192                                                 6
 STAT SP IPHASW D HRMM SECON CODA AMPLIT PERI AZIMU VELO AIN AR TRES W  DIS CAZ7
 BAR2 SZ EP       1038 38.96                             170   -0.0710 24.5 193 
 BAR2 SZ ES   1   1038 53.82                             170   -0.80 7 24.5 193 
 BAR2 SZ I        1038 56.36        31.3 0.38                          24.5 193 
 GIR2 SZ EP       1038 39.05                             168    0.0310 30.6 347 
 BRR  HZ EP       1038 40.85                             153    0.3210 72.0 297 
 BRR  HN ES   1   1038 58.13                             153    0.83 7 72.0 297 
 PAM  SZ EP       1038 41.77                             152    0.3110 75.8  39 
 PAM  SN ES   1   1038 58.83                             152   -0.12 7 75.8  39 
 PAM  SZ I        1039  0.67        19.7 0.42                          75.8  39 
 RUS  HZ EP       1038 42.76                             144   -0.3610  101 177 
 RUS  HZ I        1039  2.47        14.0 0.38                           101 177 
 ZAR  HZ EP   1   1038 51.32                             123   -0.43 6  205 292 
 ZAR  HN ES       1039 16.89                             123   -0.39 9  205 292 
 ZAR  HZ I        1039 22.41        14.2 0.24                           205 292 
 CHI  HZ EP   1   1038 56.94                             117   -0.08 6  250 195 
 CHI  HN ES   1   1039 27.53                             117    0.87 6  250 195 
 CHI  HZ I        1039 29.15         3.7 0.42                           250 195 
                                                                                
