 2017  7 9 1931 14.2 L   6.783 -73.146142.0  RSN 10 0.4 2.1LRSN                1
 GAP=112        1.02       4.0     3.4  6.0  0.1261E+01  0.5345E+01  0.5721E+01E
 Epicentro: LOS SANTOS - SANTANDER                                             3
 ACTION:UPD 17-08-30 15:31 OP:rebc STATUS:               ID:20170709193114 L   I
 OLDACT:REG 17-07-09 21:21 OP:dhb  STATUS:               ID:20170709192739     3
 2017-07-09-1928-00M.COL___383                                                 6
 STAT SP IPHASW D HRMM SECON CODA AMPLIT PERI AZIMU VELO AIN AR TRES W  DIS CAZ7
 BAR2 EZ IP     C 1931 33.25                             171   -0.1310 21.4 191 
 BAR2 EZ ES       1931 48.24                             171   -0.0710 21.4 191 
 BAR2 EZ I        1931 49.28        50.3 0.12            169           21.4 191 
 BRR  HZ IP     C 1931 35.13                             152    0.0910 72.1 300 
 BRR  HE ES       1931 52.05                             152    0.8010 72.1 300 
 BRR  HZ I        1931 52.54        25.7 0.13            153           72.1 300 
 PAM  EZ IP     C 1931 36.19                             150    0.0410 78.9  39 
 PAM  EN ES       1931 52.77                             150   -0.4710 78.9  39 
 PAM  EZ I        1931 55.83        17.8 0.26            153           78.9  39 
 PTB  HZ EP       1931 40.12                             131   -0.75 9  147 260 
 PTB  HN ES       1932  1.06                             131   -0.58 9  147 260 
 PTB  HZ I        1932  2.73         9.8 0.10            132            147 260 
 SPBC HZ EP       1931 42.26                             129   -0.05 9  162 219 
 SPBC HE ES       1932  4.71                             129    0.51 9  162 219 
 SPBC HZ I        1932 10.53        22.3 0.25            129            162 219 
 YPLC HZ EP       1931 43.44                             126   -0.16 9  175 151 
 YPLC HN ES       1932  6.91                             126    0.41 9  175 151 
 YPLC HZ I        1932  8.31         7.4 0.34            128            175 151 
 ZAR  HZ EP       1931 47.14                             122    0.62 9  205 293 
 ZAR  HE ES       1932 11.87                             122    0.18 9  205 293 
 ZAR  HZ I        1932 14.30        17.2 0.28            123            205 293 
 NOR  HZ EP       1931 49.65                             118    0.02 8  234 235 
 NOR  HE ES       1932 16.72                             118   -0.51 8  234 235 
 NOR  HZ I        1932 19.56        12.3 0.23            119            234 235 
 GUY2CHZ EP   2   1931 58.43                             112    0.88 4  300 235 
 GUY2CHZ I        1932 40.11         7.5 0.26                           300 235 
 DBB  EZ EP   2   1932  1.51                             109   -0.07 3  340 275 
 DBB  EN ES       1932 38.37                             109   -0.13 7  340 275 
 DBB  EZ I        1932 39.04         4.4 0.29            110            340 275 
                                                                                
