 2016  1 9 1629 10.1 L   6.761 -73.144146.0  RSN  6 0.4 1.7LRSN                1
 GAP=138        1.04       5.3     4.7  7.4  0.2240E+01  0.7287E+01 -0.2865E+00E
 Epicentro: LOS SANTOS - SANTANDER                                             3
 ACTION:UPD 16-03-09 23:24 OP:cam  STATUS:               ID:20160109162910 L   I
 OLDACT:REG 16-01-09 22:40 OP:ar   STATUS:               ID:20160109161749     3
 2016-01-09-1617-49M.COL___274                                                 6
 STAT SP IPHASW D HRMM SECON CODA AMPLIT PERI AZIMU VELO AIN AR TRES W  DIS CAZ7
 BAR2 EZ EP       1629 29.68                             172    0.0110 19.2 193 
 BAR2 EZ ES       1629 44.96                             172    0.0210 19.2 193 
 BAR2 EZ I        1629 50.80         6.8 0.18            170           19.2 193 
 BRR  HZ EP       1629 31.62                             152    0.2310 73.5 301 
 BRR  HE ES       1629 48.61                             152    0.6010 73.5 301 
 BRR  HZ I        1629 51.68        12.0 0.38            152           73.5 301 
 PAM  EZ EP       1629 32.58                             150    0.0610 80.6  38 
 PAM  EN ES       1629 49.48                             150   -0.5410 80.6  38 
 PAM  EZ I        1629 50.21         7.2 0.34            156           80.6  38 
 RUS  HZ EP       1629 33.74                             145    0.1910 96.3 176 
 RUS  HN ES       1629 52.09                             145    0.2310 96.3 176 
 RUS  HZ I        1629 54.45         3.1 0.34            148           96.3 176 
 PTB  HZ EP       1629 36.33                             132   -0.69 9  147 260 
 PTB  HN ES       1629 57.36                             132   -0.66 9  147 260 
 PTB  HZ I        1630  2.09         7.6 0.14            134            147 260 
 ZAR  HZ EP   2   1629 43.59                             122    0.86 4  206 293 
 ZAR  HN ES       1630  8.49                             122    0.29 8  206 293 
 ZAR  HZ I        1630 14.08         9.4 0.34            125            206 293 
                                                                                
