 2016  8 9 1950 18.8 L   6.807 -73.148133.5  RSN  6 0.4 1.8LRSN                1
 GAP=136        0.94       4.6     4.4  7.0 -0.4218E+00  0.1241E+02 -0.2593E+01E
 Epicentro: LOS SANTOS - SANTANDER                                             3
 ACTION:UPD 16-10-29 15:34 OP:rebc STATUS:               ID:20160809195018 L   I
 OLDACT:REG 16-08-09 21:13 OP:lv   STATUS:               ID:20160809194759     3
 2016-08-09-1947-59S.COL___346                                                 6
 STAT SP IPHASW D HRMM SECON CODA AMPLIT PERI AZIMU VELO AIN AR TRES W  DIS CAZ7
 BAR2 EZ EP       1950 36.65                             169   -0.3610 24.1 189 
 BAR2 EZ ES       1950 50.87                             169   -0.3210 24.1 189 
 BAR2 EZ I        1950 52.53        14.2 0.15                          24.1 189 
 PAM  EZ EP       1950 39.65                             149   -0.0810 76.9  40 
 PAM  EN ES       1950 56.43                             149    0.4010 76.9  40 
 PAM  EZ I        1950 58.42        14.5 0.46                          76.9  40 
 RUS  HZ EP       1950 41.17                             141   -0.3010  101 176 
 RUS  HN ES       1950 59.53                             141    0.4110  101 176 
 RUS  HZ I        1951  0.91        10.1 0.40                           101 176 
 PTB  HZ EP   2   1950 44.83                             129    0.01 5  148 259 
 PTB  HN ES       1951  4.94                             129   -0.15 9  148 259 
 PTB  HZ I        1951  7.10         7.2 0.10                           148 259 
 ZAR  HZ EP       1950 49.97                             120   -0.49 9  204 292 
 ZAR  HE ES       1951 15.51                             120    0.39 9  204 292 
 ZAR  HZ I        1951 21.47         6.8 0.26                           204 292 
 GUY2CHZ EP       1951  2.80                             110    0.86 7  301 235 
 GUY2CHE ES   4   1951 37.93                             110    2.38 0  301 235 
 GUY2CHZ I        1951 44.24         1.9 0.36                           301 235 
                                                                                
