 2010  9 9 1713 49.4 L   6.799 -73.109143.6  RSN 11 0.5 2.2LRSN                1
 GAP=163        0.84       4.2     9.4  8.2 -0.1326E+02  0.1433E+02  0.3158E+01E
 Epicentro: LOS SANTOS - SANTANDER                                             3
 ACTION:UP  11-02-18 11:01 OP:tino STATUS:               ID:20100909171349 L   I
 2010-09-09-1709-51S.COL___120                                                 6
 STAT SP IPHASW D HRMM SECON CODA AMPLIT PERI AZIMU VELO SNR AR TRES W  DIS CAZ7
 BAR2 SZ EP   1   1714  8.48                             170    -0.3 7   24 200 
 BAR2 SZ ES   2   1714 23.85                             170     0.0 5   24 200 
 BAR2 SZ I        1714 25.09        29.7 0.34                            24 200 
 GIR2 SZ EP   2   1714  8.65                             167    -0.2 5   32 343 
 BRR  HZ EP   1   1714 10.24                             151    -0.3 7   75 297 
 BRR  HZ I        1714 12.14        37.4 0.10                            75 297 
 BRR  HN ES   2   1714 27.00                             151     0.0 5   75 297 
 RUS  HZ EP   1   1714 12.57                             143    -0.3 7  100 178 
 RUS  HZ I        1714 13.69        11.8 0.21                           100 178 
 RUS  HN ES   2   1714 31.28                             143     0.1 5  100 178 
 GUE  SZ EP   1   1714 13.50                             139    -0.3 7  116  10 
 GRA  SZ EP   1   1714 15.17                             137     0.8 7  125  16 
 GRA  SZ ES   2   1714 34.61                             137     0.8 5  125  16 
 GRA  SZ I        1714 35.91        13.1 0.38                           125  16 
 OCA  SZ EP   1   1714 17.47                             129    -0.1 7  161 352 
 OCA  SZ ES   2   1714 39.00                             129    -0.6 5  161 352 
 OCA  SZ I        1714 43.13        29.5 0.27                           161 352 
 CHI  HZ EP   1   1714 26.99                             116    -0.1 6  250 196 
 CHI  HN ES   2   1714 57.44                             116     1.0 4  250 196 
 CHI  HZ I        1715  3.58         5.7 0.58                           250 196 
 HEL  HZ EP   1   1714 30.26                             114     0.3 6  276 256 
 HEL  HZ I        1715  6.92        13.5 0.65                           276 256 
 RREF HZ EP   2   1714 36.66                             110     0.9 3  325 230 
 RREF HE ES   3   1715 11.63                             110    -0.3 2  325 230 
 RREF HZ I        1715 19.17         8.7 0.27                           325 230 
 PRA  HZ EP   1   1714 42.32                             106    -0.7 4  394 210 
 PRA  HE ES   2   1715 25.39                             106     0.5 3  394 210 
 PRA  HZ I        1715 30.59         8.8 0.37                           394 210 
                                                                                
