 2017  4 9 1333 53.6 L   6.793 -73.022135.0  RSN  4 0.4 1.2LRSN                1
 GAP=153        0.93       5.1     7.6  8.4  0.3835E+01  0.5889E+01  0.7765E+01E
 Epicentro: CEPITA - SANTANDER                                                 3
 ACTION:UPD 17-05-30 21:10 OP:jn   STATUS:               ID:20170409133353 L   I
 OLDACT:DUP 17-04-10 00:02 OP:edw  STATUS:               ID:20170409132753d    3
 OLDACT:UP  17-04-10 00:01 OP:edw  STATUS:               ID:20170409132752d    3
 OLDACT:DUP 17-04-09 23:53 OP:edw  STATUS:               ID:20170409132752d    3
 OLDACT:UP  17-04-09 23:53 OP:edw  STATUS:               ID:20170409132751d    3
 OLDACT:UP  17-04-09 23:50 OP:edw  STATUS:               ID:20170409132751d    3
 OLDACT:DUP 17-04-09 23:47 OP:edw  STATUS:               ID:20170409132751d    3
 2017-04-09-1328-00M.COL___377                                                 6
 STAT SP IPHASW D HRMM SECON CODA AMPLIT PERI AZIMU VELO AIN AR TRES W  DIS CAZ7
 BAR2 EZ EP       1334 12.61                             168    0.5810 28.4 219 
 BAR2 EZ ES       1334 26.00                             168   -0.4310 28.4 219 
 BAR2 EZ I        1334 28.40         5.1 0.28            166           28.4 219 
 PAM  EN ES       1334 30.34                             151    0.0310 70.2  31 
 BRR  HZ EP       1334 14.19                             146   -0.1810 83.8 295 
 BRR  HN ES       1334 30.73                             146    0.1410 83.8 295 
 RUS  HZ EP       1334 15.77                             142   -0.4510 99.8 184 
 RUS  HN ES       1334 34.19                             142    0.3110 99.8 184 
 RUS  HZ I        1334 36.05         2.2 0.40            142           99.8 184 
                                                                                
