 2016  6 9 1321 46.6 L   6.819 -73.156144.5  RSN 14 0.5 2.3LRSN                1
 GAP= 70        1.14       3.2     3.6  5.7 -0.2153E+01  0.3909E+01  0.5055E+01E
 Epicentro: LOS SANTOS - SANTANDER                                             3
 ACTION:UPD 16-07-21 22:17 OP:rebc STATUS:               ID:20160609132146 L   I
 OLDACT:UP  16-06-09 22:32 OP:edw  STATUS:               ID:20160609131740     3
 OLDACT:REG 16-06-09 20:21 OP:edw  STATUS:               ID:20160609131740     3
 2016-06-09-1317-40M.COL___337                                                 6
 STAT SP IPHASW D HRMM SECON CODA AMPLIT PERI AZIMU VELO AIN AR TRES W  DIS CAZ7
 BAR2 EZ EP     C 1322  6.05                             170   -0.1110 25.2 187 
 BAR2 EZ ES       1322 21.01                             170   -0.3710 25.2 187 
 BAR2 EZ I        1322 22.28        69.5 0.34                          25.2 187 
 BRR  HZ EP     C 1322  7.86                             153    0.3210 69.2 297 
 BRR  HE ES       1322 25.16                             153    1.3210 69.2 297 
 BRR  HZ I        1322 29.55        27.3 0.62                          69.2 297 
 PAM  EZ EP     D 1322  9.09                             151    0.4110 76.6  41 
 PAM  EN ES       1322 25.41                             151   -0.4510 76.6  41 
 PAM  EZ I        1322 28.56        28.1 0.60                          76.6  41 
 RUS  HZ EP       1322 10.32                             143   -0.1110  103 175 
 RUS  HE ES       1322 28.60                             143   -0.3810  103 175 
 RUS  HZ I        1322 29.68        18.4 0.28                           103 175 
 PTB  HZ EP       1322 12.56                             132   -0.88 9  147 258 
 PTB  HN ES       1322 33.70                             132   -0.64 9  147 258 
 PTB  HZ I        1322 39.43        25.6 0.14                           147 258 
 TAM  HZ EP       1322 14.40                             130    0.02 9  157 106 
 TAM  HN ES       1322 36.28                             130    0.27 9  157 106 
 OCA  HE ES       1322 36.39                             130   -0.11 9  158 353 
 SPBC HZ EP       1322 15.16                             129    0.03 9  164 218 
 SPBC HE ES       1322 37.29                             129   -0.05 9  164 218 
 SPBC HZ I        1322 40.01        30.8 0.32                           164 218 
 NOR  HZ EP       1322 22.90                             118    0.58 8  235 234 
 NOR  HN ES       1322 50.44                             118    0.28 8  235 234 
 NOR  HZ I        1322 55.90        10.1 0.16                           235 234 
 CHI  HZ EP       1322 24.50                             117    0.05 8  250 195 
 CHI  HE ES       1322 54.10                             117    0.15 8  250 195 
 CHI  HZ I        1322 55.93        12.1 0.36                           250 195 
 ANIL HZ EP       1322 36.48                             108    0.01 6  358 224 
 ANIL HN ES       1323 15.60                             108    0.26 6  358 224 
 ANIL HZ I        1323 22.61        18.1 0.32                           358 224 
 PRA  HZ EP       1322 40.00                             106   -0.26 6  393 209 
 PRA  HE ES       1323 21.55                             106   -0.53 6  393 209 
 PRA  HZ I        1323 26.30         6.4 0.24                           393 209 
 ORTC HZ EP       1322 41.03                             106    0.40 6  396 216 
 ORTC HN ES       1323 23.28                             106    0.54 6  396 216 
 ORTC HZ I        1323 28.62         4.7 0.52                           396 216 
 SJC  HZ EP   4   1322 40.24                             106   -1.64 0  407 327 
 SJC  HE ES       1323 24.07                             106   -0.90 6  407 327 
 SJC  HZ I        1323 27.94         2.6 0.30                           407 327 
                                                                                
