 2013  3 9 1545 26.6 L   6.744 -73.144136.0  RSN  4 0.1 1.9LRSN                1
 GAP=139        0.34       2.2     4.2  3.2 -0.3857E+01  0.3913E+01 -0.9826E+00E
 Epicentro: JORDAN - SANTANDER                                                 3
 ACTION:UPD 13-04-09 14:01 OP:ep   STATUS:               ID:20130309154526 L   I
 2013-03-09-1540-00M.COL___231                                                 6
 STAT SP IPHASW D HRMM SECON CODA AMPLIT PERI AZIMU VELO AIN AR TRES W  DIS CAZ7
 BAR2 SZ EP       1545 45.01                             172    0.1010 17.3 194 
 BAR2 SZ ES       1545 59.12                             172   -0.0910 17.3 194 
 BAR2 SZ I        1546  1.42        19.3 0.26            171           17.3 194 
 BRR  HZ EP       1545 46.89                             150    0.0210 74.5 303 
 PAM  SZ EP       1545 47.92                             147   -0.1410 82.2  37 
 PAM  SZ I        1545 48.31        14.5 0.22            150           82.2  37 
 PAM  SE ES       1546  4.91                             147    0.0910 82.2  37 
 RUS  HZ EP       1545 48.91                             143    0.0010 94.4 176 
 RUS  HE ES   1   1546  6.37                             143    0.03 7 94.4 176 
 RUS  HE I        1546  8.77        15.4 0.19            144           94.4 176 
                                                                                
