 2016  5 9 1144 40.6 L   6.854 -73.153152.7  RSN  5 0.5 1.3LRSN                1
 GAP=211        0.94       6.4     8.6  9.9 -0.1192E+01  0.4005E+01 -0.1256E+02E
 Epicentro: LOS SANTOS - SANTANDER                                             3
 ACTION:UPD 16-08-18 17:43 OP:cam  STATUS:               ID:20160509114440 L   I
 OLDACT:DUP 16-05-09 22:08 OP:ak   STATUS:               ID:20160509113750d    3
 2016-05-09-1137-49M.COL___288                                                 6
 STAT SP IPHASW D HRMM SECON CODA AMPLIT PERI AZIMU VELO AIN AR TRES W  DIS CAZ7
 BAR2 EZ EP   2   1145  1.32                             169    0.11 5 29.1 186 
 BAR2 EZ ES   2   1145 16.87                             169   -0.41 5 29.1 186 
 BAR2 EZ I        1145 20.49         4.3 0.10            167           29.1 186 
 BRR  HZ EP   2   1145  3.13                             155    0.79 5 67.8 294 
 BRR  HE ES       1145 19.61                             155    0.3210 67.8 294 
 BRR  HZ I        1145 20.84         3.7 0.13            158           67.8 294 
 PTB  HZ EP       1145  8.32                             134    0.12 9  148 256 
 PTB  HE ES       1145 29.05                             134   -0.67 9  148 256 
 PTB  HZ I        1145 32.52         1.6 0.28            136            148 256 
 ZAR  HN ES       1145 39.22                             124    0.56 9  201 291 
 SML  HZ EP   2   1145 16.73                             120   -0.30 4  238 335 
 SML  HE ES       1145 44.92                             120   -0.51 8  238 335 
                                                                                
