 2017 10 9 1726 19.3 L   7.506 -73.294124.3  RSN  5 0.2 1.5LRSN                1
 GAP=196        0.43       2.4     2.2  4.5  0.1197E+01  0.4847E+01  0.2739E+01E
 Epicentro: EL PLAYON - SANTANDER                                              3
 ACTION:UPD 17-11-07 19:30 OP:rebc STATUS:               ID:20171009172619 L   I
 OLDACT:DUP 17-10-09 22:49 OP:lv   STATUS:               ID:20171009170638d    3
 2017-10-09-1718-00M.COL___435                                                 6
 STAT SP IPHASW D HRMM SECON CODA AMPLIT PERI AZIMU VELO AIN AR TRES W  DIS CAZ7
 PAM  EZ EP       1726 38.54                             150   -0.1210 68.2 106 
 PAM  EE ES       1726 53.78                             150    0.0010 68.2 106 
 PAM  EZ I        1726 56.02         4.8 0.44            155           68.2 106 
 BAR2 EZ EP       1726 40.70                             138   -0.0310  102 173 
 BAR2 EZ ES   2   1726 57.50                             138    0.04 5  102 173 
 BAR2 EZ I        1726 58.95         9.5 0.25            142            102 173 
 ZAR  HZ EP       1726 47.34                             122    0.26 9  173 270 
 ZAR  HN ES       1727  8.70                             122   -0.06 9  173 270 
 ZAR  HZ I        1727 12.72         7.6 0.14            125            173 270 
 RUS  HZ EP       1726 48.36                             121   -0.11 9  180 173 
 RUS  HN ES       1727 11.54                             121    0.30 9  180 173 
 RUS  HZ I        1727 14.05         1.2 0.20            125            180 173 
 SPBC HZ EP       1726 52.50                             115   -0.02 8  222 203 
 SPBC HN ES       1727 18.22                             115   -0.23 8  222 203 
                                                                                
