 2010 12 9 1828 53.9 L   6.812 -73.188138.7  RSN  6 0.2 2.2LRSN                1
 GAP=159        0.35       3.3     5.3  3.7 -0.1472E+02  0.8462E+01 -0.3614E+01E
 Epicentro: ZAPATOCA - SANTANDER                                               3
 ACTION:UP  11-01-14 15:23 OP:pat  STATUS:               ID:20101209182853 L   I
 2010-12-09-1826-01S.COL___132                                                 6
 STAT SP IPHASW D HRMM SECON CODA AMPLIT PERI AZIMU VELO SNR AR TRES W  DIS CAZ7
 BAR2 SZ IP       1829 12.85                             169     0.110   24 179 
 BAR2 SZ I        1829 13.14        25.0 0.11                            24 179 
 BAR2 SZ ES   1   1829 27.39                             169     0.0 7   24 179 
 GUE  SZ EP       1829 17.96                             138     0.010  116  14 
 GRA  SZ EP       1829 18.58                             135     0.010  126  20 
 GRA  SZ ES   1   1829 37.78                             135     0.0 7  126  20 
 GRA  SZ I        1829 39.15        18.5 0.34                           126  20 
 NOR  SZ EP       1829 29.08                             117     0.1 8  232 234 
 NOR  SN ES   1   1829 56.07                             117    -0.2 6  232 234 
 CHI  HZ EP   2   1829 30.87                             115    -0.4 4  249 194 
 CHI  HN ES   3   1830  0.36                             115     0.0 2  249 194 
 CHI  HZ I        1830  8.39         6.1 0.25                           249 194 
 PRA  HZ EP   2   1829 46.83                             105    -0.3 3  391 209 
 PRA  HN ES   2   1830 28.97                             105     0.4 3  391 209 
 PRA  HZ I        1830 32.54        15.7 0.22                           391 209 
                                                                                
