 2015 10 9 1906 32.0 L   6.785 -73.133144.7  RSN  7 0.3 1.9LRSN                1
 GAP=139        0.69       4.0     4.2  6.0  0.2508E+01  0.6596E+01 -0.8163E+01E
 Epicentro: LOS SANTOS - SANTANDER                                             3
 ACTION:UPD 15-12-22 20:38 OP:cam  STATUS:               ID:20151009190632 L   I
 OLDACT:REG 15-10-09 22:36 OP:spq  STATUS:               ID:20151009185749     3
 2015-10-09-1857-49M.COL___340                                                 6
 STAT SP IPHASW D HRMM SECON CODA AMPLIT PERI AZIMU VELO AIN AR TRES W  DIS CAZ7
 BAR2 EZ EP       19 6 51.40                             171   -0.0710 22.0 194 
 BAR2 EZ ES       19 7  6.28                             171   -0.3810 22.0 194 
 BAR2 EZ I        19 7  7.43        11.1 0.12            171           22.0 194 
 BRR  HZ EP   2   19 6 53.64                             152    0.50 5 73.2 299 
 BRR  HN ES   2   19 7 10.10                             152    0.46 5 73.2 299 
 BRR  HZ I        19 7 13.24        15.0 0.32            149           73.2 299 
 PAM  EZ EP       19 6 54.49                             150    0.3710 77.8  38 
 PAM  EN ES       19 7 11.38                             150   -0.0010 77.8  38 
 PAM  EZ I        19 7 13.68        26.9 0.62            152           77.8  38 
 RUS  HZ EP   2   19 6 55.70                             144    0.19 5 98.9 177 
 RUS  HN ES   2   19 7 14.04                             144    0.18 5 98.9 177 
 RUS  HZ I        19 7 15.01         8.5 0.36            148           98.9 177 
 ZAR  HZ EP   4   19 7  6.23                             122    1.67 0  206 292 
 ZAR  HN ES       19 7 30.14                             122    0.17 8  206 292 
 ZAR  HZ I        19 7 35.58        10.5 0.32            122            206 292 
 SML  HZ EP       19 7  8.17                             117   -0.61 8  246 335 
 SML  HN ES       19 7 37.50                             117    0.02 8  246 335 
 SML  HZ I        19 7 43.72        11.1 0.10            118            246 335 
 SJC  HZ EP   4   19 7 26.35                             105   -1.42 0  411 327 
 SJC  HE ES   4   19 8  8.72                             105   -2.55 0  411 327 
 SJC  HZ I        19 8 13.49         1.5 0.40            106            411 327 
                                                                                
