 2011 10 9 1904 31.2 L   6.776 -73.101147.5  RSN  5 0.4 1.4LRSN                1
 GAP=143        0.80       5.7     6.1 10.2  0.7461E+01  0.8217E+01  0.5831E+01E
 Epicentro: LOS SANTOS - SANTANDER                                             3
 ACTION:UPD 12-07-13 16:02 OP:ep   STATUS:               ID:20111009190431 L   I
 2011-10-09-1900-00M.COL___171                                                 6
 STAT SP IPHASW D HRMM SECON CODA AMPLIT PERI AZIMU VELO AIN AR TRES W  DIS CAZ7
 BAR2 SZ EP   1   19 4 51.03                             171    0.03 7 22.2 204 
 BAR2 SZ I        19 4 51.64         8.8 0.10                          22.2 204 
 PAM  SZ EP   1   19 4 53.84                             151    0.31 7 76.4  35 
 PAM  SN ES   1   19 5 10.51                             151   -0.45 7 76.4  35 
 PAM  SZ I        19 5 13.41         2.1 0.47                          76.4  35 
 BRR  HZ EP   1   19 4 52.94                             151    0.09 7 76.8 298 
 BRR  HN ES   1   19 5 10.47                             151    0.72 7 76.8 298 
 BRR  HZ I        19 5 13.97        10.6 0.29                          76.8 298 
 RUS  HZ EP   1   19 4 54.93                             145    0.02 7 97.7 179 
 RUS  HN ES   1   19 5 13.18                             145   -0.23 7 97.7 179 
 RUS  HZ I        19 5 14.92         2.7 0.38                          97.7 179 
 ZAR  HE ES   1   19 5 29.48                             122   -0.69 6  210 292 
                                                                                
