 2017  2 9 1720 54.6 L   6.790 -73.136144.5  RSN  7 0.4 1.9LRSN                1
 GAP=138        1.12       5.0     4.7  7.1 -0.1024E+01  0.1067E+02  0.1913E+01E
 Epicentro: LOS SANTOS - SANTANDER                                             3
 ACTION:UPD 17-05-24 15:34 OP:jn   STATUS:               ID:20170209172054 L   I
 OLDACT:REG 17-02-09 20:56 OP:lv   STATUS:               ID:20170209171742     3
 2017-02-09-1718-00M.COL___364                                                 6
 STAT SP IPHASW D HRMM SECON CODA AMPLIT PERI AZIMU VELO AIN AR TRES W  DIS CAZ7
 BAR2 EZ IP     C 1721 13.89                             171   -0.1310 22.5 193 
 BAR2 EZ ES       1721 29.19                             171   -0.0110 22.5 193 
 BAR2 EZ I        1721 29.89        18.2 0.40            170           22.5 193 
 BRR  HZ IP     C 1721 15.72                             152    0.0610 72.7 299 
 BRR  HN ES       1721 32.80                             152    0.6910 72.7 299 
 BRR  HZ I        1721 41.18        17.4 0.40            150           72.7 299 
 PAM  EZ EP       1721 16.91                             151    0.2610 77.5  38 
 PAM  EN ES       1721 33.51                             151   -0.3610 77.5  38 
 PAM  EZ I        1721 36.04        30.1 0.50            155           77.5  38 
 RUS  HZ EP       1721 17.86                             144   -0.2510 99.4 177 
 RUS  HN ES       1721 36.68                             144    0.2110 99.4 177 
 RUS  HZ I        1721 37.60         7.1 0.32            149           99.4 177 
 PTB  HZ EP       1721 20.66                             132   -0.85 9  149 259 
 PTB  HN ES       1721 41.91                             132   -0.61 9  149 259 
 PTB  HZ I        1721 47.22         6.5 0.32            132            149 259 
 ZAR  HZ EP       1721 27.75                             122    0.68 8  205 292 
 ZAR  HE ES       1721 52.11                             122   -0.32 8  205 292 
 ZAR  HZ I        1721 57.63         7.7 0.18            123            205 292 
 NOR  HZ EP       1721 30.63                             118    0.38 8  235 235 
 NOR  HE ES       1721 58.52                             118    0.44 8  235 235 
 NOR  HZ I        1722  3.63         5.3 0.32            121            235 235 
                                                                                
