 2016  3 9 1130 57.3 L   6.810 -73.166138.6  RSN  6 0.3 1.8LRSN                1
 GAP=134        0.67       2.6     3.5  5.3 -0.1524E+01  0.4464E+01 -0.3449E+01E
 Epicentro: LOS SANTOS - SANTANDER                                             3
 ACTION:UPD 16-05-13 21:22 OP:cam  STATUS:               ID:20160309113057 L   I
 OLDACT:REG 16-03-09 20:30 OP:ar   STATUS:               ID:20160309112749     3
 2016-03-09-1127-49M.COL___288                                                 6
 STAT SP IPHASW D HRMM SECON CODA AMPLIT PERI AZIMU VELO AIN AR TRES W  DIS CAZ7
 BAR2 EZ EP       1131 16.02                             169   -0.0810 24.2 184 
 BAR2 EZ ES       1131 30.73                             169   -0.0310 24.2 184 
 BAR2 EZ I        1131 32.16        10.2 0.22            171           24.2 184 
 PAM  EZ EP       1131 19.11                             149    0.3010 77.9  41 
 PAM  EN ES       1131 35.84                             149    0.2710 77.9  41 
 PAM  EZ I        1131 37.36         8.4 0.22            152           77.9  41 
 RUS  HZ EP       1131 20.34                             142   -0.1310  102 175 
 RUS  HN ES       1131 38.58                             142    0.0610  102 175 
 RUS  HZ I        1131 39.60         4.3 0.24            145            102 175 
 PTB  HZ EP   2   1131 23.95                             131    0.42 5  146 258 
 PTB  HN ES       1131 43.78                             131   -0.20 9  146 258 
 PTB  HZ I        1131 46.41         9.4 0.17            131            146 258 
 OCA  HZ EP       1131 24.98                             128    0.03 9  159 354 
 OCA  HN ES       1131 45.94                             128   -0.56 9  159 354 
 OCA  HZ I        1131 49.48        19.2 0.36            129            159 354 
 ZAR  HZ EP   2   1131 28.87                             121   -0.18 4  202 292 
 ZAR  HN ES   2   1131 54.71                             121    0.91 4  202 292 
 ZAR  HZ I        1132  0.07         6.9 0.30            121            202 292 
                                                                                
