 2012  2 9 1247 35.7 L   6.748 -73.205137.7  RSN  6 0.2 1.6LRSN                1
 GAP=238        0.40       3.3     3.4  5.8  0.5567E+01  0.4182E+01  0.6445E+00E
 ACTION:UP  12-03-07 16:28 OP:epov STATUS:               ID:20120209124735 L   I
 2012-02-09-1240-00M.COL___187                                                 6
 STAT SP IPHASW D HRMM SECON CODA AMPLIT PERI AZIMU VELO AIN AR TRES W  DIS CAZ7
 BAR2 SZ EP   1   1247 54.22                             173   -0.03 7 17.4 172 
 BAR2 SZ I        1248 10.70         5.0 0.28                          17.4 172 
 RUS  HZ EP   1   1247 58.55                             144    0.25 7 95.6 172 
 RUS  HN ES   1   1248 15.95                             144    0.03 7 95.6 172 
 PTB  HZ EP   1   1248  1.15                             132   -0.19 7  140 261 
 PTB  HN ES   1   1248 21.26                             132   -0.07 7  140 261 
 PTB  HZ I        1248 25.92         0.0 0.12                           140 261 
 ZAR  HE ES   1   1248 31.92                             121    0.07 6  200 294 
 ZAR  HZ I        1248 39.01         7.2 0.24                           200 294 
 CHI  HZ I        1248 14.67         3.1 0.22                           241 194 
 CHI  HN ES   1   1248 40.32                             116   -0.30 6  241 194 
 RREF HZ EP   1   1248 20.50                             110   -0.01 5  313 229 
 RREF HN ES   2   1248 56.05                             110    0.59 3  313 229 
                                                                                
