 2013  6 9 1120 43.0 L   5.917 -73.628128.6  RSN  5 0.5 1.5LRSN                1
 GAP=221        1.13       9.0     7.0 12.8 -0.4343E+02 -0.2047E+02  0.5215E+02E
 Epicentro: BARBOSA - SANTANDER                                                3
 ACTION:UPD 14-01-08 09:53 OP:ep   STATUS:               ID:20130609112043 L   I
 OLDACT:DUP 13-06-09 14:44 OP:nd   STATUS:               ID:20130609111960d    3
 OLDACT:REG 13-06-09 14:06 OP:nd   STATUS:               ID:20130609111959     3
 2013-06-09-1119-59M.COL___261                                                 6
 STAT SP IPHASW D HRMM SECON CODA AMPLIT PERI AZIMU VELO AIN AR TRES W  DIS CAZ7
 BAR2 SZ EP       1121  4.55                             143    0.6910 89.4  33 
 BAR2 SZ ES       1121 19.93                             143   -0.2410 89.4  33 
 BAR2 SZ I        1121 21.49         9.2 0.46             47           89.4  33 
 PTB  HZ EP       1121  5.23                             135   -0.3310  115 307 
 PTB  HN ES       1121 23.50                             135    0.3210  115 307 
 PTB  HZ I        1121 24.60         2.5 0.16             47            115 307 
 BRR  HZ EP       1121  7.63                             131    0.5610  132 356 
 BRR  HZ I        1121 22.56         6.0 0.41             47            132 356 
 BRR  HN ES       1121 25.59                             131   -0.2810  132 356 
 GIR2 SZ EP   2   1121  7.66                             130   -0.09 5  137  20 
 GIR2 SZ ES       1121 26.82                             130   -0.26 9  137  20 
 GIR2 SZ I        1121 46.97         5.3 0.52             47            137  20 
 NOR  HZ EP       1121  7.37                             129   -0.81 9  143 254 
 NOR  HN ES       1121 28.15                             129    0.31 9  143 254 
 NOR  HZ I        1121 31.97         3.9 0.20             47            143 254 
                                                                                
