 2015  6 9 1114 36.3 L   6.874 -73.360115.7  RSN 11 0.5 1.6LRSN                1
 GAP=168        1.01       2.8     4.2  5.6  0.1775E+01  0.1140E+02  0.6965E+00E
 Epicentro: SAN VICENTE DE CHUCURI - SANTANDER                                 3
 ACTION:UPD 15-09-10 22:11 OP:cam  STATUS:               ID:20150609111436 L   I
 OLDACT:REG 15-06-09 21:00 OP:ak   STATUS:               ID:20150609110746     3
 2015-06-09-1107-46M.COL___300                                                 6
 STAT SP IPHASW D HRMM SECON CODA AMPLIT PERI AZIMU VELO AIN AR TRES W  DIS CAZ7
 BAR2 EZ EP       1114 53.07                             161    0.2810 36.9 148 
 BAR2 EZ ES       1115  5.57                             161   -0.0610 36.9 148 
 BRR  HZ EP       1114 52.95                             156    0.0810 46.7 303 
 BRR  HN ES       1115  5.83                             156    0.0510 46.7 303 
 BRR  HZ I        1115  7.26         8.0 0.09            152           46.7 303 
 RUS  HZ EP       1114 58.42                             133    0.1110  113 164 
 RUS  HN ES       1115 14.63                             133   -0.8410  113 164 
 RUS  HZ I        1115 16.53         3.8 0.16            135            113 164 
 SPBC HZ EP   1   1115  2.49                             122    0.48 7  156 210 
 SPBC HE ES   1   1115 22.39                             122    0.34 7  156 210 
 SPBC HZ I        1115 27.17         5.8 0.10            122            156 210 
 ZAR  HZ EP       1115  4.49                             118    0.21 9  179 293 
 ZAR  HN ES       1115 26.61                             118    0.53 9  179 293 
 ZAR  HZ I        1115 30.65         8.5 0.31            118            179 293 
 NOR  HZ EP       1115  9.54                             113    0.57 8  221 229 
 NOR  HN ES       1115 34.54                             113    0.10 8  221 229 
 NOR  HZ I        1115 38.02         7.5 0.44            113            221 229 
 SML  HZ EP       1115  9.73                             112    0.17 8  227 340 
 SML  HN ES       1115 35.12                             112   -0.37 8  227 340 
 HEL  HZ EP       1115 13.78                             110    0.96 8  252 253 
 HEL  HE ES       1115 40.94                             110   -0.35 8  252 253 
 HEL  HZ I        1115 48.20         5.6 0.42            110            252 253 
 GUY2CHZ EP       1115 17.10                             107   -0.00 7  287 231 
 GUY2CHN ES       1115 48.93                             107    0.02 7  287 231 
 GUY2CHZ I        1115 55.18         2.4 0.42                           287 231 
 RREF HZ EP   1   1115 19.40                             105   -0.55 5  310 225 
 RREF HZ IP       1115 19.40                             105   -0.55 7  310 225 
 RREF HN ES       1115 53.33                             105   -0.65 7  310 225 
 RREF HZ I        1115 58.27         0.8 0.40            106            310 225 
 MON  HZ EP   1   1115 20.82                             104   -0.72 5  330 310 
 MON  HN ES       1115 55.92                             104   -0.88 7  330 310 
 MON  HZ I        1116 10.21         1.7 0.09            104            330 310 
                                                                                
