 2015  6 9 1138  5.4 L   6.774 -73.131139.8  RSN  9 0.4 1.6LRSN                1
 GAP=140        0.97       3.7     4.2  5.9 -0.2112E+01  0.1042E+02  0.4927E+01E
 Epicentro: LOS SANTOS - SANTANDER                                             3
 ACTION:UPD 15-09-10 22:11 OP:cam  STATUS:               ID:20150609113805 L   I
 OLDACT:REG 15-06-09 21:01 OP:ak   STATUS:               ID:20150609112747     3
 2015-06-09-1127-47M.COL___300                                                 6
 STAT SP IPHASW D HRMM SECON CODA AMPLIT PERI AZIMU VELO AIN AR TRES W  DIS CAZ7
 BAR2 EZ IP     C 1138 24.20                             171   -0.0310 20.9 196 
 BAR2 EZ ES       1138 38.84                             171   -0.1110 20.9 196 
 BAR2 EZ I        1138 40.21         5.5 0.15            168           20.9 196 
 BRR  HZ EP       1138 26.00                             150   -0.0410 74.0 300 
 BRR  HE ES       1138 43.11                             150    0.9510 74.0 300 
 BRR  HZ I        1138 48.45         5.9 0.19            148           74.0 300 
 PAM  SZ EP       1138 27.02                             149   -0.0110 78.6  37 
 PAM  SN ES       1138 43.73                             149   -0.1910 78.6  37 
 PAM  SZ I        1138 44.63        11.1 0.30            154           78.6  37 
 RUS  HZ EP       1138 28.25                             143   -0.0710 97.6 177 
 RUS  HN ES       1138 45.99                             143   -0.2310 97.6 177 
 RUS  HZ I        1138 47.74         7.0 0.30            146           97.6 177 
 ZAR  HZ EP       1138 38.00                             121    0.30 8  207 293 
 ZAR  HN ES       1139  1.99                             121   -0.93 8  207 293 
 ZAR  HZ I        1139  9.01         6.9 0.32            121            207 293 
 NOR  HZ EP   1   1138 40.64                             117   -0.08 6  234 235 
 NOR  HN ES       1139  8.17                             117   -0.12 8  234 235 
 NOR  HZ I        1139 15.53         4.5 0.20            118            234 235 
 GUY2CHZ EP   1   1138 48.37                             111   -0.30 5  301 235 
 GUY2CHN ES       1139 21.86                             111   -0.58 7  301 235 
 GUY2CHZ I        1139 29.56         2.5 0.28                           301 235 
 RREF HZ EP   1   1138 51.89                             110    0.71 5  321 230 
 RREF HN ES       1139 27.25                             110    0.33 7  321 230 
 RREF HZ I        1139 32.28         1.0 0.36            111            321 230 
 PRA  HZ EP       1138 58.98                             106    0.49 6  390 210 
 PRA  HE ES       1139 40.39                             106    0.47 6  390 210 
                                                                                
