 2011  9 9 1212 27.3 L   6.339 -73.292118.9  RSN  4 0.1 1.4LRSN                1
 GAP=176        0.33       4.2    16.1  5.1  0.4306E+02  0.4738E+02  0.3418E+01E
 Epicentro: CONFINES - SANTANDER                                               3
 ACTION:UPD 12-07-13 15:56 OP:ep   STATUS:               ID:20110909121227 L   I
 2011-09-09-1208-50S.COL___170                                                 6
 STAT SP IPHASW D HRMM SECON CODA AMPLIT PERI AZIMU VELO AIN AR TRES W  DIS CAZ7
 BAR2 SZ EP       1212 43.81                             165   -0.0810 30.5  23 
 BAR2 SZ ES   1   1212 56.80                             165   -0.04 7 30.5  23 
 BAR2 SZ I        1212 58.36         7.6 0.36                          30.5  23 
 RUS  HZ EP   1   1212 45.24                             154   -0.06 7 54.5 155 
 RUS  HE ES   1   1212 59.44                             154    0.09 7 54.5 155 
 RUS  HZ I        1213  1.53         1.8 0.33                          54.5 155 
 GIR2 SZ EP   1   1212 46.72                             143    0.13 7 82.5   8 
 BRR  HZ EP   2   1212 47.54                             138    0.04 5 96.8 331 
 BRR  HZ I        1212 48.56        15.9 0.28                          96.8 331 
                                                                                
