 2010  4 9 1739 49.3 L   6.804 -72.913145.2  RSN  5 0.3 2.3LRSN                1
 GAP=270        0.56       6.1    10.1  7.8 -0.3251E+01  0.2010E+01  0.2531E+02E
 Epicentro: SAN ANDRES - SANTANDER                                             3
 ACTION:UPD 10-08-24 09:58 OP:vdl  STATUS:               ID:20100409173949 L   I
 2010-04-09-1737-44S.COL___097                                                 6
 STAT SP IPHASW D HRMM SECON CODA AMPLIT PERI AZIMU VELO AIN AR TRES W  DIS CAZ7
 BAR2 SZ EP   1   1740  8.84                             164    -0.4 7   38 232 
 BAR2 SZ ES   2   1740 25.15                             164     0.3 5   38 232 
 BRR  HZ EP   1   1740 11.95                             145     0.1 7   95 291 
 BRR  HZ I        1740 12.23        43.7 0.14                            95 291 
 BRR  HN ES   2   1740 29.55                             145     0.1 5   95 291 
 CHI  HZ EP   1   1740 28.25                             116     0.3 6  257 201 
 CHI  HE ES   2   1740 58.03                             116     0.0 4  257 201 
 CHI  HZ I        1741  6.68         7.6 0.49                           257 201 
 RREF BZ EP   1   1740 38.20                             109     0.4 5  342 232 
 RREF BN ES   2   1741 14.89                             109    -0.6 3  342 232 
 RREF BZ I        1741 22.36         9.4 0.32                           342 232 
 PRA  HZ EP   1   1740 44.35                             106    -0.1 4  406 213 
 PRA  HN ES   2   1741 27.11                             106    -0.3 3  406 213 
 PRA  HZ I        1741 31.67         5.6 0.39                           406 213 
                                                                                
