 2013  6 9 1813 45.4 L   6.778 -73.195138.0  RSN  4 0.5 1.7LRSN                1
 GAP=230        1.02       7.4     7.7  8.9  0.2636E+02  0.1067E+02  0.1294E+02E
 Epicentro: ZAPATOCA - SANTANDER                                               3
 ACTION:UPD 14-01-08 09:53 OP:ep   STATUS:               ID:20130609181345 L   I
 OLDACT:DUP 13-06-09 15:41 OP:nd   STATUS:               ID:20130609180960d    3
 2013-06-09-1809-59M.COL___261                                                 6
 STAT SP IPHASW D HRMM SECON CODA AMPLIT PERI AZIMU VELO AIN AR TRES W  DIS CAZ7
 BRR  HZ EP       1814  5.67                             152    0.1410 67.8 303 
 BRR  HN ES       1814 21.43                             152    0.2110 67.8 303 
 BRR  HZ I        1814 25.80         9.3 0.38            154           67.8 303 
 RUS  HZ EP       1814  7.86                             143   -0.4010 98.7 173 
 RUS  HN ES       1814 26.28                             143    0.1910 98.7 173 
 RUS  HZ I        1814 28.05         5.1 0.38            147           98.7 173 
 PTB  HZ EP       1814 10.65                             131   -0.57 9  142 259 
 PTB  HN ES       1814 31.15                             131   -0.20 9  142 259 
 PTB  HZ I        1814 34.33         7.6 0.16            134            142 259 
 GUY2CHZ EP       1814 29.06                             111    1.06 7  295 235 
 GUY2CHN ES   2   1815  1.10                             111   -0.13 4  295 235 
 GUY2CHZ I        1815  8.67         4.2 0.32                           295 235 
                                                                                
