 2014 10 9 1906 38.8 L   6.809 -73.242136.3  RSN  4 0.6 1.2LRSN                1
 GAP=125        1.49       7.9     7.2 13.3 -0.6787E+01  0.5608E+01  0.1753E+02E
 Epicentro: ZAPATOCA - SANTANDER                                               3
 ACTION:UPD 14-11-29 23:48 OP:nd   STATUS:               ID:20141009190638 L   I
 OLDACT:REG 14-10-09 20:39 OP:stll STATUS:               ID:20141009185750     3
 2014-10-09-1857-50M.COL___289                                                 6
 STAT SP IPHASW D HRMM SECON CODA AMPLIT PERI AZIMU VELO AIN AR TRES W  DIS CAZ7
 BRR  HZ EP       19 6 59.11                             154    0.7510 61.5 302 
 BRR  HN ES       19 7 14.41                             154    0.7710 61.5 302 
 PAM  SZ EP       19 7  0.33                             147   -0.0810 83.9  46 
 PAM  SN ES       19 7 16.60                             147   -0.6910 83.9  46 
 PAM  SZ I        19 7 19.05         4.3 0.34            147           83.9  46 
 RUS  HZ EP       19 7  1.81                             141    0.0310  103 170 
 RUS  HN ES       19 7 19.94                             141    0.2210  103 170 
 RUS  HZ I        19 7 21.33         1.7 0.14            141            103 170 
 PTB  HZ EP       19 7  3.93                             132   -0.11 9  137 258 
 PTB  HZ I        19 7  4.95         3.3 0.16            133            137 258 
 PTB  HN ES       19 7 22.74                             132   -1.01 9  137 258 
                                                                                
