 2012  6 9 1534 13.2 L   6.799 -73.137139.6  RSN 12 0.4 2.4LRSN                1
 GAP=138        0.74       2.7     3.8  5.5 -0.1909E+01  0.1060E+02  0.7243E-02E
 Epicentro: LOS SANTOS - SANTANDER                                             3
 ACTION:UPD 12-08-06 17:48 OP:ep   STATUS:               ID:20120609153412 L   I
 2012-06-09-1530-00M.COL___201                                                 6
 STAT SP IPHASW D HRMM SECON CODA AMPLIT PERI AZIMU VELO AIN AR TRES W  DIS CAZ7
 BAR2 SZ EP   1   1534 32.50                             170    0.38 7 23.4 192 
 BAR2 SZ ES   1   1534 46.45                             170   -0.40 7 23.4 192 
 BAR2 SZ I        1534 49.54        71.8 0.21            169           23.4 192 
 PAM  SZ EP   1   1534 35.39                             150    0.63 7 76.9  39 
 PAM  SN ES       1534 51.78                             150    0.2210 76.9  39 
 PAM  SZ I        1534 54.54        69.7 0.47            154           76.9  39 
 RUS  HZ EP   1   1534 36.55                             142    0.19 7  100 177 
 RUS  HN ES       1534 54.39                             142   -0.0110  100 177 
 RUS  HZ I        1534 56.63        57.4 0.28            145            100 177 
 PTB  HZ EP   1   1534 39.54                             130   -0.25 7  149 259 
 PTB  HN ES   1   1535  0.24                             130   -0.26 7  149 259 
 PTB  HZ I        1535  2.98        29.9 0.11            132            149 259 
 OCA  HZ EP   1   1534 40.34                             128   -0.75 7  161 353 
 OCA  HN ES   1   1535  2.15                             128   -0.68 7  161 353 
 ZAR  HZ EP   1   1534 45.63                             121    0.25 6  205 292 
 ZAR  HN ES   1   1535 11.07                             121    0.61 6  205 292 
 ZAR  HZ I        1535 13.17        26.0 0.12            123            205 292 
 NOR  SZ EP   1   1534 48.52                             117   -0.16 6  235 235 
 NOR  SN ES   1   1535 16.77                             117    0.43 6  235 235 
 CHI  HZ EP   1   1534 50.87                             116    0.27 6  249 195 
 CHI  HN ES   1   1535 19.12                             116   -0.63 6  249 195 
 CHI  HZ I        1535 23.57        14.0 0.36            118            249 195 
 ROSC BN ES   1   1535 20.29                             115   -0.28 6  253 211 
 HEL  HZ EP   1   1534 53.19                             113   -0.04 6  273 256 
 HEL  HN ES   1   1535 24.75                             113    0.31 6  273 256 
 HEL  HZ I        1535 31.66        15.4 0.26            115            273 256 
 DBB  SZ EP   1   1535  0.40                             108   -0.17 5  340 274 
 TOL  SZ EP   1   1535  1.25                             108   -0.06 5  344 225 
                                                                                
