 2013  3 9 1207 50.4 L   6.793 -73.135148.9  RSN  8 0.5 2.2LRSN                1
 GAP=138        1.13       4.2     5.3  6.8  0.1270E+01  0.7648E+01  0.2919E+01E
 Epicentro: LOS SANTOS - SANTANDER                                             3
 ACTION:UPD 13-04-09 14:01 OP:ep   STATUS:               ID:20130309120750 L   I
 2013-03-09-1200-00M.COL___231                                                 6
 STAT SP IPHASW D HRMM SECON CODA AMPLIT PERI AZIMU VELO AIN AR TRES W  DIS CAZ7
 BAR2 SZ IP       12 8 10.46                             171    0.0710 22.8 193 
 BAR2 SZ ES       12 8 25.20                             171   -0.7910 22.8 193 
 BAR2 SZ I        12 8 28.58        35.1 0.35            169           22.8 193 
 BRR  HZ IP     C 12 8 12.50                             153    0.5410 72.6 299 
 BRR  HE ES       12 8 29.64                             153    0.8510 72.6 299 
 BRR  HE I        12 8 30.80        57.5 0.19            151           72.6 299 
 PAM  SZ EP       12 8 13.25                             151    0.3210 77.2  38 
 PAM  SE ES       12 8 30.49                             151   -0.0310 77.2  38 
 PAM  SZ I        12 8 32.97        11.3 0.53            156           77.2  38 
 RUS  HZ EP       12 8 14.30                             145   -0.0910 99.7 177 
 RUS  HN ES   1   12 8 32.98                             145   -0.13 7 99.7 177 
 RUS  HN I        12 8 34.71        26.4 0.17            146           99.7 177 
 PTB  HZ EP       12 8 17.13                             132   -0.58 9  149 259 
 PTB  HE ES       12 8 38.62                             132   -0.40 9  149 259 
 PTB  HZ I        12 8 44.46        22.4 0.20            132            149 259 
 ZAR  HZ EP       12 8 23.03                             123   -0.16 8  205 292 
 ZAR  HN ES   1   12 8 49.22                             123    0.45 6  205 292 
 ZAR  HZ I        12 8 55.34        14.5 0.36            124            205 292 
 SML  HZ EP   1   12 8 26.81                             118   -0.52 6  245 335 
 SML  HN ES   1   12 8 55.39                             118   -0.75 6  245 335 
 CHI  HZ EP       12 8 28.49                             118    0.27 8  248 195 
 CHI  HN ES       12 8 58.14                             118    0.42 8  248 195 
 CHI  HZ I        12 9  3.73         5.7 0.27            119            248 195 
                                                                                
