 2012  7 9 1012 49.6 L   7.336 -73.104 14.2  RSN  5 0.4 0.9LRSN                1
 GAP=174        0.94       6.4     2.8  6.0 -0.6473E+00  0.7347E+01  0.1552E+02E
 Epicentro: MATANZA - SANTANDER                                                3
 ACTION:UPD 12-08-14 11:43 OP:ep   STATUS:               ID:20120709101249 L   I
 2012-07-09-1010-00M.COL___201                                                 6
 STAT SP IPHASW D HRMM SECON CODA AMPLIT PERI AZIMU VELO AIN AR TRES W  DIS CAZ7
 PAM  SZ EP       1012 57.83                             105     0.210   45  89 
 PAM  SE ES   1   1013  3.36                             105    -0.6 7   45  89 
 BRR  HZ EP   1   1013  1.36                              98     0.2 7   72 249 
 BRR  HE ES   1   1013  9.81                              98    -0.3 7   72 249 
 BRR  HZ I        1013 11.25         4.1 0.13                            72 249 
 RUS  HZ EP   1   1013 14.53                              56     0.1 7  160 179 
 RUS  HE ES   1   1013 33.88                              56     0.0 7  160 179 
 RUS  HZ I        1013 38.84         1.3 0.32                           160 179 
 PTB  HZ EP       1013 16.09                              56     0.5 9  173 240 
 PTB  HE ES   1   1013 35.62                              56    -0.4 7  173 240 
 PTB  HZ I        1013 38.25         1.1 0.32                           173 240 
 ZAR  HZ EP   1   1013 18.82                              56     0.6 6  194 275 
 ZAR  HN ES   1   1013 39.97                              56    -0.7 6  194 275 
 ZAR  HZ I        1013 42.59         2.5 0.23                           194 275 
