 2014  1 9 1554 32.2 L   6.802 -73.135139.0  RSN  6 0.5 1.6LRSN                1
 GAP=239        1.22       6.5     7.3  8.2  0.1362E+02  0.1670E+02  0.1818E+02E
 Epicentro: LOS SANTOS - SANTANDER                                             3
 ACTION:UPD 14-03-13 09:53 OP:ep   STATUS:               ID:20140109155432 L   I
 OLDACT:REG 14-01-09 14:16 OP:stll STATUS:               ID:20140109154818     3
 2014-01-09-1548-18M.COL___246                                                 6
 STAT SP IPHASW D HRMM SECON CODA AMPLIT PERI AZIMU VELO AIN AR TRES W  DIS CAZ7
 BAR2 SZ EP       1554 50.72                             170   -0.3310 23.8 193 
 BAR2 SZ ES       1555  6.16                             170    0.4310 23.8 193 
 BAR2 SZ I        1555  7.41        10.9 0.26            168           23.8 193 
 BRR  HZ EP       1554 52.98                             151    0.2810 72.1 298 
 BRR  HN ES       1555  8.49                             151   -0.1810 72.1 298 
 RUS  HZ EP       1554 55.55                             142    0.2210  101 177 
 RUS  HN ES       1555 13.53                             142    0.1810  101 177 
 RUS  HZ I        1555 15.65         4.5 0.36            143            101 177 
 PTB  HZ EP       1554 58.26                             130   -0.50 9  149 259 
 PTB  HN ES       1555 18.98                             130   -0.48 9  149 259 
 PTB  HZ I        1555 22.17         5.3 0.12            131            149 259 
 CHI  HZ EP       1555  9.56                             116   -0.06 8  249 195 
 CHI  HN ES       1555 37.74                             116   -1.04 8  249 195 
 GUY2CHZ EP       1555 16.43                             111    0.77 7  302 235 
 GUY2CHN ES       1555 50.61                             111    1.08 7  302 235 
 GUY2CHZ I        1555 57.46         1.9 0.32                           302 235 
                                                                                
