 2013 10 9 1650 31.4 L   6.776 -73.173141.8  RSN  7 0.4 2.0LRSN                1
 GAP=233        0.99       5.8     6.2  6.7  0.7879E+01  0.8750E+01  0.6028E+01E
 Epicentro: LOS SANTOS - SANTANDER                                             3
 ACTION:UPD 13-11-25 09:20 OP:ep   STATUS:               ID:20131009165031 L   I
 OLDACT:REG 13-10-09 18:22 OP:nd   STATUS:               ID:20131009164959     3
 2013-10-09-1649-59M.COL___273                                                 6
 STAT SP IPHASW D HRMM SECON CODA AMPLIT PERI AZIMU VELO AIN AR TRES W  DIS CAZ7
 BAR2 SZ EP       1650 50.39                             171   -0.1010 20.3 183 
 BAR2 SZ ES       1651  5.49                             171    0.1110 20.3 183 
 BAR2 SZ I        1651  8.23        39.9 0.26            173           20.3 183 
 BRR  HZ IP     C 1650 52.09                             152    0.0410 70.0 302 
 BRR  HN ES       1651  8.57                             152    0.4210 70.0 302 
 BRR  HZ I        1651 13.40        21.3 0.22            151           70.0 302 
 RUS  HZ EP       1650 54.52                             144   -0.0610 98.2 174 
 RUS  HN ES       1651 12.47                             144   -0.2010 98.2 174 
 RUS  HZ I        1651 15.14         8.5 0.26            148           98.2 174 
 PTB  HZ EP       1650 57.10                             132   -0.63 9  144 260 
 PTB  HN ES       1651 17.73                             132   -0.54 9  144 260 
 PTB  HZ I        1651 20.80        10.7 0.18            133            144 260 
 SPBC HZ EP       1650 59.26                             129    0.04 9  159 219 
 SPBC HN ES       1651 21.22                             129    0.30 9  159 219 
 SPBC HZ I        1651 26.93        12.8 0.18            131            159 219 
 SML  HZ EP   4   1651  6.91                             116   -1.03 0  245 336 
 SML  HN ES   4   1651 34.56                             116   -1.87 0  245 336 
 SML  HZ I        1651 41.74         8.6 0.10            118            245 336 
 GUY2CHZ EP       1651 15.42                             112    1.05 7  297 235 
 GUY2CHN ES   4   1651 50.93                             112    3.03 0  297 235 
 GUY2CHZ I        1651 56.68         6.6 0.26                           297 235 
                                                                                
