 2012 12 9 1339 28.3 L   6.828 -73.179138.1  RSN  8 0.3 2.2LRSN                1
 GAP=177        0.64       2.0     4.2  4.4  0.1062E+01  0.4321E+01 -0.2847E+00E
 Epicentro: ZAPATOCA - SANTANDER                                               3
 ACTION:UPD 13-01-04 14:26 OP:ep   STATUS:               ID:20121209133928 L   I
 2012-12-09-1337-42M.COL___210                                                 6
 STAT SP IPHASW D HRMM SECON CODA AMPLIT PERI AZIMU VELO AIN AR TRES W  DIS CAZ7
 BAR2 SZ EP       1339 47.30                             169    0.2310 26.1 181 
 BAR2 SZ ES       1340  1.36                             169   -0.3510 26.1 181 
 BAR2 SZ I        1340  3.12        29.8 0.32                          26.1 181 
 GIR2 SZ EP       1339 47.36                             168    0.4010 27.7 357 
 GIR2 SZ I        1340  3.98        10.2 0.40                          27.7 357 
 RUS  HZ EP       1339 51.55                             141   -0.0110  104 174 
 RUS  HN ES       1340  9.85                             141    0.1410  104 174 
 RUS  HN I        1340 11.52        27.2 0.36                           104 174 
 PTB  HZ EP       1339 54.13                             131   -0.24 9  145 257 
 PTB  HN ES       1340 14.99                             131    0.28 9  145 257 
 PTB  HN I        1340 20.42        27.6 0.24                           145 257 
 OCA  HN ES       1340 17.00                             128   -0.04 9  157 354 
 SML  HZ EP       1340  3.71                             116   -0.31 8  239 336 
 SML  HN ES       1340 31.81                             116   -0.08 8  239 336 
 SML  HN I        1340 38.66        28.2 0.10                           239 336 
 CHI  HZ EP       1340  5.76                             115   -0.05 8  251 194 
 CHI  HN ES       1340 34.68                             115   -0.39 8  251 194 
 CHI  HN I        1340 41.55         8.9 0.50                           251 194 
 PRA  HZ EP       1340 22.00                             105    0.33 6  393 209 
 PRA  HN I        1341  9.35         4.7 0.40                           393 209 
                                                                                
