 2012  7 9 1443 46.3 L   6.731 -73.161135.5  RSN  4 0.3 1.6LRSN                1
 GAP=152        0.79       9.3     5.7  7.6 -0.2558E+02  0.3909E+01  0.6132E+01E
 Epicentro: VILLANUEVA - SANTANDER                                             3
 ACTION:UPD 12-08-14 11:43 OP:ep   STATUS:               ID:20120709144346 L   I
 2012-07-09-1440-00M.COL___201                                                 6
 STAT SP IPHASW D HRMM SECON CODA AMPLIT PERI AZIMU VELO AIN AR TRES W  DIS CAZ7
 BAR2 SZ EP       1444  4.93                             173     0.310   16 189 
 BAR2 SZ ES   1   1444 18.76                             173    -0.1 7   16 189 
 BAR2 SZ I        1444 21.12         9.9 0.13                            16 189 
 BRR  HZ EP       1444  6.76                             150     0.210   74 304 
 BRR  HN ES   1   1444 22.72                             150     0.4 7   74 304 
 BRR  HZ I        1444 28.05        14.0 0.08                            74 304 
 PAM  SZ EP       1444  7.75                             147    -0.210   84  37 
 PAM  SN ES   1   1444 24.45                             147    -0.3 7   84  37 
 PTB  HZ EP       1444 12.12                             130    -0.1 9  145 262 
 PTB  HE ES   1   1444 31.87                             130    -0.5 7  145 262 
 PTB  HZ I        1444 34.90         3.5 0.26                           145 262 
