 2011  8 9 1502 22.2 L   6.810 -73.007143.3  RSN  6 0.4 2.2LRSN                1
 GAP=168        0.62       4.8     8.2  5.9  0.3482E+01  0.8326E+01  0.1481E+02E
 Epicentro: CEPITA - SANTANDER                                                 3
 ACTION:UPD 12-07-25 14:07 OP:epov STATUS:               ID:20110809150222 L   I
 2011-08-09-1500-00M.COL___145                                                 6
 STAT SP IPHASW D HRMM SECON CODA AMPLIT PERI AZIMU VELO AIN AR TRES W  DIS CAZ7
 BAR2 SZ IP       15 2 42.08                             168    0.4010 31.0 219 
 BAR2 SZ ES   1   15 2 56.71                             168   -0.19 7 31.0 219 
 BAR2 SZ I        15 2 58.39        37.4 0.30                          31.0 219 
 PAM  SZ EP   3   15 2 41.98                             153   -1.58 2 67.6  30 
 PAM  SE ES   3   15 3  0.07                             153   -0.18 2 67.6  30 
 BRR  HZ IP     C 15 2 43.85                             148   -0.0210 84.6 293 
 BRR  HZ I        15 2 44.02        41.0 0.14                          84.6 293 
 BRR  HE ES   1   15 3  0.85                             148    0.06 7 84.6 293 
 NOR  SZ EP       15 2 58.82                             117   -0.38 8  248 236 
 CHI  HZ EP       15 3  0.49                             116    0.15 8  254 198 
 CHI  HE ES   1   15 3 29.86                             116   -0.25 6  254 198 
 CHI  HZ I        15 3 33.57         7.6 0.44                           254 198 
 PRA  HZ EP       15 3 16.91                             106    0.27 6  401 211 
 PRA  HN ES   2   15 3 58.46                             106   -0.66 3  401 211 
                                                                                
