 2014  2 9 1550 13.3 L   6.701 -73.086139.4  RSN  5 0.4 1.5LRSN                1
 GAP=149        1.08       5.3     6.4  7.7 -0.9313E+01  0.1089E+02  0.4970E+01E
 Epicentro: JORDAN - SANTANDER                                                 3
 ACTION:UPD 14-03-10 08:09 OP:ep   STATUS:               ID:20140209155013 L   I
 OLDACT:REG 14-02-09 16:14 OP:nd   STATUS:               ID:20140209155000     3
 2014-02-09-1550-00M.COL___291                                                 6
 STAT SP IPHASW D HRMM SECON CODA AMPLIT PERI AZIMU VELO AIN AR TRES W  DIS CAZ7
 BAR2 SZ EP       1550 32.33                             173    0.2810 16.0 222 
 BAR2 SZ ES       1550 47.25                             173    0.5910 16.0 222 
 BAR2 SZ I        1550 50.32        10.8 0.46            169           16.0 222 
 PAM  SZ EP       1550 35.13                             148   -0.0610 82.5  31 
 PAM  SN ES       1550 51.85                             148   -0.3910 82.5  31 
 PAM  SZ I        1550 54.44         5.0 0.52            153           82.5  31 
 BRR  HZ EP       1550 34.32                             147   -0.1610 82.5 303 
 BRR  HN ES       1550 51.02                             147    0.0310 82.5 303 
 BRR  HZ I        1550 59.72         6.3 0.50            146           82.5 303 
 RUS  HZ EP       1550 36.32                             146    0.6710 89.4 180 
 RUS  HN ES       1550 52.36                             146   -0.7010 89.4 180 
 RUS  HZ I        1550 56.33         1.7 0.34            151           89.4 180 
 NOR  HZ EP       1550 48.31                             117   -0.30 8  234 238 
 NOR  HN ES       1551 16.06                             117   -0.08 8  234 238 
 NOR  HZ I        1551 20.25         3.7 0.18            120            234 238 
                                                                                
