 2012  6 9 1334 26.4 L   6.809 -73.129140.6  RSN  7 0.4 1.6LRSN                1
 GAP=138        0.76       3.9     4.2  7.6  0.1456E+00  0.1350E+02  0.4037E+00E
 Epicentro: LOS SANTOS - SANTANDER                                             3
 ACTION:UPD 12-08-06 17:48 OP:ep   STATUS:               ID:20120609133424 L   I
 2012-06-09-1330-00M.COL___201                                                 6
 STAT SP IPHASW D HRMM SECON CODA AMPLIT PERI AZIMU VELO AIN AR TRES W  DIS CAZ7
 BAR2 SZ EP   1   1334 45.93                             170    0.46 9 24.7 194 
 BAR2 SZ ES   1   1335  0.67                             170    0.36 9 24.7 194 
 BAR2 SZ I        1335  2.06         9.7 0.26            168           24.7 194 
 PAM  SZ EP   1   1334 47.89                             151   -0.09 9 75.4  39 
 PAM  SN ES   1   1335  4.85                             151    0.07 9 75.4  39 
 RUS  HZ EP   1   1334 49.40                             143   -0.34 9  101 177 
 RUS  HN ES   1   1335  7.45                             143   -0.47 9  101 177 
 RUS  HZ I        1335 11.27         3.5 0.24            145            101 177 
 PTB  HZ EP   1   1334 52.78                             130   -0.39 8  150 259 
 PTB  HE ES   1   1335 13.37                             130   -0.65 8  150 259 
 PTB  HZ I        1335 17.83         5.1 0.18            131            150 259 
 ZAR  HZ EP   1   1334 58.72                             121    0.03 7  205 292 
 ZAR  HN ES       1335 23.99                             121    0.1510  205 292 
 ZAR  HZ I        1335 30.06         6.8 0.12            123            205 292 
 NOR  SN ES   1   1335 30.55                             117    0.64 7  237 235 
 CHI  HN ES   1   1335 33.77                             116    0.45 7  250 196 
                                                                                
