 2016 10 9 1233 13.4 L   6.792 -73.136141.3  RSN  8 0.3 1.7LRSN                1
 GAP=138        0.79       3.2     3.5  5.2 -0.1162E+01  0.5592E+01  0.2657E+01E
 Epicentro: LOS SANTOS - SANTANDER                                             3
 ACTION:UPD 16-11-09 19:17 OP:rebc STATUS:               ID:20161009123313 L   I
 OLDACT:REG 16-10-09 20:18 OP:lv   STATUS:               ID:20161009122746     3
 2016-10-09-1228-00M.COL___363                                                 6
 STAT SP IPHASW D HRMM SECON CODA AMPLIT PERI AZIMU VELO AIN AR TRES W  DIS CAZ7
 BAR2 EZ EP       1233 32.08                             170   -0.3810 22.7 193 
 BAR2 EZ ES       1233 47.24                             170   -0.1010 22.7 193 
 BAR2 EZ I        1233 48.75        16.0 0.16            169           22.7 193 
 PAM  EZ EP       1233 35.03                             150   -0.0910 77.4  39 
 PAM  EN ES       1233 52.20                             150    0.1210 77.4  39 
 PAM  EZ I        1233 54.19        13.5 0.52            155           77.4  39 
 RUS  HZ EP       1233 36.56                             143   -0.0710 99.6 177 
 RUS  HN ES       1233 55.26                             143    0.5110 99.6 177 
 RUS  HZ I        1233 56.32         2.3 0.30            145           99.6 177 
 PTB  HZ EP       1233 40.61                             131    0.54 9  149 259 
 PTB  HE ES       1234  0.83                             131   -0.05 9  149 259 
 PTB  HZ I        1234  7.11         4.3 0.15            131            149 259 
 SPBC HZ EP       1233 41.39                             128   -0.15 9  163 219 
 SPBC HE ES       1234  3.44                             128   -0.06 9  163 219 
 SPBC HZ I        1234  9.49         7.5 0.16            129            163 219 
 ZAR  HZ EP   4   1233 47.65                             121    1.97 0  205 292 
 ZAR  HN ES       1234 10.63                             121   -0.23 8  205 292 
 ZAR  HZ I        1234 15.25         4.2 0.20            122            205 292 
 CHI  HZ EP       1233 50.46                             116   -0.31 8  248 195 
 CHI  HN ES       1234 19.55                             116   -0.39 8  248 195 
 CHI  HZ I        1234 23.08         3.5 0.49            118            248 195 
 GUY2CHZ EP       1233 57.53                             111    0.70 7  302 235 
 GUY2CHN ES   4   1234 32.67                             111    1.96 0  302 235 
 GUY2CHZ I        1234 39.44         2.3 0.36                           302 235 
                                                                                
