 2016  8 9 1430 36.3 L   6.883 -73.146131.4  RSN  4 0.4 1.6LRSN                1
 GAP=247        1.05       9.9     7.8  9.7  0.5015E+02  0.3034E+01 -0.3261E+02E
 Epicentro: LOS SANTOS - SANTANDER                                             3
 ACTION:UPD 16-10-29 15:34 OP:rebc STATUS:               ID:20160809143036 L   I
 OLDACT:REG 16-08-09 21:03 OP:lv   STATUS:               ID:20160809142759     3
 2016-08-09-1427-59S.COL___334                                                 6
 STAT SP IPHASW D HRMM SECON CODA AMPLIT PERI AZIMU VELO AIN AR TRES W  DIS CAZ7
 BAR2 EZ EP       1430 54.93                             165    0.4610 32.4 187 
 BAR2 EZ ES       1431  8.47                             165   -0.1510 32.4 187 
 BAR2 EZ I        1431 10.99        15.1 0.12                          32.4 187 
 RUS  HZ EP       1430 59.29                             138   -0.1310  110 176 
 RUS  HE ES       1431 17.33                             138   -0.1010  110 176 
 RUS  HZ I        1431 19.37         3.6 0.34                           110 176 
 PTB  HZ EP       1431  1.70                             128   -0.64 9  150 255 
 PTB  HE ES       1431 23.20                             128    0.56 9  150 255 
 PTB  HZ I        1431 25.05         5.5 0.14                           150 255 
 ZAR  HZ EP       1431  8.01                             119    0.50 9  201 290 
 ZAR  HN ES       1431 31.33                             119   -0.51 9  201 290 
 ZAR  HZ I        1431 35.97         3.9 0.12                           201 290 
                                                                                
