 2013  3 9 1917 58.9 L   6.759 -73.141139.2  RSN 10 0.4 2.7LRSN                1
 GAP= 96        0.84       3.7     3.0  5.1  0.2223E+01  0.3432E+01  0.5527E+01E
 Epicentro: LOS SANTOS - SANTANDER                                             3
 ACTION:UPD 13-04-09 14:01 OP:ep   STATUS:               ID:20130309191758 L   I
 2013-03-09-1910-00M.COL___231                                                 6
 STAT SP IPHASW D HRMM SECON CODA AMPLIT PERI AZIMU VELO AIN AR TRES W  DIS CAZ7
 BAR2 SZ IP       1918 17.66                             172   -0.0310 19.1 194 
 BAR2 SZ ES       1918 32.10                             172   -0.2210 19.1 194 
 BAR2 SZ I        1918 33.42       155.5 0.19            157           19.1 194 
 BRR  HZ IP     C 1918 19.72                             150    0.1810 73.9 301 
 BRR  HN ES       1918 36.16                             150    0.5510 73.9 301 
 BRR  HN I        1918 36.81       208.8 0.24            136           73.9 301 
 PAM  SZ EP     C 1918 20.56                             149   -0.0910 80.5  37 
 PAM  SZ I        1918 20.92        94.8 0.25            147           80.5  37 
 PAM  SN ES       1918 37.33                             149   -0.2610 80.5  37 
 RUS  HZ EP       1918 21.61                             144   -0.1010 96.1 176 
 RUS  HN ES   1   1918 39.43                             144   -0.05 7 96.1 176 
 RUS  HN I        1918 41.67        95.6 0.15            129           96.1 176 
 PTB  HZ EP       1918 24.50                             130   -0.85 9  148 261 
 PTB  HZ I        1918 48.72        36.4 0.20            116            148 261 
 TAM  HZ IP     C 1918 26.02                             129    0.08 9  153 103 
 TAM  HE ES       1918 47.29                             129    0.28 9  153 103 
 ZAR  HZ EP   1   1918 30.82                             121   -0.37 6  206 293 
 ZAR  HE ES       1918 56.44                             121    0.08 8  206 293 
 ZAR  HZ I        1919  3.77        29.6 0.24            110            206 293 
 CHI  HZ EP       1918 36.17                             116    0.35 8  244 196 
 CHI  HN ES   1   1919  4.47                             116   -0.12 6  244 196 
 HEL  HZ EP   1   1918 39.66                             113    0.90 6  272 257 
 PRA  HZ EP   1   1918 52.00                             106    0.19 4  388 210 
 PRA  HZ I        1919 39.52         7.3 0.33            100            388 210 
                                                                                
