 2011 10 9 1326 27.4 L   6.795 -73.072140.0  RSN  5 0.4 1.9LRSN                1
 GAP=190        0.84       5.3     8.6  9.3  0.2050E+02 -0.1245E+02 -0.1648E+02E
 Epicentro: LOS SANTOS - SANTANDER                                             3
 ACTION:UPD 12-07-13 16:02 OP:ep   STATUS:               ID:20111009132627 L   I
 2011-10-09-1324-04S.COL___168                                                 6
 STAT SP IPHASW D HRMM SECON CODA AMPLIT PERI AZIMU VELO AIN AR TRES W  DIS CAZ7
 BAR2 SZ EP   1   1326 46.51                             169    0.16 7 25.6 209 
 BAR2 SZ ES   1   1327  0.35                             169   -0.81 7 25.6 209 
 BAR2 SZ I        1327  2.68        18.5 0.27                          25.6 209 
 BRR  HZ EP   1   1326 48.54                             149    0.19 7 78.7 296 
 BRR  HN ES   1   1327  5.30                             149    0.59 7 78.7 296 
 BRR  HZ I        1327  9.76        17.0 0.16                          78.7 296 
 RUS  HZ EP   1   1326 50.63                             143    0.13 7 99.8 181 
 RUS  HN ES   1   1327  8.77                             143    0.23 7 99.8 181 
 RUS  HZ I        1327  9.90         7.7 0.23                          99.8 181 
 OCA  SZ EP   1   1326 54.90                             128   -0.50 7  162 350 
 OCA  SZ ES   1   1327 17.53                             128    0.27 7  162 350 
 OCA  SZ I        1327 21.36        13.6 0.17                           162 350 
 ZAR  HN ES   1   1327 25.48                             120   -0.44 6  212 291 
                                                                                
