 2013  6 9 1312  0.3 L   6.807 -73.142153.8  RSN  4 0.6 1.4LRSN                1
 GAP=216        1.42       9.8    13.1 12.9 -0.3707E+01  0.3708E+02 -0.3876E+02E
 Epicentro: LOS SANTOS - SANTANDER                                             3
 ACTION:UPD 14-01-08 09:53 OP:ep   STATUS:               ID:20130609131200 L   I
 OLDACT:REG 13-06-09 14:10 OP:nd   STATUS:               ID:20130609130959     3
 2013-06-09-1309-59M.COL___261                                                 6
 STAT SP IPHASW D HRMM SECON CODA AMPLIT PERI AZIMU VELO AIN AR TRES W  DIS CAZ7
 BAR2 SZ EP   2   1312 21.21                             171    0.30 5 24.1 191 
 BAR2 SZ ES       1312 36.28                             171   -0.7110 24.1 191 
 BAR2 SZ I        1312 38.79         4.8 0.28            167           24.1 191 
 BRR  HZ EP       1312 23.06                             154    0.7410 71.2 298 
 BRR  HN ES       1312 40.34                             154    0.8410 71.2 298 
 BRR  HZ I        1312 41.42         3.6 0.32            151           71.2 298 
 PTB  HZ EP       1312 27.99                             134    0.01 9  148 259 
 PTB  HN ES       1312 49.03                             134   -0.54 9  148 259 
 PTB  HZ I        1312 54.94         3.9 0.24            132            148 259 
 SML  HZ EP   2   1312 36.55                             119   -0.78 4  243 335 
 SML  HN ES       1313  5.63                             119   -0.59 8  243 335 
                                                                                
