 2017  5 9 1044 49.9 L   6.802 -73.159156.0  RSN 10 0.4 1.7LRSN                1
 GAP=110        1.04       3.8     4.0  6.1  0.3879E+01  0.1269E+01  0.3409E+01E
 Epicentro: LOS SANTOS - SANTANDER                                             3
 ACTION:UPD 17-06-16 13:34 OP:jn   STATUS:               ID:20170509104449 L   I
 OLDACT:UP  17-05-09 21:33 OP:edw  STATUS:               ID:20170509103746d    3
 OLDACT:UP  17-05-09 21:32 OP:edw  STATUS:               ID:20170509103746d    3
 OLDACT:DUP 17-05-09 21:08 OP:osc  STATUS:               ID:20170509103746d    3
 2017-05-09-1038-00M.COL___356                                                 6
 STAT SP IPHASW D HRMM SECON CODA AMPLIT PERI AZIMU VELO AIN AR TRES W  DIS CAZ7
 BRR  HZ EP       1045 11.70                             154   -0.3410 69.8 299 
 BRR  HE ES       1045 30.02                             154    0.6810 69.8 299 
 BRR  HZ I        1045 33.83        13.4 0.26            155           69.8 299 
 PAM  EZ EP     D 1045 13.61                             152    0.4010 78.1  40 
 PAM  EN ES       1045 31.07                             152   -0.3510 78.1  40 
 PAM  EZ I        1045 33.30         5.8 0.48            156           78.1  40 
 RUS  HZ EP     D 1045 14.57                             146   -0.0810  101 175 
 RUS  HE ES       1045 33.69                             146   -0.2910  101 175 
 RUS  HZ I        1045 34.71         4.9 0.22            147            101 175 
 PTB  HZ EP       1045 17.63                             134    0.08 9  146 259 
 PTB  HN ES       1045 38.70                             134   -0.45 9  146 259 
 PTB  HZ I        1045 40.06         5.7 0.30            135            146 259 
 SPBC HZ EP       1045 19.67                             131    0.58 9  162 219 
 SPBC HN ES       1045 41.59                             131   -0.30 9  162 219 
 SPBC HZ I        1045 45.16        10.5 0.22            132            162 219 
 YPLC HZ EP     D 1045 20.87                             128    0.37 9  178 151 
 YPLC HN ES       1045 44.31                             128   -0.09 9  178 151 
 YPLC HZ I        1045 49.10         5.3 0.28            131            178 151 
 ZAR  HZ EP       1045 22.80                             125   -0.04 9  203 292 
 ZAR  HN ES       1045 48.58                             125    0.01 9  203 292 
 ZAR  HZ I        1045 54.77         6.7 0.24            126            203 292 
 TABC EZ EP   4   1045 28.13                             121    1.96 0  229 210 
 NOR  HN ES   4   1045 53.45                             121   -0.89 0  234 234 
 CHI  HZ EP       1045 28.90                             119    0.78 8  248 195 
 CHI  HE ES   4   1045 59.45                             119    1.48 0  248 195 
 CHI  HZ I        1046  3.62         3.1 0.36            121            248 195 
 PTGC HZ EP       1045 33.58                             113   -0.69 7  309 158 
 PTGC HE ES   4   1046  6.41                             113   -2.50 0  309 158 
 ORTC HE ES   4   1046 29.58                             108    3.24 0  395 216 
 SJC  HZ EP       1045 44.74                             107   -0.91 6  408 327 
 SJC  HN ES   4   1046 25.63                             107   -3.54 0  408 327 
                                                                                
