 2014  3 9 1259 51.4 L   6.820 -73.179140.8  RSN 13 0.5 2.1LRSN                1
 GAP=116        1.22       3.3     4.5  6.6 -0.5141E+01  0.8774E+01 -0.3185E-01E
 Epicentro: LOS SANTOS - SANTANDER                                             3
 2014-03-09-1258-20M.COL___226                                                 6
 OLDACT:REG 14-03-09 18:13 OP:stll STATUS:               ID:20140309125820     3
 ACTION:UPD 14-04-09 23:15 OP:nd   STATUS:               ID:20140309125951 L   I
 OLDACT:UP  14-03-09 20:55 OP:stll STATUS:               ID:20140309125820     3
 STAT SP IPHASW D HRMM SECON CODA AMPLIT PERI AZIMU VELO AIN AR TRES W  DIS CAZ7
 BAR2 SZ EP       13 0 10.91                             169    0.3910 25.2 181 
 BAR2 SZ ES       13 0 25.37                             169   -0.0210 25.2 181 
 BAR2 SZ I        13 0 27.38        78.5 0.20            169           25.2 181 
 PAM  SZ IP     D 13 0 13.71                             149    0.5310 78.2  43 
 PAM  SN ES       13 0 30.71                             149    0.5710 78.2  43 
 RUS  HZ IP     C 13 0 14.78                             142   -0.1210  103 174 
 RUS  HN ES       13 0 32.93                             142   -0.2610  103 174 
 RUS  HZ I        13 0 34.92        13.0 0.36            142            103 174 
 PTB  HZ EP       13 0 17.56                             132   -0.16 9  145 258 
 PTB  HN ES       13 0 37.29                             132   -0.92 9  145 258 
 PTB  HZ I        13 0 40.53        11.3 0.26            131            145 258 
 OCA  HN ES       13 0 40.86                             129    0.14 9  158 354 
 SPBC HZ EP       13 0 19.86                             128    0.35 9  163 217 
 SPBC HN ES       13 0 41.54                             128    0.14 9  163 217 
 SPBC HZ I        13 0 44.57        19.2 0.24            128            163 217 
 NOR  HZ EP       13 0 26.98                             118    0.27 8  233 233 
 NOR  HN ES       13 0 54.32                             118    0.11 8  233 233 
 NOR  HZ I        13 0 58.36         9.8 0.16            118            233 233 
 SML  HZ EP       13 0 27.31                             117   -0.10 8  240 336 
 SML  HN ES       13 0 54.77                             117   -0.69 8  240 336 
 SML  HZ I        13 1  0.16        15.5 0.10            118            240 336 
 CHI  HZ EP       13 0 28.86                             116   -0.14 8  250 194 
 CHI  HN ES       13 0 57.52                             116   -0.78 8  250 194 
 CHI  HZ I        13 1  3.97         4.1 0.34            116            250 194 
 HEL  HN ES       13 1  2.15                             114    0.18 8  269 255 
 GUY2CHZ EP       13 0 35.84                             111    1.21 7  299 234 
 GUY2CHN ES       13 1  8.61                             111    0.30 7  299 234 
 GUY2CHZ I        13 1 16.75         5.2 0.26                           299 234 
 SOCV BZ EP       13 0 33.08                             111   -1.41 7  303  58 
 ORTC HZ EP       13 0 45.76                             105    0.61 6  395 216 
 ORTC HN ES       13 1 26.38                             105   -0.66 6  395 216 
 ORTC HZ I        13 1 33.28         4.4 0.48            106            395 216 
                                                                                
