 2014 12 9 1509 25.2 L   6.811 -73.145148.1  RSN  7 0.4 1.9LRSN                1
 GAP=136        1.14       4.1     5.5  7.1 -0.2841E+01  0.8110E+01 -0.3737E+01E
 Epicentro: LOS SANTOS - SANTANDER                                             3
 ACTION:UPD 15-02-10 17:02 OP:nd   STATUS:               ID:20141209150925 L   I
 OLDACT:ARG 14-12-09 20:21 OP:stll STATUS:               ID:20141209150744     3
 2014-12-09-1507-44M.COL___309                                                 6
 STAT SP IPHASW D HRMM SECON CODA AMPLIT PERI AZIMU VELO AIN AR TRES W  DIS CAZ7
 BAR2 SZ EP       15 9 45.48                             170    0.3010 24.6 190 
 BAR2 SZ ES       1510  0.70                             170   -0.0310 24.6 190 
 BAR2 SZ I        1510  1.78        12.0 0.28            169           24.6 190 
 BRR  HZ EP       15 9 47.40                             153    0.7910 70.7 298 
 BRR  HN ES       1510  3.75                             153    0.4610 70.7 298 
 PAM  SZ EP       15 9 48.10                             151    0.4510 76.4  40 
 PAM  SN ES       1510  4.80                             151   -0.3210 76.4  40 
 PAM  SZ I        1510  7.59        23.9 0.58            154           76.4  40 
 RUS  HZ EP       15 9 49.38                             144    0.0710  102 176 
 RUS  HZ I        15 9 49.95         6.1 0.22            146            102 176 
 RUS  HE ES       1510  7.32                             144   -0.7710  102 176 
 PTB  HZ EP       15 9 52.02                             132   -0.41 9  148 258 
 PTB  HN ES       1510 13.38                             132   -0.25 9  148 258 
 PTB  HZ I        1510 16.92         8.8 0.12            131            148 258 
 SPBC HZ EP       15 9 54.14                             129    0.13 9  164 219 
 SPBC HN ES       1510 16.70                             129    0.24 9  164 219 
 SPBC HZ I        1510 27.12         6.5 0.30            129            164 219 
 SML  HZ EP       1510  1.27                             118   -0.61 8  243 335 
 SML  HN ES       1510 29.97                             118   -0.49 8  243 335 
 SML  HZ I        1510 40.36        11.6 0.10            118            243 335 
                                                                                
