 2010  9 9 1851 37.9 L   6.813 -73.058147.2  RSN  8 0.4 2.0LRSN                1
 GAP=168        0.74       4.8    10.8  9.8 -0.1686E+02 -0.1055E+02  0.4446E+01E
 Epicentro: LOS SANTOS - SANTANDER                                             3
 ACTION:UP  11-02-18 11:01 OP:tino STATUS:               ID:20100909185137 L   I
 2010-09-09-1848-53S.COL___120                                                 6
 STAT SP IPHASW D HRMM SECON CODA AMPLIT PERI AZIMU VELO SNR AR TRES W  DIS CAZ7
 BAR2 SZ EP   1   1851 57.76                             169    -0.1 7   28 210 
 BAR2 SZ ES   3   1852 13.51                             169     0.2 2   28 210 
 GIR2 SZ EP   2   1851 57.73                             167    -0.1 5   33 333 
 BRR  HZ EP   1   1851 59.48                             150    -0.2 7   79 294 
 BRR  HZ I        1851 59.72        25.1 0.14                            79 294 
 BRR  HN ES   2   1852 16.66                             150     0.0 5   79 294 
 RUS  HZ EP   1   1852  1.96                             144     0.1 7  102 182 
 RUS  HE ES   2   1852 20.65                             144     0.1 5  102 182 
 RUS  HZ I        1852 22.09         8.3 0.35                           102 182 
 GUE  SZ EP   1   1852  1.62                             141    -0.9 7  113   7 
 GRA  SZ EP   1   1852  3.40                             138     0.5 7  122  13 
 GRA  SZ ES   2   1852 22.92                             138     0.4 5  122  13 
 GRA  SZ I        1852 24.17        11.9 0.32                           122  13 
 OCA  SZ EP   2   1852  7.07                             130     0.7 5  160 350 
 OCA  SZ ES   3   1852 28.54                             130     0.0 2  160 350 
 OCA  SZ I        1852 31.98        13.9 0.82                           160 350 
 PRA  HZ EP   1   1852 32.39                             106     0.2 4  398 211 
 PRA  HN ES   2   1853 14.89                             106     0.4 3  398 211 
 PRA  HZ I        1853 18.93         3.1 0.54                           398 211 
                                                                                
