 2015  1 9 1920 40.6 L   6.836 -73.126138.7  RSN 12 0.5 2.5LRSN                1
 GAP=137        1.17       3.1     4.7  7.4 -0.2597E+01  0.6029E+01  0.2888E+01E
 Epicentro: LOS SANTOS - SANTANDER                                             3
 ACTION:UPD 15-03-02 15:38 OP:nd   STATUS:               ID:20150109192040 L   I
 OLDACT:REG 15-01-09 22:23 OP:mh   STATUS:               ID:20150109191749     3
 2015-01-09-1917-49M.COL___268                                                 6
 STAT SP IPHASW D HRMM SECON CODA AMPLIT PERI AZIMU VELO AIN AR TRES W  DIS CAZ7
 BAR2 EZ EP       1920 58.85                             168   -0.6310 27.7 193 
 BAR2 EZ I        1921 25.58        25.5 0.44            168           27.7 193 
 BRR  HZ EP       1921  0.77                             151   -0.2310 71.3 295 
 BRR  HN ES       1921 17.46                             151    0.5610 71.3 295 
 BRR  HZ I        1921 21.73        41.3 0.14            154           71.3 295 
 PAM  SZ EP       1921  2.29                             151    0.4910 72.9  40 
 PAM  SN ES   1   1921 18.84                             151    0.51 7 72.9  40 
 PAM  SZ I        1921 20.49        25.3 0.18            153           72.9  40 
 RUS  HZ EP       1921  3.63                             141   -0.3310  104 177 
 RUS  HN ES       1921 21.96                             141   -0.2110  104 177 
 RUS  HZ I        1921 23.81        35.4 0.16            142            104 177 
 PTB  HZ EP   1   1921  6.13                             130   -1.15 7  151 258 
 PTB  HE ES       1921 28.10                             130    0.02 9  151 258 
 PTB  HZ I        1921 31.63        30.1 0.12            132            151 258 
 OCA  HZ EP       1921  7.83                             129   -0.19 9  157 352 
 OCA  HN ES       1921 29.47                             129    0.07 9  157 352 
 OCA  HZ I        1921 34.48        41.2 0.71            131            157 352 
 SPBC HZ EP   1   1921  8.58                             127   -0.43 7  168 219 
 SPBC HN ES       1921 30.64                             127   -0.52 9  168 219 
 SPBC HZ I        1921 37.54        51.4 0.18            128            168 219 
 ZAR  HZ EP       1921 13.16                             121    0.50 9  205 291 
 ZAR  HN ES       1921 37.42                             121   -0.23 9  205 291 
 ZAR  HZ I        1921 42.74        50.1 0.52            123            205 291 
 NOR  HZ EP       1921 16.01                             116   -0.37 8  239 234 
 NOR  HN ES       1921 44.10                             116   -0.18 8  239 234 
 NOR  HZ I        1921 50.38        28.7 0.51            118            239 234 
 SML  HZ EP   4   1921 14.64                             116   -1.91 0  241 334 
 SML  HN ES       1921 44.31                             116   -0.27 8  241 334 
 SML  HZ I        1921 48.29        45.2 0.10            118            241 334 
 ROSC BZ EP       1921 19.76                             115    0.91 8  257 211 
 ROSC BN ES       1921 49.51                             115    0.83 8  257 211 
 ROSC BZ I        1921 56.08        37.0 0.60            116            257 211 
 TOL  SZ EP       1921 29.74                             108    0.65 6  348 224 
 TOL  SN ES       1922  7.71                             108    0.80 6  348 224 
                                                                                
