 2011  5 9 1908 30.6 L   6.779 -73.135140.8  RSN  9 0.2 2.0LRSN                1
 GAP=139        0.52       3.2     4.2  4.5 -0.7341E+01 -0.4677E+00  0.1015E+01E
 Epicentro: LOS SANTOS - SANTANDER                                             3
 ACTION:UP  11-06-29 08:51 OP:tino STATUS:               ID:20110509190830 L   I
 2011-05-09-1906-27S.COL___133                                                 6
 STAT SP IPHASW D HRMM SECON CODA AMPLIT PERI AZIMU VELO SNR AR TRES W  DIS CAZ7
 BTL  SZ EP   1   19 8 49.69                             171     0.1 7   21 316 
 BTL  SZ ES   2   19 9  4.31                             171    -0.1 5   21 316 
 BAR2 SZ ES   1   19 9  4.01                             171    -0.4 7   21 194 
 BAR2 SZ I        19 9  5.59        31.4 0.26                            21 194 
 BRR  HZ EP   1   19 8 51.34                             151     0.0 7   73 300 
 BRR  HE ES   1   19 9  7.87                             151     0.3 7   73 300 
 BRR  HZ I        19 9 10.78        32.9 0.18                            73 300 
 PAM  SZ EP   1   19 8 52.25                             149    -0.1 7   78  38 
 PAM  SE ES   2   19 9  9.34                             149     0.0 5   78  38 
 RUS  HZ EP   1   19 8 53.91                             143     0.2 7   98 177 
 RUS  HE ES   2   19 9 12.16                             143     0.4 5   98 177 
 RUS  HZ I        19 9 13.03         8.3 0.32                            98 177 
 BRI  SZ EP   1   19 8 54.20                             140     0.0 7  110  20 
 BRI  SZ ES   2   19 9 12.65                             140     0.1 5  110  20 
 BRI  SZ I        19 9 17.98        11.2 0.28                           110  20 
 GRA  SZ EP   1   19 8 55.40                             135    -0.2 7  128  17 
 GRA  SZ ES   1   19 9 15.06                             135     0.0 7  128  17 
 GRA  SZ I        19 9 16.06        11.7 0.42                           128  17 
 NOR  SN ES   1   19 9 33.24                             117    -0.4 6  234 235 
 RREF HN ES   2   19 9 52.63                             110     0.4 3  321 230 
 RREF HZ I        19 9 59.39         3.9 0.34                           321 230 
                                                                                
