 2010  3 9 1220 59.5 L   6.856 -73.056141.6  RSN 13 0.5 2.8LRSN                1
 GAP=132        0.98       3.4     5.8  5.8 -0.4690E+01  0.1132E+01  0.3475E+01E
 Epicentro: LOS SANTOS - SANTANDER                                             3
 ACTION:UP  10-08-24 09:52 OP:vdl  STATUS:               ID:20100309122059 L   I
 2010-03-09-1216-45S.COL___101                                                 6
 STAT SP IPHASW D HRMM SECON CODA AMPLIT PERI AZIMU VELO SNR AR TRES W  DIS CAZ7
 BAR2 SZ IP       1221 18.84                             167     0.010   32 206 
 BAR2 SZ ES   1   1221 33.54                             167    -0.4 7   32 206 
 BRR  HZ IP       1221 20.62                             149     0.010   78 291 
 BRR  HN ES       1221 37.39                             149     0.310   78 291 
 BRR  HZ I        1221 41.76       168.5 0.16                            78 291 
 RUS  BZ EP       1221 22.95                             141    -0.310  107 182 
 RUS  BN ES   1   1221 41.34                             141    -0.5 7  107 182 
 OCA  SZ EP       1221 27.41                             129     0.3 9  156 349 
 OCA  SZ ES   1   1221 48.64                             129     0.1 7  156 349 
 OCA  SZ I        1221 52.09       136.3 0.40                           156 349 
 CHI  HZ EP       1221 37.49                             115    -0.4 8  257 197 
 CHI  HN ES       1222  8.81                             115     0.9 8  257 197 
 ROSC BN ES   1   1222  9.42                             115     0.4 6  263 212 
 ROSC BZ I        1222 14.96        23.3 0.56                           263 212 
 HEL  HZ EP   1   1221 40.50                             113    -0.3 6  283 255 
 HEL  HN ES   2   1222 11.71                             113    -1.2 4  283 255 
 HEL  HZ I        1222 17.21        31.7 0.09                           283 255 
 RREF BZ EP   1   1221 47.07                             109     0.3 5  333 230 
 RREF BN ES   1   1222 24.30                             109     0.6 5  333 230 
 RREF BZ I        1222 27.89        21.1 0.30                           333 230 
 SDV  BZ EP       1221 48.60                             108     0.6 6  349  50 
 SDV  BZ I        1221 49.34        24.5 0.15                           349  50 
 DBB  SZ EP       1221 47.25                             108    -0.7 6  349 273 
 TOL  SZ EP       1221 49.23                             108     0.3 6  355 225 
 TOL  SZ ES   2   1222 28.02                             108     0.6 3  355 225 
 ANIL BZ EP   1   1221 49.65                             107    -0.8 5  369 225 
 ANIL BN ES   1   1222 30.02                             107    -0.2 5  369 225 
 ANIL BZ I        1222 37.14        28.4 0.31                           369 225 
 PRA  HZ EP       1221 53.83                             105    -0.3 6  402 210 
 PRA  HN ES   1   1222 36.49                             105    -0.2 4  402 210 
 PRA  HZ I        1222 40.01        17.9 0.41                           402 210 
                                                                                
