 2016  9 9 1751 14.3 L   6.790 -73.147145.7  RSN 10 0.4 2.0LRSN                1
 GAP=137        0.92       3.4     3.6  5.3 -0.1513E+01  0.4761E+01  0.4787E+01E
 Epicentro: LOS SANTOS - SANTANDER                                             3
 ACTION:UPD 17-08-17 21:08 OP:lp   STATUS:               ID:20160909175114 L   I
 OLDACT:REG 16-09-09 20:23 OP:lv   STATUS:               ID:20160909174731     3
 2016-09-09-1748-00M.COL___351                                                 6
 STAT SP IPHASW D HRMM SECON CODA AMPLIT PERI AZIMU VELO AIN AR TRES W  DIS CAZ7
 BAR2 EZ EP       1751 33.75                             171   -0.1510 22.2 190 
 BAR2 EZ ES       1751 48.97                             171   -0.2210 22.2 190 
 BAR2 EZ I        1751 51.56        30.4 0.18            170           22.2 190 
 BRR  HZ EP       1751 35.80                             152    0.3310 71.6 299 
 BRR  HN ES       1751 52.73                             152    0.7510 71.6 299 
 BRR  HZ I        1751 56.62        18.9 0.22            152           71.6 299 
 PAM  EZ EP       1751 36.68                             150    0.1110 78.3  39 
 PAM  EE ES       1751 53.64                             150   -0.3010 78.3  39 
 PAM  EZ I        1751 56.99        10.8 0.27            155           78.3  39 
 RUS  HZ EP       1751 37.74                             144   -0.2210 99.5 176 
 RUS  HN ES       1751 56.62                             144    0.2010 99.5 176 
 RUS  HZ I        1751 57.65        12.8 0.32            146           99.5 176 
 PTB  HZ EP       1751 40.69                             132   -0.54 9  147 259 
 PTB  HN ES       1752  1.54                             132   -0.70 9  147 259 
 PTB  HZ I        1752  6.72         8.6 0.14            133            147 259 
 SPBC HZ EP       1751 42.82                             129    0.12 9  162 219 
 SPBC HN ES       1752  4.63                             129   -0.23 9  162 219 
 SPBC HZ I        1752  9.63        15.6 0.16            131            162 219 
 ZAR  HZ EP   4   1751 49.25                             122    2.48 0  204 292 
 ZAR  HN ES       1752 12.19                             122    0.09 9  204 292 
 ZAR  HZ I        1752 17.08         7.8 0.22            124            204 292 
 NOR  HZ EP       1751 49.93                             119   -0.01 8  234 235 
 NOR  HN ES       1752 18.37                             119    0.62 8  234 235 
 NOR  HZ I        1752 23.31         9.6 0.16            120            234 235 
 CHI  HZ EP       1751 52.15                             117    0.28 8  247 195 
 CHI  HN ES       1752 21.48                             117    0.30 8  247 195 
 CHI  HZ I        1752 27.43         4.7 0.32            120            247 195 
 GUY2CHZ EP       1751 57.96                             112    0.14 7  300 235 
 GUY2CHN ES       1752 31.32                             112   -0.44 7  300 235 
 GUY2CHZ I        1752 39.94         5.2 0.38                           300 235 
                                                                                
