 2013  3 9 1956 57.2 L   6.802 -73.130157.4  RSN  5 0.2 1.7LRSN                1
 GAP=138        0.58       3.2     3.9  5.0  0.1093E+01  0.1239E+01 -0.1217E+00E
 Epicentro: LOS SANTOS - SANTANDER                                             3
 ACTION:UPD 13-04-09 14:01 OP:ep   STATUS:               ID:20130309195657 L   I
 2013-03-09-1950-00M.COL___231                                                 6
 STAT SP IPHASW D HRMM SECON CODA AMPLIT PERI AZIMU VELO AIN AR TRES W  DIS CAZ7
 BRR  HZ EP       1957 19.97                             154    0.3110 72.6 298 
 BRR  HN ES       1957 37.50                             154    0.2910 72.6 298 
 BRR  HN I        1957 38.02        13.0 0.30            153           72.6 298 
 PAM  SZ EP   1   1957 20.66                             153    0.10 7 76.2  39 
 PAM  SN ES   1   1957 38.42                             153   -0.40 7 76.2  39 
 PAM  SZ I        1957 40.28         5.3 0.63            156           76.2  39 
 RUS  HZ EP       1957 22.05                             146   -0.0310  101 177 
 RUS  HE ES   1   1957 41.52                             146    0.00 7  101 177 
 PTB  HZ EP       1957 25.09                             134   -0.17 9  149 259 
 PTB  HE ES   1   1957 46.78                             134   -0.39 7  149 259 
 PTB  HE I        1957 51.88         8.4 0.33            134            149 259 
 SML  HZ EP   1   1957 34.66                             120    0.13 6  244 335 
 SML  HN ES   1   1958  3.37                             120   -0.31 6  244 335 
                                                                                
