 2012  7 9 1322 31.2 L   6.691 -73.227147.4  RSN  5 0.2 1.7LRSN                1
 GAP=205        0.67       6.4     5.7  6.1  0.2125E+02  0.4465E+01 -0.5304E+01E
 Epicentro: BARICHARA - SANTANDER                                              3
 ACTION:UPD 12-08-14 11:43 OP:ep   STATUS:               ID:20120709132231 L   I
 2012-07-09-1320-00M.COL___201                                                 6
 STAT SP IPHASW D HRMM SECON CODA AMPLIT PERI AZIMU VELO AIN AR TRES W  DIS CAZ7
 BAR2 SZ EP       1322 50.47                             175    -0.410   12 156 
 BAR2 SZ ES   1   1323  6.13                             175    -0.1 7   12 156 
 BAR2 SZ I        1323  9.00         9.1 0.14                            12 156 
 BRR  HZ EP       1322 52.65                             153     0.110   71 311 
 BRR  HE ES   1   1323  9.35                             153     0.2 7   71 311 
 BRR  HZ I        1323 13.49        16.5 0.20                            71 311 
 RUS  HZ EP   1   1322 54.69                             147     0.3 7   90 170 
 RUS  HN ES   1   1323 12.71                             147     0.2 7   90 170 
 RUS  HZ I        1323 15.50         4.0 0.15                            90 170 
 PTB  HZ EP   1   1322 57.47                             135     0.1 7  137 263 
 PTB  HN ES   1   1323 17.42                             135    -0.4 7  137 263 
 PTB  HZ I        1323 24.66         5.6 0.32                           137 263 
 ZAR  HZ EP       1323  3.45                             123     0.0 9  201 296 
 ZAR  HE ES   1   1323 28.77                             123     0.2 6  201 296 
 ZAR  HZ I        1323 35.23         7.7 0.39                           201 296 
