 2011  9 9 1351 37.6 L   6.772 -73.121147.5  RSN  7 0.3 2.1LRSN                1
 GAP=141        0.63       3.6     4.3  5.1  0.4030E+01  0.1457E+01 -0.4085E+01E
 Epicentro: LOS SANTOS - SANTANDER                                             3
 ACTION:UPD 12-07-13 15:56 OP:ep   STATUS:               ID:20110909135137 L   I
 2011-09-09-1349-16S.COL___170                                                 6
 STAT SP IPHASW D HRMM SECON CODA AMPLIT PERI AZIMU VELO AIN AR TRES W  DIS CAZ7
 BAR2 SZ EP       1351 57.43                             172    0.0810 21.0 199 
 BAR2 SZ ES   1   1352 12.97                             172    0.18 7 21.0 199 
 BAR2 SZ I        1352 14.02        30.9 0.13                          21.0 199 
 GIR2 SZ EP   1   1351 57.61                             166    0.07 7 34.9 347 
 BRR  HZ EP       1351 59.27                             152    0.1510 75.1 300 
 BRR  HZ I        1351 59.58        45.6 0.19                          75.1 300 
 BRR  HN ES       1352 16.19                             152    0.2610 75.1 300 
 PAM  SZ EP   1   1352  0.22                             151    0.22 7 78.1  37 
 PAM  SN ES   1   1352 17.30                             151   -0.21 7 78.1  37 
 RUS  HZ EP   1   1352  1.60                             145    0.35 7 97.3 178 
 RUS  HN ES       1352 19.34                             145   -0.3910 97.3 178 
 RUS  HZ I        1352 21.40        14.2 0.47                          97.3 178 
 OCA  SZ EP   1   1352  5.84                             129   -0.49 7  164 352 
 OCA  SZ I        1352 33.43        12.1 0.17                           164 352 
 ZAR  HZ EP   1   1352 10.47                             122   -0.03 6  208 293 
 ZAR  HN ES   1   1352 35.70                             122   -0.50 6  208 293 
 ZAR  HZ I        1352 42.41        11.0 0.21                           208 293 
                                                                                
