 2012  7 9 1417 35.7 L   6.784 -73.149141.8  RSN  8 0.4 2.4LRSN                1
 GAP=137        0.97       4.4     5.0  6.3  0.9497E+00  0.4962E+01  0.8681E+00E
 Epicentro: LOS SANTOS - SANTANDER                                             3
 ACTION:UPD 12-08-14 11:43 OP:ep   STATUS:               ID:20120709141735 L   I
 2012-07-09-1410-00M.COL___201                                                 6
 STAT SP IPHASW D HRMM SECON CODA AMPLIT PERI AZIMU VELO AIN AR TRES W  DIS CAZ7
 BAR2 SZ EP       1417 55.00                             171     0.210   22 190 
 BAR2 SZ I        1417 55.33        59.6 0.08                            22 190 
 BAR2 SZ ES       1418  9.39                             171    -0.310   22 190 
 BRR  HZ IP     C 1417 56.80                             152     0.410   72 300 
 BRR  HE ES       1418 13.28                             152     0.710   72 300 
 BRR  HZ I        1418 14.49        78.7 0.08                            72 300 
 PAM  SZ EP       1417 57.83                             149     0.310   79  39 
 PAM  SN ES   1   1418 14.12                             149    -0.5 7   79  39 
 RUS  HZ EP       1417 58.89                             143     0.010   99 176 
 RUS  HZ I        1418  0.23        20.2 0.18                            99 176 
 RUS  HE ES   1   1418 16.93                             143    -0.1 7   99 176 
 PTB  HZ EP       1418  1.84                             131    -0.4 9  147 259 
 PTB  HE ES   1   1418 22.66                             131    -0.3 7  147 259 
 PTB  HZ I        1418 28.19        17.5 0.38                           147 259 
 OCA  HZ EP   1   1418  3.54                             128    -0.3 7  162 353 
 OCA  HN ES   1   1418 25.71                             128    -0.1 7  162 353 
 OCA  HZ I        1418 29.48        61.6 0.21                           162 353 
 ZAR  HZ EP   1   1418  7.58                             121    -0.3 6  204 293 
 ZAR  HN ES   1   1418 32.64                             121    -0.4 6  204 293 
 ZAR  HZ I        1418 38.69        32.5 0.41                           204 293 
 PRA  HZ EP       1418 29.24                             106     0.4 6  390 210 
