 2013  5 9 1318 44.0 L   6.779 -73.104152.0  RSN  7 0.5 2.2LRSN                1
 GAP=143        0.99       4.8     6.2  7.4 -0.3243E+01  0.1192E+02  0.3593E+01E
 Epicentro: LOS SANTOS - SANTANDER                                             3
 ACTION:UPD 13-06-20 09:49 OP:ep   STATUS:               ID:20130509131844 L   I
 2013-05-09-1317-48M.COL___227                                                 6
 STAT SP IPHASW D HRMM SECON CODA AMPLIT PERI AZIMU VELO AIN AR TRES W  DIS CAZ7
 BAR2 SZ EP       1319  4.35                             171   -0.0210 22.4 203 
 BAR2 SZ ES   1   1319 19.65                             171   -0.60 7 22.4 203 
 BAR2 SZ I        1319 22.25        29.8 0.39            157           22.4 203 
 BRR  HZ EP       1319  6.14                             152    0.0210 76.4 298 
 PAM  SZ EP       1319  7.16                             152    0.3310 76.4  36 
 PAM  SZ I        1319  7.42        38.5 0.42            151           76.4  36 
 PAM  SN ES       1319 24.56                             152   -0.0810 76.4  36 
 BRR  HN ES       1319 23.71                             152    0.3410 76.4 298 
 BRR  HZ I        1319 27.52        19.6 0.26            135           76.4 298 
 RUS  HZ EP       1319  8.14                             146   -0.0610 98.0 179 
 RUS  HE ES   1   1319 27.34                             146    0.27 7 98.0 179 
 RUS  HZ I        1319 28.15        13.9 0.30            135           98.0 179 
 NOR  HZ EP   1   1319 19.22                             119   -1.14 6  237 236 
 NOR  HN ES   1   1319 48.55                             119   -0.17 6  237 236 
 NOR  HZ I        1319 55.57        16.4 0.16            109            237 236 
 SML  HZ EP   2   1319 20.68                             118   -0.75 4  248 335 
 SML  HN ES   1   1319 50.11                             118   -0.50 6  248 335 
 SML  HZ I        1319 55.75        25.0 0.28            109            248 335 
 HEL  HZ EP   1   1319 26.34                             116    1.37 6  276 257 
 HEL  HZ I        1320  2.68         5.9 0.32            106            276 257 
                                                                                
