 2012  3 9 1308 32.4 L   6.809 -73.157146.0  RSN  9 0.3 2.2LRSN                1
 GAP=135        0.94       4.8     4.1  5.8 -0.2992E+01  0.6841E+01  0.5075E+01E
 ACTION:UP  12-03-31 23:18 OP:EP   STATUS:               ID:20120309130832 L   I
 2012-03-09-1300-00M.COL___193                                                 6
 STAT SP IPHASW D HRMM SECON CODA AMPLIT PERI AZIMU VELO SNR AR TRES W  DIS CAZ7
 BAR2 SZ EP       13 8 52.11                             170     0.010   24 187 
 BAR2 SZ I        13 8 52.67        26.9 0.23                            24 187 
 BAR2 SZ ES       13 9  7.44                             170     0.010   24 187 
 BRR  HZ EP       13 8 53.85                             153     0.410   70 298 
 BRR  HN ES       13 9 10.55                             153     0.610   70 298 
 BRR  HZ I        13 9 14.16        40.7 0.20                            70 298 
 PAM  SZ EP       13 8 54.86                             151     0.210   77  41 
 PAM  SN ES       13 9 11.45                             151    -0.510   77  41 
 RUS  HZ EP       13 8 56.14                             144    -0.110  102 175 
 RUS  HZ I        13 8 57.38        15.5 0.15                           102 175 
 RUS  HE ES   1   13 9 15.25                             144     0.4 7  102 175 
 PTB  HZ EP       13 8 58.77                             132    -0.5 9  147 258 
 PTB  HN ES       13 9 19.83                             132    -0.4 9  147 258 
 ZAR  HZ EP   1   13 9  4.84                             123     0.1 6  202 292 
 ZAR  HN ES   1   13 9 29.70                             123    -0.2 6  202 292 
 ZAR  HZ I        13 9 36.57        23.5 0.34                           202 292 
 NOR  SZ EP       13 9  7.87                             119    -0.2 8  234 234 
 NOR  SN ES       13 9 35.95                             119     0.0 8  234 234 
 HEL  HZ EP       13 9 12.90                             115     0.4 8  271 256 
 PRA  HZ EP   1   13 9 26.26                             107     0.3 4  392 209 
                                                                                
