 2015 10 9 1709  5.8 L   6.800 -73.138143.4  RSN 10 0.4 1.7LRSN                1
 GAP=137        0.77       2.7     3.5  5.3 -0.6544E+00  0.5487E+01  0.2169E+01E
 Epicentro: LOS SANTOS - SANTANDER                                             3
 ACTION:UPD 15-12-22 20:38 OP:cam  STATUS:               ID:20151009170905 L   I
 OLDACT:REG 15-10-09 21:32 OP:spq  STATUS:               ID:20151009170750     3
 2015-10-09-1707-50M.COL___343                                                 6
 STAT SP IPHASW D HRMM SECON CODA AMPLIT PERI AZIMU VELO AIN AR TRES W  DIS CAZ7
 BAR2 EZ EP     C 17 9 24.94                             170   -0.2010 23.5 192 
 BAR2 EZ ES   1   17 9 39.79                             170   -0.44 7 23.5 192 
 BAR2 EZ I        17 9 42.06         8.2 0.16            169           23.5 192 
 BRR  HZ EP       17 9 26.81                             152    0.0910 71.9 298 
 BRR  HN ES       17 9 43.58                             152    0.5310 71.9 298 
 BRR  HZ I        17 9 48.01         8.3 0.31            151           71.9 298 
 PAM  EZ EP       17 9 27.86                             151    0.1410 76.8  39 
 PAM  EN ES       17 9 44.76                             151   -0.0610 76.8  39 
 PAM  EZ I        17 9 47.22        12.1 0.56            155           76.8  39 
 RUS  HZ EP       17 9 29.11                             143   -0.2010  101 177 
 RUS  HN ES       17 9 47.78                             143    0.1310  101 177 
 RUS  HZ I        17 9 49.34         4.8 0.82            146            101 177 
 SPBC HN ES   1   17 9 56.00                             128   -0.29 7  164 219 
 SPBC HZ I        1710  1.66         9.0 0.23            130            164 219 
 ZAR  HN ES       1710  3.49                             122    0.08 9  205 292 
 ZAR  HZ I        1710  8.66         7.9 0.34            123            205 292 
 NOR  HZ EP       17 9 41.68                             118    0.22 8  235 235 
 NOR  HE ES       1710  8.69                             118   -0.59 8  235 235 
 NOR  HZ I        1710 12.99         5.5 0.30            119            235 235 
 SML  HZ EP   2   17 9 41.76                             117   -0.56 4  244 335 
 SML  HE ES   1   1710 10.22                             117   -0.59 6  244 335 
 SML  HZ I        1710 13.49         6.4 0.06            119            244 335 
 CHI  HZ EP   1   17 9 44.34                             117    0.95 6  249 195 
 CHI  HN ES   1   1710 12.76                             117    0.05 6  249 195 
 CHI  HZ I        1710 16.84         2.1 0.35            119            249 195 
 GUY2CHE ES   1   1710 23.64                             112    0.28 5  302 235 
 GUY2CHZ I        1710 31.31         2.5 0.32                           302 235 
                                                                                
