 2015 11 9 1245 38.1 L   6.517 -73.448121.6  RSN  4 0.3 1.7LRSN                1
 GAP=142        0.88       4.1     5.9  7.7  0.2055E+01  0.2169E+02  0.2154E+01E
 Epicentro: SIMACOTA - SANTANDER                                               3
 ACTION:UPD 15-12-28 16:09 OP:cam  STATUS:               ID:20151109123748 L   I
 OLDACT:UPD 15-11-19 06:50 OP:CARA STATUS:               ID:20151109123748 L   3
 2015-11-09-1237-48M.COL___316                                                 6
 STAT SP IPHASW D HRMM SECON CODA AMPLIT PERI AZIMU VELO AIN AR TRES W  DIS CAZ7
 BAR2 EZ EP       1245 55.41                             165    0.4210 30.6  74 
 BAR2 EZ ES       1246  8.08                             165   -0.1210 30.6  74 
 BAR2 EZ I        1246  9.82        16.3 0.22            173           30.6  74 
 BRR  HZ EP       1245 56.55                             147   -0.1210 71.5 336 
 BRR  HN ES       1246 11.09                             147   -0.1010 71.5 336 
 BRR  HZ I        1246 11.67        13.6 0.10            150           71.5 336 
 SPBC HZ EP       1246  0.70                             133    0.2410  118 216 
 SPBC HN ES       1246 17.75                             133   -0.1810  118 216 
 SPBC HZ I        1246 23.79         7.9 0.10            132            118 216 
 ZAR  HZ EP       1246  6.79                             118   -0.68 9  189 305 
 ZAR  HE ES       1246 30.92                             118    0.50 9  189 305 
 ZAR  HZ I        1246 34.22         5.0 0.28            121            189 305 
                                                                                
