 2011  8 9 1025 13.5 L   6.796 -73.106143.3  RSN  5 0.3 2.0LRSN                1
 GAP=205        0.63       3.4     9.8  5.8 -0.5635E+01  0.1076E+02  0.3000E+01E
 Epicentro: LOS SANTOS - SANTANDER                                             3
 ACTION:UPD 12-07-25 14:07 OP:epov STATUS:               ID:20110809102513 L   I
 2011-08-09-1020-19S.COL___150                                                 6
 STAT SP IPHASW D HRMM SECON CODA AMPLIT PERI AZIMU VELO AIN AR TRES W  DIS CAZ7
 BAR2 SZ EP       1025 32.90                             170    0.0310 24.0 200 
 BAR2 SZ ES   1   1025 48.12                             170    0.16 7 24.0 200 
 BAR2 SZ I        1025 49.31        15.8 0.38                          24.0 200 
 BRR  HZ EP       1025 34.92                             151    0.2810 75.3 297 
 BRR  HZ I        1025 35.12        27.5 0.14                          75.3 297 
 BRR  HE ES   2   1025 51.05                             151   -0.06 5 75.3 297 
 OCA  SZ EP       1025 41.86                             129    0.12 9  161 352 
 OCA  SZ ES   1   1026  3.03                             129   -0.72 7  161 352 
 OCA  SZ I        1026  9.88         8.9 0.43                           161 352 
 NOR  SZ EP       1025 49.52                             118    0.06 8  238 235 
 CHI  HZ EP       1025 51.04                             116   -0.12 8  249 196 
 CHI  HE ES   2   1026 19.73                             116   -0.78 4  249 196 
                                                                                
