 2016 10 9 1055 50.7 L   6.854 -73.148146.6  RSN 25 0.5 2.7LRSN                1
 GAP= 64        1.05       2.5     2.7  4.8 -0.7993E+00  0.4165E+01  0.4756E+00E
 Epicentro: LOS SANTOS - SANTANDER                                             3
 ACTION:UPD 16-11-09 19:17 OP:rebc STATUS:               ID:20161009105550 L   I
 OLDACT:REG 16-10-09 20:12 OP:lv   STATUS:               ID:20161009104746     3
 2016-10-09-1048-00M.COL___360                                                 6
 STAT SP IPHASW D HRMM SECON CODA AMPLIT PERI AZIMU VELO AIN AR TRES W  DIS CAZ7
 BAR2 EZ IP     C 1056 10.67                             168    0.1210 29.2 187 
 BAR2 EZ ES       1056 25.75                             168   -0.2910 29.2 187 
 BAR2 EZ I        1056 28.07        92.2 0.23            167           29.2 187 
 PAM  EZ EP       1056 13.40                             152    0.6610 73.1  43 
 PAM  EN ES       1056 30.58                             152    0.6410 73.1  43 
 PAM  EZ I        1056 32.20        65.4 0.37            157           73.1  43 
 RUS  HZ EP       1056 14.75                             142   -0.2110  107 176 
 RUS  HE ES       1056 33.73                             142   -0.1510  107 176 
 RUS  HZ I        1056 35.34        73.7 0.32            143            107 176 
 PTB  HZ EP       1056 17.25                             132   -0.57 9  149 257 
 PTB  HN ES       1056 38.48                             132   -0.49 9  149 257 
 PTB  HZ I        1056 41.82        69.3 0.12            131            149 257 
 OCA  HZ EP       1056 18.63                             131    0.12 9  154 353 
 OCA  HN ES       1056 40.07                             131   -0.14 9  154 353 
 OCA  HZ I        1056 45.82       138.2 0.20            133            154 353 
 TAM  HZ IP     D 1056 18.99                             130    0.38 9  157 107 
 TAM  HN ES       1056 39.69                             130   -0.69 9  157 107 
 TAM  HZ I        1056 42.09        24.2 0.56            134            157 107 
 SPBC HZ EP       1056 19.66                             128   -0.02 9  168 218 
 SPBC HN ES       1056 42.58                             128    0.29 9  168 218 
 SPBC HZ I        1056 48.16        86.2 0.21            128            168 218 
 ZAR  HZ EP       1056 23.20                             123    0.26 9  202 291 
 ZAR  HN ES       1056 48.16                             123    0.06 9  202 291 
 ZAR  HZ I        1056 54.34        61.2 0.22            123            202 291 
 NOR  HZ EP       1056 27.15                             118    0.33 8  238 233 
 NOR  HN ES       1056 55.65                             118    0.65 8  238 233 
 NOR  HZ I        1056 59.82        45.2 0.22            119            238 233 
 CHI  HZ EP       1056 29.11                             117    0.06 8  254 195 
 CHI  HN ES       1056 58.70                             117   -0.27 8  254 195 
 CHI  HZ I        1057  1.83        30.1 0.40            117            254 195 
 ROSC BZ EP   9   1056 30.73                             116    1.33 0  258 210 
 ROSC BN ES       1057  0.91                                   -0.01 8  258 210 
 ROSC BZ I        1057  8.40        42.4 0.33            117            258 210 
 HEL  HZ EP       1056 31.79                             115    0.70 8  273 255 
 HEL  HN ES       1057  2.33                             115   -0.26 8  273 255 
 HEL  HZ I        1057  9.73        31.2 0.26            115            273 255 
 URE  HZ EP       1056 30.69                             114   -0.84 7  281 291 
 URE  HN ES       1057  3.27                             114   -0.12 7  281 291 
 URE  HZ I        1057  4.81        27.4 0.14            115            281 291 
 GUY2CHZ EP   9   1056 36.26                             112    1.55 0  304 234 
 GUY2CHE ES       1057 11.10                                    0.51 7  304 234 
 GUY2CHZ I        1057 18.99        31.5 0.56                           304 234 
 VIL  EZ EP       1056 34.66                             112   -0.14 7  309 191 
 VIL  EN ES       1057  8.80                             112   -0.40 7  309 191 
 VIL  EZ I        1057 17.39        30.8 0.70            113            309 191 
 PTGC HZ EP   9   1056 33.95                             111   -1.27 0  314 159 
 PTGC HN ES       1057  7.56                                   -1.13 7  314 159 
 PTGC HZ I        1057  9.68        16.5 0.27            113            314 159 
 ELA  HZ EP   4   1056 40.97                             110    2.97 0  333 229 
 ELA  HN ES       1057 15.93                             110    1.03 7  333 229 
 ELA  HZ I        1057 24.34        15.2 0.30            111            333 229 
 CBOC HZ EP       1056 38.29                             110    0.46 7  335 251 
 CBOC HN ES       1057 13.94                             110   -0.65 7  335 251 
 CBOC HZ I        1057 26.55         8.8 0.43            110            335 251 
 ANIL HZ EP   9   1056 42.18                             108    1.18 0  361 224 
 ANIL HE ES       1057 22.32                                    0.90 6  361 224 
 ANIL HZ I        1057 27.75        58.6 0.32            109            361 224 
 PRA  HZ EP       1056 44.35                             106   -0.48 6  397 209 
 PRA  HN ES       1057 27.19                             106    0.13 6  397 209 
 PRA  HZ I        1057 33.64        23.8 0.27            107            397 209 
 SJC  HZ EP       1056 44.72                             106   -0.96 6  404 327 
 SJC  HN ES   4   1057 25.65                             106   -2.92 0  404 327 
 SJC  HZ I        1057 29.24         7.9 0.30            107            404 327 
 PAL  HZ EP       1056 46.77                             106    0.56 6  409 238 
 PAL  HN ES       1057 29.15                             106   -0.37 6  409 238 
 PAL  HZ I        1057 33.14         7.9 0.35            107            409 238 
 CRJC HZ EP   4   1056 50.80                             104   -1.71 0  462   4 
 CRJC HE ES   4   1057 37.37                             104   -3.36 0  462   4 
 CRJC HZ I        1057 44.46        13.4 0.16            105            462   4 
 YOT  HZ EP       1056 54.20                             103   -0.00 5  476 228 
 YOT  HN ES   4   1057 45.86                             103    2.12 0  476 228 
 URI  HZ EP   9   1057  1.02                             101   -2.00 0  551  13 
 URI  HN ES       1057 56.87                                   -0.57 4  551  13 
                                                                                
