 2014  2 9 1001 11.2 L   6.830 -73.142139.5  RSN  9 0.4 1.7LRSN                1
 GAP=184        0.84       2.5     4.2  5.4  0.1543E+00  0.5639E+01 -0.2916E+01E
 Epicentro: LOS SANTOS - SANTANDER                                             3
 ACTION:UPD 14-03-10 08:09 OP:ep   STATUS:               ID:20140209100111 L   I
 OLDACT:REG 14-02-09 15:58 OP:nd   STATUS:               ID:20140209100000     3
 2014-02-09-1000-00M.COL___291                                                 6
 STAT SP IPHASW D HRMM SECON CODA AMPLIT PERI AZIMU VELO AIN AR TRES W  DIS CAZ7
 BAR2 SZ EP       10 1 30.36                             169    0.2410 26.7 190 
 BAR2 SZ ES       10 1 44.73                             169   -0.1710 26.7 190 
 BAR2 SZ I        10 1 47.07        12.3 0.42            166           26.7 190 
 RUS  HZ EP       10 1 34.41                             142   -0.1410  104 176 
 RUS  HN ES       10 1 53.25                             142    0.4610  104 176 
 RUS  HZ I        10 1 54.44         2.1 0.28            145            104 176 
 PTB  HZ EP       10 1 37.33                             130   -0.39 9  149 258 
 PTB  HN ES       10 1 58.09                             130   -0.35 9  149 258 
 PTB  HZ I        10 2  5.74         4.3 0.42            129            149 258 
 OCA  HZ EP       10 1 38.96                             129    0.28 9  157 353 
 OCA  HN ES       10 1 59.84                             129   -0.31 9  157 353 
 OCA  HZ I        10 2  5.20         7.9 0.32            131            157 353 
 SPBC HZ EP       10 1 39.30                             127   -0.16 9  166 218 
 SPBC HN ES       10 2  1.28                             127   -0.25 9  166 218 
 SPBC HZ I        10 2  6.63         7.7 0.26            128            166 218 
 ZAR  HZ EP       10 1 42.82                             121   -0.29 9  203 291 
 ZAR  HN ES       10 2  9.02                             121    0.98 9  203 291 
 ZAR  HZ I        10 2 14.86         4.1 0.36            121            203 291 
 SML  HZ EP       10 1 47.39                             116    0.26 8  241 335 
 SML  HN ES       10 2 15.01                             116   -0.18 8  241 335 
 SML  HZ I        10 2 19.05         6.7 0.10            118            241 335 
 HEL  HZ EP       10 1 51.04                             113   -0.16 8  273 255 
 HEL  HN ES   2   10 2 22.77                             113    0.35 4  273 255 
 HEL  HZ I        10 2 30.36         2.2 0.50            114            273 255 
 PRA  HZ EP       10 2  5.17                             105    0.34 6  395 209 
 PRA  HN ES   2   10 2 46.69                             105   -0.01 3  395 209 
 PRA  HZ I        10 2 52.85         1.8 0.32            107            395 209 
                                                                                
