 2013  3 9 1850 21.5 L   6.746 -73.114146.0  RSN  5 0.4 1.8LRSN                1
 GAP=143        0.95       6.1     6.1  7.8 -0.8589E+01  0.7770E+01 -0.9951E+00E
 Epicentro: JORDAN - SANTANDER                                                 3
 ACTION:UPD 13-04-09 14:01 OP:ep   STATUS:               ID:20130309185021 L   I
 2013-03-09-1850-00M.COL___231                                                 6
 STAT SP IPHASW D HRMM SECON CODA AMPLIT PERI AZIMU VELO AIN AR TRES W  DIS CAZ7
 BAR2 SZ EP       1850 41.29                             172    0.2310 18.6 204 
 BAR2 SZ ES       1850 55.91                             172   -0.4210 18.6 204 
 BAR2 SZ I        1850 59.29        10.0 0.23            169           18.6 204 
 BRR  HZ IP     C 1850 43.24                             150    0.2310 77.1 301 
 BRR  HN ES   1   1851  0.67                             150    0.88 7 77.1 301 
 BRR  HN I        1851  1.97        26.7 0.19            151           77.1 301 
 PAM  SZ EP       1850 43.98                             150    0.0910 80.0  35 
 PAM  SE ES       1851  1.03                             150   -0.3310 80.0  35 
 PAM  SZ I        1851  3.54         6.8 0.48            156           80.0  35 
 RUS  HZ EP   1   1850 44.92                             145    0.09 7 94.5 178 
 RUS  HE ES   1   1851  3.40                             145    0.36 7 94.5 178 
 RUS  HE I        1851  6.91         6.4 0.17            147           94.5 178 
 PTB  HZ EP   1   1850 48.07                             131   -0.62 7  150 261 
 PTB  HN ES   1   1851  9.36                             131   -0.55 7  150 261 
 PTB  HZ I        1851 16.61         7.9 0.42            132            150 261 
                                                                                
