 2012  7 9 1204 41.1 L   6.657 -73.241145.4  RSN  4 0.2 1.6LRSN                1
 GAP=184        0.54       7.5     4.6  5.9  0.1195E+02  0.6412E+01  0.6177E+01E
 Epicentro: BARICHARA - SANTANDER                                              3
 ACTION:UPD 12-08-14 11:43 OP:ep   STATUS:               ID:20120709120441 L   I
 2012-07-09-1200-00M.COL___201                                                 6
 STAT SP IPHASW D HRMM SECON CODA AMPLIT PERI AZIMU VELO AIN AR TRES W  DIS CAZ7
 BAR2 SZ EP       12 5  0.30                             176    -0.210   10 138 
 BAR2 SZ ES   1   12 5 15.58                             176     0.0 7   10 138 
 BAR2 SZ I        12 5 16.99         7.5 0.29                            10 138 
 BRR  HZ EP       12 5  2.42                             152     0.210   72 314 
 BRR  HZ I        12 5  7.19        16.2 0.37                            72 314 
 BRR  HN ES   1   12 5 18.92                             152     0.2 7   72 314 
 PTB  HZ EP       12 5  7.04                             135     0.110  135 265 
 PTB  HN ES   1   12 5 27.06                             135     0.0 7  135 265 
 PTB  HZ I        12 5 34.45         3.2 0.38                           135 265 
 ZAR  HN ES   1   12 5 37.90                             123    -0.4 6  201 297 
 ZAR  HZ I        12 5 45.93         4.5 0.38                           201 297 
