 2013  4 9 1559  9.3 L   6.777 -73.128142.5  RSN  6 0.3 1.8LRSN                1
 GAP=189        0.73       5.1     5.1  5.4  0.1024E+02  0.7527E+01  0.5176E+01E
 Epicentro: LOS SANTOS - SANTANDER                                             3
 ACTION:UPD 13-05-22 14:37 OP:EP   STATUS:               ID:20130409155909 L   I
 2013-04-09-1557-48M.COL___221                                                 6
 STAT SP IPHASW D HRMM SECON CODA AMPLIT PERI AZIMU VELO AIN AR TRES W  DIS CAZ7
 BAR2 SZ EP       1559 28.48                             171    0.0310 21.3 196 
 BAR2 SZ ES       1559 43.49                             171    0.0810 21.3 196 
 BAR2 SZ I        1559 44.63        17.4 0.18            169           21.3 196 
 GIR2 SZ EP       1559 28.59                             166   -0.0310 34.2 348 
 GIR2 SZ ES       1559 43.24                             166   -0.4810 34.2 348 
 GIR2 SZ I        1559 45.08        14.9 0.44            164           34.2 348 
 BRR  HZ EP       1559 30.59                             151    0.3710 74.2 300 
 BRR  HE ES   1   1559 47.18                             151    0.61 7 74.2 300 
 RUS  HZ EP       1559 32.38                             144   -0.1110 97.9 177 
 RUS  HE ES   1   1559 50.88                             144    0.27 7 97.9 177 
 RUS  HZ I        1559 51.97         5.0 0.40            145           97.9 177 
 PTB  HZ EP       1559 35.84                             131   -0.25 9  149 260 
 PTB  HN ES   1   1559 56.65                             131   -0.37 7  149 260 
 PTB  HZ I        1559 58.45         7.3 0.24            129            149 260 
 ZAR  HN ES   1   16 0  7.22                             121    0.08 6  207 293 
 ZAR  HZ I        16 0 14.58         6.9 0.14            121            207 293 
                                                                                
