 2013  2 9 1844 15.8 L   6.805 -73.170145.7  RSN  8 0.4 1.6LRSN                1
 GAP=133        0.76       3.6     4.7  7.7 -0.2039E+01  0.5274E+01  0.3066E+01E
 Epicentro: LOS SANTOS - SANTANDER                                             3
 ACTION:UPD 13-03-12 09:31 OP:ep   STATUS:               ID:20130209184415 L   I
 2013-02-09-1840-00M.COL___240                                                 6
 STAT SP IPHASW D HRMM SECON CODA AMPLIT PERI AZIMU VELO AIN AR TRES W  DIS CAZ7
 BAR2 SZ EP   1   1844 35.53                             170    0.09 7 23.6 183 
 BAR2 SZ ES   1   1844 50.32                             170   -0.43 7 23.6 183 
 BAR2 SZ I        1844 51.41        13.1 0.36            171           23.6 183 
 BRR  HN ES   1   1844 54.02                             153    0.84 7 68.6 299 
 PAM  SZ EP   1   1844 38.44                             150    0.34 7 78.7  41 
 PAM  SE ES   1   1844 55.30                             150   -0.18 7 78.7  41 
 PAM  SZ I        1844 57.38         8.7 0.50            152           78.7  41 
 RUS  HZ EP   1   1844 39.55                             144   -0.06 7  101 175 
 RUS  HE ES   1   1844 58.03                             144   -0.15 7  101 175 
 RUS  HZ I        1844 59.47         3.5 0.74            145            101 175 
 PTB  HN ES   1   1845  3.27                             132   -0.13 7  145 258 
 PTB  HZ I        1845  5.59         3.9 0.10            134            145 258 
 NOR  HE ES   1   1845 18.68                             119   -0.37 6  233 234 
 SML  HE ES   1   1845 20.13                             118   -0.55 6  242 336 
 CHI  HN ES   1   1845 23.29                             117    0.40 6  249 195 
                                                                                
