 2015 10 9 1754 51.5 L   6.825 -73.147142.4  RSN  5 0.4 1.4LRSN                1
 GAP=135        0.75       4.1     5.0  7.7  0.4932E+01  0.8687E+01 -0.7407E+01E
 Epicentro: LOS SANTOS - SANTANDER                                             3
 ACTION:UPD 15-12-22 20:38 OP:cam  STATUS:               ID:20151009175451 L   I
 OLDACT:DUP 15-10-10 01:47 OP:spq  STATUS:               ID:20151009174750d    3
 2015-10-09-1747-49M.COL___340                                                 6
 STAT SP IPHASW D HRMM SECON CODA AMPLIT PERI AZIMU VELO AIN AR TRES W  DIS CAZ7
 BAR2 EZ ES   1   1755 25.65                             169   -0.20 7 26.0 189 
 BAR2 EZ I        1755 26.80         4.8 0.42            170           26.0 189 
 PAM  EZ EP     C 1755 13.55                             151    0.2910 75.4  41 
 PAM  EN ES   1   1755 30.45                             151    0.24 7 75.4  41 
 PAM  EZ I        1755 33.06         2.6 0.17            153           75.4  41 
 RUS  HZ EP       1755 14.96                             143   -0.1910  103 176 
 RUS  HE ES   1   1755 33.34                             143   -0.23 7  103 176 
 RUS  HZ I        1755 34.78         2.5 0.24            146            103 176 
 ZAR  HN ES       1755 49.09                             122    0.43 9  203 291 
 ZAR  HZ I        1755 54.67         3.4 0.34            123            203 291 
 SML  HZ EP   1   1755 27.67                             117   -0.01 6  241 335 
 SML  HN ES   1   1755 55.01                             117   -0.87 6  241 335 
 SML  HZ I        1755 57.59         5.3 0.24            118            241 335 
                                                                                
