 2016  3 9 1706 47.6 L   6.819 -73.163141.3  RSN 16 0.4 2.4LRSN                1
 GAP=110        0.87       3.1     2.4  4.5 -0.9012E+00  0.3920E+01  0.1614E+00E
 Epicentro: LOS SANTOS - SANTANDER                                             3
 ACTION:UPD 16-05-13 21:22 OP:cam  STATUS:               ID:20160309170647 L   I
 OLDACT:UP  16-03-14 10:33 OP:Ak   STATUS:               ID:20160309170647 L   3
 OLDACT:UP  16-03-10 01:31 OP:ar   STATUS:               ID:20160309165749     3
 OLDACT:REG 16-03-09 20:49 OP:ar   STATUS:               ID:20160309165749     3
 2016-03-09-1657-49M.COL___283                                                 6
 STAT SP IPHASW D HRMM SECON CODA AMPLIT PERI AZIMU VELO AIN AR TRES W  DIS CAZ7
 BAR2 EZ EP       17 7  6.66                             169   -0.0910 25.1 185 
 BAR2 EZ ES       17 7 21.77                             169    0.1010 25.1 185 
 BAR2 EZ I        17 7 22.86        58.7 0.24            167           25.1 185 
 PAM  EZ EP       17 7  9.60                             150    0.2610 77.1  42 
 PAM  EN ES       17 7 26.27                             150   -0.0110 77.1  42 
 PAM  EZ I        17 7 28.77        63.7 0.50            156           77.1  42 
 RUS  HZ EP       17 7 10.72                             142   -0.3710  103 175 
 RUS  HN ES       17 7 29.53                             142    0.1310  103 175 
 RUS  HZ I        17 7 30.39        34.6 0.28            143            103 175 
 PTB  HZ EP       17 7 14.19                             131    0.11 9  146 258 
 PTB  HN ES       17 7 34.55                             131   -0.18 9  146 258 
 PTB  HZ I        17 7 41.78        25.8 0.30            131            146 258 
 TAM  HZ EP     D 17 7 15.07                             129   -0.10 9  158 106 
 TAM  HN ES       17 7 36.87                             129    0.21 9  158 106 
 SPBC HZ EP       17 7 15.94                             128    0.13 9  164 218 
 SPBC HN ES       17 7 37.78                             128   -0.02 9  164 218 
 SPBC HZ I        17 7 44.00        43.2 0.40            128            164 218 
 ZAR  HZ EP       17 7 19.33                             122   -0.17 9  201 292 
 ZAR  HN ES       17 7 44.31                             122   -0.06 9  201 292 
 ZAR  HZ I        17 7 47.06        17.4 0.28            123            201 292 
 NOR  HZ EP       17 7 22.82                             118   -0.23 8  234 234 
 NOR  HN ES       17 7 49.99                             118   -0.69 8  234 234 
 NOR  HZ I        17 7 56.28        22.3 0.16            118            234 234 
 CHI  HZ EP       17 7 24.88                             116   -0.35 8  250 195 
 CHI  HN ES       17 7 54.28                             116   -0.29 8  250 195 
 CHI  HZ I        17 7 57.87        16.1 0.56            117            250 195 
 ROSC BZ EP   4   17 7 27.29                             116    1.71 0  254 210 
 ROSC BN ES   4   17 7 57.93                             116    2.74 0  254 210 
 ROSC BZ I        17 8  0.48        28.6 0.45            117            254 210 
 HEL  HZ EP       17 7 27.16                             114   -0.29 8  271 255 
 HEL  HN ES       17 7 59.06                             114    0.54 8  271 255 
 HEL  HZ I        17 8  4.22        12.2 0.34            115            271 255 
 URE  HZ EP       17 7 27.30                             113   -0.88 7  281 292 
 URE  HE ES   4   17 7 57.53                             113   -2.29 0  281 292 
 GUY2CHZ EP       17 7 31.57                             111    0.59 7  301 234 
 GUY2CHN ES   4   17 8  5.98                             111    1.18 0  301 234 
 GUY2CHZ I        17 8 12.92        13.2 0.34                           301 234 
 ELA  HZ EP   9   17 7 36.40                             109    2.13 0  329 229 
 ELA  HN ES       17 8 13.08                             109    0.29 7  329 229 
 ELA  HZ I        17 8 19.34         7.9 0.42            111            329 229 
 CBOC HZ EP       17 7 35.17                             109    0.96 7  332 252 
 CBOC HN ES       17 8 11.27                             109    0.72 7  332 252 
 CBOC HZ I        17 8 14.67         3.1 0.42            110            332 252 
 ANIL HZ EP       17 7 38.05                             108    0.79 6  357 224 
 ANIL HN ES   4   17 8 19.02                             108    3.03 0  357 224 
 ANIL HZ I        17 8 21.28        24.9 0.44            109            357 224 
                                                                                
