 2016  5 9 1005 22.4 L   6.781 -73.164144.0  RSN  6 0.5 1.3LRSN                1
 GAP=199        1.08       5.5     6.6  7.8  0.1725E+02 -0.8644E-01 -0.1328E+02E
 Epicentro: LOS SANTOS - SANTANDER                                             3
 ACTION:UPD 16-08-18 17:43 OP:cam  STATUS:               ID:20160509100522 L   I
 OLDACT:DUP 16-05-09 21:28 OP:ak   STATUS:               ID:20160509095949d    3
 OLDACT:REG 16-05-09 21:20 OP:ak   STATUS:               ID:20160509095947     3
 2016-05-09-0959-47M.COL___279                                                 6
 STAT SP IPHASW D HRMM SECON CODA AMPLIT PERI AZIMU VELO AIN AR TRES W  DIS CAZ7
 BAR2 EZ EP       10 5 42.09                             171    0.3110 21.0 186 
 BAR2 EZ ES       10 5 56.25                             171   -0.6410 21.0 186 
 BAR2 EZ I        10 5 57.73         4.7 0.24            174           21.0 186 
 BRR  HZ EP   2   10 5 44.10                             152    0.78 5 70.5 301 
 BRR  HN ES       10 6  0.41                             152    0.7710 70.5 301 
 BRR  HZ I        10 6  4.59         4.5 0.11            150           70.5 301 
 RUS  HZ EP       10 5 45.98                             144    0.1310 98.7 175 
 RUS  HE ES       10 6  4.19                             144    0.0610 98.7 175 
 RUS  HZ I        10 6  6.31         1.7 0.26            149           98.7 175 
 PTB  HZ EP       10 5 48.98                             132   -0.04 9  145 259 
 PTB  HN ES       10 6  9.18                             132   -0.59 9  145 259 
 PTB  HZ I        10 6 13.43         1.9 0.14            133            145 259 
 ZAR  HZ EP   2   10 5 55.01                             122    0.38 4  203 293 
 ZAR  HN ES       10 6 20.04                             122    0.28 9  203 293 
 ZAR  HZ I        10 6 26.22         1.6 0.11            123            203 293 
 SML  HZ EP       10 5 58.55                             117   -0.50 8  245 336 
 SML  HE ES       10 6 27.26                             117   -0.37 8  245 336 
 SML  HZ I        10 6 35.50         2.6 0.11            118            245 336 
                                                                                
