 2014  4 9 1136 19.9 L   6.688 -73.595 99.4  RSN  5 0.4 1.8LRSN                1
 GAP=160        1.01       6.1     5.8 14.6  0.1893E+02 -0.3070E+02 -0.6128E+02E
 Epicentro: EL CARMEN DE CHUCURI - SANTANDER                                   3
 ACTION:UPD 14-05-13 23:07 OP:nd   STATUS:               ID:20140409113619 L   I
 OLDACT:UP  14-04-09 22:28 OP:cam  STATUS:               ID:20140409112813     3
 OLDACT:REG 14-04-09 21:31 OP:cam  STATUS:               ID:20140409112813     3
 2014-04-09-1128-13M.COL___247                                                 6
 STAT SP IPHASW D HRMM SECON CODA AMPLIT PERI AZIMU VELO AIN AR TRES W  DIS CAZ7
 PTB  HZ EP     D 1136 38.12                             133   -0.3410 96.6 260 
 PTB  HN ES       1136 52.79                             133   -0.1410 96.6 260 
 PTB  HZ I        1136 54.45         9.7 0.32            138           96.6 260 
 RUS  HZ EP       1136 39.79                             131   -0.0510  105 147 
 RUS  HE ES       1136 55.51                             131    0.1310  105 147 
 RUS  HZ I        1136 56.76         9.5 0.22            137            105 147 
 SPBC HZ EP   2   1136 41.45                             125    0.04 5  126 205 
 ZAR  HZ EP       1136 46.39                             117    0.90 9  165 303 
 ZAR  HN ES   4   1137  7.94                             117    2.50 0  165 303 
 ZAR  HZ I        1137  9.03         6.6 0.36            120            165 303 
 SML  HZ EP       1136 53.23                             108   -0.71 8  240 347 
 SML  HE ES       1137 20.64                             108    0.16 8  240 347 
 SML  HZ I        1137 22.94        12.5 0.10            110            240 347 
                                                                                
