 2015  2 9 1359 36.2 L   6.821 -73.187142.6  RSN  4 0.3 1.5LRSN                1
 GAP=186        0.74       6.4     9.9  7.5 -0.5172E+02  0.3824E+02 -0.1817E+02E
 Epicentro: ZAPATOCA - SANTANDER                                               3
 ACTION:UPD 15-04-30 21:24 OP:nd   STATUS:               ID:20150209135936 L   I
 OLDACT:ARG 15-02-09 20:42 OP:stll STATUS:               ID:20150209135749     3
 2015-02-09-1357-49M.COL___283                                                 6
 STAT SP IPHASW D HRMM SECON CODA AMPLIT PERI AZIMU VELO AIN AR TRES W  DIS CAZ7
 BAR2 EZ EP       1359 55.26                             169   -0.2510 25.3 179 
 BAR2 EZ ES       14 0 10.13                             169   -0.4310 25.3 179 
 BAR2 EZ I        14 0 11.77         6.8 0.18            170           25.3 179 
 PAM  SZ EP       1359 58.12                             150   -0.0610 78.7  43 
 PAM  SZ I        1359 58.39         5.4 0.22            152           78.7  43 
 PAM  SN ES       14 0 15.69                             150    0.3810 78.7  43 
 RUS  HN ES       14 0 18.41                             142    0.1110  103 174 
 RUS  HZ I        14 0 18.61         4.7 0.38            144            103 174 
 SPBC HZ EP       14 0  4.31                             128   -0.07 9  162 217 
 SPBC HN ES       14 0 26.70                             128    0.36 9  162 217 
 SPBC HZ I        14 0 28.88         7.5 0.16            129            162 217 
                                                                                
