 2017 10 9 1507 34.5 L   6.780 -73.136138.4  RSN  4 0.1 1.4LRSN                1
 GAP=139        0.41       2.1     2.5  3.8  0.2218E+00  0.2602E+01 -0.6926E+00E
 Epicentro: LOS SANTOS - SANTANDER                                             3
 ACTION:UPD 17-11-07 19:30 OP:rebc STATUS:               ID:20171009150734 L   I
 OLDACT:UP  17-10-09 22:19 OP:lv   STATUS:               ID:20171009145740d    3
 OLDACT:DUP 17-10-09 22:16 OP:lv   STATUS:               ID:20171009145740d    3
 2017-10-09-1458-00M.COL___438                                                 6
 STAT SP IPHASW D HRMM SECON CODA AMPLIT PERI AZIMU VELO AIN AR TRES W  DIS CAZ7
 BAR2 EZ EP       15 7 53.06                             171   -0.1310 21.4 194 
 BAR2 EZ ES       15 8  7.76                             171   -0.0210 21.4 194 
 BAR2 EZ I        15 8  8.86         9.7 0.36            172           21.4 194 
 PAM  EZ EP       15 7 55.85                             149   -0.1410 78.5  38 
 PAM  EN ES       15 8 12.88                             149    0.1210 78.5  38 
 PAM  EZ I        15 8 15.13         5.6 0.49            150           78.5  38 
 RUS  HZ EP       15 7 57.56                             143    0.2110 98.3 177 
 RUS  HN ES       15 8 15.13                             143   -0.0610 98.3 177 
 RUS  HZ I        15 8 16.34         1.8 0.20            146           98.3 177 
 ZAR  HN ES       15 8 31.77                             120    0.03 8  206 293 
 ZAR  HZ I        15 8 36.13         3.8 0.32            121            206 293 
                                                                                
