 2012  3 9 1430 13.8 L   6.767 -73.157153.3  RSN  6 0.4 1.7LRSN                1
 GAP=137        0.87       5.6     5.1  6.7  0.5859E+01  0.4500E+01  0.2089E+01E
 ACTION:UP  12-03-31 23:18 OP:EP   STATUS:               ID:20120309143013 L   I
 2012-03-09-1430-00M.COL___193                                                 6
 STAT SP IPHASW D HRMM SECON CODA AMPLIT PERI AZIMU VELO SNR AR TRES W  DIS CAZ7
 BAR2 SZ EP       1430 34.25                             172    -0.110   20 188 
 BAR2 SZ ES       1430 50.42                             172     0.110   20 188 
 BAR2 SZ I        1430 52.34         7.0 0.15                            20 188 
 BRR  HZ EP       1430 36.20                             153     0.310   72 302 
 BRR  HN ES       1430 53.30                             153     0.310   72 302 
 BRR  HZ I        1430 56.01        13.2 0.11                            72 302 
 PAM  SZ EP   1   1430 37.09                             151     0.0 7   81  39 
 PAM  SE ES   1   1430 54.56                             151    -0.6 7   81  39 
 RUS  HZ EP       1430 38.22                             146     0.110   97 175 
 RUS  HZ I        1430 39.47         3.0 0.29                            97 175 
 RUS  HE ES   1   1430 57.01                             146     0.0 7   97 175 
 PTB  HZ EP   1   1430 41.18                             134    -0.1 7  146 260 
 PTB  HN ES   1   1431  1.86                             134    -0.8 7  146 260 
 ZAR  HZ EP   2   1430 46.09                             124    -0.7 4  204 293 
 ZAR  HN ES   1   1431 12.80                             124     0.3 6  204 293 
 ZAR  HZ I        1431 18.81         9.1 0.40                           204 293 
                                                                                
