 2016 12 9 1627 18.8 L   6.818 -73.117147.1  RSN 15 0.6 2.5LRSN                1
 GAP=139        1.28       4.3     5.6  6.9  0.2738E+00  0.1765E+02  0.7892E+01E
 Epicentro: LOS SANTOS - SANTANDER                                             3
 ACTION:UPD 17-01-11 20:13 OP:rebc STATUS:               ID:20161209162718 L   I
 OLDACT:UP  16-12-09 23:35 OP:ar   STATUS:               ID:20161209161646     3
 OLDACT:UP  16-12-09 23:34 OP:ar   STATUS:               ID:20161209161646     3
 OLDACT:REG 16-12-09 20:47 OP:ar   STATUS:               ID:20161209161646     3
 2016-12-09-1617-00M.COL___355                                                 6
 STAT SP IPHASW D HRMM SECON CODA AMPLIT PERI AZIMU VELO AIN AR TRES W  DIS CAZ7
 BAR2 EZ IP     D 1627 38.62                             169   -0.0710 26.0 196 
 BAR2 EZ ES       1627 53.77                             169   -0.3910 26.0 196 
 BAR2 EZ I        1627 55.19       122.4 0.18            165           26.0 196 
 BRR  HZ EP       1627 40.56                             152    0.3210 73.1 296 
 BRR  HN ES       1627 57.52                             152    0.5910 73.1 296 
 BRR  HZ I        1627 59.97        56.9 0.26            149           73.1 296 
 PAM  EZ EP       1627 41.53                             152    0.5410 73.8  39 
 PAM  EN ES       1627 58.29                             152    0.0310 73.8  39 
 PAM  EZ I        1628  0.81        48.4 0.46            158           73.8  39 
 RUS  HZ EP       1627 42.57                             144   -0.2910  102 178 
 RUS  HN ES       1628  1.56                             144   -0.0310  102 178 
 RUS  HZ I        1628  2.85        27.2 0.22            143            102 178 
 PTB  HZ EP       1627 45.37                             132   -0.87 9  151 258 
 PTB  HN ES   4   1628  6.38                             132   -1.22 0  151 258 
 PTB  HZ I        1628  8.34        31.1 0.40            130            151 258 
 ZAR  HZ EP       1627 51.14                             122   -0.46 8  206 291 
 ZAR  HE ES       1628 16.71                             122   -0.44 8  206 291 
 ZAR  HZ I        1628 21.83        43.3 0.24            122            206 291 
 CHI  HZ EP       1627 57.09                             117    0.17 8  251 196 
 CHI  HN ES       1628 26.15                             117   -0.47 8  251 196 
 CHI  HZ I        1628 29.73        20.2 0.46            117            251 196 
 ROSC BZ EP       1627 58.51                             117    1.11 8  256 211 
 ROSC BN ES       1628 26.62                             117   -0.86 8  256 211 
 ROSC BZ I        1628 32.95        51.4 0.40            117            256 211 
 URE  HZ EP       1627 59.24                             114   -0.99 7  286 291 
 URE  HN ES   4   1628 28.48                             114   -4.02 0  286 291 
 URE  HZ I        1628 36.96        16.2 0.12            114            286 291 
 GUY2CHZ EP       1628  3.72                             112    0.78 7  305 235 
 GUY2CHE ES   4   1628 41.58                             112    4.25 0  305 235 
 GUY2CHZ I        1628 44.80        19.2 0.30                           305 235 
 ELA  HZ EP   4   1628  8.23                             110    2.05 0  333 230 
 ELA  HN ES       1628 44.00                             110    0.90 7  333 230 
 ELA  HZ I        1628 55.16        12.6 0.42            110            333 230 
 CBOC HZ EP       1628  6.91                             110    0.68 7  337 252 
 CBOC HN ES       1628 43.74                             110    0.55 7  337 252 
 CBOC HZ I        1628 57.23         5.0 0.56            110            337 252 
 PRA  HZ EP       1628 12.39                             107   -0.41 6  395 210 
 PRA  HN ES   4   1628 53.45                             107   -1.43 0  395 210 
 PRA  HZ I        1628 58.96         9.9 0.68            107            395 210 
 ORTC HZ EP       1628 12.85                             106   -0.37 6  399 216 
 ORTC HN ES       1628 56.21                             106    0.58 6  399 216 
 ORTC HZ I        1629  5.40         7.8 0.58            107            399 216 
 SJC  HZ EP   4   1628 12.18                             106   -2.28 0  409 326 
 SJC  HN ES   4   1628 53.74                             106   -4.09 0  409 326 
 SJC  HZ I        1628 59.72         4.2 0.31            107            409 326 
                                                                                
