 2010  7 9 1821 13.5 L   6.769 -73.091141.6  RSN  7 0.3 1.7LRSN                1
 GAP=162        0.70       4.3     9.7  9.4 -0.4334E+00 -0.4985E+02 -0.6331E+01E
 Epicentro: LOS SANTOS - SANTANDER                                             3
 ACTION:UPD 10-12-01 15:16 OP:pat  STATUS:               ID:20100709182113 L   I
 2010-07-09-1816-43S.COL___120                                                 6
 STAT SP IPHASW D HRMM SECON CODA AMPLIT PERI AZIMU VELO AIN AR TRES W  DIS CAZ7
 BAR2 SZ EP       1821 32.41                             171    -0.210   22 208 
 BAR2 SZ ES   2   1821 47.02                             171    -0.5 5   22 208 
 BAR2 SZ I        1821 48.51        16.6 0.24                            22 208 
 BRR  HZ EP   1   1821 34.56                             149    -0.1 7   78 299 
 BRR  HN ES   1   1821 51.21                             149     0.1 7   78 299 
 RUS  HZ EP       1821 36.56                             144     0.010   97 180 
 RUS  HE ES   2   1821 55.18                             144     0.6 5   97 180 
 RUS  HZ I        1821 56.20         4.1 0.25                            97 180 
 BRI  SZ EP   1   1821 37.16                             140     0.1 7  110  17 
 BRI  SZ I        1821 57.63         7.8 0.39                           110  17 
 GUE  SZ EP   1   1821 38.69                             138     0.7 7  119   9 
 GRA  SZ EP       1821 38.26                             136    -0.310  127  14 
 GRA  SZ ES   2   1821 58.02                             136     0.0 5  127  14 
 GRA  SZ I        1822  0.94         9.5 0.19                           127  14 
 OCA  SZ EP   3   1821 41.33                             128    -0.6 2  165 351 
                                                                                
