 2017 11 9 1049 18.2 L   6.785 -73.146144.4  RSN  4 0.0 1.5LRSN                1
 GAP=137        0.29       2.3     3.5  3.3  0.4392E+01 -0.5492E+01 -0.3778E+01E
 Epicentro: LOS SANTOS - SANTANDER                                             3
 ACTION:UPD 17-12-12 19:53 OP:rebc STATUS:               ID:20171109104918 L   I
 OLDACT:UP  17-11-09 22:58 OP:mg   STATUS:               ID:20171109103739     3
 OLDACT:UP  17-11-09 22:57 OP:mg   STATUS:               ID:20171109103739     3
 OLDACT:UP  17-11-09 22:53 OP:mg   STATUS:               ID:20171109103739     3
 OLDACT:REG 17-11-09 20:02 OP:mg   STATUS:               ID:20171109103739     3
 2017-11-09-1038-00M.COL___437                                                 6
 STAT SP IPHASW D HRMM SECON CODA AMPLIT PERI AZIMU VELO AIN AR TRES W  DIS CAZ7
 BAR2 EZ EP   2   1049 37.66                             171    0.01 5 21.7 191 
 BAR2 EZ ES       1049 52.86                             171    0.0610 21.7 191 
 BAR2 EZ I        1049 54.79         4.7 0.08            172           21.7 191 
 BRR  HZ EP       1049 39.30                             152    0.0310 72.0 300 
 BRR  HN ES       1049 55.64                             152   -0.0410 72.0 300 
 BRR  HZ I        1049 57.89        10.7 0.36            153           72.0 300 
 PAM  EZ EP       1049 40.34                             150   -0.0310 78.7  39 
 RUS  HZ EP   2   1049 41.76                             144    0.04 5 98.9 176 
 RUS  HN ES       1050  0.00                             144   -0.0410 98.9 176 
 RUS  HZ I        1050  1.06         3.4 0.50            146           98.9 176 
                                                                                
