 2016  5 9 1002  8.8 L   6.849 -73.321125.2  RSN  8 0.5 1.5LRSN                1
 GAP=151        1.24       3.8     5.7  9.0  0.3384E+01  0.7880E+01 -0.6225E+01E
 Epicentro: ZAPATOCA - SANTANDER                                               3
 ACTION:UPD 16-08-18 17:43 OP:cam  STATUS:               ID:20160509100208 L   I
 OLDACT:REG 16-05-09 21:20 OP:ak   STATUS:               ID:20160509095947     3
 2016-05-09-0959-47M.COL___279                                                 6
 STAT SP IPHASW D HRMM SECON CODA AMPLIT PERI AZIMU VELO AIN AR TRES W  DIS CAZ7
 BAR2 EZ EP       10 2 26.63                             165    0.4310 32.3 152 
 BAR2 EZ ES       10 2 40.15                             165    0.3710 32.3 152 
 BAR2 EZ I        10 2 40.99        23.2 0.32            168           32.3 152 
 BRR  HZ EP       10 2 27.07                             156    0.4210 51.7 303 
 BRR  HN ES       10 2 40.63                             156    0.0610 51.7 303 
 BRR  HZ I        10 2 42.04         6.1 0.11            154           51.7 303 
 RUS  HZ EP       10 2 31.14                             137   -0.1310  109 166 
 RUS  HE ES       10 2 48.68                             137   -0.1210  109 166 
 RUS  HZ I        10 2 50.41         1.4 0.23            139            109 166 
 PTB  HZ EP       10 2 31.94                             131   -0.5410  130 255 
 PTB  HN ES       10 2 49.97                             131   -0.9910  130 255 
 PTB  HZ I        10 2 54.38         3.5 0.07            130            130 255 
 OCA  HZ EP   2   10 2 34.28                             126   -0.65 5  154   0 
 OCA  HE ES       10 2 54.47                             126   -0.85 9  154   0 
 SPBC HE ES       10 2 55.88                             125    0.25 9  156 212 
 ZAR  HZ EP   2   10 2 38.71                             120    0.87 4  184 293 
 ZAR  HN ES       10 3  1.13                             120    0.63 9  184 293 
 ZAR  HZ I        10 3  5.83         3.0 0.13            120            184 293 
 SML  HZ EP   2   10 2 42.70                             114   -0.25 4  231 339 
 SML  HN ES       10 3 10.18                             114    0.60 8  231 339 
 SML  HZ I        10 3 15.31         5.5 0.06            114            231 339 
                                                                                
