 2014  3 9 1814 10.2 L   6.672 -73.308128.0  RSN  4 0.6 1.3LRSN                1
 GAP=207        1.39       9.9    10.2 12.4  0.5252E+02  0.2793E+02  0.3024E+02E
 Epicentro: GALAN - SANTANDER                                                  3
 ACTION:UPD 14-04-09 23:15 OP:nd   STATUS:               ID:20140309181410 L   I
 OLDACT:REG 14-03-09 18:23 OP:stll STATUS:               ID:20140309180819     3
 2014-03-09-1808-19M.COL___229                                                 6
 STAT SP IPHASW D HRMM SECON CODA AMPLIT PERI AZIMU VELO AIN AR TRES W  DIS CAZ7
 BRR  HZ EP       1814 28.78                             152   -0.3210 65.7 317 
 BRR  HN ES       1814 44.47                             152    0.6110 65.7 317 
 RUS  HZ EP       1814 30.81                             144   -0.5910 89.7 164 
 RUS  HN ES       1814 48.28                             144    0.3310 89.7 164 
 RUS  HZ I        1814 51.56         2.5 0.38            143           89.7 164 
 PTB  HZ EP       1814 33.58                             132   -0.3110  128 263 
 PTB  HN ES       1814 51.93                             132   -0.4610  128 263 
 PTB  HZ I        1814 58.57         2.9 0.12            132            128 263 
 GUY2CHZ EP       1814 51.60                             111    1.20 7  278 235 
 GUY2CHZ I        1815 32.53         1.5 0.38                           278 235 
                                                                                
