 2013  3 9 1208 45.1 L   6.924 -73.225133.9  RSN  4 0.1 2.1LRSN                1
 GAP=121        0.39       4.6     2.7  3.8 -0.2111E+01  0.1346E+01  0.3500E+01E
 Epicentro: BETULIA - SANTANDER                                                3
 ACTION:UPD 13-04-09 14:01 OP:ep   STATUS:               ID:20130309120845 L   I
 2013-03-09-1200-00M.COL___231                                                 6
 STAT SP IPHASW D HRMM SECON CODA AMPLIT PERI AZIMU VELO AIN AR TRES W  DIS CAZ7
 BAR2 SZ IP       12 9  3.77                             164    0.1210 37.0 173 
 BAR2 SZ ES   1   12 9 17.98                             164   -0.16 7 37.0 173 
 BAR2 SZ I        12 9 19.65        71.3 0.24            167           37.0 173 
 BRR  HZ EP       12 9  3.97                             155   -0.2010 57.5 291 
 BRR  HN ES       12 9 19.11                             155    0.0310 57.5 291 
 BRR  HN I        12 9 22.51        36.8 0.14            155           57.5 291 
 PAM  SN ES   2   12 9 22.19                             150    0.18 5 74.1  52 
 PTB  HZ EP       12 9 10.66                             130    0.06 9  143 253 
 PTB  HN ES       12 9 30.56                             130    0.04 9  143 253 
 PTB  HZ I        12 9 32.13         7.4 0.12            132            143 253 
                                                                                
