 2015 10 9 1808 19.1 L   6.812 -73.107151.1  RSN  9 0.3 1.8LRSN                1
 GAP=141        0.70       2.4     3.3  4.7 -0.6338E+00  0.3251E+01  0.1014E+01E
 Epicentro: LOS SANTOS - SANTANDER                                             3
 ACTION:UPD 15-12-22 20:38 OP:cam  STATUS:               ID:20151009180819 L   I
 OLDACT:DUP 15-10-10 01:57 OP:spq  STATUS:               ID:20151009175751d    3
 2015-10-09-1757-50M.COL___340                                                 6
 STAT SP IPHASW D HRMM SECON CODA AMPLIT PERI AZIMU VELO AIN AR TRES W  DIS CAZ7
 BAR2 EZ EP       18 8 39.35                             170   -0.0710 25.7 199 
 BAR2 EZ ES   1   18 8 55.02                             170   -0.25 7 25.7 199 
 BAR2 EZ I        18 8 55.54        14.4 0.32            168           25.7 199 
 PAM  EZ EP       18 8 42.12                             153    0.4510 73.6  38 
 PAM  EN ES       18 8 59.40                             153    0.1210 73.6  38 
 PAM  EZ I        18 9  0.95         7.1 0.18            156           73.6  38 
 BRR  HZ EP       18 8 41.12                             152    0.1210 74.4 296 
 BRR  HE ES       18 8 58.36                             152    0.2710 74.4 296 
 BRR  HZ I        18 9  2.24        12.8 0.16            149           74.4 296 
 RUS  HZ EP       18 8 43.43                             145   -0.0310  102 179 
 RUS  HN ES       18 9  2.04                             145   -0.4210  102 179 
 RUS  HZ I        18 9  2.67         5.1 0.44            146            102 179 
 SPBC HZ EP       18 8 48.31                             130   -0.05 9  167 220 
 SPBC HN ES       18 9 11.29                             130    0.10 9  167 220 
 SPBC HZ I        18 9 12.25         8.6 0.18            129            167 220 
 ZAR  HE ES       18 9 17.74                             123   -0.37 8  208 291 
 ZAR  HZ I        18 9 23.78         6.8 0.40            122            208 291 
 NOR  HN ES       18 9 24.50                             119    0.43 8  239 235 
 NOR  HZ I        18 9 31.16         3.3 0.40            119            239 235 
 SML  HZ EP   1   18 8 55.34                             118   -0.75 6  244 334 
 SML  HN ES   1   18 9 24.64                             118   -0.30 6  244 334 
 SML  HZ I        18 9 26.98        14.8 0.10            119            244 334 
 CHI  HZ EP   1   18 8 57.53                             118    0.17 6  251 196 
 CHI  HN ES   1   18 9 27.09                             118   -0.12 6  251 196 
 CHI  HZ I        18 9 29.18         2.1 0.34            119            251 196 
                                                                                
