 2013  4 9 1316  7.6 L   6.822 -73.158142.4  RSN 10 0.5 2.1LRSN                1
 GAP=193        1.01       3.9     6.3  6.5  0.5018E+00  0.1278E+02  0.9022E+01E
 Epicentro: LOS SANTOS - SANTANDER                                             3
 ACTION:UPD 13-05-22 14:37 OP:EP   STATUS:               ID:20130409131607 L   I
 2013-04-09-1310-00M.COL___245                                                 6
 STAT SP IPHASW D HRMM SECON CODA AMPLIT PERI AZIMU VELO AIN AR TRES W  DIS CAZ7
 BAR2 SZ EP       1316 26.85                             169   -0.0110 25.5 186 
 BAR2 SZ ES       1316 41.15                             169   -0.7410 25.5 186 
 BAR2 SZ I        1316 43.38        37.7 0.19            167           25.5 186 
 GIR2 SZ EP       1316 26.78                             168   -0.0110 28.7 352 
 GIR2 SZ ES       1316 42.11                             168    0.3410 28.7 352 
 GIR2 SZ I        1316 43.47        15.5 0.44            170           28.7 352 
 BRR  HZ EP       1316 28.73                             153    0.4810 68.9 297 
 BRR  HN ES   1   1316 45.37                             153    1.02 7 68.9 297 
 BRR  HZ I        1316 46.17        27.1 0.12            152           68.9 297 
 PTB  HZ EP       1316 33.55                             131   -0.66 9  147 258 
 PTB  HE ES   1   1316 54.46                             131   -0.51 7  147 258 
 PTB  HZ I        1316 57.18        15.7 0.14            131            147 258 
 OCA  HE ES   1   1316 56.96                             129   -0.13 7  158 354 
 OCA  HZ I        1316 59.61        16.5 0.24            131            158 354 
 ZAR  HN ES   1   1317  4.58                             122    0.02 6  202 292 
 NOR  HZ EP       1316 43.46                             118    0.30 8  235 234 
 NOR  HE ES   1   1317 10.61                             118   -0.30 6  235 234 
 NOR  HZ I        1317 17.30        10.4 0.28            118            235 234 
 SML  HN ES   1   1317 11.58                             117   -0.34 6  241 335 
 CHI  HZ EP       1316 45.26                             116   -0.06 8  251 195 
 CHI  HN ES       1317 15.10                             116    0.35 8  251 195 
 CHI  HZ I        1317 21.17         5.9 0.30            116            251 195 
 PRA  HZ EP       1317  1.12                             106   -0.05 6  393 209 
 PRA  HE ES   1   1317 43.63                             106    0.68 4  393 209 
 PRA  HZ I        1317 47.21         5.7 0.32            106            393 209 
                                                                                
