 2010  1 9 1037 35.9 L   6.827 -73.222141.0  RSN  6 0.4 1.8LRSN                1
 GAP=164        0.75       3.3     9.8  7.8 -0.1392E+01  0.3921E+02  0.3527E+00E
 Epicentro: ZAPATOCA - SANTANDER                                               3
 ACTION:UP  10-08-24 09:43 OP:vdl  STATUS:               ID:20100109103735 L   I
 2010-01-09-1035-07S.COL___096                                                 6
 STAT SP IPHASW D HRMM SECON CODA AMPLIT PERI AZIMU VELO SNR AR TRES W  DIS CAZ7
 BAR2 SZ EP   1   1037 54.23                             169    -0.8 8   26 171 
 BAR2 SZ ES   1   1038  9.80                             169    -0.1 8   26 171 
 GIR2 SZ EP   1   1037 55.06                             168     0.1 8   28   6 
 GIR2 SZ ES   2   1038 10.14                             168     0.4 5   28   6 
 OCA  SZ EP       1038  3.75                             129     0.310  157 356 
 OCA  SZ ES   1   1038 25.01                             129     0.0 7  157 356 
 CHI  HZ EP   1   1038 13.73                             116     0.3 6  249 193 
 CHI  HE ES   1   1038 42.91                             116     0.2 6  249 193 
 CHI  HZ I        1038 49.70         3.1 0.61                           249 193 
 MON  HZ EP   2   1038 22.75                             108    -1.0 4  344 309 
 MON  HZ I        1038 29.80         1.9 0.44                           344 309 
 MON  HE ES   1   1039  0.99                             108     0.0 5  344 309 
 PRA  HN ES   1   1039 10.83                             106     0.3 5  390 208 
 PRA  HZ I        1039 18.68         2.8 0.35                           390 208 
                                                                                
