 2016  5 9 1424 35.4 L   6.989 -73.041149.4  RSN  4 0.4 1.2LRSN                1
 GAP=262        0.83       8.4     7.6  7.2  0.3819E+02  0.3097E+01  0.3258E+01E
 Epicentro: PIEDECUESTA - SANTANDER                                            3
 ACTION:UPD 16-08-18 17:44 OP:cam  STATUS:               ID:20160509142435 L   I
 OLDACT:REG 16-05-09 20:51 OP:ak   STATUS:               ID:20160509141750     3
 2016-05-09-1417-50M.COL___297                                                 6
 STAT SP IPHASW D HRMM SECON CODA AMPLIT PERI AZIMU VELO AIN AR TRES W  DIS CAZ7
 BAR2 EZ EP   2   1424 55.30                             162   -0.80 5 46.5 200 
 BAR2 EZ ES       1425 12.27                             162   -0.0110 46.5 200 
 BAR2 EZ I        1425 13.48         3.5 0.26            163           46.5 200 
 BRR  HZ EP   2   1424 56.47                             152   -0.66 5 75.3 280 
 BRR  HE ES       1425 14.26                             152    0.1510 75.3 280 
 RUS  HZ EP       1425  1.66                             139    0.6210  121 182 
 RUS  HE ES       1425 20.76                             139   -0.3010  121 182 
 PTB  HZ EP       1425  4.11                             130   -0.02 9  164 252 
 PTB  HE ES       1425 26.50                             130   -0.07 9  164 252 
                                                                                
