 2017  1 9 1954 25.1 L   6.769 -73.168144.2  RSN  7 0.4 1.8LRSN                1
 GAP=135        1.10       5.0     4.5  7.4 -0.1389E+01  0.9330E+01  0.4601E+01E
 Epicentro: LOS SANTOS - SANTANDER                                             3
 ACTION:UPD 17-05-22 15:57 OP:jn   STATUS:               ID:20170109195425 L   I
 OLDACT:UP  17-01-10 00:48 OP:ar   STATUS:               ID:20170109194747     3
 OLDACT:REG 17-01-09 23:40 OP:ar   STATUS:               ID:20170109194747     3
 2017-01-09-1948-00M.COL___366                                                 6
 STAT SP IPHASW D HRMM SECON CODA AMPLIT PERI AZIMU VELO AIN AR TRES W  DIS CAZ7
 BAR2 EZ EP       1954 44.55                             172    0.0810 19.6 185 
 BAR2 EZ ES       1954 59.15                             172   -0.4310 19.6 185 
 BAR2 EZ I        1955  1.60        25.1 0.44            173           19.6 185 
 BRR  HZ EP       1954 46.57                             152    0.5210 70.8 302 
 BRR  HE ES       1955  3.02                             152    0.6210 70.8 302 
 BRR  HZ I        1955  7.31        14.7 0.12            152           70.8 302 
 PAM  EZ EP       1954 47.33                             149   -0.0710 81.6  39 
 PAM  EE ES       1955  4.29                             149   -0.5210 81.6  39 
 PAM  EZ I        1955  6.53        11.9 0.60            152           81.6  39 
 RUS  HZ EP       1954 48.36                             144   -0.1010 97.4 174 
 RUS  HN ES       1955  7.33                             144    0.6410 97.4 174 
 RUS  HZ I        1955  8.54        10.0 0.40            148           97.4 174 
 PTB  HZ EP       1954 51.28                             132   -0.37 9  145 260 
 PTB  HN ES       1955 11.89                             132   -0.48 9  145 260 
 PTB  HZ I        1955 15.20         8.7 0.16            134            145 260 
 ZAR  HZ EP   4   1954 59.58                             122    2.24 0  203 293 
 ZAR  HE ES       1955 22.71                             122    0.22 9  203 293 
 ZAR  HZ I        1955 27.05         5.3 0.08            124            203 293 
 NOR  HZ EP       1955  0.60                             119    0.30 8  231 235 
 NOR  HN ES       1955 27.25                             119   -0.51 8  231 235 
 NOR  HZ I        1955 29.62         3.2 0.16            121            231 235 
                                                                                
