 2016 10 9 1601 30.0 L   6.824 -73.140147.7  RSN 17 0.5 2.4LRSN                1
 GAP=136        1.04       2.9     4.0  5.5 -0.2912E+01  0.7178E+01  0.2700E+00E
 Epicentro: LOS SANTOS - SANTANDER                                             3
 ACTION:UPD 16-11-09 19:18 OP:rebc STATUS:               ID:20161009160130 L   I
 OLDACT:REG 16-10-09 20:28 OP:lv   STATUS:               ID:20161009155747     3
 2016-10-09-1558-00M.COL___360                                                 6
 STAT SP IPHASW D HRMM SECON CODA AMPLIT PERI AZIMU VELO AIN AR TRES W  DIS CAZ7
 BAR2 EZ IP     C 16 1 49.89                             170   -0.0410 26.1 190 
 BAR2 EZ ES       16 2  5.79                             170    0.3210 26.1 190 
 BAR2 EZ I        16 2  6.81        38.1 0.34            167           26.1 190 
 PAM  EZ EP       16 1 52.66                             152    0.3710 74.9  40 
 PAM  EN ES       16 2 10.02                             152    0.3510 74.9  40 
 PAM  EZ I        16 2 12.14        36.8 0.56            156           74.9  40 
 RUS  HZ EP       16 1 53.74                             143   -0.4010  103 176 
 RUS  HN ES       16 2 12.62                             143   -0.3410  103 176 
 RUS  HZ I        16 2 13.55        19.8 0.27            144            103 176 
 PTB  HZ EP       16 1 56.49                             132   -0.75 9  149 258 
 PTB  HN ES       16 2 18.06                             132   -0.42 9  149 258 
 PTB  HZ I        16 2 22.50        37.4 0.30            131            149 258 
 OCA  HZ EP       16 1 58.59                             130    0.35 9  158 353 
 OCA  HN ES       16 2 20.09                             130   -0.16 9  158 353 
 OCA  HZ I        16 2 25.88        67.3 0.22            132            158 353 
 SPBC HZ EP       16 1 58.89                             129   -0.00 9  166 219 
 SPBC HN ES       16 2 21.02                             129   -0.40 9  166 219 
 ZAR  HZ EP       16 2  2.58                             123    0.04 9  204 291 
 ZAR  HE ES       16 2 27.87                             123   -0.04 9  204 291 
 ZAR  HZ I        16 2 35.02        47.0 0.28            123            204 291 
 NOR  HZ EP       16 2  5.67                             119   -0.41 8  237 234 
 NOR  HN ES       16 2 34.52                             119    0.32 8  237 234 
 NOR  HZ I        16 2 41.90        21.4 0.23            119            237 234 
 CHI  HZ EP       16 2  8.14                             117    0.02 8  251 195 
 CHI  HE ES       16 2 37.59                             117   -0.25 8  251 195 
 CHI  HZ I        16 2 47.02        10.0 0.44            118            251 195 
 ROSC BZ EP   9   16 2  9.72                             117    1.20 0  255 211 
 ROSC BN ES       16 2 39.61                                   -0.15 8  255 211 
 ROSC BZ I        16 2 47.18        27.2 0.45            117            255 211 
 HEL  HZ EP   4   16 2 12.06                             115    1.60 0  273 255 
 HEL  HN ES       16 2 42.73                             115    0.72 8  273 255 
 HEL  HZ I        16 2 49.17        10.9 0.24            115            273 255 
 GUY2CHZ EP       16 2 14.96                             112    1.02 7  303 234 
 GUY2CHN ES   4   16 2 49.54                             112    1.33 0  303 234 
 GUY2CHZ I        16 2 57.88        10.8 0.46                           303 234 
 PTGC HZ EP   4   16 2 13.01                             112   -1.20 0  311 159 
 PTGC HN ES   4   16 2 46.16                             112   -2.53 0  311 159 
 PTGC HZ I        16 2 48.70        16.2 0.38            113            311 159 
 ELA  HZ EP   4   16 2 18.88                             110    1.68 0  331 229 
 ELA  HE ES   4   16 2 57.33                             110    3.33 0  331 229 
 ELA  HZ I        16 3  4.26        11.8 0.42            111            331 229 
 ANIL HN ES       16 2 59.77                             109    0.49 6  360 224 
 PRA  HZ EP       16 2 24.85                             107    0.94 6  395 209 
 PRA  HN ES       16 3  6.28                             107    0.34 6  395 209 
 PRA  HZ I        16 3  9.24        12.9 0.60            107            395 209 
 SJC  HZ EP       16 2 24.08                             106   -1.34 6  407 327 
 SJC  HN ES   4   16 3  5.61                             106   -3.02 0  407 327 
 SJC  HZ I        16 3  9.90         4.0 0.37            107            407 327 
                                                                                
