 2011 12 9 1605 59.1 L   6.686 -73.299119.9  RSN  6 0.4 2.0LRSN                1
 GAP= 87        0.66       4.9     5.1  8.2 -0.5118E+01  0.1321E+02  0.4354E+01E
 Epicentro: GALAN - SANTANDER                                                  3
 ACTION:UPD 12-07-13 16:15 OP:ep   STATUS:               ID:20111209160559 L   I
 2011-12-09-1603-00S.MAN___173                                                 6
 STAT SP IPHASW D HRMM SECON CODA AMPLIT PERI AZIMU VELO AIN AR TRES W  DIS CAZ7
 BAR2 SZ EP   1   16 6 15.95                             172    0.45 7 16.5 129 
 BAR2 SZ ES   2   16 6 28.69                             172    0.41 5 16.5 129 
 BAR2 SZ I        16 6 30.22        25.7 0.19                          16.5 129 
 BRR  HZ IP     C 16 6 16.95                             149   -0.2010 65.2 316 
 BRR  HZ I        16 6 17.19       104.0 0.11                          65.2 316 
 BRR  HN ES   2   16 6 31.18                             149   -0.03 5 65.2 316 
 RUS  HZ EP   1   16 6 19.22                             141   -0.43 7 91.0 165 
 RUS  HE ES   2   16 6 35.26                             141   -0.41 5 91.0 165 
 PAM  SZ EP   1   16 6 20.13                             138   -0.07 7 98.0  42 
 PAM  SE ES   2   16 6 36.66                             138    0.01 5 98.0  42 
 PAM  SZ I        16 6 38.96         5.9 0.19                          98.0  42 
 NOR  SZ EP   1   16 6 31.87                             115    0.74 6  214 235 
 NOR  SN ES   2   16 6 56.28                             115    0.18 4  214 235 
 HEL  HN ES   2   16 7  4.06                             111   -0.58 4  253 258 
                                                                                
