 2011  7 9 1721 23.1 L   6.849 -73.278123.9  RSN  4 0.1 1.5LRSN                1
 GAP=135        0.39       2.1     3.7  4.1  0.1293E+01 -0.4384E+01 -0.1456E+00E
 Epicentro: ZAPATOCA - SANTANDER                                               3
 ACTION:UPD 12-07-25 13:59 OP:epov STATUS:               ID:20110709172123 L   I
 2011-07-09-1718-54S.COL___140                                                 6
 STAT SP IPHASW D HRMM SECON CODA AMPLIT PERI AZIMU VELO AIN AR TRES W  DIS CAZ7
 BAR2 SZ EP       1721 40.47                             165    0.1910 30.3 160 
 BAR2 SZ ES   1   1721 53.49                             165   -0.20 7 30.3 160 
 BAR2 SZ I        1721 55.11        22.2 0.24                          30.3 160 
 BRR  HZ EP       1721 40.86                             154   -0.1410 55.8 301 
 BRR  HZ I        1721 41.24        11.3 0.11                          55.8 301 
 BRR  HN ES       1721 55.05                             154    0.0710 55.8 301 
 RUS  HZ EP   1   1721 45.39                             136    0.03 7  108 168 
 RUS  HZ I        1721 46.41         1.7 0.10                           108 168 
 RUS  HE ES   1   1722  2.73                             136    0.00 7  108 168 
 GRA  SZ EP   2   1721 46.24                             131   -0.24 5  126  25 
 GRA  SZ I        1721 48.42         3.6 0.42                           126  25 
 GRA  SZ ES   1   1722  4.80                             131    0.07 7  126  25 
                                                                                
