 2017 10 9 1113 46.1 L   6.810 -73.156139.5  RSN 20 0.5 2.4LRSN                1
 GAP=109        0.99       3.1     2.8  5.1 -0.5879E+00  0.5049E+01  0.1438E+01E
 Epicentro: LOS SANTOS - SANTANDER                                             3
 ACTION:UPD 17-11-07 19:30 OP:rebc STATUS:               ID:20171009111346 L   I
 OLDACT:REG 17-10-09 20:05 OP:lv   STATUS:               ID:20171009110634     3
 2017-10-09-1108-00M.COL___423                                                 6
 STAT SP IPHASW D HRMM SECON CODA AMPLIT PERI AZIMU VELO AIN AR TRES W  DIS CAZ7
 BAR2 EZ IP     C 1114  5.09                             170    0.1110 24.3 187 
 BAR2 EZ ES       1114 19.78                             170    0.0610 24.3 187 
 BAR2 EZ I        1114 21.20       106.1 0.22            166           24.3 187 
 PAM  EZ IP     D 1114  7.98                             150    0.3610 77.2  41 
 PAM  EN ES       1114 24.62                             150    0.2010 77.2  41 
 PAM  EZ I        1114 27.97        37.6 0.50            156           77.2  41 
 RUS  HZ EP       1114  9.15                             142   -0.1710  102 175 
 RUS  HN ES       1114 27.17                             142   -0.2610  102 175 
 RUS  HZ I        1114 28.41        16.7 0.22            142            102 175 
 TAM  HZ EP       1114 13.38                             129   -0.02 9  156 105 
 TAM  HN ES       1114 33.74                             129   -0.97 9  156 105 
 TAM  HZ I        1114 34.22        21.4 0.30            133            156 105 
 SPBC HZ EP       1114 14.09                             127   -0.04 9  163 218 
 SPBC HN ES       1114 35.82                             127   -0.18 9  163 218 
 SPBC HZ I        1114 41.81        35.9 0.20            127            163 218 
 YPLC HZ IP     C 1114 15.59                             125    0.01 9  178 151 
 YPLC HN ES       1114 39.62                             125    1.03 9  178 151 
 YPLC HZ I        1114 42.17        13.8 0.24            127            178 151 
 ZAR  HZ EP       1114 18.69                             121    0.71 9  203 292 
 ZAR  HN ES       1114 42.98                             121    0.13 9  203 292 
 ZAR  HZ I        1114 49.94        33.8 0.40            122            203 292 
 TABC EZ EP   4   1114 22.84                             118    1.32 0  230 210 
 TABC EZ ES   4   1114 52.81                             118    3.66 0  230 210 
 TABC EZ I        1114 54.42        30.0 0.46            118            230 210 
 NOR  HZ EP       1114 21.13                             117   -0.30 8  234 234 
 NOR  HN ES       1114 48.86                             117   -0.14 8  234 234 
 NOR  HZ I        1114 55.00        16.3 0.18            117            234 234 
 CHI  HZ EP       1114 23.45                             116   -0.08 8  249 195 
 CHI  HN ES       1114 52.20                             116   -0.54 8  249 195 
 CHI  HZ I        1114 59.46        10.2 0.78            116            249 195 
 ROSC BZ EP   9   1114 25.13                             115    1.21 0  253 211 
 ROSC BN ES       1114 54.46                                   -0.18 8  253 211 
 ROSC BZ I        1115  1.99        32.8 0.35            116            253 211 
 GUY2CHZ EP   9   1114 30.94                             111    1.56 0  301 234 
 GUY2CHN ES       1115  4.81                                    0.10 7  301 234 
 GUY2CHZ I        1115 10.50        15.6 0.28                           301 234 
 PTGC HZ IP   4 D 1114 28.45                             110   -1.39 0  310 159 
 PTGC HN ES   4   1114 59.66                             110   -4.30 0  310 159 
 PTGC HZ I        1115  4.73        13.1 0.20            112            310 159 
 ELA  HZ EP   4   1114 35.78                             109    3.11 0  329 229 
 ELA  HN ES   4   1115 13.41                             109    4.41 0  329 229 
 ELA  HZ I        1115 16.56        11.7 0.66            110            329 229 
 DBB  EZ EP       1114 32.52                             108   -0.66 7  338 274 
 DBB  EN ES       1115  9.34                             108   -0.57 7  338 274 
 DBB  EZ I        1115 12.51         7.9 0.50            109            338 274 
 ANIL HZ EP   4   1114 36.93                             107    1.27 0  357 224 
 ANIL HE ES   4   1115 13.10                             107   -1.23 0  357 224 
 ANIL HZ I        1115 20.72        25.4 0.26            108            357 224 
 PRA  HZ EP       1114 39.06                             105   -0.39 6  392 209 
 PRA  HN ES       1115 21.60                             105    0.53 6  392 209 
 PRA  HZ I        1115 27.00        13.9 0.36            106            392 209 
 ORTC HZ EP       1114 40.17                             105    0.34 6  396 216 
 ORTC HN ES       1115 22.82                             105    1.07 6  396 216 
 ORTC HZ I        1115 28.43         9.9 0.32            106            396 216 
 PAL  HZ EP       1114 41.38                             105    0.38 6  405 239 
 PAL  HN ES       1115 23.41                             105   -0.43 6  405 239 
 PAL  HZ I        1115 29.27         4.9 0.28            106            405 239 
 SJC  HZ EP   4   1114 40.01                             105   -1.25 0  408 327 
 SJC  HN ES   4   1115 21.08                             105   -3.22 0  408 327 
 SJC  HZ I        1115 25.35        10.3 0.50            106            408 327 
                                                                                
