 2014 10 9 1912 52.0 L   6.455 -73.618112.9  RSN  4 0.6 1.2LRSN                1
 GAP=139        1.52       9.2     7.6 14.1  0.2880E+02  0.2774E+02  0.3049E+02E
 Epicentro: SANTA HELENA DEL OPON - SANTANDER                                  3
 ACTION:UPD 14-11-29 23:48 OP:nd   STATUS:               ID:20141009191252 L   I
 OLDACT:DUP 14-10-10 01:51 OP:stll STATUS:               ID:20141009190747d    3
 2014-10-09-1907-46M.COL___287                                                 6
 STAT SP IPHASW D HRMM SECON CODA AMPLIT PERI AZIMU VELO AIN AR TRES W  DIS CAZ7
 BAR2 SZ EP       1913  8.55                             154   -0.2410 50.5  73 
 BAR2 SZ ES       1913 20.86                             154   -1.0210 50.5  73 
 BRR  HZ EP       1913  9.58                             145   -0.2510 72.8 352 
 BRR  HN ES       1913 24.76                             145    1.0310 72.8 352 
 RUS  HZ EP       1913 11.74                             140    0.2510 85.9 136 
 RUS  HN ES       1913 27.28                             140    0.5910 85.9 136 
 RUS  HZ I        1913 28.66         2.3 0.26            143           85.9 136 
 PTB  HZ EP       1913 11.37                             137   -0.0510 93.2 276 
 PTB  HN ES       1913 26.24                             137   -0.3110 93.2 276 
 PTB  HZ I        1913 30.48         5.3 0.30            138           93.2 276 
                                                                                
