 2013 11 9 1004 39.4 L   6.775 -73.128147.8  RSN  6 0.4 1.2LRSN                1
 GAP=140        1.00       4.7     5.8  7.4  0.1875E+00  0.8292E+01 -0.2057E+01E
 Epicentro: LOS SANTOS - SANTANDER                                             3
 ACTION:UPD 14-01-09 16:26 OP:ep   STATUS:               ID:20131109100439 L   I
 OLDACT:REG 13-11-09 14:38 OP:jn   STATUS:               ID:20131109100000     3
 2013-11-09-1000-00M.COL___273                                                 6
 STAT SP IPHASW D HRMM SECON CODA AMPLIT PERI AZIMU VELO AIN AR TRES W  DIS CAZ7
 BAR2 SZ ES       10 5 14.62                             172   -0.1210 21.1 196 
 BAR2 SZ I        10 5 16.32         5.7 0.18            171           21.1 196 
 BRR  HZ EP       10 5  1.42                             152    0.4310 74.2 300 
 BRR  HE ES       10 5 18.36                             152    0.5710 74.2 300 
 PAM  SZ EP       10 5  2.36                             151    0.4310 78.3  37 
 PAM  SN ES       10 5 19.25                             151   -0.2210 78.3  37 
 PAM  SZ I        10 5 21.20         4.8 0.46            153           78.3  37 
 RUS  HZ EP       10 5  2.81                             145   -0.3910 97.7 177 
 RUS  HN ES       10 5 21.62                             145   -0.1010 97.7 177 
 RUS  HZ I        10 5 23.30         1.4 0.28            146           97.7 177 
 PTB  HZ EP       10 5  6.60                             132   -0.11 9  149 260 
 PTB  HN ES   1   10 5 27.72                             132   -0.25 7  149 260 
 PTB  HZ I        10 5 30.37         1.9 0.16            133            149 260 
 SML  HZ EP   4   10 5 14.78                             118   -1.76 0  247 335 
 SML  HE ES   1   10 5 44.37                             118   -1.11 6  247 335 
                                                                                
