 2016  1 9 1408 26.7 L   6.763 -73.319122.5  RSN  5 0.4 1.9LRSN                1
 GAP=118        1.12       8.0     4.6  8.2 -0.7225E+01  0.1175E+02 -0.8128E+01E
 Epicentro: ZAPATOCA - SANTANDER                                               3
 ACTION:UPD 16-03-09 23:24 OP:cam  STATUS:               ID:20160109140826 L   I
 OLDACT:REG 16-01-09 22:33 OP:ar   STATUS:               ID:20160109140749     3
 2016-01-09-1407-49M.COL___285                                                 6
 STAT SP IPHASW D HRMM SECON CODA AMPLIT PERI AZIMU VELO AIN AR TRES W  DIS CAZ7
 BAR2 EZ EP       14 8 44.10                             168    0.5110 24.2 141 
 BAR2 EZ ES       14 8 57.21                             168    0.4710 24.2 141 
 BAR2 EZ I        14 8 58.41        39.4 0.26            170           24.2 141 
 BRR  HZ EP       14 8 44.50                             153   -0.1110 57.8 311 
 BRR  HN ES       14 8 58.55                             153   -0.0010 57.8 311 
 BRR  HZ I        14 8 59.45        11.9 0.12            153           57.8 311 
 PAM  EZ EP       14 8 47.67                             141   -0.0410 93.5  47 
 PAM  EN ES       14 9  3.56                             141   -0.5110 93.5  47 
 PAM  EZ I        14 9  5.83        12.4 0.22            143           93.5  47 
 PTB  HZ EP       14 8 49.46                             130   -0.5810  128 259 
 PTB  HN ES       14 9  7.63                             130   -0.5910  128 259 
 PTB  HZ I        14 9 11.12        10.4 0.32            132            128 259 
 ZAR  HZ EP       14 8 56.55                             119    0.48 9  188 295 
 ZAR  HN ES       14 9 19.47                             119    0.52 9  188 295 
 ZAR  HZ I        14 9 20.96         8.2 0.22            120            188 295 
                                                                                
