 2017 12 9 1828  8.9 L   6.802 -73.178143.1  RSN 13 0.6 1.9LRSN                1
 GAP=140        0.80       2.8     3.8  4.9 -0.4554E+01  0.5000E+01  0.8114E+00E
 Epicentro: LOS SANTOS - SANTANDER                                             3
 ACTION:UPD 18-01-04 13:18 OP:rebc STATUS:               ID:20171209182808 L   I
 OLDACT:UP  17-12-10 01:32 OP:mg   STATUS:               ID:20171209182739     3
 OLDACT:REG 17-12-09 22:16 OP:mg   STATUS:               ID:20171209182739     3
 2017-12-09-1828-00M.COL___487                                                 6
 STAT SP IPHASW D HRMM SECON CODA AMPLIT PERI AZIMU VELO AIN AR TRES W  DIS CAZ7
 BAR2 EZ EP       1828 28.15                             170   -0.0710 23.2 181 
 BAR2 EZ ES       1828 43.39                             170    0.1110 23.2 181 
 BAR2 EZ I        1828 44.18        13.6 0.32            170           23.2 181 
 PAM  EN EP       1828 31.32                             150    0.3510 79.5  42 
 PAM  EN ES       1828 48.24                             150    0.0610 79.5  42 
 PAM  EN I        1828 49.67        24.7 0.44            153           79.5  42 
 PTB  HZ EP       1828 35.07                             132   -0.28 9  144 258 
 PTB  HN ES       1828 55.53                             132   -0.44 9  144 258 
 PTB  HZ I        1828 58.28         4.6 0.13            132            144 258 
 OCA  HN ES       1828 58.71                             129   -0.12 9  160 354 
 OCA  HZ I        1829  1.73        25.1 0.21            130            160 354 
 SPBC HZ EP       1828 36.93                             129   -0.09 9  161 218 
 SPBC HN ES       1828 58.67                             129   -0.26 9  161 218 
 SPBC HZ I        1829  1.99         9.7 0.12            129            161 218 
 YPLC HN ES   4   1829  1.46                             126   -0.49 0  179 150 
 YPLC HZ I        1829  2.97         6.4 0.27            128            179 150 
 ZAR  HZ EP   1   1828 41.06                             122    0.23 6  201 292 
 ZAR  HN ES   1   1829  6.09                             122    0.36 6  201 292 
 ZAR  HZ I        1829 12.35         9.4 0.26            122            201 292 
 NOR  HZ EP       1828 44.32                             118    0.13 8  232 234 
 NOR  HN ES       1829 12.13                             118    0.42 8  232 234 
 NOR  HZ I        1829 18.81         5.3 0.07            119            232 234 
 CHI  HZ EP       1828 46.44                             117    0.05 8  248 194 
 CHI  HN ES   2   1829 14.61                             117   -1.01 4  248 194 
 CHI  HZ I        1829 20.77         1.5 0.35            118            248 194 
 DRL03HZ EP       1828 49.98                             113   -0.34 7  288 353 
 DRL03HN ES   3   1829 25.24                             113    2.62 2  288 353 
 GUY2CHZ EP   2   1828 53.22                             112    1.13 4  298 234 
 GUY2CHE ES   3   1829 27.99                             112    2.23 2  298 234 
 GUY2CHZ I        1829 33.51         3.4 0.51                           298 234 
 PRA  HZ EP   2   1829  1.15                             106   -1.01 3  390 209 
 PRA  HN ES       1829 44.31                             106    0.61 6  390 209 
 SJC  HZ EP   2   1829  2.97                             105   -1.17 3  407 327 
 SJC  HN ES   3   1829 44.54                             105   -2.67 1  407 327 
                                                                                
