 2016  9 9 1136 13.4 L   6.792 -73.147142.4  RSN  6 0.3 1.6LRSN                1
 GAP=237        0.81       4.3     4.7  5.5  0.8644E+01  0.4560E+01 -0.5885E+00E
 Epicentro: LOS SANTOS - SANTANDER                                             3
 ACTION:UPD 17-08-17 21:08 OP:lp   STATUS:               ID:20160909113613 L   I
 OLDACT:REG 16-09-09 20:05 OP:lv   STATUS:               ID:20160909112732     3
 2016-09-09-1128-00M.COL___359                                                 6
 STAT SP IPHASW D HRMM SECON CODA AMPLIT PERI AZIMU VELO AIN AR TRES W  DIS CAZ7
 BAR2 EZ EP       1136 32.54                             171   -0.0610 22.5 190 
 BAR2 EZ ES       1136 47.38                             171   -0.2110 22.5 190 
 BAR2 EZ I        1136 49.85         6.9 0.24            170           22.5 190 
 BRR  HZ EP       1136 34.38                             152    0.1810 71.5 299 
 BRR  HN ES       1136 50.56                             152    0.1310 71.5 299 
 BRR  HZ I        1136 56.12         6.8 0.17            150           71.5 299 
 RUS  HZ EP       1136 36.78                             143    0.0310 99.7 176 
 RUS  HN ES       1136 55.09                             143    0.1110 99.7 176 
 RUS  HZ I        1136 56.14         3.9 0.18            147           99.7 176 
 PTB  HZ EP       1136 39.68                             131   -0.39 9  148 259 
 PTB  HN ES       1137  0.21                             131   -0.66 9  148 259 
 PTB  HZ I        1137  3.74         6.1 0.10            132            148 259 
 SPBC HZ EP       1136 41.42                             128   -0.15 9  162 219 
 SPBC HE ES       1137  4.10                             128    0.56 9  162 219 
 SPBC HZ I        1137  6.81         8.7 0.08            131            162 219 
 ZAR  HZ EP       1136 45.75                             122    0.10 9  204 292 
 ZAR  HE ES       1137 11.24                             122    0.44 9  204 292 
 ZAR  HZ I        1137 17.09         4.0 0.10            123            204 292 
                                                                                
