 2017 11 9 1455 13.4 L   6.789 -73.115150.4  RSN 14 0.7 2.0LRSN                1
 GAP=115        1.19       4.1     4.5  6.6 -0.1410E+01  0.4097E+01  0.5731E+01E
 Epicentro: LOS SANTOS - SANTANDER                                             3
 ACTION:UPD 17-12-12 19:53 OP:rebc STATUS:               ID:20171109145513 L   I
 OLDACT:UP  17-11-10 00:12 OP:mg   STATUS:               ID:20171109144737     3
 OLDACT:REG 17-11-09 20:27 OP:mg   STATUS:               ID:20171109144737     3
 2017-11-09-1448-00M.COL___461                                                 6
 STAT SP IPHASW D HRMM SECON CODA AMPLIT PERI AZIMU VELO AIN AR TRES W  DIS CAZ7
 BAR2 EZ EP       1455 33.56                             171   -0.0510 23.0 199 
 BAR2 EZ ES       1455 49.16                             171   -0.2010 23.0 199 
 BAR2 EZ I    2   1455 50.34        22.6 0.42            170           23.0 199 
 BRR  HZ EP       1455 35.49                             152    0.2110 74.7 298 
 BRR  HN ES       1455 53.41                             152    1.0810 74.7 298 
 BRR  HZ I        1455 56.01        14.1 0.18            149           74.7 298 
 PAM  EZ EP       1455 36.33                             152    0.2610 76.2  37 
 PAM  EN ES       1455 53.93                             152    0.1910 76.2  37 
 PAM  EZ I        1455 56.84        10.7 0.20            153           76.2  37 
 RUS  HZ EP       1455 37.43                             145   -0.1110 99.2 178 
 RUS  HN ES       1455 55.89                             145   -0.4710 99.2 178 
 RUS  HZ I        1455 57.48         7.4 0.30            146           99.2 178 
 PTB  HZ EP       1455 40.30                             133   -0.76 9  151 260 
 PTB  HN ES       1456  1.67                             133   -0.94 9  151 260 
 PTB  HZ I        1456  8.89        16.0 0.38            131            151 260 
 SPBC HZ EP   1   1455 42.43                             130    0.03 7  164 220 
 SPBC HN ES       1456  4.82                             130   -0.18 9  164 220 
 SPBC HZ I        1456  8.05        17.8 0.14            129            164 220 
 YPLC HZ EP       1455 43.73                             128    0.42 9  174 152 
 ZAR  HZ EP   1   1455 46.11                             123   -0.44 6  208 292 
 ZAR  HN ES       1456 12.27                             123   -0.11 8  208 292 
 ZAR  HZ I        1456 19.06        12.5 0.24            122            208 292 
 NOR  HZ EP   1   1455 49.80                             119    0.15 6  237 235 
 NOR  HN ES       1456 17.58                             119   -0.33 8  237 235 
 NOR  HZ I        1456 22.24         5.4 0.22            119            237 235 
 CHI  HZ EP   1   1455 51.76                             118    0.40 6  248 196 
 CHI  HE ES       1456 21.38                             118    0.43 8  248 196 
 CHI  HZ I        1456 28.76         3.1 0.56            118            248 196 
 URE  HZ EP   3   1455 57.56                             114    2.44 2  287 292 
 GUY2CHZ EP   3   1455 59.63                             113    2.14 2  303 235 
 GUY2CHE ES   2   1456 34.20                             113    2.34 4  303 235 
 GUY2CHZ I        1456 38.56         4.3 0.34                           303 235 
 LL6C HZ EP   2   1455 58.12                             111   -1.36 3  326 357 
 LL6C HE ES   3   1456 33.09                             111   -2.31 2  326 357 
 LL6C HZ I        1456 43.65         4.8 0.62            111            326 357 
 PRA  HZ EP   1   1456  7.97                             107    0.78 4  393 210 
 PRA  HE ES   1   1456 49.01                             107   -0.11 4  393 210 
 PRA  HZ I        1456 55.32         3.5 0.22            107            393 210 
                                                                                
