 2014 11 9 1435 10.1 L   6.780 -73.163147.3  RSN  6 0.4 1.8LRSN                1
 GAP=135        1.09       5.2     5.4  7.4 -0.7087E+01  0.5281E+01  0.3976E+01E
 Epicentro: LOS SANTOS - SANTANDER                                             3
 ACTION:UPD 14-12-19 15:40 OP:nd   STATUS:               ID:20141109143510 L   I
 OLDACT:UP  14-11-09 22:39 OP:cam  STATUS:               ID:20141109142819     3
 OLDACT:REG 14-11-09 20:39 OP:cam\ STATUS:               ID:20141109142819     3
 2014-11-09-1428-19M.COL___297                                                 6
 STAT SP IPHASW D HRMM SECON CODA AMPLIT PERI AZIMU VELO AIN AR TRES W  DIS CAZ7
 BAR2 SZ EP     D 1435 29.85                             172   -0.0010 20.9 186 
 BAR2 SZ ES       1435 45.42                             172    0.1410 20.9 186 
 BAR2 SZ I        1435 45.73        24.1 0.38            170           20.9 186 
 BRR  HZ IP     C 1435 31.72                             153    0.3510 70.6 301 
 BRR  HE ES       1435 48.64                             153    0.6710 70.6 301 
 BRR  HZ I        1435 51.89        13.4 0.38            151           70.6 301 
 PAM  SZ EP       1435 32.67                             150    0.0310 80.3  40 
 PAM  SN ES       1435 49.49                             150   -0.7410 80.3  40 
 PAM  SZ I        1435 51.82         6.6 0.48            154           80.3  40 
 RUS  HZ EP       1435 33.89                             145    0.0510 98.6 175 
 RUS  HN ES       1435 52.72                             145    0.3410 98.6 175 
 RUS  HZ I        1435 53.61         6.9 0.26            147           98.6 175 
 PTB  HZ EP       1435 36.76                             133   -0.21 9  145 260 
 PTB  HN ES       1435 57.50                             133   -0.44 9  145 260 
 PTB  HZ I        1436  4.24         9.4 0.18            132            145 260 
 SPBC HZ EP       1435 38.77                             130    0.34 9  160 219 
 SPBC HN ES       1435 59.86                             130   -0.68 9  160 219 
 SPBC HZ I        1436  5.83        12.3 0.14            130            160 219 
 HEL  HZ EP   4   1435 50.41                             115    0.30 0  270 256 
 GUY2CHZ EP   4   1435 54.45                             113    1.01 0  298 235 
                                                                                
