 2015  6 9 1441 47.2 L   6.818 -73.178144.0  RSN 11 0.4 2.1LRSN                1
 GAP=132        1.04       3.1     4.3  5.7 -0.4376E+00  0.9045E+01  0.1459E+01E
 Epicentro: ZAPATOCA - SANTANDER                                               3
 ACTION:UPD 15-09-10 22:11 OP:cam  STATUS:               ID:20150609144147 L   I
 OLDACT:DUP 15-06-09 22:05 OP:ak   STATUS:               ID:20150609143749d    3
 2015-06-09-1437-48M.COL___305                                                 6
 STAT SP IPHASW D HRMM SECON CODA AMPLIT PERI AZIMU VELO AIN AR TRES W  DIS CAZ7
 BAR2 EZ EP       1442  6.57                             170   -0.1210 25.0 181 
 BAR2 EZ ES       1442 21.30                             170   -0.5610 25.0 181 
 BAR2 EZ I        1442 24.56        14.4 0.22            168           25.0 181 
 BRR  HZ EP       1442  8.33                             154    0.3610 67.1 298 
 BRR  HN ES       1442 25.11                             154    0.9810 67.1 298 
 BRR  HZ I        1442 29.42        15.1 0.21            151           67.1 298 
 PAM  SZ EP       1442  9.40                             150    0.0810 78.2  42 
 PAM  SN ES       1442 26.54                             150    0.0010 78.2  42 
 PAM  SZ I        1442 28.59        26.3 0.48            156           78.2  42 
 RUS  HZ EP       1442 10.72                             143   -0.2610  103 174 
 RUS  HN ES       1442 29.65                             143    0.1510  103 174 
 RUS  HZ I        1442 30.50        18.6 0.34            146            103 174 
 SPBC HZ EP       1442 15.56                             129    0.02 9  163 218 
 SPBC HN ES       1442 37.42                             129   -0.19 9  163 218 
 SPBC HZ I        1442 40.18        20.9 0.08            130            163 218 
 ZAR  HZ EP       1442 19.75                             123    0.60 9  200 292 
 ZAR  HN ES       1442 43.20                             123   -0.83 9  200 292 
 ZAR  HZ I        1442 50.43         9.4 0.25            123            200 292 
 NOR  HZ EP       1442 22.78                             118    0.10 8  233 234 
 NOR  HN ES       1442 50.13                             118   -0.19 8  233 234 
 NOR  HZ I        1442 57.49        11.4 0.16            120            233 234 
 SML  HZ EP   1   1442 22.73                             117   -0.68 6  240 336 
 SML  HE ES       1442 51.20                             117   -0.42 8  240 336 
 SML  HZ I        1442 54.08        15.5 0.11            120            240 336 
 CHI  HZ EP       1442 24.84                             117   -0.11 8  250 194 
 CHI  HN ES   1   1442 54.27                             117   -0.09 6  250 194 
 CHI  HZ I        1442 57.71         7.1 0.34            119            250 194 
 HEL  HZ EP   1   1442 26.79                             115   -0.24 6  269 255 
 HEL  HN ES   1   1442 58.07                             115    0.00 6  269 255 
 HEL  HZ I        1443  6.72         8.2 0.40            116            269 255 
 GUY2CHZ EP       1442 31.37                             112    0.81 7  299 234 
 GUY2CHN ES   4   1443  6.81                             112    2.45 0  299 234 
 GUY2CHZ I        1443 17.19         6.3 0.40                           299 234 
                                                                                
