 2013  3 9 1510 15.1 L   6.742 -73.478113.4  RSN 12 0.4 2.3LRSN                1
 GAP= 50        0.97       3.6     3.9  5.5  0.3581E+01  0.3359E+01 -0.4027E+00E
 Epicentro: EL CARMEN DE CHUCURI - SANTANDER                                   3
 ACTION:UPD 13-04-09 14:01 OP:ep   STATUS:               ID:20130309151015 L   I
 2013-03-09-1510-00M.COL___231                                                 6
 STAT SP IPHASW D HRMM SECON CODA AMPLIT PERI AZIMU VELO AIN AR TRES W  DIS CAZ7
 BAR2 SZ IP       1510 31.70                             161    0.4110 36.6 117 
 BAR2 SZ ES       1510 43.63                             161   -0.2910 36.6 117 
 BRR  HZ IP     D 1510 31.75                             155    0.3010 48.0 327 
 BRR  HE ES       1510 44.55                             155    0.3410 48.0 327 
 BRR  HZ I        1510 45.26        97.7 0.16            143           48.0 327 
 RUS  HZ EP       1510 36.38                             135    0.3010  104 155 
 RUS  HN ES   1   1510 51.64                             135   -0.81 7  104 155 
 RUS  HE I        1510 53.90        99.1 0.32            112            104 155 
 PAM  SZ EP       1510 36.55                             133    0.0410  108  52 
 PAM  SZ I        1510 39.08        24.8 0.18            117            108  52 
 PTB  HZ IP     C 1510 35.45                             132   -0.6010  110 258 
 PTB  HZ I        1510 35.70        49.5 0.17            110            110 258 
 OCA  HZ EP       1510 41.38                             120   -0.39 9  166   6 
 OCA  HZ I        1511  8.77        22.4 0.28            105            166   6 
 ZAR  HZ EP   1   1510 42.70                             119    0.36 7  174 299 
 ZAR  HE ES   1   1511  4.32                             119    0.74 7  174 299 
 ZAR  HZ I        1511  8.14        33.6 0.33            103            174 299 
 TAM  HZ EP       1510 44.51                             116    0.40 9  190 100 
 CHI  HZ EP   1   1510 49.90                             111    0.20 6  235 187 
 CHI  HZ I        1511 23.97         6.9 0.28             98            235 187 
 HEL  HZ EP   1   1510 49.33                             111   -0.27 6  235 255 
 HEL  HN ES   1   1511 16.27                             111   -0.24 6  235 255 
 HEL  HZ I        1511 24.42         9.2 0.35             98            235 255 
 SML  HZ EP   1   1510 48.57                             110   -0.79 6  237 344 
 SML  HE ES       1511 15.72                             110   -0.37 8  237 344 
 PRA  HZ EP   1   1511  5.44                             101    0.45 5  369 205 
 PRA  HZ I        1511 54.26         6.1 0.34             94            369 205 
                                                                                
