 2010  5 9 1003 49.7 L   5.846 -73.675122.0  RSN 13 0.5 2.5LRSN                1
 GAP= 97        0.98       4.0     4.6  9.8 -0.9568E+01  0.1045E+02 -0.3869E+01E
 Epicentro: PUENTE NACIONAL - SANTANDER                                        3
 ACTION:UP  10-08-24 10:03 OP:vdl  STATUS:               ID:20100509100349 L   I
 2010-05-09-1000-03S.COL___105                                                 6
 STAT SP IPHASW D HRMM SECON CODA AMPLIT PERI AZIMU VELO SNR AR TRES W  DIS CAZ7
 RUS  HZ EP   1   10 4  8.75                             150     0.0 7   66  86 
 RUS  HN ES   2   10 4 22.93                             150    -0.6 5   66  86 
 RUS  HZ I        10 4 25.05        46.4 0.30                            66  86 
 BAR2 SZ IP     D 10 4 10.70                             139     0.010   99  33 
 BAR2 SZ ES   2   10 4 26.67                             139    -0.4 5   99  33 
 CHI  HZ EP   1   10 4 14.89                             129     0.7 7  135 183 
 CHI  HN ES   2   10 4 33.09                             129    -0.1 5  135 183 
 CHI  HZ I        10 4 35.69        21.5 0.42                           135 183 
 BRR  HZ EP   1   10 4 13.98                             128    -0.1 7  140 358 
 BRR  HE ES   2   10 4 32.90                             128    -0.1 5  140 358 
 BRR  HZ I        10 4 36.28        80.6 0.39                           140 358 
 GIR2 SZ IP     D 10 4 15.87                             127     1.0 9  146  21 
 GIR2 SZ ES   2   10 4 35.24                             127     0.7 5  146  21 
 HEL  HZ EP   1   10 4 20.97                             116    -0.8 6  209 281 
 HEL  HE ES       10 4 47.12                             116     0.4 8  209 281 
 HEL  HZ I        10 4 48.65        55.2 0.53                           209 281 
 RREF BZ EP   1   10 4 21.98                             116    -0.5 6  213 241 
 RREF BN ES   2   10 4 47.08                             116    -1.0 4  213 241 
 RREF BZ I        10 4 52.88        37.7 0.23                           213 241 
 BRI  SZ EP   1   10 4 24.03                             114     0.4 6  228  25 
 BRI  SZ ES   2   10 4 49.41                             114    -0.7 4  228  25 
 TOL  SZ EP   1   10 4 23.97                             114     0.0 6  230 233 
 TOL  SZ ES   2   10 4 50.80                             114     0.1 4  230 233 
 GUE  SZ IP     D 10 4 24.14                             113    -0.4 8  235  21 
 GUE  SZ ES   2   10 4 50.69                             113    -1.0 4  235  21 
 GRA  SZ EP   1   10 4 25.40                             112    -0.1 6  245  23 
 GRA  SZ ES   2   10 4 52.65                             112    -0.8 4  245  23 
 OCA  SZ EP   1   10 4 27.80                             110    -0.3 6  267   8 
 OCA  SZ ES   2   10 4 58.46                             110     0.5 4  267   8 
 PRA  HZ EP   1   10 4 27.80                             110    -0.6 6  271 210 
 PRA  HE ES   2   10 4 58.96                             110     0.5 4  271 210 
 PRA  HZ I        10 5  4.76        18.4 0.21                           271 210 
                                                                                
