 2013  4 9 1145 47.2 L   6.632 -73.165140.0  RSN  4 0.3 1.3LRSN                1
 GAP=270        0.56       9.6     5.9  7.9 -0.1035E+02  0.6934E+01  0.4081E+02E
 Epicentro: VILLANUEVA - SANTANDER                                             3
 ACTION:UPD 13-05-22 14:36 OP:EP   STATUS:               ID:20130409114547 L   I
 2013-04-09-1140-00M.COL___245                                                 6
 STAT SP IPHASW D HRMM SECON CODA AMPLIT PERI AZIMU VELO AIN AR TRES W  DIS CAZ7
 GIR2 SZ ES   1   1146 22.41                             159    0.30 7 49.5 356 
 GIR2 SZ I        1146 23.68         5.0 0.52            156           49.5 356 
 BRR  HZ EP       1146  8.23                             148    0.0010 80.1 311 
 BRR  HN ES   1   1146 24.18                             148   -0.48 7 80.1 311 
 PTB  HZ EP       1146 13.15                             132   -0.09 9  143 266 
 PTB  HN ES   1   1146 33.75                             132    0.17 7  143 266 
 PTB  HZ I        1146 36.44         3.0 0.46            130            143 266 
 ZAR  HN ES   1   1146 45.56                             120    0.23 6  210 297 
 ZAR  HZ I        1146 49.70         1.7 0.21            119            210 297 
                                                                                
