 2017  4 9 1336 21.5 L   6.808 -73.111146.0  RSN  9 0.4 1.7LRSN                1
 GAP=140        1.11       4.1     5.2  6.3  0.1719E+00  0.3214E+01  0.4332E+01E
 Epicentro: LOS SANTOS - SANTANDER                                             3
 ACTION:UPD 17-05-30 21:10 OP:jn   STATUS:               ID:20170409133621 L   I
 OLDACT:UP  17-04-10 00:01 OP:edw  STATUS:               ID:20170409132752d    3
 OLDACT:DUP 17-04-09 23:53 OP:edw  STATUS:               ID:20170409132752d    3
 OLDACT:UP  17-04-09 23:53 OP:edw  STATUS:               ID:20170409132751d    3
 OLDACT:UP  17-04-09 23:50 OP:edw  STATUS:               ID:20170409132751d    3
 OLDACT:DUP 17-04-09 23:47 OP:edw  STATUS:               ID:20170409132751d    3
 2017-04-09-1328-00M.COL___377                                                 6
 STAT SP IPHASW D HRMM SECON CODA AMPLIT PERI AZIMU VELO AIN AR TRES W  DIS CAZ7
 BAR2 EZ EP       1336 41.26                             170    0.1110 25.1 198 
 BAR2 EZ ES       1336 56.64                             170    0.1310 25.1 198 
 BAR2 EZ I        1336 58.97        16.4 0.28            168           25.1 198 
 BRR  HZ EP       1336 42.85                             151    0.0510 74.1 297 
 BRR  HN ES       1337  0.04                             151    0.6010 74.1 297 
 BRR  HZ I        1337  4.00         9.5 0.32            150           74.1 297 
 PAM  EZ EP       1336 44.08                             152    0.5710 74.3  38 
 PAM  EN ES       1337  0.19                             152   -0.5310 74.3  38 
 PAM  EZ I        1337  4.44         5.1 0.44            155           74.3  38 
 RUS  HZ EP       1336 45.17                             143   -0.1110  101 178 
 RUS  HN ES       1337  3.42                             143   -0.4410  101 178 
 RUS  HZ I        1337  5.23        10.4 0.28            144            101 178 
 PTB  HZ EP   9   1336 48.03                             131   -0.76 0  152 259 
 PTB  HN ES       1337  8.51                             131   -0.85 9  152 259 
 PTB  HZ I        1337 11.20         5.1 0.22            131            152 259 
 SPBC HN ES   4   1337 11.18                             128   -1.56 0  166 220 
 ZAR  HZ EP       1336 53.91                             122   -0.33 8  207 292 
 ZAR  HN ES       1337 19.41                             122   -0.40 8  207 292 
 ZAR  HZ I        1337 24.73         7.8 0.54            122            207 292 
 NOR  HZ EP   9   1336 55.68                             118   -1.90 0  238 235 
 NOR  HN ES       1337 24.74                             119    0.88 8  238 235 
 NOR  HZ I        1337 32.03         3.4 0.18            118            238 235 
 CHI  HZ EP       1336 59.45                             117    0.08 8  251 196 
 CHI  HN ES       1337 29.05                             117    0.10 8  251 196 
 CHI  HZ I        1337 34.80         2.3 0.32            117            251 196 
 PRA  HZ EP   4   1337 13.23                             106   -2.07 0  395 210 
 PRA  HN ES       1337 57.41                             106    0.12 6  395 210 
 PRA  HZ I        1338  3.38         3.2 0.38            107            395 210 
 ORTC HZ EP   4   1337 14.08                             106   -1.65 0  398 217 
 ORTC HN ES   4   1338  0.34                             106    2.27 0  398 217 
                                                                                
