 2011  5 9 1605 19.9 L   6.754 -73.102147.7  RSN  7 0.3 1.8LRSN                1
 GAP=161        0.67       5.1     7.4  6.3 -0.7901E+01 -0.8836E+01 -0.2675E+01E
 Epicentro: LOS SANTOS - SANTANDER                                             3
 ACTION:UP  11-06-29 08:51 OP:tino STATUS:               ID:20110509160519 L   I
 2011-05-09-1600-00M.COL___140                                                 6
 STAT SP IPHASW D HRMM SECON CODA AMPLIT PERI AZIMU VELO SNR AR TRES W  DIS CAZ7
 BAR2 SZ EP   1   16 5 39.62                             172    -0.1 7   20 206 
 BAR2 SZ ES   1   16 5 54.67                             172    -0.5 7   20 206 
 BAR2 SZ I        16 5 55.85        13.1 0.28                            20 206 
 BTL  SZ IP       16 5 40.10                             169     0.310   26 315 
 BTL  SZ ES   1   16 5 55.68                             169     0.3 7   26 315 
 BRR  HZ EP   1   16 5 41.53                             150    -0.1 7   78 300 
 BRR  HZ I        16 5 41.95        13.6 0.10                            78 300 
 BRR  HN ES   1   16 5 58.89                             150     0.3 7   78 300 
 RUS  HZ EP   2   16 5 43.79                             146     0.3 5   95 179 
 RUS  HN ES   2   16 6  1.93                             146     0.1 5   95 179 
 RUS  HZ I        16 6  3.19         5.6 0.45                            95 179 
 BRI  SZ EP   2   16 5 44.28                             141     0.0 5  112  18 
 BRI  SZ I        16 6  8.45         9.1 0.42                           112  18 
 GRA  SZ EP   1   16 5 45.51                             137    -0.1 7  129  15 
 GRA  SZ ES   2   16 6  5.09                             137    -0.6 5  129  15 
 GRA  SZ I        16 6  6.30         8.7 0.42                           129  15 
 NOR  SE ES   2   16 6 23.36                             119    -0.6 4  236 236 
                                                                                
