 2013  4 9 1827  6.0 L   6.684 -73.298138.3  RSN  4 0.4 1.5LRSN                1
 GAP=173        0.80       8.1     7.8  8.6  0.3328E+02  0.2287E+02  0.1376E+02E
 Epicentro: GALAN - SANTANDER                                                  3
 ACTION:UPD 13-05-22 14:37 OP:EP   STATUS:               ID:20130409182706 L   I
 2013-04-09-1820-00M.COL___245                                                 6
 STAT SP IPHASW D HRMM SECON CODA AMPLIT PERI AZIMU VELO AIN AR TRES W  DIS CAZ7
 BAR2 SZ ES   1   1827 38.51                             173   -0.62 8 16.3 129 
 BAR2 SZ I        1827 40.88        14.0 0.24            175           16.3 129 
 BRR  HZ EP   1   1827 26.06                             153    0.03 8 65.4 316 
 BRR  HN ES   1   1827 42.10                             153    0.46 8 65.4 316 
 BRR  HZ I        1827 46.44        14.3 0.32            153           65.4 316 
 RUS  HZ EP   1   1827 28.03                             145   -0.29 8 90.7 165 
 RUS  HN ES   1   1827 46.29                             145    0.56 8 90.7 165 
 RUS  HZ I        1827 47.94         2.2 0.36            149           90.7 165 
 PTB  HZ EP       1827 30.77                             134    0.0810  129 263 
 PTB  HN ES   1   1827 49.65                             134   -0.30 7  129 263 
 PTB  HZ I        1827 54.83         2.8 0.10            135            129 263 
                                                                                
