 2013  5 9 1635 48.1 L   6.737 -73.179145.2  RSN  5 0.4 1.9LRSN                1
 GAP=229        0.83       6.1     5.4  7.1  0.6228E+01  0.7820E+01  0.7056E+01E
 Epicentro: VILLANUEVA - SANTANDER                                             3
 ACTION:UPD 13-06-20 09:49 OP:ep   STATUS:               ID:20130509163548 L   I
 2013-05-09-1630-00M.COL___256                                                 6
 STAT SP IPHASW D HRMM SECON CODA AMPLIT PERI AZIMU VELO AIN AR TRES W  DIS CAZ7
 BAR2 SZ EP       1636  7.57                             174    0.0310 16.0 181 
 BAR2 SZ ES       1636 22.13                             174   -0.5710 16.0 181 
 BAR2 SZ I        1636 23.38        26.1 0.35            168           16.0 181 
 BRR  HZ EP       1636  9.11                             152   -0.1110 71.8 305 
 BRR  HZ I        1636  9.35        21.7 0.28            151           71.8 305 
 BRR  HN ES       1636 26.22                             152    0.5310 71.8 305 
 RUS  HZ EP   1   1636 11.63                             146    0.31 7 93.9 174 
 RUS  HN ES   1   1636 29.85                             146    0.41 7 93.9 174 
 RUS  HZ I        1636 31.50        10.0 0.54            143           93.9 174 
 PTB  HZ EP   1   1636 14.09                             133   -0.50 7  143 261 
 PTB  HN ES       1636 35.16                             133   -0.09 9  143 261 
 PTB  HZ I        1636 38.82         8.5 0.10            131            143 261 
 NOR  HZ EP   2   1636 23.52                             119    0.48 4  228 235 
 NOR  HN ES   1   1636 50.18                             119   -0.12 6  228 235 
 NOR  HZ I        1636 54.94         4.3 0.40            118            228 235 
                                                                                
