 2015  2 9 1057  4.2 L   6.802 -73.151146.0  RSN  8 0.6 1.8LRSN                1
 GAP=119        1.56       5.6     6.8  9.0 -0.6337E+01  0.3724E+01 -0.8219E+01E
 Epicentro: LOS SANTOS - SANTANDER                                             3
 ACTION:UPD 15-04-30 21:24 OP:nd   STATUS:               ID:20150209105704 L   I
 OLDACT:DUP 15-02-09 22:26 OP:stll STATUS:               ID:20150209104746d    3
 2015-02-09-1047-45M.COL___286                                                 6
 STAT SP IPHASW D HRMM SECON CODA AMPLIT PERI AZIMU VELO AIN AR TRES W  DIS CAZ7
 BAR2 EZ EP       1057 24.15                             170    0.3410 23.5 189 
 BAR2 EZ ES       1057 38.70                             170   -0.4510 23.5 189 
 BAR2 EZ I        1057 40.89        18.5 0.16            168           23.5 189 
 BRR  HZ EP       1057 26.10                             153    0.8110 70.6 299 
 BRR  HN ES       1057 43.05                             153    1.2710 70.6 299 
 PAM  SZ EP       1057 26.76                             151    0.3610 77.5  40 
 PAM  SZ I        1057 27.28        13.1 0.24            154           77.5  40 
 PAM  SN ES       1057 43.15                             151   -0.6010 77.5  40 
 RUS  HZ EP       1057 28.04                             144    0.0910  101 176 
 RUS  HN ES       1057 46.59                             144    0.0810  101 176 
 RUS  HZ I        1057 47.98         4.9 0.30            144            101 176 
 PTB  HZ EP       1057 31.28                             132    0.19 9  147 259 
 PTB  HN ES       1057 51.02                             132   -1.09 9  147 259 
 PTB  HZ I        1057 57.94         4.6 0.26            130            147 259 
 SPBC HZ EP       1057 33.00                             129    0.34 9  163 219 
 SPBC HN ES       1057 54.31                             129   -0.58 9  163 219 
 SPBC HZ I        1058  2.09         8.0 0.20            128            163 219 
 SML  HZ EP       1057 40.25                             117   -0.49 8  243 335 
 SML  HE ES       1058  8.79                             117   -0.49 8  243 335 
 SML  HZ I        1058 13.78         6.3 0.10            118            243 335 
 SOCV BZ EP       1057 46.66                             112   -0.59 7  302  57 
                                                                                
