 2012  9 9 1944 19.0 L   6.783 -73.373122.9  RSN  7 0.3 2.0LRSN                1
 GAP= 95        0.62       4.0     3.3  4.6  0.4664E+01  0.2170E+01 -0.1217E+01E
 Epicentro: ZAPATOCA - SANTANDER                                               3
 ACTION:UPD 12-10-22 14:18 OP:ep   STATUS:               ID:20120909194419 L   I
 2012-09-09-1940-00M.COL___227                                                 6
 STAT SP IPHASW D HRMM SECON CODA AMPLIT PERI AZIMU VELO AIN AR TRES W  DIS CAZ7
 BAR2 SZ EP       1944 36.40                             166    0.3010 29.8 135 
 BAR2 SZ ES       1944 49.42                             166    0.0110 29.8 135 
 GIR2 SZ EP       1944 36.02                             162   -0.2310 38.3  31 
 BRR  HZ EP       1944 36.78                             156    0.1410 51.9 314 
 BRR  HN ES       1944 50.52                             156    0.1410 51.9 314 
 BRR  HZ I        1944 51.59        57.6 0.19                          51.9 314 
 PAM  SZ EP   1   1944 39.77                             140   -0.52 7 96.6  50 
 PAM  SZ I        1944 40.75        13.6 0.12                          96.6  50 
 RUS  HZ EP   1   1944 41.14                             138    0.29 7  104 162 
 RUS  HN ES   1   1944 57.79                             138   -0.08 7  104 162 
 PTB  HZ EP       1944 41.68                             132   -0.1910  123 257 
 PTB  HN ES   1   1944 59.27                             132   -0.41 7  123 257 
 PTB  HZ I        1945  2.86        14.7 0.14                           123 257 
 ZAR  HZ EP   1   1944 48.11                             120    0.39 7  182 296 
 ZAR  HE ES   1   1945 10.19                             120    0.10 7  182 296 
 ZAR  HZ I        1945 14.03        13.4 0.42                           182 296 
                                                                                
