 2015  5 9 1440 59.6 L   6.827 -73.181141.3  RSN 11 0.4 2.4LRSN                1
 GAP= 68        1.11       3.2     4.2  6.2 -0.5529E+00  0.5518E+01 -0.3183E+00E
 Epicentro: ZAPATOCA - SANTANDER                                               3
 ACTION:UPD 15-09-10 22:02 OP:cam  STATUS:               ID:20150509144059 L   I
 OLDACT:UP  15-05-11 07:45 OP:AK   STATUS:               ID:20150509144059 L   3
 OLDACT:DUP 15-05-10 00:44 OP:stll STATUS:               ID:20150509143750d    3
 2015-05-09-1437-48M.COL___279                                                 6
 STAT SP IPHASW D HRMM SECON CODA AMPLIT PERI AZIMU VELO AIN AR TRES W  DIS CAZ7
 BAR2 EZ EP       1441 19.00                             169    0.2110 26.0 180 
 BAR2 EZ ES       1441 33.10                             169   -0.6310 26.0 180 
 BAR2 EZ I        1441 35.48        39.8 0.14            169           26.0 180 
 BRR  HZ EP       1441 20.62                             153    0.5910 66.3 298 
 BRR  HN ES       1441 36.67                             153    0.7310 66.3 298 
 BRR  HZ I        1441 38.89        27.4 0.36            151           66.3 298 
 PAM  SZ EP       1441 21.88                             150    0.4810 77.7  43 
 PAM  SN ES       1441 38.54                             150    0.1610 77.7  43 
 PAM  SZ I        1441 41.00        45.0 0.46            153           77.7  43 
 RUS  HZ EP       1441 23.42                             142    0.2210  104 174 
 RUS  HN ES       1441 41.29                             142   -0.3010  104 174 
 RUS  HZ I        1441 42.62        24.9 0.28            144            104 174 
 OCA  HN ES       1441 48.36                             129   -0.48 9  157 354 
 OCA  HZ I        1441 55.37        41.0 0.46            131            157 354 
 TAM  HZ IP     C 1441 27.31                             129   -0.09 9  160 106 
 TAM  HZ I        1441 27.55        44.4 0.36            133            160 106 
 SPBC HZ EP       1441 27.82                             128    0.03 9  163 217 
 SPBC HN ES       1441 49.54                             128   -0.21 9  163 217 
 SPBC HZ I        1441 55.71        35.2 0.16            129            163 217 
 ZAR  HZ EP       1441 31.42                             122    0.12 9  199 292 
 ZAR  HE ES       1441 56.43                             122    0.44 9  199 292 
 ZAR  HZ I        1442  2.36        18.9 0.40            122            199 292 
 NOR  HZ EP       1441 34.93                             118   -0.03 8  233 233 
 NOR  HE ES       1442  2.09                             118   -0.42 8  233 233 
 NOR  HZ I        1442 10.68        19.6 0.20            118            233 233 
 SML  HZ EP       1441 35.09                             117   -0.45 8  239 336 
 SML  HN ES       1442  2.55                             117   -0.99 8  239 336 
 GUY2CHZ EP   4   1441 44.51                             112    1.63 0  300 234 
 GUY2CHE ES   4   1442 18.21                             112    1.60 0  300 234 
 GUY2CHZ I        1442 28.99         9.4 0.44                           300 234 
                                                                                
