 2010  8 9 1530 20.5 L   6.805 -73.036142.0  RSN  4 0.4 1.5LRSN                1
 GAP=177        0.82       8.3    14.0 13.3  0.3238E+02 -0.1088E+03 -0.4013E+02E
 Epicentro: CEPITA - SANTANDER                                                 3
 ACTION:UP  10-09-07 10:53 OP:vdl  STATUS:               ID:20100809153020 L   I
 2010-08-09-1526-09S.COL___125                                                 6
 STAT SP IPHASW D HRMM SECON CODA AMPLIT PERI AZIMU VELO SNR AR TRES W  DIS CAZ7
 BTL  SZ EP       1530 39.84                             169     0.010   29 296 
 BTL  SZ ES   2   1530 54.99                             169     0.1 5   29 296 
 BRR  HZ EP       1530 41.52                             149    -0.410   82 294 
 BRR  HN ES   1   1530 59.03                             149     0.4 7   82 294 
 BRR  HZ I        1531  2.18        11.6 0.40                            82 294 
 RUS  HZ EP   2   1530 44.85                             144     0.9 5  101 183 
 RUS  HN ES   2   1531  1.83                             144    -0.4 5  101 183 
 RUS  HZ I        1531  3.75         2.6 0.45                           101 183 
 GUE  SZ EP       1530 44.76                             140     0.010  114   6 
                                                                                
