 2017 12 9 1145 42.2 L   6.715 -73.150139.3  RSN  5 0.3 1.8LRSN                1
 GAP=159        0.73       4.3     3.7  5.8 -0.5848E+01  0.8525E+01 -0.7095E+01E
 Epicentro: VILLANUEVA - SANTANDER                                             3
 ACTION:UPD 18-01-04 13:18 OP:rebc STATUS:               ID:20171209114542 L   I
 OLDACT:REG 17-12-09 21:41 OP:leo  STATUS:               ID:20171209113741     3
 2017-12-09-1138-00M.COL___469                                                 6
 STAT SP IPHASW D HRMM SECON CODA AMPLIT PERI AZIMU VELO AIN AR TRES W  DIS CAZ7
 BAR2 EZ EP       1146  1.03                             174    0.1010 14.0 195 
 BAR2 EZ ES       1146 15.88                             174    0.3710 14.0 195 
 BAR2 EZ I        1146 16.87        15.2 0.28            175           14.0 195 
 PAM  EZ EP       1146  4.28                             147    0.0210 85.1  36 
 PAM  EE ES       1146 21.05                             147   -0.3910 85.1  36 
 PAM  EZ I        1146 23.17         8.1 0.54            147           85.1  36 
 PTB  HZ EP       1146  8.14                             131   -0.36 9  146 262 
 PTB  HN ES       1146 28.71                             131   -0.28 9  146 262 
 PTB  HZ I        1146 32.43         3.6 0.46            132            146 262 
 OCA  HZ EP       1146 11.38                             126    0.42 9  170 354 
 OCA  HN ES       1146 33.23                             126   -0.12 9  170 354 
 OCA  HZ I        1146 41.03        15.9 0.54            126            170 354 
 ZAR  HZ EP       1146 14.60                             120   -0.02 8  207 295 
 ZAR  HN ES       1146 40.18                             120    0.31 8  207 295 
                                                                                
