 2011  2 9 1250 55.1 L   6.852 -72.750131.4  RSN  4 0.1 1.5LRSN                1
 GAP=202        0.34       3.1    10.3  7.1 -0.2320E+02 -0.5245E+02  0.1450E+02E
 Epicentro: CERRITO - SANTANDER                                                3
 ACTION:UP  11-03-28 15:07 OP:jfem STATUS:               ID:20110209125055 L   I
 2011-02-09-1246-54S.COL___136                                                 6
 STAT SP IPHASW D HRMM SECON CODA AMPLIT PERI AZIMU VELO SNR AR TRES W  DIS CAZ7
 BAR2 SZ EP   1   1251 14.17                             155     0.0 8   56 239 
 BAR2 SZ ES   2   1251 28.95                             155    -0.1 5   56 239 
 BAR2 SZ I        1251 30.59         9.6 0.29                            56 239 
 BTL  SZ EP   1   1251 14.40                             155     0.1 8   58 277 
 BTL  SZ ES   1   1251 29.22                             155     0.0 8   58 277 
 RUS  HZ EP   1   1251 18.26                             137    -0.1 8  112 199 
 RUS  HZ I        1251 19.33         5.4 0.17                           112 199 
 RUS  HE ES   2   1251 36.76                             137     0.2 5  112 199 
 GRA  SZ ES       1251 36.02                             136     0.010  114 357 
 GRA  SZ I        1251 48.60         4.4 0.47                           114 357 
                                                                                
