 2010 11 9 1117 23.8 L   6.780 -73.112147.6  RSN 16 0.4 3.4LRSN                1
 GAP=139        0.81       2.8     4.6  5.5 -0.8908E-01  0.5521E+01  0.5370E+01E
 Epicentro: LOS SANTOS - SANTANDER                                             3
 ACTION:UP  10-12-17 16:51 OP:REBC STATUS:               ID:20101109111723 L   I
 2010-11-09-1116-07S.COL___130                                                 6
 STAT SP IPHASW D HRMM SECON CODA AMPLIT PERI AZIMU VELO SNR AR TRES W  DIS CAZ7
 BAR2 SZ IP     D 1117 43.52                             171    -0.110   22 201 
 BAR2 SZ I        1117 44.12       311.1 0.49                            22 201 
 BAR2 SZ ES   1   1117 59.35                             171     0.3 7   22 201 
 GIR2 SZ ES   2   1117 58.80                             166    -0.5 5   34 345 
 BRR  HZ IP     C 1117 45.41                             152     0.110   76 299 
 BRR  HZ I        1117 45.76       638.6 0.21                            76 299 
 BRR  HN ES   1   1118  2.64                             152     0.5 7   76 299 
 RUS  HZ EP       1117 47.29                             145    -0.210   98 178 
 RUS  HN ES   2   1118  5.29                             145    -0.7 5   98 178 
 RUS  HZ I        1118  7.44       191.2 0.41                            98 178 
 GRA  SZ ES   1   1118  9.17                             137     0.0 7  127  16 
 GRA  SZ I        1118 10.04       363.7 0.27                           127  16 
 OCA  SZ EP       1117 52.06                             130    -0.4 9  163 352 
 OCA  SZ ES   1   1118 14.87                             130     0.0 7  163 352 
 OCA  SZ I        1118 19.87       289.2 0.38                           163 352 
 YOP  SZ EP       1117 53.60                             127     0.0 9  175 154 
 YOP  SE ES   1   1118 17.43                             127     0.6 7  175 154 
 NOR  SZ EP       1117 59.32                             119    -0.5 8  237 236 
 NOR  SE ES   2   1118 27.06                             119    -0.8 4  237 236 
 ROSC BN ES   1   1118 32.13                             117     0.4 6  253 212 
 ROSC BZ I        1118 40.70       112.6 0.42                           253 212 
 HEL  HZ EP   2   1118  5.19                             115     0.8 4  275 256 
 HEL  HN ES   2   1118 35.61                             115    -0.5 4  275 256 
 HEL  HZ I        1118 40.89        79.1 0.27                           275 256 
 VIL  SZ EP       1118  6.97                             113     0.1 7  300 191 
 VIL  SN ES   1   1118 39.98                             113    -0.5 5  300 191 
 RREF HZ EP   1   1118 10.90                             111     0.8 5  323 230 
 RREF HZ I        1118 54.79       139.6 0.33                           323 230 
 DBB  SZ EP   2   1118 11.91                             110     0.2 3  343 275 
 TOL  SZ EP   1   1118 13.02                             110     0.8 5  345 225 
 ANIL HZ EP   2   1118 13.38                             109    -0.4 3  358 225 
 ANIL HE ES   2   1118 53.16                             109     0.4 3  358 225 
 ANIL HZ I        1119  3.46       221.5 0.26                           358 225 
 PRA  HZ EP   2   1118 17.20                             107    -0.1 3  392 210 
 PRA  HZ I        1118 19.21       186.9 0.18                           392 210 
 PRA  HN ES   1   1118 59.42                             107     0.3 4  392 210 
                                                                                
