 2011  7 9 1444 47.1 L   6.805 -73.240140.5  RSN  7 0.5 1.6LRSN                1
 GAP=139        0.94       6.0     8.4  9.4 -0.8738E+00  0.9902E+01  0.1327E+02E
 Epicentro: ZAPATOCA - SANTANDER                                               3
 ACTION:UPD 12-07-25 13:59 OP:epov STATUS:               ID:20110709144447 L   I
 2011-07-09-1443-43S.COL___140                                                 6
 STAT SP IPHASW D HRMM SECON CODA AMPLIT PERI AZIMU VELO AIN AR TRES W  DIS CAZ7
 BTL  SZ EP       1445  6.27                             174    0.3610 13.0 346 
 BAR2 SZ ES   2   1445 21.22                             170    0.29 5 24.3 165 
 BAR2 SZ I        1445 22.68         9.0 0.37                          24.3 165 
 BRR  HZ EP   1   1445  8.05                             155    0.90 7 62.0 303 
 BRR  HE ES   1   1445 22.08                             155   -0.73 7 62.0 303 
 BRR  HZ I        1445 27.05        12.5 0.20                          62.0 303 
 RUS  HZ EP   1   1445  9.74                             142   -0.70 7  102 170 
 RUS  HN ES   1   1445 28.76                             142    0.09 7  102 170 
 RUS  HZ I        1445 30.22         4.6 0.38                           102 170 
 BRI  SZ EP   2   1445 10.16                             139   -0.60 5  112  26 
 NOR  SZ EP   1   1445 21.78                             118    0.14 6  227 233 
 NOR  SE ES   1   1445 48.47                             118   -0.12 6  227 233 
 CHI  HZ EP   1   1445 24.00                             116   -0.27 6  247 193 
 CHI  HE ES   2   1445 53.58                             116    0.30 4  247 193 
 CHI  HZ I        1446  3.50         3.1 0.38                           247 193 
                                                                                
