 2011  3 9 1523 31.1 L   6.826 -73.024136.4  RSN  5 0.4 1.8LRSN                1
 GAP=172        0.64       4.9    14.8  6.8 -0.3942E+02  0.2058E+02 -0.6103E+01E
 Epicentro: CEPITA - SANTANDER                                                 3
 ACTION:UP  11-06-16 14:32 OP:jfem STATUS:               ID:20110309152331 L   I
 2011-03-09-1522-29S.COL___135                                                 6
 STAT SP IPHASW D HRMM SECON CODA AMPLIT PERI AZIMU VELO SNR AR TRES W  DIS CAZ7
 BAR2 SZ IP       1523 50.13                             166     0.410   31 214 
 BAR2 SZ ES   1   1524  4.11                             166    -0.2 7   31 214 
 BAR2 SZ I        1524  7.81        19.3 0.23                            31 214 
 RUS  HZ EP       1523 54.06                             141    -0.110  103 184 
 RUS  HN ES   1   1524 12.17                             141     0.1 7  103 184 
 RUS  HZ I        1524 13.84        10.0 0.24                           103 184 
 GRA  SZ EP   1   1523 54.74                             136    -0.2 7  120  12 
 GRA  SZ ES   2   1524 13.49                             136    -0.1 5  120  12 
 GRA  SZ I        1524 16.50        10.8 0.24                           120  12 
 CHI  HZ EP   3   1524  8.72                             114    -0.3 2  255 198 
 CHI  HE ES   3   1524 36.61                             114    -2.0 2  255 198 
 RREF HZ EP   1   1524 18.26                             108     0.0 5  334 231 
                                                                                
