 2012 10 9 1129 11.3 L   6.497 -73.634110.6  RSN  5 0.2 1.9LRSN                1
 GAP=172        0.44       6.9     7.7  7.0  0.3754E+02  0.2865E+02  0.1746E+02E
 Epicentro: SANTA HELENA DEL OPON - SANTANDER                                  3
 ACTION:UPD 12-11-22 17:02 OP:ep   STATUS:               ID:20121009112911 L   I
 2012-10-09-1128-20M.COL___198                                                 6
 STAT SP IPHASW D HRMM SECON CODA AMPLIT PERI AZIMU VELO AIN AR TRES W  DIS CAZ7
 BAR2 SZ EP       1129 27.82                             152   -0.0710 51.0  78 
 BAR2 SZ ES   1   1129 40.83                             152    0.03 7 51.0  78 
 BAR2 SZ I        1129 42.04        47.5 0.36                          51.0  78 
 BRR  HZ EP       1129 28.34                             145   -0.2510 68.0 353 
 BRR  HE ES   2   1129 42.11                             145    0.06 5 68.0 353 
 GIR2 SZ EP       1129 29.90                             140    0.2010 80.7  37 
 RUS  HZ EP   2   1129 31.36                             137    0.40 5 90.4 138 
 RUS  HN ES   3   1129 45.62                             137   -0.66 2 90.4 138 
 RUS  HN I        1129 48.16         7.6 0.38                          90.4 138 
 ZAR  HZ EP   3   1129 38.54                             117    0.05 2  174 309 
 ZAR  HE ES   3   1130  0.11                             117    0.43 2  174 309 
 ZAR  HN I        1130  2.96         9.0 0.34                           174 309 
                                                                                
