 2015 10 9 1718 45.9 L   6.792 -73.104149.8  RSN 11 0.3 2.0LRSN                1
 GAP=142        0.72       2.2     3.4  4.3 -0.4022E+00  0.4313E+01  0.1414E+01E
 Epicentro: LOS SANTOS - SANTANDER                                             3
 ACTION:UPD 15-12-22 20:38 OP:cam  STATUS:               ID:20151009171845 L   I
 OLDACT:DUP 15-10-10 00:40 OP:spq  STATUS:               ID:20151009170752d    3
 2015-10-09-1707-50M.COL___343                                                 6
 STAT SP IPHASW D HRMM SECON CODA AMPLIT PERI AZIMU VELO AIN AR TRES W  DIS CAZ7
 BAR2 EZ EP       1719  5.91                             171   -0.1310 23.7 201 
 BAR2 EZ ES   1   1719 21.70                             171   -0.03 7 23.7 201 
 BAR2 EZ I        1719 23.51        16.9 0.18            168           23.7 201 
 PAM  EZ EP     C 1719  8.82                             152    0.3810 75.3  36 
 PAM  EN ES       1719 26.03                             152    0.0210 75.3  36 
 PAM  EZ I        1719 28.10        11.0 0.36            157           75.3  36 
 BRR  HZ EP       1719  7.84                             152    0.0910 75.7 298 
 BRR  HN ES       1719 25.29                             152    0.5110 75.7 298 
 BRR  HZ I        1719 29.64        17.3 0.66            150           75.7 298 
 RUS  HZ EP       1719  9.76                             145   -0.2210 99.4 179 
 RUS  HE ES       1719 28.45                             145   -0.3110 99.4 179 
 RUS  HZ I        1719 29.69         6.9 0.42            148           99.4 179 
 OCA  HN ES       1719 36.90                             130   -0.22 9  162 352 
 OCA  HZ I        1719 41.15        21.5 0.30            132            162 352 
 SPBC HZ EP       1719 14.89                             130   -0.04 9  165 220 
 SPBC HE ES       1719 37.69                             130    0.13 9  165 220 
 SPBC HZ I        1719 43.98        17.1 0.40            131            165 220 
 ZAR  HZ EP   1   1719 18.81                             123   -0.28 6  209 292 
 ZAR  HE ES       1719 44.55                             123   -0.42 8  209 292 
 ZAR  HZ I        1719 51.41         9.9 0.46            123            209 292 
 NOR  HZ EP       1719 22.10                             119   -0.12 8  238 235 
 NOR  HN ES   1   1719 50.33                             119   -0.21 6  238 235 
 NOR  HZ I        1719 54.02         7.7 0.20            120            238 235 
 SML  HZ EP   1   1719 22.91                             118   -0.16 6  246 334 
 SML  HN ES   1   1719 51.86                             118   -0.19 6  246 334 
 SML  HZ I        1719 54.51        17.9 0.24            120            246 334 
 CHI  HZ EP       1719 23.78                             118   -0.09 8  249 196 
 CHI  HE ES   1   1719 53.56                             118    0.08 6  249 196 
 CHI  HZ I        1719 57.27         3.3 0.48            120            249 196 
 GUY2CHZ EP       1719 31.08                             113    1.01 7  304 235 
 GUY2CHE ES   4   1720  7.53                             113    3.02 0  304 235 
 GUY2CHZ I        1720 12.52         5.8 0.44                           304 235 
                                                                                
