 2012  1 9 1015 54.3 L   6.756 -73.147145.3  RSN 11 0.4 1.9LRSN                1
 GAP=138        0.84       3.8     4.5  7.2 -0.1649E+01  0.4985E+01  0.5441E+01E
 Epicentro: LOS SANTOS - SANTANDER                                             3
 ACTION:UP  12-02-03 08:15 OP:REBC STATUS:               ID:20120109101554 L   I
 2012-01-09-1010-00M.COL___186                                                 6
 STAT SP IPHASW D HRMM SECON CODA AMPLIT PERI AZIMU VELO SNR AR TRES W  DIS CAZ7
 BAR2 SZ EP       1016 13.71                             172    -0.110   19 192 
 BAR2 SZ I        1016 30.49        19.3 0.29                            19 192 
 GIR2 SZ EP   1   1016 13.82                             165    -0.2 7   36 352 
 BRR  HZ EP       1016 15.61                             152     0.110   74 302 
 BRR  HN ES   1   1016 33.01                             152     0.9 7   74 302 
 BRR  HZ I        1016 37.57        18.6 0.18                            74 302 
 PAM  SZ EP   1   1016 16.42                             149    -0.3 7   81  37 
 PAM  SN ES   1   1016 33.64                             149    -0.5 7   81  37 
 RUS  HZ EP   1   1016 17.77                             145     0.1 7   96 176 
 RUS  HN ES   1   1016 35.88                             145     0.0 7   96 176 
 RUS  HZ I        1016 37.55         7.0 0.34                            96 176 
 PTB  HZ EP   1   1016 20.67                             132    -0.4 7  147 261 
 PTB  HN ES   1   1016 41.62                             132    -0.4 7  147 261 
 OCA  SZ EP   1   1016 23.68                             129     0.7 7  165 353 
 OCA  SZ I        1016 53.88        13.2 0.33                           165 353 
 ZAR  HZ EP   2   1016 26.52                             122    -0.4 4  206 293 
 ZAR  HE ES   1   1016 52.03                             122    -0.3 6  206 293 
 ZAR  HZ I        1016 59.18         9.3 0.22                           206 293 
 NOR  SZ EP   1   1016 29.74                             119     0.1 6  232 235 
 NOR  SE ES   1   1016 57.13                             119    -0.1 6  232 235 
 CHI  HZ EP   1   1016 31.81                             117     0.4 6  244 195 
 CHI  HN ES   1   1017  0.44                             117     0.0 6  244 195 
 CHI  HZ I        1017  5.26         3.8 0.46                           244 195 
 PRA  HZ EP   1   1016 47.50                             107     0.2 4  388 210 
                                                                                
