 2010  4 9 1051  2.4 L   6.745 -73.021140.0  RSN  4 0.3 1.9LRSN                1
 GAP=274        0.54       9.1     9.1 12.6 -0.8767E+01  0.2293E+00  0.8473E+02E
 Epicentro: ARATOCA - SANTANDER                                                3
 ACTION:UPD 10-08-24 09:58 OP:vdl  STATUS:               ID:20100409105102 L   I
 2010-04-09-1048-41S.COL___097                                                 6
 STAT SP IPHASW D HRMM SECON CODA AMPLIT PERI AZIMU VELO AIN AR TRES W  DIS CAZ7
 BAR2 SZ EP       1051 21.52                             169     0.110   25 227 
 BRR  HZ EP       1051 23.74                             147    -0.210   86 298 
 BRR  HN ES   2   1051 40.91                             147     0.2 5   86 298 
 RREF BZ EP   2   1051 50.05                             110     0.9 3  329 232 
 RREF BE ES   2   1052 25.51                             110     0.0 3  329 232 
 RREF BZ I        1052 31.35         3.5 0.29                           329 232 
 PRA  HZ EP       1051 55.75                             106    -0.2 6  394 212 
 PRA  HE ES   3   1052 37.21                             106    -0.5 1  394 212 
 PRA  HZ I        1052 44.77         2.0 0.27                           394 212 
                                                                                
