 2016 11 9 1710 40.3 L   6.803 -73.146145.9  RSN 18 0.4 2.8LRSN                1
 GAP= 85        0.94       3.4     2.7  5.2 -0.1029E+01  0.2790E+01  0.7563E+01E
 Epicentro: LOS SANTOS - SANTANDER                                             3
 ACTION:UPD 17-10-26 21:06 OP:lp   STATUS:               ID:20161109171040 L   I
 OLDACT:UP  16-11-09 23:06 OP:dnl  STATUS:               ID:20161109170744     3
 OLDACT:UP  16-11-09 23:05 OP:dnl  STATUS:               ID:20161109170744     3
 OLDACT:REG 16-11-09 20:58 OP:dnl  STATUS:               ID:20161109170744     3
 2016-11-09-1708-00M.COL___349                                                 6
 STAT SP IPHASW D HRMM SECON CODA AMPLIT PERI AZIMU VELO AIN AR TRES W  DIS CAZ7
 BAR2 HZ EP       1710 59.79                             170   -0.1910 23.7 190 
 BAR2 HZ ES       1711 14.80                             170   -0.5110 23.7 190 
 BAR2 HZ I        1711 16.07       146.6 0.26            170           23.7 190 
 BRR  HZ EP       1711  1.75                             153    0.2710 71.0 298 
 BRR  HN ES       1711 18.70                             153    0.7210 71.0 298 
 BRR  HZ I        1711 22.70        63.4 0.42            149           71.0 298 
 PAM  HZ EP     C 1711  2.64                             151    0.1010 77.1  40 
 PAM  HN ES       1711 19.67                             151   -0.1910 77.1  40 
 PAM  HZ I        1711 22.03       169.7 0.50            147           77.1  40 
 PTB  HZ EP       1711  6.43                             132   -0.88 9  148 259 
 PTB  HE ES       1711 28.20                             132   -0.15 9  148 259 
 PTB  HZ I        1711 33.88        44.8 0.26            128            148 259 
 TAM  HZ IP     D 1711  8.23                             131    0.21 9  155 105 
 TAM  HZ I        1711 29.08        22.2 0.42            127            155 105 
 TAM  HN ES       1711 29.97                             131    0.35 9  155 105 
 ZAR  HZ EP       1711 12.42                             122   -0.34 9  204 292 
 ZAR  HE ES       1711 37.80                             122   -0.26 9  204 292 
 ZAR  HZ I        1711 44.49        33.4 0.26            118            204 292 
 NOR  HZ EP       1711 15.90                             118   -0.18 8  235 234 
 NOR  HE ES       1711 43.93                             118   -0.04 8  235 234 
 NOR  HZ I        1711 46.45        28.8 0.28            115            235 234 
 CHI  HZ EP       1711 17.89                             117   -0.17 8  249 195 
 CHI  HN ES       1711 47.28                             117   -0.23 8  249 195 
 CHI  HZ I        1711 51.08        46.3 0.54            114            249 195 
 ROSC BZ EP   4   1711 19.99                             117    1.51 0  253 211 
 ROSC BN ES       1711 48.77                             117    0.52 8  253 211 
 ROSC BZ I        1711 53.67        80.3 0.40            113            253 211 
 URE  HZ EP   4   1711 19.63                             114   -1.75 0  284 292 
 URE  HN ES   4   1711 50.22                             114   -3.19 0  284 292 
 URE  HZ I        1712  3.60        24.6 0.26            110            284 292 
 VIL  HZ EP   2   1711 23.65                             112   -0.13 4  304 192 
 VIL  EN ES   4   1711 57.05                             112   -0.64 0  304 192 
 VIL  HZ I        1712  0.51        65.4 0.42            109            304 192 
 LL6C HZ EP   9   1711  5.66                             110   -20.3 0  325 358 
 LL6C HN ES       1711 41.59                                    0.31 7  325 358 
 ELA  HZ EP   4   1711 28.92                             110    1.72 0  329 229 
 ELA  HN ES       1712  4.31                             110    0.54 7  329 229 
 ELA  HZ I        1712 16.40        21.8 0.44            107            329 229 
 CBOC HZ EP       1711 28.20                             110    0.95 7  334 252 
 CBOC HN ES       1712  4.40                             110    0.54 7  334 252 
 CBOC HZ I        1712 10.02         7.3 0.50            107            334 252 
 ANIL HZ EP   4   1711 31.38                             108    1.22 0  358 224 
 ANIL HE ES   4   1712 11.85                             108    2.82 0  358 224 
 ANIL HZ I        1712 14.45        70.0 0.34            106            358 224 
 PRA  HZ EP       1711 33.64                             106   -0.24 6  392 210 
 PRA  HN ES       1712 15.48                             106   -0.18 6  392 210 
 PRA  HZ I        1712 20.28        21.7 0.30            104            392 210 
 ORTC HZ EP       1711 34.20                             106   -0.08 6  396 216 
 ORTC HE ES   4   1712 17.81                             106    1.44 0  396 216 
 ORTC HZ I        1712 21.17        22.6 0.26            104            396 216 
 CRJC HZ EP   4   1711 40.18                             103   -2.60 0  467   4 
 CRJC HE ES   4   1712 27.25                             103   -4.25 0  467   4 
 CRJC HZ I        1712 34.98        20.1 0.38            101            467   4 
                                                                                
