 2012  3 9 1506 23.1 L   6.733 -73.134142.8  RSN  5 0.3 1.4LRSN                1
 GAP=234        0.80       7.5     7.6  6.9  0.2735E+02  0.1024E+02  0.1084E+02E
 ACTION:UP  12-03-31 23:18 OP:EP   STATUS:               ID:20120309150623 L   I
 2012-03-09-1500-00M.COL___193                                                 6
 STAT SP IPHASW D HRMM SECON CODA AMPLIT PERI AZIMU VELO SNR AR TRES W  DIS CAZ7
 BAR2 SZ EP       15 6 42.28                             173     0.110   16 199 
 BAR2 SZ ES       15 6 56.90                             173    -0.310   16 199 
 BAR2 SZ I        15 6 58.86         4.8 0.29                            16 199 
 BRR  HZ EP   1   15 6 43.99                             150    -0.2 7   76 303 
 BRR  HZ I        15 6 50.38         9.1 0.51                            76 303 
 BRR  HN ES   1   15 7  1.30                             150     0.7 7   76 303 
 RUS  HZ EP   1   15 6 45.85                             145    -0.1 7   93 177 
 RUS  HE ES   1   15 7  3.97                             145     0.1 7   93 177 
 PTB  HZ EP   1   15 6 49.39                             131    -0.4 7  148 262 
 PTB  HE ES   1   15 7 10.45                             131    -0.2 7  148 262 
 CHI  HZ EP   1   15 7  0.48                             117     0.6 6  242 196 
 CHI  HZ I        15 7  0.96         1.5 0.11                           242 196 
                                                                                
