 2013 12 9 1000  4.1 L   6.734 -73.185142.3  RSN  5 0.4 1.6LRSN                1
 GAP=228        0.84       7.0     6.2  7.5  0.2483E+02  0.8324E+01 -0.1468E+01E
 Epicentro: VILLANUEVA - SANTANDER                                             3
 ACTION:UPD 14-01-13 10:16 OP:ep   STATUS:               ID:20131209100004 L   I
 OLDACT:UP  13-12-09 15:15 OP:cam  STATUS:               ID:20131209100000     3
 OLDACT:REG 13-12-09 14:26 OP:cam  STATUS:               ID:20131209100000     3
 2013-12-09-1000-00M.COL___285                                                 6
 STAT SP IPHASW D HRMM SECON CODA AMPLIT PERI AZIMU VELO AIN AR TRES W  DIS CAZ7
 BAR2 SZ EP   1   10 0 22.85                             173   -0.38 7 15.7 179 
 BAR2 SZ ES       10 0 37.84                             173   -0.2810 15.7 179 
 BAR2 SZ I        10 0 39.15        10.0 0.20            174           15.7 179 
 BRR  HZ EP       10 0 24.66                             152   -0.2710 71.3 305 
 BRR  HN ES       10 0 41.47                             152    0.3210 71.3 305 
 RUS  HZ EP   1   10 0 27.37                             145    0.30 7 93.7 173 
 RUS  HE ES   1   10 0 45.56                             145    0.61 7 93.7 173 
 PTB  HZ EP   2   10 0 29.84                             132   -0.49 5  142 261 
 PTB  HN ES       10 0 50.37                             132   -0.38 9  142 261 
 PTB  HZ I        10 0 52.29         9.4 0.96            131            142 261 
 ZAR  HZ EP   2   10 0 36.93                             122    0.68 4  203 295 
 ZAR  HN ES       10 1  1.64                             122    0.35 9  203 295 
 ZAR  HZ I        10 1  7.75         2.1 0.26            121            203 295 
                                                                                
