 2010 10 9 1102 10.0 L   6.782 -73.038129.4  RSN  4 0.2 1.6LRSN                1
 GAP=284        0.56      12.6    12.8 14.9 -0.1250E+03 -0.1493E+03  0.1142E+03E
 Epicentro: CEPITA - SANTANDER                                                 3
 ACTION:UP  11-02-18 11:08 OP:tino STATUS:               ID:20101009110210 L   I
 2010-10-09-1057-16S.COL___121                                                 6
 STAT SP IPHASW D HRMM SECON CODA AMPLIT PERI AZIMU VELO SNR AR TRES W  DIS CAZ7
 BTL  SZ EP   1   11 2 27.78                             166     0.0 7   30 301 
 BRR  HZ EP       11 2 30.36                             145     0.210   83 296 
 BRR  HN ES   1   11 2 45.62                             145    -0.2 7   83 296 
 BRR  HZ I        11 2 49.96         8.8 0.67                            83 296 
 GUE  SZ EP   1   11 2 33.18                             135     0.0 7  117   6 
 GRA  SZ EP   1   11 2 33.32                             133    -0.4 7  125  12 
 GRA  SZ ES   2   11 2 52.57                             133     0.4 5  125  12 
                                                                                
