 2011 12 9 1554  9.0 L   6.774 -73.032147.5  RSN  4 0.3 1.4LRSN                1
 GAP=153        0.52       5.9     7.4  7.9 -0.4766E+01 -0.6253E+00 -0.9830E+01E
 Epicentro: CEPITA - SANTANDER                                                 3
 ACTION:UPD 12-07-13 16:15 OP:ep   STATUS:               ID:20111209155409 L   I
 2011-12-09-1551-00S.MAN___173                                                 6
 STAT SP IPHASW D HRMM SECON CODA AMPLIT PERI AZIMU VELO AIN AR TRES W  DIS CAZ7
 BAR2 SZ EP   1   1554 29.27                             169    0.36 7 26.1 220 
 BAR2 SZ ES   2   1554 44.40                             169   -0.03 5 26.1 220 
 PAM  SZ EP   1   1554 30.77                             153   -0.37 7 72.5  30 
 PAM  SN ES   2   1554 48.72                             153    0.32 5 72.5  30 
 PAM  SZ I        1554 51.69         2.9 0.37                          72.5  30 
 BRR  HZ EP   1   1554 31.19                             149    0.09 7 83.7 296 
 BRR  HN ES   2   1554 48.04                             149   -0.28 5 83.7 296 
 BRR  HZ I        1554 49.33         6.8 0.12                          83.7 296 
 RUS  HN ES   2   1554 51.04                             145   -0.19 5 97.6 183 
                                                                                
