 2013  3 9 1555  7.0 L   6.672 -73.140153.2  RSN  5 0.3 1.6LRSN                1
 GAP=143        0.70       6.3     6.0  7.2  0.6692E+01 -0.7010E+00 -0.1092E+02E
 Epicentro: VILLANUEVA - SANTANDER                                             3
 ACTION:UPD 13-04-09 14:01 OP:ep   STATUS:               ID:20130309155507 L   I
 2013-03-09-1550-00M.COL___231                                                 6
 STAT SP IPHASW D HRMM SECON CODA AMPLIT PERI AZIMU VELO AIN AR TRES W  DIS CAZ7
 BAR2 SZ ES   1   1555 43.26                             176    0.07 7 10.0 208 
 BAR2 SZ I        1555 43.94        10.1 0.22             47           10.0 208 
 BRR  HZ EP       1555 29.84                             151    0.4410 79.5 307 
 BRR  HN ES       1555 46.89                             151   -0.0110 79.5 307 
 BRR  HN I        1555 47.53        10.9 0.18             47           79.5 307 
 RUS  HE ES   1   1555 48.93                             149    0.03 7 86.4 176 
 RUS  HE I        1555 51.08         8.5 0.15             47           86.4 176 
 PAM  SZ EP   1   1555 30.12                             149   -0.53 7 88.4  33 
 PAM  SZ I        1556  8.15         4.1 0.23             47           88.4  33 
 PTB  HZ EP   1   1555 34.49                             134    0.05 7  146 264 
 PTB  HN ES   1   1555 55.42                             134   -0.44 7  146 264 
 PTB  HZ I        1555 56.45         3.5 0.09             47            146 264 
                                                                                
