 2014  5 9 1636 45.9 L   6.804 -73.176142.9  RSN  9 0.4 1.9LRSN                1
 GAP=133        0.95       3.4     4.2  7.8 -0.7273E+00  0.1317E+02  0.2350E+01E
 Epicentro: LOS SANTOS - SANTANDER                                             3
 OLDACT:DUP 14-05-10 01:21 OP:mh   STATUS:               ID:20140509162812d    3
 ACTION:UPD 15-03-16 16:56 OP:nd   STATUS:               ID:20140509163645 L   I
 OLDACT:UP  14-05-10 01:21 OP:mh   STATUS:               ID:20140509162812d    3
 2014-05-09-1628-11M.COL___245                                                 6
 STAT SP IPHASW D HRMM SECON CODA AMPLIT PERI AZIMU VELO AIN AR TRES W  DIS CAZ7
 PAM  SZ EP       1637  8.23                             150    0.3510 79.2  42 
 PAM  SN ES       1637 25.42                             150    0.3610 79.2  42 
 PAM  SZ I        1637 27.21        11.0 0.56            155           79.2  42 
 RUS  HZ EP       1637  9.25                             143   -0.1310  101 174 
 RUS  HN ES       1637 27.35                             143   -0.3810  101 174 
 RUS  SZ I        1637 29.14         7.9 0.38            145            101 174 
 PTB  HZ EP       1637 11.74                             132   -0.56 9  145 258 
 PTB  HN ES       1637 32.75                             132   -0.17 9  145 258 
 PTB  SZ I        1637 36.65         8.4 0.14            131            145 258 
 ZAR  HZ EP       1637 17.73                             122   -0.04 9  201 292 
 ZAR  HN ES       1637 43.32                             122    0.65 9  201 292 
 ZAR  SZ I        1637 47.98         7.2 0.28            122            201 292 
 NOR  HZ EP       1637 21.50                             118    0.35 8  232 234 
 NOR  HN ES       1637 48.87                             118    0.19 8  232 234 
 NOR  SZ I        1637 54.30         7.6 0.36            119            232 234 
 SML  HN ES       1637 49.60                             117   -0.81 8  242 336 
 URE  HZ EP   4   1637 24.99                             113   -1.42 0  281 292 
 URE  HN ES   4   1638  3.34                             113    5.29 0  281 292 
 URE  SZ I        1638  7.55         6.0 0.36            114            281 292 
 RREF HZ EP   4   1637 34.21                             110    2.60 0  320 229 
 RREF HN ES   4   1638 10.07                             110    2.76 0  320 229 
 RREF SZ I        1638 14.30         4.5 0.32            111            320 229 
 PRA  HZ EP       1637 39.31                             106    0.18 6  391 209 
 PRA  HN ES       1638 20.95                             106    0.27 6  391 209 
 PRA  SZ I        1638 27.63         5.6 1.26            107            391 209 
                                                                                
