 2013  2 9 1031 25.4 L   6.810 -73.117146.7  RSN  5 0.3 1.4LRSN                1
 GAP=140        0.68       4.1     4.8  6.4  0.5604E+01  0.2671E+01 -0.3470E+01E
 Epicentro: LOS SANTOS - SANTANDER                                             3
 ACTION:UPD 13-03-12 09:31 OP:ep   STATUS:               ID:20130209103125 L   I
 2013-02-09-1030-00M.COL___240                                                 6
 STAT SP IPHASW D HRMM SECON CODA AMPLIT PERI AZIMU VELO AIN AR TRES W  DIS CAZ7
 BRR  HZ EP       1031 47.06                             152    0.2410 73.5 297 
 BRR  HN ES       1032  3.79                             152    0.2910 73.5 297 
 BRR  HZ I        1032  7.97         5.5 0.45            154           73.5 297 
 PAM  SZ EP   1   1031 47.77                             152    0.18 7 74.5  38 
 PAM  SN ES   1   1032  4.79                             152   -0.07 7 74.5  38 
 PAM  SZ I        1032 12.80         3.2 0.51            152           74.5  38 
 RUS  HZ EP   1   1031 49.63                             144    0.27 7  102 178 
 RUS  HN ES   1   1032  7.38                             144   -0.63 7  102 178 
 RUS  HN I        1032  8.22         3.8 0.41            153            102 178 
 ZAR  HZ EP   2   1031 58.14                             122   -0.07 4  207 292 
 ZAR  HE ES   1   1032 23.59                             122   -0.18 6  207 292 
 ZAR  HZ I        1032 29.13         2.8 0.34            127            207 292 
 SML  HZ EP   1   1032  1.87                             118   -0.28 6  244 335 
 SML  HE ES   1   1032 30.21                             118   -0.58 6  244 335 
                                                                                
