 2012  7 9 1024 55.0 L   6.727 -73.205152.9  RSN  5 0.2 1.5LRSN                1
 GAP=224        0.55       4.3     4.0  4.2  0.9916E+01  0.2207E+01 -0.7079E+00E
 Epicentro: VILLANUEVA - SANTANDER                                             3
 ACTION:UPD 12-08-14 11:43 OP:ep   STATUS:               ID:20120709102455 L   I
 2012-07-09-1020-00M.COL___201                                                 6
 STAT SP IPHASW D HRMM SECON CODA AMPLIT PERI AZIMU VELO AIN AR TRES W  DIS CAZ7
 BAR2 SZ EP       1025 15.05                             174    -0.310   15 171 
 BAR2 SZ I        1025 15.67         4.7 0.13                            15 171 
 BAR2 SZ ES       1025 31.40                             174     0.210   15 171 
 BRR  HZ EP       1025 16.98                             154     0.210   70 307 
 BRR  HZ I        1025 17.30        10.5 0.27                            70 307 
 BRR  HN ES       1025 33.69                             154    -0.210   70 307 
 RUS  HZ EP       1025 19.09                             147     0.210   93 172 
 RUS  HN ES       1025 37.57                             147     0.010   93 172 
 PTB  HZ EP       1025 21.67                             135    -0.2 9  140 262 
 PTB  HN ES       1025 42.78                             135     0.0 9  140 262 
 PTB  HZ I        1025 49.19         2.5 0.37                           140 262 
 ZAR  HZ EP   1   1025 27.75                             124     0.1 6  201 295 
 ZAR  HN ES   1   1025 53.31                             124     0.2 6  201 295 
 ZAR  HZ I        1026  0.30         3.5 0.42                           201 295 
