 2012  6 9 1607 55.6 L   6.799 -73.207135.3  RSN 11 0.3 2.7LRSN                1
 GAP=129        0.59       2.1     3.5  4.6 -0.2144E+01  0.8226E+01  0.3307E+00E
 Epicentro: ZAPATOCA - SANTANDER                                               3
 ACTION:UPD 12-08-06 17:48 OP:ep   STATUS:               ID:20120609160800 L   I
 2012-06-09-1600-00M.COL___201                                                 6
 STAT SP IPHASW D HRMM SECON CODA AMPLIT PERI AZIMU VELO AIN AR TRES W  DIS CAZ7
 BAR2 SZ EP   1   16 8 14.34                             170    0.35 7 23.0 173 
 BAR2 SZ I        16 8 14.62       141.1 0.20            157           23.0 173 
 BAR2 SZ ES   1   16 8 28.39                             170    0.07 7 23.0 173 
 PAM  SZ EP   1   16 8 17.32                             147    0.28 7 82.0  43 
 PAM  SZ I        16 8 18.10       141.8 0.20            143           82.0  43 
 PAM  SN ES       16 8 33.89                             147    0.1510 82.0  43 
 RUS  HZ EP   1   16 8 18.33                             141   -0.08 7  101 172 
 RUS  HN ES   1   16 8 35.81                             141   -0.37 7  101 172 
 RUS  HZ I        16 8 37.99       101.7 0.30            136            101 172 
 PTB  HZ EP   1   16 8 20.96                             131   -0.18 7  141 258 
 PTB  HN ES   1   16 8 41.36                             131    0.33 7  141 258 
 PTB  HZ I        16 8 46.09        36.1 0.14            115            141 258 
 OCA  HZ EP   1   16 8 22.81                             127   -0.28 7  160 356 
 OCA  HN ES       16 8 44.12                             127   -0.39 9  160 356 
 ZAR  HZ EP   1   16 8 27.25                             121    0.49 6  198 293 
 ZAR  HZ I        16 8 58.58        59.5 0.20            108            198 293 
 NOR  SZ EP   1   16 8 30.24                             117    0.08 6  229 233 
 NOR  SN ES   1   16 8 56.77                             117   -0.33 6  229 233 
 CHI  HZ EP   1   16 8 32.52                             115   -0.05 6  247 194 
 CHI  HN ES   1   16 9  1.43                             115    0.05 6  247 194 
 CHI  HZ I        16 9  5.93        15.6 0.26            107            247 194 
 HEL  HZ EP   1   16 8 34.03                             113   -0.55 6  265 255 
 HEL  HZ I        16 9 15.16        26.2 0.29            103            265 255 
 DBB  SZ EP   1   16 8 42.59                             108    0.68 5  333 274 
 PRA  HZ EP   1   16 8 48.40                             105    0.00 4  389 209 
 PRA  HE ES   1   16 9 29.52                             105   -0.05 4  389 209 
                                                                                
