 2015 12 9 1812 49.4 L   5.856 -73.730118.0  RSN  9 0.3 2.3LRSN                1
 GAP=153        0.60       3.2     2.3  4.4 -0.4246E+01  0.2723E+00 -0.2024E+01E
 Epicentro: PUENTE NACIONAL - SANTANDER                                        3
 OLDACT:UP  15-12-10 00:57 OP:ar   STATUS:               ID:20151209180747     3
 OLDACT:REG 15-12-09 20:45 OP:ar   STATUS:               ID:20151209180747     3
 ACTION:UPD 16-02-04 15:03 OP:cam  STATUS:               ID:20151209181249 L   I
 OLDACT:DUP 15-12-10 01:36 OP:ar   STATUS:               ID:20151209180748d    3
 OLDACT:UP  15-12-10 01:18 OP:ar   STATUS:               ID:20151209180747     3
 OLDACT:UP  15-12-10 01:02 OP:ar   STATUS:               ID:20151209180747     3
 2015-12-09-1807-47M.COL___325                                                 6
 STAT SP IPHASW D HRMM SECON CODA AMPLIT PERI AZIMU VELO AIN AR TRES W  DIS CAZ7
 SPBC HZ EP       1813  5.99                             158   -0.2210 44.0 239 
 SPBC HN ES       1813 18.99                             158   -0.3310 44.0 239 
 SPBC HZ I        1813 20.21       104.4 0.24            159           44.0 239 
 RUS  HZ EP   2   1813  8.45                             147    0.10 5 71.8  87 
 RUS  HN ES   2   1813 23.43                             147    0.28 5 71.8  87 
 RUS  HZ I        1813 24.17        20.1 0.52            151           71.8  87 
 BAR2 EZ EP       1813 10.47                             136    0.2210  102  37 
 BAR2 EZ ES       1813 26.76                             136    0.2310  102  37 
 PTB  HZ EP       1813 10.30                             134   -0.4110  110 313 
 PTB  HN ES       1813 27.21                             134   -0.1210  110 313 
 PTB  HZ I        1813 32.56        16.4 0.32            132            110 313 
 NOR  HZ EP       1813 12.57                             129   -0.0110  130 256 
 NOR  HN ES       1813 31.07                             129    0.4010  130 256 
 NOR  HZ I        1813 32.08        89.4 0.16            130            130 256 
 BRR  HZ EP   2   1813 13.32                             127    0.02 5  138   1 
 BRR  HE ES   2   1813 32.48                             127    0.53 5  138   1 
 BRR  HZ I        1813 35.80        32.8 0.50            126            138   1 
 GUY2CHZ EP   2   1813 19.67                             117   -0.03 4  194 249 
 GUY2CHN ES   2   1813 43.90                             117    0.55 4  194 249 
 GUY2CHZ I        1813 49.59        16.3 0.26                           194 249 
 PAM  EZ EP       1813 20.41                             116    0.07 9  200  35 
 PAM  EN ES       1813 44.23                             116   -0.25 9  200  35 
 PAM  EZ I        1813 47.38        22.7 0.30            118            200  35 
 HEL  HZ EP   4   1813 21.97                             116    1.48 0  203 281 
 HEL  HN ES       1813 44.85                             116    0.11 9  203 281 
 HEL  HZ I        1813 49.26        17.1 0.62            117            203 281 
                                                                                
