 2017  9 9 1640 32.8 L   6.824 -73.120143.8  RSN 20 0.5 2.2LRSN                1
 GAP=113        1.04       3.1     3.7  4.9  0.3989E+00  0.5631E+01  0.3482E+01E
 Epicentro: LOS SANTOS - SANTANDER                                             3
 ACTION:UPD 17-10-05 19:10 OP:rebc STATUS:               ID:20170909164032 L   I
 OLDACT:UP  17-09-09 23:02 OP:lv   STATUS:               ID:20170909163744     3
 OLDACT:REG 17-09-09 19:42 OP:lv   STATUS:               ID:20170909163744     3
 2017-09-09-1638-00M.COL___416                                                 6
 STAT SP IPHASW D HRMM SECON CODA AMPLIT PERI AZIMU VELO AIN AR TRES W  DIS CAZ7
 BAR2 EZ IP     D 1640 52.05                             169   -0.2410 26.6 195 
 BAR2 EZ ES       1641  7.88                             169    0.4010 26.6 195 
 BAR2 EZ I        1641  9.26        32.0 0.18            164           26.6 195 
 BRR  HZ EP       1640 53.74                             152   -0.1010 72.5 296 
 BRR  HN ES       1641 10.85                             152    0.6210 72.5 296 
 BRR  HZ I        1641 14.09        36.0 0.15            148           72.5 296 
 PAM  EZ EP       1640 54.75                             151    0.1410 73.5  39 
 PAM  EN ES       1641 11.49                             151   -0.1110 73.5  39 
 PAM  EZ I        1641 13.80        50.1 0.46            154           73.5  39 
 RUS  HZ EP       1640 56.17                             143   -0.4010  103 178 
 RUS  HN ES       1641 14.29                             143   -0.8010  103 178 
 RUS  HZ I        1641 16.88        14.1 0.34            139            103 178 
 SPBC HZ EP       1641  1.20                             128   -0.35 9  167 219 
 SPBC HN ES       1641 24.04                             128    0.09 9  167 219 
 SPBC HZ I        1641 27.34        23.1 0.12            124            167 219 
 YPLC HZ IP     D 1641  2.65                             126    0.07 9  178 153 
 YPLC HN ES       1641 26.51                             126    0.72 9  178 153 
 YPLC HZ I        1641 30.71         6.9 0.34            124            178 153 
 ZAR  HZ EP       1641  4.88                             122   -0.43 8  206 291 
 ZAR  HN ES       1641 30.40                             122   -0.25 8  206 291 
 ZAR  HZ I        1641 36.17        33.4 0.14            119            206 291 
 TABC EZ EP   4   1641 10.04                             118    1.18 0  234 211 
 TABC EZ I        1641 42.16        18.5 0.46            115            234 211 
 NOR  HZ EP       1641  8.60                             118   -0.26 8  239 234 
 NOR  HN ES       1641 36.76                             118   -0.20 8  239 234 
 NOR  HZ I        1641 38.57        12.1 0.26            115            239 234 
 CHI  HZ EP       1641 10.58                             116   -0.20 8  252 196 
 CHI  HN ES       1641 39.82                             116   -0.57 8  252 196 
 CHI  HZ I        1641 46.15         7.1 0.30            114            252 196 
 ROSC BZ EP   9   1641 13.15                             116    1.90 0  257 211 
 ROSC BN ES       1641 42.35                                   -0.77 8  257 211 
 ROSC BZ I        1641 50.27        14.1 0.35            113            257 211 
 HEL  HZ EP       1641 13.99                             114    0.67 7  275 255 
 HEL  HE ES   3   1641 45.86                             114    0.96 2  275 255 
 HEL  HZ I        1641 51.65        13.2 0.32            112            275 255 
 URE  HN ES   4   1641 43.87                             113   -2.22 0  285 291 
 GUY2CHZ EP       1641 17.54                             112    0.76 7  305 235 
 GUY2CHE ES   4   1641 52.41                             112    1.35 0  305 235 
 GUY2CHZ I        1642  0.68        13.4 0.56                           305 235 
 ELA  HZ EP   9   1641 22.46                             110    2.42 0  333 229 
 ELA  HE ES       1641 59.60                                    0.31 7  333 229 
 CBOC HZ EP   4   1641 20.32                             109    0.26 0  337 252 
 CBOC HN ES   4   1641 55.59                             109   -1.32 0  337 252 
 CBOC HZ I        1642  8.18         4.2 0.58            107            337 252 
 DBB  EZ EP       1641 20.10                             109   -0.42 7  342 274 
 DBB  EN ES   4   1641 55.66                             109   -2.07 0  342 274 
 DBB  EZ I        1642  1.97         5.6 0.14            107            342 274 
 ANIL HZ EP       1641 23.78                             108    0.77 6  361 225 
 ANIL HN ES   4   1642  4.76                             108    2.61 0  361 225 
 PRA  HZ EP       1641 26.57                             106   -0.14 6  396 210 
 PRA  HN ES       1642  9.22                             106    0.47 6  396 210 
 PRA  HZ I        1642 14.54         6.2 0.28            104            396 210 
 ORTC HZ EP       1641 28.07                             106    0.94 6  399 216 
 ORTC HN ES       1642  9.46                             106   -0.02 6  399 216 
 ORTC HZ I        1642 16.35         3.4 0.50            104            399 216 
 SJC  HZ EP   4   1641 25.71                             105   -2.53 0  409 326 
 SJC  HN ES   4   1642  6.50                             105   -4.97 0  409 326 
 SJC  HZ I        1642 11.15         3.4 0.45            104            409 326 
                                                                                
