 2012  8 9 1600 28.2 L   6.796 -73.172142.8  RSN 14 0.4 3.0LRSN                1
 GAP= 64        0.77       2.8     2.6  5.1  0.3773E+00  0.2612E+01  0.3699E+01E
 Epicentro: LOS SANTOS - SANTANDER                                             3
 ACTION:UPD 12-09-10 11:55 OP:ep   STATUS:               ID:20120809160028 L   I
 2012-08-09-1600-00M.COL___218                                                 6
 STAT SP IPHASW D HRMM SECON CODA AMPLIT PERI AZIMU VELO AIN AR TRES W  DIS CAZ7
 BAR2 SZ IP       16 0 47.52                             171    0.0310 22.5 183 
 BAR2 SZ ES   1   16 1  2.08                             171   -0.43 7 22.5 183 
 BAR2 SZ I        16 1  3.89       543.5 0.19                          22.5 183 
 BRR  HZ IP     D 16 0 49.39                             153    0.4610 68.9 300 
 BRR  HZ I        16 0 49.58       198.7 0.17                          68.9 300 
 BRR  HN ES   1   16 1  6.07                             153    0.99 7 68.9 300 
 PAM  SZ EP       16 0 50.46                             150    0.1810 79.6  41 
 PAM  SN ES   1   16 1  7.30                             150   -0.16 7 79.6  41 
 RUS  HZ EP   1   16 0 51.46                             143   -0.22 7  100 174 
 RUS  HE ES   1   16 1 10.03                             143    0.06 7  100 174 
 RUS  HZ I        16 1 11.23        96.7 0.21                           100 174 
 PTB  HZ EP   1   16 0 54.38                             132   -0.31 7  145 259 
 PTB  HN ES   1   16 1 14.94                             132   -0.39 7  145 259 
 PTB  HZ I        16 1 17.05        83.2 0.28                           145 259 
 TAM  HZ IP     C 16 0 55.83                             129   -0.11 9  158 105 
 TAM  HZ I        16 0 56.09       141.1 0.19                           158 105 
 TAM  HN ES   1   16 1 17.19                             129   -0.35 7  158 105 
 OCA  HN ES   1   16 1 17.55                             129   -0.70 7  160 354 
 YOP  SN ES   1   16 1 21.88                             125    0.38 7  180 152 
 ZAR  HZ EP   1   16 1  0.29                             122    0.06 6  202 293 
 ZAR  HN ES   1   16 1 25.32                             122    0.14 6  202 293 
 ZAR  HZ I        16 1 31.97       130.9 0.29                           202 293 
 NOR  SZ EP   1   16 1  3.77                             118    0.26 6  232 234 
 NOR  SN ES   1   16 1 30.99                             118   -0.03 6  232 234 
 CHI  HZ EP   1   16 1  5.56                             117   -0.08 6  247 195 
 CHI  HN ES   1   16 1 34.98                             117    0.16 6  247 195 
 CHI  HZ I        16 1 40.86        32.3 0.25                           247 195 
 HEL  HZ EP   1   16 1  8.19                             114    0.22 6  269 256 
 HEL  HN ES   1   16 1 38.00                             114   -0.96 6  269 256 
 HEL  HZ I        16 1 46.82        37.0 0.34                           269 256 
 VIL  SZ EP   1   16 1 11.86                             111    0.45 5  302 191 
 PRA  HZ EP   1   16 1 21.27                             106   -0.17 4  390 209 
 PRA  HN ES   1   16 2  2.48                             106   -0.46 4  390 209 
                                                                                
