 2015  3 9 1801 32.0 L   6.792 -73.141147.2  RSN 13 0.5 2.0LRSN                1
 GAP=137        1.03       3.3     5.0  6.3 -0.4334E+01  0.4877E+01  0.2867E+01E
 Epicentro: LOS SANTOS - SANTANDER                                             3
 ACTION:UPD 15-04-30 16:24 OP:nd   STATUS:               ID:20150309180132 L   I
 OLDACT:REG 15-03-09 23:03 OP:spq  STATUS:               ID:20150309175750     3
 2015-03-09-1757-50M.COL___278                                                 6
 STAT SP IPHASW D HRMM SECON CODA AMPLIT PERI AZIMU VELO AIN AR TRES W  DIS CAZ7
 BAR2 EZ EP       18 1 51.71                             171   -0.0710 22.5 192 
 BAR2 EZ ES   1   18 2  6.80                             171   -0.42 7 22.5 192 
 BAR2 EZ I        18 2  9.48        17.2 0.18            168           22.5 192 
 BRR  HZ EP       18 1 53.82                             152    0.4710 72.0 299 
 BRR  HN ES       18 2 11.04                             152    1.0410 72.0 299 
 BRR  HZ I        18 2 15.40        17.0 0.30            151           72.0 299 
 PAM  SZ EP       18 1 54.54                             151    0.1510 77.8  39 
 PAM  SE ES       18 2 11.88                             151    0.0310 77.8  39 
 PAM  SZ I        18 2 13.88        19.8 0.52            156           77.8  39 
 RUS  HZ EP   1   18 1 55.66                             144   -0.16 7 99.6 176 
 RUS  HE ES   1   18 2 13.85                             144   -0.56 7 99.6 176 
 RUS  HZ I        18 2 17.24         8.3 0.42            146           99.6 176 
 PTB  HZ EP       18 1 58.79                             132   -0.32 9  148 259 
 PTB  HN ES       18 2 19.51                             132   -0.74 9  148 259 
 PTB  HZ I        18 2 26.95        20.6 0.34            132            148 259 
 OCA  HZ EP   1   18 2  0.06                             130   -0.45 7  161 353 
 OCA  HN ES       18 2 22.68                             130   -0.07 9  161 353 
 OCA  HZ I        18 2 31.65        10.4 0.28            133            161 353 
 SPBC HN ES   1   18 2 22.64                             129   -0.21 7  163 219 
 SPBC HZ I        18 2 30.35        19.2 0.12            130            163 219 
 NOR  HZ EP   1   18 2  8.27                             119    0.47 6  235 235 
 NOR  HN ES   1   18 2 35.88                             119    0.16 6  235 235 
 NOR  HZ I        18 2 41.85         8.4 0.16            120            235 235 
 SML  HZ EP   1   18 2  8.29                             118   -0.52 6  245 335 
 SML  HE ES   1   18 2 36.82                             118   -0.71 6  245 335 
 SML  HZ I        18 2 42.05        12.9 0.10            120            245 335 
 CHI  HZ EP       18 2 10.05                             117    0.36 8  248 195 
 CHI  HN ES   1   18 2 39.19                             117    0.09 6  248 195 
 CHI  HZ I        18 2 49.03         4.4 0.34            120            248 195 
 GUY2CHZ EP   1   18 2 16.41                             113    0.75 5  301 235 
 GUY2CHE ES   4   18 2 53.36                             113    3.65 0  301 235 
 GUY2CHZ I        18 3  0.54         5.7 0.56                           301 235 
 MON  HZ EP   4   18 2 18.96                             109   -2.20 0  355 308 
 MON  HN ES   4   18 2 58.13                             109   -1.38 0  355 308 
 MON  HZ I        18 3  0.89         1.9 0.47            110            355 308 
 PRA  HE ES   1   18 3  7.52                             107    0.28 4  391 210 
 PRA  HZ I        18 3 11.26         4.8 0.62            108            391 210 
                                                                                
