 2010  7 9 1052 30.8 L   6.790 -73.101138.2  RSN 16 0.4 3.7LRSN                1
 GAP=161        0.79       3.3     6.2  6.5 -0.1054E+02  0.9599E+01  0.2964E+01E
 Epicentro: LOS SANTOS - SANTANDER                                             3
 ACTION:UPD 10-12-01 15:16 OP:pat  STATUS:               ID:20100709105230 L   I
 2010-07-09-1050-48S.COL___120                                                 6
 STAT SP IPHASW D HRMM SECON CODA AMPLIT PERI AZIMU VELO AIN AR TRES W  DIS CAZ7
 BAR2 SZ IP     D 1052 49.60                             170     0.110   24 203 
 BAR2 SZ ES   2   1053  3.95                             170    -0.2 5   24 203 
 BRR  HZ IP     D 1052 51.51                             149     0.110   76 297 
 BRR  HE ES   2   1053  8.29                             149     0.7 5   76 297 
 BRR  HZ I        1053 12.90      1350.8 0.10                            76 297 
 RUS  HZ EP       1052 53.51                             143    -0.210   99 179 
 RUS  HE ES   2   1053 11.33                             143    -0.3 5   99 179 
 RUS  HZ I        1053 14.12       397.7 0.35                            99 179 
 BRI  SZ IP     D 1052 54.30                             140     0.410  108  18 
 GUE  SZ EP   1   1052 54.62                             138    -0.2 7  117  10 
 GUE  SZ ES   2   1053 13.69                             138     0.1 5  117  10 
 GRA  SZ IP     D 1052 55.59                             135     0.210  125  15 
 GRA  SZ ES   2   1053 14.38                             135    -0.1 5  125  15 
 OCA  SZ IP     D 1052 58.20                             128    -0.5 9  162 351 
 OCA  SZ ES   2   1053 19.93                             128    -0.5 5  162 351 
 OCA  SZ I        1053 25.30       732.4 0.23                           162 351 
 CHI  HZ EP   1   1053  7.96                             115    -0.2 6  249 196 
 CHI  HN ES   2   1053 36.90                             115    -0.3 4  249 196 
 CHI  HZ I        1053 40.38       183.8 0.29                           249 196 
 ROSC BZ EP   1   1053  9.64                             115     0.9 6  254 212 
 ROSC BN ES   2   1053 38.13                             115    -0.1 4  254 212 
 ROSC BZ I        1053 46.59       270.5 0.51                           254 212 
 CVER SZ EP   1   1053 11.30                             113     0.4 6  273 203 
 HEL  HZ EP   1   1053 10.27                             113    -0.9 6  277 256 
 HEL  HZ I        1053 46.75       173.1 0.36                           277 256 
 GUY  HZ EP   1   1053 15.27                             111     0.8 5  305 236 
 GUY  HN ES   2   1053 48.61                             111     0.1 4  305 236 
 RREF HZ EP   1   1053 16.42                             109    -0.6 5  325 230 
 RREF HE ES   2   1053 52.75                             109    -0.3 3  325 230 
 RREF HZ I        1054  1.74       213.4 0.37                           325 230 
 TOL  SZ EP   1   1053 19.52                             108     0.4 5  346 225 
 TOL  SZ ES   2   1053 57.23                             108     0.5 3  346 225 
 ANIL HZ EP   1   1053 20.94                             107     0.3 5  360 225 
 ANIL HE ES   2   1053 59.34                             107    -0.2 3  360 225 
 ANIL HZ I        1054  3.34       386.6 0.34                           360 225 
 PRA  HZ EP   1   1053 23.74                             105    -0.5 4  394 210 
 PRA  HE ES   2   1054  5.42                             105    -0.5 3  394 210 
 PRA  HZ I        1054 10.99       226.1 0.79                           394 210 
                                                                                
