 2013  2 9 1622 29.7 L   6.759 -73.178139.0  RSN  5 0.4 1.5LRSN                1
 GAP=134        0.75       5.7     5.7  8.3 -0.8611E+01  0.1515E+02 -0.7735E+01E
 Epicentro: VILLANUEVA - SANTANDER                                             3
 ACTION:UPD 13-03-12 09:31 OP:ep   STATUS:               ID:20130209162229 L   I
 2013-02-09-1620-00M.COL___240                                                 6
 STAT SP IPHASW D HRMM SECON CODA AMPLIT PERI AZIMU VELO AIN AR TRES W  DIS CAZ7
 BAR2 SZ EP   1   1622 48.62                             172    0.24 7 18.4 182 
 BAR2 SZ ES   1   1623  3.46                             172    0.48 7 18.4 182 
 BAR2 SZ I        1623  4.41         9.4 0.18            172           18.4 182 
 BRR  HZ EP   1   1622 50.69                             151    0.66 7 70.5 303 
 PAM  SZ EP   1   1622 51.46                             148   -0.06 7 83.1  39 
 PAM  SN ES   1   1623  8.08                             148   -0.49 7 83.1  39 
 PAM  SZ I        1623 10.28         7.2 0.44            152           83.1  39 
 RUS  HZ EP   1   1622 52.41                             144   -0.02 7 96.4 174 
 RUS  HN ES   1   1623  9.97                             144   -0.23 7 96.4 174 
 RUS  HZ I        1623 12.78         4.8 0.42            146           96.4 174 
 PTB  HZ EP   1   1622 55.37                             131   -0.31 7  143 260 
 PTB  HN ES   1   1623 15.64                             131   -0.34 7  143 260 
 PTB  HZ I        1623 19.29         2.8 0.20            133            143 260 
                                                                                
