 2012  7 9 1359  7.5 L   7.362 -73.102 12.7  RSN  7 0.4 1.9LRSN                1
 GAP=107        1.30       3.2     3.3  6.0  0.6748E+00  0.9101E+01  0.4342E+01E
 Epicentro: MATANZA - SANTANDER                                                3
 ACTION:UP  12-08-14 11:43 OP:ep   STATUS:               ID:20120709135907 L   I
 2012-07-09-1354-36M.COL___208                                                 6
 STAT SP IPHASW D HRMM SECON CODA AMPLIT PERI AZIMU VELO AIN AR TRES W  DIS CAZ7
 PAM  SZ EP       1359 16.17                             103     0.710   45  93 
 PAM  SN ES       1359 21.10                             103    -0.610   45  93 
 BRR  HZ EP       1359 19.48                              97     0.210   73 247 
 BRR  HE ES   1   1359 28.20                              97    -0.2 7   73 247 
 BRR  HZ I        1359 29.00        44.4 0.13                            73 247 
 BAR2 SZ EP       1359 21.49                              96     0.110   86 186 
 BAR2 SZ ES       1359 31.85                              96    -0.410   86 186 
 BAR2 SZ I        1359 32.66        27.0 0.10                            86 186 
 OCA  HZ EP   1   1359 23.30                              95    -0.2 7  100 346 
 OCA  HN ES   1   1359 35.46                              95    -0.4 7  100 346 
 OCA  HZ I        1359 38.51        43.2 0.13                           100 346 
 RUS  HZ EP       1359 33.74                              56     0.8 9  162 179 
 RUS  HN ES       1359 52.41                              56    -0.3 9  162 179 
 RUS  HZ I        1359 54.81        14.7 0.20                           162 179 
 PTB  HZ EP       1359 34.11                              56     0.2 9  175 239 
 PTB  HN ES       1359 54.06                              56    -0.5 9  175 239 
 PTB  HZ I        1359 56.23        14.8 0.28                           175 239 
 ZAR  HZ EP       1359 36.80                              56     0.5 9  194 274 
 ZAR  HZ I        1359 38.34        14.7 0.15                           194 274 
 ZAR  HN ES   1   1359 58.42                              56    -0.4 6  194 274 
