 2010  6 9 1150 23.2 L   6.837 -73.410135.2  RSN  5 0.3 1.4LRSN                1
 GAP=225        0.65       6.4    31.3 11.4 -0.8011E+02  0.8826E+02 -0.4512E+02E
 Epicentro: SAN VICENTE DE CHUCURI - SANTANDER                                 3
 ACTION:UP  10-08-24 10:09 OP:vdl  STATUS:               ID:20100609115023 L   I
 2010-06-09-1147-31S.COL___111                                                 6
 STAT SP IPHASW D HRMM SECON CODA AMPLIT PERI AZIMU VELO SNR AR TRES W  DIS CAZ7
 GIR2 SZ EP       1150 41.42                             164    -0.310   36  42 
 GIR2 SZ ES   3   1150 55.71                             164    -0.5 2   36  42 
 BAR2 SZ EP       1150 42.34                             164     0.410   37 137 
 BAR2 SZ ES   2   1150 56.92                             164     0.4 5   37 137 
 RUS  HZ EP   2   1150 46.65                             138    -0.1 5  110 161 
 RUS  HE ES   2   1151  4.51                             138    -0.5 5  110 161 
 RUS  HZ I        1151  6.14         3.8 0.27                           110 161 
 GUE  SZ EP       1150 47.33                             135    -0.110  122  26 
 GUE  SZ ES   3   1151  6.53                             135     0.2 2  122  26 
 GRA  SZ EP       1150 48.38                             132     0.110  134  30 
                                                                                
