 2017  1 9 1108 18.7 L   6.776 -73.114149.6  RSN  8 0.4 1.5LRSN                1
 GAP=123        0.93       4.1     3.7  5.4  0.6222E+00  0.4303E+01  0.3687E+01E
 Epicentro: LOS SANTOS - SANTANDER                                             3
 ACTION:UPD 17-05-22 15:57 OP:jn   STATUS:               ID:20170109110818 L   I
 OLDACT:REG 17-01-09 17:27 OP:ar   STATUS:               ID:20170109105749     3
 2017-01-09-1058-00M.COL___347                                                 6
 STAT SP IPHASW D HRMM SECON CODA AMPLIT PERI AZIMU VELO AIN AR TRES W  DIS CAZ7
 BAR2 EZ EP       11 8 38.76                             171   -0.0110 21.6 200 
 BAR2 EZ ES       11 8 54.09                             171   -0.3210 21.6 200 
 BAR2 EZ I        11 8 55.30         9.0 0.40            170           21.6 200 
 BRR  HZ EP       11 8 40.70                             152    0.1810 75.5 299 
 BRR  HN ES       11 8 58.06                             152    0.5310 75.5 299 
 BRR  HZ I        11 9  1.16         6.6 0.32            150           75.5 299 
 PAM  EZ EP       11 8 41.66                             151    0.3210 77.4  36 
 PAM  EN ES       11 8 58.90                             151   -0.0810 77.4  36 
 PAM  EZ I        11 8 59.50         3.6 0.20            154           77.4  36 
 RUS  HZ EP       11 8 42.82                             145    0.1810 97.7 178 
 RUS  HN ES       11 9  1.21                             145   -0.0910 97.7 178 
 RUS  HZ I        11 9  2.55         3.8 0.34            147           97.7 178 
 PTB  HZ EP       11 8 45.68                             132   -0.58 9  151 260 
 PTB  HE ES       11 9  7.48                             132   -0.26 9  151 260 
 PTB  HZ I        11 9 14.22         4.7 0.48            132            151 260 
 ZAR  HZ EP       11 8 51.98                             123    0.13 8  208 292 
 ZAR  HE ES       11 9 17.02                             123   -0.67 8  208 292 
 ZAR  HZ I        11 9 23.29         4.8 0.72            123            208 292 
 NOR  HZ EP       11 8 55.19                             119    0.38 8  236 235 
 NOR  HN ES       11 9 23.59                             119    0.63 8  236 235 
 PTGC HZ EP       11 9  1.82                             112   -0.50 7  305 159 
                                                                                
