 2014  5 9 1509 49.7 L   6.806 -73.157140.7  RSN  7 0.3 1.5LRSN                1
 GAP=135        0.73       3.0     3.4  6.3 -0.1523E+01  0.9487E+01 -0.4431E+00E
 Epicentro: LOS SANTOS - SANTANDER                                             3
 OLDACT:UP  14-05-10 00:07 OP:mh   STATUS:               ID:20140509150819     3
 OLDACT:REG 14-05-09 20:41 OP:stll STATUS:               ID:20140509150819     3
 ACTION:UPD 15-03-16 16:56 OP:nd   STATUS:               ID:20140509150949 L   I
 OLDACT:UP  14-05-10 00:08 OP:mh   STATUS:               ID:20140509150819     3
 OLDACT:UP  14-05-10 00:08 OP:mh   STATUS:               ID:20140509150819     3
 OLDACT:UP  14-05-10 00:07 OP:mh   STATUS:               ID:20140509150819     3
 2014-05-09-1508-19M.COL___245                                                 6
 STAT SP IPHASW D HRMM SECON CODA AMPLIT PERI AZIMU VELO AIN AR TRES W  DIS CAZ7
 PAM  SZ EP       1510 11.81                             150    0.4610 77.7  41 
 PAM  SN ES       1510 28.04                             150   -0.2310 77.7  41 
 PAM  SZ I        1510 30.54         4.7 0.68            158           77.7  41 
 RUS  HZ EP       1510 12.88                             142   -0.0810  101 175 
 RUS  HN ES       1510 31.26                             142    0.1210  101 175 
 RUS  SZ I        1510 32.87         4.7 0.50            147            101 175 
 PTB  HZ EP       1510 15.77                             131   -0.34 9  147 258 
 PTB  HN ES       1510 36.47                             131   -0.27 9  147 258 
 PTB  SZ I        1510 45.42         4.7 0.80            133            147 258 
 ZAR  HZ EP       1510 21.67                             121    0.05 9  203 292 
 ZAR  HN ES   1   1510 46.92                             121    0.36 6  203 292 
 ZAR  SZ I        1510 49.86         4.0 0.14            124            203 292 
 NOR  HZ EP       1510 24.55                             117   -0.47 8  234 234 
 NOR  HN ES       1510 53.10                             117    0.49 8  234 234 
 NOR  SZ I        1511  1.19         3.8 1.66            121            234 234 
 SML  HN ES   1   1510 54.19                             116    0.06 6  243 336 
 PRA  HZ EP   1   1510 43.25                             106    0.25 4  392 209 
                                                                                
