 2012  1 9 1703  3.1 L   6.764 -73.117146.6  RSN  9 0.4 2.3LRSN                1
 GAP=142        0.97       4.9     6.8  7.7 -0.7580E+01  0.1618E+02  0.3543E+01E
 Epicentro: LOS SANTOS - SANTANDER                                             3
 ACTION:UP  12-02-03 08:15 OP:REBC STATUS:               ID:20120109170303 L   I
 2012-01-09-1700-00M.COL___186                                                 6
 STAT SP IPHASW D HRMM SECON CODA AMPLIT PERI AZIMU VELO SNR AR TRES W  DIS CAZ7
 BAR2 SZ EP   1   17 3 22.17                             172    -0.6 7   20 201 
 BAR2 SZ ES   1   17 3 37.82                             172    -0.3 7   20 201 
 BAR2 SZ I        17 3 40.82        47.0 0.27                            20 201 
 GIR2 SZ EP   1   17 3 22.91                             166    -0.1 7   36 346 
 BRR  HZ EP       17 3 24.74                             151     0.110   76 300 
 BRR  HE ES   1   17 3 41.93                             151     0.5 7   76 300 
 BRR  HZ I        17 3 45.90        41.8 0.18                            76 300 
 PAM  SZ EP       17 3 25.59                             151     0.110   79  36 
 PAM  SN ES   1   17 3 42.91                             151     0.0 7   79  36 
 RUS  HZ EP   1   17 3 26.70                             145     0.0 7   96 178 
 RUS  HN ES   1   17 3 45.35                             145     0.3 7   96 178 
 PTB  HZ EP   1   17 3 29.40                             132    -1.0 7  150 261 
 ZAR  HZ EP   1   17 3 36.95                             122     0.9 6  208 293 
 ZAR  HZ I        17 4  6.95        14.2 0.17                           208 293 
 NOR  SZ EP   1   17 3 38.70                             119    -0.2 6  235 236 
 NOR  SN ES   1   17 4  6.55                             119    -0.3 6  235 236 
 CHI  HZ EP   1   17 3 40.95                             118     0.4 6  246 196 
 CHI  HN ES   1   17 4 10.21                             118     0.5 6  246 196 
 CHI  HZ I        17 4 20.10         9.0 0.36                           246 196 
                                                                                
