 2013  5 9 1058 45.1 L   6.788 -73.204150.3  RSN  4 0.2 1.2LRSN                1
 GAP=230        0.50       6.4     5.5  6.5  0.1971E+02  0.6408E+01  0.1142E+02E
 Epicentro: ZAPATOCA - SANTANDER                                               3
 ACTION:UPD 13-06-20 09:49 OP:ep   STATUS:               ID:20130509105845 L   I
 2013-05-09-1050-00M.COL___256                                                 6
 STAT SP IPHASW D HRMM SECON CODA AMPLIT PERI AZIMU VELO AIN AR TRES W  DIS CAZ7
 BAR2 SZ EP   2   1059  4.90                             171   -0.39 5 21.7 174 
 BAR2 SZ ES   1   1059 20.70                             171   -0.30 7 21.7 174 
 BRR  HN ES   1   1059 23.50                             155    0.30 7 66.3 302 
 RUS  HZ EP   1   1059  9.50                             145    0.21 7 99.9 172 
 RUS  HZ I        1059 10.16         2.0 0.14            140           99.9 172 
 RUS  HN ES   1   1059 28.26                             145    0.13 7 99.9 172 
 PTB  HZ EP   2   1059 11.83                             134   -0.07 5  141 259 
 PTB  HN ES   1   1059 32.61                             134   -0.16 7  141 259 
 PTB  HZ I        1059 38.15         2.5 0.32            128            141 259 
                                                                                
