 2016  9 9 1157 19.7 L   6.753 -73.192149.8  RSN  5 0.3 1.9LRSN                1
 GAP=228        0.79       4.7     5.0  5.8  0.4822E+01  0.3694E+01  0.2562E+01E
 Epicentro: VILLANUEVA - SANTANDER                                             3
 ACTION:UPD 17-08-17 21:08 OP:lp   STATUS:               ID:20160909115719 L   I
 OLDACT:REG 16-09-09 20:06 OP:lv   STATUS:               ID:20160909114735     3
 2016-09-09-1148-00M.COL___359                                                 6
 STAT SP IPHASW D HRMM SECON CODA AMPLIT PERI AZIMU VELO AIN AR TRES W  DIS CAZ7
 BAR2 EZ IP       1157 39.38                             173   -0.3510 17.8 176 
 BAR2 EZ ES       1157 54.91                             173   -0.4310 17.8 176 
 BAR2 EZ I        1157 56.00        26.6 0.16            170           17.8 176 
 BRR  HZ IP     C 1157 41.24                             154    0.0410 69.5 304 
 BRR  HN ES       1157 58.42                             154    0.4510 69.5 304 
 RUS  HZ EP       1157 44.03                             146    0.5010 95.9 173 
 RUS  HE ES       1158  2.24                             146    0.1310 95.9 173 
 RUS  HZ I        1158  3.30         9.6 0.24            145           95.9 173 
 PTB  HZ EP       1157 46.30                             134   -0.18 9  142 260 
 PTB  HN ES       1158  7.23                             134   -0.13 9  142 260 
 PTB  HZ I        1158  9.20         5.2 0.14            133            142 260 
 SPBC HZ EP       1157 47.69                             131   -0.15 9  156 219 
 SPBC HN ES       1158  9.86                             131    0.07 9  156 219 
 SPBC HZ I        1158 13.05         9.9 0.12            130            156 219 
                                                                                
