 2017  1 9 1444 58.2 L   6.785 -73.120141.3  RSN  8 0.4 1.8LRSN                1
 GAP= 98        1.01       4.2     3.4  6.0 -0.1965E+01  0.1575E+01  0.7386E+01E
 Epicentro: LOS SANTOS - SANTANDER                                             3
 ACTION:UPD 17-05-22 15:57 OP:jn   STATUS:               ID:20170109144458 L   I
 OLDACT:REG 17-01-09 18:19 OP:ar   STATUS:               ID:20170109143751     3
 2017-01-09-1438-00M.COL___347                                                 6
 STAT SP IPHASW D HRMM SECON CODA AMPLIT PERI AZIMU VELO AIN AR TRES W  DIS CAZ7
 BAR2 EZ EP       1445 17.17                             171   -0.0710 22.4 198 
 BAR2 EZ ES       1445 32.12                             171    0.0010 22.4 198 
 BAR2 EZ I        1445 33.27        13.5 0.15            170           22.4 198 
 BRR  HZ EP       1445 19.05                             151    0.0210 74.5 299 
 BRR  HN ES       1445 35.86                             151    0.5610 74.5 299 
 BRR  HZ I        1445 39.94        14.4 0.12            151           74.5 299 
 PAM  EZ EP       1445 19.96                             150    0.0710 76.9  37 
 PAM  EN ES       1445 36.62                             150   -0.2010 76.9  37 
 PAM  EZ I        1445 39.36        12.1 0.24            153           76.9  37 
 RUS  HZ EP       1445 21.09                             143   -0.2610 98.7 178 
 RUS  HN ES       1445 39.60                             143    0.1710 98.7 178 
 RUS  HZ I        1445 40.61         8.4 0.38            145           98.7 178 
 PTB  HZ EP       1445 24.22                             130   -0.79 9  150 260 
 PTB  HN ES       1445 45.53                             130   -0.41 9  150 260 
 PTB  HZ I        1445 47.86        13.0 0.16            131            150 260 
 TAM  HZ EP       1445 25.51                             130    0.31 9  152 105 
 TAM  HN ES       1445 46.08                             130   -0.20 9  152 105 
 NOR  HZ EP       1445 33.84                             117    0.05 8  236 235 
 NOR  HN ES       1446  2.06                             117    0.49 8  236 235 
 NOR  HZ I        1446  5.22         6.1 0.68            119            236 235 
 CHI  HZ EP       1445 36.53                             116    1.00 8  248 196 
 CHI  HN ES       1446  4.14                             116   -0.53 8  248 196 
 CHI  HZ I        1446  7.91         3.1 0.28            118            248 196 
                                                                                
