 2014  2 9 1040 12.0 L   6.575 -73.586101.8  RSN  7 0.4 1.4LRSN                1
 GAP=100        1.03       3.5     4.4  7.2  0.4799E+01  0.9873E+01 -0.1998E+01E
 Epicentro: EL CARMEN DE CHUCURI - SANTANDER                                   3
 ACTION:UPD 14-03-10 08:09 OP:ep   STATUS:               ID:20140209104012 L   I
 OLDACT:REG 14-02-09 16:00 OP:nd   STATUS:               ID:20140209104000     3
 2014-02-09-1040-00M.COL___291                                                 6
 STAT SP IPHASW D HRMM SECON CODA AMPLIT PERI AZIMU VELO AIN AR TRES W  DIS CAZ7
 BAR2 SZ EP       1040 27.27                             154    0.0010 44.7  88 
 BAR2 SZ ES       1040 39.60                             154    0.4310 44.7  88 
 BAR2 SZ I        1040 40.98        22.6 0.34            153           44.7  88 
 RUS  HZ EP       1040 30.64                             134   -0.5110 93.8 144 
 RUS  HN ES       1040 45.87                             134   -0.2110 93.8 144 
 RUS  HZ I        1040 47.14         1.5 0.62            136           93.8 144 
 PTB  HZ EP       1040 30.10                             133   -0.6310 96.3 268 
 PTB  HN ES       1040 45.21                             133   -0.1210 96.3 268 
 PTB  HZ I        1040 49.41         3.5 0.10            141           96.3 268 
 ZAR  HZ EP       1040 38.86                             115    0.28 9  173 306 
 ZAR  HN ES   2   1040 59.96                             115    0.66 4  173 306 
 ZAR  HZ I        1041  4.86         5.2 0.38            121            173 306 
 CHI  HZ EP       1040 44.75                             109    0.87 8  216 184 
 CHI  HN ES       1041  8.97                             109    0.23 8  216 184 
 CHI  HZ I        1041 13.41         0.6 0.56            114            216 184 
 URE  HZ EP   4   1040 35.25                             106   -12.3 0  251 301 
 URE  HN ES   4   1040 45.90                             106   -29.3 0  251 301 
 URE  HZ I        1040 49.34         9.9 0.32            111            251 301 
 SML  HZ EP       1040 47.21                             106   -0.36 8  252 348 
 SML  HN ES       1041 15.54                             106    0.23 8  252 348 
 SML  HZ I        1041 22.34         2.6 0.10            110            252 348 
                                                                                
