 2014  7 9 1140 54.9 L   6.797 -73.157150.7  RSN  5 0.3 1.5LRSN                1
 GAP=200        0.61       4.0     4.0  5.4  0.7605E+01  0.8284E+00 -0.8633E+01E
 Epicentro: LOS SANTOS - SANTANDER                                             3
 ACTION:UPD 15-03-16 20:42 OP:nd   STATUS:               ID:20140709114054 L   I
 OLDACT:UP  14-07-09 22:18 OP:cam  STATUS:               ID:20140709114000     3
 OLDACT:REG 14-07-09 20:24 OP:cam  STATUS:               ID:20140709114000     3
 2014-07-09-1140-00M.COL___282                                                 6
 STAT SP IPHASW D HRMM SECON CODA AMPLIT PERI AZIMU VELO AIN AR TRES W  DIS CAZ7
 BAR2 SZ EP       1141 15.07                             171   -0.0210 22.8 187 
 BAR2 SZ ES       1141 30.83                             171   -0.0310 22.8 187 
 BAR2 SZ I        1141 31.73         8.3 0.22            174           22.8 187 
 RUS  HZ EP       1141 19.13                             145    0.0310  100 175 
 RUS  HN ES       1141 38.07                             145    0.0810  100 175 
 RUS  HZ I        1141 38.94         2.9 0.24            149            100 175 
 PTB  HZ EP       1141 22.28                             133    0.14 9  146 259 
 PTB  HN ES       1141 43.01                             133   -0.39 9  146 259 
 PTB  HZ I        1141 45.00         5.1 0.12            134            146 259 
 ZAR  HZ EP   1   1141 27.12                             124   -0.42 6  203 292 
 ZAR  HN ES       1141 53.56                             124    0.53 9  203 292 
 ZAR  HZ I        1141 59.40         3.1 0.24            124            203 292 
 SML  HZ EP   1   1141 31.86                             118    0.10 6  244 336 
 SML  HN ES   1   1142  0.26                             118   -0.27 6  244 336 
 SML  HZ I        1142  4.90         3.4 0.26            119            244 336 
                                                                                
