 2014  5 9 1947  3.6 L   6.306 -73.622104.7  RSN  4 0.4 1.3LRSN                1
 GAP=174        0.97       6.2     4.8 14.1  0.1238E+02  0.7547E+01 -0.1432E+02E
 Epicentro: SANTA HELENA DEL OPON - SANTANDER                                  3
 ACTION:UPD 15-03-16 16:56 OP:nd   STATUS:               ID:20140509194703 L   I
 OLDACT:REG 14-05-09 21:29 OP:stll STATUS:               ID:20140509193817     3
 2014-05-09-1938-17M.COL___239                                                 6
 STAT SP IPHASW D HRMM SECON CODA AMPLIT PERI AZIMU VELO AIN AR TRES W  DIS CAZ7
 RUS  HZ EP       1947 21.28                             142   -0.1810 75.2 127 
 RUS  HN ES   1   1947 35.84                             142    0.43 7 75.2 127 
 RUS  HZ I        1947 39.09         2.4 0.18            149           75.2 127 
 PTB  HZ EP     C 1947 22.08                             134   -0.4110 95.8 286 
 PTB  HN ES       1947 36.86                             134   -0.3810 95.8 286 
 PTB  HZ I        1947 40.15         9.6 0.11            142           95.8 286 
 NOR  HN ES       1947 49.11                             118    0.32 9  161 239 
 ZAR  HN ES       1947 54.91                             113    0.61 9  189 314 
                                                                                
