 2014  5 9 1501  4.5 L   6.627 -73.530 96.0  RSN  7 0.3 2.0LRSN                1
 GAP= 99        0.72       3.0     3.1  8.5  0.7254E+00  0.5605E+01 -0.1226E+02E
 Epicentro: EL CARMEN DE CHUCURI - SANTANDER                                   3
 ACTION:UPD 15-03-16 16:56 OP:nd   STATUS:               ID:20140509150104 L   I
 OLDACT:UP  14-05-09 23:45 OP:mh   STATUS:               ID:20140509145813     3
 OLDACT:UP  14-05-09 23:45 OP:mh   STATUS:               ID:20140509145813     3
 OLDACT:UP  14-05-09 23:43 OP:mh   STATUS:               ID:20140509145813     3
 OLDACT:REG 14-05-09 20:40 OP:stll STATUS:               ID:20140509145813     3
 2014-05-09-1458-13M.COL___245                                                 6
 STAT SP IPHASW D HRMM SECON CODA AMPLIT PERI AZIMU VELO AIN AR TRES W  DIS CAZ7
 RUS  HZ EP       15 1 22.92                             132   -0.3310 95.1 149 
 RUS  HN ES       15 1 38.08                             132    0.1910 95.1 149 
 PTB  HN ES   1   15 1 37.56                             129   -0.48 7  103 265 
 PAM  SN ES   2   15 1 42.79                             125    0.47 5  121  49 
 SPBC HN ES   1   15 1 41.62                             124   -0.20 7  123 209 
 ZAR  HZ EP       15 1 31.25                             114    0.30 9  175 303 
 ZAR  HN ES   1   15 1 51.70                             114    0.10 7  175 303 
 ZAR  HZ I        15 1 56.19         8.8 0.14            115            175 303 
 NOR  HZ EP       15 1 32.82                             112    0.22 9  189 232 
 NOR  HE ES   1   15 1 54.96                             112    0.43 7  189 232 
 SML  HZ EP       15 1 38.79                             107   -0.55 8  248 346 
 SML  HN ES   1   15 2  6.82                             107    0.29 6  248 346 
 SML  HZ I        15 2 14.33         9.7 0.09            107            248 346 
 SJC  HN ES   4   15 2 36.19                             100   -4.11 0  405 333 
                                                                                
