 2013  1 9 1844 49.9 L   6.777 -73.178146.4  RSN  5 0.3 1.5LRSN                1
 GAP=232        0.77       6.0     5.5  6.8  0.2092E+02  0.1112E+01 -0.2784E+01E
 Epicentro: LOS SANTOS - SANTANDER                                             3
 ACTION:UPD 13-02-15 09:13 OP:ep   STATUS:               ID:20130109184449 L   I
 2013-01-09-1838-48M.COL___196                                                 6
 STAT SP IPHASW D HRMM SECON CODA AMPLIT PERI AZIMU VELO AIN AR TRES W  DIS CAZ7
 BAR2 SZ EP       1845  9.15                             172   -0.4410 20.5 181 
 BAR2 SZ ES       1845 24.61                             172   -0.3110 20.5 181 
 BRR  HZ EP       1845 11.30                             153    0.2510 69.3 302 
 BRR  HN ES       1845 27.91                             153    0.3910 69.3 302 
 RUS  HZ EP       1845 13.82                             144    0.2310 98.4 174 
 RUS  HN ES       1845 32.16                             144    0.1110 98.4 174 
 RUS  HN I        1845 35.44         4.8 0.42            143           98.4 174 
 PTB  HN ES       1845 37.35                             133   -0.03 9  144 260 
 ZAR  HN ES       1845 47.04                             123   -0.28 9  202 293 
                                                                                
