 2015 10 9 1104 28.4 L   6.827 -73.100147.5  RSN  6 0.4 1.5LRSN                1
 GAP=205        0.80       3.6     5.7  8.9  0.4103E+01  0.1524E+02 -0.7664E+01E
 Epicentro: LOS SANTOS - SANTANDER                                             3
 ACTION:UPD 15-12-22 20:38 OP:cam  STATUS:               ID:20151009110428 L   I
 OLDACT:REG 15-10-09 20:50 OP:spq  STATUS:               ID:20151009105750     3
 2015-10-09-1057-50M.COL___289                                                 6
 STAT SP IPHASW D HRMM SECON CODA AMPLIT PERI AZIMU VELO AIN AR TRES W  DIS CAZ7
 BAR2 EZ EP       11 4 48.23                             169   -0.1110 27.5 199 
 BAR2 EZ ES   1   11 5  4.07                             169    0.19 7 27.5 199 
 BAR2 EZ I        11 5  4.86         5.2 0.42            167           27.5 199 
 RUS  HZ EP   1   11 4 52.55                             143    0.01 7  103 179 
 RUS  HE ES   1   11 5 11.00                             143   -0.35 7  103 179 
 RUS  HZ I        11 5 11.58         2.0 0.46            144            103 179 
 ZAR  HZ EP   1   11 5  0.85                             122   -0.49 6  208 291 
 ZAR  HE ES       11 5 26.48                             122   -0.54 8  208 291 
 ZAR  HZ I        11 5 32.74         3.7 0.60            121            208 291 
 NOR  HN ES       11 5 33.71                             118    0.41 8  241 235 
 NOR  HZ I        11 5 35.92         2.5 0.16            118            241 235 
 SML  HZ EP   1   11 5  4.94                             118   -0.13 6  243 334 
 SML  HN ES       11 5 34.32                             118    0.65 8  243 334 
 SML  HZ I        11 5 37.96         5.2 0.10            118            243 334 
 CHI  HN ES   1   11 5 36.95                             117    0.44 6  253 196 
 CHI  HZ I        11 5 39.63         1.2 0.40            117            253 196 
                                                                                
