 2016  5 9 1521  1.4 L   6.780 -73.133146.0  RSN 10 0.6 1.7LRSN                1
 GAP=139        1.08       3.6     4.4  6.9 -0.1673E+01  0.8908E+01  0.9131E+00E
 Epicentro: LOS SANTOS - SANTANDER                                             3
 ACTION:UPD 16-08-18 17:44 OP:cam  STATUS:               ID:20160509152101 L   I
 OLDACT:REG 16-05-09 20:55 OP:ak   STATUS:               ID:20160509151747     3
 2016-05-09-1517-47M.COL___294                                                 6
 STAT SP IPHASW D HRMM SECON CODA AMPLIT PERI AZIMU VELO AIN AR TRES W  DIS CAZ7
 BAR2 EZ EP       1521 21.18                             171    0.1410 21.5 195 
 BAR2 EZ ES       1521 35.90                             171   -0.4410 21.5 195 
 BAR2 EZ I        1521 37.34        10.2 0.24            170           21.5 195 
 BRR  HE ES       1521 39.57                             152    0.2310 73.5 300 
 PAM  EZ EP       1521 24.07                             150    0.3610 78.2  38 
 PAM  EN ES       1521 40.93                             150   -0.1610 78.2  38 
 PAM  EZ I        1521 43.30         6.1 0.28            152           78.2  38 
 RUS  HZ EP       1521 25.19                             144    0.1610 98.3 177 
 RUS  HN ES       1521 43.67                             144    0.2310 98.3 177 
 RUS  HZ I        1521 44.42         4.5 0.24            144           98.3 177 
 PTB  HZ EP       1521 28.51                             132    0.02 9  149 260 
 PTB  HE ES       1521 49.15                             132   -0.46 9  149 260 
 PTB  HZ I        1521 52.10         4.2 0.08            130            149 260 
 SPBC HZ EP   2   1521 27.02                             129   -2.84 5  162 220 
 SPBC HN ES       1521 52.10                             129    0.06 9  162 220 
 SPBC HZ I        1521 56.27         4.9 0.14            128            162 220 
 ZAR  HZ EP   2   1521 34.23                             122    0.13 4  206 293 
 ZAR  HE ES       1522  0.27                             122    0.68 8  206 293 
 ZAR  HZ I        1522  6.20         5.8 0.19            121            206 293 
 NOR  HZ EP   2   1521 37.80                             118    0.65 4  235 235 
 NOR  HE ES       1522  5.01                             118   -0.00 8  235 235 
 NOR  HZ I        1522  8.66         2.3 0.24            117            235 235 
 SML  HZ EP   2   1521 37.80                             117   -0.54 4  246 335 
 SML  HN ES       1522  6.75                             117   -0.38 8  246 335 
 SML  HZ I        1522  9.60         9.1 0.11            117            246 335 
 PRA  HZ EP   2   1521 55.69                             106    0.89 3  391 210 
 PRA  HN ES       1522 36.52                             106    0.08 6  391 210 
 PRA  HZ I        1522 45.71         1.8 0.40            106            391 210 
                                                                                
