 2012  1 9 1029 43.7 L   6.304 -73.162180.4  RSN  9 0.3 2.5LRSN                1
 GAP=145        0.71       3.7     4.3  5.8 -0.2464E+01  0.6131E+01  0.6027E+00E
 Epicentro: CHARALA - SANTANDER                                                3
 ACTION:UP  12-02-03 08:15 OP:REBC STATUS:               ID:20120109102943 L   I
 2012-01-09-1027-00S.MAN___179                                                 6
 STAT SP IPHASW D HRMM SECON CODA AMPLIT PERI AZIMU VELO SNR AR TRES W  DIS CAZ7
 BAR2 SZ IP       1030  7.59                             170    -0.110   32 356 
 BAR2 SZ ES   1   1030 26.18                             170    -0.2 7   32 356 
 BAR2 SZ I        1030 27.80       127.0 0.21                            32 356 
 RUS  HZ IP     D 1030  8.59                             165     0.110   46 169 
 RUS  HN ES   1   1030 28.01                             165     0.3 7   46 169 
 RUS  HZ I        1030 30.01        17.9 0.37                            46 169 
 BRR  HZ IP     D 1030 11.24                             148     0.510  108 326 
 BRR  HZ I        1030 36.55        85.4 0.14                           108 326 
 PAM  SZ EP   1   1030 12.44                             144    -0.2 7  125  24 
 PAM  SN ES   1   1030 34.95                             144    -0.3 7  125  24 
 PTB  HZ EP   1   1030 13.27                             139    -0.2 7  146 280 
 PTB  HN ES   1   1030 36.86                             139     0.1 7  146 280 
 CHI  HZ EP   1   1030 18.20                             131    -0.2 6  196 199 
 CHI  HN ES   1   1030 45.23                             131    -0.2 6  196 199 
 CHI  HZ I        1030 49.38         9.1 0.28                           196 199 
 NOR  SZ EP   1   1030 19.46                             129     0.6 6  206 247 
 NOR  SN ES   1   1030 45.97                             129    -0.3 6  206 247 
 ZAR  HZ EP   1   1030 20.55                             126    -0.5 6  229 305 
 ZAR  HN ES   1   1030 50.27                             126     0.1 6  229 305 
 ZAR  HZ I        1030 56.66        36.6 0.29                           229 305 
 RREF HZ EP   1   1030 27.66                             120    -0.2 5  288 237 
 RREF HZ I        1031  7.00         7.6 0.31                           288 237 
                                                                                
