 2016  9 9 1933 22.5 L   6.819 -73.185143.9  RSN  6 0.2 1.4LRSN                1
 GAP=131        0.53       2.8     2.9  4.3 -0.3057E+01  0.5051E+01 -0.3086E+01E
 Epicentro: ZAPATOCA - SANTANDER                                               3
 ACTION:UPD 17-08-17 21:08 OP:lp   STATUS:               ID:20160909193322 L   I
 OLDACT:REG 16-09-09 20:36 OP:lv   STATUS:               ID:20160909192738     3
 2016-09-09-1928-00M.COL___345                                                 6
 STAT SP IPHASW D HRMM SECON CODA AMPLIT PERI AZIMU VELO AIN AR TRES W  DIS CAZ7
 BAR2 EZ EP       1933 41.96                             170    0.0510 25.1 179 
 BAR2 EZ ES       1933 57.37                             170    0.2910 25.1 179 
 BAR2 EZ I        1933 58.34        10.2 0.13            173           25.1 179 
 PAM  EZ EP       1933 44.73                             150    0.1710 78.7  43 
 PAM  EN ES       1934  1.57                             150   -0.2310 78.7  43 
 PAM  EZ I        1934  4.57         5.1 0.39            151           78.7  43 
 RUS  HZ EP       1933 46.33                             143    0.1110  103 174 
 RUS  HN ES       1934  4.48                             143   -0.2610  103 174 
 RUS  HZ I        1934  5.32         2.2 0.18            149            103 174 
 PTB  HZ EP       1933 48.65                             132   -0.28 9  144 258 
 PTB  HN ES       1934  9.54                             132   -0.03 9  144 258 
 PTB  HZ I        1934 11.47         3.1 0.11            133            144 258 
 SPBC HN ES       1934 12.86                             129    0.10 9  162 217 
 ZAR  HZ EP       1933 54.36                             123    0.07 9  199 292 
 ZAR  HN ES   4   1934 21.06                             123    1.95 0  199 292 
 ZAR  HZ I        1934 26.64         3.8 0.10            123            199 292 
                                                                                
