 2014  3 9 1845  4.2 L   6.857 -73.189137.1  RSN  5 0.4 1.5LRSN                1
 GAP=133        1.11       7.0     6.4  9.8 -0.2050E+02  0.1538E+02 -0.1039E+02E
 Epicentro: ZAPATOCA - SANTANDER                                               3
 ACTION:UPD 14-04-09 23:15 OP:nd   STATUS:               ID:20140309184504 L   I
 OLDACT:DUP 14-03-09 22:05 OP:stll STATUS:               ID:20140309183814d    3
 2014-03-09-1838-13M.COL___229                                                 6
 STAT SP IPHASW D HRMM SECON CODA AMPLIT PERI AZIMU VELO AIN AR TRES W  DIS CAZ7
 BAR2 SZ ES       1845 37.08                             167   -0.4710 29.3 178 
 BAR2 SZ I        1845 38.55        12.0 0.16            171           29.3 178 
 BRR  HN ES       1845 40.13                             153    0.6710 64.0 296 
 BRR  HZ I        1845 50.57         7.4 0.50            150           64.0 296 
 PAM  SZ EP       1845 25.41                             150   -0.0110 76.0  45 
 PAM  SN ES       1845 42.26                             150    0.3010 76.0  45 
 PTB  HZ EP       1845 30.53                             131    0.36 9  144 256 
 PTB  HN ES       1845 50.02                             131   -0.40 9  144 256 
 PTB  HZ I        1845 52.43         2.1 0.12            133            144 256 
 OCA  HN ES       1845 51.72                             129   -0.54 9  153 355 
                                                                                
