 2011 11 9 1726 41.0 L   6.788 -73.127140.6  RSN  5 0.2 1.6LRSN                1
 GAP=139        0.54       2.8     4.6  4.8  0.1394E+01 -0.3941E+01 -0.1918E+01E
 Epicentro: LOS SANTOS - SANTANDER                                             3
 ACTION:UPD 12-07-13 16:09 OP:ep   STATUS:               ID:20111109172641 L   I
 2011-11-09-1723-56S.COL___178                                                 6
 STAT SP IPHASW D HRMM SECON CODA AMPLIT PERI AZIMU VELO AIN AR TRES W  DIS CAZ7
 BAR2 SZ EP       1727  0.04                             171    0.0210 22.4 196 
 BAR2 SZ I        1727  0.34         7.9 0.14                          22.4 196 
 BAR2 SZ ES   1   1727 14.65                             171   -0.18 7 22.4 196 
 BRR  HZ EP       1727  1.77                             151    0.0010 73.7 299 
 BRR  HN ES       1727 18.16                             151    0.2210 73.7 299 
 BRR  HZ I        1727 19.72        13.0 0.16                          73.7 299 
 PAM  SZ EP       1727  2.85                             150    0.1610 77.2  38 
 PAM  SN ES   1   1727 19.83                             150    0.25 7 77.2  38 
 RUS  HZ EP   1   1727  4.18                             143    0.01 7 99.1 177 
 RUS  HE ES   1   1727 21.93                             143   -0.28 7 99.1 177 
 RUS  HZ I        1727 25.05         5.0 0.26                          99.1 177 
 OCA  SZ EP   1   1727  9.08                             128   -0.02 7  162 352 
 OCA  SZ ES   1   1727 30.38                             128   -0.61 7  162 352 
 OCA  SZ I        1727 34.20         5.5 0.23                           162 352 
                                                                                
