 2012  4 9 1615  7.2 L   6.729 -73.147147.0  RSN  5 0.4 1.6LRSN                1
 GAP=139        0.84       5.8     5.6  7.8 -0.4834E+01  0.4389E+01 -0.3216E+01E
 Epicentro: JORDAN - SANTANDER                                                 3
 ACTION:UPD 12-07-05 11:52 OP:tino STATUS:               ID:20120409161507 L   I
 2012-04-09-1610-00M.COL___196                                                 6
 STAT SP IPHASW D HRMM SECON CODA AMPLIT PERI AZIMU VELO AIN AR TRES W  DIS CAZ7
 BAR2 SZ ES   1   1615 41.94                             174    -0.2 7   16 194 
 BAR2 SZ I        1615 42.74        12.3 0.36                            16 194 
 BRR  HZ EP       1615 28.96                             151     0.310   75 304 
 BRR  HN ES   1   1615 46.05                             151     0.6 7   75 304 
 PAM  SZ EP       1615 29.90                             149     0.010   84  36 
 PAM  SN ES   1   1615 47.12                             149    -0.5 7   84  36 
 RUS  HZ EP   1   1615 30.46                             146     0.0 7   93 176 
 RUS  HE ES   1   1615 48.91                             146     0.2 7   93 176 
 RUS  HZ I        1615 50.59         4.2 0.42                            93 176 
 PTB  HZ EP   1   1615 33.83                             132    -0.3 7  146 262 
 PTB  HN ES   1   1615 54.49                             132    -0.6 7  146 262 
                                                                                
