 2013  9 9 1034 12.9 L   6.387 -73.654106.5  RSN 13 0.5 2.3LRSN                1
 GAP= 64        1.05       3.0     3.6  6.4 -0.1073E+01  0.7554E+01 -0.4153E+00E
 Epicentro: SANTA HELENA DEL OPON - SANTANDER                                  3
 ACTION:UPD 13-10-22 09:21 OP:ep   STATUS:               ID:20130909103412 L   I
 OLDACT:UP  13-09-09 16:28 OP:cam  STATUS:               ID:20130909102959     3
 OLDACT:REG 13-09-09 15:06 OP:cam  STATUS:               ID:20130909102959     3
 2013-09-09-1029-59M.COL___269                                                 6
 STAT SP IPHASW D HRMM SECON CODA AMPLIT PERI AZIMU VELO AIN AR TRES W  DIS CAZ7
 BAR2 SZ IP     D 1034 29.54                             150    0.2110 56.9  67 
 BAR2 SZ ES       1034 42.24                             150    0.0810 56.9  67 
 BAR2 SZ I        1034 43.26       250.8 0.18            144           56.9  67 
 BRR  HZ EP       1034 30.66                             140    0.0610 79.8 355 
 BRR  HN ES       1034 44.95                             140    0.5310 79.8 355 
 BRR  HZ I        1034 45.52        47.4 0.46            130           79.8 355 
 RUS  HZ IP     C 1034 31.27                             139   -0.3110 83.6 131 
 RUS  HN ES   1   1034 45.76                             139   -0.41 7 83.6 131 
 RUS  HZ I        1034 47.72        23.9 0.26            134           83.6 131 
 PTB  HZ EP     D 1034 30.77                             136   -0.7010 90.3 281 
 PTB  HN ES   1   1034 44.96                             136   -1.01 7 90.3 281 
 PTB  HZ I        1034 47.59        45.3 0.24            127           90.3 281 
 SPBC HZ EP     C 1034 31.72                             135   -0.1310 93.5 210 
 SPBC HE ES   1   1034 46.91                             135    0.26 7 93.5 210 
 SPBC HZ I        1034 51.39        47.2 0.32            128           93.5 210 
 PAM  SZ EP       1034 37.75                             121    0.03 9  149  45 
 PAM  SN ES   1   1034 57.10                             121   -0.00 7  149  45 
 PAM  SZ I        1035  2.69        21.3 0.42            114            149  45 
 NOR  HZ EP       1034 39.18                             118    0.61 9  162 236 
 NOR  HN ES   1   1034 58.43                             118   -0.19 7  162 236 
 NOR  HZ I        1035  1.00        24.8 0.12            112            162 236 
 ZAR  HZ EP       1034 40.80                             115    0.31 9  181 313 
 ZAR  HE ES   1   1035  2.90                             115    0.87 7  181 313 
 ZAR  HZ I        1035  6.70        30.3 0.26            109            181 313 
 CHI  HZ EP   1   1034 43.05                             114    0.49 6  195 183 
 CHI  HN ES   1   1035  5.93                             114    0.22 6  195 183 
 CHI  HZ I        1035  8.51        11.1 0.28            109            195 183 
 HEL  HZ EP   2   1034 44.95                             112    0.88 4  209 264 
 GUY2CHZ EP   2   1034 47.38                             109    0.84 4  229 236 
 URE  HZ EP       1034 48.27                             107   -0.89 8  257 306 
 URE  HZ I        1035 24.09        12.7 0.12            103            257 306 
 SML  HZ EP   1   1034 50.30                             105   -0.51 6  271 350 
 SML  HN ES   1   1035 20.22                             105   -0.18 6  271 350 
 SML  HZ I        1035 27.60        22.5 0.24            102            271 350 
                                                                                
