 2017 10 9 1226 10.3 L   6.762 -73.100137.0  RSN  5 0.3 1.1LRSN                1
 GAP=144        0.65       3.8     3.7  6.3  0.8272E-03  0.6148E+01 -0.5696E+01E
 Epicentro: LOS SANTOS - SANTANDER                                             3
 ACTION:UPD 17-11-07 19:30 OP:rebc STATUS:               ID:20171009122610 L   I
 OLDACT:REG 17-10-09 20:31 OP:lv   STATUS:               ID:20171009121342     3
 2017-10-09-1218-00M.COL___435                                                 6
 STAT SP IPHASW D HRMM SECON CODA AMPLIT PERI AZIMU VELO AIN AR TRES W  DIS CAZ7
 BAR2 EZ EP       1226 28.70                             171   -0.1210 20.8 206 
 BAR2 EZ ES       1226 43.61                             171    0.3310 20.8 206 
 BAR2 EZ I        1226 44.78         4.9 0.26            171           20.8 206 
 PAM  EZ EP       1226 31.68                             149    0.0710 77.7  35 
 PAM  EN ES   3   1226 47.19                             149   -1.04 2 77.7  35 
 PAM  EZ I        1226 49.22         2.9 0.16            150           77.7  35 
 RUS  HZ EP       1226 33.16                             144    0.2910 96.1 179 
 RUS  HN ES       1226 50.13                             144   -0.3410 96.1 179 
 RUS  HZ I        1226 52.33         1.5 0.28            145           96.1 179 
 ZAR  HN ES       1227  8.19                             120   -0.05 8  210 293 
 NOR  HN ES       1227 13.15                             117   -0.20 8  236 236 
                                                                                
