 2012  1 9 1253 28.8 L   7.186 -73.798 27.9  RSN  9 0.4 2.3LRSN                1
 GAP= 98        0.92       4.4     2.8  3.4 -0.1691E+01  0.3082E+01 -0.4194E+01E
 Epicentro: BARRANCABERMEJA - SANTANDER                                        3
 ACTION:UP  12-02-03 08:15 OP:REBC STATUS:               ID:20120109125328 L   I
 2012-01-09-1250-00M.COL___186                                                 6
 STAT SP IPHASW D HRMM SECON CODA AMPLIT PERI AZIMU VELO SNR AR TRES W  DIS CAZ7
 BRR  HZ IP     C 1253 33.70                             153     0.010   13 133 
 BRR  HE ES   1   1253 37.55                             153     0.0 7   13 133 
 BRR  HZ I        1253 39.29       434.6 0.11                            13 133 
 GIR2 SZ EP       1253 40.24                             102    -0.210   68 100 
 BAR2 SZ EP       1253 44.29                              61     0.110   95 134 
 BAR2 SZ I        1253 58.90        38.9 0.33                            95 134 
 PTB  HZ EP   1   1253 44.24                              61    -0.6 7  102 226 
 ZAR  HZ EP       1253 47.27                              61     0.010  122 286 
 ZAR  HN ES   1   1254  1.30                              61    -0.4 7  122 286 
 ZAR  HZ I        1254  3.06       110.3 0.31                           122 286 
 PAM  SZ EP       1253 48.12                              61     0.210  122  82 
 PAM  SN ES   1   1254  2.34                              61    -0.6 7  122  82 
 OCA  SZ EP       1253 48.74                              61     0.510  128  24 
 OCA  SZ I        1254  6.99        76.8 0.29                           128  24 
 NOR  SE ES   1   1254 23.11                              61     0.5 6  215 214 
 HEL  HN ES   2   1254 25.20                              61     0.7 4  221 240 
 HEL  HZ I        1254 31.09         9.4 0.13                           221 240 
                                                                                
