 2017  7 9 1531 34.3 L   6.780 -73.136152.0  RSN  6 0.4 1.6LRSN                1
 GAP=280        0.73       4.4     6.4  7.7 -0.6618E+01 -0.9463E+01  0.1299E+02E
 Epicentro: LOS SANTOS - SANTANDER                                             3
 ACTION:UPD 17-08-30 15:31 OP:rebc STATUS:               ID:20170709153134 L   I
 OLDACT:UP  17-07-09 23:03 OP:dhb  STATUS:               ID:20170709152744     3
 OLDACT:REG 17-07-09 20:53 OP:dhb  STATUS:               ID:20170709152744     3
 2017-07-09-1528-00M.COL___380                                                 6
 STAT SP IPHASW D HRMM SECON CODA AMPLIT PERI AZIMU VELO AIN AR TRES W  DIS CAZ7
 BRR  HZ EP       1531 56.34                             153    0.0710 73.2 300 
 BRR  HE ES       1532 13.63                             153    0.2610 73.2 300 
 BRR  HZ I        1532 14.50         5.5 0.20            149           73.2 300 
 PTB  HZ EP       1532  1.37                             133   -0.49 9  148 260 
 PTB  HN ES       1532 22.91                             133   -0.43 9  148 260 
 PTB  HZ I        1532 24.68         3.3 0.18            131            148 260 
 SPBC HZ EP       1532  3.16                             131   -0.05 9  162 220 
 SPBC HN ES       1532 25.74                             131    0.00 9  162 220 
 SPBC HZ I        1532 28.02         8.2 0.18            130            162 220 
 ZAR  HZ EP   4   1532  8.79                             124    1.42 0  206 293 
 ZAR  HE ES       1532 33.26                             124    0.12 8  206 293 
 ZAR  HZ I        1532 39.18         2.8 0.18            122            206 293 
 NOR  HZ EP   4   1532 11.84                             120    1.46 0  234 235 
 NOR  HE ES       1532 38.75                             120    0.25 8  234 235 
 GUY2CHZ EP   2   1532 19.31                             114    1.13 4  301 235 
 GUY2CHN ES       1532 52.62                             114    0.24 7  301 235 
 GUY2CHZ I        1532 58.60         2.3 0.22                           301 235 
                                                                                
