 2012  9 9 1023 13.5 L   6.712 -73.149144.0  RSN  7 0.4 2.1LRSN                1
 GAP=140        0.90       5.3     5.7  7.3 -0.6528E+01  0.6805E+01  0.5025E+01E
 Epicentro: VILLANUEVA - SANTANDER                                             3
 ACTION:UPD 12-10-22 14:17 OP:ep   STATUS:               ID:20120909102313 L   I
 2012-09-09-1020-00M.COL___227                                                 6
 STAT SP IPHASW D HRMM SECON CODA AMPLIT PERI AZIMU VELO AIN AR TRES W  DIS CAZ7
 BAR2 SZ EP       1023 32.88                             174    0.1610 13.7 196 
 BAR2 SZ ES   1   1023 47.25                             174   -0.50 7 13.7 196 
 BAR2 SZ I        1023 49.67        45.8 0.24                          13.7 196 
 GIR2 SZ EP   1   1023 33.17                             163   -0.05 7 40.9 353 
 BRR  HZ EP       1023 35.16                             151    0.4610 76.0 305 
 BRR  HZ I        1023 36.53        21.2 0.11                          76.0 305 
 BRR  HN ES   1   1023 52.00                             151    0.73 7 76.0 305 
 PAM  SZ EP       1023 35.92                             148   -0.0710 85.3  36 
 PAM  SZ I        1023 36.36        17.3 0.17                          85.3  36 
 PAM  SE ES   1   1023 53.23                             148   -0.32 7 85.3  36 
 RUS  HZ EP   1   1023 35.87                             146   -0.49 7 90.9 175 
 RUS  HE ES   1   1023 54.80                             146    0.58 7 90.9 175 
 RUS  HZ I        1023 56.68        19.7 0.44                          90.9 175 
 PTB  HZ EP       1023 39.72                             132   -0.39 9  146 263 
 PTB  HZ I        1023 57.04        16.3 0.67                           146 263 
 PTB  HN ES   1   1024  0.29                             132   -0.60 7  146 263 
 PRA  HZ EP   1   1024  6.33                             107    0.42 4  383 210 
 PRA  HN ES   1   1024 46.95                             107    0.13 4  383 210 
                                                                                
