 2011  5 9 1841 23.5 L   6.859 -73.389131.7  RSN  4 0.4 1.5LRSN                1
 GAP=145        0.88      17.0    29.0 13.6  0.4028E+03 -0.2780E+02  0.1363E+01E
 Epicentro: SAN VICENTE DE CHUCURI - SANTANDER                                 3
 ACTION:UP  11-06-29 08:51 OP:tino STATUS:               ID:20110509184123 L   I
 2011-05-09-1840-00M.COL___140                                                 6
 STAT SP IPHASW D HRMM SECON CODA AMPLIT PERI AZIMU VELO SNR AR TRES W  DIS CAZ7
 BTL  SZ EP   1   1841 41.73                             172     0.4 7   15  64 
 BAR2 SZ EP   1   1841 41.89                             163     0.0 7   37 142 
 BAR2 SZ ES   2   1841 55.60                             163    -0.6 5   37 142 
 BAR2 SZ I        1841 56.56        14.7 0.47                            37 142 
 BRR  HZ EP   1   1841 41.18                             160    -0.6 7   45 308 
 BRR  HZ I        1841 44.26         7.7 0.32                            45 308 
 BRR  HN ES   2   1841 56.72                             160     0.6 5   45 308 
 RUS  HZ EP   1   1841 47.04                             137     0.2 7  112 162 
 RUS  HZ I        1841 48.43         2.7 0.73                           112 162 
 RUS  HE ES   2   1842  4.91                             137    -0.1 5  112 162 
                                                                                
