 2010  4 9 1245 23.2 L   6.783 -73.021144.7  RSN 11 0.4 2.9LRSN                1
 GAP=150        0.80       4.1     6.9  5.9 -0.8075E+01  0.2691E+01  0.6175E+01E
 Epicentro: CEPITA - SANTANDER                                                 3
 ACTION:UPD 10-08-24 09:58 OP:vdl  STATUS:               ID:20100409124523 L   I
 2010-04-09-1243-36S.COL___097                                                 6
 STAT SP IPHASW D HRMM SECON CODA AMPLIT PERI AZIMU VELO AIN AR TRES W  DIS CAZ7
 BAR2 SZ IP       1245 43.22                             169     0.410   28 220 
 BAR2 SZ ES   1   1245 57.58                             169    -0.5 7   28 220 
 BRR  HZ IP     D 1245 45.40                             148     0.310   84 295 
 BRR  HN ES   1   1246  2.44                             148     0.3 7   84 295 
 BRR  HZ I        1246  5.75       143.2 0.20                            84 295 
 OCA  SZ EP       1245 51.58                             129    -0.3 9  164 348 
 OCA  SZ I        1245 55.95       138.6 0.10                           164 348 
 OCA  SZ ES   2   1246 13.45                             129    -0.7 5  164 348 
 CHI  HZ EP       1246  0.93                             117    -0.2 8  251 198 
 CHI  HE ES   2   1246 29.95                             117    -0.7 4  251 198 
 CHI  HZ I        1246 36.56        33.6 0.34                           251 198 
 ROSC BZ EP   1   1246  2.30                             116     0.4 6  259 214 
 ROSC BN ES   2   1246 32.08                             116     0.0 4  259 214 
 ROSC BZ I        1246 36.53        43.2 0.45                           259 214 
 HEL  HZ EP       1246  4.89                             113     0.1 7  285 257 
 HEL  HN ES   2   1246 36.65                             113    -0.6 4  285 257 
 HEL  HZ I        1246 41.74        34.7 0.49                           285 257 
 RREF BZ EP   1   1246 10.19                             110    -0.2 5  331 231 
 RREF BN ES   2   1246 47.28                             110     0.1 3  331 231 
 RREF BZ I        1246 55.64        35.0 0.35                           331 231 
 SDV  BZ EP   2   1246 12.46                             109     0.3 3  351  49 
 SDV  BZ I        1246 16.53         9.3 0.14                           351  49 
 DBB  SZ EP   1   1246 11.67                             108    -0.6 5  353 274 
 ANIL BZ EP   1   1246 14.32                             108     0.3 5  366 226 
 ANIL BN ES   2   1246 54.15                             108     0.6 3  366 226 
 ANIL BZ I        1247  2.15        52.8 0.34                           366 226 
 PRA  HZ EP   1   1246 16.54                             106    -0.8 4  397 211 
 PRA  HN ES   2   1246 59.82                             106     0.3 3  397 211 
 PRA  HZ I        1247  3.01        41.5 0.49                           397 211 
                                                                                
