 2012  2 9 1617  9.8 L   6.766 -73.147146.0  RSN  8 0.3 2.0LRSN                1
 GAP=138        0.60       4.1     4.0  5.3 -0.1888E+01  0.3228E+01  0.1739E+01E
 ACTION:UP  12-03-07 16:29 OP:epov STATUS:               ID:20120209161709 L   I
 2012-02-09-1610-00M.COL___188                                                 6
 STAT SP IPHASW D HRMM SECON CODA AMPLIT PERI AZIMU VELO AIN AR TRES W  DIS CAZ7
 BAR2 SZ EP       1617 29.54                             172    0.2010 19.6 192 
 BAR2 SZ ES   1   1617 44.50                             172   -0.12 7 19.6 192 
 BAR2 SZ I        1617 45.63        30.3 0.25                          19.6 192 
 GIR2 SZ EP   1   1617 29.50                             166   -0.06 7 35.0 352 
 GIR2 SZ ES   2   1617 44.72                             166   -0.28 5 35.0 352 
 BRR  HZ EP   1   1617 31.27                             152    0.24 7 73.0 301 
 BRR  HZ I        1617 32.70        20.3 0.13                          73.0 301 
 BRR  HE ES   1   1617 48.18                             152    0.56 7 73.0 301 
 PAM  SZ EP       1617 32.25                             150    0.0810 80.4  38 
 PAM  SN ES   1   1617 49.14                             150   -0.52 7 80.4  38 
 RUS  HZ EP   2   1617 33.36                             145    0.10 5 96.8 176 
 RUS  HE ES   2   1617 52.01                             145    0.42 5 96.8 176 
 RUS  HZ I        1617 53.65        10.2 0.52                          96.8 176 
 PTB  HZ EP   1   1617 36.22                             132   -0.44 7  147 260 
 PTB  HN ES   2   1617 57.13                             132   -0.52 5  147 260 
 ZAR  HZ EP   2   1617 42.43                             122    0.08 4  205 293 
 ZAR  HE ES   2   1618  7.67                             122   -0.10 4  205 293 
 ZAR  HZ I        1618 13.51        10.8 0.24                           205 293 
 CHI  HN ES   2   1618 15.80                             117   -0.36 4  245 195 
                                                                                
