 2014  3 9 1016  3.5 L   6.968 -73.218132.9  RSN  5 0.3 1.6LRSN                1
 GAP=118        0.83       3.3     4.3  6.7 -0.1252E+01  0.1143E+02 -0.6435E+01E
 Epicentro: BETULIA - SANTANDER                                                3
 ACTION:UPD 14-04-09 23:15 OP:nd   STATUS:               ID:20140309101603 L   I
 OLDACT:DUP 14-03-09 18:48 OP:stll STATUS:               ID:20140309100811d    3
 2014-03-09-1008-09M.COL___220                                                 6
 STAT SP IPHASW D HRMM SECON CODA AMPLIT PERI AZIMU VELO AIN AR TRES W  DIS CAZ7
 BAR2 SZ EP       1016 22.92                             162    0.8010 41.8 175 
 BAR2 SZ ES       1016 36.73                             162    0.0610 41.8 175 
 BAR2 SZ I        1016 37.78        10.6 0.50            165           41.8 175 
 PAM  SZ EP       1016 23.93                             151    0.0210 70.5  54 
 PAM  SN ES       1016 39.64                             151   -0.2110 70.5  54 
 PAM  SZ I        1016 41.21        61.1 0.38            153           70.5  54 
 RUS  HZ EP       1016 27.50                             136   -0.0510  120 173 
 RUS  HN ES       1016 46.01                             136   -0.3210  120 173 
 RUS  HZ I        1016 47.73         1.4 0.24            139            120 173 
 PTB  HZ EP       1016 28.79                             129   -0.36 9  145 251 
 PTB  HN ES       1016 49.25                             129    0.08 9  145 251 
 PTB  HZ I        1016 51.42         4.1 0.14            130            145 251 
 SML  HZ EP       1016 37.05                             117   -0.14 8  223 335 
 SML  HN ES       1017  3.51                             117    0.03 8  223 335 
 SML  HZ I        1017 10.49         3.3 0.10            118            223 335 
                                                                                
