 2011 12 9 1137 32.5 L   6.752 -73.113146.0  RSN  8 0.4 2.2LRSN                1
 GAP=143        0.70       4.1     5.3  5.8 -0.3133E+01  0.9230E+01  0.6066E+01E
 Epicentro: LOS SANTOS - SANTANDER                                             3
 ACTION:UPD 12-07-13 16:15 OP:ep   STATUS:               ID:20111209113732 L   I
 2011-12-09-1135-00S.MAN___173                                                 6
 STAT SP IPHASW D HRMM SECON CODA AMPLIT PERI AZIMU VELO AIN AR TRES W  DIS CAZ7
 BAR2 SZ EP   1   1137 51.98                             172   -0.15 7 19.3 204 
 BAR2 SZ ES   1   1138  6.83                             172   -0.58 7 19.3 204 
 BAR2 SZ I        1138  9.06        42.3 0.34                          19.3 204 
 BRR  HZ EP       1137 54.17                             150    0.1110 77.0 301 
 BRR  HZ I        1137 54.46        76.6 0.16                          77.0 301 
 BRR  HE ES   1   1138 11.47                             150    0.63 7 77.0 301 
 PAM  SZ EP   1   1137 54.92                             150    0.01 7 79.4  35 
 PAM  SN ES   1   1138 11.98                             150   -0.38 7 79.4  35 
 PAM  SZ I        1138 14.44        13.0 0.36                          79.4  35 
 RUS  HZ EP   1   1137 56.02                             145    0.09 7 95.1 178 
 RUS  HN ES   1   1138 14.41                             145    0.23 7 95.1 178 
 RUS  HZ I        1138 16.16        13.2 0.31                          95.1 178 
 NOR  SZ EP   2   1138  7.34                             118   -0.94 4  235 236 
 NOR  SN ES   2   1138 35.40                             118   -0.76 4  235 236 
 CHI  HZ EP   1   1138 10.23                             117    0.42 6  245 196 
 CHI  HZ I        1138 12.67         3.2 0.06                           245 196 
 CHI  HN ES   2   1138 39.71                             117    0.83 4  245 196 
 HEL  HZ EP   1   1138 13.21                             114    0.19 6  274 257 
 HEL  HE ES   2   1138 44.21                             114   -0.39 4  274 257 
 HEL  HZ I        1138 50.65         9.1 0.31                           274 257 
 PRA  HZ EP   1   1138 25.80                             107    0.05 4  389 210 
 PRA  HZ I        1138 27.94        14.5 0.14                           389 210 
 PRA  HN ES   2   1139  6.74                             107   -0.51 3  389 210 
                                                                                
