 2010  7 9 1553 49.6 L   6.212 -73.743104.7  RSN  4 0.1 1.4LRSN                1
 GAP=246        0.34       5.6    10.5  6.6  0.4820E+02  0.1093E+02 -0.1258E+01E
 Epicentro: LANDAZURI - SANTANDER                                              3
 ACTION:UPD 10-12-01 15:16 OP:pat  STATUS:               ID:20100709155349 L   I
 2010-07-09-1552-23S.COL___120                                                 6
 STAT SP IPHASW D HRMM SECON CODA AMPLIT PERI AZIMU VELO AIN AR TRES W  DIS CAZ7
 BAR2 SZ EP   1   1554  7.27                             142     0.2 7   75  56 
 RUS  HZ EP   1   1554  7.97                             140     0.0 7   81 116 
 RUS  HZ I        1554  8.28         2.7 0.11                            81 116 
 RUS  HN ES   2   1554 22.13                             140    -0.1 5   81 116 
 BRR  HZ EP   1   1554  8.73                             133    -0.1 7   99   2 
 BRR  HZ I        1554 17.29        17.0 0.37                            99   2 
 BRR  HN ES   2   1554 23.78                             133     0.0 5   99   2 
 GUE  SZ EP   1   1554 19.67                             112    -0.1 6  201  27 
                                                                                
