 2013  4 9 1819  9.3 L   6.719 -73.229151.9  RSN  4 0.3 1.5LRSN                1
 GAP=211        0.70       6.7     7.1  7.3  0.2422E+02 -0.4638E+00  0.1871E+01E
 Epicentro: VILLANUEVA - SANTANDER                                             3
 ACTION:UPD 13-05-22 14:37 OP:EP   STATUS:               ID:20130409181909 L   I
 2013-04-09-1817-49M.COL___218                                                 6
 STAT SP IPHASW D HRMM SECON CODA AMPLIT PERI AZIMU VELO AIN AR TRES W  DIS CAZ7
 BAR2 SZ EP   1   1819 28.81                             174   -0.70 7 14.9 160 
 BAR2 SZ ES   1   1819 45.22                             174   -0.06 7 14.9 160 
 BAR2 SZ I        1819 46.52         6.4 0.37            170           14.9 160 
 BRR  HZ EP       1819 30.93                             154   -0.0110 68.5 309 
 BRR  HN ES       1819 48.06                             154    0.2210 68.5 309 
 RUS  HE EP   1   1819 33.65                             147    0.55 7 92.8 170 
 RUS  HN ES   1   1819 51.69                             147    0.00 7 92.8 170 
 RUS  HE I        1819 53.37         4.4 0.38            145           92.8 170 
 PTB  HZ EP   2   1819 35.95                             136    0.12 5  137 262 
 PTB  HN ES   1   1819 56.32                             136   -0.22 7  137 262 
 PTB  HZ I        1820  0.48         3.8 0.52            134            137 262 
                                                                                
