 2014 10 9 1843 32.8 L   7.078 -73.211131.8  RSN 10 0.6 2.2LRSN                1
 GAP=111        1.54       4.2     6.4  8.7 -0.3980E+01  0.1542E+02 -0.2688E+00E
 Epicentro: LEBRIJA - SANTANDER                                                3
 ACTION:UPD 14-11-29 23:48 OP:nd   STATUS:               ID:20141009184332 L   I
 OLDACT:REG 14-10-09 20:37 OP:stll STATUS:               ID:20141009183749     3
 2014-10-09-1837-49M.COL___283                                                 6
 STAT SP IPHASW D HRMM SECON CODA AMPLIT PERI AZIMU VELO AIN AR TRES W  DIS CAZ7
 BAR2 SZ EP       1843 51.90                             157    0.0810 53.8 177 
 BAR2 SZ ES       1844  6.76                             157    0.0910 53.8 177 
 BRR  HZ IP     C 1843 52.06                             156    0.5110 55.5 273 
 BRR  HN ES       1844  6.82                             156    0.6310 55.5 273 
 BRR  HZ I        1844 13.37        21.1 0.14            155           55.5 273 
 PAM  SZ EP       1843 52.68                             153   -0.0010 63.5  63 
 PAM  SN ES       1844  8.11                             153   -0.1010 63.5  63 
 PAM  SZ I        1844  9.74        20.0 0.18            159           63.5  63 
 OCA  HZ EP       1843 57.17                             133    0.0810  129 355 
 OCA  HE ES       1844 15.64                             133   -0.4110  129 355 
 OCA  HZ I        1844 21.49        22.3 0.20            137            129 355 
 RUS  HZ EP       1843 57.80                             132   -0.0010  132 174 
 RUS  HN ES       1844 16.98                             132   -0.3410  132 174 
 RUS  HZ I        1844 19.94        13.6 0.22            137            132 174 
 PTB  HZ EP       1843 58.46                             128   -0.39 9  150 247 
 PTB  HN ES       1844 19.50                             128    0.31 9  150 247 
 PTB  HZ I        1844 21.58        53.4 0.18            131            150 247 
 SPBC HZ EP       1844  1.62                             122   -0.75 9  184 211 
 SPBC HN ES       1844 25.41                             122   -0.04 9  184 211 
 SPBC HZ I        1844 32.69        22.0 0.10            126            184 211 
 SML  HZ EP       1844  5.40                             118    0.12 8  213 334 
 SML  HE ES       1844 30.25                             118   -0.38 8  213 334 
 SML  HZ I        1844 33.67        33.5 0.10            121            213 334 
 GUY2CHZ EP       1844 19.48                             109    2.18 7  314 229 
 GUY2CHE ES       1844 50.40                             109   -1.62 7  314 229 
 GUY2CHZ I        1845  1.35         7.4 0.52                           314 229 
 MON  HZ EP   9   1844 16.89                             107   -1.56 0  330 305 
 MON  HE ES       1844 51.18                                   -1.34 7  330 305 
 MON  HZ I        1844 54.24         2.6 0.14            110            330 305 
                                                                                
