 2011 11 9 1143 49.7 L   6.806 -73.054140.0  RSN  4 0.2 1.8LRSN                1
 GAP=148        0.49       3.1     5.4  6.4  0.3341E+01  0.7452E+01  0.2123E+01E
 Epicentro: LOS SANTOS - SANTANDER                                             3
 ACTION:UPD 12-07-13 16:09 OP:ep   STATUS:               ID:20111109114349 L   I
 2011-11-09-1143-26S.COL___178                                                 6
 STAT SP IPHASW D HRMM SECON CODA AMPLIT PERI AZIMU VELO AIN AR TRES W  DIS CAZ7
 BAR2 SZ EP   1   1144  8.61                             168   -0.13 7 27.6 211 
 BAR2 SZ I        1144 24.43        13.8 0.61                          27.6 211 
 PAM  SN ES   1   1144 27.48                             152    0.02 7 70.8  34 
 BRR  HZ EP       1144 10.60                             149   -0.1710 80.0 295 
 BRR  HZ I        1144 23.13        11.0 0.32                          80.0 295 
 BRR  HE ES   1   1144 27.39                             149    0.19 7 80.0 295 
 RUS  HZ EP   1   1144 13.31                             142    0.38 7  101 182 
 RUS  HN ES       1144 30.95                             142   -0.1010  101 182 
                                                                                
