 2013 12 9 1455 35.1 L   6.802 -73.156140.4  RSN  6 0.4 1.7LRSN                1
 GAP=200        1.01       5.0     6.9 11.9  0.9795E+01  0.2118E+02 -0.2067E+02E
 Epicentro: LOS SANTOS - SANTANDER                                             3
 ACTION:UPD 14-01-13 10:17 OP:ep   STATUS:               ID:20131209145535 L   I
 OLDACT:REG 13-12-09 14:58 OP:cam  STATUS:               ID:20131209145000     3
 2013-12-09-1450-00M.COL___285                                                 6
 STAT SP IPHASW D HRMM SECON CODA AMPLIT PERI AZIMU VELO AIN AR TRES W  DIS CAZ7
 BAR2 SZ ES   1   1456  8.43                             170   -0.44 8 23.4 187 
 BAR2 SZ I        1456  9.79        17.9 0.28            171           23.4 187 
 RUS  HZ EP   1   1455 58.19                             143   -0.13 7  101 175 
 RUS  HE ES       1456 16.70                             143    0.2410  101 175 
 RUS  HZ I        1456 17.16         2.8 0.44            145            101 175 
 PTB  HZ EP       1456  0.89                             131   -0.61 9  147 259 
 PTB  HN ES       1456 21.68                             131   -0.44 9  147 259 
 PTB  HZ I        1456 25.59         4.4 0.12            132            147 259 
 SPBC HN ES       1456 25.58                             128    0.60 9  163 219 
 ZAR  HN ES       1456 32.30                             121    0.31 9  203 292 
 SML  HN ES       1456 40.03                             116    0.42 8  243 336 
 SML  HZ I        1456 41.86         7.0 0.10            118            243 336 
                                                                                
