 2012  6 9 1406 20.0 L   6.802 -73.156137.8  RSN  8 0.4 2.2LRSN                1
 GAP=135        0.86       3.3     4.6  7.5 -0.3692E+01  0.1597E+02  0.9722E-01E
 Epicentro: LOS SANTOS - SANTANDER                                             3
 ACTION:UPD 12-08-06 17:48 OP:ep   STATUS:               ID:20120609140619 L   I
 2012-06-09-1400-00M.COL___201                                                 6
 STAT SP IPHASW D HRMM SECON CODA AMPLIT PERI AZIMU VELO AIN AR TRES W  DIS CAZ7
 BAR2 SZ EP   1   14 6 39.00                             170    0.30 7 23.3 187 
 BAR2 SZ ES   1   14 6 53.74                             170    0.47 7 23.3 187 
 BAR2 SZ I        14 6 55.09        67.7 0.20            171           23.3 187 
 PAM  SZ EP   1   14 6 41.88                             149    0.44 7 78.0  40 
 PAM  SZ I        14 6 42.33        22.5 0.23            152           78.0  40 
 PAM  SN ES       14 6 57.84                             149   -0.3010 78.0  40 
 RUS  HZ EP   1   14 6 43.23                             142    0.21 7  101 175 
 RUS  HN ES   1   14 7  1.10                             142    0.14 7  101 175 
 RUS  HZ I        14 7  2.53        16.6 0.21            146            101 175 
 PTB  HZ EP   1   14 6 45.65                             130   -0.60 7  147 259 
 PTB  HN ES   1   14 7  6.08                             130   -0.63 7  147 259 
 PTB  HZ I        14 7  9.14        12.3 0.08            131            147 259 
 OCA  HZ EP   1   14 6 47.42                             128   -0.28 7  160 354 
 OCA  HE ES   1   14 7  8.84                             128   -0.45 7  160 354 
 OCA  HZ I        14 7 12.41        36.2 0.18            129            160 354 
 ZAR  HZ EP   1   14 6 52.61                             121    0.77 6  203 292 
 ZAR  HN ES   1   14 7 17.42                             121    0.76 6  203 292 
 ZAR  HZ I        14 7 23.75        19.1 0.24            121            203 292 
 NOR  SZ EP   1   14 6 55.11                             117   -0.10 6  234 234 
 NOR  SN ES       14 7 22.66                             117    0.00 8  234 234 
 CHI  HN ES       14 7 25.99                             115   -0.35 8  248 195 
                                                                                
