 2017  3 9 1244  8.2 L   6.758 -73.170142.6  RSN  5 0.3 1.4LRSN                1
 GAP=135        0.86       4.5     4.3  6.3 -0.1755E+01  0.3418E+01  0.1068E+01E
 Epicentro: LOS SANTOS - SANTANDER                                             3
 ACTION:UPD 17-05-25 18:38 OP:jn   STATUS:               ID:20170309124408 L   I
 OLDACT:DUP 17-03-09 22:30 OP:cara STATUS:               ID:20170309123742d    3
 2017-03-09-1238-00M.COL___400                                                 6
 STAT SP IPHASW D HRMM SECON CODA AMPLIT PERI AZIMU VELO AIN AR TRES W  DIS CAZ7
 BAR2 EZ EP       1244 27.28                             172   -0.0410 18.3 184 
 BAR2 EZ ES       1244 42.64                             172    0.3910 18.3 184 
 BAR2 EZ I        1244 45.03        10.0 0.28            172           18.3 184 
 BRR  HZ EP       1244 29.21                             152    0.2410 71.3 303 
 BRR  HE ES       1244 44.89                             152   -0.3110 71.3 303 
 PAM  EZ EP       1244 30.23                             148   -0.1410 82.7  39 
 PAM  EE ES       1244 47.70                             148    0.0110 82.7  39 
 PAM  EZ I        1244 49.41         4.2 0.40            151           82.7  39 
 RUS  HZ EP       1244 31.74                             144    0.4610 96.1 174 
 RUS  HN ES       1244 48.83                             144   -0.4810 96.1 174 
 RUS  HZ I        1244 51.10         3.6 0.32            146           96.1 174 
 PTB  HZ EP       1244 34.12                             132   -0.43 9  144 260 
 PTB  HE ES       1244 55.42                             132    0.28 9  144 260 
 PTB  HZ I        1244 58.06         2.7 0.40            134            144 260 
                                                                                
