 2011  5 9 1510 38.1 L   7.541 -73.539104.0  RSN  4 0.1 1.5LRSN                1
 GAP=265        0.36       8.6    24.8 20.7 -0.1945E+03  0.4706E+03 -0.1366E+03E
 Epicentro: SABANA DE TORRES - SANTANDER                                       3
 ACTION:UP  11-06-29 08:51 OP:tino STATUS:               ID:20110509151038 L   I
 2011-05-09-1509-24S.COL___133                                                 6
 STAT SP IPHASW D HRMM SECON CODA AMPLIT PERI AZIMU VELO SNR AR TRES W  DIS CAZ7
 BTL  SZ EP   1   1510 55.59                             142     0.0 7   75 156 
 BRI  SZ EP   2   1510 56.43                             138     0.2 5   84  77 
 BRI  SZ I        1511 12.25         7.5 0.51                            84  77 
 GRA  SZ EP   2   1510 56.38                             136    -0.2 5   90  65 
 GRA  SZ ES   1   1511 11.05                             136     0.0 7   90  65 
 GRA  SZ I        1511 13.40         9.8 0.33                            90  65 
 BAR2 SZ EP   1   1510 58.72                             129     0.0 7  112 159 
 BAR2 SZ ES   2   1511 14.82                             129     0.0 5  112 159 
 BAR2 SZ I        1511 16.23         5.5 0.28                           112 159 
                                                                                
