 2017 12 9 1625 25.8 L   6.814 -73.172139.7  RSN 12 0.6 2.1LRSN                1
 GAP= 63        1.13       3.5     4.0  6.5 -0.1378E+01  0.5062E+01  0.2195E+01E
 Epicentro: LOS SANTOS - SANTANDER                                             3
 ACTION:UPD 18-01-04 13:18 OP:rebc STATUS:               ID:20171209162525 L   I
 OLDACT:UP  17-12-09 23:53 OP:mg   STATUS:               ID:20171209161740     3
 OLDACT:REG 17-12-09 21:46 OP:mg   STATUS:               ID:20171209161740     3
 2017-12-09-1618-00M.COL___487                                                 6
 STAT SP IPHASW D HRMM SECON CODA AMPLIT PERI AZIMU VELO AIN AR TRES W  DIS CAZ7
 BAR2 EZ EP       1625 44.53                             170   -0.1610 24.5 183 
 BAR2 EZ ES       1625 59.66                             170    0.2110 24.5 183 
 BAR2 EZ I        1626  0.18        23.1 0.22            172           24.5 183 
 PAM  EZ EP       1625 47.17                             149   -0.2110 78.1  42 
 PAM  EN ES       1626  4.08                             149   -0.1610 78.1  42 
 PAM  EZ I        1626  6.49        21.8 0.64            142           78.1  42 
 PTB  HZ EP       1625 51.28                             131   -0.72 9  145 258 
 PTB  HN ES   1   1626 11.68                             131   -0.79 7  145 258 
 PTB  HZ I        1626 14.53        10.4 0.14            126            145 258 
 TAM  HZ EP       1625 53.03                             128   -0.24 9  158 105 
 OCA  HZ EP       1625 54.18                             129    0.75 9  158 354 
 OCA  HZ I        1626 26.44        46.2 0.11            121            158 354 
 YPLC HZ IP     D 1625 55.23                             125   -0.17 9  180 151 
 YPLC HN ES   1   1626 19.29                             125    0.78 7  180 151 
 YPLC HZ I        1626 21.59        10.4 0.22            120            180 151 
 ZAR  HZ EP   1   1625 57.61                             121    0.14 6  201 292 
 ZAR  HN ES       1626 22.84                             121    0.63 9  201 292 
 ZAR  HZ I        1626 25.57        14.2 0.19            116            201 292 
 NOR  HZ EP       1626  0.63                             117   -0.35 8  233 234 
 NOR  HN ES       1626 28.10                             117   -0.36 8  233 234 
 NOR  HZ I        1626 34.77         6.2 0.24            113            233 234 
 CHI  HZ EP       1626  3.33                             116    0.12 8  249 194 
 CHI  HN ES   2   1626 33.55                             116    1.13 4  249 194 
 CHI  HZ I        1626 38.93         3.3 0.58            112            249 194 
 DRL03HZ EP       1626  5.90                             112   -0.97 7  287 353 
 DRL03HN ES       1626 39.60                             112    0.66 7  287 353 
 GUY2CHZ EP   2   1626 10.22                             111    1.30 4  300 234 
 GUY2CHE ES   3   1626 45.15                             111    2.56 2  300 234 
 GUY2CHZ I        1626 53.25         5.3 0.44                           300 234 
 PRA  HZ EP       1626 19.30                             105    0.23 6  392 209 
 PRA  HN ES       1627  1.31                             105    0.67 6  392 209 
 PRA  HZ I        1627  7.67         5.1 0.25            102            392 209 
                                                                                
