 2010  7 9 1627  3.7 L   6.795 -73.068139.9  RSN  8 0.3 2.0LRSN                1
 GAP=165        0.68       4.4     7.7  7.2 -0.1230E+02  0.5594E+01 -0.5904E+01E
 Epicentro: LOS SANTOS - SANTANDER                                             3
 ACTION:UPD 10-12-01 15:16 OP:pat  STATUS:               ID:20100709162703 L   I
 2010-07-09-1623-18S.COL___120                                                 6
 STAT SP IPHASW D HRMM SECON CODA AMPLIT PERI AZIMU VELO AIN AR TRES W  DIS CAZ7
 BAR2 SZ EP   1   1627 22.48                             169    -0.2 8   26 210 
 BAR2 SZ ES   2   1627 37.52                             169     0.1 5   26 210 
 BRR  HZ EP   1   1627 24.25                             149    -0.4 8   79 296 
 BRR  HE ES   2   1627 40.87                             149    -0.2 5   79 296 
 BRR  HZ I        1627 44.77        25.7 0.11                            79 296 
 RUS  HZ EP   1   1627 27.01                             143     0.2 8  100 181 
 RUS  HN ES   2   1627 44.94                             143     0.1 5  100 181 
 RUS  HZ I        1627 47.04         9.9 0.26                           100 181 
 BRI  SZ EP   1   1627 26.86                             141     0.0 8  106  16 
 BRI  SZ ES   2   1627 45.32                             141     0.4 5  106  16 
 GUE  SZ EP   1   1627 27.31                             138    -0.5 8  116   8 
 GRA  SZ IP     D 1627 28.10                             136    -0.210  124  14 
 GRA  SZ ES   2   1627 47.86                             136     0.4 5  124  14 
 OCA  SZ EP   1   1627 32.29                             128     0.6 7  162 350 
 HEL  HZ EP   1   1627 45.03                             113     0.5 6  280 256 
 HEL  HZ I        1628 22.27         6.8 0.32                           280 256 
                                                                                
