 2010  5 9 1743 51.1 L   6.803 -73.045143.0  RSN 13 0.5 3.0LRSN                1
 GAP=167        0.89       4.3     7.4  7.3 -0.1434E+02  0.8124E+01  0.4125E+01E
 Epicentro: CEPITA - SANTANDER                                                 3
 ACTION:UP  10-08-24 10:03 OP:vdl  STATUS:               ID:20100509174351 L   I
 2010-05-09-1742-21S.COL___105                                                 6
 STAT SP IPHASW D HRMM SECON CODA AMPLIT PERI AZIMU VELO SNR AR TRES W  DIS CAZ7
 BAR2 SZ IP     D 1744 10.46                             168    -0.110   28 213 
 BAR2 SZ ES   2   1744 25.03                             168    -0.6 5   28 213 
 GIR2 SZ EP   1   1744  9.49                             166    -1.1 7   35 332 
 GIR2 SZ ES   2   1744 25.24                             166    -0.5 5   35 332 
 BRR  HZ IP     C 1744 12.89                             149     0.310   81 295 
 BRR  HE ES   2   1744 29.87                             149     0.6 5   81 295 
 BRR  HZ I        1744 31.89       212.3 0.13                            81 295 
 RUS  HZ EP   1   1744 14.52                             143    -0.1 7  101 182 
 RUS  HN ES   2   1744 33.61                             143     0.7 5  101 182 
 RUS  HZ I        1744 35.57       122.1 0.40                           101 182 
 BRI  SZ EP   1   1744 15.05                             142     0.6 7  105  15 
 GUE  SZ EP   1   1744 15.44                             139     0.0 7  114   7 
 GRA  SZ IP     C 1744 16.22                             137     0.410  123  13 
 GRA  SZ ES   2   1744 35.61                             137     0.5 5  123  13 
 OCA  SZ EP   1   1744 18.77                             129    -0.6 7  162 349 
 OCA  SZ ES   2   1744 41.19                             129    -0.2 5  162 349 
 CHI  HZ EP   1   1744 28.94                             116    -0.1 6  252 198 
 CHI  HN ES   2   1744 58.73                             116     0.1 4  252 198 
 CHI  HZ I        1745  1.86        45.3 0.50                           252 198 
 HEL  HZ EP   1   1744 32.36                             113    -0.1 6  283 256 
 HEL  HN ES   2   1745  4.31                             113    -0.3 4  283 256 
 HEL  HZ I        1745 10.05        57.8 0.30                           283 256 
 RREF BZ EP   1   1744 37.59                             110    -0.6 5  330 231 
 RREF BE ES   2   1745 15.35                             110     0.5 3  330 231 
 RREF BZ I        1745 20.62        48.9 0.25                           330 231 
 TOL  SZ EP   1   1744 40.83                             108     0.6 5  352 226 
 TOL  SZ ES   2   1745 19.30                             108     0.8 3  352 226 
 PRA  HZ EP   1   1744 44.67                             106    -0.6 4  398 211 
 PRA  HN ES   2   1745 27.33                             106    -0.1 3  398 211 
 PRA  HZ I        1745 32.89        47.3 0.25                           398 211 
                                                                                
