 2011  9 9 1530 59.2 L   6.789 -73.115142.5  RSN 12 0.3 2.2LRSN                1
 GAP=141        0.54       2.2     4.1  3.6 -0.9102E+00  0.5165E+01  0.7986E+00E
 Epicentro: LOS SANTOS - SANTANDER                                             3
 ACTION:UPD 12-07-13 15:56 OP:ep   STATUS:               ID:20110909153059 L   I
 2011-09-09-1528-18S.COL___170                                                 6
 STAT SP IPHASW D HRMM SECON CODA AMPLIT PERI AZIMU VELO AIN AR TRES W  DIS CAZ7
 BAR2 SZ EP       1531 18.46                             170    0.0110 23.0 199 
 BAR2 SZ ES       1531 33.38                             170   -0.0610 23.0 199 
 BAR2 SZ I        1531 36.98        22.1 0.19                          23.0 199 
 GIR2 SZ EP   1   1531 18.46                             166   -0.09 7 33.2 345 
 BRR  HZ EP       1531 20.15                             151   -0.0710 74.8 298 
 BRR  HZ I        1531 21.77        54.6 0.08                          74.8 298 
 BRR  HE ES   1   1531 36.97                             151    0.37 7 74.8 298 
 PAM  SZ EP       1531 21.31                             151    0.3010 76.2  37 
 PAM  SZ I        1531 21.50        12.6 0.10                          76.2  37 
 PAM  SE ES   1   1531 38.03                             151    0.01 7 76.2  37 
 RUS  HZ EP       1531 22.54                             143    0.0010 99.2 178 
 RUS  HN ES   1   1531 40.66                             143   -0.08 7 99.2 178 
 RUS  HZ I        1531 43.00        23.9 0.17                          99.2 178 
 OCA  SZ EP   1   1531 27.35                             128   -0.08 7  162 352 
 OCA  SZ ES   1   1531 49.04                             128   -0.40 7  162 352 
 OCA  SZ I        1531 53.24        36.2 0.37                           162 352 
 ZAR  HZ EP   1   1531 31.32                             121   -0.50 6  208 292 
 ZAR  HZ I        1532  3.01        30.1 0.30                           208 292 
 NOR  SZ EP   1   1531 34.77                             117   -0.21 6  237 235 
 CHI  HZ EP   1   1531 36.82                             116    0.11 6  248 196 
 CHI  HE ES   1   1532  5.62                             116   -0.33 6  248 196 
 CHI  HZ I        1532 13.42         7.0 0.91                           248 196 
 HEL  HZ EP   1   1531 40.42                             114    0.82 6  275 256 
 TOL  SZ EP   1   1531 47.73                             109    0.21 5  345 225 
 PRA  HZ EP   1   1531 52.58                             106   -0.12 4  393 210 
                                                                                
