 2012  1 9 1651  0.2 L   6.782 -73.118146.1  RSN  9 0.3 2.3LRSN                1
 GAP=141        0.59       2.4     3.3  4.5 -0.1242E+01  0.3728E+01 -0.4822E+00E
 Epicentro: LOS SANTOS - SANTANDER                                             3
 ACTION:UP  12-02-03 08:15 OP:REBC STATUS:               ID:20120109165100 L   I
 2012-01-09-1650-00M.COL___186                                                 6
 STAT SP IPHASW D HRMM SECON CODA AMPLIT PERI AZIMU VELO SNR AR TRES W  DIS CAZ7
 BAR2 SZ EP   1   1651 19.79                             171    -0.1 7   22 199 
 BAR2 SZ ES   1   1651 35.00                             171    -0.2 7   22 199 
 BAR2 SZ I        1651 35.97        43.9 0.28                            22 199 
 BRR  HZ EP       1651 21.89                             151     0.310   75 299 
 BRR  HN ES   1   1651 38.66                             151     0.4 7   75 299 
 BRR  HZ I        1651 40.35        34.2 0.13                            75 299 
 PAM  SZ EP   1   1651 22.83                             151     0.4 7   77  37 
 PAM  SN ES   1   1651 39.51                             151    -0.3 7   77  37 
 RUS  HZ EP   1   1651 23.82                             144     0.0 7   98 178 
 RUS  HN ES   1   1651 42.41                             144     0.1 7   98 178 
 PTB  HZ EP   1   1651 26.93                             131    -0.5 7  150 260 
 PTB  HN ES   1   1651 48.40                             131    -0.3 7  150 260 
 OCA  SZ EP       1651 28.76                             129     0.0 9  163 352 
 OCA  SZ ES   1   1651 50.70                             129    -0.3 7  163 352 
 OCA  SZ I        1651 54.62        31.0 0.24                           163 352 
 ZAR  HZ EP   1   1651 33.17                             122     0.1 6  208 292 
 ZAR  HN ES   1   1651 58.97                             122     0.3 6  208 292 
 ZAR  HZ I        1652  3.81        12.5 0.07                           208 292 
 NOR  SZ EP   1   1651 35.87                             118    -0.2 6  236 235 
 NOR  SN ES   1   1652  4.08                             118     0.0 6  236 235 
 CHI  HN ES   1   1652  7.23                             117     0.1 6  248 196 
                                                                                
