 2012  8 9 1134 50.3 L   7.598 -73.126  9.6  RSN  8 0.4 1.8LRSN                1
 GAP=138        0.80       2.5     2.8  5.1  0.2053E+01  0.6981E+01  0.4375E+01E
 Epicentro: EL PLAYON - SANTANDER                                              3
 ACTION:UPD 12-09-10 11:55 OP:ep   STATUS:               ID:20120809113450 L   I
 2012-08-09-1130-00M.COL___218                                                 6
 STAT SP IPHASW D HRMM SECON CODA AMPLIT PERI AZIMU VELO AIN AR TRES W  DIS CAZ7
 PAM  SZ EP   1   1134 59.96                              97    0.19 7 55.1 121 
 PAM  SN ES   1   1135  6.95                              97   -0.22 7 55.1 121 
 OCA  HZ EP   1   1135  2.24                              95   -0.03 7 74.0 343 
 OCA  HN ES   1   1135 11.48                              95   -0.15 7 74.0 343 
 OCA  HZ I        1135 14.97        61.7 0.27                          74.0 343 
 BRR  HZ EP   1   1135  3.68                              94    0.00 7 84.4 230 
 BRR  HZ I        1135  4.03        16.7 0.13                          84.4 230 
 BRR  HN ES   1   1135 14.30                              94    0.15 7 84.4 230 
 BAR2 SZ EP   1   1135  7.49                              93   -0.52 7  111 183 
 PTB  HZ EP   1   1135 18.91                              56    0.36 7  188 232 
 PTB  HN ES   1   1135 40.45                              56   -0.16 7  188 232 
 PTB  HZ I        1135 41.34         8.2 0.21                           188 232 
 RUS  HZ EP   1   1135 20.13                              56    0.91 7  189 179 
 RUS  HN ES   1   1135 41.44                              56   -0.37 7  189 179 
 RUS  HZ I        1135 45.61         7.2 0.28                           189 179 
 ZAR  HZ EP   1   1135 19.61                              56    0.61 7  191 267 
 ZAR  HN ES   1   1135 40.61                              56   -0.79 7  191 267 
 ZAR  HZ I        1135 43.02        18.9 0.18                           191 267 
 URE  HN ES   2   1135 58.55                              56    0.54 4  266 274 
 URE  HZ I        1136  3.69         5.9 0.21                           266 274 
                                                                                
