 2017  7 9 1144 18.5 L   6.657 -73.130135.5  RSN  8 0.5 1.7LRSN                1
 GAP=201        0.99       6.2     4.9  7.7  0.1299E+02  0.7616E+01  0.2028E+02E
 Epicentro: VILLANUEVA - SANTANDER                                             3
 ACTION:UPD 17-08-30 15:31 OP:rebc STATUS:               ID:20170709114418 L   I
 OLDACT:REG 17-07-09 20:23 OP:dhb  STATUS:               ID:20170709113743     3
 2017-07-09-1138-00M.COL___377                                                 6
 STAT SP IPHASW D HRMM SECON CODA AMPLIT PERI AZIMU VELO AIN AR TRES W  DIS CAZ7
 BAR2 EZ IP     C 1144 36.67                             176   -0.0410 9.21 219 
 BAR2 EZ ES       1144 51.30                             176    0.4110 9.21 219 
 BAR2 EZ I        1144 53.33        14.5 0.22            172           9.21 219 
 BRR  HZ EP       1144 38.59                             147   -0.6310 81.4 308 
 BRR  HE ES       1144 55.35                             147   -0.0110 81.4 308 
 BRR  HZ I        1145  3.68         9.6 0.33            148           81.4 308 
 PTB  HZ EP   3   1144 43.64                             130   -0.99 2  147 265 
 PTB  HN ES       1145  4.87                             130   -0.12 9  147 265 
 PTB  HZ I        1145 10.59         3.4 0.16            132            147 265 
 SPBC HZ EP   1   1144 45.33                             129    0.11 7  152 223 
 SPBC HN ES   4   1145  7.89                             129    1.85 0  152 223 
 SPBC HZ I        1145 10.12         9.6 0.06            131            152 223 
 YPLC HZ IP     C 1144 46.89                             127    0.74 9  162 149 
 YPLC HE ES       1145  7.05                             127   -0.64 9  162 149 
 YPLC HZ I        1145 11.75         5.0 0.26            131            162 149 
 ZAR  HZ EP   2   1144 52.06                             119    0.88 4  212 296 
 ZAR  HN ES   4   1145 14.87                             119   -1.78 0  212 296 
 ZAR  HZ I        1145 21.11         5.4 0.21            122            212 296 
 NOR  HZ EP       1144 52.84                             117   -0.04 8  227 238 
 NOR  HE ES       1145 19.93                             117    0.25 8  227 238 
 NOR  HZ I        1145 24.11         4.2 0.16            120            227 238 
 GUY2CHZ EP   4   1145  2.96                             111    2.12 0  294 237 
 GUY2CHE ES   4   1145 37.52                             111    3.68 0  294 237 
 GUY2CHZ I        1145 43.89         3.4 0.27                           294 237 
                                                                                
