 2012 10 9 1251 58.5 L   6.796 -73.141149.3  RSN  7 0.4 2.5LRSN                1
 GAP=137        0.75       5.1     5.6  8.3  0.7543E+01  0.6561E+01 -0.5289E+01E
 Epicentro: LOS SANTOS - SANTANDER                                             3
 ACTION:UPD 12-11-22 17:02 OP:ep   STATUS:               ID:20121009125158 L   I
 2012-10-09-1250-00M.COL___223                                                 6
 STAT SP IPHASW D HRMM SECON CODA AMPLIT PERI AZIMU VELO AIN AR TRES W  DIS CAZ7
 BAR2 SZ IP       1252 18.55                             171    0.0410 23.0 192 
 BAR2 SZ ES   2   1252 34.18                             171    0.03 5 23.0 192 
 BAR2 SZ I        1252 36.64        39.9 0.18                          23.0 192 
 GIR2 SZ EP   1   1252 18.74                             167    0.17 7 31.8 349 
 BRR  HZ EP       1252 20.44                             153    0.4010 71.9 299 
 BRR  HN ES   2   1252 37.72                             153    0.86 5 71.9 299 
 BRR  HN I        1252 39.03       119.1 0.22                          71.9 299 
 PAM  SZ EP       1252 21.17                             151    0.1110 77.4  39 
 PAM  SN ES   2   1252 37.98                             151   -0.70 5 77.4  39 
 PAM  SN I        1252 39.82        38.6 0.22                          77.4  39 
 RUS  HZ EP       1252 22.42                             145   -0.1110  100 176 
 RUS  HN ES   1   1252 40.92                             145   -0.38 7  100 176 
 RUS  HN I        1252 42.82        24.9 0.38                           100 176 
 ZAR  HZ EP   1   1252 31.15                             123   -0.07 6  205 292 
 ZAR  HN ES   1   1252 55.85                             123   -0.91 6  205 292 
 ZAR  HN I        1253  2.87        41.7 0.58                           205 292 
 CHI  HZ EP   3   1252 36.16                             118   -0.17 2  248 195 
 CHI  HE ES   3   1253  6.71                             118    0.85 2  248 195 
                                                                                
