 2010  7 9 1749 20.2 L   6.770 -73.099142.9  RSN 10 0.3 2.1LRSN                1
 GAP=161        0.75       3.3     6.6  5.8 -0.4961E+01  0.7157E+01 -0.4046E+00E
 Epicentro: LOS SANTOS - SANTANDER                                             3
 ACTION:UPD 10-12-01 15:16 OP:pat  STATUS:               ID:20100709174920 L   I
 2010-07-09-1746-43S.COL___120                                                 6
 STAT SP IPHASW D HRMM SECON CODA AMPLIT PERI AZIMU VELO AIN AR TRES W  DIS CAZ7
 BAR2 SZ IP       1749 39.42                             171     0.010   22 205 
 BAR2 SZ ES   1   1749 54.57                             171     0.1 7   22 205 
 BAR2 SZ I        1749 56.15        31.3 0.24                            22 205 
 BRR  HZ EP       1749 41.15                             150    -0.310   77 299 
 BRR  HZ I        1749 41.58        39.9 0.19                            77 299 
 BRR  HN ES   1   1749 57.82                             150    -0.1 7   77 299 
 RUS  HZ EP       1749 43.22                             144    -0.210   97 179 
 RUS  HN ES   1   1750  1.61                             144     0.1 7   97 179 
 RUS  HZ I        1750  3.79        10.3 0.38                            97 179 
 BRI  SZ ES   2   1750  2.24                             140    -0.2 5  110  18 
 GUE  SZ EP       1749 45.40                             138     0.610  119   9 
 GUE  SZ ES   2   1750  4.32                             138     0.3 5  119   9 
 GUE  SZ I        1750  8.30         6.7 0.22                           119   9 
 GRA  SZ EP   2   1749 45.12                             136    -0.2 5  127  15 
 GRA  SZ ES   1   1750  5.09                             136     0.1 7  127  15 
 GRA  SZ I        1750  7.07        21.1 0.30                           127  15 
 OCA  SZ EP   1   1749 47.97                             128    -0.7 7  164 352 
 OCA  SZ ES   2   1750 10.57                             128    -0.3 5  164 352 
 OCA  SZ I        1750 15.62        23.0 0.28                           164 352 
 CHI  HZ EP   3   1749 57.48                             117    -0.1 2  247 197 
 CHI  HE ES   3   1750 26.03                             117    -0.7 2  247 197 
 CHI  HZ I        1750 35.60         5.5 0.39                           247 197 
 HEL  HZ EP       1750  1.24                             114     0.5 7  276 257 
 HEL  HZ I        1750 38.64        10.0 0.25                           276 257 
 PRA  HZ EP   2   1750 13.88                             106     0.3 3  392 210 
 PRA  HE ES   3   1750 55.06                             106    -0.2 1  392 210 
 PRA  HZ I        1751  1.30         6.7 0.36                           392 210 
                                                                                
