 2017  9 9 1105  2.6 L   6.783 -73.145146.4  RSN  9 0.4 2.1LRSN                1
 GAP=137        0.97       3.7     4.1  6.4 -0.2133E+01  0.9490E+01  0.2359E+01E
 Epicentro: LOS SANTOS - SANTANDER                                             3
 ACTION:UPD 17-10-05 19:10 OP:rebc STATUS:               ID:20170909110502 L   I
 OLDACT:DUP 17-09-09 20:53 OP:lv   STATUS:               ID:20170909104637d    3
 2017-09-09-1058-00M.COL___401                                                 6
 STAT SP IPHASW D HRMM SECON CODA AMPLIT PERI AZIMU VELO AIN AR TRES W  DIS CAZ7
 BAR2 EZ IP     C 11 5 22.20                             171   -0.0510 21.5 191 
 BAR2 EZ ES       11 5 37.27                             171   -0.3310 21.5 191 
 BAR2 EZ I        11 5 38.28        52.5 0.24            171           21.5 191 
 BRR  HZ IP     C 11 5 24.04                             152    0.1810 72.2 300 
 BRR  HN ES       11 5 41.10                             152    0.6510 72.2 300 
 BRR  HZ I        11 5 44.27        20.2 0.13            151           72.2 300 
 PAM  EZ EP       11 5 25.11                             150    0.1610 78.7  39 
 PAM  EN ES       11 5 42.37                             150   -0.0210 78.7  39 
 PAM  EZ I        11 5 44.59        27.0 0.66            154           78.7  39 
 RUS  HZ EP       11 5 26.18                             144   -0.0810 98.7 176 
 RUS  HN ES       11 5 44.41                             144   -0.3210 98.7 176 
 RUS  HZ I        11 5 45.76        13.6 0.22            147           98.7 176 
 SPBC HZ EP       11 5 31.21                             129    0.21 9  162 219 
 SPBC HN ES       11 5 53.20                             129    0.03 9  162 219 
 SPBC HZ I        11 5 57.29        20.2 0.10            131            162 219 
 ZAR  HZ EP       11 5 35.04                             122   -0.11 9  205 293 
 ZAR  HN ES       11 5 59.75                             122   -0.81 9  205 293 
 ZAR  HZ I        11 6  6.31        16.1 0.26            123            205 293 
 NOR  HN ES       11 6  6.98                             119    0.92 8  234 235 
 NOR  HZ I        11 6 10.78         7.4 0.12            120            234 235 
 HEL  HN ES       11 6 13.75                             115   -0.40 8  272 256 
 PRA  HN ES       11 6 37.28                             107   -0.28 6  390 210 
 SJC  HZ EP   4   11 5 56.23                             106   -2.12 0  411 327 
 SJC  HN ES   4   11 6 38.31                             106   -3.55 0  411 327 
                                                                                
