 2013  1 9 1031 18.3 L   6.807 -73.118143.7  RSN  7 0.5 2.0LRSN                1
 GAP=186        1.21       4.5     7.3  8.2  0.9818E+01  0.1490E+02  0.3749E+01E
 Epicentro: LOS SANTOS - SANTANDER                                             3
 ACTION:UPD 13-02-15 09:13 OP:ep   STATUS:               ID:20130109103118 L   I
 2013-01-09-1028-48M.COL___196                                                 6
 STAT SP IPHASW D HRMM SECON CODA AMPLIT PERI AZIMU VELO AIN AR TRES W  DIS CAZ7
 BAR2 SZ EP       1031 37.86                             170    0.1610 24.8 197 
 BAR2 SZ ES       1031 52.79                             170   -0.0510 24.8 197 
 BAR2 SZ I        1031 54.26        13.6 0.24            167           24.8 197 
 BRR  HZ EP       1031 39.74                             151    0.4010 73.5 297 
 BRR  HN ES       1031 56.74                             151    0.9710 73.5 297 
 BRR  HN I        1031 57.29        22.0 0.36            148           73.5 297 
 RUS  HN ES       1031 59.75                             143   -0.5410  101 178 
 PTB  HZ EP       1031 45.02                             131   -0.35 9  151 259 
 PTB  HN ES       1032  5.77                             131   -0.73 9  151 259 
 PTB  HZ I        1032 13.16         7.8 0.18            129            151 259 
 OCA  HN ES       1032  7.78                             129   -0.54 9  160 352 
 OCA  HN I        1032 11.58        16.6 0.18            130            160 352 
 ZAR  HZ EP       1031 50.71                             122   -0.14 8  207 292 
 ZAR  HN ES       1032 16.37                             122    0.11 8  207 292 
 ZAR  HN I        1032 21.07        10.3 0.36            121            207 292 
 CHI  HZ EP       1031 56.37                             117    0.33 8  250 196 
 CHI  HN ES       1032 25.91                             117    0.42 8  250 196 
 CHI  HN I        1032 31.25         4.7 0.48            116            250 196 
                                                                                
