 2016  3 9 1513  3.7 L   6.832 -73.185139.4  RSN  5 0.4 1.7LRSN                1
 GAP=147        0.95       5.4     5.7  7.9 -0.1513E+02  0.1694E+02 -0.6007E+01E
 Epicentro: ZAPATOCA - SANTANDER                                               3
 ACTION:UPD 16-05-13 21:22 OP:cam  STATUS:               ID:20160309151303 L   I
 OLDACT:REG 16-03-09 20:45 OP:ar   STATUS:               ID:20160309150750     3
 2016-03-09-1507-50M.COL___283                                                 6
 STAT SP IPHASW D HRMM SECON CODA AMPLIT PERI AZIMU VELO AIN AR TRES W  DIS CAZ7
 BAR2 EZ EP       1513 22.50                             169   -0.1410 26.5 179 
 BAR2 EZ ES       1513 36.99                             169   -0.4210 26.5 179 
 BAR2 EZ I        1513 38.53        12.5 0.22            168           26.5 179 
 PAM  EZ EP       1513 25.43                             149    0.1710 77.6  44 
 PAM  EN ES       1513 42.43                             149    0.3610 77.6  44 
 PAM  EZ I        1513 44.26         7.5 0.44            155           77.6  44 
 RUS  HZ EP   2   1513 27.02                             141   -0.11 5  105 174 
 RUS  HN ES       1513 45.18                             141   -0.2210  105 174 
 RUS  HZ I        1513 46.77         8.7 0.32            144            105 174 
 PTB  HZ EP       1513 29.55                             131   -0.28 9  144 257 
 PTB  HN ES       1513 50.07                             131   -0.14 9  144 257 
 PTB  HZ I        1513 55.44         6.7 0.38            131            144 257 
 SPBC HZ EP       1513 31.56                             127   -0.17 9  163 217 
 SPBC HN ES       1513 54.53                             127    0.94 9  163 217 
 SPBC HZ I        1514  1.97         8.0 0.38            128            163 217 
                                                                                
