 2012  1 9 1004  4.4 L   6.774 -73.147145.2  RSN  8 0.5 1.4LRSN                1
 GAP=137        1.17       6.9     7.3 10.8 -0.6213E+01  0.1133E+02  0.2095E+02E
 Epicentro: LOS SANTOS - SANTANDER                                             3
 ACTION:UP  12-02-03 08:15 OP:REBC STATUS:               ID:20120109100404 L   I
 2012-01-09-1000-00M.COL___186                                                 6
 STAT SP IPHASW D HRMM SECON CODA AMPLIT PERI AZIMU VELO SNR AR TRES W  DIS CAZ7
 BAR2 SZ EP   1   10 4 23.91                             172     0.0 7   20 191 
 BAR2 SZ ES   1   10 4 38.94                             172    -0.2 7   20 191 
 BAR2 SZ I        10 4 41.92         7.6 0.47                            20 191 
 BRR  HZ EP       10 4 26.01                             152     0.410   72 301 
 BRR  HN ES   1   10 4 43.04                             152     0.9 7   72 301 
 BRR  HZ I        10 4 46.14         3.9 0.17                            72 301 
 PAM  SZ EP   1   10 4 26.76                             150     0.0 7   80  38 
 PAM  SN ES   1   10 4 43.84                             150    -0.3 7   80  38 
 RUS  HZ EP   2   10 4 27.83                             144    -0.1 5   98 176 
 RUS  HN ES   2   10 4 45.73                             144    -0.5 5   98 176 
 RUS  HZ I        10 4 47.79         2.0 0.26                            98 176 
 PTB  HZ EP   1   10 4 30.52                             132    -0.8 7  147 260 
 PTB  HN ES   1   10 4 51.29                             132    -0.9 7  147 260 
 PTB  HZ I        10 4 57.67         3.7 0.26                           147 260 
 ZAR  HN ES   2   10 5  2.09                             122    -0.2 4  205 293 
 ZAR  HZ I        10 5  8.38         4.3 0.31                           205 293 
 NOR  SN ES   2   10 5  8.26                             119     0.6 4  233 235 
 CHI  HZ EP   1   10 4 41.77                             117     0.0 6  246 195 
 CHI  HN ES   1   10 5 11.73                             117     0.8 6  246 195 
 CHI  HZ I        10 5 19.60         1.4 0.36                           246 195 
                                                                                
