 2015 12 9 1611 43.2 L   6.807 -73.109145.1  RSN 26 0.5 3.2LRSN 3.5WRSN        1
 SPEC AVERAGE  MO 14.3 ST0.605 OM  2.5 f0 1.51 R1.3873 AL 0.00 WI 30.0 MW  3.5 3
 SPEC SD       MO  0.1 ST 11.3 OM  0.3 f0 1.38 R0.5329 AL      WI      MW  0.1 3
 GAP= 54        1.16       3.1     3.1  4.5 -0.3092E+01  0.1054E+01  0.1765E+01E
 Epicentro: LOS SANTOS - SANTANDER                                             3
 SPEC BAR2EH Z MO 14.4 ST  1.5 OM  2.5 f0 2.17 R0.8866 AL-0.00 WI 30.0 MW  3.5 3
 SPEC BAR2EH Z T161215 K 0.000 GD  147 VS 5.20 DE 3.50 Q0750.0 QA 1.50 VS 3.50 3
 SPEC PAM EH Z MO 14.2 ST0.371 OM  2.3 f0 1.53 R1.2575 AL-0.00 WI 30.0 MW  3.4 3
 SPEC PAM EH Z T161221 K 0.000 GD  162 VS 5.20 DE 3.50 Q0750.0 QA 1.50 VS 3.50 3
 SPEC RUS HH Z MO 14.5 ST0.331 OM  2.5 f0 1.23 R1.5642 AL-0.00 WI 30.0 MW  3.6 3
 SPEC RUS HH Z T161224 K 0.000 GD  176 VS 5.20 DE 3.50 Q0750.0 QA 1.50 VS 3.50 3
 SPEC OCA HH Z MO 14.3 ST  1.8 OM  2.3 f0 2.34 R0.8222 AL-0.00 WI 30.0 MW  3.5 3
 SPEC OCA HH Z T161231 K 0.000 GD  215 VS 5.20 DE 3.50 Q0750.0 QA 1.50 VS 3.50 3
 SPEC HEL HH Z MO 14.5 ST0.146 OM  2.3 f00.903 R2.1307 AL-0.00 WI 30.0 MW  3.6 3
 SPEC HEL HH Z T161253 K 0.000 GD  311 VS 5.20 DE 3.50 Q0750.0 QA 1.50 VS 3.50 3
 SPECGUY2CHH Z MO 14.7 ST0.141 OM  2.5 f00.746 R2.5791 AL-0.00 WI 30.0 MW  3.8 3
 SPECGUY2CHH Z T161260 K 0.000 GD  337 VS 5.20 DE 3.50 Q0750.0 QA 1.50 Q1 0.00 3
 SPEC CBOCHH Z MO 14.2 ST0.191 OM  1.9 f0 1.27 R1.5150 AL-0.00 WI 30.0 MW  3.4 3
 SPEC CBOCHH Z T1613 5 K 0.000 GD  367 VS 5.20 DE 3.50 Q0750.0 QA 1.50 VS 3.50 3
 SPEC ANILHH Z MO 14.3 ST0.664 OM  2.0 f0 1.75 R1.0994 AL-0.00 WI 30.0 MW  3.5 3
 SPEC ANILHH Z T161314 K 0.000 GD  389 VS 5.20 DE 3.50 Q0750.0 QA 1.50 VS 3.50 3
 SPEC PRA HH Z MO 14.3 ST0.209 OM  2.0 f0 1.16 R1.6586 AL-0.00 WI 30.0 MW  3.5 3
 SPEC PRA HH Z T161317 K 0.000 GD  420 VS 5.20 DE 3.50 Q0750.0 QA 1.50 VS 3.50 3
 SPEC ORTCHH Z MO 14.3 ST0.257 OM  2.0 f0 1.24 R1.5516 AL-0.00 WI 30.0 MW  3.5 3
 SPEC ORTCHH Z T161318 K 0.000 GD  423 VS 5.20 DE 3.50 Q0750.0 QA 1.50 VS 3.50 3
 OLDACT:UP  15-12-09 23:58 OP:ar   STATUS:               ID:20151209160747     3
 OLDACT:REG 15-12-09 20:34 OP:ar   STATUS:               ID:20151209160747     3
 ACTION:UPD 16-02-04 15:03 OP:cam  STATUS:               ID:20151209161143 L   I
 2015-12-09-1607-47M.COL___331                                                 6
 STAT SP IPHASW D HRMM SECON CODA AMPLIT PERI AZIMU VELO AIN AR TRES W  DIS CAZ7
 BAR2 EZ EP     D 1612  3.08                             170    0.2710 25.1 199 
 BAR2 EZ ES       1612 17.26                             170   -0.8210 25.1 199 
 BAR2 EZ I        1612 19.26       326.0 0.20            169           25.1 199 
 PAM  EZ EP     C 1612  5.94                             152    0.7610 74.2  37 
 PAM  EN ES       1612 22.85                             152    0.5410 74.2  37 
 PAM  EZ I        1612 25.07       242.3 0.66            154           74.2  37 
 BRR  HZ EP       1612  4.98                             151    0.5010 74.5 297 
 BRR  HN ES       1612 21.76                             151    0.6910 74.5 297 
 BRR  HZ I        1612 22.72       229.5 0.14            149           74.5 297 
 RUS  HZ EP       1612  7.15                             143    0.2010  101 178 
 RUS  HN ES       1612 25.93                             143    0.4810  101 178 
 RUS  HZ I        1612 27.46       205.0 0.34            145            101 178 
 TAM  HZ EP   9 C 1612 11.51                             131    1.01 0  151 106 
 TAM  HN ES       1612 32.78                             131   -0.01 9  151 106 
 PTB  HZ EP       1612  9.73                             131   -0.78 9  152 259 
 PTB  HN ES       1612 30.98                             131   -0.82 9  152 259 
 PTB  HZ I        1612 33.39       154.6 0.20            130            152 259 
 OCA  HZ EP       1612 11.26                             130   -0.20 9  160 352 
 OCA  HN ES       1612 32.92                             130   -0.56 9  160 352 
 OCA  HZ I        1612 40.74       174.3 0.20            130            160 352 
 SPBC HZ EP       1612 12.13                             128    0.16 9  166 220 
 SPBC HE ES       1612 33.65                             128   -0.75 9  166 220 
 SPBC HZ I        1612 38.54       177.7 0.20            128            166 220 
 ZAR  HZ EP       1612 16.13                             122    0.15 8  208 292 
 ZAR  HN ES       1612 42.16                             122    0.62 8  208 292 
 ZAR  HZ I        1612 47.57       142.3 0.50            121            208 292 
 NOR  HZ EP       1612 19.15                             118   -0.17 8  238 235 
 NOR  HE ES       1612 47.33                             118   -0.14 8  238 235 
 NOR  HZ I        1612 49.18       105.7 0.24            118            238 235 
 SML  HZ EP   9   1612 20.85                             117    0.93 0  245 334 
 SML  HE ES       1612 49.14                             118   -0.34 8  245 334 
 ROSC BZ EP   4   1612 23.16                             116    1.55 0  256 212 
 ROSC BN ES   4   1612 54.43                             116    2.88 0  256 212 
 ROSC BZ I        1612 59.24        90.8 0.45            116            256 212 
 HEL  HZ EP       1612 24.68                             114    0.82 7  276 256 
 HEL  HE ES       1612 55.02                             114   -0.54 7  276 256 
 HEL  HZ I        1613  1.65        74.3 0.46            114            276 256 
 URE  HZ EP       1612 24.34                             113   -0.31 7  287 291 
 URE  HN ES   4   1612 54.64                             113   -2.33 0  287 291 
 URE  HZ I        1613  7.18        64.5 0.18            113            287 291 
 SOCV BZ EP     C 1612 25.02                             112   -0.78 7  297  57 
 SOCV BN ES   4   1612 55.74                             112   -3.27 0  297  57 
 GUY2CHZ EP       1612 27.82                             112    0.59 7  305 235 
 GUY2CHN ES       1613  1.77                             112    0.22 7  305 235 
 GUY2CHZ I        1613  8.48        66.7 0.40                           305 235 
 VIL  SZ EP       1612 26.91                             112    0.12 7  305 192 
 VIL  SN ES   4   1612 59.92                             112   -0.85 0  305 192 
 PTGC HZ EP       1612 26.55                             111   -0.41 7  308 159 
 PTGC HN ES   4   1612 59.80                             111   -1.28 0  308 159 
 PTGC HZ I        1613  1.59        54.1 0.30            112            308 159 
 CBOC HZ EP   4   1612 31.96                             109    1.38 0  338 252 
 CBOC HN ES       1613  7.33                             109   -0.19 7  338 252 
 DBB  SZ EP       1612 31.01                             109   -0.12 7  344 274 
 DBB  SZ ES   4   1613  7.05                             109   -1.45 0  344 274 
 DBB  SZ I        1613 15.08       181.6 0.52            109            344 274 
 SDV  BZ EP       1612 32.88                             108    0.07 6  357  50 
 SDV  BE ES       1613 10.41                             108   -1.09 6  357  50 
 ANIL HZ EP   4   1612 35.28                             108    1.89 0  361 225 
 ANIL HE ES   4   1613 15.83                             108    3.30 0  361 225 
 ANIL HZ I        1613 20.36       113.6 0.30            108            361 225 
 PRA  HZ EP       1612 37.10                             106    0.07 6  395 210 
 PRA  HN ES       1613 19.15                             106    0.14 6  395 210 
 PRA  HZ I        1613 24.31        31.9 0.20            107            395 210 
 ORTC HZ EP       1612 38.19                             106    0.72 6  398 217 
 ORTC HN ES       1613 19.69                             106   -0.10 6  398 217 
 ORTC HZ I        1613 28.56        41.7 0.64            106            398 217 
 ELOV BZ EP       1612 37.64                             106   -0.10 6  401  87 
 ELOV BN ES   4   1613 17.32                             106   -2.94 0  401  87 
 PAL  HZ EP       1612 39.25                             106    0.43 6  410 239 
 PAL  HN ES       1613 21.68                             106   -0.50 6  410 239 
 PAL  HZ I        1613 27.12        29.5 0.24            106            410 239 
 CRJC HZ EP   4   1612 43.77                             103   -1.81 0  467   3 
 CRJC HN ES   4   1613 29.37                             103   -4.85 0  467   3 
                                                                                
