 2017  4 9 1837 52.1 L   6.550 -73.572111.9  RSN  9 0.5 2.0LRSN                1
 GAP= 66        1.28       4.2     3.7  7.8 -0.1885E+01 -0.5215E+00  0.8717E+01E
 Epicentro: EL CARMEN - SANTANDER                                              3
 ACTION:UPD 17-05-30 21:10 OP:jn   STATUS:               ID:20170409183752 L   I
 OLDACT:REG 17-04-09 21:09 OP:edw  STATUS:               ID:20170409182744     3
 2017-04-09-1828-00M.COL___375                                                 6
 STAT SP IPHASW D HRMM SECON CODA AMPLIT PERI AZIMU VELO AIN AR TRES W  DIS CAZ7
 BAR2 EZ EP       1838  8.44                             157    0.0510 43.3  84 
 BAR2 EZ ES       1838 20.83                             157   -0.2810 43.3  84 
 BRR  HZ EP       1838  9.33                             148    0.1610 63.6 346 
 BRR  HE ES       1838 23.34                             148    0.8410 63.6 346 
 RUS  HZ EP       1838 11.42                             138   -0.4210 90.6 143 
 RUS  HE ES       1838 26.69                             138   -0.5610 90.6 143 
 RUS  HZ I        1838 28.16        18.4 0.42            139           90.6 143 
 PTB  HZ IP     D 1838 11.21                             136   -0.5810 97.8 269 
 PTB  HE ES       1838 26.45                             136   -0.7110 97.8 269 
 PTB  HZ I        1838 27.19        22.9 0.34            135           97.8 269 
 SPBC HZ EP       1838 13.65                             131    0.3610  114 209 
 SPBC HE ES       1838 30.61                             131    0.7710  114 209 
 SPBC HZ I        1838 37.00        23.9 0.22            130            114 209 
 PAM  EZ EP       1838 15.16                             127   -0.2210  130  48 
 PAM  EE ES       1838 33.61                             127    0.0510  130  48 
 PAM  EZ I        1838 33.92         8.5 0.46            129            130  48 
 ZAR  HZ EP   9   1838 23.52                             118    4.01 0  176 306 
 ZAR  HE ES       1838 44.04                                   -0.88 9  176 306 
 ZAR  HZ I        1838 44.79        13.2 0.52            118            176 306 
 NOR  HZ EP       1838 20.18                             117    0.16 9  180 233 
 NOR  HN ES       1838 41.91                             117    0.11 9  180 233 
 NOR  HZ I        1838 44.45         9.3 0.28            117            180 233 
 YPLC HZ EP       1838 20.28                             116   -0.11 9  183 134 
 YPLC HE ES       1838 43.03                             116    0.57 9  183 134 
 YPLC HZ I        1838 44.18        32.8 0.32            117            183 134 
                                                                                
