 2016  1 9 1012 29.9 L   6.789 -73.141146.0  RSN 10 0.5 1.7LRSN                1
 GAP=138        1.28       3.7     5.8  7.5 -0.3380E+01  0.1217E+02 -0.2602E+01E
 Epicentro: LOS SANTOS - SANTANDER                                             3
 ACTION:UPD 16-03-09 23:23 OP:cam  STATUS:               ID:20160109101229 L   I
 OLDACT:REG 16-01-09 22:10 OP:ar   STATUS:               ID:20160109100750     3
 2016-01-09-1007-50M.COL___260                                                 6
 STAT SP IPHASW D HRMM SECON CODA AMPLIT PERI AZIMU VELO AIN AR TRES W  DIS CAZ7
 BAR2 EZ EP       1012 49.30                             171   -0.1910 22.3 192 
 BAR2 EZ ES       1013  4.25                             171   -0.5610 22.3 192 
 BAR2 EZ I        1013  5.94         7.6 0.24            171           22.3 192 
 BRR  HZ EP       1012 51.23                             152    0.1410 72.3 299 
 BRR  HN ES       1013  8.52                             152    0.8710 72.3 299 
 BRR  HZ I        1013 10.16         7.9 0.26            149           72.3 299 
 PAM  EZ EP       1012 52.18                             151    0.0510 78.0  39 
 PAM  EN ES       1013  9.43                             151   -0.0710 78.0  39 
 PAM  EZ I        1013 11.34         8.2 0.46            152           78.0  39 
 RUS  HZ EP       1012 53.19                             144   -0.3510 99.3 176 
 RUS  HE ES       1013 12.41                             144    0.4010 99.3 176 
 RUS  HZ I        1013 12.87         2.4 0.42            148           99.3 176 
 OCA  HZ EP       1012 59.15                             130    0.85 9  162 353 
 OCA  HN ES       1013 19.73                             130   -0.76 9  162 353 
 OCA  HZ I        1013 30.78         8.0 0.54            130            162 353 
 SPBC HZ EP       1012 58.32                             129    0.01 9  163 219 
 SPBC HN ES       1013 21.26                             129    0.75 9  163 219 
 SPBC HZ I        1013 27.40        10.8 0.36            131            163 219 
 ZAR  HN ES       1013 27.55                             122   -0.26 9  205 292 
 ZAR  HZ I        1013 33.69         7.2 0.64            122            205 292 
 NOR  HZ EP       1013  4.78                             119   -0.79 8  234 235 
 NOR  HN ES       1013 32.62                             119   -0.81 8  234 235 
 NOR  HZ I        1013 35.81         3.6 0.18            120            234 235 
 SML  HZ EP       1013  6.75                             117    0.12 8  245 335 
 SML  HN ES       1013 35.36                             117    0.04 8  245 335 
 SML  HZ I        1013 43.01         6.5 0.10            118            245 335 
 GUY2CHZ EP   2   1013 14.47                             113    1.02 4  301 235 
 GUY2CHN ES   4   1013 52.11                             113    4.66 0  301 235 
 GUY2CHZ I        1013 56.16         4.4 0.74                           301 235 
                                                                                
