 2010  9 9 1908 49.7 L   6.764 -73.118147.9  RSN  5 0.2 1.6LRSN                1
 GAP=162        0.47       3.5     7.7  6.6 -0.1595E+01 -0.1503E+02 -0.4943E+01E
 Epicentro: LOS SANTOS - SANTANDER                                             3
 ACTION:UP  11-02-18 11:01 OP:tino STATUS:               ID:20100909190849 L   I
 2010-09-09-1904-52S.COL___120                                                 6
 STAT SP IPHASW D HRMM SECON CODA AMPLIT PERI AZIMU VELO SNR AR TRES W  DIS CAZ7
 BAR2 SZ EP   1   19 9  9.43                             172    -0.1 7   20 201 
 BAR2 SZ ES   2   19 9 25.23                             172     0.3 5   20 201 
 BAR2 SZ I        19 9 27.23        12.3 0.32                            20 201 
 BRR  HZ EP   1   19 9 11.16                             151    -0.2 7   76 300 
 BRR  HE ES   2   19 9 28.20                             151     0.0 5   76 300 
 BRR  HZ I        19 9 34.56         9.3 0.58                            76 300 
 RUS  HZ EP   1   19 9 13.40                             145     0.1 7   96 178 
 RUS  HN ES   2   19 9 31.64                             145    -0.2 5   96 178 
 RUS  HZ I        19 9 33.33         4.0 0.39                            96 178 
 GUE  SZ EP   1   19 9 15.22                             139     0.4 7  120  10 
 GRA  SZ EP   1   19 9 15.20                             137    -0.1 7  129  16 
 GRA  SZ ES   2   19 9 35.11                             137    -0.3 5  129  16 
 GRA  SZ I        19 9 39.37         4.2 0.29                           129  16 
                                                                                
