 2016  5 9 1806 29.2 L   6.856 -73.131144.6  RSN 22 0.5 2.6LRSN                1
 GAP= 70        1.14       2.9     3.0  5.1 -0.8741E+00  0.4695E+01  0.2130E+01E
 Epicentro: LOS SANTOS - SANTANDER                                             3
 ACTION:UPD 16-08-18 17:44 OP:cam  STATUS:               ID:20160509180629 L   I
 OLDACT:REG 16-05-09 21:05 OP:ak   STATUS:               ID:20160509175748     3
 2016-05-09-1757-48M.COL___293                                                 6
 STAT SP IPHASW D HRMM SECON CODA AMPLIT PERI AZIMU VELO AIN AR TRES W  DIS CAZ7
 BAR2 EZ IP     C 18 6 49.02                             168    0.1710 29.7 191 
 BAR2 EZ ES       18 7  4.22                             168    0.0610 29.7 191 
 BAR2 EZ I        18 7  5.06        84.4 0.22            166           29.7 191 
 BRR  HZ IP     C 18 6 50.63                             153    0.4710 70.0 293 
 BRR  HN ES       18 7  7.48                             153    0.9710 70.0 293 
 BRR  HZ I        18 7 10.91        94.6 0.12            150           70.0 293 
 PAM  EZ IP     C 18 6 51.50                             152    0.5310 71.6  42 
 PAM  EN ES       18 7  8.49                             152    0.5510 71.6  42 
 PAM  EZ I        18 7 11.31        57.5 0.32            156           71.6  42 
 RUS  HZ EP       18 6 53.12                             142   -0.1710  107 177 
 RUS  HE ES       18 7 11.74                             142   -0.3410  107 177 
 RUS  HZ I        18 7 13.46        35.1 0.26            143            107 177 
 PTB  HZ EP       18 6 55.57                             131   -0.78 9  151 257 
 PTB  HN ES       18 7 16.68                             131   -0.84 9  151 257 
 PTB  HZ I        18 7 19.48        80.5 0.24            130            151 257 
 OCA  HZ EP       18 6 56.69                             130   -0.19 9  154 352 
 OCA  HN ES       18 7 17.98                             130   -0.48 9  154 352 
 OCA  HZ I        18 7 22.66       144.1 0.20            132            154 352 
 TAM  HZ EP       18 6 57.23                             130    0.43 9  155 107 
 TAM  HN ES       18 7 17.54                             130   -0.79 9  155 107 
 TAM  HZ I        18 7 18.03        30.5 0.42            134            155 107 
 SPBC HZ EP       18 6 58.12                             128   -0.06 9  169 218 
 SPBC HN ES       18 7 20.63                             128   -0.14 9  169 218 
 SPBC HZ I        18 7 23.62        48.2 0.18            128            169 218 
 ZAR  HZ EP       18 7  1.71                             122    0.20 9  203 290 
 ZAR  HN ES       18 7 26.52                             122   -0.18 9  203 290 
 ZAR  HZ I        18 7 33.42        67.2 0.46            122            203 290 
 SML  HZ EP       18 7  4.53                             118   -0.71 8  239 334 
 SML  HN ES   4   18 7 31.62                             118   -1.73 0  239 334 
 SML  HZ I        18 7 36.30        43.4 0.06            119            239 334 
 NOR  HZ EP       18 7  5.55                             118    0.15 8  240 233 
 NOR  HE ES       18 7 33.38                             118   -0.26 8  240 233 
 NOR  HZ I        18 7 39.22        28.4 0.20            118            240 233 
 CHI  HZ EP       18 7  6.96                             116   -0.58 8  255 195 
 CHI  HN ES       18 7 37.28                             116   -0.15 8  255 195 
 CHI  HZ I        18 7 44.97        11.3 0.40            117            255 195 
 ROSC BN ES   4   18 7 40.39                             116    2.25 0  259 211 
 HEL  HZ EP       18 7 10.55                             114    0.84 8  275 255 
 HEL  HN ES       18 7 41.17                             114   -0.14 8  275 255 
 HEL  HZ I        18 7 48.86        21.6 0.48            114            275 255 
 URE  HZ EP   2   18 7  9.69                             113   -0.45 4  283 291 
 URE  HN ES   4   18 7 39.66                             113   -2.42 0  283 291 
 URE  HZ I        18 7 50.20        32.2 0.20            114            283 291 
 ELA  HZ EP   4   18 7 18.22                             110    1.60 0  334 229 
 ELA  HN ES   4   18 7 57.95                             110    4.36 0  334 229 
 ELA  HZ I        18 8  4.18        18.3 0.80            110            334 229 
 CBOC HZ EP       18 7 17.13                             109    0.65 7  337 251 
 CBOC HE ES       18 7 53.10                             109   -0.25 7  337 251 
 CBOC HZ I        18 8  4.50         6.7 0.64            110            337 251 
 DBB  SZ EP       18 7 16.33                             109   -0.45 7  341 273 
 DBB  SZ ES       18 7 53.92                             109    0.03 7  341 273 
 DBB  SZ I        18 8  0.34        46.3 0.56            110            341 273 
 ANIL HZ EP   4   18 7 22.01                             108    2.40 0  363 224 
 ANIL HE ES       18 7 59.93                             108    1.00 6  363 224 
 ANIL HZ I        18 8  3.94        32.4 0.42            109            363 224 
 PRA  HZ EP       18 7 23.65                             106    0.24 6  398 209 
 PRA  HN ES       18 8  5.71                             106    0.02 6  398 209 
 ORTC HZ EP       18 7 24.62                             106    0.83 6  401 216 
 ORTC HE ES       18 8  6.52                             106    0.16 6  401 216 
 ORTC HZ I        18 8 13.48         9.0 0.49            107            401 216 
 SJC  HZ EP   9   18 7 22.09                             106   -2.15 0  405 326 
 SJC  HN ES       18 8  4.00                                   -1.01 6  405 326 
 SJC  HZ I        18 8  7.59        10.9 0.52            106            405 326 
 PAL  HZ EP   4   18 7 26.41                             105    1.54 0  410 238 
 PAL  HN ES       18 8  8.34                             105    0.05 6  410 238 
 PAL  HZ I        18 8 13.80         4.0 0.21            106            410 238 
                                                                                
