 2010  3 9 1524 52.8 L   6.865 -72.957145.1  RSN  4 0.3 2.0LRSN                1
 GAP=284        0.66       7.0     8.1  7.3  0.4203E+00 -0.1533E+01  0.2165E+02E
 Epicentro: CEPITA - SANTANDER                                                 3
 ACTION:UP  10-08-24 09:53 OP:vdl  STATUS:               ID:20100309152452 L   I
 2010-03-09-1522-49S.COL___101                                                 6
 STAT SP IPHASW D HRMM SECON CODA AMPLIT PERI AZIMU VELO SNR AR TRES W  DIS CAZ7
 BAR2 SZ EP       1525 13.10                             164     0.410   39 220 
 BAR2 SZ ES   1   1525 28.13                             164    -0.2 7   39 220 
 BRR  HZ EP       1525 14.72                             147    -0.110   88 288 
 BRR  HN ES       1525 32.01                             147    -0.110   88 288 
 BRR  HZ I        1525 35.64        19.6 0.29                            88 288 
 RREF BN ES   1   1526 19.51                             109     0.5 5  342 231 
 RREF BZ I        1526 21.92         3.4 1.01                           342 231 
 PRA  HZ EP   1   1525 47.64                             105    -0.6 4  409 212 
 PRA  HN ES   2   1526 30.94                             105    -0.6 3  409 212 
                                                                                
