 2013  1 9 1026 39.1 L   6.782 -73.068151.5  RSN  4 0.4 1.9LRSN                1
 GAP=221        0.98       7.1     8.5 10.6  0.1526E+02  0.8441E+01 -0.1656E+02E
 Epicentro: LOS SANTOS - SANTANDER                                             3
 ACTION:UPD 13-02-15 09:13 OP:ep   STATUS:               ID:20130109102639 L   I
 2013-01-09-1018-48M.COL___195                                                 6
 STAT SP IPHASW D HRMM SECON CODA AMPLIT PERI AZIMU VELO AIN AR TRES W  DIS CAZ7
 BAR2 SZ EP       1026 59.34                             170   -0.0810 24.6 211 
 BAR2 SZ ES       1027 14.93                             170   -0.3610 24.6 211 
 BRR  HZ EP       1027  1.69                             151    0.3510 79.8 297 
 BRR  HN ES       1027 19.31                             151    0.6110 79.8 297 
 OCA  HN ES       1027 30.59                             130   -0.21 9  163 350 
 OCA  HN I        1027 35.51         9.3 0.20            128            163 350 
 ZAR  HN ES       1027 38.60                             122   -0.50 8  213 292 
                                                                                
