 2014  4 9 1949 50.9 L   6.773 -73.151151.9  RSN  5 0.4 1.7LRSN                1
 GAP=137        1.00       5.1     5.2  8.3 -0.5759E+01  0.3276E+01  0.6496E+01E
 Epicentro: LOS SANTOS - SANTANDER                                             3
 ACTION:UPD 14-05-13 23:07 OP:nd   STATUS:               ID:20140409194950 L   I
 OLDACT:UP  14-04-09 23:45 OP:cam  STATUS:               ID:20140409194813     3
 OLDACT:REG 14-04-09 21:53 OP:cam  STATUS:               ID:20140409194813     3
 2014-04-09-1948-13M.COL___255                                                 6
 STAT SP IPHASW D HRMM SECON CODA AMPLIT PERI AZIMU VELO AIN AR TRES W  DIS CAZ7
 BRR  HZ EP       1950 12.98                             153    0.2310 72.2 301 
 BRR  HZ I        1950 13.29        14.1 0.40            153           72.2 301 
 BRR  HN ES       1950 30.48                             153    0.6810 72.2 301 
 PAM  SZ EP       1950 13.98                             151    0.0810 80.0  39 
 PAM  SN ES       1950 31.33                             151   -0.5310 80.0  39 
 PAM  SZ I        1950 32.19         5.1 0.18            155           80.0  39 
 RUS  HZ EP       1950 15.46                             146    0.4210 97.7 176 
 RUS  HE ES       1950 33.79                             146   -0.0910 97.7 176 
 RUS  HZ I        1950 34.74         3.6 0.36            145           97.7 176 
 PTB  HZ EP       1950 17.95                             134   -0.31 9  147 260 
 PTB  HN ES       1950 39.05                             134   -0.56 9  147 260 
 PTB  HZ I        1950 41.90         6.7 0.42            133            147 260 
 SPBC HZ EP   1   1950 19.41                             131   -0.20 7  161 219 
 SPBC HN ES   1   1950 42.15                             131    0.13 7  161 219 
 SPBC HZ I        1950 49.12        10.4 0.30            130            161 219 
                                                                                
