 2012  4 9 1049 34.1 L   6.729 -73.189148.8  RSN  4 0.1 1.7LRSN                1
 GAP=227        0.33       3.5     3.4  4.4  0.6114E+01 -0.1742E+01 -0.1154E+01E
 Epicentro: VILLANUEVA - SANTANDER                                             3
 ACTION:UPD 12-07-05 11:52 OP:tino STATUS:               ID:20120409104934 L   I
 2012-04-09-1044-35M.COL___166                                                 6
 STAT SP IPHASW D HRMM SECON CODA AMPLIT PERI AZIMU VELO AIN AR TRES W  DIS CAZ7
 BAR2 SZ EP   1   1049 53.88                             174    -0.1 7   15 177 
 BAR2 SZ I        1050  9.58        15.3 0.67                            15 177 
 BRR  HZ EP   1   1049 55.62                             153     0.0 7   71 306 
 BRR  HZ I        1049 56.13         6.7 0.08                            71 306 
 BRR  HN ES   1   1050 12.45                             153     0.1 7   71 306 
 RUS  HZ EP   1   1049 57.70                             146     0.0 7   93 173 
 RUS  HN ES   1   1050 16.10                             146     0.0 7   93 173 
 PTB  HZ EP   1   1050  0.96                             134     0.1 7  142 262 
 PTB  HN ES   1   1050 21.53                             134    -0.1 7  142 262 
                                                                                
