 2011  1 9 1210 59.7 L   6.783 -73.110139.0  RSN  4 0.3 1.4LRSN                1
 GAP=163        0.52       5.5    21.4  9.7 -0.5905E+02  0.1516E+02 -0.1457E+02E
 Epicentro: LOS SANTOS - SANTANDER                                             3
 ACTION:UP  11-02-08 08:39 OP:pat  STATUS:               ID:20110109121059 L   I
 2011-01-09-1206-07S.COL___136                                                 6
 STAT SP IPHASW D HRMM SECON CODA AMPLIT PERI AZIMU VELO SNR AR TRES W  DIS CAZ7
 BAR2 SZ ES   2   1211 32.76                             170    -0.4 5   23 201 
 BTL  SZ EP       1211 18.61                             170     0.110   23 311 
 BAR2 SZ I        1211 34.57         9.6 0.16                            23 201 
 RUS  HZ EP   2   1211 22.53                             143    -0.1 5   99 178 
 RUS  HE ES   2   1211 40.68                             143     0.2 5   99 178 
 RUS  HZ I        1211 42.55         2.3 0.37                            99 178 
 GRA  SZ EP   2   1211 23.92                             135    -0.5 5  126  15 
 GRA  SZ I        1211 25.67         5.8 0.32                           126  15 
 GRA  SZ ES   2   1211 43.87                             135     0.2 5  126  15 
                                                                                
