 2011  8 9 1146 49.9 L   6.752 -73.115145.6  RSN  5 0.4 1.8LRSN                1
 GAP=255        0.77       6.0    10.8  8.5  0.2541E+01  0.3960E+01  0.2486E+02E
 Epicentro: LOS SANTOS - SANTANDER                                             3
 ACTION:UPD 12-07-13 15:50 OP:ep   STATUS:               ID:20110809114649 L   I
 2011-08-09-1142-43S.COL___150                                                 6
 STAT SP IPHASW D HRMM SECON CODA AMPLIT PERI AZIMU VELO AIN AR TRES W  DIS CAZ7
 BAR2 SZ EP       1147  9.25                             171   -0.1910 19.2 203 
 BAR2 SZ ES   1   1147 24.39                             171   -0.29 7 19.2 203 
 BAR2 SZ I        1147 27.86        11.1 0.66                          19.2 203 
 BRR  HZ EP       1147 11.15                             151   -0.2110 76.7 301 
 BRR  HZ I        1147 11.38        13.3 0.16                          76.7 301 
 BRR  HE ES   1   1147 28.54                             151    0.44 7 76.7 301 
 CHI  HZ EP       1147 27.44                             117    0.29 8  244 196 
 CHI  HN ES   1   1147 57.00                             117    0.81 6  244 196 
 RREF HN ES   2   1148 10.97                             111   -0.89 3  321 230 
 RREF HZ I        1148 21.64         3.0 0.52                           321 230 
 PRA  HN ES   2   1148 24.03                             107   -0.53 3  389 210 
                                                                                
