 2016  3 9 1535 46.1 L   6.797 -73.155144.6  RSN  6 0.3 2.0LRSN                1
 GAP=135        0.84       3.8     3.8  6.1 -0.1876E+01  0.8645E+01 -0.2570E+01E
 Epicentro: LOS SANTOS - SANTANDER                                             3
 ACTION:UPD 16-05-13 21:22 OP:cam  STATUS:               ID:20160309153546 L   I
 OLDACT:REG 16-03-09 20:46 OP:ar   STATUS:               ID:20160309152751     3
 2016-03-09-1527-51M.COL___283                                                 6
 STAT SP IPHASW D HRMM SECON CODA AMPLIT PERI AZIMU VELO AIN AR TRES W  DIS CAZ7
 BAR2 EZ EP       1536  5.40                             171   -0.2110 22.8 188 
 BAR2 EZ ES       1536 21.00                             171    0.2010 22.8 188 
 BAR2 EZ I        1536 23.69        15.9 0.16            169           22.8 188 
 PAM  EZ EP       1536  8.33                             150    0.0510 78.3  40 
 PAM  EN ES       1536 25.55                             150   -0.0010 78.3  40 
 PAM  EZ I        1536 27.93        22.7 0.60            156           78.3  40 
 RUS  HZ EP       1536  9.44                             144   -0.3110  100 175 
 RUS  HN ES       1536 28.17                             144    0.0110  100 175 
 RUS  HZ I        1536 30.84         8.5 0.40            147            100 175 
 PTB  HZ EP       1536 12.57                             132   -0.33 9  147 259 
 PTB  HN ES       1536 33.53                             132   -0.25 9  147 259 
 PTB  HZ I        1536 39.35        10.8 0.52            133            147 259 
 SPBC HZ EP       1536 14.43                             129   -0.02 9  162 219 
 SPBC HE ES       1536 36.94                             129    0.40 9  162 219 
 SPBC HZ I        1536 43.48        16.6 0.36            131            162 219 
 ZAR  HZ EP       1536 19.33                             122    0.92 9  203 292 
 ZAR  HN ES       1536 43.29                             122   -0.30 9  203 292 
 ZAR  HZ I        1536 50.55        13.1 0.30            124            203 292 
                                                                                
