 2014  3 9 1010 57.1 L   6.826 -73.189139.2  RSN  4 0.3 1.5LRSN                1
 GAP=146        0.70       4.2     4.0  5.9 -0.5280E+01  0.6859E+01 -0.2323E+01E
 Epicentro: ZAPATOCA - SANTANDER                                               3
 ACTION:UPD 14-04-09 23:15 OP:nd   STATUS:               ID:20140309101057 L   I
 OLDACT:DUP 14-03-09 18:47 OP:stll STATUS:               ID:20140309100810d    3
 2014-03-09-1008-09M.COL___220                                                 6
 STAT SP IPHASW D HRMM SECON CODA AMPLIT PERI AZIMU VELO AIN AR TRES W  DIS CAZ7
 BAR2 SZ EP       1011 16.04                             169    0.0310 25.9 178 
 BAR2 SZ ES       1011 31.15                             169    0.4010 25.9 178 
 BAR2 SZ I        1011 35.50         7.4 0.50            169           25.9 178 
 PAM  SZ EP       1011 18.97                             149    0.2810 78.3  44 
 PAM  SZ I        1011 19.21        51.3 0.24            155           78.3  44 
 PAM  SE ES       1011 35.17                             149   -0.3510 78.3  44 
 RUS  HZ EP       1011 20.61                             141    0.1310  104 174 
 RUS  HN ES       1011 38.40                             141   -0.3010  104 174 
 RUS  HZ I        1011 39.78         1.6 0.22            146            104 174 
 PTB  HZ EP       1011 22.96                             131   -0.22 9  144 257 
 PTB  HN ES       1011 43.51                             131   -0.00 9  144 257 
 PTB  HZ I        1011 51.99         1.9 0.40            131            144 257 
                                                                                
