 2010  4 9 1757  4.0 L   6.820 -72.883148.1  RSN  5 0.5 2.3LRSN                1
 GAP=272        0.88       9.7    14.7 12.2 -0.1380E+02  0.3312E+01  0.6163E+02E
 Epicentro: SAN ANDRES - SANTANDER                                             3
 ACTION:UPD 10-08-24 09:58 OP:vdl  STATUS:               ID:20100409175704 L   I
 2010-04-09-1754-36S.COL___097                                                 6
 STAT SP IPHASW D HRMM SECON CODA AMPLIT PERI AZIMU VELO AIN AR TRES W  DIS CAZ7
 BAR2 SZ EP       1757 24.76                             164     0.410   42 233 
 BAR2 SZ ES   2   1757 39.92                             164    -0.4 5   42 233 
 BRR  HZ EP   1   1757 27.06                             145     0.1 7   97 289 
 BRR  HZ I        1757 29.37        35.2 0.08                            97 289 
 BRR  HE ES   2   1757 44.47                             145    -0.5 5   97 289 
 CHI  HZ EP   1   1757 42.06                             116    -1.0 6  260 201 
 CHI  HZ I        1757 45.13         7.4 0.65                           260 201 
 CHI  HN ES   2   1758 14.21                             116     0.7 4  260 201 
 RREF BZ EP   1   1757 53.26                             110     0.3 5  346 232 
 RREF BN ES   2   1758 31.08                             110    -0.1 3  346 232 
 RREF BZ I        1758 40.14         8.6 0.49                           346 232 
 PRA  HZ EP   1   1757 59.03                             106    -0.5 4  409 213 
 PRA  HN ES   2   1758 43.68                             106     0.8 3  409 213 
 PRA  HZ I        1758 45.90         8.1 0.77                           409 213 
                                                                                
