 2013  3 9 1944 19.1 L   6.715 -73.188154.9  RSN  4 0.4 1.7LRSN                1
 GAP=135        0.94       7.8     8.1 11.8  0.2253E+02 -0.1791E+02 -0.3482E+02E
 Epicentro: VILLANUEVA - SANTANDER                                             3
 ACTION:UPD 13-04-09 14:01 OP:ep   STATUS:               ID:20130309194419 L   I
 2013-03-09-1940-00M.COL___231                                                 6
 STAT SP IPHASW D HRMM SECON CODA AMPLIT PERI AZIMU VELO AIN AR TRES W  DIS CAZ7
 BRR  HZ EP       1944 41.75                             154    0.4610 72.4 307 
 BRR  HE ES   1   1944 58.93                             154    0.32 7 72.4 307 
 BRR  HE I        1944 59.44        20.8 0.20            153           72.4 307 
 PAM  SZ EP   1   1944 42.11                             149   -0.78 7 87.6  38 
 RUS  HZ EP   1   1944 43.39                             148    0.24 7 91.6 173 
 RUS  HE ES       1945  1.89                             148   -0.0210 91.6 173 
 RUS  HE I        1945  3.17         5.9 0.32            148           91.6 173 
 PTB  HZ EP   1   1944 46.33                             135    0.05 7  142 262 
 PTB  HE ES   1   1945  6.80                             135   -0.69 7  142 262 
 PTB  HE I        1945  9.72         4.5 0.22            135            142 262 
                                                                                
