 2011  7 9 1651 14.4 L   6.871 -72.676128.2  RSN  4 0.3 1.6LRSN                1
 GAP=280        0.64      10.1    18.6 15.3  0.1502E+03 -0.2246E+03 -0.1067E+03E
 Epicentro: CERRITO - SANTANDER                                                3
 ACTION:UPD 12-07-25 13:59 OP:epov STATUS:               ID:20110709165114 L   I
 2011-07-09-1649-27S.COL___139                                                 6
 STAT SP IPHASW D HRMM SECON CODA AMPLIT PERI AZIMU VELO AIN AR TRES W  DIS CAZ7
 BAR2 SZ EP   1   1651 33.25                             152   -0.34 7 63.9 241 
 BAR2 SZ ES   1   1651 48.42                             152   -0.14 7 63.9 241 
 BAR2 SZ I        1651 50.83         5.4 0.31                          63.9 241 
 BTL  SZ EP   1   1651 34.12                             151    0.43 7 65.6 275 
 BRR  HZ EP   2   1651 36.44                             134   -0.75 5  117 283 
 BRR  HZ I        1651 53.69        19.3 0.35                           117 283 
 BRR  HE ES   1   1651 55.12                             134    0.16 7  117 283 
 RUS  HZ EP   1   1651 38.12                             135    0.27 7  117 203 
 RUS  HN ES   1   1651 56.09                             135   -0.04 7  117 203 
 RUS  HZ I        1651 58.30         4.5 0.28                           117 203 
                                                                                
