 2013  4 9 1747  1.1 L   6.536 -73.601106.0  RSN  9 0.5 1.8LRSN                1
 GAP= 93        1.07       4.6     4.4  7.8  0.3177E+01  0.1454E+02  0.7987E+01E
 Epicentro: EL CARMEN DE CHUCURI - SANTANDER                                   3
 ACTION:UPD 13-05-22 14:37 OP:EP   STATUS:               ID:20130409174701 L   I
 2013-04-09-1740-00M.COL___245                                                 6
 STAT SP IPHASW D HRMM SECON CODA AMPLIT PERI AZIMU VELO AIN AR TRES W  DIS CAZ7
 BAR2 SZ EP       1747 16.70                             155   -0.2010 46.7  82 
 BAR2 SZ ES       1747 29.17                             155   -0.0710 46.7  82 
 BAR2 SZ I        1747 30.38        72.6 0.36            148           46.7  82 
 BRR  HZ EP       1747 17.53                             146   -0.0910 64.4 349 
 BRR  HE ES   1   1747 31.51                             146    0.98 7 64.4 349 
 RUS  HZ EP       1747 19.76                             137   -0.6210 91.3 141 
 RUS  HN ES       1747 35.89                             137    0.4610 91.3 141 
 RUS  HZ I        1747 36.89         6.7 0.42            122           91.3 141 
 PTB  HZ EP       1747 19.52                             135   -0.4810 94.6 270 
 PTB  HN ES       1747 34.45                             135   -0.3110 94.6 270 
 PTB  HZ I        1747 39.20         9.9 0.10            122           94.6 270 
 ZAR  HN ES   4   1747 50.96                             116    1.95 0  175 307 
 ZAR  HZ I        1747 53.06         7.0 0.34            107            175 307 
 NOR  HZ EP       1747 28.50                             116    0.19 9  177 233 
 NOR  HN ES   1   1747 49.61                             116    0.06 7  177 233 
 NOR  HZ I        1747 54.33         7.4 0.18            106            177 233 
 HEL  HZ EP   1   1747 34.20                             111    1.02 6  217 260 
 SML  HN ES   1   1748  5.42                             107   -0.02 6  256 348 
 PRA  HZ EP       1747 48.08                             101    0.44 7  343 205 
 PRA  HZ I        1748 29.69         2.3 0.20             97            343 205 
                                                                                
