 2016 11 9 1306 13.8 L   6.789 -73.160146.5  RSN  6 0.4 1.9LRSN                1
 GAP=147        1.02       4.9     4.7  6.9 -0.5313E+00  0.6935E+01  0.9012E+01E
 Epicentro: LOS SANTOS - SANTANDER                                             3
 ACTION:UPD 17-10-26 21:06 OP:lp   STATUS:               ID:20161109130613 L   I
 OLDACT:REG 16-11-09 20:54 OP:dnl  STATUS:               ID:20161109125744     3
 2016-11-09-1258-00M.COL___349                                                 6
 STAT SP IPHASW D HRMM SECON CODA AMPLIT PERI AZIMU VELO AIN AR TRES W  DIS CAZ7
 BAR2 EZ EP       13 6 33.47                             171   -0.0310 21.9 186 
 BAR2 EZ ES       13 6 48.45                             171   -0.4110 21.9 186 
 BAR2 EZ I        13 6 49.49        21.2 0.30            172           21.9 186 
 BRR  HZ EP       13 6 35.23                             153    0.2410 70.4 300 
 BRR  HN ES       13 6 52.41                             153    0.8910 70.4 300 
 BRR  HZ I        13 6 54.94        14.4 0.40            152           70.4 300 
 PAM  EZ EP     D 13 6 36.40                             150    0.1810 79.4  40 
 PAM  EN ES       13 6 53.41                             150   -0.2910 79.4  40 
 PAM  EZ I        13 6 56.04         7.2 0.38            152           79.4  40 
 PTB  HZ EP       13 6 40.06                             133   -0.61 9  146 259 
 PTB  HN ES       13 7  1.27                             133   -0.35 9  146 259 
 PTB  HZ I        13 7  3.08        12.5 0.42            133            146 259 
 ZAR  HZ EP       13 6 46.14                             123   -0.06 9  203 293 
 ZAR  HE ES       13 7 11.34                             123   -0.12 9  203 293 
 ZAR  HZ I        13 7 16.54         9.2 0.34            123            203 293 
 CHI  HZ EP       13 6 51.66                             117    0.29 8  247 195 
 CHI  HN ES       13 7 21.01                             117    0.34 8  247 195 
 CHI  HZ I        13 7 23.10         5.9 0.34            119            247 195 
                                                                                
