 2012  7 9 1148 51.2 L   6.708 -73.187139.4  RSN  4 0.1 1.4LRSN                1
 GAP=231        0.35       6.0     4.7  3.9 -0.7754E+01  0.2290E+01  0.1412E+01E
 Epicentro: VILLANUEVA - SANTANDER                                             3
 ACTION:UPD 12-08-14 11:43 OP:ep   STATUS:               ID:20120709114851 L   I
 2012-07-09-1140-00M.COL___201                                                 6
 STAT SP IPHASW D HRMM SECON CODA AMPLIT PERI AZIMU VELO AIN AR TRES W  DIS CAZ7
 BAR2 SZ ES   2   1149 24.60                             175     0.1 5   13 178 
 BAR2 SZ I        1149 26.15         4.5 0.14                            13 178 
 BRR  HZ EP       1149 11.76                             151     0.010   73 307 
 BRR  HZ I        1149 16.00        11.2 0.36                            73 307 
 BRR  HE ES   1   1149 27.77                             151    -0.1 7   73 307 
 PTB  HZ EP       1149 17.03                             132    -0.1 9  142 263 
 PTB  HN ES   1   1149 37.34                             132     0.0 7  142 263 
 PTB  HZ I        1149 40.84         2.7 0.16                           142 263 
 ZAR  HZ EP   1   1149 23.41                             121     0.2 6  204 295 
 ZAR  HZ I        1149 26.87         1.7 0.12                           204 295 
