 2013  7 9 1213  5.0 L   6.723 -73.185155.8  RSN  5 0.2 2.1LRSN                1
 GAP=174        0.53       3.9     3.9  5.3  0.5846E+01 -0.3915E+01 -0.3117E+01E
 Epicentro: VILLANUEVA - SANTANDER                                             3
 ACTION:UPD 13-08-12 10:36 OP:ep   STATUS:               ID:20130709121305 L   I
 OLDACT:REG 13-07-09 15:59 OP:stll STATUS:               ID:20130709120849     3
 2013-07-09-1208-49M.COL___228                                                 6
 STAT SP IPHASW D HRMM SECON CODA AMPLIT PERI AZIMU VELO AIN AR TRES W  DIS CAZ7
 BAR2 SZ EP       1213 25.48                             174   -0.2010 14.5 179 
 BAR2 SZ I        1213 42.50        11.0 0.26            174           14.5 179 
 GIR2 SZ EP       1213 25.81                             165   -0.2610 39.4 359 
 BRR  HZ EP       1213 27.56                             154    0.2910 72.1 306 
 BRR  HN ES       1213 44.77                             154    0.1110 72.1 306 
 BRR  HN I        1213 46.01        34.3 0.22            154           72.1 306 
 RUS  HZ EP       1213 29.38                             148    0.1910 92.5 173 
 RUS  HN ES       1213 48.08                             148    0.0010 92.5 173 
 RUS  HN I        1213 49.71        19.6 0.38            146           92.5 173 
 PTB  HZ EP       1213 32.25                             135   -0.03 9  142 262 
 PTB  HN ES       1213 53.46                             135   -0.13 9  142 262 
 PTB  HN I        1213 58.93        30.4 0.48            135            142 262 
                                                                                
