 2015  9 9 1229 48.3 L   6.777 -73.165147.1  RSN  7 0.5 1.7LRSN                1
 GAP=234        1.12       5.7     5.9  7.6  0.9312E+01  0.1270E+02  0.7737E+01E
 Epicentro: LOS SANTOS - SANTANDER                                             3
 ACTION:UPD 15-10-28 16:25 OP:cam  STATUS:               ID:20150909122948 L   I
 OLDACT:REG 15-09-09 20:14 OP:drio STATUS:               ID:20150909122748     3
 2015-09-09-1227-48M.COL___355                                                 6
 STAT SP IPHASW D HRMM SECON CODA AMPLIT PERI AZIMU VELO AIN AR TRES W  DIS CAZ7
 BAR2 EZ EP       1230  7.80                             172   -0.2710 20.5 185 
 BAR2 EZ ES       1230 23.23                             172   -0.2410 20.5 185 
 BAR2 EZ I        1230 24.32         7.8 0.24            167           20.5 185 
 BRR  HZ EP       1230  9.77                             153    0.1710 70.6 301 
 BRR  HN ES       1230 26.93                             153    0.7510 70.6 301 
 RUS  HZ EP       1230 11.85                             145   -0.2010 98.2 175 
 RUS  HN ES       1230 30.96                             145    0.4210 98.2 175 
 RUS  HZ I        1230 33.12         3.3 0.16            144           98.2 175 
 PTB  HZ EP       1230 14.85                             133   -0.33 9  145 260 
 PTB  HN ES       1230 35.42                             133   -0.70 9  145 260 
 PTB  HZ I        1230 41.70         7.6 0.56            131            145 260 
 SPBC HZ EP       1230 16.80                             130    0.18 9  160 219 
 SPBC HN ES       1230 38.22                             130   -0.47 9  160 219 
 SPBC HZ I        1230 45.87        10.5 0.38            129            160 219 
 ZAR  HN ES       1230 45.84                             123   -0.23 9  203 293 
 ZAR  HZ I        1230 52.31         6.9 0.42            123            203 293 
 GUY2CHZ EP       1230 32.00                             113    0.36 7  298 235 
 GUY2CHE ES       1231  6.36                             113    0.94 7  298 235 
 GUY2CHZ I        1231 14.61         4.5 0.74                           298 235 
                                                                                
