 2015  2 9 1939 35.8 L   6.804 -73.238131.4  RSN  4 0.1 1.2LRSN                1
 GAP=125        0.38       1.6     2.0  4.3 -0.4058E+00  0.3118E+01 -0.1295E+01E
 Epicentro: ZAPATOCA - SANTANDER                                               3
 ACTION:UPD 15-04-30 21:24 OP:nd   STATUS:               ID:20150209193935 L   I
 OLDACT:ARG 15-02-09 20:43 OP:stll STATUS:               ID:20150209193749     3
 2015-02-09-1937-49M.COL___284                                                 6
 STAT SP IPHASW D HRMM SECON CODA AMPLIT PERI AZIMU VELO AIN AR TRES W  DIS CAZ7
 PAM  SZ EP       1939 56.93                             146    0.0310 83.9  45 
 PAM  SN ES       1940 13.45                             146    0.0610 83.9  45 
 PAM  SZ I        1940 14.57         2.7 0.26            148           83.9  45 
 RUS  HZ EP       1939 58.37                             140    0.1210  102 170 
 RUS  HN ES       1940 15.63                             140   -0.1610  102 170 
 RUS  HZ I        1940 17.65         1.4 0.30            145            102 170 
 PTB  HZ EP       1940  0.60                             131   -0.06 9  138 258 
 PTB  HN ES       1940 20.21                             131    0.12 9  138 258 
 PTB  HZ I        1940 23.92         2.2 0.14            131            138 258 
 SML  HN ES       1940 38.57                             115   -0.14 8  239 337 
 SML  HZ I        1940 48.01         3.7 0.22            115            239 337 
                                                                                
