 2016  5 9 1218 29.7 L   6.809 -73.159144.0  RSN 23 0.5 2.6LRSN                1
 GAP=134        0.97       2.1     3.2  4.3 -0.1194E+01  0.3690E+01  0.5857E+00E
 Epicentro: LOS SANTOS - SANTANDER                                             3
 ACTION:UPD 16-08-18 17:43 OP:cam  STATUS:               ID:20160509121829 L   I
 OLDACT:REG 16-05-09 20:43 OP:ak   STATUS:               ID:20160509121747     3
 2016-05-09-1217-47M.COL___294                                                 6
 STAT SP IPHASW D HRMM SECON CODA AMPLIT PERI AZIMU VELO AIN AR TRES W  DIS CAZ7
 BAR2 EZ IP     C 1218 49.08                             170   -0.0210 24.1 186 
 BAR2 EZ ES       1219  3.84                             170   -0.4210 24.1 186 
 BAR2 EZ I        1219  5.24       159.7 0.36            168           24.1 186 
 BRR  HZ IP     C 1218 50.84                             153    0.3210 69.4 298 
 BRR  HN ES       1219  7.64                             153    0.8510 69.4 298 
 BRR  HZ I        1219 12.05        57.2 0.16            148           69.4 298 
 PAM  EZ EP       1218 52.02                             151    0.3210 77.6  41 
 PAM  EN ES       1219  9.02                             151    0.1310 77.6  41 
 PAM  EZ I        1219 11.50        76.0 0.64            155           77.6  41 
 RUS  HZ EP       1218 53.39                             143    0.0710  102 175 
 RUS  HN ES       1219 11.64                             143   -0.1410  102 175 
 RUS  HZ I        1219 12.63        33.9 0.26            145            102 175 
 PTB  HZ EP       1218 55.61                             132   -0.76 9  147 258 
 PTB  HN ES       1219 16.57                             132   -0.64 9  147 258 
 PTB  HZ I        1219 22.37        50.3 0.07            130            147 258 
 OCA  HZ EP       1218 57.40                             130   -0.33 9  159 354 
 OCA  HE ES       1219 19.96                             130    0.35 9  159 354 
 OCA  HZ I        1219 23.00        80.7 0.17            130            159 354 
 SPBC HZ EP       1218 58.21                             129    0.20 9  163 218 
 SPBC HN ES       1219 19.98                             129   -0.15 9  163 218 
 SPBC HZ I        1219 22.52        55.6 0.26            128            163 218 
 ZAR  HZ EP       1219  2.23                             122    0.42 9  202 292 
 ZAR  HN ES       1219 27.19                             122    0.30 9  202 292 
 ZAR  HZ I        1219 33.65        49.4 0.28            121            202 292 
 NOR  HZ EP       1219  4.73                             118   -0.49 8  234 234 
 NOR  HN ES       1219 32.58                             118   -0.38 8  234 234 
 NOR  HZ I        1219 39.48        20.0 0.13            118            234 234 
 SML  HZ EP       1219  5.35                             117   -0.67 8  242 336 
 SML  HN ES       1219 33.65                             117   -0.73 8  242 336 
 SML  HZ I        1219 38.37        39.8 0.08            118            242 336 
 CHI  HZ EP       1219  7.32                             117   -0.01 8  249 195 
 CHI  HN ES       1219 36.76                             117    0.05 8  249 195 
 CHI  HZ I        1219 45.11        12.3 0.50            118            249 195 
 ROSC BZ EP   9   1219  8.98                             116    1.28 0  253 211 
 ROSC BN ES       1219 39.25                                    0.60 8  253 211 
 ROSC BZ I        1219 43.73        39.3 0.35            117            253 211 
 HEL  HZ EP       1219 10.60                             115    0.94 8  271 256 
 HEL  HE ES       1219 40.65                             115   -0.20 8  271 256 
 HEL  HZ I        1219 49.24        14.8 0.24            114            271 256 
 URE  HZ EP   2   1219  9.67                             113   -0.78 4  282 292 
 URE  HE ES   4   1219 40.32                             113   -1.95 0  282 292 
 URE  HZ I        1219 53.06        27.3 0.36            113            282 292 
 VIL  SZ EP   2   1219 12.80                             112   -0.28 4  304 191 
 VIL  SN ES       1219 46.92                             112   -0.02 7  304 191 
 ELA  HZ EP   9   1219 18.75                             110    2.36 0  329 229 
 ELA  HN ES       1219 55.38                                    0.19 7  329 229 
 ELA  HZ I        1220  2.44         9.6 0.40            110            329 229 
 CBOC HZ EP   2   1219 17.07                             110    0.69 3  333 252 
 CBOC HE ES       1219 52.96                             110    0.14 7  333 252 
 ANIL HZ EP   2   1219 20.23                             108    0.87 3  357 224 
 ANIL HN ES       1219 58.68                             108    0.55 6  357 224 
 ANIL HZ I        1220  5.58        34.3 0.28            109            357 224 
 ARGC HZ EP   2   1219 19.81                             108    0.73 3  358 341 
 ARGC HN ES       1219 57.81                             108    0.18 6  358 341 
 ARGC HZ I        1220  5.16        10.0 0.42            109            358 341 
 PRA  HZ EP       1219 22.62                             106   -0.52 6  392 209 
 PRA  HN ES       1220  4.93                             106    0.08 6  392 209 
 PRA  HZ I        1220 10.27        21.8 0.32            107            392 209 
 ORTC HZ EP       1219 23.59                             106    0.07 6  395 216 
 ORTC HN ES       1220  6.19                             106    0.67 6  395 216 
 ORTC HZ I        1220 10.54        18.1 0.05            107            395 216 
 SJC  HZ EP   4   1219 23.13                             106   -1.84 0  408 327 
 SJC  HN ES   4   1220  3.28                             106   -4.83 0  408 327 
 SJC  HZ I        1220 12.12         7.7 0.40            106            408 327 
 CRJC HZ EP   9   1219 29.15                             103   -2.85 0  467   4 
 CRJC HE ES       1220 17.13                                   -0.65 5  467   4 
 CRJC HZ I        1220 20.20         9.4 0.56            104            467   4 
                                                                                
