 2014 11 9 1226 27.3 L   6.822 -73.169147.6  RSN 19 0.5 2.8LRSN                1
 GAP=108        1.02       2.7     3.6  4.7 -0.2560E+01  0.2214E+01  0.2477E+01E
 Epicentro: LOS SANTOS - SANTANDER                                             3
 ACTION:UPD 14-12-19 15:40 OP:nd   STATUS:               ID:20141109122627 L   I
 OLDACT:UP  14-11-09 22:09 OP:cam  STATUS:               ID:20141109121813     3
 OLDACT:UP  14-11-09 22:09 OP:cam  STATUS:               ID:20141109121813     3
 OLDACT:UP  14-11-09 22:09 OP:cam  STATUS:               ID:20141109121813     3
 OLDACT:UP  14-11-09 22:08 OP:cam  STATUS:               ID:20141109121813     3
 OLDACT:UP  14-11-09 22:07 OP:cam  STATUS:               ID:20141109121813     3
 OLDACT:UP  14-11-09 22:07 OP:cam  STATUS:               ID:20141109121813     3
 OLDACT:REG 14-11-09 20:22 OP:cam\ STATUS:               ID:20141109121813     3
 2014-11-09-1218-13M.COL___289                                                 6
 STAT SP IPHASW D HRMM SECON CODA AMPLIT PERI AZIMU VELO AIN AR TRES W  DIS CAZ7
 BAR2 SZ IP     C 1226 47.43                             170    0.2010 25.4 183 
 BAR2 SZ ES       1227  2.41                             170   -0.3310 25.4 183 
 BAR2 SZ I        1227  3.63       243.9 0.26            169           25.4 183 
 BRR  HZ EP     C 1226 48.73                             154    0.2410 67.8 298 
 BRR  HN ES       1227  5.82                             154    0.8210 67.8 298 
 BRR  HZ I        1227  9.42        94.4 0.30            151           67.8 298 
 PAM  SZ EP     C 1226 50.25                             151    0.5210 77.2  42 
 PAM  SN ES       1227  7.25                             151    0.0510 77.2  42 
 PAM  SZ I        1227  9.59       143.4 0.46            154           77.2  42 
 RUS  HZ EP       1226 51.32                             143   -0.1310  103 175 
 RUS  HN ES       1227 10.36                             143    0.0910  103 175 
 RUS  HZ I        1227 11.16        60.7 0.26            145            103 175 
 PTB  HZ EP       1226 54.00                             133   -0.27 9  146 258 
 PTB  HN ES       1227 14.91                             133   -0.36 9  146 258 
 PTB  HZ I        1227 22.43        49.8 0.16            132            146 258 
 OCA  HZ EP       1226 55.14                             131   -0.39 9  158 354 
 OCA  HN ES       1227 17.37                             131   -0.16 9  158 354 
 OCA  HZ I        1227 25.90        67.5 0.20            131            158 354 
 SPBC HZ EP       1226 56.21                             129    0.21 9  163 218 
 SPBC HN ES       1227 17.81                             129   -0.55 9  163 218 
 SPBC HZ I        1227 22.72        84.6 0.40            130            163 218 
 NOR  HZ EP       1227  3.54                             119    0.44 8  234 234 
 NOR  HZ E        1227  5.48                                            234 234 
 NOR  HE ES       1227 30.63                             119   -0.36 8  234 234 
 NOR  HZ I        1227 37.37        47.2 0.20            119            234 234 
 CHI  HZ EP     C 1227  5.68                             117    0.36 8  250 194 
 CHI  HN ES       1227 35.00                             117    0.06 8  250 194 
 CHI  HZ I        1227 38.48        52.6 0.54            118            250 194 
 ROSC BZ EP   4   1227  7.59                             117    1.95 0  254 210 
 ROSC BN ES       1227 34.93                             117   -0.58 8  254 210 
 ROSC BZ I        1227 41.91        98.6 0.50            118            254 210 
 HEL  HZ EP   4   1227  8.82                             115    1.39 0  270 255 
 HEL  HN ES       1227 38.70                             115   -0.01 8  270 255 
 HEL  HZ I        1227 45.50        36.5 0.26            115            270 255 
 URE  HN ES   4   1227 38.04                             114   -1.90 0  281 292 
 GUY2CHZ EP       1227 11.47                             113    0.52 7  300 234 
 GUY2CHE ES   4   1227 46.28                             113    1.31 0  300 234 
 GUY2CHZ I        1227 53.89        30.0 0.38                           300 234 
 PTGC HZ EP       1227 10.57                             112   -1.06 7  312 158 
 PTGC HE ES   4   1227 43.76                             112   -2.43 0  312 158 
 PTGC HZ I        1227 46.49        50.9 0.42            113            312 158 
 TOL  SZ EP       1227 16.29                             110    0.63 7  343 224 
 TOL  SN ES   4   1227 51.80                             110   -1.54 0  343 224 
 TOL  SZ I        1228  1.31        72.2 0.72            110            343 224 
 MON  HZ EP   4   1227 13.70                             109   -2.30 0  350 308 
 MON  HN ES       1227 53.08                             109   -0.88 6  350 308 
 MON  HZ I        1227 55.20         9.7 0.38            110            350 308 
 SDV  BZ EP       1227 16.94                             108   -0.56 6  361  51 
 SDV  BN ES   4   1227 54.85                             108   -1.77 0  361  51 
 SDV  BZ I        1227 57.62        11.5 0.40            110            361  51 
 PRA  HZ EP       1227 21.46                             107    0.44 6  393 209 
 PRA  HN ES       1228  2.80                             107   -0.09 6  393 209 
 PRA  HZ I        1228  7.73        29.3 0.52            108            393 209 
 ORTC HZ EP       1227 21.50                             107    0.13 6  396 216 
 ORTC HE ES       1228  4.39                             107    0.87 6  396 216 
 ORTC HZ I        1228  8.84        19.1 0.30            107            396 216 
 SJC  HZ EP   4   1227 20.85                             106   -1.70 0  406 327 
 SJC  HN ES   4   1228  2.69                             106   -2.93 0  406 327 
 SJC  HZ I        1228  9.20         9.8 0.54            107            406 327 
                                                                                
