 2016 10 9 1330 53.7 L   6.795 -73.180139.5  RSN  7 0.3 1.6LRSN                1
 GAP=132        0.74       3.3     3.1  5.3 -0.2320E+01  0.6141E+01  0.2479E+00E
 Epicentro: LOS SANTOS - SANTANDER                                             3
 ACTION:UPD 16-11-09 19:17 OP:rebc STATUS:               ID:20161009133053 L   I
 OLDACT:DUP 16-10-09 22:25 OP:lv   STATUS:               ID:20161009132747d    3
 2016-10-09-1328-00M.COL___360                                                 6
 STAT SP IPHASW D HRMM SECON CODA AMPLIT PERI AZIMU VELO AIN AR TRES W  DIS CAZ7
 BAR2 EZ EP       1331 12.45                             170   -0.1210 22.5 181 
 BAR2 EZ ES       1331 26.99                             170   -0.2810 22.5 181 
 BAR2 EZ I        1331 29.10        15.8 0.19            170           22.5 181 
 PAM  EZ EP       1331 15.45                             149    0.0110 80.3  41 
 PAM  EN ES       1331 32.56                             149    0.1710 80.3  41 
 PAM  EZ I        1331 34.82         5.4 0.32            154           80.3  41 
 RUS  HZ EP       1331 16.49                             143   -0.3510  100 174 
 RUS  HN ES       1331 35.37                             143    0.5010  100 174 
 RUS  HZ I        1331 36.89         4.6 0.24            145            100 174 
 PTB  HZ EP       1331 19.61                             131   -0.21 9  144 259 
 PTB  HE ES       1331 40.49                             131    0.31 9  144 259 
 PTB  HZ I        1331 43.26         4.4 0.14            132            144 259 
 SPBC HZ EP       1331 21.57                             128    0.10 9  160 218 
 SPBC HN ES       1331 42.65                             128   -0.46 9  160 218 
 SPBC HZ I        1331 50.00         7.6 0.07            129            160 218 
 ZAR  HE ES       1331 50.06                             121   -0.07 9  201 293 
 ZAR  HZ I        1331 55.79         6.5 0.21            123            201 293 
 NOR  HZ EP       1331 29.12                             118    0.41 8  231 234 
 NOR  HN ES       1331 56.11                             118    0.09 8  231 234 
 NOR  HZ I        1332  2.54         3.6 0.24            119            231 234 
                                                                                
