 2014  6 9 1505 30.5 L   6.825 -73.158141.1  RSN 18 0.4 2.5LRSN                1
 GAP=134        0.86       2.5     3.7  4.8 -0.2211E+01  0.4038E+01  0.2560E+01E
 Epicentro: LOS SANTOS - SANTANDER                                             3
 ACTION:UPD 14-07-01 22:52 OP:nd   STATUS:               ID:20140609150530 L   I
 OLDACT:UP  14-06-10 00:53 OP:mh   STATUS:               ID:20140609145820     3
 OLDACT:REG 14-06-09 20:48 OP:spq  STATUS:               ID:20140609145820     3
 2014-06-09-1458-20M.COL___259                                                 6
 STAT SP IPHASW D HRMM SECON CODA AMPLIT PERI AZIMU VELO AIN AR TRES W  DIS CAZ7
 BAR2 SZ EP     C 15 5 49.98                             169    0.3510 25.9 186 
 BAR2 SZ ES   1   15 6  4.20                             169   -0.34 7 25.9 186 
 BAR2 SZ I        15 6  6.24       105.3 0.55            168           25.9 186 
 BRR  HZ EP       15 5 51.38                             153    0.3810 68.6 297 
 BRR  HN ES       15 6  6.91                             153   -0.0810 68.6 297 
 BRR  HZ I        15 6 12.18        41.8 0.12            150           68.6 297 
 PAM  SZ EP       15 5 52.79                             150    0.6410 76.2  42 
 PAM  SN ES   1   15 6  9.42                             150    0.39 7 76.2  42 
 PAM  SZ I        15 6 11.99        59.4 0.54            156           76.2  42 
 RUS  HZ EP       15 5 53.98                             142   -0.0410  103 175 
 RUS  HN ES   1   15 6 12.30                             142   -0.05 7  103 175 
 RUS  HZ I        15 6 13.57        21.5 0.37            145            103 175 
 PTB  HZ EP   1   15 5 56.52                             131   -0.50 7  147 258 
 PTB  HN ES   1   15 6 17.07                             131   -0.63 7  147 258 
 PTB  HZ I        15 6 25.24        37.5 0.32            131            147 258 
 OCA  HZ EP   1   15 5 57.63                             129   -0.55 7  157 354 
 OCA  HN ES   1   15 6 19.42                             129   -0.34 7  157 354 
 OCA  HZ I        15 6 24.70        41.1 0.20            132            157 354 
 SPBC HZ EP       15 5 58.08                             128   -0.70 9  164 218 
 SPBC HN ES   1   15 6 20.76                             128   -0.06 7  164 218 
 SPBC HZ I        15 6 26.36        25.8 0.00            129            164 218 
 ZAR  HZ EP   1   15 6  2.64                             122    0.23 6  202 292 
 ZAR  HN ES   1   15 6 28.22                             122    0.94 6  202 292 
 ZAR  HZ I        15 6 34.37        25.5 0.16            123            202 292 
 NOR  HZ EP       15 6  5.92                             117   -0.10 8  235 234 
 NOR  HN ES   1   15 6 33.41                             117   -0.31 6  235 234 
 NOR  HZ I        15 6 35.75        23.6 0.12            119            235 234 
 SML  HZ EP   1   15 6  6.18                             117   -0.35 6  241 335 
 SML  HN ES   1   15 6 33.86                             117   -0.77 6  241 335 
 CHI  HZ EP   1   15 6  7.94                             116   -0.27 6  251 195 
 CHI  HN ES   1   15 6 37.28                             116   -0.33 6  251 195 
 ROSC BN ES       15 6 38.28                             115    0.04 8  254 210 
 URE  HN ES   4   15 6 41.70                             113   -1.04 0  281 291 
 URE  HZ I        15 6 44.34        16.7 0.16            114            281 291 
 GUY2CHZ EP       15 6 14.41                             111    0.45 7  302 234 
 GUY2CHN ES       15 6 48.00                             111    0.15 7  302 234 
 GUY2CHZ I        15 6 56.83        18.5 0.39                           302 234 
 RREF HZ EP   1   15 6 16.24                             110   -0.30 5  323 229 
 RREF HN ES   1   15 6 53.19                             110    0.75 5  323 229 
 RREF HZ I        15 7  2.24        16.1 0.43            112            323 229 
 TOL  SZ EP   1   15 6 19.39                             108    0.69 5  345 224 
 TOL  SE ES   1   15 6 56.80                             108    0.52 5  345 224 
 TOL  SZ I        15 7  2.16        18.0 0.47            110            345 224 
 PRA  HZ EP       15 6 23.58                             106   -0.50 6  394 209 
 PRA  HN ES   1   15 7  6.40                             106    0.54 4  394 209 
 PRA  HZ I        15 7 11.96        19.6 0.51            108            394 209 
 ORTC HZ EP   1   15 6 24.23                             105   -0.21 4  397 216 
 ORTC HN ES   4   15 7  7.89                             105    1.38 0  397 216 
 ORTC HZ I        15 7 12.49        10.4 0.49            108            397 216 
 SJC  HZ EP   4   15 6 24.05                             105   -1.50 0  406 327 
 SJC  HN ES   4   15 7  3.73                             105   -4.75 0  406 327 
                                                                                
