 2013  1 9 1827 55.0 L   6.666 -73.183138.0  RSN  4 0.3 2.0LRSN                1
 GAP=230        0.76       8.3     6.3  6.4  0.1076E+02  0.1570E+02 -0.3732E+01E
 Epicentro: VILLANUEVA - SANTANDER                                             3
 ACTION:UPD 13-02-15 09:13 OP:ep   STATUS:               ID:20130109182755 L   I
 2013-01-09-1818-48M.COL___202                                                 6
 STAT SP IPHASW D HRMM SECON CODA AMPLIT PERI AZIMU VELO AIN AR TRES W  DIS CAZ7
 BAR2 SZ ES       1828 28.06                             176    0.2210 8.20 180 
 BAR2 SZ I        1828 29.91        12.5 0.18            177           8.20 180 
 BRR  HZ EP       1828 15.44                             149   -0.1310 76.1 310 
 BRR  HN ES       1828 31.40                             149   -0.2510 76.1 310 
 BRR  HN I        1828 36.33        34.3 0.20            149           76.1 310 
 PTB  HZ EP       1828 20.27                             131   -0.46 9  142 264 
 PTB  HN ES       1828 40.94                             131    0.11 9  142 264 
 ZAR  HZ EP       1828 27.71                             120    0.56 8  206 296 
 ZAR  HN ES       1828 52.34                             120    0.08 8  206 296 
                                                                                
