 2017  9 9 1039 23.9 L   6.791 -73.134142.6  RSN 21 0.4 2.4LRSN                1
 GAP=100        1.05       3.2     2.9  5.0 -0.1388E-01  0.3869E+01  0.3861E+01E
 Epicentro: LOS SANTOS - SANTANDER                                             3
 ACTION:UPD 17-10-05 19:10 OP:rebc STATUS:               ID:20170909103923 L   I
 OLDACT:REG 17-09-09 19:25 OP:lv   STATUS:               ID:20170909103742     3
 2017-09-09-1038-00M.COL___401                                                 6
 STAT SP IPHASW D HRMM SECON CODA AMPLIT PERI AZIMU VELO AIN AR TRES W  DIS CAZ7
 BAR2 EZ EP       1039 43.07                             170   -0.0710 22.6 194 
 BAR2 EZ ES       1039 57.33                             170   -0.8010 22.6 194 
 BAR2 EZ I        1039 59.12        79.6 0.32            168           22.6 194 
 BRR  HZ IP     C 1039 44.80                             151   -0.0010 72.8 299 
 BRR  HE ES       1040  1.98                             151    0.8810 72.8 299 
 BRR  HZ I        1040  4.42        37.6 0.34            149           72.8 299 
 PAM  EZ EP       1039 46.05                             150    0.2710 77.4  38 
 PAM  EN ES       1040  3.01                             150    0.1710 77.4  38 
 PAM  EZ I        1040  5.53        31.2 0.57            154           77.4  38 
 RUS  HZ EP       1039 47.21                             143   -0.0510 99.5 177 
 RUS  HN ES       1040  5.85                             143    0.3710 99.5 177 
 RUS  HZ I        1040  7.34        28.9 0.42            144           99.5 177 
 TAM  HZ EP       1039 51.47                             130    0.28 9  154 105 
 TAM  HN ES       1040 11.93                             130   -0.54 9  154 105 
 SPBC HZ EP       1039 52.02                             128   -0.14 9  163 220 
 SPBC HN ES       1040 14.35                             128    0.15 9  163 220 
 SPBC HZ I        1040 19.81        40.9 0.20            128            163 220 
 YPLC HZ EP       1039 53.53                             126    0.21 9  175 152 
 YPLC HN ES       1040 16.22                             126   -0.04 9  175 152 
 YPLC HZ I        1040 18.45        25.1 0.32            128            175 152 
 ZAR  HZ EP       1039 55.66                             122   -0.65 8  206 292 
 ZAR  HE ES       1040 20.99                             122   -0.59 8  206 292 
 ZAR  HZ I        1040 27.45        25.7 0.05            121            206 292 
 NOR  HZ EP       1039 59.14                             118   -0.36 8  235 235 
 NOR  HN ES       1040 26.82                             118   -0.45 8  235 235 
 NOR  HZ I        1040 31.76        17.0 0.26            118            235 235 
 CHI  HZ EP       1040  1.37                             117    0.01 8  248 196 
 CHI  HN ES       1040 30.62                             117    0.05 8  248 196 
 CHI  HZ I        1040 32.97        22.3 0.36            117            248 196 
 ROSC BZ EP   9   1040  3.28                             116    1.45 0  253 211 
 ROSC BN ES       1040 33.66                                    0.80 8  253 211 
 ROSC BZ I        1040 37.78        38.1 0.35            116            253 211 
 HEL  HZ EP       1040  4.66                             114    0.59 8  273 256 
 HEL  HN ES       1040 35.70                             114    0.30 8  273 256 
 HEL  HZ I        1040 42.67        11.8 0.34            114            273 256 
 URE  HZ EP   4   1040  3.66                             113   -1.34 0  285 292 
 URE  HN ES   4   1040 34.38                             113   -2.67 0  285 292 
 URE  HZ I        1040 48.09        19.1 0.20            113            285 292 
 GUY2CHZ EP   4   1040  8.47                             112    1.05 0  302 235 
 GUY2CHN ES   4   1040 45.34                             112    3.98 0  302 235 
 GUY2CHZ I        1040 49.35        10.9 0.32                           302 235 
 PTGC HZ IP   4 C 1040  6.35                             111   -1.11 0  307 159 
 PTGC HN ES   4   1040 39.53                             111   -1.90 0  307 159 
 PTGC HZ I        1040 41.49        13.7 0.26            112            307 159 
 DBB  EN ES   4   1040 45.86                             109   -2.61 0  341 274 
 DBB  EZ I        1040 48.71        10.2 0.24            109            341 274 
 ANIL HZ EP       1040 14.85                             108    1.24 6  358 225 
 ANIL HN ES       1040 52.31                             108   -0.07 6  358 225 
 ANIL HZ I        1040 58.79        26.9 0.26            108            358 225 
 PRA  HZ EP       1040 17.00                             106   -0.29 6  392 210 
 PRA  HN ES   4   1040 58.01                             106   -0.92 0  392 210 
 PRA  HZ I        1041  3.63        12.5 0.54            106            392 210 
 ORTC HZ EP       1040 17.21                             106   -0.50 6  395 216 
 ORTC HN ES       1040 59.87                             106    0.19 6  395 216 
 ORTC HZ I        1041  7.07         7.6 0.60            106            395 216 
 PAL  HZ EP       1040 18.80                             105   -0.23 6  406 239 
 PAL  HN ES   4   1041  1.47                             105   -0.56 0  406 239 
 PAL  HZ I        1041  7.07         5.0 0.40            106            406 239 
 SJC  HZ EP   4   1040 17.26                             105   -2.29 0  411 327 
 SJC  HN ES   4   1041  0.54                             105   -2.41 0  411 327 
 SJC  HZ I        1041  8.10         3.1 0.26            106            411 327 
                                                                                
