 2011 10 9 1616 43.1 L   6.811 -72.971127.2  RSN  4 0.1 1.3LRSN                1
 GAP=160        0.36       2.5     3.8  4.3  0.8221E+00  0.1507E+01  0.2100E+01E
 Epicentro: CEPITA - SANTANDER                                                 3
 ACTION:UPD 12-07-13 16:02 OP:ep   STATUS:               ID:20111009161643 L   I
 2011-10-09-1613-41S.COL___168                                                 6
 STAT SP IPHASW D HRMM SECON CODA AMPLIT PERI AZIMU VELO AIN AR TRES W  DIS CAZ7
 BAR2 SZ EP   1   1617  0.81                             164    0.01 7 33.6 224 
 BAR2 SZ ES   1   1617 14.61                             164    0.02 7 33.6 224 
 BAR2 SZ I        1617 17.46         4.8 0.19                          33.6 224 
 PAM  SN ES   1   1617 17.89                             151   -0.01 7 65.7  27 
 BRR  HZ EP   1   1617  3.25                             143   -0.20 7 88.2 292 
 BRR  HZ I        1617 14.24        11.4 0.38                          88.2 292 
 BRR  HN ES   1   1617 19.41                             143    0.10 7 88.2 292 
 RUS  HZ EP   1   1617  5.42                             139    0.20 7  102 187 
 RUS  HZ I        1617  6.67         2.0 0.08                           102 187 
 RUS  HN ES   1   1617 22.34                             139   -0.12 7  102 187 
                                                                                
