 2013  8 9 1733 41.8 L   6.291 -73.496116.0  RSN 12 0.3 2.5LRSN                1
 GAP= 88        0.72       2.1     2.6  5.0 -0.1249E+01  0.6683E+01  0.1599E+01E
 Epicentro: CONTRATACION - SANTANDER                                           3
 ACTION:UPD 14-01-14 09:00 OP:ep   STATUS:               ID:20130809173341 L   I
 OLDACT:REG 13-08-09 16:45 OP:mh   STATUS:               ID:20130809172959     3
 2013-08-09-1729-59M.COL___266                                                 6
 STAT SP IPHASW D HRMM SECON CODA AMPLIT PERI AZIMU VELO AIN AR TRES W  DIS CAZ7
 BAR2 SZ EP   1   1733 58.97                             156    0.21 7 48.1  46 
 BAR2 SZ ES   1   1734 12.37                             156    0.35 7 48.1  46 
 BAR2 SZ I        1734 13.96       195.6 0.30            149           48.1  46 
 RUS  HZ IP     C 1733 59.94                             149   -0.0510 63.5 134 
 RUS  HN ES       1734 13.96                             149   -0.2510 63.5 134 
 RUS  HN I        1734 14.86        80.2 0.16            144           63.5 134 
 BRR  HZ EP   1   1734  1.22                             138   -0.22 7 93.3 345 
 BRR  HN ES       1734 16.49                             138   -0.3010 93.3 345 
 BRR  HN I        1734 17.34        94.5 0.14            131           93.3 345 
 GIR2 SZ IP     D 1734  1.81                             138    0.1710 93.3  21 
 GIR2 SZ ES   1   1734 17.37                             138    0.23 7 93.3  21 
 GIR2 SZ I        1734 18.50        68.9 0.14            131           93.3  21 
 PAM  SZ EP   1   1734  7.01                             125    0.12 7  146  37 
 PAM  SN ES       1734 26.48                             125   -0.01 9  146  37 
 PAM  SN I        1734 28.46        42.4 0.42            118            146  37 
 ZAR  HZ EP   1   1734 11.89                             115   -0.21 6  201 312 
 ZAR  HN ES       1734 35.87                             115    0.11 9  201 312 
 ZAR  HN I        1734 41.00        30.8 0.14            111            201 312 
 OCA  HZ EP   1   1734 13.94                             113   -0.07 6  216   5 
 OCA  HN ES   2   1734 38.98                             113   -0.18 4  216   5 
 OCA  HN I        1734 46.70        65.1 0.24            109            216   5 
 HEL  HZ EP   1   1734 15.40                             112    0.12 6  225 267 
 HEL  HN ES       1734 40.86                             112   -0.57 8  225 267 
 HEL  HN I        1734 44.51        20.3 0.26            109            225 267 
 GUY2CHZ EP   1   1734 17.32                             111    0.43 6  238 240 
 GUY2CHN ES   1   1734 44.47                             111    0.18 6  238 240 
 GUY2CHN I        1734 53.05        38.8 0.56                           238 240 
 RREF HZ EP   1   1734 19.39                             109    0.23 6  256 233 
 RREF HN ES       1734 49.27                             109    0.95 8  256 233 
 RREF HZ I        1734 53.42        27.1 0.28            107            256 233 
 PRA  HZ EP   1   1734 26.07                             104   -0.25 5  324 208 
 PRA  HN ES       1735  0.24                             104   -0.83 7  324 208 
 PRA  HN I        1735  6.93         9.5 0.28            103            324 208 
 ORTC HZ EP   1   1734 26.74                             104    0.05 5  327 216 
 ORTC HN ES   2   1735  1.95                             104    0.22 3  327 216 
 ORTC HZ I        1735  7.98         9.9 0.46            102            327 216 
                                                                                
