 2014  3 9 1040 24.1 L   6.827 -73.205141.8  RSN  5 0.5 1.3LRSN                1
 GAP=128        1.31       5.6     7.3 11.1 -0.8515E+01  0.2231E+02 -0.4878E+01E
 Epicentro: ZAPATOCA - SANTANDER                                               3
 ACTION:UPD 14-04-09 23:15 OP:nd   STATUS:               ID:20140309104024 L   I
 OLDACT:DUP 14-03-09 18:59 OP:stll STATUS:               ID:20140309103812d    3
 2014-03-09-1038-11M.COL___220                                                 6
 STAT SP IPHASW D HRMM SECON CODA AMPLIT PERI AZIMU VELO AIN AR TRES W  DIS CAZ7
 BAR2 SZ EP       1040 43.34                             169   -0.0210 26.1 174 
 BAR2 SZ ES       1040 58.79                             169    0.4510 26.1 174 
 BAR2 SZ I        1041  1.77         5.2 0.34            170           26.1 174 
 PAM  SZ EP       1040 46.37                             149    0.2910 79.6  45 
 PAM  SN ES       1041  3.63                             149    0.4510 79.6  45 
 RUS  HZ EP       1040 47.95                             142    0.1810  104 173 
 RUS  HN ES       1041  5.25                             142   -0.9610  104 173 
 RUS  HZ I        1041  6.98         2.1 0.30            144            104 173 
 PTB  HZ EP       1040 50.46                             132    0.20 9  142 257 
 PTB  HN ES       1041 10.85                             132    0.22 9  142 257 
 PTB  HZ I        1041 13.83         2.7 0.20            134            142 257 
 OCA  HN ES       1041 12.47                             129   -0.92 9  157 355 
                                                                                
