 2011  5 9 1351 45.5 L   6.444 -73.664107.5  RSN  6 0.4 1.8LRSN                1
 GAP=122        0.83       5.1     5.9  9.1 -0.1619E+02  0.1868E+02 -0.1078E+02E
 Epicentro: SANTA HELENA DEL OPON - SANTANDER                                  3
 ACTION:UP  11-06-29 08:51 OP:tino STATUS:               ID:20110509135145 L   I
 2011-05-09-1347-33S.COL___131                                                 6
 STAT SP IPHASW D HRMM SECON CODA AMPLIT PERI AZIMU VELO SNR AR TRES W  DIS CAZ7
 BAR2 SZ EP   1   1352  2.29                             151     0.3 7   56  73 
 BAR2 SZ ES   1   1352 15.00                             151     0.2 7   56  73 
 BAR2 SZ I        1352 16.92        26.8 0.28                            56  73 
 BRR  HZ EP   1   1352  3.40                             143     0.6 7   73 356 
 BRR  HN ES   2   1352 15.97                             143    -0.4 5   73 356 
 BRR  HZ I        1352 18.03        16.9 0.31                            73 356 
 RUS  HZ EP   1   1352  4.43                             138    -0.2 7   89 133 
 RUS  HZ I        1352  5.17         7.3 0.12                            89 133 
 RUS  HN ES   2   1352 19.45                             138    -0.2 5   89 133 
 NOR  SZ EP   1   1352 11.20                             118    -0.3 7  165 234 
 NOR  SN ES   1   1352 31.79                             118    -0.1 7  165 234 
 BRI  SZ EP   1   1352 12.19                             118     0.0 7  170  34 
 BRI  SZ I        1352 36.46        11.5 0.41                           170  34 
 GRA  SZ EP   1   1352 14.26                             115     0.4 7  185  31 
 GRA  SZ ES   1   1352 35.28                             115    -0.7 7  185  31 
 GRA  SZ I        1352 39.59         7.8 0.39                           185  31 
                                                                                
