 2012  7 9 1305  4.7 L   6.645 -73.175140.0  RSN  4 0.3 1.6LRSN                1
 GAP=237        0.87      10.4     6.9  8.9  0.1277E+02  0.1311E+02  0.1614E+02E
 Epicentro: VILLANUEVA - SANTANDER                                             3
 ACTION:UPD 12-08-14 11:43 OP:ep   STATUS:               ID:20120709130504 L   I
 2012-07-09-1300-00M.COL___201                                                 6
 STAT SP IPHASW D HRMM SECON CODA AMPLIT PERI AZIMU VELO AIN AR TRES W  DIS CAZ7
 BAR2 SZ EP   1   13 5 23.74                             177     0.3 7    6 188 
 BAR2 SZ ES   1   13 5 37.54                             177    -0.5 7    6 188 
 BAR2 SZ I        13 5 40.80         7.8 0.43                             6 188 
 BRR  HZ EP       13 5 25.69                             149     0.010   78 311 
 BRR  HZ I        13 5 37.52        11.0 0.28                            78 311 
 BRR  HE ES       13 5 42.35                             149     0.310   78 311 
 PTB  HZ EP       13 5 30.67                             132    -0.1 9  142 265 
 PTB  HN ES       13 5 51.17                             132     0.2 9  142 265 
 PTB  HZ I        13 5 57.85         4.8 0.15                           142 265 
 ZAR  HE ES   1   13 6  1.97                             120    -0.6 6  208 297 
 ZAR  HZ I        13 6  7.77         4.7 0.26                           208 297 
