 2015  4 9 1755 34.3 L   6.794 -73.141139.7  RSN  7 0.6 2.1LRSN                1
 GAP=137        1.46       6.5     6.1  9.2 -0.5933E+00  0.1976E+02  0.4723E+01E
 Epicentro: LOS SANTOS - SANTANDER                                             3
 ACTION:UPD 15-06-03 16:53 OP:cam  STATUS:               ID:20150409175534 L   I
 OLDACT:REG 15-04-09 21:54 OP:carl STATUS:               ID:20150409174750     3
 2015-04-09-1747-50M.COL___272                                                 6
 STAT SP IPHASW D HRMM SECON CODA AMPLIT PERI AZIMU VELO AIN AR TRES W  DIS CAZ7
 BAR2 EZ EP       1755 53.03                             170   -0.1910 22.8 192 
 BAR2 EZ ES       1756  7.67                             170   -0.2910 22.8 192 
 BAR2 EZ I        1756  9.38        32.9 0.18            171           22.8 192 
 BRR  HZ EP       1755 54.91                             151    0.0410 72.0 299 
 BRR  HN ES       1756 11.77                             151    0.8710 72.0 299 
 BRR  HZ I        1756 15.03        27.1 0.34            150           72.0 299 
 PAM  SZ EP       1755 55.97                             150    0.0610 77.5  39 
 PAM  SN ES       1756 12.94                             150    0.1910 77.5  39 
 PAM  SZ I        1756 13.54        17.1 0.18            152           77.5  39 
 RUS  HZ EP       1755 57.15                             143   -0.2910 99.9 176 
 RUS  HE ES       1756 15.52                             143    0.0510 99.9 176 
 RUS  HZ I        1756 16.62         9.3 0.22            146           99.9 176 
 PTB  HZ EP       1755 59.79                             130   -1.06 9  148 259 
 PTB  HN ES       1756 20.88                             130   -0.66 9  148 259 
 PTB  HZ I        1756 22.22        18.9 0.30            131            148 259 
 ZAR  HZ EP       1756  6.93                             121    0.46 9  205 292 
 ZAR  HN ES       1756 30.92                             121   -0.61 9  205 292 
 ZAR  HZ I        1756 37.05        15.4 0.36            122            205 292 
 GUY2CHZ EP       1756 18.63                             111    0.95 7  301 235 
 GUY2CHE ES       1756 52.80                             111    1.31 7  301 235 
 GUY2CHZ I        1757  0.88         6.2 0.62                           301 235 
                                                                                
