 2016 11 9 1941 42.1 L   6.711 -73.133145.5  RSN  5 0.3 1.9LRSN                1
 GAP=168        0.83       7.0     4.0  6.5 -0.6328E+01  0.5916E+01  0.8169E+00E
 Epicentro: JORDAN - SANTANDER                                                 3
 ACTION:UPD 17-10-26 21:06 OP:lp   STATUS:               ID:20161109194142 L   I
 OLDACT:REG 16-11-09 21:12 OP:dnl  STATUS:               ID:20161109193313     3
 2016-11-09-1938-00M.COL___349                                                 6
 STAT SP IPHASW D HRMM SECON CODA AMPLIT PERI AZIMU VELO AIN AR TRES W  DIS CAZ7
 BAR2 EZ EP       1942  1.89                             174    0.3610 14.2 203 
 BAR2 EZ ES       1942 16.51                             174   -0.1910 14.2 203 
 BAR2 EZ I        1942 17.95        21.9 0.26            171           14.2 203 
 BRR  HZ EP       1942  3.77                             150    0.2010 77.5 304 
 BRR  HE ES       1942 20.95                             150    0.6110 77.5 304 
 BRR  HZ I        1942 30.99        14.8 0.52            146           77.5 304 
 PAM  EZ EP       1942  4.78                             148    0.0810 84.4  35 
 PAM  EN ES       1942 21.90                             148   -0.4510 84.4  35 
 PAM  EZ I        1942 24.25         9.8 0.50            148           84.4  35 
 PTB  HZ EP       1942  8.80                             132   -0.21 9  148 263 
 PTB  HN ES       1942 29.75                             132   -0.26 9  148 263 
 PTB  HZ I        1942 32.25         6.6 0.16            133            148 263 
 ZAR  HZ EP   2   1942 14.88                             121   -0.16 4  209 294 
 ZAR  HE ES       1942 40.53                             121   -0.23 8  209 294 
 ZAR  HZ I        1942 45.98        10.7 0.30            122            209 294 
                                                                                
