 2015  8 9 1014 21.8 L   6.788 -73.099148.0  RSN 11 0.4 1.9LRSN                1
 GAP=188        0.90       2.7     4.9  5.9 -0.1407E+01  0.1088E+02 -0.3192E+01E
 Epicentro: LOS SANTOS - SANTANDER                                             3
 ACTION:UPD 15-09-15 23:01 OP:cam  STATUS:               ID:20150809101421 L   I
 OLDACT:REG 15-08-09 21:20 OP:drio STATUS:               ID:20150809100736     3
 2015-08-09-1007-36M.COL___349                                                 6
 STAT SP IPHASW D HRMM SECON CODA AMPLIT PERI AZIMU VELO AIN AR TRES W  DIS CAZ7
 BAR2 EZ EP       1014 41.99                             171    0.3210 23.5 203 
 BAR2 EZ ES       1014 56.90                             171   -0.2910 23.5 203 
 BAR2 EZ I        1014 57.78        16.9 0.28            166           23.5 203 
 BRR  HZ EP     C 1014 43.80                             151    0.3410 76.4 298 
 BRR  HN ES       1015  0.61                             151    0.2410 76.4 298 
 BRR  HZ I        1015  4.71        16.3 0.18            147           76.4 298 
 RUS  HE ES       1015  4.13                             145   -0.1110 99.0 179 
 OCA  HZ EP       1014 50.16                             130   -0.28 9  162 351 
 OCA  HN ES       1015 13.21                             130    0.40 9  162 351 
 OCA  HZ I        1015 17.15        14.0 0.22            131            162 351 
 SPBC HN ES       1015 12.88                             129   -0.31 9  165 221 
 SPBC HZ I        1015 23.01        11.2 0.10            128            165 221 
 ZAR  HZ EP       1014 55.05                             122    0.14 8  209 292 
 ZAR  HE ES       1015 20.91                             122    0.15 8  209 292 
 ZAR  HZ I        1015 26.89        11.5 0.24            121            209 292 
 SML  HN ES       1015 27.07                             117   -0.77 8  247 334 
 SML  HZ I        1015 34.87        10.6 0.10            118            247 334 
 CHI  HN ES       1015 28.84                             117   -0.28 8  249 196 
 CHI  HZ I        1015 36.19         3.6 0.54            118            249 196 
 HEL  HZ EP       1015  3.27                             115    0.65 7  277 256 
 HEL  HN ES       1015 34.00                             115   -0.48 7  277 256 
 HEL  HZ I        1015 41.07         2.8 0.26            114            277 256 
 GUY2CHZ EP   4   1015  7.59                             112    1.71 0  305 236 
 GUY2CHN ES       1015 40.76                             112    0.48 7  305 236 
 GUY2CHZ I        1015 46.65         2.5 0.28                           305 236 
 MON  HZ EP   4   1015 10.30                             109   -1.13 0  359 308 
 MON  HN ES   4   1015 48.24                             109   -1.92 0  359 308 
 SJC  HZ EP       1015 17.17                             106   -0.70 6  413 326 
 SJC  HE ES   4   1015 58.84                             106   -2.79 0  413 326 
 SJC  HZ I        1016  1.64         2.6 0.56            106            413 326 
                                                                                
