 2011  5 9 1100 20.4 L   6.731 -73.109132.7  RSN  4 0.3 1.5LRSN                1
 GAP=163        0.71       4.9     8.8  9.0 -0.1942E+01 -0.1623E+02 -0.5889E+01E
 Epicentro: JORDAN - SANTANDER                                                 3
 ACTION:UP  11-06-29 08:51 OP:tino STATUS:               ID:20110509110020 L   I
 2011-05-09-1058-08S.COL___131                                                 6
 STAT SP IPHASW D HRMM SECON CODA AMPLIT PERI AZIMU VELO SNR AR TRES W  DIS CAZ7
 BAR2 SZ EP   1   11 0 38.72                             172     0.3 7   17 208 
 BAR2 SZ ES   1   11 0 51.89                             172    -0.5 7   17 208 
 BAR2 SZ I        11 0 54.79         6.2 0.32                            17 208 
 BRR  HZ EP   1   11 0 40.50                             147    -0.2 7   79 302 
 BRR  HZ I        11 0 53.22        12.9 0.42                            79 302 
 BRR  HN ES   1   11 0 56.60                             147     0.2 7   79 302 
 RUS  HZ EP   2   11 0 42.15                             143    -0.2 5   93 178 
 RUS  HE ES   2   11 0 59.89                             143     0.5 5   93 178 
 RUS  HZ I        11 1  2.62         3.2 0.24                            93 178 
 GRA  SZ EP   2   11 0 44.67                             132    -0.4 5  132  15 
 GRA  SZ ES   1   11 1  4.52                             132     0.2 7  132  15 
 GRA  SZ I        11 1  5.56         4.2 0.33                           132  15 
                                                                                
