 2011  5 9 1750 11.8 L   7.387 -73.180130.6  RSN  7 0.2 2.0LRSN                1
 GAP=155        0.41       3.9     5.3  5.1 -0.1154E+02  0.2652E+01  0.3160E+01E
 Epicentro: EL PLAYON - SANTANDER                                              3
 ACTION:UP  11-06-29 08:51 OP:tino STATUS:               ID:20110509175011 L   I
 2011-05-09-1748-24S.COL___133                                                 6
 STAT SP IPHASW D HRMM SECON CODA AMPLIT PERI AZIMU VELO SNR AR TRES W  DIS CAZ7
 BTL  SZ EP   1   1750 30.80                             157     0.1 7   53 191 
 PAM  SZ EP   2   1750 31.15                             157     0.1 5   53  96 
 PAM  SE ES   2   1750 45.99                             157    -0.1 5   53  96 
 BRI  SZ EP   1   1750 31.04                             155     0.3 7   56  49 
 BRI  SZ I        1750 31.36        12.7 0.28                            56  49 
 BRR  HZ EP   1   1750 30.90                             151    -0.2 7   66 242 
 BRR  HZ I        1750 31.42        24.9 0.11                            66 242 
 BRR  HE ES   2   1750 46.23                             151     0.1 5   66 242 
 GRA  SZ EP   1   1750 31.54                             150     0.1 7   69  37 
 GRA  SZ ES   1   1750 46.56                             150    -0.2 7   69  37 
 GRA  SZ I        1750 47.87        19.8 0.28                            69  37 
 BAR2 SZ EP   1   1750 32.79                             144     0.0 7   88 180 
 BAR2 SZ ES   2   1750 49.35                             144     0.2 5   88 180 
 BAR2 SZ I        1750 50.39        23.3 0.44                            88 180 
 RUS  HZ EP   2   1750 39.65                             125    -0.3 5  166 176 
                                                                                
