 2011 10 9 1658 17.2 L   6.759 -73.101143.1  RSN  6 0.4 1.9LRSN                1
 GAP=144        0.83       5.4     6.2  8.1  0.5310E+01  0.3303E+01 -0.8126E+01E
 Epicentro: LOS SANTOS - SANTANDER                                             3
 ACTION:UPD 12-07-13 16:02 OP:ep   STATUS:               ID:20111009165817 L   I
 2011-10-09-1656-18S.COL___168                                                 6
 STAT SP IPHASW D HRMM SECON CODA AMPLIT PERI AZIMU VELO AIN AR TRES W  DIS CAZ7
 BAR2 SZ EP   1   1658 36.37                             171   -0.07 7 20.5 206 
 BAR2 SZ ES   1   1658 51.38                             171   -0.08 7 20.5 206 
 BAR2 SZ I        1658 52.85        23.7 0.25                          20.5 206 
 BRR  HZ EP   1   1658 38.68                             150    0.25 7 77.7 300 
 BRR  HN ES   1   1658 55.56                             150    0.55 7 77.7 300 
 BRR  HZ I        1659  0.07        20.3 0.13                          77.7 300 
 PAM  SZ EP   1   1658 39.68                             150    0.52 7 78.1  35 
 PAM  SZ I        1658 40.02        13.3 0.14                          78.1  35 
 PAM  SN ES   1   1658 56.09                             150   -0.21 7 78.1  35 
 RUS  HZ EP   1   1658 40.76                             145    0.43 7 95.8 179 
 RUS  HN ES   1   1658 57.89                             145   -0.50 7 95.8 179 
 RUS  HZ I        1659  0.55         6.5 0.27                          95.8 179 
 OCA  SZ EP   1   1658 45.07                             128   -0.71 7  165 352 
 OCA  SZ I        1659  8.46        14.6 0.31                           165 352 
 ZAR  HN ES   1   1659 15.38                             121   -0.42 6  210 293 
                                                                                
