 2013  3 9 1826 27.1 L   6.784 -73.161143.5  RSN  6 0.4 1.7LRSN                1
 GAP=135        0.75       4.8     4.2  6.7 -0.4613E-01  0.5641E+01 -0.1650E+01E
 Epicentro: LOS SANTOS - SANTANDER                                             3
 ACTION:UPD 13-04-09 14:01 OP:ep   STATUS:               ID:20130309182627 L   I
 2013-03-09-1820-00M.COL___231                                                 6
 STAT SP IPHASW D HRMM SECON CODA AMPLIT PERI AZIMU VELO AIN AR TRES W  DIS CAZ7
 BAR2 SZ ES   1   1827  1.30                             171   -0.14 7 21.3 186 
 BAR2 SZ I        1827  2.31        12.9 0.24            171           21.3 186 
 BRR  HZ EP       1826 47.95                             152    0.0310 70.6 300 
 BRR  HE ES   1   1827  5.05                             152    0.85 7 70.6 300 
 BRR  HE I        1827  8.00        17.4 0.17            148           70.6 300 
 PAM  SZ EP       1826 49.13                             150   -0.0510 79.9  40 
 PAM  SZ I        1826 49.45        13.0 0.20            151           79.9  40 
 PAM  SN ES   1   1827  6.14                             150   -0.30 7 79.9  40 
 RUS  HZ EP   1   1826 50.66                             144    0.20 7 98.9 175 
 RUS  HN ES   1   1827  8.60                             144   -0.12 7 98.9 175 
 RUS  HN I        1827  9.54         4.7 0.31            148           98.9 175 
 PTB  HZ EP       1826 53.84                             132    0.19 9  146 259 
 PTB  HN ES   1   1827 13.93                             132   -0.47 7  146 259 
 PTB  HZ I        1827 16.47         3.5 0.21            131            146 259 
 ZAR  HN ES   1   1827 23.90                             122   -0.48 6  203 293 
 ZAR  HZ I        1827 33.08         3.6 0.18            121            203 293 
                                                                                
