 2011  9 9 1334 40.4 L   6.829 -73.056155.0  RSN  4 0.2 1.4LRSN                1
 GAP=210        0.44       8.1    14.8  7.9  0.1022E+03 -0.7740E+02 -0.3795E+02E
 Epicentro: LOS SANTOS - SANTANDER                                             3
 ACTION:UPD 12-07-13 15:56 OP:ep   STATUS:               ID:20110909133440 L   I
 2011-09-09-1331-29S.COL___169                                                 6
 STAT SP IPHASW D HRMM SECON CODA AMPLIT PERI AZIMU VELO AIN AR TRES W  DIS CAZ7
 BAR2 SZ EP   1   1335  0.92                             169   -0.38 7 29.7 208 
 BAR2 SZ ES   2   1335 17.76                             169    0.18 5 29.7 208 
 BAR2 SZ I        1335 19.69         4.3 0.31                          29.7 208 
 GIR2 SZ EP   2   1335  1.44                             168    0.24 5 31.5 331 
 BRR  HZ EP   1   1335  3.04                             152    0.05 7 78.7 293 
 BRR  HZ I        1335  4.58        13.2 0.41                          78.7 293 
 BRR  HE ES   1   1335 20.58                             152   -0.02 7 78.7 293 
 RUS  HZ EP   1   1335  5.50                             145    0.20 7  104 182 
 RUS  HZ I        1335  5.89         1.5 0.20                           104 182 
 RUS  HE ES   1   1335 24.66                             145   -0.05 7  104 182 
                                                                                
