 2017  4 9 1334 35.1 L   6.774 -73.163143.1  RSN 11 0.5 1.8LRSN                1
 GAP=136        1.25       4.8     5.8  7.6  0.1280E+00 -0.1496E+00  0.5891E+01E
 Epicentro: LOS SANTOS - SANTANDER                                             3
 ACTION:UPD 17-05-30 21:10 OP:jn   STATUS:               ID:20170409133435 L   I
 OLDACT:UP  17-04-09 23:53 OP:edw  STATUS:               ID:20170409132751d    3
 OLDACT:UP  17-04-09 23:50 OP:edw  STATUS:               ID:20170409132751d    3
 OLDACT:DUP 17-04-09 23:47 OP:edw  STATUS:               ID:20170409132751d    3
 2017-04-09-1328-00M.COL___377                                                 6
 STAT SP IPHASW D HRMM SECON CODA AMPLIT PERI AZIMU VELO AIN AR TRES W  DIS CAZ7
 BAR2 EZ EP       1334 54.24                             172   -0.1310 20.2 186 
 BAR2 EZ ES       1335  9.33                             172   -0.0510 20.2 186 
 BAR2 EZ I        1335 12.00        14.2 0.28            170           20.2 186 
 BRR  HZ EP       1334 55.88                             152   -0.0910 71.0 301 
 BRR  HN ES       1335 13.13                             152    0.9010 71.0 301 
 BRR  HZ I        1335 16.98        15.4 0.32            150           71.0 301 
 PAM  EZ IP     D 1334 57.12                             149   -0.1510 80.8  39 
 PAM  EZ ES   4 D 1335 11.43                             149   -3.11 0 80.8  39 
 PAM  EZ I        1335 17.21         7.9 0.56            152           80.8  39 
 RUS  HZ EP       1334 58.02                             144   -0.4010 97.9 175 
 RUS  HN ES       1335 16.77                             144    0.1910 97.9 175 
 RUS  HZ I        1335 18.07        13.8 0.34            144           97.9 175 
 PTB  HZ EP   9   1335  1.05                             132   -0.61 0  145 260 
 PTB  HN ES       1335 20.47                             131   -1.27 9  145 260 
 SPBC HN ES       1335 24.39                             129   -0.52 9  160 219 
 ZAR  HZ EP   4   1335  9.60                             122    2.27 0  203 293 
 ZAR  HN ES       1335 31.87                             122   -0.58 9  203 293 
 ZAR  HZ I        1335 37.96         5.7 0.38            121            203 293 
 NOR  HZ EP   2   1335  9.45                             118   -0.90 4  231 235 
 NOR  HN ES       1335 38.24                             118    0.41 8  231 235 
 NOR  HZ I        1335 43.79         3.2 0.36            118            231 235 
 CHI  HZ EP       1335 12.38                             117    0.06 8  245 195 
 CHI  HN ES       1335 41.57                             117    0.24 8  245 195 
 CHI  HZ I        1335 47.41         2.1 0.30            117            245 195 
 PRA  HZ EP   4   1335 26.69                             106   -1.46 0  389 210 
 PRA  HE ES   4   1336  7.36                             106   -2.15 0  389 210 
 PRA  HZ I        1336 16.39         2.8 0.40            106            389 210 
 ORTC HZ EP       1335 29.13                             106    0.58 6  392 216 
 ORTC HN ES   2   1336 11.24                             106    1.02 3  392 216 
 ORTC HZ I        1336 18.03         1.4 0.38            106            392 216 
                                                                                
