 2015  4 9 1354 25.5 L   6.823 -73.151144.2  RSN  9 0.5 2.3LRSN                1
 GAP=135        1.28       4.4     5.1  7.3 -0.2330E+01  0.1344E+02 -0.1286E+01E
 Epicentro: LOS SANTOS - SANTANDER                                             3
 ACTION:UPD 15-06-03 16:53 OP:cam  STATUS:               ID:20150409135425 L   I
 OLDACT:DUP 15-04-09 22:11 OP:carl STATUS:               ID:20150409134749d    3
 2015-04-09-1347-48M.COL___269                                                 6
 STAT SP IPHASW D HRMM SECON CODA AMPLIT PERI AZIMU VELO AIN AR TRES W  DIS CAZ7
 BAR2 EZ EP       1354 44.88                             169   -0.1310 25.7 188 
 BAR2 EZ ES       1354 59.81                             169   -0.4010 25.7 188 
 BAR2 EZ I        1355  1.38        41.1 0.34            169           25.7 188 
 BRR  HZ EP       1354 46.77                             153    0.3710 69.5 297 
 BRR  HN ES       1355  3.76                             153    1.0710 69.5 297 
 BRR  HZ I        1355  7.69        34.7 0.46            151           69.5 297 
 PAM  SZ EP       1354 47.89                             151    0.4210 75.8  41 
 PAM  SN ES       1355  4.36                             151   -0.2310 75.8  41 
 PAM  SZ I        1355  7.03        45.8 0.52            155           75.8  41 
 RUS  HZ EP       1354 49.23                             143   -0.0710  103 176 
 RUS  HN ES       1355  7.94                             143    0.0910  103 176 
 RUS  HZ I        1355  8.67        14.8 0.26            147            103 176 
 PTB  HZ EP       1354 51.86                             132   -0.49 9  148 258 
 PTB  HN ES       1355 12.59                             132   -0.69 9  148 258 
 PTB  HZ I        1355 19.85        17.3 0.18            132            148 258 
 ZAR  HZ EP       1354 58.36                             122    0.66 9  203 292 
 ZAR  HN ES       1355 22.56                             122   -0.25 9  203 292 
 ZAR  HZ I        1355 29.61        19.3 0.36            123            203 292 
 NOR  HZ EP       1355  0.86                             118   -0.40 8  236 234 
 NOR  HN ES       1355 28.58                             118   -0.56 8  236 234 
 NOR  HZ I        1355 34.27        12.3 0.16            120            236 234 
 SML  HZ EP       1355  1.15                             117   -0.63 8  241 335 
 SML  HN ES       1355 29.75                             117   -0.31 8  241 335 
 SML  HZ I        1355 32.02        26.5 0.24            119            241 335 
 GUY2CHZ EP       1355  9.88                             112    0.72 7  302 234 
 GUY2CHN ES       1355 44.12                             112    0.91 7  302 234 
 GUY2CHZ I        1355 51.19         9.3 0.34                           302 234 
                                                                                
