 2011  9 9 1448 30.5 L   6.785 -73.123137.2  RSN  5 0.2 1.5LRSN                1
 GAP=140        0.53       3.5     4.6  5.2  0.1877E+01 -0.2923E+01  0.5612E+00E
 Epicentro: LOS SANTOS - SANTANDER                                             3
 ACTION:UPD 12-07-13 15:56 OP:ep   STATUS:               ID:20110909144830 L   I
 2011-09-09-1440-00M.COL___171                                                 6
 STAT SP IPHASW D HRMM SECON CODA AMPLIT PERI AZIMU VELO AIN AR TRES W  DIS CAZ7
 BAR2 SZ EP       1448 49.09                             170   -0.0110 22.3 197 
 BAR2 SZ ES   1   1449  3.43                             170   -0.17 7 22.3 197 
 BAR2 SZ I        1449  5.59         8.3 0.31                          22.3 197 
 GIR2 SZ EP   1   1448 49.17                             166   -0.07 7 33.3 347 
 BRR  HZ EP       1448 50.65                             150   -0.2810 74.2 299 
 BRR  HE ES       1449  7.05                             150    0.2010 74.2 299 
 BRR  HZ I        1449 24.99        22.2 0.49                          74.2 299 
 PAM  SZ EP   1   1448 51.81                             149   -0.01 7 77.1  37 
 PAM  SZ I        1448 52.14         3.4 0.19                          77.1  37 
 PAM  SE ES   1   1449  8.50                             149    0.08 7 77.1  37 
 RUS  HZ EP   1   1448 53.81                             142    0.50 7 98.8 177 
 RUS  HE ES   1   1449 10.92                             142   -0.17 7 98.8 177 
 RUS  HZ I        1449 12.60         3.2 0.16                          98.8 177 
                                                                                
