 2013  2 9 1356  0.3 L   6.776 -73.157147.1  RSN  5 0.2 1.5LRSN                1
 GAP=136        0.52       3.7     3.7  5.6 -0.1261E+01 -0.4941E+00  0.7979E+00E
 Epicentro: LOS SANTOS - SANTANDER                                             3
 ACTION:UPD 13-03-12 09:31 OP:ep   STATUS:               ID:20130209135600 L   I
 2013-02-09-1350-00M.COL___240                                                 6
 STAT SP IPHASW D HRMM SECON CODA AMPLIT PERI AZIMU VELO AIN AR TRES W  DIS CAZ7
 BAR2 SZ EP   1   1356 19.99                             172   -0.06 7 20.5 188 
 BAR2 SZ ES   1   1356 35.44                             172    0.00 7 20.5 188 
 BAR2 SZ I        1356 37.41         9.3 0.18            173           20.5 188 
 BRR  HZ EP   1   1356 21.73                             153    0.11 7 71.5 301 
 BRR  HN ES   1   1356 38.68                             153    0.44 7 71.5 301 
 BRR  HZ I        1356 43.03         8.1 0.14            153           71.5 301 
 PAM  SZ EP   1   1356 22.90                             150    0.06 7 80.2  39 
 PAM  SN ES   1   1356 40.09                             150   -0.32 7 80.2  39 
 RUS  HZ EP   1   1356 24.10                             145    0.08 7 98.0 175 
 RUS  HN ES   1   1356 42.57                             145    0.07 7 98.0 175 
 RUS  HZ I        1356 43.98         3.0 0.22            149           98.0 175 
 PTB  HN ES   1   1356 47.80                             133   -0.44 7  146 260 
 PTB  HZ I        1356 49.27         3.4 0.28            135            146 260 
                                                                                
