 2016 12 9 1123 15.4 L   6.800 -73.126145.6  RSN  8 0.4 1.9LRSN                1
 GAP=139        1.06       5.3     5.6  6.9  0.5447E+01  0.1496E+02  0.3445E+01E
 Epicentro: LOS SANTOS - SANTANDER                                             3
 ACTION:UPD 17-01-11 20:13 OP:rebc STATUS:               ID:20161209112315 L   I
 OLDACT:UP  16-12-09 22:57 OP:ar   STATUS:               ID:20161209111744     3
 OLDACT:REG 16-12-09 20:29 OP:ar   STATUS:               ID:20161209111744     3
 2016-12-09-1118-00M.COL___352                                                 6
 STAT SP IPHASW D HRMM SECON CODA AMPLIT PERI AZIMU VELO AIN AR TRES W  DIS CAZ7
 BAR2 EZ IP     C 1123 34.88                             170   -0.1310 23.8 195 
 BAR2 EZ ES       1123 50.07                             170   -0.2410 23.8 195 
 BAR2 EZ I        1123 50.98        19.7 0.34            169           23.8 195 
 BRR  HZ EP       1123 36.75                             152    0.1210 73.1 298 
 BRR  HN ES       1123 53.64                             152    0.4510 73.1 298 
 BRR  HZ I        1123 56.71        18.1 0.32            149           73.1 298 
 PAM  EZ EP       1123 37.83                             151    0.3210 76.0  38 
 PAM  EN ES       1123 54.51                             151   -0.2510 76.0  38 
 PAM  EZ I        1123 56.63        11.4 0.52            154           76.0  38 
 RUS  HZ EP       1123 38.83                             144   -0.2810  100 177 
 RUS  HN ES       1123 57.98                             144    0.3610  100 177 
 RUS  HZ I        1123 58.34         5.9 0.30            146            100 177 
 PTB  HZ EP       1123 41.61                             131   -0.92 9  150 259 
 PTB  HN ES   4   1124  2.16                             131   -1.55 0  150 259 
 PTB  HZ I        1124  7.12         9.4 0.12            131            150 259 
 ZAR  HZ EP       1123 48.58                             122    0.55 8  206 292 
 ZAR  HN ES       1124 13.17                             122   -0.32 8  206 292 
 ZAR  HZ I        1124 19.61        10.4 0.36            122            206 292 
 GUY2CHZ EP       1123 59.76                             112    0.57 7  303 235 
 GUY2CHN ES   4   1124 34.53                             112    1.18 0  303 235 
 GUY2CHZ I        1124 39.91         5.1 0.32                           303 235 
 PRA  HZ EP   4   1124  7.15                             106   -1.88 0  393 210 
 PRA  HN ES   4   1124 47.96                             106   -2.90 0  393 210 
 PRA  HZ I        1124 54.61         3.8 0.32            107            393 210 
                                                                                
