 2017  5 9 1523 11.2 L   6.874 -73.355114.3  RSN  9 0.5 1.6LRSN                1
 GAP=111        1.29       4.9     5.1  8.2 -0.6107E+01  0.1025E+00  0.1203E+02E
 Epicentro: SAN VICENTE DE CHUCURI - SANTANDER                                 3
 ACTION:UPD 17-06-16 13:34 OP:jn   STATUS:               ID:20170509152311 L   I
 OLDACT:UP  17-05-09 23:09 OP:edw  STATUS:               ID:20170509151743     3
 OLDACT:UP  17-05-09 23:09 OP:edw  STATUS:               ID:20170509151743     3
 OLDACT:REG 17-05-09 20:26 OP:edw  STATUS:               ID:20170509151743     3
 2017-05-09-1518-00M.COL___368                                                 6
 STAT SP IPHASW D HRMM SECON CODA AMPLIT PERI AZIMU VELO AIN AR TRES W  DIS CAZ7
 BRR  HZ EP       1523 27.92                             156    0.2610 47.1 303 
 BRR  HE ES       1523 39.53                             156   -0.9310 47.1 303 
 BRR  HZ I        1523 42.73        12.6 0.18            155           47.1 303 
 PAM  EZ EP     D 1523 31.07                             139   -0.0210 88.8  55 
 PAM  EN ES       1523 47.36                             139    0.7910 88.8  55 
 PAM  EZ I        1523 49.29         8.6 0.22            143           88.8  55 
 RUS  HZ EP       1523 32.54                             132   -0.5610  113 164 
 RUS  HN ES       1523 50.24                             132    0.0810  113 164 
 RUS  HZ I        1523 52.89         9.1 0.34            135            113 164 
 PTB  HZ EP   9   1523 33.25                             128   -0.57 0  127 253 
 PTB  HN ES       1523 50.22                             129   -0.6410  127 253 
 PTB  HZ I        1523 54.61         8.4 0.32            129            127 253 
 SPBC HN ES       1523 57.20                             122    0.35 9  157 210 
 ZAR  HZ EP       1523 39.49                             117    0.32 9  180 292 
 ZAR  HN ES   4   1524  2.65                             117    1.70 0  180 292 
 ZAR  HZ I        1524  4.20         6.6 0.26            119            180 292 
 YPLC HZ EP       1523 40.53                             115   -0.50 9  196 147 
 YPLC HN ES   4   1524  1.73                             115   -2.53 0  196 147 
 NOR  HZ EP       1523 43.62                             112   -0.25 8  222 229 
 NOR  HN ES       1524  9.97                             112    0.65 8  222 229 
 NOR  HZ I        1524 14.98         3.2 0.24            114            222 229 
 CHI  HZ EP       1523 47.59                             109   -0.17 8  252 190 
 CHI  HE ES   4   1524 17.70                             109    1.46 0  252 190 
 SJC  HZ EP   4   1524  1.76                             100   -1.88 0  390 329 
 SJC  HN ES   4   1524 41.00                             100   -3.51 0  390 329 
                                                                                
