 2016 10 9 1805 48.2 L   6.815 -73.150140.1  RSN 18 0.4 2.8LRSN                1
 GAP= 70        0.98       2.6     2.8  5.1 -0.1197E+01  0.5120E+01 -0.1309E+01E
 Epicentro: LOS SANTOS - SANTANDER                                             3
 ACTION:UPD 16-11-09 19:18 OP:rebc STATUS:               ID:20161009180548 L   I
 OLDACT:REG 16-10-09 20:33 OP:lv   STATUS:               ID:20161009175743     3
 2016-10-09-1758-00M.COL___354                                                 6
 STAT SP IPHASW D HRMM SECON CODA AMPLIT PERI AZIMU VELO AIN AR TRES W  DIS CAZ7
 BAR2 EZ IP     C 18 6  7.08                             169   -0.1210 24.9 188 
 BAR2 EZ ES       18 6 21.97                             169   -0.0410 24.9 188 
 BAR2 EZ I        18 6 23.14       245.7 0.18            167           24.9 188 
 PAM  EZ EP       18 6  9.94                             150    0.1610 76.4  41 
 PAM  EN ES       18 6 26.90                             150    0.3110 76.4  41 
 PAM  EZ I        18 6 29.79        82.0 0.24            154           76.4  41 
 RUS  HZ EP       18 6 11.58                             142    0.0310  102 176 
 RUS  HE ES       18 6 29.57                             142   -0.1710  102 176 
 RUS  HZ I        18 6 30.67        56.0 0.34            142            102 176 
 PTB  HZ EP       18 6 14.25                             131   -0.47 9  148 258 
 PTB  HE ES       18 6 35.48                             131    0.10 9  148 258 
 PTB  HZ I        18 6 36.47        80.5 0.36            129            148 258 
 TAM  HZ EP       18 6 15.45                             129   -0.09 9  156 106 
 TAM  HN ES       18 6 37.16                             129    0.31 9  156 106 
 OCA  HZ EP       18 6 15.39                             129   -0.54 9  159 353 
 OCA  HN ES       18 6 37.02                             129   -0.52 9  159 353 
 OCA  HZ I        18 6 40.47       178.5 0.22            130            159 353 
 SPBC HZ EP       18 6 16.19                             127   -0.20 9  164 218 
 SPBC HE ES       18 6 38.51                             127    0.15 9  164 218 
 SPBC HZ I        18 6 44.97        90.9 0.24            127            164 218 
 ZAR  HZ EP       18 6 21.16                             121    0.97 9  203 292 
 ZAR  HE ES       18 6 45.93                             121    0.81 9  203 292 
 ZAR  HZ I        18 6 51.76        89.8 0.32            121            203 292 
 CHI  HN ES       18 6 54.75                             116   -0.32 8  250 195 
 CHI  HZ I        18 7  1.97        17.2 0.44            116            250 195 
 ROSC BZ EP   9   18 6 28.68                             115    2.51 0  254 211 
 ROSC BN ES       18 6 57.66                                   -0.62 8  254 211 
 ROSC BZ I        18 7  2.71        43.6 0.40            115            254 211 
 HEL  HZ EP   4   18 6 29.94                             114    1.80 0  272 255 
 HEL  HN ES       18 6 58.92                             114   -0.36 8  272 255 
 HEL  HZ I        18 7  6.97        28.7 0.35            113            272 255 
 URE  HZ EP       18 6 28.09                             112   -0.81 7  283 292 
 URE  HN ES   4   18 6 59.11                             112   -1.51 0  283 292 
 URE  HZ I        18 7  3.27        51.7 0.12            113            283 292 
 PTGC HZ EP   4   18 6 30.48                             110   -1.55 0  310 159 
 PTGC HE ES   4   18 7  3.48                             110   -2.72 0  310 159 
 LL6C HZ EP   4   18 6 31.28                             109   -2.21 0  323 358 
 LL6C HE ES       18 7  8.53                             109   -0.27 7  323 358 
 CBOC HZ EP       18 6 35.70                             109    0.79 7  334 252 
 CBOC HE ES       18 7 11.07                             109   -0.26 7  334 252 
 CBOC HZ I        18 7 22.80        14.6 0.48            109            334 252 
 DBB  HZ EP       18 6 35.79                             108    0.39 7  339 274 
 DBB  HN ES   4   18 7 10.87                             108   -1.33 0  339 274 
 ANIL HN ES   4   18 7 18.35                             107    1.68 0  358 224 
 PRA  HZ EP       18 6 42.25                             105    0.56 6  393 209 
 PRA  HN ES   4   18 7 22.53                             105   -0.87 0  393 209 
 PRA  HZ I        18 7 30.10        18.5 0.38            106            393 209 
 PAL  HZ EP       18 6 43.24                             105   -0.01 6  406 239 
 PAL  HN ES       18 7 26.10                             105   -0.07 6  406 239 
 PAL  HZ I        18 7 33.80        10.1 0.39            105            406 239 
 SJC  HZ EP   4   18 6 41.82                             105   -1.58 0  408 327 
 SJC  HN ES   4   18 7 23.52                             105   -2.92 0  408 327 
 SJC  HZ I        18 7 26.93         9.1 0.26            105            408 327 
                                                                                
