 2014  8 9 1920 42.2 L   6.743 -73.130148.6  RSN  6 0.4 1.8LRSN                1
 GAP=235        0.96       5.6     5.4  7.0  0.1107E+02  0.8984E+01 -0.1459E+01E
 Epicentro: LOS SANTOS - SANTANDER                                             3
 ACTION:UPD 14-09-15 21:48 OP:nd   STATUS:               ID:20140809192042 L   I
 OLDACT:REG 14-08-09 21:18 OP:y    STATUS:               ID:20140809191814     3
 2014-08-09-1918-14M.COL___266                                                 6
 STAT SP IPHASW D HRMM SECON CODA AMPLIT PERI AZIMU VELO AIN AR TRES W  DIS CAZ7
 BAR2 SZ EP       1921  1.94                             173   -0.0810 17.6 199 
 BAR2 SZ ES       1921 17.51                             173   -0.0110 17.6 199 
 BAR2 SZ I        1921 18.24        13.0 0.22            166           17.6 199 
 BRR  HZ EP       1921  3.91                             152    0.0410 75.9 302 
 BRR  HN ES       1921 20.76                             152   -0.0510 75.9 302 
 BRR  HZ I        1921 23.55        17.7 0.50            148           75.9 302 
 RUS  HZ EP       1921  5.81                             146    0.0810 94.1 177 
 RUS  HN ES       1921 24.38                             146    0.2510 94.1 177 
 RUS  HZ I        1921 25.96         6.5 0.24            145           94.1 177 
 PTB  HZ EP       1921  9.20                             133   -0.20 9  148 261 
 PTB  HN ES       1921 29.81                             133   -0.85 9  148 261 
 PTB  HZ I        1921 35.71         9.2 0.12            130            148 261 
 ZAR  HZ EP       1921 14.97                             122   -0.23 8  208 294 
 ZAR  HN ES       1921 41.81                             122    0.84 8  208 294 
 ZAR  HZ I        1921 46.01         5.9 0.34            122            208 294 
 NOR  HN ES       1921 46.01                             119    0.39 8  232 236 
 NOR  HZ I        1921 52.66         7.5 0.24            118            232 236 
                                                                                
