 2017 11 9 1117 41.9 L   6.707 -73.116144.9  RSN  5 0.3 1.8LRSN                1
 GAP=177        0.64       6.2     3.6  4.8 -0.4517E+01  0.6236E+01 -0.1685E+01E
 Epicentro: JORDAN - SANTANDER                                                 3
 ACTION:UPD 17-12-12 19:53 OP:rebc STATUS:               ID:20171109111741 L   I
 OLDACT:UP  17-11-09 23:24 OP:mg   STATUS:               ID:20171109110741d    3
 OLDACT:UP  17-11-09 23:24 OP:mg   STATUS:               ID:20171109110741d    3
 OLDACT:DUP 17-11-09 23:19 OP:mg   STATUS:               ID:20171109110741d    3
 OLDACT:UP  17-11-09 23:13 OP:mg   STATUS:               ID:20171109110739     3
 OLDACT:REG 17-11-09 20:07 OP:mg   STATUS:               ID:20171109110739     3
 2017-11-09-1108-00M.COL___437                                                 6
 STAT SP IPHASW D HRMM SECON CODA AMPLIT PERI AZIMU VELO AIN AR TRES W  DIS CAZ7
 BAR2 EZ ES       1118 16.51                             174    0.1310 14.7 210 
 BAR2 EZ I        1118 18.64        10.2 0.08            173           14.7 210 
 BRR  HZ EP       1118  3.68                             150    0.2710 79.4 304 
 BRR  HN ES       1118 20.38                             150    0.1710 79.4 304 
 BRR  HZ I        1118 22.18        13.0 0.15            148           79.4 304 
 PAM  EZ EP       1118  4.62                             149    0.2310 83.7  33 
 PAM  EN ES       1118 21.51                             149   -0.4410 83.7  33 
 PAM  EZ I        1118 23.94        13.3 0.58            150           83.7  33 
 PTB  HZ EP       1118  8.63                             131   -0.29 9  149 263 
 PTB  HN ES   2   1118 29.63                             131   -0.39 5  149 263 
 PTB  HZ I        1118 32.25         6.1 0.12            132            149 263 
 ZAR  HZ EP       1118 14.96                             121   -0.04 8  211 294 
 ZAR  HN ES       1118 40.84                             121    0.00 8  211 294 
 ZAR  HZ I        1118 46.67         7.5 0.32            122            211 294 
                                                                                
