 2010  6 9 1158 23.3 L   6.800 -73.200135.8  RSN  5 0.3 1.5LRSN                1
 GAP=186        0.50       4.8    27.1  9.3 -0.9774E+02  0.5697E+02 -0.1590E+02E
 Epicentro: ZAPATOCA - SANTANDER                                               3
 ACTION:UP  10-08-24 10:09 OP:vdl  STATUS:               ID:20100609115823 L   I
 2010-06-09-1155-41S.COL___111                                                 6
 STAT SP IPHASW D HRMM SECON CODA AMPLIT PERI AZIMU VELO SNR AR TRES W  DIS CAZ7
 BAR2 SZ EP       1158 41.98                             170     0.210   23 175 
 BAR2 SZ ES   3   1158 56.07                             170    -0.1 2   23 175 
 GIR2 SZ EP   3   1158 41.22                             167    -0.6 2   31   1 
 RUS  HZ EP       1158 45.91                             141    -0.310  101 173 
 RUS  HN ES   2   1159  4.22                             141     0.2 5  101 173 
 RUS  HZ I        1159  5.91         5.6 0.26                           101 173 
 GUE  SZ EP       1158 47.22                             137    -0.110  118  15 
 GUE  SZ ES   3   1159  6.14                             137     0.2 2  118  15 
 GRA  SZ EP       1158 48.10                             134     0.210  128  20 
 GRA  SZ ES   2   1159  6.63                             134    -0.4 5  128  20 
                                                                                
