 2011  1 9 1311 55.6 L   6.836 -73.144138.2  RSN 10 0.3 2.0LRSN                1
 GAP=158        0.57       2.5     5.2  5.4 -0.5505E+01  0.1223E+02  0.1172E+00E
 Epicentro: LOS SANTOS - SANTANDER                                             3
 ACTION:UP  11-02-08 08:39 OP:pat  STATUS:               ID:20110109131155 L   I
 2011-01-09-1300-00M.COL___136                                                 6
 STAT SP IPHASW D HRMM SECON CODA AMPLIT PERI AZIMU VELO SNR AR TRES W  DIS CAZ7
 BTL  SZ EP       1312 14.51                             173     0.310   16 304 
 BAR2 SZ EP   1   1312 14.23                             168    -0.2 7   27 189 
 BAR2 SZ ES   1   1312 29.00                             168    -0.1 7   27 189 
 BAR2 SZ I        1312 30.96        18.6 0.23                            27 189 
 RUS  HZ EP   1   1312 18.54                             141    -0.3 7  105 176 
 RUS  HE ES   2   1312 36.97                             141    -0.1 5  105 176 
 RUS  HZ I        1312 39.02         9.5 0.22                           105 176 
 GRA  SZ EP   1   1312 19.62                             136    -0.2 7  122  18 
 GRA  SZ ES   1   1312 38.82                             136     0.1 7  122  18 
 GRA  SZ I        1312 41.61        19.3 0.23                           122  18 
 OCA  SZ EP   1   1312 22.80                             129    -0.1 7  156 353 
 OCA  SZ ES   1   1312 44.28                             129     0.0 7  156 353 
 OCA  SZ I        1312 48.83        11.3 0.30                           156 353 
 NOR  SZ EP   1   1312 30.75                             117    -0.4 6  237 234 
 NOR  SN ES   2   1312 58.51                             117    -0.4 4  237 234 
 CHI  HZ EP   1   1312 33.13                             115    -0.2 6  253 195 
 CHI  HE ES   1   1313  3.17                             115     0.5 6  253 195 
 CHI  HZ I        1313  6.85         5.6 0.60                           253 195 
 HEL  HZ EP   1   1312 36.13                             113     0.6 6  273 255 
 HEL  HE ES   2   1313  6.39                             113    -0.3 4  273 255 
 HEL  HZ I        1313 13.70         7.8 0.47                           273 255 
 RREF HZ EP   2   1312 41.97                             109     0.3 3  325 229 
 RREF HE ES   2   1313 18.05                             109     0.3 3  325 229 
 RREF HZ I        1313 25.52         4.6 0.18                           325 229 
 PRA  HZ EP   2   1312 49.30                             105     0.0 3  396 209 
 PRA  HN ES   2   1313 31.22                             105     0.1 3  396 209 
                                                                                
