 2010  5 9 1414 19.4 L   6.825 -72.995137.3  RSN  5 0.4 1.5LRSN                1
 GAP=173        0.75       6.5    13.2 13.4  0.1493E+02 -0.8936E+02 -0.3554E+02E
 Epicentro: CEPITA - SANTANDER                                                 3
 ACTION:UP  10-08-24 10:03 OP:vdl  STATUS:               ID:20100509141419 L   I
 2010-05-09-1411-08S.COL___105                                                 6
 STAT SP IPHASW D HRMM SECON CODA AMPLIT PERI AZIMU VELO SNR AR TRES W  DIS CAZ7
 BAR2 SZ EP   1   1414 38.06                             166    -0.2 7   33 219 
 BAR2 SZ ES   2   1414 52.69                             166    -0.3 5   33 219 
 BRR  HZ EP   1   1414 40.48                             146     0.0 7   85 292 
 BRR  HZ I        1414 40.77        13.8 0.16                            85 292 
 BRR  HN ES   2   1414 57.25                             146     0.2 5   85 292 
 BRI  SZ EP   1   1414 42.56                             142     0.7 7  101  13 
 RUS  HZ EP   1   1414 42.62                             141     0.1 7  104 185 
 RUS  HN ES   2   1415  0.77                             141     0.2 5  104 185 
 RUS  HZ I        1415  2.29         3.0 0.30                           104 185 
 GUE  SZ EP   1   1414 42.36                             139    -0.6 7  111   4 
                                                                                
