 2017  1 9 1240 53.5 L   6.772 -73.156144.0  RSN 11 0.4 2.1LRSN                1
 GAP=137        0.90       3.6     4.0  5.2 -0.2537E+01  0.4853E+01  0.5878E+01E
 Epicentro: LOS SANTOS - SANTANDER                                             3
 ACTION:UPD 17-05-22 15:57 OP:jn   STATUS:               ID:20170109124053 L   I
 OLDACT:UP  17-01-09 21:58 OP:ar   STATUS:               ID:20170109123745     3
 OLDACT:UP  17-01-09 21:56 OP:ar   STATUS:               ID:20170109123745     3
 OLDACT:REG 17-01-09 17:44 OP:ar   STATUS:               ID:20170109123745     3
 2017-01-09-1238-00M.COL___350                                                 6
 STAT SP IPHASW D HRMM SECON CODA AMPLIT PERI AZIMU VELO AIN AR TRES W  DIS CAZ7
 BAR2 EZ EP       1241 12.84                             172    0.0210 20.1 188 
 BAR2 EZ ES       1241 28.14                             172    0.2210 20.1 188 
 BAR2 EZ I        1241 29.17        44.5 0.26            168           20.1 188 
 BRR  HZ EP       1241 14.40                             152   -0.0510 71.8 301 
 BRR  HN ES       1241 31.54                             152    0.7110 71.8 301 
 BRR  HZ I        1241 35.53        27.2 0.32            149           71.8 301 
 PAM  EZ EP       1241 15.66                             150   -0.0210 80.5  39 
 PAM  EE ES       1241 32.66                             150   -0.3510 80.5  39 
 PAM  EZ I        1241 34.85        18.8 0.56            156           80.5  39 
 RUS  HZ EP       1241 16.65                             144   -0.1710 97.6 175 
 RUS  HN ES       1241 35.30                             144    0.2510 97.6 175 
 RUS  HZ I        1241 36.80         8.7 0.22            145           97.6 175 
 PTB  HZ EP       1241 19.61                             132   -0.52 9  146 260 
 PTB  HN ES       1241 40.38                             132   -0.56 9  146 260 
 PTB  HZ I        1241 47.67        11.8 0.14            131            146 260 
 ZAR  HZ EP   4   1241 28.25                             122    2.44 0  204 293 
 ZAR  HN ES   2   1241 50.71                             122   -0.33 4  204 293 
 ZAR  HZ I        1241 55.88        14.1 0.28            122            204 293 
 NOR  HZ EP       1241 28.99                             119    0.19 8  232 235 
 NOR  HN ES       1241 56.22                             119   -0.14 8  232 235 
 NOR  HZ I        1242  6.04         8.8 0.44            119            232 235 
 CHI  HZ EP       1241 30.75                             117    0.04 8  245 195 
 CHI  HE ES       1241 59.22                             117   -0.54 8  245 195 
 CHI  HZ I        1242  3.99         8.0 0.50            119            245 195 
 ROSC BZ EP   9   1241 33.15                             117    2.02 0  250 211 
 ROSC BN ES   2   1242  2.35                             116   -0.18 4  250 211 
 ROSC BZ I        1242  7.12        18.8 0.40            118            250 211 
 GUY2CHZ EP       1241 37.62                             112    0.93 7  298 235 
 GUY2CHN ES   4   1242 14.88                             112    4.48 0  298 235 
 GUY2CHZ  IAML    1242 18.92         6.9 0.34                           298 235 
 ORTC HZ EP       1241 47.06                             106    0.11 6  392 216 
 ORTC HN ES       1242 29.10                             106    0.43 6  392 216 
 ORTC HZ I        1242 34.07         4.2 0.24            107            392 216 
                                                                                
