 2014  5 9 1024 48.5 L   6.785 -73.143150.0  RSN  7 0.4 1.5LRSN                1
 GAP=138        0.80       3.4     3.9  7.6 -0.1675E+01  0.6399E+01 -0.6254E+01E
 Epicentro: LOS SANTOS - SANTANDER                                             3
 ACTION:UPD 15-03-16 16:56 OP:nd   STATUS:               ID:20140509102448 L   I
 OLDACT:DUP 14-05-09 22:20 OP:mh   STATUS:               ID:20140509101819d    3
 2014-05-09-1018-18M.COL___242                                                 6
 STAT SP IPHASW D HRMM SECON CODA AMPLIT PERI AZIMU VELO AIN AR TRES W  DIS CAZ7
 PAM  SZ EP   1   1025 11.68                             151    0.47 7 78.5  39 
 PAM  SN ES   1   1025 28.87                             151   -0.07 7 78.5  39 
 PAM  SZ I        1025 31.15         3.5 0.37            156           78.5  39 
 RUS  HZ EP       1025 12.79                             145    0.2710 98.9 176 
 RUS  HN ES   1   1025 30.98                             145   -0.30 7 98.9 176 
 PTB  HZ EP       1025 15.27                             133   -0.51 9  148 259 
 PTB  HN ES       1025 36.88                             133   -0.20 9  148 259 
 PTB  HZ I        1025 42.96         3.3 0.17            135            148 259 
 SPBC HZ EP   1   1025 16.50                             130   -0.69 7  162 219 
 SPBC HN ES   1   1025 39.75                             130    0.16 7  162 219 
 SPBC HZ I        1025 47.35         5.8 0.19            134            162 219 
 ZAR  HZ EP       1025 21.24                             123   -0.05 9  205 293 
 ZAR  HN ES       1025 46.93                             123    0.05 9  205 293 
 ZAR  HZ I        1025 53.80         3.7 0.44            126            205 293 
 NOR  HN ES       1025 53.08                             119    0.71 8  234 235 
 SML  HZ EP       1025 25.60                             118    0.08 8  245 335 
 SML  HN ES   1   1025 54.48                             118    0.07 6  245 335 
 SML  HZ I        1026  1.53         2.8 0.13            122            245 335 
                                                                                
