 2016 10 9 1556 46.5 L   6.815 -73.162144.0  RSN 11 0.4 2.1LRSN                1
 GAP=134        0.97       2.9     3.9  6.0 -0.2726E+01  0.8210E+01 -0.2549E+00E
 Epicentro: LOS SANTOS - SANTANDER                                             3
 ACTION:UPD 16-11-09 19:17 OP:rebc STATUS:               ID:20161009155646 L   I
 OLDACT:DUP 16-10-10 00:42 OP:lv   STATUS:               ID:20161009154740d    3
 2016-10-09-1548-00M.COL___357                                                 6
 STAT SP IPHASW D HRMM SECON CODA AMPLIT PERI AZIMU VELO AIN AR TRES W  DIS CAZ7
 BAR2 EZ EP       1557  6.00                             170    0.0110 24.7 185 
 BAR2 EZ ES       1557 20.91                             170   -0.2510 24.7 185 
 BAR2 EZ I        1557 21.90        21.3 0.14            170           24.7 185 
 PAM  EZ EP       1557  8.94                             151    0.3710 77.3  41 
 PAM  EE ES       1557 25.99                             151    0.2510 77.3  41 
 PAM  EZ I        1557 28.22        26.9 0.51            152           77.3  41 
 RUS  HZ EP       1557 10.09                             143   -0.1610  102 175 
 RUS  HE ES       1557 29.00                             143    0.2510  102 175 
 RUS  HZ I        1557 29.66         9.3 0.19            145            102 175 
 PTB  HZ EP       1557 12.28                             132   -0.96 9  146 258 
 PTB  HN ES       1557 33.99                             132   -0.06 9  146 258 
 PTB  HZ I        1557 36.14        11.5 0.16            132            146 258 
 OCA  HZ EP       1557 14.09                             130   -0.45 9  158 354 
 OCA  HN ES       1557 36.02                             130   -0.36 9  158 354 
 OCA  HZ I        1557 39.41        35.4 0.30            130            158 354 
 SPBC HE ES       1557 37.05                             129   -0.01 9  163 218 
 ZAR  HZ EP       1557 19.10                             122    0.46 9  202 292 
 ZAR  HN ES       1557 44.44                             122    0.77 9  202 292 
 ZAR  HZ I        1557 51.81        12.5 0.14            122            202 292 
 NOR  HZ EP       1557 22.56                             118    0.44 8  234 234 
 NOR  HN ES       1557 49.52                             118   -0.34 8  234 234 
 NOR  HZ I        1557 51.50        13.4 0.17            119            234 234 
 CHI  HZ EP       1557 24.45                             117    0.18 8  250 195 
 CHI  HN ES       1557 53.70                             117    0.01 8  250 195 
 CHI  HZ I        1558  1.05         4.8 0.25            118            250 195 
 GUY2CHZ EP   4   1557 31.33                             112    1.32 0  301 234 
 GUY2CHN ES       1558  3.98                             112    0.06 7  301 234 
 GUY2CHZ I        1558 12.27         5.9 0.26                           301 234 
 SJC  HZ EP   4   1557 40.55                             105   -1.22 0  407 327 
 SJC  HN ES   4   1558 21.97                             105   -2.87 0  407 327 
 SJC  HZ I        1558 25.95         3.8 0.41            106            407 327 
                                                                                
