 2014  3 9 1109 57.6 L   6.776 -73.168140.6  RSN 11 0.4 1.8LRSN                1
 GAP= 71        0.91       2.9     2.8  5.2 -0.1785E+01  0.4394E+01  0.1002E+01E
 Epicentro: LOS SANTOS - SANTANDER                                             3
 2014-03-09-1108-17M.COL___219                                                 6
 ACTION:UPD 14-04-09 23:15 OP:nd   STATUS:               ID:20140309110957 L   I
 OLDACT:REG 14-03-09 18:04 OP:stll STATUS:               ID:20140309110817     3
 STAT SP IPHASW D HRMM SECON CODA AMPLIT PERI AZIMU VELO AIN AR TRES W  DIS CAZ7
 BAR2 SZ EP       1110 16.81                             171    0.2210 20.4 185 
 BAR2 SZ ES       1110 31.44                             171    0.0710 20.4 185 
 BAR2 SZ I        1110 33.96        28.0 0.24            172           20.4 185 
 PAM  SZ EP       1110 19.90                             149    0.3710 81.0  40 
 PAM  SN ES       1110 36.70                             149    0.0910 81.0  40 
 RUS  HZ EP       1110 20.73                             143    0.0210 98.1 175 
 RUS  HN ES       1110 39.05                             143    0.3510 98.1 175 
 RUS  SZ I        1110 40.05         8.2 0.92            143           98.1 175 
 RUS  HZ I        1110 40.11         7.1 0.28                          98.1 175 
 PTB  HZ EP       1110 23.48                             131   -0.45 9  145 260 
 PTB  HN ES       1110 43.64                             131   -0.78 9  145 260 
 PTB  HZ I        1110 47.40        11.8 0.16            126            145 260 
 PTB  SZ I        1110 50.19        10.4 0.30                           145 260 
 TAM  HZ EP       1110 25.12                             129    0.04 9  157 104 
 TAM  HE ES       1110 46.20                             129   -0.27 9  157 104 
 TAM  HZ I        1110 47.08         9.0 0.26            128            157 104 
 SPBC HZ EP       1110 25.75                             128    0.35 9  160 219 
 SPBC HN ES       1110 47.30                             128    0.25 9  160 219 
 SPBC SZ I        1110 55.71         8.2 0.26            125            160 219 
 OCA  HN ES       1110 47.34                             128   -0.39 9  163 354 
 OCA  HZ I        1110 52.44         9.0 0.26            123            163 354 
 ZAR  HZ EP       1110 29.88                             121    0.25 9  203 293 
 ZAR  HZ I        1111  1.77        12.7 0.22            116            203 293 
 NOR  HZ EP       1110 32.60                             118   -0.09 8  231 235 
 NOR  HN ES       1110 59.86                             118   -0.17 8  231 235 
 NOR  SZ I        1111  2.09         5.3 0.22            114            231 235 
 CHI  HZ EP       1110 34.13                             116   -0.58 8  245 195 
 CHI  HZ I        1110 37.22         1.6 0.22            114            245 195 
 CHI  HN ES       1111  3.17                             116   -0.45 8  245 195 
 CHI  SZ I        1111  7.81         3.9 0.92            114            245 195 
 HEL  HZ EP       1110 37.54                             114    0.28 8  269 256 
 HEL  HE ES       1111  8.94                             114    0.78 8  269 256 
 HEL  SZ I        1111 14.77         4.7 1.24            110            269 256 
                                                                                
