 2017 12 9 1834 34.7 L   6.823 -73.147145.8  RSN 30 0.6 2.7LRSN                1
 GAP= 55        0.93       1.9     2.2  4.1 -0.7018E+00  0.2121E+01 -0.2765E-02E
 Epicentro: LOS SANTOS - SANTANDER                                             3
 ACTION:UPD 18-01-04 13:18 OP:rebc STATUS:               ID:20171209183434 L   I
 OLDACT:UP  17-12-10 01:47 OP:mg   STATUS:               ID:20171209182741d    3
 OLDACT:UP  17-12-10 01:46 OP:mg   STATUS:               ID:20171209182741d    3
 OLDACT:DUP 17-12-10 01:34 OP:mg   STATUS:               ID:20171209182741d    3
 OLDACT:UP  17-12-10 01:32 OP:mg   STATUS:               ID:20171209182739     3
 OLDACT:REG 17-12-09 22:16 OP:mg   STATUS:               ID:20171209182739     3
 2017-12-09-1828-00M.COL___487                                                 6
 STAT SP IPHASW D HRMM SECON CODA AMPLIT PERI AZIMU VELO AIN AR TRES W  DIS CAZ7
 BAR2 EZ EP       1834 54.35                             169    0.0010 25.8 189 
 BAR2 EZ ES       1835  9.25                             169   -0.4610 25.8 189 
 BAR2 EZ I        1835 10.65       236.0 0.16            168           25.8 189 
 PAM  EZ IP     D 1834 57.16                             151    0.3810 75.5  41 
 PAM  EN ES       1835 14.18                             151    0.1610 75.5  41 
 PAM  EZ I        1835 16.63       107.1 0.66            154           75.5  41 
 PTB  HZ EP       1835  1.29                             132   -0.38 9  148 258 
 PTB  HN ES       1835 21.96                             132   -0.77 9  148 258 
 PTB  HZ I        1835 23.92        37.2 0.20            131            148 258 
 TAM  HZ IP     D 1835  2.68                             130    0.26 9  156 106 
 TAM  HN ES       1835 24.33                             130    0.26 9  156 106 
 TAM  HZ I        1835 25.61        29.2 0.48            132            156 106 
 OCA  HZ EP       1835  2.63                             130   -0.11 9  158 353 
 OCA  HN ES       1835 24.91                             130    0.27 9  158 353 
 OCA  HZ I        1835 28.45       132.1 0.12            131            158 353 
 SPBC HZ EP       1835  3.37                             129    0.02 9  165 218 
 SPBC HN ES       1835 25.21                             129   -0.51 9  165 218 
 SPBC HZ I        1835 31.06        92.1 0.10            128            165 218 
 YPLC HZ EP       1835  4.74                             126    0.05 9  179 152 
 YPLC HN ES       1835 28.51                             126    0.41 9  179 152 
 YPLC HZ I        1835 31.35        59.1 0.28            127            179 152 
 ZAR  HZ EP       1835  7.20                             122    0.20 9  203 291 
 ZAR  HE ES       1835 32.87                             122    0.64 9  203 291 
 ZAR  HZ I        1835 39.10       108.2 0.26            123            203 291 
 NOR  HZ EP       1835 10.65                             118    0.11 8  236 234 
 NOR  HN ES       1835 38.33                             118   -0.20 8  236 234 
 NOR  HZ I        1835 40.03        47.5 0.14            118            236 234 
 CHI  HZ EP       1835 12.58                             117   -0.05 8  251 195 
 CHI  HN ES       1835 42.22                             117   -0.02 8  251 195 
 CHI  HZ I        1835 47.69        28.8 0.34            117            251 195 
 ROSC BZ EP   9   1835 14.56                             116    1.54 0  255 211 
 ROSC BN ES       1835 45.00                             117    0.53 8  255 211 
 ROSC BZ I        1835 50.79        52.4 0.35            117            255 211 
 URE  HZ EP       1835 15.14                             114   -0.48 7  283 291 
 URE  HN ES   3   1835 45.57                             114   -1.99 2  283 291 
 URE  HZ I        1835 47.28        42.3 0.12            114            283 291 
 DRL03HZ EP       1835 16.12                             113    0.13 7  286 353 
 DRL03HN ES   2   1835 49.57                             113    1.34 4  286 353 
 GUY2CHZ EP       1835 18.63                             112    0.20 7  303 234 
 GUY2CHN ES       1835 52.83                             112    0.27 7  303 234 
 GUY2CHZ I        1836  0.78        24.3 0.40                           303 234 
 VIL  EZ EP       1835 17.86                             112   -0.50 7  306 191 
 VIL  EN ES       1835 52.55                             112    0.11 7  306 191 
 VIL  EZ I        1835 56.92        37.5 0.34            112            306 191 
 PTGC HZ EP   2   1835 17.47                             111   -1.32 3  311 159 
 PTGC HN ES   3   1835 50.28                             111   -2.94 2  311 159 
 PTGC HZ I        1835 53.40        29.2 0.52            112            311 159 
 LL6C HZ EP       1835 19.09                             111   -0.99 7  322 358 
 LL6C HN ES       1835 55.85                             111    0.35 7  322 358 
 LL6C HZ I        1836  1.79         8.1 0.30            111            322 358 
 ELA  HZ EP   9   1835 23.60                             110    1.91 0  331 229 
 ELA  HN ES       1836  0.68                             111    0.40 7  331 229 
 ELA  HZ I        1836 11.71        17.5 0.39            110            331 229 
 CBOC HZ EP       1835 22.03                             110    0.37 7  334 252 
 CBOC HN ES       1835 58.46                             110    0.15 7  334 252 
 CBOC HZ I        1836  3.85         7.0 0.17            110            334 252 
 DBB  EZ EP       1835 22.24                             109    0.13 7  339 274 
 DBB  EN ES       1835 58.41                             109   -0.70 7  339 274 
 DBB  EZ I        1836  0.41        14.6 0.24            110            339 274 
 ARGC HZ EP   3   1835 25.13                             108    1.09 2  357 340 
 ARGC HE ES   3   1836  4.85                             108    2.30 2  357 340 
 ARGC HZ I        1836 10.92         7.2 0.27            109            357 340 
 ANIL HZ EP   2   1835 26.25                             108    1.58 3  359 224 
 ANIL HN ES   2   1836  5.31                             108    1.64 3  359 224 
 ANIL HZ I        1836 10.42        58.4 0.30            109            359 224 
 SDV  BZ EP       1835 23.95                             108   -0.58 6  359  50 
 SDV  B1 ES   3   1836  1.08                             108   -2.35 2  359  50 
 SDV  BZ I        1836  5.78        10.1 0.45            109            359  50 
 PRA  HZ EP       1835 27.86                             106   -0.58 6  394 209 
 PRA  HN ES       1836 10.49                             106    0.11 6  394 209 
 PRA  HZ I        1836 17.12        33.5 0.24            107            394 209 
 ORTC HZ EP       1835 29.15                             106    0.34 6  397 216 
 ORTC HN ES   3   1836 13.13                             106    2.08 1  397 216 
 ORTC HZ I        1836 18.50        19.5 0.48            106            397 216 
 PAL  HZ EP       1835 30.79                             106    0.83 6  407 239 
 PAL  HN ES       1836 13.66                             106    0.56 6  407 239 
 PAL  HZ I        1836 19.08        10.7 0.52            106            407 239 
 SJC  HZ EP   2   1835 28.44                             106   -1.53 3  407 327 
 SJC  HN ES   4   1836  9.67                             106   -3.44 0  407 327 
 SJC  HZ I        1836 14.10         9.8 0.42            106            407 327 
 CRJC HZ EP   4   1835 34.16                             103   -2.71 0  465   4 
 CRJC HN ES   4   1836 21.18                             103   -4.20 0  465   4 
 CRJC HZ I        1836 26.86        12.2 0.34            104            465   4 
 YOT  HZ EP   2   1835 39.07                             103    1.18 2  473 229 
 SMAR HZ EP       1835 40.15                             102   -0.09 4  495 346 
 SMAR HN ES   4   1836 27.20                             102   -4.19 0  495 346 
                                                                                
