 2016  1 9 1024  2.2 L   6.808 -73.158143.9  RSN 20 0.6 2.5LRSN                1
 GAP= 70        1.28       3.0     3.3  5.6 -0.6514E+00  0.5654E+01  0.2413E+01E
 Epicentro: LOS SANTOS - SANTANDER                                             3
 ACTION:UPD 16-03-09 23:24 OP:cam  STATUS:               ID:20160109102402 L   I
 OLDACT:UP  16-01-09 23:31 OP:ar   STATUS:               ID:20160109101751     3
 OLDACT:UP  16-01-09 23:30 OP:ar   STATUS:               ID:20160109101751     3
 OLDACT:REG 16-01-09 22:10 OP:ar   STATUS:               ID:20160109101751     3
 2016-01-09-1017-51M.COL___260                                                 6
 STAT SP IPHASW D HRMM SECON CODA AMPLIT PERI AZIMU VELO AIN AR TRES W  DIS CAZ7
 BAR2 EZ IP     D 1024 21.56                             170   -0.1010 24.0 187 
 BAR2 EZ ES       1024 36.25                             170   -0.5610 24.0 187 
 BAR2 EZ I        1024 37.63        78.1 0.24            170           24.0 187 
 BRR  HZ EP       1024 23.38                             153    0.2810 69.6 298 
 BRR  HN ES       1024 40.47                             153    1.0910 69.6 298 
 BRR  HZ I        1024 43.41        46.4 0.28            152           69.6 298 
 PAM  EZ EP       1024 24.51                             150    0.2410 77.6  41 
 PAM  EN ES       1024 41.69                             150    0.2310 77.6  41 
 PAM  EZ I        1024 42.24        40.2 0.20            148           77.6  41 
 RUS  HZ EP       1024 25.51                             143   -0.3710  102 175 
 RUS  HE ES       1024 44.45                             143    0.1310  102 175 
 RUS  HZ I        1024 45.28        28.6 0.28            142            102 175 
 PTB  HZ EP       1024 28.02                             132   -0.94 9  147 258 
 PTB  HN ES       1024 49.29                             132   -0.51 9  147 258 
 PTB  HZ I        1024 51.15        40.6 0.40            131            147 258 
 TAM  HZ EP     D 1024 29.99                             130    0.08 9  157 105 
 TAM  HZ I        1024 50.89        19.6 0.36            128            157 105 
 TAM  HE ES       1024 51.68                             130    0.18 9  157 105 
 OCA  HZ EP       1024 29.64                             129   -0.67 9  159 354 
 OCA  HN ES       1024 51.46                             129   -0.75 9  159 354 
 OCA  HZ I        1024 59.99        74.1 0.24            127            159 354 
 SPBC HZ EP       1024 30.03                             129   -0.55 9  163 218 
 SPBC HN ES       1024 52.58                             129   -0.11 9  163 218 
 SPBC HZ I        1024 56.87        49.1 0.22            127            163 218 
 ZAR  HZ EP       1024 35.18                             122    0.77 9  203 292 
 ZAR  HN ES       1024 59.54                             122    0.04 9  203 292 
 ZAR  HZ I        1025  4.57        38.6 0.38            121            203 292 
 NOR  HZ EP       1024 37.74                             118   -0.06 8  234 234 
 NOR  HN ES       1025  5.91                             118    0.37 8  234 234 
 NOR  HZ I        1025 11.38        19.0 0.22            117            234 234 
 SML  HZ EP       1024 37.96                             117   -0.66 8  242 335 
 SML  HE ES       1025  7.77                             117    0.77 8  242 335 
 SML  HZ I        1025 14.94        39.3 0.22            116            242 335 
 CHI  HZ EP       1024 39.75                             117   -0.14 8  249 195 
 CHI  HN ES       1025  9.03                             117   -0.23 8  249 195 
 CHI  HZ I        1025 14.29        21.7 0.32            115            249 195 
 ROSC BZ EP       1024 41.35                             116    1.08 8  253 211 
 ROSC BN ES   4   1025 12.01                             116    2.08 0  253 211 
 ROSC BZ I        1025 16.21        58.8 0.40            115            253 211 
 HEL  HZ EP       1024 43.17                             114    0.93 8  271 256 
 HEL  HN ES       1025 13.38                             114   -0.06 8  271 256 
 HEL  HZ I        1025 19.48        19.5 0.28            113            271 256 
 GUY2CHZ EP       1024 46.39                             112    0.69 7  301 234 
 GUY2CHN ES   4   1025 23.85                             112    4.25 0  301 234 
 GUY2CHZ I        1025 27.89        17.6 0.56                           301 234 
 CBOC HZ EP       1024 49.71                             110    0.74 7  333 252 
 CBOC HN ES       1025 24.65                             110   -0.76 7  333 252 
 CBOC HZ I        1025 31.23         5.4 0.50            108            333 252 
 DBB  SZ EP       1024 49.66                             109    0.18 7  338 274 
 DBB  SZ ES       1025 25.59                             109   -0.74 7  338 274 
 PRA  HZ EP       1024 55.62                             106   -0.09 6  392 209 
 PRA  HN ES       1025 37.30                             106   -0.11 6  392 209 
 PRA  HZ I        1025 41.72        18.1 0.34            105            392 209 
 ORTC HZ EP       1024 55.40                             106   -0.69 6  395 216 
 ORTC HN ES       1025 39.11                             106    1.02 6  395 216 
 ORTC HZ I        1025 42.87        10.9 0.22            105            395 216 
 PAL  HZ EP       1024 57.02                             106   -0.24 6  405 239 
 PAL  HN ES   4   1025 42.16                             106    1.99 0  405 239 
 PAL  HZ I        1025 45.10         3.2 0.20            104            405 239 
                                                                                
