 2010  5 9 1630  8.9 L   6.326 -73.526114.6  RSN 11 0.4 2.1LRSN                1
 GAP=115        0.72       3.1     6.3  6.9 -0.1105E+02  0.1828E+02 -0.2211E+01E
 Epicentro: CONTRATACION - SANTANDER                                           3
 ACTION:UP  10-08-24 10:03 OP:vdl  STATUS:               ID:20100509163008 L   I
 2010-05-09-1627-25S.COL___105                                                 6
 STAT SP IPHASW D HRMM SECON CODA AMPLIT PERI AZIMU VELO SNR AR TRES W  DIS CAZ7
 BAR2 SZ EP   1   1630 25.79                             156     0.0 9   48  52 
 BAR2 SZ ES   2   1630 38.82                             156    -0.1 6   48  52 
 RUS  HZ EP   1   1630 27.11                             147    -0.2 9   69 134 
 RUS  HZ I        1630 27.65        14.7 0.44                            69 134 
 RUS  HN ES   2   1630 41.90                             147     0.2 6   69 134 
 BRR  HZ EP   1   1630 28.00                             139    -0.1 9   89 347 
 BRR  HZ I        1630 36.98        21.5 0.43                            89 347 
 BRR  HE ES   2   1630 42.91                             139    -0.2 6   89 347 
 GIR2 SZ EP   1   1630 28.49                             139     0.0 9   91  24 
 GIR2 SZ ES   2   1630 44.05                             139     0.3 6   91  24 
 BRI  SZ EP   1   1630 35.71                             119    -0.7 8  174  28 
 BRI  SZ ES   2   1630 57.70                             119    -0.2 5  174  28 
 GUE  SZ EP   1   1630 36.86                             118    -0.4 8  179  22 
 GUE  SZ ES   2   1630 59.36                             118     0.1 5  179  22 
 CHI  HZ EP   1   1630 39.07                             117     0.6 8  189 187 
 CHI  HE ES   2   1631  0.96                             117    -0.5 5  189 187 
 CHI  HZ I        1631  5.25         8.0 0.31                           189 187 
 GRA  SZ IP     D 1630 38.31                             117     0.110  190  25 
 GRA  SZ ES   2   1631  1.83                             117     0.8 5  190  25 
 OCA  SZ EP   1   1630 41.52                             114     0.8 7  213   6 
 OCA  SZ ES   2   1631  5.49                             114     0.0 5  213   6 
 OCA  SZ I        1631 13.51        26.9 0.39                           213   6 
 RREF BZ IP     D 1630 46.06                             109    -0.2 9  256 232 
 RREF BE ES   2   1631 15.31                             109     0.0 4  256 232 
 RREF BZ I        1631 20.81         9.9 0.28                           256 232 
 PRA  HZ EP   1   1630 53.37                             104    -0.3 6  326 208 
 PRA  HN ES   2   1631 29.51                             104     0.9 4  326 208 
 PRA  HZ I        1631 33.23        11.9 0.75                           326 208 
                                                                                
