 2013 10 9 1636 23.5 L   7.238 -73.835 90.3  RSN  7 0.5 2.1LRSN                1
 GAP=143        1.26       4.2     4.9  8.8  0.7357E+01  0.3095E+01 -0.6985E+01E
 Epicentro: PUERTO WILCHES - SANTANDER                                         3
 ACTION:UPD 13-11-25 09:20 OP:ep   STATUS:               ID:20131009163623 L   I
 OLDACT:UP  13-10-09 19:58 OP:nd   STATUS:               ID:20131009162959     3
 OLDACT:REG 13-10-09 18:20 OP:nd   STATUS:               ID:20131009162959     3
 2013-10-09-1629-59M.COL___273                                                 6
 STAT SP IPHASW D HRMM SECON CODA AMPLIT PERI AZIMU VELO AIN AR TRES W  DIS CAZ7
 BRR  HZ IP     D 1636 36.84                             167    0.7810 19.8 137 
 BRR  HN ES       1636 46.20                             167    0.3610 19.8 137 
 BRR  HZ I        1636 47.35        51.7 0.12            170           19.8 137 
 BAR2 SZ EP       1636 42.59                             128    0.5010  102 135 
 BAR2 SZ ES       1636 55.67                             128   -0.9110  102 135 
 BAR2 SZ I        1636 58.73        61.7 0.28            131            102 135 
 PTB  HZ IP     D 1636 42.16                             127    0.1910  103 222 
 PTB  HN ES       1636 56.12                             127   -0.2510  103 222 
 PTB  HZ I        1636 58.14        16.4 0.10            127            103 222 
 ZAR  HZ EP   4   1636 44.56                             124    1.28 0  116 284 
 ZAR  HN ES   4   1637  1.08                             124    2.38 0  116 284 
 ZAR  HZ I        1637  3.52        30.6 0.28            123            116 284 
 RUS  HZ EP       1636 49.98                             114    0.20 9  170 151 
 RUS  HN ES       1637  9.92                             114   -0.35 9  170 151 
 RUS  HZ I        1637 12.07         7.5 0.24            115            170 151 
 SML  HZ EP       1636 49.83                             113    0.17 9  175 351 
 SML  HN ES       1637  9.43                             113   -0.62 9  175 351 
 SML  HZ I        1637 11.97        34.1 0.10            114            175 351 
 URE  HZ EP   4   1636 54.32                             110    2.23 0  196 287 
 URE  HN ES       1637 14.12                             110   -0.26 9  196 287 
 URE  HZ I        1637 20.85        18.5 0.14            110            196 287 
                                                                                
