 2013  3 9 1346 55.5 L   6.728 -73.145141.7  RSN  7 0.5 2.0LRSN                1
 GAP=140        1.05       6.0     5.2  8.0  0.2166E+01  0.4009E+01  0.4282E+01E
 Epicentro: JORDAN - SANTANDER                                                 3
 ACTION:UPD 13-04-09 14:01 OP:ep   STATUS:               ID:20130309134655 L   I
 2013-03-09-1340-00M.COL___231                                                 6
 STAT SP IPHASW D HRMM SECON CODA AMPLIT PERI AZIMU VELO AIN AR TRES W  DIS CAZ7
 BAR2 SZ EP       1347 14.73                             173    0.2310 15.5 195 
 BAR2 SZ ES   1   1347 28.60                             173   -0.73 7 15.5 195 
 BAR2 SZ I        1347 31.36        62.5 0.17            157           15.5 195 
 BRR  HZ IP     D 1347 16.64                             150    0.1810 75.4 304 
 BRR  HN ES       1347 33.54                             150    0.7310 75.4 304 
 BRR  HZ I        1347 34.09        23.7 0.14            143           75.4 304 
 PAM  SZ EP       1347 17.61                             148   -0.0710 83.7  36 
 PAM  SE ES   1   1347 34.34                             148   -0.64 7 83.7  36 
 PAM  SZ I        1347 37.02        22.6 0.46            144           83.7  36 
 RUS  HZ EP   1   1347 18.58                             145    0.30 7 92.6 176 
 RUS  HE ES   1   1347 36.55                             145    0.50 7 92.6 176 
 RUS  HE I        1347 38.69         8.8 0.15            127           92.6 176 
 PTB  HZ EP   1   1347 21.35                             131   -0.67 7  146 262 
 PTB  HE ES       1347 42.31                             131   -0.40 9  146 262 
 PTB  HZ I        1347 49.91        15.5 0.42            119            146 262 
 ZAR  HZ EP   1   1347 28.59                             121    0.57 6  207 294 
 ZAR  HE ES   1   1347 52.97                             121   -0.41 6  207 294 
 ZAR  HZ I        1347 59.43         9.0 0.13            112            207 294 
 CHI  HZ EP   1   1347 31.72                             117   -0.41 6  241 196 
 CHI  HZ I        1348  8.86         3.8 0.44            106            241 196 
                                                                                
