 2010 10 9 1424 40.2 L   7.411 -73.177126.0  RSN  5 0.3 1.6LRSN                1
 GAP=151        0.75       7.2     8.6 10.4 -0.2685E+02 -0.1608E+02 -0.1785E+02E
 Epicentro: EL PLAYON - SANTANDER                                              3
 ACTION:UP  11-02-18 11:08 OP:tino STATUS:               ID:20101009142440 L   I
 2010-10-09-1422-27S.COL___121                                                 6
 STAT SP IPHASW D HRMM SECON CODA AMPLIT PERI AZIMU VELO SNR AR TRES W  DIS CAZ7
 GUE  SZ EP       1424 58.96                             156     0.310   54  31 
 BTL  SZ EP   1   1424 58.66                             156     0.0 7   55 190 
 GRA  SZ ES   2   1425 13.59                             151    -0.4 5   67  38 
 GRA  SZ I        1425 15.90         8.2 0.16                            67  38 
 BRR  HZ EP       1424 58.64                             150    -0.410   68 240 
 BRR  HN ES       1425 13.95                             150     0.210   68 240 
 BRR  HZ I        1425 15.09        10.4 0.47                            68 240 
 BAR2 SZ ES   1   1425 17.13                             143     0.0 7   91 180 
 BAR2 SZ I        1425 18.79         8.4 0.15                            91 180 
                                                                                
