 2016  1 9 1415 48.7 L   6.800 -73.152143.6  RSN 10 0.5 2.1LRSN                1
 GAP=136        1.22       3.6     5.0  6.9 -0.2170E+01  0.1114E+02 -0.1290E+01E
 Epicentro: LOS SANTOS - SANTANDER                                             3
 ACTION:UPD 16-03-09 23:24 OP:cam  STATUS:               ID:20160109141548 L   I
 OLDACT:DUP 16-01-09 23:57 OP:ar   STATUS:               ID:20160109140750d    3
 OLDACT:REG 16-01-09 22:33 OP:ar   STATUS:               ID:20160109140749     3
 2016-01-09-1407-49M.COL___285                                                 6
 STAT SP IPHASW D HRMM SECON CODA AMPLIT PERI AZIMU VELO AIN AR TRES W  DIS CAZ7
 BAR2 EZ EP       1416  7.87                             170   -0.1910 23.3 188 
 BAR2 EZ ES       1416 22.84                             170   -0.3210 23.3 188 
 BAR2 EZ I        1416 24.22        16.1 0.20            171           23.3 188 
 BRR  HZ EP       1416  9.71                             152    0.1410 70.6 299 
 BRR  HN ES       1416 26.68                             152    0.8310 70.6 299 
 BRR  HZ I        1416 27.46        20.4 0.30            149           70.6 299 
 PAM  EZ EP       1416 10.76                             150    0.0610 77.8  40 
 PAM  EN ES       1416 27.77                             150   -0.1010 77.8  40 
 PAM  EZ I        1416 29.85        23.8 0.50            152           77.8  40 
 RUS  HZ EP       1416 12.22                             143   -0.0110  101 176 
 RUS  HN ES       1416 30.96                             143    0.3610  101 176 
 RUS  HZ I        1416 31.75        16.8 0.36            146            101 176 
 PTB  HZ EP       1416 14.67                             132   -0.75 9  147 259 
 PTB  HN ES       1416 35.45                             132   -0.82 9  147 259 
 PTB  HZ I        1416 37.67        20.4 0.12            131            147 259 
 OCA  HN ES       1416 38.52                             129   -0.24 9  160 353 
 OCA  HZ I        1416 42.37        28.6 0.38            129            160 353 
 SPBC HZ EP       1416 17.06                             129    0.08 9  163 219 
 SPBC HN ES       1416 38.86                             129   -0.19 9  163 219 
 SPBC HZ I        1416 45.86        19.2 0.20            130            163 219 
 ZAR  HZ EP       1416 21.37                             122    0.44 9  203 292 
 ZAR  HN ES       1416 45.64                             122   -0.43 9  203 292 
 ZAR  HZ I        1416 55.86        11.0 0.48            122            203 292 
 SML  HZ EP       1416 24.50                             117   -0.66 8  243 335 
 SML  HN ES       1416 54.50                             117    0.90 8  243 335 
 SML  HZ I        1417  1.08        14.3 0.22            117            243 335 
 GUY2CHZ EP       1416 32.56                             112    0.42 7  301 235 
 GUY2CHN ES       1417  7.05                             112    1.03 7  301 235 
 GUY2CHZ I        1417 13.36         6.8 0.60                           301 235 
                                                                                
