 2013 11 9 1515  3.0 L   6.776 -73.151144.6  RSN  7 0.3 1.7LRSN                1
 GAP=137        0.83       3.6     3.5  6.0 -0.7195E+00  0.4178E+01 -0.1010E-01E
 Epicentro: LOS SANTOS - SANTANDER                                             3
 ACTION:UPD 14-01-09 16:26 OP:ep   STATUS:               ID:20131109151503 L   I
 OLDACT:REG 13-11-09 14:43 OP:jn   STATUS:               ID:20131109151000     3
 2013-11-09-1510-00M.COL___273                                                 6
 STAT SP IPHASW D HRMM SECON CODA AMPLIT PERI AZIMU VELO AIN AR TRES W  DIS CAZ7
 BAR2 SZ EP       1515 22.54                             171    0.1110 20.7 190 
 BAR2 SZ ES       1515 37.40                             171   -0.1910 20.7 190 
 BAR2 SZ I        1515 38.30        14.6 0.26            173           20.7 190 
 BRR  HZ EP       1515 24.32                             152    0.2610 72.0 301 
 BRR  HZ IP       1515 24.32                             152           72.0 301 
 BRR  HZ I        1515 38.99        10.0 0.44            147           72.0 301 
 BRR  HN ES       1515 41.08                             152    0.5810 72.0 301 
 PAM  SZ EP       1515 25.41                             150    0.1810 79.8  39 
 PAM  SN ES       1515 42.25                             150   -0.3210 79.8  39 
 PAM  SZ I        1515 43.09         9.0 0.20            146           79.8  39 
 RUS  HZ EP       1515 26.55                             144    0.1110 98.0 176 
 RUS  HN ES       1515 44.54                             144   -0.2010 98.0 176 
 RUS  HZ I        1515 46.12         5.6 0.24            142           98.0 176 
 PTB  HZ EP       1515 29.32                             132   -0.45 9  147 260 
 PTB  HN ES       1515 50.31                             132   -0.35 9  147 260 
 PTB  HZ I        1515 53.42         8.1 0.34            128            147 260 
 SPBC HN ES       1515 53.55                             129    0.39 9  161 219 
 ZAR  HN ES       1516  0.48                             122   -0.22 9  205 293 
                                                                                
