 2016  5 9 1911 28.6 L   6.801 -73.137146.5  RSN 12 0.5 1.9LRSN                1
 GAP=138        1.12       3.2     4.5  6.3 -0.1147E+01  0.6600E+01  0.3918E+01E
 Epicentro: LOS SANTOS - SANTANDER                                             3
 ACTION:UPD 16-08-18 17:44 OP:cam  STATUS:               ID:20160509191128 L   I
 OLDACT:REG 16-05-09 21:09 OP:ak   STATUS:               ID:20160509190748     3
 2016-05-09-1907-48M.COL___292                                                 6
 STAT SP IPHASW D HRMM SECON CODA AMPLIT PERI AZIMU VELO AIN AR TRES W  DIS CAZ7
 BAR2 EZ EP       1911 48.51                             170    0.1710 23.7 192 
 BAR2 EZ ES       1912  3.74                             170    0.0110 23.7 192 
 BAR2 EZ I        1912  5.09        21.1 0.26            168           23.7 192 
 BRR  HZ EP       1911 50.39                             152    0.5010 72.0 298 
 BRR  HE ES       1912  7.36                             152    0.8710 72.0 298 
 BRR  HZ I        1912  7.96         9.1 0.20            151           72.0 298 
 PAM  EZ IP       1911 51.40                             151    0.5310 76.6  39 
 PAM  EN ES       1912  7.97                             151   -0.2510 76.6  39 
 PAM  EZ I        1912 10.68         6.6 0.52            155           76.6  39 
 RUS  HZ EP       1911 52.35                             144   -0.1010  101 177 
 RUS  HN ES       1912 10.25                             144   -0.7810  101 177 
 RUS  HZ I        1912 12.72         5.6 0.42            144            101 177 
 PTB  HZ EP       1911 55.33                             132   -0.41 9  149 259 
 PTB  HN ES       1912 16.35                             132   -0.54 9  149 259 
 PTB  HZ I        1912 18.97         6.3 0.10            131            149 259 
 SPBC HZ EP       1911 57.54                             129    0.30 9  164 219 
 SPBC HN ES       1912 19.84                             129    0.27 9  164 219 
 SPBC HZ I        1912 25.99        13.2 0.14            128            164 219 
 ZAR  HZ EP   2   1912  2.15                             122    0.95 4  205 292 
 ZAR  HN ES       1912 26.45                             122   -0.17 9  205 292 
 ZAR  HZ I        1912 31.84         8.6 0.28            122            205 292 
 NOR  HZ EP   2   1912  4.01                             119   -0.47 4  236 235 
 NOR  HE ES       1912 32.50                             119    0.04 8  236 235 
 NOR  HZ I        1912 40.36         4.5 0.31            118            236 235 
 SML  HZ EP   2   1912  4.73                             118   -0.59 4  244 335 
 SML  HN ES       1912 33.00                             118   -0.94 8  244 335 
 SML  HZ I        1912 35.71         9.6 0.13            119            244 335 
 CHI  HZ EP       1912  5.89                             117   -0.51 8  249 195 
 CHI  HN ES       1912 35.94                             117    0.07 8  249 195 
 CHI  HZ I        1912 39.85         4.5 0.39            117            249 195 
 ROSC BZ EP   4   1912  9.15                             117    2.30 0  253 211 
 ROSC BE ES       1912 37.11                             117    0.45 8  253 211 
 ROSC BZ I        1912 43.17        14.0 0.45            117            253 211 
 PRA  HZ EP       1912 22.85                             107    0.62 6  393 210 
 PRA  HN ES       1913  3.67                             107   -0.39 6  393 210 
 PRA  HZ I        1913 10.76         4.8 0.36            107            393 210 
                                                                                
