 2013  9 9 1047 52.2 L   6.795 -73.168149.3  RSN  9 0.5 2.2LRSN                1
 GAP=134        1.01       4.4     5.9  7.2  0.5454E+01  0.1712E+02 -0.1182E+01E
 Epicentro: LOS SANTOS - SANTANDER                                             3
 ACTION:UPD 13-10-22 09:21 OP:ep   STATUS:               ID:20130909104752 L   I
 OLDACT:UP  13-09-09 16:33 OP:cam  STATUS:               ID:20130909103959     3
 OLDACT:REG 13-09-09 15:07 OP:cam  STATUS:               ID:20130909103959     3
 2013-09-09-1039-59M.COL___269                                                 6
 STAT SP IPHASW D HRMM SECON CODA AMPLIT PERI AZIMU VELO AIN AR TRES W  DIS CAZ7
 BAR2 SZ EP     D 1048 12.18                             171   -0.0910 22.5 184 
 BAR2 SZ ES   1   1048 27.50                             171   -0.39 7 22.5 184 
 BAR2 SZ I        1048 28.54        27.7 0.18            170           22.5 184 
 BRR  HZ EP     C 1048 13.97                             154    0.3210 69.3 300 
 BRR  HN ES       1048 30.86                             154    0.5010 69.3 300 
 BRR  HZ I        1048 35.75        26.4 0.12            150           69.3 300 
 PAM  SZ IP     C 1048 15.14                             151    0.2010 79.4  41 
 PAM  SN ES       1048 32.06                             151   -0.5910 79.4  41 
 PAM  SZ I        1048 34.35        18.6 0.48            155           79.4  41 
 RUS  HZ EP       1048 16.28                             145   -0.0310  100 175 
 RUS  HN ES       1048 35.38                             145    0.3010  100 175 
 RUS  HZ I        1048 36.48        15.3 0.18            148            100 175 
 PTB  HZ EP       1048 18.79                             133   -0.47 9  145 259 
 PTB  HN ES   4   1048 39.16                             133   -1.18 0  145 259 
 PTB  HZ I        1048 42.47        31.1 0.16            132            145 259 
 ZAR  HZ EP   1   1048 24.64                             123   -0.05 6  202 293 
 ZAR  HE ES   4   1048 51.45                             123    1.44 0  202 293 
 ZAR  HZ I        1048 55.05        14.2 0.30            123            202 293 
 SML  HZ EP   2   1048 28.61                             118   -0.38 4  243 336 
 SML  HN ES       1048 58.27                             118    0.60 8  243 336 
 HEL  HZ EP   2   1048 33.77                             116    1.42 4  270 256 
 URE  HZ EP   1   1048 32.71                             114   -0.53 6  282 292 
 URE  HN ES   1   1049  4.18                             114   -1.04 6  282 292 
 URE  HZ I        1049 16.19        10.6 0.18            115            282 292 
 SJC  HZ EP   4   1048 46.15                             106   -1.65 0  408 327 
                                                                                
