 2012  9 9 1837 26.9 L   6.493 -73.476 14.5  RSN  7 0.4 1.9LRSN                1
 GAP=126        0.87       2.5     2.5  7.7  0.8406E+00  0.9542E+01 -0.6457E+00E
 Epicentro: SIMACOTA - SANTANDER                                               3
 ACTION:UPD 12-10-22 14:18 OP:ep   STATUS:               ID:20120909183726 L   I
 2012-09-09-1830-00M.COL___227                                                 6
 STAT SP IPHASW D HRMM SECON CODA AMPLIT PERI AZIMU VELO AIN AR TRES W  DIS CAZ7
 BAR2 SZ EP       1837 33.67                             110    0.4610 34.3  71 
 BAR2 SZ ES   1   1837 37.37                             110   -0.77 7 34.3  71 
 BAR2 SZ I        1837 40.13        67.5 0.49                          34.3  71 
 GIR2 SZ EP       1837 39.20                              99    0.5510 71.9  26 
 BRR  HZ EP       1837 38.39                              99   -0.2410 72.7 339 
 BRR  HZ I        1837 38.94        57.4 0.12                          72.7 339 
 BRR  HN ES   1   1837 47.43                              99   -0.36 7 72.7 339 
 RUS  HZ EP       1837 40.36                              98    0.2210 79.4 147 
 RUS  HE ES   1   1837 49.97                              98   -0.50 7 79.4 147 
 RUS  HZ I        1837 53.70        17.8 0.35                          79.4 147 
 PTB  HZ EP   1   1837 44.07                              96    0.04 7  109 273 
 PTB  HN ES   1   1837 57.51                              96    0.11 7  109 273 
 PTB  HZ I        1837 58.73        34.1 0.16                           109 273 
 PAM  SZ EP   1   1837 47.31                              95    0.00 7  127  42 
 PAM  SN ES   1   1838  3.22                              95    0.00 7  127  42 
 PAM  SZ I        1838 11.72        21.3 0.24                           127  42 
 ZAR  HN ES   1   1838 16.28                              56   -0.33 7  188 306 
 ZAR  HZ I        1838 17.37        24.8 0.23                           188 306 
                                                                                
