 2011 11 9 1357 12.3 L   6.750 -73.166146.4  RSN  4 0.2 1.7LRSN                1
 GAP=231        0.51       6.9     7.9  5.4  0.4545E+02 -0.3425E+01 -0.3554E+01E
 Epicentro: LOS SANTOS - SANTANDER                                             3
 ACTION:UPD 12-07-13 16:09 OP:ep   STATUS:               ID:20111109135712 L   I
 2011-11-09-1354-17S.COL___178                                                 6
 STAT SP IPHASW D HRMM SECON CODA AMPLIT PERI AZIMU VELO AIN AR TRES W  DIS CAZ7
 BAR2 SZ EP       1357 31.81                             173   -0.0810 17.5 186 
 BAR2 SZ ES   1   1357 46.80                             173   -0.38 7 17.5 186 
 BAR2 SZ I        1357 49.08        12.9 0.17                          17.5 186 
 BRR  HZ EP       1357 33.62                             152    0.0610 72.1 303 
 BRR  HZ I        1357 33.87        12.6 0.12                          72.1 303 
 BRR  HN ES       1357 50.38                             152    0.2310 72.1 303 
 RUS  HZ EP   1   1357 35.78                             145    0.05 7 95.3 175 
 RUS  HN ES   1   1357 54.17                             145    0.16 7 95.3 175 
 RUS  HZ I        1357 55.67         5.7 0.17                          95.3 175 
 ZAR  HE ES   1   1358  9.84                             122   -0.30 6  204 294 
                                                                                
