 2017 10 9 1904  6.7 L   6.827 -73.130139.8  RSN  8 0.3 1.7LRSN                1
 GAP=112        0.87       3.4     3.9  6.3  0.8995E+00  0.5905E+01  0.6193E+01E
 Epicentro: LOS SANTOS - SANTANDER                                             3
 ACTION:UPD 17-11-07 19:30 OP:rebc STATUS:               ID:20171009190406 L   I
 OLDACT:REG 17-10-09 21:26 OP:lv   STATUS:               ID:20171009184620     3
 2017-10-09-1858-00M.COL___429                                                 6
 STAT SP IPHASW D HRMM SECON CODA AMPLIT PERI AZIMU VELO AIN AR TRES W  DIS CAZ7
 BAR2 EZ EP       19 4 25.50                             169   -0.1410 26.6 193 
 BAR2 EZ ES       19 4 39.97                             169   -0.4910 26.6 193 
 BAR2 EZ I        19 4 42.32        13.2 0.28            167           26.6 193 
 PAM  EZ EP       19 4 28.13                             151    0.0910 74.0  40 
 PAM  EN ES       19 4 45.18                             151    0.4610 74.0  40 
 PAM  EZ I        19 4 47.18        27.9 0.52            154           74.0  40 
 RUS  HZ EP       19 4 29.57                             142   -0.4710  103 177 
 RUS  HN ES       19 4 48.22                             142   -0.0610  103 177 
 RUS  HZ I        19 4 49.50         3.4 0.16            143            103 177 
 YPLC HZ EP       19 4 36.15                             125   -0.05 9  179 152 
 YPLC HN ES       19 4 59.64                             125    0.39 9  179 152 
 ZAR  HZ IP   4   19 4 40.32                             121    1.55 0  205 291 
 ZAR  HN ES       19 5  3.70                             121   -0.12 9  205 291 
 ZAR  HZ I        19 5  9.24         7.7 0.24            121            205 291 
 NOR  HZ EP   4   19 4 44.41                             117    2.02 0  238 234 
 NOR  HN ES       19 5 10.99                             117    0.74 8  238 234 
 NOR  HZ I        19 5 15.71         3.7 0.12            117            238 234 
 CHI  HZ EP       19 4 44.20                             115   -0.19 8  252 195 
 CHI  HN ES       19 5 13.94                             115    0.11 8  252 195 
 CHI  HZ I        19 5 18.53         2.2 0.30            116            252 195 
 GUY2CHZ EP   4   19 4 52.00                             111    1.65 0  304 235 
 GUY2CHZ I        19 5 32.38         2.3 0.74                           304 235 
 SJC  HZ EP   4   19 4 59.55                             105   -2.30 0  408 327 
 SJC  HN ES   4   19 5 40.29                             105   -4.61 0  408 327 
                                                                                
