 2011 11 9 1031 49.5 L   6.790 -73.132142.4  RSN  6 0.2 1.9LRSN                1
 GAP=139        0.37       2.4     3.2  3.7 -0.9209E-01  0.1670E+01 -0.2235E+01E
 Epicentro: LOS SANTOS - SANTANDER                                             3
 ACTION:UPD 12-07-13 16:09 OP:ep   STATUS:               ID:20111109103149 L   I
 2011-11-09-1028-04S.COL___178                                                 6
 STAT SP IPHASW D HRMM SECON CODA AMPLIT PERI AZIMU VELO AIN AR TRES W  DIS CAZ7
 BAR2 SZ EP       1032  8.76                             171    0.0410 22.5 194 
 BAR2 SZ I        1032  9.35        25.4 0.32                          22.5 194 
 BAR2 SZ ES   1   1032 23.82                             171    0.12 7 22.5 194 
 BRR  HZ EP       1032 10.42                             151    0.0210 73.1 299 
 BRR  HZ I        1032 10.95        19.4 0.07                          73.1 299 
 BRR  HN ES   2   1032 26.94                             151    0.24 5 73.1 299 
 PAM  SZ EP       1032 11.50                             150    0.1410 77.3  38 
 PAM  SN ES   1   1032 28.19                             150   -0.21 7 77.3  38 
 RUS  HZ EP   1   1032 12.89                             143    0.05 7 99.3 177 
 RUS  HN ES   1   1032 30.81                             143   -0.22 7 99.3 177 
 RUS  HZ I        1032 32.99         7.4 0.33                          99.3 177 
 OCA  SZ EP   1   1032 17.55                             128   -0.14 7  162 353 
 OCA  SZ I        1032 44.38         7.0 0.40                           162 353 
 ZAR  HN ES   2   1032 46.95                             121   -0.27 4  206 292 
                                                                                
