 2016  4 9 1255 30.5 L   6.817 -73.132141.9  RSN 13 0.5 2.3LRSN                1
 GAP=120        1.12       3.8     3.9  5.9 -0.3777E+01  0.7013E+01  0.4765E-01E
 Epicentro: LOS SANTOS - SANTANDER                                             3
 ACTION:UPD 16-05-05 14:19 OP:rebc STATUS:               ID:20160409125530 L   I
 OLDACT:UP  16-04-09 22:25 OP:drio STATUS:               ID:20160409124747     3
 OLDACT:UP  16-04-09 22:04 OP:drio STATUS:               ID:20160409124747     3
 OLDACT:UP  16-04-09 22:04 OP:drio STATUS:               ID:20160409124747     3
 OLDACT:REG 16-04-09 19:45 OP:drio STATUS:               ID:20160409124747     3
 2016-04-09-1247-47M.COL___301                                                 6
 STAT SP IPHASW D HRMM SECON CODA AMPLIT PERI AZIMU VELO AIN AR TRES W  DIS CAZ7
 BAR2 EZ EP       1255 49.93                             170    0.2610 25.4 193 
 BAR2 EZ ES       1256  4.09                             170   -0.5610 25.4 193 
 BAR2 EZ I        1256  6.23        76.4 0.18            169           25.4 193 
 PAM  EZ EP       1255 52.85                             151    0.7310 75.0  40 
 PAM  EE ES       1256  9.84                             151    0.8310 75.0  40 
 PAM  EZ I        1256 14.42        19.4 0.62            154           75.0  40 
 RUS  HZ EP       1255 53.52                             142   -0.4410  102 177 
 RUS  HE ES       1256 11.91                             142   -0.3810  102 177 
 RUS  HZ I        1256 13.35        12.7 0.36            146            102 177 
 PTB  HZ EP       1255 56.86                             131   -0.42 9  150 258 
 PTB  HN ES       1256 17.74                             131   -0.46 9  150 258 
 PTB  HZ I        1256 21.31        26.3 0.34            130            150 258 
 SPBC HZ EP       1255 58.99                             128    0.10 9  166 219 
 SPBC HN ES       1256 21.05                             128   -0.02 9  166 219 
 SPBC HZ I        1256 26.23        35.7 0.24            129            166 219 
 ZAR  HZ EP       1256  2.91                             121    0.18 9  205 292 
 ZAR  HN ES       1256 27.82                             121   -0.08 9  205 292 
 ZAR  HZ I        1256 33.79        30.1 0.42            122            205 292 
 NOR  HZ EP       1256  6.32                             117    0.11 8  237 234 
 NOR  HE ES       1256 33.71                             117   -0.39 8  237 234 
 NOR  HZ I        1256 39.39        15.5 0.18            118            237 234 
 CHI  HZ EP       1256  8.00                             116   -0.18 8  251 195 
 CHI  HN ES       1256 38.02                             116    0.42 8  251 195 
 CHI  HZ I        1256 44.38        10.8 0.48            118            251 195 
 HEL  HZ EP   4   1256 12.29                             114    1.60 0  274 256 
 HEL  HN ES       1256 42.41                             114    0.34 8  274 256 
 HEL  HZ I        1256 50.12        11.5 0.26            115            274 256 
 URE  HZ EP       1256 10.73                             113   -0.69 7  285 291 
 URE  HE ES   4   1256 41.98                             113   -1.40 0  285 291 
 URE  HZ I        1256 54.56        13.4 0.30            113            285 291 
 SOCV BZ EP       1256 12.42                             111   -0.65 7  299  57 
 SOCV BN ES   4   1256 44.70                             111   -1.61 0  299  57 
 GUY2CHZ EP       1256 14.12                             111   -0.03 7  303 235 
 GUY2CHN ES       1256 48.95                             111    0.72 7  303 235 
 GUY2CHZ I        1256 56.45        21.3 0.36                           303 235 
 ORTC HZ EP       1256 24.40                             105   -0.13 6  398 216 
 ORTC HN ES       1257  7.92                             105    1.22 6  398 216 
 ORTC HZ I        1257 13.41         7.7 0.26            107            398 216 
 SJC  HZ EP   4   1256 24.51                             105   -1.30 0  409 327 
 SJC  HN ES   4   1257  5.28                             105   -3.71 0  409 327 
                                                                                
