 2013 10 9 1228 54.0 L   6.725 -73.714 83.6  RSN  9 0.4 1.8LRSN                1
 GAP= 85        1.00       3.2     2.7  7.7 -0.2579E+00  0.9888E+01 -0.7326E+00E
 Epicentro: EL CARMEN DE CHUCURI - SANTANDER                                   3
 ACTION:UPD 13-11-25 09:20 OP:ep   STATUS:               ID:20131009122854 L   I
 OLDACT:REG 13-10-09 19:21 OP:nd   STATUS:               ID:20131009122740     3
 2013-10-09-1227-40M.COL___238                                                 6
 STAT SP IPHASW D HRMM SECON CODA AMPLIT PERI AZIMU VELO AIN AR TRES W  DIS CAZ7
 BRR  HZ IP     C 1229  7.09                             151    0.3010 42.2   0 
 BRR  HN ES   2   1229 17.18                             151    0.42 5 42.2   0 
 BRR  HZ I        1229 19.22        26.6 0.12            152           42.2   0 
 BAR2 SZ EP       1229  8.45                             141    0.0510 60.5 104 
 BAR2 SZ ES       1229 19.68                             141    0.0710 60.5 104 
 BAR2 SZ I        1229 22.78        44.6 0.34            145           60.5 104 
 PTB  HZ IP     D 1229  9.37                             131   -0.8010 84.7 256 
 PTB  HN ES   2   1229 21.96                             131   -0.81 5 84.7 256 
 PTB  HZ I        1229 22.63        35.1 0.16            134           84.7 256 
 RUS  HZ EP       1229 13.22                             122   -0.6610  116 143 
 RUS  HN ES       1229 29.59                             122    0.2110  116 143 
 RUS  HZ I        1229 32.73         4.8 0.18            126            116 143 
 PAM  SZ EP       1229 15.20                             118   -0.3410  131  59 
 PAM  SN ES       1229 32.61                             118    0.2810  131  59 
 PAM  SZ I        1229 34.18         9.7 0.52            121            131  59 
 ZAR  HZ EP       1229 17.66                             114    0.37 9  152 304 
 ZAR  HN ES       1229 35.20                             114   -0.24 9  152 304 
 ZAR  HZ I        1229 39.81        19.9 0.26            116            152 304 
 HEL  HZ EP       1229 25.07                             107    0.70 8  209 254 
 HEL  HN ES       1229 48.34                             107    0.31 8  209 254 
 HEL  HZ I        1229 51.87         5.9 0.42            109            209 254 
 SML  HZ EP       1229 26.44                             105   -0.27 8  233 350 
 SML  HN ES   2   1229 52.10                             105   -0.10 4  233 350 
 SML  HZ I        1229 56.19        11.3 0.10            107            233 350 
 GUY2CHZ EP     D 1229 29.47                             104    0.49 8  247 228 
 GUY2CHN ES       1229 56.28                             104    0.04 8  247 228 
 GUY2CHZ I        1230  5.34         5.1 0.64                           247 228 
                                                                                
