 2013  2 9 1414  9.7 L   6.787 -73.176145.3  RSN  5 0.3 1.5LRSN                1
 GAP=133        0.67       4.9     4.6  7.8 -0.2372E+01  0.2149E+01  0.5738E+01E
 Epicentro: LOS SANTOS - SANTANDER                                             3
 ACTION:UPD 13-03-12 09:31 OP:ep   STATUS:               ID:20130209141409 L   I
 2013-02-09-1410-00M.COL___240                                                 6
 STAT SP IPHASW D HRMM SECON CODA AMPLIT PERI AZIMU VELO AIN AR TRES W  DIS CAZ7
 BAR2 SZ EP   1   1414 29.15                             171   -0.05 7 21.5 182 
 BAR2 SZ I        1414 46.71         7.8 0.60            170           21.5 182 
 BRR  HZ EP   1   1414 31.21                             153    0.57 7 69.0 301 
 BRR  HE ES   1   1414 47.39                             153    0.40 7 69.0 301 
 BRR  HZ I        1414 51.25         8.6 0.48            152           69.0 301 
 PAM  SZ EP   1   1414 32.00                             150   -0.03 7 80.7  41 
 PAM  SN ES   1   1414 49.07                             150   -0.40 7 80.7  41 
 PAM  SZ I        1414 51.35         6.2 0.56            146           80.7  41 
 RUS  HZ EP   1   1414 33.37                             144    0.09 7 99.4 174 
 RUS  HN ES   1   1414 51.80                             144    0.09 7 99.4 174 
 RUS  HZ I        1414 53.46         2.0 0.20            141           99.4 174 
 PTB  HZ EP   1   1414 35.93                             133   -0.34 7  144 259 
 PTB  HN ES   1   1414 56.58                             133   -0.44 7  144 259 
 PTB  HZ I        1414 58.90         6.7 0.50            130            144 259 
                                                                                
