 2017  9 9 1656  3.6 L   6.773 -73.138143.1  RSN  5 0.4 1.5LRSN                1
 GAP=139        0.89       4.3     4.8  7.6 -0.2957E+01  0.1705E+02 -0.4770E+01E
 Epicentro: LOS SANTOS - SANTANDER                                             3
 ACTION:UPD 17-10-05 19:10 OP:rebc STATUS:               ID:20170909165603 L   I
 OLDACT:REG 17-09-09 19:43 OP:lv   STATUS:               ID:20170909164739     3
 2017-09-09-1648-00M.COL___416                                                 6
 STAT SP IPHASW D HRMM SECON CODA AMPLIT PERI AZIMU VELO AIN AR TRES W  DIS CAZ7
 BAR2 EZ EP       1656 22.97                             171    0.0710 20.6 194 
 BAR2 EZ ES       1656 37.62                             171   -0.3010 20.6 194 
 BAR2 EZ I        1656 39.20         7.0 0.19            171           20.6 194 
 PAM  EZ EP       1656 26.02                             150    0.3310 79.2  38 
 PAM  EN ES       1656 42.74                             150   -0.1510 79.2  38 
 PAM  EZ I        1656 43.97         4.0 0.07            152           79.2  38 
 RUS  HZ EP       1656 26.99                             144    0.0810 97.5 176 
 RUS  HN ES       1656 45.26                             144    0.1910 97.5 176 
 RUS  HZ I        1656 46.70         3.4 0.30            148           97.5 176 
 ZAR  HZ EP       1656 35.31                             121   -0.80 8  206 293 
 ZAR  HN ES       1657  2.01                             121    0.57 8  206 293 
 ZAR  HZ I        1657  9.78         5.6 0.46            122            206 293 
 NOR  HE ES       1657  6.68                             118   -0.08 8  234 235 
                                                                                
