 2015  5 9 1851 24.0 L   6.811 -73.124145.8  RSN 18 0.4 2.4LRSN                1
 GAP=120        0.84       1.9     3.0  4.1 -0.1146E+01  0.3461E+01  0.4352E+00E
 Epicentro: LOS SANTOS - SANTANDER                                             3
 ACTION:UPD 15-09-10 22:03 OP:cam  STATUS:               ID:20150509185124 L   I
 OLDACT:REG 15-05-09 20:52 OP:stll STATUS:               ID:20150509184748     3
 2015-05-09-1847-48M.COL___276                                                 6
 STAT SP IPHASW D HRMM SECON CODA AMPLIT PERI AZIMU VELO AIN AR TRES W  DIS CAZ7
 BAR2 EZ EP       1851 43.82                             170    0.1310 25.1 195 
 BAR2 EZ ES       1851 58.73                             170   -0.3110 25.1 195 
 BAR2 EZ I        1852  0.09        74.8 0.17            168           25.1 195 
 BRR  HZ IP     C 1851 45.70                             152    0.4410 72.7 297 
 BRR  HN ES       1852  2.10                             152    0.2710 72.7 297 
 BRR  HZ I        1852  6.73        37.4 0.11            149           72.7 297 
 PAM  SZ IP     D 1851 46.60                             152    0.5010 74.9  39 
 PAM  SN ES       1852  3.76                             152    0.4410 74.9  39 
 PAM  SZ I        1852  6.58        34.1 0.78            154           74.9  39 
 RUS  HZ EP       1851 47.65                             144   -0.2110  102 177 
 RUS  HN ES       1852  6.64                             144    0.1910  102 177 
 RUS  HZ I        1852  7.56        26.2 0.31            145            102 177 
 OCA  HZ EP       1851 52.39                             130    0.14 9  159 352 
 OCA  HN ES       1852 13.66                             130   -0.60 9  159 352 
 OCA  HZ I        1852 17.21        52.9 0.16            130            159 352 
 SPBC HZ EP       1851 52.73                             129   -0.03 9  166 219 
 SPBC HE ES       1852 14.74                             129   -0.43 9  166 219 
 SPBC HZ I        1852 17.64        36.6 0.15            129            166 219 
 ZAR  HZ EP       1851 56.45                             122   -0.20 8  206 292 
 ZAR  HN ES       1852 22.17                             122    0.07 8  206 292 
 ZAR  HZ I        1852 29.11        27.9 0.25            121            206 292 
 NOR  HZ EP       1851 59.79                             118   -0.25 8  237 235 
 NOR  HN ES       1852 28.16                             118    0.03 8  237 235 
 NOR  HZ I        1852 34.03        25.1 0.25            118            237 235 
 SML  HZ EP       1852  0.55                             117   -0.09 8  244 335 
 SML  HN E        1852 28.08                                            244 335 
 SML  HE ES       1852 28.56                             117   -0.63 8  244 335 
 SML  HZ I        1852 39.29        26.3 0.10            118            244 335 
 CHI  HZ EP       1852  1.96                             117    0.04 8  250 196 
 CHI  HN ES       1852 30.92                             117   -0.56 8  250 196 
 CHI  HZ I        1852 36.81        10.1 0.30            118            250 196 
 ROSC BZ EP   4   1852  3.86                             116    1.47 0  255 211 
 ROSC BN ES   4   1852 34.96                             116    2.64 0  255 211 
 ROSC BZ I        1852 41.45        30.0 0.16            117            255 211 
 HEL  HZ EP   1   1852  5.45                             115    0.92 6  275 256 
 HEL  HN ES       1852 36.18                             115    0.06 8  275 256 
 HEL  HZ I        1852 42.68        12.0 0.42            114            275 256 
 GUY2CHZ EP   1   1852  8.88                             112    0.95 5  304 235 
 GUY2CHN ES       1852 42.50                             112    0.32 7  304 235 
 GUY2CHZ I        1852 50.55        20.5 0.54                           304 235 
 LL2C HZ EP   2   1852  8.09                             112    0.60 4  305 354 
 LL2C HN ES       1852 40.95                             112   -0.45 7  305 354 
 LL2C HZ I        1852 49.71        23.9 0.25            112            305 354 
 PTGC HZ EP       1852  7.31                             112   -0.61 7  309 159 
 PTGC HN ES   4   1852 40.38                             112   -1.77 0  309 159 
 RREF HZ EP   1   1852 10.81                             111    0.35 5  324 229 
 RREF HN ES       1852 46.48                             111   -0.21 7  324 229 
 RREF HZ I        1852 53.95         5.1 0.17            111            324 229 
 MON  HZ EP   4   1852 10.91                             109   -2.24 0  355 308 
 MON  HN ES   4   1852 49.55                             109   -1.92 0  355 308 
 MON  HZ I        1852 52.52         3.2 0.20            109            355 308 
 ORTC HZ EP   2   1852 18.24                             106    0.01 3  398 216 
 ORTC HN ES       1853  0.57                             106            398 216 
 ORTC HN IS       1853  0.57                             106    0.07 6  398 216 
 ORTC HZ I        1853  7.00         8.1 0.50            107            398 216 
                                                                                
