 2010  2 9 1650 43.3 L   6.836 -73.096122.6  RSN  7 0.4 2.2LRSN                1
 GAP=205        0.67       4.7    17.7  7.8 -0.3973E+02  0.7428E+02  0.7075E+00E
 Epicentro: LOS SANTOS - SANTANDER                                             3
 ACTION:UP  10-08-24 09:48 OP:vdl  STATUS:               ID:20100209165043 L   I
 2010-02-09-1646-54S.COL___094                                                 6
 STAT SP IPHASW D HRMM SECON CODA AMPLIT PERI AZIMU VELO SNR AR TRES W  DIS CAZ7
 BAR2 SZ EP   1   1651  0.59                             166     0.3 7   29 200 
 GIR2 SZ IP       1651  0.18                             166     0.110   29 338 
 GIR2 SZ ES   2   1651 12.91                             166    -0.3 5   29 338 
 BAR2 SZ ES   2   1651 13.48                             166     0.0 5   29 200 
 OCA  SZ EP   1   1651  8.96                             124    -0.6 7  157 351 
 OCA  SZ ES   2   1651 30.40                             124     0.3 5  157 351 
 CHI  HZ EP   1   1651 20.45                             111     0.1 6  254 196 
 CHI  HE ES   2   1651 48.72                             111    -0.6 4  254 196 
 CHI  HZ I        1651 54.56         7.7 0.37                           254 196 
 RREF BZ EP   1   1651 29.35                             106     0.1 5  329 229 
 RREF BZ I        1652  8.80         6.5 0.34                           329 229 
 TOL  SZ EP   1   1651 32.19                             104     0.7 5  350 225 
 PRA  HZ EP   1   1651 36.76                             102     0.0 4  398 210 
 PRA  HE ES   2   1652 17.62                             102    -1.0 3  398 210 
 PRA  HZ I        1652 25.11         8.2 0.68                           398 210 
                                                                                
