 2017  9 9 1955 44.8 L   6.799 -73.147142.0  RSN  6 0.3 1.4LRSN                1
 GAP=112        0.83       4.0     4.0  6.1 -0.9792E+00  0.7037E+01  0.3831E+01E
 Epicentro: LOS SANTOS - SANTANDER                                             3
 ACTION:UPD 17-10-05 19:10 OP:rebc STATUS:               ID:20170909195544 L   I
 OLDACT:DUP 17-09-09 23:40 OP:lv   STATUS:               ID:20170909194739d    3
 2017-09-09-1948-00M.COL___416                                                 6
 STAT SP IPHASW D HRMM SECON CODA AMPLIT PERI AZIMU VELO AIN AR TRES W  DIS CAZ7
 BAR2 EZ EP       1956  3.58                             170   -0.4210 23.2 190 
 BAR2 EZ ES       1956 19.27                             170    0.3110 23.2 190 
 BAR2 EZ I        1956 20.75        10.3 0.13            170           23.2 190 
 PAM  EZ EP       1956  6.66                             150    0.0010 77.6  40 
 PAM  EN ES       1956 23.45                             150   -0.2310 77.6  40 
 PAM  EZ I        1956 25.98         4.3 0.29            153           77.6  40 
 RUS  HZ EP       1956  8.53                             143    0.3310  100 176 
 RUS  HE ES       1956 26.51                             143    0.0810  100 176 
 RUS  HZ I        1956 27.85         3.0 0.20            144            100 176 
 YPLC HZ EP       1956 14.28                             126   -0.07 9  177 151 
 ZAR  HN ES       1956 42.36                             122    0.22 9  204 292 
 NOR  HZ EP       1956 20.76                             118    0.43 8  235 234 
 NOR  HN ES       1956 47.31                             118   -0.70 8  235 234 
 NOR  HZ I        1956 53.61         2.1 0.28            119            235 234 
                                                                                
