 2013  2 9 1027  7.4 L   6.807 -73.121145.4  RSN 12 0.4 2.7LRSN                1
 GAP=139        0.95       2.9     4.3  5.2  0.2267E-01  0.6033E+01  0.1204E+01E
 Epicentro: LOS SANTOS - SANTANDER                                             3
 ACTION:UPD 13-03-12 09:31 OP:ep   STATUS:               ID:20130209102707 L   I
 2013-02-09-1020-00M.COL___240                                                 6
 STAT SP IPHASW D HRMM SECON CODA AMPLIT PERI AZIMU VELO AIN AR TRES W  DIS CAZ7
 BAR2 SZ IP       1027 27.22                             170    0.2510 24.7 196 
 BAR2 SZ ES       1027 42.09                             170   -0.1810 24.7 196 
 BAR2 SZ I        1027 43.85       164.2 0.21            171           24.7 196 
 BRR  HZ IP     D 1027 28.96                             152    0.3810 73.2 297 
 BRR  HN ES       1027 45.84                             152    0.7110 73.2 297 
 BRR  HZ I        1027 46.53        57.5 0.13            145           73.2 297 
 PAM  SZ EP       1027 29.92                             151    0.5210 75.1  38 
 PAM  SZ I        1027 30.35       172.5 0.23            146           75.1  38 
 PAM  SN ES       1027 46.44                             151   -0.1510 75.1  38 
 RUS  HZ EP       1027 31.20                             144    0.0810  101 178 
 RUS  HN ES       1027 49.18                             144   -0.4710  101 178 
 RUS  HN I        1027 50.57        51.3 0.42            141            101 178 
 PTB  HZ EP       1027 33.92                             131   -0.63 9  151 259 
 PTB  HE ES   1   1027 55.21                             131   -0.55 7  151 259 
 PTB  HZ I        1028  1.96        36.8 0.32            126            151 259 
 OCA  HZ EP   1   1027 35.23                             130   -0.37 7  160 352 
 OCA  HZ I        1028  2.22        52.3 0.38            123            160 352 
 ZAR  HZ EP   1   1027 39.76                             122   -0.24 6  206 292 
 ZAR  HE ES   1   1028  5.08                             122   -0.39 6  206 292 
 ZAR  HZ I        1028  7.29        35.9 0.16            116            206 292 
 SML  HZ EP       1027 43.55                             117   -0.46 8  244 335 
 SML  HN ES   1   1028 12.45                             117   -0.14 6  244 335 
 CHI  HZ EP       1027 45.38                             117    0.18 8  250 196 
 CHI  HN ES       1028 14.50                             117   -0.21 8  250 196 
 CHI  HZ I        1028 18.23        26.5 0.43            113            250 196 
 ROSC BZ EP   4   1027 47.08                             116    1.40 0  255 211 
 ROSC BN ES   1   1028 16.60                             116    1.02 6  255 211 
 ROSC BZ I        1028 22.12        58.6 0.46            112            255 211 
 HEL  HZ EP   1   1027 48.51                             114    0.65 6  275 256 
 HEL  HN ES   1   1028 19.58                             114    0.13 6  275 256 
 HEL  HZ I        1028 26.50        16.9 0.39            110            275 256 
 URE  HZ EP   4   1027 46.91                             113   -1.74 0  286 292 
 URE  HE ES   4   1028 17.83                             113   -3.04 0  286 292 
 VIL  SZ EP   1   1027 50.54                             112   -0.37 5  305 192 
 VIL  SN ES   1   1028 24.76                             112   -0.12 5  305 192 
 VIL  SZ I        1028 28.19        41.1 0.35            108            305 192 
                                                                                
