 2012  5 9 1140 11.6 L   6.778 -73.156150.2  RSN  6 0.4 1.3LRSN                1
 GAP=136        0.65       5.1     5.2  7.5  0.5219E+01 -0.9742E+00 -0.1752E+01E
 Epicentro: LOS SANTOS - SANTANDER                                             3
 ACTION:UP  12-07-05 12:03 OP:pat  STATUS:               ID:20120509114011 L   I
 2012-05-09-1140-00M.COL___192                                                 6
 STAT SP IPHASW D HRMM SECON CODA AMPLIT PERI AZIMU VELO SNR AR TRES W  DIS CAZ7
 BAR2 SZ EP   1   1140 31.63                             172     0.0 7   21 188 
 BAR2 SZ ES   2   1140 47.46                             172     0.1 5   21 188 
 BRR  HZ EP   1   1140 33.35                             153     0.2 7   71 301 
 BRR  HE ES   1   1140 50.37                             153     0.3 7   71 301 
 PAM  SZ EP   1   1140 34.27                             151    -0.1 7   80  39 
 PAM  SN ES   2   1140 51.68                             151    -0.5 5   80  39 
 RUS  HZ EP   1   1140 35.94                             145     0.4 7   98 175 
 RUS  HE ES   1   1140 54.25                             145    -0.1 7   98 175 
 RUS  HZ I        1140 55.32         1.6 0.29                            98 175 
 PTB  HZ EP   2   1140 38.09                             133    -0.7 5  146 260 
 PTB  HE ES   2   1140 59.10                             133    -0.9 5  146 260 
 ZAR  HN ES   2   1141 10.20                             123     0.4 4  204 293 
 ZAR  HZ I        1141 16.00         3.5 0.31                           204 293 
                                                                                
