 2011  3 9 1823  1.5 L   6.854 -73.130121.0  RSN  4 0.5 2.0LRSN 2.0BRSN        1
 GAP=160        1.34       8.3    18.7 15.5 -0.8536E+02  0.1609E+03 -0.5624E+02E
 Epicentro: LOS SANTOS - SANTANDER                                             3
 ACTION:UP  11-06-16 14:32 OP:jfem STATUS:               ID:20110309182301 L   I
 2011-03-09-1820-11S.COL___135                                                 6
 STAT SP IPHASW D HRMM SECON CODA AMPLIT PERI AZIMU VELO SNR AR TRES W  DIS CAZ7
 BAR2 SZ EP   1   1823 18.14                             165    -0.2 8   30 191 
 BAR2 SZ ES   1   1823 30.88                             165    -0.6 8   30 191 
 BAR2 SZ I        1823 35.31        25.3 0.22                            30 191 
 RUS  HZ EP   1   1823 22.54                             136    -0.8 8  107 177 
 RUS  HE ES   1   1823 41.43                             136     1.0 8  107 177 
 RUS  HZ I        1823 42.14        20.4 0.23                           107 177 
 GRA  SZ EP       1823 24.07        24.4 0.26            132     0.010  119  18 
 GRA  SZ ES   1   1823 41.97                             132     0.3 7  119  18 
 GRA  SZ I        1823 45.16        24.4 0.26                           119  18 
 HEL  HZ EP       1823 41.15                             109     0.2 8  275 255 
 HEL  HZ I        1824 16.01         7.1 0.34                           275 255 
                                                                                
