 2017  2 9 1756 22.1 L   6.567 -73.557110.6  RSN  8 0.5 2.0LRSN                1
 GAP= 88        1.32       4.8     4.2  8.3 -0.1136E+01  0.1329E+02 -0.1494E+01E
 Epicentro: EL CARMEN - SANTANDER                                              3
 ACTION:UPD 17-05-24 15:34 OP:jn   STATUS:               ID:20170209175622 L   I
 OLDACT:UP  17-02-09 23:50 OP:ar   STATUS:               ID:20170209174743     3
 OLDACT:UP  17-02-09 23:49 OP:ar   STATUS:               ID:20170209174743     3
 OLDACT:REG 17-02-09 20:57 OP:lv   STATUS:               ID:20170209174743     3
 2017-02-09-1748-00M.COL___364                                                 6
 STAT SP IPHASW D HRMM SECON CODA AMPLIT PERI AZIMU VELO AIN AR TRES W  DIS CAZ7
 BAR2 EZ IP     D 1756 38.37                             158    0.1910 41.5  86 
 BAR2 EZ ES       1756 51.00                             158    0.2810 41.5  86 
 BRR  HZ EP       1756 39.23                             148    0.2610 62.2 344 
 BRR  HE ES       1756 52.95                             148    0.8210 62.2 344 
 BRR  HZ I        1757  1.60        18.1 0.12            149           62.2 344 
 RUS  HZ EP       1756 41.51                             138   -0.2810 91.1 145 
 RUS  HN ES       1756 57.25                             138    0.1010 91.1 145 
 RUS  HZ I        1756 58.52         7.7 0.15            146           91.1 145 
 PTB  HZ IP     D 1756 41.21                             135   -0.6410 99.5 268 
 PTB  HE ES       1756 56.22                             135   -1.0310 99.5 268 
 PTB  HZ I        1756 57.54        27.8 0.18            138           99.5 268 
 PAM  EZ EP       1756 44.97                             127   -0.1010  128  48 
 PAM  EE ES       1757  2.25                             127   -0.7310  128  48 
 PAM  EZ I        1757  3.97        12.1 0.22            132            128  48 
 ZAR  HZ EP       1756 50.11                             117    0.61 9  177 306 
 ZAR  HE ES   4   1757 14.85                             117    3.99 0  177 306 
 ZAR  HZ I        1757 15.01        23.1 0.27            121            177 306 
 NOR  HZ EP       1756 50.89                             116    0.65 9  183 233 
 NOR  HE ES       1757 12.41                             116    0.23 9  183 233 
 NOR  HZ I        1757 15.17        13.5 0.16            121            183 233 
 URE  HZ EP       1756 58.19                             108   -0.12 8  255 301 
 URE  HE ES       1757 26.50                             108   -0.05 8  255 301 
 URE  HZ I        1757 29.10        12.7 0.14            112            255 301 
 CBOC HZ EP   4   1757  3.75                             106    1.97 0  283 254 
 CBOC HE ES   4   1757 27.87                             106   -4.86 0  283 254 
                                                                                
