 2011 10 9 1212 45.1 L   6.728 -73.122144.1  RSN 10 0.4 2.1LRSN                1
 GAP=143        0.82       3.2     4.5  5.6 -0.1137E+01  0.9698E+01  0.8002E+00E
 Epicentro: JORDAN - SANTANDER                                                 3
 ACTION:UPD 12-07-13 16:02 OP:ep   STATUS:               ID:20111009121245 L   I
 2011-10-09-1200-00M.COL___171                                                 6
 STAT SP IPHASW D HRMM SECON CODA AMPLIT PERI AZIMU VELO AIN AR TRES W  DIS CAZ7
 BAR2 SZ EP   1   1213  4.83                             173    0.38 7 16.4 204 
 BAR2 SZ ES   1   1213 19.92                             173    0.41 7 16.4 204 
 BAR2 SZ I        1213 22.55        47.1 0.25                          16.4 204 
 GIR2 SZ EP   1   1213  4.85                             164   -0.02 7 39.6 349 
 GIR2 SZ ES   1   1213 20.16                             164   -0.09 7 39.6 349 
 BRR  HZ IP     D 1213  6.67                             150    0.1910 77.5 303 
 BRR  HZ I        1213  6.85        72.0 0.11                          77.5 303 
 BRR  HN ES   1   1213 23.75                             150    0.63 7 77.5 303 
 PAM  SZ EP   1   1213  7.52                             149    0.05 7 82.2  35 
 PAM  SN ES   1   1213 24.79                             149   -0.10 7 82.2  35 
 PAM  SZ I        1213 25.71         6.9 0.17                          82.2  35 
 RUS  HZ EP   1   1213  8.67                             146    0.51 7 92.5 177 
 RUS  HN ES       1213 25.54                             146   -0.5710 92.5 177 
 RUS  HZ I        1213 28.54        11.2 0.34                          92.5 177 
 OCA  SZ EP   1   1213 14.01                             128   -0.09 7  168 353 
 OCA  SZ ES   1   1213 36.10                             128   -0.59 7  168 353 
 OCA  SZ I        1213 41.18        13.4 0.26                           168 353 
 ZAR  HZ EP   1   1213 17.70                             121   -0.35 6  210 294 
 ZAR  HN ES   1   1213 42.97                             121   -0.74 6  210 294 
 ZAR  HZ I        1213 49.53        12.0 0.16                           210 294 
 NOR  SZ EP   1   1213 20.17                             118   -0.35 6  232 236 
 NOR  SN ES   1   1213 47.86                             118   -0.25 6  232 236 
 CHI  HZ EP   1   1213 22.04                             117    0.05 6  242 196 
 CHI  HN ES   2   1213 50.20                             117   -0.54 4  242 196 
 CHI  HZ I        1213 55.89         4.7 0.24                           242 196 
 HEL  HZ EP   1   1213 26.17                             114    0.82 6  273 258 
 HEL  HN ES   1   1213 57.18                             114    0.48 6  273 258 
 HEL  HZ I        1214  3.92         7.9 0.49                           273 258 
                                                                                
