 2012  1 9 1136 58.5 L   6.728 -73.191148.0  RSN  5 0.4 1.5LRSN                1
 GAP=227        0.92       8.5     9.5 10.6  0.3761E+02 -0.7167E+01  0.7698E+01E
 Epicentro: VILLANUEVA - SANTANDER                                             3
 ACTION:UP  12-02-03 08:15 OP:REBC STATUS:               ID:20120109113658 L   I
 2012-01-09-1130-00M.COL___186                                                 6
 STAT SP IPHASW D HRMM SECON CODA AMPLIT PERI AZIMU VELO SNR AR TRES W  DIS CAZ7
 BAR2 SZ EP   1   1137 17.72                             174    -0.5 7   15 177 
 BAR2 SZ I        1137 35.88         8.9 0.34                            15 177 
 BRR  HZ EP       1137 19.74                             153    -0.110   71 306 
 BRR  HE ES   1   1137 37.16                             153     0.6 7   71 306 
 BRR  HZ I        1137 39.72         8.1 0.15                            71 306 
 RUS  HZ EP   1   1137 22.17                             146     0.3 7   93 173 
 RUS  HN ES   1   1137 40.06                             146    -0.1 7   93 173 
 RUS  HZ I        1137 41.70         3.2 0.21                            93 173 
 PTB  HZ EP   1   1137 24.79                             134    -0.3 7  142 262 
 PTB  HN ES   1   1137 45.57                             134    -0.2 7  142 262 
 CHI  HZ EP   1   1137 35.97                             119     0.7 6  240 195 
 CHI  HZ I        1138  8.86         1.6 0.33                           240 195 
                                                                                
