 2016  8 9 1402 31.3 L   6.515 -73.558101.3  RSN  6 0.4 1.9LRSN                1
 GAP=131        1.14       4.6     4.2  9.0  0.2722E+01  0.1757E+02 -0.1442E+01E
 Epicentro: SANTA HELENA DEL OPON - SANTANDER                                  3
 ACTION:UPD 16-10-29 15:34 OP:rebc STATUS:               ID:20160809140231 L   I
 OLDACT:REG 16-08-09 21:02 OP:lv   STATUS:               ID:20160809135759     3
 2016-08-09-1357-59S.COL___334                                                 6
 STAT SP IPHASW D HRMM SECON CODA AMPLIT PERI AZIMU VELO AIN AR TRES W  DIS CAZ7
 BAR2 EZ IP     C 14 2 46.51                             156    0.1710 42.4  78 
 BAR2 EZ ES       14 2 58.23                             156    0.1310 42.4  78 
 BAR2 EZ I        14 3  0.91        56.3 0.30                          42.4  78 
 RUS  HZ EP       14 2 49.70                             136   -0.0410 86.6 143 
 RUS  HE ES       14 3  4.07                             136   -0.0810 86.6 143 
 RUS  HZ I        14 3  6.73         5.3 0.16                          86.6 143 
 PTB  HZ IP     C 14 2 49.37                             132   -0.8510 99.4 272 
 PTB  HN ES       14 3  4.36                             132   -0.6410 99.4 272 
 PTB  HZ I        14 3  5.80        19.9 0.20                          99.4 272 
 SPBC HZ EP       14 2 51.59                             128    0.1810  111 211 
 SPBC HE ES       14 3  7.39                             128    0.2610  111 211 
 SPBC HZ I        14 3  9.95        14.5 0.17                           111 211 
 NOR  HZ EP       14 2 58.54                             114    0.01 9  179 234 
 NOR  HE ES       14 3 20.22                             114    0.42 9  179 234 
 NOR  HZ I        14 3 23.35         9.3 0.18                           179 234 
 ZAR  HZ EP       14 2 58.29                             114   -0.23 9  180 307 
 ZAR  HN ES       14 3 20.72                             114    0.93 9  180 307 
 ZAR  HZ I        14 3 23.16        14.4 0.28                           180 307 
                                                                                
