 2017  2 9 1847 28.8 L   6.827 -73.307126.0  RSN  6 0.3 1.6LRSN                1
 GAP=105        0.90       4.1     3.5  6.1  0.1805E+01  0.5470E+01 -0.6999E+00E
 Epicentro: ZAPATOCA - SANTANDER                                               3
 ACTION:UPD 17-05-24 15:34 OP:jn   STATUS:               ID:20170209184728 L   I
 OLDACT:REG 17-02-09 20:59 OP:lv   STATUS:               ID:20170209183742     3
 2017-02-09-1838-00M.COL___364                                                 6
 STAT SP IPHASW D HRMM SECON CODA AMPLIT PERI AZIMU VELO AIN AR TRES W  DIS CAZ7
 BAR2 EZ EP       1847 46.47                             166    0.2210 29.4 152 
 BAR2 EZ ES       1847 59.30                             166   -0.5310 29.4 152 
 BRR  HZ EP       1847 46.83                             155   -0.0810 54.4 305 
 BRR  HE ES       1848  1.02                             155    0.0010 54.4 305 
 PAM  EZ EP       1847 49.54                             143   -0.1710 87.8  50 
 PAM  EN ES       1848  6.23                             143    0.2310 87.8  50 
 PAM  EZ I        1848  7.98         7.0 0.30            144           87.8  50 
 RUS  HZ EP       1847 51.27                             138    0.1210  106 167 
 RUS  HE ES       1848  8.91                             138    0.3510  106 167 
 PTB  HZ EP       1847 51.86                             131   -0.8110  131 256 
 PTB  HE ES       1848 11.49                             131    0.2310  131 256 
 PTB  HZ I        1848 13.45         7.6 0.26            131            131 256 
 ZAR  HZ EP       1847 58.44                             120    0.25 9  186 293 
 ZAR  HE ES       1848 21.35                             120    0.26 9  186 293 
 ZAR  HZ I        1848 24.77         4.7 0.22            120            186 293 
                                                                                
