 2011  5 9 1538  2.7 L   6.763 -73.105147.0  RSN  6 0.3 1.9LRSN                1
 GAP=164        0.71       4.4     5.7  7.2 -0.7821E+01  0.2796E+01 -0.1972E+01E
 Epicentro: LOS SANTOS - SANTANDER                                             3
 ACTION:UP  11-06-29 08:51 OP:tino STATUS:               ID:20110509153802 L   I
 2011-05-09-1533-42S.COL___133                                                 6
 STAT SP IPHASW D HRMM SECON CODA AMPLIT PERI AZIMU VELO SNR AR TRES W  DIS CAZ7
 BAR2 SZ EP       1538 22.41                             172     0.010   21 204 
 BAR2 SZ ES   1   1538 37.53                             172    -0.2 7   21 204 
 BAR2 SZ I        1538 38.97        25.1 0.28                            21 204 
 BTL  SZ EP   1   1538 22.74                             170     0.3 7   25 314 
 BRR  HZ EP   1   1538 24.08                             151    -0.2 7   77 300 
 BRR  HZ I        1538 24.52        33.2 0.13                            77 300 
 BRR  HE ES   1   1538 41.65                             151     0.5 7   77 300 
 RUS  HZ EP   1   1538 26.55                             145     0.3 7   96 179 
 RUS  HN ES   1   1538 44.55                             145     0.0 7   96 179 
 RUS  HZ I        1538 46.34         9.6 0.46                            96 179 
 GRA  SZ EP   1   1538 28.19                             137     0.0 7  128  15 
 GRA  SZ ES   2   1538 47.54                             137    -0.6 5  128  15 
 GRA  SZ I        1538 50.38         4.6 0.30                           128  15 
 NOR  SN ES       1539  6.31                             119    -0.3 8  236 236 
                                                                                
