 2011  9 9 1702 59.5 L   6.770 -73.098141.1  RSN  6 0.3 1.6LRSN                1
 GAP=144        0.51       3.9     3.8  4.5  0.2838E+01  0.1648E+01  0.1217E+01E
 Epicentro: LOS SANTOS - SANTANDER                                             3
 ACTION:UPD 12-07-13 15:56 OP:ep   STATUS:               ID:20110909170259 L   I
 2011-09-09-1659-51S.COL___170                                                 6
 STAT SP IPHASW D HRMM SECON CODA AMPLIT PERI AZIMU VELO AIN AR TRES W  DIS CAZ7
 BAR2 SZ EP       17 3 18.47                             171   -0.0710 21.7 205 
 BAR2 SZ I        17 3 18.71        10.1 0.17                          21.7 205 
 BAR2 SZ ES   1   17 3 33.53                             171    0.14 7 21.7 205 
 GIR2 SZ EP   1   17 3 18.65                             165   -0.11 7 35.7 343 
 PAM  SZ EP   1   17 3 21.28                             150    0.08 7 76.9  35 
 PAM  SZ I        17 3 21.63         3.5 0.26                          76.9  35 
 PAM  SN ES   1   17 3 38.11                             150    0.00 7 76.9  35 
 BRR  HZ EP       17 3 20.32                             150   -0.2010 77.4 299 
 BRR  HZ I        17 3 22.58        19.0 0.36                          77.4 299 
 BRR  HN ES       17 3 37.04                             150    0.1310 77.4 299 
 RUS  HZ EP   1   17 3 22.49                             144   -0.05 7 97.0 179 
 RUS  HE ES   2   17 3 40.52                             144    0.01 5 97.0 179 
 RUS  HZ I        17 3 42.60         4.1 0.22                          97.0 179 
 ZAR  HZ EP   1   17 3 32.89                             121    0.60 6  210 292 
 ZAR  HE ES   2   17 3 57.12                             121   -0.74 4  210 292 
 ZAR  HZ I        17 4  2.46         7.8 0.31                           210 292 
                                                                                
