 2014 11 9 1838 23.2 L   6.791 -73.162141.7  RSN  7 0.4 2.4LRSN                1
 GAP=135        1.01       4.1     4.9  6.8 -0.4595E+01  0.4411E+01  0.5459E+01E
 Epicentro: LOS SANTOS - SANTANDER                                             3
 ACTION:UPD 14-12-19 15:40 OP:nd   STATUS:               ID:20141109183823 L   I
 OLDACT:REG 14-11-10 00:10 OP:cam  STATUS:               ID:20141109183642     3
 2014-11-09-1836-42M.COL___298                                                 6
 STAT SP IPHASW D HRMM SECON CODA AMPLIT PERI AZIMU VELO AIN AR TRES W  DIS CAZ7
 BAR2 SZ EP       1838 42.01                             171   -0.3110 22.1 186 
 BAR2 SZ ES       1838 56.77                             171   -0.4610 22.1 186 
 BAR2 SZ I        1838 58.37       105.0 0.26            170           22.1 186 
 BRR  HZ EP       1838 44.05                             152    0.2010 70.1 300 
 BRR  HN ES       1839  0.61                             152    0.6610 70.1 300 
 BRR  HZ I        1839  4.08        41.6 0.32            153           70.1 300 
 PAM  SZ IP     D 1838 45.16                             149    0.0610 79.3  40 
 PAM  SN ES       1839  2.06                             149   -0.1310 79.3  40 
 PAM  SZ I        1839  4.25        52.1 0.50            153           79.3  40 
 RUS  HZ EP       1838 46.16                             143   -0.3310 99.7 175 
 RUS  HN ES       1839  5.21                             143    0.5510 99.7 175 
 RUS  HZ I        1839  5.89        26.3 0.26            145           99.7 175 
 PTB  HZ EP       1838 50.01                             131    0.35 9  146 259 
 PTB  HN ES       1839  9.58                             131   -0.71 9  146 259 
 PTB  HZ I        1839 11.91        31.9 0.14            132            146 259 
 SPBC HZ EP       1838 51.15                             128   -0.06 9  161 219 
 SPBC HN ES       1839 13.08                             128    0.03 9  161 219 
 SPBC HZ I        1839 17.60        36.0 0.22            130            161 219 
 CHI  HN ES       1839 29.82                             116    0.19 8  247 195 
 CHI  HZ I        1839 33.17        20.4 0.62            118            247 195 
                                                                                
