 2011  6 9 1245 44.5 L   6.742 -73.128147.5  RSN  8 0.4 2.2LRSN                1
 GAP=158        0.91       4.6     8.0  7.2 -0.5834E+01  0.5219E+01  0.9193E+00E
 Epicentro: JORDAN - SANTANDER                                                 3
 ACTION:UP  11-07-14 19:04 OP:ep   STATUS:               ID:20110609124544 L   I
 2011-06-09-1243-09S.COL___121                                                 6
 STAT SP IPHASW D HRMM SECON CODA AMPLIT PERI AZIMU VELO SNR AR TRES W  DIS CAZ7
 BAR2 SZ EP   1   1246  4.24                             173     0.0 7   18 200 
 BAR2 SZ ES   1   1246 19.18                             173    -0.5 7   18 200 
 BAR2 SZ I        1246 20.55        25.4 0.25                            18 200 
 BRR  HZ EP       1246  6.18                             150     0.010   76 302 
 BRR  HN ES   1   1246 23.45                             150     0.4 7   76 302 
 BRR  HZ I        1246 26.51        27.0 0.15                            76 302 
 RUS  HZ EP   1   1246  8.32                             146     0.3 7   94 177 
 RUS  HN ES   1   1246 26.76                                     0.5 7   94 177 
 RUS  HZ I        1246 27.81        15.7 0.29                            94 177 
 BRI  SZ EP   1   1246  8.78                             140    -0.2 7  114  19 
 OCA  SZ EP   1   1246 13.29                             128    -0.3 7  167 353 
 OCA  SZ I        1246 38.72        18.4 0.14                           167 353 
 NOR  SZ EP   1   1246 20.01                             119    -0.1 6  233 236 
 NOR  SN ES   1   1246 47.77                             119    -0.1 6  233 236 
 CHI  HZ EP   1   1246 22.22                             118     0.5 6  243 196 
 CHI  HN ES   1   1246 49.74                             118    -1.0 6  243 196 
 CHI  HZ I        1246 57.35         7.4 0.40                           243 196 
 PRA  HZ EP   1   1246 38.08                             107     0.5 4  387 210 
 PRA  HZ I        1247 24.35        16.0 0.40                           387 210 
                                                                                
