 2012 10 9 1349 15.4 L   7.353 -73.112  5.6  RSN  6 0.2 2.0LRSN                1
 GAP=177        0.41       3.4     1.5 20.6 -0.2752E+01  0.9306E+01 -0.1757E+02E
 Epicentro: MATANZA - SANTANDER                                                3
 ACTION:UPD 12-11-22 17:02 OP:ep   STATUS:               ID:20121009134915 L   I
 2012-10-09-1340-00M.COL___223                                                 6
 STAT SP IPHASW D HRMM SECON CODA AMPLIT PERI AZIMU VELO AIN AR TRES W  DIS CAZ7
 GIR2 SZ EP       1349 20.65                              94   -0.2610 31.6 197 
 GIR2 SZ ES   3   1349 25.17                              94   -0.06 2 31.6 197 
 PAM  SZ EP       1349 23.46                              92    0.0810 45.6  92 
 PAM  SN ES   1   1349 29.50                              92   -0.13 7 45.6  92 
 PAM  SN I        1349 30.14       123.5 0.48                          45.6  92 
 BRR  HZ EP       1349 26.88                              91    0.0610 71.6 248 
 BRR  HE ES   1   1349 35.69                              91   -0.05 7 71.6 248 
 BRR  HN I        1349 37.89        60.6 0.16                          71.6 248 
 BAR2 SZ EP       1349 29.23                              91    0.2110 84.5 185 
 BAR2 SZ I        1349 40.13        35.1 0.18                          84.5 185 
 RUS  HZ EP   3   1349 41.41                              91    0.46 2  162 179 
 ZAR  HZ EP   3   1349 44.56                              56   -0.11 2  193 275 
                                                                                
