 2013  1 9 1022 30.3 L   6.749 -73.167147.5  RSN  4 0.2 1.5LRSN                1
 GAP=191        0.62       4.5     5.2  6.7  0.6149E+01  0.4461E+01 -0.6822E+01E
 Epicentro: VILLANUEVA - SANTANDER                                             3
 ACTION:UPD 13-02-15 09:13 OP:ep   STATUS:               ID:20130109102230 L   I
 2013-01-09-1018-48M.COL___195                                                 6
 STAT SP IPHASW D HRMM SECON CODA AMPLIT PERI AZIMU VELO AIN AR TRES W  DIS CAZ7
 BAR2 SZ EP       1022 49.76                             173   -0.2210 17.4 186 
 BAR2 SZ ES       1023  5.30                             173   -0.0810 17.4 186 
 BAR2 SZ I        1023  7.51         4.8 0.36            173           17.4 186 
 BRR  HZ EP       1022 52.02                             152    0.3910 72.1 303 
 BRR  HN ES       1023  8.49                             152    0.1810 72.1 303 
 BRR  HN I        1023  9.73        10.3 0.22            154           72.1 303 
 OCA  HN ES       1023 21.68                             129   -0.10 9  166 354 
 ZAR  HN ES       1023 27.95                             123   -0.26 9  204 294 
                                                                                
