 2017  9 9 1615 31.0 L   6.787 -73.124142.0  RSN  6 0.3 1.4LRSN                1
 GAP=140        0.67       3.0     3.6  4.8  0.7823E+00  0.3728E+01  0.4142E+01E
 Epicentro: LOS SANTOS - SANTANDER                                             3
 ACTION:UPD 17-10-05 19:10 OP:rebc STATUS:               ID:20170909161531 L   I
 OLDACT:DUP 17-09-09 22:48 OP:lv   STATUS:               ID:20170909160738d    3
 2017-09-09-1608-00M.COL___415                                                 6
 STAT SP IPHASW D HRMM SECON CODA AMPLIT PERI AZIMU VELO AIN AR TRES W  DIS CAZ7
 BAR2 EZ EP       1615 49.99                             171   -0.2010 22.5 197 
 BAR2 EZ ES       1616  4.89                             171   -0.2510 22.5 197 
 BAR2 EZ I        1616  6.31         7.5 0.26            169           22.5 197 
 BRR  HE ES       1616  8.70                             151    0.4510 74.1 299 
 PAM  EZ EP       1615 52.88                             150    0.0510 77.0  37 
 PAM  EN ES       1616  9.95                             150    0.1210 77.0  37 
 PAM  EZ I        1616 10.58         3.8 0.18            152           77.0  37 
 RUS  HZ EP       1615 54.06                             144   -0.2410 99.0 177 
 RUS  HN ES       1616 12.55                             144    0.1110 99.0 177 
 RUS  HZ I        1616 13.80         2.0 0.23            143           99.0 177 
 ZAR  HN ES       1616 28.50                             121   -0.38 8  207 292 
 PRA  HZ EP       1616 24.73                             106    0.31 6  392 210 
 PRA  HE ES       1617  6.41                             106    0.35 6  392 210 
 PRA  HZ I        1617 11.20         2.1 0.32            106            392 210 
                                                                                
