 2015  1 9 1042 37.1 L   6.366 -73.575121.3  RSN  5 0.3 1.4LRSN                1
 GAP=178        0.85       4.8     4.4  7.5 -0.7419E+01  0.1242E+02 -0.1533E+02E
 Epicentro: SANTA HELENA DEL OPON - SANTANDER                                  3
 ACTION:UPD 15-03-02 15:38 OP:nd   STATUS:               ID:20150109104238dL   I
 OLDACT:DUP 15-01-09 20:16 OP:mh   STATUS:               ID:20150109103747d    3
 OLDACT:UP  15-01-09 20:15 OP:mh   STATUS:               ID:20150109103746     3
 OLDACT:REG 15-01-09 19:36 OP:mh   STATUS:               ID:20150109103746     3
 2015-01-09-1037-46M.COL___262                                                 6
 STAT SP IPHASW D HRMM SECON CODA AMPLIT PERI AZIMU VELO AIN AR TRES W  DIS CAZ7
 BAR2 EZ EP   1   1042 55.34                             156    0.54 7 50.1  60 
 BAR2 EZ ES       1043  8.55                             156   -0.0610 50.1  60 
 PTB  HZ EP       1042 57.06                             138   -0.7310 99.4 281 
 PTB  HN ES       1043 13.91                             138   -0.0110 99.4 281 
 PTB  HZ I        1043 14.20         2.7 0.12            134           99.4 281 
 NOR  HN ES       1043 25.80                             122    0.17 9  169 238 
 NOR  HZ I        1043 29.75         2.0 0.51            120            169 238 
 ZAR  HZ EP       1043  6.69                             119    0.26 9  189 311 
 ZAR  HN ES       1043 29.64                             119    0.34 9  189 311 
 ZAR  HZ I        1043 34.14         3.8 0.26            116            189 311 
 SML  HZ EP       1043 16.06                             109    0.02 8  275 349 
 SML  HN ES       1043 46.22                             109   -0.19 8  275 349 
 SML  HZ I        1043 53.30         2.7 0.28            107            275 349 
                                                                                
