 2016 10 9 1023 54.0 L   6.812 -73.172143.8  RSN  7 0.3 1.3LRSN                1
 GAP=133        0.79       3.0     3.5  5.2 -0.6039E+00  0.5800E+01  0.1064E+01E
 Epicentro: LOS SANTOS - SANTANDER                                             3
 ACTION:UPD 16-11-09 19:17 OP:rebc STATUS:               ID:20161009102354 L   I
 OLDACT:DUP 16-10-09 21:10 OP:lv   STATUS:               ID:20161009101745d    3
 2016-10-09-1018-00M.COL___363                                                 6
 STAT SP IPHASW D HRMM SECON CODA AMPLIT PERI AZIMU VELO AIN AR TRES W  DIS CAZ7
 BAR2 EZ EP       1024 13.34                             170   -0.0410 24.3 183 
 BAR2 EZ ES       1024 28.08                             170   -0.4510 24.3 183 
 BAR2 EZ I        1024 30.99         7.1 0.35            169           24.3 183 
 PAM  EZ EP       1024 16.13                             150    0.1010 78.3  42 
 PAM  EN ES       1024 33.40                             150    0.1610 78.3  42 
 PAM  EZ I        1024 35.91         2.5 0.43            156           78.3  42 
 RUS  HZ EP       1024 17.27                             143   -0.3710  102 174 
 RUS  HE ES       1024 36.58                             143    0.4810  102 174 
 RUS  HZ I        1024 37.29         3.2 0.39            146            102 174 
 PTB  HZ EP       1024 20.00                             132   -0.54 9  145 258 
 PTB  HN ES       1024 41.20                             132   -0.06 9  145 258 
 PTB  HZ I        1024 47.88         1.7 0.09            133            145 258 
 SPBC HZ EP       1024 22.40                             129    0.16 9  162 218 
 SPBC HN ES       1024 44.15                             129   -0.14 9  162 218 
 SPBC HZ I        1024 50.54         5.0 0.23            131            162 218 
 ZAR  HZ EP       1024 26.12                             122    0.16 9  201 292 
 ZAR  HE ES       1024 51.33                             122    0.42 9  201 292 
 ZAR  HZ I        1024 56.46         1.4 0.10            124            201 292 
 CHI  HZ EP       1024 31.54                             117   -0.07 8  249 194 
 CHI  HE ES       1025  1.37                             117    0.40 8  249 194 
 CHI  HZ I        1025  3.81         1.0 0.31            119            249 194 
                                                                                
