 2012 10 9 1710 30.9 L   6.788 -73.139141.1  RSN  5 0.2 1.5LRSN                1
 GAP=138        0.35       7.1     6.6  7.5 -0.9654E+01  0.1341E+00 -0.3012E+02E
 Epicentro: LOS SANTOS - SANTANDER                                             3
 ACTION:UPD 12-11-22 17:02 OP:ep   STATUS:               ID:20121009171030 L   I
 2012-10-09-1710-00M.COL___222                                                 6
 STAT SP IPHASW D HRMM SECON CODA AMPLIT PERI AZIMU VELO AIN AR TRES W  DIS CAZ7
 BAR2 SZ EP   3   1710 49.65                             170   -0.26 2 22.1 193 
 BAR2 SZ ES   2   1711  4.49                             170   -0.28 5 22.1 193 
 BAR2 SZ I        1711  7.43        10.2 0.38                          22.1 193 
 GIR2 SZ ES   3   1711  5.32                             166    0.35 2 32.8 349 
 BRR  HZ EP   1   1710 51.62                             151    0.03 7 72.5 299 
 PAM  SZ EP       1710 52.64                             150    0.0210 78.0  38 
 PAM  SZ I        1710 52.81         4.0 0.22                          78.0  38 
 RUS  HZ EP   3   1710 53.97                             143   -0.09 2 99.2 176 
 RUS  HN ES   3   1711 12.70                             143    0.55 2 99.2 176 
 RUS  HN I        1711 13.84         5.6 0.34                          99.2 176 
                                                                                
