 2010  3 9 1052 40.2 L   6.748 -73.444121.5  RSN  4 0.1 1.3LRSN                1
 GAP=166        0.34       2.5     4.9  3.2  0.5934E+01 -0.5248E+01 -0.2701E+01E
 Epicentro: EL CARMEN DE CHUCURI - SANTANDER                                   3
 ACTION:UP  10-08-24 09:52 OP:vdl  STATUS:               ID:20100309105240 L   I
 2010-03-09-1050-16S.COL___101                                                 6
 STAT SP IPHASW D HRMM SECON CODA AMPLIT PERI AZIMU VELO SNR AR TRES W  DIS CAZ7
 BAR2 SZ EP       1052 57.37                             163     0.210   34 121 
 BAR2 SZ ES   1   1053 10.40                             163    -0.1 7   34 121 
 BRR  HZ EP       1052 57.45                             156    -0.110   50 323 
 BRR  HN ES       1053 11.04                             156     0.010   50 323 
 RUS  BZ EP   2   1053  1.73                             137    -0.1 5  103 157 
 RUS  BN ES   3   1053 18.25                             137    -0.4 2  103 157 
 RUS  BZ I        1053 21.67         4.2 0.58                           103 157 
 OCA  SZ EP       1053  7.22                             122     0.0 9  165   5 
 OCA  SZ ES   1   1053 28.37                             122     0.0 7  165   5 
                                                                                
