 2015 11 9 1040 55.9 L   6.768 -73.133135.0  RSN 14 0.4 2.2LRSN                1
 GAP=140        0.96       2.9     3.7  5.2 -0.1826E+01  0.7323E+01  0.5148E+00E
 Epicentro: LOS SANTOS - SANTANDER                                             3
 ACTION:UPD 15-12-28 16:09 OP:cam  STATUS:               ID:20151109104055 L   I
 OLDACT:REG 15-11-09 20:38 OP:cara STATUS:               ID:20151109103749     3
 2015-11-09-1037-49M.COL___317                                                 6
 STAT SP IPHASW D HRMM SECON CODA AMPLIT PERI AZIMU VELO AIN AR TRES W  DIS CAZ7
 BAR2 EZ IP     C 1041 14.17                             171    0.0510 20.2 196 
 BAR2 EZ ES       1041 27.87                             171   -0.5010 20.2 196 
 BAR2 EZ I        1041 37.22        16.0 0.28            169           20.2 196 
 BRR  HZ IP       1041 15.98                             149   -0.0410 74.1 300 
 BRR  HN ES       1041 32.38                             149    0.6210 74.1 300 
 BRR  HZ I        1041 36.89        33.6 0.14            149           74.1 300 
 PAM  EZ EP       1041 16.89                             148   -0.1610 79.3  37 
 PAM  EN ES       1041 33.85                             148    0.2710 79.3  37 
 PAM  EZ I        1041 34.40        30.4 0.16            155           79.3  37 
 RUS  HZ EP       1041 18.14                             143   -0.1510 97.0 177 
 RUS  HN ES       1041 35.95                             143    0.1710 97.0 177 
 RUS  HZ I        1041 38.49        17.0 0.22            146           97.0 177 
 SPBC HZ EP       1041 23.24                             127   -0.13 9  161 220 
 SPBC HN ES       1041 44.83                             127    0.00 9  161 220 
 SPBC HZ I        1041 48.67        20.7 0.24            129            161 220 
 OCA  HZ EP       1041 23.34                             126   -0.37 9  164 353 
 OCA  HN ES   4   1041 43.71                             126   -1.72 0  164 353 
 OCA  HZ I        1041 45.29        35.0 0.18            131            164 353 
 ZAR  HZ EP       1041 28.31                             120    0.41 8  207 293 
 ZAR  HN ES       1041 52.76                             120   -0.13 8  207 293 
 ZAR  HZ I        1041 57.94        24.6 0.42            122            207 293 
 NOR  HZ EP       1041 31.01                             116    0.13 8  234 235 
 NOR  HE ES       1041 57.40                             116   -0.80 8  234 235 
 NOR  HZ I        1042  6.85        13.3 0.20            119            234 235 
 CHI  HZ EP       1041 33.10                             115    0.46 8  246 196 
 CHI  HN ES       1042  1.19                             115   -0.15 8  246 196 
 CHI  HZ I        1042  9.49         4.5 0.28            119            246 196 
 SML  HZ EP   4   1041 30.59                             115   -1.73 0  247 335 
 SML  HN ES   4   1041 58.21                             115   -2.55 0  247 335 
 SML  HZ I        1042  6.71        19.0 0.10            118            247 335 
 HEL  HZ EP       1041 36.30                             112    0.70 8  273 257 
 HEL  HN ES       1042  6.27                             112   -0.32 8  273 257 
 HEL  HZ I        1042 12.39         8.7 0.56            115            273 257 
 URE  HZ EP       1041 35.96                             111   -0.76 7  286 292 
 URE  HN ES   4   1042  6.46                             111   -2.13 0  286 292 
 URE  HZ I        1042  7.70         9.9 0.14            114            286 292 
 GUY2CHZ EP   4   1041 40.14                             110    1.26 0  300 235 
 GUY2CHN ES       1042 13.21                             110    0.76 7  300 235 
 GUY2CHZ I        1042 23.29         6.2 0.40                           300 235 
 MON  HZ EP   4   1041 41.73                             106   -3.11 0  357 309 
 MON  HN ES   4   1042 16.92                             106   -6.13 0  357 309 
 MON  HZ I        1042 33.45         2.4 0.44            109            357 309 
                                                                                
