 2016 10 9 1626 23.2 L   6.811 -73.167147.5  RSN  8 0.3 1.5LRSN                1
 GAP=133        0.85       3.2     3.6  5.8 -0.1508E+01  0.6639E+01  0.6178E+00E
 Epicentro: LOS SANTOS - SANTANDER                                             3
 ACTION:UPD 16-11-09 19:18 OP:rebc STATUS:               ID:20161009162623 L   I
 OLDACT:REG 16-10-09 20:29 OP:lv   STATUS:               ID:20161009161400     3
 2016-10-09-1618-00M.COL___360                                                 6
 STAT SP IPHASW D HRMM SECON CODA AMPLIT PERI AZIMU VELO AIN AR TRES W  DIS CAZ7
 BAR2 EZ EP       1626 42.94                             170   -0.1210 24.3 184 
 BAR2 EZ ES       1626 58.37                             170   -0.1910 24.3 184 
 BAR2 EZ I        1627  0.67         7.6 0.25            170           24.3 184 
 PAM  EZ EP       1626 46.01                             151    0.3710 77.9  41 
 PAM  EN ES       1627  3.22                             151    0.0810 77.9  41 
 PAM  EZ I        1627  4.75         5.3 0.28            155           77.9  41 
 RUS  HZ EP       1626 46.62                             144   -0.6110  102 175 
 RUS  HN ES       1627  6.23                             144    0.2610  102 175 
 RUS  HZ I        1627  7.57         2.9 0.37            147            102 175 
 PTB  HZ EP       1626 49.66                             133   -0.47 9  146 258 
 PTB  HN ES       1627 10.71                             133   -0.42 9  146 258 
 PTB  HZ I        1627 15.78         4.6 0.18            133            146 258 
 SPBC HN ES       1627 14.33                             130    0.24 9  163 218 
 ZAR  HZ EP       1626 55.42                             123   -0.07 9  201 292 
 ZAR  HN ES       1627 21.16                             123    0.49 9  201 292 
 ZAR  HZ I        1627 25.72         3.8 0.28            124            201 292 
 NOR  HN ES       1627 27.04                             119    0.28 8  234 234 
 NOR  HZ I        1627 32.35         3.5 0.18            120            234 234 
 CHI  HZ EP       1627  1.40                             117    0.34 8  249 195 
 CHI  HN ES       1627 30.74                             117    0.14 8  249 195 
                                                                                
