 2012  2 9 1205 44.6 L   6.793 -73.198121.8  RSN  6 0.2 1.5LRSN                1
 GAP=130        0.48       3.4     3.1  8.6 -0.2006E+01  0.1403E+02 -0.7163E+01E
 ACTION:UP  12-03-07 16:28 OP:epov STATUS:               ID:20120209120545dL   I
 2012-02-09-1200-00M.COL___187                                                 6
 STAT SP IPHASW D HRMM SECON CODA AMPLIT PERI AZIMU VELO AIN AR TRES W  DIS CAZ7
 BAR2 SZ EP   1   12 6  1.64                             169    0.29 7 22.2 175 
 BRR  HZ EP   1   12 6  3.32                             149    0.38 7 66.6 302 
 BRR  HZ I        12 6 23.37        13.2 0.27                          66.6 302 
 PAM  SZ EP   1   12 6  4.53                             144   -0.12 7 81.8  42 
 PAM  SN ES   1   12 6 20.15                             144   -0.13 7 81.8  42 
 PAM  SZ I        12 6 24.09         4.1 0.34                          81.8  42 
 RUS  HN ES   1   12 6 22.72                             138   -0.09 7  100 173 
 PTB  HZ EP   1   12 6  8.87                             127   -0.30 7  142 259 
 PTB  HN ES   1   12 6 28.31                             127   -0.01 7  142 259 
 PTB  HZ I        12 6 32.24                                            142 259 
 ZAR  HN ES   1   12 6 38.75                             117   -0.08 6  199 293 
                                                                                
