 2013  7 9 1852 50.7 L   6.725 -73.197150.6  RSN  4 0.3 1.7LRSN                1
 GAP=226        0.83       6.6     6.2  6.7  0.2009E+02  0.4357E+01  0.1359E+01E
 Epicentro: VILLANUEVA - SANTANDER                                             3
 ACTION:UPD 13-08-12 10:36 OP:ep   STATUS:               ID:20130709185250 L   I
 OLDACT:REG 13-07-09 16:24 OP:stll STATUS:               ID:20130709184849     3
 2013-07-09-1848-49M.COL___226                                                 6
 STAT SP IPHASW D HRMM SECON CODA AMPLIT PERI AZIMU VELO AIN AR TRES W  DIS CAZ7
 BAR2 SZ EP       1853 10.79                             174   -0.0110 14.8 174 
 BAR2 SZ ES       1853 26.03                             174   -0.4310 14.8 174 
 BAR2 SZ I        1853 27.89         4.5 0.26            174           14.8 174 
 BRR  HZ EP       1853 12.45                             153    0.0710 70.8 307 
 BRR  HN ES       1853 29.57                             153    0.3010 70.8 307 
 BRR  HN I        1853 30.51        22.8 0.24            155           70.8 307 
 RUS  HZ EP       1853 14.82                             147    0.3910 92.9 172 
 RUS  HN ES       1853 32.98                             147    0.0610 92.9 172 
 RUS  HN I        1853 34.98         5.9 0.42            148           92.9 172 
 PTB  HZ EP       1853 16.89                             135   -0.58 9  141 262 
 PTB  HN ES       1853 38.49                             135    0.16 9  141 262 
                                                                                
