 2017 10 9 1347 53.6 L   6.889 -73.196141.5  RSN  9 0.3 2.0LRSN                1
 GAP=118        0.82       3.2     3.2  5.7 -0.6827E+00  0.4788E+01  0.4752E+01E
 Epicentro: BETULIA - SANTANDER                                                3
 ACTION:UPD 17-11-07 19:30 OP:rebc STATUS:               ID:20171009134753 L   I
 OLDACT:REG 17-10-09 20:36 OP:lv   STATUS:               ID:20171009133740     3
 2017-10-09-1338-00M.COL___438                                                 6
 STAT SP IPHASW D HRMM SECON CODA AMPLIT PERI AZIMU VELO AIN AR TRES W  DIS CAZ7
 BAR2 EZ IP     D 1348 12.82                             166   -0.1510 32.9 177 
 BAR2 EZ ES       1348 27.74                             166   -0.3210 32.9 177 
 BAR2 EZ I        1348 28.94        20.6 0.12            167           32.9 177 
 PAM  EZ EP       1348 15.25                             151    0.0710 74.1  48 
 PAM  EN ES       1348 32.04                             151    0.0410 74.1  48 
 PAM  EZ I        1348 34.19        22.6 0.36            155           74.1  48 
 RUS  HZ EP       1348 17.25                             140   -0.4910  111 174 
 RUS  HN ES       1348 36.94                             140    0.3910  111 174 
 RUS  HZ I        1348 38.54         4.8 0.46            142            111 174 
 SPBC HZ EP       1348 22.43                             127    0.21 9  168 215 
 SPBC HN ES       1348 44.53                             127   -0.01 9  168 215 
 SPBC HZ I        1348 48.53        15.8 0.24            128            168 215 
 YPLC HZ EP       1348 23.80                             124   -0.44 9  188 151 
 YPLC HN ES       1348 48.75                             124    0.62 9  188 151 
 ZAR  HZ EP   4   1348 26.98                             123    2.10 0  195 290 
 ZAR  HN ES       1348 49.57                             123    0.31 9  195 290 
 ZAR  HZ I        1348 56.09        19.6 0.26            123            195 290 
 NOR  HN ES       1348 56.78                             117   -0.28 8  236 232 
 NOR  HZ I        1349  1.84         5.9 0.36            118            236 232 
 CHI  HZ EP       1348 32.37                             115    0.39 8  257 193 
 CHI  HN ES       1349  1.49                             115   -0.41 8  257 193 
 CHI  HZ I        1349  6.32         3.1 0.30            117            257 193 
 GUY2CHZ EP   4   1348 39.69                             111    2.51 0  303 233 
 GUY2CHN ES       1349 11.39                             111    0.23 7  303 233 
 GUY2CHZ I        1349 20.14         5.4 0.50                           303 233 
                                                                                
