 2011  9 9 1526 51.2 L   6.782 -73.124143.0  RSN 15 0.4 2.6LRSN                1
 GAP=116        0.67       2.3     3.1  4.3 -0.2775E+00  0.4035E+01  0.2593E+01E
 Epicentro: LOS SANTOS - SANTANDER                                             3
 ACTION:UPD 12-07-13 15:56 OP:ep   STATUS:               ID:20110909152651 L   I
 2011-09-09-1524-41S.COL___170                                                 6
 STAT SP IPHASW D HRMM SECON CODA AMPLIT PERI AZIMU VELO AIN AR TRES W  DIS CAZ7
 BAR2 SZ IP       1527 10.56                             171    0.1010 21.9 197 
 BAR2 SZ ES   1   1527 25.27                             171   -0.23 7 21.9 197 
 BAR2 SZ I        1527 26.88        86.8 0.27                          21.9 197 
 GIR2 SZ EP       1527 10.59                             166   -0.0210 33.7 347 
 BRR  HZ IP     C 1527 12.34                             151    0.1210 74.2 299 
 BRR  HN ES       1527 29.26                             151    0.6410 74.2 299 
 BRR  HZ I        1527 33.47        74.5 0.18                          74.2 299 
 PAM  SZ EP       1527 13.30                             150    0.1810 77.5  37 
 PAM  SN ES   1   1527 29.78                             150   -0.45 7 77.5  37 
 RUS  HZ EP       1527 14.58                             144    0.0610 98.4 177 
 RUS  HZ I        1527 15.48        33.1 0.13                          98.4 177 
 RUS  HE ES   1   1527 32.52                             144   -0.19 7 98.4 177 
 OCA  SZ EP   1   1527 19.74                             129    0.23 7  163 352 
 OCA  SZ ES   1   1527 41.02                             129   -0.57 7  163 352 
 OCA  SZ I        1527 44.11        49.6 0.28                           163 352 
 YOP  SE ES   1   1527 43.97                             126    0.15 7  176 154 
 ZAR  HZ EP   1   1527 23.67                             121   -0.09 6  207 292 
 ZAR  HE ES   1   1527 48.32                             121   -0.85 6  207 292 
 ZAR  HZ I        1527 54.34        45.0 0.39                           207 292 
 NOR  SZ EP   1   1527 26.93                             118    0.09 6  235 235 
 NOR  SE ES   1   1527 54.51                             118   -0.14 6  235 235 
 CHI  HZ EP   1   1527 28.55                             117   -0.05 6  247 196 
 CHI  HN ES   1   1527 57.45                             117   -0.32 6  247 196 
 CHI  HZ I        1528  5.39        16.6 0.48                           247 196 
 HEL  HZ EP   2   1527 32.11                             114    0.65 4  274 256 
 HEL  HZ I        1528 10.29        17.5 0.68                           274 256 
 GUY  SZ EP   1   1527 35.33                             112    0.30 5  304 236 
 GUY  SE ES   1   1528  9.80                             112    0.58 5  304 236 
 GUY  SZ I        1528 16.25        27.0 0.22                           304 236 
 RREF HZ EP   1   1527 36.82                             110   -0.45 5  322 230 
 RREF HN ES   1   1528 12.81                             110   -0.40 5  322 230 
 RREF HZ I        1528 24.67        22.3 0.25                           322 230 
 TOL  SZ EP   1   1527 39.58                             109    0.22 5  344 225 
 PRA  HZ EP   1   1527 44.19                             106   -0.36 4  391 210 
 PRA  HE ES   1   1528 25.82                             106   -0.35 4  391 210 
                                                                                
