 2012  3 9 1640 30.0 L   6.807 -73.067145.1  RSN  6 0.4 1.6LRSN                1
 GAP=146        0.91       6.2     6.9  8.3  0.6180E+01  0.8290E+01  0.3415E+01E
 ACTION:UP  12-03-31 23:18 OP:EP   STATUS:               ID:20120309164030 L   I
 2012-03-09-1640-00M.COL___193                                                 6
 STAT SP IPHASW D HRMM SECON CODA AMPLIT PERI AZIMU VELO SNR AR TRES W  DIS CAZ7
 BAR2 SZ ES   1   1641  4.38                             169    -0.5 7   27 208 
 BAR2 SZ I        1641  5.96         9.7 0.26                            27 208 
 PAM  SZ EP   1   1640 51.73                             153    -0.1 7   71  35 
 PAM  SN ES   1   1641  8.62                             153    -0.2 7   71  35 
 BRR  HZ EP       1640 51.84                             150     0.310   79 295 
 BRR  HZ I        1640 58.83        11.4 0.51                            79 295 
 BRR  HN ES       1641  8.59                             150     0.310   79 295 
 RUS  HZ EP   1   1640 53.90                             143     0.2 7  101 181 
 RUS  HN ES   1   1641 12.44                             143     0.2 7  101 181 
 RUS  HZ I        1641 15.04         3.0 0.54                           101 181 
 PTB  HZ EP   1   1640 57.08                             130    -0.6 7  156 259 
 ZAR  HE ES   2   1641 28.45                             121    -0.7 4  212 291 
 ZAR  HZ I        1641 34.63         5.5 0.32                           212 291 
                                                                                
