 2016  1 9 1401 16.6 L   6.798 -73.172144.0  RSN 10 0.5 2.1LRSN                1
 GAP=133        1.24       4.4     4.6  7.8 -0.9251E+00  0.9736E+01  0.7855E+01E
 Epicentro: LOS SANTOS - SANTANDER                                             3
 ACTION:UPD 16-03-09 23:24 OP:cam  STATUS:               ID:20160109140116 L   I
 OLDACT:REG 16-01-09 22:33 OP:ar   STATUS:               ID:20160109135749     3
 2016-01-09-1357-49M.COL___273                                                 6
 STAT SP IPHASW D HRMM SECON CODA AMPLIT PERI AZIMU VELO AIN AR TRES W  DIS CAZ7
 BAR2 EZ EP       14 1 35.60                             171   -0.3610 22.8 183 
 BAR2 EZ I        14 1 52.88        28.3 0.26            171           22.8 183 
 BRR  HZ EP       14 1 37.37                             153   -0.0010 68.7 300 
 BRR  HN ES       14 1 54.53                             153    0.9310 68.7 300 
 BRR  HZ I        14 1 57.52        25.5 0.28            153           68.7 300 
 PAM  EZ EP       14 1 38.88                             150    0.1810 79.4  41 
 PAM  EN ES       14 1 55.85                             150   -0.1310 79.4  41 
 PAM  EZ I        14 1 57.74        16.9 0.52            151           79.4  41 
 RUS  HZ EP       14 1 39.75                             143   -0.3910  101 174 
 RUS  HN ES       14 1 58.48                             143   -0.0510  101 174 
 RUS  HZ I        14 1 59.29        15.9 0.24            145            101 174 
 PTB  HZ EP       14 1 42.32                             132   -0.79 9  145 259 
 PTB  HN ES       14 2  3.34                             132   -0.48 9  145 259 
 PTB  HZ I        14 2  5.38        20.8 0.60            133            145 259 
 SPBC HZ EP       14 1 44.53                             129   -0.20 9  161 218 
 SPBC HN ES       14 2  6.87                             129    0.17 9  161 218 
 SPBC HZ I        14 2 13.63        25.4 0.24            130            161 218 
 ZAR  HZ EP       14 1 49.30                             122    0.69 9  201 292 
 ZAR  HN ES       14 2 13.03                             122   -0.58 9  201 292 
 ZAR  HZ I        14 2 18.81        14.1 0.46            123            201 292 
 CHI  HZ EP       14 1 53.85                             117   -0.21 8  248 195 
 CHI  HN ES       14 2 23.75                             117    0.45 8  248 195 
 CHI  HZ I        14 2 25.39         9.1 0.36            118            248 195 
 HEL  HZ EP       14 1 57.21                             115    0.85 8  269 256 
 HEL  HE ES       14 2 26.69                             115   -0.71 8  269 256 
 HEL  HZ I        14 2 35.12         7.1 0.44            116            269 256 
 GUY2CHZ EP       14 2  0.67                             112    0.87 7  299 234 
 GUY2CHN ES       14 2 33.94                             112    0.41 7  299 234 
 GUY2CHZ I        14 2 43.37         6.9 0.24                           299 234 
                                                                                
