 2010  8 9 1726 30.0 L   6.796 -73.077142.1  RSN  5 0.2 1.5LRSN                1
 GAP=166        0.42       5.1    11.1  5.7  0.3029E+02  0.4253E+01 -0.1401E+01E
 Epicentro: LOS SANTOS - SANTANDER                                             3
 ACTION:UP  10-09-07 10:53 OP:vdl  STATUS:               ID:20100809172630 L   I
 2010-08-09-1724-38S.COL___125                                                 6
 STAT SP IPHASW D HRMM SECON CODA AMPLIT PERI AZIMU VELO SNR AR TRES W  DIS CAZ7
 BAR2 SZ I        1727  5.73        13.6 0.15                            25 208 
 BTL  SZ EP       1726 49.39                             170     0.110   25 303 
 BAR2 SZ ES   2   1727  4.14                             170    -0.1 5   25 208 
 BTL  SZ ES   2   1727  4.56                             170     0.3 5   25 303 
 BRR  HZ EP       1726 51.12                             150    -0.110   78 296 
 BRR  HE ES   3   1727  7.23                             150    -0.5 2   78 296 
 RUS  HZ EP   1   1726 53.36                             143     0.0 7  100 180 
 RUS  HE ES   2   1727 11.35                             143    -0.2 5  100 180 
 RUS  HZ I        1727 13.99         4.1 0.45                           100 180 
 GRA  SZ ES   3   1727 13.59                             136    -0.5 2  124  14 
 GRA  SZ I        1727 19.47         4.3 0.24                           124  14 
                                                                                
