 2013  5 9 1312 54.1 L   6.823 -73.142147.5  RSN  4 0.5 1.4LRSN                1
 GAP=278        0.85      11.9     8.1 12.2  0.1456E+02  0.3248E+02 -0.4262E+02E
 Epicentro: LOS SANTOS - SANTANDER                                             3
 ACTION:UPD 13-06-20 09:49 OP:ep   STATUS:               ID:20130509131254 L   I
 2013-05-09-1310-00M.COL___256                                                 6
 STAT SP IPHASW D HRMM SECON CODA AMPLIT PERI AZIMU VELO AIN AR TRES W  DIS CAZ7
 BAR2 SZ EP   2   1313 14.37                             169    0.33 5 25.9 190 
 BAR2 SZ ES   2   1313 30.28                             169    0.72 5 25.9 190 
 RUS  HZ EP   2   1313 18.71                             143    0.46 5  103 176 
 RUS  HN ES   1   1313 36.48                             143   -0.57 8  103 176 
 RUS  HZ I        1313 38.13         1.9 0.22            140            103 176 
 PTB  HZ EP       1313 21.19                             132   -0.1510  149 258 
 PTB  HN ES   1   1313 42.12                             132   -0.43 7  149 258 
 PTB  HZ I        1313 48.05         4.4 0.28            128            149 258 
 NOR  HZ EP   2   1313 29.93                             118   -0.24 4  237 234 
 NOR  HE ES   1   1313 59.14                             118    0.87 6  237 234 
 NOR  HZ I        1314  5.37         2.9 0.24            116            237 234 
                                                                                
