 2013 12 9 1035 52.3 L   5.999 -73.751105.8  RSN  5 0.3 0.9LRSN                1
 GAP=124        0.61       6.4     4.8  9.8  0.1920E+02  0.1436E+02 -0.1158E+02E
 Epicentro: BOLIVAR - SANTANDER                                                3
 ACTION:UPD 14-01-13 10:16 OP:ep   STATUS:               ID:20131209103552 L   I
 OLDACT:REG 13-12-09 14:27 OP:cam  STATUS:               ID:20131209103000     3
 2013-12-09-1030-00M.COL___285                                                 6
 STAT SP IPHASW D HRMM SECON CODA AMPLIT PERI AZIMU VELO AIN AR TRES W  DIS CAZ7
 SPBC HZ EP   2   1036  8.79                             151    0.65 5 52.3 223 
 RUS  HZ EP   1   1036 10.24                             142    0.03 7 74.8  99 
 RUS  HN ES       1036 23.99                             142   -0.2410 74.8  99 
 RUS  HZ I        1036 25.87         1.6 0.56            148           74.8  99 
 BAR2 SZ EP       1036 11.10                             136   -0.0410 90.9  44 
 BAR2 SZ ES   2   1036 26.66                             136    0.79 5 90.9  44 
 PTB  HN ES   2   1036 26.37                             133   -0.11 5 98.3 307 
 PTB  HZ I        1036 28.55         2.6 0.14            137           98.3 307 
 ZAR  HN ES       1036 46.22                             112   -0.10 8  206 324 
                                                                                
