 2011  1 9 1846 22.7 L   6.227 -73.621105.2  RSN  5 0.2 1.5LRSN                1
 GAP=144        0.42       4.5     3.7  6.5 -0.5482E+01  0.9950E+01  0.6189E+01E
 Epicentro: LA PAZ - SANTANDER                                                 3
 ACTION:UP  11-02-08 08:39 OP:pat  STATUS:               ID:20110109184622 L   I
 2011-01-09-1844-45S.COL___136                                                 6
 STAT SP IPHASW D HRMM SECON CODA AMPLIT PERI AZIMU VELO SNR AR TRES W  DIS CAZ7
 BAR2 SZ EP   1   1846 39.46                             147     0.1 7   63  50 
 BAR2 SZ ES   1   1846 52.53                             147     0.1 7   63  50 
 BAR2 SZ I        1846 54.30        17.5 0.39                            63  50 
 RUS  HZ EP   1   1846 40.38                             144     0.1 7   70 122 
 RUS  HZ I        1846 41.01         2.7 0.29                            70 122 
 RUS  HN ES   2   1846 53.57                             144    -0.4 5   70 122 
 GIR2 SZ EP   2   1846 42.38                             131    -0.3 5  105  27 
 NOR  SZ EP   1   1846 47.55                             119    -0.1 7  157 242 
 NOR  SE ES   2   1847  7.37                             119     0.2 5  157 242 
 YOP  SZ EP   2   1846 48.77                             118     0.2 5  164 126 
 YOP  SZ I        1846 49.48         5.5 0.48                           164 126 
                                                                                
