 2017 10 9 1846 31.3 L   6.794 -73.145149.5  RSN  5 0.4 1.4LRSN                1
 GAP=137        0.91       4.7     5.0  8.4 -0.3696E+01  0.1503E+02 -0.1293E+01E
 Epicentro: LOS SANTOS - SANTANDER                                             3
 ACTION:UPD 17-11-07 19:30 OP:rebc STATUS:               ID:20171009184631 L   I
 OLDACT:REG 17-10-09 21:25 OP:lv   STATUS:               ID:20171009183328     3
 2017-10-09-1838-00M.COL___429                                                 6
 STAT SP IPHASW D HRMM SECON CODA AMPLIT PERI AZIMU VELO AIN AR TRES W  DIS CAZ7
 BAR2 EZ EP       1846 50.69                             171   -0.6710 22.7 191 
 BAR2 EZ ES       1847  6.89                             171   -0.1210 22.7 191 
 BAR2 EZ I        1847  7.36         6.5 0.18            172           22.7 191 
 PAM  EZ EP       1846 54.30                             151    0.3710 77.8  39 
 PAM  EN ES       1847 11.83                             151    0.2410 77.8  39 
 PAM  EZ I        1847 13.44         4.1 0.40            151           77.8  39 
 RUS  HZ EP       1846 55.27                             145   -0.1010 99.9 176 
 RUS  HN ES       1847 14.20                             145    0.0510 99.9 176 
 RUS  HZ I        1847 14.94         3.6 0.26            146           99.9 176 
 ZAR  HN ES       1847 29.33                             123   -0.21 9  204 292 
 NOR  HN ES       1847 35.81                             119    0.58 8  234 235 
                                                                                
