 2014  3 9 1143 21.9 L   6.780 -73.165144.3  RSN  4 0.1 1.8LRSN                1
 GAP=140        0.47       2.9     3.0  4.6 -0.2893E+01  0.1045E+01 -0.3451E+00E
 Epicentro: LOS SANTOS - SANTANDER                                             3
 ACTION:UPD 14-04-09 23:15 OP:nd   STATUS:               ID:20140309114321 L   I
 OLDACT:REG 14-03-09 18:10 OP:stll STATUS:               ID:20140309113814     3
 2014-03-09-1138-14M.COL___220                                                 6
 STAT SP IPHASW D HRMM SECON CODA AMPLIT PERI AZIMU VELO AIN AR TRES W  DIS CAZ7
 BAR2 SZ ES       1143 56.66                             171    0.2510 20.8 185 
 BAR2 SZ I        1143 58.88         6.0 0.38            171           20.8 185 
 PAM  SZ EP       1143 44.16                             150    0.0510 80.5  40 
 PAM  SZ I        1143 44.27       108.8 0.22            152           80.5  40 
 PAM  SE ES       1144  1.32                             150   -0.1510 80.5  40 
 RUS  HZ EP       1143 45.41                             144    0.0910 98.5 175 
 RUS  HN ES       1144  3.44                             144   -0.1810 98.5 175 
 PTB  HN ES       1144  9.17                             132   -0.08 9  145 260 
 PTB  HZ I        1144 14.85         2.6 0.38            131            145 260 
                                                                                
