 2016  5 9 1556 39.1 L   6.805 -73.147151.6  RSN  7 0.4 1.7LRSN                1
 GAP=136        0.97       4.3     4.2  6.6 -0.7640E+00  0.5463E+01  0.3069E+01E
 Epicentro: LOS SANTOS - SANTANDER                                             3
 ACTION:UPD 16-08-18 17:44 OP:cam  STATUS:               ID:20160509155639 L   I
 OLDACT:REG 16-05-09 20:57 OP:ak   STATUS:               ID:20160509154749     3
 2016-05-09-1547-49M.COL___294                                                 6
 STAT SP IPHASW D HRMM SECON CODA AMPLIT PERI AZIMU VELO AIN AR TRES W  DIS CAZ7
 BAR2 EZ EP       1556 59.39                             171   -0.1010 23.8 190 
 BAR2 EZ ES       1557 15.11                             171   -0.2510 23.8 190 
 BAR2 EZ I        1557 17.71         8.8 0.12            169           23.8 190 
 BRR  HN ES       1557 18.43                             154    0.5410 70.9 298 
 PAM  EZ EP       1557  2.28                             152    0.3110 77.1  40 
 PAM  EN ES       1557 19.50                             152   -0.2710 77.1  40 
 PAM  EZ I        1557 21.57         5.8 0.20            156           77.1  40 
 RUS  HZ EP       1557  3.34                             145   -0.1710  101 176 
 RUS  HE ES       1557 22.79                             145    0.2710  101 176 
 RUS  HZ I        1557 24.97         3.3 0.38            146            101 176 
 PTB  HZ EP       1557  6.02                             133   -0.58 9  148 259 
 PTB  HN ES       1557 27.28                             133   -0.73 9  148 259 
 PTB  HZ I        1557 33.26         6.2 0.14            133            148 259 
 SPBC HZ EP       1557  8.41                             130    0.28 9  164 219 
 SPBC HN ES       1557 31.09                             130    0.35 9  164 219 
 SPBC HZ I        1557 36.21        11.4 0.14            131            164 219 
 ZAR  HZ EP   2   1557 12.36                             124    0.41 4  204 292 
 ZAR  HN ES       1557 37.81                             124    0.27 9  204 292 
 ZAR  HZ I        1557 43.69         6.0 0.47            124            204 292 
                                                                                
