 2017  5 9 1151 42.7 L   6.723 -73.120158.1  RSN  4 0.3 1.1LRSN                1
 GAP=234        0.60       5.3     5.7  7.3  0.1879E+02 -0.9807E+01 -0.7449E+01E
 Epicentro: JORDAN - SANTANDER                                                 3
 ACTION:UPD 17-06-16 13:34 OP:jn   STATUS:               ID:20170509115142 L   I
 OLDACT:REG 17-05-09 20:11 OP:edw  STATUS:               ID:20170509114738     3
 2017-05-09-1148-00M.COL___368                                                 6
 STAT SP IPHASW D HRMM SECON CODA AMPLIT PERI AZIMU VELO AIN AR TRES W  DIS CAZ7
 BRR  HZ EP       1152  5.73                             152    0.2010 77.9 303 
 BRR  HE ES       1152 23.33                             152   -0.0310 77.9 303 
 RUS  HZ EP       1152  7.02                             148   -0.0710 91.9 177 
 RUS  HN ES       1152 26.04                             148   -0.0910 91.9 177 
 RUS  HZ I        1152 29.67         2.1 0.48            148           91.9 177 
 PTB  HN ES       1152 32.91                             134    0.19 9  149 262 
 ZAR  HN ES   2   1152 41.96                             124   -1.00 4  210 294 
                                                                                
