 2011  4 9 1614 57.7 L   6.144 -73.876 86.5  RSN  4 0.3 2.0LRSN                1
 GAP=183        0.66       6.5     6.1 13.5 -0.2925E+02  0.3127E+02 -0.7584E+01E
 Epicentro: EL PEON - SANTANDER                                                3
 ACTION:UP  11-06-22 15:30 OP:REBC STATUS:               ID:20110409161457 L   I
 2011-04-09-1613-05S.COL___135                                                 6
 STAT SP IPHASW D HRMM SECON CODA AMPLIT PERI AZIMU VELO SNR AR TRES W  DIS CAZ7
 BAR2 SZ EP       1615 15.22                             129     0.210   91  57 
 BAR2 SZ ES   1   1615 28.34                             129    -0.2 7   91  57 
 BAR2 SZ I        1615 30.84        28.0 0.77                            91  57 
 BRR  HZ EP       1615 16.13                             124    -0.210  108  10 
 BRR  HN ES   2   1615 31.47                             124     0.6 5  108  10 
 BRR  HZ I        1615 31.61        22.5 0.55                           108  10 
 NOR  SZ EP       1615 18.62                             119     0.210  127 240 
 NOR  SN ES   2   1615 34.18                             119    -0.4 5  127 240 
 GRA  SZ ES   2   1615 54.67                             106    -0.3 4  226  32 
 GRA  SZ I        1615 57.01         7.7 0.19                           226  32 
                                                                                
