 2010  5 9 1451 25.3 L   6.763 -72.948148.3  RSN 11 0.4 2.3LRSN                1
 GAP=180        0.66       3.3     7.6  5.7 -0.1250E+02 -0.7753E+00  0.4743E+01E
 Epicentro: CEPITA - SANTANDER                                                 3
 ACTION:UP  10-08-24 10:03 OP:vdl  STATUS:               ID:20100509145125 L   I
 2010-05-09-1449-08S.COL___105                                                 6
 STAT SP IPHASW D HRMM SECON CODA AMPLIT PERI AZIMU VELO SNR AR TRES W  DIS CAZ7
 BAR2 SZ IP     C 1451 45.42                             167    -0.110   32 234 
 BAR2 SZ ES   2   1452  0.81                             167    -0.4 5   32 234 
 GIR2 SZ EP   1   1451 45.49                             162    -0.2 7   44 322 
 GIR2 SZ ES   2   1452  1.74                             162     0.1 5   44 322 
 BRR  HZ EP   1   1451 48.00                             146    -0.1 7   93 294 
 BRR  HZ I        1451 49.37        32.1 0.16                            93 294 
 BRR  HE ES   2   1452  5.56                             146    -0.3 5   93 294 
 RUS  HZ EP   1   1451 49.35                             145     0.2 7   97 189 
 RUS  HN ES   2   1452  8.19                             145     0.5 5   97 189 
 BRI  SZ EP   1   1451 48.96                             142    -0.4 7  107   9 
 BRI  SZ ES   2   1452  7.19                             142    -0.9 5  107   9 
 GUE  SZ EP   1   1451 50.78                             139     0.4 7  118   1 
 GUE  SZ ES   2   1452  9.84                             139    -0.1 5  118   1 
 GRA  SZ EP   1   1451 51.19                             138     0.4 7  125   7 
 GRA  SZ ES   2   1452 11.06                             138     0.5 5  125   7 
 OCA  SZ EP   1   1451 54.46                             129    -0.1 7  168 346 
 OCA  SZ ES   2   1452 18.07                             129     0.6 5  168 346 
 OCA  SZ I        1452 21.31        22.3 0.26                           168 346 
 CHI  HZ EP   1   1452  3.31                             117    -0.2 6  251 200 
 CHI  HZ I        1452  5.70         7.6 0.65                           251 200 
 CHI  HE ES   2   1452 33.48                             117     0.3 4  251 200 
 RREF BZ EP   1   1452 13.57                             110     0.3 5  336 232 
 RREF BE ES   2   1452 51.15                             110     0.6 3  336 232 
 RREF BZ I        1452 57.50        12.9 0.26                           336 232 
 PRA  HZ EP   1   1452 19.19                             107    -0.7 4  400 213 
 PRA  HE ES   2   1453  1.70                             107    -0.7 3  400 213 
 PRA  HZ I        1453  7.43         9.0 0.73                           400 213 
                                                                                
