 2017 11 9 1005 27.3 L   6.795 -73.152148.3  RSN 20 0.7 2.3LRSN                1
 GAP= 65        1.07       2.6     2.9  5.1  0.2593E+00  0.1620E+01  0.7991E+00E
 Epicentro: LOS SANTOS - SANTANDER                                             3
 ACTION:UPD 17-12-12 19:53 OP:rebc STATUS:               ID:20171109100527 L   I
 OLDACT:UP  17-11-09 22:00 OP:mg   STATUS:               ID:20171109095738     3
 OLDACT:REG 17-11-09 19:58 OP:mg   STATUS:               ID:20171109095738     3
 2017-11-09-0958-00M.COL___428                                                 6
 STAT SP IPHASW D HRMM SECON CODA AMPLIT PERI AZIMU VELO AIN AR TRES W  DIS CAZ7
 BAR2 EZ EP       10 5 47.36                             171    0.1810 22.6 189 
 BAR2 EZ ES   2   10 6  2.55                             171   -0.17 5 22.6 189 
 BAR2 EZ I        10 6  3.89        59.5 0.21            168           22.6 189 
 BRR  HZ IP     C 10 5 48.94                             153    0.2810 70.9 299 
 BRR  HN ES       10 6  6.03                             153    0.6710 70.9 299 
 BRR  HZ I        10 6  7.35        28.6 0.14            152           70.9 299 
 PAM  EZ EP     C 10 5 49.95                             151    0.1510 78.3  40 
 PAM  EN ES       10 6  7.01                             151   -0.3710 78.3  40 
 PAM  EZ I        10 6  9.30        41.8 0.54            156           78.3  40 
 RUS  HZ EP       10 5 51.10                             144   -0.1210  100 176 
 RUS  HN ES       10 6  9.77                             144   -0.1410  100 176 
 RUS  HZ I        10 6 10.81        24.2 0.26            144            100 176 
 PTB  HZ EP       10 5 54.24                             133   -0.12 9  147 259 
 PTB  HN ES       10 6 14.78                             133   -0.72 9  147 259 
 PTB  HZ I        10 6 20.14         7.6 0.15            131            147 259 
 TAM  HZ EP       10 5 55.52                             131    0.33 9  156 105 
 TAM  HN ES       10 6 17.34                             131    0.37 9  156 105 
 TAM  HZ I        10 6 17.66         9.4 0.20            134            156 105 
 SPBC HZ EP       10 5 56.01                             130    0.14 9  162 219 
 SPBC HN ES       10 6 18.30                             130    0.12 9  162 219 
 SPBC HZ I        10 6 22.85        29.7 0.26            129            162 219 
 YPLC HZ EP       10 5 57.56                             127    0.34 9  177 151 
 YPLC HN ES       10 6 20.01                             127   -0.58 9  177 151 
 YPLC HZ I        10 6 24.28        11.2 0.34            128            177 151 
 ZAR  HZ EP       10 5 59.65                             123   -0.18 9  204 292 
 ZAR  HN ES       10 6 25.25                             123    0.02 9  204 292 
 ZAR  HZ I        10 6 31.83        23.8 0.24            123            204 292 
 TABC EZ EP   2   10 6  5.29                             120    2.23 4  229 211 
 TABC EZ ES   4   10 6 34.46                             120    3.46 0  229 211 
 TABC EZ I        10 6 39.33        19.4 0.38            120            229 211 
 NOR  HZ EP       10 6  3.26                             119    0.22 8  234 234 
 NOR  HN ES       10 6 30.50                             119   -0.44 8  234 234 
 NOR  HZ I        10 6 38.83        10.3 0.26            119            234 234 
 CHI  HZ EP       10 6  5.36                             118    0.35 8  248 195 
 CHI  HE ES       10 6 34.62                             118    0.16 8  248 195 
 CHI  HZ I        10 6 38.12        12.2 0.60            118            248 195 
 ROSC BZ EP   9   10 6  7.65                             117    2.23 0  252 211 
 ROSC BN ES       10 6 37.29                             118   -0.13 8  252 211 
 ROSC BZ I        10 6 41.79        22.0 0.40            117            252 211 
 URE  HZ EP       10 6  7.52                             114   -0.88 7  283 292 
 URE  HN ES   3   10 6 38.81                             114   -1.69 2  283 292 
 URE  HZ I        10 6 48.79        12.7 0.16            114            283 292 
 DRL03HZ EP   1   10 6  9.78                             113    0.73 5  289 353 
 DRL03HE ES       10 6 41.85                             113    0.21 7  289 353 
 GUY2CHZ EP   2   10 6 12.29                             113    1.41 4  300 235 
 GUY2CHE ES   3   10 6 48.14                             113    3.23 2  300 235 
 GUY2CHZ I        10 6 53.39         7.9 0.34                           300 235 
 PTGC HZ IP     D 10 6 10.27                             112   -0.92 7  308 158 
 PTGC HE ES   2   10 6 43.68                             112   -1.78 4  308 158 
 PTGC HZ I        10 6 48.75         6.9 0.29            113            308 158 
 DRL02HZ EP   1   10 6 12.51                             111   -0.62 5  325 358 
 DRL02HE ES   2   10 6 47.32                             111   -1.59 3  325 358 
 PRA  HZ EP   1   10 6 21.21                             107    0.45 4  391 210 
 PRA  HE ES       10 7  1.96                             107   -0.54 6  391 210 
 PRA  HZ I        10 7  9.60         9.8 0.32            107            391 210 
 ORTC HZ EP   1   10 6 21.70                             107    0.54 4  395 216 
 ORTC HN ES   3   10 7  4.74                             107    1.54 1  395 216 
                                                                                
