 2010  8 9 1421  4.7 L   6.783 -73.022149.2  RSN  7 0.3 1.8LRSN                1
 GAP=173        0.59       2.7     6.2  4.2 -0.2858E+01 -0.4783E+01 -0.5665E+00E
 Epicentro: CEPITA - SANTANDER                                                 3
 ACTION:UP  10-09-07 10:53 OP:vdl  STATUS:               ID:20100809142104 L   I
 2010-08-09-1417-36S.COL___124                                                 6
 STAT SP IPHASW D HRMM SECON CODA AMPLIT PERI AZIMU VELO SNR AR TRES W  DIS CAZ7
 BAR2 SZ EP       1421 24.93                             169     0.110   28 220 
 BAR2 SZ ES   1   1421 40.17                             169    -0.3 7   28 220 
 BAR2 SZ I        1421 44.09         8.9 0.54                            28 220 
 BTL  SZ EP       1421 25.21                             168     0.310   31 299 
 BTL  SZ ES   1   1421 40.67                             168     0.0 7   31 299 
 BRR  HZ EP       1421 27.06                             149     0.110   84 295 
 BRR  HE ES   1   1421 44.34                             149     0.0 7   84 295 
 RUS  HZ EP       1421 28.79                             145     0.210   99 184 
 RUS  HE ES       1421 47.26                             145    -0.110   99 184 
 GUE  SZ EP       1421 29.90                             140     0.210  116   5 
 GUE  SZ ES   2   1421 49.10                             140    -0.1 5  116   5 
 GRA  SZ EP       1421 29.70                             138    -0.410  124  11 
 GRA  SZ ES   2   1421 49.71                             138    -0.2 5  124  11 
 GRA  SZ I        1421 53.36         5.3 0.34                           124  11 
 PRA  HZ EP       1421 58.79                             107    -0.2 6  397 211 
 PRA  HN ES   2   1422 40.35                             107    -0.9 3  397 211 
 PRA  HZ I        1422 46.58         3.7 0.30                           397 211 
                                                                                
