 2016  5 9 1057 20.6 L   6.804 -73.140148.4  RSN 18 0.5 2.1LRSN                1
 GAP=137        1.07       2.7     4.0  5.4 -0.7927E+00  0.5104E+01  0.8716E+00E
 Epicentro: LOS SANTOS - SANTANDER                                             3
 ACTION:UPD 16-08-18 17:43 OP:cam  STATUS:               ID:20160509105720 L   I
 OLDACT:DUP 16-05-09 21:55 OP:ak   STATUS:               ID:20160509104748d    3
 OLDACT:REG 16-05-09 20:37 OP:ak   STATUS:               ID:20160509104747     3
 2016-05-09-1047-47M.COL___279                                                 6
 STAT SP IPHASW D HRMM SECON CODA AMPLIT PERI AZIMU VELO AIN AR TRES W  DIS CAZ7
 BAR2 EZ EP       1057 40.68                             170    0.1210 23.9 191 
 BAR2 EZ ES       1057 55.81                             170   -0.3210 23.9 191 
 BAR2 EZ I        1057 58.47        32.3 0.42            167           23.9 191 
 BRR  HZ IP     D 1057 42.51                             153    0.4510 71.5 298 
 BRR  HN ES       1057 59.69                             153    0.9110 71.5 298 
 BRR  HZ I        1058  1.41        11.8 0.15            148           71.5 298 
 PAM  EZ EP       1057 43.44                             151    0.3810 76.7  39 
 PAM  EE ES   2   1058  0.97                             151    0.40 5 76.7  39 
 PAM  EZ I        1058  2.27         9.4 0.22            157           76.7  39 
 RUS  HZ EP       1057 44.46                             144   -0.1910  101 176 
 RUS  HN ES       1058  2.98                             144   -0.4210  101 176 
 RUS  HZ I        1058  6.16        12.4 0.30            145            101 176 
 PTB  HZ EP       1057 47.27                             132   -0.58 9  148 259 
 PTB  HE ES       1058  8.57                             132   -0.53 9  148 259 
 PTB  HZ I        1058 15.85        21.6 0.34            130            148 259 
 OCA  HZ EP   2   1057 49.21                             130    0.12 5  160 353 
 OCA  HE ES       1058 11.37                             130    0.07 9  160 353 
 OCA  HZ I        1058 15.34        31.1 0.16            131            160 353 
 SPBC HZ EP       1057 49.73                             129    0.35 9  164 219 
 SPBC HN ES       1058 11.48                             129   -0.34 9  164 219 
 SPBC HZ I        1058 14.41        28.8 0.32            129            164 219 
 ZAR  HZ EP       1057 54.05                             123    0.79 9  204 292 
 ZAR  HE ES       1058 18.45                             123   -0.28 9  204 292 
 ZAR  HZ I        1058 25.18        11.1 0.30            122            204 292 
 NOR  HZ EP       1057 56.62                             119    0.05 8  235 234 
 NOR  HE ES       1058 24.29                             119   -0.33 8  235 234 
 NOR  HZ I        1058 30.15        10.9 0.46            119            235 234 
 SML  HZ EP       1057 56.64                             118   -0.72 8  244 335 
 SML  HE ES       1058 25.05                             118   -0.98 8  244 335 
 SML  HZ I        1058 32.03        11.4 0.09            119            244 335 
 CHI  HZ EP       1057 58.33                             118   -0.19 8  249 195 
 CHI  HE ES       1058 28.44                             118    0.35 8  249 195 
 ROSC BZ EP   4   1058  0.43                             117    1.48 0  253 211 
 ROSC BE ES   4   1058 32.57                             117    3.72 0  253 211 
 ROSC BZ I        1058 36.59        15.6 0.40            118            253 211 
 HEL  HZ EP       1058  1.31                             115    0.28 8  273 256 
 HEL  HE ES       1058 32.97                             115    0.41 8  273 256 
 HEL  HZ I        1058 39.71         6.7 0.34            115            273 256 
 URE  HZ EP   2   1058  0.99                             114   -0.86 4  284 292 
 URE  HN ES   4   1058 32.27                             114   -1.74 0  284 292 
 URE  HZ I        1058 44.01        10.2 0.16            114            284 292 
 ELA  HZ EP   4   1058 12.13                             111    4.47 0  330 229 
 ELA  HE ES   4   1058 48.12                             111    3.77 0  330 229 
 ELA  HZ I        1059  0.33         5.8 0.58            111            330 229 
 CBOC HZ EP   2   1058  7.72                             110    0.01 3  334 252 
 CBOC HE ES       1058 45.11                             110    0.66 7  334 252 
 CBOC HZ I        1058 50.11         2.2 0.18            110            334 252 
 PRA  HZ EP       1058 14.24                             107   -0.06 6  393 210 
 PRA  HN ES       1058 56.41                             107    0.23 6  393 210 
 PRA  HZ I        1059  3.14         5.8 0.20            108            393 210 
 SJC  HZ EP   4   1058 13.63                             106   -2.62 0  409 327 
 SJC  HN ES   4   1058 55.51                             106   -4.14 0  409 327 
 SJC  HZ I        1059  0.37         2.5 0.74            107            409 327 
                                                                                
