 2017  4 9 1129 40.3 L   6.798 -73.138144.0  RSN 24 0.6 2.6LRSN                1
 GAP=113        1.25       3.4     3.7  5.3  0.1228E+01  0.5992E+01  0.3661E+01E
 Epicentro: LOS SANTOS - SANTANDER                                             3
 ACTION:UPD 17-05-30 21:10 OP:jn   STATUS:               ID:20170409112940 L   I
 OLDACT:UP  17-04-09 22:48 OP:edw  STATUS:               ID:20170409112745     3
 OLDACT:REG 17-04-09 20:32 OP:edw  STATUS:               ID:20170409112745     3
 2017-04-09-1128-00M.COL___371                                                 6
 STAT SP IPHASW D HRMM SECON CODA AMPLIT PERI AZIMU VELO AIN AR TRES W  DIS CAZ7
 BAR2 EZ IP     C 1129 59.75                             170   -0.0110 23.3 192 
 BAR2 EZ ES       1130 14.47                             170   -0.4310 23.3 192 
 BAR2 EZ I        1130 15.60        97.5 0.24            166           23.3 192 
 BRR  HZ IP     C 1130  1.64                             152    0.2910 72.0 298 
 BRR  HN ES       1130 18.42                             152    0.6910 72.0 298 
 BRR  HZ I        1130 22.90        65.1 0.12            149           72.0 298 
 PAM  EZ EP       1130  2.59                             150    0.2510 77.0  39 
 PAM  EN ES       1130 19.43                             150   -0.0810 77.0  39 
 PAM  EZ I        1130 21.66       134.2 0.50            157           77.0  39 
 RUS  HZ IP     C 1130  3.72                             143   -0.1810  100 177 
 RUS  HN ES       1130 22.01                             143   -0.2610  100 177 
 RUS  HZ I        1130 23.94        89.0 0.38            144            100 177 
 PTB  HZ EP   9   1130  6.48                             131   -0.76 0  149 259 
 PTB  HN ES       1130 26.37                             132   -1.09 9  149 259 
 PTB  HZ I        1130 34.60        43.1 0.36            130            149 259 
 SPBC HZ EP       1130  8.88                             128    0.14 9  164 219 
 SPBC HN ES       1130 30.92                             128    0.03 9  164 219 
 SPBC HZ I        1130 34.02        67.3 0.18            128            164 219 
 YPLC HZ IP     C 1130 10.22                             126    0.27 9  176 152 
 YPLC HN ES       1130 33.72                             126    0.68 9  176 152 
 YPLC HZ I        1130 36.35        46.4 0.58            129            176 152 
 ZAR  HZ EP       1130 12.73                             122   -0.03 9  205 292 
 ZAR  HN ES   4   1130 39.00                             122    0.95 0  205 292 
 ZAR  HZ I        1130 45.65        35.1 0.20            122            205 292 
 NOR  HZ EP       1130 16.21                             118    0.18 8  235 235 
 NOR  HN ES       1130 44.08                             118    0.22 8  235 235 
 NOR  HZ I        1130 51.11        29.1 0.18            118            235 235 
 CHI  HZ EP       1130 18.24                             117    0.30 8  249 195 
 CHI  HN ES   4   1130 46.48                             117   -0.79 0  249 195 
 CHI  HZ I        1130 50.49        18.8 0.28            118            249 195 
 ROSC BZ EP   4   1130 19.72                             116    1.33 0  253 211 
 ROSC BN ES       1130 48.04                             116   -0.03 8  253 211 
 ROSC BZ I        1130 56.61        45.9 0.35            117            253 211 
 HEL  HZ EP   4   1130 21.88                             114    1.33 0  273 256 
 HEL  HN ES   4   1130 53.02                             114    1.11 0  273 256 
 HEL  HZ I        1130 58.89        13.3 0.36            115            273 256 
 URE  HZ EP       1130 21.25                             113   -0.17 7  285 292 
 URE  HN ES       1130 52.11                             113   -1.35 7  285 292 
 URE  HZ I        1131  4.74        25.3 0.18            114            285 292 
 VIL  EZ EP       1130 23.89                             112    0.22 7  303 192 
 VIL  EN ES   4   1130 59.07                             112    1.60 0  303 192 
 VIL  EZ I        1131  1.63        20.0 0.28            113            303 192 
 PTGC HZ EP       1130 23.06                             111   -1.00 7  308 159 
 PTGC HN ES       1130 56.48                             111   -1.68 7  308 159 
 PTGC HZ I        1130 58.77        27.3 0.20            113            308 159 
 ELA  HZ EP       1130 26.76                             110   -0.41 7  330 230 
 ELA  HN ES       1131  3.16                             110   -0.54 7  330 230 
 ELA  HZ I        1131 11.15        22.1 0.54            111            330 230 
 CBOC HZ EP       1130 27.95                             109    0.68 7  334 252 
 CBOC HN ES       1131  3.67                             109   -0.20 7  334 252 
 CBOC HZ I        1131  7.56         7.5 0.40            110            334 252 
 DBB  EZ EP       1130 27.83                             109   -0.01 7  340 274 
 DBB  EN ES   4   1131  2.89                             109   -2.01 0  340 274 
 DBB  EZ I        1131  9.41         7.4 0.44            110            340 274 
 ANIL HZ EP   4   1130 28.90                             108   -1.23 0  358 225 
 ANIL HN ES       1131  9.82                             108    0.86 6  358 225 
 ANIL HZ I        1131 15.43        44.0 0.70            109            358 225 
 PRA  HZ EP       1130 34.22                             106    0.39 6  392 210 
 PRA  HN ES       1131 15.03                             106   -0.52 6  392 210 
 PRA  HZ I        1131 23.27        18.0 0.24            107            392 210 
 ORTC HZ EP       1130 34.78                             106    0.54 6  396 216 
 ORTC HN ES       1131 17.33                             106    1.05 6  396 216 
 ORTC HZ I        1131 23.05        10.4 0.28            107            396 216 
 APAC HN ES       1131 17.23                             106    0.36 6  399 288 
 PAL  HZ EP       1130 35.91                             105    0.40 6  406 239 
 PAL  HN ES   4   1131 17.41                             105   -1.14 0  406 239 
 PAL  HZ I        1131 24.66         5.9 0.28            106            406 239 
 SJC  HZ EP       1130 34.67                             105   -1.25 6  410 327 
 SJC  HN ES   4   1131 15.58                             105   -3.69 0  410 327 
 SJC  HZ I        1131 19.46        18.6 0.52            107            410 327 
 SMAR HZ EP   4   1130 44.58                             102   -1.64 0  497 346 
 SMAR HN ES   4   1131 33.68                             102   -3.92 0  497 346 
                                                                                
