 2012  7 9 1753 37.1 L   6.770 -73.134141.3  RSN  9 0.3 2.1LRSN                1
 GAP=139        0.68       2.9     3.2  4.4 -0.4449E+00  0.2425E+01  0.3843E+01E
 Epicentro: LOS SANTOS - SANTANDER                                             3
 ACTION:UPD 12-08-14 11:43 OP:ep   STATUS:               ID:20120709175337 L   I
 2012-07-09-1750-00M.COL___201                                                 6
 STAT SP IPHASW D HRMM SECON CODA AMPLIT PERI AZIMU VELO AIN AR TRES W  DIS CAZ7
 BAR2 SZ EP       1753 56.09                             171     0.010   20 195 
 BAR2 SZ ES       1754 10.93                             171    -0.110   20 195 
 BAR2 SZ I        1754 12.64        40.1 0.25                            20 195 
 BRR  HZ EP       1753 58.05                             151     0.110   74 300 
 BRR  HE ES       1754 14.63                             151     0.510   74 300 
 BRR  HZ I        1754 17.61        41.3 0.25                            74 300 
 PAM  SZ EP       1753 59.13                             149     0.210   79  37 
 PAM  SZ I        1753 59.48        17.3 0.17                            79  37 
 PAM  SN ES   1   1754 15.68                             149    -0.3 7   79  37 
 RUS  HZ EP       1754  0.12                             144     0.010   97 177 
 RUS  HN ES   1   1754 17.79                             144    -0.4 7   97 177 
 RUS  HZ I        1754 20.37        15.1 0.26                            97 177 
 PTB  HZ EP   1   1754  3.58                             131    -0.2 7  148 260 
 PTB  HN ES   1   1754 24.15                             131    -0.4 7  148 260 
 PTB  HZ I        1754 31.50        11.3 0.51                           148 260 
 ZAR  HZ EP   1   1754  9.09                             121    -0.4 6  206 293 
 ZAR  HN ES   1   1754 34.52                             121    -0.3 6  206 293 
 ZAR  HZ I        1754 41.01        13.0 0.20                           206 293 
 NOR  SE ES       1754 40.17                             118     0.1 8  234 235 
 CHI  HZ EP       1754 14.58                             116     0.3 8  246 196 
 CHI  HE ES   1   1754 43.43                             116     0.2 6  246 196 
 CHI  HZ I        1754 51.16         7.2 0.64                           246 196 
 PRA  HZ EP       1754 29.97                             106    -0.2 6  390 210 
 PRA  HE ES   1   1755 11.79                             106     0.2 4  390 210 
