 2013  1 9 1039 29.8 L   6.199 -74.277 26.2  RSN  4 0.2 1.8LRSN                1
 GAP=200        0.60       4.0     2.0  3.8 -0.4305E+01 -0.4551E+01  0.1015E+02E
 Epicentro: CIMITARRA - SANTANDER                                              3
 ACTION:UPD 13-02-15 09:13 OP:ep   STATUS:               ID:20130109103929 L   I
 2013-01-09-1038-48M.COL___189                                                 6
 STAT SP IPHASW D HRMM SECON CODA AMPLIT PERI AZIMU VELO AIN AR TRES W  DIS CAZ7
 PTB  HZ IP     D 1039 37.64                             113   -0.0810 42.6 332 
 PTB  HN ES       1039 43.84                             113   -0.0710 42.6 332 
 PTB  HN I        1039 44.17       178.6 0.12            114           42.6 332 
 BRR  HZ EP       1039 48.01                              61    0.0610  118  32 
 BRR  HN ES       1040  2.31                              61    0.2010  118  32 
 BRR  HN I        1040  3.74         7.9 0.20             56            118  32 
 BAR2 SZ EP       1039 49.73                              61    0.1910  129  70 
 BAR2 SZ ES       1040  4.57                              61   -0.3710  129  70 
 BAR2 SZ I        1040  6.01         8.0 0.16             56            129  70 
 HEL  HZ EP       1039 51.25                              61    0.32 9  139 270 
 HEL  HN ES       1040  7.17                              61   -0.25 9  139 270 
 HEL  HN I        1040  7.83        21.8 0.24             56            139 270 
                                                                                
