 2012  6 9 1345 25.9 L   6.746 -73.246133.3  RSN  4 0.1 1.7LRSN                1
 GAP=222        0.35       4.0     3.0  4.5  0.1637E+01  0.6308E+01  0.2738E+01E
 Epicentro: ZAPATOCA - SANTANDER                                               3
 ACTION:UPD 12-08-06 17:48 OP:ep   STATUS:               ID:20120609134526 L   I
 2012-06-09-1340-00M.COL___201                                                 6
 STAT SP IPHASW D HRMM SECON CODA AMPLIT PERI AZIMU VELO AIN AR TRES W  DIS CAZ7
 BAR2 SZ EP   1   1345 43.74                             172   -0.20 7 18.4 157 
 BAR2 SZ I        1345 44.13        12.5 0.05            172           18.4 157 
 BAR2 SZ ES   1   1345 58.14                             172    0.14 7 18.4 157 
 PTB  HZ EP   1   1345 50.80                             132    0.03 7  136 260 
 PTB  HN ES   1   1346 10.04                             132   -0.12 7  136 260 
 ZAR  HN ES   1   1346 20.85                             121    0.05 6  196 295 
 NOR  SZ EP   1   1345 59.76                             117    0.19 6  222 234 
 NOR  SE ES   1   1346 25.79                             117   -0.04 6  222 234 
                                                                                
