 2015 12 9 1358  4.9 L   6.825 -73.203137.6  RSN  9 0.4 2.0LRSN                1
 GAP=128        0.71       2.7     3.3  6.1 -0.1556E+01  0.7546E+01  0.6147E+00E
 Epicentro: ZAPATOCA - SANTANDER                                               3
 ACTION:UPD 16-02-04 15:03 OP:cam  STATUS:               ID:20151209135804 L   I
 OLDACT:REG 15-12-09 20:26 OP:ar   STATUS:               ID:20151209134749     3
 2015-12-09-1347-49M.COL___322                                                 6
 STAT SP IPHASW D HRMM SECON CODA AMPLIT PERI AZIMU VELO AIN AR TRES W  DIS CAZ7
 BRR  HZ EP       1358 25.12                             153    0.3710 64.4 299 
 BRR  HN ES   4   1358 42.34                             153    2.08 0 64.4 299 
 BRR  HZ I        1358 42.64        21.6 0.30            151           64.4 299 
 PAM  EZ EP       1358 26.34                             148   -0.0110 79.6  44 
 PAM  EN ES       1358 43.26                             148    0.1510 79.6  44 
 PAM  EZ I        1358 45.35        14.3 0.38            153           79.6  44 
 RUS  HZ EP   2   1358 27.33                             141   -0.74 5  104 173 
 RUS  HE ES       1358 46.06                             141   -0.1110  104 173 
 RUS  HZ I        1358 46.95        11.8 0.24            145            104 173 
 PTB  HZ EP       1358 30.22                             131   -0.44 9  142 257 
 PTB  HN ES       1358 50.50                             131   -0.28 9  142 257 
 PTB  HZ I        1358 57.90        13.4 0.62            131            142 257 
 SPBC HZ EP       1358 32.51                             127   -0.07 9  161 217 
 SPBC HE ES       1358 54.21                             127    0.01 9  161 217 
 SPBC HZ I        1358 56.73        19.8 0.36            129            161 217 
 ZAR  HN ES       1359  0.59                             121    0.17 9  197 292 
 ZAR  HZ I        1359  6.47        10.9 0.42            122            197 292 
 SML  HZ EP   2   1358 40.18                             116   -0.31 4  239 336 
 SML  HE ES   2   1359  7.83                             116   -0.45 4  239 336 
 SML  HZ I        1359 11.63        12.8 0.10            118            239 336 
 GUY2CHZ EP       1358 48.34                             111    0.64 7  298 234 
 GUY2CHE ES   4   1359 22.89                             111    1.77 0  298 234 
 GUY2CHZ I        1359 27.30         4.2 0.36                           298 234 
 PRA  HZ EP   2   1358 57.31                             105   -0.72 3  391 209 
 PRA  HN ES       1359 40.08                             105    0.58 6  391 209 
 PRA  HZ I        1359 47.01         4.2 0.38            107            391 209 
                                                                                
