 2017 10 9 1924 14.6 L   6.326 -73.586111.2  RSN  7 0.3 1.5LRSN                1
 GAP= 89        0.82       3.0     3.0  6.5 -0.9845E+00  0.5701E+01 -0.3287E+01E
 Epicentro: SANTA HELENA DEL OPON - SANTANDER                                  3
 ACTION:UPD 17-11-07 19:30 OP:rebc STATUS:               ID:20171009192414 L   I
 OLDACT:DUP 17-10-09 23:32 OP:lv   STATUS:               ID:20171009191221d    3
 2017-10-09-1918-00M.COL___429                                                 6
 STAT SP IPHASW D HRMM SECON CODA AMPLIT PERI AZIMU VELO AIN AR TRES W  DIS CAZ7
 BAR2 EZ EP       1924 31.43                             153    0.0510 53.5  57 
 BAR2 EZ ES       1924 44.05                             153   -0.4110 53.5  57 
 BAR2 EZ I        1924 46.16        16.2 0.50            155           53.5  57 
 RUS  HZ EP       1924 32.73                             144   -0.2910 73.5 131 
 RUS  HN ES       1924 47.36                             144   -0.0210 73.5 131 
 RUS  HZ I        1924 48.60         4.5 0.16            147           73.5 131 
 SPBC HZ EP       1924 33.64                             137   -0.2410 91.9 216 
 SPBC HN ES       1924 49.17                             137    0.2710 91.9 216 
 SPBC HZ I        1924 50.28        10.5 0.16            139           91.9 216 
 PAM  EZ EP       1924 39.34                             123   -0.42 9  149  41 
 PAM  EN ES       1924 59.98                             123    0.62 9  149  41 
 PAM  EZ I        1925  1.24         3.2 0.44            125            149  41 
 NOR  HZ EP       1924 40.99                             119    0.10 9  165 239 
 NOR  HE ES   4   1925  0.01                             119   -1.38 0  165 239 
 NOR  HZ I        1925  4.42         3.2 0.22            121            165 239 
 YPLC HN ES       1925  2.42                             119    0.35 9  169 128 
 ZAR  HN ES       1925  6.34                             115    0.13 9  191 313 
                                                                                
