 2011  3 9 1915 25.2 L   6.817 -73.172138.5  RSN  8 0.4 2.2LRSN                1
 GAP=156        0.82       5.3    10.7 10.1 -0.2224E+02  0.6644E+02 -0.1051E+02E
 Epicentro: LOS SANTOS - SANTANDER                                             3
 ACTION:UP  11-06-16 14:32 OP:jfem STATUS:               ID:20110309191525 L   I
 2011-03-09-1914-19S.COL___135                                                 6
 STAT SP IPHASW D HRMM SECON CODA AMPLIT PERI AZIMU VELO SNR AR TRES W  DIS CAZ7
 BAR2 SZ EP       1915 44.17                             170     0.110   25 183 
 BAR2 SZ ES   2   1915 58.69                             170     0.0 5   25 183 
 BAR2 SZ I        1916  0.80        73.7 0.21                            25 183 
 RUS  HZ EP       1915 48.16                             142    -0.310  103 175 
 RUS  HE ES   2   1916  6.69                             142     0.1 5  103 175 
 RUS  HZ I        1916  8.01        16.6 0.20                           103 175 
 GRA  SZ EP       1915 50.01                             135     0.210  125  19 
 GRA  SZ I        1916 10.86        11.8 0.37                           125  19 
 CHI  HZ EP       1916  2.25                             116    -0.4 8  250 194 
 CHI  HE ES   2   1916 31.67                             116    -0.2 4  250 194 
 CHI  HZ I        1916 37.41         6.6 0.33                           250 194 
 GUY  SE ES   3   1916 42.97                             111     0.9 2  300 234 
 GUY  SZ I        1916 54.79        14.4 0.42                           300 234 
 DBB  SZ EP       1916 11.43                             108    -0.6 7  336 274 
 TOL  SZ EP       1916 13.85                             108     0.7 7  343 224 
 PRA  HZ EP       1916 18.96                             105     0.4 6  392 209 
 PRA  HN ES   2   1916 59.88                             105    -0.2 3  392 209 
                                                                                
