 2010  8 9 1247 58.3 L   6.764 -73.136150.0  RSN  6 0.4 1.5LRSN                1
 GAP=160        1.00      10.5    15.2 13.8  0.4555E+00 -0.5094E+02 -0.8753E+02E
 Epicentro: LOS SANTOS - SANTANDER                                             3
 ACTION:UP  10-09-07 10:53 OP:vdl  STATUS:               ID:20100809124758 L   I
 2010-08-09-1246-37S.COL___125                                                 6
 STAT SP IPHASW D HRMM SECON CODA AMPLIT PERI AZIMU VELO SNR AR TRES W  DIS CAZ7
 BAR2 SZ EP       1248 18.24                             173    -0.110   20 196 
 BAR2 SZ ES   1   1248 33.96                             173    -0.1 7   20 196 
 BAR2 SZ I        1248 36.14         5.1 0.33                            20 196 
 BTL  SZ EP       1248 18.32                             171    -0.110   22 319 
 BRR  HZ EP       1248 19.99                             153    -0.110   74 301 
 BRR  HZ I        1248 20.30        12.5 0.12                            74 301 
 BRR  HN ES   2   1248 37.34                             153     0.3 5   74 301 
 RUS  HE ES   2   1248 40.82                             147     0.0 5   97 177 
 RUS  HZ I        1248 42.02         2.8 0.26                            97 177 
 GUE  SZ EP       1248 23.17                             139    -0.510  120  11 
 GRA  SZ EP       1248 24.97                             137     0.810  129  16 
 GRA  SZ ES   3   1248 43.95                             137    -0.4 2  129  16 
 GRA  SZ I        1248 46.04         3.1 0.46                           129  16 
                                                                                
