 2014 11 9 1301 42.1 L   6.801 -73.163144.0  RSN 15 0.4 2.4LRSN                1
 GAP=134        1.06       3.4     4.7  5.6 -0.5156E+01  0.8801E+01  0.2206E+01E
 Epicentro: LOS SANTOS - SANTANDER                                             3
 ACTION:UPD 14-12-19 15:40 OP:nd   STATUS:               ID:20141109130142 L   I
 OLDACT:UP  14-11-09 22:18 OP:cam  STATUS:               ID:20141109125810     3
 OLDACT:UP  14-11-09 22:18 OP:cam  STATUS:               ID:20141109125810     3
 OLDACT:UP  14-11-09 22:18 OP:cam  STATUS:               ID:20141109125810     3
 OLDACT:REG 14-11-09 20:37 OP:cam\ STATUS:               ID:20141109125810     3
 2014-11-09-1258-10M.COL___292                                                 6
 STAT SP IPHASW D HRMM SECON CODA AMPLIT PERI AZIMU VELO AIN AR TRES W  DIS CAZ7
 BAR2 SZ EP       13 2  1.41                             170   -0.1110 23.2 185 
 BAR2 SZ ES       13 2 16.04                             170   -0.6210 23.2 185 
 BAR2 SZ I        13 2 17.90        71.1 0.20            168           23.2 185 
 BRR  HZ EP       13 2  3.15                             153    0.1910 69.4 299 
 BRR  HN ES       13 2 20.15                             153    0.9210 69.4 299 
 PAM  SZ IP     D 13 2  4.39                             150    0.1910 78.5  41 
 PAM  SE ES       13 2 21.68                             150    0.2410 78.5  41 
 PAM  SZ I        13 2 23.54        41.9 0.50            155           78.5  41 
 RUS  HZ EP       13 2  5.39                             143   -0.3110  101 175 
 RUS  HE ES       13 2 24.35                             143    0.2410  101 175 
 RUS  HZ I        13 2 25.24        20.4 0.38            144            101 175 
 PTB  HZ EP       13 2  7.95                             132   -0.81 9  146 259 
 PTB  HN ES   4   13 2 29.04                             132   -0.51 0  146 259 
 PTB  HZ I        13 2 31.64        22.5 0.20            131            146 259 
 OCA  HZ EP       13 2 10.21                             129   -0.03 9  160 354 
 OCA  HE ES       13 2 31.63                             129   -0.56 9  160 354 
 OCA  HZ I        13 2 36.89        23.4 0.22            132            160 354 
 SPBC HZ EP       13 2 10.34                             129   -0.02 9  162 218 
 SPBC HN ES       13 2 32.43                             129    0.03 9  162 218 
 SPBC HN I        13 2 39.55        84.6 0.36            129            162 218 
 NOR  HZ EP       13 2 17.63                             118    0.06 8  233 234 
 NOR  HN ES       13 2 44.90                             118   -0.33 8  233 234 
 NOR  HZ I        13 2 52.09        19.9 0.18            119            233 234 
 CHI  HZ EP       13 2 19.75                             117    0.09 8  248 195 
 CHI  HN ES   1   13 2 49.10                             117    0.14 6  248 195 
 CHI  HZ I        13 2 55.20        11.8 0.28            118            248 195 
 ROSC BZ EP   4   13 2 21.35                             116    1.32 0  252 211 
 ROSC BN ES   4   13 2 52.58                             116    2.97 0  252 211 
 ROSC BZ I        13 2 55.99        16.4 0.30            117            252 211 
 HEL  HZ EP       13 2 21.85                             115   -0.17 8  270 256 
 HEL  HN ES       13 2 53.21                             115    0.05 8  270 256 
 HEL  HZ I        13 3  0.03        14.7 0.44            115            270 256 
 GUY2CHZ EP       13 2 26.45                             112    0.99 7  300 235 
 GUY2CHN ES       13 2 58.89                             112   -0.39 7  300 235 
 GUY2CHZ I        13 3 11.70        13.0 0.48                           300 235 
 PTGC HZ EP   4   13 2 24.22                             111   -1.76 0  310 158 
 PTGC HN ES   4   13 2 58.21                             111   -1.99 0  310 158 
 TOL  SZ EP       13 2 31.06                             109    0.92 7  342 224 
 TOL  SE ES   4   13 3 11.96                             109    4.35 0  342 224 
 TOL  SZ I        13 3 17.71        25.6 0.50            110            342 224 
 MON  HZ EP   4   13 2 27.49                             108   -3.36 0  352 309 
 MON  HN ES   4   13 3  7.12                             108   -1.75 0  352 309 
 MON  HZ I        13 3  9.28         5.7 0.52            109            352 309 
 PRA  HZ EP       13 2 35.20                             106   -0.27 6  391 209 
                                                                                
