 2014  3 9 1839 58.0 L   6.813 -73.139139.7  RSN 15 0.6 2.5LRSN                1
 GAP= 71        1.41       3.5     4.0  6.6 -0.2235E+01  0.7056E+01  0.1767E+01E
 Epicentro: LOS SANTOS - SANTANDER                                             3
 OLDACT:REG 14-03-09 18:24 OP:stll STATUS:               ID:20140309183813     3
 ACTION:UPD 14-04-09 23:15 OP:nd   STATUS:               ID:20140309183958 L   I
 OLDACT:UP  14-03-09 22:10 OP:stll STATUS:               ID:20140309183813     3
 2014-03-09-1838-13M.COL___229                                                 6
 STAT SP IPHASW D HRMM SECON CODA AMPLIT PERI AZIMU VELO AIN AR TRES W  DIS CAZ7
 BAR2 SZ EP       1840 17.17                             169    0.2810 24.9 191 
 BAR2 SZ ES       1840 30.69                             169   -0.9710 24.9 191 
 BAR2 SZ I        1840 34.66       146.5 0.34            169           24.9 191 
 BRR  HZ IP     C 1840 19.03                             151    0.5810 71.2 297 
 BRR  HZ I        1840 19.39        55.2 0.16            147           71.2 297 
 BRR  HE ES       1840 35.47                             151    1.0410 71.2 297 
 PAM  SZ IP     C 1840 19.92                             150    0.4910 75.7  40 
 PAM  SN ES       1840 36.21                             150    0.0410 75.7  40 
 RUS  HZ IP     D 1840 21.10                             142   -0.1210  102 177 
 RUS  HN ES       1840 39.07                             142   -0.3010  102 177 
 RUS  SZ I        1840 42.61        19.7 0.44            137            102 177 
 PTB  HZ EP       1840 23.84                             130   -0.69 9  149 258 
 PTB  HN ES       1840 44.56                             130   -0.70 9  149 258 
 PTB  SZ I        1840 50.63        46.0 0.38            125            149 258 
 TAM  HZ EP       1840 25.33                             129    0.21 9  155 106 
 TAM  SZ I        1840 45.76        16.5 0.40            123            155 106 
 TAM  HN ES       1840 46.89                             129    0.57 9  155 106 
 OCA  HZ EP       1840 25.29                             128   -0.38 9  159 353 
 OCA  HN ES       1840 47.16                             128   -0.12 9  159 353 
 OCA  SZ I        1840 54.63        35.7 0.34            122            159 353 
 SPBC HZ EP       1840 26.16                             127    0.01 9  165 219 
 SPBC HN ES       1840 48.77                             127    0.62 9  165 219 
 SPBC SZ I        1840 52.21        45.1 0.32            122            165 219 
 ZAR  HZ EP       1840 29.94                             121   -0.09 9  204 292 
 ZAR  SZ I        1841  3.01        20.1 0.16            116            204 292 
 NOR  HZ EP       1840 33.20                             117   -0.30 8  236 234 
 NOR  HN ES       1841  1.07                             117   -0.15 8  236 234 
 NOR  SZ I        1841  6.55        32.3 0.34            112            236 234 
 SML  HZ EP       1840 33.49                             116   -0.64 8  243 335 
 SML  HN ES       1841  1.64                             116   -0.71 8  243 335 
 SML  SZ I        1841  5.42        41.8 0.08            111            243 335 
 CHI  HZ EP       1840 35.20                             116   -0.30 8  250 195 
 CHI  HN ES       1841  3.45                             116   -1.34 8  250 195 
 CHI  SZ I        1841 12.78         9.7 0.34            111            250 195 
 HEL  HZ EP       1840 39.05                             113    1.06 8  273 256 
 HEL  HN ES       1841  9.95                             113    0.74 8  273 256 
 HEL  SZ I        1841 16.17        24.9 0.40            109            273 256 
 GUY2CHZ EP       1840 41.79                             111    0.33 7  303 235 
 GUY2CHN ES       1841 16.30                             111    0.91 7  303 235 
 GUY2CSZ I        1841 23.47        18.9 0.40                           303 235 
 ORTC HZ EP       1840 51.77                             105   -0.10 6  397 216 
 ORTC HN ES       1841 33.94                             105    0.02 6  397 216 
 ORTC SZ I        1841 40.02        11.0 0.48            101            397 216 
                                                                                
