 2013  4 9 1213 24.0 L   7.363 -73.196131.7  RSN  4 0.1 1.3LRSN                1
 GAP=295        0.37       6.4     4.0  4.7 -0.3337E+01  0.6942E+01 -0.5076E+01E
 Epicentro: RIONEGRO - SANTANDER                                               3
 ACTION:UPD 13-05-22 14:36 OP:EP   STATUS:               ID:20130409121324 L   I
 2013-04-09-1210-00M.COL___245                                                 6
 STAT SP IPHASW D HRMM SECON CODA AMPLIT PERI AZIMU VELO AIN AR TRES W  DIS CAZ7
 GIR2 SZ EP   1   1213 41.80                             166   -0.17 7 31.5 180 
 GIR2 SZ ES   1   1213 56.09                             166    0.07 7 31.5 180 
 GIR2 SZ I        1213 57.54         6.5 0.52            165           31.5 180 
 BRR  HN ES   1   1213 58.17                             153    0.03 7 63.6 244 
 BAR2 SZ ES   1   1214  1.20                             145    0.01 7 85.3 179 
 PTB  HZ EP   1   1213 51.87                             125    0.22 7  166 237 
 PTB  HN ES   1   1214 13.10                             125   -0.14 7  166 237 
 PTB  HZ I        1214 15.82         2.1 0.50            125            166 237 
                                                                                
