 2016 11 9 1730 24.3 L   6.801 -73.146149.3  RSN 19 0.5 2.8LRSN                1
 GAP= 85        1.07       3.6     3.2  5.5 -0.7075E+00  0.2725E+01  0.6638E+01E
 Epicentro: LOS SANTOS - SANTANDER                                             3
 ACTION:UPD 17-10-26 21:06 OP:lp   STATUS:               ID:20161109173024 L   I
 OLDACT:UP  16-11-09 23:16 OP:dnl  STATUS:               ID:20161109172745     3
 OLDACT:UP  16-11-09 23:15 OP:dnl  STATUS:               ID:20161109172745     3
 OLDACT:REG 16-11-09 20:59 OP:dnl  STATUS:               ID:20161109172745     3
 2016-11-09-1728-00M.COL___349                                                 6
 STAT SP IPHASW D HRMM SECON CODA AMPLIT PERI AZIMU VELO AIN AR TRES W  DIS CAZ7
 BAR2 HZ IP     D 1730 44.37                             171   -0.0310 23.4 190 
 BAR2 HZ ES       1730 59.61                             171   -0.4410 23.4 190 
 BAR2 HZ I        1731  0.93       395.5 0.20            165           23.4 190 
 BRR  HZ IP     C 1730 46.19                             153    0.3210 71.1 298 
 BRR  HE ES       1731  3.60                             153    0.9410 71.1 298 
 BRR  HZ I        1731  7.30        93.2 0.18            151           71.1 298 
 PAM  HZ EP       1730 47.20                             152    0.2610 77.3  40 
 PAM  HE ES       1731  4.45                             152   -0.1010 77.3  40 
 PAM  HZ I        1731  6.54        36.4 0.16            159           77.3  40 
 PTB  HZ EP       1730 50.70                             133   -0.90 9  148 259 
 PTB  HN ES       1731 12.24                             133   -0.62 9  148 259 
 PTB  HZ I        1731 15.23        69.5 0.18            131            148 259 
 TAM  HZ EP       1730 52.57                             131    0.26 9  155 105 
 TAM  HN ES       1731 14.04                             131   -0.09 9  155 105 
 TAM  HZ I        1731 14.93        32.9 0.32            135            155 105 
 ZAR  HZ EP       1730 56.83                             123   -0.18 9  204 292 
 ZAR  HE ES       1731 22.55                             123    0.06 9  204 292 
 ZAR  HZ I        1731 27.88        71.3 0.60            123            204 292 
 NOR  HZ EP       1731  0.25                             119   -0.03 8  235 234 
 NOR  HE ES       1731 28.53                             119    0.22 8  235 234 
 NOR  HZ I        1731 32.70        48.5 0.40            118            235 234 
 CHI  HZ EP       1731  2.30                             118    0.05 8  249 195 
 CHI  HN ES       1731 31.59                             118   -0.23 8  249 195 
 CHI  HZ I        1731 37.45        32.5 0.48            117            249 195 
 ROSC BZ EP   9   1731  3.95                             117    1.28 0  253 211 
 ROSC BN ES       1731 34.68                                    0.84 8  253 211 
 ROSC BZ I        1731 42.18        63.9 0.40            117            253 211 
 URE  HZ EP       1731  5.03                             114   -0.55 7  284 292 
 URE  HN ES   4   1731 35.14                             114   -2.60 0  284 292 
 URE  HZ I        1731 46.79        39.6 0.18            115            284 292 
 VIL  EZ EP       1731  7.70                             113   -0.24 7  303 192 
 VIL  EN ES       1731 41.76                             113   -0.18 7  303 192 
 VIL  EZ I        1731 51.79        52.1 0.44            113            303 192 
 PTGC HZ EP   4 D 1731  7.23                             112   -1.14 0  309 159 
 PTGC HN ES   4   1731 40.24                             112   -2.48 0  309 159 
 PTGC HZ I        1731 43.76        19.9 0.28            113            309 159 
 LL6C HZ EP   9   1730 49.31                             111   -20.9 0  325 358 
 LL6C HN ES       1731 24.58                                   -0.49 7  325 358 
 LL6C HZ I        1731 38.89        69.9 1.00            113            325 358 
 ELA  HZ EP   9   1731 12.79                             111    1.44 0  329 229 
 ELA  HN ES       1731 49.50                             111    0.05 7  329 229 
 ELA  HZ I        1732  3.58        30.0 0.54            111            329 229 
 CBOC HZ EP   2   1731 11.90                             111    0.49 3  334 252 
 CBOC HE ES   4   1731 49.53                             111    1.42 0  334 252 
 CBOC HZ I        1732  2.31        10.6 0.36            110            334 252 
 ANIL HZ EP       1731 15.25                             109    0.96 6  357 224 
 ANIL HE ES   4   1731 55.71                             109    2.46 0  357 224 
 ORTC HZ EP       1731 18.36                             107   -0.03 6  395 216 
 ORTC HN ES       1732  1.68                             107    1.13 6  395 216 
 ORTC HZ I        1732  5.66        21.6 0.32            107            395 216 
 SJC  HZ EP   4   1731 18.46                             106   -1.55 0  409 327 
 SJC  HN ES   4   1731 59.60                             106   -3.83 0  409 327 
 SJC  HZ I        1732  4.85        13.0 0.26            107            409 327 
 CRJC HZ EP   9   1731 24.69                             104   -2.24 0  468   4 
 CRJC HE ES       1732 13.17                             104   -0.34 5  468   4 
 CRJC HZ I        1732 18.31        17.6 0.34            105            468   4 
                                                                                
