 2016  9 9 1502 23.7 L   6.796 -73.123149.8  RSN 22 0.4 2.8LRSN                1
 GAP=121        0.99       2.7     3.4  4.6 -0.2298E+01  0.4776E+01  0.1102E+01E
 Epicentro: LOS SANTOS - SANTANDER                                             3
 ACTION:UPD 17-08-17 21:08 OP:lp   STATUS:               ID:20160909150223 L   I
 OLDACT:REG 16-09-09 20:15 OP:lv   STATUS:               ID:20160909145733     3
 2016-09-09-1458-00M.COL___356                                                 6
 STAT SP IPHASW D HRMM SECON CODA AMPLIT PERI AZIMU VELO AIN AR TRES W  DIS CAZ7
 BAR2 EZ IP     C 15 2 43.73                             171   -0.1110 23.5 196 
 BAR2 EZ ES       15 2 59.71                             171    0.1810 23.5 196 
 BAR2 EZ I        15 3  0.12        91.7 0.29            169           23.5 196 
 BRR  HZ EP       15 2 45.64                             152    0.2010 73.6 298 
 BRR  HN ES       15 3  3.10                             152    0.7210 73.6 298 
 BRR  HZ I        15 3  8.81        56.3 0.18            150           73.6 298 
 PAM  EZ EP       15 2 46.54                             152    0.2510 76.1  38 
 PAM  EN ES       15 3  3.88                             152   -0.0210 76.1  38 
 PAM  EZ I        15 3  6.43       100.4 0.36            154           76.1  38 
 RUS  HZ EP       15 2 47.69                             145   -0.1410  100 177 
 RUS  HN ES       15 3  6.70                             145    0.0610  100 177 
 RUS  HZ I        15 3  7.98        71.7 0.44            146            100 177 
 PTB  HZ EP       15 2 50.66                             132   -0.57 9  150 259 
 PTB  HN ES       15 3 12.06                             132   -0.63 9  150 259 
 PTB  HZ I        15 3 13.84        69.8 0.13            131            150 259 
 OCA  HZ EP       15 2 52.85                             130    0.44 9  161 352 
 OCA  HN ES       15 3 13.94                             130   -0.86 9  161 352 
 OCA  HZ I        15 3 18.80       160.2 0.28            131            161 352 
 SPBC HZ EP       15 2 52.78                             130    0.13 9  164 220 
 SPBC HN ES       15 3 15.22                             130    0.01 9  164 220 
 SPBC HZ I        15 3 19.87        90.8 0.17            129            164 220 
 ZAR  HZ EP       15 2 55.82                             123   -0.86 8  207 292 
 ZAR  HN ES       15 3 22.33                             123   -0.07 8  207 292 
 ZAR  HZ I        15 3 28.91        49.2 0.32            122            207 292 
 NOR  HZ EP       15 2 59.82                             119   -0.06 8  236 235 
 NOR  HN ES       15 3 28.38                             119    0.30 8  236 235 
 NOR  HZ I        15 3 35.54        38.7 0.18            119            236 235 
 CHI  HZ EP       15 3  1.92                             118    0.25 8  249 196 
 CHI  HN ES       15 3 31.00                             118   -0.27 8  249 196 
 CHI  HZ I        15 3 35.17        28.1 0.44            118            249 196 
 ROSC BZ EP   9   15 3  4.69                             117    2.53 0  254 212 
 ROSC BN ES       15 3 34.67                                   -0.01 8  254 212 
 ROSC BZ I        15 3 38.35        46.7 0.40            118            254 212 
 HEL  HZ EP       15 3  4.57                             115    0.18 8  274 256 
 HEL  HN ES       15 3 36.76                             115    0.64 8  274 256 
 HEL  HZ I        15 3 42.09        32.9 0.32            115            274 256 
 URE  HZ EP   4   15 3  4.09                             114   -1.17 0  286 292 
 URE  HN ES   4   15 3 35.13                             114   -2.54 0  286 292 
 URE  HZ I        15 3 41.56        24.8 0.16            114            286 292 
 GUY2CHZ EP       15 3  8.16                             113    0.44 7  303 235 
 GUY2CHE ES       15 3 41.24                             113   -0.80 7  303 235 
 GUY2CHZ I        15 3 50.76        31.8 0.26                           303 235 
 LL1C HZ EP   4   15 3  9.50                             112    1.92 0  307 351 
 LL1C HN ES   4   15 3 45.55                             112    3.75 0  307 351 
 PTGC HZ EP   9   15 3  6.64                             112   -0.97 0  307 159 
 PTGC HN ES       15 3 39.98                                   -0.90 7  307 159 
 PTGC HZ I        15 3 44.79        33.4 0.32            113            307 159 
 LL6C HZ EP   9   15 3  8.25                             111   -1.40 0  325 357 
 LL6C HE ES       15 3 44.60                                    0.52 7  325 357 
 LL6C HZ I        15 3 52.64        10.6 0.23            112            325 357 
 ELA  HZ EP   9   15 3 12.63                             111    1.70 0  331 230 
 ELA  HN ES       15 3 49.01                                   -0.44 7  331 230 
 ELA  HZ I        15 3 56.38        34.8 0.32            111            331 230 
 CBOC HZ EP       15 3 11.63                             110    0.57 7  336 252 
 CBOC HN ES       15 3 47.93                             110   -0.06 7  336 252 
 CBOC HZ I        15 3 54.30        12.5 0.28            110            336 252 
 ANIL HZ EP   4   15 3 15.26                             109    1.41 0  359 225 
 ANIL HN ES       15 3 52.82                             109   -0.13 6  359 225 
 ANIL HZ I        15 4  0.31        57.6 0.34            109            359 225 
 PAL  HZ EP       15 3 19.35                             106    0.11 6  408 239 
 PAL  HN ES       15 4  3.06                             106    0.51 6  408 239 
 PAL  HZ I        15 4  7.34        16.6 0.22            107            408 239 
 SJC  HZ EP   4   15 3 18.01                             106   -1.60 0  411 327 
 SJC  HN ES   4   15 3 59.39                             106   -3.83 0  411 327 
 SJC  HZ I        15 4  4.42        12.4 0.34            107            411 327 
 CRJC HZ EP   9   15 3 24.02                             104   -2.34 0  468   3 
 CRJC HN ES       15 4 13.38                                    0.50 5  468   3 
 CRJC HZ I        15 4 18.28        17.5 0.22            104            468   3 
 SMAR HZ EP   4   15 3 29.13                             103   -0.68 0  498 346 
 SMAR HN ES   4   15 4 17.32                             103   -4.05 0  498 346 
                                                                                
