 2012 10 9 1442 43.8 L   6.801 -73.135149.2  RSN 25 0.5 3.6LRSN 3.8WRSN        1
 SPEC AVERAGE  MO 14.8 ST 36.6 OM  3.0 f0 3.08 R0.5078 AL 2.40 WI 30.1 MW  3.8 3
 SPEC SD       MO  0.3 ST 27.3 OM  0.6 f00.612 R0.1237 AL      WI      MW  0.2 3
 GAP= 55        0.85       3.0     2.9  4.3  0.4807E+00  0.3427E+01  0.3771E+01E
 Epicentro: LOS SANTOS - SANTANDER                                             3
 SPEC ZAR HH E MO 15.0 ST 61.5 OM  3.2 f0 3.62 R0.4061 AL 2.62 WI 23.5 MW  3.9 3
 SPEC ZAR HH E T144341 K 0.000 GD  253 VS 4.20 DE 3.00 Q0230.0 QA 0.60 VS 4.20 3
 SPEC RREFHH Z MO 14.9 ST 33.3 OM  2.2 f0 3.14 R0.4682 AL 2.45 WI 36.0 MW  3.9 3
 SPEC RREFHH Z T144330 K 0.000 GD  355 VP 7.60 DE 3.00 Q0230.0 QA 0.60 VS 4.20 3
 SPEC URE HH N MO 14.8 ST 37.2 OM  2.9 f0 3.56 R0.4129 AL 3.03 WI 43.6 MW  3.8 3
 SPEC URE HH N T144352 K 0.000 GD  321 VS 4.20 DE 3.00 Q0230.0 QA 0.60 VS 4.20 3
 SPEC TAM HH Z MO 14.7 ST 13.5 OM  2.2 f0 2.75 R0.5345 AL 1.87 WI 16.8 MW  3.7 3
 SPEC TAM HH Z T144311 K 0.000 GD  214 VP 7.60 DE 3.00 Q0230.0 QA 0.60 VS 4.20 3
 SPEC PRA HH N MO 14.7 ST  7.3 OM  2.7 f0 2.21 R0.6652 AL 1.16 WI 25.1 MW  3.7 3
 SPEC PRA HH N T144418 K 0.000 GD  420 VS 4.20 DE 3.00 Q0230.0 QA 0.60 VS 4.20 3
 SPEC MON HH N MO 14.7 ST 11.2 OM  2.7 f0 2.62 R0.5611 AL 2.11 WI 33.5 MW  3.7 3
 SPEC MON HH N T1444 8 K 0.000 GD  385 VS 4.20 DE 3.00 Q0230.0 QA 0.60 VS 4.20 3
 SPEC HEL HH N MO 14.7 ST 10.2 OM  2.8 f0 2.53 R0.5810 AL 2.30 WI 40.7 MW  3.7 3
 SPEC HEL HH N T144354 K 0.000 GD  311 VS 4.20 DE 3.00 Q0230.0 QA 0.60 VS 4.20 3
 SPEC ROSCBH Z MO 14.9 ST 34.3 OM  2.3 f0 3.13 R0.4696 AL 3.33 WI 26.7 MW  3.9 3
 SPEC ROSCBH Z T144323 K 0.000 GD  293 VP 7.60 DE 3.00 Q0230.0 QA 0.60 VS 4.20 3
 SPEC ANILHH Z MO 15.1 ST 88.3 OM  2.4 f0 3.62 R0.4061 AL 1.52 WI 33.5 MW  4.0 3
 SPEC ANILHH Z T144334 K 0.000 GD  387 VP 7.60 DE 3.00 Q0230.0 QA 0.60 VS 4.20 3
 SPEC CHI HH N MO 14.8 ST  5.7 OM  3.0 f0 1.83 R0.8033 AL 2.08 WI 27.2 MW  3.8 3
 SPEC CHI HH N T144350 K 0.000 GD  290 VS 4.20 DE 3.00 Q0230.0 QA 0.60 VS 4.20 3
 SPEC BRR HH N MO 14.8 ST 74.1 OM  3.2 f0 4.44 R0.3311 AL 3.64 WI 28.3 MW  3.8 3
 SPEC BRR HH N T144322 K 0.000 GD  165 VS 4.20 DE 3.00 Q0230.0 QA 0.60 VS 4.20 3
 ACTION:UPD 12-11-22 17:02 OP:ep   STATUS:               ID:20121009144243 L   I
 2012-10-09-1440-00M.COL___223                                                 6
 STAT SP IPHASW D HRMM SECON CODA AMPLIT PERI AZIMU VELO AIN AR TRES W  DIS CAZ7
 BAR2 SZ IP       1443  3.81                             171    0.0010 23.7 193 
 BAR2 SZ ES   1   1443 18.53                             171   -0.92 7 23.7 193 
 BAR2 SZ I        1443 21.85       747.6 0.32                          23.7 193 
 GIR2 SZ IP       1443  3.91                             167    0.0610 31.4 348 
 GIR2 SZ ES   1   1443 19.39                             167   -0.12 7 31.4 348 
 BRR  HZ IP     C 1443  5.71                             153    0.3710 72.2 298 
 BRR  HN ES   1   1443 23.03                             153    0.86 7 72.2 298 
 BRR  HN I        1443 24.36      1147.7 0.18                          72.2 298 
 PAM  SZ IP       1443  6.63                             152    0.3310 76.5  39 
 PAM  SN ES   1   1443 23.89                             152    0.02 7 76.5  39 
 RUS  HZ IP     D 1443  7.68                             145   -0.1810  101 177 
 RUS  HN ES   1   1443 26.41                             145   -0.24 7  101 177 
 RUS  HN I        1443 28.16       582.5 0.38                           101 177 
 TAM  HZ IP     C 1443 11.99                             132    0.38 9  154 105 
 TAM  HN ES   1   1443 33.56                             132    0.22 7  154 105 
 YOP  SZ IP       1443 14.31                             127    0.29 9  178 154 
 YOP  SN ES   1   1443 37.18                             127   -0.43 7  178 154 
 YOP  SN I        1443 41.31       325.1 0.32                           178 154 
 ZAR  HZ EP       1443 16.08                             123   -0.46 9  205 292 
 ZAR  HE ES   1   1443 42.11                             123    0.00 6  205 292 
 ZAR  HN I        1443 48.09       341.4 0.26                           205 292 
 AGZ  SZ IP       1443 17.80                             121   -0.20 8  219 160 
 NOR  SZ EP       1443 19.63                             119   -0.17 8  236 235 
 NOR  SN ES   2   1443 47.99                             119    0.08 4  236 235 
 NOR  SN I        1443 51.37       433.1 0.18                           236 235 
 CHI  HZ EP       1443 21.47                             118   -0.23 8  249 195 
 CHI  HN ES   1   1443 50.90                             118   -0.39 6  249 195 
 CHI  HN I        1443 58.98       215.5 0.54                           249 195 
 ROSC BN ES   3   1443 51.28                             117   -0.81 2  253 211 
 HEL  HZ EP       1443 24.23                             115   -0.05 8  273 256 
 HEL  HE ES   2   1443 54.71                             115   -1.17 4  273 256 
 URE  HZ EP   2   1443 24.05                             114   -1.07 4  285 292 
 GUY  SZ EP   3   1443 29.66                             113    1.75 2  305 235 
 GUY  SE ES   3   1444  1.22                             113   -1.12 2  305 235 
 RREF HZ EP       1443 30.79                             111    0.62 7  323 229 
 RREF HN ES   1   1444  7.44                             111    1.08 5  323 229 
 RREF HZ I        1444 14.61       129.9 0.24                           323 229 
 DBB  SZ EP       1443 31.26                             110   -0.25 7  341 274 
 DBB  SZ I        1444 11.66        93.2 0.64                           341 274 
 ANIL HZ EP       1443 34.22                             109    0.42 6  358 225 
 ANIL HZ I        1444 17.10       343.6 0.32                           358 225 
 SDV  BZ EP       1443 33.05                             109   -0.77 6  359  50 
 PRA  HZ EP       1443 36.86                             107   -0.62 6  393 210 
 PRA  HN ES   1   1444 20.35                             107    0.96 4  393 210 
 PRA  HN I        1444 25.19       105.3 0.70                           393 210 
 PAL  HZ EP       1443 39.47                             106    0.31 6  407 239 
 SMAR HZ EP   2   1443 48.79                             103   -0.95 2  497 346 
 HORQ SZ EP       1443 55.25                             102    0.86 4  533 227 
 MARA HZ EP       1443 54.33                             102   -0.63 4  538 216 
 POP2 HZ EP   1   1444  3.67                             100   -0.27 2  613 220 
                                                                                
