 2012 12 9 1207 20.5 L   6.832 -73.138137.7  RSN  6 0.4 2.0LRSN                1
 GAP=202        0.91       4.1     5.7 11.6  0.9984E+01 -0.7684E+01 -0.2161E+02E
 Epicentro: LOS SANTOS - SANTANDER                                             3
 ACTION:UPD 13-01-04 14:26 OP:ep   STATUS:               ID:20121209120720 L   I
 2012-12-09-1200-00M.COL___238                                                 6
 STAT SP IPHASW D HRMM SECON CODA AMPLIT PERI AZIMU VELO AIN AR TRES W  DIS CAZ7
 BAR2 SZ EP       12 7 39.64                             168    0.4110 26.9 190 
 BAR2 SZ I        12 7 55.77        15.4 0.16                          26.9 190 
 RUS  HZ EP       12 7 44.09                             141    0.3810  104 177 
 RUS  HN ES       12 8  1.52                             141   -0.3110  104 177 
 RUS  HN I        12 8  3.17         7.5 0.24                           104 177 
 PTB  HZ EP       12 7 46.63                             130   -0.32 9  149 258 
 PTB  HN ES       12 8  7.43                             130   -0.16 9  149 258 
 PTB  HN I        12 8 12.05         9.8 0.32                           149 258 
 ZAR  HN ES       12 8 17.85                             120    0.62 9  204 291 
 ZAR  HN I        12 8 24.44        10.0 0.46                           204 291 
 SML  HZ EP       12 7 56.29                             116   -0.07 8  241 335 
 SML  HN ES       12 8 23.80                             116   -0.54 8  241 335 
 SML  HN I        12 8 27.85        24.0 0.10                           241 335 
 CHI  HN ES       12 8 27.29                             115   -0.23 8  252 195 
 CHI  HN I        12 8 33.39         5.1 0.44                           252 195 
                                                                                
