 2012  4 9 1038 27.7 L   6.759 -73.121138.3  RSN  8 0.4 1.9LRSN                1
 GAP=142        0.90       3.6     4.4  6.9 -0.2354E+01  0.8602E+01 -0.9125E+00E
 Epicentro: LOS SANTOS - SANTANDER                                             3
 ACTION:UPD 12-07-05 11:52 OP:tino STATUS:               ID:20120409103827 L   I
 2012-04-09-1030-00M.COL___196                                                 6
 STAT SP IPHASW D HRMM SECON CODA AMPLIT PERI AZIMU VELO AIN AR TRES W  DIS CAZ7
 BAR2 SZ EP       1038 46.53                             172     0.210   20 200 
 BAR2 SZ ES   1   1039  0.63                             172    -0.2 7   20 200 
 BAR2 SZ I        1039  2.20        22.3 0.23                            20 200 
 BRR  HZ EP       1038 48.45                             150     0.210   76 301 
 BRR  HZ I        1038 48.82        32.3 0.11                            76 301 
 BRR  HE ES   1   1039  5.03                             150     0.7 7   76 301 
 PAM  SZ EP       1038 49.57                             149     0.410   79  36 
 PAM  SN ES       1039  5.89                             149    -0.110   79  36 
 RUS  HZ EP       1038 50.55                             143     0.210   96 177 
 RUS  HN ES       1039  7.76                             143    -0.310   96 177 
 PTB  HZ EP   1   1038 53.32                             130    -0.9 7  150 261 
 PTB  HE ES   1   1039 14.60                             130    -0.3 7  150 261 
 PTB  HZ I        1039 16.55         7.7 0.13                           150 261 
 OCA  SZ EP   1   1038 55.29                             127    -0.6 7  165 352 
 OCA  SZ ES   1   1039 17.55                             127    -0.3 7  165 352 
 ZAR  HN ES   1   1039 25.48                             120     0.1 6  208 293 
 ZAR  HZ I        1039 34.28         5.9 0.18                           208 293 
 NOR  SZ EP   1   1039  3.13                             117     0.2 6  234 236 
 NOR  SN ES   1   1039 30.68                             117     0.2 6  234 236 
                                                                                
