 2010  3 9 1437 23.8 L   6.804 -72.975146.9  RSN  4 0.3 1.9LRSN                1
 GAP=280        0.59       7.1     8.4  8.6 -0.1183E+02 -0.1048E+02  0.3044E+02E
 Epicentro: CEPITA - SANTANDER                                                 3
 ACTION:UP  10-08-24 09:53 OP:vdl  STATUS:               ID:20100309143723 L   I
 2010-03-09-1435-38S.COL___101                                                 6
 STAT SP IPHASW D HRMM SECON CODA AMPLIT PERI AZIMU VELO SNR AR TRES W  DIS CAZ7
 BAR2 SZ EP   1   1437 44.18                             167     0.3 7   33 225 
 BAR2 SZ ES   2   1437 59.45                             167     0.0 5   33 225 
 BRR  HZ IP       1437 45.99                             148    -0.210   88 292 
 BRR  HZ I        1437 46.38        18.8 0.12                            88 292 
 BRR  HN ES       1438  3.50                             148    -0.110   88 292 
 RREF BN ES   1   1438 49.49                             110     0.4 5  337 231 
 RREF BZ I        1438 53.80         2.4 0.45                           337 231 
 PRA  HE ES   2   1439  0.40                             106    -0.9 3  402 212 
                                                                                
