 2017  9 9 2301 45.6 L   6.754 -73.133145.4  RSN 15 0.4 2.1LRSN                1
 GAP=122        0.90       3.1     3.3  5.0  0.1613E+00  0.2920E+01  0.6342E+01E
 Epicentro: LOS SANTOS - SANTANDER                                             3
 ACTION:UPD 17-10-05 19:10 OP:rebc STATUS:               ID:20170909230145 L   I
 OLDACT:UP  17-09-10 07:26 OP:edw  STATUS:               ID:20170909225736     3
 OLDACT:UP  17-09-10 07:26 OP:edw  STATUS:               ID:20170909225736     3
 OLDACT:UP  17-09-10 07:26 OP:edw  STATUS:               ID:20170909225736     3
 OLDACT:UP  17-09-10 07:25 OP:edw  STATUS:               ID:20170909225736     3
 OLDACT:REG 17-09-10 03:44 OP:edw  STATUS:               ID:20170909225736     3
 2017-09-09-2258-00M.COL___413                                                 6
 STAT SP IPHASW D HRMM SECON CODA AMPLIT PERI AZIMU VELO AIN AR TRES W  DIS CAZ7
 BAR2 EZ EP       23 2  5.17                             172    0.0210 18.7 197 
 BAR2 EZ ES       23 2 20.68                             172    0.3310 18.7 197 
 BAR2 EZ I        23 2 21.75        36.3 0.28            170           18.7 197 
 BRR  HZ EP       23 2  7.00                             151    0.0310 74.9 301 
 BRR  HN ES       23 2 23.94                             151    0.3410 74.9 301 
 BRR  HZ I        23 2 26.64        18.5 0.14            154           74.9 301 
 PAM  EZ EP       23 2  8.08                             150    0.0710 80.6  36 
 PAM  EN ES       23 2 24.92                             150   -0.5410 80.6  36 
 PAM  EZ I        23 2 27.59        10.8 0.62            154           80.6  36 
 RUS  HZ EP       23 2  9.16                             145    0.1710 95.4 177 
 RUS  HN ES       23 2 27.24                             145    0.0410 95.4 177 
 RUS  HZ I        23 2 29.18        23.1 0.34            146           95.4 177 
 SPBC HZ EP       23 2 14.00                             129    0.17 9  160 221 
 SPBC HN ES       23 2 35.88                             129    0.07 9  160 221 
 SPBC HZ I        23 2 43.12        16.7 0.22            131            160 221 
 ZAR  HN ES       23 2 43.32                             122   -0.63 8  207 293 
 TABC EZ EP       23 2 21.75                             120    0.77 8  226 212 
 NOR  HZ EP       23 2 21.45                             119    0.29 8  233 236 
 NOR  HN ES       23 2 48.45                             119   -0.41 8  233 236 
 NOR  HZ I        23 2 52.05         9.1 0.22            121            233 236 
 CHI  HZ EP       23 2 23.47                             117    0.64 8  244 196 
 CHI  HN ES       23 2 51.44                             117   -0.39 8  244 196 
 CHI  HZ I        23 2 54.67         4.4 0.36            119            244 196 
 HEL  HN ES       23 2 57.02                             115   -0.19 8  272 257 
 GUY2CHZ EP   4   23 2 29.99                             112    0.95 0  299 236 
 GUY2CHN ES   4   23 3  6.65                             112    3.77 0  299 236 
 GUY2CHZ I        23 3 11.38         6.3 0.28                           299 236 
 PTGC HZ EP       23 2 28.33                             112   -0.56 7  303 159 
 PTGC HN ES       23 3  2.03                             112   -0.59 7  303 159 
 CBOC HZ EP   4   23 2 29.75                             110   -2.77 0  333 253 
 CBOC HN ES   4   23 3  1.72                             110   -7.36 0  333 253 
 CBOC HZ I        23 3  3.12         4.5 0.14            112            333 253 
 PRA  HZ EP       23 2 38.88                             107    0.16 6  388 210 
 PRA  HN ES       23 3 19.60                             107   -0.51 6  388 210 
 PRA  HZ I        23 3 27.39         7.6 0.40            108            388 210 
 SJC  HZ EP   4   23 2 39.40                             105   -2.39 0  414 327 
 SJC  HN ES   4   23 3 18.79                             105   -6.78 0  414 327 
 SJC  HZ I        23 3 23.86         1.6 0.36            108            414 327 
                                                                                
