 2016 12 9 2316  1.6 L   6.506 -73.166 22.6  RSN  6 0.2 1.6LRSN                1
 GAP=143        0.53       1.2     1.8  1.8  0.2780E+00  0.1810E+01  0.2237E+00E
 Epicentro: PINCHOTE - SANTANDER                                               3
 ACTION:UPD 17-01-11 20:13 OP:rebc STATUS:               ID:20161209231601 L   I
 OLDACT:REG 16-12-10 06:17 OP:cog  STATUS:               ID:20161209230744     3
 2016-12-09-2308-00M.COL___367                                                 6
 STAT SP IPHASW D HRMM SECON CODA AMPLIT PERI AZIMU VELO AIN AR TRES W  DIS CAZ7
 BAR2 EZ EP       2316  6.34                             157    0.3910 9.75 349 
 BAR2 EZ ES       2316  9.22                             157   -0.1310 9.75 349 
 BAR2 EZ I        2316 10.53       170.0 0.16            157           9.75 349 
 RUS  HZ EP       2316 13.64                             107    0.1410 68.4 172 
 RUS  HN ES       2316 22.58                             107   -0.1910 68.4 172 
 RUS  HZ I        2316 23.19        12.3 0.17            108           68.4 172 
 BRR  HZ EP       2316 16.20                             102    0.0910 89.8 318 
 BRR  HN ES       2316 27.27                             102   -0.1610 89.8 318 
 PAM  EZ EP       2316 19.04                             101    0.0610  106  29 
 PAM  EN ES       2316 32.34                             101   -0.1910  106  29 
 PAM  EZ I        2316 33.58        17.9 0.22             56            106  29 
 PTB  HZ EP       2316 23.08                              56   -0.05 9  143 272 
 PTB  HN ES       2316 39.75                              56   -0.17 9  143 272 
 ZAR  HE ES       2316 56.56                              56    0.25 8  216 300 
                                                                                
