 2012  8 9 2143 50.8 L   6.768 -73.603  4.0  RSN  5 0.3 1.2LRSN                1
 GAP=106        0.48       2.3     3.3  6.7  0.3893E+01  0.3183E+01 -0.5430E+01E
 Epicentro: EL CARMEN DE CHUCURI - SANTANDER                                   3
 ACTION:UPD 12-09-10 11:55 OP:ep   STATUS:               ID:20120809214350 L   I
 2012-08-09-2140-00M.COL___218                                                 6
 STAT SP IPHASW D HRMM SECON CODA AMPLIT PERI AZIMU VELO AIN AR TRES W  DIS CAZ7
 BRR  HZ IP       2143 57.07                              47   -0.2510 39.4 342 
 BRR  HZ I        2143 57.19        37.8 0.12                          39.4 342 
 BRR  HN ES   1   2144  2.71                              47    0.27 7 39.4 342 
 BAR2 SZ EP   1   2143 59.16                              47   -0.06 7 50.4 113 
 BAR2 SZ I        2144  7.18        19.3 0.38                          50.4 113 
 GIR2 SZ EP       2144  0.15                              47    0.0510 56.8  53 
 GIR2 SZ ES   3   2144  7.07                              47   -0.32 2 56.8  53 
 PTB  HZ EP   3   2144  6.13                              47   -0.04 2 97.7 255 
 PTB  HZ I        2144 21.92         3.2 0.84                          97.7 255 
 RUS  HZ EP       2144  9.08                              47    0.1710  113 149 
 RUS  HN ES   3   2144 22.07                              47   -1.00 2  113 149 
                                                                                
