 2013  2 9 2004 57.3 L   6.808 -73.136146.3  RSN  6 0.4 1.5LRSN                1
 GAP=137        0.84       5.7     5.0  8.2  0.2496E+01  0.8022E+01  0.1017E+01E
 Epicentro: LOS SANTOS - SANTANDER                                             3
 ACTION:UPD 13-03-12 09:31 OP:ep   STATUS:               ID:20130209200457 L   I
 2013-02-09-2000-00M.COL___240                                                 6
 STAT SP IPHASW D HRMM SECON CODA AMPLIT PERI AZIMU VELO AIN AR TRES W  DIS CAZ7
 BAR2 SZ EP   1   20 5 17.15                             170    0.14 7 24.4 192 
 BAR2 SZ ES   1   20 5 31.92                             170   -0.47 7 24.4 192 
 BAR2 SZ I        20 5 34.67         9.2 0.20            168           24.4 192 
 BRR  HZ EP   1   20 5 18.81                             152    0.28 7 71.7 297 
 BRR  HN ES   1   20 5 35.84                             152    0.74 7 71.7 297 
 BRR  HZ I        20 5 40.24         9.4 0.34            151           71.7 297 
 PAM  SZ EP   1   20 5 19.70                             151    0.22 7 76.0  39 
 PAM  SN ES   1   20 5 36.28                             151   -0.51 7 76.0  39 
 PAM  SZ I        20 5 37.44         4.7 0.22            158           76.0  39 
 RUS  HZ EP   1   20 5 21.13                             144   -0.03 7  101 177 
 RUS  HN ES   1   20 5 40.22                             144    0.45 7  101 177 
 RUS  HZ I        20 5 41.60         3.3 0.42            147            101 177 
 PTB  HZ EP   1   20 5 23.91                             132   -0.51 7  149 259 
 PTB  HN ES   1   20 5 45.05                             132   -0.53 7  149 259 
 PTB  HZ I        20 5 51.17         5.4 0.32            133            149 259 
 ZAR  HN ES   1   20 5 55.37                             122    0.13 6  205 292 
                                                                                
