 2012  2 9 2011  5.7 L   6.790 -73.100137.0  RSN  4 0.2 2.0LRSN                1
 GAP=143        0.45       4.9     4.5  6.7 -0.3802E+01 -0.4081E+01  0.1607E+01E
 ACTION:UP  12-03-07 16:29 OP:epov STATUS:               ID:20120209201105 L   I
 2012-02-09-2010-00M.COL___188                                                 6
 STAT SP IPHASW D HRMM SECON CODA AMPLIT PERI AZIMU VELO AIN AR TRES W  DIS CAZ7
 GIR2 SZ EP   2   2011 24.27                             165   -0.16 5 33.6 342 
 PAM  SZ EP       2011 27.09                             150    0.2110 75.2  36 
 PAM  SN ES   1   2011 43.21                             150   -0.18 7 75.2  36 
 BRR  HZ EP   1   2011 25.97                             149   -0.26 7 76.2 297 
 BRR  HZ I        2011 33.48        19.2 0.14                          76.2 297 
 BRR  HN ES   1   2011 42.38                             149    0.14 7 76.2 297 
 RUS  HE ES   2   2011 46.29                             142   -0.01 5 99.2 179 
                                                                                
