 2017  8 9 2115 30.6 L   6.747 -73.134137.3  RSN  9 0.3 2.0LRSN                1
 GAP=140        0.81       4.1     5.5  5.9  0.1546E+01  0.6134E+01 -0.1299E+01E
 Epicentro: LOS SANTOS - SANTANDER                                             3
 ACTION:UPD 17-09-04 20:18 OP:rebc STATUS:               ID:20170809211530 L   I
 OLDACT:UP  17-08-10 04:08 OP:edw  STATUS:               ID:20170809210743     3
 OLDACT:UP  17-08-10 04:08 OP:edw  STATUS:               ID:20170809210743     3
 OLDACT:UP  17-08-10 04:07 OP:edw  STATUS:               ID:20170809210743     3
 OLDACT:UP  17-08-10 04:05 OP:edw  STATUS:               ID:20170809210743     3
 OLDACT:UP  17-08-10 04:02 OP:edw  STATUS:               ID:20170809210743     3
 OLDACT:REG 17-08-10 03:01 OP:edw  STATUS:               ID:20170809210743     3
 2017-08-09-2108-00M.COL___401                                                 6
 STAT SP IPHASW D HRMM SECON CODA AMPLIT PERI AZIMU VELO AIN AR TRES W  DIS CAZ7
 BAR2 EZ EP       2115 48.83                             172   -0.3110 18.0 197 
 BAR2 EZ ES       2116  3.52                             172   -0.0510 18.0 197 
 BAR2 EZ I        2116  4.64        14.8 0.26            166           18.0 197 
 BRR  HZ EP       2115 50.72                             150   -0.4010 75.3 302 
 BRR  HN ES       2116  7.23                             150    0.1410 75.3 302 
 PAM  EZ EP       2115 52.72                             148    0.5310 81.2  36 
 PAM  EN ES       2116  8.83                             148   -0.1710 81.2  36 
 PAM  EZ I        2116  9.27        10.1 0.18            155           81.2  36 
 RUS  HZ EP       2115 52.86                             144   -0.2610 94.7 177 
 RUS  HN ES       2116 10.97                             144    0.3110 94.7 177 
 RUS  HZ I        2116 16.77        14.0 0.36            147           94.7 177 
 ZAR  HZ EP       2116  3.19                             120    0.28 8  208 293 
 ZAR  HN ES   4   2116 25.91                             120   -2.17 0  208 293 
 ZAR  HZ I        2116 35.71         7.6 0.30            121            208 293 
 NOR  HN ES   4   2116 34.50                             117    1.56 0  232 236 
 NOR  HZ I        2116 42.57         8.4 0.40            118            232 236 
 CHI  HN ES   4   2116 33.31                             116   -2.58 0  243 196 
 CHI  HZ I        2116 34.61         5.4 0.20            119            243 196 
 GUY2CHN ES   4   2116 48.55                             111    1.43 0  299 236 
 GUY2CHZ I        2116 55.55         5.1 0.28                           299 236 
 PRA  HZ EP   4   2116 29.15                             105    5.80 0  388 210 
 PRA  HN ES   4   2116 56.69                             105   -7.78 0  388 210 
 PRA  HZ I        2116 58.86        10.1 0.28            108            388 210 
                                                                                
