 2010  9 9 2120 28.0 L   6.778 -73.096142.6  RSN 12 0.3 2.4LRSN                1
 GAP=164        0.70       2.5     4.8  4.8 -0.3975E+01 -0.1375E+01  0.2177E+01E
 Epicentro: LOS SANTOS - SANTANDER                                             3
 ACTION:UP  11-02-18 11:01 OP:tino STATUS:               ID:20100909212028 L   I
 2010-09-09-2117-41S.COL___120                                                 6
 STAT SP IPHASW D HRMM SECON CODA AMPLIT PERI AZIMU VELO SNR AR TRES W  DIS CAZ7
 BAR2 SZ IP       2120 47.26                             170     0.010   23 205 
 BAR2 SZ ES   1   2121  2.01                             170    -0.2 7   23 205 
 BAR2 SZ I        2121  3.43        60.5 0.36                            23 205 
 GIR2 SZ EP   2   2120 47.35                             166    -0.1 5   35 342 
 BRR  HZ IP     D 2120 49.03                             150    -0.110   77 298 
 BRR  HN ES       2121  5.89                             150     0.210   77 298 
 BRR  HZ I        2121  9.33        41.6 0.53                            77 298 
 RUS  HZ EP       2120 51.25                             144     0.010   98 179 
 RUS  HN ES   1   2121  9.76                             144     0.4 7   98 179 
 RUS  HZ I        2121 10.94        19.5 0.24                            98 179 
 GUE  SZ EP       2120 53.08                             138     0.510  118   9 
 GRA  SZ IP       2120 53.00                             136     0.010  127  15 
 GRA  SZ ES   1   2121 12.36                             136    -0.2 7  127  15 
 GRA  SZ I        2121 13.81        25.5 0.22                           127  15 
 OCA  SZ EP   1   2120 56.05                             128    -0.3 7  163 351 
 OCA  SZ ES   1   2121 18.04                             128    -0.5 7  163 351 
 OCA  SZ I        2121 22.20        31.6 0.36                           163 351 
 CHI  HZ EP   1   2121  5.59                             117     0.1 6  248 197 
 CHI  HE ES   1   2121 34.04                             117    -0.6 6  248 197 
 CHI  HZ I        2121 38.30        17.4 0.65                           248 197 
 HEL  HN ES   2   2121 40.16                             114    -0.1 4  277 257 
 HEL  HZ I        2121 46.17        11.0 0.48                           277 257 
 GUY  SN ES   2   2121 46.38                             111     0.3 4  305 236 
 GUY  SZ I        2121 54.71        29.5 0.42                           305 236 
 RREF HZ EP   2   2121 14.63                             110     0.3 3  324 230 
 RREF HE ES   2   2121 50.87                             110     0.4 3  324 230 
 RREF HZ I        2121 59.14        11.6 0.31                           324 230 
 PRA  HZ EP       2121 21.45                             106     0.0 6  393 210 
 PRA  HE ES   1   2122  2.78                             106    -0.4 4  393 210 
 PRA  HZ I        2122  8.59        13.4 0.29                           393 210 
                                                                                
