 2012 12 9 2039 33.6 L   6.780 -73.195145.3  RSN  4 0.2 1.6LRSN                1
 GAP=173        0.52       5.7     3.9  9.6  0.7411E+01 -0.5779E+01 -0.2651E+02E
 Epicentro: ZAPATOCA - SANTANDER                                               3
 ACTION:UPD 13-01-04 14:26 OP:ep   STATUS:               ID:20121209203933 L   I
 2012-12-09-2034-47M.COL___216                                                 6
 STAT SP IPHASW D HRMM SECON CODA AMPLIT PERI AZIMU VELO AIN AR TRES W  DIS CAZ7
 GIR2 SZ EP       2039 53.16                             167   -0.1210 33.1   0 
 RUS  HZ EP   1   2039 57.56                             144    0.36 7 98.9 173 
 RUS  HE ES   1   2040 15.54                             144   -0.05 7 98.9 173 
 RUS  HE I        2040 17.19         9.1 0.16                          98.9 173 
 PTB  HZ EP       2039 59.88                             133   -0.14 9  142 259 
 PTB  HN ES       2040 20.57                             133   -0.05 9  142 259 
 PTB  HZ I        2040 27.10         3.8 0.40                           142 259 
 ZAR  HN ES   2   2040 31.16                             123    0.61 4  200 293 
 ZAR  HZ I        2040 38.26         5.0 0.24                           200 293 
                                                                                
