 2016 10 9 2336 33.2 L   7.318 -73.096 14.9  RSN  4 0.0 1.1LRSN                1
 GAP=171        0.29       3.3     3.0  6.6  0.8546E+01  0.1940E+02  0.1977E+02E
 Epicentro: RIONEGRO - SANTANDER                                               3
 ACTION:UPD 16-11-09 19:18 OP:rebc STATUS:               ID:20161009233633 L   I
 OLDACT:REG 16-10-10 03:32 OP:edw  STATUS:               ID:20161009232746     3
 2016-10-09-2328-00M.COL___360                                                 6
 STAT SP IPHASW D HRMM SECON CODA AMPLIT PERI AZIMU VELO AIN AR TRES W  DIS CAZ7
 PAM  EZ EP       2336 41.11                             107   -0.0510 43.8  87 
 PAM  HN ES       2336 47.44                             107    0.0510 43.8  87 
 PAM  EZ I        2336 48.22        13.3 0.14             47           43.8  87 
 RUS  HZ EP   4   2336 59.53                              56    1.73 0  158 179 
 RUS  HE ES       2337 16.98                              56   -0.02 9  158 179 
 RUS  HZ I        2337 19.33         1.3 0.28             47            158 179 
 PTB  HZ EP       2336 59.21                              56    0.03 9  173 240 
 PTB  HE ES       2337 19.48                              56    0.02 9  173 240 
 PTB  HZ I        2337 20.52         2.7 0.24             47            173 240 
 ZAR  HZ EP       2337  1.90                              56   -0.05 9  195 276 
 ZAR  HE ES       2337 24.41                              56    0.02 9  195 276 
 ZAR  HZ I        2337 25.69         3.2 0.36             37            195 276 
                                                                                
