 2011 12 9 2337 53.7 L   6.769 -73.146144.5  RSN 14 0.4 2.5LRSN                1
 GAP=138        0.87       3.8     4.9  5.5 -0.5390E+01  0.5659E+01  0.3923E+01E
 Epicentro: LOS SANTOS - SANTANDER                                             3
 ACTION:UPD 12-07-13 16:15 OP:ep   STATUS:               ID:20111209233753 L   I
 2011-12-09-2330-00M.COL___186                                                 6
 STAT SP IPHASW D HRMM SECON CODA AMPLIT PERI AZIMU VELO AIN AR TRES W  DIS CAZ7
 BAR2 SZ IP       2338 13.03                             172   -0.0410 19.9 192 
 BAR2 SZ ES   1   2338 27.85                             172   -0.36 7 19.9 192 
 BAR2 SZ I        2338 30.95        70.0 0.24                          19.9 192 
 GIR2 SZ EP       2338 13.12                             166   -0.1510 34.7 351 
 BRR  HZ IP     C 2338 14.96                             152    0.2010 72.9 301 
 BRR  HN ES   1   2338 32.07                             152    0.84 7 72.9 301 
 BRR  HZ I        2338 35.18        96.5 0.16                          72.9 301 
 PAM  SZ IP       2338 15.92                             150    0.0210 80.1  38 
 PAM  SN ES   1   2338 33.22                             150   -0.03 7 80.1  38 
 RUS  HZ EP       2338 16.83                             145   -0.2010 97.1 176 
 RUS  HN ES   1   2338 35.52                             145    0.25 7 97.1 176 
 RUS  HZ I        2338 37.12        37.3 0.58                          97.1 176 
 BRI  SZ EP   3   2338 17.61                             140   -0.06 2  112  20 
 PTB  HZ EP       2338 19.55                             132   -0.91 9  147 260 
 PTB  HN ES   1   2338 40.94                             132   -0.43 7  147 260 
 PTB  HZ I        2338 46.86        39.0 0.28                           147 260 
 OCA  SZ EP       2338 22.38                             129    0.19 9  164 353 
 OCA  SZ I        2338 48.39        22.7 0.17                           164 353 
 NOR  SZ EP       2338 28.83                             118   -0.26 8  233 235 
 NOR  SN ES   1   2338 56.87                             118    0.13 6  233 235 
 CHI  HZ EP       2338 30.96                             117    0.04 8  245 195 
 CHI  HN ES   1   2339  0.26                             117    0.28 6  245 195 
 CHI  HZ I        2339  6.16        17.0 0.38                           245 195 
 ROSC BZ EP   3   2338 31.27                             117   -0.11 2  250 211 
 ROSC BZ I        2339 10.21        34.7 0.45                           250 211 
 RREF HZ EP       2338 40.30                             111    0.82 7  320 230 
 RREF HZ I        2339 25.48        22.0 0.34                           320 230 
 TOL  SZ EP       2338 42.31                             109    0.74 7  341 225 
 PRA  HZ EP       2338 46.53                             106   -0.24 6  389 210 
                                                                                
