 2015 10 9 2303 17.3 L   6.826 -73.130141.2  RSN 23 0.5 2.7LRSN                1
 GAP= 71        1.14       2.5     3.1  5.0 -0.3293E+00  0.4541E+01  0.1205E+01E
 Epicentro: LOS SANTOS - SANTANDER                                             3
 ACTION:UPD 15-12-22 20:38 OP:cam  STATUS:               ID:20151009230317 L   I
 OLDACT:UP  15-10-10 06:00 OP:ar   STATUS:               ID:20151009225749     3
 OLDACT:REG 15-10-10 04:11 OP:ar   STATUS:               ID:20151009225749     3
 2015-10-09-2257-49M.COL___346                                                 6
 STAT SP IPHASW D HRMM SECON CODA AMPLIT PERI AZIMU VELO AIN AR TRES W  DIS CAZ7
 BAR2 EZ IP     C 23 3 36.31                             169   -0.1510 26.5 193 
 BAR2 EZ ES       23 3 50.52                             169   -0.8710 26.5 193 
 BAR2 EZ I        23 3 52.27       108.8 0.12            169           26.5 193 
 BRR  HZ EP     C 23 3 38.13                             152    0.1610 71.4 296 
 BRR  HN ES       23 3 54.63                             152    0.5410 71.4 296 
 BRR  HZ I        23 3 58.15        88.5 0.18            150           71.4 296 
 PAM  EZ EP     C 23 3 39.06                             151    0.2310 74.0  40 
 PAM  EN ES       23 3 55.94                             151    0.3110 74.0  40 
 PAM  EZ I        23 3 58.00       117.8 0.44            152           74.0  40 
 RUS  HZ EP       23 3 40.33                             142   -0.4910  103 177 
 RUS  HN ES       23 3 59.15                             142   -0.0110  103 177 
 RUS  HZ I        23 4  0.52        93.3 0.30            143            103 177 
 TAM  HZ IP     C 23 3 44.75                             130    0.21 9  154 106 
 TAM  HE ES       23 4  6.13                             130    0.35 9  154 106 
 TAM  HZ I        23 4  6.81        49.7 0.24            132            154 106 
 OCA  HZ EP       23 3 45.67                             129    0.66 9  158 352 
 OCA  HN ES       23 4  5.99                             129   -0.62 9  158 352 
 OCA  HZ I        23 4 11.06        67.7 0.13            129            158 352 
 SPBC HZ EP   2   23 3 45.48                             127   -0.30 5  167 219 
 SPBC HN ES   2   23 4  7.07                             127   -0.92 5  167 219 
 SPBC HZ I        23 4  8.61        84.1 0.12            128            167 219 
 ZAR  HZ EP       23 3 50.14                             121    0.63 9  205 291 
 ZAR  HE ES       23 4 14.61                             121   -0.02 9  205 291 
 ZAR  HZ I        23 4 20.09        83.3 0.50            121            205 291 
 NOR  HZ EP       23 3 52.91                             117   -0.20 8  238 234 
 NOR  HE ES       23 4 20.57                             117   -0.47 8  238 234 
 NOR  HZ I        23 4 23.02        40.1 0.28            118            238 234 
 SML  HZ EP       23 3 53.07                             117   -0.40 8  242 335 
 SML  HE ES       23 4 22.04                             117    0.37 8  242 335 
 SML  HZ I        23 4 27.04        56.6 0.24            117            242 335 
 CHI  HZ EP       23 3 54.84                             116   -0.27 8  252 195 
 CHI  HN ES       23 4 25.23                             116    0.63 8  252 195 
 CHI  HZ I        23 4 28.39        16.5 0.40            117            252 195 
 ROSC BZ EP       23 3 56.33                             115    0.78 8  256 211 
 ROSC BN ES   2   23 4 26.11                             115    0.73 4  256 211 
 ROSC BZ I        23 4 30.10        40.6 0.50            116            256 211 
 HEL  HZ EP       23 3 58.40                             114    0.85 8  274 255 
 HEL  HN ES   2   23 4 29.31                             114    0.36 4  274 255 
 HEL  HZ I        23 4 33.96        25.5 0.36            114            274 255 
 URE  HZ EP       23 3 58.42                             113    0.21 7  284 291 
 URE  HN ES   4   23 4 28.47                             113   -1.65 0  284 291 
 URE  HZ I        23 4 29.99        25.0 0.18            113            284 291 
 GUY2CHZ EP       23 4  0.93                             111   -0.13 7  304 235 
 GUY2CHN ES       23 4 35.93                             111    0.75 7  304 235 
 GUY2CHZ I        23 4 47.68        21.4 0.74                           304 235 
 VIL  SZ EP       23 4  0.72                             111   -0.16 7  307 192 
 VIL  SN ES       23 4 34.01                             111   -0.86 7  307 192 
 PTGC HZ EP   4   23 3 59.14                             110   -2.06 0  311 159 
 PTGC HN ES   4   23 4 32.99                             110   -2.45 0  311 159 
 PTGC HZ I        23 4 35.61        29.9 0.32            111            311 159 
 DBB  SZ EP       23 4  4.25                             108   -0.52 7  341 274 
 DBB  SZ ES       23 4 41.01                             108   -0.79 7  341 274 
 DBB  SZ I        23 4 43.57        47.2 0.32            109            341 274 
 SDV  BZ EP       23 4  6.11                             107   -0.69 6  357  50 
 SDV  BN ES   4   23 4 42.69                             107   -2.72 0  357  50 
 SDV  BZ I        23 4 47.96        13.1 0.55            108            357  50 
 ANIL HZ EP   9   23 4  8.45                             107    1.13 0  361 224 
 ANIL HN ES       23 4 48.09                             108    0.63 6  361 224 
 ANIL HZ I        23 4 53.69        62.4 0.28            108            361 224 
 ORTC HZ EP       23 4 11.93                             105    0.46 6  399 216 
 ORTC HN ES       23 4 53.48                             105   -0.23 6  399 216 
 ORTC HZ I        23 5  1.19        16.8 0.50            106            399 216 
 SJC  HZ EP       23 4 11.07                             105   -1.47 6  408 327 
 SJC  HN ES   4   23 4 52.13                             105   -3.50 0  408 327 
 SJC  HZ I        23 4 55.95        10.1 0.54            105            408 327 
 CRJC HZ EP   4   23 4 16.96                             103   -2.36 0  465   3 
 CRJC HE ES   4   23 5  3.37                             103   -4.32 0  465   3 
 CRJC HZ I        23 5 16.53         6.3 0.50            103            465   3 
                                                                                
