 2012  1 9 2002 52.3 L   6.772 -73.143147.5  RSN 11 0.4 2.0LRSN                1
 GAP=138        0.89       4.3     5.4  6.3 -0.4009E+01  0.8025E+01  0.9068E+00E
 Epicentro: LOS SANTOS - SANTANDER                                             3
 ACTION:UP  12-02-03 08:15 OP:REBC STATUS:               ID:20120109200252 L   I
 2012-01-09-2000-00M.COL___186                                                 6
 STAT SP IPHASW D HRMM SECON CODA AMPLIT PERI AZIMU VELO SNR AR TRES W  DIS CAZ7
 BAR2 SZ IP       20 3 12.03                             172     0.010   20 192 
 BAR2 SZ ES   1   20 3 27.51                             172     0.0 7   20 192 
 BAR2 SZ I        20 3 28.75        14.4 0.34                            20 192 
 GIR2 SZ EP       20 3 12.39                             166     0.210   34 351 
 GIR2 SZ ES   2   20 3 28.09                             166     0.3 5   34 351 
 BRR  HZ IP     C 20 3 14.01                             152     0.310   73 301 
 BRR  HN ES   1   20 3 31.09                             152     0.7 7   73 301 
 BRR  HZ I        20 3 33.58        29.1 0.12                            73 301 
 PAM  SZ EP       20 3 14.85                             151     0.010   80  38 
 PAM  SN ES   1   20 3 31.67                             151    -0.7 7   80  38 
 RUS  HZ EP       20 3 15.94                             145     0.010   97 176 
 RUS  HN ES   1   20 3 34.45                             145     0.0 7   97 176 
 RUS  HZ I        20 3 35.66         7.2 0.50                            97 176 
 PTB  HZ EP       20 3 18.59                             132    -0.8 9  147 260 
 PTB  HN ES   2   20 3 39.78                             132    -0.7 5  147 260 
 PTB  HZ I        20 3 47.37        12.9 0.32                           147 260 
 OCA  SZ EP       20 3 21.08                             130     0.1 9  163 353 
 OCA  SZ I        20 3 46.06        12.4 0.50                           163 353 
 ZAR  HZ EP   3   20 3 26.33                             123     1.4 2  205 293 
 ZAR  HE ES   2   20 3 50.09                             123    -0.4 4  205 293 
 ZAR  HZ I        20 3 55.72        14.0 0.58                           205 293 
 NOR  SZ EP       20 3 27.96                             119     0.0 8  233 235 
 NOR  SN ES   2   20 3 56.10                             119     0.4 4  233 235 
 CHI  HZ EP   2   20 3 30.04                             118     0.3 4  246 195 
 CHI  HN ES   2   20 3 59.26                             118     0.3 4  246 195 
 CHI  HZ I        20 4  5.11         5.8 0.36                           246 195 
 HEL  HZ EP   3   20 3 33.67                             115     1.2 2  272 256 
 HEL  HZ I        20 4 10.06         4.0 0.24                           272 256 
                                                                                
