 2017 10 9 2123 37.7 L   6.801 -73.124142.5  RSN  6 0.4 1.4LRSN                1
 GAP=163        0.91       6.2     7.3  7.2 -0.3187E+02  0.2455E+02 -0.8133E+01E
 Epicentro: LOS SANTOS - SANTANDER                                             3
 ACTION:UPD 17-11-07 19:30 OP:rebc STATUS:               ID:20171009212337 L   I
 OLDACT:UP  17-10-10 05:02 OP:dhb  STATUS:               ID:20171009211250d    3
 OLDACT:DUP 17-10-10 04:56 OP:dhb  STATUS:               ID:20171009211250d    3
 OLDACT:REG 17-10-10 02:50 OP:dhb  STATUS:               ID:20171009211249     3
 2017-10-09-2118-00M.COL___429                                                 6
 STAT SP IPHASW D HRMM SECON CODA AMPLIT PERI AZIMU VELO AIN AR TRES W  DIS CAZ7
 BAR2 EZ EP       2123 56.26                             170   -0.7310 24.0 196 
 BAR2 EZ ES       2124 11.56                             170   -0.4410 24.0 196 
 BAR2 EZ I        2124 13.33         5.8 0.13            169           24.0 196 
 PAM  EZ EP       2123 59.66                             151    0.1510 75.8  38 
 PAM  EN ES       2124 16.94                             151    0.4510 75.8  38 
 PAM  EZ I        2124 18.03         2.7 0.18            154           75.8  38 
 RUS  HZ EP       2124  1.27                             143    0.1010  101 177 
 RUS  HN ES       2124 19.58                             143    0.1410  101 177 
 RUS  HZ I        2124 21.84         4.9 0.34            145            101 177 
 SPBC HZ EP       2124  6.18                             128    0.04 9  165 220 
 SPBC HN ES       2124 28.69                             128    0.40 9  165 220 
 SPBC HZ I        2124 30.43         4.1 0.14            129            165 220 
 NOR  HZ EP       2124 13.29                             117   -0.21 8  237 235 
 NOR  HN ES       2124 41.31                             117   -0.08 8  237 235 
 NOR  HZ I        2124 46.22         2.1 0.21            119            237 235 
 GUY2CHE ES   1   2124 56.05                             111    0.55 5  303 235 
 GUY2CHZ I        2125  1.88         1.4 0.24                           303 235 
                                                                                
