 2014  4 9 2314 14.1 L   6.831 -73.124146.6  RSN 13 0.4 2.3LRSN                1
 GAP=127        0.98       2.8     3.4  5.3 -0.1642E+01  0.3238E+01  0.2463E+01E
 Epicentro: LOS SANTOS - SANTANDER                                             3
 ACTION:UPD 14-05-13 23:07 OP:nd   STATUS:               ID:20140409231414 L   I
 OLDACT:REG 14-04-10 06:37 OP:carl STATUS:               ID:20140409230817     3
 2014-04-09-2308-17M.COL___262                                                 6
 STAT SP IPHASW D HRMM SECON CODA AMPLIT PERI AZIMU VELO AIN AR TRES W  DIS CAZ7
 BRR  HZ IP     C 2314 35.67                             152    0.3110 71.8 295 
 BRR  HE ES       2314 52.52                             152    0.5710 71.8 295 
 BRR  HZ I        2314 55.62        31.1 0.32            151           71.8 295 
 PAM  SZ IP     C 2314 36.64                             152    0.4910 73.2  40 
 PAM  SN ES       2314 53.39                             152    0.0310 73.2  40 
 PAM  SZ I        2314 55.67        48.1 0.46            156           73.2  40 
 RUS  HZ EP       2314 38.00                             143   -0.1610  104 178 
 RUS  HN ES       2314 56.79                             143   -0.1510  104 178 
 RUS  HZ I        2314 58.42        24.8 0.26            145            104 178 
 PTB  HZ EP       2314 40.74                             132   -0.66 9  151 258 
 PTB  HN ES       2315  1.67                             132   -1.04 9  151 258 
 PTB  HZ I        2315  5.35        23.9 0.12            131            151 258 
 ZAR  HZ EP       2314 46.94                             122    0.25 9  205 291 
 ZAR  HN ES       2315 12.46                             122    0.34 9  205 291 
 ZAR  HZ I        2315 17.91        19.0 0.26            123            205 291 
 NOR  HZ EP       2314 50.16                             118   -0.13 8  239 234 
 NOR  HE ES       2315 18.53                             118   -0.00 8  239 234 
 NOR  HZ I        2315 24.93        12.5 0.14            119            239 234 
 SML  HZ EP       2314 49.80                             118   -0.74 8  242 334 
 SML  HN ES       2315 18.68                             118   -0.28 8  242 334 
 SML  HZ I        2315 25.26        20.3 0.24            119            242 334 
 CHI  HZ EP       2314 52.47                             117    0.21 8  253 195 
 CHI  HN ES       2315 21.81                             117   -0.23 8  253 195 
 CHI  HZ I        2315 24.94         7.9 0.36            118            253 195 
 HEL  HZ EP       2314 55.17                             115    0.47 8  275 255 
 HEL  HE ES       2315 26.74                             115    0.37 8  275 255 
 HEL  HZ I        2315 32.44         9.3 0.24            115            275 255 
 GUY2CHZ EP       2314 58.34                             112    0.16 7  305 235 
 GUY2CHN ES       2315 32.25                             112   -0.33 7  305 235 
 GUY2CHZ I        2315 41.86         8.0 0.70                           305 235 
 RREF HZ EP       2315  1.15                             111    0.42 7  326 229 
 RREF HN ES       2315 37.33                             111    0.22 7  326 229 
 RREF HZ I        2315 46.45         7.7 0.26            112            326 229 
 SDV  BZ EP       2315  3.30                             109   -0.39 6  356  50 
 SDV  BN ES   4   2315 39.37                             109   -3.01 0  356  50 
 PRA  HZ EP       2315  8.77                             106    0.64 6  396 210 
 PRA  HN ES       2315 50.16                             106   -0.12 6  396 210 
 PRA  HZ I        2315 56.78         7.1 0.32            108            396 210 
                                                                                
