 2017  6 9 2234 54.3 L   6.759 -73.085144.9  RSN 12 0.6 2.0LRSN                1
 GAP=220        0.94       4.5     5.0  6.7  0.1218E+02  0.3495E+01  0.6069E+01E
 Epicentro: LOS SANTOS - SANTANDER                                             3
 ACTION:UPD 17-09-14 16:51 OP:jn   STATUS:               ID:20170609223454 L   I
 OLDACT:UP  17-06-10 03:58 OP:and  STATUS:               ID:20170609222738     3
 OLDACT:UP  17-06-10 03:58 OP:and  STATUS:               ID:20170609222738     3
 OLDACT:UP  17-06-10 03:58 OP:and  STATUS:               ID:20170609222738     3
 OLDACT:UP  17-06-10 03:56 OP:and  STATUS:               ID:20170609222738     3
 OLDACT:UP  17-06-10 03:51 OP:and  STATUS:               ID:20170609222738     3
 OLDACT:UP  17-06-10 03:50 OP:and  STATUS:               ID:20170609222738     3
 OLDACT:UP  17-06-10 03:47 OP:and  STATUS:               ID:20170609222738     3
 OLDACT:UP  17-06-10 03:47 OP:and  STATUS:               ID:20170609222738     3
 OLDACT:UP  17-06-10 03:46 OP:and  STATUS:               ID:20170609222738     3
 OLDACT:REG 17-06-10 02:44 OP:and  STATUS:               ID:20170609222738     3
 2017-06-09-2228-00M.COL___362                                                 6
 STAT SP IPHASW D HRMM SECON CODA AMPLIT PERI AZIMU VELO AIN AR TRES W  DIS CAZ7
 BRR  HZ EP       2235 15.78                             150   -0.0310 79.2 299 
 BRR  HN ES       2235 32.64                             150    0.0310 79.2 299 
 BRR  HZ I        2235 37.04        19.0 0.08            147           79.2 299 
 RUS  HZ EP       2235 17.73                             145    0.1210 95.8 180 
 RUS  HN ES       2235 36.25                             145    0.4410 95.8 180 
 RUS  HZ I        2235 37.13        27.3 0.34            142           95.8 180 
 PTB  HZ EP   3   2235 20.77                             131   -0.94 2  154 261 
 PTB  HN ES   3   2235 41.24                             131   -1.87 2  154 261 
 PTB  HZ I        2235 44.13        15.5 0.24            128            154 261 
 ZAR  HZ EP       2235 27.20                             121   -0.29 8  212 293 
 ZAR  HN ES       2235 53.35                             121   -0.05 8  212 293 
 ZAR  HZ I        2235 57.76        14.0 0.34            121            212 293 
 TABC EZ EP   4   2235 32.33                             119    2.38 0  230 213 
 TABC EZ ES   4   2236  0.98                             119    3.21 0  230 213 
 TABC EZ I        2236  6.46         8.0 0.54            118            230 213 
 NOR  HZ EP       2235 29.85                             118   -0.43 8  238 236 
 NOR  HN ES       2235 58.12                             118   -0.24 8  238 236 
 NOR  HZ I        2236  5.66         6.6 0.16            117            238 236 
 CHI  HZ EP       2235 32.39                             117    0.72 8  246 197 
 CHI  HN ES       2236  1.17                             117    0.35 8  246 197 
 CHI  HZ I        2236  4.29         3.3 0.38            116            246 197 
 HEL  HZ EP   3   2235 36.04                             114    0.98 2  278 257 
 HEL  HN ES       2236  6.68                             114   -0.18 7  278 257 
 HEL  HZ I        2236 10.89         5.6 0.28            113            278 257 
 URE  HN ES   4   2236  6.45                             113   -2.44 0  292 292 
 PTGC HZ EP       2235 36.95                             112   -0.40 7  302 160 
 PTGC HN ES       2236  9.99                             112   -0.96 7  302 160 
 CBOC HZ EP       2235 42.66                             110    0.92 7  339 253 
 CBOC HN ES   3   2236 17.00                             110   -1.76 2  339 253 
 CBOC HZ I        2236 20.51         2.8 0.20            109            339 253 
 ORTC HZ EP   4   2235 49.64                             106    1.42 0  396 217 
 ORTC HN ES   4   2236 32.43                             106    2.14 0  396 217 
 ORTC HZ I        2236 45.76         2.8 0.42            106            396 217 
 SJC  HZ IP   4 D 2235 48.75                             105   -1.94 0  417 327 
 SJC  HN ES   4   2236 30.01                             105   -4.68 0  417 327 
 SJC  HZ I        2236 34.26         3.6 0.50            106            417 327 
                                                                                
