 2013  1 9 2256  7.4 L   6.853 -73.290156.8  RSN  4 0.3 1.6LRSN                1
 GAP=227        0.71       6.2     7.7  9.0 -0.3567E+01 -0.2945E+02  0.3095E+02E
 Epicentro: ZAPATOCA - SANTANDER                                               3
 ACTION:UPD 13-02-15 09:13 OP:ep   STATUS:               ID:20130109225607 L   I
 2013-01-09-2250-00M.COL___242                                                 6
 STAT SP IPHASW D HRMM SECON CODA AMPLIT PERI AZIMU VELO AIN AR TRES W  DIS CAZ7
 BRR  HZ EP       2256 29.11                             160    0.1510 54.4 301 
 BRR  HE ES       2256 45.90                             160    0.1310 54.4 301 
 BRR  HZ I        2256 46.85         9.0 0.28            177           54.4 301 
 RUS  HZ EP   1   2256 32.14                             144   -0.68 7  109 168 
 RUS  HN I        2256 50.35         4.4 0.29            136            109 168 
 PTB  HZ EP       2256 33.93                             137   -0.1510  134 255 
 PTB  HE ES       2256 54.76                             137   -0.1310  134 255 
 PTB  HZ I        2256 58.87         5.6 0.13            145            134 255 
 CHI  HZ EP       2256 46.41                             119    0.46 8  251 191 
 CHI  HE ES   1   2257 16.20                             119    0.18 6  251 191 
                                                                                
