 2011 11 9 2031 15.9 L   6.771 -73.095146.0  RSN  4 0.3 1.7LRSN                1
 GAP=144        0.63       4.2     6.2  6.7 -0.5651E+00 -0.2600E+01  0.2289E+01E
 Epicentro: LOS SANTOS - SANTANDER                                             3
 ACTION:UPD 12-07-13 16:09 OP:ep   STATUS:               ID:20111109203115 L   I
 2011-11-09-2029-15S.COL___178                                                 6
 STAT SP IPHASW D HRMM SECON CODA AMPLIT PERI AZIMU VELO AIN AR TRES W  DIS CAZ7
 BAR2 SZ EP       2031 35.32                             171   -0.2510 21.9 206 
 BAR2 SZ ES   2   2031 50.18                             171   -0.70 5 21.9 206 
 BAR2 SZ I        2031 52.07        11.6 0.28                          21.9 206 
 PAM  SZ EP       2031 38.37                             151    0.2310 76.6  35 
 PAM  SN ES   1   2031 55.38                             151   -0.07 7 76.6  35 
 BRR  HZ EP       2031 37.33                             151   -0.1610 77.6 299 
 BRR  HN ES   1   2031 54.66                             151    0.36 7 77.6 299 
 BRR  HZ I        2031 58.46        12.4 0.30                          77.6 299 
 RUS  HZ EP       2031 39.47                             145    0.0010 97.1 179 
 RUS  HN ES   1   2031 58.15                             145    0.33 7 97.1 179 
 RUS  HZ I        2032  0.74         4.5 0.50                          97.1 179 
                                                                                
