 2015  9 9 2025 52.7 L   6.829 -73.157147.6  RSN  4 0.3 1.6LRSN                1
 GAP=216        0.74       5.2     4.0  8.0 -0.6435E+01  0.1172E+02 -0.4552E+01E
 Epicentro: LOS SANTOS - SANTANDER                                             3
 ACTION:UPD 15-10-28 16:25 OP:cam  STATUS:               ID:20150909202552 L   I
 OLDACT:UP  15-09-10 03:59 OP:ak   STATUS:               ID:20150909201748     3
 OLDACT:REG 15-09-10 02:52 OP:ak   STATUS:               ID:20150909201748     3
 2015-09-09-2017-48M.COL___356                                                 6
 STAT SP IPHASW D HRMM SECON CODA AMPLIT PERI AZIMU VELO AIN AR TRES W  DIS CAZ7
 PAM  EZ EP       2026 15.41                             152    0.4010 75.8  42 
 PAM  EN ES       2026 32.24                             152   -0.1710 75.8  42 
 PAM  EZ I        2026 34.34         8.7 0.50            154           75.8  42 
 PTB  HZ EP       2026 19.45                             133   -0.30 9  147 258 
 PTB  HN ES       2026 40.71                             133   -0.15 9  147 258 
 PTB  HZ I        2026 43.14         4.6 0.13            135            147 258 
 ZAR  HZ EP   1   2026 24.93                             123   -0.08 6  202 291 
 ZAR  HE ES       2026 50.78                             123    0.56 9  202 291 
 SML  HZ EP   1   2026 28.95                             118   -0.10 6  240 335 
 SML  HN ES       2026 57.11                             118   -0.30 8  240 335 
                                                                                
