 2016 10 9 2026 40.4 L   6.794 -73.136136.0  RSN 10 0.4 1.6LRSN                1
 GAP=138        0.74       3.3     3.5  5.0 -0.2509E+01  0.4893E+01  0.1013E+01E
 Epicentro: LOS SANTOS - SANTANDER                                             3
 ACTION:UPD 16-11-09 19:18 OP:rebc STATUS:               ID:20161009202640 L   I
 OLDACT:UP  16-10-10 03:56 OP:edw  STATUS:               ID:20161009201744     3
 OLDACT:REG 16-10-10 03:18 OP:edw  STATUS:               ID:20161009201744     3
 2016-10-09-2018-00M.COL___360                                                 6
 STAT SP IPHASW D HRMM SECON CODA AMPLIT PERI AZIMU VELO AIN AR TRES W  DIS CAZ7
 BAR2 EZ EP       2026 58.63                             170   -0.1710 22.9 193 
 BAR2 EZ ES       2027 13.24                             170    0.0510 22.9 193 
 BAR2 EZ I        2027 14.43        10.5 0.22            169           22.9 193 
 PAM  EZ EP       2027  1.63                             149    0.1010 77.2  39 
 PAM  EN ES       2027 18.29                             149    0.2510 77.2  39 
 PAM  EZ I        2027 19.01         6.7 0.36            152           77.2  39 
 RUS  HZ EP       2027  2.50                             142   -0.6010 99.9 177 
 RUS  HN ES       2027 20.97                             142    0.1210 99.9 177 
 RUS  HZ I        2027 21.85         2.9 0.24            143           99.9 177 
 PTB  HZ EP   9   2027  5.51                             130   -1.13 0  149 259 
 PTB  HN ES       2027 26.02                             129    0.01 9  149 259 
 PTB  HZ I        2027 28.96         6.5 0.16            129            149 259 
 OCA  HZ EP   4   2026 59.59                             127   -8.41 0  161 353 
 OCA  HN ES   4   2027 27.71                             127   -1.85 0  161 353 
 OCA  HZ I        2027 29.93        16.8 0.32            128            161 353 
 SPBC HN ES   2   2027 29.26                             127   -0.56 5  163 219 
 ZAR  HZ EP   4   2027 13.39                             120    1.07 0  205 292 
 ZAR  HN ES       2027 37.15                             120   -0.10 8  205 292 
 ZAR  HZ I        2027 41.02         3.2 0.10            120            205 292 
 NOR  HZ EP       2027 15.44                             116   -0.16 8  235 235 
 NOR  HE ES       2027 43.42                             116    0.34 8  235 235 
 NOR  HZ I        2027 49.92         3.5 0.22            116            235 235 
 CHI  HZ EP   2   2027 17.82                             115    0.33 4  248 195 
 CHI  HN ES   2   2027 47.83                             115    1.37 4  248 195 
 GUY2CHZ EP   2   2027 24.09                             111    0.50 4  302 235 
 GUY2CHN ES   4   2027 59.52                             111    2.20 0  302 235 
 GUY2CHZ I        2028  3.98         2.9 0.26                           302 235 
                                                                                
