 2014  2 9 2058 52.5 L   6.183 -73.875 92.0  RSN  9 0.4 1.6LRSN                1
 GAP= 68        0.88       2.5     2.9  6.1 -0.2950E+01 -0.9467E+00  0.6970E+00E
 Epicentro: LANDAZURI - SANTANDER                                              3
 ACTION:UPD 14-03-10 08:09 OP:ep   STATUS:               ID:20140209205853 L   I
 OLDACT:UP  14-02-10 09:42 OP:ep   STATUS:               ID:20140209205853 L   3
 OLDACT:UP  14-02-10 03:12 OP:stll STATUS:               ID:20140209205853 L   3
 OLDACT:REG 14-02-09 23:32 OP:stll STATUS:               ID:20140209205816     3
 2014-02-09-2058-16M.COL___223                                                 6
 STAT SP IPHASW D HRMM SECON CODA AMPLIT PERI AZIMU VELO AIN AR TRES W  DIS CAZ7
 SPBC HZ EP       2059  7.78                             143    0.1110 62.6 200 
 SPBC HN ES       2059 19.91                             143    0.4210 62.6 200 
 PTB  HZ EP   1   2059  8.04                             138   -0.54 7 75.5 302 
 PTB  HN ES   1   2059 20.96                             138   -0.15 7 75.5 302 
 BAR2 SZ EP       2059 10.07                             133    0.0010 89.0  59 
 BAR2 SZ ES   1   2059 23.17                             133   -0.58 7 89.0  59 
 BAR2 SZ I        2059 27.00        30.2 0.30            134           89.0  59 
 RUS  HZ EP   1   2059 10.49                             132   -0.32 7 93.3 110 
 RUS  HN ES   1   2059 24.77                             132   -0.30 7 93.3 110 
 RUS  HZ I        2059 25.79         4.0 0.24            131           93.3 110 
 BRR  HZ IP     C 2059 11.03                             128   -0.1110  104  10 
 BRR  HZ I        2059 11.27        21.0 0.16            130            104  10 
 BRR  HN ES       2059 26.07                             128    0.4110  104  10 
 NOR  HZ EP       2059 13.53                             121   -0.3210  130 238 
 NOR  HN ES       2059 30.15                             121   -0.3310  130 238 
 NOR  HZ I        2059 31.39         5.0 0.12            123            130 238 
 CHI  HZ EP       2059 19.02                             114    0.01 9  172 175 
 CHI  HN ES       2059 39.80                             114    0.13 9  172 175 
 CHI  HZ I        2059 46.83         2.5 0.38            114            172 175 
 PAM  SZ EP       2059 19.95                             112   -0.28 9  182  45 
 PAM  SN ES       2059 42.36                             112    0.53 9  182  45 
 HEL  HZ EP   4   2059 22.06                             112    1.90 0  183 270 
 GUY2CHZ EP       2059 22.53                             111    0.73 9  196 237 
 GUY2CHN ES   4   2059 46.59                             111    1.96 0  196 237 
 GUY2CHZ I        2059 51.10         5.0 0.48                           196 237 
                                                                                
