 2017 10 9 2331  7.3 L   6.860 -73.135139.5  RSN 12 0.5 1.9LRSN                1
 GAP= 76        1.19       3.7     4.3  6.5 -0.3609E+00  0.8677E+01  0.2141E+01E
 Epicentro: LOS SANTOS - SANTANDER                                             3
 ACTION:UPD 17-11-07 19:30 OP:rebc STATUS:               ID:20171009233107 L   I
 OLDACT:REG 17-10-10 03:14 OP:dhb  STATUS:               ID:20171009232108     3
 2017-10-09-2328-00M.COL___425                                                 6
 STAT SP IPHASW D HRMM SECON CODA AMPLIT PERI AZIMU VELO AIN AR TRES W  DIS CAZ7
 BAR2 EZ EP       2331 26.24                             168   -0.1210 30.0 190 
 BAR2 EZ ES       2331 40.57                             168   -0.6510 30.0 190 
 BAR2 EZ I        2331 42.24        28.5 0.18            167           30.0 190 
 PAM  EZ EP       2331 28.85                             151    0.3210 71.6  42 
 PAM  EE ES       2331 45.77                             151    0.6910 71.6  42 
 PAM  EZ I        2331 48.31        17.2 0.46            154           71.6  42 
 RUS  HZ EP       2331 30.55                             141   -0.4110  107 177 
 RUS  HN ES       2331 49.19                             141   -0.2110  107 177 
 RUS  HZ I        2331 51.07         8.9 0.32            142            107 177 
 TAM  HZ IP     D 2331 34.61                             129    0.03 9  156 107 
 SPBC HZ EP       2331 35.18                             126   -0.75 9  169 218 
 SPBC HE ES       2331 57.46                             126   -0.77 9  169 218 
 SPBC HZ I        2331 59.35        14.6 0.12            127            169 218 
 YPLC HZ IP     D 2331 36.77                             124   -0.43 9  182 153 
 YPLC HE ES       2332  1.14                             124    0.64 9  182 153 
 YPLC HZ I        2332  3.41         7.3 0.36            126            182 153 
 ZAR  HZ EP       2331 39.44                             121    0.21 9  203 290 
 ZAR  HE ES       2332  4.82                             121    0.70 9  203 290 
 ZAR  HZ I        2332 11.08         8.3 0.16            122            203 290 
 NOR  HZ EP       2331 43.07                             116   -0.15 8  240 233 
 NOR  HN ES       2332 11.35                             116    0.12 8  240 233 
 NOR  HZ I        2332 14.30         7.3 0.30            117            240 233 
 CHI  HZ EP       2331 45.51                             115    0.09 8  255 195 
 CHI  HN ES       2332 15.49                             115    0.36 8  255 195 
 CHI  HZ I        2332 19.37         1.6 0.16            116            255 195 
 GUY2CHZ EP       2331 52.07                             111    0.87 7  306 234 
 GUY2CHE ES   4   2332 27.63                             111    2.21 0  306 234 
 GUY2CHZ I        2332 31.58         4.8 0.38                           306 234 
 PRA  HZ EP       2332  1.76                             105    0.38 6  398 209 
 PRA  HE ES       2332 44.45                             105    0.91 6  398 209 
 PRA  HZ I        2332 50.86         2.6 0.20            106            398 209 
 SJC  HZ EP       2332  1.31                             105   -0.80 6  404 326 
 SJC  HN ES   2   2332 43.60                             105   -1.25 3  404 326 
 SJC  HZ I        2332 44.93         2.0 0.54            106            404 326 
                                                                                
