 2012  6 9 2017 17.1 L   5.964 -74.230 70.0  RSN  4 0.2 1.3LRSN                1
 GAP=145        0.55       2.8     1.8  6.5 -0.4539E+00 -0.1916E+01  0.4753E+01E
 Epicentro: LA BELLEZA - SANTANDER                                             3
 ACTION:UPD 12-08-06 17:48 OP:ep   STATUS:               ID:20120609201717 L   I
 2012-06-09-2010-00M.COL___201                                                 6
 STAT SP IPHASW D HRMM SECON CODA AMPLIT PERI AZIMU VELO AIN AR TRES W  DIS CAZ7
 PTB  HZ EP       2017 30.42                             131   -0.2110 68.4 339 
 PTB  HN ES       2017 41.28                             131    0.1010 68.4 339 
 PTB  HZ I        2017 41.96         8.0 0.08            130           68.4 339 
 NOR  SZ EP       2017 32.13                             125   -0.0210 83.5 238 
 NOR  SE ES       2017 43.89                             125    0.0010 83.5 238 
 RUS  HZ EP   1   2017 38.02                             113    0.55 7  127  93 
 RUS  HN ES       2017 53.22                             113   -0.1410  127  93 
 RUS  HZ I        2017 56.96         2.7 0.19            112            127  93 
 HEL  HZ EP       2017 39.31                             109   -0.17 9  146 280 
 HEL  HN ES   1   2017 57.19                             109    0.25 7  146 280 
 HEL  HZ I        2017 59.26         5.7 0.41            109            146 280 
                                                                                
