 2013  4 9 2005 45.1 L   6.699 -73.251150.0  RSN  4 0.2 1.5LRSN                1
 GAP=196        0.42       5.6     5.0  5.7  0.1734E+02  0.7594E+01  0.9432E+01E
 Epicentro: BARICHARA - SANTANDER                                              3
 ACTION:UPD 13-05-22 14:37 OP:EP   STATUS:               ID:20130409200545 L   I
 2013-04-09-2000-00M.COL___245                                                 6
 STAT SP IPHASW D HRMM SECON CODA AMPLIT PERI AZIMU VELO AIN AR TRES W  DIS CAZ7
 BAR2 SZ ES   2   20 6 20.37                             174   -0.27 5 14.0 147 
 BAR2 SZ I        20 6 20.69        16.2 0.18            171           14.0 147 
 BRR  HN ES   1   20 6 23.31                             154    0.10 7 68.1 312 
 RUS  HZ EP   1   20 6  8.38                             147   -0.19 7 91.1 168 
 RUS  HN ES   1   20 6 27.11                             147    0.19 7 91.1 168 
 RUS  HZ I        20 6 27.97         2.5 0.26            146           91.1 168 
 PTB  HZ EP   1   20 6 11.38                             136    0.17 7  134 263 
 PTB  HN ES   1   20 6 31.47                             136   -0.14 7  134 263 
 PTB  HZ I        20 6 33.93         3.1 0.26            134            134 263 
                                                                                
