 2014  7 9 2345 49.5 L   6.756 -73.171143.3  RSN 10 0.4 1.7LRSN                1
 GAP=198        0.92       3.2     4.4  5.9  0.1327E+01  0.5004E+01 -0.2356E+01E
 Epicentro: LOS SANTOS - SANTANDER                                             3
 ACTION:UPD 15-03-16 20:42 OP:nd   STATUS:               ID:20140709234549 L   I
 OLDACT:REG 14-07-10 03:35 OP:spq  STATUS:               ID:20140709233814     3
 2014-07-09-2338-14M.COL___262                                                 6
 STAT SP IPHASW D HRMM SECON CODA AMPLIT PERI AZIMU VELO AIN AR TRES W  DIS CAZ7
 BAR2 SZ EP       2346  8.58                             172   -0.1710 18.1 184 
 BAR2 SZ ES   1   2346 24.58                             172    0.82 7 18.1 184 
 BAR2 SZ I        2346 28.05        10.9 0.48            169           18.1 184 
 BRR  HZ IP     D 2346 10.52                             152    0.1210 71.3 303 
 BRR  HN ES       2346 26.67                             152   -0.0310 71.3 303 
 BRR  HZ I        2346 35.82         8.9 0.38            151           71.3 303 
 RUS  HZ EP       2346 12.47                             145   -0.2210 96.0 174 
 RUS  HN ES       2346 30.56                             145   -0.2110 96.0 174 
 RUS  HZ I        2346 32.79         4.5 0.36            149           96.0 174 
 PTB  HZ EP       2346 15.66                             132   -0.29 9  144 261 
 PTB  HN ES       2346 36.15                             132   -0.43 9  144 261 
 PTB  HZ I        2346 42.08         4.4 0.18            133            144 261 
 SPBC HZ IP     C 2346 16.80                             130   -0.50 9  158 219 
 SPBC HE ES   1   2346 39.60                             130    0.62 7  158 219 
 SPBC HZ I        2346 46.13        14.3 0.10            132            158 219 
 ZAR  HZ EP       2346 22.47                             122    0.74 9  203 294 
 ZAR  HN ES       2346 46.54                             122   -0.32 9  203 294 
 ZAR  HZ I        2346 52.44         3.1 0.18            124            203 294 
 NOR  HN ES       2346 52.19                             119    0.30 8  230 235 
 NOR  HZ I        2346 57.37         3.2 0.22            121            230 235 
 SML  HZ EP       2346 26.53                             117    0.17 8  247 336 
 SML  HN ES       2346 55.04                             117   -0.07 8  247 336 
 SML  HZ I        2346 58.52         4.7 0.07            121            247 336 
 GUY2CHZ EP   1   2346 33.24                             112    0.80 5  296 235 
 GUY2CHN ES       2347  5.96                             112    0.04 7  296 235 
 GUY2CHZ I        2347 15.11         2.1 0.37                           296 235 
 RREF HZ I        2347 20.13         2.1 0.24            114            317 230 
                                                                                
