 2011 11 9 2305  6.0 L   6.796 -73.122142.0  RSN  7 0.4 1.7LRSN                1
 GAP=140        0.73       3.9     5.8  6.9  0.2274E+01 -0.2093E+00 -0.3417E+01E
 Epicentro: LOS SANTOS - SANTANDER                                             3
 ACTION:UPD 12-07-13 16:09 OP:ep   STATUS:               ID:20111109230506 L   I
 2011-11-09-2301-44S.COL___178                                                 6
 STAT SP IPHASW D HRMM SECON CODA AMPLIT PERI AZIMU VELO AIN AR TRES W  DIS CAZ7
 BTL  SZ EP       23 5 25.31                             171    0.2010 21.1 310 
 BAR2 SZ EP       23 5 25.01                             170   -0.1510 23.5 197 
 BAR2 SZ ES   2   23 5 38.95                             170   -1.17 5 23.5 197 
 BAR2 SZ I        23 5 41.38        12.5 0.28                          23.5 197 
 BRR  HZ EP       23 5 26.88                             151    0.0110 73.8 298 
 BRR  HE ES   1   23 5 43.82                             151    0.66 7 73.8 298 
 BRR  HZ I        23 5 47.52        12.7 0.36                          73.8 298 
 PAM  SZ EP       23 5 27.87                             151    0.1610 76.1  38 
 PAM  SN ES   1   23 5 44.70                             151    0.03 7 76.1  38 
 RUS  HZ EP       23 5 29.39                             143    0.0710100.0 178 
 RUS  HN ES   1   23 5 47.53                             143    0.01 7100.0 178 
 RUS  HZ I        23 5 49.66         3.0 0.28                         100.0 178 
 OCA  SZ EP       23 5 33.80                             129   -0.27 9  161 352 
 OCA  SZ ES   2   23 5 55.80                             129   -0.18 5  161 352 
 OCA  SZ I        23 6  1.21        10.4 0.33                           161 352 
 ZAR  HN ES   2   23 6  3.05                             121   -0.74 4  207 292 
 ZAR  HZ I        23 6  9.00         6.4 0.26                           207 292 
                                                                                
