 2013  7 9 2200  8.8 L   6.723 -73.204152.8  RSN  4 0.3 1.5LRSN                1
 GAP=170        0.65       5.6     6.2  7.6  0.1169E+02 -0.1002E+02 -0.2234E+01E
 Epicentro: VILLANUEVA - SANTANDER                                             3
 ACTION:UPD 13-08-12 10:36 OP:ep   STATUS:               ID:20130709220008 L   I
 OLDACT:REG 13-07-09 21:19 OP:jn   STATUS:               ID:20130709215959     3
 2013-07-09-2159-59M.COL___266                                                 6
 STAT SP IPHASW D HRMM SECON CODA AMPLIT PERI AZIMU VELO AIN AR TRES W  DIS CAZ7
 GIR2 SZ EP       22 0 29.15                             165   -0.3510 39.3   2 
 BRR  HZ EP     C 22 0 30.73                             154    0.1010 70.4 307 
 BRR  HN ES       22 0 47.86                             154    0.1710 70.4 307 
 BRR  HZ I        22 0 56.72         8.4 0.28            155           70.4 307 
 RUS  HZ EP   1   22 0 33.25                             147    0.57 7 92.8 172 
 RUS  HE ES   1   22 0 51.16                             147   -0.18 7 92.8 172 
 RUS  HZ I        22 0 52.68         3.0 0.24            158           92.8 172 
 PTB  HZ EP   1   22 0 35.45                             135   -0.18 7  140 262 
 PTB  HN ES   1   22 0 56.51                             135   -0.08 7  140 262 
 PTB  HZ I        22 0 58.63         5.2 0.40            142            140 262 
                                                                                
