 2016  5 9 2232  8.5 L   6.425 -73.184136.0  RSN  7 0.5 1.4LRSN                1
 GAP=141        0.93       5.7     7.4  7.8  0.1099E+02  0.7215E+01 -0.9838E+01E
 Epicentro: PARAMO - SANTANDER                                                 3
 ACTION:UPD 16-08-18 17:44 OP:cam  STATUS:               ID:20160509223208 L   I
 OLDACT:REG 16-05-10 03:27 OP:dnl  STATUS:               ID:20160509222743     3
 2016-05-09-2227-43M.COL___300                                                 6
 STAT SP IPHASW D HRMM SECON CODA AMPLIT PERI AZIMU VELO AIN AR TRES W  DIS CAZ7
 BAR2 EZ EP   2   2232 26.24                             172   -0.57 5 18.4   1 
 BAR2 EZ ES   2   2232 40.51                             172   -0.62 5 18.4   1 
 BAR2 EZ I        2232 41.46         5.8 0.16            160           18.4   1 
 RUS  HZ EP       2232 28.39                             156   -0.2510 60.0 169 
 RUS  HN ES       2232 44.90                             156    0.5110 60.0 169 
 RUS  HZ I        2232 45.77         2.8 0.16            143           60.0 169 
 BRR  HZ EP       2232 29.66                             143   -0.5110 95.3 322 
 BRR  HE ES       2232 47.36                             143    0.2510 95.3 322 
 BRR  HZ I        2232 47.48         4.5 0.34            130           95.3 322 
 PAM  EZ EP       2232 32.37                             138    0.0310  114  28 
 PAM  EZ I        2232 51.23         2.8 0.16            120            114  28 
 PTB  HZ EP   3   2232 34.21                             131    0.17 2  141 275 
 PTB  HN ES   4   2232 51.01                             131   -2.98 0  141 275 
 PTB  HZ I        2232 55.04         2.8 0.10            120            141 275 
 NOR  HZ EP   2   2232 40.85                             120   -0.06 4  209 243 
 NOR  HE ES   2   2233  5.23                             120   -1.00 4  209 243 
 NOR  HZ I        2233 11.26         2.7 0.24            109            209 243 
 ZAR  HZ EP       2232 42.56                             118    0.65 8  219 303 
 ZAR  HZ I        2232 56.17         6.5 0.10            108            219 303 
 ZAR  HE ES   4   2233  6.12                             118   -1.89 0  219 303 
                                                                                
