 2013  5 9 2039 26.3 L   6.782 -73.134142.5  RSN  6 0.4 2.1LRSN                1
 GAP=139        0.82       5.0     4.2  7.7 -0.3288E+01  0.2765E+01  0.1452E+02E
 Epicentro: LOS SANTOS - SANTANDER                                             3
 ACTION:UPD 13-06-20 09:49 OP:ep   STATUS:               ID:20130509203926 L   I
 2013-05-09-2038-37M.COL___227                                                 6
 STAT SP IPHASW D HRMM SECON CODA AMPLIT PERI AZIMU VELO AIN AR TRES W  DIS CAZ7
 BRR  HZ EP   1   2039 47.47                             151    0.29 7 73.2 299 
 BRR  HN ES       2040  4.03                             151    0.5410 73.2 299 
 BRR  HN I        2040  4.65        33.2 0.22            151           73.2 299 
 PAM  SZ EP   1   2039 48.10                             150   -0.08 7 78.2  38 
 PAM  SN ES   1   2040  4.64                             150   -0.63 7 78.2  38 
 PAM  SN I        2040  7.14        22.7 0.50            153           78.2  38 
 RUS  HZ EP       2039 49.82                             144    0.2810 98.5 177 
 RUS  HN ES   1   2040  7.61                             144   -0.09 7 98.5 177 
 RUS  HN I        2040 10.23         8.1 0.34            144           98.5 177 
 PTB  HZ EP   1   2039 52.57                             131   -0.47 7  149 260 
 PTB  HN ES       2040 13.80                             131   -0.13 9  149 260 
 PTB  HN I        2040 15.11        20.7 0.20            131            149 260 
 ZAR  HN ES   2   2040 23.66                             121   -0.33 4  206 293 
 ZAR  HN I        2040 27.96        16.6 0.26            122            206 293 
 NOR  HZ EP       2040  2.09                             118    0.30 8  235 235 
 NOR  HN ES       2040 29.02                             118   -0.48 8  235 235 
 NOR  HN I        2040 35.20        14.6 0.16            118            235 235 
                                                                                
