 2011 11 9 2241 41.2 L   6.780 -73.125144.7  RSN  8 0.3 2.1LRSN                1
 GAP=140        0.66       3.6     4.8  5.6 -0.6061E+00  0.1409E+01 -0.3468E+01E
 Epicentro: LOS SANTOS - SANTANDER                                             3
 ACTION:UPD 12-07-13 16:09 OP:ep   STATUS:               ID:20111109224141 L   I
 2011-11-09-2240-08S.COL___178                                                 6
 STAT SP IPHASW D HRMM SECON CODA AMPLIT PERI AZIMU VELO AIN AR TRES W  DIS CAZ7
 BAR2 SZ EP       2242  0.69                             171    0.0210 21.7 197 
 BAR2 SZ ES   1   2242 15.41                             171   -0.45 7 21.7 197 
 BAR2 SZ I        2242 16.61        43.1 0.26                          21.7 197 
 BTL  SZ EP       2242  0.97                             171    0.2910 22.0 314 
 BRR  HZ EP       2242  2.52                             151    0.1110 74.2 299 
 BRR  HN ES   1   2242 19.46                             151    0.50 7 74.2 299 
 BRR  HZ I        2242 22.66        25.2 0.11                          74.2 299 
 PAM  SZ EP       2242  3.52                             150    0.1910 77.7  37 
 PAM  SN ES   1   2242 20.34                             150   -0.24 7 77.7  37 
 RUS  HZ EP       2242  4.67                             144   -0.0110 98.2 177 
 RUS  HN ES   1   2242 23.02                             144    0.03 7 98.2 177 
 RUS  HZ I        2242 24.18         9.4 0.20                          98.2 177 
 OCA  SZ EP       2242  9.27                             129   -0.39 9  163 352 
 OCA  SZ I        2242 34.42        13.8 0.23                           163 352 
 ZAR  HN ES   2   2242 38.91                             122   -0.46 4  207 292 
 ZAR  HZ I        2242 45.28        20.1 0.28                           207 292 
 NOR  SE ES   2   2242 44.16                             118   -0.63 4  235 235 
                                                                                
