 2012  9 9 2335 16.4 L   6.684 -73.150152.8  RSN  7 0.4 2.1LRSN                1
 GAP=181        0.87       8.8     7.0  8.7  0.2372E+02  0.7820E-01 -0.1381E+02E
 Epicentro: VILLANUEVA - SANTANDER                                             3
 ACTION:UPD 12-10-22 14:18 OP:ep   STATUS:               ID:20120909233516 L   I
 2012-09-09-2330-00M.COL___226                                                 6
 STAT SP IPHASW D HRMM SECON CODA AMPLIT PERI AZIMU VELO AIN AR TRES W  DIS CAZ7
 BAR2 SZ EP       2335 36.89                             176    0.2110 10.7 199 
 BAR2 SZ ES   1   2335 51.98                             176   -0.53 7 10.7 199 
 BAR2 SZ I        2335 53.63        28.8 0.17                          10.7 199 
 GIR2 SZ EP       2335 36.88                             163   -0.4010 43.9 354 
 BRR  HZ EP       2335 38.70                             151    0.0410 77.7 307 
 BRR  HZ I        2335 39.08        24.7 0.12                          77.7 307 
 BRR  HN ES   1   2335 56.76                             151    0.72 7 77.7 307 
 RUS  HN ES   2   2335 59.02                             149    0.63 5 87.8 175 
 RUS  HZ I        2336  0.38        10.3 0.53                          87.8 175 
 PTB  HN ES   1   2336  4.69                             134   -0.34 7  145 264 
 ZAR  HZ EP   1   2335 50.38                             123    0.61 6  209 295 
 ZAR  HN ES   1   2336 15.43                             123   -0.39 6  209 295 
 ZAR  HZ I        2336 21.04        15.4 0.43                           209 295 
 CHI  HZ EP   2   2335 52.90                             120   -0.24 4  236 196 
                                                                                
