 2017  4 9 2035 39.7 L   6.806 -73.166149.2  RSN 18 0.4 2.6LRSN                1
 GAP=110        0.84       2.5     2.6  3.9  0.8360E+00  0.2347E+01  0.1542E+01E
 Epicentro: LOS SANTOS - SANTANDER                                             3
 ACTION:UPD 17-05-30 21:10 OP:jn   STATUS:               ID:20170409203539 L   I
 OLDACT:UP  17-04-10 04:20 OP:dnl  STATUS:               ID:20170409202736     3
 OLDACT:UP  17-04-10 04:19 OP:dnl  STATUS:               ID:20170409202736     3
 OLDACT:REG 17-04-10 04:00 OP:dnl  STATUS:               ID:20170409202736     3
 2017-04-09-2028-00M.COL___377                                                 6
 STAT SP IPHASW D HRMM SECON CODA AMPLIT PERI AZIMU VELO AIN AR TRES W  DIS CAZ7
 BAR2 EZ EP       2035 59.57                             170   -0.2210 23.7 184 
 BAR2 EZ ES       2036 15.27                             170   -0.1610 23.7 184 
 BAR2 EZ I        2036 17.39       118.3 0.30            168           23.7 184 
 BRR  HZ IP     C 2036  1.37                             154    0.2310 68.9 299 
 BRR  HN ES       2036 18.46                             154    0.6410 68.9 299 
 BRR  HZ I        2036 19.26        55.1 0.28            152           68.9 299 
 PAM  EZ IP     C 2036  2.38                             151    0.0010 78.3  41 
 PAM  EN ES       2036 19.80                             151   -0.2310 78.3  41 
 PAM  EZ I        2036 22.86        40.4 0.46            156           78.3  41 
 RUS  HZ EP       2036  3.53                             144   -0.3610  101 175 
 RUS  HN ES       2036 22.23                             144   -0.5010  101 175 
 RUS  HZ I        2036 23.63        35.4 0.32            144            101 175 
 PTB  HZ EP       2036  6.49                             133   -0.32 9  146 258 
 PTB  HE ES       2036 28.04                             133    0.13 9  146 258 
 PTB  HZ I        2036 33.75        42.1 0.44            132            146 258 
 SPBC HZ EP       2036  8.51                             130    0.09 9  162 218 
 SPBC HE ES       2036 30.48                             130   -0.31 9  162 218 
 SPBC HZ I        2036 35.41        65.5 0.20            129            162 218 
 YPLC HZ IP     D 2036 10.01                             127    0.06 9  178 151 
 YPLC HE ES       2036 34.35                             127    0.84 9  178 151 
 YPLC HZ I        2036 36.77        31.1 0.22            128            178 151 
 ZAR  HZ EP       2036 12.13                             123   -0.04 9  202 292 
 ZAR  HE ES       2036 37.65                             123    0.18 9  202 292 
 ZAR  HZ I        2036 42.73        52.3 0.42            123            202 292 
 NOR  HZ EP       2036 15.72                             119    0.20 8  233 234 
 NOR  HE ES       2036 43.41                             119   -0.02 8  233 234 
 NOR  HZ I        2036 50.44        23.0 0.18            119            233 234 
 CHI  HZ EP       2036 17.78                             118    0.14 8  249 195 
 CHI  HN ES       2036 47.08                             118   -0.12 8  249 195 
 CHI  HZ I        2036 53.24        20.0 0.28            118            249 195 
 ROSC BZ EP   9   2036 19.78                             117    1.79 0  252 211 
 ROSC BE ES       2036 49.89                                    0.28 8  252 211 
 ROSC BZ I        2036 54.23        74.3 0.40            118            252 211 
 HEL  HZ EP   4   2036 21.62                             116    1.71 0  270 256 
 HEL  HE ES       2036 51.75                             116    0.51 8  270 256 
 HEL  HZ I        2036 57.62        16.1 0.30            116            270 256 
 URE  HZ EP       2036 20.04                             114   -0.68 7  281 292 
 URE  HE ES   4   2036 50.71                             114   -1.97 0  281 292 
 URE  HZ I        2037  0.87        23.0 0.18            115            281 292 
 VIL  EZ EP       2036 23.40                             113    0.06 7  304 191 
 VIL  EN ES       2036 57.53                             113    0.18 7  304 191 
 VIL  EZ I        2037  3.07        35.5 0.34            113            304 191 
 DBB  EZ EP       2036 27.72                             110    0.62 7  337 274 
 DBB  EN ES       2037  3.38                             110   -0.65 7  337 274 
 DBB  EZ I        2037  4.88        11.6 0.40            111            337 274 
 ANIL HZ EP   9   2036 32.63                             109    3.08 0  356 224 
 ANIL HE ES       2037 11.78                             109    0.30 6  356 224 
 PRA  HZ EP       2036 33.24                             107   -0.08 6  391 209 
 PRA  HE ES   4   2037 16.62                             107    1.50 0  391 209 
 PRA  HZ I        2037 21.80        25.2 0.38            108            391 209 
 SJC  HZ EP   4   2036 33.30                             106   -1.91 0  407 327 
 SJC  HN ES   4   2037 14.77                             106   -3.70 0  407 327 
 SJC  HZ I        2037 23.57         7.4 0.38            107            407 327 
                                                                                
