 2012  3 9 2003 29.9 L   6.777 -73.144136.9  RSN 13 0.4 2.5LRSN                1
 GAP=115        0.88       3.9     4.4  5.9  0.8135E+00  0.6240E+01  0.4399E+01E
 ACTION:UP  12-03-31 23:18 OP:EP   STATUS:               ID:20120309200329 L   I
 2012-03-09-2000-00M.COL___193                                                 6
 STAT SP IPHASW D HRMM SECON CODA AMPLIT PERI AZIMU VELO SNR AR TRES W  DIS CAZ7
 BAR2 SZ IP       20 3 48.34                             171     0.010   21 192 
 BAR2 SZ I        20 3 48.53        85.3 0.12                            21 192 
 BAR2 SZ ES   1   20 4  2.62                             171    -0.2 7   21 192 
 BRR  HZ EP       20 3 50.19                             150     0.010   73 300 
 BRR  HZ I        20 3 50.56       132.7 0.11                            73 300 
 BRR  HE ES   1   20 4  6.64                             150     0.7 7   73 300 
 PAM  SZ EP   1   20 3 51.27                             148     0.0 7   79  38 
 PAM  SE ES   1   20 4  7.86                             148    -0.1 7   79  38 
 PAM  SZ I        20 4  9.49        30.4 0.20                            79  38 
 RUS  HZ EP   1   20 3 52.38                             143    -0.2 7   98 176 
 RUS  HZ I        20 3 53.58        34.7 0.16                            98 176 
 RUS  HE ES   1   20 4  9.99                             143    -0.3 7   98 176 
 PTB  HN ES   1   20 4 15.83                             130    -0.7 7  147 260 
 PTB  HZ I        20 4 18.82        33.8 0.19                           147 260 
 OCA  SZ EP   1   20 3 57.30                             127    -0.4 7  163 353 
 YOP  SZ EP   1   20 3 59.12                             125     0.1 7  177 153 
 YOP  SZ I        20 3 59.32        15.0 0.24                           177 153 
 YOP  SN ES   1   20 4 22.47                             125     0.7 7  177 153 
 ZAR  HZ EP   1   20 4  2.41                             120     0.5 6  205 293 
 ZAR  HZ I        20 4 32.56        51.7 0.28                           205 293 
 NOR  SZ EP   1   20 4  4.43                             117    -0.5 6  233 235 
 NOR  SE ES   1   20 4 32.70                             117     0.4 6  233 235 
 CHI  HZ EP   1   20 4  6.55                             115    -0.3 6  246 195 
 CHI  HZ I        20 4 42.02        12.5 0.44                           246 195 
 HEL  HZ EP   1   20 4 10.27                             113     0.7 6  272 256 
 HEL  HZ I        20 4 48.18        23.6 0.33                           272 256 
 RREF HZ EP   1   20 4 15.29                             109    -0.2 5  320 230 
 RREF HZ I        20 4 58.93        21.4 0.49                           320 230 
 PRA  HZ EP   1   20 4 22.83                             105     0.0 4  390 210 
 PRA  HN ES   2   20 5  4.30                             105     0.1 3  390 210 
                                                                                
