 2012  1 9 2118 47.4 L   6.773 -73.151140.0  RSN  9 0.4 2.2LRSN                1
 GAP=137        0.97       5.7     5.9  7.9 -0.1030E+01  0.1345E+02  0.8086E+01E
 Epicentro: LOS SANTOS - SANTANDER                                             3
 ACTION:UP  12-02-03 08:15 OP:REBC STATUS:               ID:20120109211847 L   I
 2012-01-09-2110-00M.COL___186                                                 6
 STAT SP IPHASW D HRMM SECON CODA AMPLIT PERI AZIMU VELO SNR AR TRES W  DIS CAZ7
 BAR2 SZ EP       2119  6.40                             171     0.110   20 190 
 BAR2 SZ ES   2   2119 20.64                             171    -0.4 5   20 190 
 BAR2 SZ I        2119 23.81        94.8 0.88                            20 190 
 GIR2 SZ EP       2119  6.40                             166    -0.110   34 352 
 GIR2 SZ ES   2   2119 21.16                             166    -0.2 5   34 352 
 BRR  HZ IP     C 2119  8.22                             151     0.210   72 301 
 BRR  HE ES   1   2119 24.89                             151     0.8 7   72 301 
 BRR  HZ I        2119 26.18        33.9 0.14                            72 301 
 PAM  SZ EP       2119  9.18                             149     0.010   80  39 
 PAM  SN ES   1   2119 25.89                             149    -0.3 7   80  39 
 RUS  HZ EP       2119 10.65                             144     0.210   98 176 
 RUS  HN ES   1   2119 28.36                             144     0.0 7   98 176 
 RUS  HZ I        2119 30.74        18.3 0.34                            98 176 
 PTB  HZ EP       2119 13.01                             131    -0.8 9  147 260 
 PTB  HZ I        2119 15.51        14.5 0.42                           147 260 
 PTB  HN ES   2   2119 33.80                             131    -0.6 5  147 260 
 OCA  SZ EP   3   2119 16.84                             128     1.3 2  163 353 
 OCA  SZ I        2119 45.80        15.0 0.50                           163 353 
 ZAR  HZ EP   2   2119 19.32                             121    -0.3 4  205 293 
 ZAR  HN ES   2   2119 44.95                             121     0.3 4  205 293 
 ZAR  HZ I        2119 47.23        13.8 0.58                           205 293 
 NOR  SZ EP       2119 22.94                             118     0.3 8  232 235 
                                                                                
