 2014 11 9 2038 12.5 L   6.672 -73.230149.0  RSN  4 0.2 1.1LRSN                1
 GAP=197        0.52       5.0     5.2  5.9  0.1326E+02  0.1301E+01  0.4581E+01E
 Epicentro: BARICHARA - SANTANDER                                              3
 ACTION:UPD 14-12-19 15:41 OP:nd   STATUS:               ID:20141109203812 L   I
 OLDACT:REG 14-11-10 02:22 OP:spq  STATUS:               ID:20141109203742     3
 2014-11-09-2037-42M.COL___295                                                 6
 STAT SP IPHASW D HRMM SECON CODA AMPLIT PERI AZIMU VELO AIN AR TRES W  DIS CAZ7
 BAR2 SZ EP   1   2038 31.81                             176   -0.48 7 10.3 149 
 BRR  HZ EP   1   2038 34.01                             153    0.02 7 71.7 312 
 BRR  HN ES       2038 50.90                             153    0.1210 71.7 312 
 BRR  HZ I        2038 58.24         3.1 0.36            152           71.7 312 
 RUS  HZ EP   1   2038 35.89                             148    0.23 7 87.7 169 
 RUS  HE ES   1   2038 53.78                             148    0.03 7 87.7 169 
 RUS  HZ I        2038 54.86         1.2 0.34            156           87.7 169 
 PTB  HZ EP       2038 38.81                             135    0.12 9  136 264 
 PTB  HN ES   1   2038 58.93                             135   -0.22 7  136 264 
 PTB  HZ I        2039  3.74         2.2 0.10            138            136 264 
                                                                                
