 2017 10 9 2145 32.5 L   6.778 -73.086145.3  RSN  4 0.3 1.6LRSN                1
 GAP=159        0.69       4.9     6.3  5.9 -0.1951E+02  0.1619E+02 -0.4192E+01E
 Epicentro: LOS SANTOS - SANTANDER                                             3
 *RUS-PAM                                                                      3
 ACTION:UPD 17-11-07 19:30 OP:rebc STATUS:               ID:20171009214532 L   I
 OLDACT:REG 17-10-10 02:52 OP:dhb  STATUS:               ID:20171009212910     3
 2017-10-09-2138-00M.COL___429                                                 6
 STAT SP IPHASW D HRMM SECON CODA AMPLIT PERI AZIMU VELO AIN AR TRES W  DIS CAZ7
 BAR2 EZ EP       2145 51.74                             171   -0.3310 23.1 207 
 BAR2 EZ ES       2146  6.93                             171   -0.4010 23.1 207 
 BAR2 EZ I        2146  8.33        11.6 0.22            169           23.1 207 
 PAM  EZ EP       2145 54.68                             151    0.1310 75.4  34 
 PAM  EE ES       2146 12.02                             151    0.2810 75.4  34 
 PAM  EZ I        2146 13.09         8.2 0.20            154           75.4  34 
 RUS  HZ EP       2145 55.94                             144   -0.0710 97.9 180 
 RUS  HN ES       2146 14.61                             144    0.2610 97.9 180 
 RUS  HZ I        2146 16.54         5.8 0.34            146           97.9 180 
 NOR  HZ EP       2146  8.53                             118   -0.10 8  239 236 
 NOR  HN ES       2146 37.12                             118    0.31 8  239 236 
 NOR  HZ I        2146 41.03         2.9 0.26            118            239 236 
                                                                                
