 2012  7 9 2227  1.3 L   6.817 -73.160138.0  RSN 19 0.4 3.3LRSN                1
 GAP= 64        0.88       2.7     2.9  5.5 -0.3858E+00  0.4646E+01  0.1574E+01E
 Epicentro: LOS SANTOS - SANTANDER                                             3
 SPEC SD       MO  0.1 ST  5.8 OM  1.1 f00.311 R0.0492 AL      WI      MW  0.1 3
 SPEC PTB HH N MO 14.6 ST 15.2 OM  2.9 f0 3.09 R0.4757 AL 2.41 WI 12.7 MW  3.7 3
 SPEC PTB HH N T222747 K 0.000 GD  201 VS 4.20 DE 3.00 Q0230.0 QA 0.60 VS 4.20 3
 SPEC RUS HH N MO 14.8 ST 16.4 OM  3.2 f0 2.65 R0.5547 AL 2.07 WI 10.9 MW  3.8 3
 SPEC RUS HH N T222741 K 0.000 GD  172 VS 4.20 DE 3.00 Q0230.0 QA 0.60 VS 4.20 3
 SPEC CHI HH E MO 14.8 ST 27.4 OM  3.0 f0 3.10 R0.4742 AL 2.23 WI 22.2 MW  3.8 3
 SPEC CHI HH E T2228 7 K 0.000 GD  285 VS 4.20 DE 3.00 Q0230.0 QA 0.60 VS 4.20 3
 SPEC HEL HH N MO 14.6 ST 27.2 OM  2.8 f0 3.53 R0.4164 AL 3.23 WI 18.6 MW  3.7 3
 SPEC HEL HH N T222811 K 0.000 GD  304 VS 4.20 DE 3.00 Q0230.0 QA 0.60 VS 4.20 3
 ACTION:UPD 12-08-14 11:43 OP:ep   STATUS:               ID:20120709222701 L   I
 2012-07-09-2220-00M.COL___201                                                 6
 STAT SP IPHASW D HRMM SECON CODA AMPLIT PERI AZIMU VELO AIN AR TRES W  DIS CAZ7
 BAR2 SZ EP       2227 20.23                             169     0.210   25 186 
 BAR2 SZ ES   1   2227 34.72                             169     0.0 7   25 186 
 BAR2 SZ I        2227 36.18       642.9 0.21            173             25 186 
 BRR  HZ EP       2227 22.11                             152     0.610   69 298 
 BRR  HZ I        2227 40.33       717.0 0.16            135             69 298 
 PAM  SZ EP       2227 23.07                             149     0.410   77  41 
 PAM  SN ES   1   2227 39.90                             149     0.5 7   77  41 
 RUS  HZ EP   1   2227 24.18                             142    -0.3 7  103 175 
 RUS  HN ES   1   2227 42.12                             142    -0.4 7  103 175 
 RUS  HZ I        2227 44.56       230.0 0.35            134            103 175 
 PTB  HZ EP   1   2227 27.07                             130    -0.5 7  147 258 
 PTB  HN ES   1   2227 47.44                             130    -0.6 7  147 258 
 PTB  HZ I        2227 50.81       287.1 0.16            117            147 258 
 TAM  HZ IP     D 2227 28.57                             128     0.0 9  157 105 
 TAM  HZ I        2227 28.74       488.3 0.22            117            157 105 
 TAM  HE ES   1   2227 49.53                             128    -0.4 7  157 105 
 OCA  HZ EP   1   2227 28.56                             128    -0.3 7  158 354 
 OCA  HN ES   1   2227 50.19                             128    -0.1 7  158 354 
 YOP  SZ EP   1   2227 30.88                             124    -0.2 7  181 153 
 YOP  SE ES   1   2227 54.22                             124    -0.1 7  181 153 
 YOP  SZ I        2227 56.36       112.4 0.57            114            181 153 
 ZAR  HZ EP   1   2227 33.34                             121     0.3 6  202 292 
 ZAR  HE ES   1   2227 57.60                             121    -0.2 6  202 292 
 NOR  SZ EP   1   2227 36.93                             117     0.3 6  234 234 
 NOR  SN ES   1   2228  3.86                             117    -0.3 6  234 234 
 CHI  HZ EP   1   2227 38.45                             115    -0.3 6  250 195 
 CHI  HE ES   1   2228  7.81                             115    -0.2 6  250 195 
 ROSC BZ EP   1   2227 39.85                             115     0.7 6  254 210 
 ROSC BN ES   1   2228  8.36                             115    -0.3 6  254 210 
 ROSC BZ I        2228 16.66       112.6 0.58            106            254 210 
 HEL  HZ EP   1   2227 41.83                             113     0.8 6  271 255 
 HEL  HN ES   1   2228 11.91                             113    -0.1 6  271 255 
 HEL  HZ I        2228 19.28       117.1 0.28            104            271 255 
 VIL  SZ EP   1   2227 43.86                             110    -0.7 5  305 191 
 VIL  SZ I        2228 22.13        50.2 0.30            103            305 191 
 DBB  SZ EP   1   2227 48.65                             108     0.3 5  338 274 
 TOL  SZ EP   1   2227 49.96                             108     0.6 5  344 224 
 TOL  SZ ES   1   2228 26.89                             108     0.2 5  344 224 
 COD  HZ EP   1   2227 48.43                             107    -0.8 5  346 355 
 COD  HZ I        2228 35.10        45.2 0.36            100            346 355 
 PRA  HZ EP   1   2227 54.73                             105     0.0 4  393 209 
 PRA  HN ES   1   2228 36.89                             105     0.6 4  393 209 
 SJC  HZ EP   1   2227 55.20                             104    -1.2 4  407 327 
 SJC  HZ I        2228 39.59        52.7 0.59             98            407 327 
