 2011  3 9 2157 27.5 L   6.785 -73.158140.4  RSN  9 0.3 2.4LRSN                1
 GAP=135        0.61       2.0     5.3  4.9 -0.2267E+01  0.1273E+02 -0.7541E+00E
 Epicentro: LOS SANTOS - SANTANDER                                             3
 ACTION:UP  11-06-16 14:32 OP:jfem STATUS:               ID:20110309215727 L   I
 2011-03-09-2155-27S.COL___135                                                 6
 STAT SP IPHASW D HRMM SECON CODA AMPLIT PERI AZIMU VELO SNR AR TRES W  DIS CAZ7
 BAR2 SZ EP       2157 46.64                             171     0.210   22 188 
 BAR2 SZ I        2157 47.00       116.0 0.07                            22 188 
 BAR2 SZ ES   1   2158  0.93                             171    -0.3 7   22 188 
 RUS  HZ EP       2157 50.52                             143    -0.110   99 175 
 RUS  HN ES       2158  8.79                             143     0.210   99 175 
 RUS  HZ I        2158 10.60        33.4 0.46                            99 175 
 GRA  SZ EP       2157 52.44                             135     0.010  128  18 
 GRA  SZ ES       2158 11.84                             135     0.010  128  18 
 GRA  SZ I        2158 13.59        47.8 0.59                           128  18 
 OCA  SZ EP       2157 55.18                             128    -0.3 9  162 354 
 OCA  SZ ES   1   2158 17.60                             128     0.2 7  162 354 
 OCA  SZ I        2158 23.37        32.2 0.25                           162 354 
 YOP  SZ EP   1   2157 57.49                             125     0.4 7  178 153 
 YOP  SN ES   2   2158 20.05                             125    -0.1 4  178 153 
 YOP  SZ I        2158 22.24        13.2 0.29                           178 153 
 CHI  HZ EP   1   2158  4.42                             116    -0.2 6  247 195 
 CHI  HE ES   1   2158 33.24                             116    -0.4 6  247 195 
 CHI  HZ I        2158 43.77        14.2 0.49                           247 195 
 HEL  HZ EP   1   2158  7.75                             114     0.5 6  270 256 
 HEL  HZ I        2158 45.71        12.9 0.19                           270 256 
 DBB  SZ EP       2158 14.70                             109     0.1 7  338 275 
 PRA  HZ EP   1   2158 20.27                             106    -0.3 4  390 210 
 PRA  HN ES   1   2159  1.85                             106    -0.1 4  390 210 
                                                                                
