 2011 12 9 2105 38.0 L   6.771 -73.097141.6  RSN 15 0.5 2.5LRSN                1
 GAP=130        0.90       3.9     5.1  4.9 -0.7747E+01  0.4887E+01  0.1377E+01E
 Epicentro: LOS SANTOS - SANTANDER                                             3
 ACTION:UPD 12-07-13 16:15 OP:ep   STATUS:               ID:20111209210538 L   I
 2011-12-09-2100-00M.COL___183                                                 6
 STAT SP IPHASW D HRMM SECON CODA AMPLIT PERI AZIMU VELO AIN AR TRES W  DIS CAZ7
 BAR2 SZ IP       21 5 57.18                             171    0.0510 21.9 206 
 BAR2 SZ ES   1   21 6 11.46                             171   -0.57 7 21.9 206 
 BAR2 SZ I        21 6 13.19        63.5 0.16                          21.9 206 
 GIR2 SZ EP       21 5 57.29                             165   -0.0510 35.6 343 
 GIR2 SZ ES   1   21 6 11.78                             165   -0.62 7 35.6 343 
 PAM  SZ EP       21 6  0.05                             150    0.2910 76.6  35 
 PAM  SE ES   1   21 6 17.17                             150    0.46 7 76.6  35 
 BRR  HZ IP     C 21 5 59.07                             150   -0.0410 77.5 299 
 BRR  HZ I        21 6  0.98       109.2 0.12                          77.5 299 
 BRR  HN ES   1   21 6 15.85                             150    0.31 7 77.5 299 
 RUS  HZ EP       21 6  1.26                             144    0.1310 97.2 179 
 RUS  HE ES   1   21 6 19.71                             144    0.57 7 97.2 179 
 RUS  HZ I        21 6 20.96        30.6 0.28                          97.2 179 
 BRI  SZ EP       21 6  1.71                             140    0.0910  110  18 
 OCA  SZ EP       21 6  6.53                             128    0.14 9  164 351 
 OCA  SZ I        21 6 31.89        44.2 0.43                           164 351 
 NOR  SZ EP       21 6 13.56                             117   -0.25 8  237 236 
 NOR  SE ES   1   21 6 40.93                             117   -0.78 6  237 236 
 CHI  HZ EP       21 6 15.24                             116   -0.09 8  247 197 
 CHI  HN ES   2   21 6 43.70                             116   -0.72 4  247 197 
 CHI  HZ I        21 6 50.51        10.3 0.36                           247 197 
 HEL  HZ EP       21 6 19.49                             114    0.95 7  277 257 
 HEL  HZ I        21 6 56.65        16.1 0.50                           277 257 
 GUY  SZ EP   2   21 6 22.62                             111    0.60 4  306 236 
 GUY  SN ES   3   21 6 56.86                             111    0.53 2  306 236 
 GUY  SZ I        21 7  2.61        22.0 0.48                           306 236 
 RREF HZ EP   2   21 6 24.64                             110    0.40 3  324 230 
 RREF HZ I        21 7  7.78        11.1 0.22                           324 230 
 DBB  SZ EP       21 6 25.37                             108   -0.62 7  345 275 
 SDV  BZ EP       21 6 26.56                             108   -1.11 6  358  49 
 PRA  HZ EP       21 6 31.36                             106   -0.05 6  392 210 
                                                                                
