 2014  5 9 2131 51.1 L   6.801 -73.093154.0  RSN  5 0.5 1.6LRSN                1
 GAP=143        0.80       4.7     9.5 11.8 -0.9232E+01  0.6880E+02 -0.6757E+01E
 Epicentro: LOS SANTOS - SANTANDER                                             3
 OLDACT:REG 14-05-10 03:39 OP:fm   STATUS:               ID:20140509212817     3
 ACTION:UPD 15-03-16 16:56 OP:nd   STATUS:               ID:20140509213151 L   I
 OLDACT:UP  14-05-10 04:33 OP:fm   STATUS:               ID:20140509212817     3
 2014-05-09-2128-17M.COL___254                                                 6
 STAT SP IPHASW D HRMM SECON CODA AMPLIT PERI AZIMU VELO AIN AR TRES W  DIS CAZ7
 PAM  SZ EP       2132 14.38                             153    0.4310 73.8  36 
 PAM  SN ES       2132 31.55                             153   -0.2610 73.8  36 
 PAM  SZ I        2132 33.46         5.7 0.60            168           73.8  36 
 RUS  HZ EP   2   2132 15.73                             145    0.11 5  100 179 
 RUS  HN ES   2   2132 34.56                             145   -0.21 5  100 179 
 RUS  SZ I        2132 48.49         3.0 1.38            145            100 179 
 NOR  HN ES   2   2132 56.32                             119   -0.11 4  239 235 
 SML  HZ EP   1   2132 27.46                             118   -0.96 6  246 334 
 SML  HN ES   1   2132 58.10                             118    0.54 6  246 334 
 SML  SZ I        2133  0.00         5.0 0.06            127            246 334 
 CHI  HN ES   2   2132 59.48                             118    0.17 4  250 196 
                                                                                
