 2015  8 9 2236 27.2 L   6.813 -73.146144.0  RSN 21 0.6 2.6LRSN 3.3WRSN        1
 SPEC AVERAGE  MO 14.0 ST0.112 OM  2.4 f0 1.17 R1.6836 AL 0.00 WI 30.0 MW  3.3 3
 SPEC SD       MO  1.2 ST 47.8 OM  1.2 f00.159 R0.2600 AL      WI      MW  0.8 3
 GAP= 71        1.25       2.8     3.3  5.4 -0.1436E+01  0.4911E+01  0.2481E+01E
 Epicentro: LOS SANTOS - SANTANDER                                             3
 SPEC PAM EH Z MO 13.7 ST0.058 OM  1.8 f0 1.21 R1.5901 AL-0.00 WI 30.0 MW  3.1 3
 SPEC PAM EH Z T2237 4 K 0.000 GD  162 VS 5.20 DE 3.50 Q0750.0 QA 1.50 VS 3.50 3
 SPEC SML HH Z MO 14.3 ST0.248 OM  2.1 f0 1.30 R1.4800 AL-0.00 WI 30.0 MW  3.5 3
 SPEC SML HH Z T223730 K 0.000 GD  281 VS 5.20 DE 3.50 Q0750.0 QA 1.50 VS 3.50 3
 SPEC HEL HH Z MO 13.9 ST0.037 OM  1.7 f00.908 R2.1189 AL-0.00 WI 30.0 MW  3.2 3
 SPEC HEL HH Z T223736 K 0.000 GD  307 VS 5.20 DE 3.50 Q0750.0 QA 1.50 VS 3.50 3
 SPECGUY2CHH Z MO 14.0 ST0.050 OM  1.8 f00.908 R2.1189 AL-0.00 WI 30.0 MW  3.3 3
 SPECGUY2CHH Z T223744 K 0.000 GD  334 VS 5.20 DE 3.50 Q0750.0 QA 1.50 Q1 0.00 3
 SPEC ELA HH Z MO 14.0 ST0.043 OM  1.7 f00.908 R2.1189 AL-0.00 WI 30.0 MW  3.3 3
 SPEC ELA HH Z T223748 K 0.000 GD  360 VS 5.20 DE 3.50 Q0750.0 QA 1.50 VS 3.50 3
 SPEC TOL SH Z MO 13.9 ST0.101 OM  1.6 f0 1.29 R1.4915 AL-0.00 WI 30.0 MW  3.2 3
 SPEC TOL SH Z T223751 K 0.000 GD  372 VS 5.20 DE 3.50 Q0750.0 QA 1.50 VS 3.50 3
 SPEC ANILHH Z MO 14.3 ST0.202 OM  2.0 f0 1.18 R1.6305 AL-0.00 WI 30.0 MW  3.5 3
 SPEC ANILHH Z T223754 K 0.000 GD  385 VS 5.20 DE 3.50 Q0750.0 QA 1.50 VS 3.50 3
 SPEC ORTCHH Z MO 13.7 ST0.097 OM  1.4 f0 1.42 R1.3549 AL-0.00 WI 30.0 MW  3.1 3
 SPEC ORTCHH Z T2238 2 K 0.000 GD  422 VS 5.20 DE 3.50 Q0750.0 QA 1.50 VS 3.50 3
 OLDACT:DUP 15-08-10 07:42 OP:stll STATUS:               ID:20150809222750d    3
 ACTION:UPD 15-09-15 23:01 OP:cam  STATUS:               ID:20150809223627 L   I
 OLDACT:UP  15-08-10 08:10 OP:stll STATUS:               ID:20150809222750d    3
 2015-08-09-2227-49M.COL___334                                                 6
 STAT SP IPHASW D HRMM SECON CODA AMPLIT PERI AZIMU VELO AIN AR TRES W  DIS CAZ7
 BAR2 EZ EP       2236 46.69                             170    0.0010 24.7 189 
 BAR2 EZ ES       2237  1.52                             170   -0.3410 24.7 189 
 BAR2 EZ I        2237  3.60        45.1 0.28            169           24.7 189 
 BRR  HZ IP     D 2236 48.66                             152    0.5010 70.4 298 
 BRR  HN ES       2237  5.92                             152    1.4510 70.4 298 
 BRR  HZ I        2237  8.32        37.1 0.16            149           70.4 298 
 PAM  EZ IP     D 2236 49.55                             151    0.3410 76.3  40 
 PAM  EN ES       2237  6.37                             151    0.0310 76.3  40 
 PAM  EZ I        2237  8.96        50.1 0.56            152           76.3  40 
 RUS  HZ IP     D 2236 50.59                             143   -0.3310  102 176 
 RUS  HN ES       2237  9.18                             143   -0.2110  102 176 
 RUS  HZ I        2237 11.92        24.8 0.58            143            102 176 
 CPBEREZ EP       2236 53.68                             132   -0.40 9  148 258 
 CPBEREN ES       2237 13.96                             132   -1.06 9  148 258 
 TAM  HZ IP     D 2236 54.91                             130    0.09 9  156 105 
 TAM  HZ I        2236 55.18        60.0 0.32            132            156 105 
 TAM  HN ES       2237 16.15                             130   -0.18 9  156 105 
 OCA  HZ EP       2236 55.31                             129    0.03 9  159 353 
 OCA  HN ES       2237 16.85                             129   -0.30 9  159 353 
 OCA  HZ I        2237 22.70        60.6 0.20            128            159 353 
 SPBC HZ EP       2236 55.73                             128    0.03 9  164 219 
 SPBC HN ES       2237 17.93                             128    0.02 9  164 219 
 SPBC HZ I        2237 24.85        70.0 0.36            127            164 219 
 ZAR  HZ EP       2236 59.34                             122   -0.17 9  203 292 
 ZAR  HE ES       2237 24.33                             122   -0.34 9  203 292 
 ZAR  HZ I        2237 31.17        48.3 0.56            120            203 292 
 NOR  HZ EP       2237  2.49                             118   -0.46 8  235 234 
 NOR  HN ES       2237 30.96                             118    0.16 8  235 234 
 NOR  HZ I        2237 33.12        25.6 0.24            117            235 234 
 SML  HZ EP       2237  3.51                             117   -0.11 8  242 335 
 SML  HE ES       2237 31.60                             117   -0.40 8  242 335 
 SML  HZ I        2237 36.53        52.1 0.10            116            242 335 
 CHI  HZ EP       2237  4.62                             117   -0.37 8  250 195 
 CHI  HN ES       2237 33.88                             117   -0.55 8  250 195 
 CHI  HZ I        2237 38.21        14.9 0.40            116            250 195 
 ROSC BZ EP       2237  5.98                             116    0.59 8  254 211 
 ROSC BE ES       2237 35.49                             116    0.34 8  254 211 
 ROSC BZ I        2237 40.07        31.3 0.40            115            254 211 
 HEL  HZ EP       2237  8.51                             114    1.12 8  272 256 
 HEL  HN ES       2237 38.11                             114   -0.60 8  272 256 
 HEL  HZ I        2237 45.33        18.8 0.32            113            272 256 
 GUY2CHZ EP       2237 10.95                             112    0.10 7  302 235 
 GUY2CHN ES       2237 45.83                             112    0.96 7  302 235 
 GUY2CHZ I        2237 53.69        20.0 0.38                           302 235 
 PTGC HZ IP   4 D 2237  9.59                             111   -1.58 0  310 159 
 ELA  HZ EP       2237 15.34                             110    1.23 7  330 229 
 ELA  HN ES       2237 50.25                             110   -0.43 7  330 229 
 ELA  HZ I        2237 57.40        14.7 0.32            109            330 229 
 DBB  SZ EP       2237 13.51                             109   -1.11 7  339 274 
 DBB  SZ I        2237 52.70        50.2 0.34            108            339 274 
 TOL  SZ EP       2237 15.91                             109    0.38 7  344 224 
 TOL  SE ES       2237 53.00                             109   -0.20 7  344 224 
 TOL  SZ I        2238  0.20        15.8 0.42            108            344 224 
 MON  HZ EP   9   2237 12.84                             108   -3.22 0  353 308 
 MON  HN ES       2237 51.40                                    0.48 6  353 308 
 MON  HZ I        2237 55.18         7.7 0.42            107            353 308 
 ANIL HZ EP       2237 17.08                             108   -0.01 6  358 224 
 ANIL HN ES       2237 55.68                             108   -0.29 6  358 224 
 ANIL HZ I        2238  3.18        40.9 0.44            107            358 224 
 ORTC HZ EP       2237 21.08                             106   -0.15 6  397 216 
 ORTC HN ES       2238  4.41                             106    1.07 6  397 216 
 ORTC HZ I        2238  8.34         9.1 0.34            105            397 216 
                                                                                
