 2016 12 9 2017 49.4 L   7.217 -73.065  0.0  RSN  4 0.5 1.4LRSN                1
 GAP=262        1.09       7.2     8.9 10.3  0.4836E+02  0.5729E+02  0.3708E+02E
 Epicentro: RIONEGRO - SANTANDER                                               3
 ACTION:UPD 17-01-11 20:13 OP:rebc STATUS:               ID:20161209201749 L   I
 OLDACT:UP  16-12-10 06:58 OP:cog  STATUS:               ID:20161209200747     3
 OLDACT:REG 16-12-10 05:25 OP:cog  STATUS:               ID:20161209200747     3
 2016-12-09-2008-00M.COL___370                                                 6
 STAT SP IPHASW D HRMM SECON CODA AMPLIT PERI AZIMU VELO AIN AR TRES W  DIS CAZ7
 RUS  HZ EP       2018 13.44                              47    0.2010  147 181 
 RUS  HN ES       2018 31.93                              47    0.0710  147 181 
 RUS  HZ I        2018 32.66         5.0 0.24             47            147 181 
 PTB  HZ EP       2018 15.89                              47   -0.5710  171 244 
 PTB  HN ES       2018 37.41                              47   -0.1910  171 244 
 PTB  HZ I        2018 38.36         3.9 0.20             47            171 244 
 ZAR  HZ EP       2018 19.72                              37   -0.61 9  200 279 
 ZAR  HE ES       2018 45.31                              37    0.83 9  200 279 
 GUY2CHZ EP       2018 38.37                              36    0.49 7  337 229 
 GUY2CHN ES   4   2019 11.75                              36   -3.97 0  337 229 
                                                                                
