 2013  2 9 2038 31.0 L   6.816 -73.135144.4  RSN  5 0.3 1.8LRSN                1
 GAP=137        0.65       4.6     6.0  6.5 -0.1002E+01  0.7252E+01  0.1411E+01E
 Epicentro: LOS SANTOS - SANTANDER                                             3
 ACTION:UPD 13-03-12 09:31 OP:ep   STATUS:               ID:20130209203831 L   I
 2013-02-09-2032-41M.COL___192                                                 6
 STAT SP IPHASW D HRMM SECON CODA AMPLIT PERI AZIMU VELO AIN AR TRES W  DIS CAZ7
 BAR2 SZ ES   1   2039  5.66                             170   -0.10 7 25.3 192 
 BRR  HZ EP   1   2038 52.17                             152    0.12 7 71.4 297 
 BRR  HN ES   1   2039  8.75                             152    0.31 7 71.4 297 
 BRR  HZ I        2039 14.70        16.5 0.14            130           71.4 297 
 PAM  SZ EP   1   2038 53.40                             151    0.42 7 75.3  40 
 PAM  SN ES   1   2039  9.67                             151   -0.43 7 75.3  40 
 PAM  SZ I        2039 12.41         8.5 0.48            143           75.3  40 
 RUS  HZ EP   1   2038 54.83                             143    0.06 7  102 177 
 RUS  HN ES   1   2039 13.37                             143    0.08 7  102 177 
 RUS  HZ I        2039 14.92         8.3 0.28            132            102 177 
 PTB  HZ EP   1   2038 57.47                             131   -0.55 7  149 258 
 PTB  HZ I        2039 19.94         6.5 0.34            114            149 258 
                                                                                
