 2017  6 9 2053  1.5 L   6.709 -73.104143.3  RSN  7 0.3 1.9LRSN                1
 GAP=235        0.70       3.4     4.9  6.2  0.3149E+01 -0.1639E+01  0.2661E+01E
 Epicentro: JORDAN - SANTANDER                                                 3
 ACTION:UPD 17-09-14 16:51 OP:jn   STATUS:               ID:20170609205301 L   I
 OLDACT:UP  17-06-10 03:09 OP:and  STATUS:               ID:20170609204736     3
 OLDACT:UP  17-06-10 03:09 OP:and  STATUS:               ID:20170609204736     3
 OLDACT:UP  17-06-10 03:08 OP:and  STATUS:               ID:20170609204736     3
 OLDACT:UP  17-06-10 03:07 OP:and  STATUS:               ID:20170609204736     3
 OLDACT:UP  17-06-10 03:07 OP:and  STATUS:               ID:20170609204736     3
 OLDACT:UP  17-06-10 03:07 OP:and  STATUS:               ID:20170609204736     3
 OLDACT:REG 17-06-10 02:35 OP:and  STATUS:               ID:20170609204736     3
 2017-06-09-2048-00M.COL___368                                                 6
 STAT SP IPHASW D HRMM SECON CODA AMPLIT PERI AZIMU VELO AIN AR TRES W  DIS CAZ7
 BRR  HZ EP       2053 22.35                             149   -0.5410 80.3 303 
 BRR  HN ES       2053 39.67                             149    0.0610 80.3 303 
 BRR  HZ I        2053 41.41        14.8 0.12            149           80.3 303 
 RUS  HZ EP       2053 24.32                             146    0.0710 90.3 179 
 RUS  HN ES   2   2053 42.31                             146    0.28 5 90.3 179 
 RUS  HZ I        2053 43.92         8.4 0.28            146           90.3 179 
 PTB  HZ EP   9   2053 27.57                             131   -0.93 0  151 263 
 PTB  HN ES   2   2053 48.30                             132   -0.36 5  151 263 
 PTB  HZ I        2053 51.00         7.8 0.14            131            151 263 
 SPBC HZ EP       2053 29.36                             129    0.02 9  159 223 
 SPBC HN ES       2053 51.04                             129   -0.04 9  159 223 
 SPBC HZ I        2053 53.81        11.7 0.20            129            159 223 
 ZAR  HZ EP       2053 34.93                             121    0.33 8  212 294 
 ZAR  HN ES       2054  0.79                             121    0.34 8  212 294 
 ZAR  HZ I        2054  5.05        15.7 0.54            122            212 294 
 NOR  HZ EP       2053 36.83                             118   -0.02 8  233 237 
 NOR  HN ES       2054  4.08                             118   -0.38 8  233 237 
 NOR  HZ I        2054  6.76         6.4 0.26            119            233 237 
 CHI  HN ES   2   2054  7.69                             117    0.99 4  240 197 
 CHI  HZ I        2054 11.14         2.3 0.30            118            240 197 
                                                                                
