 2012 12 9 2129 48.6 L   6.771 -73.174140.7  RSN  6 0.1 1.8LRSN                1
 GAP=134        0.40       2.1     1.8  3.6 -0.1694E+00  0.2068E+01 -0.6892E+00E
 Epicentro: LOS SANTOS - SANTANDER                                             3
 ACTION:UPD 13-01-04 14:26 OP:ep   STATUS:               ID:20121209212948 L   I
 2012-12-09-2130-00M.COL___243                                                 6
 STAT SP IPHASW D HRMM SECON CODA AMPLIT PERI AZIMU VELO AIN AR TRES W  DIS CAZ7
 BAR2 SZ EP   1   2130  7.61                             172    0.00 7 19.8 183 
 BAR2 SZ ES   1   2130 22.37                             172   -0.02 7 19.8 183 
 BAR2 SZ I        2130 23.78        23.0 0.16                          19.8 183 
 GIR2 SZ EP   1   2130  7.78                             166   -0.03 7 34.1 356 
 PAM  SZ EP       2130 10.71                             148    0.1010 81.8  40 
 PAM  SE ES       2130 27.67                             148   -0.0710 81.8  40 
 PAM  SZ I        2130 29.41         9.3 0.50                          81.8  40 
 RUS  HZ EP       2130 11.86                             144    0.1610 97.7 174 
 RUS  HN ES       2130 29.64                             144   -0.0310 97.7 174 
 RUS  HN I        2130 33.34         7.9 0.29                          97.7 174 
 PTB  HZ EP       2130 14.55                             132   -0.32 9  144 260 
 PTB  HN ES       2130 35.40                             132    0.07 9  144 260 
 PTB  HZ I        2130 38.41         7.4 0.09                           144 260 
 ZAR  HE ES       2130 45.63                             121    0.11 9  202 293 
 ZAR  HZ I        2130 51.80         6.5 0.47                           202 293 
                                                                                
