 2011  8 9 2012 36.0 L   6.785 -73.155137.6  RSN  9 0.2 2.3LRSN                1
 GAP=136        0.36       2.0     3.3  3.7 -0.2118E+01  0.3536E+01  0.1005E+01E
 Epicentro: LOS SANTOS - SANTANDER                                             3
 ACTION:UPD 12-07-25 14:07 OP:epov STATUS:               ID:20110809201235 L   I
 2011-08-09-2011-18S.COL___149                                                 6
 STAT SP IPHASW D HRMM SECON CODA AMPLIT PERI AZIMU VELO AIN AR TRES W  DIS CAZ7
 BAR2 SZ IP       2012 54.61                             171    0.0210 21.5 188 
 BAR2 SZ ES   2   2013  8.74                             171   -0.36 5 21.5 188 
 BAR2 SZ I        2013 11.04        70.5 0.29                          21.5 188 
 BRR  HZ IP     C 2012 56.48                             151    0.2310 71.1 300 
 BRR  HZ I        2012 56.76        82.1 0.19                          71.1 300 
 BRR  HE ES   2   2013 12.09                             151    0.04 5 71.1 300 
 PAM  SZ EP   1   2012 57.46                             149    0.01 7 79.3  39 
 PAM  SN ES   2   2013 14.52                             149    0.32 5 79.3  39 
 RUS  HZ EP   2   2012 58.94                             142    0.12 5 99.0 175 
 RUS  HN ES   2   2013 16.39                             142   -0.24 5 99.0 175 
 RUS  HZ I        2013 18.01        19.3 0.25                          99.0 175 
 OCA  SZ EP   1   2013  3.48                             127   -0.34 7  162 354 
 OCA  SZ ES   2   2013 25.24                             127   -0.29 5  162 354 
 OCA  SZ I        2013 29.47        29.8 0.31                           162 354 
 NOR  SZ EP   1   2013 11.09                             117    0.04 6  233 235 
 NOR  SN ES   2   2013 38.72                             117    0.31 4  233 235 
 CHI  HZ EP   1   2013 13.00                             116   -0.03 6  247 195 
 CHI  HE ES   2   2013 42.08                             116    0.15 4  247 195 
 CHI  HZ I        2013 48.93         9.1 0.53                           247 195 
 RREF HZ EP   2   2013 21.30                             109   -0.27 3  320 229 
 RREF HN ES   2   2013 56.79                             109   -0.33 3  320 229 
 RREF HZ I        2014  6.30         9.5 0.34                           320 229 
 PRA  HZ EP   2   2013 29.00                             105    0.00 3  390 210 
 PRA  HN ES   2   2014 10.25                             105   -0.11 3  390 210 
                                                                                
