 2016  2 9 2203 39.3 L   6.839 -73.157145.5  RSN 10 0.3 1.9LRSN                1
 GAP=133        0.75       2.3     3.0  4.5 -0.7887E+00  0.4290E+01 -0.7851E+00E
 Epicentro: LOS SANTOS - SANTANDER                                             3
 ACTION:UPD 16-03-04 21:24 OP:rebc STATUS:               ID:20160209220339 L   I
 OLDACT:REG 16-02-10 03:35 OP:cara STATUS:               ID:20160209215750     3
 2016-02-09-2157-50M.COL___322                                                 6
 STAT SP IPHASW D HRMM SECON CODA AMPLIT PERI AZIMU VELO AIN AR TRES W  DIS CAZ7
 BAR2 EZ IP     D 22 3 58.95                             169   -0.0510 27.5 186 
 BAR2 EZ ES       22 4 14.59                             169    0.2310 27.5 186 
 BAR2 EZ I        22 4 14.83        13.3 0.28            169           27.5 186 
 PAM  EZ EP       22 4  1.68                             152    0.3310 74.9  42 
 PAM  EN ES       22 4 18.50                             152   -0.0410 74.9  42 
 PAM  EZ I        22 4 20.62        13.2 0.54            154           74.9  42 
 RUS  HZ EP       22 4  2.96                             143   -0.4010  105 176 
 RUS  HE ES       22 4 21.96                             143   -0.1610  105 176 
 RUS  HZ I        22 4 22.94         5.1 0.62            144            105 176 
 PTB  HZ EP       22 4  5.60                             132   -0.63 9  147 257 
 PTB  HN ES       22 4 26.76                             132   -0.47 9  147 257 
 PTB  HZ I        22 4 29.46        11.8 0.14            131            147 257 
 SPBC HZ EP       22 4  7.93                             128   -0.11 9  166 218 
 SPBC HN ES       22 4 30.67                             128    0.22 9  166 218 
 SPBC HZ I        22 4 34.45        12.9 0.46            129            166 218 
 ZAR  HZ EP       22 4 11.78                             123    0.33 9  201 291 
 ZAR  HN ES       22 4 36.71                             123    0.18 9  201 291 
 ZAR  HZ I        22 4 43.25        10.8 0.44            123            201 291 
 NOR  HZ EP       22 4 15.34                             118    0.15 8  236 233 
 NOR  HN ES       22 4 43.46                             118    0.28 8  236 233 
 NOR  HZ I        22 4 47.73         8.0 0.16            119            236 233 
 SML  HZ EP       22 4 15.80                             118    0.37 8  239 335 
 SML  HN ES       22 4 43.42                             118   -0.19 8  239 335 
 SML  HZ I        22 4 47.60        11.8 0.10            119            239 335 
 CHI  HZ EP       22 4 17.24                             117   -0.17 8  253 195 
 CHI  HN ES       22 4 47.61                             117    0.47 8  253 195 
 CHI  HZ I        22 4 51.82         3.0 0.36            118            253 195 
 GUY2CHZ EP   9   22 4 25.45                             112    2.37 0  303 234 
 GUY2CHE ES       22 4 59.85                                    0.26 7  303 234 
 GUY2CHZ I        22 5  7.34         4.9 0.56                           303 234 
                                                                                
