 2014  1 9 2025 20.1 L   6.787 -73.107154.7  RSN  5 0.3 1.7LRSN                1
 GAP=204        0.70       3.7     6.3  7.1  0.3941E+01 -0.5309E+01 -0.4913E+01E
 Epicentro: LOS SANTOS - SANTANDER                                             3
 ACTION:UPD 14-03-13 09:53 OP:ep   STATUS:               ID:20140109202520 L   I
 OLDACT:REG 14-01-09 23:08 OP:mh   STATUS:               ID:20140109202000     3
 2014-01-09-2020-00M.COL___285                                                 6
 STAT SP IPHASW D HRMM SECON CODA AMPLIT PERI AZIMU VELO AIN AR TRES W  DIS CAZ7
 BRR  HZ EP       2025 42.84                             153    0.3710 75.6 298 
 BRR  HN ES       2026  0.03                             153    0.1110 75.6 298 
 BRR  HZ I        2026 24.16        12.1 0.38            153           75.6 298 
 RUS  HZ EP       2025 44.46                             146   -0.1710 98.9 178 
 RUS  HN ES   1   2026  3.65                             146   -0.11 7 98.9 178 
 RUS  HZ I        2026  4.81         3.5 0.39            163           98.9 178 
 NOR  HN ES       2026 25.02                             120   -0.12 8  237 235 
 SML  HZ EP       2025 57.77                             119    0.19 8  247 335 
 SML  HN ES   1   2026 25.99                             119   -0.83 6  247 335 
 SML  HZ I        2026 31.80         5.1 0.06            127            247 335 
 GUY2CHZ EP   4   2026  7.15                             114    2.72 0  304 235 
 GUY2CHE ES   4   2026 41.76                             114    2.75 0  304 235 
 GUY2CHZ I        2026 47.45         1.9 0.32                           304 235 
                                                                                
