 2015 11 9 2007 26.2 L   6.868 -73.288121.6  RSN 12 0.3 2.1LRSN                1
 GAP=108        0.66       1.7     2.6  3.8 -0.7027E+00  0.3291E+01  0.5167E+00E
 Epicentro: BETULIA - SANTANDER                                                3
 ACTION:UPD 15-12-28 16:09 OP:cam  STATUS:               ID:20151109200726 L   I
 OLDACT:REG 15-11-10 03:23 OP:ar   STATUS:               ID:20151109195747     3
 2015-11-09-1957-47M.COL___319                                                 6
 STAT SP IPHASW D HRMM SECON CODA AMPLIT PERI AZIMU VELO AIN AR TRES W  DIS CAZ7
 BAR2 EZ EP     D 20 7 43.16                             164   -0.0710 32.6 159 
 BAR2 EZ ES       20 7 56.26                             164   -0.2210 32.6 159 
 BAR2 EZ I        20 7 57.48       146.6 0.44            160           32.6 159 
 BRR  HZ EP       20 7 43.66                             154   -0.1310 53.8 299 
 BRR  HN ES       20 7 57.70                             154    0.2110 53.8 299 
 BRR  HZ I        20 7 58.02        38.5 0.46            154           53.8 299 
 PAM  EZ EP       20 7 46.61                             144    0.2610 83.3  51 
 PAM  EE ES       20 8  2.32                             144    0.2810 83.3  51 
 PAM  EZ I        20 8  6.52        16.6 0.38            136           83.3  51 
 RUS  HZ EP   2   20 7 48.40                             135   -0.09 5  110 168 
 RUS  HZ I        20 8  5.53         4.4 0.18            130            110 168 
 RUS  HE ES   2   20 8  5.99                             135    0.13 5  110 168 
 OCA  HZ EP       20 7 51.53                             125   -0.38 9  152 359 
 OCA  HE ES       20 8 11.44                             125   -0.50 9  152 359 
 OCA  HZ I        20 8 20.16        34.9 0.14            120            152 359 
 SPBC HZ EP       20 7 52.78                             123    0.11 9  160 213 
 SPBC HN ES       20 8 13.33                             123    0.03 9  160 213 
 SPBC HZ I        20 8 17.84        21.7 0.10            119            160 213 
 ZAR  HZ EP       20 7 55.63                             119    0.28 9  187 292 
 ZAR  HE ES       20 8 18.39                             119    0.33 9  187 292 
 ZAR  HZ I        20 8 20.65        16.6 0.30            115            187 292 
 NOR  HZ EP       20 7 59.62                             114   -0.18 8  227 231 
 NOR  HE ES       20 8 25.52                             114   -0.45 8  227 231 
 NOR  HZ I        20 8 26.35         8.6 0.58            110            227 231 
 SML  HZ EP   2   20 7 59.84                             113   -0.31 4  231 338 
 SML  HN ES       20 8 26.73                             113    0.13 8  231 338 
 SML  HZ I        20 8 29.98        35.2 0.10            109            231 338 
 CHI  HZ EP       20 8  3.69                             111    0.56 8  252 191 
 CHI  HN ES       20 8 31.68                             111   -0.23 8  252 191 
 CHI  HZ I        20 8 37.18         6.6 0.50            107            252 191 
 GUY2CHZ EP   4   20 8  9.49                             108    1.59 0  293 232 
 GUY2CHE ES   2   20 8 40.68                             108    0.28 4  293 232 
 GUY2CHZ I        20 8 46.88         6.8 0.40                           293 232 
 MON  HZ EP   4   20 8 15.21                             105    2.81 0  337 309 
 MON  HN ES   4   20 8 46.66                             105   -1.76 0  337 309 
 MON  HZ I        20 8 59.96         2.7 0.34            101            337 309 
                                                                                
