 2016  6 9 2238 47.7 L   6.730 -73.132149.0  RSN  6 0.3 1.4LRSN                1
 GAP=234        0.73       4.8     4.5  6.0  0.4823E+01  0.6368E+01  0.5275E+01E
 Epicentro: JORDAN - SANTANDER                                                 3
 ACTION:UPD 16-07-21 22:17 OP:rebc STATUS:               ID:20160609223847 L   I
 OLDACT:REG 16-06-10 05:44 OP:ak   STATUS:               ID:20160609223641     3
 2016-06-09-2236-41M.COL___343                                                 6
 STAT SP IPHASW D HRMM SECON CODA AMPLIT PERI AZIMU VELO AIN AR TRES W  DIS CAZ7
 BAR2 EZ EP       2239  7.54                             174   -0.0410 16.2 200 
 BAR2 EZ ES       2239 23.35                             174    0.2510 16.2 200 
 BAR2 EZ I        2239 24.27         4.9 0.22                          16.2 200 
 BRR  HZ EP       2239  9.43                             151   -0.0510 76.5 303 
 BRR  HN ES       2239 26.77                             151    0.2810 76.5 303 
 BRR  HZ I        2239 30.95         6.8 0.08                          76.5 303 
 RUS  HZ EP       2239 11.24                             147    0.0310 92.7 177 
 RUS  HN ES       2239 29.32                             147   -0.2410 92.7 177 
 RUS  HZ I        2239 30.42         3.9 0.32                          92.7 177 
 PTB  HZ EP   2   2239 14.76                             133   -0.18 5  148 262 
 PTB  HN ES       2239 35.59                             133   -0.60 9  148 262 
 PTB  HZ I        2239 39.32         2.8 0.38                           148 262 
 CHI  HN E        2238 11.59                                            242 196 
 GUY2CHZ EP   2   2239 31.55                             113    0.46 4  298 236 
 GUY2CHN ES       2240  5.50                             113    0.55 7  298 236 
 GUY2CHZ I        2240 13.71         1.7 0.52                           298 236 
                                                                                
