 2010 11 9 2147 47.2 L   6.786 -73.171141.0  RSN 16 0.4 2.9LRSN                1
 GAP=134        0.82       2.8     4.3  4.6 -0.3801E+01  0.5830E+01  0.2086E+01E
 Epicentro: LOS SANTOS - SANTANDER                                             3
 ACTION:UP  10-12-17 16:51 OP:REBC STATUS:               ID:20101109214747 L   I
 2010-11-09-2146-21S.COL___128                                                 6
 STAT SP IPHASW D HRMM SECON CODA AMPLIT PERI AZIMU VELO SNR AR TRES W  DIS CAZ7
 BTL  SZ EP       2148  5.79                             172    -0.310   18 324 
 BTL  SZ ES   2   2148 20.72                             172    -0.2 5   18 324 
 BAR2 SZ EP       2148  6.21                             171     0.010   22 184 
 BAR2 SZ ES   1   2148 20.79                             171    -0.2 7   22 184 
 BAR2 SZ I        2148 24.34       187.7 0.56                            22 184 
 GIR2 SZ EP       2148  6.37                             166     0.110   32 356 
 GIR2 SZ ES   1   2148 21.28                             166     0.0 7   32 356 
 BRR  HZ IP     C 2148  8.16                             152     0.410   70 301 
 BRR  HZ I        2148 11.24       187.5 0.16                            70 301 
 BRR  HE ES   2   2148 24.51                             152     0.8 5   70 301 
 RUS  HZ EP       2148 10.14                             143    -0.210   99 174 
 RUS  HE ES   1   2148 28.76                             143     0.3 7   99 174 
 RUS  HZ I        2148 30.20       109.3 0.40                            99 174 
 GUE  SZ EP       2148 11.68                             138     0.110  119  13 
 GRA  SZ IP       2148 12.40                             135     0.210  128  18 
 GRA  SZ ES   1   2148 31.96                             135     0.3 7  128  18 
 GRA  SZ I        2148 34.68       162.1 0.28                           128  18 
 OCA  SZ EP       2148 14.93                             128    -0.3 9  162 354 
 OCA  SZ ES   1   2148 36.43                             128    -0.7 7  162 354 
 OCA  SZ I        2148 40.33        87.0 0.48                           162 354 
 YOP  SZ EP       2148 16.89                             125     0.0 9  179 152 
 NOR  SZ EP       2148 21.90                             118    -0.4 8  232 234 
 NOR  SN ES   1   2148 49.28                             118    -0.4 6  232 234 
 HEL  HZ EP       2148 27.06                             114     0.3 8  269 256 
 HEL  HE ES   2   2148 57.03                             114    -0.7 4  269 256 
 HEL  HZ I        2149  3.90        33.1 0.10                           269 256 
 RREF HZ EP       2148 33.38                             110     0.6 7  319 229 
 RREF HE ES   1   2149  8.38                             110     0.1 5  319 229 
 RREF HZ I        2149 18.26        28.7 0.43                           319 229 
 DBB  SZ EP       2148 34.25                             109     0.1 7  337 275 
 TOL  SZ EP       2148 35.59                             109     0.7 7  340 224 
 PRA  HZ EP       2148 40.03                             106    -0.2 6  389 209 
 PRA  HN ES   1   2149 21.37                             106    -0.2 4  389 209 
 SJA  SZ EP       2148 40.72                             105    -0.6 6  398 193 
 SJA  SZ I        2149 28.46        42.6 0.26                           398 193 
                                                                                
