 2016  6 9 2325 49.0 L   6.768 -73.145140.0  RSN  7 0.2 1.6LRSN                1
 GAP=138        0.50       2.5     2.3  3.7 -0.1852E+01  0.1639E+01  0.2049E+01E
 Epicentro: LOS SANTOS - SANTANDER                                             3
 ACTION:UPD 16-07-21 22:17 OP:rebc STATUS:               ID:20160609232549 L   I
 OLDACT:DUP 16-06-10 05:30 OP:ak   STATUS:               ID:20160609231747d    3
 OLDACT:REG 16-06-10 03:13 OP:ak   STATUS:               ID:20160609231744     3
 2016-06-09-2317-44M.COL___343                                                 6
 STAT SP IPHASW D HRMM SECON CODA AMPLIT PERI AZIMU VELO AIN AR TRES W  DIS CAZ7
 BAR2 EZ EP       2326  7.79                             172   -0.1210 19.8 192 
 BAR2 EZ ES       2326 22.60                             172   -0.0210 19.8 192 
 BAR2 EZ I        2326 23.72        10.3 0.20                          19.8 192 
 BRR  HZ EP   2   2326  9.84                             151    0.17 5 73.0 301 
 BRR  HN ES       2326 26.08                             151    0.3110 73.0 301 
 BRR  HZ I        2326 28.49         6.9 0.40                          73.0 301 
 PAM  EZ EP       2326 10.75                             149   -0.0610 80.1  38 
 PAM  EN ES       2326 27.79                             149   -0.0110 80.1  38 
 RUS  HZ EP       2326 11.73                             144   -0.2310 97.0 176 
 RUS  HN ES       2326 30.10                             144    0.2510 97.0 176 
 RUS  HZ I        2326 31.37         5.6 0.28                          97.0 176 
 PTB  HZ EP   2   2326 15.44                             131   -0.05 5  147 260 
 PTB  HE ES       2326 35.81                             131   -0.31 9  147 260 
 PTB  HZ I        2326 40.32         4.1 0.17                           147 260 
 NOR  HZ EP   2   2326 24.46                             118    0.24 4  233 235 
 NOR  HE ES       2326 51.52                             118   -0.14 8  233 235 
 NOR  HZ I        2326 58.22         5.2 0.23                           233 235 
 GUY2CHZ EP   2   2326 32.72                             112    0.56 4  299 235 
 GUY2CHN ES       2327  6.00                             112    0.21 7  299 235 
 GUY2CHZ I        2327 12.71         2.9 0.36                           299 235 
                                                                                
