 2017  3 9 2124 53.3 L   6.791 -73.175147.7  RSN  5 0.5 1.4LRSN                1
 GAP=133        0.86       5.5     5.4  8.4  0.5983E+01 -0.8959E+01 -0.6117E+01E
 Epicentro: LOS SANTOS - SANTANDER                                             3
 ACTION:UPD 17-05-25 18:38 OP:jn   STATUS:               ID:20170309212453 L   I
 OLDACT:UP  17-03-10 04:40 OP:dani STATUS:               ID:20170309211747     3
 OLDACT:REG 17-03-10 04:23 OP:dani STATUS:               ID:20170309211747     3
 2017-03-09-2118-00M.COL___403                                                 6
 STAT SP IPHASW D HRMM SECON CODA AMPLIT PERI AZIMU VELO AIN AR TRES W  DIS CAZ7
 BRR  HZ EP       2125 14.93                             154    0.4010 68.9 301 
 BRR  HN ES       2125 31.41                             154    0.3210 68.9 301 
 BRR  HZ I        2125 32.69         9.2 0.30            153           68.9 301 
 PAM  EZ EP       2125 15.92                             150    0.0310 80.2  41 
 PAM  EN ES   3   2125 31.26                             150   -2.25 2 80.2  41 
 PAM  EZ I        2125 35.14         3.9 0.39            154           80.2  41 
 RUS  HZ EP       2125 17.04                             145   -0.1510 99.8 174 
 RUS  HE ES       2125 36.02                             145    0.2010 99.8 174 
 RUS  HZ I        2125 37.16         2.3 0.44            147           99.8 174 
 PTB  HZ EP       2125 19.75                             134   -0.37 9  144 259 
 PTB  HE ES       2125 40.73                             134   -0.32 9  144 259 
 PTB  HZ I        2125 47.65         2.8 0.32            134            144 259 
 ZAR  HE ES   3   2125 49.73                             124   -1.08 2  201 293 
                                                                                
