 2012  2 9 2116 27.7 L   6.748 -73.162142.0  RSN  6 0.4 1.9LRSN                1
 GAP=137        0.75       4.9     4.8  7.3 -0.1109E+01  0.5503E+01  0.3783E+01E
 ACTION:UP  12-03-07 16:29 OP:epov STATUS:               ID:20120209211627 L   I
 2012-02-09-2110-00M.COL___188                                                 6
 STAT SP IPHASW D HRMM SECON CODA AMPLIT PERI AZIMU VELO AIN AR TRES W  DIS CAZ7
 BAR2 SZ ES   2   2117  1.11                             173   -0.56 5 17.3 187 
 BAR2 SZ I        2117  2.43        17.2 0.26                          17.3 187 
 GIR2 SZ EP   2   2116 46.83                             165   -0.28 5 36.8 355 
 BRR  HZ EP       2116 48.66                             151    0.1110 72.6 303 
 BRR  HZ I        2116 49.02        20.5 0.11                          72.6 303 
 BRR  HN ES   1   2117  5.57                             151    0.78 7 72.6 303 
 PAM  SZ EP   1   2116 49.84                             148   -0.05 7 83.0  38 
 PAM  SE ES   1   2117  6.87                             148   -0.31 7 83.0  38 
 RUS  HZ EP       2116 50.98                             145    0.2810 95.0 175 
 RUS  HE ES   1   2117  8.65                             145    0.03 7 95.0 175 
 PTB  HZ EP       2116 53.92                             132   -0.21 9  145 261 
 PTB  HE ES   1   2117 14.26                             132   -0.47 7  145 261 
                                                                                
