 2012 12 9 2052 56.4 L   6.810 -73.148141.4  RSN  6 0.3 1.9LRSN                1
 GAP=136        0.72       3.6     5.3  6.9  0.4649E+01  0.1229E+02 -0.6195E+01E
 Epicentro: LOS SANTOS - SANTANDER                                             3
 ACTION:UPD 13-01-04 14:26 OP:ep   STATUS:               ID:20121209205256 L   I
 2012-12-09-2050-00M.COL___243                                                 6
 STAT SP IPHASW D HRMM SECON CODA AMPLIT PERI AZIMU VELO AIN AR TRES W  DIS CAZ7
 BAR2 SZ EP       2053 15.69                             170    0.1510 24.4 189 
 BAR2 SZ ES   1   2053 30.48                             170    0.02 7 24.4 189 
 BAR2 SZ I        2053 31.59        32.1 0.39                          24.4 189 
 GIR2 SZ EP       2053 15.72                             167    0.1810 30.1 350 
 PAM  SZ EP       2053 18.52                             150    0.4010 76.7  40 
 PAM  SE ES   1   2053 35.00                             150   -0.06 7 76.7  40 
 PAM  SZ I        2053 37.90        15.0 0.51                          76.7  40 
 RUS  HZ EP       2053 19.60                             143   -0.2210  102 176 
 RUS  HE ES   1   2053 37.71                             143   -0.37 7  102 176 
 RUS  HE I        2053 40.33         9.4 0.15                           102 176 
 ZAR  HZ EP   1   2053 29.08                             121    0.57 6  203 292 
 ZAR  HE ES   1   2053 53.70                             121    0.16 6  203 292 
 ZAR  HZ I        2054  0.39         9.0 0.36                           203 292 
 SML  HZ EP       2053 32.13                             117   -0.55 8  243 335 
 SML  HE ES       2054  0.60                             117   -0.36 8  243 335 
                                                                                
