 2013 12 9 2210 42.5 L   6.810 -73.166142.6  RSN  8 0.5 2.0LRSN                1
 GAP=133        1.23       4.4     5.4  7.2 -0.5246E+01  0.1335E+02 -0.6316E+00E
 Epicentro: LOS SANTOS - SANTANDER                                             3
 ACTION:UPD 14-01-13 10:17 OP:ep   STATUS:               ID:20131209221041 L   I
 OLDACT:UP  13-12-10 01:56 OP:stll STATUS:               ID:20131209221041 L   3
 OLDACT:UP  13-12-10 01:25 OP:stll STATUS:               ID:20131209220817     3
 2013-12-09-2208-17M.COL___259                                                 6
 STAT SP IPHASW D HRMM SECON CODA AMPLIT PERI AZIMU VELO AIN AR TRES W  DIS CAZ7
 BAR2 SZ EP       2211  1.81                             170    0.0510 24.1 184 
 BAR2 SZ ES       2211 16.38                             170   -0.4010 24.1 184 
 BAR2 SZ I        2211 18.87        48.6 0.26            170           24.1 184 
 BRR  HZ EP   1   2211  3.71                             153    0.55 7 68.7 299 
 BRR  HN ES       2211 20.47                             153    1.1910 68.7 299 
 BRR  HZ I        2211 26.24        18.9 0.40            150           68.7 299 
 PAM  SZ EP       2211  4.82                             150    0.4110 78.1  41 
 PAM  SN ES       2211 21.38                             150   -0.1310 78.1  41 
 PAM  SZ I        2211 23.22        17.3 0.58            154           78.1  41 
 RUS  HZ EP       2211  6.03                             143    0.0110  102 175 
 RUS  HN ES       2211 24.06                             143   -0.3210  102 175 
 RUS  SZ I        2211 25.40        14.7 0.26            146            102 175 
 PTB  HZ EP       2211  8.49                             132   -0.52 9  146 258 
 PTB  HN ES       2211 29.21                             132   -0.50 9  146 258 
 PTB  SZ I        2211 33.43         8.5 0.16            131            146 258 
 NOR  HZ EP       2211 18.37                             118    0.47 8  233 234 
 NOR  HN ES       2211 45.33                             118   -0.20 8  233 234 
 NOR  SZ I        2211 48.20         6.4 0.20            119            233 234 
 SML  HZ EP       2211 18.27                             117   -0.46 8  242 336 
 SML  HE ES       2211 46.31                             117   -0.69 8  242 336 
 SML  SZ I        2211 52.04        13.2 0.08            118            242 336 
 RREF HZ EP       2211 28.91                             110    0.53 7  321 229 
 RREF HN ES       2212  4.31                             110    0.14 7  321 229 
 RREF SZ I        2212 15.52         3.8 1.74            112            321 229 
                                                                                
