 2011  7 9 2349 39.2 L   6.743 -73.089136.8  RSN  4 0.4 1.8LRSN                1
 GAP=163        0.86       5.4    10.7 12.1  0.5981E+01 -0.5721E+02 -0.1133E+02E
 Epicentro: JORDAN - SANTANDER                                                 3
 ACTION:UPD 12-07-25 13:59 OP:epov STATUS:               ID:20110709234939 L   I
 2011-07-09-2340-00M.COL___130                                                 6
 STAT SP IPHASW D HRMM SECON CODA AMPLIT PERI AZIMU VELO AIN AR TRES W  DIS CAZ7
 BRR  HZ EP       2349 59.50                             148   -0.4110 79.8 300 
 BRR  HN ES   1   2350 16.12                             148    0.05 7 79.8 300 
 BRR  HZ I        2350 20.71        13.5 0.68                          79.8 300 
 RUS  HZ EP       2350  1.48                             144   -0.1010 94.0 180 
 RUS  HN ES   2   2350 19.68                             144    0.62 5 94.0 180 
 BRI  SZ EP       2350  2.41                             138   -0.1410  112  17 
 BRI  SZ ES   2   2350 20.38                             138   -0.40 5  112  17 
 OCA  SZ EP       2350  8.20                             126    0.69 9  167 351 
                                                                                
