 2016  2 9 2221 22.6 L   6.813 -73.186143.1  RSN  9 0.2 2.0LRSN                1
 GAP=131        0.58       1.7     2.4  3.5 -0.3526E+00  0.3086E+01 -0.3054E+00E
 Epicentro: ZAPATOCA - SANTANDER                                               3
 ACTION:UPD 16-03-04 21:24 OP:rebc STATUS:               ID:20160209222122 L   I
 OLDACT:REG 16-02-10 03:40 OP:cara STATUS:               ID:20160209221750     3
 2016-02-09-2217-50M.COL___322                                                 6
 STAT SP IPHASW D HRMM SECON CODA AMPLIT PERI AZIMU VELO AIN AR TRES W  DIS CAZ7
 BAR2 EZ EP       2221 42.04                             170    0.1010 24.5 179 
 BAR2 EZ ES       2221 56.71                             170   -0.3110 24.5 179 
 BAR2 EZ I        2221 58.53        16.2 0.16            170           24.5 179 
 PAM  EZ IP     D 2221 44.87                             150    0.2210 79.2  43 
 PAM  EN ES       2222  1.93                             150    0.0910 79.2  43 
 PAM  EZ I        2222  4.08        16.3 0.48            153           79.2  43 
 RUS  HZ EP       2221 46.08                             143   -0.1510  102 174 
 RUS  HN ES       2222  4.69                             143    0.0310  102 174 
 RUS  HZ I        2222  5.76        10.0 0.30            146            102 174 
 PTB  HZ EP       2221 48.65                             132   -0.34 9  144 258 
 PTB  HN ES       2222  9.55                             132   -0.02 9  144 258 
 PTB  HZ I        2222 12.89         7.9 0.10            132            144 258 
 SPBC HZ EP       2221 51.11                             129    0.36 9  162 217 
 SPBC HN ES       2222 12.88                             129    0.18 9  162 217 
 SPBC HZ I        2222 15.44        20.6 0.36            130            162 217 
 ZAR  HZ EP       2221 54.71                             122    0.32 9  199 292 
 ZAR  HN ES       2222 19.33                             122    0.14 9  199 292 
 ZAR  HZ I        2222 30.13         8.1 0.48            123            199 292 
 SML  HZ EP       2221 58.71                             117   -0.03 8  241 336 
 SML  HN ES       2222 26.71                             117   -0.21 8  241 336 
 SML  HZ I        2222 30.21        16.5 0.26            119            241 336 
 CHI  HZ EP       2222  0.04                             116   -0.15 8  249 194 
 CHI  HE ES       2222 29.59                             116    0.08 8  249 194 
 CHI  HZ I        2222 35.14         3.4 0.28            119            249 194 
 GUY2CHZ EP       2222  5.19                             112   -0.59 7  298 234 
 GUY2CHE ES       2222 39.54                             112    0.08 7  298 234 
 GUY2CHZ I        2222 47.85         4.3 0.32                           298 234 
                                                                                
