 2017  1 9 2304 38.8 L   6.814 -73.150147.0  RSN 15 0.4 2.5LRSN                1
 GAP= 70        0.89       3.0     2.7  4.6  0.1275E+00  0.2048E+01  0.3578E+01E
 Epicentro: LOS SANTOS - SANTANDER                                             3
 ACTION:UPD 17-05-22 15:57 OP:jn   STATUS:               ID:20170109230438 L   I
 OLDACT:REG 17-01-10 03:59 OP:lv   STATUS:               ID:20170109225744     3
 2017-01-09-2258-00M.COL___366                                                 6
 STAT SP IPHASW D HRMM SECON CODA AMPLIT PERI AZIMU VELO AIN AR TRES W  DIS CAZ7
 BAR2 EZ IP     D 23 4 58.41                             170   -0.2010 24.8 188 
 BAR2 EZ ES       23 5 14.13                             170    0.0710 24.8 188 
 BAR2 EZ I        23 5 14.49        98.3 0.41            167           24.8 188 
 BRR  HZ IP     C 23 5  0.26                             153    0.2410 70.0 298 
 BRR  HN ES       23 5 17.26                             153    0.7010 70.0 298 
 BRR  HZ I        23 5 20.58        41.7 0.13            154           70.0 298 
 PAM  EZ EP       23 5  1.21                             151    0.1110 76.5  41 
 PAM  EN ES       23 5 18.34                             151   -0.1510 76.5  41 
 PAM  EZ I        23 5 20.60        62.0 0.54            152           76.5  41 
 RUS  HZ EP       23 5  2.38                             144   -0.4110  102 176 
 RUS  HE ES       23 5 21.36                             144   -0.1410  102 176 
 RUS  HZ I        23 5 22.82        28.5 0.25            141            102 176 
 PTB  HZ EP       23 5  5.16                             132   -0.69 9  148 258 
 PTB  HN ES       23 5 26.33                             132   -0.62 9  148 258 
 PTB  HZ I        23 5 28.25        27.1 0.14            131            148 258 
 TAM  HZ EP       23 5  6.57                             131   -0.09 9  156 105 
 TAM  HZ I        23 5 27.72        17.0 0.44            129            156 105 
 TAM  HN ES       23 5 28.49                             131    0.10 9  156 105 
 ZAR  HZ EP       23 5 11.55                             123    0.33 9  203 292 
 ZAR  HE ES       23 5 36.17                             123   -0.33 9  203 292 
 ZAR  HZ I        23 5 41.61        36.3 0.30            122            203 292 
 NOR  HZ EP       23 5 14.60                             119   -0.06 8  235 234 
 NOR  HN ES       23 5 42.95                             119    0.33 8  235 234 
 NOR  HZ I        23 5 48.17        17.4 0.46            118            235 234 
 CHI  HZ EP       23 5 16.63                             117   -0.09 8  250 195 
 CHI  HN ES       23 5 46.18                             117   -0.11 8  250 195 
 CHI  HZ I        23 5 49.44        24.0 0.60            116            250 195 
 ROSC BZ EP   9   23 5 19.01                             117    1.90 0  254 211 
 ROSC BN ES       23 5 48.69                                   -0.19 8  254 211 
 ROSC BZ I        23 5 53.12        49.9 0.40            116            254 211 
 URE  HZ EP   4   23 5 22.54                             114    2.72 0  283 292 
 URE  HE ES   4   23 5 49.05                             114   -2.75 0  283 292 
 URE  HZ I        23 5 58.06        19.4 0.11            113            283 292 
 GUY2CHZ EP       23 5 23.37                             112    0.85 7  302 234 
 GUY2CHE ES   4   23 5 58.06                             112    1.44 0  302 234 
 GUY2CHZ  IAML    23 6  4.69        17.5 0.34                           302 234 
 VIL  EN EP       23 5 22.80                             112    0.36 7  305 191 
 VIL  EE ES       23 5 56.95                             112    0.48 7  305 191 
 PTGC HZ EP   4   23 5 21.64                             112   -1.26 0  310 159 
 PTGC HN ES   4   23 5 55.17                             112   -2.13 0  310 159 
 PTGC HZ I        23 5 57.67        18.5 0.38            110            310 159 
 LL6C HZ EP   9   23 5  4.49                             111   -19.9 0  323 358 
 LL6C HN ES       23 5 40.13                                    0.09 7  323 358 
 LL6C HZ I        23 5 45.89        11.3 0.34            110            323 358 
 ELA  HZ EP   4   23 5 28.06                             110    2.28 0  330 229 
                                                                                
