 2013  2 9 2313 54.1 L   6.788 -73.177141.3  RSN  6 0.4 1.5LRSN                1
 GAP=198        0.77       4.5     5.9  7.8  0.5054E+01  0.8715E+01 -0.3583E+01E
 Epicentro: LOS SANTOS - SANTANDER                                             3
 ACTION:UPD 13-03-12 09:31 OP:ep   STATUS:               ID:20130209231354 L   I
 2013-02-09-2310-00M.COL___240                                                 6
 STAT SP IPHASW D HRMM SECON CODA AMPLIT PERI AZIMU VELO AIN AR TRES W  DIS CAZ7
 BAR2 SZ EP   1   2314 12.55                             171   -0.56 7 21.7 182 
 BAR2 SZ ES   1   2314 28.44                             171    0.46 7 21.7 182 
 BAR2 SZ I        2314 29.07        11.6 0.36            166           21.7 182 
 BRR  HZ EP       2314 14.80                             153    0.2210 68.8 301 
 BRR  HN ES   1   2314 30.58                             153   -0.02 7 68.8 301 
 BRR  HZ I        2314 35.73         8.6 0.62            150           68.8 301 
 RUS  HZ EP   1   2314 17.78                             143    0.49 7 99.6 174 
 RUS  HN ES   1   2314 34.96                             143   -0.46 7 99.6 174 
 RUS  HZ I        2314 38.98         2.9 0.46            144           99.6 174 
 PTB  HZ EP   1   2314 20.00                             132   -0.32 7  144 259 
 PTB  HN ES   1   2314 40.49                             132   -0.33 7  144 259 
 PTB  HZ I        2314 46.05         4.3 0.28            131            144 259 
 NOR  HN ES   1   2314 56.96                             118    0.45 6  231 234 
 NOR  HZ I        2315  2.09         2.7 0.20            119            231 234 
 SML  HN ES   1   2314 58.72                             116   -0.04 6  243 336 
                                                                                
