 2011  7 9 2033 48.3 L   6.769 -73.064149.9  RSN 13 0.4 2.4LRSN                1
 GAP=166        0.92       3.5     6.8  6.0 -0.1066E+02  0.7240E+01  0.4836E+01E
 Epicentro: LOS SANTOS - SANTANDER                                             3
 ACTION:UPD 12-07-25 13:59 OP:epov STATUS:               ID:20110709203348 L   I
 2011-07-09-2029-18S.COL___140                                                 6
 STAT SP IPHASW D HRMM SECON CODA AMPLIT PERI AZIMU VELO AIN AR TRES W  DIS CAZ7
 BAR2 SZ IP       2034  8.10                             171   -0.3010 23.5 214 
 BAR2 SZ I        2034 24.93        60.3 0.56                          23.5 214 
 BTL  SZ EP       2034  8.67                             169    0.1710 28.0 306 
 BTL  SZ ES   1   2034 24.60                             169    0.32 7 28.0 306 
 BRR  HZ IP     C 2034  9.93                             150   -0.4910 80.8 298 
 BRR  HN ES   1   2034 27.75                             150    0.04 7 80.8 298 
 BRR  HZ I        2034 29.81        43.0 0.12                          80.8 298 
 RUS  HZ EP       2034 12.01                             146   -0.1610 96.9 181 
 RUS  HN ES   1   2034 30.52                             146   -0.30 7 96.9 181 
 RUS  HZ I        2034 32.41        30.7 0.40                          96.9 181 
 BRI  SZ EP       2034 12.65                             142    0.0610  109  16 
 BRI  SZ ES   1   2034 31.13                             142   -0.43 7  109  16 
 GRA  SZ IP       2034 14.90                             138    0.9410  127  13 
 GRA  SZ ES   1   2034 34.71                             138    0.71 7  127  13 
 OCA  SZ EP       2034 16.59                             130   -0.76 9  165 350 
 OCA  SZ ES   2   2034 39.63                             130   -0.40 5  165 350 
 OCA  SZ I        2034 43.33        40.6 0.30                           165 350 
 CHI  HZ EP       2034 26.01                             118   -0.10 8  248 197 
 CHI  HN ES   1   2034 55.58                             118   -0.06 6  248 197 
 CHI  HZ I        2035  3.49        13.8 0.42                           248 197 
 ROSC BZ EP   2   2034 27.30                             117    0.48 4  255 213 
 HEL  HZ EP       2034 29.45                             115   -0.13 7  280 257 
 RREF HZ EP       2034 35.42                             111    0.29 7  327 231 
 RREF HN ES   1   2035 12.42                             111    0.74 5  327 231 
 RREF HZ I        2035 18.88        12.3 0.22                           327 231 
 TOL  SZ EP       2034 37.25                             110    0.10 6  348 226 
 PRA  HZ EP       2034 42.31                             107    0.19 6  394 211 
 PRA  HN ES   1   2035 24.40                             107    0.28 4  394 211 
                                                                                
