 2014  1 9 2030 40.5 L   6.805 -73.126143.6  RSN 18 0.5 2.6LRSN                1
 GAP=139        0.88       2.9     3.4  5.2 -0.1286E+01  0.5204E+01  0.2425E+01E
 Epicentro: LOS SANTOS - SANTANDER                                             3
 ACTION:UPD 14-03-13 09:53 OP:ep   STATUS:               ID:20140109203040 L   I
 OLDACT:UP  14-01-10 01:34 OP:mher STATUS:               ID:20140109203000     3
 OLDACT:REG 14-01-09 23:08 OP:mh   STATUS:               ID:20140109203000     3
 2014-01-09-2030-00M.COL___285                                                 6
 STAT SP IPHASW D HRMM SECON CODA AMPLIT PERI AZIMU VELO AIN AR TRES W  DIS CAZ7
 BAR2 SZ EP       2030 59.89                             170    0.0210 24.3 195 
 BAR2 SZ ES   1   2031 14.98                             170   -0.01 7 24.3 195 
 BAR2 SZ I        2031 17.60       110.3 0.21            169           24.3 195 
 BRR  HZ EP     C 2031  1.83                             152    0.3410 72.9 297 
 BRR  HN ES   1   2031 18.54                             152    0.66 7 72.9 297 
 BRR  HZ I        2031 22.96        58.8 0.18            150           72.9 297 
 PAM  SZ EP     C 2031  2.74                             151    0.3910 75.6  38 
 PAM  SN ES   1   2031 19.64                             151    0.23 7 75.6  38 
 PAM  SZ I        2031 23.19        20.0 0.15            156           75.6  38 
 RUS  HZ EP     C 2031  3.82                             143   -0.2310  101 177 
 RUS  HN ES   1   2031 22.32                             143   -0.11 7  101 177 
 RUS  HZ I        2031 23.62        27.3 0.29            147            101 177 
 PTB  HZ EP   1   2031  6.87                             131   -0.61 7  150 259 
 PTB  HN ES       2031 27.95                             131   -0.59 9  150 259 
 PTB  HZ I        2031 35.26        57.2 0.30            132            150 259 
 OCA  HZ EP   2   2031  8.01                             129   -0.59 5  160 352 
 OCA  HN ES   1   2031 29.97                             129   -0.56 7  160 352 
 OCA  HZ I        2031 35.67        74.5 0.29            132            160 352 
 SPBC HZ EP   1   2031  8.94                             128   -0.05 7  165 219 
 SPBC HN ES   2   2031 31.36                             128    0.14 5  165 219 
 SPBC HZ I        2031 36.60        71.6 0.24            131            165 219 
 ZAR  HZ EP   1   2031 12.15                             122   -0.83 6  206 292 
 ZAR  HN ES       2031 38.51                             122    0.19 8  206 292 
 ZAR  HZ I        2031 44.01        48.4 0.15            123            206 292 
 NOR  HZ EP   1   2031 16.13                             118   -0.18 6  237 235 
 NOR  HN ES   1   2031 44.04                             118   -0.22 6  237 235 
 NOR  HZ I        2031 49.39        52.5 0.35            120            237 235 
 SML  HZ EP   1   2031 16.34                             117   -0.69 6  244 335 
 SML  HN ES   4   2031 45.13                             117   -0.41 0  244 335 
 SML  HZ I        2031 49.33        37.7 0.09            120            244 335 
 CHI  HZ EP       2031 18.03                             116   -0.15 8  250 196 
 CHI  HN ES       2031 47.26                             116   -0.32 8  250 196 
 CHI  HZ I        2031 50.66        12.7 0.21            120            250 196 
 ROSC BZ EP   4   2031 19.80                             116    1.14 0  254 211 
 ROSC BN ES   4   2031 50.33                             116    1.89 0  254 211 
 HEL  HZ EP       2031 21.67                             114    0.83 8  274 256 
 HEL  HN ES   1   2031 52.19                             114   -0.12 6  274 256 
 HEL  HZ I        2031 58.87        44.2 0.26            116            274 256 
 URE  HZ EP   4   2031 20.24                             113   -1.41 0  286 292 
 GUY2CHZ EP   1   2031 24.99                             112    0.76 5  303 235 
 GUY2CHN ES       2031 58.79                             112    0.44 7  303 235 
 GUY2CHZ I        2032  6.49        44.8 0.54                           303 235 
 PTGC HZ EP   4   2031 21.31                             111   -2.90 0  308 159 
 PTGC HN ES   4   2031 55.15                             111   -3.16 0  308 159 
 PTGC HZ I        2031 57.98        24.5 0.50            115            308 159 
 RREF HZ EP   1   2031 27.80                             110    1.04 5  324 230 
 RREF HN ES   2   2032  2.25                             110   -0.61 3  324 230 
 RREF HZ I        2032  9.64        19.2 0.26            113            324 230 
 CBOC HZ EP       2031 27.93                             109    0.36 7  336 252 
 CBOC HN ES       2032  4.37                             109    0.08 7  336 252 
 CBOC HZ I        2032 11.58         9.4 0.54            112            336 252 
 DBB  SZ EP   1   2031 27.53                             109   -0.59 5  342 274 
 SJC  HZ EP   4   2031 33.77                             105   -2.29 0  410 327 
 SJC  HN ES   4   2032 15.17                             105   -4.24 0  410 327 
 SJC  HZ I        2032 23.66         9.4 0.48            108            410 327 
                                                                                
