 2010  9 9 2006 17.1 L   6.778 -73.113142.0  RSN 15 0.4 2.5LRSN                1
 GAP=163        0.97       3.2     5.6  5.9 -0.5965E+01  0.4854E+01  0.6953E+00E
 Epicentro: LOS SANTOS - SANTANDER                                             3
 ACTION:UP  11-02-18 11:01 OP:tino STATUS:               ID:20100909200617 L   I
 2010-09-09-2003-39S.COL___120                                                 6
 STAT SP IPHASW D HRMM SECON CODA AMPLIT PERI AZIMU VELO SNR AR TRES W  DIS CAZ7
 BAR2 SZ IP       20 6 36.24                             171     0.010   22 201 
 BAR2 SZ I        20 6 36.59        89.7 0.12                            22 201 
 BAR2 SZ ES   1   20 6 51.50                             171     0.3 7   22 201 
 GIR2 SZ IP       20 6 36.40                             166     0.010   34 345 
 GIR2 SZ ES   2   20 6 51.48                             166     0.0 5   34 345 
 BRR  HZ IP     C 20 6 38.20                             150     0.110   76 299 
 BRR  HZ I        20 6 38.56        96.8 0.11                            76 299 
 BRR  HN ES       20 6 54.76                             150     0.310   76 299 
 RUS  HZ IP     C 20 6 40.25                             144     0.010   98 178 
 RUS  HE ES       20 6 58.23                             144    -0.210   98 178 
 RUS  HZ I        20 6 59.73        29.2 0.41                            98 178 
 GUE  SZ EP       20 6 42.46                             138     0.910  118  10 
 GRA  SZ IP       20 6 42.33                             136     0.210  127  16 
 GRA  SZ ES   1   20 7  1.00                             136    -0.6 7  127  16 
 GRA  SZ I        20 7  2.97        35.9 0.25                           127  16 
 OCA  SZ EP       20 6 44.64                             128    -0.8 9  163 352 
 OCA  SZ ES   1   20 7  7.02                             128    -0.4 7  163 352 
 OCA  SZ I        20 7 11.30        28.1 0.35                           163 352 
 CHI  HZ EP   2   20 6 54.25                             116    -0.2 4  247 196 
 CHI  HE ES   2   20 7 23.33                             116    -0.2 4  247 196 
 CHI  HZ I        20 7 27.80        12.9 0.29                           247 196 
 ROSC BZ EP   2   20 6 55.31                             116     0.3 4  253 212 
 ROSC BN ES   2   20 7 23.85                             116    -0.7 4  253 212 
 ROSC BZ I        20 7 31.04        23.3 0.42                           253 212 
 HEL  HZ EP   2   20 6 57.96                             114     0.5 4  275 256 
 HEL  HN ES   1   20 7 28.29                             114    -0.6 6  275 256 
 HEL  HZ I        20 7 35.28        19.5 0.49                           275 256 
 GUY  SE ES   2   20 7 35.12                             111     0.3 4  303 236 
 GUY  SZ I        20 7 40.31        41.1 0.53                           303 236 
 RREF HZ EP   1   20 7  3.47                             110     0.2 5  323 230 
 RREF HE ES   1   20 7 39.62                             110     0.4 5  323 230 
 RREF HZ I        20 7 45.48        18.6 0.33                           323 230 
 DBB  SZ EP   2   20 7  5.02                             109     0.1 3  343 275 
 DBB  SZ I        20 7 46.68         3.5 0.39                           343 275 
 TOL  SZ EP   2   20 7  6.00                             109     0.7 3  344 225 
 PRA  HZ EP   1   20 7 10.16                             106    -0.3 4  392 210 
 PRA  HN ES   1   20 7 51.42                             106    -0.7 4  392 210 
 PRA  HZ I        20 7 59.39        13.8 0.49                           392 210 
                                                                                
