 2011 11 9 2238 38.3 L   6.767 -73.108138.1  RSN  4 0.2 1.5LRSN                1
 GAP=143        0.57       4.1     5.4  5.7 -0.1364E+01 -0.2779E+01  0.2935E+01E
 Epicentro: LOS SANTOS - SANTANDER                                             3
 ACTION:UPD 12-07-13 16:09 OP:ep   STATUS:               ID:20111109223838 L   I
 2011-11-09-2235-20S.COL___178                                                 6
 STAT SP IPHASW D HRMM SECON CODA AMPLIT PERI AZIMU VELO AIN AR TRES W  DIS CAZ7
 BAR2 SZ ES   1   2239 11.30                             171   -0.26 7 21.0 203 
 BAR2 SZ I        2239 14.59         7.6 0.48                          21.0 203 
 BRR  HZ EP       2238 58.65                             149   -0.3510 76.6 299 
 BRR  HZ I        2239  3.36        13.5 0.38                          76.6 299 
 BRR  HN ES   1   2239 15.47                             149    0.37 7 76.6 299 
 PAM  SZ EP       2238 59.89                             149    0.1210 77.7  35 
 PAM  SE ES   1   2239 16.48                             149    0.00 7 77.7  35 
 RUS  HZ EP       2239  1.22                             143    0.1510 96.8 178 
 RUS  HZ I        2239  2.03         2.4 0.36                          96.8 178 
 RUS  HE ES   2   2239 18.87                             143    0.08 5 96.8 178 
                                                                                
