 2017  1 9 2321 59.7 L   6.795 -73.167139.9  RSN 17 0.4 2.3LRSN                1
 GAP=118        0.88       2.7     3.4  4.5 -0.3994E+00  0.4700E+01  0.3345E+01E
 Epicentro: LOS SANTOS - SANTANDER                                             3
 ACTION:UPD 17-05-22 15:57 OP:jn   STATUS:               ID:20170109232159 L   I
 OLDACT:REG 17-01-10 04:00 OP:lv   STATUS:               ID:20170109231745     3
 2017-01-09-2318-00M.COL___360                                                 6
 STAT SP IPHASW D HRMM SECON CODA AMPLIT PERI AZIMU VELO AIN AR TRES W  DIS CAZ7
 BAR2 EZ EP       2322 18.37                             170   -0.2510 22.5 184 
 BAR2 EZ ES       2322 33.01                             170   -0.3610 22.5 184 
 BAR2 EZ I        2322 34.63        83.5 0.30            171           22.5 184 
 BRR  HZ EP       2322 20.19                             152    0.0610 69.4 300 
 BRR  HE ES       2322 36.65                             152    0.6010 69.4 300 
 BRR  HZ I        2322 41.40        31.6 0.17            144           69.4 300 
 PAM  EZ EP       2322 21.22                             149   -0.2110 79.3  41 
 PAM  EN ES       2322 38.49                             149    0.1210 79.3  41 
 PAM  EZ I        2322 41.44        15.3 0.46            146           79.3  41 
 RUS  HZ EP       2322 22.71                             143   -0.1510  100 175 
 RUS  HE ES       2322 41.17                             143    0.2510  100 175 
 RUS  HZ I        2322 42.50        22.2 0.22            142            100 175 
 PTB  HZ EP   4   2322 24.93                             131   -1.06 0  145 259 
 PTB  HN ES       2322 46.05                             131   -0.43 9  145 259 
 ZAR  HZ EP       2322 32.01                             121    0.43 9  202 293 
 ZAR  HZ I        2323  1.77        21.0 0.43            116            202 293 
 NOR  HZ EP       2322 34.24                             117   -0.63 8  232 234 
 NOR  HN ES       2323  1.90                             117   -0.39 8  232 234 
 NOR  HZ I        2323  8.06         9.6 0.20            114            232 234 
 CHI  HZ EP       2322 36.73                             116   -0.24 8  247 195 
 CHI  HE ES       2323  6.45                             116    0.43 8  247 195 
 CHI  HZ I        2323  8.48        10.4 0.46            113            247 195 
 ROSC BZ EP   9   2322 39.18                             116    1.85 0  251 211 
 ROSC BN ES       2323  8.76                                    0.24 8  251 211 
 ROSC BZ I        2323 13.12        30.6 0.35            112            251 211 
 URE  HZ EP   4   2322 42.56                             112    2.28 0  282 292 
 URE  HN ES       2323 11.58                             112   -0.35 7  282 292 
 URE  HZ I        2323 17.60        11.6 0.14            108            282 292 
 GUY2CHZ EP       2322 43.50                             111    0.70 7  299 235 
 GUY2CHN ES   4   2323 19.66                             111    3.25 0  299 235 
 GUY2CHZ  IAML    2323 28.90         7.8 0.46                           299 235 
 VIL  EZ EP       2322 43.02                             111    0.27 7  302 191 
 VIL  EN ES       2323 16.36                             111    0.04 7  302 191 
 VIL  EZ I        2323 21.65        11.7 0.30            108            302 191 
 PTGC HZ EP   9   2322 41.58                             110   -1.77 0  309 158 
 PTGC HN ES       2323 14.89                                   -0.73 7  309 158 
 LL6C HZ EP   9   2322 25.35                             109   -19.9 0  325 358 
 LL6C HE ES       2323  0.76                                   -0.09 7  325 358 
 ELA  HZ EP   4   2322 48.78                             109    2.71 0  327 229 
 ELA  HN ES       2323 22.87                             109    0.63 7  327 229 
 ELA  HZ I        2323 29.59         7.7 0.44            106            327 229 
 ORTC HZ EP       2322 53.73                             105    0.51 6  394 216 
 ORTC HN ES       2323 34.77                             105   -0.19 6  394 216 
 ORTC HZ I        2323 42.29         4.8 0.35            103            394 216 
 PAL  HZ EP       2322 53.89                             105   -0.52 6  403 239 
                                                                                
