 2012  1 9 2129 52.2 L   6.820 -73.163142.0  RSN  5 0.2 1.2LRSN                1
 GAP=133        0.72       5.9     8.4 13.2 -0.6432E+01  0.6827E+02  0.1226E+02E
 Epicentro: LOS SANTOS - SANTANDER                                             3
 ACTION:UP  12-02-03 08:15 OP:REBC STATUS:               ID:20120109212952 L   I
 2012-01-09-2130-00M.COL___186                                                 6
 STAT SP IPHASW D HRMM SECON CODA AMPLIT PERI AZIMU VELO SNR AR TRES W  DIS CAZ7
 GIR2 SZ EP       2130 11.50                             168     0.110   29 353 
 BRR  HZ EP       2130 13.10                             153     0.310   68 298 
 BRR  HZ I        2130 30.63         8.0 0.28                            68 298 
 PAM  SZ EP       2130 13.72                             151    -0.310   77  42 
 PAM  SN ES   1   2130 31.03                             151     0.0 7   77  42 
 RUS  HZ EP       2130 15.97                             143     0.210  103 175 
 RUS  HZ I        2130 31.40         1.7 0.60                           103 175 
 RUS  HN ES   2   2130 33.84                             143    -0.3 5  103 175 
 PTB  HZ EP       2130 18.42                             132    -0.3 9  146 258 
 PTB  HZ I        2130 41.93         1.4 0.28                           146 258 
                                                                                
