 2016  1 9 2335 47.3 L   5.886 -73.659124.0  RSN 10 0.4 1.8LRSN                1
 GAP= 94        0.72       3.3     3.8  7.5 -0.6879E+00  0.4968E+01  0.3902E+01E
 Epicentro: PUENTE NACIONAL - SANTANDER                                        3
 ACTION:UPD 16-03-09 23:24 OP:cam  STATUS:               ID:20160109233547 L   I
 OLDACT:REG 16-01-10 02:41 OP:dnl  STATUS:               ID:20160109232751     3
 2016-01-09-2327-51M.COL___238                                                 6
 STAT SP IPHASW D HRMM SECON CODA AMPLIT PERI AZIMU VELO AIN AR TRES W  DIS CAZ7
 SPBC HZ EP       2336  5.31                             156    0.0810 52.6 241 
 SPBC HN ES   2   2336 19.44                             156    0.25 5 52.6 241 
 SPBC HZ I        2336 20.61        31.5 0.22            153           52.6 241 
 RUS  HZ EP       2336  6.33                             152   -0.0910 63.7  89 
 RUS  HN ES   2   2336 20.82                             152   -0.49 5 63.7  89 
 RUS  HZ I        2336 22.00        11.8 0.31            158           63.7  89 
 BAR2 EZ EP   2   2336  8.03                             141   -0.12 5 94.2  34 
 BAR2 EZ ES   2   2336 24.45                             141    0.06 5 94.2  34 
 BAR2 EZ I        2336 25.98        29.7 0.39            144           94.2  34 
 PTB  HZ EP       2336  8.70                             135   -0.7910  114 309 
 PTB  HE ES   2   2336 27.04                             135    0.27 5  114 309 
 PTB  HZ I        2336 29.04         9.6 0.16            134            114 309 
 BRR  HZ EP       2336 11.53                             129    0.15 9  135 357 
 BRR  HE ES       2336 30.43                             129    0.29 9  135 357 
 CHI  HZ EP       2336 12.50                             129    0.18 9  139 183 
 CHI  HE ES   4   2336 30.10                             129   -1.70 0  139 183 
 CHI  HZ I        2336 34.85         4.6 0.45            131            139 183 
 NOR  HN ES   2   2336 31.59                             129    0.71 5  139 255 
 NOR  HZ I        2336 34.02        11.4 0.17            129            139 255 
 GUY2CHZ EP   2   2336 19.36                             118    0.45 4  203 249 
 GUY2CHN ES   2   2336 42.94                             118   -0.61 4  203 249 
 GUY2CHZ I        2336 53.50         2.6 0.38                           203 249 
 HEL  HZ EP   2   2336 20.24                             117    0.70 4  210 279 
 HEL  HN ES   2   2336 44.18                             117   -0.49 4  210 279 
 HEL  HZ I        2336 50.08         4.8 0.21            117            210 279 
 ZAR  HZ EP   2   2336 20.83                             115    0.44 4  222 323 
 ZAR  HE ES   2   2336 46.02                             115   -0.15 4  222 323 
 ZAR  HZ I        2336 53.13         5.3 0.08            116            222 323 
                                                                                
