 2012 10 9 2301  0.0 L   6.782 -73.128149.5  RSN  5 0.2 1.9LRSN                1
 GAP=140        0.48       3.0     3.7  5.9  0.2371E+01  0.2305E+01 -0.1691E+01E
 Epicentro: LOS SANTOS - SANTANDER                                             3
 ACTION:UPD 12-11-22 17:02 OP:ep   STATUS:               ID:20121009230100 L   I
 2012-10-09-2300-00M.COL___226                                                 6
 STAT SP IPHASW D HRMM SECON CODA AMPLIT PERI AZIMU VELO AIN AR TRES W  DIS CAZ7
 GIR2 SZ EP   1   23 1 20.11                             167   -0.10 7 33.6 348 
 BRR  HZ EP   1   23 1 21.72                             152   -0.01 7 73.9 299 
 BRR  HN ES   1   23 1 39.00                             152    0.34 7 73.9 299 
 BRR  HN I        23 1 39.71        32.3 0.16                          73.9 299 
 PAM  SZ EP   1   23 1 22.99                             151    0.32 7 77.7  37 
 PAM  SZ I        23 1 23.18         8.5 0.26                          77.7  37 
 PAM  SN ES   1   23 1 40.04                             151   -0.28 7 77.7  37 
 RUS  HZ EP   1   23 1 23.99                             145   -0.01 7 98.4 177 
 RUS  HN ES       23 1 42.66                             145   -0.0410 98.4 177 
 RUS  HN I        23 1 44.14        10.9 0.30                          98.4 177 
 ZAR  HE ES   1   23 1 58.43                             123   -0.26 6  207 292 
 ZAR  HN I        23 2  3.84         6.8 0.30                           207 292 
                                                                                
