 2015  7 9 2320  2.0 L   6.799 -73.135147.1  RSN 18 0.4 2.7LRSN                1
 GAP=138        0.76       2.3     3.5  4.7 -0.9684E+00  0.8201E+01  0.1141E+01E
 Epicentro: LOS SANTOS - SANTANDER                                             3
 ACTION:UPD 15-09-08 21:47 OP:cam  STATUS:               ID:20150709232002 L   I
 OLDACT:UP  15-07-10 06:46 OP:mher STATUS:               ID:20150709231736     3
 OLDACT:UP  15-07-10 06:46 OP:mher STATUS:               ID:20150709231736     3
 OLDACT:UP  15-07-10 06:46 OP:mher STATUS:               ID:20150709231736     3
 OLDACT:UP  15-07-10 06:46 OP:mher STATUS:               ID:20150709231736     3
 OLDACT:UP  15-07-10 06:45 OP:mher STATUS:               ID:20150709231736     3
 OLDACT:UP  15-07-10 06:44 OP:mher STATUS:               ID:20150709231736     3
 OLDACT:UP  15-07-10 06:44 OP:mher STATUS:               ID:20150709231736     3
 OLDACT:UP  15-07-10 06:43 OP:mher STATUS:               ID:20150709231736     3
 OLDACT:UP  15-07-10 06:43 OP:mher STATUS:               ID:20150709231736     3
 OLDACT:UP  15-07-10 06:42 OP:mher STATUS:               ID:20150709231736     3
 OLDACT:UP  15-07-10 06:42 OP:mher STATUS:               ID:20150709231736     3
 OLDACT:REG 15-07-10 06:25 OP:mh   STATUS:               ID:20150709231736     3
 2015-07-09-2317-36M.COL___346                                                 6
 STAT SP IPHASW D HRMM SECON CODA AMPLIT PERI AZIMU VELO AIN AR TRES W  DIS CAZ7
 BAR2 EZ EP       2320 21.62                             171   -0.1710 23.4 193 
 BAR2 EZ ES       2320 37.19                             171   -0.0410 23.4 193 
 BAR2 EZ I        2320 39.03        61.3 0.40            167           23.4 193 
 PAM  EZ EP       2320 24.56                             151    0.2410 76.7  39 
 PAM  EN ES       2320 41.99                             151    0.2610 76.7  39 
 PAM  EZ I        2320 46.55        38.5 0.54            157           76.7  39 
 RUS  HZ EP     C 2320 25.71                             144   -0.1610  100 177 
 RUS  HN ES       2320 44.23                             144   -0.2510  100 177 
 RUS  HZ I        2320 47.53        27.7 0.20            146            100 177 
 OCA  HZ EP   1   2320 30.20                             130   -0.24 7  161 353 
 OCA  HN ES       2320 52.63                             130    0.01 9  161 353 
 OCA  HZ I        2320 56.29       126.3 0.36            132            161 353 
 ZAR  HZ EP   1   2320 34.15                             122   -0.50 6  205 292 
 ZAR  HN ES       2321  0.27                             122    0.15 9  205 292 
 ZAR  HZ I        2321  4.76        37.7 0.62            123            205 292 
 NOR  HZ EP   1   2320 37.60                             119   -0.30 6  236 235 
 NOR  HN ES       2321  5.33                             119   -0.57 8  236 235 
 NOR  HZ I        2321  8.58        38.7 0.18            119            236 235 
 SML  HZ EP   2   2320 38.75                             118   -0.02 4  244 335 
 SML  HN ES   2   2321  6.55                             118   -0.90 4  244 335 
 SML  HZ I        2321 11.21        58.7 0.10            120            244 335 
 CHI  HZ EP   1   2320 39.61                             117   -0.18 6  249 195 
 CHI  HN ES       2321  9.97                             117    0.70 8  249 195 
 CHI  HZ I        2321 16.79        13.4 0.28            119            249 195 
 ROSC BZ EP   1   2320 40.05                             117   -0.20 6  253 211 
 ROSC BN ES   4   2321 13.53                             117    3.45 0  253 211 
 ROSC BZ I        2321 18.92        40.7 0.40            118            253 211 
 HEL  HZ EP   1   2320 43.44                             115    1.03 6  273 256 
 HEL  HN ES       2321 14.16                             115    0.24 8  273 256 
 HEL  HZ I        2321 20.94        24.3 0.26            116            273 256 
 URE  HZ EP   4   2320 41.58                             114   -1.69 0  285 292 
 URE  HN ES   4   2321 12.60                             114   -2.85 0  285 292 
 URE  HZ I        2321 25.03        23.9 0.16            115            285 292 
 GUY2CHZ EP   1   2320 46.26                             112    0.49 5  302 235 
 GUY2CHN ES   4   2321 22.26                             112    2.35 0  302 235 
 GUY2CHZ I        2321 28.63        25.5 0.30                           302 235 
 CBOC HZ EP       2320 49.66                             110    0.56 7  335 252 
 CBOC HN ES   4   2321 27.46                             110    1.63 0  335 252 
 DBB  SZ EP   1   2320 49.08                             110   -0.59 5  341 274 
 DBB  SZ ES   4   2321 24.71                             110   -2.14 0  341 274 
 DBB  SZ I        2321 33.73        49.9 0.78            111            341 274 
 TOL  SZ EP   1   2320 50.95                             109    0.55 5  344 225 
 TOL  SN ES   4   2321 29.27                             109    1.13 0  344 225 
 TOL  SZ I        2321 34.89        19.9 0.40            111            344 225 
 ANIL HZ EP   4   2320 52.90                             109    0.96 0  358 225 
 ANIL HN ES   4   2321 33.14                             109    2.25 0  358 225 
 ANIL HZ I        2321 38.18        37.9 0.26            110            358 225 
 PRA  HZ EP   1   2320 54.94                             107   -0.68 4  392 210 
 PRA  HN ES   1   2321 36.73                             107   -0.71 4  392 210 
 PRA  HZ I        2321 41.94        13.7 0.36            108            392 210 
 ORTC HZ EP   1   2320 56.31                             106    0.27 4  396 216 
 ORTC HN ES   1   2321 38.28                             106    0.10 4  396 216 
 ORTC HZ I        2321 42.74         8.8 0.16            108            396 216 
                                                                                
