 2017 10 9 2043 43.0 L   6.804 -73.137138.0  RSN 10 0.5 1.9LRSN                1
 GAP=112        1.07       3.8     4.3  6.5 -0.4610E+00  0.9714E+01  0.2309E+01E
 Epicentro: LOS SANTOS - SANTANDER                                             3
 ACTION:UPD 17-11-07 19:30 OP:rebc STATUS:               ID:20171009204343 L   I
 OLDACT:REG 17-10-10 02:43 OP:dhb  STATUS:               ID:20171009203315     3
 2017-10-09-2038-00M.COL___429                                                 6
 STAT SP IPHASW D HRMM SECON CODA AMPLIT PERI AZIMU VELO AIN AR TRES W  DIS CAZ7
 BAR2 EZ EP       2044  1.56                             170   -0.1310 24.0 192 
 BAR2 EZ ES       2044 16.17                             170   -0.1110 24.0 192 
 BAR2 EZ I        2044 17.14        20.4 0.30            169           24.0 192 
 PAM  EZ EP       2044  4.51                             150    0.1910 76.4  39 
 PAM  EN ES       2044 21.03                             150    0.0710 76.4  39 
 PAM  EZ I        2044 23.32        29.1 0.50            153           76.4  39 
 RUS  HZ EP       2044  5.70                             142   -0.3110  101 177 
 RUS  HE ES       2044 24.26                             142    0.2910  101 177 
 RUS  HZ I        2044 25.58        18.8 0.30            143            101 177 
 SPBC HZ EP       2044 10.48                             127   -0.51 9  164 219 
 SPBC HN ES       2044 32.41                             127   -0.42 9  164 219 
 SPBC HZ I        2044 36.32         6.7 0.26            128            164 219 
 YPLC HZ EP       2044 11.77                             125   -0.45 9  177 152 
 YPLC HN ES       2044 35.69                             125    0.67 9  177 152 
 YPLC HZ I        2044 36.65        12.7 0.30            127            177 152 
 ZAR  HZ EP       2044 14.60                             121   -0.40 9  205 292 
 ZAR  HN ES       2044 40.92                             121    0.94 9  205 292 
 ZAR  HZ I        2044 47.70         7.3 0.23            121            205 292 
 NOR  HZ EP       2044 18.36                             117   -0.02 8  236 234 
 NOR  HE ES       2044 45.80                             117   -0.19 8  236 234 
 NOR  HZ I        2044 48.27         4.4 0.26            117            236 234 
 CHI  HZ EP   9   2044 21.63                             116    1.29 0  249 195 
 CHI  HE ES       2044 51.71                                    0.94 8  249 195 
 CHI  HZ I        2044 54.13         1.9 0.20            117            249 195 
 GUY2CHZ EP   3   2044 28.73                             111    2.37 2  302 235 
 GUY2CHE ES   4   2045  4.74                             111    4.55 0  302 235 
 GUY2CHZ I        2045  7.13         2.8 0.30                           302 235 
 PRA  HZ EP       2044 36.93                             105    0.59 6  393 210 
 PRA  HE ES       2045 18.14                             105    0.17 6  393 210 
 PRA  HZ I        2045 22.42         3.7 0.24            106            393 210 
                                                                                
