 2013  6 9 2013 42.8 L   6.778 -73.149141.3  RSN  8 0.4 2.0LRSN                1
 GAP=137        1.11       5.1     5.3  6.4 -0.6929E+01 -0.1065E+01 -0.2374E+01E
 Epicentro: LOS SANTOS - SANTANDER                                             3
 ACTION:UPD 14-01-08 09:53 OP:ep   STATUS:               ID:20130609201342 L   I
 OLDACT:DUP 13-06-10 00:19 OP:stll STATUS:               ID:20130609200849d    3
 2013-06-09-2008-48M.COL___232                                                 6
 STAT SP IPHASW D HRMM SECON CODA AMPLIT PERI AZIMU VELO AIN AR TRES W  DIS CAZ7
 BAR2 SZ EP       2014  1.98                             171    0.1210 20.9 190 
 BAR2 SZ I        2014  2.30        15.6 0.32            169           20.9 190 
 BAR2 SZ ES       2014 16.96                             171    0.2510 20.9 190 
 GIR2 SZ EP       2014  1.99                             166   -0.0310 33.6 352 
 GIR2 SZ ES       2014 15.98                             166   -1.0210 33.6 352 
 BRR  HZ EP       2014  3.77                             151    0.2410 72.0 300 
 BRR  HN ES       2014 20.51                             151    0.8210 72.0 300 
 BRR  HN I        2014 21.55        27.1 0.16            149           72.0 300 
 PAM  SZ EP       2014  4.80                             149    0.1210 79.5  39 
 PAM  SZ I        2014  5.03        17.2 0.22            152           79.5  39 
 PAM  SN ES       2014 21.73                             149   -0.0110 79.5  39 
 RUS  HZ EP       2014  6.08                             144    0.1310 98.2 176 
 RUS  HN ES       2014 24.02                             144    0.0210 98.2 176 
 RUS  HN I        2014 25.63         9.2 0.18            143           98.2 176 
 GRA  SZ EP       2014  8.10                             135    0.2310  128  17 
 PTB  HZ EP       2014  8.70                             131   -0.64 9  147 260 
 PTB  HN ES       2014 29.85                             131   -0.19 9  147 260 
 PTB  HN I        2014 35.01        18.8 0.24            130            147 260 
 CAPV BZ EP       2014  9.90                             130   -0.15 9  151  37 
                                                                                
