 2011  7 9 2016 42.6 L   6.780 -73.034146.7  RSN 15 0.4 2.6LRSN                1
 GAP=135        0.79       3.0     4.6  4.2 -0.5670E+01  0.4519E+00  0.2128E+01E
 Epicentro: CEPITA - SANTANDER                                                 3
 ACTION:UPD 12-07-25 13:59 OP:epov STATUS:               ID:20110709201642 L   I
 2011-07-09-2013-54S.COL___140                                                 6
 STAT SP IPHASW D HRMM SECON CODA AMPLIT PERI AZIMU VELO AIN AR TRES W  DIS CAZ7
 BAR2 SZ EP       2017  2.48                             169    0.0310 26.5 218 
 BAR2 SZ ES   1   2017 17.40                             169   -0.50 7 26.5 218 
 BAR2 SZ I        2017 18.98       139.2 0.32                          26.5 218 
 BTL  SZ IP       2017  2.93                             168    0.3910 30.1 301 
 BTL  SZ ES   1   2017 18.15                             168    0.09 7 30.1 301 
 GIR2 SZ EP       2017  2.45                             165   -0.1610 37.5 332 
 GIR2 SZ ES   2   2017 18.65                             165    0.47 5 37.5 332 
 BRR  HZ IP     C 2017  4.27                             149   -0.3410 83.2 296 
 BRR  HZ I        2017  4.51       125.7 0.32                          83.2 296 
 BRR  HN ES   1   2017 21.59                             149   -0.16 7 83.2 296 
 RUS  HZ EP       2017  6.43                             144    0.1110 98.2 183 
 RUS  HN ES   1   2017 24.76                             144   -0.03 7 98.2 183 
 RUS  HZ I        2017 25.81        33.0 0.24                          98.2 183 
 BRI  SZ IP       2017  6.95                             142    0.4510  107  14 
 BRI  SZ ES   2   2017 26.07                             142    0.96 5  107  14 
 GRA  SZ IP       2017  7.42                             137   -0.4710  125  12 
 GRA  SZ I        2017  8.58        81.0 0.32                           125  12 
 GRA  SZ ES   3   2017 27.33                             137   -0.26 2  125  12 
 OCA  SZ EP       2017 10.77                             129   -0.65 9  164 349 
 OCA  SZ ES   1   2017 34.29                             129    0.43 7  164 349 
 OCA  SZ I        2017 37.07        64.4 0.23                           164 349 
 CHI  HZ EP       2017 20.55                             117    0.01 8  250 198 
 CHI  HZ I        2017 58.56        12.9 0.68                           250 198 
 HEL  HZ EP       2017 24.38                             114    0.20 7  284 257 
 HEL  HN ES   1   2017 55.88                             114   -0.70 6  284 257 
 RREF HZ EP       2017 30.39                             110    0.64 7  330 231 
 RREF HN ES   1   2018  6.94                             110    0.45 5  330 231 
 RREF HZ I        2018 17.55        16.9 0.32                           330 231 
 TOL  SZ EP       2017 32.14                             109    0.37 6  351 226 
 SDV  BZ EP       2017 31.73                             109   -0.07 6  352  49 
 PRA  HZ EP       2017 36.60                             106   -0.10 6  396 211 
 PRA  HN ES   1   2018 18.61                             106   -0.26 4  396 211 
 SJA  SZ EP   3   2017 36.10                             106   -1.22 1  401 195 
                                                                                
