 2017  4 9 2229 37.0 L   6.941 -73.294140.3  RSN  5 0.2 1.3LRSN                1
 GAP=165        0.49       3.1     2.7  4.3 -0.2679E+01  0.3550E+01 -0.1344E+01E
 Epicentro: BETULIA - SANTANDER                                                3
 ACTION:UPD 17-05-30 21:10 OP:jn   STATUS:               ID:20170409222937 L   I
 OLDACT:UP  17-04-10 04:39 OP:dnl  STATUS:               ID:20170409222745     3
 OLDACT:UP  17-04-10 04:39 OP:dnl  STATUS:               ID:20170409222745     3
 OLDACT:UP  17-04-10 04:39 OP:dnl  STATUS:               ID:20170409222745     3
 OLDACT:REG 17-04-10 04:05 OP:dnl  STATUS:               ID:20170409222745     3
 2017-04-09-2228-00M.COL___377                                                 6
 STAT SP IPHASW D HRMM SECON CODA AMPLIT PERI AZIMU VELO AIN AR TRES W  DIS CAZ7
 BAR2 EZ EP   2   2229 56.30                             163   -0.16 5 40.4 162 
 BAR2 EZ ES       2230 11.46                             163   -0.1710 40.4 162 
 BAR2 EZ I        2230 13.17         5.0 0.16            171           40.4 162 
 BRR  HZ EP   4   2229 57.73                             159    1.26 0 49.7 292 
 BRR  HZ I        2230 12.34         6.2 0.34            149           49.7 292 
 BRR  HE ES   4   2230 14.95                             159    3.29 0 49.7 292 
 PAM  EZ EP       2229 58.57                             149   -0.1810 79.1  56 
 PAM  EE ES       2230 15.89                             149    0.1910 79.1  56 
 PAM  EZ I        2230 16.70         3.0 0.40            145           79.1  56 
 RUS  HZ EP       2230  1.49                             138   -0.1110  118 169 
 RUS  HN ES       2230 20.95                             138    0.1710  118 169 
 PTB  HZ EP       2230  2.71                             133    0.25 9  136 251 
 PTB  HE ES       2230 22.23                             133   -0.09 9  136 251 
 PTB  HZ I        2230 24.85         2.1 0.22            128            136 251 
                                                                                
