 2011 12 9 2358  7.3 L   6.760 -73.149139.8  RSN 13 0.5 2.6LRSN                1
 GAP=115        0.99       4.4     5.7  7.0 -0.9082E+01  0.8598E+01  0.5310E+01E
 Epicentro: LOS SANTOS - SANTANDER                                             3
 ACTION:UPD 12-07-13 16:15 OP:ep   STATUS:               ID:20111209235807 L   I
 2011-12-09-2350-00M.COL___186                                                 6
 STAT SP IPHASW D HRMM SECON CODA AMPLIT PERI AZIMU VELO AIN AR TRES W  DIS CAZ7
 BAR2 SZ IP       2358 26.23                             172    0.1510 19.0 191 
 BAR2 SZ I        2358 26.36       133.6 0.40                          19.0 191 
 BAR2 SZ ES   1   2358 40.14                             172   -0.63 7 19.0 191 
 GIR2 SZ IP       2358 26.36                             165    0.0210 35.6 352 
 BRR  HZ IP     C 2358 28.18                             151    0.3110 73.1 302 
 BRR  HZ I        2358 28.52       189.3 0.32                          73.1 302 
 BRR  HN ES   1   2358 45.11                             151    1.16 7 73.1 302 
 PAM  SZ IP       2358 29.08                             149    0.0210 81.0  38 
 PAM  SN ES   1   2358 45.91                             149   -0.17 7 81.0  38 
 RUS  HZ EP       2358 30.13                             144    0.0310 96.2 176 
 RUS  HE ES   1   2358 48.45                             144    0.52 7 96.2 176 
 RUS  HZ I        2358 49.80        42.3 0.34                          96.2 176 
 BRI  SZ EP       2358 30.92                             139    0.0110  113  20 
 BRI  SZ ES   1   2358 48.50                             139   -0.87 7  113  20 
 PTB  HZ EP       2358 32.88                             131   -0.76 9  147 260 
 PTB  HE ES   2   2358 53.93                             131   -0.29 5  147 260 
 PTB  HZ I        2358 56.27        50.5 0.24                           147 260 
 OCA  SZ ES   2   2358 58.22                             128    0.65 5  165 353 
 OCA  SZ I        2359  1.42        54.2 0.57                           165 353 
 YOP  SN ES   3   2358 59.39                             126    0.08 2  175 153 
 NOR  SZ EP       2358 42.82                             118    0.48 8  232 235 
 NOR  SN ES   1   2359  8.83                             118   -0.88 6  232 235 
 CHI  HZ EP   2   2358 44.26                             116    0.11 4  244 195 
 CHI  HN ES   3   2359 12.98                             116    0.04 2  244 195 
 CHI  HZ I        2359 23.70         8.2 0.50                           244 195 
 RREF HZ EP   2   2358 52.88                             110    0.09 3  319 230 
 RREF HZ I        2359 34.28        14.8 0.34                           319 230 
 PRA  HZ EP       2359  0.16                             106    0.05 6  388 210 
                                                                                
