 2012  3 9 2118 52.2 L   6.813 -73.185139.5  RSN 12 0.3 2.6LRSN                1
 GAP=110        0.83       4.1     4.0  6.3  0.3191E+01  0.9120E+01  0.5510E+01E
 ACTION:UP  12-03-31 23:18 OP:EP   STATUS:               ID:20120309211852 L   I
 2012-03-09-2117-59S.COL___194                                                 6
 STAT SP IPHASW D HRMM SECON CODA AMPLIT PERI AZIMU VELO SNR AR TRES W  DIS CAZ7
 BAR2 SZ IP       2119 11.08                             170     0.010   24 179 
 BAR2 SZ ES   1   2119 25.64                             170    -0.2 7   24 179 
 BAR2 SZ I        2119 27.18        98.2 0.34                            24 179 
 BRR  HZ EP       2119 12.81                             153     0.410   67 299 
 BRR  HZ I        2119 31.70       115.4 0.20                            67 299 
 PAM  SZ EP   1   2119 13.77                             149    -0.1 7   79  43 
 PAM  SZ I        2119 14.08       101.2 0.15                            79  43 
 PAM  SE ES   1   2119 30.66                             149    -0.1 7   79  43 
 RUS  HZ EP       2119 15.16                             142    -0.310  102 174 
 RUS  HE ES   1   2119 33.93                             142     0.3 7  102 174 
 RUS  HZ I        2119 35.73        64.2 0.32                           102 174 
 PTB  HZ EP   1   2119 17.73                             131    -0.6 7  144 258 
 PTB  HE ES   1   2119 38.38                             131    -0.3 7  144 258 
 PTB  HZ I        2119 41.70        44.5 0.14                           144 258 
 YOP  SZ EP   1   2119 21.98                             124    -0.2 7  182 152 
 YOP  SZ I        2119 22.28        24.0 0.17                           182 152 
 YOP  SE ES   1   2119 46.11                             124     0.6 7  182 152 
 ZAR  HZ EP   1   2119 23.43                             122    -0.3 6  199 292 
 ZAR  HN ES   1   2119 49.00                             122     0.6 6  199 292 
 ZAR  HZ I        2119 54.68        66.2 0.28                           199 292 
 NOR  SZ EP   1   2119 27.50                             117     0.2 6  232 234 
 NOR  SN ES   1   2119 54.35                             117    -0.3 6  232 234 
 CHI  HZ EP   1   2119 29.49                             116    -0.1 6  249 194 
 CHI  HZ I        2120  6.73        22.2 0.39                           249 194 
 HEL  HZ EP   1   2119 32.29                             114     0.6 6  268 255 
 HEL  HZ I        2120 10.69        23.9 0.36                           268 255 
 RREF HZ EP   1   2119 37.97                             110     0.2 5  319 229 
 RREF HZ I        2120 23.30        25.2 0.32                           319 229 
 PRA  HZ EP   1   2119 45.23                             105    -0.2 4  391 209 
                                                                                
