 2013  3 9 2058 26.3 L   7.613 -73.181 22.4  RSN  4 0.3 0.9LRSN                1
 GAP=147        0.64       6.9    13.6 12.5  0.8665E+02  0.1624E+03  0.7622E+02E
 Epicentro: EL PLAYON - SANTANDER                                              3
 ACTION:UPD 13-04-09 14:01 OP:ep   STATUS:               ID:20130309205826 L   I
 2013-03-09-2050-00M.COL___231                                                 6
 STAT SP IPHASW D HRMM SECON CODA AMPLIT PERI AZIMU VELO AIN AR TRES W  DIS CAZ7
 PAM  SZ EP   1   2058 36.72                             109   -0.45 7 61.2 120 
 PAM  SN ES   1   2058 45.88                             109    0.25 7 61.2 120 
 PAM  SZ I        2058 46.41         5.1 0.14            130           61.2 120 
 OCA  HE ES   2   2058 47.47                             105    0.00 5 70.8 348 
 SML  HE ES   1   2059  9.36                              56    0.01 7  164 323 
 SML  HN ES   1   2059  9.82                              56            164 323 
 RUS  HZ EP   1   2058 54.97                              56    0.54 7  191 177 
 RUS  HN ES   1   2059 16.05                              56   -0.29 7  191 177 
 RUS  HZ I        2059 21.70         1.2 0.34             98            191 177 
                                                                                
