 2013 10 9 2210 18.3 L   6.527 -73.593102.9  RSN  8 0.6 2.0LRSN                1
 GAP= 92        1.42       4.6     4.9  9.5  0.2045E+01  0.2187E+02  0.8925E+01E
 Epicentro: EL CARMEN DE CHUCURI - SANTANDER                                   3
 ACTION:UPD 13-11-25 09:20 OP:ep   STATUS:               ID:20131009221018 L   I
 OLDACT:REG 13-10-10 01:05 OP:stll STATUS:               ID:20131009220846     3
 2013-10-09-2208-46M.COL___233                                                 6
 STAT SP IPHASW D HRMM SECON CODA AMPLIT PERI AZIMU VELO AIN AR TRES W  DIS CAZ7
 BAR2 SZ IP     C 2210 33.60                             154   -0.1110 46.0  81 
 BAR2 SZ I        2210 33.84        81.2 0.36            161           46.0  81 
 BAR2 SZ ES       2210 46.24                             154    0.4810 46.0  81 
 BRR  HZ EP       2210 34.41                             145   -0.1710 65.5 348 
 BRR  HN ES       2210 47.48                             145    0.1810 65.5 348 
 RUS  HZ EP       2210 36.69                             136   -0.4910 90.0 141 
 RUS  HN ES       2210 51.75                             136   -0.1810 90.0 141 
 PTB  HZ IP     C 2210 36.41                             133   -0.5910 95.5 271 
 PTB  HN ES       2210 50.56                             133   -1.0610 95.5 271 
 PTB  HZ I        2210 52.71        22.1 0.16            134           95.5 271 
 SPBC HZ EP       2210 38.59                             129    0.1310  110 209 
 SPBC HN ES       2210 54.92                             129    0.7110  110 209 
 SPBC HZ I        2211  1.60        15.1 0.26            130            110 209 
 ZAR  HZ EP       2210 45.29                             115    0.11 9  176 307 
 ZAR  HN ES       2211  6.95                             115    0.78 9  176 307 
 ZAR  HZ I        2211 11.91        11.2 0.36            117            176 307 
 NOR  HZ EP       2210 44.70                             115   -0.65 9  177 233 
 NOR  HN ES       2211  6.77                             115    0.30 9  177 233 
 NOR  HZ I        2211 10.54        15.9 0.16            117            177 233 
 GUY2CHZ EP       2210 54.69                             107    1.23 8  243 234 
 GUY2CHN ES       2211 20.77                             107   -0.15 8  243 234 
 GUY2CHZ I        2211 28.06         4.2 0.32                           243 234 
                                                                                
