 2017 10 9 2350 29.6 L   6.795 -73.146138.0  RSN  9 0.4 1.6LRSN                1
 GAP=112        0.77       2.8     3.1  5.0  0.7074E-01  0.5252E+01  0.2067E+01E
 Epicentro: LOS SANTOS - SANTANDER                                             3
 ACTION:UPD 17-11-07 19:30 OP:rebc STATUS:               ID:20171009235029 L   I
 OLDACT:DUP 17-10-10 06:56 OP:dhb  STATUS:               ID:20171009234118d    3
 2017-10-09-2348-00M.COL___425                                                 6
 STAT SP IPHASW D HRMM SECON CODA AMPLIT PERI AZIMU VELO AIN AR TRES W  DIS CAZ7
 BAR2 EZ EP   1   2350 48.09                             170   -0.16 7 22.7 190 
 BAR2 EZ ES       2351  2.85                             170    0.0310 22.7 190 
 BAR2 EZ I        2351  5.88        10.1 0.27            170           22.7 190 
 PAM  EZ IP     D 2350 51.14                             149    0.1510 77.9  39 
 PAM  EE ES       2351  7.65                             149   -0.0510 77.9  39 
 PAM  EZ I        2351 12.29         2.0 0.20            153           77.9  39 
 RUS  HZ EP       2350 52.28                             143   -0.2410  100 176 
 RUS  HN ES       2351 11.08                             143    0.6610  100 176 
 RUS  HZ I        2351 12.17         3.5 0.24            145            100 176 
 SPBC HZ EP       2350 56.99                             128   -0.44 9  163 219 
 SPBC HE ES       2351 19.23                             128    0.06 9  163 219 
 SPBC HZ I        2351 24.99         8.4 0.17            129            163 219 
 YPLC HZ EP       2350 58.53                             125   -0.23 9  176 151 
 YPLC HN ES       2351 21.27                             125   -0.26 9  176 151 
 YPLC HZ I        2351 23.49         3.6 0.24            129            176 151 
 ZAR  HZ EP       2351  2.03                             121    0.50 9  204 292 
 ZAR  HE ES       2351 26.30                             121   -0.17 9  204 292 
 ZAR  HZ I        2351 31.44         5.6 0.29            123            204 292 
 NOR  HE ES       2351 31.92                             117   -0.39 8  234 235 
 NOR  HZ I        2351 35.00         1.7 0.20            119            234 235 
 GUY2CHZ EP   3   2351 14.42                             111    1.64 2  301 235 
 GUY2CHE ES   4   2351 50.83                             111    4.34 0  301 235 
 GUY2CHZ I        2351 54.47         2.1 0.60                           301 235 
 PRA  HZ EP       2351 22.94                             105    0.18 6  391 210 
 PRA  HE ES       2352  4.69                             105    0.43 6  391 210 
 PRA  HZ I        2352 10.32         2.7 0.42            107            391 210 
                                                                                
