 2017 10 9 2119 33.6 L   6.838 -73.150136.3  RSN  4 0.3 1.0LRSN                1
 GAP=168        0.86       5.9     7.7  7.5 -0.2831E+02  0.2822E+02 -0.7699E+01E
 Epicentro: LOS SANTOS - SANTANDER                                             3
 ACTION:UPD 17-11-07 19:30 OP:rebc STATUS:               ID:20171009211933 L   I
 OLDACT:REG 17-10-10 02:50 OP:dhb  STATUS:               ID:20171009211249     3
 2017-10-09-2118-00M.COL___429                                                 6
 STAT SP IPHASW D HRMM SECON CODA AMPLIT PERI AZIMU VELO AIN AR TRES W  DIS CAZ7
 BAR2 EZ EP   1   2119 52.07                             168   -0.08 7 27.4 187 
 BAR2 EZ ES       2120  6.13                             168   -0.5210 27.4 187 
 BAR2 EZ I        2120 11.08         1.3 0.06            167           27.4 187 
 PAM  EZ EP       2119 54.68                             150    0.0710 74.5  42 
 PAM  EN ES       2120 11.31                             150    0.2910 74.5  42 
 PAM  EZ I        2120 11.74         2.3 0.28            156           74.5  42 
 RUS  HZ EP       2119 56.29                             140   -0.4310  105 176 
 RUS  HN ES       2120 15.24                             140    0.4610  105 176 
 RUS  HZ I        2120 16.92         1.6 0.30            144            105 176 
 NOR  HZ EP       2120  8.97                             116   -0.02 8  237 234 
 NOR  HE ES       2120 36.91                             116    0.29 8  237 234 
 NOR  HZ I        2120 41.02         1.7 0.36            118            237 234 
                                                                                
