 2010  1 9 2252 51.6 L   6.832 -73.145140.6  RSN  5 0.2 1.4LRSN                1
 GAP=187        0.34       3.6     8.0  6.5  0.1207E+02  0.2303E+02 -0.7936E+00E
 Epicentro: LOS SANTOS - SANTANDER                                             3
 ACTION:UP  10-08-24 09:43 OP:vdl  STATUS:               ID:20100109225251 L   I
 2010-01-09-2248-42S.COL___097                                                 6
 STAT SP IPHASW D HRMM SECON CODA AMPLIT PERI AZIMU VELO SNR AR TRES W  DIS CAZ7
 BAR2 SZ EP   2   2253 10.71                             169     0.0 5   27 189 
 BAR2 SZ ES   2   2253 25.72                             169     0.1 5   27 189 
 GIR2 SZ EP   2   2253 10.79                             168     0.2 5   28 349 
 RUS  BZ EP   2   2253 15.13                             142     0.0 5  104 176 
 RUS  BN ES   1   2253 33.29                             142    -0.2 7  104 176 
 RUS  BZ I        2253 34.03         4.0 0.34                           104 176 
 CHI  HZ EP   3   2253 29.12                             116    -0.3 2  252 195 
 CHI  HN ES   2   2253 59.16                             116     0.3 4  252 195 
 CHI  HZ I        2254  4.08         1.7 0.38                           252 195 
 MON  HN ES   2   2254 17.85                             108    -0.1 3  351 308 
                                                                                
