 2011  7 9 2250 37.7 L   6.833 -72.953134.0  RSN  4 0.3 1.2LRSN                1
 GAP=178        0.52       5.5    10.4  8.4  0.4000E+02 -0.5135E+02 -0.2274E+02E
 Epicentro: CEPITA - SANTANDER                                                 3
 ACTION:UPD 12-07-25 13:59 OP:epov STATUS:               ID:20110709225037 L   I
 2011-07-09-2240-00M.COL___130                                                 6
 STAT SP IPHASW D HRMM SECON CODA AMPLIT PERI AZIMU VELO AIN AR TRES W  DIS CAZ7
 BAR2 SZ ES   2   2251 10.21                             164   -0.58 5 36.7 224 
 BRR  HZ EP       2250 58.65                             144   -0.1210 89.1 290 
 BRR  HN ES   1   2251 15.41                             144    0.20 7 89.1 290 
 BRI  SZ EP   2   2251  0.08                             141    0.31 5 99.2  10 
 RUS  HZ EP       2251  0.60                             140   -0.0510  105 188 
 RUS  HN ES   1   2251 18.79                             140    0.24 7  105 188 
 RUS  HZ I        2251 20.03         2.7 0.38                           105 188 
                                                                                
