 2010  8 9 2153 35.7 L   6.725 -73.110151.4  RSN  5 0.5 1.8LRSN                1
 GAP=194        1.19      12.8    14.2 11.7  0.1651E+01 -0.5372E+02 -0.5168E+02E
 Epicentro: JORDAN - SANTANDER                                                 3
 ACTION:UP  10-09-07 10:53 OP:vdl  STATUS:               ID:20100809215335 L   I
 2010-08-09-2150-29S.COL___125                                                 6
 STAT SP IPHASW D HRMM SECON CODA AMPLIT PERI AZIMU VELO SNR AR TRES W  DIS CAZ7
 BAR2 SZ EP   1   2153 55.86                             173     0.0 7   17 209 
 BAR2 SZ ES       2154 11.34                             173    -0.310   17 209 
 BAR2 SZ I        2154 12.39        26.6 0.27                            17 209 
 GIR2 SZ EP   1   2153 57.06                             165     0.8 7   40 347 
 GIR2 SZ ES   2   2154 13.17                             165     0.8 5   40 347 
 BRR  HZ IP     C 2153 57.75                             151    -0.110   79 302 
 BRR  HZ I        2153 58.01        26.4 0.13                            79 302 
 BRR  HE ES       2154 15.16                             151     0.010   79 302 
 GUE  SZ EP   1   2154  0.66                             139    -0.8 7  124  10 
 GUE  SZ I        2154 22.82         2.4 0.18                           124  10 
 GRA  SZ EP   1   2154  2.67                             137     0.7 7  133  15 
 GRA  SZ ES   2   2154 22.10                             137    -0.4 5  133  15 
 GRA  SZ I        2154 28.55         4.2 0.10                           133  15 
                                                                                
