 2016  9 9 2220 19.3 L   6.782 -73.167147.5  RSN  7 0.4 1.7LRSN                1
 GAP=135        0.95       4.1     4.1  6.4 -0.8662E+00  0.5029E+01  0.2178E+01E
 Epicentro: LOS SANTOS - SANTANDER                                             3
 ACTION:UPD 17-08-17 21:08 OP:lp   STATUS:               ID:20160909222019 L   I
 OLDACT:DUP 16-09-10 03:18 OP:drio STATUS:               ID:20160909221744d    3
 2016-09-09-2218-00M.COL___348                                                 6
 STAT SP IPHASW D HRMM SECON CODA AMPLIT PERI AZIMU VELO AIN AR TRES W  DIS CAZ7
 BAR2 EZ EP       2220 38.99                             171   -0.1010 21.1 185 
 BAR2 EZ ES       2220 54.29                             171   -0.2410 21.1 185 
 BAR2 EZ I        2220 55.51        15.9 0.22            171           21.1 185 
 BRR  HZ EP       2220 40.79                             153    0.2210 70.1 301 
 BRR  HN ES       2220 57.89                             153    0.7210 70.1 301 
 BRR  HZ I        2221  1.14        19.6 0.34            152           70.1 301 
 PAM  EZ EP       2220 41.88                             150    0.0110 80.4  40 
 PAM  EE ES       2220 59.22                             150   -0.2710 80.4  40 
 PAM  EZ I        2220 59.66         6.1 0.18            154           80.4  40 
 RUS  HZ EP       2220 42.94                             145   -0.1510 98.8 175 
 RUS  HE ES       2221  1.86                             145    0.2110 98.8 175 
 RUS  HZ I        2221  2.63         2.9 0.18            147           98.8 175 
 PTB  HZ EP       2220 45.88                             133   -0.28 9  145 259 
 PTB  HE ES       2221  6.34                             133   -0.78 9  145 259 
 PTB  HZ I        2221 13.51         8.7 0.80            133            145 259 
 SPBC HZ EP       2220 48.10                             130    0.46 9  160 219 
 SPBC HE ES       2221  9.89                             130    0.13 9  160 219 
 SPBC HZ I        2221 11.95         8.5 0.10            131            160 219 
 ZAR  HE ES       2221 17.06                             123    0.07 9  203 293 
                                                                                
