 2016 11 9 2204 17.8 L   6.478 -73.789 24.8  RSN  5 0.5 1.3LRSN                1
 GAP=196        1.29       5.9     2.8  5.0 -0.2459E+01  0.1519E+01 -0.7103E+01E
 Epicentro: SANTA HELENA DEL OPON - SANTANDER                                  3
 ACTION:UPD 17-10-26 21:06 OP:lp   STATUS:               ID:20161109220417 L   I
 OLDACT:UP  16-11-10 06:50 OP:dani STATUS:               ID:20161109215748     3
 OLDACT:REG 16-11-10 05:20 OP:dani STATUS:               ID:20161109215748     3
 2016-11-09-2158-00M.COL___349                                                 6
 STAT SP IPHASW D HRMM SECON CODA AMPLIT PERI AZIMU VELO AIN AR TRES W  DIS CAZ7
 BAR2 EZ EP       22 4 29.49                             108   -0.0010 68.3  79 
 BAR2 EZ ES       22 4 37.98                             108   -0.6310 68.3  79 
 BRR  HZ EP       22 4 29.49                             107   -0.0010 70.1   7 
 BRR  HN ES       22 4 38.81                             107    0.2010 70.1   7 
 BRR  HZ I        22 4 39.62        18.8 0.10             98           70.1   7 
 PTB  HZ EP       22 4 30.27                             107    0.1710 74.1 275 
 PTB  HN ES       22 4 39.93                             107    0.2410 74.1 275 
 PTB  HZ I        22 4 41.17        10.4 0.20             96           74.1 275 
 PAM  EN ES       22 4 59.95                              56    0.76 9  154  52 
 ZAR  HZ EP       22 4 42.01                              56    0.37 9  163 314 
 ZAR  HN ES       22 4 59.13                              56   -1.11 9  163 314 
 ZAR  HZ I        22 5  0.90         1.8 0.33             61            163 314 
                                                                                
