 2013  7 9 2016 38.5 L   6.777 -73.178143.0  RSN  7 0.4 1.7LRSN                1
 GAP=134        0.85       4.7     4.1  6.2 -0.4857E+01  0.6927E+01  0.6542E+01E
 Epicentro: LOS SANTOS - SANTANDER                                             3
 ACTION:UPD 13-08-12 10:36 OP:ep   STATUS:               ID:20130709201638 L   I
 OLDACT:REG 13-07-09 21:16 OP:jn   STATUS:               ID:20130709200959     3
 2013-07-09-2009-59M.COL___267                                                 6
 STAT SP IPHASW D HRMM SECON CODA AMPLIT PERI AZIMU VELO AIN AR TRES W  DIS CAZ7
 BAR2 SZ EP       2016 57.72                             171   -0.0210 20.5 181 
 BAR2 SZ ES   1   2017 12.45                             171   -0.30 7 20.5 181 
 BAR2 SZ I        2017 13.86        10.2 0.16            170           20.5 181 
 GIR2 SZ EP       2016 57.83                             166   -0.0710 33.4 357 
 GIR2 SZ ES       2017 13.46                             166    0.4310 33.4 357 
 PAM  SZ EP       2017  0.66                             149   -0.0210 81.6  40 
 PAM  SN ES       2017 17.75                             149   -0.2310 81.6  40 
 PAM  SZ I        2017 19.22         7.1 0.40            153           81.6  40 
 RUS  HZ EP       2017  1.72                             144   -0.1010 98.4 174 
 RUS  HN ES   1   2017 20.48                             144    0.47 7 98.4 174 
 RUS  HZ I        2017 21.29         6.1 0.32            146           98.4 174 
 PTB  HZ EP       2017  4.46                             132   -0.43 9  144 260 
 PTB  HN ES       2017 25.02                             132   -0.44 9  144 260 
 PTB  HZ I        2017 30.41         7.3 0.18            131            144 260 
 ZAR  HE ES   1   2017 36.20                             122    0.69 6  202 293 
 ZAR  HZ I        2017 42.13         9.5 0.42            122            202 293 
 NOR  HZ EP       2017 14.28                             118    0.67 8  230 234 
 NOR  HN ES   1   2017 40.88                             118   -0.10 6  230 234 
 NOR  HZ I        2017 47.97         6.1 0.22            119            230 234 
                                                                                
