 2014  1 9 2036 58.9 L   6.771 -73.180148.3  RSN  6 0.4 1.9LRSN                1
 GAP=134        0.83       4.7     4.2  7.0  0.1477E+01  0.3622E+01 -0.2836E+01E
 Epicentro: LOS SANTOS - SANTANDER                                             3
 ACTION:UPD 14-03-13 09:53 OP:ep   STATUS:               ID:20140109203658 L   I
 OLDACT:REG 14-01-10 03:52 OP:mh   STATUS:               ID:20140109203543     3
 2014-01-09-2035-43M.COL___246                                                 6
 STAT SP IPHASW D HRMM SECON CODA AMPLIT PERI AZIMU VELO AIN AR TRES W  DIS CAZ7
 BAR2 SZ EP   1   2037 18.87                             172    0.15 7 19.8 181 
 BAR2 SZ ES   1   2037 34.37                             172    0.15 7 19.8 181 
 BAR2 SZ I        2037 35.65        27.1 0.28            172           19.8 181 
 BRR  HZ EP       2037 20.56                             153    0.3810 69.5 302 
 BRR  HN ES   1   2037 36.88                             153    0.06 7 69.5 302 
 BRR  HZ I        2037 41.01        14.6 0.16            151           69.5 302 
 PAM  SZ EP       2037 21.72                             150    0.0910 82.3  40 
 PAM  SN ES   1   2037 38.82                             150   -0.58 7 82.3  40 
 PAM  SZ I        2037 41.09        16.8 0.20            154           82.3  40 
 RUS  HZ EP       2037 22.81                             145    0.1610 97.7 174 
 RUS  HN ES       2037 41.28                             145    0.0610 97.7 174 
 RUS  HZ I        2037 43.15         7.0 0.36            149           97.7 174 
 PTB  HZ EP       2037 25.04                             133   -0.60 9  143 260 
 PTB  HN ES       2037 46.18                             133   -0.36 9  143 260 
 PTB  HZ I        2037 52.78        15.1 0.23            133            143 260 
 ZAR  HZ EP   4   2037 34.21                             123    2.98 0  202 293 
 ZAR  HN ES   1   2037 57.17                             123    0.68 6  202 293 
 ZAR  HZ I        2038  3.35         9.2 0.12            124            202 293 
                                                                                
