 2017  8 9 2002 40.2 L   6.819 -73.155148.0  RSN  6 0.2 1.6LRSN                1
 GAP=134        0.54       2.6     2.6  4.1  0.2999E-01  0.2707E+01  0.6163E+00E
 Epicentro: LOS SANTOS - SANTANDER                                             3
 ACTION:UPD 17-09-04 20:18 OP:rebc STATUS:               ID:20170809200240 L   I
 OLDACT:UP  17-08-10 03:46 OP:edw  STATUS:               ID:20170809194800     3
 OLDACT:UP  17-08-10 03:44 OP:edw  STATUS:               ID:20170809194800     3
 OLDACT:REG 17-08-10 02:50 OP:edw  STATUS:               ID:20170809194800     3
 2017-08-09-1958-00M.COL___396                                                 6
 STAT SP IPHASW D HRMM SECON CODA AMPLIT PERI AZIMU VELO AIN AR TRES W  DIS CAZ7
 BAR2 EZ EP       20 2 59.96                             170   -0.1710 25.3 187 
 BAR2 EZ ES       20 3 15.77                             170    0.0910 25.3 187 
 BAR2 EZ I        20 3 18.27         9.8 0.48            169           25.3 187 
 BRR  HZ EP       20 3  1.97                             153    0.4910 69.3 297 
 BRR  HN ES       20 3 17.90                             153   -0.1810 69.3 297 
 PAM  EZ EP     C 20 3  2.62                             151    0.0310 76.4  41 
 PAM  EE ES       20 3 19.93                             151   -0.1310 76.4  41 
 PAM  EZ I        20 3 20.06         5.5 0.42            155           76.4  41 
 RUS  HZ EP       20 3  4.37                             143    0.0510  103 176 
 RUS  HN ES       20 3 23.11                             143   -0.0310  103 176 
 RUS  HZ I        20 3 24.73         5.6 0.26            145            103 176 
 ZAR  HZ EP   2   20 3 12.08                             123   -0.52 4  202 292 
 ZAR  HN ES       20 3 37.89                             123    0.01 9  202 292 
 ZAR  HZ I        20 3 44.75         7.1 0.72            123            202 292 
 NOR  HN ES       20 3 44.01                             119   -0.09 8  235 234 
 NOR  HZ I        20 3 47.15         2.4 0.24            119            235 234 
                                                                                
