 2012  6 9 2156 28.1 L   6.774 -73.158142.6  RSN 11 0.2 2.5LRSN                1
 GAP=136        0.52       1.8     2.3  3.5 -0.8046E+00  0.3402E+01  0.6851E+00E
 Epicentro: LOS SANTOS - SANTANDER                                             3
 ACTION:UPD 12-08-06 17:48 OP:ep   STATUS:               ID:20120609215626 L   I
 2012-06-09-2150-00M.COL___201                                                 6
 STAT SP IPHASW D HRMM SECON CODA AMPLIT PERI AZIMU VELO AIN AR TRES W  DIS CAZ7
 BAR2 SZ EP       2156 47.47                             171    0.2110 20.3 188 
 BAR2 SZ ES   1   2157  2.46                             171    0.24 7 20.3 188 
 BAR2 SZ I        2157  5.78        55.9 0.18            170           20.3 188 
 PAM  SZ EP       2156 50.36                             149    0.2210 80.4  39 
 PAM  SE ES       2157  7.46                             149    0.1110 80.4  39 
 RUS  HZ EP       2156 51.33                             144    0.0210 97.8 175 
 RUS  HN ES       2157  9.06                             144   -0.3710 97.8 175 
 PTB  HZ EP       2156 54.36                             132   -0.25 9  146 260 
 PTB  HN ES   1   2157 14.97                             132   -0.34 7  146 260 
 PTB  HZ I        2157 21.38        35.1 0.18            132            146 260 
 OCA  HZ EP   1   2156 56.02                             128   -0.37 7  163 354 
 OCA  HE ES   1   2157 18.12                             128   -0.36 7  163 354 
 OCA  HZ I        2157 22.99        74.4 0.19            131            163 354 
 ZAR  HZ EP   1   2157  0.14                             122   -0.16 6  204 293 
 ZAR  HN ES   1   2157 25.71                             122    0.28 6  204 293 
 ZAR  HZ I        2157 31.94        35.3 0.23            123            204 293 
 NOR  SZ EP       2157  3.33                             118    0.01 8  232 235 
 NOR  SE ES       2157 31.06                             118    0.24 8  232 235 
 CHI  HZ EP       2157  5.36                             117    0.11 8  246 195 
 CHI  HN ES   1   2157 34.29                             117    0.03 6  246 195 
 CHI  HZ I        2157 38.97        12.5 0.40            120            246 195 
 HEL  HZ EP   1   2157  8.15                             114    0.25 6  270 256 
 HEL  HN ES   1   2157 39.12                             114    0.15 6  270 256 
 HEL  HZ I        2157 46.43        14.5 0.27            116            270 256 
 TOL  SZ EP   1   2157 16.19                             109    0.33 5  341 225 
 PRA  HZ EP       2157 20.85                             106   -0.26 6  389 210 
 PRA  HN ES   1   2158  2.42                             106   -0.07 4  389 210 
                                                                                
