 2011  5 9 2312  5.1 L   6.801 -73.089142.0  RSN  6 0.4 1.8LRSN                1
 GAP=144        0.83       4.9     7.6  7.2 -0.9154E+01  0.5877E+00  0.7441E+01E
 Epicentro: LOS SANTOS - SANTANDER                                             3
 ACTION:UP  11-06-29 08:51 OP:tino STATUS:               ID:20110509231205 L   I
 2011-05-09-2300-00M.COL___140                                                 6
 STAT SP IPHASW D HRMM SECON CODA AMPLIT PERI AZIMU VELO SNR AR TRES W  DIS CAZ7
 BTL  SZ EP   1   2312 24.12                             170    -0.2 7   24 303 
 BTL  SZ ES   1   2312 39.70                             170     0.5 7   24 303 
 PAM  SZ EP   1   2312 26.93                             151     0.2 7   74  36 
 PAM  SZ I        2312 27.09         7.0 0.16                            74  36 
 PAM  SN ES   1   2312 43.77                             151     0.2 7   74  36 
 BRR  HZ EP       2312 25.83                             150    -0.310   77 296 
 BRR  HZ I        2312 26.29        20.2 0.12                            77 296 
 BRR  HE ES   1   2312 42.55                             150     0.0 7   77 296 
 RUS  HZ EP   1   2312 28.23                             143    -0.2 7  100 180 
 RUS  HN ES   1   2312 46.33                             143    -0.4 7  100 180 
 RUS  HZ I        2312 47.64         6.5 0.33                           100 180 
 GRA  SZ EP   1   2312 29.79                             137    -0.1 7  124  15 
 GRA  SZ I        2313  3.95         4.3 0.37                           124  15 
 PRA  HZ EP   1   2312 59.42                             106     0.6 4  395 210 
 PRA  HE ES   1   2313 41.85                             106     1.0 4  395 210 
 PRA  HZ I        2313 46.81         9.1 0.20                           395 210 
                                                                                
