 2012  1 9 2216 44.4 L   6.740 -73.163140.0  RSN  6 0.5 1.1LRSN                1
 GAP=137        0.91       9.5     9.8 10.9 -0.2982E+01  0.3419E+02  0.2282E+02E
 Epicentro: VILLANUEVA - SANTANDER                                             3
 ACTION:UP  12-02-03 08:15 OP:REBC STATUS:               ID:20120109221644 L   I
 2012-01-09-2210-00M.COL___186                                                 6
 STAT SP IPHASW D HRMM SECON CODA AMPLIT PERI AZIMU VELO SNR AR TRES W  DIS CAZ7
 BAR2 SZ EP   3   2217  3.31                             173     0.1 2   17 188 
 BAR2 SZ ES   3   2217 16.46                             173    -1.5 2   17 188 
 GIR2 SZ EP       2217  3.45                             165    -0.210   38 355 
 GIR2 SZ ES   2   2217 18.22                             165    -0.3 5   38 355 
 BRR  HZ EP       2217  5.50                             151     0.410   73 304 
 BRR  HZ I        2217 10.24         4.1 0.12                            73 304 
 BRR  HE ES   1   2217 21.64                             151     0.5 7   73 304 
 PAM  SN ES   2   2217 23.33                             149    -0.3 5   84  38 
 RUS  HZ EP   3   2217  7.42                             145     0.3 2   94 175 
 RUS  HN ES   2   2217 25.59                             145     0.7 5   94 175 
 RUS  HZ I        2217 27.37         1.5 0.28                            94 175 
 PTB  HZ EP       2217 10.07                             132    -0.6 9  145 261 
 PTB  HN ES   3   2217 31.02                             132    -0.1 2  145 261 
 PTB  HZ I        2217 32.92         1.3 0.22                           145 261 
                                                                                
