 2015  4 9 2227 50.4 L   6.859 -73.339164.0  RSN  6 0.4 1.9LRSN                1
 GAP=170        0.96       4.1     6.7  8.4 -0.6873E+01  0.2324E+02 -0.5597E+01E
 Epicentro: BETULIA - SANTANDER                                                3
 ACTION:UPD 15-06-03 16:53 OP:cam  STATUS:               ID:20150409222750 L   I
 OLDACT:REG 15-04-10 03:35 OP:fm   STATUS:               ID:20150409221749     3
 2015-04-09-2217-49M.COL___266                                                 6
 STAT SP IPHASW D HRMM SECON CODA AMPLIT PERI AZIMU VELO AIN AR TRES W  DIS CAZ7
 BAR2 EZ EP       2228 12.88                             168    0.4510 34.2 150 
 BAR2 EZ ES       2228 29.72                             168    0.0810 34.2 150 
 BAR2 EZ I        2228 31.04        19.2 0.76            169           34.2 150 
 SPBC HZ EP   1   2228 19.82                             134    0.11 7  156 211 
 SPBC HN ES   1   2228 41.88                             134   -0.71 7  156 211 
 SPBC HZ I        2228 51.86        11.5 0.26            136            156 211 
 ZAR  HE ES   1   2228 47.06                             130    0.53 7  182 293 
 ZAR  HZ I        2229  0.97         5.1 0.18            128            182 293 
 NOR  HZ EP       2228 25.36                             124   -0.54 8  222 230 
 NOR  HN ES       2228 53.15                             124   -0.47 8  222 230 
 NOR  HZ I        2229  1.92         5.1 0.40            125            222 230 
 SML  HZ EP       2228 26.26                             123   -0.34 8  229 339 
 SML  HN ES       2228 54.64                             123   -0.22 8  229 339 
 SML  HZ I        2229  2.95         9.7 0.10            125            229 339 
 GUY2CHZ EP       2228 33.96                             117    0.52 7  288 231 
 GUY2CHE ES       2229  7.64                             117    0.60 7  288 231 
 GUY2CHZ I        2229 21.70         3.7 0.70                           288 231 
                                                                                
