 2015  6 9 2020 20.9 L   6.758 -73.087143.0  RSN 15 0.6 2.2LRSN                1
 GAP=146        1.25       3.2     5.0  6.4 -0.2437E+01  0.1120E+02  0.3569E+01E
 Epicentro: LOS SANTOS - SANTANDER                                             3
 ACTION:UPD 15-09-10 22:11 OP:cam  STATUS:               ID:20150609202020 L   I
 OLDACT:REG 15-06-10 02:25 OP:ar   STATUS:               ID:20150609201750     3
 2015-06-09-2017-50M.COL___309                                                 6
 STAT SP IPHASW D HRMM SECON CODA AMPLIT PERI AZIMU VELO AIN AR TRES W  DIS CAZ7
 BAR2 EZ EP     C 2020 40.28                             171    0.1310 21.2 210 
 BAR2 EZ ES       2020 55.34                             171    0.1810 21.2 210 
 BAR2 EZ I        2020 56.02        36.6 0.42            168           21.2 210 
 PAM  SZ EP       2020 43.35                             150    0.5410 77.2  34 
 PAM  SN ES       2021  0.12                             150    0.2310 77.2  34 
 PAM  SZ I        2021  3.18        15.7 0.38            154           77.2  34 
 BRR  HZ EP       2020 42.69                             149    0.4710 79.1 299 
 BRR  HN ES       2020 59.27                             149    0.4210 79.1 299 
 BRR  HZ I        2021  1.94        19.6 0.14            146           79.1 299 
 RUS  HZ EP       2020 44.35                             145    0.3210 95.7 180 
 RUS  HN ES       2021  1.93                             145   -0.1410 95.7 180 
 RUS  HZ I        2021  3.28        20.1 0.28            146           95.7 180 
 SPBC HZ EP       2020 49.24                             128   -0.01 9  164 222 
 SPBC HN ES       2021 10.59                             128   -0.78 9  164 222 
 SPBC HZ I        2021 18.13        25.5 0.18            128            164 222 
 OCA  HN ES       2021 11.02                             128   -0.81 9  166 351 
 OCA  HZ I        2021 16.16        43.9 0.30            129            166 351 
 ZAR  HN ES       2021 19.37                             121   -0.40 8  212 293 
 ZAR  HZ I        2021 25.13        14.1 0.28            120            212 293 
 NOR  HZ EP       2020 57.12                             118    0.36 8  237 236 
 NOR  HE ES       2021 24.29                             118   -0.45 8  237 236 
 NOR  HZ I        2021 31.00        15.9 0.22            118            237 236 
 CHI  HZ EP       2020 57.31                             117   -0.85 8  246 197 
 CHI  HN ES       2021 26.28                             117   -0.94 8  246 197 
 CHI  HZ I        2021 31.50         6.4 0.82            118            246 197 
 SML  HZ EP       2020 57.41                             116   -0.72 8  251 334 
 SML  HN ES       2021 26.38                             116   -0.78 8  251 334 
 SML  HZ I        2021 34.05        27.9 0.10            117            251 334 
 HEL  HZ EP       2021  2.16                             114    0.60 7  277 257 
 HEL  HN ES       2021 34.33                             114    1.06 7  277 257 
 HEL  HZ I        2021 39.08        10.6 0.46            114            277 257 
 GUY2CHZ EP       2021  5.06                             112    0.37 7  304 236 
 GUY2CHN ES       2021 39.67                             112    0.82 7  304 236 
 GUY2CHZ I        2021 47.50         8.4 0.64                           304 236 
 TOL  SN ES   4   2021 48.98                             109    2.10 0  345 226 
 TOL  SZ I        2021 54.89         6.1 0.30            109            345 226 
 PRA  HZ EP       2021 14.76                             106    0.52 6  391 211 
 PRA  HE ES       2021 55.69                             106   -0.16 6  391 211 
 PRA  HZ I        2022  1.90         5.7 0.34            107            391 211 
 ORTC HZ EP       2021 14.87                             106    0.12 6  396 217 
 ORTC HN ES       2021 56.31                             106   -0.44 6  396 217 
 ORTC HZ I        2022  3.14         5.3 0.20            107            396 217 
                                                                                
