 2017 10 9 2201  7.5 L   6.813 -73.158140.8  RSN 12 0.4 2.0LRSN                1
 GAP=110        0.84       2.8     3.1  5.0 -0.8520E+00  0.5066E+01  0.2117E+01E
 Epicentro: LOS SANTOS - SANTANDER                                             3
 ACTION:UPD 17-11-07 19:30 OP:rebc STATUS:               ID:20171009220107 L   I
 OLDACT:UP  17-10-10 05:48 OP:dhb  STATUS:               ID:20171009215120     3
 OLDACT:REG 17-10-10 02:56 OP:dhb  STATUS:               ID:20171009215120     3
 2017-10-09-2158-00M.COL___423                                                 6
 STAT SP IPHASW D HRMM SECON CODA AMPLIT PERI AZIMU VELO AIN AR TRES W  DIS CAZ7
 BAR2 EZ EP       22 1 26.36                             170   -0.2310 24.6 186 
 BAR2 EZ ES       22 1 41.43                             170   -0.0210 24.6 186 
 BAR2 EZ I        22 1 44.16        28.9 0.36            167           24.6 186 
 PAM  EZ IP     C 22 1 29.26                             150    0.0610 77.1  41 
 PAM  EN ES       22 1 46.49                             150    0.3910 77.1  41 
 PAM  EZ I        22 1 48.65        18.0 0.64            156           77.1  41 
 RUS  HZ IP     D 22 1 30.47                             143   -0.4410  102 175 
 RUS  HN ES       22 1 49.12                             143   -0.0310  102 175 
 RUS  HZ I        22 1 50.33        18.7 0.28            144            102 175 
 SPBC HZ EP       22 1 35.23                             128   -0.45 9  163 218 
 SPBC HN ES       22 1 57.24                             128   -0.39 9  163 218 
 SPBC HZ I        22 2  3.38        22.2 0.20            128            163 218 
 YPLC HZ EP       22 1 36.72                             125   -0.44 9  179 151 
 YPLC HE ES       22 2  0.92                             125    0.64 9  179 151 
 YPLC HZ I        22 2  4.45        10.5 0.48            128            179 151 
 ZAR  HZ EP       22 1 39.51                             122    0.05 9  202 292 
 ZAR  HE ES       22 2  4.58                             122    0.21 9  202 292 
 ZAR  HZ I        22 2 14.15         8.1 0.23            122            202 292 
 NOR  HZ EP       22 1 43.06                             118    0.11 8  234 234 
 NOR  HN ES       22 2 10.40                             118   -0.17 8  234 234 
 NOR  HZ I        22 2 15.57        10.0 0.28            118            234 234 
 CHI  HZ EP       22 1 44.88                             116   -0.19 8  250 195 
 CHI  HE ES       22 2 14.33                             116   -0.03 8  250 195 
 CHI  HZ I        22 2 18.18         4.1 0.34            118            250 195 
 ROSC BZ EP   3   22 1 47.18                             116    1.74 2  253 211 
 ROSC BN ES       22 2 15.33                             116    0.31 8  253 211 
 ROSC BZ I        22 2 22.62         7.6 0.40            117            253 211 
 GUY2CHZ EP   9   22 1 52.08                             112    1.20 0  301 234 
 GUY2CHE ES       22 2 26.22                                    0.33 7  301 234 
 GUY2CHZ I        22 2 33.04         5.0 0.26                           301 234 
 ELA  HZ EP   4   22 1 58.54                             110    4.38 0  329 229 
 ELA  HE ES       22 2 31.27                             110    0.73 7  329 229 
 ELA  HZ I        22 2 38.11         4.4 0.36            111            329 229 
 PRA  HZ EP       22 2  1.08                             106    0.13 6  393 209 
 PRA  HE ES   2   22 2 44.47                             106    1.85 3  393 209 
 PRA  HZ I        22 2 49.26         4.0 0.64            107            393 209 
                                                                                
