 2012  7 9 2226 36.2 L   6.464 -73.600110.7  RSN  5 0.4 1.6LRSN                1
 GAP=137        0.89       6.8     5.7 10.9  0.2097E+02  0.2188E+02  0.1403E+02E
 Epicentro: SANTA HELENA DEL OPON - SANTANDER                                  3
 ACTION:UPD 12-08-14 11:43 OP:ep   STATUS:               ID:20120709222636 L   I
 2012-07-09-2220-00M.COL___201                                                 6
 STAT SP IPHASW D HRMM SECON CODA AMPLIT PERI AZIMU VELO AIN AR TRES W  DIS CAZ7
 BAR2 SZ EP   1   2226 52.41                             155    -0.2 7   48  73 
 BAR2 SZ ES   1   2227  4.94                             155    -0.5 7   48  73 
 BRR  HZ EP   1   2226 53.58                             144    -0.2 7   72 350 
 BRR  HN ES   1   2227  7.92                             144     0.4 7   72 350 
 BRR  HZ I        2227 13.58        16.6 0.13            142             72 350 
 RUS  HZ EP   1   2226 55.40                             140    -0.1 7   85 138 
 RUS  HZ I        2226 56.94         5.1 0.11            144             85 138 
 RUS  HN ES   1   2227 11.09                             140     0.6 7   85 138 
 PTB  HZ EP   1   2226 55.57                             136     0.0 7   95 275 
 PTB  HN ES   1   2227 10.29                             136    -0.4 7   95 275 
 PTB  HZ I        2227 11.45        13.2 0.15            140             95 275 
 ZAR  HE ES   1   2227 26.05                             117     0.5 7  180 309 
