 2011 12 9 2351 51.6 L   6.794 -73.165144.1  RSN  6 0.3 1.3LRSN                1
 GAP=134        0.66       5.2     5.2  7.8 -0.1852E+01  0.6372E+01  0.1394E+02E
 Epicentro: LOS SANTOS - SANTANDER                                             3
 ACTION:UPD 12-07-13 16:15 OP:ep   STATUS:               ID:20111209235151 L   I
 2011-12-09-2350-00M.COL___186                                                 6
 STAT SP IPHASW D HRMM SECON CODA AMPLIT PERI AZIMU VELO AIN AR TRES W  DIS CAZ7
 BAR2 SZ EP       2352 10.89                             171   -0.0910 22.4 185 
 BAR2 SZ I        2352 26.90         5.7 0.28                          22.4 185 
 GIR2 SZ EP       2352 11.04                             167   -0.0110 31.6 354 
 BRR  HZ EP       2352 12.75                             153    0.3010 69.7 300 
 BRR  HE ES   1   2352 29.00                             153    0.26 7 69.7 300 
 PAM  SZ EP       2352 13.87                             150    0.1510 79.2  40 
 PAM  SE ES   1   2352 30.56                             150   -0.43 7 79.2  40 
 RUS  HZ EP       2352 15.31                             144    0.1910  100 175 
 RUS  HZ I        2352 16.17         2.1 0.14                           100 175 
 RUS  HN ES   2   2352 33.43                             144   -0.06 5  100 175 
 PTB  HZ EP       2352 17.72                             132   -0.48 9  146 259 
 PTB  HZ I        2352 45.60         2.4 0.42                           146 259 
                                                                                
