 2012 11 9 2123 50.3 L   6.788 -73.183142.4  RSN  8 0.3 2.2LRSN                1
 GAP=132        0.85       3.1     3.7  5.8 -0.1885E+00  0.7298E+01  0.4419E+00E
 Epicentro: LOS SANTOS - SANTANDER                                             3
 ACTION:UPD 12-12-05 15:32 OP:}ep  STATUS:               ID:20121109212350 L   I
 2012-11-09-2120-00M.COL___230                                                 6
 STAT SP IPHASW D HRMM SECON CODA AMPLIT PERI AZIMU VELO AIN AR TRES W  DIS CAZ7
 BAR2 SZ EP       2124  9.23                             171   -0.2510 21.6 180 
 BAR2 SZ ES       2124 24.01                             171   -0.4410 21.6 180 
 BRR  HZ EP       2124 11.45                             153    0.5410 68.3 301 
 BRR  HN ES   1   2124 27.90                             153    0.91 7 68.3 301 
 BRR  HN I        2124 28.84        69.8 0.22                          68.3 301 
 PAM  SZ EP       2124 12.49                             149    0.1210 81.1  41 
 PAM  SN ES       2124 29.43                             149   -0.1710 81.1  41 
 PAM  SN I        2124 30.13        27.4 0.42                          81.1  41 
 RUS  HZ EP       2124 13.94                             143    0.3110 99.6 174 
 RUS  HN ES       2124 32.02                             143    0.1710 99.6 174 
 RUS  HN I        2124 33.56        11.1 0.24                          99.6 174 
 PTB  HZ EP       2124 16.39                             132   -0.20 9  143 259 
 PTB  HN ES       2124 37.04                             132   -0.07 9  143 259 
 PTB  HN I        2124 41.82        17.7 0.34                           143 259 
 OCA  HN ES       2124 40.14                             129   -0.23 9  161 355 
 OCA  HN I        2124 42.59        47.3 0.18                           161 355 
 ZAR  HZ EP       2124 21.93                             122   -0.24 9  201 293 
 ZAR  HN ES       2124 46.86                             122   -0.18 9  201 293 
 ZAR  HN I        2124 55.89        16.0 0.18                           201 293 
 PRA  HN ES       2125 24.47                             106   -0.21 6  389 209 
 PRA  HN I        2125 31.20         1.6 0.44                           389 209 
                                                                                
