 2013  8 9 2210 38.9 L   6.779 -73.137150.6  RSN  7 0.3 1.7LRSN                1
 GAP=139        0.76       4.4     3.8  6.1  0.1204E+01  0.4780E+01  0.4836E+01E
 Epicentro: LOS SANTOS - SANTANDER                                             3
 ACTION:UPD 14-01-14 09:00 OP:ep   STATUS:               ID:20130809221038 L   I
 OLDACT:UP  13-08-09 22:18 OP:cam  STATUS:               ID:20130809220959     3
 OLDACT:REG 13-08-09 21:54 OP:cam  STATUS:               ID:20130809220959     3
 2013-08-09-2209-59M.COL___268                                                 6
 STAT SP IPHASW D HRMM SECON CODA AMPLIT PERI AZIMU VELO AIN AR TRES W  DIS CAZ7
 BAR2 SZ EP       2210 58.88                             171   -0.2010 21.2 194 
 BAR2 SZ ES   1   2211 15.00                             171    0.18 7 21.2 194 
 BAR2 SZ I        2211 15.33        15.8 0.10            171           21.2 194 
 GIR2 SZ ES   1   2211 15.19                             167    0.12 7 33.8 349 
 BRR  HZ EP   1   2211  0.75                             153    0.06 7 73.2 300 
 BRR  HN ES   1   2211 18.23                             153    0.54 7 73.2 300 
 PAM  SZ EP       2211  1.76                             151    0.0510 78.6  38 
 PAM  SZ I        2211  1.94        12.6 0.24            152           78.6  38 
 PAM  SN ES       2211 19.11                             151   -0.3910 78.6  38 
 RUS  HZ EP       2211  3.28                             145    0.3110 98.2 177 
 RUS  HN ES   1   2211 21.80                             145    0.06 7 98.2 177 
 RUS  HZ I        2211 22.49         8.7 0.28            145           98.2 177 
 PTB  HZ EP   1   2211  6.28                             133   -0.04 7  148 260 
 PTB  HN ES   1   2211 26.82                             133   -0.88 7  148 260 
 PTB  HZ I        2211 28.53         3.7 0.16            133            148 260 
 ZAR  HN ES       2211 37.76                             123    0.21 8  206 293 
                                                                                
