 2014  2 9 2124 19.9 L   6.801 -73.148147.2  RSN  7 0.5 1.7LRSN                1
 GAP=119        1.13       4.8     5.2  7.0 -0.3796E+00  0.7026E+00 -0.8781E+01E
 Epicentro: LOS SANTOS - SANTANDER                                             3
 ACTION:UPD 14-03-10 08:09 OP:ep   STATUS:               ID:20140209212419 L   I
 OLDACT:REG 14-02-09 23:35 OP:stll STATUS:               ID:20140209211818     3
 2014-02-09-2118-18M.COL___223                                                 6
 STAT SP IPHASW D HRMM SECON CODA AMPLIT PERI AZIMU VELO AIN AR TRES W  DIS CAZ7
 BAR2 SZ ES       2124 54.90                             171   -0.2910 23.4 189 
 BAR2 SZ I        2124 58.53        15.3 0.28            172           23.4 189 
 BRR  HZ EP       2124 41.76                             153    0.5310 70.9 299 
 BRR  HN ES       2124 58.37                             153    0.5310 70.9 299 
 BRR  HZ I        2125  3.24         6.8 0.24            153           70.9 299 
 PAM  SZ IP     D 2124 42.91                             151    0.6010 77.5  40 
 PAM  SZ I        2124 43.07        23.2 0.18            153           77.5  40 
 PAM  SN ES       2124 59.80                             151    0.0310 77.5  40 
 RUS  HZ EP       2124 44.09                             144    0.2510  101 176 
 RUS  HN ES       2125  2.03                             144   -0.4610  101 176 
 RUS  HZ I        2125  3.92         3.0 0.22            147            101 176 
 PTB  HZ EP       2124 47.18                             132    0.17 9  148 259 
 PTB  HN ES       2125  7.62                             132   -0.50 9  148 259 
 PTB  HZ I        2125 10.24         3.3 0.14            134            148 259 
 SML  HZ EP       2124 56.50                             118   -0.13 8  244 335 
 SML  HN ES       2125 24.46                             118   -0.78 8  244 335 
 SML  HZ I        2125 27.54         3.5 0.34            120            244 335 
 SOCV BZ EP       2125  2.42                             112   -0.65 7  301  57 
                                                                                
