 2014  1 9 2130 56.3 L   6.832 -73.204144.9  RSN  5 0.3 1.7LRSN                1
 GAP=188        0.65       3.9     3.9  6.8 -0.7133E+01  0.9493E+01  0.4443E+00E
 Epicentro: ZAPATOCA - SANTANDER                                               3
 ACTION:UPD 14-03-13 09:53 OP:ep   STATUS:               ID:20140109213056 L   I
 OLDACT:UP  14-01-10 02:39 OP:mher STATUS:               ID:20140109213000     3
 OLDACT:REG 14-01-09 23:11 OP:mh   STATUS:               ID:20140109213000     3
 2014-01-09-2130-00M.COL___285                                                 6
 STAT SP IPHASW D HRMM SECON CODA AMPLIT PERI AZIMU VELO AIN AR TRES W  DIS CAZ7
 PAM  SZ EP       2131 18.70                             150    0.2110 79.1  45 
 PAM  SN ES       2131 35.73                             150   -0.0910 79.1  45 
 PAM  SZ I        2131 36.31         4.3 0.23            153           79.1  45 
 PTB  HZ EP       2131 22.89                             133    0.23 9  142 257 
 PTB  HN ES   1   2131 43.24                             133   -0.00 7  142 257 
 PTB  HZ I        2131 46.10         6.0 0.15            132            142 257 
 ZAR  HN ES   1   2131 53.11                             123    0.54 6  197 292 
 ZAR  HZ I        2131 59.43         5.4 0.16            123            197 292 
 NOR  HZ EP       2131 31.41                             119   -0.20 8  232 233 
 NOR  HN ES       2131 58.90                             119   -0.28 8  232 233 
 NOR  HZ I        2132  2.04         3.6 0.20            120            232 233 
 SML  HZ EP       2131 32.24                             118    0.04 8  238 336 
 SML  HN ES   1   2131 59.52                             118   -0.71 6  238 336 
 SML  HZ I        2132  4.13        11.4 0.11            118            238 336 
                                                                                
