 2016  7 9 2030 25.1 L   6.566 -74.146 29.2  RSN  6 0.4 1.7LRSN                1
 GAP=126        1.05       3.5     2.6  4.2  0.2014E+01 -0.5150E+01  0.2076E-01E
 Epicentro: PUERTO PARRA - SANTANDER                                           3
 ACTION:UPD 17-03-29 16:48 OP:lp   STATUS:               ID:20160709203025 L   I
 OLDACT:REG 16-07-10 03:34 OP:ar   STATUS:               ID:20160709202744     3
 2016-07-09-2027-44M.COL___334                                                 6
 STAT SP IPHASW D HRMM SECON CODA AMPLIT PERI AZIMU VELO AIN AR TRES W  DIS CAZ7
 PTB  HZ EP       2030 31.98                             125   -0.2410 34.4 265 
 PTB  HN ES       2030 37.71                             125   -0.0710 34.4 265 
 SPBC HZ EP       2030 40.93                              61   -0.1010  101 175 
 SPBC HN ES       2030 52.88                              61   -0.5810  101 175 
 SPBC HZ I        2030 54.27        16.1 0.10             71            101 175 
 BAR2 EZ EP       2030 42.49                              61    0.6210  107  88 
 BAR2 EZ ES       2030 54.45                              61   -0.5110  107  88 
 BAR2 EZ I        2030 55.45        25.3 0.12             56            107  88 
 ZAR  HN ES       2030 59.07                              61   -0.4010  129 323 
 ZAR  HZ I        2031  2.06         9.2 0.12             56            129 323 
 RUS  HZ EP       2030 46.61                              61    0.36 9  139 122 
 RUS  HE ES       2031  2.98                              61    0.23 9  139 122 
 RUS  HZ I        2031  4.43        13.5 0.44             56            139 122 
 HEL  HZ EP       2030 48.98                              61    0.48 9  158 255 
 HEL  HN ES       2031  7.14                              61    0.37 9  158 255 
 HEL  HZ I        2031  8.23         7.3 0.44             56            158 255 
                                                                                
