 2011  9 9 2043 32.8 L   6.766 -73.113146.0  RSN 16 0.4 3.5LRSN                1
 GAP=142        0.75       2.8     4.8  4.5 -0.2750E+01  0.7914E+01  0.2694E+01E
 Epicentro: LOS SANTOS - SANTANDER                                             3
 ACTION:UPD 12-07-13 15:56 OP:ep   STATUS:               ID:20110909204332 L   I
 2011-09-09-2042-00S.COL___169                                                 6
 STAT SP IPHASW D HRMM SECON CODA AMPLIT PERI AZIMU VELO AIN AR TRES W  DIS CAZ7
 BAR2 SZ IP       2043 52.46                             172    0.0710 20.6 202 
 BAR2 SZ I        2043 53.06       630.4 0.36                          20.6 202 
 BAR2 SZ ES   1   2044  8.21                             172    0.53 7 20.6 202 
 GIR2 SZ IP       2043 52.56                             166   -0.0510 35.7 346 
 GIR2 SZ ES   1   2044  7.81                             166   -0.26 7 35.7 346 
 BRR  HZ IP     C 2043 54.36                             151    0.1210 76.2 300 
 BRR  HE ES   1   2044 11.68                             151    0.70 7 76.2 300 
 BRR  HZ I        2044 14.04       568.1 0.18                          76.2 300 
 PAM  SZ EP       2043 55.23                             151    0.1610 78.2  36 
 PAM  SE ES   1   2044 12.31                             151   -0.14 7 78.2  36 
 RUS  HZ EP       2043 56.29                             145    0.0210 96.6 178 
 RUS  HN ES   1   2044 14.23                             145   -0.37 7 96.6 178 
 RUS  HZ I        2044 17.89       232.4 0.41                          96.6 178 
 OCA  SZ EP       2044  1.20                             129   -0.31 9  164 352 
 OCA  SZ ES   1   2044 23.87                             129   -0.04 7  164 352 
 OCA  SZ I        2044 27.75       424.2 0.20                           164 352 
 ZAR  HZ EP   1   2044  4.73                             122   -1.00 6  209 293 
 ZAR  HZ I        2044 37.65       338.7 0.31                           209 293 
 NOR  SZ EP       2044  8.25                             119   -0.36 8  235 236 
 NOR  SN ES   1   2044 35.85                             119   -0.70 6  235 236 
 CHI  HZ EP   1   2044 10.50                             118    0.30 6  246 196 
 CHI  HZ I        2044 49.61       106.3 0.39                           246 196 
 HEL  HZ EP   1   2044 13.75                             115    0.46 6  275 257 
 HEL  HZ I        2044 52.91       103.7 0.29                           275 257 
 VIL  SZ EP   1   2044 15.87                             112    0.00 5  300 192 
 VIL  SN ES   1   2044 48.92                             112   -0.57 5  300 192 
 RREF HZ EP   1   2044 19.54                             111    0.57 5  322 230 
 RREF HZ I        2045  4.12       213.0 0.35                           322 230 
 DBB  SZ EP   1   2044 20.93                             109    0.22 5  343 275 
 TOL  SZ EP   1   2044 21.38                             109    0.35 5  343 226 
 ANIL HZ EP   1   2044 23.11                             109    0.53 5  357 225 
 ANIL HZ I        2045 13.27       270.7 0.26                           357 225 
 PRA  HZ EP   1   2044 26.00                             107   -0.13 4  391 210 
 PRA  HN ES   1   2045  8.37                             107    0.62 4  391 210 
                                                                                
