 2013 10 9 2334 55.8 L   6.691 -73.174146.2  RSN  4 0.4 1.4LRSN                1
 GAP=226        1.10       8.9     9.0  9.2  0.4272E+02  0.1779E+02  0.8028E+01E
 Epicentro: VILLANUEVA - SANTANDER                                             3
 ACTION:UPD 13-11-25 09:20 OP:ep   STATUS:               ID:20131009233455 L   I
 OLDACT:REG 13-10-10 01:13 OP:stll STATUS:               ID:20131009233000     3
 2013-10-09-2330-00M.COL___272                                                 6
 STAT SP IPHASW D HRMM SECON CODA AMPLIT PERI AZIMU VELO AIN AR TRES W  DIS CAZ7
 BAR2 SZ ES       2335 29.79                             176   -0.7110 10.9 185 
 BRR  HZ EP       2335 17.01                             151   -0.2110 75.2 308 
 BRR  HZ I        2335 17.36         8.6 0.56            150           75.2 308 
 BRR  HE ES       2335 34.61                             151    0.6810 75.2 308 
 RUS  HZ EP       2335 19.05                             147    0.2710 88.8 173 
 RUS  HN ES       2335 37.00                             147    0.3010 88.8 173 
 RUS  HZ I        2335 41.21         1.7 0.42            142           88.8 173 
 PTB  HZ EP       2335 22.13                             133   -0.22 9  143 263 
 PTB  HN ES       2335 42.90                             133   -0.16 9  143 263 
 PTB  HZ I        2335 49.14         4.6 0.36            130            143 263 
                                                                                
