 2012  7 9 2241  5.5 L   6.775 -73.161149.5  RSN 10 0.4 2.7LRSN                1
 GAP= 71        0.84       4.1     3.9  6.3  0.1753E+01  0.6039E+01  0.9033E+00E
 Epicentro: LOS SANTOS - SANTANDER                                             3
 ACTION:UPD 12-08-14 11:43 OP:ep   STATUS:               ID:20120709224105 L   I
 2012-07-09-2240-00M.COL___201                                                 6
 STAT SP IPHASW D HRMM SECON CODA AMPLIT PERI AZIMU VELO AIN AR TRES W  DIS CAZ7
 BAR2 SZ EP   1   2241 25.53                             172     0.0 7   20 187 
 BAR2 SZ ES   1   2241 40.84                             172    -0.3 7   20 187 
 BAR2 SZ I        2241 42.32       107.1 0.33            160             20 187 
 BRR  HZ EP       2241 27.41                             153     0.410   71 301 
 BRR  HZ I        2241 27.72       291.2 0.17            142             71 301 
 BRR  HE ES   1   2241 44.85                             153     1.0 7   71 301 
 PAM  SZ EP   1   2241 28.32                             150     0.0 7   81  39 
 PAM  SN ES   1   2241 45.98                             150    -0.1 7   81  39 
 RUS  HZ EP   1   2241 29.42                             145     0.0 7   98 175 
 RUS  HN ES   1   2241 47.97                             145    -0.1 7   98 175 
 RUS  HZ I        2241 49.41        51.0 0.32            132             98 175 
 PTB  HZ EP   1   2241 32.62                             133     0.0 7  146 260 
 PTB  HN ES   1   2241 53.25                             133    -0.5 7  146 260 
 PTB  HZ I        2241 59.51        59.6 0.53            120            146 260 
 TAM  HN ES   1   2241 55.36                             131    -0.1 7  156 104 
 TAM  HZ I        2241 56.67        27.0 0.31            124            156 104 
 OCA  HZ EP   1   2241 34.05                             130    -0.3 7  163 354 
 OCA  HN ES   1   2241 56.57                             130    -0.3 7  163 354 
 ZAR  HZ EP   1   2241 38.29                             123     0.2 6  204 293 
 ZAR  HE ES   1   2242  3.06                             123    -0.5 6  204 293 
 CHI  HZ EP   1   2241 43.42                             118     0.3 6  246 195 
 CHI  HZ I        2241 46.20        17.6 0.47            108            246 195 
 HEL  HZ EP   1   2241 45.42                             116    -0.2 6  270 256 
 HEL  HZ I        2242 24.19        31.9 0.34            106            270 256 
