 2017  8 9 2112 42.0 L   6.790 -73.140142.6  RSN  8 0.4 1.5LRSN                1
 GAP=138        1.03       4.3     5.2  7.6  0.2043E+01  0.1905E+02  0.1179E+02E
 Epicentro: LOS SANTOS - SANTANDER                                             3
 ACTION:UPD 17-09-04 20:18 OP:rebc STATUS:               ID:20170809211242 L   I
 OLDACT:UP  17-08-10 04:25 OP:edw  STATUS:               ID:20170809210744d    3
 OLDACT:DUP 17-08-10 04:10 OP:edw  STATUS:               ID:20170809210744d    3
 OLDACT:UP  17-08-10 04:08 OP:edw  STATUS:               ID:20170809210743     3
 OLDACT:UP  17-08-10 04:08 OP:edw  STATUS:               ID:20170809210743     3
 OLDACT:UP  17-08-10 04:07 OP:edw  STATUS:               ID:20170809210743     3
 OLDACT:UP  17-08-10 04:05 OP:edw  STATUS:               ID:20170809210743     3
 OLDACT:UP  17-08-10 04:02 OP:edw  STATUS:               ID:20170809210743     3
 OLDACT:REG 17-08-10 03:01 OP:edw  STATUS:               ID:20170809210743     3
 2017-08-09-2108-00M.COL___401                                                 6
 STAT SP IPHASW D HRMM SECON CODA AMPLIT PERI AZIMU VELO AIN AR TRES W  DIS CAZ7
 BAR2 EZ EP       2113  1.24                             171   -0.0010 22.3 192 
 BAR2 EZ ES       2113 16.53                             171    0.2810 22.3 192 
 BAR2 EZ I        2113 17.91         8.1 0.28            169           22.3 192 
 BRR  HZ EP       2113  3.31                             152    0.4310 72.3 299 
 BRR  HN ES       2113 18.37                             152   -0.7910 72.3 299 
 PAM  EN ES       2113 20.89                             150   -0.1310 77.9  39 
 RUS  HZ EP       2113  5.46                             143    0.0910 99.4 176 
 RUS  HN ES       2113 23.99                             143    0.4010 99.4 176 
 RUS  HZ I        2113 25.01         3.3 0.18            144           99.4 176 
 ZAR  HN ES       2113 39.84                             121    0.26 9  205 292 
 NOR  HZ EP       2113 17.25                             118   -0.29 8  235 235 
 NOR  HN ES       2113 45.19                             118   -0.06 8  235 235 
 NOR  HZ I        2113 50.02         3.0 0.18            118            235 235 
 CHI  HN ES       2113 47.80                             116   -0.82 8  248 195 
 GUY2CHZ EP       2113 25.30                             112   -0.16 7  301 235 
 GUY2CHN ES       2114  0.05                             112    0.71 7  301 235 
 GUY2CHZ I        2114  8.13         2.5 0.72                           301 235 
                                                                                
