 2012  5 9 2216  0.5 L   6.088 -73.961 40.0  RSN  8 0.5 1.3LRSN                1
 GAP= 69        1.34       4.5     4.5 15.5  0.2108E+00  0.1135E+02  0.7558E+01E
 Epicentro: EL PEON - SANTANDER                                                3
 ACTION:UP  12-07-05 12:03 OP:pat  STATUS:               ID:20120509221600 L   I
 2012-05-09-2210-00M.COL___195                                                 6
 STAT SP IPHASW D HRMM SECON CODA AMPLIT PERI AZIMU VELO SNR AR TRES W  DIS CAZ7
 PTB  HZ EP   1   2216 15.88                             138    -0.7 8   74 312 
 PTB  HN ES   1   2216 28.86                             138    -0.2 8   74 312 
 PTB  HZ I        2216 31.52         4.3 0.10                            74 312 
 RUS  HZ EP   1   2216 18.85                             129    -0.7 8  100 102 
 RUS  HZ I        2216 19.57         3.6 0.09                           100 102 
 RUS  HN ES   1   2216 34.04                             129    -0.3 8  100 102 
 BAR2 SZ EP   1   2216 19.43                             128     0.0 8  103  57 
 BAR2 SZ ES   1   2216 34.55                             128     0.3 8  103  57 
 BAR2 SZ I        2216 35.84        17.3 0.48                           103  57 
 NOR  SZ EP   1   2216 19.90                             124    -0.7 7  116 240 
 NOR  SN ES   1   2216 35.56                             124    -0.7 7  116 240 
 BRR  HZ EP       2216 20.48                             124     0.010  116  14 
 BRR  HZ I        2216 34.41        11.5 0.40                           116  14 
 BRR  HN ES   1   2216 36.67                             124     0.6 7  116  14 
 CHI  HN ES       2216 46.88                             115     0.7 9  163 171 
 CHI  HZ I        2216 49.58         2.4 0.55                           163 171 
 HEL  HZ EP   1   2216 28.13                             113     0.8 7  174 274 
 HEL  HN ES   1   2216 48.93                             113     0.7 7  174 274 
 HEL  HZ I        2216 50.57         3.1 0.27                           174 274 
 ZAR  HN ES   1   2216 49.72                             111     0.2 7  184 328 
 ZAR  HZ I        2216 53.25         4.9 0.11                           184 328 
                                                                                
