 2015  1 9 2153 34.9 L   6.163 -73.485126.9  RSN  5 0.4 1.6LRSN                1
 GAP=154        0.90       4.4     5.1  9.1 -0.6446E+00  0.6624E+01  0.1526E+02E
 Epicentro: SAN BENITO - SANTANDER                                             3
 ACTION:UPD 15-03-02 15:38 OP:nd   STATUS:               ID:20150109215334 L   I
 OLDACT:DUP 15-01-10 09:07 OP:stll STATUS:               ID:20150109214750d    3
 2015-01-09-2147-49M.COL___268                                                 6
 STAT SP IPHASW D HRMM SECON CODA AMPLIT PERI AZIMU VELO AIN AR TRES W  DIS CAZ7
 BAR2 EZ ES       2154  8.38                             154    0.1810 58.1  35 
 BAR2 EZ I        2154  9.95         6.5 0.34            156           58.1  35 
 SPBC HN ES       2154 11.13                             144    0.1510 86.1 229 
 SPBC HZ I        2154 14.45        14.3 0.42            144           86.1 229 
 PTB  HZ EP       2153 57.37                             135   -0.0110  115 291 
 PTB  HZ I        2153 59.35         4.6 0.16            136            115 291 
 PTB  HN ES       2154 14.39                             135   -0.5410  115 291 
 NOR  HN ES       2154 24.31                             124    0.56 9  167 247 
 NOR  HZ I        2154 27.17         4.3 0.20            125            167 247 
 CHI  HZ EP       2154  3.44                             123    0.15 9  172 189 
 CHI  HN ES       2154 24.96                             123   -0.49 9  172 189 
                                                                                
