 2011 10 9 2046  1.5 L   6.847 -73.301122.8  RSN  5 0.2 1.9LRSN                1
 GAP=126        0.41       2.7     2.8  4.4  0.1714E+01 -0.6461E-01  0.2365E+01E
 Epicentro: ZAPATOCA - SANTANDER                                               3
 ACTION:UPD 12-07-13 16:02 OP:ep   STATUS:               ID:20111009204601 L   I
 2011-10-09-2043-33S.COL___168                                                 6
 STAT SP IPHASW D HRMM SECON CODA AMPLIT PERI AZIMU VELO AIN AR TRES W  DIS CAZ7
 BAR2 SZ EP       2046 18.77                             165    0.2110 31.1 155 
 BAR2 SZ I        2046 19.04        30.9 0.14                          31.1 155 
 BRR  HZ EP       2046 19.17                             155    0.0110 53.7 302 
 BRR  HE ES       2046 32.86                             155   -0.1010 53.7 302 
 BRR  HZ I        2046 34.34        15.7 0.24                          53.7 302 
 PAM  SZ EP   1   2046 21.93                             143    0.03 7 85.9  51 
 PAM  SE ES   1   2046 37.76                             143   -0.08 7 85.9  51 
 RUS  HZ EP   1   2046 23.60                             136   -0.08 7  108 167 
 RUS  HN ES   1   2046 40.97                             136   -0.03 7  108 167 
 ZAR  HZ EP   2   2046 30.07                             119   -0.53 4  186 293 
 ZAR  HN ES   2   2046 53.73                             119    0.40 4  186 293 
 ZAR  HZ I        2046 57.18         7.3 0.25                           186 293 
                                                                                
