 2013  8 9 2325 12.9 L   6.814 -73.158147.3  RSN  8 0.4 1.8LRSN                1
 GAP=134        0.83       3.1     4.0  7.7 -0.1482E+01  0.9348E+01 -0.3035E+01E
 Epicentro: LOS SANTOS - SANTANDER                                             3
 ACTION:UPD 14-01-14 09:00 OP:ep   STATUS:               ID:20130809232512 L   I
 OLDACT:REG 13-08-09 21:58 OP:cam  STATUS:               ID:20130809231959     3
 2013-08-09-2319-59M.COL___267                                                 6
 STAT SP IPHASW D HRMM SECON CODA AMPLIT PERI AZIMU VELO AIN AR TRES W  DIS CAZ7
 GIR2 SZ EP   1   2325 32.17                             168   -0.58 7 29.5 352 
 GIR2 SZ I        2325 49.37         7.9 0.48            160           29.5 352 
 BRR  HZ EP   1   2325 34.46                             153    0.31 7 69.3 298 
 BRR  HZ I        2325 58.54        13.3 0.36            148           69.3 298 
 PAM  SZ EP       2325 35.46                             151    0.1610 77.1  41 
 PAM  SZ I        2325 35.64         8.1 0.18            146           77.1  41 
 PAM  SE ES       2325 52.83                             151    0.0910 77.1  41 
 RUS  HZ EP       2325 37.02                             144    0.0610  102 175 
 RUS  HN ES   1   2325 55.51                             144   -0.19 7  102 175 
 RUS  HZ I        2325 55.98         6.2 0.42            147            102 175 
 PTB  HZ EP   1   2325 38.97                             132   -0.97 7  147 258 
 PTB  HN ES   1   2326  0.60                             132   -0.40 7  147 258 
 PTB  HZ I        2326  2.79         7.1 0.12            130            147 258 
 SPBC HZ EP       2325 41.95                             129    0.35 9  164 218 
 SPBC HN ES       2326  4.07                             129    0.13 9  164 218 
 SPBC HZ I        2326  4.90         9.8 0.18            129            164 218 
 ZAR  HZ EP   4   2325 46.74                             123    1.44 0  202 292 
 ZAR  HN ES       2326 11.03                             123    0.49 9  202 292 
 ZAR  HZ I        2326 16.60        12.7 0.28            119            202 292 
 SML  HZ EP       2325 49.46                             118    0.02 8  242 335 
 SML  HN ES       2326 17.68                             118   -0.23 8  242 335 
 SML  HZ I        2326 28.20         8.1 0.10            114            242 335 
                                                                                
