 2017  8 9 2134 33.9 L   6.790 -73.145147.4  RSN 10 0.4 1.8LRSN                1
 GAP=137        0.88       3.3     4.0  5.5 -0.1546E+01  0.5114E+01  0.5035E+01E
 Epicentro: LOS SANTOS - SANTANDER                                             3
 ACTION:UPD 17-09-04 20:18 OP:rebc STATUS:               ID:20170809213433 L   I
 OLDACT:UP  17-08-10 04:31 OP:edw  STATUS:               ID:20170809212745     3
 OLDACT:UP  17-08-10 04:30 OP:edw  STATUS:               ID:20170809212745     3
 OLDACT:REG 17-08-10 03:21 OP:edw  STATUS:               ID:20170809212745     3
 2017-08-09-2128-00M.COL___402                                                 6
 STAT SP IPHASW D HRMM SECON CODA AMPLIT PERI AZIMU VELO AIN AR TRES W  DIS CAZ7
 BAR2 EZ EP       2134 53.56                             171   -0.1610 22.3 191 
 BAR2 EZ ES       2135  8.87                             171   -0.2910 22.3 191 
 BAR2 EZ I        2135  9.56        17.1 0.38            168           22.3 191 
 BRR  HZ EP       2134 54.59                             153   -0.6810 71.7 299 
 BRR  HN ES       2135 12.76                             153    0.8410 71.7 299 
 PAM  EZ IP     C 2134 56.51                             151    0.1610 78.2  39 
 PAM  EN ES       2135 13.85                             151    0.0010 78.2  39 
 PAM  EZ I        2135 15.67        11.3 0.54            154           78.2  39 
 RUS  HZ EP       2134 58.00                             144    0.2510 99.5 176 
 RUS  HN ES       2135 16.19                             144   -0.1510 99.5 176 
 RUS  HZ I        2135 17.71         4.5 0.54            143           99.5 176 
 SPBC HZ EP       2135  2.76                             130    0.30 9  162 219 
 SPBC HN ES       2135 24.68                             130   -0.05 9  162 219 
 SPBC HZ I        2135 28.88        12.0 0.24            128            162 219 
 ZAR  HN ES       2135 31.43                             123   -0.50 9  204 292 
 NOR  HZ EP       2135  9.79                             119    0.12 8  234 235 
 NOR  HN ES       2135 37.65                             119    0.08 8  234 235 
 NOR  HZ I        2135 43.00         3.3 0.48            118            234 235 
 CHI  HZ EP       2135 11.67                             118    0.08 8  248 195 
 CHI  HN ES       2135 40.80                             118   -0.18 8  248 195 
 CHI  HZ I        2135 44.46         4.7 0.58            117            248 195 
 GUY2CHN ES   4   2135 54.71                             113    3.16 0  301 235 
 GUY2CHZ I        2135 59.71         3.3 0.32                           301 235 
 PRA  HZ EP   2   2135 28.17                             107    0.79 3  391 210 
 PRA  HN ES   2   2136  9.41                             107    0.32 3  391 210 
 PRA  HZ I        2136 18.41         4.0 0.30            107            391 210 
                                                                                
