 2014  2 9 2155 45.6 L   6.774 -73.151146.0  RSN  5 0.2 1.4LRSN                1
 GAP=137        0.55       2.4     2.9  4.4 -0.7756E+00  0.7339E+00  0.3606E+01E
 Epicentro: LOS SANTOS - SANTANDER                                             3
 ACTION:UPD 14-03-10 08:09 OP:ep   STATUS:               ID:20140209215545 L   I
 OLDACT:REG 14-02-09 23:36 OP:stll STATUS:               ID:20140209214819     3
 2014-02-09-2148-19M.COL___223                                                 6
 STAT SP IPHASW D HRMM SECON CODA AMPLIT PERI AZIMU VELO AIN AR TRES W  DIS CAZ7
 BRR  HZ EP       2156  7.16                             152    0.2910 72.1 301 
 BRR  HE ES       2156 23.71                             152    0.2910 72.1 301 
 BRR  HZ I        2156 26.51         5.7 0.44            152           72.1 301 
 PAM  SZ EP       2156  8.06                             150    0.0210 80.0  39 
 PAM  SN ES       2156 25.35                             150   -0.1610 80.0  39 
 PAM  SZ I        2156 27.44         6.4 0.56            156           80.0  39 
 RUS  HZ EP       2156  9.17                             145   -0.0510 97.8 176 
 RUS  HZ I        2156  9.70         1.5 0.22            145           97.8 176 
 RUS  HN ES       2156 27.52                             145   -0.0910 97.8 176 
 PTB  HZ EP       2156 12.28                             132   -0.25 9  147 260 
 PTB  HN ES       2156 33.22                             132   -0.28 9  147 260 
 PTB  HZ I        2156 40.42         6.3 0.50            133            147 260 
 CHI  HZ EP       2156 23.07                             117    0.03 8  246 195 
 CHI  HN ES       2156 52.44                             117    0.23 8  246 195 
 CHI  HZ I        2157  0.31         1.2 0.54            119            246 195 
                                                                                
