 2014 12 9 2334 31.5 L   6.817 -73.121148.0  RSN  9 0.3 1.7LRSN                1
 GAP=139        0.86       2.8     3.7  7.4 -0.1481E+01  0.6793E+01  0.4285E+00E
 Epicentro: LOS SANTOS - SANTANDER                                             3
 ACTION:UPD 15-02-10 17:02 OP:nd   STATUS:               ID:20141209233431 L   I
 OLDACT:DUP 14-12-10 08:23 OP:carl STATUS:               ID:20141209232750d    3
 2014-12-09-2327-49M.COL___309                                                 6
 STAT SP IPHASW D HRMM SECON CODA AMPLIT PERI AZIMU VELO AIN AR TRES W  DIS CAZ7
 BRR  HN ES       2335 10.21                             152    0.4410 72.7 296 
 PAM  SZ EP       2334 54.27                             152    0.4610 74.3  39 
 PAM  SN ES       2335 11.13                             152   -0.0610 74.3  39 
 PAM  SZ I        2335 13.19        10.2 0.56            153           74.3  39 
 RUS  HZ EP       2334 55.83                             144    0.2010  102 178 
 RUS  HN ES       2335 14.13                             144   -0.3010  102 178 
 RUS  HZ I        2335 15.56         3.6 0.38            146            102 178 
 PTB  HZ EP       2334 58.97                             132    0.01 9  151 258 
 PTB  HN ES       2335 20.23                             132   -0.12 9  151 258 
 PTB  HZ I        2335 24.30         4.4 0.44            132            151 258 
 OCA  HN ES       2335 21.57                             130   -0.43 9  159 352 
 SPBC HN ES       2335 22.93                             129   -0.17 9  166 219 
 SPBC HZ I        2335 24.90        10.2 0.12            130            166 219 
 ZAR  HN ES       2335 30.42                             123    0.54 8  206 291 
 ZAR  HZ I        2335 34.97         5.0 0.42            122            206 291 
 NOR  HN ES       2335 35.75                             119   -0.24 8  238 234 
 SML  HN ES       2335 36.26                             118   -0.60 8  243 335 
 SML  HZ I        2335 41.64         6.1 0.10            118            243 335 
                                                                                
