 2012  4 9 2152 37.4 L   6.786 -73.154148.0  RSN 11 0.5 2.1LRSN                1
 GAP=136        0.99       6.5     5.7  8.9  0.2512E+01  0.1540E+02  0.2567E+02E
 Epicentro: LOS SANTOS - SANTANDER                                             3
 ACTION:UPD 12-07-05 11:52 OP:tino STATUS:               ID:20120409215237 L   I
 2012-04-09-2150-00M.COL___199                                                 6
 STAT SP IPHASW D HRMM SECON CODA AMPLIT PERI AZIMU VELO AIN AR TRES W  DIS CAZ7
 BAR2 SZ EP       2152 57.19                             171    -0.110   22 188 
 BAR2 SZ ES   2   2153 12.48                             171    -0.3 5   22 188 
 BAR2 SZ I        2153 15.71        32.9 0.66                            22 188 
 BRR  HZ IP     C 2152 59.07                             153     0.310   71 300 
 BRR  HE ES   1   2153 16.37                             153     0.9 7   71 300 
 BRR  HZ I        2153 19.16        27.9 0.32                            71 300 
 PAM  SZ EP       2152 59.94                             151     0.010   79  39 
 PAM  SN ES   1   2153 17.28                             151    -0.3 7   79  39 
 RUS  HZ EP       2153  1.14                             145    -0.110   99 175 
 RUS  HZ I        2153 21.17        17.3 0.44                            99 175 
 PTB  HZ EP       2153  3.85                             133    -0.6 9  147 259 
 PTB  HE ES   2   2153 24.83                             133    -0.7 5  147 259 
 PTB  HZ I        2153 28.54        15.4 0.12                           147 259 
 ZAR  HZ EP       2153 10.12                             123     0.2 9  204 293 
 ZAR  HE ES   1   2153 34.86                             123    -0.5 6  204 293 
 ZAR  HZ I        2153 41.65        22.8 0.24                           204 293 
 NOR  SZ EP       2153 12.94                             119    -0.1 8  233 235 
 CHI  HZ EP   3   2153 14.40                             118    -0.6 2  247 195 
 CHI  HN ES   2   2153 44.56                             118     0.2 4  247 195 
 CHI  HZ I        2153 50.19         6.7 0.40                           247 195 
 HEL  HZ EP   2   2153 17.91                             115     0.3 4  271 256 
 HEL  HZ I        2153 55.70         6.7 0.48                           271 256 
 RREF HE ES   3   2154  0.74                             111     1.4 2  320 229 
 PRA  HZ EP       2153 31.74                             107     1.0 6  390 210 
                                                                                
