 2017 11 9 2104 27.0 L   6.836 -73.163143.3  RSN  8 0.3 1.7LRSN                1
 GAP=133        0.83       3.2     3.4  5.0  0.2741E+00  0.4795E+01  0.3274E+01E
 Epicentro: LOS SANTOS - SANTANDER                                             3
 ACTION:UPD 17-12-12 19:53 OP:rebc STATUS:               ID:20171109210427 L   I
 OLDACT:REG 17-11-10 02:56 OP:dhb  STATUS:               ID:20171109205737     3
 2017-11-09-2058-00M.COL___459                                                 6
 STAT SP IPHASW D HRMM SECON CODA AMPLIT PERI AZIMU VELO AIN AR TRES W  DIS CAZ7
 BAR2 EZ IP     C 21 4 46.23                             169   -0.1910 27.0 185 
 BAR2 EZ ES       21 5  1.27                             169   -0.3010 27.0 185 
 BAR2 EZ I        21 5  2.33         9.3 0.18            169           27.0 185 
 BRR  HZ IP     D 21 4 47.96                             153    0.2710 67.7 296 
 BRR  HN ES       21 5  4.32                             153    0.4910 67.7 296 
 BRR  HZ I        21 5  7.72        17.6 0.44            152           67.7 296 
 PAM  EZ IP     D 21 4 49.15                             151    0.2910 75.7  43 
 PAM  EN ES       21 5  6.03                             151    0.1310 75.7  43 
 PAM  EZ I        21 5  8.48         5.3 0.24            154           75.7  43 
 RUS  HZ IP     C 21 4 50.44                             142   -0.3810  105 175 
 RUS  HN ES       21 5  9.18                             142   -0.2110  105 175 
 RUS  HZ I        21 5  9.84         6.0 0.40            144            105 175 
 PTB  HZ EP       21 4 53.22                             132   -0.46 9  147 257 
 PTB  HE ES       21 5 14.38                             132   -0.10 9  147 257 
 PTB  HZ I        21 5 18.81         4.9 0.22            132            147 257 
 ZAR  HZ EP       21 4 58.88                             122   -0.08 9  201 291 
 ZAR  HE ES       21 5 23.36                             122   -0.52 9  201 291 
 ZAR  HZ I        21 5 29.49         7.9 0.36            123            201 291 
 NOR  HZ EP       21 5  2.80                             118    0.12 8  235 233 
 NOR  HE ES       21 5 31.04                             118    0.54 8  235 233 
 NOR  HZ I        21 5 34.00         2.9 0.28            119            235 233 
 CHI  HZ EP       21 5  5.32                             116    0.38 8  252 195 
 CHI  HE ES       21 5 34.78                             116    0.26 8  252 195 
 CHI  HZ I        21 5 38.36         2.4 0.28            118            252 195 
                                                                                
