 2017 11 9 2134 10.9 L   6.946 -73.224138.5  RSN  7 0.4 1.6LRSN                1
 GAP=124        1.05       5.3     4.4  7.7  0.2286E+01  0.6495E+01  0.2397E+01E
 Epicentro: BETULIA - SANTANDER                                                3
 ACTION:UPD 17-12-12 19:53 OP:rebc STATUS:               ID:20171109213410 L   I
 OLDACT:REG 17-11-10 03:02 OP:dhb  STATUS:               ID:20171109212743     3
 2017-11-09-2128-00M.COL___459                                                 6
 STAT SP IPHASW D HRMM SECON CODA AMPLIT PERI AZIMU VELO AIN AR TRES W  DIS CAZ7
 BAR2 EZ EP       2134 29.99                             163   -0.1610 39.4 173 
 BAR2 EZ ES       2134 44.95                             163   -0.1910 39.4 173 
 BAR2 EZ I        2134 46.20        10.7 0.34            167           39.4 173 
 BRR  HZ EP       2134 31.25                             156    0.7110 56.8 288 
 BRR  HE ES       2134 46.33                             156    0.5110 56.8 288 
 BRR  HZ I        2135  4.26        14.3 0.40            153           56.8 288 
 PAM  EZ EP       2134 32.14                             151    0.0510 72.4  53 
 PAM  EN ES       2134 48.33                             151   -0.2610 72.4  53 
 PAM  EZ I        2134 50.06        10.7 0.20            160           72.4  53 
 RUS  HZ EP       2134 35.52                             138    0.2010  118 172 
 RUS  HN ES       2134 54.10                             138   -0.2310  118 172 
 RUS  HZ I        2134 57.85         3.2 0.30            146            118 172 
 PTB  HZ EP       2134 36.71                             131   -0.22 9  144 252 
 PTB  HN ES       2134 57.46                             131    0.25 9  144 252 
 PTB  HZ I        2135  4.96         3.9 0.24            134            144 252 
 ZAR  HN ES       2135  4.47                             123   -0.87 9  190 289 
 ZAR  HZ I        2135 13.17         6.1 0.24            126            190 289 
 SMAR HZ E        2137 44.57                                            479 347 
                                                                                
