 2012  1 9 2030 19.8 L   6.771 -73.149139.8  RSN  7 0.4 1.4LRSN                1
 GAP=137        1.06       6.4     7.1  8.3 -0.2482E+01  0.8951E+01  0.6507E+01E
 Epicentro: LOS SANTOS - SANTANDER                                             3
 ACTION:UP  12-02-03 08:15 OP:REBC STATUS:               ID:20120109203019 L   I
 2012-01-09-2030-00M.COL___186                                                 6
 STAT SP IPHASW D HRMM SECON CODA AMPLIT PERI AZIMU VELO SNR AR TRES W  DIS CAZ7
 BAR2 SZ IP       2030 38.69                             171     0.110   20 190 
 BAR2 SZ I        2030 38.80         7.5 0.22                            20 190 
 BAR2 SZ ES   1   2030 53.05                             171    -0.3 7   20 190 
 GIR2 SZ EP       2030 38.65                             165    -0.210   34 352 
 GIR2 SZ ES   1   2030 52.79                             165    -0.9 7   34 352 
 BRR  HZ IP     D 2030 40.66                             151     0.310   72 301 
 BRR  HZ I        2030 41.08        18.8 0.30                            72 301 
 BRR  HN ES   1   2030 57.34                             151     0.9 7   72 301 
 PAM  SZ EP       2030 41.69                             149     0.210   80  38 
 PAM  SN ES   1   2030 58.50                             149     0.0 7   80  38 
 RUS  HZ EP       2030 42.62                             143    -0.110   97 176 
 RUS  HN ES   1   2031  1.10                             143     0.5 7   97 176 
 RUS  HZ I        2031  3.76         1.6 0.28                            97 176 
 PTB  HZ EP       2030 45.73                             131    -0.4 9  147 260 
 PTB  HN ES   2   2031  6.25                             131    -0.5 5  147 260 
 PTB  HZ I        2031  9.97         2.5 0.44                           147 260 
 ZAR  HN ES   3   2031 17.35                             121     0.4 2  205 293 
                                                                                
