 2016  2 9 2018 27.3 L   6.804 -73.174135.6  RSN  9 0.3 1.8LRSN                1
 GAP=133        0.63       2.4     2.5  4.2 -0.1016E+01  0.3766E+01  0.1719E+01E
 Epicentro: LOS SANTOS - SANTANDER                                             3
 ACTION:UPD 16-03-04 21:24 OP:rebc STATUS:               ID:20160209201827 L   I
 OLDACT:REG 16-02-10 03:22 OP:cara STATUS:               ID:20160209200748     3
 2016-02-09-2007-48M.COL___325                                                 6
 STAT SP IPHASW D HRMM SECON CODA AMPLIT PERI AZIMU VELO AIN AR TRES W  DIS CAZ7
 BAR2 EZ ES       2018 59.84                             170   -0.2710 23.5 182 
 BAR2 EZ I        2019  1.41        13.5 0.14            169           23.5 182 
 PAM  EZ IP     D 2018 48.59                             148    0.0110 79.0  41 
 PAM  EN ES       2019  5.46                             148    0.3010 79.0  41 
 PAM  EZ I        2019  7.44        13.6 0.60            152           79.0  41 
 RUS  HZ EP       2018 49.92                             141   -0.2310  101 174 
 RUS  HN ES       2019  8.12                             141    0.1710  101 174 
 RUS  HZ I        2019  9.69         8.3 0.40            143            101 174 
 PTB  HZ EP       2018 52.84                             130   -0.37 9  145 258 
 PTB  HN ES       2019 13.17                             130   -0.23 9  145 258 
 PTB  HZ I        2019 16.08         8.7 0.76            131            145 258 
 SPBC HZ EP       2018 54.80                             127   -0.11 9  162 218 
 SPBC HN ES       2019 16.61                             127    0.18 9  162 218 
 SPBC HZ I        2019 18.97        10.5 0.18            128            162 218 
 ZAR  HN ES       2019 23.46                             120    0.09 9  201 292 
 ZAR  HZ I        2019 26.85         7.3 0.44            121            201 292 
 NOR  HZ EP       2019  2.26                             116    0.02 8  232 234 
 NOR  HN ES       2019 29.58                             116    0.10 8  232 234 
 NOR  HZ I        2019 36.72         4.1 0.32            118            232 234 
 CHI  HZ EP       2019  4.67                             115    0.23 8  248 194 
 CHI  HZ IP       2019  5.26                                            248 194 
 CHI  HE ES       2019 33.16                             115   -0.24 8  248 194 
 CHI  HZ I        2019 36.39         2.4 0.58            116            248 194 
 GUY2CHZ EP   4   2019 12.22                             110    1.99 0  299 234 
 GUY2CHE ES       2019 44.35                             110    0.66 7  299 234 
 GUY2CHZ I        2019 50.57         2.5 0.30                           299 234 
                                                                                
