 2011  2 9 2130  8.7 L   6.768 -73.188135.2  RSN  6 0.2 1.7LRSN                1
 GAP=154        0.42       4.0     5.6  6.8 -0.1205E+02  0.1658E+02 -0.1319E+02E
 Epicentro: VILLANUEVA - SANTANDER                                             3
 ACTION:UP  11-03-28 15:07 OP:jfem STATUS:               ID:20110209213008 L   I
 2011-02-09-2128-13S.COL___136                                                 6
 STAT SP IPHASW D HRMM SECON CODA AMPLIT PERI AZIMU VELO SNR AR TRES W  DIS CAZ7
 BTL  SZ EP       2130 27.06                             172     0.110   19 332 
 BAR2 SZ ES   2   2130 41.49                             171     0.2 5   19 179 
 BAR2 SZ I        2130 43.45        10.9 0.03                            19 179 
 GIR2 SZ EP   2   2130 26.87                             165    -0.3 5   34 359 
 RUS  HZ EP   2   2130 31.04                             142    -0.2 5   97 173 
 RUS  HE ES   2   2130 48.60                             142    -0.1 5   97 173 
 RUS  HZ I        2130 50.10         4.1 0.15                            97 173 
 GRA  SZ EP       2130 33.51                             133     0.110  131  19 
 GRA  SZ I        2130 34.89        12.8 0.16                           131  19 
 GRA  SZ ES   2   2130 52.53                             133    -0.2 5  131  19 
 HEL  HZ EP   2   2130 48.17                             113     0.4 4  267 256 
 HEL  HE ES   2   2131 17.99                             113    -0.3 4  267 256 
 HEL  HZ I        2131 23.82         4.5 0.39                           267 256 
                                                                                
