 2016  5 9 2009 41.3 L   6.803 -73.158147.3  RSN  8 0.4 1.8LRSN                1
 GAP=135        0.59       2.5     2.8  6.1 -0.1134E+01  0.4702E+01 -0.1009E+01E
 Epicentro: LOS SANTOS - SANTANDER                                             3
 ACTION:UPD 16-08-18 17:44 OP:cam  STATUS:               ID:20160509200941 L   I
 OLDACT:REG 16-05-10 03:26 OP:dnl  STATUS:               ID:20160509200751     3
 2016-05-09-2007-51M.COL___296                                                 6
 STAT SP IPHASW D HRMM SECON CODA AMPLIT PERI AZIMU VELO AIN AR TRES W  DIS CAZ7
 BAR2 EZ EP       2010  1.06                             171   -0.0910 23.4 187 
 BAR2 EZ ES   2   2010 16.19                             171   -0.41 5 23.4 187 
 BAR2 EZ I        2010 17.86        11.3 0.24            170           23.4 187 
 PAM  EZ EP       2010  3.81                             151    0.0610 78.0  40 
 PAM  EN ES       2010 21.28                             151    0.0510 78.0  40 
 PAM  EZ I        2010 23.63        11.9 0.62            150           78.0  40 
 RUS  HZ EP   2   2010  5.62                             144    0.35 5  101 175 
 RUS  HN ES       2010 24.08                             144    0.1510  101 175 
 RUS  HZ I        2010 26.46         7.9 0.50            143            101 175 
 PTB  HZ EP   3   2010  9.21                             133    0.90 2  146 259 
 PTB  HE ES       2010 29.13                             133   -0.22 9  146 259 
 PTB  HZ I        2010 31.58         7.2 0.16            128            146 259 
 SPBC HZ EP   2   2010  9.93                             129    0.04 5  163 219 
 SPBC HE ES       2010 32.17                             129    0.00 9  163 219 
 SPBC HZ I        2010 37.24        15.5 0.18            126            163 219 
 ZAR  HZ EP   4   2010 19.47                             123    5.73 0  203 292 
 ZAR  HE ES       2010 39.44                             123    0.43 9  203 292 
 ZAR  HZ I        2010 49.20         4.6 0.12            119            203 292 
 SML  HZ EP   4   2010 20.58                             118    2.63 0  243 336 
 SML  HN ES   2   2010 45.47                             118   -1.04 4  243 336 
 SML  HZ I        2010 53.81         8.1 0.24            115            243 336 
 CHI  HZ EP   2   2010 18.76                             117   -0.35 4  249 195 
 CHI  HN ES   2   2010 47.88                             117   -0.70 4  249 195 
 CHI  HZ I        2010 56.08         3.8 0.56            115            249 195 
                                                                                
