 2014  1 9 2254 20.1 L   6.778 -73.117143.9  RSN 15 0.4 2.3LRSN                1
 GAP=141        0.83       2.4     3.6  5.1 -0.1552E+01  0.4950E+01  0.8065E+00E
 Epicentro: LOS SANTOS - SANTANDER                                             3
 ACTION:UPD 14-03-13 09:53 OP:ep   STATUS:               ID:20140109225420 L   I
 OLDACT:UP  14-01-10 03:05 OP:mher STATUS:               ID:20140109225000     3
 OLDACT:UP  14-01-10 03:04 OP:mher STATUS:               ID:20140109225000     3
 OLDACT:UP  14-01-10 03:04 OP:mher STATUS:               ID:20140109225000     3
 OLDACT:REG 14-01-09 23:16 OP:mh   STATUS:               ID:20140109225000     3
 2014-01-09-2250-00M.COL___285                                                 6
 STAT SP IPHASW D HRMM SECON CODA AMPLIT PERI AZIMU VELO AIN AR TRES W  DIS CAZ7
 BAR2 SZ EP   1   2254 39.35                             171   -0.08 7 21.8 199 
 BAR2 SZ ES   1   2254 54.28                             171   -0.27 7 21.8 199 
 BAR2 SZ I        2254 57.73        61.2 0.37            174           21.8 199 
 BRR  HZ EP   1   2254 41.44                             151    0.21 7 75.1 299 
 BRR  HN ES   1   2254 58.70                             151    0.95 7 75.1 299 
 BRR  HZ I        2255  1.33        29.2 0.24            147           75.1 299 
 PAM  SZ EP     D 2254 42.33                             150    0.2610 77.3  37 
 PAM  SN ES   1   2254 59.62                             150    0.38 7 77.3  37 
 PAM  SZ I        2255  1.89        17.0 0.19            145           77.3  37 
 RUS  HZ EP     C 2254 43.36                             144   -0.0810 98.0 178 
 RUS  HN ES   1   2255  1.52                             144   -0.16 7 98.0 178 
 RUS  HZ I        2255  3.60        13.9 0.36            144           98.0 178 
 PTB  HZ EP   1   2254 46.46                             131   -0.66 7  150 260 
 PTB  HN ES   1   2255  7.49                             131   -0.74 7  150 260 
 PTB  HZ I        2255 11.71        19.7 0.09            129            150 260 
 SPBC HN ES   2   2255 10.75                             129    0.19 5  163 220 
 OCA  HZ EP   1   2254 48.77                             129    0.28 7  163 352 
 OCA  HN ES   1   2255  9.92                             129   -0.74 7  163 352 
 OCA  HZ I        2255 15.70        19.6 0.21            124            163 352 
 ZAR  HZ EP   1   2254 53.69                             121    0.91 6  208 292 
 ZAR  HN ES   1   2255 18.22                             121   -0.08 6  208 292 
 ZAR  HZ I        2255 23.82        16.8 0.19            118            208 292 
 NOR  HZ EP       2254 55.41                             118   -0.40 8  236 235 
 NOR  HN ES       2255 23.92                             118    0.22 8  236 235 
 NOR  HZ I        2255 27.79        20.9 0.18            116            236 235 
 CHI  HZ EP       2254 57.54                             117    0.05 8  247 196 
 CHI  HN ES       2255 26.39                             117   -0.30 8  247 196 
 CHI  HZ I        2255 31.11         8.1 0.27            115            247 196 
 SML  HZ EP       2254 56.62                             117   -0.34 8  247 335 
 SML  HN ES       2255 25.57                             117   -0.18 8  247 335 
 SML  HZ I        2255 30.02        29.9 0.10            113            247 335 
 HEL  HZ EP   1   2255  0.45                             114   -0.00 6  275 256 
 HEL  HE ES   1   2255 31.71                             114   -0.25 6  275 256 
 GUY2CHZ EP   1   2255  4.39                             112    0.67 5  302 235 
 GUY2CHN ES       2255 38.02                             112    0.25 7  302 235 
 GUY2CHZ I        2255 46.21        11.3 0.21                           302 235 
 RREF HZ EP   4   2255  7.53                             110    1.31 0  323 230 
 RREF HN ES   4   2255 44.17                             110    1.95 0  323 230 
 RREF HZ I        2255 48.12        13.1 0.30            108            323 230 
 ORTC HZ EP   1   2255 14.04                             106    0.13 4  395 217 
 ORTC HN ES   2   2255 56.98                             106    1.07 3  395 217 
 ORTC HZ I        2256  3.21         6.7 0.40            104            395 217 
 SJC  HZ EP   4   2255 13.69                             105   -2.31 0  413 327 
 SJC  HN ES   4   2255 54.72                             105   -4.91 0  413 327 
                                                                                
