 2016  6 9 2152 10.0 L   6.786 -73.074149.0  RSN  6 0.4 1.8LRSN                1
 GAP=158        0.94       6.2     7.5  7.1 -0.2989E+02  0.2334E+02 -0.1139E+01E
 Epicentro: LOS SANTOS - SANTANDER                                             3
 ACTION:UPD 16-07-21 22:17 OP:rebc STATUS:               ID:20160609215210 L   I
 OLDACT:REG 16-06-10 03:08 OP:ak   STATUS:               ID:20160609214746     3
 2016-06-09-2147-46M.COL___343                                                 6
 STAT SP IPHASW D HRMM SECON CODA AMPLIT PERI AZIMU VELO AIN AR TRES W  DIS CAZ7
 BAR2 EZ EP       2152 29.94                             170   -0.1010 24.5 209 
 BAR2 EZ ES       2152 45.53                             170   -0.1510 24.5 209 
 BAR2 EZ I        2152 47.77        14.7 0.28                          24.5 209 
 PAM  EZ EP       2152 32.81                             152    0.4510 73.9  34 
 PAM  EN ES       2152 49.76                             152   -0.0410 73.9  34 
 PAM  EZ I        2152 52.13         7.4 0.42                          73.9  34 
 RUS  HZ EP       2152 33.47                             145   -0.4710 98.8 181 
 RUS  HN ES       2152 52.93                             145    0.3110 98.8 181 
 RUS  HZ I        2152 53.86         7.6 0.32                          98.8 181 
 NOR  HZ EP       2152 46.01                             118   -0.51 8  240 236 
 NOR  HN ES       2153 14.49                             118   -0.52 8  240 236 
 NOR  HZ I        2153 19.61         4.6 0.18                           240 236 
 GUY2CHZ EP   2   2152 55.17                             112    0.78 4  307 236 
 GUY2CHE ES       2153 29.99                             112    0.97 7  307 236 
 GUY2CHZ I        2153 35.20         2.8 0.32                           307 236 
 PRA  HZ EP       2153  4.01                             107    0.07 6  395 211 
 PRA  HN ES       2153 46.20                             107    0.19 6  395 211 
 PRA  HZ I        2153 52.21         2.9 0.44                           395 211 
                                                                                
