 2016  9 9 2243  5.6 L   6.096 -73.908 89.2  RSN  5 0.4 1.1LRSN                1
 GAP=205        0.93       5.3     3.8  8.8  0.1063E+02  0.7686E+01  0.3797E+01E
 Epicentro: EL PENON - SANTANDER                                               3
 ACTION:UPD 17-08-17 21:08 OP:lp   STATUS:               ID:20160909224305 L   I
 OLDACT:DUP 16-09-10 03:33 OP:drio STATUS:               ID:20160909223736d    3
 2016-09-09-2238-00M.COL___348                                                 6
 STAT SP IPHASW D HRMM SECON CODA AMPLIT PERI AZIMU VELO AIN AR TRES W  DIS CAZ7
 PTB  HZ EP       2243 21.10                             135   -0.5610 78.0 309 
 PTB  HN ES       2243 34.15                             135   -0.0110 78.0 309 
 PTB  HZ I        2243 34.92         3.4 0.10            137           78.0 309 
 RUS  HZ EP       2243 23.98                             130    0.2210 94.0 104 
 RUS  HN ES       2243 38.19                             130    0.3010 94.0 104 
 RUS  HZ I        2243 39.89         2.0 0.22            132           94.0 104 
 BAR2 EZ EP       2243 23.55                             129   -0.1710 97.2  56 
 BAR2 EZ ES       2243 37.64                             129   -0.1910 97.2  56 
 BRR  HZ EP       2243 24.54                             124   -0.5210  114  11 
 BRR  HE ES       2243 40.40                             124    0.1810  114  11 
 ZAR  HZ EP       2243 33.63                             111    0.51 9  187 326 
 ZAR  HN ES       2243 55.00                             111    0.45 9  187 326 
 ZAR  HZ I        2243 56.90         3.4 0.10            112            187 326 
                                                                                
