 2017 11 9 2145 38.4 L   6.628 -73.527100.9  RSN  8 0.5 1.6LRSN                1
 GAP= 83        1.19       3.8     3.2  7.2  0.2374E+01  0.4988E+01  0.6217E+01E
 Epicentro: EL CARMEN - SANTANDER                                              3
 ACTION:UPD 17-12-12 19:53 OP:rebc STATUS:               ID:20171109214538 L   I
 OLDACT:DUP 17-11-10 03:55 OP:dhb  STATUS:               ID:20171109213744d    3
 2017-11-09-2138-00M.COL___459                                                 6
 STAT SP IPHASW D HRMM SECON CODA AMPLIT PERI AZIMU VELO AIN AR TRES W  DIS CAZ7
 BAR2 EZ IP     D 2145 53.51                             158    0.2510 38.3  96 
 BAR2 EZ ES       2146  5.23                             158    0.3910 38.3  96 
 BAR2 EZ I        2146  7.61        22.9 0.30            164           38.3  96 
 BRR  HZ EP       2145 53.98                             148    0.0410 56.8 339 
 BRR  HE ES       2146  6.27                             148    0.2310 56.8 339 
 BRR  HZ I        2146 17.10        17.2 0.28            152           56.8 339 
 RUS  HZ EP       2145 57.31                             133   -0.2810 95.0 149 
 RUS  HN ES       2146 12.43                             133   -0.1210 95.0 149 
 RUS  HZ I        2146 14.58         8.0 0.30            141           95.0 149 
 PTB  HZ EP       2145 56.57                             130   -1.1210  103 265 
 PTB  HN ES       2146 12.19                             130   -0.5410  103 265 
 PTB  HZ I        2146 15.84         5.6 0.14            135            103 265 
 PAM  EZ IP     C 2145 59.88                             126   -0.1210  121  49 
 PAM  EE ES       2146 16.41                             126   -0.4210  121  49 
 PAM  EZ I        2146 18.23         6.4 0.42            134            121  49 
 ZAR  HZ EP       2146  6.01                             114    0.85 9  175 303 
 ZAR  HE ES       2146 26.36                             114    0.33 9  175 303 
 ZAR  HZ I        2146 29.32         9.4 0.56            120            175 303 
 YPLC HZ EP       2146  6.28                             113   -0.18 9  186 137 
 YPLC HN ES       2146 28.79                             113    0.45 9  186 137 
 YPLC HZ I        2146 30.70         9.7 0.30            120            186 137 
 NOR  HZ EP       2146  7.17                             112    0.36 9  190 232 
 NOR  HN ES       2146 29.26                             112    0.30 9  190 232 
 NOR  HZ I        2146 33.91         2.4 0.16            118            190 232 
                                                                                
