 2014 10 9 2231 27.2 L   6.752 -73.144144.5  RSN  7 0.4 1.8LRSN                1
 GAP=139        1.03       4.3     4.6  6.9  0.2509E+01  0.8198E+01 -0.3884E+01E
 Epicentro: LOS SANTOS - SANTANDER                                             3
 ACTION:UPD 14-11-29 23:48 OP:nd   STATUS:               ID:20141009223127 L   I
 OLDACT:UP  14-10-10 04:39 OP:cam  STATUS:               ID:20141009222807     3
 OLDACT:REG 14-10-10 04:00 OP:cam  STATUS:               ID:20141009222807     3
 2014-10-09-2228-07M.COL___296                                                 6
 STAT SP IPHASW D HRMM SECON CODA AMPLIT PERI AZIMU VELO AIN AR TRES W  DIS CAZ7
 BAR2 SZ EP     D 2231 46.76                             172    0.1510 18.2 194 
 BAR2 SZ ES       2232  1.28                             172   -0.4510 18.2 194 
 BAR2 SZ I        2232  2.47        24.0 0.18            176           18.2 194 
 BRR  HZ EP       2231 48.65                             151    0.2510 74.0 302 
 BRR  HN ES       2232  5.62                             151    0.7010 74.0 302 
 BRR  HN I        2232  5.73        25.8 0.20            149           74.0 302 
 PAM  SZ EP     C 2231 49.84                             149    0.2910 81.4  37 
 PAM  SN ES       2232  6.79                             149   -0.1710 81.4  37 
 PAM  SZ I        2232  9.21         7.4 0.44            147           81.4  37 
 RUS  HZ EP       2231 50.51                             145    0.0310 95.3 176 
 RUS  HE ES       2232  8.65                             145    0.0410 95.3 176 
 RUS  HZ I        2232 10.39         4.1 0.48            148           95.3 176 
 PTB  HZ EP       2231 53.56                             132   -0.46 9  147 261 
 PTB  HN ES       2232 14.45                             132   -0.47 9  147 261 
 PTB  HZ I        2232 17.59         9.2 0.48            132            147 261 
 ZAR  HZ EP       2232  0.05                             122    0.23 8  206 293 
 ZAR  HN ES       2232 25.68                             122    0.44 8  206 293 
 ZAR  HZ I        2232 27.74         5.3 0.22            121            206 293 
 SML  HE ES       2232 32.42                             117   -0.82 8  249 336 
 SML  HZ I        2232 45.76         5.5 0.24            116            249 336 
                                                                                
