 2017 10 9 2151 40.2 L   6.844 -73.143147.6  RSN 21 0.6 2.5LRSN                1
 GAP= 65        1.10       2.9     3.2  5.2 -0.1073E+01  0.5972E+01  0.2851E+00E
 Epicentro: LOS SANTOS - SANTANDER                                             3
 ACTION:UPD 17-11-07 19:30 OP:rebc STATUS:               ID:20171009215140 L   I
 OLDACT:DUP 17-10-10 05:29 OP:dhb  STATUS:               ID:20171009214254d    3
 OLDACT:REG 17-10-10 02:54 OP:dhb  STATUS:               ID:20171009214253     3
 2017-10-09-2148-00M.COL___429                                                 6
 STAT SP IPHASW D HRMM SECON CODA AMPLIT PERI AZIMU VELO AIN AR TRES W  DIS CAZ7
 BAR2 EZ IP     D 2152  0.19                             169    0.0210 28.1 189 
 BAR2 EZ ES       2152 15.40                             169   -0.3410 28.1 189 
 BAR2 EZ I        2152 16.87       163.6 0.18            168           28.1 189 
 PAM  EZ IP     C 2152  3.03                             152    0.6310 73.5  42 
 PAM  EE ES       2152 20.37                             152    0.6610 73.5  42 
 PAM  EZ I        2152 22.51        21.5 0.30            154           73.5  42 
 RUS  HZ IP     D 2152  4.12                             143   -0.3810  105 176 
 RUS  HN ES       2152 22.82                             143   -0.6210  105 176 
 RUS  HZ I        2152 24.09        44.1 0.30            143            105 176 
 TAM  HZ IP     C 2152  8.53                             131    0.39 9  156 107 
 TAM  HN ES       2152 29.98                             131    0.07 9  156 107 
 TAM  HZ I        2152 39.73        17.8 0.30            132            156 107 
 SPBC HZ EP       2152  9.17                             129   -0.06 9  167 218 
 SPBC HE ES       2152 31.72                             129   -0.14 9  167 218 
 SPBC HZ I        2152 35.29        24.7 0.13            129            167 218 
 YPLC HZ IP     D 2152 10.50                             126   -0.05 9  181 152 
 YPLC HN ES       2152 33.55                             126   -0.66 9  181 152 
 YPLC HZ I        2152 37.34        16.2 0.26            128            181 152 
 ZAR  HZ EP       2152 12.98                             123    0.36 9  203 291 
 ZAR  HE ES       2152 38.17                             123    0.26 9  203 291 
 ZAR  HZ I        2152 44.61        23.5 0.12            124            203 291 
 TABC EZ EP       2152 17.71                             119    1.18 8  234 210 
 TABC EZ ES       2152 45.33                             119    0.47 8  234 210 
 TABC EZ I        2152 49.55        36.9 0.40            120            234 210 
 NOR  HZ EP       2152 16.30                             118   -0.08 8  238 234 
 NOR  HZ EPg      2152 16.31                             118   -0.07 8  238 234 
 NOR  HE ES       2152 44.26                             118   -0.33 8  238 234 
 NOR  HZ I        2152 48.55        23.0 0.40            119            238 234 
 CHI  HZ IP     D 2152 18.34                             117   -0.19 8  253 195 
 CHI  HE ES       2152 48.17                             117   -0.24 8  253 195 
 CHI  HZ I        2152 51.07        14.0 0.56            118            253 195 
 ROSC BZ EP   9   2152 20.14                             116    1.24 0  257 211 
 ROSC BE ES       2152 50.33                                    0.01 8  257 211 
 ROSC BZ I        2152 57.92        42.7 0.35            117            257 211 
 GUY2CHZ EP       2152 25.22                             112    0.97 7  304 234 
 GUY2CHE ES   4   2153  0.71                             112    2.11 0  304 234 
 GUY2CHZ I        2153 12.44        13.4 0.56                           304 234 
 VIL  EZ EP       2152 23.92                             112   -0.34 7  308 191 
 VIL  EN ES       2152 57.65                             112   -0.96 7  308 191 
 VIL  EZ I        2153  0.76        32.8 0.36            113            308 191 
 ELA  HZ EP   3   2152 30.39                             110    2.86 2  332 229 
 ELA  HE ES   4   2153  6.85                             110    2.42 0  332 229 
 ELA  HZ I        2153 13.50        12.6 0.54            111            332 229 
 DBB  EE ES   2   2153  5.23                             110    0.39 3  339 273 
 DBB  EZ I        2153  5.46         6.9 0.24            111            339 273 
 ANIL HZ EP   9   2152 34.73                             108    4.22 0  361 224 
 ANIL HE ES       2153 13.39                                   -0.57 6  361 224 
 PRA  HZ EP       2152 33.91                             106   -0.40 6  396 209 
 PRA  HE ES       2153 17.01                             106    0.51 6  396 209 
 PRA  HZ I        2153 19.11        15.9 0.54            107            396 209 
 ORTC HZ EP       2152 35.13                             106    0.46 6  400 216 
 ORTC HE ES       2153 17.57                             106    0.42 6  400 216 
 ORTC HZ I        2153 23.41         7.5 0.37            107            400 216 
 SJC  HZ IP       2152 34.37                             106   -1.01 6  405 327 
 SJC  HE ES       2153 17.94                             106   -0.47 6  405 327 
 SJC  HZ I        2153 21.77         5.1 0.30            107            405 327 
 PAL  HZ EP       2152 35.79                             106    0.03 6  408 239 
 PAL  HN ES       2153 18.64                             106   -0.44 6  408 239 
 PAL  HZ I        2153 26.85         4.8 0.34            107            408 239 
 URI  HZ EP       2152 50.66                             101   -2.03 4  552  13 
 URI  HE ES   2   2153 47.29                             101   -1.93 2  552  13 
 URI  HZ I        2153 52.93         1.9 0.54            102            552  13 
                                                                                
