 2015  1 9 2042 48.1 L   6.801 -73.179145.8  RSN  8 0.3 1.7LRSN                1
 GAP=132        0.84       2.7     4.0  4.9 -0.1134E+01  0.3529E+01  0.5382E+00E
 Epicentro: LOS SANTOS - SANTANDER                                             3
 ACTION:UPD 15-03-02 15:38 OP:nd   STATUS:               ID:20150109204248 L   I
 OLDACT:REG 15-01-10 04:59 OP:stll STATUS:               ID:20150109203747     3
 2015-01-09-2037-47M.COL___268                                                 6
 STAT SP IPHASW D HRMM SECON CODA AMPLIT PERI AZIMU VELO AIN AR TRES W  DIS CAZ7
 BAR2 EZ ES       2043 22.75                             171   -0.3110 23.1 181 
 BAR2 EZ I        2043 25.29        14.8 0.24            171           23.1 181 
 BRR  HN ES       2043 26.15                             154    0.7010 67.9 300 
 PAM  SZ EP       2043 10.37                             150   -0.1110 79.7  42 
 PAM  SZ I        2043 10.71        11.9 0.22            151           79.7  42 
 PAM  SE ES       2043 27.72                             150   -0.2010 79.7  42 
 RUS  HZ EP       2043 11.94                             144    0.0310  101 174 
 RUS  HZ I        2043 12.61         3.5 0.18            144            101 174 
 RUS  HN ES       2043 30.74                             144    0.2810  101 174 
 PTB  HZ EP       2043 14.27                             133   -0.50 9  144 259 
 PTB  HN ES       2043 35.30                             133   -0.25 9  144 259 
 PTB  HZ I        2043 37.27         4.7 0.14            131            144 259 
 SPBC HZ EP       2043 16.75                             129    0.33 9  161 218 
 SPBC HN ES       2043 38.17                             129   -0.31 9  161 218 
 SPBC HZ I        2043 43.12        12.5 0.10            129            161 218 
 SML  HZ EP       2043 24.49                             118   -0.08 8  242 336 
 SML  HE ES       2043 53.12                             118    0.11 8  242 336 
 SML  HZ I        2044  1.55         7.0 0.26            117            242 336 
 CHI  HZ EP       2043 26.18                             117    0.45 8  248 194 
 CHI  HN ES       2043 55.00                             117   -0.07 8  248 194 
 CHI  HZ I        2044  0.23         2.1 0.32            117            248 194 
                                                                                
