 2015  4 9 2140 11.5 L   6.860 -73.210140.3  RSN  6 0.4 1.6LRSN                1
 GAP=127        0.86       4.6     4.7  6.4 -0.5806E+01  0.9892E+01 -0.5338E+01E
 Epicentro: ZAPATOCA - SANTANDER                                               3
 ACTION:UPD 15-06-03 16:53 OP:cam  STATUS:               ID:20150409214011 L   I
 OLDACT:REG 15-04-10 03:34 OP:fm   STATUS:               ID:20150409213750     3
 2015-04-09-2137-50M.COL___271                                                 6
 STAT SP IPHASW D HRMM SECON CODA AMPLIT PERI AZIMU VELO AIN AR TRES W  DIS CAZ7
 BAR2 EZ EP       2140 30.36                             168   -0.2510 29.8 174 
 BAR2 EZ ES       2140 45.02                             168   -0.5010 29.8 174 
 BAR2 EZ I        2140 46.83        13.1 0.18            171           29.8 174 
 BRR  HZ EP       2140 31.73                             155    0.2110 61.8 296 
 BRR  HN ES       2140 47.78                             155    0.6310 61.8 296 
 BRR  HZ I        2140 50.29        11.7 0.40            153           61.8 296 
 PAM  SZ EP       2140 33.32                             150    0.2010 77.4  47 
 PAM  SN ES       2140 50.08                             150    0.0910 77.4  47 
 PAM  SZ I        2140 52.79         4.5 0.62            153           77.4  47 
 PTB  HZ EP       2140 37.59                             132    0.08 9  142 256 
 PTB  HN ES   1   2140 57.37                             132   -0.43 7  142 256 
 PTB  HZ I        2141  2.39         4.9 0.14            133            142 256 
 SML  HZ EP   1   2140 46.87                             117    0.04 6  235 336 
 SML  HN ES       2141 13.88                             117   -0.51 8  235 336 
 SML  HZ I        2141 17.64         3.8 0.10            119            235 336 
 GUY2CHN ES   1   2141 28.62                             111    0.33 5  299 233 
 GUY2CHZ I        2141 36.86         2.2 0.28                           299 233 
                                                                                
