 2010 12 9 2338 13.7 L   6.773 -73.170140.2  RSN 11 0.4 2.2LRSN                1
 GAP=134        0.82       3.9    10.3  7.4 -0.1977E+02  0.2970E+02 -0.4280E+01E
 Epicentro: LOS SANTOS - SANTANDER                                             3
 ACTION:UP  11-01-14 15:23 OP:pat  STATUS:               ID:20101209233813 L   I
 2010-12-09-2337-06S.COL___134                                                 6
 STAT SP IPHASW D HRMM SECON CODA AMPLIT PERI AZIMU VELO SNR AR TRES W  DIS CAZ7
 BTL  SZ EP   1   2338 32.61                             172     0.0 7   19 326 
 BAR2 SZ EP       2338 32.55                             171    -0.110   20 184 
 BAR2 SZ ES   1   2338 47.22                             171    -0.2 7   20 184 
 BAR2 SZ I        2338 48.68        70.5 0.08                            20 184 
 GIR2 SZ EP   1   2338 32.54                             166    -0.3 7   34 356 
 RUS  HZ EP   1   2338 36.65                             143    -0.1 7   98 174 
 RUS  HN ES   1   2338 54.82                             143     0.1 7   98 174 
 RUS  HZ I        2338 56.56        19.4 0.24                            98 174 
 GRA  SZ IP       2338 39.35                             134     0.610  129  18 
 GRA  SZ I        2338 40.52        45.9 0.28                           129  18 
 GRA  SZ ES   1   2338 58.60                             134     0.3 7  129  18 
 OCA  SZ EP   1   2338 40.96                             128    -0.9 7  163 354 
 OCA  SZ I        2339  7.89        35.8 0.23                           163 354 
 YOP  SZ EP   1   2338 43.43                             125     0.2 7  178 152 
 YOP  SZ I        2339  9.60        12.3 0.74                           178 152 
 NOR  SZ EP   2   2338 48.57                             118    -0.2 4  231 235 
 NOR  SZ I        2339 23.56         3.1 0.06                           231 235 
 CHI  HZ EP   2   2338 50.22                             116    -0.5 4  245 195 
 CHI  HN ES   1   2339 19.53                             116    -0.1 6  245 195 
 CHI  HZ I        2339 28.47         5.8 0.38                           245 195 
 HEL  HZ EP   2   2338 54.13                             114     0.8 4  269 256 
 HEL  HZ I        2339 31.31        14.5 0.07                           269 256 
 PRA  HZ EP   1   2339  6.76                             106     0.2 4  388 209 
 PRA  HE ES   1   2339 47.70                             106    -0.1 4  388 209 
                                                                                
