 2011  7 9 2115 11.9 L   6.839 -72.964140.3  RSN  9 0.4 2.1LRSN                1
 GAP=176        0.72       3.0     6.0  5.6 -0.4245E+01  0.4028E+01  0.2096E+01E
 Epicentro: CEPITA - SANTANDER                                                 3
 ACTION:UPD 12-07-25 13:59 OP:epov STATUS:               ID:20110709211511 L   I
 2011-07-09-2110-36S.COL___140                                                 6
 STAT SP IPHASW D HRMM SECON CODA AMPLIT PERI AZIMU VELO AIN AR TRES W  DIS CAZ7
 BAR2 SZ EP       2115 31.39                             165    0.1410 36.4 221 
 BAR2 SZ ES   2   2115 46.02                             165   -0.30 5 36.4 221 
 BAR2 SZ I        2115 48.05        26.9 0.56                          36.4 221 
 BRR  HZ IP       2115 33.43                             146   -0.1110 87.8 290 
 BRR  HZ I        2115 34.97        50.6 0.13                          87.8 290 
 BRR  HN ES   1   2115 50.32                             146   -0.07 7 87.8 290 
 BRI  SZ EP   3   2115 35.56                             143    0.99 2 98.7  11 
 RUS  HZ EP       2115 35.69                             141    0.1710  106 187 
 RUS  HN ES   1   2115 54.10                             141    0.18 7  106 187 
 RUS  HZ I        2115 56.19        18.3 0.30                           106 187 
 GRA  SZ EP       2115 35.58                             138   -0.3810  117   9 
 GRA  SZ ES   1   2115 54.40                             138   -0.30 7  117   9 
 GRA  SZ I        2115 57.44        10.8 0.28                           117   9 
 OCA  SZ EP       2115 40.29                             128    0.52 9  160 346 
 OCA  SZ ES   2   2116  2.06                             128    0.59 5  160 346 
 OCA  SZ I        2116  7.50        18.8 0.23                           160 346 
 CHI  HZ EP       2115 50.19                             115   -0.26 8  259 199 
 CHI  HZ I        2115 51.56         4.7 0.44                           259 199 
 HEL  HZ EP       2115 53.55                             112   -0.63 7  293 256 
 RREF HZ EP       2116  0.24                             109    0.30 7  340 231 
 RREF HN ES   2   2116 38.12                             109    0.74 3  340 231 
 RREF HZ I        2116 43.92        10.4 0.76                           340 231 
                                                                                
