 2010  5 9 2058 12.1 L   6.767 -73.061144.9  RSN 16 0.4 2.8LRSN                1
 GAP=133        0.85       3.3     5.6  5.3 -0.9570E+01  0.3210E+01  0.1908E+01E
 Epicentro: LOS SANTOS - SANTANDER                                             3
 ACTION:UP  10-08-24 10:03 OP:vdl  STATUS:               ID:20100509205812 L   I
 2010-05-09-2054-16S.COL___105                                                 6
 STAT SP IPHASW D HRMM SECON CODA AMPLIT PERI AZIMU VELO SNR AR TRES W  DIS CAZ7
 BAR2 SZ IP       2058 31.55                             170    -0.110   24 215 
 BAR2 SZ ES   1   2058 46.55                             170    -0.4 7   24 215 
 BRR  HZ IP     D 2058 34.21                             149     0.410   81 298 
 BRR  HE ES   1   2058 51.05                             149     0.4 7   81 298 
 BRR  HZ I        2058 52.22        97.9 0.11                            81 298 
 RUS  HZ IP     C 2058 35.50                             145     0.010   97 181 
 RUS  HN ES   1   2058 53.68                             145    -0.1 7   97 181 
 RUS  HZ I        2058 55.34        65.4 0.35                            97 181 
 BRI  SZ IP       2058 36.21                             141     0.210  109  16 
 BRI  SZ ES   1   2058 54.64                             141     0.0 7  109  16 
 GUE  SZ EP   1   2058 36.54                             139    -0.4 7  119   7 
 GRA  SZ IP       2058 37.50                             137     0.110  127  13 
 GRA  SZ ES   1   2058 57.32                             137     0.2 7  127  13 
 OCA  SZ EP   2   2058 41.31                             129     0.4 5  165 350 
 OCA  SZ ES   2   2059  2.33                             129    -0.9 5  165 350 
 OCA  SZ I        2059  6.37        75.8 0.23                           165 350 
 CHI  HZ EP   2   2058 49.37                             117    -0.3 4  248 197 
 CHI  HE ES   2   2059 19.11                             117     0.1 4  248 197 
 CHI  HZ I        2059 24.75        25.6 0.26                           248 197 
 ROSC BZ EP   1   2058 51.09                             116     0.7 6  255 213 
 ROSC BE ES   2   2059 20.45                             116     0.2 4  255 213 
 ROSC BZ I        2059 27.76        35.5 0.54                           255 213 
 HEL  HZ EP   2   2058 52.87                             114    -0.4 4  280 257 
 HEL  HZ I        2059 29.94        26.7 0.63                           280 257 
 RREF BZ EP   1   2058 58.79                             110     0.0 5  327 231 
 RREF BN ES   1   2059 34.56                             110    -0.6 5  327 231 
 RREF BZ I        2059 41.29        32.5 0.32                           327 231 
 TOL  SZ EP   1   2059  2.22                             109     1.4 5  348 226 
 DBB  SZ IP       2058 59.88                             109    -0.8 6  349 275 
 SDV  BZ IP     D 2059  1.25                             108    -0.4 6  356  49 
 SDV  BZ I        2059  2.02        11.2 0.31                           356  49 
 ANIL BZ EP   2   2059  2.64                             108     0.2 3  361 226 
 ANIL BN ES   2   2059 41.26                             108    -0.3 3  361 226 
 ANIL BZ I        2059 47.83        56.5 0.35                           361 226 
 PRA  HZ EP   1   2059  5.27                             106    -0.6 4  394 211 
 PRA  HN ES   1   2059 47.69                             106     0.0 4  394 211 
 PRA  HZ I        2059 53.35        35.0 0.30                           394 211 
                                                                                
