 2012  2 9 2104 27.5 L   6.799 -73.078144.9  RSN  5 0.3 1.8LRSN                1
 GAP=145        0.54       4.2     7.0  7.0  0.1902E+01  0.1466E+01 -0.6114E+01E
 ACTION:UP  12-03-07 16:29 OP:epov STATUS:               ID:20120209210427 L   I
 2012-02-09-2100-00M.COL___188                                                 6
 STAT SP IPHASW D HRMM SECON CODA AMPLIT PERI AZIMU VELO AIN AR TRES W  DIS CAZ7
 BAR2 SZ EP   2   21 4 47.48                             170    0.41 5 25.6 207 
 BAR2 SZ ES   2   21 5  2.52                             170    0.17 5 25.6 207 
 BAR2 SZ I        21 5  3.75        18.8 0.19                          25.6 207 
 GIR2 SZ EP       21 4 47.12                             166   -0.0110 33.4 338 
 PAM  SZ EP   1   21 4 49.79                             152    0.43 7 72.9  35 
 PAM  SN ES   2   21 5  5.80                             152   -0.62 5 72.9  35 
 BRR  HZ EP       21 4 48.79                             150   -0.1610 77.9 296 
 BRR  HZ I        21 5  0.87        19.8 0.57                          77.9 296 
 BRR  HN ES   2   21 5  5.93                             150    0.25 5 77.9 296 
 RUS  HZ EP   1   21 4 50.92                             144   -0.22 7  100 180 
 RUS  HE ES   1   21 5  9.58                             144    0.00 7  100 180 
 RUS  HZ I        21 5 10.91         4.0 0.47                           100 180 
                                                                                
