 2012  5 9 2155 30.2 L   6.792 -73.135155.0  RSN  6 0.4 1.6LRSN                1
 GAP=138        1.01       7.3     6.6  9.1  0.1261E+02  0.1583E+02  0.1229E+02E
 Epicentro: LOS SANTOS - SANTANDER                                             3
 ACTION:UP  12-07-05 12:03 OP:pat  STATUS:               ID:20120509215530 L   I
 2012-05-09-2150-00M.COL___195                                                 6
 STAT SP IPHASW D HRMM SECON CODA AMPLIT PERI AZIMU VELO SNR AR TRES W  DIS CAZ7
 BAR2 SZ EP       2155 50.95                             171     0.010   23 193 
 BAR2 SZ ES   1   2156  7.13                             171     0.0 7   23 193 
 BAR2 SZ I        2156  8.99         7.0 0.24                            23 193 
 BRR  HZ EP       2155 52.91                             154     0.510   73 299 
 BRR  HE ES       2156 10.13                             154     0.410   73 299 
 BRR  HZ I        2156 12.42         9.3 0.15                            73 299 
 PAM  SN ES   1   2156 10.82                             152    -0.7 7   77  38 
 RUS  HZ EP   1   2155 54.92                             146     0.1 7  100 177 
 RUS  HZ I        2155 55.64         1.9 0.22                           100 177 
 RUS  HN ES   1   2156 14.09                             146     0.1 7  100 177 
 PTB  HZ EP       2155 57.64                             134    -0.4 9  149 259 
 PTB  HN ES   1   2156 19.11                             134    -0.6 7  149 259 
 PTB  HZ I        2156 24.89         5.0 0.46                           149 259 
 ZAR  HN ES   1   2156 29.25                             124     0.0 6  205 292 
 ZAR  HZ I        2156 35.42         5.9 0.34                           205 292 
                                                                                
