 2010  3 9 2028 27.8 L   6.783 -73.050146.6  RSN  8 0.4 2.1LRSN                1
 GAP=193        1.04       4.0     8.4  6.2 -0.1602E+01  0.1097E+02  0.4749E+01E
 Epicentro: LOS SANTOS - SANTANDER                                             3
 ACTION:UP  10-08-24 09:53 OP:vdl  STATUS:               ID:20100309202827 L   I
 2010-03-09-2020-00S.COL___100                                                 6
 STAT SP IPHASW D HRMM SECON CODA AMPLIT PERI AZIMU VELO SNR AR TRES W  DIS CAZ7
 BAR2 SZ EP   1   2028 47.62                             169     0.1 7   26 215 
 BAR2 SZ ES       2029  2.26                             169    -0.710   26 215 
 BRR  HZ EP       2028 49.54                             149    -0.110   82 296 
 BRR  HN ES       2029  7.14                             149     0.510   82 296 
 BRR  HZ I        2029  9.42        28.9 0.29                            82 296 
 RUS  BZ EP       2028 51.50                             145     0.010   99 182 
 RUS  BN ES       2029 10.43                             145     0.510   99 182 
 RUS  BZ I        2029 11.36        13.3 0.33                            99 182 
 OCA  SZ EP       2028 56.04                             129    -0.4 9  164 350 
 OCA  SZ ES   2   2029 19.60                             129     0.8 5  164 350 
 CHI  HZ EP       2029  5.43                             117    -0.2 8  250 198 
 CHI  HE ES       2029 35.24                             117     0.0 8  250 198 
 CHI  HZ I        2029 43.42         6.9 0.33                           250 198 
 RREF BZ EP       2029 15.42                             110     0.7 7  329 231 
 RREF BN ES   2   2029 51.06                             110    -0.3 3  329 231 
 RREF BZ I        2030  0.05        10.2 0.26                           329 231 
 TOL  SZ EP       2029 16.88                             109     0.1 6  350 226 
 TOL  SZ ES       2029 54.26                             109    -0.7 6  350 226 
 PRA  HZ EP       2029 21.59                             106    -0.2 6  396 211 
 PRA  HN ES   1   2030  4.51                             106     0.6 4  396 211 
                                                                                
