 2013  3 9 2248 22.7 L   6.759 -73.189141.5  RSN  7 0.5 1.7LRSN                1
 GAP=133        0.90       5.1     6.5  8.1 -0.6390E+01  0.1549E+02  0.5270E+01E
 Epicentro: VILLANUEVA - SANTANDER                                             3
 ACTION:UPD 13-04-09 14:01 OP:ep   STATUS:               ID:20130309224822 L   I
 2013-03-09-2240-00M.COL___231                                                 6
 STAT SP IPHASW D HRMM SECON CODA AMPLIT PERI AZIMU VELO AIN AR TRES W  DIS CAZ7
 BAR2 SZ EP   1   2248 41.82                             172    0.05 7 18.5 178 
 BAR2 SZ ES   1   2248 56.84                             172    0.22 7 18.5 178 
 BAR2 SZ I        2248 58.40        28.7 0.20            169           18.5 178 
 BRR  HZ EP     C 2248 43.77                             152    0.4410 69.4 304 
 BRR  HN ES   4   2249  0.93                             152    1.54 0 69.4 304 
 BRR  HZ I        2249  1.94         6.9 0.12            152           69.4 304 
 PAM  SZ EP   1   2248 44.80                             148   -0.12 7 83.9  40 
 PAM  SN ES   1   2249  1.50                             148   -0.71 7 83.9  40 
 PAM  SZ I        2249  4.35         5.8 0.62            155           83.9  40 
 RUS  HZ EP   1   2248 45.84                             144    0.06 7 96.5 173 
 RUS  HN ES   1   2249  4.33                             144    0.57 7 96.5 173 
 RUS  HZ I        2249  5.75         7.3 0.22            145           96.5 173 
 PTB  HZ EP   1   2248 48.90                             132    0.04 7  142 260 
 PTB  HN ES   1   2249  8.88                             132   -0.36 7  142 260 
 PTB  HZ I        2249 15.52         7.3 0.32            132            142 260 
 CHI  HZ EP   1   2248 59.99                             117    0.39 6  243 194 
 CHI  HN ES   1   2249 27.21                             117   -1.14 6  243 194 
 CHI  HZ I        2249 35.53         2.5 0.34            118            243 194 
 PRA  HZ EP   1   2249 15.12                             106   -0.26 4  386 209 
                                                                                
