 2014  2 9 2228 31.3 L   6.761 -73.150141.8  RSN 12 0.5 1.8LRSN                1
 GAP= 72        1.17       3.3     3.9  5.8 -0.1247E+01  0.4377E+01  0.1278E+01E
 Epicentro: LOS SANTOS - SANTANDER                                             3
 ACTION:UPD 14-03-10 08:09 OP:ep   STATUS:               ID:20140209222831 L   I
 OLDACT:DUP 14-02-10 01:29 OP:stll STATUS:               ID:20140209221821d    3
 2014-02-09-2218-19M.COL___224                                                 6
 STAT SP IPHASW D HRMM SECON CODA AMPLIT PERI AZIMU VELO AIN AR TRES W  DIS CAZ7
 BAR2 SZ IP     D 2228 50.42                             172    0.1010 19.0 191 
 BAR2 SZ ES       2229  5.10                             172   -0.1010 19.0 191 
 BAR2 SZ I        2229  6.49        25.9 0.30            169           19.0 191 
 BRR  HZ EP       2228 52.44                             151    0.3710 72.9 302 
 BRR  HN ES       2229  9.35                             151    1.0410 72.9 302 
 PAM  SZ IP     D 2228 53.48                             149    0.2110 81.0  38 
 PAM  SZ I        2228 53.61        13.9 0.24            154           81.0  38 
 PAM  SN ES       2229 10.05                             149   -0.3910 81.0  38 
 RUS  HZ EP       2228 54.28                             144   -0.0310 96.4 176 
 RUS  HN ES       2229 12.37                             144    0.0810 96.4 176 
 RUS  HZ I        2229 14.54         5.9 0.34            144           96.4 176 
 PTB  HZ EP       2228 57.32                             131   -0.46 9  147 260 
 PTB  HE ES       2229 17.88                             131   -0.60 9  147 260 
 PTB  HZ I        2229 24.29         7.9 0.22            130            147 260 
 TAM  HZ IP     C 2228 58.67                             130    0.11 9  155 103 
 TAM  HZ I        2228 58.78        14.8 0.18            133            155 103 
 SPBC HZ EP       2228 59.37                             129    0.27 9  160 220 
 SPBC HN ES       2229 20.84                             129    0.01 9  160 220 
 SPBC HZ I        2229 27.12        12.1 0.28            128            160 220 
 ZAR  HZ EP       2229  4.17                             121    0.60 8  205 293 
 ZAR  HN ES       2229 28.63                             121   -0.14 8  205 293 
 ZAR  HZ I        2229 36.02         6.5 0.26            121            205 293 
 NOR  HZ EP       2229  6.70                             118    0.25 8  232 235 
 NOR  HN ES       2229 33.62                             118   -0.27 8  232 235 
 NOR  HZ I        2229 42.75         5.7 0.18            118            232 235 
 CHI  HZ EP       2229  8.32                             117    0.05 8  244 195 
 CHI  HN ES       2229 36.06                             117   -1.08 8  244 195 
 CHI  HZ I        2229 41.51         1.8 0.42            117            244 195 
 SML  HZ EP       2229  7.96                             116   -0.10 8  247 336 
 SML  HN ES       2229 35.62                             116   -1.15 8  247 336 
 GUY2CHZ EP       2229 14.57                             112    0.21 7  298 235 
 GUY2CHN ES       2229 48.60                             112    0.62 7  298 235 
 GUY2CHZ I        2229 57.76         3.0 0.36                           298 235 
                                                                                
