 2017  1 9 2234 21.0 L   6.741 -73.082142.1  RSN  5 0.3 1.3LRSN                1
 GAP=147        0.73       3.7     3.7  7.2  0.1521E+01  0.3781E+01  0.1216E+01E
 Epicentro: JORDAN - SANTANDER                                                 3
 ACTION:UPD 17-05-22 15:57 OP:jn   STATUS:               ID:20170109223421 L   I
 OLDACT:UP  17-04-19 21:15 OP:nlst STATUS:               ID:20170109223421 L   3
 OLDACT:REG 17-01-10 03:57 OP:lv   STATUS:               ID:20170109222751     3
 2017-01-09-2228-00M.COL___366                                                 6
 STAT SP IPHASW D HRMM SECON CODA AMPLIT PERI AZIMU VELO AIN AR TRES W  DIS CAZ7
 PAM  EN EP       2234 43.16                             150    0.3010 78.5  33 
 PAM  EZ ES       2234 59.57                             150   -0.3710 78.5  33 
 PAM  EN I        2235  1.25         5.4 0.45            151           78.5  33 
 BRR  HZ EP       2234 42.06                             149   -0.2210 80.5 300 
 BRR  HE ES       2234 59.29                             149    0.3810 80.5 300 
 RUS  HN EP       2234 43.91                             145    0.0310 93.9 180 
 RUS  HZ ES       2235  1.82                             145    0.0710 93.9 180 
 RUS  HN I        2235  3.62         1.5 0.27            146           93.9 180 
 PTB  HN ES   1   2235  8.87                             130   -0.53 7  154 262 
 ZAR  HE ES       2235 20.06                             120    0.09 8  213 293 
 ZAR  HZ I        2235 23.25         2.0 0.22            121            213 293 
                                                                                
