 2017  7 9 2223 11.3 L   6.522 -73.034133.0  RSN  6 0.2 1.5LRSN                1
 GAP=208        0.62       5.0     4.4  6.7 -0.1526E+02 -0.7836E+01  0.1619E+02E
 Epicentro: MOGOTES - SANTANDER                                                3
 ACTION:UPD 17-08-30 15:31 OP:rebc STATUS:               ID:20170709222311 L   I
 OLDACT:UP  17-07-10 06:55 OP:osc  STATUS:               ID:20170709221742     3
 OLDACT:REG 17-07-10 03:17 OP:osc  STATUS:               ID:20170709221742     3
 2017-07-09-2218-00M.COL___383                                                 6
 STAT SP IPHASW D HRMM SECON CODA AMPLIT PERI AZIMU VELO AIN AR TRES W  DIS CAZ7
 PAM  EZ EP       2223 33.82                             142    0.2110 97.7  22 
 PAM  EE ES       2223 51.05                             142    0.0510 97.7  22 
 PAM  EZ I        2223 52.68         7.0 0.44            145           97.7  22 
 BRR  HZ EP       2223 32.74                             141   -0.2910 99.0 311 
 BRR  HE ES       2223 49.84                             141   -0.1210 99.0 311 
 SPBC HE ES       2223 57.93                             129   -0.13 9  150 230 
 PTB  HZ EP       2223 37.94                             127   -0.26 9  157 271 
 PTB  HE ES       2223 59.55                             127    0.39 9  157 271 
 PTB  HZ I        2224  5.23         2.0 0.13            127            157 271 
 ZAR  HE ES   4   2224  9.08                             116   -3.23 0  228 298 
 ZAR  HZ I        2224 14.28         3.7 0.14            117            228 298 
 NOR  HZ EP       2223 45.98                             116    0.25 8  229 243 
 NOR  HN ES   4   2224 14.41                             116    1.84 0  229 243 
 NOR  HZ I        2224 18.36         1.9 0.12            117            229 243 
 GUY2CHN ES   4   2224 24.45                             110   -2.30 0  295 241 
                                                                                
