 2017 11 9 2111 53.7 L   6.258 -73.132175.4  RSN  9 0.4 2.0LRSN                1
 GAP=147        1.02       4.2     4.6  6.1  0.7314E+01  0.7998E+01  0.4355E+01E
 Epicentro: CHARALA - SANTANDER                                                3
 ACTION:UPD 17-12-12 19:53 OP:rebc STATUS:               ID:20171109211153 L   I
 OLDACT:REG 17-11-10 02:58 OP:dhb  STATUS:               ID:20171109210741     3
 2017-11-09-2108-00M.COL___459                                                 6
 STAT SP IPHASW D HRMM SECON CODA AMPLIT PERI AZIMU VELO AIN AR TRES W  DIS CAZ7
 BAR2 EZ IP     D 2112 16.87                             168   -0.3010 37.3 351 
 BAR2 EZ ES       2112 34.88                             168   -0.6210 37.3 351 
 BAR2 EZ I        2112 36.53        31.2 0.42            164           37.3 351 
 RUS  HZ IP     D 2112 17.60                             166   -0.0410 40.8 172 
 RUS  HN ES       2112 36.94                             166    0.5910 40.8 172 
 RUS  HZ I        2112 39.18        16.0 0.54            168           40.8 172 
 BRR  HZ IP     C 2112 20.93                             146    0.3510  114 326 
 BRR  HZ I        2112 39.95        12.5 0.34            142            114 326 
 BRR  HN ES       2112 42.26                             146    0.6710  114 326 
 YPLC HZ IP     D 2112 21.43                             143   -0.1910  127 139 
 YPLC HZ ES       2112 43.46                             143    0.0310  127 139 
 YPLC HZ I        2112 47.11         8.5 0.34            142            127 139 
 PTB  HZ EP       2112 22.95                             138   -0.40 9  150 282 
 PTB  HN ES       2112 46.39                             138   -0.12 9  150 282 
 PTB  HZ I        2112 47.26         9.6 0.14            136            150 282 
 CHI  HZ IP     D 2112 27.60                             130   -0.01 9  192 200 
 CHI  HN ES       2112 53.73                             130   -0.35 9  192 200 
 CHI  HZ I        2112 56.48         6.0 0.32            130            192 200 
 NOR  HZ EP       2112 29.14                             128    0.59 8  207 248 
 NOR  HE ES       2112 55.56                             128   -0.21 8  207 248 
 NOR  HZ I        2113  1.49         6.0 0.60            127            207 248 
 ZAR  HZ EP       2112 30.89                             124   -0.31 8  235 306 
 ZAR  HE ES       2113  0.13                             124   -0.34 8  235 306 
 ZAR  HZ I        2113  7.36         7.6 0.30            122            235 306 
 GUY2CHZ EP       2112 36.42                             120    0.70 8  272 245 
 GUY2CHE ES   4   2113 11.94                             120    3.41 0  272 245 
 GUY2CHZ I        2113 21.75         3.5 0.36                           272 245 
                                                                                
