 2016  4 9 2226 41.9 L   6.558 -73.482114.7  RSN  4 0.1 1.3LRSN                1
 GAP=174        0.36       2.4     1.7  3.6  0.3245E+00  0.1736E+01 -0.2118E+00E
 Epicentro: EL CARMEN - SANTANDER                                              3
 ACTION:UPD 16-05-05 14:19 OP:rebc STATUS:               ID:20160409222641 L   I
 OLDACT:REG 16-04-10 03:31 OP:cara STATUS:               ID:20160409221746     3
 2016-04-09-2217-46M.COL___299                                                 6
 STAT SP IPHASW D HRMM SECON CODA AMPLIT PERI AZIMU VELO AIN AR TRES W  DIS CAZ7
 BAR2 EZ EP       2226 58.18                             163    0.0710 33.4  83 
 BAR2 EZ ES       2227 10.82                             163    0.0610 33.4  83 
 BAR2 EZ I        2227 12.13         6.5 0.18            168           33.4  83 
 RUS  HZ EP       2227  1.56                             141    0.0310 85.8 149 
 RUS  HE ES       2227 16.70                             141   -0.1610 85.8 149 
 RUS  HZ I        2227 18.04         4.1 0.20            144           85.8 149 
 PTB  HZ EP       2227  2.62                             134   -0.0710  108 269 
 PTB  HN ES       2227 18.87                             134   -0.0610  108 269 
 PTB  HZ I        2227 22.28         2.5 0.12            135            108 269 
 SPBC HN ES       2227 21.15                             130    0.1410  120 213 
 SPBC HZ I        2227 24.83         6.3 0.18            131            120 213 
                                                                                
