 2012  5 9 2314 25.3 L   6.696 -73.193158.0  RSN  5 0.2 1.5LRSN                1
 GAP=224        0.51       5.6     5.1  6.7  0.1813E+02 -0.3293E+01 -0.4725E+01E
 Epicentro: VILLANUEVA - SANTANDER                                             3
 ACTION:UP  12-07-05 12:03 OP:pat  STATUS:               ID:20120509231425 L   I
 2012-05-09-2310-00M.COL___195                                                 6
 STAT SP IPHASW D HRMM SECON CODA AMPLIT PERI AZIMU VELO SNR AR TRES W  DIS CAZ7
 BAR2 SZ EP   1   2314 46.13                             176    -0.1 7   12 174 
 BRR  HZ EP   1   2314 47.96                             154     0.1 7   73 308 
 BRR  HZ I        2314 51.55         7.9 0.35                            73 308 
 BRR  HN ES   1   2315  5.62                             154     0.1 7   73 308 
 RUS  HZ EP   1   2314 49.39                             149    -0.1 7   90 172 
 RUS  HN ES   1   2315  8.36                             149    -0.1 7   90 172 
 PTB  HZ EP   1   2314 52.95                             136     0.3 7  141 263 
 PTB  HN ES   1   2315 14.12                             136     0.1 7  141 263 
 PTB  HZ I        2315 16.23         2.1 0.37                           141 263 
 ZAR  HE ES   1   2315 24.01                             125    -0.5 6  204 296 
 ZAR  HZ I        2315 31.13         2.6 0.34                           204 296 
                                                                                
