 2010  3 9 2055 56.7 L   6.850 -73.009142.4  RSN 10 0.4 2.3LRSN                1
 GAP=254        0.90       4.8     5.7  5.5  0.6428E+01  0.1227E+02  0.8178E+01E
 Epicentro: CEPITA - SANTANDER                                                 3
 ACTION:UP  10-08-24 09:53 OP:vdl  STATUS:               ID:20100309205556 L   I
 2010-03-09-2040-00S.COL___100                                                 6
 STAT SP IPHASW D HRMM SECON CODA AMPLIT PERI AZIMU VELO SNR AR TRES W  DIS CAZ7
 BAR2 SZ EP   1   2056 16.80                             166     0.6 7   34 214 
 BAR2 SZ ES       2056 31.00                             166    -0.410   34 214 
 BRR  HZ EP       2056 18.18                             148     0.010   83 290 
 BRR  HE ES       2056 35.18                             148     0.310   83 290 
 BRR  HZ I        2056 36.02        43.2 0.15                            83 290 
 RUS  BZ EP       2056 20.16                             141    -0.410  106 184 
 RUS  BN ES       2056 39.20                             141     0.110  106 184 
 RUS  BZ I        2056 41.21        14.5 0.32                           106 184 
 CHI  HZ EP       2056 35.20                             115     0.0 8  258 198 
 CHI  HE ES   1   2057  5.97                             115     0.6 6  258 198 
 CHI  HZ I        2057 11.72         5.8 0.29                           258 198 
 HEL  HZ EP       2056 38.29                             113    -0.2 7  288 255 
 HEL  HE ES       2057 10.70                             113    -0.4 7  288 255 
 HEL  HZ I        2057 15.62        13.2 0.41                           288 255 
 GUY  HE ES       2057 17.65                             110     0.5 7  317 236 
 RREF BZ EP       2056 45.21                             109     0.8 7  337 230 
 RREF BZ I        2057 27.31         8.1 0.18                           337 230 
 DBB  SZ EP       2056 45.62                             108    -0.1 6  354 273 
 TOL  SZ EP       2056 46.23                             108    -0.3 6  358 226 
 TOL  SZ ES       2057 24.93                             108    -0.4 6  358 226 
 PRA  HZ EP       2056 51.20                             105    -0.3 6  404 211 
 PRA  HE ES   1   2057 34.51                             105     0.2 4  404 211 
 PRA  HZ I        2057 40.66         8.7 0.27                           404 211 
                                                                                
