 2016  8 9 2023  9.1 L   6.219 -73.753 94.1  RSN  6 0.3 1.5LRSN                1
 GAP=122        0.74       3.4     2.9  6.5  0.4076E+01  0.9066E+01  0.5917E+01E
 Epicentro: LANDAZURI - SANTANDER                                              3
 ACTION:UPD 16-10-29 15:34 OP:rebc STATUS:               ID:20160809202309 L   I
 OLDACT:UP  16-08-10 03:13 OP:drio STATUS:               ID:20160809201759     3
 OLDACT:REG 16-08-10 03:01 OP:drio STATUS:               ID:20160809201759     3
 2016-08-09-2017-59S.COL___334                                                 6
 STAT SP IPHASW D HRMM SECON CODA AMPLIT PERI AZIMU VELO AIN AR TRES W  DIS CAZ7
 BAR2 EZ EP       2023 25.81                             139    0.1210 75.4  57 
 BAR2 EZ ES       2023 38.57                             139   -0.0310 75.4  57 
 RUS  HZ EP       2023 26.84                             136    0.2110 82.5 116 
 RUS  HN ES       2023 40.38                             136    0.1110 82.5 116 
 RUS  HZ I        2023 42.33         3.5 0.14                          82.5 116 
 PTB  HZ EP       2023 25.90                             134   -0.3410 85.5 295 
 PTB  HE ES       2023 39.47                             134   -0.1110 85.5 295 
 PTB  HZ I        2023 42.94         9.7 0.10                          85.5 295 
 BRR  HZ EP       2023 26.92                             130   -0.4710 98.3   3 
 BRR  HE ES       2023 41.60                             130   -0.0210 98.3   3 
 ZAR  HZ EP       2023 36.76                             112   -0.04 9  186 319 
 ZAR  HN ES       2023 59.06                             112    0.69 9  186 319 
 ZAR  HZ I        2024  0.15         7.5 0.16                           186 319 
 GUY2CHZ EP       2023 40.12                             110    0.05 8  210 238 
 GUY2CHN ES   4   2024  6.75                             110    2.55 0  210 238 
 GUY2CHZ I        2024 12.63         3.1 0.64                           210 238 
                                                                                
