 2014  6 9 2340  5.4 L   6.801 -73.137141.4  RSN 19 0.6 2.3LRSN                1
 GAP= 71        1.25       3.1     3.3  5.5 -0.2274E+01  0.3716E+01  0.2356E+01E
 Epicentro: LOS SANTOS - SANTANDER                                             3
 ACTION:UPD 14-07-01 22:52 OP:nd   STATUS:               ID:20140609234005 L   I
 OLDACT:DUP 14-06-10 07:48 OP:stll STATUS:               ID:20140609233822d    3
 2014-06-09-2338-21M.COL___256                                                 6
 STAT SP IPHASW D HRMM SECON CODA AMPLIT PERI AZIMU VELO AIN AR TRES W  DIS CAZ7
 BAR2 SZ IP     D 2340 24.73                             170    0.2410 23.6 192 
 BAR2 SZ ES       2340 39.29                             170   -0.1110 23.6 192 
 BAR2 SZ I        2340 41.81        52.3 0.18            168           23.6 192 
 BRR  HZ IP     C 2340 26.53                             151    0.4210 72.0 298 
 BRR  HZ I        2340 26.74        65.0 0.22            151           72.0 298 
 BRR  HN ES       2340 43.16                             151    0.8910 72.0 298 
 PAM  SZ IP     C 2340 27.66                             150    0.5710 76.7  39 
 PAM  SN ES       2340 44.28                             150    0.2610 76.7  39 
 PAM  SZ I        2340 46.85        42.6 0.52            154           76.7  39 
 RUS  HZ IP     C 2340 28.76                             143    0.0510  101 177 
 RUS  HN ES       2340 46.65                             143   -0.2610  101 177 
 RUS  HZ I        2340 49.49        16.9 0.34            143            101 177 
 PTB  HZ EP       2340 31.17                             131   -0.92 9  149 259 
 PTB  HN ES       2340 52.16                             131   -0.76 9  149 259 
 PTB  HZ I        2340 54.16        28.0 0.44            131            149 259 
 TAM  HZ IP     D 2340 33.12                             130    0.49 9  154 105 
 TAM  HZ I        2340 33.49        28.7 0.36            133            154 105 
 TAM  HN ES       2340 53.90                             130    0.02 9  154 105 
 OCA  HZ EP       2340 33.06                             129   -0.29 9  160 353 
 OCA  HE ES       2340 54.28                             129   -0.89 9  160 353 
 OCA  HZ I        2340 57.77        22.2 0.30            131            160 353 
 SPBC HZ IP     C 2340 33.78                             128    0.16 9  164 219 
 SPBC HN ES       2340 55.35                             128   -0.29 9  164 219 
 SPBC HZ I        2341  2.19        24.8 0.14            128            164 219 
 ZAR  HZ EP       2340 38.03                             121    0.40 9  205 292 
 ZAR  HN ES       2341  2.49                             121   -0.30 9  205 292 
 ZAR  HZ I        2341  9.44        30.9 0.26            122            205 292 
 NOR  HZ EP       2340 40.52                             117   -0.43 8  236 235 
 NOR  HN ES       2341  8.42                             117   -0.28 8  236 235 
 NOR  HZ I        2341 12.44        23.5 0.44            118            236 235 
 SML  HZ EP       2340 41.10                             116   -0.70 8  244 335 
 CHI  HZ EP       2340 42.84                             116   -0.04 8  249 195 
 CHI  HN ES       2341 11.26                             116   -0.87 8  249 195 
 CHI  HZ I        2341 16.59         5.1 0.34            117            249 195 
 HEL  HZ EP       2340 46.97                             114    1.49 8  273 256 
 HEL  HE ES       2341 17.48                             114    0.71 8  273 256 
 HEL  HZ I        2341 23.11        13.2 0.52            115            273 256 
 GUY2CHZ EP       2340 49.49                             111    0.60 7  302 235 
 GUY2CHN ES       2341 23.33                             111    0.50 7  302 235 
 GUY2CHZ I        2341 31.07        14.5 0.42                           302 235 
 RREF HZ EP   2   2340 51.60                             110    0.17 3  323 229 
 RREF HE ES       2341 27.46                             110    0.11 7  323 229 
 RREF HZ I        2341 31.95        10.1 0.30            111            323 229 
 TOL  SZ EP       2340 53.62                             108    0.07 7  344 225 
 TOL  SN ES       2341 31.38                             108    0.25 7  344 225 
 TOL  SZ I        2341 38.91        11.3 0.16            109            344 225 
 SDV  BZ EP       2340 54.41                             107   -0.75 6  360  50 
 PRA  HZ EP       2340 58.77                             106   -0.05 6  393 210 
 PRA  HN ES       2341 39.51                             106   -1.00 6  393 210 
 PRA  HZ I        2341 47.29         9.7 0.30            107            393 210 
 ORTC HZ EP   1   2340 59.32                             106    0.09 4  396 216 
 ORTC HE ES       2341 41.50                             106    0.26 6  396 216 
 ORTC HZ I        2341 46.59         3.5 0.18            106            396 216 
                                                                                
