 2016  2 9 2300 18.1 L   6.710 -73.056144.5  RSN  8 0.3 1.8LRSN                1
 GAP=152        0.72       3.0     3.7  5.0 -0.2142E+01  0.8141E+01  0.2715E+01E
 Epicentro: ARATOCA - SANTANDER                                                3
 ACTION:UPD 16-03-04 21:24 OP:rebc STATUS:               ID:20160209230018 L   I
 OLDACT:REG 16-02-10 03:44 OP:cara STATUS:               ID:20160209225751     3
 2016-02-09-2257-51M.COL___319                                                 6
 STAT SP IPHASW D HRMM SECON CODA AMPLIT PERI AZIMU VELO AIN AR TRES W  DIS CAZ7
 BAR2 EZ ES       23 0 52.24                             172   -0.3510 19.1 227 
 BAR2 EZ I        23 0 53.92         9.7 0.18            171           19.1 227 
 PAM  EZ EP       23 0 40.33                             150    0.0310 80.0  30 
 PAM  EN ES       23 0 57.60                             150   -0.0510 80.0  30 
 PAM  EZ I        23 0 59.49        10.5 0.46            152           80.0  30 
 RUS  HZ EP       23 0 41.17                             146    0.1910 90.4 182 
 RUS  HN ES       23 0 59.22                             146    0.3710 90.4 182 
 RUS  HZ I        23 1  1.04         5.0 0.18            147           90.4 182 
 ZAR  HE ES       23 1 18.34                             120    0.26 8  217 294 
 ZAR  HZ I        23 1 20.60         5.3 0.36            121            217 294 
 NOR  HZ EP       23 0 53.61                             118   -0.39 8  237 238 
 NOR  HN ES       23 1 21.74                             118   -0.30 8  237 238 
 NOR  HZ I        23 1 23.79         5.7 0.14            119            237 238 
 CHI  HZ EP       23 0 55.22                             117    0.26 8  242 198 
 CHI  HN ES       23 1 23.47                             117   -0.27 8  242 198 
 CHI  HZ I        23 1 28.28         3.1 0.44            118            242 198 
 SML  HZ EP   4   23 0 53.97                             116   -2.09 0  257 334 
 SML  HE ES   4   23 1 22.20                             116   -3.50 0  257 334 
 SML  HZ I        23 1 25.64        12.7 0.26            117            257 334 
 GUY2CHZ EP       23 1  1.55                             112   -0.36 7  304 237 
 GUY2CHN ES       23 1 36.64                             112    0.53 7  304 237 
 GUY2CHZ I        23 1 47.77         2.6 0.30                           304 237 
                                                                                
