 2016  2 9 2000 34.0 L   6.831 -73.144149.9  RSN  9 0.2 1.9LRSN                1
 GAP=135        0.59       1.9     2.5  4.1 -0.6875E+00  0.4162E+01 -0.6039E+00E
 Epicentro: LOS SANTOS - SANTANDER                                             3
 ACTION:UPD 16-03-04 21:24 OP:rebc STATUS:               ID:20160209200034 L   I
 OLDACT:REG 16-02-10 03:20 OP:cara STATUS:               ID:20160209195748     3
 2016-02-09-1957-48M.COL___325                                                 6
 STAT SP IPHASW D HRMM SECON CODA AMPLIT PERI AZIMU VELO AIN AR TRES W  DIS CAZ7
 BAR2 EZ EP       20 0 54.02                             169   -0.1810 26.8 189 
 BAR2 EZ ES       20 1  9.96                             169    0.0110 26.8 189 
 BAR2 EZ I        20 1 12.02        12.5 0.24            169           26.8 189 
 PAM  EZ EP       20 0 56.68                             152    0.1810 74.6  41 
 PAM  EN ES       20 1 14.10                             152    0.0610 74.6  41 
 PAM  EZ I        20 1 16.37         8.7 0.22            156           74.6  41 
 RUS  HZ EP       20 0 58.31                             144   -0.1010  104 176 
 RUS  HN ES       20 1 17.43                             144   -0.0110  104 176 
 RUS  HZ I        20 1 18.33         5.0 0.68            148            104 176 
 PTB  HZ EP       20 1  1.23                             133   -0.15 9  149 258 
 PTB  HN ES       20 1 22.62                             133   -0.12 9  149 258 
 PTB  HZ I        20 1 29.44        15.1 0.86            133            149 258 
 ZAR  HE ES       20 1 31.73                             123   -0.29 9  203 291 
 ZAR  HZ I        20 1 38.68         8.2 0.28            124            203 291 
 NOR  HZ EP       20 1 10.65                             119    0.45 8  237 234 
 NOR  HE ES       20 1 38.69                             119    0.26 8  237 234 
 NOR  HZ I        20 1 46.13         4.6 0.16            121            237 234 
 SML  HZ EP       20 1 10.06                             119   -0.47 8  241 335 
 SML  HN ES       20 1 39.47                             119    0.45 8  241 335 
 SML  HZ I        20 1 45.20        10.3 0.10            120            241 335 
 CHI  HN ES       20 1 42.06                             118   -0.11 8  252 195 
 GUY2CHZ EP   4   20 1 19.76                             113    1.72 0  303 234 
 GUY2CHE ES       20 1 52.58                             113    0.19 7  303 234 
 GUY2CHZ I        20 2  1.29         4.7 0.70                           303 234 
                                                                                
