 2015  1 9 2309 54.8 L   6.777 -73.161140.4  RSN  7 0.3 1.6LRSN                1
 GAP= 98        0.74       3.4     3.1  4.7 -0.2498E+01 -0.5699E+00  0.2370E+01E
 Epicentro: LOS SANTOS - SANTANDER                                             3
 ACTION:UPD 15-03-02 15:38 OP:nd   STATUS:               ID:20150109230954 L   I
 OLDACT:REG 15-01-10 05:12 OP:stll STATUS:               ID:20150109230746     3
 2015-01-09-2307-46M.COL___265                                                 6
 STAT SP IPHASW D HRMM SECON CODA AMPLIT PERI AZIMU VELO AIN AR TRES W  DIS CAZ7
 BAR2 EZ EP       2310 13.83                             171    0.1410 20.6 187 
 BAR2 EZ ES       2310 28.42                             171   -0.0310 20.6 187 
 BAR2 EZ I        2310 29.89         9.7 0.18            170           20.6 187 
 BRR  HZ EP       2310 15.79                             152    0.4810 71.0 301 
 BRR  HN ES       2310 31.69                             152    0.3410 71.0 301 
 BRR  HZ I        2310 33.47         9.4 0.34            151           71.0 301 
 PAM  SZ EP       2310 16.71                             149    0.1210 80.4  39 
 PAM  SZ I        2310 17.01         8.5 0.24            152           80.4  39 
 PAM  SN ES       2310 33.20                             149   -0.4210 80.4  39 
 RUS  HZ EP       2310 17.87                             143    0.0610 98.2 175 
 RUS  HN ES       2310 35.85                             143    0.0710 98.2 175 
 RUS  HZ I        2310 37.86         4.8 0.42            144           98.2 175 
 PTB  HZ EP       2310 20.58                             131   -0.52 9  146 260 
 PTB  HN ES       2310 41.29                             131   -0.35 9  146 260 
 PTB  HZ I        2310 47.40         4.6 0.22            131            146 260 
 TAM  HZ EP       2310 22.00                             129   -0.11 9  156 104 
 SPBC HZ EP       2310 22.67                             128    0.11 9  160 219 
 SPBC HN ES       2310 44.23                             128   -0.01 9  160 219 
 SPBC HZ I        2310 47.07         7.4 0.36            128            160 219 
                                                                                
