 2013  9 9 2119 35.6 L   6.735 -73.177146.1  RSN  6 0.4 1.5LRSN                1
 GAP=135        0.89       6.6     4.8  8.4 -0.5675E+01  0.3136E+01  0.1298E+02E
 Epicentro: VILLANUEVA - SANTANDER                                             3
 ACTION:UPD 13-10-22 09:21 OP:ep   STATUS:               ID:20130909211935 L   I
 OLDACT:UP  13-09-10 01:20 OP:mh   STATUS:               ID:20130909211840     3
 OLDACT:UP  13-09-10 01:20 OP:mh   STATUS:               ID:20130909211840     3
 OLDACT:REG 13-09-10 01:16 OP:mh   STATUS:               ID:20130909211840     3
 2013-09-09-2118-40M.COL___244                                                 6
 STAT SP IPHASW D HRMM SECON CODA AMPLIT PERI AZIMU VELO AIN AR TRES W  DIS CAZ7
 BAR2 SZ EP   1   2119 55.38                             174    0.26 7 15.8 182 
 BAR2 SZ ES   1   2120 10.51                             174    0.15 7 15.8 182 
 BAR2 SZ I        2120 12.51         7.1 0.18            172           15.8 182 
 BRR  HZ EP   1   2119 57.13                             152    0.33 7 72.0 305 
 BRR  HN ES       2120 13.93                             152    0.5710 72.0 305 
 BRR  HZ I        2120 17.13         6.5 0.32            149           72.0 305 
 PAM  SZ EP   1   2119 58.11                             148   -0.20 7 85.2  38 
 PAM  SN ES       2120 15.64                             148   -0.4010 85.2  38 
 PAM  SZ I        2120 17.47         7.2 0.60            152           85.2  38 
 RUS  HZ EP   1   2119 58.78                             146   -0.10 7 93.7 174 
 RUS  HN ES   2   2120 17.19                             146    0.13 5 93.7 174 
 RUS  HZ I        2120 19.19         5.1 0.24            149           93.7 174 
 PTB  HZ EP   1   2120  2.61                             133    0.46 7  143 261 
 PTB  HN ES       2120 22.17                             133   -0.70 9  143 261 
 PTB  HZ I        2120 28.68         3.3 0.12            132            143 261 
 ZAR  HN ES   2   2120 32.95                             122   -0.34 4  204 294 
 ZAR  HZ I        2120 41.31         4.5 0.26            122            204 294 
                                                                                
