 2012  9 9 2034  5.1 L   6.764 -73.136147.1  RSN  8 0.3 2.1LRSN                1
 GAP=139        0.58       3.0     3.5  4.4 -0.6950E+00  0.2183E+01  0.2568E+01E
 Epicentro: LOS SANTOS - SANTANDER                                             3
 ACTION:UPD 12-10-22 14:18 OP:ep   STATUS:               ID:20120909203405 L   I
 2012-09-09-2030-00M.COL___227                                                 6
 STAT SP IPHASW D HRMM SECON CODA AMPLIT PERI AZIMU VELO AIN AR TRES W  DIS CAZ7
 BAR2 SZ EP   1   2034 24.80                             172   -0.01 7 19.7 195 
 BAR2 SZ ES   1   2034 39.86                             172   -0.34 7 19.7 195 
 BAR2 SZ I        2034 42.81        50.4 0.36                          19.7 195 
 GIR2 SZ EP   1   2034 24.91                             166   -0.13 7 35.4 350 
 GIR2 SZ ES   1   2034 40.68                             166    0.08 7 35.4 350 
 BRR  HZ EP       2034 26.77                             152    0.2210 74.1 301 
 BRR  HN ES   1   2034 43.98                             152    0.69 7 74.1 301 
 BRR  HZ I        2034 45.96        21.9 0.18                          74.1 301 
 PAM  SZ EP       2034 27.61                             150    0.0210 79.8  37 
 PAM  SZ I        2034 27.87        26.4 0.20                          79.8  37 
 PAM  SN ES   1   2034 44.91                             150   -0.24 7 79.8  37 
 RUS  HZ EP   1   2034 28.67                             145   -0.01 7 96.5 177 
 RUS  HN ES   1   2034 47.05                             145   -0.04 7 96.5 177 
 RUS  HZ I        2034 49.05         8.3 0.23                          96.5 177 
 PTB  HZ EP   1   2034 31.75                             132   -0.45 7  148 260 
 PTB  HN ES   1   2034 52.97                             132   -0.37 7  148 260 
 ZAR  HZ EP   2   2034 37.84                             122   -0.04 4  207 293 
 ZAR  HN ES   2   2035  3.16                             122   -0.30 4  207 293 
 ZAR  HZ I        2035  9.86        11.7 0.10                           207 293 
 CHI  HZ EP   1   2034 42.76                             118    0.29 6  245 196 
 CHI  HN ES   1   2035 11.94                             118    0.30 6  245 196 
 CHI  HN I        2035 16.16        16.3 0.27                           245 196 
                                                                                
