 2011  1 9 2154 51.2 L   6.805 -73.159138.6  RSN 12 0.3 2.1LRSN                1
 GAP=135        0.75       2.8     4.8  4.9 -0.3516E+01  0.4511E+01  0.1735E+01E
 Epicentro: LOS SANTOS - SANTANDER                                             3
 ACTION:UP  11-02-08 08:39 OP:pat  STATUS:               ID:20110109215451 L   I
 2011-01-09-2154-06S.COL___136                                                 6
 STAT SP IPHASW D HRMM SECON CODA AMPLIT PERI AZIMU VELO SNR AR TRES W  DIS CAZ7
 BTL  SZ IP       2155  9.99                             173     0.110   17 316 
 BTL  SZ ES   1   2155 24.70                             173     0.3 7   17 316 
 BAR2 SZ IP       2155 10.04                             170     0.010   24 187 
 BAR2 SZ ES   1   2155 24.41                             170    -0.2 7   24 187 
 RUS  HZ EP       2155 14.03                             142    -0.310  101 175 
 RUS  HN ES   1   2155 32.64                             142     0.3 7  101 175 
 RUS  HZ I        2155 33.65        17.7 0.16                           101 175 
 GRA  SZ EP       2155 15.60                             135    -0.210  126  18 
 GRA  SZ ES   1   2155 35.10                             135     0.1 7  126  18 
 GRA  SZ I        2155 36.58        14.7 0.13                           126  18 
 OCA  SZ EP       2155 19.10                             128     0.2 9  160 354 
 OCA  SZ ES   2   2155 40.20                             128    -0.3 5  160 354 
 OCA  SZ I        2155 44.61        13.0 0.43                           160 354 
 YOP  SZ EP       2155 21.05                             124     0.1 9  180 153 
 YOP  SN ES   2   2155 43.86                             124    -0.2 4  180 153 
 YOP  SZ I        2155 45.38        10.4 0.31                           180 153 
 NOR  SZ EP   1   2155 26.36                             117    -0.1 6  234 234 
 NOR  SN ES   1   2155 53.39                             117    -0.6 6  234 234 
 CHI  HZ EP   1   2155 28.12                             116    -0.5 6  249 195 
 CHI  HN ES   2   2155 57.42                             116    -0.3 4  249 195 
 ROSC BZ EP       2155 29.87                             115     0.9 8  253 211 
 ROSC BZ I        2156  5.29        11.3 0.33                           253 211 
 HEL  HZ EP   3   2155 31.22                             113     0.3 2  271 256 
 HEL  HN ES   2   2156  2.15                             113     0.2 4  271 256 
 HEL  HZ I        2156  7.92         6.7 0.19                           271 256 
 RREF HN ES   2   2156 13.08                             109     0.4 3  321 229 
 RREF HZ I        2156 21.94         6.7 0.36                           321 229 
 PRA  HZ EP       2155 44.13                             105    -0.4 6  392 209 
                                                                                
