 2010 10 9 2329 27.6 L   7.416 -73.257126.0  RSN  4 0.2 1.7LRSN                1
 GAP=137        0.71       5.9     8.3  8.8 -0.2889E+02 -0.1740E+02  0.1583E+02E
 Epicentro: EL PLAYON - SANTANDER                                              3
 ACTION:UP  11-02-18 11:08 OP:tino STATUS:               ID:20101009232927 L   I
 2010-10-09-2325-11S.COL___121                                                 6
 STAT SP IPHASW D HRMM SECON CODA AMPLIT PERI AZIMU VELO SNR AR TRES W  DIS CAZ7
 BTL  SZ EP       2329 46.48                             155     0.410   55 181 
 BRR  HZ EP       2329 45.81                             153    -0.210   61 236 
 BRR  HE ES   1   2330  0.28                             153    -0.1 7   61 236 
 BRR  HZ I        2330  1.64        16.0 0.26                            61 236 
 GRA  SZ EP       2329 46.82                             148    -0.110   72  44 
 GRA  SZ ES   1   2330  1.87                             148    -0.1 7   72  44 
 GRA  SZ I        2330  3.55         8.2 0.24                            72  44 
 OCA  SZ EP   1   2329 48.13                             142    -0.2 7   91 356 
 OCA  SZ ES   1   2330  4.73                             142     0.3 7   91 356 
 OCA  SZ I        2330  7.85         7.5 0.38                            91 356 
                                                                                
