 2017 10 9 2056 10.7 L   6.786 -73.069147.1  RSN  5 0.3 1.5LRSN                1
 GAP=147        0.83       4.1     5.1  6.9 -0.2765E+01  0.1154E+02  0.5195E+00E
 Epicentro: LOS SANTOS - SANTANDER                                             3
 ACTION:UPD 17-11-07 19:30 OP:rebc STATUS:               ID:20171009205610 L   I
 OLDACT:REG 17-10-10 02:45 OP:dhb  STATUS:               ID:20171009204409     3
 2017-10-09-2048-00M.COL___429                                                 6
 STAT SP IPHASW D HRMM SECON CODA AMPLIT PERI AZIMU VELO AIN AR TRES W  DIS CAZ7
 BAR2 EZ EP   1   2056 30.43                             170   -0.09 7 24.8 210 
 BAR2 EZ ES       2056 45.66                             170   -0.3310 24.8 210 
 BAR2 EZ I        2056 46.85         9.9 0.38            170           24.8 210 
 PAM  EZ IP     D 2056 32.98                             152    0.1410 73.6  34 
 PAM  EE ES       2056 50.01                             152   -0.1010 73.6  34 
 PAM  EZ I        2056 52.14         6.1 0.54            153           73.6  34 
 RUS  HZ EP       2056 34.80                             144    0.3510 98.8 181 
 RUS  HN ES       2056 53.33                             144    0.3510 98.8 181 
 RUS  HZ I        2056 54.49         2.2 0.24            147           98.8 181 
 SPBC HZ EP       2056 39.02                             128   -0.69 9  167 222 
 SPBC HN ES   1   2057  2.32                             128   -0.02 7  167 222 
 ZAR  HE ES       2057 10.48                             121    0.31 8  213 292 
 ZAR  HZ I        2057 13.70         2.8 0.14            122            213 292 
                                                                                
