 2013 11 9 2106  0.5 L   6.813 -74.038 21.4  RSN  5 0.4 1.6LRSN                1
 GAP=103        1.00       3.0     2.3  3.4 -0.1555E+01 -0.1271E+01  0.1555E+00E
 Epicentro: PUERTO PARRA - SANTANDER                                           3
 ACTION:UPD 14-01-09 16:26 OP:ep   STATUS:               ID:20131109210600 L   I
 OLDACT:REG 13-11-09 22:48 OP:carl STATUS:               ID:20131109205849     3
 2013-11-09-2058-49M.COL___216                                                 6
 STAT SP IPHASW D HRMM SECON CODA AMPLIT PERI AZIMU VELO AIN AR TRES W  DIS CAZ7
 BRR  HZ EP       21 6  8.67                             111   -0.2410 48.6  48 
 BRR  HN ES       21 6 15.24                             111   -0.2610 48.6  48 
 BRR  HZ I        21 6 15.71        49.9 0.34            107           48.6  48 
 PTB  HZ EP       21 6 10.07                             109    0.1910 55.2 237 
 PTB  HN ES       21 6 17.37                             109    0.1510 55.2 237 
 PTB  HZ I        21 6 18.05        47.4 0.20            105           55.2 237 
 ZAR  HZ EP       21 6 18.84                              56   -0.1210  118 310 
 ZAR  HN ES       21 6 33.09                              56   -0.2910  118 310 
 ZAR  HZ I        21 6 34.03        14.5 0.18             97            118 310 
 RUS  HZ EP       21 6 23.32                              56    0.16 9  147 134 
 RUS  HN ES       21 6 40.16                              56   -0.70 9  147 134 
 RUS  HZ I        21 6 43.41         8.0 0.60             56            147 134 
 PAM  SZ EP       21 6 25.45                              56    0.76 9  159  68 
 PAM  SN ES       21 6 44.04                              56    0.45 9  159  68 
 PAM  SZ I        21 6 46.01         5.6 0.22             56            159  68 
                                                                                
