 2015  8 9 2321 23.6 L   6.806 -73.142148.0  RSN 11 0.3 2.0LRSN                1
 GAP=137        0.72       2.1     3.3  3.9 -0.1662E+00  0.3011E+01 -0.3607E+00E
 Epicentro: LOS SANTOS - SANTANDER                                             3
 ACTION:UPD 15-09-15 23:01 OP:cam  STATUS:               ID:20150809232123 L   I
 OLDACT:UP  15-08-31 07:26 OP:ar   STATUS:               ID:20150809232123 L   3
 OLDACT:REG 15-08-10 04:18 OP:stll STATUS:               ID:20150809231740     3
 2015-08-09-2317-40M.COL___334                                                 6
 STAT SP IPHASW D HRMM SECON CODA AMPLIT PERI AZIMU VELO AIN AR TRES W  DIS CAZ7
 BAR2 EZ EP       2321 43.58                             170    0.0810 24.1 191 
 BAR2 EZ I        2321 43.64        11.1 0.42            169           24.1 191 
 BAR2 EZ ES       2321 58.82                             170   -0.2110 24.1 191 
 BRR  HZ EP       2321 45.50                             153    0.5210 71.3 298 
 BRR  HE ES       2322  1.94                             153    0.2810 71.3 298 
 BRR  HZ I        2322  5.83        10.2 0.16            152           71.3 298 
 PAM  EZ EP       2321 46.51                             151    0.5210 76.6  40 
 PAM  EN ES       2322  3.42                             151   -0.0410 76.6  40 
 PAM  EZ I        2322  5.65        22.9 0.56            156           76.6  40 
 RUS  HZ EP       2321 47.55                             144   -0.0510  101 176 
 RUS  HN ES       2322  6.15                             144   -0.1810  101 176 
 RUS  HZ I        2322  9.04         6.4 0.36            145            101 176 
 OCA  HZ EP       2321 51.48                             130   -0.53 9  160 353 
 OCA  HE ES       2322 14.07                             130   -0.11 9  160 353 
 OCA  HZ I        2322 19.32        21.7 0.18            133            160 353 
 SPBC HZ EP       2321 52.46                             129    0.12 9  164 219 
 SPBC HN ES       2322 14.52                             129   -0.24 9  164 219 
 SPBC HZ I        2322 23.20        12.9 0.42            130            164 219 
 ZAR  HZ EP       2321 56.31                             123    0.11 9  204 292 
 ZAR  HN ES       2322 21.67                             123    0.04 9  204 292 
 NOR  HZ EP       2321 59.76                             119    0.23 8  235 234 
 NOR  HN ES   4   2322 26.34                             119   -1.22 0  235 234 
 NOR  HZ I        2322 31.13         5.3 0.10            120            235 234 
 SML  HZ EP       2322  0.04                             118   -0.25 8  243 335 
 SML  HN ES       2322 28.52                             118   -0.40 8  243 335 
 SML  HZ I        2322 31.82        16.9 0.10            120            243 335 
 CHI  HZ EP       2322  1.29                             117   -0.21 8  249 195 
 CHI  HN ES   4   2322 29.35                             117   -1.71 0  249 195 
 CHI  HZ I        2322 37.01         3.0 0.58            119            249 195 
 GUY2CHZ EP   9   2322  8.69                             113    1.30 0  302 235 
 GUY2CHN ES       2322 42.53                             112   -0.32 7  302 235 
 GUY2CHZ I        2322 50.15         6.1 0.82                           302 235 
                                                                                
