 2014  2 9 2226 15.8 L   6.770 -73.137138.6  RSN  5 0.6 1.3LRSN                1
 GAP=139        1.13       5.6     7.1 11.0 -0.8648E+01  0.1558E+02  0.1063E+02E
 Epicentro: LOS SANTOS - SANTANDER                                             3
 ACTION:UPD 14-03-10 08:09 OP:ep   STATUS:               ID:20140209222615 L   I
 OLDACT:DUP 14-02-10 01:28 OP:stll STATUS:               ID:20140209221820d    3
 2014-02-09-2218-19M.COL___224                                                 6
 STAT SP IPHASW D HRMM SECON CODA AMPLIT PERI AZIMU VELO AIN AR TRES W  DIS CAZ7
 BRR  HZ EP   1   2226 36.61                             150    0.30 7 73.7 300 
 BRR  HN ES   1   2226 53.38                             150    1.06 7 73.7 300 
 PAM  SZ EP       2226 37.19                             149   -0.1810 79.4  37 
 PAM  SZ I        2226 37.59         6.9 0.26            149           79.4  37 
 PAM  SN ES       2226 54.12                             149   -0.0810 79.4  37 
 RUS  HN ES       2226 56.08                             143   -0.3010 97.2 176 
 PTB  HZ EP   1   2226 41.71                             130   -0.50 7  148 260 
 PTB  HN ES   1   2227  1.95                             130   -0.87 7  148 260 
 PTB  HZ I        2227  4.41         2.7 0.22            129            148 260 
 CHI  HZ EP   1   2226 53.62                             116    0.85 6  246 196 
 CHI  HZ I        2226 54.14         0.7 0.18            115            246 196 
 CHI  HN ES   1   2227 22.10                             116    0.48 6  246 196 
                                                                                
