 2017  9 9 2340 49.4 L   6.346 -73.718 51.3  RSN 12 0.4 2.0LRSN                1
 GAP= 79        0.91       2.1     2.6  9.6 -0.1637E+01  0.1437E+02 -0.2479E+00E
 Epicentro: SANTA HELENA DEL OPON - SANTANDER                                  3
 ACTION:UPD 17-10-05 19:10 OP:rebc STATUS:               ID:20170909234049 L   I
 OLDACT:UP  17-09-10 07:57 OP:edw  STATUS:               ID:20170909233743     3
 OLDACT:UP  17-09-10 07:57 OP:edw  STATUS:               ID:20170909233743     3
 OLDACT:UP  17-09-10 07:54 OP:edw  STATUS:               ID:20170909233743     3
 OLDACT:UP  17-09-10 07:53 OP:edw  STATUS:               ID:20170909233743     3
 OLDACT:REG 17-09-10 03:47 OP:edw  STATUS:               ID:20170909233743     3
 2017-09-09-2338-00M.COL___410                                                 6
 STAT SP IPHASW D HRMM SECON CODA AMPLIT PERI AZIMU VELO AIN AR TRES W  DIS CAZ7
 BAR2 EZ EP       2341  1.54                             120   -0.0410 65.2  65 
 BAR2 EZ ES       2341 10.81                             120   -0.2510 65.2  65 
 BAR2 EZ I        2341 11.71       130.5 0.18            104           65.2  65 
 BRR  HZ EP       2341  3.16                             111   -0.2310 84.2   0 
 BRR  HN ES       2341 14.53                             111    0.2510 84.2   0 
 BRR  HZ I        2341 15.28        37.1 0.42             97           84.2   0 
 SPBC HZ EP       2341  3.74                             111    0.0110 86.2 207 
 SPBC HN ES       2341 15.30                             111    0.4010 86.2 207 
 SPBC HZ I        2341 16.85        47.1 0.30             97           86.2 207 
 RUS  HZ EP       2341  3.84                             112   -0.4210 86.3 125 
 RUS  HE ES       2341 15.85                             112    0.0310 86.3 125 
 RUS  HZ I        2341 16.97        26.8 0.26             97           86.3 125 
 NOR  HZ EP   1   2341 10.96                              99   -0.86 7  154 236 
 NOR  HN ES   4   2341 27.92                              99   -1.38 0  154 236 
 NOR  HZ I        2341 29.17        13.1 0.12             61            154 236 
 PAM  EZ EP       2341 12.70                              99   -0.05 9  157  46 
 PAM  EN ES       2341 31.49                              99    0.54 9  157  46 
 PAM  EZ I        2341 33.14        19.4 0.24             61            157  46 
 ZAR  HZ EP   4   2341 16.40                              97    1.61 0  179 315 
 ZAR  HN ES       2341 34.40                              97   -0.17 9  179 315 
 ZAR  HZ I        2341 38.84        12.9 0.26             61            179 315 
 CHI  HE ES   4   2341 35.87                              96   -2.00 0  190 180 
 HEL  HZ EP       2341 17.48                              96   -0.49 9  201 265 
 HEL  HN ES   4   2341 38.56                              96   -1.68 0  201 265 
 HEL  HZ I        2341 39.43        25.2 0.24             61            201 265 
 GUY2CHZ EP       2341 21.05                              95    0.55 8  221 236 
 GUY2CHN ES       2341 44.83                              95    0.10 8  221 236 
 GUY2CHZ I        2341 45.77        11.0 0.26                           221 236 
 ELA  HZ EP       2341 24.70                              94    0.71 8  248 229 
 ELA  HN ES       2341 50.67                              94   -0.28 8  248 229 
 ELA  HZ I        2341 55.38         6.2 0.44             61            248 229 
 ORTC HZ EP       2341 32.49                              93    0.49 7  318 212 
 ORTC HN ES   4   2342  7.40                              93    2.18 0  318 212 
 ORTC HZ I        2342  9.01         2.8 0.54             60            318 212 
 PRA  HZ EP   4   2341 33.74                              93    1.70 0  319 204 
 PRA  HE ES       2342  4.87                              93   -0.41 7  319 204 
                                                                                
