 2017  6 9 2323 59.0 L   6.076 -73.792106.5  RSN  6 0.2 1.3LRSN                1
 GAP=109        0.67       2.9     2.5  5.1  0.1527E-01  0.1479E+01 -0.5998E+01E
 Epicentro: EL PENON - SANTANDER                                               3
 ACTION:UPD 17-09-14 16:51 OP:jn   STATUS:               ID:20170609232359 L   I
 OLDACT:UP  17-06-10 04:20 OP:and  STATUS:               ID:20170609231733     3
 OLDACT:UP  17-06-10 04:20 OP:and  STATUS:               ID:20170609231733     3
 OLDACT:REG 17-06-10 02:47 OP:and  STATUS:               ID:20170609231733     3
 2017-06-09-2318-00M.COL___362                                                 6
 STAT SP IPHASW D HRMM SECON CODA AMPLIT PERI AZIMU VELO AIN AR TRES W  DIS CAZ7
 SPBC HZ EP       2324 15.02                             150   -0.2010 56.2 213 
 SPBC HN ES       2324 27.59                             150   -0.2710 56.2 213 
 SPBC HZ I        2324 28.73        11.7 0.12            151           56.2 213 
 RUS  HZ EP       2324 17.23                             140   -0.3010 81.1 104 
 RUS  HN ES       2324 32.30                             140    0.3310 81.1 104 
 RUS  HZ I        2324 32.82         2.0 0.21            142           81.1 104 
 PTB  HZ EP   9   2324 16.28                             136   -1.28 0 89.6 305 
 PTB  HN ES       2324 30.42                             137   -0.3210 89.6 305 
 PTB  HZ I        2324 33.05         3.4 0.24            137           89.6 305 
 BRR  HZ EP       2324 19.94                             129    0.1910  114   4 
 BRR  HN ES   2   2324 36.12                             129    0.19 5  114   4 
 NOR  HZ EP       2324 21.82                             124    0.2710  132 245 
 NOR  HN ES       2324 39.38                             124    0.2510  132 245 
 NOR  HZ I        2324 40.72         5.7 0.16            126            132 245 
 ZAR  HZ EP       2324 28.12                             113   -0.22 9  196 323 
 ZAR  HN ES       2324 51.10                             113   -0.12 9  196 323 
 ZAR  HZ I        2324 54.12         3.9 0.34            114            196 323 
                                                                                
