 2017  4 9 2301 15.5 L   6.810 -73.134147.2  RSN 24 0.5 2.9LRSN                1
 GAP=113        1.07       3.1     3.4  4.8 -0.2454E+00  0.3889E+01  0.3502E+01E
 Epicentro: LOS SANTOS - SANTANDER                                             3
 ACTION:UPD 17-05-30 21:10 OP:jn   STATUS:               ID:20170409230115 L   I
 OLDACT:UP  17-04-10 04:53 OP:dnl  STATUS:               ID:20170409225748     3
 OLDACT:UP  17-04-10 04:52 OP:dnl  STATUS:               ID:20170409225748     3
 OLDACT:REG 17-04-10 04:06 OP:dnl  STATUS:               ID:20170409225748     3
 2017-04-09-2258-00M.COL___371                                                 6
 STAT SP IPHASW D HRMM SECON CODA AMPLIT PERI AZIMU VELO AIN AR TRES W  DIS CAZ7
 BAR2 EZ IP     D 23 1 35.23                             170   -0.1310 24.7 192 
 BAR2 EZ ES       23 1 49.90                             170   -0.9310 24.7 192 
 BAR2 EZ I        23 1 51.47       238.7 0.24            168           24.7 192 
 BRR  HZ EP       23 1 37.07                             153    0.2010 71.8 297 
 BRR  HN ES       23 1 54.38                             153    0.8710 71.8 297 
 BRR  HZ I        23 1 59.34       106.2 0.16            150           71.8 297 
 PAM  EZ EP       23 1 38.21                             152    0.4110 75.7  39 
 PAM  EE ES       23 1 55.33                             152    0.1610 75.7  39 
 PAM  EZ I        23 1 57.44       107.1 0.50            155           75.7  39 
 RUS  HZ EP     D 23 1 39.21                             144   -0.2910  102 177 
 RUS  HE ES       23 1 58.29                             144    0.0910  102 177 
 RUS  HZ I        23 1 59.52        83.6 0.38            144            102 177 
 PTB  HZ EP       23 1 41.75                             132   -1.00 9  149 258 
 PTB  HE ES       23 2  3.72                             132   -0.26 9  149 258 
 PTB  HZ I        23 2  4.90       104.9 0.40            130            149 258 
 SPBC HZ EP       23 1 44.21                             129   -0.09 9  165 219 
 SPBC HN ES       23 2  7.29                             129    0.55 9  165 219 
 SPBC HZ I        23 2  8.64       158.5 0.10            128            165 219 
 YPLC HZ IP     D 23 1 45.69                             127    0.22 9  177 152 
 YPLC HE ES   4   23 2  9.98                             127    1.16 0  177 152 
 YPLC HZ I        23 2 12.33        53.2 0.28            128            177 152 
 ZAR  HZ EP       23 1 47.99                             123   -0.16 9  205 292 
 ZAR  HE ES       23 2 13.19                             123   -0.40 9  205 292 
 ZAR  HZ I        23 2 18.15       106.6 0.44            122            205 292 
 NOR  HZ EP       23 1 51.31                             119   -0.21 8  236 234 
 NOR  HN ES       23 2 20.00                             119    0.40 8  236 234 
 NOR  HZ I        23 2 26.64        51.9 0.16            118            236 234 
 CHI  HZ EP       23 1 53.35                             117   -0.11 8  250 195 
 CHI  HN ES       23 2 22.69                             117   -0.36 8  250 195 
 CHI  HZ I        23 2 27.85        58.6 0.38            117            250 195 
 ROSC BZ EP   9   23 1 55.36                             117    1.45 0  254 211 
 ROSC BN ES       23 2 25.55                                    0.25 8  254 211 
 ROSC BZ I        23 2 29.91       154.4 0.40            117            254 211 
 HEL  HZ EP       23 1 56.80                             115    0.82 8  274 256 
 HEL  HN ES       23 2 27.65                             115    0.11 8  274 256 
 HEL  HZ I        23 2 33.27        53.0 0.30            114            274 256 
 URE  HZ EP   4   23 1 54.32                             114   -2.43 0  285 292 
 URE  HN ES   4   23 2 25.86                             114   -3.05 0  285 292 
 URE  HZ I        23 2 34.36        59.9 0.16            113            285 292 
 VIL  EZ EP       23 1 59.15                             112   -0.02 7  305 192 
 VIL  EN ES       23 2 33.23                             112    0.02 7  305 192 
 VIL  EZ I        23 2 42.91        75.1 0.48            112            305 192 
 PTGC HZ EP   9   23 1 58.36                             112   -1.16 0  309 159 
 PTGC HN ES       23 2 32.23                             112   -0.44 7  309 159 
 PTGC HZ I        23 2 33.65        39.8 0.26            112            309 159 
 ELA  HZ EP   9   23 2  4.44                             110    1.80 0  331 229 
 ELA  HN ES       23 2 40.83                             110   -0.36 7  331 229 
 ELA  HZ I        23 2 47.92        35.0 0.58            110            331 229 
 CBOC HZ EP       23 2  2.86                             110    0.18 7  335 252 
 CBOC HE ES       23 2 38.60                             110   -0.86 7  335 252 
 CBOC HZ I        23 2 52.78        12.8 0.74            110            335 252 
 DBB  EZ EP       23 2  2.67                             110   -0.53 7  341 274 
 DBB  EN ES   4   23 2 38.07                             110   -2.32 0  341 274 
 DBB  EZ I        23 2 41.16        25.7 0.14            109            341 274 
 ARGC HZ EP   9   23 2  6.36                             108    1.20 0  359 340 
 ARGC HE ES       23 2 45.62                             109    0.54 6  359 340 
 ARGC HZ I        23 2 51.03        12.3 0.32            109            359 340 
 ANIL HZ EP       23 2  6.46                             109    0.87 6  359 225 
 ANIL HE ES   4   23 2 47.40                             109    2.77 0  359 225 
 PRA  HZ EP       23 2  9.06                             107   -0.23 6  394 210 
 PRA  HN ES       23 2 51.81                             107    0.59 6  394 210 
 PRA  HZ I        23 2 55.46        43.3 0.40            107            394 210 
 ORTC HZ EP   2   23 2  9.65                             106   -0.04 3  397 216 
 ORTC HN ES       23 2 52.90                             106    0.96 6  397 216 
 ORTC HZ I        23 2 56.64        19.3 0.20            106            397 216 
 PAL  HZ EP       23 2 10.76                             106   -0.17 6  407 239 
 PAL  HE ES   4   23 2 52.97                             106   -1.18 0  407 239 
 PAL  HZ I        23 2 57.22         8.5 0.28            106            407 239 
 SJC  HZ EP   4   23 2  8.93                             106   -2.18 0  409 327 
 SJC  HN ES   4   23 2 50.53                             106   -3.93 0  409 327 
 SJC  HZ I        23 2 59.25        13.0 0.40            106            409 327 
 YOT  HZ EP   4   23 2 17.76                             103   -1.06 0  474 229 
 YOT  HN ES   4   23 3 13.21                             103    5.03 0  474 229 
                                                                                
