 2013 10 9 2232 57.3 L   6.804 -73.126146.1  RSN 20 0.5 2.4LRSN 2.9WRSN        1
 SPEC AVERAGE  MO 13.4 ST133.4 OM  1.5 f0 14.0 R0.3148 AL 0.00 WI 20.0 MW  2.9 3
 SPEC SD       MO  0.2 ST228.5 OM  0.3 f0 11.9 R0.2660 AL      WI      MW  0.1 3
 GAP= 54        1.17       2.6     2.9  4.9 -0.1039E+01  0.1598E+01  0.2065E+01E
 Epicentro: LOS SANTOS - SANTANDER                                             3
 SPEC BAR2SH Z MO 13.5 ST 85.2 OM  1.7 f0 15.8 R0.1218 AL-0.00 WI 20.0 MW  3.0 3
 SPEC BAR2SH Z T223330 K 0.050 GD  148 VS 5.20 DE 3.20 Q0750.0 QA 1.50 VS 5.20 3
 SPEC BRR HH Z MO 13.4 ST 15.5 OM  1.5 f0 10.1 R0.1905 AL-0.00 WI 20.0 MW  2.9 3
 SPEC BRR HH Z T223334 K 0.050 GD  163 VS 5.20 DE 3.20 Q0750.0 QA 1.50 VS 5.20 3
 SPEC PAM SH Z MO 13.3 ST  1.8 OM  1.4 f0 5.29 R0.3637 AL-0.00 WI 20.0 MW  2.8 3
 SPEC PAM SH Z T223335 K 0.050 GD  164 VS 5.20 DE 3.20 Q0750.0 QA 1.50 VS 5.20 3
 SPEC PTB HH Z MO 13.3 ST778.3 OM  1.3 f0 40.0 R0.0481 AL-0.00 WI 20.0 MW  2.8 3
 SPEC PTB HH Z T223343 K 0.050 GD  209 VS 5.20 DE 3.20 Q0750.0 QA 1.50 VS 5.20 3
 SPEC SPBCHH Z MO 13.4 ST306.7 OM  1.4 f0 26.7 R0.0721 AL-0.00 WI 20.0 MW  2.9 3
 SPEC SPBCHH Z T223346 K 0.050 GD  220 VS 5.20 DE 3.20 Q0750.0 QA 1.50 VS 5.20 3
 SPEC ZAR HH Z MO 13.3 ST247.6 OM  1.2 f0 27.7 R0.0695 AL-0.00 WI 20.0 MW  2.8 3
 SPEC ZAR HH Z T223353 K 0.050 GD  252 VS 5.20 DE 3.20 Q0750.0 QA 1.50 VS 5.20 3
 SPEC NOR HH Z MO 13.2 ST 28.0 OM  1.1 f0 14.0 R0.1374 AL-0.00 WI 20.0 MW  2.8 3
 SPEC NOR HH Z T223359 K 0.050 GD  278 VS 5.20 DE 3.20 Q0750.0 QA 1.50 VS 5.20 3
 SPEC CHI HH Z MO 13.5 ST0.323 OM  1.4 f0 2.48 R0.7758 AL-0.00 WI 20.0 MW  3.0 3
 SPEC CHI HH Z T2234 2 K 0.050 GD  289 VS 5.20 DE 3.20 Q0750.0 QA 1.50 VS 5.20 3
 SPECGUY2CHH Z MO 13.5 ST  0.5 OM  1.3 f0 3.00 R 0.641 AL-0.00 WI 20.0 MW  2.9 3
 SPECGUY2CHH Z T223415 K 0.050 GD336.4 VS 5.20 DE 3.20 Q0750.0 QA 1.50 VS 5.20 3
 SPEC RREFHH Z MO 13.6 ST0.392 OM  1.4 f0 2.47 R0.7789 AL-0.00 WI 20.0 MW  3.0 3
 SPEC RREFHH Z T223418 K 0.050 GD  355 VS 5.20 DE 3.20 Q0750.0 QA 1.50 VS 5.20 3
 SPEC PRA HH Z MO 13.6 ST0.867 OM  1.3 f0 3.29 R0.5848 AL-0.00 WI 20.0 MW  3.0 3
 SPEC PRA HH Z T223431 K 0.050 GD  419 VS 5.20 DE 3.20 Q0750.0 QA 1.50 VS 5.20 3
 SPEC ORTCHH Z MO 13.2 ST  2.1 OM  0.9 f0 6.01 R0.3201 AL-0.00 WI 20.0 MW  2.7 3
 SPEC ORTCHH Z T223431 K 0.050 GD  423 VS 5.20 DE 3.20 Q0750.0 QA 1.50 VS 5.20 3
 OLDACT:REG 13-10-10 01:05 OP:stll STATUS:               ID:20131009222846     3
 ACTION:UPD 13-11-25 09:20 OP:ep   STATUS:               ID:20131009223257 L   I
 OLDACT:UP  13-10-10 04:21 OP:stll STATUS:               ID:20131009222846     3
 2013-10-09-2228-46M.COL___230                                                 6
 STAT SP IPHASW D HRMM SECON CODA AMPLIT PERI AZIMU VELO AIN AR TRES W  DIS CAZ7
 BAR2 SZ EP       2233 17.15                             170    0.2010 24.2 195 
 BAR2 SZ ES       2233 32.00                             170   -0.3110 24.2 195 
 BAR2 SZ I        2233 33.74        85.3 0.20            168           24.2 195 
 BRR  HZ EP       2233 19.06                             152    0.5110 73.0 297 
 BRR  HN ES       2233 35.67                             152    0.5210 73.0 297 
 BRR  SZ I        2233 40.25        38.0 0.18            157           73.0 297 
 PAM  SZ EP       2233 20.14                             151    0.7310 75.7  38 
 PAM  SN ES       2233 36.59                             151   -0.1010 75.7  38 
 PAM  SZ I        2233 38.88        28.9 0.60            148           75.7  38 
 RUS  HZ IP     D 2233 21.20                             144    0.1310  101 177 
 RUS  HN ES       2233 39.92                             144    0.2810  101 177 
 RUS  SZ I        2233 40.92        29.3 0.72            141            101 177 
 CAPV BZ IP     C 2233 25.16                             132    0.63 9  148  37 
 PTB  HZ EP       2233 23.81                             132   -0.65 9  150 259 
 PTB  HE ES       2233 44.94                             132   -0.74 9  150 259 
 PTB  SZ I        2233 51.57        34.2 0.36            134            150 259 
 TAM  HZ IP     D 2233 25.63                             131    0.85 9  153 105 
 TAM  HE ES       2233 45.89                             131   -0.35 9  153 105 
 TAM  SZ I        2234 30.79        35.7 0.42            127            153 105 
 OCA  HZ EP       2233 25.05                             130   -0.54 9  160 352 
 OCA  HN ES       2233 47.71                             130    0.03 9  160 352 
 OCA  SZ I        2233 50.40        24.5 0.28            130            160 352 
 SPBC HZ EP       2233 26.01                             129    0.06 9  165 220 
 SPBC HE ES       2233 48.14                             129   -0.19 9  165 220 
 SPBC SZ I        2233 52.83        36.9 0.38            129            165 220 
 ZAR  HZ EP       2233 29.83                             122   -0.10 8  206 292 
 ZAR  HN ES       2233 54.99                             122   -0.41 8  206 292 
 ZAR  SZ I        2234  0.11        26.1 0.46            124            206 292 
 NOR  HZ IP     D 2233 33.39                             118    0.16 8  237 235 
 NOR  HE ES       2234  1.31                             118    0.02 8  237 235 
 NOR  SZ I        2234  6.57        15.9 0.22            119            237 235 
 SML  HZ EP       2233 33.56                             117   -0.41 8  244 335 
 SML  HE ES       2234  1.91                             117   -0.69 8  244 335 
 SML  SZ I        2234 12.75        27.2 0.08            118            244 335 
 CHI  HZ EP       2233 35.17                             117    0.09 8  250 196 
 CHI  HN ES       2234  4.19                             117   -0.40 8  250 196 
 CHI  SZ I        2234  7.80        16.3 0.50            116            250 196 
 SOCV BZ EP       2233 39.53                             112   -0.56 7  299  57 
 GUY2CHZ EP       2233 41.42                             112    0.30 7  303 235 
 GUY2CHN ES       2234 16.63                             112    1.30 7  303 235 
 GUY2CSZ I        2234 23.28        14.9 0.30                           303 235 
 PTGC HZ IP     C 2233 40.43                             112   -0.65 7  308 159 
 PTGC HN ES       2234 14.01                             112   -1.26 7  308 159 
 RREF HZ EP       2233 44.14                             111    0.50 7  324 230 
 RREF HE ES       2234 20.04                             111    0.22 7  324 230 
 RREF SZ I        2234 28.83        15.5 0.38            111            324 230 
 TOL  SZ EP       2233 46.24                             109    0.50 6  345 225 
 TOL  SZ I        2234 26.96         5.6 1.60            109            345 225 
 PRA  HZ EP       2233 50.95                             106   -0.01 6  393 210 
 PRA  HE ES       2234 32.87                             106    0.02 6  393 210 
 PRA  SZ I        2234 37.00        14.4 0.42            106            393 210 
 ORTC HZ EP       2233 51.45                             106    0.07 6  397 216 
 ORTC HN ES       2234 32.92                             106   -0.68 6  397 216 
 ORTC SZ I        2234 39.61         5.7 0.36            106            397 216 
                                                                                
