 2015 10 9 2105 15.1 L   6.508 -73.508110.0  RSN  7 0.4 1.8LRSN                1
 GAP= 89        0.70       4.3     5.0  8.9  0.4302E+01  0.2775E+02 -0.1782E+01E
 Epicentro: SIMACOTA - SANTANDER                                               3
 ACTION:UPD 15-12-22 20:38 OP:cam  STATUS:               ID:20151009210515 L   I
 OLDACT:UP  15-10-10 05:34 OP:ar   STATUS:               ID:20151009205750     3
 OLDACT:REG 15-10-10 03:48 OP:ar   STATUS:               ID:20151009205750     3
 2015-10-09-2057-50M.COL___343                                                 6
 STAT SP IPHASW D HRMM SECON CODA AMPLIT PERI AZIMU VELO AIN AR TRES W  DIS CAZ7
 BAR2 EZ EP       21 5 30.55                             161   -0.3510 37.2  75 
 BAR2 EZ ES       21 5 43.42                             161    0.1710 37.2  75 
 BAR2 EZ I        21 5 44.45        45.8 0.26            162           37.2  75 
 RUS  HZ EP   2   21 5 34.19                             142    0.15 5 82.7 145 
 RUS  HN ES   2   21 5 49.34                             142    0.50 5 82.7 145 
 RUS  HZ I        21 5 49.57         3.7 0.18            142           82.7 145 
 SPBC HN ES   2   21 5 52.36                             131   -0.17 5  113 213 
 SPBC HZ I        21 5 53.81        12.3 0.18            130            113 213 
 NOR  HN ES   2   21 6  4.41                             117   -0.80 4  183 235 
 NOR  HZ I        21 6  7.64         5.2 0.16            116            183 235 
 ZAR  HZ EP   2   21 5 42.97                             117   -0.36 4  185 306 
 ZAR  HN ES       21 6  5.65                             117    0.29 9  185 306 
 ZAR  HZ I        21 6  6.69        10.7 0.62            116            185 306 
 GUY2CHZ EP   2   21 5 52.23                             109    0.94 4  250 235 
 GUY2CHT ES   4   21 6 12.21                             109   -7.33 0  250 235 
 GUY2CHZ I        21 6 14.30         2.3 0.22                           250 235 
 SML  HT ES   2   21 6 20.21                             108   -0.58 4  261 346 
 SML  HZ I        21 6 24.26        10.4 0.10            107            261 346 
                                                                                
