 2017 10 9 2357 31.8 L   6.888 -73.257122.3  RSN  9 0.4 1.4LRSN                1
 GAP=120        1.00       3.3     3.7  6.6  0.4763E-01  0.8679E+01  0.2634E+01E
 Epicentro: BETULIA - SANTANDER                                                3
 ACTION:UPD 17-11-07 19:30 OP:rebc STATUS:               ID:20171009235731 L   I
 OLDACT:DUP 17-10-10 07:03 OP:dhb  STATUS:               ID:20171009234119d    3
 OLDACT:DUP 17-10-10 06:56 OP:dhb  STATUS:               ID:20171009234118d    3
 2017-10-09-2348-00M.COL___425                                                 6
 STAT SP IPHASW D HRMM SECON CODA AMPLIT PERI AZIMU VELO AIN AR TRES W  DIS CAZ7
 BAR2 EZ ES       2358  2.34                             164    0.0910 33.7 166 
 BAR2 EZ I        2358  3.07        14.6 0.21            164           33.7 166 
 PAM  EZ EP       2357 50.99                             145   -0.7110 79.3  51 
 PAM  EE ES       2358  7.73                             145    0.5110 79.3  51 
 PAM  EZ I        2358  9.74         1.7 0.14            146           79.3  51 
 RUS  HZ EP       2357 54.18                             135   -0.0610  112 170 
 RUS  HN ES       2358 11.34                             135   -0.4210  112 170 
 RUS  HZ I        2358 12.49         4.5 0.28            135            112 170 
 SPBC HZ EP       2357 58.20                             123   -0.45 9  164 213 
 SPBC HN ES       2358 19.05                             123   -0.56 9  164 213 
 SPBC HZ I        2358 19.27         4.8 0.10            123            164 213 
 ZAR  HZ EP       2358  1.43                             119    0.23 9  189 291 
 ZAR  HN ES       2358 24.24                             119    0.10 9  189 291 
 ZAR  HZ I        2358 28.32         3.7 0.10            118            189 291 
 YPLC HZ IP       2358  1.75                             118    0.22 9  191 149 
 YPLC HN ES       2358 25.11                             118    0.38 9  191 149 
 YPLC HZ I        2358 27.89         6.0 0.30            119            191 149 
 NOR  HZ EP       2358  5.87                             113    0.04 8  231 231 
 NOR  HE ES       2358 32.84                             113    0.45 8  231 231 
 NOR  HZ I        2358 39.40         1.7 0.10            113            231 231 
 CHI  HE ES       2358 38.73                             111    0.63 8  255 192 
 CHI  HZ I        2358 43.82         2.0 0.38            111            255 192 
 GUY2CHZ EP   9   2358 16.23                             108    2.28 0  297 232 
 GUY2CHE ES       2358 48.70                                   -0.41 7  297 232 
 GUY2CHZ I        2358 52.82         0.9 0.32                           297 232 
                                                                                
