 2017 10 9 2158 42.2 L   6.837 -73.176146.0  RSN  6 0.3 1.7LRSN                1
 GAP=131        0.77       3.9     3.9  6.9 -0.2918E+01  0.8727E+01 -0.1717E+01E
 Epicentro: ZAPATOCA - SANTANDER                                               3
 ACTION:UPD 17-11-07 19:30 OP:rebc STATUS:               ID:20171009215842 L   I
 OLDACT:DUP 17-10-10 05:51 OP:dhb  STATUS:               ID:20171009215121d    3
 OLDACT:REG 17-10-10 02:56 OP:dhb  STATUS:               ID:20171009215120     3
 2017-10-09-2158-00M.COL___423                                                 6
 STAT SP IPHASW D HRMM SECON CODA AMPLIT PERI AZIMU VELO AIN AR TRES W  DIS CAZ7
 BAR2 EZ EP   1   2159  1.73                             169   -0.23 7 27.1 182 
 BAR2 EZ ES       2159 17.47                             169    0.1110 27.1 182 
 BAR2 EZ I        2159 19.72         9.3 0.32            170           27.1 182 
 PAM  EZ IP     C 2159  4.84                             151    0.4310 76.5  43 
 PAM  EN ES       2159 21.54                             151   -0.1810 76.5  43 
 PAM  EZ I        2159 23.95         6.8 0.48            154           76.5  43 
 RUS  HZ EP       2159  5.98                             142   -0.3410  105 174 
 RUS  HN ES       2159 25.11                             142    0.0010  105 174 
 RUS  HZ I        2159 25.87         8.6 0.30            146            105 174 
 ZAR  HE ES       2159 38.92                             123   -0.24 9  199 291 
 ZAR  HZ I        2159 46.55         5.1 0.32            122            199 291 
 NOR  HN ES       2159 46.22                             118    0.42 8  234 233 
 NOR  HZ I        2159 51.09         4.5 0.30            119            234 233 
 GUY2CHZ EP   9   2159 28.64                             112    2.83 0  301 234 
 GUY2CHE ES       22 0  2.03                                   -0.61 7  301 234 
 GUY2CHZ I        22 0  7.01         2.4 0.26                           301 234 
                                                                                
