 2016  6 9 2011 15.2 L   6.782 -73.070145.3  RSN  4 0.2 1.3LRSN                1
 GAP=158        0.47       3.3     4.4  4.2 -0.9112E+01  0.5896E+01 -0.1035E+01E
 Epicentro: LOS SANTOS - SANTANDER                                             3
 ACTION:UPD 16-07-21 22:17 OP:rebc STATUS:               ID:20160609201115 L   I
 OLDACT:REG 16-06-10 03:00 OP:ak   STATUS:               ID:20160609200744     3
 2016-06-09-2007-44M.COL___343                                                 6
 STAT SP IPHASW D HRMM SECON CODA AMPLIT PERI AZIMU VELO AIN AR TRES W  DIS CAZ7
 BAR2 EZ ES       2011 50.22                             170    0.1210 24.4 211 
 PAM  EZ EP       2011 37.44                             152    0.2510 74.0  34 
 PAM  EN ES       2011 54.07                             152   -0.2410 74.0  34 
 PAM  EZ I        2011 57.90         2.9 0.60                          74.0  34 
 RUS  HZ EP       2011 38.70                             144   -0.0710 98.4 181 
 RUS  HN ES       2011 57.12                             144   -0.0110 98.4 181 
 RUS  HZ I        2011 58.60         3.0 0.28                          98.4 181 
 NOR  HZ EP   2   2011 51.29                             118   -0.25 4  240 236 
 NOR  HN ES       2012 19.86                             118   -0.01 8  240 236 
 NOR  HZ I        2012 26.03         2.1 0.22                           240 236 
                                                                                
