 2014  5 9 2016 38.6 L   6.791 -73.147152.9  RSN  8 0.5 2.0LRSN                1
 GAP=137        1.13       4.0     5.0  7.7 -0.5097E+00  0.7102E+01 -0.3418E+01E
 Epicentro: LOS SANTOS - SANTANDER                                             3
 OLDACT:REG 14-05-10 03:25 OP:fm   STATUS:               ID:20140509200812     3
 ACTION:UPD 15-03-16 16:56 OP:nd   STATUS:               ID:20140509201638 L   I
 OLDACT:UP  14-05-10 03:55 OP:fm   STATUS:               ID:20140509200812     3
 2014-05-09-2008-12M.COL___233                                                 6
 STAT SP IPHASW D HRMM SECON CODA AMPLIT PERI AZIMU VELO AIN AR TRES W  DIS CAZ7
 BRR  HZ EP       2017  0.84                             153    0.2810 71.5 299 
 BRR  HN ES       2017 18.04                             153    0.3610 71.5 299 
 BRR  HZ I        2017 22.83        16.3 0.12            152           71.5 299 
 PAM  SZ EP       2017  1.84                             152    0.1910 78.2  39 
 PAM  SN ES       2017 18.93                             152   -0.6810 78.2  39 
 PAM  HZ I        2017 20.26         9.6 0.40            156           78.2  39 
 RUS  HZ EP       2017  2.98                             145   -0.0310 99.6 176 
 RUS  HE ES       2017 22.10                             145    0.0610 99.6 176 
 RUS  HZ I        2017 22.76        10.9 0.76            148           99.6 176 
 PTB  HZ EP       2017  5.73                             133   -0.42 9  147 259 
 PTB  HN ES       2017 26.85                             133   -0.78 9  147 259 
 PTB  HZ I        2017 31.10        10.8 0.16            134            147 259 
 SPBC HZ EP       2017  7.94                             131    0.34 9  162 219 
 SPBC HE ES       2017 30.74                             131    0.54 9  162 219 
 SPBC HZ I        2017 37.31        15.5 0.20            132            162 219 
 ZAR  HZ EP   2   2017 10.89                             124   -0.68 4  204 292 
 ZAR  HN ES       2017 37.26                             124   -0.00 9  204 292 
 ZAR  HZ I        2017 43.35        12.3 0.38            125            204 292 
 SML  HZ EP       2017 15.55                             119   -0.19 8  245 335 
 SML  HN ES       2017 45.67                             119    0.97 8  245 335 
 SML  HZ I        2017 49.46        11.8 0.08            121            245 335 
 URE  HZ EP   1   2017 19.33                             115   -0.74 6  284 292 
 URE  HN ES   4   2017 50.53                             115   -1.88 0  284 292 
 URE  HZ I        2017 53.27         6.0 0.16            116            284 292 
                                                                                
