 2010 10 9 2124  7.5 L   7.430 -73.186135.7  RSN  5 0.1 1.9LRSN                1
 GAP=155        0.30       6.4     7.2  5.8 -0.4072E+02 -0.1190E+02  0.1322E+02E
 Epicentro: EL PLAYON - SANTANDER                                              3
 ACTION:UP  11-02-18 11:08 OP:tino STATUS:               ID:20101009212407 L   I
 2010-10-09-2122-11S.COL___121                                                 6
 STAT SP IPHASW D HRMM SECON CODA AMPLIT PERI AZIMU VELO SNR AR TRES W  DIS CAZ7
 GUE  SZ EP       2124 27.08                             158     0.010   53  33 
 BTL  SZ EP       2124 27.15                             156     0.010   57 189 
 GRA  SZ EP   1   2124 27.38                             153    -0.1 7   66  40 
 GRA  SZ ES   2   2124 43.15                             153     0.1 5   66  40 
 GRA  SZ I        2124 44.46        20.1 0.30                            66  40 
 BRR  HZ EP   1   2124 27.45                             152     0.1 7   68 238 
 BRR  HZ I        2124 27.97        12.7 0.13                            68 238 
 BRR  HN ES   2   2124 42.82                             152    -0.1 5   68 238 
 NOR  SN ES   2   2125 18.76                             112     0.1 4  278 222 
                                                                                
