 2013 10 9 2045 42.8 L   6.793 -73.165152.6  RSN  4 0.5 1.5LRSN                1
 GAP=199        1.31       7.3    11.0 13.2  0.3875E+02 -0.2128E+02 -0.2207E+02E
 Epicentro: LOS SANTOS - SANTANDER                                             3
 ACTION:UPD 13-11-25 09:20 OP:ep   STATUS:               ID:20131009204542 L   I
 OLDACT:REG 13-10-10 00:57 OP:stll STATUS:               ID:20131009203846     3
 2013-10-09-2038-46M.COL___227                                                 6
 STAT SP IPHASW D HRMM SECON CODA AMPLIT PERI AZIMU VELO AIN AR TRES W  DIS CAZ7
 BRR  HZ EP       2046  5.14                             154    0.5710 69.7 300 
 BRR  HN ES       2046 22.18                             154    0.6010 69.7 300 
 RUS  HZ EP       2046  7.48                             145    0.3310100.0 175 
 RUS  HN ES       2046 25.51                             145   -0.6610100.0 175 
 RUS  HZ I        2046 27.51         1.8 0.38            146          100.0 175 
 PTB  HZ EP       2046 10.07                             134   -0.02 9  145 259 
 PTB  HN ES       2046 31.06                             134   -0.35 9  145 259 
 PTB  HZ I        2046 38.70         2.7 0.32            131            145 259 
 SML  HN ES       2046 47.78                             119   -0.83 8  244 336 
 SML  HN I        2046 54.07         8.4 0.10            118            244 336 
                                                                                
