 2017 10 9 2148 53.0 L   6.791 -73.084144.6  RSN  7 0.4 1.7LRSN                1
 GAP=145        0.87       4.0     4.6  6.2 -0.5514E+01  0.1248E+02  0.5503E+00E
 Epicentro: LOS SANTOS - SANTANDER                                             3
 ACTION:UPD 17-11-07 19:30 OP:rebc STATUS:               ID:20171009214853 L   I
 OLDACT:REG 17-10-10 02:54 OP:dhb  STATUS:               ID:20171009214253     3
 2017-10-09-2148-00M.COL___429                                                 6
 STAT SP IPHASW D HRMM SECON CODA AMPLIT PERI AZIMU VELO AIN AR TRES W  DIS CAZ7
 BAR2 EZ EP       2149 12.48                             170   -0.0110 24.5 206 
 BAR2 EZ ES       2149 27.20                             170   -0.5110 24.5 206 
 BAR2 EZ I        2149 28.75        16.3 0.42            168           24.5 206 
 PAM  EZ IP     C 2149 15.09                             152    0.2210 74.0  35 
 PAM  EN ES       2149 32.11                             152    0.1610 74.0  35 
 PAM  EZ I        2149 34.50         6.6 0.62            155           74.0  35 
 RUS  HZ EP       2149 16.22                             144   -0.3110 99.3 180 
 RUS  HE ES       2149 35.34                             144    0.4510 99.3 180 
 RUS  HZ I        2149 36.60         4.5 0.38            145           99.3 180 
 SPBC HZ EP       2149 21.30                             128   -0.44 9  167 221 
 SPBC HN ES       2149 44.46                             128    0.29 9  167 221 
 SPBC HZ I        2149 49.29         8.2 0.17            129            167 221 
 ZAR  HN ES       2149 51.88                             121    0.04 8  211 292 
 NOR  HZ EP       2149 28.91                             118   -0.28 8  240 236 
 NOR  HN ES       2149 57.20                             118   -0.23 8  240 236 
 NOR  HZ I        2150  1.64         4.8 0.18            119            240 236 
 GUY2CHZ EP       2149 37.87                             112    0.76 7  306 236 
 GUY2CHE ES   3   2150 13.08                             112    1.55 2  306 236 
 GUY2CHZ I        2150 18.87         2.4 0.24                           306 236 
                                                                                
