 2011 10 9 2001  7.5 L   6.665 -73.634101.1  RSN 10 0.4 2.1LRSN                1
 GAP= 48        0.66       2.2     2.5  4.8 -0.7631E+00  0.3520E+01  0.1993E+01E
 Epicentro: EL CARMEN DE CHUCURI - SANTANDER                                   3
 ACTION:UPD 12-07-13 16:02 OP:ep   STATUS:               ID:20111009200107 L   I
 2011-10-09-1958-22S.COL___168                                                 6
 STAT SP IPHASW D HRMM SECON CODA AMPLIT PERI AZIMU VELO AIN AR TRES W  DIS CAZ7
 BRR  HZ IP     C 20 1 22.56                             151    0.0010 49.7 350 
 BRR  HZ I        20 1 22.88        74.1 0.13                          49.7 350 
 BRR  HN ES       20 1 34.28                             151   -0.0610 49.7 350 
 BAR2 SZ EP       20 1 22.81                             151   -0.1510 50.6  99 
 BAR2 SZ ES   1   20 1 35.39                             151    0.34 7 50.6  99 
 BAR2 SZ I        20 1 36.88        47.6 0.12                          50.6  99 
 RUS  HZ EP   1   20 1 27.82                             130    0.27 7  105 144 
 RUS  HE ES   1   20 1 42.88                             130   -0.34 7  105 144 
 RUS  HZ I        20 1 47.33        18.0 0.42                           105 144 
 PAM  SZ EP       20 1 29.94                             124    0.2210  127  54 
 PAM  SN ES       20 1 47.03                             124   -0.0710  127  54 
 ZAR  HZ EP   2   20 1 31.62                             116   -1.26 5  163 304 
 ZAR  HN ES   1   20 1 53.26                             116    0.55 7  163 304 
 ZAR  HZ I        20 1 55.01        17.4 0.21                           163 304 
 OCA  SZ EP   1   20 1 34.85                             114    0.21 7  178  11 
 OCA  SZ ES   1   20 1 55.30                             114   -0.54 7  178  11 
 OCA  SZ I        20 1 58.12        20.1 0.08                           178  11 
 NOR  SZ EP   1   20 1 35.55                             113    0.42 7  183 228 
 NOR  SE ES   1   20 1 56.36                             113   -0.36 7  183 228 
 HEL  HZ EP   2   20 1 39.81                             109    0.53 4  216 256 
 HEL  HE ES   2   20 2  3.83                             109   -0.27 4  216 256 
 HEL  HZ I        20 2  9.04         9.0 0.64                           216 256 
 CHI  HZ EP   2   20 1 40.16                             108   -0.25 4  225 183 
 CHI  HE ES   2   20 2  6.16                             108    0.05 4  225 183 
 RREF HZ EP   1   20 1 46.39                             104    0.23 6  272 224 
 RREF HE ES   2   20 2 16.04                             104   -0.32 4  272 224 
 RREF HZ I        20 2 21.15         6.0 0.32                           272 224 
                                                                                
