 2010  7 9 2113 21.2 L   7.351 -73.126138.2  RSN  7 0.5 1.9LRSN                1
 GAP=136        0.99      26.7    24.8 12.9 -0.5923E+03 -0.9700E+02  0.1613E+03E
 Epicentro: RIONEGRO - SANTANDER                                               3
 ACTION:UPD 10-12-01 15:16 OP:pat  STATUS:               ID:20100709211321 L   I
 2010-07-09-2110-01S.COL___120                                                 6
 STAT SP IPHASW D HRMM SECON CODA AMPLIT PERI AZIMU VELO AIN AR TRES W  DIS CAZ7
 GIR2 SZ EP   3   2113 39.83                             167    -0.2 2   31 194 
 BRI  SZ EP   3   2113 40.44                             157    -0.5 2   54  42 
 BRI  SZ ES   2   2113 56.08                             157    -0.2 5   54  42 
 BRI  SZ I        2113 58.37        10.0 0.51                            54  42 
 GUE  SZ EP       2113 41.90                             156     0.610   57  23 
 GUE  SZ ES   1   2113 57.43                             156     0.5 7   57  23 
 GUE  SZ I        2113 58.97        11.5 0.14                            57  23 
 GRA  SZ EP       2113 41.62                             152     0.010   69  31 
 GRA  SZ ES   1   2113 56.75                             152    -0.9 7   69  31 
 GRA  SZ I        2113 58.30        27.5 0.26                            69  31 
 BRR  HZ EP       2113 41.24                             151    -0.310   70 247 
 BRR  HN ES   2   2113 57.57                             151     0.2 5   70 247 
 BRR  HZ I        2113 58.66        22.6 0.31                            70 247 
 OCA  SZ EP   3   2113 42.90                             142    -0.9 2  100 348 
 RUS  HZ EP   3   2113 49.71                             128     0.2 2  161 178 
                                                                                
