 2010  3 9 2047 39.2 L   6.790 -73.114137.1  RSN  8 0.4 2.7LRSN                1
 GAP=186        0.84       3.0     6.2  5.3  0.1048E+01  0.1173E+02  0.1347E+01E
 Epicentro: LOS SANTOS - SANTANDER                                             3
 ACTION:UP  10-08-24 09:53 OP:vdl  STATUS:               ID:20100309204739 L   I
 2010-03-09-2040-00S.COL___100                                                 6
 STAT SP IPHASW D HRMM SECON CODA AMPLIT PERI AZIMU VELO SNR AR TRES W  DIS CAZ7
 BAR2 SZ EP       2047 57.86                             170     0.110   23 199 
 BAR2 SZ ES       2048 12.18                             170    -0.110   23 199 
 BRR  HZ EP       2047 59.90                             149     0.310   75 298 
 BRR  HN ES   1   2048 16.06                             149     0.5 7   75 298 
 BRR  HZ I        2048 22.00       128.9 0.17                            75 298 
 RUS  BZ EP       2048  1.78                             142    -0.210   99 178 
 RUS  BN ES       2048 19.50                             142    -0.310   99 178 
 RUS  BZ I        2048 21.49        34.7 0.33                            99 178 
 OCA  SZ EP       2048  6.78                             127    -0.2 9  162 352 
 OCA  SZ ES   1   2048 28.82                             127     0.1 7  162 352 
 OCA  SZ I        2048 33.29       124.2 0.42                           162 352 
 CHI  HZ EP       2048 16.50                             115     0.1 8  249 196 
 CHI  HN ES       2048 45.65                             115     0.2 8  249 196 
 HEL  HZ EP   1   2048 20.01                             113     0.7 6  275 256 
 HEL  HN ES   1   2048 49.73                             113    -0.9 6  275 256 
 DBB  SZ EP       2048 26.23                             108    -0.5 7  343 274 
 PRA  HZ EP       2048 32.26                             105    -0.2 6  393 210 
 PRA  HN ES       2049 14.71                             105     0.6 6  393 210 
 PRA  HZ I        2049 19.87        13.9 0.33                           393 210 
                                                                                
