 2016  7 9 2146 46.7 L   6.808 -73.112142.5  RSN  7 0.3 2.0LRSN                1
 GAP=247        0.84       4.6     4.9  6.5  0.8346E+01  0.1073E+02 -0.4010E+00E
 Epicentro: LOS SANTOS - SANTANDER                                             3
 ACTION:UPD 17-03-29 16:48 OP:lp   STATUS:               ID:20160709214646 L   I
 OLDACT:UP  16-07-10 07:14 OP:ar   STATUS:               ID:20160709213744     3
 OLDACT:REG 16-07-10 03:43 OP:ar   STATUS:               ID:20160709213744     3
 2016-07-09-2137-44M.COL___338                                                 6
 STAT SP IPHASW D HRMM SECON CODA AMPLIT PERI AZIMU VELO AIN AR TRES W  DIS CAZ7
 BAR2 EZ EP       2147  6.30                             169    0.3610 25.1 198 
 BAR2 EZ ES       2147 20.86                             169   -0.1210 25.1 198 
 BAR2 EZ I        2147 21.79        27.5 0.44            164           25.1 198 
 RUS  HZ EP       2147  9.95                             143   -0.2010  101 178 
 RUS  HE ES       2147 28.38                             143   -0.0910  101 178 
 RUS  HZ I        2147 30.21         8.6 0.36            133            101 178 
 PTB  HZ EP       2147 13.17                             130   -0.55 9  152 259 
 PTB  HN ES       2147 35.28                             130    0.45 9  152 259 
 PTB  HZ I        2147 37.70        10.1 0.14            122            152 259 
 ZAR  HZ EP       2147 19.78                             121    0.56 8  207 292 
 ZAR  HN ES       2147 44.29                             121   -0.33 8  207 292 
 ZAR  HZ I        2147 52.02        12.4 0.36            114            207 292 
 NOR  HZ EP       2147 22.44                             117   -0.15 8  238 235 
 NOR  HN ES       2147 50.42                             117   -0.20 8  238 235 
 NOR  HZ I        2147 53.18         9.4 0.22            110            238 235 
 CHI  HN IS       2147 54.15                             116    0.33 8  251 196 
 CHI  HN ES       2147 54.32                             118            251 196 
 CHI  HZ I        2147 59.74         3.0 0.26            108            251 196 
 PRA  HZ EP   4   2147 41.50                             106    1.11 0  395 210 
 PRA  HZ I        2148 13.13         3.5 0.32            100            395 210 
                                                                                
