 2012  2 9 2353  5.3 L   6.747 -73.105143.9  RSN  5 0.4 1.6LRSN                1
 GAP=144        0.71       4.8     5.2  7.3 -0.1301E+01 -0.3534E+01  0.5049E+01E
 ACTION:UP  12-03-07 16:29 OP:epov STATUS:               ID:20120209235305 L   I
 2012-02-09-2350-00M.COL___188                                                 6
 STAT SP IPHASW D HRMM SECON CODA AMPLIT PERI AZIMU VELO AIN AR TRES W  DIS CAZ7
 GIR2 SZ EP   2   2353 25.01                             164    0.02 5 38.0 345 
 GIR2 SZ ES   2   2353 40.12                             164   -0.19 5 38.0 345 
 BRR  HZ EP       2353 26.88                             150    0.1910 78.0 301 
 BRR  HZ I        2353 31.89        12.0 0.25                          78.0 301 
 BRR  HN ES       2353 43.62                             150    0.2810 78.0 301 
 PAM  SZ EP       2353 27.65                             150    0.1810 79.4  34 
 PAM  SE ES   1   2353 44.20                             150   -0.53 7 79.4  34 
 RUS  HZ EP   1   2353 28.32                             145   -0.15 7 94.5 179 
 RUS  HN ES   1   2353 46.71                             145    0.20 7 94.5 179 
 RUS  HZ I        2353 48.91         4.1 0.29                          94.5 179 
 PTB  HZ EP   2   2353 31.92                             131   -0.55 5  151 261 
 PTB  HE ES   2   2353 52.57                             131   -1.06 5  151 261 
                                                                                
