 2017  7 9 2142 42.9 L   6.758 -73.121149.1  RSN  8 0.4 1.7LRSN                1
 GAP=164        0.96       5.0     4.6  6.3 -0.9005E+01  0.7133E+01  0.3443E+01E
 Epicentro: LOS SANTOS - SANTANDER                                             3
 ACTION:UPD 17-08-30 15:31 OP:rebc STATUS:               ID:20170709214242 L   I
 OLDACT:REG 17-07-10 03:13 OP:osc  STATUS:               ID:20170709213740     3
 2017-07-09-2138-00M.COL___383                                                 6
 STAT SP IPHASW D HRMM SECON CODA AMPLIT PERI AZIMU VELO AIN AR TRES W  DIS CAZ7
 BAR2 EZ EP       2143  3.30                             172    0.4710 19.5 200 
 BAR2 EZ ES       2143 17.83                             172   -0.5710 19.5 200 
 BAR2 EZ I        2143 19.71        20.1 0.26            172           19.5 200 
 BRR  HZ EP       2143  4.37                             152   -0.2710 75.9 301 
 BRR  HE ES       2143 22.28                             152    0.6510 75.9 301 
 PAM  EZ EP       2143  5.15                             151   -0.4110 79.4  36 
 PAM  EE ES       2143 23.48                             151    0.2210 79.4  36 
 PAM  EZ I        2143 26.28         5.5 0.60            152           79.4  36 
 PTB  HN ES       2143 31.34                             132   -0.31 9  150 261 
 SPBC HN ES       2143 33.97                             130    0.23 9  161 221 
 ZAR  HZ EP       2143 15.83                             122   -0.14 8  208 293 
 ZAR  HE ES       2143 41.64                             122   -0.15 8  208 293 
 ZAR  HZ I        2143 45.86         5.1 0.10            123            208 293 
 NOR  HZ EP       2143 19.16                             119    0.42 8  234 236 
 NOR  HE ES       2143 46.35                             119   -0.37 8  234 236 
 NOR  HZ I        2143 52.49         3.8 0.18            120            234 236 
 GUY2CHZ EP       2143 26.64                             113    0.06 7  301 236 
 GUY2CHE ES   2   2144  1.62                             113    0.94 4  301 236 
 GUY2CHZ I        2144  9.96         2.4 0.60                           301 236 
                                                                                
