 2011  6 9 2312 36.3 L   6.678 -73.078131.5  RSN  3 0.5 1.4LRSN                1
 GAP=151        1.25       8.1    11.5 15.8 -0.2388E+01 -0.6814E+01 -0.3418E+01E
 Epicentro: ARATOCA - SANTANDER                                                3
 *CAP2                                                                         3
 ACTION:UP  11-07-14 19:04 OP:ep   STATUS:               ID:20110609231236 L   I
 2011-06-09-2300-00M.COL___114                                                 6
 STAT SP IPHASW D HRMM SECON CODA AMPLIT PERI AZIMU VELO SNR AR TRES W  DIS CAZ7
 PAM  SZ EP       2312 57.32                             146    -0.210   84  30 
 PAM  SZ I        2312 57.68         3.2 0.17                            84  30 
 PAM  SN ES   1   2313 14.22                             146     0.2 7   84  30 
 BRR  HZ EP       2312 56.43                             145    -0.410   85 304 
 BRR  HZ I        2312 56.77        15.2 0.10                            85 304 
 BRR  HE ES   1   2313 13.22                             145     0.4 7   85 304 
 RUS  HZ EP   1   2312 58.62                             145     0.9 7   87 180 
 RUS  HN ES   1   2313 13.84                             145    -0.5 7   87 180 
 RUS  HZ I        2313 20.40         2.9 0.34                            87 180 
                                                                                
