 2017  1 9 2310 46.2 L   6.774 -73.181145.0  RSN  4 0.2 1.1LRSN                1
 GAP=141        0.47       2.9     2.7  3.9 -0.2411E+01  0.2876E+01 -0.1140E+01E
 Epicentro: LOS SANTOS - SANTANDER                                             3
 ACTION:UPD 17-05-22 15:57 OP:jn   STATUS:               ID:20170109231046 L   I
 OLDACT:REG 17-01-10 03:59 OP:lv   STATUS:               ID:20170109230625     3
 2017-01-09-2308-00M.COL___366                                                 6
 STAT SP IPHASW D HRMM SECON CODA AMPLIT PERI AZIMU VELO AIN AR TRES W  DIS CAZ7
 BAR2 EZ EP       2311  5.75                             172    0.0810 20.1 180 
 BAR2 EZ ES       2311 21.08                             172    0.2210 20.1 180 
 BAR2 EZ I        2311 22.06         5.4 0.13            172           20.1 180 
 PAM  EZ EP       2311  8.63                             149    0.0210 82.1  40 
 PAM  EN ES       2311 25.97                             149   -0.1310 82.1  40 
 PAM  EZ I        2311 28.12         1.3 0.32            151           82.1  40 
 RUS  HZ EP       2311  9.87                             144    0.1810 98.0 174 
 RUS  HE ES       2311 27.77                             144   -0.2410 98.0 174 
 RUS  HZ I        2311 30.04         1.9 0.29            146           98.0 174 
 PTB  HZ EP       2311 12.55                             133   -0.15 9  143 260 
 PTB  HE ES       2311 33.39                             133    0.01 9  143 260 
 PTB  HZ I        2311 35.49         1.8 0.13            134            143 260 
                                                                                
