 2015  2 9 2312 17.4 L   6.819 -73.173149.7  RSN  4 0.5 1.8LRSN                1
 GAP=199        1.22       6.4    10.0 11.4  0.2928E+02 -0.2817E+02 -0.2829E+02E
 Epicentro: LOS SANTOS - SANTANDER                                             3
 ACTION:UPD 15-04-30 21:24 OP:nd   STATUS:               ID:20150209231217 L   I
 OLDACT:REG 15-02-10 02:24 OP:cam  STATUS:               ID:20150209230748     3
 2015-02-09-2307-48M.COL___284                                                 6
 STAT SP IPHASW D HRMM SECON CODA AMPLIT PERI AZIMU VELO AIN AR TRES W  DIS CAZ7
 BRR  HZ EP       2312 39.31                             154    0.4810 67.6 298 
 BRR  HN ES       2312 56.09                             154    0.5910 67.6 298 
 BRR  HN I        2312 59.71        15.0 0.16            155           67.6 298 
 RUS  HZ EP     C 2312 42.21                             144    0.4610  103 174 
 RUS  HN ES       2313  0.00                             144   -0.7110  103 174 
 RUS  HZ I        2313  2.03         2.8 0.16            150            103 174 
 PTB  HZ EP       2312 44.61                             133    0.10 9  145 258 
 PTB  HN ES       2313  5.29                             133   -0.33 9  145 258 
 PTB  HN I        2313  8.03        13.3 0.20            137            145 258 
 SML  HZ EP       2312 53.68                             119   -0.28 8  241 336 
 SML  HN ES       2313 21.77                             119   -0.67 8  241 336 
 SML  HZ I        2313 29.09         4.9 0.10            121            241 336 
                                                                                
