 2012  2 9 2058  0.6 L   6.013 -73.719109.1  RSN  8 0.4 1.6LRSN                1
 GAP= 80        0.77       3.6     3.4  8.2 -0.7490E+00  0.6122E+01  0.6978E+00E
 ACTION:UP  12-03-07 16:29 OP:epov STATUS:               ID:20120209205800 L   I
 2012-02-09-2050-00M.COL___188                                                 6
 STAT SP IPHASW D HRMM SECON CODA AMPLIT PERI AZIMU VELO AIN AR TRES W  DIS CAZ7
 RUS  HZ EP       2058 18.83                             144    0.2210 71.6 101 
 RUS  HE ES   1   2058 32.52                             144   -0.17 7 71.6 101 
 RUS  HZ I        2058 34.75         8.7 0.51                          71.6 101 
 PTB  HZ EP       2058 19.44                             134   -0.7910  100 306 
 PTB  HE ES   1   2058 35.49                             134   -0.09 7  100 306 
 BRR  HZ EP       2058 22.16                             128    0.0410  121   0 
 BRR  HE ES   2   2058 39.57                             128    0.63 5  121   0 
 GIR2 SZ EP   1   2058 23.59                             126    0.27 7  131  26 
 NOR  SZ EP       2058 23.92                             124    0.18 9  137 249 
 NOR  SE ES   1   2058 42.19                             124    0.36 7  137 249 
 CHI  HZ EP   1   2058 25.66                             121   -0.22 7  153 181 
 CHI  HZ I        2058 26.52         4.4 0.12                           153 181 
 CHI  HN ES   2   2058 45.54                             121   -0.09 5  153 181 
 HEL  HZ EP   1   2058 31.42                             113    0.36 6  201 276 
 HEL  HZ I        2058 33.73         7.7 0.44                           201 276 
 RREF HN ES   2   2058 59.01                             111    0.13 4  218 236 
 RREF HZ I        2059  2.25         4.9 0.07                           218 236 
                                                                                
