 2016  9 9 2247 59.5 L   6.773 -73.181148.7  RSN  6 0.4 1.7LRSN                1
 GAP=133        1.08       5.5     4.8  7.9  0.2496E+01  0.6821E+01  0.5749E+00E
 Epicentro: LOS SANTOS - SANTANDER                                             3
 ACTION:UPD 17-08-17 21:08 OP:lp   STATUS:               ID:20160909224759 L   I
 OLDACT:UP  16-09-10 03:46 OP:drio STATUS:               ID:20160909223738d    3
 OLDACT:DUP 16-09-10 03:39 OP:drio STATUS:               ID:20160909223738d    3
 2016-09-09-2238-00M.COL___348                                                 6
 STAT SP IPHASW D HRMM SECON CODA AMPLIT PERI AZIMU VELO AIN AR TRES W  DIS CAZ7
 BAR2 EZ EP       2248 19.41                             172   -0.0610 20.0 181 
 BAR2 EZ ES       2248 34.77                             172   -0.2410 20.0 181 
 BAR2 EZ I        2248 36.01        19.4 0.26            172           20.0 181 
 BRR  HZ EP       2248 21.24                             154    0.3310 69.4 302 
 BRR  HE ES       2248 38.48                             154    0.9010 69.4 302 
 PAM  HZ EP       2248 22.43                             150    0.0710 82.1  40 
 PAM  EN ES       2248 39.61                             150   -0.5510 82.1  40 
 PAM  HZ I        2248 42.67         4.6 0.48            153           82.1  40 
 RUS  HZ EP       2248 23.51                             145    0.1110 98.0 174 
 RUS  HE ES       2248 42.23                             145    0.2210 98.0 174 
 RUS  HZ I        2248 43.50         4.1 0.24            147           98.0 174 
 PTB  HZ EP       2248 26.29                             134   -0.08 9  143 260 
 PTB  HN ES       2248 46.60                             134   -0.69 9  143 260 
 PTB  HZ I        2248 53.96         4.7 0.16            133            143 260 
 ZAR  HN ES       2248 57.07                             123   -0.14 9  202 293 
 ZAR  HZ I        2249  2.80         8.5 0.42            123            202 293 
                                                                                
