 2010 11 9 2050 54.7 L   6.794 -73.096148.5  RSN 19 0.5 3.2LRSN                1
 GAP=105        1.08       3.5     5.0  6.1 -0.4295E+01  0.6348E+01  0.2724E+01E
 Epicentro: LOS SANTOS - SANTANDER                                             3
 ACTION:UP  10-12-17 16:51 OP:REBC STATUS:               ID:20101109205054 L   I
 2010-11-09-2048-52S.COL___129                                                 6
 STAT SP IPHASW D HRMM SECON CODA AMPLIT PERI AZIMU VELO SNR AR TRES W  DIS CAZ7
 BTL  SZ IP       2051 13.79                             171    -0.810   23 306 
 BAR2 SZ IP       2051 14.66                             170     0.010   24 203 
 BAR2 SZ ES   1   2051 29.58                             170    -0.7 7   24 203 
 BAR2 SZ I        2051 31.49       331.8 0.31                            24 203 
 GIR2 SZ IP       2051 14.74                             167     0.010   33 341 
 BRR  HZ IP     C 2051 16.55                             151     0.110   76 297 
 BRR  HZ I        2051 16.84       559.0 0.16                            76 297 
 BRR  HN ES   1   2051 34.15                             151     0.8 7   76 297 
 RUS  HZ IP     D 2051 18.51                             144    -0.110  100 179 
 RUS  HE ES   1   2051 37.38                             144     0.1 7  100 179 
 RUS  HZ I        2051 38.56       139.7 0.31                           100 179 
 GUE  SZ EP       2051 19.69                             140     0.110  116   9 
 GRA  SZ IP       2051 20.44                             138     0.410  125  15 
 GRA  SZ I        2051 21.62       202.4 0.23                           125  15 
 GRA  SZ ES   1   2051 40.16                             138     0.2 7  125  15 
 OCA  SZ EP       2051 22.98                             130    -0.3 9  162 351 
 OCA  SZ I        2051 51.22       156.3 0.34                           162 351 
 YOP  SZ EP       2051 25.07                             127     0.4 9  176 155 
 YOP  SN ES   1   2051 48.53                             127     0.5 7  176 155 
 NOR  SZ EP       2051 30.34                             118    -0.7 8  239 235 
 NOR  SN ES   1   2051 58.62                             118    -0.7 6  239 235 
 HEL  HZ EP       2051 36.11                             115     0.5 7  277 256 
 HEL  HZ I        2052 12.97        66.1 0.44                           277 256 
 VIL  SZ EP   1   2051 38.03                             113     0.0 5  302 191 
 VIL  SN ES   2   2052 11.52                             113    -0.4 4  302 191 
 VIL  SZ I        2052 23.15        40.2 0.76                           302 191 
 GUY  SZ EP       2051 39.63                             112     0.7 7  305 236 
 GUY  SN ES   2   2052 13.95                             112     0.6 4  305 236 
 GUY  SZ I        2052 22.49        77.7 0.38                           305 236 
 RREF HZ EP       2051 41.77                             111     0.4 7  325 230 
 RREF HN ES   1   2052 17.77                             111     0.0 5  325 230 
 RREF HZ I        2052 23.09        60.1 0.28                           325 230 
 DBB  SZ EP       2051 42.35                             110    -0.5 7  345 274 
 TOL  SZ EP       2051 44.16                             109     0.7 6  347 225 
 SDV  BZ EP       2051 44.09                             109    -0.3 6  357  50 
 PRA  HZ EP       2051 48.06                             107    -0.5 6  394 210 
 PRA  HN ES   2   2052 31.03                             107     0.5 3  394 210 
 SJA  SZ EP       2051 49.08                             106    -0.3 6  401 194 
 SJA  SZ ES   1   2052 31.66                             106    -0.4 4  401 194 
 SJA  SZ I        2052 43.49        88.6 0.50                           401 194 
                                                                                
