 2013  3 9 2155 59.3 L   6.802 -73.162139.7  RSN  5 0.4 1.3LRSN                1
 GAP=134        0.86       5.7     5.0 10.1  0.1981E+01  0.9412E+01  0.6782E+01E
 Epicentro: LOS SANTOS - SANTANDER                                             3
 ACTION:UPD 13-04-09 14:01 OP:ep   STATUS:               ID:20130309215559 L   I
 2013-03-09-2150-00M.COL___231                                                 6
 STAT SP IPHASW D HRMM SECON CODA AMPLIT PERI AZIMU VELO AIN AR TRES W  DIS CAZ7
 BRR  HZ EP   1   2156 20.20                             152    0.49 7 69.5 299 
 BRR  HN ES   1   2156 36.32                             152    0.71 7 69.5 299 
 BRR  HZ I        2156 40.25         8.6 0.42            153           69.5 299 
 PAM  SZ EP   1   2156 21.21                             149    0.26 7 78.4  41 
 PAM  SN ES   1   2156 37.15                             149   -0.67 7 78.4  41 
 PAM  SZ I        2156 40.23         3.2 0.42            155           78.4  41 
 RUS  HZ EP   1   2156 22.62                             142    0.12 7  101 175 
 RUS  HN ES   1   2156 40.56                             142   -0.02 7  101 175 
 PTB  HZ EP   1   2156 25.26                             131   -0.37 7  146 259 
 PTB  HE ES   1   2156 45.76                             131   -0.39 7  146 259 
 PTB  HZ I        2156 51.54         1.7 0.18            134            146 259 
 ZAR  HN ES   1   2156 55.73                             121   -0.31 6  202 292 
                                                                                
