 2017  6 9 2246 35.4 L   6.837 -73.064146.9  RSN 12 0.6 2.0LRSN                1
 GAP=195        0.85       4.5     6.1  5.8  0.1508E+02  0.1085E+01  0.4090E+01E
 Epicentro: LOS SANTOS - SANTANDER                                             3
 ACTION:UPD 17-09-14 16:51 OP:jn   STATUS:               ID:20170609224635 L   I
 OLDACT:UP  17-06-10 04:08 OP:and  STATUS:               ID:20170609223730     3
 OLDACT:UP  17-06-10 04:08 OP:and  STATUS:               ID:20170609223730     3
 OLDACT:UP  17-06-10 04:08 OP:and  STATUS:               ID:20170609223730     3
 OLDACT:UP  17-06-10 04:02 OP:and  STATUS:               ID:20170609223730     3
 OLDACT:UP  17-06-10 04:02 OP:and  STATUS:               ID:20170609223730     3
 OLDACT:REG 17-06-10 02:44 OP:and  STATUS:               ID:20170609223730     3
 2017-06-09-2238-00M.COL___362                                                 6
 STAT SP IPHASW D HRMM SECON CODA AMPLIT PERI AZIMU VELO AIN AR TRES W  DIS CAZ7
 BRR  HZ EP       2246 57.58                             151    0.5210 77.6 293 
 BRR  HN ES       2247 14.20                             151    0.2710 77.6 293 
 BRR  HZ I        2247 18.43        20.9 0.10            142           77.6 293 
 RUS  HZ IP     C 2246 59.70                             143    0.1410  104 181 
 RUS  HN ES       2247 18.11                             143   -0.2810  104 181 
 RUS  HZ I        2247 19.82        22.8 0.26            133            104 181 
 PTB  HZ EP       2247  2.70                             130   -0.66 9  157 258 
 PTB  HN ES   3   2247 23.30                             130   -1.85 2  157 258 
 PTB  HZ I        2247 25.53         7.3 0.18            121            157 258 
 SPBC HZ EP       2247  4.88                             128    0.03 9  172 220 
 SPBC HN ES   2   2247 26.90                             128   -0.91 4  172 220 
 SPBC HZ I        2247 32.47        11.6 0.15            119            172 220 
 ZAR  HZ EP   2   2247  9.08                             122    0.43 4  211 290 
 ZAR  HN ES       2247 34.56                             122   -0.01 8  211 290 
 ZAR  HZ I        2247 39.58        13.7 0.34            115            211 290 
 TABC EZ EP   3   2247 13.49                             119    1.38 2  238 212 
 TABC EZ I        2247 50.11         8.1 0.60            111            238 212 
 NOR  HZ EP       2247 12.19                             118   -0.07 8  244 235 
 NOR  HN ES   3   2247 39.78                             118   -1.21 2  244 235 
 NOR  HZ I        2247 45.38         7.1 0.20            110            244 235 
 CHI  HZ EP       2247 14.20                             117    0.32 8  255 197 
 CHI  HN ES   3   2247 45.36                             117    1.49 2  255 197 
 CHI  HZ I        2247 47.57         2.6 0.22            110            255 197 
 ROSC BZ EP   4   2247 15.74                             116    1.25 0  261 212 
 ROSC BN ES   4   2247 49.24                             116    4.27 0  261 212 
 ROSC BZ I        2247 54.51         8.7 0.40            109            261 212 
 PTGC HZ EP       2247 19.08                             112   -0.32 7  309 160 
 PTGC HN ES   3   2247 52.63                             112   -1.08 2  309 160 
 ORTC HZ EP       2247 31.03                             106    0.64 6  404 217 
 ORTC HN ES       2248 13.63                             106    0.37 6  404 217 
 ORTC HZ I        2248 17.82         2.2 0.32            101            404 217 
 SJC  HZ IP     D 2247 30.49                             106   -0.72 6  411 326 
 SJC  HN ES   3   2248 12.65                             106   -2.07 1  411 326 
                                                                                
