 2016 11 9 2235 55.5 L   6.844 -73.143149.2  RSN  8 0.4 1.9LRSN                1
 GAP=147        0.97       4.1     4.6  5.8 -0.1213E+01  0.6247E+01  0.6253E+01E
 Epicentro: LOS SANTOS - SANTANDER                                             3
 ACTION:UPD 17-10-26 21:06 OP:lp   STATUS:               ID:20161109223555 L   I
 OLDACT:REG 16-11-10 05:22 OP:dani STATUS:               ID:20161109222746     3
 2016-11-09-2228-00M.COL___358                                                 6
 STAT SP IPHASW D HRMM SECON CODA AMPLIT PERI AZIMU VELO AIN AR TRES W  DIS CAZ7
 BAR2 EZ ES       2236 30.82                             169   -0.5010 28.2 189 
 BRR  HZ EP       2236 17.18                             154    0.3110 69.3 295 
 BRR  HN ES       2236 33.83                             154    0.2510 69.3 295 
 BRR  HZ I        2236 43.03        22.8 0.44            145           69.3 295 
 PAM  EZ EP       2236 18.21                             152    0.3910 73.5  42 
 PAM  EE ES       2236 35.28                             152    0.0210 73.5  42 
 PAM  EZ I        2236 37.50         9.7 0.62            145           73.5  42 
 PTB  HZ EP       2236 22.03                             132   -0.79 9  149 257 
 PTB  HE ES       2236 43.99                             132   -0.18 9  149 257 
 PTB  HZ I        2236 45.70        16.5 0.42            126            149 257 
 ZAR  HZ EP       2236 28.28                             123    0.31 9  203 291 
 ZAR  HN ES       2236 53.57                             123    0.23 9  203 291 
 ZAR  HZ I        2236 58.98         8.9 0.26            116            203 291 
 CHI  HZ EP       2236 33.97                             117    0.10 8  253 195 
 CHI  HN ES       2237  3.77                             117   -0.05 8  253 195 
 CHI  HZ I        2237 12.25         3.4 0.48            113            253 195 
 PRA  HZ EP       2236 49.76                             107    0.15 6  396 209 
 PRA  HE ES       2237 32.56                             107    0.71 6  396 209 
 PRA  HZ I        2237 36.45         3.2 0.28            103            396 209 
 SJC  HZ EP       2236 49.63                             106   -1.05 6  405 327 
 SJC  HZ I        2237 33.90         1.7 0.45            101            405 327 
                                                                                
