 2013 10 9 2336 18.4 L   6.701 -73.161137.3  RSN  5 0.4 1.4LRSN                1
 GAP=228        1.07       8.0     8.6  8.3  0.3705E+02  0.2165E+02  0.1633E+02E
 Epicentro: VILLANUEVA - SANTANDER                                             3
 ACTION:UPD 13-11-25 09:20 OP:ep   STATUS:               ID:20131009233618 L   I
 OLDACT:DUP 13-10-10 04:38 OP:stll STATUS:               ID:20131009233001d    3
 2013-10-09-2330-00M.COL___272                                                 6
 STAT SP IPHASW D HRMM SECON CODA AMPLIT PERI AZIMU VELO AIN AR TRES W  DIS CAZ7
 BAR2 SZ ES       2336 50.67                             175   -0.5210 12.3 191 
 BRR  HZ EP       2336 38.57                             149   -0.3210 75.7 306 
 BRR  HN ES       2336 55.44                             149    0.5510 75.7 306 
 RUS  HZ EP       2336 40.40                             145   -0.1310 89.8 175 
 RUS  HN ES       2336 58.27                             145    0.4710 89.8 175 
 RUS  HZ I        2336 59.76         2.7 0.38            144           89.8 175 
 PTB  HZ EP       2336 44.87                             131    0.51 9  144 263 
 PTB  HN ES       2337  4.20                             131   -0.42 9  144 263 
 SPBC HZ EP       2336 45.17                             129   -0.16 9  154 221 
 SPBC HZ I        2336 45.63         5.6 0.20            129            154 221 
                                                                                
