 2014 11 9 2056 29.2 L   6.752 -73.121141.7  RSN  5 0.4 1.1LRSN                1
 GAP=142        0.95       6.2     5.3  9.6 -0.8380E+01  0.7014E+01  0.9285E+01E
 Epicentro: LOS SANTOS - SANTANDER                                             3
 ACTION:UPD 14-12-19 15:41 OP:nd   STATUS:               ID:20141109205629 L   I
 OLDACT:REG 14-11-10 02:23 OP:spq  STATUS:               ID:20141109204738     3
 2014-11-09-2047-38M.COL___298                                                 6
 STAT SP IPHASW D HRMM SECON CODA AMPLIT PERI AZIMU VELO AIN AR TRES W  DIS CAZ7
 BAR2 SZ EP       2056 48.63                             172    0.3710 18.9 201 
 BRR  HZ EP       2056 50.19                             150   -0.0210 76.2 301 
 BRR  HE ES   1   2057  7.40                             150    0.81 7 76.2 301 
 BRR  HZ I        2057 11.21         4.8 0.38            151           76.2 301 
 PAM  SZ EP       2056 51.37                             149    0.2310 79.9  36 
 PAM  SN ES       2057  7.74                             149   -0.5210 79.9  36 
 PAM  SZ I        2057 10.27         2.3 0.48            152           79.9  36 
 RUS  HZ EP   1   2056 52.47                             144    0.31 7 95.1 177 
 RUS  HE ES   1   2057  9.95                             144   -0.12 7 95.1 177 
 RUS  HZ I        2057 11.43         1.1 0.50            149           95.1 177 
 PTB  HZ EP       2056 55.58                             131   -0.42 9  149 261 
 PTB  HN ES       2057 16.59                             131   -0.31 9  149 261 
 PTB  HZ I        2057 18.42         2.4 0.26            134            149 261 
                                                                                
