 2014  8 9 2243 39.6 L   7.285 -73.417107.4  RSN  9 0.4 1.8LRSN                1
 GAP= 80        1.05       2.9     3.8  7.2  0.8072E+00  0.9618E+01  0.3507E+00E
 Epicentro: SABANA DE TORRES - SANTANDER                                       3
 ACTION:UPD 14-09-15 21:48 OP:nd   STATUS:               ID:20140809224339 L   I
 OLDACT:UP  14-08-10 04:34 OP:mh   STATUS:               ID:20140809223818d    3
 OLDACT:DUP 14-08-10 04:31 OP:mh   STATUS:               ID:20140809223818d    3
 2014-08-09-2238-17M.COL___265                                                 6
 STAT SP IPHASW D HRMM SECON CODA AMPLIT PERI AZIMU VELO AIN AR TRES W  DIS CAZ7
 BRR  HZ EP   1   2243 54.98                             159    0.16 7 38.0 239 
 BRR  HN ES   1   2244  6.96                             159    0.27 7 38.0 239 
 BRR  HZ I        2244 10.45        17.6 0.56            159           38.0 239 
 PAM  SZ EP       2243 58.55                             141    0.4710 79.5  86 
 PAM  SN ES       2244 12.75                             141    0.2610 79.5  86 
 PAM  SZ I        2244 15.01        13.8 0.17            148           79.5  86 
 BAR2 SZ EP       2243 57.95                             140    0.1210 80.8 161 
 BAR2 SZ ES       2244 12.11                             140    0.0610 80.8 161 
 BAR2 SZ I        2244 13.71        23.1 0.34            146           80.8 161 
 OCA  HZ EP   1   2243 59.85                             132   -0.01 7  106   6 
 OCA  HN ES       2244 15.44                             132   -0.2210  106   6 
 OCA  HZ I        2244 19.12        16.6 0.25            137            106   6 
 PTB  HZ EP       2244  2.58                             123   -0.52 9  141 234 
 PTB  HN ES       2244 21.35                             123   -0.07 9  141 234 
 PTB  HZ I        2244 26.25         9.4 0.42            127            141 234 
 RUS  HZ EP       2244  4.81                             120   -0.68 9  158 166 
 RUS  HN ES       2244 25.16                             120   -0.52 9  158 166 
 RUS  HZ I        2244 29.36         2.8 0.28            125            158 166 
 ZAR  HZ EP       2244  5.76                             119    0.64 9  161 278 
 ZAR  HN ES   1   2244 25.17                             119    0.16 7  161 278 
 ZAR  HZ I        2244 30.11         8.3 0.05            122            161 278 
 SML  HZ EP   1   2244  7.83                             115    0.36 7  183 337 
 SML  HN ES       2244 28.44                             115   -0.77 9  183 337 
 SML  HZ I        2244 33.64        13.2 0.17            120            183 337 
 GUY2CHZ EP       2244 24.11                             103    0.88 7  314 224 
                                                                                
