 2017 10 9 2255 33.2 L   6.859 -73.223132.0  RSN  5 0.3 1.4LRSN                1
 GAP=124        0.82       3.3     4.6  6.4  0.1621E+01  0.1378E+02  0.2904E+01E
 Epicentro: ZAPATOCA - SANTANDER                                               3
 ACTION:UPD 17-11-07 19:30 OP:rebc STATUS:               ID:20171009225533 L   I
 OLDACT:REG 17-10-10 03:07 OP:dhb  STATUS:               ID:20171009224153     3
 2017-10-09-2248-00M.COL___423                                                 6
 STAT SP IPHASW D HRMM SECON CODA AMPLIT PERI AZIMU VELO AIN AR TRES W  DIS CAZ7
 BAR2 EZ EP       2255 51.74                             167    0.3910 29.9 171 
 BAR2 EZ ES       2256  5.49                             167   -0.0110 29.9 171 
 BAR2 EZ I        2256  6.97         7.5 0.18            167           29.9 171 
 PAM  EZ EP       2255 53.66                             148   -0.3910 78.5  47 
 PAM  EN ES       2256 10.63                             148    0.3210 78.5  47 
 PAM  EZ I        2256 12.91         6.5 0.44            150           78.5  47 
 RUS  HZ EP       2255 55.87                             139   -0.3510  108 172 
 RUS  HN ES       2256 13.92                             139   -0.2510  108 172 
 RUS  HZ I        2256 14.51         5.7 0.26            140            108 172 
 ZAR  HZ EP       2256  3.39                             121   -0.31 9  194 291 
 ZAR  HN ES       2256 27.56                             121    0.08 9  194 291 
 ZAR  HZ I        2256 31.19         1.8 0.06            121            194 291 
 CHI  HZ EP       2256 11.29                             114    0.63 8  253 193 
 CHI  HN ES       2256 39.98                             114    0.11 8  253 193 
 CHI  HZ I        2256 45.04         1.6 0.34            115            253 193 
                                                                                
