 2012  2 9 2001  3.6 L   6.753 -73.134144.0  RSN 12 0.4 2.2LRSN                1
 GAP=140        0.75       3.0     3.6  4.8 -0.1477E+01  0.3381E+01  0.3088E+01E
 ACTION:UP  12-03-07 16:29 OP:epov STATUS:               ID:20120209200103 L   I
 2012-02-09-2000-00M.COL___188                                                 6
 STAT SP IPHASW D HRMM SECON CODA AMPLIT PERI AZIMU VELO AIN AR TRES W  DIS CAZ7
 BAR2 SZ EP   2   20 1 23.04                             172    0.07 5 18.6 197 
 BAR2 SZ ES   1   20 1 37.90                             172   -0.15 7 18.6 197 
 BAR2 SZ I        20 1 39.87        51.5 0.24                          18.6 197 
 GIR2 SZ EP       20 1 23.20                             165   -0.0610 36.6 350 
 BRR  HZ EP       20 1 24.99                             151    0.1710 74.9 302 
 BRR  HZ I        20 1 25.39        34.4 0.10                          74.9 302 
 BRR  HE ES       20 1 42.03                             151    0.7010 74.9 302 
 PAM  SZ EP       20 1 25.91                             150    0.0410 80.7  37 
 PAM  SE ES       20 1 42.97                             150   -0.2410 80.7  37 
 RUS  HZ EP       20 1 26.76                             145   -0.0910 95.3 177 
 RUS  HN ES   1   20 1 45.05                             145    0.11 7 95.3 177 
 PTB  HZ EP   1   20 1 29.81                             132   -0.69 7  148 261 
 PTB  HE ES   1   20 1 51.00                             132   -0.44 7  148 261 
 OCA  SZ EP   1   20 1 31.66                             128   -0.66 7  166 353 
 OCA  SZ ES   1   20 1 55.07                             128    0.38 7  166 353 
 ZAR  HZ EP   1   20 1 36.39                             122    0.09 6  207 293 
 ZAR  HE ES   1   20 2  1.39                             122   -0.39 6  207 293 
 ZAR  HZ I        20 2 10.93        15.5 0.32                           207 293 
 NOR  SZ EP   1   20 1 39.37                             118    0.31 6  233 236 
 NOR  SN ES   1   20 2  6.22                             118   -0.47 6  233 236 
 CHI  HZ EP   1   20 1 41.07                             117    0.33 6  244 196 
 CHI  HE ES   2   20 2 10.04                             117    0.37 4  244 196 
 CHI  HZ I        20 2 19.67         6.8 0.79                           244 196 
 RREF HZ EP   1   20 1 49.93                             111    0.49 5  319 230 
 RREF HZ I        20 2 37.57         9.2 0.39                           319 230 
 PRA  HZ EP   1   20 1 56.82                             107    0.17 4  388 210 
                                                                                
