 2017  1 9 2115 20.1 L   6.745 -73.124141.1  RSN  6 0.5 1.1LRSN                1
 GAP=142        1.18       5.7     5.2  8.0  0.2734E+01  0.1102E+02 -0.2350E+01E
 Epicentro: LOS SANTOS - SANTANDER                                             3
 ACTION:UPD 17-05-22 15:57 OP:jn   STATUS:               ID:20170109211520 L   I
 OLDACT:REG 17-01-10 03:53 OP:lv   STATUS:               ID:20170109210749     3
 2017-01-09-2108-00M.COL___368                                                 6
 STAT SP IPHASW D HRMM SECON CODA AMPLIT PERI AZIMU VELO AIN AR TRES W  DIS CAZ7
 BAR2 EZ EP       2115 39.12                             172    0.0910 18.1 201 
 BAR2 EZ ES       2115 53.81                             172   -0.0210 18.1 201 
 BRR  HZ EP       2115 40.95                             150   -0.0610 76.3 302 
 BRR  HN ES       2115 57.93                             150    0.5810 76.3 302 
 BRR  HZ I        2116  0.96         4.7 0.46            149           76.3 302 
 PAM  EZ EP       2115 41.81                             149   -0.1710 80.7  35 
 PAM  EN ES       2115 58.68                             149   -0.4110 80.7  35 
 PAM  EZ I        2116  0.85         1.4 0.48            152           80.7  35 
 RUS  HZ EP       2115 42.99                             145    0.0910 94.4 177 
 RUS  HN ES       2116  1.11                             145    0.3810 94.4 177 
 RUS  HZ I        2116  2.62         1.1 0.26            147           94.4 177 
 PTB  HZ EP       2115 46.23                             131   -0.54 9  149 261 
 PTB  HN ES       2116  6.64                             131   -0.97 9  149 261 
 PTB  HZ I        2116 11.82         1.1 0.19            131            149 261 
 ZAR  HZ EP       2115 53.47                             121    0.79 8  209 293 
 ZAR  HN ES       2116 18.48                             121    0.36 8  209 293 
 ZAR  HZ I        2116 22.89         1.8 0.34            122            209 293 
                                                                                
