 2015 1110 0825 59.3 L   6.876 -73.286125.6  RSN 12 0.5 2.0LRSN                1
 GAP=161        1.06       2.7     4.0  6.0 -0.6089E+00  0.1015E+02 -0.1448E+01E
 Epicentro: BETULIA - SANTANDER                                                3
 ACTION:UPD 15-12-28 16:09 OP:cam  STATUS:               ID:20151110082559 L   I
 OLDACT:UP  15-11-10 19:30 OP:ak   STATUS:               ID:20151110081748     3
 OLDACT:UP  15-11-10 19:28 OP:ak   STATUS:               ID:20151110081748     3
 OLDACT:REG 15-11-10 13:37 OP:dnl  STATUS:               ID:20151110081748     3
 2015-11-10-0817-48M.COL___310                                                 6
 STAT SP IPHASW D HRMM SECON CODA AMPLIT PERI AZIMU VELO AIN AR TRES W  DIS CAZ7
 BAR2 EZ IP     D  826 17.19                             164    0.3910 33.4 160 
 BAR2 EZ ES        826 30.86                             164    0.4210 33.4 160 
 BAR2 EZ I         826 31.53        29.3 0.26            167           33.4 160 
 BRR  HZ EP        826 17.54                             155    0.2410 53.6 298 
 BRR  HN ES        826 31.47                             155    0.1410 53.6 298 
 BRR  HZ I         826 32.60         9.4 0.12            153           53.6 298 
 RUS  HZ EP        826 21.80                             136   -0.1910  111 168 
 RUS  HN ES        826 39.18                             136   -0.5110  111 168 
 OCA  HZ EP        826 25.06                             126   -0.12 9  151 359 
 OCA  HN ES        826 44.96                             126   -0.40 9  151 359 
 OCA  HZ I         826 46.87        31.0 0.24            127            151 359 
 SPBC HZ EP        826 26.29                             124    0.18 9  161 213 
 SPBC HN ES        826 46.61                             124   -0.41 9  161 213 
 SPBC HZ I         826 48.38        10.3 0.36            126            161 213 
 ZAR  HZ EP        826 28.78                             120    0.13 9  187 292 
 ZAR  HE ES        826 52.02                             120    0.49 9  187 292 
 ZAR  HZ I         826 55.63         9.7 0.12            120            187 292 
 NOR  HN ES        826 59.26                             115   -0.30 8  228 230 
 SML  HZ EP        826 33.62                             114    0.29 8  230 338 
 SML  HN ES        826 59.46                             114   -0.41 8  230 338 
 SML  HZ I         827  4.74        15.3 0.06            115            230 338 
 HEL  HZ EP   1    826 38.06                             112    0.93 6  259 253 
 HEL  HN ES        827  7.32                             112    0.69 8  259 253 
 HEL  HZ I         827 11.33         5.4 0.52            112            259 253 
 URE  HZ EP   1    826 37.39                             111   -0.08 6  266 291 
 URE  HE ES        827  6.24                             111   -0.99 8  266 291 
 GUY2CHZ EP        826 40.54                             109   -0.67 7  294 232 
 GUY2CHN ES        827 14.00                             109    0.10 7  294 232 
 GUY2CHZ I         827 21.09         3.8 0.32                           294 232 
 CBOC HZ EP        826 44.99                             107    0.92 7  322 250 
 CBOC HN ES        827 18.28                             107   -0.71 7  322 250 
                                                                                
