 2016 1010 0906 42.0 L   6.799 -73.157140.2  RSN  9 0.4 1.6LRSN                1
 GAP=135        1.07       3.1     4.4  6.4 -0.2643E+01  0.1001E+02  0.2139E+00E
 Epicentro: LOS SANTOS - SANTANDER                                             3
 ACTION:UPD 16-11-09 19:18 OP:rebc STATUS:               ID:20161010090642 L   I
 OLDACT:DUP 16-10-10 19:08 OP:y    STATUS:               ID:20161010085744d    3
 2016-10-10-0858-00M.COL___354                                                 6
 STAT SP IPHASW D HRMM SECON CODA AMPLIT PERI AZIMU VELO AIN AR TRES W  DIS CAZ7
 BAR2 EZ EP        9 7  0.49                             170   -0.4210 23.0 187 
 BAR2 EZ ES        9 7 15.40                             170   -0.2910 23.0 187 
 BAR2 EZ I         9 7 19.36         9.8 0.28            172           23.0 187 
 PAM  EZ EP        9 7  3.65                             149    0.0110 78.3  40 
 PAM  EN ES        9 7 20.93                             149    0.3810 78.3  40 
 PAM  EZ I         9 7 23.33         8.9 0.35            152           78.3  40 
 RUS  HZ EP        9 7  5.56                             143    0.4010  101 175 
 RUS  HE ES        9 7 23.88                             143    0.6210  101 175 
 RUS  HZ I         9 7 24.80         2.8 0.32            147            101 175 
 PTB  HZ EP        9 7  7.94                             131   -0.42 9  147 259 
 PTB  HN ES        9 7 28.62                             131   -0.33 9  147 259 
 PTB  HZ I         9 7 30.06         3.4 0.20            133            147 259 
 OCA  HZ EP        9 7  9.53                             128   -0.31 9  160 354 
 OCA  HE ES        9 7 31.18                             128   -0.41 9  160 354 
 OCA  HZ I         9 7 36.46        12.9 0.36            131            160 354 
 SPBC HZ EP        9 7  9.80                             128   -0.15 9  162 219 
 SPBC HE ES        9 7 31.28                             128   -0.50 9  162 219 
 SPBC HZ I         9 7 35.49         5.3 0.18            131            162 219 
 ZAR  HZ EP        9 7 14.26                             121    0.33 9  203 292 
 ZAR  HN ES        9 7 39.77                             121    0.90 9  203 292 
 ZAR  HZ I         9 7 44.96         4.7 0.17            123            203 292 
 CHI  HZ EP        9 7 19.61                             116    0.31 8  248 195 
 CHI  HE ES        9 7 47.88                             116   -0.55 8  248 195 
 GUY2CHZ EP        9 7 25.31                             111    0.12 7  300 235 
 GUY2CHN ES        9 7 59.46                             111    0.56 7  300 235 
 GUY2CHZ I         9 8 11.62         1.9 0.39                           300 235 
                                                                                
