 2017  510 0650 40.1 L   6.277 -73.606119.3  RSN 14 0.3 1.9LRSN                1
 GAP= 85        0.93       2.3     2.6  5.6 -0.3970E+00  0.3617E+00 -0.5349E+00E
 Epicentro: SANTA HELENA DEL OPON - SANTANDER                                  3
 ACTION:UPD 17-06-16 13:34 OP:jn   STATUS:               ID:20170510065040 L   I
 OLDACT:UP  17-05-10 19:49 OP:edw  STATUS:               ID:20170510064742     3
 OLDACT:REG 17-05-10 13:28 OP:osc  STATUS:               ID:20170510064742     3
 2017-05-10-0648-00M.COL___356                                                 6
 STAT SP IPHASW D HRMM SECON CODA AMPLIT PERI AZIMU VELO AIN AR TRES W  DIS CAZ7
 RUS  HZ IP     D  650 59.25                             146    0.0010 71.8 126 
 RUS  HN ES        651 14.09                             146   -0.0610 71.8 126 
 RUS  HZ I         651 15.57        16.8 0.20            145           71.8 126 
 SPBC HZ EP        650 59.89                             141    0.1910 86.2 217 
 SPBC HN ES        651 14.63                             141   -0.3310 86.2 217 
 SPBC HZ I         651 16.43        39.5 0.24            139           86.2 217 
 BRR  HZ IP     C  651  0.15                             139    0.0910 92.5 353 
 BRR  HN ES        651 15.53                             139   -0.0710 92.5 353 
 BRR  HZ I         651 16.27        25.3 0.26            138           92.5 353 
 PTB  HZ EP   9 D  650 59.88                             137   -0.68 0 98.4 287 
 PTB  HN ES        651 15.02                             139   -0.7910 98.4 287 
 PTB  HZ I         651 16.26        10.4 0.48            136           98.4 287 
 PAM  EZ EP        651  6.81                             123    0.42 9  154  40 
 PAM  EN ES        651 26.70                             123   -0.16 9  154  40 
 PAM  EZ I         651 31.75        16.5 0.24            123            154  40 
 NOR  HZ EP        651  6.57                             122    0.13 9  161 241 
 NOR  HN ES        651 27.45                             122    0.50 9  161 241 
 NOR  HZ I         651 29.61        15.8 0.22            120            161 241 
 YPLC HZ EP        651  7.59                             121    0.45 9  167 126 
 YPLC HN ES   4    651 29.40                             121    1.20 0  167 126 
 YPLC HZ I         651 30.54        25.6 0.32            119            167 126 
 ROSC BZ EP   4    651 10.06                             119    1.42 0  177 206 
 ROSC BN ES        651 31.05                             119    0.17 9  177 206 
 ROSC BZ I         651 36.16        10.0 0.35            118            177 206 
 CHI  HZ EP   4    651  9.79                             118    0.57 0  183 184 
 CHI  HN ES        651 31.66                             118   -0.25 9  183 184 
 CHI  HZ I         651 36.80         6.2 0.48            117            183 184 
 ZAR  HZ EP        651 10.07                             117    0.28 9  193 314 
 ZAR  HN ES        651 32.77                             117   -0.16 9  193 314 
 ZAR  HZ I         651 36.48        10.3 0.40            116            193 314 
 HEL  HZ EP   4    651 13.54                             114    1.08 0  213 268 
 HEL  HN ES   4    651 38.36                             114    0.70 0  213 268 
 HEL  HZ I         651 41.88         6.0 0.26            113            213 268 
 CBOC HZ EP   4    651 20.04                             108    1.35 0  270 260 
 CBOC HN ES        651 48.19                             108   -0.57 8  270 260 
 CBOC HZ I         651 54.37         2.7 0.44            107            270 260 
 PTGC HZ EP   4    651 14.12                             107   -5.70 0  282 145 
 PTGC HN ES        651 49.96                             107   -0.81 7  282 145 
 PTGC HZ I         651 55.42         4.9 0.78            106            282 145 
 ORTC HZ EP   4    651 24.85                             105    0.67 0  319 215 
 ORTC HN ES   4    651 49.22                             105   -9.31 0  319 215 
 SJC  HZ EP        651 37.45                              99   -0.75 5  436 337 
 SJC  HN ES   4    652 20.20                              99   -3.29 0  436 337 
 SJC  HZ I         652 25.30         1.3 0.44             98            436 337 
                                                                                
