 2012  710 0007 49.9 L   6.798 -73.128143.5  RSN  9 0.5 2.4LRSN                1
 GAP=113        1.22       6.0     6.0  9.7  0.1537E+01  0.5557E+01 -0.5923E+01E
 Epicentro: LOS SANTOS - SANTANDER                                             3
 ACTION:UPD 12-08-14 11:43 OP:ep   STATUS:               ID:20120710000749 L   I
 2012-07-10-0000-00M.COL___201                                                 6
 STAT SP IPHASW D HRMM SECON CODA AMPLIT PERI AZIMU VELO AIN AR TRES W  DIS CAZ7
 BAR2 SZ EP        0 8  9.40                             170     0.110   24 195 
 BAR2 SZ ES   1    0 8 24.11                             170    -0.3 7   24 195 
 BAR2 SZ I         0 8 25.79        68.1 0.19            174             24 195 
 BRR  HZ IP     C  0 8 11.32                             152     0.410   73 298 
 BRR  HZ I         0 8 11.79       103.1 0.13            150             73 298 
 BRR  HN ES   1    0 8 28.12                             152     0.8 7   73 298 
 RUS  HZ EP   1    0 8 13.31                             143    -0.1 7  100 177 
 RUS  HE ES   1    0 8 31.69                             143    -0.1 7  100 177 
 RUS  HZ I         0 8 32.90        21.1 0.21            149            100 177 
 PTB  HZ EP   1    0 8 16.01                             131    -0.9 7  150 259 
 PTB  HN ES   1    0 8 36.94                             131    -0.9 7  150 259 
 PTB  HZ I         0 8 39.51        13.7 0.18            133            150 259 
 TAM  HZ EP   1    0 8 17.76                             130     0.5 7  153 105 
 OCA  HZ EP   1    0 8 17.45                             129    -0.6 7  161 352 
 OCA  HN ES   1    0 8 39.49                             129    -0.6 7  161 352 
 OCA  HZ I         0 8 45.57        51.2 0.16            129            161 352 
 ZAR  HZ EP   1    0 8 22.15                             122    -0.3 6  206 292 
 ZAR  HN ES   1    0 8 48.47                             122     0.7 6  206 292 
 ZAR  HZ I         0 8 54.43        26.8 0.36            123            206 292 
 NOR  SN ES   1    0 8 53.25                             118    -0.3 6  236 235 
 HEL  HZ EP   1    0 8 30.92                             114     0.7 6  274 256 
 HEL  HN ES   1    0 9  2.04                             114     0.4 6  274 256 
