 2011  110 0635 42.8 L   6.698 -73.053145.9  RSN  5 0.3 1.5LRSN                1
 GAP=170        0.62       6.9    10.4  6.9 -0.2242E+02 -0.4737E+01  0.4360E+00E
 Epicentro: ARATOCA - SANTANDER                                                3
 ACTION:DUP 11-02-08 08:39 OP:pat  STATUS:               ID:20110110063543dL   I
 2011-01-10-0632-46S.COL___136                                                 6
 STAT SP IPHASW D HRMM SECON CODA AMPLIT PERI AZIMU VELO SNR AR TRES W  DIS CAZ7
 BAR2 SZ EP        636  2.46                             172     0.110   19 231 
 BAR2 SZ ES   1    636 17.94                             172     0.3 7   19 231 
 BAR2 SZ I         636 19.23         7.8 0.27                            19 231 
 BTL  SZ EP   1    636  2.72                             166     0.0 7   34 316 
 BTL  SZ ES   1    636 18.13                             166    -0.1 7   34 316 
 RUS  HZ EP   2    636  6.27                             147     0.5 5   89 182 
 RUS  HN ES   2    636 23.05                             147    -0.7 5   89 182 
 RUS  HZ I         636 27.69         3.4 0.23                            89 182 
 GRA  SZ EP   2    636  8.36                             135    -0.4 5  134  12 
 GRA  SZ I         636 28.92         4.8 0.26                           134  12 
 NOR  SN ES   2    636 46.75                             118    -0.2 4  237 238 
                                                                                
