 2012  110 0121  3.2 L   6.677 -73.230154.3  RSN  4 0.2 1.4LRSN                1
 GAP=218        0.45       6.0     6.3  6.6  0.2412E+02  0.2289E+01  0.7126E+01E
 Epicentro: BARICHARA - SANTANDER                                              3
 ACTION:UP  12-02-03 08:16 OP:REBC STATUS:               ID:20120110012103 L   I
 2012-01-10-0120-00M.COL___186                                                 6
 STAT SP IPHASW D HRMM SECON CODA AMPLIT PERI AZIMU VELO SNR AR TRES W  DIS CAZ7
 BRR  HZ EP   1    121 25.31                             154     0.0 7   71 312 
 BRR  HN ES   1    121 42.53                             154     0.0 7   71 312 
 BRR  HZ I         121 42.91         4.1 0.19                            71 312 
 RUS  HZ EP   1    121 26.78                             149    -0.2 7   88 169 
 RUS  HZ I         121 28.07         2.5 0.20                            88 169 
 RUS  HE ES   2    121 45.55                             149     0.0 5   88 169 
 PTB  HZ EP   1    121 30.17                             136     0.3 7  136 264 
 PTB  HN ES   2    121 50.65                             136    -0.1 5  136 264 
 ZAR  HE ES   2    122  1.01                             124    -0.4 4  201 297 
 ZAR  HZ I         122  6.20         2.9 0.22                           201 297 
                                                                                
