 2012  410 0031 47.0 L   6.779 -73.166138.1  RSN  7 0.2 1.6LRSN                1
 GAP=135        0.59       3.4     3.0  5.4 -0.1123E+01  0.3273E+01 -0.5796E-01E
 Epicentro: LOS SANTOS - SANTANDER                                             3
 ACTION:UPD 12-07-05 11:52 OP:tino STATUS:               ID:20120410003147 L   I
 2012-04-10-0030-00M.COL___199                                                 6
 STAT SP IPHASW D HRMM SECON CODA AMPLIT PERI AZIMU VELO AIN AR TRES W  DIS CAZ7
 BAR2 SZ EP        032  5.80                             171     0.110   21 185 
 BAR2 SZ ES   1    032 20.48                             171     0.2 7   21 185 
 BAR2 SZ I         032 30.68         8.0 0.43                            21 185 
 BRR  HZ EP        032  7.57                             151     0.210   70 301 
 BRR  HZ I         032  7.78        11.6 0.22                            70 301 
 BRR  HE ES   1    032 23.43                             151     0.3 7   70 301 
 PAM  SZ EP        032  8.70                             148     0.110   81  40 
 PAM  SN ES   1    032 24.98                             148    -0.5 7   81  40 
 RUS  HZ EP   1    032  9.91                             143     0.0 7   98 175 
 RUS  HZ I         032 11.01         3.6 0.14                            98 175 
 RUS  HE ES   1    032 27.56                             143    -0.1 7   98 175 
 PTB  HZ EP   1    032 12.94                             131    -0.2 7  145 260 
 PTB  HE ES   1    032 33.23                             131    -0.3 7  145 260 
 ZAR  HN ES   1    032 43.59                             121    -0.1 6  203 293 
 ZAR  HZ I         032 48.81         4.4 0.10                           203 293 
 NOR  SN ES   1    032 49.19                             117    -0.1 6  232 235 
                                                                                
