 2017 1210 0757 50.6 L   6.760 -73.144141.0  RSN  7 0.3 1.5LRSN                1
 GAP= 90        0.89       3.6     3.9  5.7 -0.2720E+01  0.1635E+01 -0.7162E+00E
 Epicentro: LOS SANTOS - SANTANDER                                             3
 ACTION:UPD 18-01-04 13:18 OP:rebc STATUS:               ID:20171210075750 L   I
 OLDACT:DUP 17-12-10 19:13 OP:lv   STATUS:               ID:20171210074718d    3
 2017-12-10-0748-00M.COL___460                                                 6
 STAT SP IPHASW D HRMM SECON CODA AMPLIT PERI AZIMU VELO AIN AR TRES W  DIS CAZ7
 BAR2 EZ EP        758  9.36                             172   -0.2110 19.0 193 
 BAR2 EZ ES        758 24.43                             172    0.0610 19.0 193 
 BAR2 EZ I         758 26.22         7.0 0.32            172           19.0 193 
 PAM  EZ EP        758 12.59                             149    0.0810 80.7  37 
 PAM  EN ES        758 29.98                             149    0.3710 80.7  37 
 PAM  EZ I         758 32.60         4.6 0.36            151           80.7  37 
 PTB  HZ EP   9    758 16.10                             131   -1.02 0  147 261 
 PTB  HN ES        758 36.23                                   -0.56 9  147 261 
 PTB  HZ I         758 42.38         1.8 0.20            131            147 261 
 TAM  HZ EP        758 17.61                             130   -0.16 9  154 103 
 SPBC HZ EP        758 18.39                             129   -0.02 9  160 220 
 SPBC HN ES        758 39.91                             129   -0.20 9  160 220 
 SPBC HZ I         758 44.76         2.8 0.22            130            160 220 
 OCA  HZ EP        758 18.97                             128    0.01 9  165 353 
 OCA  HN ES        758 40.36                             128   -0.74 9  165 353 
 OCA  HZ I         758 46.23         7.9 0.18            129            165 353 
 ZAR  HZ EP        758 23.52                             121    0.59 8  206 293 
 ZAR  HE ES        758 48.44                             121    0.28 8  206 293 
 ZAR  HZ I         758 53.64         3.5 0.38            121            206 293 
                                                                                
