 2014 1110 0402  3.4 L   6.579 -73.570102.4  RSN 11 0.5 1.6LRSN                1
 GAP= 64        1.41       4.0     4.0  7.8 -0.5293E+01  0.1143E+02 -0.1217E+01E
 Epicentro: EL CARMEN - SANTANDER                                              3
 ACTION:UPD 14-12-19 15:41 OP:nd   STATUS:               ID:20141110040203 L   I
 OLDACT:ARG 14-11-10 12:59 OP:stll STATUS:               ID:20141110035744     3
 2014-11-10-0357-44M.COL___292                                                 6
 STAT SP IPHASW D HRMM SECON CODA AMPLIT PERI AZIMU VELO AIN AR TRES W  DIS CAZ7
 BAR2 SZ IP     C  4 2 18.95                             155    0.2810 42.8  88 
 BAR2 SZ ES        4 2 31.27                             155    0.7210 42.8  88 
 BRR  HZ EP        4 2 19.71                             147    0.3510 60.4 345 
 BRR  HN ES        4 2 32.28                             147    0.5110 60.4 345 
 BRR  HZ I         4 2 43.50         8.4 0.50            146           60.4 345 
 RUS  HZ EP        4 2 22.00                             134   -0.5810 93.1 145 
 RUS  HZ I         4 2 22.99         4.1 0.28            144           93.1 145 
 RUS  HN ES        4 2 37.20                             134   -0.3110 93.1 145 
 PTB  HZ IP     C  4 2 21.87                             133   -0.5110 98.2 267 
 PTB  HN ES        4 2 36.32                             133   -0.8310 98.2 267 
 PTB  HZ I         4 2 38.09        14.9 0.18            135           98.2 267 
 SPBC HZ EP        4 2 24.75                             127    0.5310  117 209 
 SPBC HE ES        4 2 40.15                             127   -0.2710  117 209 
 SPBC HZ I         4 2 44.06        15.4 0.10            133            117 209 
 PAM  SZ EP        4 2 25.42                             125   -0.4210  128  49 
 PAM  SN ES        4 2 43.04                             125   -0.2610  128  49 
 PAM  SZ I         4 2 44.48         8.2 0.40            130            128  49 
 OCA  HZ EP        4 2 31.15                             113   -0.44 9  186   9 
 OCA  HN ES        4 2 53.89                             113    0.34 9  186   9 
 OCA  HZ I         4 3  1.04         8.0 0.22            117            186   9 
 HEL  HZ EP        4 2 35.81                             109   -0.08 8  221 259 
 HEL  HE ES        4 3  0.90                             109   -0.30 8  221 259 
 HEL  HZ I         4 3  7.53         2.8 0.20            113            221 259 
 GUY2CHZ EP        4 2 39.91                             106    0.63 8  249 233 
 GUY2CHN ES        4 3  8.25                             106    1.03 8  249 233 
 GUY2CHZ I         4 3 13.65         3.4 0.26                           249 233 
 CBOC HZ EP        4 2 43.38                             104    0.63 7  282 254 
 CBOC HZ I         4 2 44.85         2.4 0.18            107            282 254 
 CBOC HN ES        4 3 12.89                             104   -0.52 7  282 254 
 MON  HZ EP   9    4 2 47.31                             100   -1.66 0  336 317 
 MON  HE ES        4 3 21.22                                   -1.60 7  336 317 
 MON  HZ I         4 3 26.40         1.3 0.18            103            336 317 
                                                                                
