 2015  210 0707 48.7 L   6.803 -73.110148.9  RSN  5 0.6 1.3LRSN                1
 GAP=162        1.47      10.7     9.2 11.5 -0.5426E+02 -0.9183E+00  0.3549E+02E
 Epicentro: LOS SANTOS - SANTANDER                                             3
 ACTION:UPD 15-04-30 21:24 OP:nd   STATUS:               ID:20150210070748 L   I
 OLDACT:REG 15-02-10 13:04 OP:fm   STATUS:               ID:20150210065742     3
 2015-02-10-0657-42M.COL___287                                                 6
 STAT SP IPHASW D HRMM SECON CODA AMPLIT PERI AZIMU VELO AIN AR TRES W  DIS CAZ7
 BAR2 EZ EP        7 8  9.65                             170    0.9410 24.6 199 
 BAR2 EZ ES        7 8 24.39                             170    0.0510 24.6 199 
 BAR2 EZ I         7 8 25.79         5.3 0.12            169           24.6 199 
 BRR  HN ES        7 8 28.11                             152    0.8410 74.6 297 
 PAM  SZ EP        7 8 10.85                             152   -0.2210 74.7  37 
 PAM  SN ES        7 8 27.84                             152   -0.6910 74.7  37 
 PAM  SZ I         7 8 31.92         3.1 0.48            155           74.7  37 
 PTB  HZ EP        7 8 15.86                             132   -0.39 9  152 259 
 PTB  HN ES        7 8 37.17                             132   -0.60 9  152 259 
 PTB  HZ I         7 8 39.80         2.7 0.30            134            152 259 
 SPBC HZ EP        7 8 18.00                             129    0.33 9  166 220 
 SPBC HN ES        7 8 39.88                             129   -0.42 9  166 220 
 SPBC HZ I         7 8 44.51         2.7 0.18            130            166 220 
                                                                                
