 2016  110 0900 19.5 L   6.804 -73.147148.0  RSN 16 0.4 2.0LRSN                1
 GAP=136        1.03       2.5     3.9  4.9 -0.1808E+01  0.5341E+01  0.1381E+01E
 Epicentro: LOS SANTOS - SANTANDER                                             3
 ACTION:UPD 16-03-09 23:24 OP:cam  STATUS:               ID:20160110090019 L   I
 OLDACT:REG 16-01-10 12:40 OP:drio STATUS:               ID:20160110085751     3
 2016-01-10-0857-51M.COL___229                                                 6
 STAT SP IPHASW D HRMM SECON CODA AMPLIT PERI AZIMU VELO AIN AR TRES W  DIS CAZ7
 BAR2 EZ EP        9 0 39.40                             170    0.0410 23.7 189 
 BAR2 EZ ES        9 0 54.82                             170   -0.0610 23.7 189 
 BAR2 EZ I         9 0 56.06        18.1 0.22            168           23.7 189 
 BRR  HZ EP        9 0 41.11                             153    0.2910 70.8 298 
 BRR  HE ES        9 0 58.68                             153    1.1910 70.8 298 
 BRR  HZ I         9 1  3.16        11.4 0.72            150           70.8 298 
 PAM  EZ EP        9 0 42.23                             151    0.3410 77.2  40 
 PAM  EN ES        9 0 59.45                             151    0.0610 77.2  40 
 PAM  EZ I         9 1  1.19        18.0 0.50            156           77.2  40 
 RUS  HZ EP        9 0 43.34                             144   -0.1110  101 176 
 RUS  HN ES        9 1  1.93                             144   -0.2510  101 176 
 RUS  HZ I         9 1  3.40         5.2 0.36            146            101 176 
 PTB  HZ EP        9 0 46.00                             133   -0.59 9  148 259 
 PTB  HN ES        9 1  7.59                             133   -0.17 9  148 259 
 PTB  HZ I         9 1 13.30        14.2 0.56            131            148 259 
 OCA  HZ EP        9 0 47.77                             130   -0.12 9  160 353 
 OCA  HN ES        9 1  9.65                             130   -0.42 9  160 353 
 OCA  HZ I         9 1 15.49        15.9 0.34            132            160 353 
 SPBC HZ EP        9 0 48.31                             130    0.17 9  163 219 
 SPBC HN ES        9 1 10.07                             130   -0.45 9  163 219 
 SPBC HZ I         9 1 12.77        21.0 0.10            130            163 219 
 ZAR  HZ EP        9 0 52.25                             123    0.24 9  204 292 
 ZAR  HN ES        9 1 17.27                             123   -0.13 9  204 292 
 ZAR  HZ I         9 1 23.65        13.2 0.30            123            204 292 
 NOR  HZ EP        9 0 55.59                             119    0.27 8  235 234 
 NOR  HN ES        9 1 23.27                             119   -0.03 8  235 234 
 NOR  HZ I         9 1 26.75         7.6 0.14            119            235 234 
 SML  HZ EP        9 0 55.69                             118   -0.46 8  243 335 
 SML  HN ES        9 1 23.94                             118   -0.83 8  243 335 
 SML  HZ I         9 1 27.81        15.6 0.10            119            243 335 
 CHI  HZ EP        9 0 57.54                             118    0.23 8  249 195 
 CHI  HN ES        9 1 26.26                             118   -0.59 8  249 195 
 CHI  HZ I         9 1 32.79         2.9 0.46            119            249 195 
 HEL  HZ EP   4    9 1  0.68                             115    0.91 0  272 256 
 HEL  HE ES   4    9 1 29.26                             115   -1.96 0  272 256 
 HEL  HZ I         9 1 38.03         5.5 0.26            116            272 256 
 GUY2CHZ EP        9 1  4.06                             113    0.89 7  301 235 
 GUY2CHN ES        9 1 37.02                             113   -0.26 7  301 235 
 GUY2CHZ I         9 1 46.24         8.9 0.74                           301 235 
 CBOC HZ EP        9 1  7.21                             110    0.76 7  334 252 
 CBOC HN ES   4    9 1 39.97                             110   -3.14 0  334 252 
 CBOC HZ I         9 1 51.63         1.8 0.52            111            334 252 
 PRA  HZ EP        9 1 12.82                             107   -0.26 6  392 210 
 PRA  HN ES        9 1 55.25                             107    0.33 6  392 210 
 PRA  HZ I         9 2  1.16         4.4 0.34            108            392 210 
 ORTC HZ EP        9 1 13.44                             107   -0.04 6  396 216 
 ORTC HE ES        9 1 55.56                             107   -0.05 6  396 216 
 ORTC HZ I         9 2  4.08         3.8 0.56            108            396 216 
 SJC  HZ EP   4    9 1 13.71                             106   -1.32 0  409 327 
 SJC  HN ES   4    9 1 53.38                             106   -5.00 0  409 327 
                                                                                
