 2012  210 0434 22.6 L   6.761 -73.539119.2  RSN  4 0.2 1.4LRSN                1
 GAP=142        0.46       4.2     4.2  8.1  0.6358E+01 -0.6655E+01  0.6181E+01E
 ACTION:UP  12-03-07 16:29 OP:epov STATUS:               ID:20120210043422 L   I
 2012-02-10-0430-00M.COL___188                                                 6
 STAT SP IPHASW D HRMM SECON CODA AMPLIT PERI AZIMU VELO AIN AR TRES W  DIS CAZ7
 BRR  HZ EP   1    434 39.30                             159   -0.03 7 42.8 333 
 BRR  HZ I         434 39.59         6.5 0.12                          42.8 333 
 BRR  HE ES   1    434 52.51                             159    0.11 7 42.8 333 
 BAR2 SZ EP   2    434 39.25                             159   -0.47 5 43.6 115 
 PTB  HN ES   1    434 59.72                             136   -0.05 7  104 256 
 RUS  HZ EP   2    434 44.96                             135    0.49 5  108 152 
 RUS  HN ES   1    435  1.53                             135   -0.03 7  108 152 
                                                                                
