 2013  110 0951 22.9 L   6.756 -73.466113.5  RSN  8 0.4 2.0LRSN                1
 GAP=114        1.00       4.3     3.9  6.1  0.5639E+01  0.5945E+01  0.1354E+01E
 Epicentro: EL CARMEN DE CHUCURI - SANTANDER                                   3
 ACTION:UPD 13-02-15 09:13 OP:ep   STATUS:               ID:20130110095122 L   I
 2013-01-10-0950-00M.COL___242                                                 6
 STAT SP IPHASW D HRMM SECON CODA AMPLIT PERI AZIMU VELO AIN AR TRES W  DIS CAZ7
 BAR2 SZ EP        951 38.98                             161   -0.0710 36.2 120 
 BAR2 SZ ES        951 51.42                             161   -0.2610 36.2 120 
 BRR  HZ EP        951 38.95                             156   -0.2510 47.4 325 
 BRR  HN ES        951 52.20                             156    0.2610 47.4 325 
 BRR  HN I         951 52.95        15.3 0.16            144           47.4 325 
 RUS  HZ EP        951 44.00                             135    0.0610  104 156 
 RUS  HE ES        952  0.91                             135    0.5410  104 156 
 RUS  HE I         952  2.15        13.7 0.18            132            104 156 
 PTB  HZ EP        951 43.60                             132   -0.3610  112 258 
 PTB  HN ES        951 59.87                             132   -0.5510  112 258 
 PTB  HN I         952  4.96        10.6 0.18            128            112 258 
 OCA  HZ EP        951 48.92                             120   -0.44 9  165   6 
 OCA  HN I         952  8.30        59.5 0.28            112            165   6 
 ZAR  HZ EP        951 50.76                             119    0.61 9  174 298 
 ZAR  HN ES        952 12.11                             119    0.68 9  174 298 
 ZAR  HN I         952 18.91        14.6 0.44            113            174 298 
 CHI  HZ EP        951 57.73                             111    0.07 8  237 187 
 HEL  HN ES        952 24.47                             111   -0.15 8  237 255 
                                                                                
