 2012  210 0931 15.2 L   6.756 -73.166146.1  RSN  6 0.5 1.5LRSN                1
 GAP=136        0.88       6.2     5.3  9.3 -0.4443E+01  0.1369E+02  0.1715E+01E
 ACTION:UP  12-03-07 16:29 OP:epov STATUS:               ID:20120210093115 L   I
 2012-02-10-0930-00M.COL___188                                                 6
 STAT SP IPHASW D HRMM SECON CODA AMPLIT PERI AZIMU VELO AIN AR TRES W  DIS CAZ7
 BRR  HZ EP   1    931 36.16                             152   -0.27 7 71.7 303 
 BRR  HN ES   1    931 53.69                             152    0.71 7 71.7 303 
 PAM  SZ EP   1    931 37.78                             149    0.00 7 82.5  39 
 PAM  SZ I         931 38.15         6.6 0.14                          82.5  39 
 PAM  SN ES   1    931 54.82                             149   -0.56 7 82.5  39 
 RUS  HZ EP   1    931 38.85                             145    0.17 7 96.0 175 
 RUS  HN ES   1    931 57.18                             145    0.21 7 96.0 175 
 RUS  HZ I         931 59.42         4.0 0.28                          96.0 175 
 PTB  HZ EP   1    931 41.66                             133   -0.27 7  145 261 
 PTB  HN ES   1    932  2.41                             133   -0.36 7  145 261 
 PTB  HZ I         932  5.60                                            145 261 
 ZAR  HZ EP   1    931 48.52                             122    0.86 6  204 294 
 ZAR  HZ I         932 21.02         3.9 0.23                           204 294 
 HEL  HZ I         932 21.66         2.2 0.50                           269 257 
 HEL  HE ES   1    932 25.60                             115   -0.57 6  269 257 
                                                                                
