 2015 1210 0810 27.0 L   6.541 -73.497111.3  RSN  9 0.4 1.6LRSN                1
 GAP= 67        1.04       3.9     4.4  6.9 -0.1057E+01  0.1311E+02  0.3250E+01E
 Epicentro: EL CARMEN - SANTANDER                                              3
 ACTION:UPD 16-02-04 15:03 OP:cam  STATUS:               ID:20151210081027 L   I
 OLDACT:REG 15-12-10 13:07 OP:ar   STATUS:               ID:20151210080747     3
 2015-12-10-0807-47M.COL___334                                                 6
 STAT SP IPHASW D HRMM SECON CODA AMPLIT PERI AZIMU VELO AIN AR TRES W  DIS CAZ7
 BAR2 EZ EP     D  810 43.09                             160    0.2010 35.3  81 
 BAR2 EZ ES        810 55.91                             160    0.6210 35.3  81 
 BAR2 EZ I         810 56.68        24.3 0.54            160           35.3  81 
 BRR  HZ EP        810 44.11                             146   -0.1410 67.0 339 
 BRR  HE ES        810 57.01                             146   -0.7010 67.0 339 
 BRR  HZ I         811  1.04         5.0 0.38            147           67.0 339 
 RUS  HZ EP   2    810 46.01                             139   -0.26 5 85.1 147 
 RUS  HE ES   2    811  1.36                             139    0.06 5 85.1 147 
 RUS  HZ I         811  4.08         2.9 0.26            141           85.1 147 
 PTB  HZ EP   9    810 45.91                             132   -1.46 0  106 270 
 PTB  HN ES        811  0.97                                   -0.8310  106 270 
 PTB  HZ I         811  1.80        12.6 0.30            134            106 270 
 SPBC HZ EP        810 48.36                             129   -0.1210  117 213 
 SPBC HE ES        811  4.86                             129   -0.3810  117 213 
 SPBC HZ I         811  6.09         8.7 0.10            131            117 213 
 PAM  EN ES   2    811  7.20                             127   -0.28 5  125  45 
 ZAR  HZ EP        810 55.20                             116    0.01 9  184 305 
 ZAR  HN ES        811 17.80                             116    0.63 9  184 305 
 ZAR  HZ I         811 19.60         9.0 0.46            117            184 305 
 HEL  HZ EP        811  0.31                             110   -0.32 8  228 260 
 HEL  HN ES   2    811 26.75                             110   -0.11 4  228 260 
 HEL  HZ I         811 28.19         2.1 0.34            112            228 260 
 GUY2CHZ EP   2    811  4.26                             108    0.65 4  253 235 
 GUY2CHN ES        811 32.57                             108    0.39 8  253 235 
 GUY2CHZ I         811 35.54         2.1 0.30                           253 235 
                                                                                
