 2013  810 0103 12.3 L   6.813 -73.150147.6  RSN 18 0.5 2.4LRSN 2.8WRSN        1
 SPEC AVERAGE  MO 13.3 ST 11.8 OM  1.8 f0 6.65 R0.2758 AL 0.00 WI  7.4 MW  2.8 3
 SPEC SD       MO  0.3 ST 34.2 OM  0.3 f0 2.63 R0.1098 AL      WI      MW  0.2 3
 GAP=135        1.07       2.7     4.3  5.1 -0.3304E+01  0.7550E+01  0.2790E+00E
 Epicentro: LOS SANTOS - SANTANDER                                             3
 SPEC ZAR HH N MO 13.4 ST 29.1 OM  1.6 f0 10.0 R0.1554 AL 0.00 WI  7.2 MW  2.9 3
 SPEC ZAR HH N T 1 410 K 0.000 GD  250 VS 4.20 DE 3.20 Q0300.0 QA 0.60 VS 4.20 3
 SPEC SPBCHH E MO 13.4 ST 32.2 OM  1.7 f0 10.0 R0.1554 AL 0.00 WI  6.5 MW  2.9 3
 SPEC SPBCHH E T 1 4 3 K 0.000 GD  220 VS 4.20 DE 3.20 Q0300.0 QA 0.60 VS 4.20 3
 SPEC PRA HH N MO 13.5 ST  3.2 OM  1.5 f0 4.34 R0.3581 AL 0.00 WI 10.4 MW  3.0 3
 SPEC PRA HH N T 1 447 K 0.000 GD  419 VS 4.20 DE 3.20 Q0300.0 QA 0.60 VS 4.20 3
 SPEC PTB HH N MO 13.2 ST  5.6 OM  1.5 f0 6.64 R0.2340 AL 0.00 WI  4.5 MW  2.8 3
 SPEC PTB HH N T 1 359 K 0.000 GD  209 VS 4.20 DE 3.20 Q0300.0 QA 0.60 VS 4.20 3
 SPEC RUS HH N MO 13.0 ST0.670 OM  1.4 f0 3.71 R0.4189 AL 0.00 WI  3.3 MW  2.6 3
 SPEC RUS HH N T 1 354 K 0.000 GD  179 VS 4.20 DE 3.20 Q0300.0 QA 0.60 VS 4.20 3
 SPECGUY2CHH N MO 14.0 ST0.339 OM 2.05 f0 1.46 R1.0633 AL 0.00 WI  8.8 MW  3.3 3
 SPECGUY2CHH N T 1 432 K 0.000 GD  336 VS 4.20 DE 3.20 Q0300.0 QA 0.60 VS 4.20 3
 SPEC NOR HH N MO 13.4 ST 32.2 OM  1.6 f0 10.0 R0.1554 AL 0.00 WI  5.1 MW  2.9 3
 SPEC NOR HH N T 1 416 K 0.000 GD  277 VS 4.20 DE 3.20 Q0300.0 QA 0.60 VS 4.20 3
 SPEC OCA HH N MO 13.7 ST 11.4 OM  2.0 f0 5.65 R0.2750 AL 0.00 WI  5.6 MW  3.1 3
 SPEC OCA HH N T 1 4 2 K 0.000 GD  216 VS 4.20 DE 3.20 Q0300.0 QA 0.60 VS 4.20 3
 SPEC PAM SH Z MO 12.7 ST  2.6 OM  1.1 f0 7.51 R0.2069 AL 0.00 WI  3.1 MW  2.4 3
 SPEC PAM SH Z T 1 351 K 0.000 GD  166 VS 4.20 DE 3.20 Q0300.0 QA 0.60 VS 4.20 3
 SPEC COD HH N MO 13.4 ST  1.2 OM  1.4 f0 3.48 R0.4466 AL 0.00 WI  6.5 MW  2.9 3
 SPEC COD HH N T 1 438 K 0.000 GD  377 VS 4.20 DE 3.20 Q0300.0 QA 0.60 VS 4.20 3
 SPEC CBOCHH N MO 13.4 ST  2.8 OM  1.4 f0 4.74 R0.3278 AL 0.00 WI 19.3 MW  2.8 3
 SPEC CBOCHH N T 1 436 K 0.000 GD  365 VS 4.20 DE 3.20 Q0300.0 QA 0.60 VS 4.20 3
 SPEC CHI HH N MO 13.6 ST  2.1 OM  1.7 f0 3.69 R0.4211 AL 0.00 WI 12.8 MW  3.0 3
 SPEC CHI HH N T 1 418 K 0.000 GD  290 VS 4.20 DE 3.20 Q0300.0 QA 0.60 VS 4.20 3
 SPEC BRR HH N MO 13.2 ST 18.9 OM  1.6 f0 10.0 R0.1554 AL 0.00 WI  4.3 MW  2.7 3
 SPEC BRR HH N T 1 351 K 0.000 GD  163 VS 4.20 DE 3.20 Q0300.0 QA 0.60 VS 4.20 3
 ACTION:UPD 14-01-14 09:00 OP:ep   STATUS:               ID:20130810010312 L   I
 OLDACT:REG 13-08-10 07:33 OP:carl STATUS:               ID:20130810005959     3
 2013-08-10-0059-59M.COL___271                                                 6
 STAT SP IPHASW D HRMM SECON CODA AMPLIT PERI AZIMU VELO AIN AR TRES W  DIS CAZ7
 BAR2 SZ EP        1 3 32.16                             170   -0.0710 24.6 188 
 BAR2 SZ ES   1    1 3 47.65                             170   -0.08 7 24.6 188 
 BAR2 SZ I         1 3 49.89        39.9 0.28            169           24.6 188 
 GIR2 SZ EP        1 3 32.70                             168    0.5010 29.8 351 
 GIR2 SZ ES        1 3 47.63                             168   -0.0610 29.8 351 
 GIR2 SZ I         1 3 49.17        25.4 0.30            165           29.8 351 
 BRR  HZ EP        1 3 34.16                             153    0.5210 70.1 298 
 BRR  HN ES   1    1 3 51.50                             153    1.26 7 70.1 298 
 BRR  HN I         1 3 53.99       113.2 0.18            149           70.1 298 
 PAM  SZ IP     C  1 3 34.97                             151    0.2610 76.6  40 
 PAM  SN ES   1    1 3 52.30                             151    0.14 7 76.6  40 
 PAM  SZ I         1 3 54.33        38.3 0.20            155           76.6  40 
 RUS  HZ IP     D  1 3 36.04                             144   -0.3410  102 176 
 RUS  HN ES        1 3 54.63                             144   -0.5010  102 176 
 RUS  HZ I         1 3 55.80        15.7 0.42            147            102 176 
 PTB  HZ EP        1 3 39.02                             132   -0.43 9  148 258 
 PTB  HN ES   1    1 3 59.71                             132   -0.88 7  148 258 
 PTB  HZ I         1 4  6.15        38.7 0.40            131            148 258 
 OCA  HZ EP   1    1 3 40.96                             130    0.29 7  159 353 
 OCA  HN ES   1    1 4  2.37                             130   -0.38 7  159 353 
 OCA  HZ I         1 4 10.66        26.7 0.20            131            159 353 
 SPBC HZ EP        1 3 41.17                             129    0.11 9  164 219 
 SPBC HN ES        1 4  3.67                             129    0.20 9  164 219 
 SPBC HZ I         1 4  8.21        43.3 0.40            130            164 219 
 ZAR  HZ EP        1 3 43.49                             123   -1.33 9  203 292 
 ZAR  HN ES   1    1 4 10.15                             123    0.01 6  203 292 
 ZAR  HZ I         1 4 16.54        34.8 0.28            123            203 292 
 NOR  HZ EP        1 3 48.22                             119   -0.01 8  235 234 
 NOR  HN ES   1    1 4 16.31                             119    0.09 6  235 234 
 NOR  HZ I         1 4 19.98        19.8 0.24            120            235 234 
 SML  HZ EP        1 3 48.89                             118   -0.03 8  242 335 
 SML  HN ES   1    1 4 16.90                             118   -0.54 6  242 335 
 SML  HZ I         1 4 21.89        38.3 0.10            119            242 335 
 CHI  HZ EP        1 3 50.13                             117   -0.15 8  250 195 
 CHI  HN ES        1 4 19.22                             117   -0.65 8  250 195 
 CHI  HZ I         1 4 25.50        11.3 0.26            119            250 195 
 ROSC BZ EP   4    1 3 52.21                             117    1.54 0  254 211 
 ROSC BN ES   4    1 4 23.80                             117    3.23 0  254 211 
 GUY2CHZ EP        1 3 56.47                             113    0.38 7  302 235 
 GUY2CHE ES        1 4 30.46                             113    0.25 7  302 235 
 GUY2CHZ I         1 4 39.03        22.3 0.78                           302 235 
 RREF HN ES        1 4 35.52                             111    0.78 7  322 229 
 CBOC HZ EP        1 3 59.99                             110    0.65 7  334 252 
 CBOC HE ES        1 4 35.60                             110   -0.39 7  334 252 
 CBOC HZ I         1 4 45.25         4.6 0.40            111            334 252 
 COD  HZ EP   1    1 4  0.93                             109    0.30 5  347 355 
 COD  HE ES        1 4 38.25                             109   -0.04 6  347 355 
 COD  HZ I         1 4 44.40         5.2 0.48            111            347 355 
 PRA  HZ EP   1    1 4  5.65                             107   -0.40 4  393 209 
 PRA  HN ES   1    1 4 48.17                             107    0.23 4  393 209 
 PRA  HZ I         1 4 53.94        14.3 0.34            108            393 209 
 ORTC HZ EP        1 4  6.69                             107    0.26 6  396 216 
 ORTC HE ES        1 4 49.47                             107    0.85 6  396 216 
 ORTC HZ I         1 4 55.11         8.8 0.44            108            396 216 
 SJC  HZ EP   4    1 4  5.42                             106   -2.38 0  408 327 
 SJC  HN ES   4    1 4 47.07                             106   -3.99 0  408 327 
                                                                                
