 2016  910 0515 11.5 L   6.784 -73.130143.8  RSN 13 0.4 2.3LRSN                1
 GAP=139        0.89       2.6     3.1  4.5 -0.1535E+01  0.4070E+01  0.8408E+00E
 Epicentro: LOS SANTOS - SANTANDER                                             3
 ACTION:UPD 17-08-17 21:08 OP:lp   STATUS:               ID:20160910051511 L   I
 OLDACT:REG 16-09-10 13:48 OP:cara STATUS:               ID:20160910050735     3
 2016-09-10-0508-00M.COL___333                                                 6
 STAT SP IPHASW D HRMM SECON CODA AMPLIT PERI AZIMU VELO AIN AR TRES W  DIS CAZ7
 BAR2 EZ IP        515 30.79                             171   -0.0410 21.9 195 
 BAR2 EZ ES        515 46.11                             171    0.1710 21.9 195 
 BAR2 EZ I         515 48.20        34.5 0.42            169           21.9 195 
 BRR  HZ EP        515 32.64                             151    0.1110 73.6 299 
 BRR  HN ES        515 49.55                             151    0.5810 73.6 299 
 BRR  HZ I         515 53.42        44.5 0.20            151           73.6 299 
 PAM  EZ IP     C  515 33.82                             150    0.3310 77.7  38 
 PAM  EE ES        515 50.73                             150    0.0610 77.7  38 
 PAM  EZ I         515 52.67        52.4 0.42            155           77.7  38 
 RUS  HZ EP        515 34.86                             144   -0.0210 98.7 177 
 RUS  HE ES        515 52.64                             144   -0.5110 98.7 177 
 RUS  HZ I         515 54.43        19.5 0.28            145           98.7 177 
 PTB  HZ EP        515 37.95                             131   -0.44 9  149 260 
 PTB  HE ES        515 59.65                             131    0.25 9  149 260 
 PTB  HZ I         516  1.15        26.8 0.18            131            149 260 
 OCA  HZ EP        515 39.09                             129   -0.72 9  162 353 
 OCA  HN ES        516  1.52                             129   -0.40 9  162 353 
 OCA  HZ I         516  6.08        58.5 0.34            131            162 353 
 SPBC HZ EP        515 39.85                             129    0.07 9  163 220 
 SPBC HN ES        516  1.45                             129   -0.42 9  163 220 
 SPBC HZ I         516  8.97        35.8 0.20            129            163 220 
 ZAR  HZ EP        515 44.29                             122    0.28 8  206 292 
 ZAR  HN ES        516  9.31                             122   -0.10 8  206 292 
 ZAR  HZ I         516 14.75        49.0 0.38            123            206 292 
 NOR  HZ EP        515 47.49                             118    0.38 8  235 235 
 NOR  HE ES        516 15.20                             118    0.27 8  235 235 
 NOR  HZ I         516 20.57        16.7 0.18            119            235 235 
 CHI  HZ EP        515 49.63                             117    0.72 8  247 196 
 CHI  HE ES        516 18.01                             117   -0.11 8  247 196 
 CHI  HZ I         516 27.74         7.7 0.52            118            247 196 
 HEL  HZ EP        515 51.61                             114   -0.10 8  273 256 
 HEL  HE ES        516 23.10                             114   -0.01 8  273 256 
 HEL  HZ I         516 29.56         9.0 0.46            115            273 256 
 GUY2CHZ EP   9    515 56.21                             112    1.19 0  302 235 
 GUY2CHE ES        516 29.78                                   -0.41 7  302 235 
 GUY2CHZ I         516 38.31         9.9 0.64                           302 235 
 CBOC HZ EP        515 58.78                             109    0.36 7  335 252 
 CBOC HE ES        516 34.31                             109   -0.74 7  335 252 
 CBOC HZ I         516 40.83         3.4 0.26            111            335 252 
                                                                                
