 2015  210 0338 22.4 L   6.813 -73.212136.0  RSN 10 0.5 1.6LRSN                1
 GAP=128        1.23       3.3     5.2  6.9 -0.2998E+01  0.9508E+01  0.9536E+00E
 Epicentro: ZAPATOCA - SANTANDER                                               3
 ACTION:UPD 15-04-30 21:24 OP:nd   STATUS:               ID:20150210033822 L   I
 OLDACT:DUP 15-02-10 14:39 OP:fm   STATUS:               ID:20150210032751d    3
 OLDACT:REG 15-02-10 12:53 OP:fm   STATUS:               ID:20150210032750     3
 2015-02-10-0327-50M.COL___281                                                 6
 STAT SP IPHASW D HRMM SECON CODA AMPLIT PERI AZIMU VELO AIN AR TRES W  DIS CAZ7
 BAR2 EZ EP        338 41.13                             169    0.2710 24.6 172 
 BAR2 EZ ES        338 54.68                             169   -0.6010 24.6 172 
 BAR2 EZ I         338 57.91        11.0 0.16            170           24.6 172 
 BRR  HZ EP        338 43.02                             153    0.9510 64.1 301 
 BRR  HE ES        338 57.63                             153    0.2010 64.1 301 
 BRR  HZ I         339  3.99        10.4 0.48            151           64.1 301 
 PAM  SZ EP        338 44.07                             148    0.2610 81.2  44 
 PAM  SN ES        339  0.76                             148    0.2310 81.2  44 
 PAM  SZ I         339  3.36        11.7 0.52            154           81.2  44 
 RUS  HZ EP        338 45.60                             141    0.2610  103 172 
 RUS  HE ES        339  3.30                             141    0.0410  103 172 
 RUS  HZ I         339  4.97         3.5 0.28            146            103 172 
 PTB  HZ EP        338 48.53                             131    0.61 9  141 258 
 PTB  HN ES        339  7.70                             131   -0.15 9  141 258 
 PTB  HZ I         339 16.12         2.9 0.20            132            141 258 
 OCA  HE ES        339 10.69                             128   -0.40 9  158 356 
 OCA  HZ I         339 16.19         2.7 0.22            131            158 356 
 SPBC HE ES        339 11.01                             127   -0.20 9  160 217 
 SPBC HZ I         339 18.66         6.2 0.20            130            160 217 
 SML  HZ EP        338 57.16                             116   -0.85 8  239 337 
 SML  HE ES        339 25.18                             116   -0.62 8  239 337 
 SML  HZ I         339 29.54         7.7 0.10            119            239 337 
 CHI  HZ EP        338 58.77                             115   -0.73 8  248 193 
 CHI  HN ES        339 27.65                             115   -0.81 8  248 193 
 CHI  HZ I         339 32.49         2.6 0.50            119            248 193 
 GUY2CHZ EP        339  5.26                             111    0.30 7  296 234 
 GUY2CHN ES        339 38.65                             111    0.47 7  296 234 
 GUY2CHZ I         339 47.53         1.5 0.34                           296 234 
                                                                                
