 2011  610 0159 15.2 L   6.768 -73.097151.8  RSN  6 0.1 1.6LRSN                1
 GAP=162        0.30       2.3     3.7  3.2 -0.5423E+01  0.3232E+01 -0.2098E+01E
 Epicentro: LOS SANTOS - SANTANDER                                             3
 ACTION:UP  11-07-14 19:04 OP:ep   STATUS:               ID:20110610015915 L   I
 2011-06-10-0157-43S.COL___121                                                 6
 STAT SP IPHASW D HRMM SECON CODA AMPLIT PERI AZIMU VELO SNR AR TRES W  DIS CAZ7
 BAR2 SZ EP   1    159 35.40                             171    -0.1 8   22 206 
 BAR2 SZ ES   1    159 51.32                             171    -0.1 8   22 206 
 BAR2 SZ I         159 52.21         9.5 0.16                            22 206 
 RUS  HZ EP   1    159 39.33                             146     0.0 8   97 179 
 RUS  HN ES   2    159 58.27                             146     0.2 5   97 179 
 RUS  HZ I         159 59.61         3.3 0.12                            97 179 
 BRI  SZ EP   1    159 39.93                             142     0.1 8  110  18 
 GRA  SZ EP        159 41.15                             138     0.010  128  15 
 GRA  SZ I         159 42.62         5.8 0.35                           128  15 
 NOR  SZ EP   1    159 51.54                             119     0.0 6  237 236 
 NOR  SN ES   1    2 0 19.98                             119     0.1 6  237 236 
 CHI  HZ EP   2    159 53.00                             118    -0.1 4  247 197 
 CHI  HN ES   1    2 0 22.51                             118    -0.1 6  247 197 
 CHI  HZ I         2 0 32.28         3.2 0.50                           247 197 
                                                                                
