 2010  510 0809 12.5 L   6.742 -73.066139.2  RSN  5 0.3 1.6LRSN                1
 GAP=166        0.76       4.9     8.2  8.6 -0.1424E+02 -0.1604E+02  0.1622E+01E
 Epicentro: JORDAN - SANTANDER                                                 3
 ACTION:UP  10-08-24 10:04 OP:vdl  STATUS:               ID:20100510080912 L   I
 2010-05-10-0805-37S.COL___104                                                 6
 STAT SP IPHASW D HRMM SECON CODA AMPLIT PERI AZIMU VELO SNR AR TRES W  DIS CAZ7
 BAR2 SZ EP        8 9 31.12                             171    -0.210   21 218 
 BAR2 SZ ES   2    8 9 45.47                             171    -0.5 5   21 218 
 BRR  HZ EP        8 9 33.69                             147     0.010   82 300 
 BRR  HZ I         8 9 34.10        15.2 0.10                            82 300 
 BRR  HN ES   1    8 9 50.25                             147     0.1 7   82 300 
 RUS  HZ EP   2    8 9 35.17                             144     0.0 5   94 181 
 RUS  HN ES   2    8 9 53.42                             144     0.6 5   94 181 
 RUS  HZ I         8 9 55.05         3.8 0.35                            94 181 
 BRI  SZ EP   1    8 9 35.46                             139    -0.6 7  112  15 
 BRI  SZ ES   1    8 9 54.60                             139     0.2 7  112  15 
 GRA  SZ EP        8 9 38.00                             134     0.510  130  13 
 GRA  SZ ES   1    8 9 56.89                             134    -0.2 7  130  13 
                                                                                
