 2012  610 0535 24.1 L   6.827 -73.148143.1  RSN 15 0.5 2.6LRSN                1
 GAP=135        0.81       2.6     3.9  5.6 -0.8341E+00  0.7592E+01  0.3567E+01E
 Epicentro: LOS SANTOS - SANTANDER                                             3
 ACTION:UPD 12-08-06 17:48 OP:ep   STATUS:               ID:20120610053523 L   I
 2012-06-10-0530-00M.COL___201                                                 6
 STAT SP IPHASW D HRMM SECON CODA AMPLIT PERI AZIMU VELO AIN AR TRES W  DIS CAZ7
 BAR2 SZ EP        535 43.58                             169    0.1210 26.3 188 
 BAR2 SZ ES   1    535 58.68                             169    0.11 7 26.3 188 
 BAR2 SZ I         536  0.06        80.4 0.15            167           26.3 188 
 PAM  SZ EP   1    535 46.36                             151    0.47 7 75.3  41 
 PAM  SN ES   1    536  3.34                             151    0.44 7 75.3  41 
 RUS  HZ EP        535 47.61                             142   -0.1910  104 176 
 RUS  HN ES   1    536  5.81                             142   -0.49 7  104 176 
 RUS  HZ I         536  8.10        29.5 0.30            144            104 176 
 PTB  HZ EP   1    535 50.18                             131   -0.69 7  148 258 
 PTB  HN ES   1    536 11.29                             131   -0.47 7  148 258 
 PTB  HZ I         536 13.18        34.3 0.21            131            148 258 
 OCA  HZ EP   1    535 51.90                             130   -0.01 7  157 353 
 OCA  HN ES        536 13.30                             130   -0.30 9  157 353 
 OCA  HZ I         536 16.60       104.1 0.24            132            157 353 
 ZAR  HZ EP   1    535 55.97                             122   -0.25 6  203 291 
 ZAR  HN ES   1    536 21.41                             122    0.13 6  203 291 
 ZAR  HZ I         536 27.18        67.0 0.35            123            203 291 
 NOR  SZ EP   1    535 59.72                             118   -0.11 6  236 234 
 NOR  SN ES   1    536 28.04                             118    0.33 6  236 234 
 CHI  HZ EP   1    536  1.97                             116    0.02 6  251 195 
 CHI  HN ES   1    536 31.30                             116   -0.18 6  251 195 
 CHI  HZ I         536 36.52        18.7 0.38            118            251 195 
 ROSC BZ EP   1    536  3.56                             116    1.23 6  255 211 
 ROSC BN ES   1    536 33.15                             116    0.99 6  255 211 
 ROSC BZ I         536 38.58        42.8 0.31            117            255 211 
 HEL  HZ EP   1    536  4.50                             114    0.28 6  273 255 
 HEL  HN ES   1    536 35.69                             114    0.16 6  273 255 
 HEL  HZ I         536 41.91        31.7 0.29            115            273 255 
 VIL  SZ EP   1    536  7.24                             111   -0.48 5  306 191 
 VIL  SN ES   1    536 41.47                             111   -0.27 5  306 191 
 VIL  SZ I         536 45.54        10.3 0.36            113            306 191 
 DBB  SZ EP   1    536 11.37                             109   -0.03 5  339 274 
 TOL  SZ EP   1    536 13.45                             109    0.98 5  345 224 
 PRA  HZ EP   1    536 17.18                             106   -0.63 4  395 209 
 PRA  HN ES   1    536 59.56                             106   -0.15 4  395 209 
 SJA  SZ EP   1    536 18.17                             105   -0.73 4  403 193 
                                                                                
