 2013 1010 0944 31.9 L   6.747 -73.154147.4  RSN  7 0.5 1.7LRSN                1
 GAP=138        0.97       5.7     5.5  8.1 -0.3741E-01  0.1037E+02  0.2658E+01E
 Epicentro: LOS SANTOS - SANTANDER                                             3
 ACTION:UPD 13-11-25 09:20 OP:ep   STATUS:               ID:20131010094431 L   I
 OLDACT:REG 13-10-10 08:00 OP:mh   STATUS:               ID:20131010094000     3
 2013-10-10-0940-00M.COL___272                                                 6
 STAT SP IPHASW D HRMM SECON CODA AMPLIT PERI AZIMU VELO AIN AR TRES W  DIS CAZ7
 BAR2 SZ EP        944 51.93                             173    0.3510 17.4 190 
 BAR2 SZ I         945  8.06        12.4 0.16            172           17.4 190 
 BRR  HN ES        945 10.48                             152    0.4410 73.4 303 
 BRR  HZ I         945 39.26        10.7 0.22            157           73.4 303 
 PAM  SZ EP   1    944 54.81                             149    0.25 7 82.6  37 
 PAM  SN ES        945 11.93                             149   -0.3410 82.6  37 
 RUS  HZ EP   1    944 55.46                             146    0.09 7 94.8 175 
 RUS  HN ES   2    945 13.20                             146   -0.50 5 94.8 175 
 RUS  HZ I         945 19.93         1.8 0.20            153           94.8 175 
 PTB  HZ EP   1    944 58.36                             133   -0.42 7  146 261 
 PTB  HN ES   1    945 19.01                             133   -0.77 7  146 261 
 PTB  HZ I         945 23.90         4.5 0.12            140            146 261 
 ZAR  HZ EP        945  5.21                             122    0.65 8  205 294 
 ZAR  HN ES   2    945 30.16                             122    0.10 4  205 294 
 ZAR  HZ I         945 36.68         6.6 0.40            131            205 294 
 SML  HZ EP   1    945  8.23                             117   -0.88 6  249 336 
 SML  HN ES   1    945 37.85                             117   -0.32 6  249 336 
 SML  HZ I         945 38.92         8.1 0.10            127            249 336 
                                                                                
