 2012 1110 0117  9.6 L   6.763 -73.185144.0  RSN  4 0.5 1.6LRSN                1
 GAP=230        1.26      12.4    11.2 11.8  0.8925E+02  0.4557E+02  0.4926E+02E
 Epicentro: VILLANUEVA - SANTANDER                                             3
 ACTION:UPD 12-12-05 15:32 OP:}ep  STATUS:               ID:20121110011709 L   I
 2012-11-10-0110-00M.COL___230                                                 6
 STAT SP IPHASW D HRMM SECON CODA AMPLIT PERI AZIMU VELO AIN AR TRES W  DIS CAZ7
 BAR2 SZ ES        117 43.19                             172   -0.8310 18.9 179 
 BAR2 SZ I         117 44.78         6.0 0.24                          18.9 179 
 BRR  HN ES        117 47.38                             153    0.6410 69.5 303 
 BRR  HN I         117 50.98        10.7 0.14                          69.5 303 
 RUS  HZ EP        117 32.97                             144    0.0510 97.0 173 
 RUS  HN ES        117 51.61                             144    0.5010 97.0 173 
 PTB  HZ EP        117 35.74                             133   -0.23 9  143 260 
 PTB  HN ES        117 56.34                             133   -0.19 9  143 260 
                                                                                
