 2010 1210 0513 24.0 L   6.797 -73.162143.8  RSN 11 0.4 2.0LRSN                1
 GAP=135        0.66       3.7     6.9  5.7 -0.1295E+02  0.5987E+01  0.2224E+01E
 Epicentro: LOS SANTOS - SANTANDER                                             3
 ACTION:UP  11-01-14 15:23 OP:pat  STATUS:               ID:20101210051324 L   I
 2010-12-10-0511-50S.COL___135                                                 6
 STAT SP IPHASW D HRMM SECON CODA AMPLIT PERI AZIMU VELO SNR AR TRES W  DIS CAZ7
 BTL  SZ EP        513 43.61                             173     0.310   18 319 
 BTL  SZ ES   1    513 58.37                             173     0.0 7   18 319 
 BAR2 SZ EP        513 43.41                             171     0.010   23 186 
 BAR2 SZ I         513 59.40        35.7 0.26                            23 186 
 GIR2 SZ EP   2    513 43.61                             167     0.2 5   31 354 
 GIR2 SZ ES   2    513 59.27                             167     0.7 5   31 354 
 RUS  HZ EP   1    513 47.35                             143    -0.2 7  100 175 
 RUS  HN ES   2    514  5.71                             143    -0.2 5  100 175 
 RUS  HZ I         514  6.89        12.4 0.19                           100 175 
 GUE  SZ EP   2    513 48.80                             139     0.2 5  117  13 
 GRA  SZ EP        513 49.31                             136     0.110  127  18 
 GRA  SZ ES   1    514  8.54                             136    -0.2 7  127  18 
 GRA  SZ I         514 10.02        16.1 0.51                           127  18 
 OCA  SZ EP   1    513 51.99                             129    -0.2 7  160 354 
 OCA  SZ ES   2    514 13.16                             129    -1.0 5  160 354 
 OCA  SZ I         514 17.80        11.5 0.60                           160 354 
 YOP  SZ EP   2    513 53.28                             126    -0.7 4  180 153 
 YOP  SZ I         514 21.07         6.4 0.38                           180 153 
 NOR  SZ EP   1    513 59.61                             118     0.1 6  233 234 
 NOR  SN ES   2    514 26.57                             118    -0.6 4  233 234 
 RREF HZ EP   2    514 10.74                             111     0.8 3  320 229 
 RREF HE ES   2    514 45.25                             111    -0.4 3  320 229 
 RREF HZ I         514 52.39         7.6 0.23                           320 229 
 PRA  HZ EP   2    514 17.95                             106     0.6 3  391 209 
 PRA  HE ES   2    514 58.75                             106    -0.2 3  391 209 
                                                                                
