 2015  110 0728 12.6 L   6.738 -73.384122.9  RSN  5 0.4 1.0LRSN                1
 GAP=144        1.05       8.2     5.8  7.7  0.8452E+01  0.1042E+02 -0.1764E+02E
 Epicentro: EL CARMEN - SANTANDER                                              3
 ACTION:UPD 15-03-02 15:38 OP:nd   STATUS:               ID:20150110072812 L   I
 OLDACT:REG 15-01-10 17:32 OP:cam  STATUS:               ID:20150110072735     3
 2015-01-10-0727-35M.COL___268                                                 6
 STAT SP IPHASW D HRMM SECON CODA AMPLIT PERI AZIMU VELO AIN AR TRES W  DIS CAZ7
 BAR2 EZ EP        728 29.88                             166    0.2710 27.5 126 
 BAR2 EZ ES        728 42.91                             166    0.0410 27.5 126 
 BAR2 EZ I         728 43.92         2.7 0.10            166           27.5 126 
 BRR  HZ EP        728 30.22                             154   -0.1410 54.6 318 
 BRR  HN ES        728 44.25                             154    0.0510 54.6 318 
 BRR  HZ I         728 45.17         3.8 0.12            155           54.6 318 
 PTB  HZ EP        728 35.52                             132    0.2710  121 260 
 PTB  HE ES        728 52.20                             132   -0.7110  121 260 
 PTB  HZ I         728 59.87         1.1 0.22            130            121 260 
 ZAR  HZ EP        728 41.83                             120    0.42 9  183 297 
 ZAR  HN ES        729  4.39                             120    0.51 9  183 297 
 SML  HZ EP        728 46.90                             112   -0.80 8  240 342 
                                                                                
