 2017  710 0937 43.2 L   7.281 -73.393109.5  RSN  4 0.4 1.1LRSN                1
 GAP=245        0.95       8.7     5.8  8.2  0.2641E+02  0.4239E+01 -0.1906E+02E
 Epicentro: SABANA DE TORRES - SANTANDER                                       3
 ACTION:UPD 17-08-30 15:31 OP:rebc STATUS:               ID:20170710093743 L   I
 OLDACT:UP  17-07-10 16:51 OP:edw  STATUS:               ID:20170710092737d    3
 OLDACT:DUP 17-07-10 16:46 OP:edw  STATUS:               ID:20170710092737d    3
 OLDACT:UP  17-07-10 16:44 OP:edw  STATUS:               ID:20170710092736     3
 OLDACT:REG 17-07-10 13:09 OP:dnl  STATUS:               ID:20170710092736     3
 2017-07-10-0928-00M.COL___377                                                 6
 STAT SP IPHASW D HRMM SECON CODA AMPLIT PERI AZIMU VELO AIN AR TRES W  DIS CAZ7
 BRR  HZ EP        937 58.65                             158   -0.0710 40.1 241 
 BRR  HN ES        938 10.63                             158   -0.2210 40.1 241 
 BAR2 EZ EP        938  1.94                             141    0.4310 79.7 163 
 BAR2 EZ ES        938 15.81                             141    0.0010 79.7 163 
 BAR2 EZ I         938 17.94         4.6 0.48            139           79.7 163 
 PTB  HZ EP        938  6.17                             123   -0.84 9  143 235 
 PTB  HN ES        938 25.91                             123    0.32 9  143 235 
 PTB  HZ I         938 29.00         1.3 0.60            121            143 235 
 ZAR  HZ EP        938  9.30                             119    0.20 9  163 278 
 ZAR  HN ES        938 29.49                             119    0.17 9  163 278 
 ZAR  HZ I         938 31.72         1.9 0.10            119            163 278 
                                                                                
