 2017  910 0153 24.2 L   6.811 -72.989142.3  RSN  4 0.3 2.7LRSN                1
 GAP=253        0.81       5.0     7.6  6.5  0.9566E+01 -0.1026E+01  0.2636E+01E
 Epicentro: CEPITA - SANTANDER                                                 3
 ACTION:UPD 17-10-05 19:10 OP:rebc STATUS:               ID:20170910015324 L   I
 OLDACT:REG 17-09-10 12:38 OP:dhb  STATUS:               ID:20170910014740     3
 2017-09-10-0148-00M.COL___413                                                 6
 STAT SP IPHASW D HRMM SECON CODA AMPLIT PERI AZIMU VELO AIN AR TRES W  DIS CAZ7
 BAR2 EZ EP        153 43.29                             167   -0.3710 32.2 221 
 BAR2 EZ ES        153 58.45                             167   -0.3710 32.2 221 
 BAR2 EZ I         153 59.90         2.8 0.15            165           32.2 221 
 BRR  HZ EP        153 45.85                             147   -0.0910 86.3 292 
 BRR  HN ES        154  3.27                             147    0.3910 86.3 292 
 BRR  HZ I         154 10.49         3.0 0.29            144           86.3 292 
 RUS  HZ EP        153 48.17                             143    0.4310  102 186 
 RUS  HN ES        154  6.34                             143    0.2510  102 186 
 RUS  HZ I         154  7.68         1.3 0.20            147            102 186 
 SPBC HZ EP        153 53.55                             126   -0.10 9  175 223 
 SPBC HN ES        154 16.40                             126   -0.20 9  175 223 
 SPBC HZ I         154 17.78     458.6e4 0.01            128            175 223 
                                                                                
