 2013  810 0733 23.3 L   6.796 -73.162145.7  RSN  5 0.4 1.3LRSN                1
 GAP=135        0.84       4.4     4.2  8.1  0.1570E+01  0.8965E+01  0.3192E+01E
 Epicentro: LOS SANTOS - SANTANDER                                             3
 ACTION:UPD 14-01-14 09:00 OP:ep   STATUS:               ID:20130810073323 L   I
 OLDACT:REG 13-08-10 07:43 OP:carl STATUS:               ID:20130810072959     3
 2013-08-10-0729-59M.COL___271                                                 6
 STAT SP IPHASW D HRMM SECON CODA AMPLIT PERI AZIMU VELO AIN AR TRES W  DIS CAZ7
 BRR  HZ EP   1    733 44.47                             153    0.08 7 69.8 300 
 BRR  HN ES   1    734  1.56                             153    0.74 7 69.8 300 
 BRR  HZ I         734  6.39         3.7 0.16            151           69.8 300 
 PAM  SZ EP        733 45.75                             150    0.1310 78.9  40 
 PAM  SN ES        734  2.64                             150   -0.3810 78.9  40 
 RUS  HZ EP        733 47.29                             144    0.2510  100 175 
 RUS  HN ES        734  5.56                             144    0.0210  100 175 
 RUS  HZ I         734  6.41         1.8 0.28            149            100 175 
 PTB  HZ EP        733 49.87                             132   -0.24 9  146 259 
 PTB  HN ES   1    734 10.27                             132   -0.74 7  146 259 
 PTB  HZ I         734 12.57         2.3 0.16            133            146 259 
 ZAR  HN ES        734 20.93                             122    0.14 9  203 292 
 ZAR  HN I         734 27.89         5.4 0.48            124            203 292 
                                                                                
