 2011 1210 0723 34.5 L   6.705 -73.192144.6  RSN  4 0.4 1.5LRSN                1
 GAP=225        0.77       8.2     7.9  9.2  0.2574E+02  0.1750E+02 -0.4404E+01E
 Epicentro: VILLANUEVA - SANTANDER                                             3
 ACTION:UPD 12-07-13 16:15 OP:ep   STATUS:               ID:20111210072334 L   I
 2011-12-10-0720-00M.COL___186                                                 6
 STAT SP IPHASW D HRMM SECON CODA AMPLIT PERI AZIMU VELO AIN AR TRES W  DIS CAZ7
 BAR2 SZ EP   1    723 53.58                             175   -0.20 7 12.5 175 
 BAR2 SZ ES   1    724  8.21                             175   -0.64 7 12.5 175 
 BAR2 SZ I         724 10.05         4.8 0.30                          12.5 175 
 BRR  HZ EP   1    723 55.76                             152    0.19 7 72.7 308 
 BRR  HZ I         723 56.02         8.9 0.14                          72.7 308 
 BRR  HN ES   1    724 12.52                             152    0.49 7 72.7 308 
 RUS  HE ES   1    724 15.77                             146    0.48 7 90.6 172 
 PTB  HZ EP   1    724  0.58                             133   -0.15 7  141 263 
 PTB  HN ES   1    724 21.00                             133   -0.21 7  141 263 
                                                                                
