 2012  310 0143 33.2 L   6.717 -73.078143.7  RSN  5 0.5 1.2LRSN                1
 GAP=149        0.88       6.1     6.3 11.8  0.1964E+01  0.2407E+02  0.3560E+01E
 ACTION:UP  12-03-31 23:18 OP:EP   STATUS:               ID:20120310014333 L   I
 2012-03-10-0140-00M.COL___193                                                 6
 STAT SP IPHASW D HRMM SECON CODA AMPLIT PERI AZIMU VELO SNR AR TRES W  DIS CAZ7
 PAM  SZ EP   1    143 55.49                             149     0.1 7   81  31 
 PAM  SZ I         143 56.13         3.3 0.21                            81  31 
 PAM  SN ES   1    144 12.42                             149    -0.3 7   81  31 
 BRR  HN ES   2    144 12.20                             148     0.5 5   82 302 
 RUS  HZ EP   1    143 56.66                             146     0.5 7   91 180 
 RUS  HN ES   1    144 13.91                             146    -0.1 7   91 180 
 PTB  HZ EP   1    143 59.94                             130    -0.6 7  154 263 
 PTB  HN ES   2    144 21.20                             130    -0.7 5  154 263 
 PTB  HZ I         144 25.72         1.7 0.13                           154 263 
 ZAR  HN ES   1    144 33.17                             120     0.5 6  215 294 
                                                                                
