 2012  410 0303 10.1 L   6.707 -73.131146.2  RSN  5 0.1 1.4LRSN                1
 GAP=142        0.38       3.1     4.0  5.1  0.3267E+01 -0.4005E+01 -0.4142E+01E
 Epicentro: JORDAN - SANTANDER                                                 3
 ACTION:UPD 12-07-05 11:52 OP:tino STATUS:               ID:20120410030310 L   I
 2012-04-10-0300-00M.COL___199                                                 6
 STAT SP IPHASW D HRMM SECON CODA AMPLIT PERI AZIMU VELO AIN AR TRES W  DIS CAZ7
 BAR2 SZ EP   1    3 3 29.66                             174     0.0 7   14 204 
 BAR2 SZ I         3 3 35.21         6.6 0.49                            14 204 
 BRR  HZ EP        3 3 31.80                             150     0.110   78 305 
 BRR  HE ES   1    3 3 48.57                             150     0.0 7   78 305 
 BRR  HZ I         3 3 53.36         4.7 0.16                            78 305 
 PAM  SZ EP        3 3 32.74                             149    -0.110   85  34 
 RUS  HZ EP   1    3 3 33.38                             147     0.2 7   90 177 
 RUS  HN ES   1    3 3 51.09                             147    -0.1 7   90 177 
 PTB  HZ EP   1    3 3 36.93                             132    -0.2 7  148 263 
                                                                                
