 2012  810 0358 12.6 L   6.741 -73.208149.7  RSN  4 0.2 1.2LRSN                1
 GAP=224        0.48       5.1     4.8  5.2  0.1189E+02  0.2564E+01  0.9255E+00E
 Epicentro: VILLANUEVA - SANTANDER                                             3
 ACTION:UPD 12-09-10 11:55 OP:ep   STATUS:               ID:20120810035812 L   I
 2012-08-10-0350-00M.COL___218                                                 6
 STAT SP IPHASW D HRMM SECON CODA AMPLIT PERI AZIMU VELO AIN AR TRES W  DIS CAZ7
 BAR2 SZ EP   1    358 32.38                             173   -0.26 7 16.7 170 
 BAR2 SZ I         358 32.78         5.6 0.09                          16.7 170 
 BAR2 SZ ES   1    358 47.93                             173   -0.30 7 16.7 170 
 BRR  HZ EP   1    358 34.17                             154    0.08 7 68.9 306 
 BRR  HZ I         358 34.44         4.2 0.17                          68.9 306 
 BRR  HN ES   1    358 51.12                             154    0.30 7 68.9 306 
 RUS  HZ EP   1    358 36.63                             146    0.24 7 94.8 172 
 RUS  HZ I         358 37.27         1.4 0.11                          94.8 172 
 RUS  HN ES   1    358 55.05                             146    0.15 7 94.8 172 
 PTB  HZ EP   1    358 39.08                             135   -0.16 7  140 261 
 PTB  HN ES   1    358 59.90                             135   -0.08 7  140 261 
                                                                                
