 2010  610 0813  3.3 L   6.800 -73.166145.3  RSN  5 0.4 1.6LRSN                1
 GAP=156        0.79       4.6    13.7 14.4 -0.2408E+02  0.9019E+02  0.5830E+01E
 Epicentro: LOS SANTOS - SANTANDER                                             3
 ACTION:UP  10-08-24 10:09 OP:vdl  STATUS:               ID:20100610081303 L   I
 2010-06-10-0811-17S.COL___111                                                 6
 STAT SP IPHASW D HRMM SECON CODA AMPLIT PERI AZIMU VELO SNR AR TRES W  DIS CAZ7
 RUS  HZ EP        813 27.16                             143     0.210  101 175 
 RUS  HE ES   2    813 45.39                             143    -0.1 5  101 175 
 RUS  HZ I         813 46.65         3.7 0.40                           101 175 
 GUE  SZ EP   1    813 28.59                             139     0.6 7  117  13 
 GUE  SZ ES   2    813 47.62                             139     0.3 5  117  13 
 GRA  SZ EP   2    813 27.83                             136    -0.7 5  126  18 
 GRA  SZ ES   1    813 47.60                             136    -0.7 7  126  18 
 OCA  SZ EP   2    813 31.50                             129     0.0 5  160 354 
 OCA  SZ ES   2    813 53.90                             129     0.3 5  160 354 
 OCA  SZ I         813 57.53         7.2 0.31                           160 354 
 RREF BZ EP   2    813 48.66                             110    -0.6 3  320 229 
 RREF BE ES   2    814 24.98                             110    -0.1 3  320 229 
 RREF BZ I         814 33.23         2.5 0.23                           320 229 
                                                                                
