 2017  910 0800 46.6 L   6.140 -73.607121.0  RSN  4 0.3 0.9LRSN                1
 GAP=130        0.68       3.4     3.6  7.0 -0.2371E+01  0.1179E+02  0.4272E+00E
 Epicentro: LA PAZ - SANTANDER                                                 3
 ACTION:UPD 17-10-05 19:10 OP:rebc STATUS:               ID:20170910080046 L   I
 OLDACT:UP  17-09-10 18:39 OP:dhb  STATUS:               ID:20170910075739d    3
 OLDACT:DUP 17-09-10 18:35 OP:dhb  STATUS:               ID:20170910075739d    3
 OLDACT:REG 17-09-10 13:21 OP:dhb  STATUS:               ID:20170910075738     3
 2017-09-10-0758-00M.COL___403                                                 6
 STAT SP IPHASW D HRMM SECON CODA AMPLIT PERI AZIMU VELO AIN AR TRES W  DIS CAZ7
 RUS  HZ EP        8 1  5.64                             150    0.2110 64.1 115 
 RUS  HN ES        8 1 19.73                             150   -0.3610 64.1 115 
 RUS  HZ I         8 1 20.94         0.7 0.13            154           64.1 115 
 BAR2 EZ IP     C  8 1  5.64                             148    0.3010 68.7  43 
 BAR2 EZ ES        8 1 20.14                             148    0.2010 68.7  43 
 BAR2 EZ I         8 1 20.97         2.3 0.18            151           68.7  43 
 BRR  HZ EP        8 1  7.66                             135   -0.2910  108 354 
 BRR  HN ES        8 1 24.48                             135   -0.0910  108 354 
 BRR  HZ I         8 1 26.40         1.6 0.31            137            108 354 
 NOR  HZ EP   1    8 1 12.01                             124   -0.32 7  154 246 
 NOR  HE ES        8 1 32.58                             124    0.20 9  154 246 
 NOR  HZ I         8 1 33.90         1.6 0.11            126            154 246 
                                                                                
