 2016  410 0444 25.2 L   6.136 -73.720109.7  RSN  8 0.4 1.7LRSN                1
 GAP=105        0.99       4.0     3.1  6.6 -0.9884E+00  0.8201E+01 -0.3685E+01E
 Epicentro: CHIPATA - SANTANDER                                                3
 ACTION:UPD 16-05-05 14:20 OP:rebc STATUS:               ID:20160410044425 L   I
 OLDACT:UP  16-04-10 15:41 OP:mh   STATUS:               ID:20160410043746     3
 OLDACT:REG 16-04-10 12:36 OP:mh   STATUS:               ID:20160410043746     3
 2016-04-10-0437-46M.COL___291                                                 6
 STAT SP IPHASW D HRMM SECON CODA AMPLIT PERI AZIMU VELO AIN AR TRES W  DIS CAZ7
 SPBC HZ EP        444 42.48                             147    0.0610 66.2 216 
 SPBC HN ES        444 55.72                             147   -0.0910 66.2 216 
 SPBC HZ I         444 58.76        11.5 0.20            149           66.2 216 
 RUS  HZ EP        444 43.84                             143    0.2010 75.5 111 
 RUS  HE ES        444 57.72                             143   -0.2610 75.5 111 
 RUS  HZ I         445  0.39        17.3 0.89            148           75.5 111 
 BAR2 EZ IP     D  444 43.88                             142    0.4110 78.0  50 
 BAR2 EZ ES        444 57.74                             142    0.0610 78.0  50 
 BAR2 EZ I         444 59.42        26.4 0.20            146           78.0  50 
 PTB  HZ EP        444 43.38                             137   -0.9610 92.8 299 
 PTB  HN ES        444 59.61                             137    0.3810 92.8 299 
 PTB  HZ I         445  0.34         6.3 0.14            138           92.8 299 
 NOR  HZ EP        444 48.86                             123   -0.16 9  142 244 
 NOR  HN ES        445  7.46                             123   -0.10 9  142 244 
 NOR  HZ I         445 10.77         8.4 0.22            126            142 244 
 ZAR  HZ EP        444 54.57                             114   -0.13 9  196 320 
 ZAR  HE ES        445 17.70                             114    0.03 9  196 320 
 ZAR  HZ I         445 22.05         6.5 0.34            117            196 320 
 HEL  HZ EP        444 55.30                             114   -0.36 9  200 272 
 HEL  HN ES        445 19.71                             114    0.32 9  200 272 
 HEL  HZ I         445 22.85         3.5 0.52            116            200 272 
 GUY2CHZ EP        444 57.43                             113    0.74 8  208 241 
 GUY2CHN ES   4    445 23.81                             113    2.59 0  208 241 
                                                                                
