 2017  310 0925 24.9 L   6.793 -73.101153.9  RSN  5 0.5 1.4LRSN                1
 GAP=242        1.03       6.7     8.3  9.0  0.1872E+02  0.1346E+02  0.8736E+01E
 Epicentro: LOS SANTOS - SANTANDER                                             3
 ACTION:UPD 17-05-25 18:38 OP:jn   STATUS:               ID:20170310092524 L   I
 OLDACT:REG 17-03-10 12:34 OP:ar   STATUS:               ID:20170310091744     3
 2017-03-10-0918-00M.COL___391                                                 6
 STAT SP IPHASW D HRMM SECON CODA AMPLIT PERI AZIMU VELO AIN AR TRES W  DIS CAZ7
 BAR2 EZ EP     C  925 45.38                             171   -0.1010 24.0 202 
 BAR2 EZ ES        926  0.83                             171   -0.7310 24.0 202 
 BAR2 EZ I         926  1.94         5.2 0.18            159           24.0 202 
 BRR  HZ EP        925 47.24                             152    0.0910 75.9 297 
 BRR  HN ES        926  5.22                             152    0.6810 75.9 297 
 RUS  HZ EP   2    925 49.81                             146    0.46 5 99.6 179 
 RUS  HZ I         926  9.11         2.5 0.38            128           99.6 179 
 RUS  HN ES   2    926  9.29                             146    0.84 5 99.6 179 
 SPBC HZ EP        925 54.25                             130    0.02 9  166 220 
 SPBC HE ES        926 17.13                             130   -0.01 9  166 220 
 SPBC HZ I         926 22.54         5.6 0.26            118            166 220 
 ZAR  HN ES        926 24.07                             123   -0.39 8  209 292 
 ZAR  HZ I         926 26.14         2.3 0.26            114            209 292 
                                                                                
