 2012  510 0709 31.3 L   6.690 -73.182152.0  RSN  4 0.3 1.5LRSN                1
 GAP=225        0.69       6.6     6.8  7.4  0.2220E+02 -0.3212E+01  0.8231E+00E
 Epicentro: VILLANUEVA - SANTANDER                                             3
 ACTION:UP  12-07-05 12:04 OP:pat  STATUS:               ID:20120510070931 L   I
 2012-05-10-0704-35M.COL___184                                                 6
 STAT SP IPHASW D HRMM SECON CODA AMPLIT PERI AZIMU VELO SNR AR TRES W  DIS CAZ7
 BAR2 SZ EP        7 9 51.26                             176    -0.210   11 180 
 BAR2 SZ ES   2    710  6.47                             176    -0.8 5   11 180 
 BAR2 SZ I         710  9.80         6.6 0.31                            11 180 
 BRR  HZ EP        7 9 53.31                             153     0.010   75 308 
 BRR  HZ I         7 9 53.74         8.8 0.13                            75 308 
 BRR  HN ES        710 10.72                             153     0.310   75 308 
 RUS  HZ EP   1    7 9 55.18                             148     0.3 7   89 173 
 RUS  HN ES   1    710 13.47                             148     0.2 7   89 173 
 RUS  HZ I         710 14.34         2.6 0.38                            89 173 
 PTB  HZ EP   1    7 9 58.15                             135    -0.1 7  142 263 
 PTB  HE ES   1    710 19.11                             135    -0.2 7  142 263 
                                                                                
