 2015  410 0857 57.9 L   6.861 -73.239126.0  RSN  8 0.3 2.0LRSN                1
 GAP=172        0.87       2.6     4.8  5.5  0.2643E+01  0.3934E+01 -0.3151E+01E
 Epicentro: ZAPATOCA - SANTANDER                                               3
 ACTION:UPD 15-06-03 16:53 OP:cam  STATUS:               ID:20150410085757 L   I
 OLDACT:REG 15-04-10 13:04 OP:akv  STATUS:               ID:20150410084751d    3
 2015-04-10-0847-50M.COL___263                                                 6
 STAT SP IPHASW D HRMM SECON CODA AMPLIT PERI AZIMU VELO AIN AR TRES W  DIS CAZ7
 BAR2 EZ EP        858 15.91                             166    0.5610 30.3 168 
 BAR2 EZ ES        858 29.09                             166    0.1410 30.3 168 
 BAR2 EZ I         858 30.16        58.2 0.46            166           30.3 168 
 BRR  HZ EP        858 16.23                             153    0.0010 59.0 298 
 BRR  HN ES        858 30.48                             153   -0.0410 59.0 298 
 BRR  HZ I         858 31.26        16.1 0.10            150           59.0 298 
 RUS  HZ EP        858 20.50                             137    0.1010  108 171 
 RUS  HN ES        858 37.73                             137   -0.2210  108 171 
 PTB  HZ EP   4    858 21.14                             129   -1.38 0  139 255 
 PTB  HN ES   4    858 38.52                             129   -3.19 0  139 255 
 PTB  HZ I         858 43.37        11.8 0.40            127            139 255 
 OCA  HZ EP        858 23.95                             126   -0.05 9  153 357 
 OCA  HN ES        858 44.01                             126   -0.35 9  153 357 
 OCA  HZ I         858 45.03        17.1 0.26            126            153 357 
 SPBC HZ EP        858 24.27                             124   -0.61 9  162 215 
 SPBC HN ES        858 45.83                             124   -0.10 9  162 215 
 SPBC HZ I         858 50.52         9.2 0.16            124            162 215 
 ZAR  HZ EP        858 28.68                             119    0.83 9  192 291 
 ZAR  HN ES        858 51.10                             119   -0.11 9  192 291 
 ZAR  HZ I         858 53.42         9.3 0.28            118            192 291 
 SML  HZ EP        858 32.04                             114   -0.31 8  233 337 
 SML  HN ES        858 59.31                             114    0.09 8  233 337 
 SML  HZ I         859  6.65        14.2 0.28            114            233 337 
                                                                                
