 2012 1210 0712 34.4 L   6.827 -73.131136.3  RSN  9 0.4 1.6LRSN                1
 GAP=114        0.79       3.2     4.7  7.2  0.3002E+01  0.2305E+01  0.1196E+00E
 Epicentro: LOS SANTOS - SANTANDER                                             3
 ACTION:UPD 13-01-04 14:26 OP:ep   STATUS:               ID:20121210071234 L   I
 2012-12-10-0710-00M.COL___242                                                 6
 STAT SP IPHASW D HRMM SECON CODA AMPLIT PERI AZIMU VELO AIN AR TRES W  DIS CAZ7
 BAR2 SZ EP   1    712 53.37                             168    0.42 7 26.6 192 
 BAR2 SZ ES   1    713  7.10                             168   -0.33 7 26.6 192 
 BAR2 SZ I         713 10.22         7.8 0.17                          26.6 192 
 RUS  HZ EP   1    712 57.04                             141   -0.40 7  104 177 
 RUS  HN ES   1    713 15.28                             141   -0.14 7  104 177 
 RUS  HZ I         713 18.88         4.6 0.42                           104 177 
 PTB  HZ EP   1    713  0.08                             129   -0.72 7  150 258 
 PTB  HN ES   1    713 21.54                             129    0.14 7  150 258 
 PTB  HZ I         713 27.36         6.8 0.66                           150 258 
 TAM  HZ EP   1    713  1.54                             128    0.28 7  154 106 
 OCA  HN ES   1    713 23.29                             128    0.27 7  157 352 
 OCA  HZ I         713 29.16         5.7 0.32                           157 352 
 ZAR  HE ES   1    713 31.47                             120    0.33 6  204 291 
 ZAR  HZ I         713 37.98         5.9 0.42                           204 291 
 SML  HZ EP   2    713 10.17                             116   -0.10 4  242 335 
 SML  HN ES   1    713 38.11                             116   -0.15 6  242 335 
 CHI  HZ EP   1    713 11.58                             115   -0.37 6  252 195 
 CHI  HN ES   1    713 42.38                             115    1.14 6  252 195 
 CHI  HZ I         713 44.81         1.9 0.44                           252 195 
 PRA  HN ES   1    714  9.52                             105   -0.29 4  395 210 
                                                                                
