 2012  310 0152  9.5 L   6.767 -73.160150.2  RSN  5 0.5 1.3LRSN                1
 GAP=136        0.97       6.7     6.2 12.0  0.1716E+01  0.1904E+02  0.1398E+02E
 ACTION:UP  12-03-31 23:18 OP:EP   STATUS:               ID:20120310015209 L   I
 2012-03-10-0150-00M.COL___193                                                 6
 STAT SP IPHASW D HRMM SECON CODA AMPLIT PERI AZIMU VELO SNR AR TRES W  DIS CAZ7
 PAM  SZ EP   1    152 32.75                             150     0.3 7   81  39 
 PAM  SZ I         152 33.27         4.2 0.17                            81  39 
 PAM  SN ES   1    152 49.82                             150    -0.5 7   81  39 
 RUS  HZ EP   1    152 33.88                             145     0.4 7   97 175 
 RUS  HN ES   1    152 52.47                             145     0.3 7   97 175 
 RUS  HZ I         152 53.93         2.5 0.22                            97 175 
 PTB  HZ EP   1    152 36.96                             133     0.3 7  145 260 
 PTB  HN ES   1    152 57.41                             133    -0.4 7  145 260 
 ZAR  HN ES   1    153  8.04                             123     0.3 6  204 293 
 CHI  HZ EP   1    152 46.06                             118    -1.0 6  245 195 
                                                                                
