 2016  410 0835  4.9 L   7.298 -73.820 84.0  RSN 19 0.6 2.5LRSN                1
 GAP= 89        1.41       3.3     2.8 10.2 -0.8208E+00  0.3973E+01  0.1245E+01E
 Epicentro: PUERTO WILCHES - SANTANDER                                         3
 ACTION:UPD 16-05-05 14:20 OP:rebc STATUS:               ID:20160410083504 L   I
 OLDACT:UP  16-04-10 18:03 OP:mh   STATUS:               ID:20160410082747     3
 OLDACT:REG 16-04-10 12:52 OP:mh   STATUS:               ID:20160410082747     3
 2016-04-10-0827-47M.COL___273                                                 6
 STAT SP IPHASW D HRMM SECON CODA AMPLIT PERI AZIMU VELO AIN AR TRES W  DIS CAZ7
 BAR2 EZ IP     D  835 23.28                             125   -0.0910  105 138 
 BAR2 EZ ES        835 38.27                             125    0.4810  105 138 
 BAR2 EZ I         835 39.15       101.7 0.22             97            105 138 
 PTB  HZ EP     D  835 22.70                             123   -0.8210  109 220 
 PTB  HN ES        835 36.98                             123   -1.0810  109 220 
 PTB  HZ I         835 37.12        92.6 0.16             97            109 220 
 ZAR  HZ EP     C  835 23.98                             121   -0.2810  117 281 
 ZAR  HN ES        835 40.55                             121    1.1810  117 281 
 ZAR  HZ I         835 42.93       137.6 0.36             97            117 281 
 OCA  HZ EP        835 24.30                             121   -0.2810  118  28 
 OCA  HN ES        835 40.15                             121    0.2110  118  28 
 OCA  HZ I         835 42.40       129.8 0.20             97            118  28 
 PAM  EZ EP        835 25.58                             120   -0.0710  124  88 
 PAM  EN ES        835 41.79                             120   -0.0510  124  88 
 PAM  EZ I         835 43.96        72.2 0.28             96            124  88 
 RUS  HZ EP        835 31.28                             111   -0.16 9  175 152 
 RUS  HE ES        835 52.30                             111    0.15 9  175 152 
 RUS  HZ I         835 54.73        46.6 0.52             56            175 152 
 SPBC HZ IP     D  835 31.38                             110   -0.56 9  184 189 
 SPBC HN ES        835 52.55                             110   -0.49 9  184 189 
 SPBC HZ I         835 55.01        40.5 0.56             56            184 189 
 URE  HZ EP        835 32.90                             108   -0.29 9  196 285 
 URE  HE ES        835 54.61                             108   -0.65 9  196 285 
 URE  HZ I         835 58.64        57.9 0.14             56            196 285 
 NOR  HZ EP        835 36.18                             106   -0.44 8  224 211 
 NOR  HN ES        836  2.62                             106    1.25 8  224 211 
 NOR  HZ I         836  6.05        22.1 0.20             56            224 211 
 HEL  HZ EP        835 37.21                             106    0.09 8  225 237 
 HEL  HN ES        836  3.05                             106    0.79 8  225 237 
 HEL  HZ I         836  8.00        27.5 0.38             56            225 237 
 TAM  HZ EP        835 38.68                             104   -0.25 8  244 113 
 TAM  HN ES   1    836  6.74                             104    1.26 6  244 113 
 TAM  HZ I         836 14.41        16.0 0.52             56            244 113 
 ROSC BZ EP   4    835 43.78                             102    0.37 0  277 192 
 ROSC BE ES   4    836 15.07                             102    1.61 0  277 192 
 ROSC BZ I         836 21.17        12.5 0.35             55            277 192 
 GUY2CHZ EP   1    835 45.81                             102    1.25 6  286 217 
 GUY2CHE ES   4    836 18.06                             102    2.55 0  286 217 
 CBOC HZ EP        835 45.10                             102    0.47 7  290 237 
 CBOC HN ES   1    836 16.24                             102    0.61 6  290 237 
 CBOC HZ I         836 29.24         6.7 0.52             55            290 237 
 ELA  HZ EP   4    835 49.63                             100    0.73 0  321 213 
 ELA  HN ES   4    836 23.06                             100   -0.17 0  321 213 
 ELA  HZ I         836 32.81        11.2 0.40             55            321 213 
 PAL  HZ EP   4    835 56.48                              99    1.00 0  380 226 
 SDV  BZ EP        835 57.33                              98    0.12 6  393  63 
 SDV  BN ES   4    836 36.74                              98   -1.28 0  393  63 
 SDV  BZ I         836 39.99        17.2 0.52             55            393  63 
 ORTC HZ EP   4    835 59.98                              98    1.26 0  407 203 
 ORTC HN ES   4    836 43.99                              98    3.29 0  407 203 
 ORTC HZ I         836 52.20         6.4 0.38             55            407 203 
 CRJC HZ EP   1    836  0.68                              97   -0.27 4  424  14 
 CRJC HN ES   1    836 45.07                              97    0.39 4  424  14 
 CRJC HZ I         836 50.29        21.6 0.24             55            424  14 
 YOT  HN ES   4    836 42.12                              97   -10.6 0  461 217 
 URI  HZ EP   4    836 11.85                              96   -1.53 0  527  22 
 URI  HN ES   4    837  3.18                              96   -3.63 0  527  22 
 URI  HZ I         837  9.79         3.6 0.44             55            527  22 
                                                                                
