 2016  210 0340 34.2 L   6.813 -73.140143.2  RSN  6 0.4 1.3LRSN                1
 GAP=201        0.92       4.1     5.5  7.7  0.5826E+01  0.5235E+01 -0.1183E+02E
 Epicentro: LOS SANTOS - SANTANDER                                             3
 ACTION:UPD 16-03-04 21:24 OP:rebc STATUS:               ID:20160210034034 L   I
 OLDACT:UP  16-02-10 16:53 OP:ak   STATUS:               ID:20160210033737     3
 OLDACT:REG 16-02-10 14:34 OP:ak   STATUS:               ID:20160210033737     3
 2016-02-10-0337-37M.COL___319                                                 6
 STAT SP IPHASW D HRMM SECON CODA AMPLIT PERI AZIMU VELO AIN AR TRES W  DIS CAZ7
 BAR2 EZ EP   2    340 53.40                             170   -0.21 5 24.9 191 
 BAR2 EZ ES        341  8.37                             170   -0.3410 24.9 191 
 BAR2 EZ I         341 10.28         2.7 0.18            167           24.9 191 
 RUS  HZ EP        340 58.12                             143    0.2610  102 176 
 RUS  HN ES        341 16.74                             143    0.4710  102 176 
 RUS  HZ I         341 19.12         2.3 0.42            142            102 176 
 PTB  HZ EP        341  0.65                             131   -0.44 9  149 258 
 PTB  HN ES        341 21.67                             131   -0.36 9  149 258 
 PTB  HZ I         341 23.75         2.8 0.16            131            149 258 
 SPBC HZ EP   1    341  2.35                             128   -0.35 7  165 219 
 SPBC HN ES        341 24.87                             128   -0.02 9  165 219 
 SPBC HZ I         341 29.82         3.3 0.23            128            165 219 
 ZAR  HN ES        341 32.53                             122    0.82 9  204 292 
 SML  HZ EP        341 10.74                             117    0.12 8  243 335 
 SML  HE ES        341 38.77                             117   -0.21 8  243 335 
                                                                                
