 2012 1110 0242 38.1 L   6.723 -73.162152.0  RSN  5 0.2 1.5LRSN                1
 GAP=180        0.56       3.9     4.2  4.7  0.4412E+01  0.7165E+01  0.2282E+01E
 Epicentro: VILLANUEVA - SANTANDER                                             3
 ACTION:UPD 12-12-05 15:32 OP:}ep  STATUS:               ID:20121110024238 L   I
 2012-11-10-0240-00M.COL___230                                                 6
 STAT SP IPHASW D HRMM SECON CODA AMPLIT PERI AZIMU VELO AIN AR TRES W  DIS CAZ7
 BAR2 SZ EP        242 58.50                             174    0.1810 14.6 189 
 BAR2 SZ I         242 58.80         6.5 0.36                          14.6 189 
 BAR2 SZ ES        243 14.17                             174    0.0610 14.6 189 
 GIR2 SZ ES        243 14.66                             165   -0.1810 39.5 355 
 BRR  HZ IP     C  243  0.31                             153    0.2510 74.2 305 
 BRR  HN ES        243 17.17                             153   -0.0510 74.2 305 
 RUS  HN ES        243 20.38                             147   -0.0610 92.2 175 
 PTB  HZ EP        243  4.87                             134   -0.41 9  145 262 
 PTB  HN ES        243 26.66                             134    0.17 9  145 262 
 PTB  HN I         243 31.54         4.3 0.24                           145 262 
                                                                                
