 2015  210 0621  1.9 L   6.755 -73.189136.0  RSN  6 0.3 1.4LRSN                1
 GAP=229        0.66       3.4     3.7  4.5  0.5197E+01  0.3715E+01  0.1032E+00E
 Epicentro: VILLANUEVA - SANTANDER                                             3
 ACTION:UPD 15-04-30 21:24 OP:nd   STATUS:               ID:20150210062101 L   I
 OLDACT:DUP 15-02-10 16:26 OP:fm   STATUS:               ID:20150210061738d    3
 2015-02-10-0617-37M.COL___287                                                 6
 STAT SP IPHASW D HRMM SECON CODA AMPLIT PERI AZIMU VELO AIN AR TRES W  DIS CAZ7
 BAR2 EZ EP        621 20.20                             172   -0.0810 18.0 178 
 BAR2 EZ ES        621 34.50                             172   -0.1010 18.0 178 
 BAR2 EZ I         621 36.74         5.5 0.58            172           18.0 178 
 BRR  HZ EP        621 22.05                             151    0.1110 69.7 304 
 BRR  HN ES        621 37.74                             151    0.1910 69.7 304 
 BRR  HZ I         621 42.79         3.0 0.14            150           69.7 304 
 RUS  HZ EP        621 24.21                             143   -0.1910 96.1 173 
 RUS  HE ES        621 42.04                             143    0.1110 96.1 173 
 RUS  HZ I         621 43.84         2.3 0.36            147           96.1 173 
 PTB  HZ EP        621 27.11                             131   -0.49 9  142 260 
 PTB  HN ES        621 47.46                             131   -0.16 9  142 260 
 PTB  HZ I         621 50.31         4.4 0.14            132            142 260 
 SPBC HZ EP        621 29.10                             128    0.07 9  156 219 
 SPBC HN ES        621 50.44                             128    0.27 9  156 219 
 SPBC HZ I         621 54.04         4.3 0.34            130            156 219 
 ZAR  HZ EP        621 34.05                             120    0.55 9  202 294 
 ZAR  HN ES        621 57.91                             120   -0.21 9  202 294 
 ZAR  HZ I         622  5.29         3.3 0.40            122            202 294 
                                                                                
