 2016  910 0337 20.6 L   7.380 -73.115  9.2  RSN  8 0.4 1.8LRSN                1
 GAP=109        0.95       2.0     2.2  4.1  0.3879E+00  0.3629E+01  0.2423E+01E
 Epicentro: MATANZA - SANTANDER                                                3
 ACTION:UPD 17-08-17 21:08 OP:lp   STATUS:               ID:20160910033720 L   I
 OLDACT:REG 16-09-10 13:44 OP:cara STATUS:               ID:20160910032732     3
 2016-09-10-0328-00M.COL___342                                                 6
 STAT SP IPHASW D HRMM SECON CODA AMPLIT PERI AZIMU VELO AIN AR TRES W  DIS CAZ7
 PAM  EZ EP        337 29.01                              98    0.2710 46.1  96 
 PAM  HE ES        337 35.18                              98    0.0910 46.1  96 
 PAM  EZ I         337 36.28        81.8 0.30             47           46.1  96 
 BRR  HZ EP        337 32.51                              94    0.3110 72.5 245 
 BRR  HN ES        337 41.46                              94    0.2110 72.5 245 
 BRR  HZ I         337 43.24        11.7 0.16             47           72.5 245 
 BAR2 EZ EP        337 34.56                              94   -0.1510 87.4 185 
 BAR2 EZ ES        337 45.20                              94   -0.5210 87.4 185 
 BAR2 EZ I         337 46.01        29.7 0.18             47           87.4 185 
 OCA  HZ EP        337 36.20                              93    0.0310 97.6 347 
 OCA  HE ES        337 47.72                              93   -0.5910 97.6 347 
 OCA  HZ I         337 51.25        54.8 0.38             47           97.6 347 
 RUS  HZ EP        337 46.98                              56    0.41 9  165 179 
 RUS  HN ES        338  6.37                              56   -0.46 9  165 179 
 RUS  HZ I         338  8.85         6.5 0.22             47            165 179 
 PTB  HZ EP        337 47.29                              56   -0.01 9  175 238 
 PTB  HE ES        338  7.66                              56   -0.46 9  175 238 
 PTB  HZ I         338  9.41        11.3 0.22             47            175 238 
 ZAR  HZ EP        337 50.22                              56    0.70 9  193 274 
 ZAR  HN ES        338 12.05                              56   -0.03 9  193 274 
 ZAR  HZ I         338 13.71        19.1 0.26             37            193 274 
 SPBC HN ES        338 18.37                              56    0.41 8  218 209 
 SPBC HZ I         338 29.71         8.7 0.18             37            218 209 
                                                                                
