 2011 1210 0914 24.1 L   6.741 -73.109143.7  RSN 10 0.4 2.0LRSN                1
 GAP=144        0.57       3.9     4.8  5.8 -0.4434E+01  0.8481E+01  0.7215E+01E
 Epicentro: JORDAN - SANTANDER                                                 3
 ACTION:UPD 12-07-13 16:15 OP:ep   STATUS:               ID:20111210091424 L   I
 2011-12-10-0910-00M.COL___186                                                 6
 STAT SP IPHASW D HRMM SECON CODA AMPLIT PERI AZIMU VELO AIN AR TRES W  DIS CAZ7
 BAR2 SZ EP        914 43.65                             172    0.2310 18.3 206 
 BAR2 SZ ES   2    914 57.67                             172   -0.79 5 18.3 206 
 BAR2 SZ I         915  0.40        53.4 0.25                          18.3 206 
 GIR2 SZ EP   1    914 43.71                             164   -0.06 7 38.5 346 
 BRR  HZ EP   1    914 45.51                             150    0.06 7 77.9 301 
 BRR  HN ES   2    915  2.15                             150    0.07 5 77.9 301 
 BRR  HZ I         915  4.81        19.0 0.14                          77.9 301 
 PAM  SZ EP   1    914 46.31                             149    0.01 7 80.2  34 
 PAM  SZ I         914 46.73        13.0 0.18                          80.2  34 
 PAM  SN ES   2    915  3.71                             149    0.13 5 80.2  34 
 RUS  HZ EP   1    914 47.21                             145    0.02 7 93.8 178 
 RUS  HN ES   2    915  5.33                             145    0.15 5 93.8 178 
 RUS  HZ I         915  7.56        10.3 0.40                          93.8 178 
 NOR  SZ EP   1    914 58.99                             118   -0.70 6  234 236 
 NOR  SE ES   2    915 27.21                             118   -0.22 4  234 236 
 CHI  HZ EP   1    915  0.70                             117   -0.45 6  243 196 
 CHI  HN ES   2    915 30.90                             117    0.89 4  243 196 
 CHI  HZ I         915 39.23         5.4 0.40                           243 196 
 ROSC BZ EP   1    915  1.55                             117   -0.21 6  249 213 
 HEL  HZ EP   1    915  4.93                             114    0.43 6  274 257 
 HEL  HN ES   2    915 36.30                             114    0.31 4  274 257 
 HEL  HZ I         915 41.97         4.7 0.33                           274 257 
 PRA  HZ EP   1    915 17.21                             106    0.06 4  388 211 
 PRA  HE ES   2    915 59.16                             106    0.66 3  388 211 
                                                                                
