 2017  410 0310 26.1 L   6.675 -73.485108.6  RSN  6 0.2 1.2LRSN                1
 GAP=109        0.88       3.9     4.5  5.8  0.3698E+01  0.1185E+01 -0.1276E+01E
 Epicentro: EL CARMEN - SANTANDER                                              3
 ACTION:UPD 17-05-30 21:10 OP:jn   STATUS:               ID:20170410031026 L   I
 OLDACT:UP  17-04-10 16:09 OP:edw  STATUS:               ID:20170410030745     3
 OLDACT:UP  17-04-10 16:07 OP:edw  STATUS:               ID:20170410030745     3
 OLDACT:REG 17-04-10 12:45 OP:edw  STATUS:               ID:20170410030745     3
 2017-04-10-0308-00M.COL___371                                                 6
 STAT SP IPHASW D HRMM SECON CODA AMPLIT PERI AZIMU VELO AIN AR TRES W  DIS CAZ7
 BAR2 EZ IP     D  310 41.80                             161    0.1010 34.6 105 
 BAR2 EZ ES        310 53.72                             161   -0.1110 34.6 105 
 BAR2 EZ I         310 55.04         4.7 0.52            162           34.6 105 
 BRR  HZ EP        310 42.16                             151   -0.1410 54.0 332 
 BRR  HN ES        310 55.05                             151    0.1510 54.0 332 
 BRR  HZ I         310 55.79         6.4 0.12            150           54.0 332 
 RUS  HZ EP        310 46.29                             134    0.1310 97.3 153 
 RUS  HN ES        311  1.80                             134    0.0110 97.3 153 
 RUS  HZ I         311  2.76         2.4 0.26            136           97.3 153 
 PTB  HZ EP   9    310 45.31                             131   -1.20 0  109 262 
 PTB  HN ES        311  0.36                             132   -0.8510  109 262 
 PTB  HZ I         311  1.78         3.1 0.44            131            109 262 
 PAM  EZ EP        310 47.18                             130   -0.4510  114  50 
 PAM  EN ES        311  4.41                             130    0.0210  114  50 
 PAM  EZ I         311  5.98         1.4 0.16            130            114  50 
 ZAR  HZ EP        310 53.77                             116    0.34 9  177 301 
 ZAR  HN ES   4    311 15.90                             116    1.18 0  177 301 
 ZAR  HZ I         311 18.26         3.6 0.42            116            177 301 
                                                                                
