 2011  510 0816 47.1 L   6.871 -73.141137.2  RSN  5 0.1 1.1LRSN                1
 GAP=248        0.30      14.0     7.5  9.2  0.1284E+02 -0.7247E+01 -0.3118E+02E
 Epicentro: LOS SANTOS - SANTANDER                                             3
 ACTION:UP  11-06-29 08:52 OP:tino STATUS:               ID:20110510081647 L   I
 2011-05-10-0812-32S.COL___132                                                 6
 STAT SP IPHASW D HRMM SECON CODA AMPLIT PERI AZIMU VELO SNR AR TRES W  DIS CAZ7
 BTL  SZ EP        817  5.61                             174     0.110   15 291 
 BTL  SZ ES   3    817 19.94                             174     0.0 2   15 291 
 GIR2 SZ EP   3    817  5.35                             170    -0.2 2   24 346 
 BRR  HZ EP        817  7.12                             152     0.010   68 293 
 BRR  HZ I         817  7.50         2.9 0.14                            68 293 
 BRR  HN ES   3    817 22.71                             152    -0.1 2   68 293 
 PAM  SZ EP   3    817  7.86                             151    -0.2 2   71  43 
 GRA  SZ EP   3    817 11.15                             137     0.2 2  118  18 
 GRA  SZ I         817 20.37         2.1 0.35                           118  18 
                                                                                
