 2011 1110 0327 46.1 L   6.765 -73.174150.0  RSN  6 0.4 1.6LRSN                1
 GAP=135        0.82       4.8     4.8  9.3  0.1314E+00  0.7868E+01 -0.2003E+01E
 Epicentro: LOS SANTOS - SANTANDER                                             3
 ACTION:UPD 12-07-13 16:09 OP:ep   STATUS:               ID:20111110032746 L   I
 2011-11-10-0325-54S.COL___176                                                 6
 STAT SP IPHASW D HRMM SECON CODA AMPLIT PERI AZIMU VELO AIN AR TRES W  DIS CAZ7
 BRR  HZ EP   1    328  8.17                             153    0.55 9 70.5 303 
 BRR  HE ES   1    328 25.17                             153    0.73 9 70.5 303 
 BRR  HZ I         328 26.72         7.7 0.14                          70.5 303 
 PAM  SZ EP   1    328  9.02                             150    0.00 9 82.4  39 
 PAM  SE ES   1    328 26.45                             150   -0.48 9 82.4  39 
 RUS  HZ EP   1    328 10.18                             146    0.21 9 97.0 174 
 RUS  HE ES   1    328 28.40                             146   -0.23 9 97.0 174 
 RUS  HZ I         328 30.40         3.6 0.32                          97.0 174 
 OCA  SZ EP   1    328 14.99                             130   -0.04 8  164 354 
 OCA  SZ I         328 41.84         7.7 0.43                           164 354 
 ZAR  HE ES        328 43.59                             123   -0.4610  203 293 
 NOR  SE ES   1    328 48.97                             120   -0.22 7  230 235 
                                                                                
