 2012  510 0837 38.2 L   6.826 -73.348124.3  RSN  4 0.3 1.5LRSN                1
 GAP=197        0.71      10.1    11.8  8.0  0.9136E+02  0.3865E+02  0.3418E+02E
 Epicentro: ZAPATOCA - SANTANDER                                               3
 ACTION:UP  12-07-05 12:04 OP:pat  STATUS:               ID:20120510083738 L   I
 2012-05-10-0830-00M.COL___195                                                 6
 STAT SP IPHASW D HRMM SECON CODA AMPLIT PERI AZIMU VELO SNR AR TRES W  DIS CAZ7
 BAR2 SZ EP   1    837 55.51                             165     0.0 7   32 145 
 BAR2 SZ ES   1    838  8.52                             165    -0.5 7   32 145 
 BAR2 SZ I         838 10.09        21.6 0.39                            32 145 
 BRR  HZ EP        837 56.16                             156     0.210   51 308 
 BRR  HN ES        838  9.83                             156     0.110   51 308 
 BRR  HZ I         838 11.07         8.2 0.16                            51 308 
 RUS  HZ EP   2    838  0.21                             137    -0.3 5  107 164 
 RUS  HZ I         838  1.32         2.2 0.17                           107 164 
 RUS  HN ES   2    838 18.42                             137     0.6 5  107 164 
 PTB  HZ EP   1    838  1.23                             131    -0.3 7  127 256 
                                                                                
