 2016 1010 0921 31.7 L   6.833 -73.125139.0  RSN 16 0.5 1.9LRSN                1
 GAP=137        1.19       3.1     4.9  6.1 -0.2853E+01  0.7372E+01 -0.1166E+01E
 Epicentro: LOS SANTOS - SANTANDER                                             3
 ACTION:UPD 16-11-09 19:18 OP:rebc STATUS:               ID:20161010092131 L   I
 OLDACT:REG 16-10-10 13:33 OP:ar   STATUS:               ID:20161010091743     3
 2016-10-10-0918-00M.COL___354                                                 6
 STAT SP IPHASW D HRMM SECON CODA AMPLIT PERI AZIMU VELO AIN AR TRES W  DIS CAZ7
 BAR2 EZ ES        922  4.36                             168   -1.0310 27.4 193 
 BAR2 EZ I         922  8.93        16.5 0.31            167           27.4 193 
 PAM  EZ EP   9    921 54.08                             151    1.11 0 73.1  40 
 PAM  EN ES        922 11.28                                    0.6310 73.1  40 
 PAM  EZ I         922 12.60         7.5 0.21            156           73.1  40 
 RUS  HZ EP        921 55.14                             142    0.0510  104 177 
 RUS  HN ES        922 14.22                             142    0.9110  104 177 
 RUS  HZ I         922 15.50         6.6 0.23            144            104 177 
 PTB  HZ EP        921 58.02                             130   -0.41 9  151 258 
 PTB  HN ES        922 18.79                             130   -0.46 9  151 258 
 PTB  HZ I         922 20.81         8.5 0.14            131            151 258 
 OCA  HZ EP        921 59.44                             129    0.24 9  157 352 
 OCA  HN ES        922 20.86                             129    0.23 9  157 352 
 OCA  HZ I         922 24.38        18.2 0.27            131            157 352 
 SPBC HZ EP        922  0.25                             127    0.12 9  167 219 
 SPBC HN ES        922 22.82                             127    0.54 9  167 219 
 SPBC HZ I         922 26.38        13.7 0.16            128            167 219 
 ZAR  HZ EP        922  4.12                             121    0.30 9  205 291 
 ZAR  HN ES        922 29.32                             121    0.47 9  205 291 
 ZAR  HZ I         922 34.45        11.8 0.32            122            205 291 
 NOR  HZ EP        922  6.89                             117   -0.61 8  239 234 
 NOR  HN ES        922 34.80                             117   -0.61 8  239 234 
 NOR  HZ I         922 44.52         5.0 0.15            118            239 234 
 CHI  HZ EP        922  9.34                             115   -0.17 8  253 195 
 CHI  HN ES        922 39.01                             115    0.02 8  253 195 
 CHI  HZ I         922 42.43         5.6 0.43            118            253 195 
 HEL  HZ EP   4    922 13.16                             113    1.21 0  275 255 
 HEL  HN ES        922 44.14                             113    0.82 8  275 255 
 HEL  HZ I         922 49.75         5.1 0.40            115            275 255 
 GUY2CHZ EP        922 16.11                             111    0.63 7  305 234 
 GUY2CHN ES   4    922 52.49                             111    2.88 0  305 234 
 GUY2CHZ I         922 57.51         5.9 0.34                           305 234 
 LL6C HZ EP        922 16.07                             109   -0.67 7  321 357 
 LL6C HN ES        922 51.89                             109    0.04 7  321 357 
 ELA  HN ES        922 55.53                             109    0.06 7  333 229 
 ELA  HZ I         923  0.85         6.2 0.17            111            333 229 
 CBOC HZ EP        922 19.09                             108    0.34 7  337 252 
 CBOC HE ES        922 55.03                             108   -0.39 7  337 252 
 CBOC HZ I         923  0.98         1.3 0.37            110            337 252 
 PRA  HZ EP        922 25.06                             105   -0.47 6  396 210 
 PRA  HN ES        923  7.16                             105   -0.33 6  396 210 
 PRA  HZ I         923 13.35         5.0 0.37            107            396 210 
 SJC  HZ EP   4    922 25.29                             105   -1.57 0  407 326 
 SJC  HE ES   4    923  7.16                             105   -2.70 0  407 326 
 SJC  HZ I         923 10.47         1.3 0.42            107            407 326 
                                                                                
