 2011  210 0841 19.4 L   6.781 -73.232140.0  RSN  5 0.2 1.2LRSN                1
 GAP=152        0.47       4.5    18.0  6.4 -0.6254E+02  0.4409E+02 -0.7548E+01E
 Epicentro: ZAPATOCA - SANTANDER                                               3
 ACTION:UP  11-03-28 15:07 OP:jfem STATUS:               ID:20110210084119 L   I
 2011-02-10-0836-54S.COL___136                                                 6
 STAT SP IPHASW D HRMM SECON CODA AMPLIT PERI AZIMU VELO SNR AR TRES W  DIS CAZ7
 BTL  SZ EP   1    841 38.47                             173     0.2 8   16 345 
 BAR2 SZ EP   1    841 38.18                             171    -0.2 8   22 166 
 BAR2 SZ ES   2    841 52.83                             171    -0.2 5   22 166 
 BAR2 SZ I         841 54.74         6.7 0.21                            22 166 
 RUS  HZ EP   1    841 42.37                             143    -0.2 8  100 170 
 RUS  HN ES   2    842  0.97                             143     0.4 5  100 170 
 RUS  HZ I         842  1.94         2.0 0.39                           100 170 
 GRA  SZ EP        841 44.68                             134     0.110  131  21 
 GRA  SZ I         842  4.07         1.7 0.65                           131  21 
 GRA  SZ ES   1    842  4.16                             134    -0.1 7  131  21 
 CHI  HZ EP   1    841 56.31                             116     0.0 6  244 193 
 CHI  HZ I         842 27.88         1.2 0.46                           244 193 
                                                                                
