 2010  510 0527 42.5 L   6.764 -73.031142.5  RSN  9 0.4 1.7LRSN                1
 GAP=135        1.08       4.5     9.4  7.7 -0.1706E+02 -0.1664E+02  0.1305E+01E
 Epicentro: CEPITA - SANTANDER                                                 3
 ACTION:UP  10-08-24 10:04 OP:vdl  STATUS:               ID:20100510052742 L   I
 2010-05-10-0524-25S.COL___104                                                 6
 STAT SP IPHASW D HRMM SECON CODA AMPLIT PERI AZIMU VELO SNR AR TRES W  DIS CAZ7
 BAR2 SZ EP        528  1.75                             170    -0.110   25 221 
 BAR2 SZ ES   1    528 16.23                             170    -0.6 7   25 221 
 BRR  HZ EP        528  4.29                             148     0.210   84 297 
 BRR  HN ES   1    528 21.18                             148     0.2 7   84 297 
 BRR  HZ I         528 25.39        14.5 0.15                            84 297 
 RUS  HZ EP        528  5.82                             144     0.210   97 183 
 RUS  HN ES   1    528 23.87                             144     0.2 7   97 183 
 RUS  HZ I         528 25.88         5.0 0.26                            97 183 
 BRI  SZ EP        528  6.35                             141     0.210  108  14 
 GUE  SZ EP        528  7.85                             138     0.810  118   6 
 GUE  SZ ES   1    528 26.40                             138     0.1 7  118   6 
 GRA  SZ EP        528  7.55                             136     0.010  126  11 
 GRA  SZ ES   1    528 26.77                             136    -0.3 7  126  11 
 OCA  SZ EP        528 10.17                             128    -1.0 9  166 349 
 OCA  SZ I         528 35.19         7.9 0.30                           166 349 
 SDV  BZ EP        528 31.40                             108    -0.2 6  353  48 
 SDV  BZ I         528 32.11         1.8 0.17                           353  48 
 PRA  HZ EP        528 36.04                             106    -0.3 6  395 211 
 PRA  HE ES   1    529 18.20                             106     0.0 4  395 211 
 PRA  HZ I         529 20.70         1.3 0.35                           395 211 
                                                                                
