 2016 1010 0431  0.9 L   6.825 -73.184141.6  RSN 17 0.4 2.3LRSN                1
 GAP= 68        1.02       2.9     3.3  5.5 -0.1804E+01  0.4900E+01  0.8239E+00E
 Epicentro: ZAPATOCA - SANTANDER                                               3
 ACTION:UPD 16-11-09 19:18 OP:rebc STATUS:               ID:20161010043100 L   I
 OLDACT:UP  16-10-10 17:13 OP:ar   STATUS:               ID:20161010042740     3
 OLDACT:REG 16-10-10 12:55 OP:ar   STATUS:               ID:20161010042740     3
 2016-10-10-0428-00M.COL___354                                                 6
 STAT SP IPHASW D HRMM SECON CODA AMPLIT PERI AZIMU VELO AIN AR TRES W  DIS CAZ7
 BAR2 EZ EP        431 19.93                             169   -0.1410 25.7 180 
 BAR2 EZ ES        431 34.93                             169   -0.1010 25.7 180 
 BAR2 EZ I         431 35.93        57.4 0.30            170           25.7 180 
 PAM  EZ EP        431 23.13                             150    0.4210 78.1  43 
 PAM  EN ES        431 40.33                             150    0.6110 78.1  43 
 PAM  EZ I         431 42.26        20.8 0.70            151           78.1  43 
 RUS  HZ EP        431 24.05                             142   -0.4210  104 174 
 RUS  HN ES        431 42.86                             142    0.0110  104 174 
 RUS  HZ I         431 44.40        18.7 0.52            145            104 174 
 PTB  HZ EP        431 26.36                             132   -0.84 9  144 257 
 PTB  HE ES        431 47.68                             132   -0.03 9  144 257 
 PTB  HZ I         431 49.46        20.7 0.09            129            144 257 
 OCA  HZ EP        431 28.31                             129   -0.27 9  157 355 
 OCA  HN ES        431 49.76                             129   -0.41 9  157 355 
 OCA  HZ I         431 58.32        42.8 0.58            128            157 355 
 TAM  HZ EP        431 28.40                             129   -0.30 9  160 106 
 SPBC HZ EP        431 28.74                             128   -0.29 9  163 217 
 SPBC HN ES        431 51.19                             128    0.21 9  163 217 
 SPBC HZ I         431 55.90        28.5 0.16            127            163 217 
 ZAR  HZ EP        431 32.93                             122    0.37 9  199 292 
 ZAR  HN ES        431 57.24                             122   -0.01 9  199 292 
 ZAR  HZ I         432  3.38        22.8 0.52            120            199 292 
 NOR  HZ EP        431 36.52                             118    0.33 8  233 233 
 NOR  HN ES        432  3.93                             118    0.21 8  233 233 
 NOR  HZ I         432 11.10        12.6 0.16            117            233 233 
 CHI  HZ EP        431 38.14                             116   -0.40 8  250 194 
 CHI  HN ES        432  7.90                             116    0.00 8  250 194 
 CHI  HZ I         432  9.86        17.4 0.36            117            250 194 
 ROSC BZ EP        431 39.84                             116    1.03 8  253 210 
 ROSC BN ES   4    432 10.70                             116    2.31 0  253 210 
 ROSC BZ I         432 14.65        28.4 0.35            116            253 210 
 HEL  HZ EP   4    431 42.13                             114    1.61 0  269 255 
 HEL  HN ES        432 11.53                             114    0.11 8  269 255 
 HEL  HZ I         432 19.55         8.5 0.30            113            269 255 
 URE  HZ EP   4    431 44.05                             113    2.84 0  279 292 
 URE  HN ES   4    432 11.22                             113   -1.43 0  279 292 
 URE  HZ I         432 24.40        18.1 0.18            112            279 292 
 CBOC HZ EP        431 48.24                             109    0.97 7  330 251 
 CBOC HN ES        432 22.86                             109   -0.59 7  330 251 
 CBOC HZ I         432 33.75         3.7 0.26            109            330 251 
 ARGC HZ EP   2    431 50.18                             108    0.25 3  355 341 
 ARGC HN ES   4    432 29.94                             108    1.76 0  355 341 
 ARGC HZ I         432 40.29         2.9 0.24            107            355 341 
 ANIL HN ES   4    432 30.57                             108    1.51 0  356 224 
 ANIL HZ I         432 37.67        21.1 0.44            108            356 224 
 SJC  HZ EP   4    431 54.18                             105   -1.60 0  405 327 
 SJC  HN ES   4    432 36.41                             105   -2.18 0  405 327 
 SJC  HZ I         432 44.95         2.7 0.46            105            405 327 
                                                                                
