 2017 1110 0932 52.3 L   6.770 -73.124143.6  RSN  9 0.4 1.4LRSN                1
 GAP=115        0.88       3.3     3.3  5.8  0.1032E+01  0.2171E+01  0.6715E+01E
 Epicentro: LOS SANTOS - SANTANDER                                             3
 ACTION:UPD 17-12-12 19:54 OP:rebc STATUS:               ID:20171110093252 L   I
 OLDACT:UP  17-11-10 18:22 OP:dnl  STATUS:               ID:20171110092739d    3
 OLDACT:DUP 17-11-10 18:16 OP:dnl  STATUS:               ID:20171110092739d    3
 2017-11-10-0928-00M.COL___414                                                 6
 STAT SP IPHASW D HRMM SECON CODA AMPLIT PERI AZIMU VELO AIN AR TRES W  DIS CAZ7
 BAR2 EZ EP        933 11.36                             171   -0.2810 20.7 198 
 BAR2 EZ ES        933 26.38                             171   -0.3310 20.7 198 
 BAR2 EZ I         933 28.00         5.2 0.38            169           20.7 198 
 BRR  HZ EP        933 13.14                             151   -0.3110 75.0 300 
 BRR  HE ES        933 30.28                             151    0.3410 75.0 300 
 BRR  HZ I         933 33.45         7.9 0.32            151           75.0 300 
 PAM  EZ EP        933 14.30                             150   -0.0710 78.5  37 
 PAM  EN ES        933 31.67                             150    0.0910 78.5  37 
 PAM  EZ I         933 33.42         3.4 0.46            155           78.5  37 
 PTB  HZ EP   4    933 18.20                             131   -1.08 0  150 260 
 PTB  HN ES        933 39.66                             131   -0.64 9  150 260 
 PTB  HZ I         933 44.79         1.9 0.12            132            150 260 
 SPBC HZ EP        933 20.49                             129   -0.07 9  162 220 
 SPBC HN ES        933 42.91                             129    0.32 9  162 220 
 SPBC HZ I         933 49.35         4.0 0.34            130            162 220 
 YPLC HZ EP        933 21.88                             127    0.32 9  173 152 
 YPLC HE ES        933 44.59                             127    0.23 9  173 152 
 YPLC HZ I         933 48.37         3.0 0.34            129            173 152 
 ZAR  HZ EP   2    933 24.88                             121   -0.11 4  208 293 
 ZAR  HN ES        933 51.32                             121    0.85 8  208 293 
 ZAR  HZ I         933 54.89         2.8 0.12            123            208 293 
 CHI  HZ EP   2    933 29.79                             117    0.17 4  246 196 
 CHI  HN ES        933 58.87                             117    0.15 8  246 196 
 CHI  HZ I         934  0.40         1.2 0.42            118            246 196 
 GUY2CHZ EP        933 35.36                             112   -0.48 7  301 236 
 GUY2CHN ES   4    934 12.45                             112    2.66 0  301 236 
 GUY2CHZ I         934 19.68         1.0 0.48                           301 236 
                                                                                
