 2016  410 0720 14.0 L   6.822 -73.147140.0  RSN 22 0.5 2.8LRSN                1
 GAP= 70        1.00       2.6     2.7  5.5 -0.1199E+01  0.3917E+01  0.2432E+01E
 Epicentro: LOS SANTOS - SANTANDER                                             3
 ACTION:UPD 16-05-05 14:20 OP:rebc STATUS:               ID:20160410072014 L   I
 OLDACT:UP  16-04-10 17:42 OP:mh   STATUS:               ID:20160410071748     3
 OLDACT:UP  16-04-10 17:35 OP:mh   STATUS:               ID:20160410071748     3
 OLDACT:REG 16-04-10 12:51 OP:mh   STATUS:               ID:20160410071748     3
 2016-04-10-0717-48M.COL___279                                                 6
 STAT SP IPHASW D HRMM SECON CODA AMPLIT PERI AZIMU VELO AIN AR TRES W  DIS CAZ7
 BAR2 EZ IP     D  720 33.12                             169    0.1410 25.7 189 
 BAR2 EZ I         720 48.86       137.2 0.14            171           25.7 189 
 PAM  EZ IP     D  720 35.97                             150    0.4810 75.6  41 
 PAM  EN ES        720 52.82                             150    0.5610 75.6  41 
 PAM  EZ I         720 55.08       175.2 0.68            152           75.6  41 
 RUS  HZ EP        720 37.04                             142   -0.3210  103 176 
 RUS  HN ES        720 55.34                             142   -0.2510  103 176 
 RUS  HZ I         720 56.39        92.1 0.32            145            103 176 
 PTB  HZ EP        720 39.72                             131   -0.80 9  148 258 
 PTB  HN ES        721  0.80                             131   -0.42 9  148 258 
 PTB  HZ I         721  2.76        81.2 0.14            131            148 258 
 TAM  HZ IP     D  720 41.45                             129    0.15 9  156 106 
 TAM  HN ES        721  2.63                             129    0.04 9  156 106 
 TAM  HZ I         721  3.88        34.9 0.30            133            156 106 
 OCA  HZ EP     C  720 41.32                             129   -0.31 9  158 353 
 OCA  HN ES        721  3.17                             129   -0.01 9  158 353 
 OCA  HZ I         721  9.51       129.9 0.38            129            158 353 
 SPBC HZ EP        720 41.91                             127   -0.32 9  165 218 
 SPBC HN ES        721  4.29                             127    0.04 9  165 218 
 ZAR  HZ EP        720 45.96                             121    0.00 9  203 292 
 ZAR  HN ES        721 11.16                             121    0.27 9  203 292 
 ZAR  HZ I         721 17.34       115.2 0.44            122            203 292 
 NOR  HZ EP        720 49.49                             117   -0.04 8  236 234 
 NOR  HE ES        721 17.13                             117   -0.12 8  236 234 
 NOR  HZ I         721 20.31        34.9 0.18            118            236 234 
 CHI  HZ EP        720 51.39                             116   -0.24 8  251 195 
 CHI  HN ES        721 20.65                             116   -0.34 8  251 195 
 CHI  HZ I         721 26.01        22.7 0.36            118            251 195 
 ROSC BZ EP        720 52.95                             115    0.93 8  255 211 
 ROSC BN ES   4    721 23.96                             115    2.27 0  255 211 
 ROSC BZ I         721 28.97        46.3 0.30            117            255 211 
 HEL  HZ EP        720 54.05                             113    0.08 8  273 255 
 HEL  HN ES        721 24.41                             113   -0.73 8  273 255 
 HEL  HZ I         721 31.23        25.6 0.64            115            273 255 
 URE  HZ EP   4    720 53.41                             112   -1.26 0  283 291 
 URE  HE ES   4    721 25.11                             112   -1.28 0  283 291 
 URE  HZ I         721 35.46       106.2 0.05            113            283 291 
 GUY2CHZ EP        720 58.29                             111    0.81 7  302 234 
 GUY2CHN ES   4    721 32.10                             111    0.69 0  302 234 
 GUY2CHZ I         721 37.65        38.2 0.30                           302 234 
 VIL  SZ EP        720 56.90                             111   -0.52 7  306 191 
 VIL  SN ES        721 31.37                             111    0.08 7  306 191 
 PTGC HZ EP   4    720 56.00                             110   -1.86 0  311 159 
 PTGC HN ES   4    721 29.59                             110   -2.49 0  311 159 
 PTGC HZ I         721 31.69        28.0 0.44            112            311 159 
 LL6C HZ EP   4    720 57.59                             109   -1.58 0  322 358 
 LL6C HN ES   4    721 33.15                             109   -1.26 0  322 358 
 LL6C HZ I         721 40.97        11.2 0.34            111            322 358 
 CBOC HZ EP        721  1.11                             109    0.37 7  334 252 
 CBOC HN ES        721 37.71                             109    0.51 7  334 252 
 CBOC HZ I         721 47.39         9.0 0.60            110            334 252 
 SDV  BZ EP        721  2.81                             107   -0.84 6  359  50 
 SDV  BN ES   4    721 40.30                             107   -2.09 0  359  50 
 SDV  BZ I         721 44.19        11.3 0.50            109            359  50 
 ANIL HZ EP        721  4.44                             107    0.67 6  359 224 
 ANIL HN ES        721 42.65                             107    0.06 6  359 224 
 ANIL HZ I         721 50.03        69.5 0.26            109            359 224 
 ORTC HZ EP        721  7.77                             105   -0.17 6  397 216 
 ORTC HN ES        721 51.19                             105    1.17 6  397 216 
 ORTC HZ I         721 55.69        18.8 0.26            107            397 216 
 PAL  HZ EP   4    721  9.04                             105   -0.06 0  407 239 
 PAL  HN ES   4    721 51.62                             105   -0.46 0  407 239 
 SJC  HZ EP   4    721  7.22                             105   -1.90 0  407 327 
 SJC  HN ES   4    721 48.48                             105   -3.64 0  407 327 
 SJC  HZ I         721 52.89         9.4 0.56            106            407 327 
                                                                                
