 2012  310 0242  4.9 L   6.086 -73.889 32.1  RSN  7 0.4 1.6LRSN                1
 GAP=128        0.90       3.2     2.8  7.0  0.3595E+00  0.8310E+01  0.4433E+00E
 ACTION:UP  12-03-31 23:18 OP:EP   STATUS:               ID:20120310024204 L   I
 2012-03-10-0240-00M.COL___193                                                 6
 STAT SP IPHASW D HRMM SECON CODA AMPLIT PERI AZIMU VELO SNR AR TRES W  DIS CAZ7
 PTB  HZ EP   1    242 17.53                              94    -0.3 7   80 309 
 PTB  HN ES   1    242 27.63                              94    -0.3 7   80 309 
 PTB  HZ I         242 28.52        22.8 0.14                            80 309 
 RUS  HZ EP   1    242 19.64                              92    -0.2 7   92 103 
 RUS  HN ES   1    242 31.08                              92    -0.4 7   92 103 
 BRR  HZ EP   1    242 22.38                              61     0.3 7  115  10 
 BRR  HN ES   1    242 36.14                              61     0.6 7  115  10 
 BRR  HZ I         242 37.99         8.8 0.11                           115  10 
 HEL  HZ EP   1    242 31.42                              61     0.5 7  182 274 
 HEL  HN ES   1    242 50.80                              61    -0.5 7  182 274 
 HEL  HZ I         242 52.65         7.0 0.21                           182 274 
 ZAR  HN ES   1    242 51.62                              61    -0.5 7  189 326 
 ZAR  HZ I         242 52.90         4.2 0.18                           189 326 
 GUY  SZ EP   1    242 32.70                              61     0.4 7  192 240 
 GUY  SN ES   1    242 54.23                              61     0.5 7  192 240 
 GUY  SZ I         242 55.71        11.4 0.37                           192 240 
 RREF HZ EP   1    242 34.97                              61     0.4 6  208 231 
 RREF HN ES   1    242 57.59                              61    -0.1 6  208 231 
                                                                                
