 2012 1210 0337 26.3 L   6.695 -73.162151.8  RSN  4 0.2 1.3LRSN                1
 GAP=239        0.44       8.3     4.7  5.9  0.2566E+02  0.6038E+01  0.6852E+01E
 Epicentro: VILLANUEVA - SANTANDER                                             3
 ACTION:UPD 13-01-04 14:26 OP:ep   STATUS:               ID:20121210033726 L   I
 2012-12-10-0330-00M.COL___242                                                 6
 STAT SP IPHASW D HRMM SECON CODA AMPLIT PERI AZIMU VELO AIN AR TRES W  DIS CAZ7
 BAR2 SZ EP   1    337 46.29                             175   -0.21 7 11.6 191 
 BAR2 SZ ES   1    338  2.27                             175    0.02 7 11.6 191 
 BAR2 SZ I         338  6.35         3.9 0.26                          11.6 191 
 RUS  HZ EP   1    337 50.18                             148    0.28 7 89.2 174 
 RUS  HN I         338  9.58         1.7 0.32                          89.2 174 
 PTB  HZ EP   1    337 53.30                             134   -0.17 7  144 263 
 PTB  HE ES   1    338 14.55                             134   -0.09 7  144 263 
 PTB  HZ I         338 20.02         2.2 0.17                           144 263 
 ZAR  HN ES   1    338 25.53                             123    0.21 6  207 295 
 ZAR  HZ I         338 31.50         3.2 0.34                           207 295 
                                                                                
