 2012 1210 0137 36.0 L   6.800 -73.165146.0  RSN 11 0.4 1.9LRSN                1
 GAP= 70        0.67       2.4     3.5  4.6 -0.7916E-01  0.3065E+01  0.1031E+01E
 Epicentro: LOS SANTOS - SANTANDER                                             3
 ACTION:UPD 13-01-04 14:26 OP:ep   STATUS:               ID:20121210013736 L   I
 2012-12-10-0130-00M.COL___242                                                 6
 STAT SP IPHASW D HRMM SECON CODA AMPLIT PERI AZIMU VELO AIN AR TRES W  DIS CAZ7
 BAR2 SZ EP   1    137 55.57                             171   -0.05 7 23.0 185 
 BAR2 SZ ES   1    138 10.75                             171   -0.20 7 23.0 185 
 BAR2 SZ I         138 13.07        28.6 0.18                          23.0 185 
 GIR2 SZ EP   1    137 55.86                             167    0.20 7 31.0 354 
 GIR2 SZ ES   1    138 11.81                             167    0.79 7 31.0 354 
 GIR2 SZ I         138 12.92        14.4 0.36                          31.0 354 
 PAM  SZ EP   1    137 58.41                             151    0.12 7 78.7  41 
 PAM  SE ES   1    138 15.58                             151   -0.12 7 78.7  41 
 PAM  SZ I         138 17.85        27.6 0.56                          78.7  41 
 RUS  HZ EP   1    137 59.52                             144   -0.23 7  101 175 
 RUS  HE ES   1    138 18.41                             144    0.10 7  101 175 
 RUS  HZ I         138 20.83         8.0 0.46                           101 175 
 PTB  HZ EP   1    138  2.44                             133   -0.33 7  146 259 
 PTB  HN ES   1    138 23.26                             133   -0.41 7  146 259 
 PTB  HZ I         138 26.55        10.4 0.14                           146 259 
 TAM  HZ EP   1    138  3.69                             130   -0.16 7  157 105 
 OCA  HZ EP   1    138  3.94                             130   -0.34 7  160 354 
 OCA  HN ES   1    138 25.72                             130   -0.64 7  160 354 
 OCA  HZ I         138 29.16        11.8 0.18                           160 354 
 ZAR  HZ EP   4    138  9.28                             123    1.05 0  202 292 
 ZAR  HN ES   1    138 33.68                             123    0.29 6  202 292 
 SML  HZ EP   1    138 12.84                             118    0.32 6  243 336 
 SML  HE ES   1    138 41.40                             118    0.38 6  243 336 
 CHI  HZ EP   1    138 13.76                             117    0.14 6  248 195 
 CHI  HN ES   1    138 43.11                             117    0.12 6  248 195 
 CHI  HZ I         138 48.37         2.9 0.28                           248 195 
 RREF HN ES   4    139  1.34                             111    3.55 0  320 229 
 MON  HN ES   4    139  1.47                             109   -1.40 0  352 309 
 PRA  HZ EP   1    138 30.26                             107    0.88 4  391 209 
 PRA  HN ES   1    139 10.67                             107   -0.36 4  391 209 
 PRA  HZ I         139 14.10         3.8 0.28                           391 209 
                                                                                
