 2017 1210 0529 59.2 L   6.804 -73.138148.3  RSN 12 0.4 1.6LRSN                1
 GAP=112        0.84       2.1     3.2  4.7 -0.3192E+00  0.2900E+01  0.5235E+00E
 Epicentro: LOS SANTOS - SANTANDER                                             3
 ACTION:UPD 18-01-04 13:18 OP:rebc STATUS:               ID:20171210052959 L   I
 OLDACT:DUP 17-12-10 16:39 OP:lv   STATUS:               ID:20171210052741d    3
 2017-12-10-0528-00M.COL___481                                                 6
 STAT SP IPHASW D HRMM SECON CODA AMPLIT PERI AZIMU VELO AIN AR TRES W  DIS CAZ7
 BAR2 EZ EP        530 19.10                             170    0.0010 24.0 192 
 BAR2 EZ ES        530 34.43                             170   -0.2310 24.0 192 
 BAR2 EZ I         530 37.67         7.7 0.62            168           24.0 192 
 PAM  EZ EP        530 21.62                             152    0.0310 76.4  39 
 PAM  EN ES        530 39.07                             152   -0.0110 76.4  39 
 PAM  EZ I         530 40.80         6.4 0.60            156           76.4  39 
 PTB  HZ EP        530 25.90                             132   -0.52 9  149 259 
 PTB  HN ES        530 47.51                             132   -0.17 9  149 259 
 PTB  HZ I         530 50.34         3.7 0.22            133            149 259 
 OCA  HZ EP        530 27.01                             130   -0.62 9  160 353 
 OCA  HN ES        530 50.05                             130    0.21 9  160 353 
 SPBC HZ EP        530 28.11                             129    0.17 9  164 219 
 SPBC HN ES        530 51.01                             129    0.62 9  164 219 
 SPBC HZ I         530 56.84         7.8 0.24            130            164 219 
 YPLC HZ EP        530 29.21                             127    0.07 9  177 152 
 YPLC HN ES        530 52.39                             127   -0.13 9  177 152 
 YPLC HZ I         530 54.73         3.9 0.26            129            177 152 
 ZAR  HZ EP        530 31.65                             123   -0.18 9  205 292 
 ZAR  HN ES        530 57.12                             123   -0.20 9  205 292 
 ZAR  HZ I         530 59.96         3.6 0.16            125            205 292 
 CHI  HZ EP        530 37.19                             118    0.12 8  249 195 
 CHI  HE ES        531  7.03                             118    0.39 8  249 195 
 CHI  HZ I         531 13.13         1.0 0.38            119            249 195 
 URE  HN ES   4    531 11.44                             114   -1.16 0  284 292 
 DRL03HZ EP        530 40.81                             114   -0.03 7  289 353 
 DRL03HN ES        531 14.44                             114    1.08 7  289 353 
 GUY2CHZ EP   4    530 44.36                             113    1.37 0  302 235 
 GUY2CHE ES   4    531 19.77                             113    2.58 0  302 235 
 GUY2CHZ I         531 25.82         2.3 0.28                           302 235 
 PTGC HZ EP   9    530 41.97                             112   -1.17 0  309 159 
 PTGC HN ES        531 15.90                                   -0.38 7  309 159 
 PRA  HZ EP        530 52.51                             107   -0.35 6  393 210 
 PRA  HN ES        531 34.90                             107    0.14 6  393 210 
 PRA  HZ I         531 39.16         1.1 0.32            108            393 210 
                                                                                
