 2017  910 0058 17.7 L   5.910 -74.055 87.2  RSN  6 0.4 1.3LRSN                1
 GAP= 95        0.87       4.2     2.7  6.7 -0.4143E+01  0.5355E+01 -0.1207E+02E
 Epicentro: LA BELLEZA - SANTANDER                                             3
 ACTION:UPD 17-10-05 19:10 OP:rebc STATUS:               ID:20170910005817 L   I
 OLDACT:DUP 17-09-10 14:11 OP:dhb  STATUS:               ID:20170910004737d    3
 2017-09-10-0048-00M.COL___410                                                 6
 STAT SP IPHASW D HRMM SECON CODA AMPLIT PERI AZIMU VELO AIN AR TRES W  DIS CAZ7
 SPBC HZ IP     D  058 30.37                             160    0.1010 28.6 184 
 SPBC HN ES        058 40.27                             160    0.1610 28.6 184 
 SPBC HZ I         058 41.88        11.8 0.18            165           28.6 184 
 NOR  HZ IP     D  058 35.07                             128   -0.3510 98.0 247 
 NOR  HE ES        058 48.72                             128   -0.5510 98.0 247 
 NOR  HZ I         058 50.34        10.2 0.22            130           98.0 247 
 RUS  HZ EP        058 36.85                             125   -0.1010  108  91 
 RUS  HE ES        058 52.24                             125    0.2510  108  91 
 RUS  HZ I         059  0.13         1.6 0.24            124            108  91 
 BRR  HZ EP        058 39.27                             118   -0.21 9  138  16 
 BRR  HZ I         058 47.12         6.3 0.45            116            138  16 
 BRR  HE ES        058 56.30                             118   -0.20 9  138  16 
 GUY2CHZ EP        058 42.86                             113   -0.14 9  164 242 
 GUY2CHE ES   3    059  4.15                             113    1.38 2  164 242 
 GUY2CHZ I         059  6.98         3.2 0.24                           164 242 
 HEL  HZ EP        058 43.77                             113    0.64 9  166 281 
 HEL  HE ES        059  3.46                             113    0.46 9  166 281 
 HEL  HZ I         059  7.47         3.2 0.22            114            166 281 
                                                                                
