 2016  210 0103 34.8 L   6.849 -73.129149.5  RSN 29 0.5 2.8LRSN                1
 GAP= 70        1.15       2.3     2.8  5.0 -0.8613E+00  0.4202E+01 -0.2616E+00E
 Epicentro: LOS SANTOS - SANTANDER                                             3
 ACTION:UPD 16-03-04 21:24 OP:rebc STATUS:               ID:20160210010334 L   I
 OLDACT:REG 16-02-10 13:36 OP:ak   STATUS:               ID:20160210005749     3
 2016-02-10-0057-49M.COL___319                                                 6
 STAT SP IPHASW D HRMM SECON CODA AMPLIT PERI AZIMU VELO AIN AR TRES W  DIS CAZ7
 BAR2 EZ IP     D  1 3 55.05                             169    0.0810 29.0 192 
 BAR2 EZ ES        1 4 10.52                             169   -0.2110 29.0 192 
 BAR2 EZ I         1 4 12.55        91.8 0.22            169           29.0 192 
 PAM  EZ EP        1 3 58.02                             153    0.9410 72.0  41 
 PAM  EN ES        1 4 15.16                             153    0.6810 72.0  41 
 PAM  EZ I         1 4 17.35       124.7 0.56            153           72.0  41 
 RUS  HZ EP        1 3 58.90                             143   -0.3710  106 177 
 RUS  HN ES        1 4 18.09                             143   -0.2910  106 177 
 PTB  HZ EP        1 4  1.40                             132   -0.91 9  151 257 
 PTB  HN ES        1 4 23.23                             132   -0.56 9  151 257 
 PTB  HZ I         1 4 30.56       135.3 0.44            131            151 257 
 OCA  HZ EP        1 4  3.26                             131    0.36 9  155 352 
 OCA  HN ES        1 4 24.42                             131   -0.41 9  155 352 
 OCA  HZ I         1 4 34.13       108.8 0.40            130            155 352 
 TAM  HZ IP     D  1 4  3.18                             131    0.46 9  155 107 
 TAM  HZ I         1 4 24.08        37.5 0.30            133            155 107 
 TAM  HE ES        1 4 24.25                             131   -0.27 9  155 107 
 SPBC HZ EP        1 4  3.95                             129   -0.12 9  169 218 
 SPBC HN ES        1 4 26.73                             129   -0.18 9  169 218 
 SPBC HZ I         1 4 29.52        80.1 0.14            128            169 218 
 ZAR  HZ EP        1 4  7.66                             123    0.23 9  204 291 
 ZAR  HN ES        1 4 33.55                             123    0.64 9  204 291 
 ZAR  HZ I         1 4 38.87        65.3 0.30            122            204 291 
 NOR  HZ EP        1 4 10.78                             119   -0.44 8  239 234 
 NOR  HN ES        1 4 39.46                             119   -0.19 8  239 234 
 NOR  HZ I         1 4 42.76        30.4 0.18            118            239 234 
 SML  HZ EP        1 4 11.29                             119    0.13 8  240 334 
 SML  HN ES        1 4 40.23                             119    0.68 8  240 334 
 SML  HZ I         1 4 44.93        86.2 0.05            117            240 334 
 CHI  HZ EP        1 4 13.11                             117   -0.19 8  254 195 
 CHI  HN ES        1 4 42.58                             117   -0.77 8  254 195 
 CHI  HZ I         1 4 47.57        21.2 0.48            117            254 195 
 ROSC BZ EP        1 4 14.78                             117    1.08 8  258 211 
 ROSC BN ES        1 4 44.36                             117    0.29 8  258 211 
 ROSC BZ I         1 4 48.46        36.9 0.40            117            258 211 
 HEL  HZ EP   2    1 4 15.96                             115    0.44 4  275 255 
 HEL  HN ES        1 4 46.84                             115   -0.47 8  275 255 
 HEL  HZ I         1 4 53.36        38.4 0.38            114            275 255 
 URE  HZ EP        1 4 15.09                             114   -0.90 7  284 291 
 URE  HN ES   1    1 4 47.66                             114   -0.49 6  284 291 
 URE  HZ I         1 4 59.39        36.9 0.24            113            284 291 
 GUY2CHZ EP        1 4 20.01                             113    0.93 7  306 234 
 GUY2CHN ES        1 4 54.04                             113    0.40 7  306 234 
 GUY2CHZ I         1 5  0.06        32.9 0.34                           306 234 
 VIL  SZ EP        1 4 18.94                             112   -0.06 7  309 192 
 VIL  SN ES        1 4 53.88                             112    0.38 7  309 192 
 PTGC HZ EP   4    1 4 17.88                             112   -1.41 0  313 159 
 PTGC HN ES   4    1 4 51.18                             112   -2.84 0  313 159 
 PTGC HZ I         1 4 53.87        34.8 0.36            112            313 159 
 LL6C HZ EP        1 4 19.64                             111   -0.38 7  320 357 
 LL6C HE ES        1 4 54.74                             111   -0.58 7  320 357 
 LL6C HZ I         1 5  5.00        13.5 0.74            111            320 357 
 ELA  HZ EP   4    1 4 23.75                             111    1.40 0  334 229 
 ELA  HN ES        1 4 59.47                             111    0.02 7  334 229 
 ELA  HZ I         1 5  7.50        21.1 0.32            110            334 229 
 CBOC HZ EP        1 4 22.90                             110    0.66 7  337 251 
 CBOC HN ES        1 4 59.90                             110    0.64 7  337 251 
 CBOC HZ I         1 5 15.42         9.5 0.56            110            337 251 
 DBB  SZ EP        1 4 22.31                             110   -0.26 7  341 273 
 DBB  SZ ES        1 5  0.45                             110    0.60 7  341 273 
 DBB  SZ I         1 5 18.22        71.0 0.50            109            341 273 
 MON  HZ EP   4    1 4 22.34                             109   -1.36 0  352 308 
 MON  HN ES        1 5  0.93                             109   -0.94 6  352 308 
 MON  HZ I         1 5 20.14        10.5 0.50            108            352 308 
 ANIL HZ EP        1 4 26.20                             109    0.88 6  363 224 
 ANIL HN ES        1 5  4.76                             109    0.02 6  363 224 
 ANIL HZ I         1 5 15.07        45.8 0.34            108            363 224 
 ORTC HZ EP        1 4 28.97                             107   -0.49 6  401 216 
 ORTC HN ES        1 5 12.19                             107    0.07 6  401 216 
 ORTC HZ I         1 5 18.74        17.1 0.70            106            401 216 
 ELOV BZ EP        1 4 28.78                             106   -0.89 6  403  87 
 ELOV BE ES   4    1 5 10.57                             106   -1.92 0  403  87 
 SJC  HZ EP        1 4 29.17                             106   -0.87 6  406 326 
 SJC  HN ES   4    1 5 10.53                             106   -2.63 0  406 326 
 SJC  HZ I         1 5 15.13        16.6 0.44            106            406 326 
 PAL  HZ EP        1 4 30.55                             106   -0.02 6  410 239 
 PAL  HN ES   4    1 5 12.22                             106   -1.87 0  410 239 
 PAL  HZ I         1 5 25.57         8.7 0.48            106            410 239 
 CRJC HZ EP   4    1 4 35.35                             104   -1.37 0  462   3 
 CRJC HE ES   4    1 5 21.02                             104   -4.02 0  462   3 
 CRJC HZ I         1 5 27.45        13.3 0.18            104            462   3 
 SMAR HZ EP        1 4 40.38                             103    0.21 4  492 346 
 SMAR HN ES   4    1 5 27.37                             103   -3.80 0  492 346 
 SMAR HZ I         1 5 29.27        11.2 0.44            103            492 346 
                                                                                
