 2014  310 0935 58.0 L   6.798 -73.145144.9  RSN 10 0.4 1.9LRSN                1
 GAP=137        0.88       3.0     4.5  6.5 -0.3859E+01  0.1127E+02 -0.6888E+00E
 Epicentro: LOS SANTOS - SANTANDER                                             3
 ACTION:UPD 14-04-09 23:15 OP:nd   STATUS:               ID:20140310093558 L   I
 OLDACT:REG 14-03-10 08:33 OP:y    STATUS:               ID:20140310092939     3
 2014-03-10-0929-39M.COL___208                                                 6
 STAT SP IPHASW D HRMM SECON CODA AMPLIT PERI AZIMU VELO AIN AR TRES W  DIS CAZ7
 BAR2 SZ EP   1    936 17.65                             170    0.15 7 23.1 190 
 BAR2 SZ ES   1    936 33.08                             170    0.35 7 23.1 190 
 BAR2 SZ I         936 35.65        22.9 0.25            167           23.1 190 
 PAM  SZ EP        936 20.47                             151    0.3610 77.5  39 
 PAM  SN ES        936 37.66                             151    0.2910 77.5  39 
 PAM  SZ I         936 39.80       234.1 0.22            157           77.5  39 
 RUS  HZ EP   1    936 21.59                             144   -0.04 7  100 176 
 RUS  HN ES        936 39.65                             144   -0.4310  100 176 
 RUS  HZ I         936 41.35         3.9 0.20            145            100 176 
 PTB  HZ EP   1    936 24.29                             132   -0.59 7  148 259 
 PTB  HN ES   1    936 45.37                             132   -0.49 7  148 259 
 PTB  HZ I         936 52.95         9.2 0.26            131            148 259 
 OCA  HZ EP   1    936 25.98                             129   -0.27 7  160 353 
 OCA  HN ES        936 47.63                             129   -0.66 9  160 353 
 SPBC HZ EP   1    936 26.60                             129    0.20 7  163 219 
 SPBC HN ES        936 48.92                             129    0.35 9  163 219 
 SPBC HZ I         936 51.89         8.2 0.30            129            163 219 
 ZAR  HZ EP   1    936 31.41                             122    1.02 6  204 292 
 ZAR  HE ES   1    936 56.10                             122    0.44 6  204 292 
 ZAR  HZ I         937  1.93         7.0 0.23            123            204 292 
 NOR  HZ EP        936 33.36                             118   -0.29 8  235 235 
 NOR  HN ES   1    937  1.51                             118    0.03 6  235 235 
 NOR  HZ I         937  6.98         4.2 0.30            119            235 235 
 CHI  HZ EP   1    936 35.56                             117   -0.05 6  248 195 
 CHI  HN ES   1    937  4.79                             117   -0.17 6  248 195 
 CHI  HZ I         937 14.86         3.0 0.31            119            248 195 
 HEL  HZ EP   4    936 39.87                             115    1.72 0  272 256 
 HEL  HN ES   4    937  7.86                             115   -1.63 0  272 256 
 HEL  HZ I         937 18.29         3.0 0.30            115            272 256 
 URE  HN ES   4    937 14.72                             113    3.68 0  284 292 
 SDV  BZ EP   4    937  4.80                             108   16.80 0  360  50 
 SJC  HZ EP   4    936 51.86                             105   -1.68 0  409 327 
 SJC  HN ES   4    937 33.10                             105   -3.78 0  409 327 
                                                                                
