 2017  410 0732 59.8 L   6.547 -73.568113.7  RSN  8 0.4 1.4LRSN                1
 GAP= 66        0.98       3.3     3.8  6.4  0.1426E+01  0.2878E+01  0.1055E+01E
 Epicentro: EL CARMEN - SANTANDER                                              3
 ACTION:UPD 17-05-30 21:10 OP:jn   STATUS:               ID:20170410073259 L   I
 OLDACT:UP  17-04-10 16:47 OP:dani STATUS:               ID:20170410072745     3
 OLDACT:UP  17-04-10 16:44 OP:dani STATUS:               ID:20170410072745     3
 OLDACT:UP  17-04-10 16:44 OP:dani STATUS:               ID:20170410072745     3
 OLDACT:UP  17-04-10 16:42 OP:dani STATUS:               ID:20170410072745     3
 OLDACT:REG 17-04-10 13:19 OP:edw  STATUS:               ID:20170410072745     3
 2017-04-10-0728-00M.COL___368                                                 6
 STAT SP IPHASW D HRMM SECON CODA AMPLIT PERI AZIMU VELO AIN AR TRES W  DIS CAZ7
 BAR2 EZ EP        733 16.46                             158    0.1610 43.0  83 
 BAR2 EZ ES        733 28.90                             158   -0.2710 43.0  83 
 BRR  HZ EP        733 17.33                             149    0.2210 64.0 346 
 BRR  HN ES        733 31.24                             149    0.6310 64.0 346 
 BRR  HZ I         733 31.75         2.9 0.12            148           64.0 346 
 RUS  HZ EP        733 19.35                             139   -0.3410 90.1 143 
 RUS  HN ES        733 35.08                             139   -0.1310 90.1 143 
 RUS  HZ I         733 36.40         2.1 0.19            140           90.1 143 
 PTB  HZ EP     D  733 19.20                             136   -0.5010 98.2 270 
 PTB  HN ES   3    733 34.28                             136   -0.95 2 98.2 270 
 PTB  HZ I         733 35.29         6.2 0.30            136           98.2 270 
 SPBC HN ES        733 37.83                             132    0.0210  114 209 
 PAM  EZ EP        733 22.85                             128   -0.3810  130  48 
 PAM  EN ES        733 41.08                             128   -0.4310  130  48 
 PAM  EZ I         733 42.56         4.6 0.26            128            130  48 
 ZAR  HZ EP        733 27.82                             118    0.43 9  177 306 
 ZAR  HE ES   4    733 52.32                             118    3.40 0  177 306 
 ZAR  HZ I         733 53.04         4.5 0.50            118            177 306 
 YPLC HZ EP        733 28.32                             117    0.17 9  183 134 
 YPLC HN ES        733 50.96                             117    0.69 9  183 134 
 YPLC HZ I         733 51.53         5.6 0.24            118            183 134 
                                                                                
