 2017 1110 0515 21.2 L   6.726 -73.146136.6  RSN  7 0.4 1.3LRSN                1
 GAP=140        0.98       4.0     4.1  7.2 -0.1010E+01  0.5803E+01 -0.4713E+00E
 Epicentro: JORDAN - SANTANDER                                                 3
 ACTION:UPD 17-12-12 19:54 OP:rebc STATUS:               ID:20171110051521 L   I
 OLDACT:UP  17-11-10 16:18 OP:dnl  STATUS:               ID:20171110050733     3
 OLDACT:REG 17-11-10 15:02 OP:dnl  STATUS:               ID:20171110050733     3
 2017-11-10-0508-00M.COL___438                                                 6
 STAT SP IPHASW D HRMM SECON CODA AMPLIT PERI AZIMU VELO AIN AR TRES W  DIS CAZ7
 BAR2 EZ EP        515 39.52                             173   -0.0210 15.3 195 
 BAR2 EZ ES        515 53.59                             173   -0.2910 15.3 195 
 BAR2 EZ I         515 54.60         5.1 0.44            173           15.3 195 
 BRR  HZ EP        515 41.64                             149    0.0610 75.5 304 
 BRR  HE ES        515 58.27                             149    0.7610 75.5 304 
 BRR  HZ I         516  1.07         5.6 0.60            148           75.5 304 
 PAM  EZ EP        515 42.73                             147   -0.0910 83.9  36 
 PAM  EN ES        515 59.52                             147   -0.2010 83.9  36 
 PAM  EZ I         516  2.50         2.4 0.32            149           83.9  36 
 RUS  HZ EP        515 43.68                             144    0.2610 92.4 176 
 RUS  HN ES        516  0.76                             144   -0.0210 92.4 176 
 RUS  HZ I         516  2.39         2.1 0.48            147           92.4 176 
 PTB  HZ EP   2    515 46.78                             130   -0.48 5  146 262 
 PTB  HN ES        516  6.70                             130   -0.93 9  146 262 
 PTB  HZ I         516 11.47         1.7 0.16            130            146 262 
 SPBC HZ EP   2    515 48.54                             128    0.18 5  157 221 
 SPBC HN ES        516  9.97                             128    0.39 9  157 221 
 SPBC HZ I         516 12.76         2.0 0.26            129            157 221 
 ZAR  HZ EP   2    515 52.87                             120   -0.49 4  207 294 
 ZAR  HN ES        516 18.71                             120    0.23 8  207 294 
 ZAR  HZ I         516 23.94         3.5 0.58            120            207 294 
                                                                                
