 2017  810 0415 33.1 L   6.720 -73.200146.4  RSN  5 0.3 1.2LRSN                1
 GAP=225        0.78       4.3     5.5  6.2  0.1044E+02  0.7513E+01  0.3431E+01E
 Epicentro: VILLANUEVA - SANTANDER                                             3
 ACTION:UPD 17-09-04 20:18 OP:rebc STATUS:               ID:20170810041533 L   I
 OLDACT:REG 17-08-10 12:17 OP:dhb  STATUS:               ID:20170810040739     3
 2017-08-10-0408-00M.COL___396                                                 6
 STAT SP IPHASW D HRMM SECON CODA AMPLIT PERI AZIMU VELO AIN AR TRES W  DIS CAZ7
 BAR2 EZ EP        415 52.93                             174    0.2410 14.3 172 
 BAR2 EZ ES        416  7.58                             174   -0.3710 14.3 172 
 BAR2 EZ I         416 10.05         2.7 0.06            170           14.3 172 
 BRR  HZ EP        415 54.74                             153    0.4010 70.9 307 
 BRR  HN ES        416 11.03                             153    0.1610 70.9 307 
 BRR  HZ I         416 13.94         4.1 0.52            150           70.9 307 
 RUS  HZ EP        415 55.95                             146   -0.4310 92.4 172 
 RUS  HN ES        416 14.69                             146    0.1810 92.4 172 
 RUS  HZ I         416 16.17         2.1 0.19            147           92.4 172 
 SPBC HZ EP        416  0.59                             131   -0.10 9  152 219 
 SPBC HE ES        416 22.37                             131    0.19 9  152 219 
 SPBC HZ I         416 27.65         2.4 0.18            130            152 219 
 ZAR  HE ES        416 30.24                             123   -0.35 9  202 295 
 ZAR  HZ I         416 35.80         1.5 0.18            123            202 295 
                                                                                
