 2012  710 0934 21.9 L   6.847 -73.147130.9  RSN  6 0.4 1.5LRSN                1
 GAP=183        1.00       5.7     6.7 11.3  0.6904E+01  0.1915E+02 -0.1512E+02E
 Epicentro: LOS SANTOS - SANTANDER                                             3
 ACTION:UPD 12-08-14 11:44 OP:ep   STATUS:               ID:20120710093421 L   I
 2012-07-10-0930-00M.COL___201                                                 6
 STAT SP IPHASW D HRMM SECON CODA AMPLIT PERI AZIMU VELO AIN AR TRES W  DIS CAZ7
 BAR2 SZ EP   1    934 39.73                             167    -0.1 8   28 188 
 BAR2 SZ ES   1    934 53.60                             167    -0.2 8   28 188 
 BAR2 SZ I         934 56.29         8.5 0.22            168             28 188 
 BRR  HZ EP   1    934 42.09                             151     0.8 8   69 295 
 BRR  HZ I         934 45.32        11.9 0.16            151             69 295 
 RUS  HZ EP   1    934 44.36                             139    -0.2 8  106 176 
 RUS  HN ES   1    935  2.77                             139     0.5 8  106 176 
 RUS  HZ I         935  4.31         3.2 0.24            141            106 176 
 PTB  HZ EP   1    934 47.33                             128    -0.4 7  149 257 
 PTB  HN ES        935  7.59                             128    -0.310  149 257 
 PTB  HZ I         935 10.64         2.1 0.09            129            149 257 
 OCA  HN ES   1    935  9.09                             127    -0.3 7  155 353 
 ZAR  HZ EP   1    934 53.10                             119    -0.1 7  202 291 
 ZAR  HN ES   1    935 18.14                             119     0.6 7  202 291 
 ZAR  HZ I         935 20.80         3.4 0.14            120            202 291 
