 2012  210 0700  1.9 L   6.537 -73.708104.2  RSN  7 0.4 1.3LRSN                1
 GAP=134        0.61       4.6     3.7  7.7  0.2950E+01  0.3860E+01  0.5857E+01E
 ACTION:UP  12-03-07 16:29 OP:epov STATUS:               ID:20120210070002dL   I
 2012-02-10-0700-00M.COL___188                                                 6
 STAT SP IPHASW D HRMM SECON CODA AMPLIT PERI AZIMU VELO AIN AR TRES W  DIS CAZ7
 BAR2 SZ EP   1    7 0 18.46                             149    0.21 7 58.4  84 
 BAR2 SZ ES   1    7 0 31.26                             149    0.28 7 58.4  84 
 BAR2 SZ I         7 0 32.70        11.3 0.23                          58.4  84 
 BRR  HN ES   2    7 0 31.04                             146    0.13 5 63.1 360 
 GIR2 SZ EP   2    7 0 19.78                             139   -0.09 5 82.6  43 
 GIR2 SZ ES   2    7 0 33.40                             139   -0.46 5 82.6  43 
 PTB  HZ EP   2    7 0 19.32                             138   -0.40 5 82.8 270 
 PTB  HE ES   2    7 0 33.15                             138   -0.43 5 82.8 270 
 RUS  HZ EP   1    7 0 22.21                             133    0.44 7 99.3 136 
 RUS  HN ES   2    7 0 36.72                             133   -0.52 5 99.3 136 
 RUS  HZ I         7 0 40.08         2.0 0.17                          99.3 136 
 PAM  SZ EP   2    7 0 25.29                             122   -0.67 5  142  51 
 PAM  SN ES   2    7 0 44.51                             122   -0.18 5  142  51 
 ZAR  HN ES   2    7 0 48.43                             117    0.53 5  165 310 
 ZAR  HZ I         7 0 52.41         3.0 0.23                           165 310 
                                                                                
