 2014 1210 0749 23.0 L   6.821 -73.160143.9  RSN 31 0.5 2.9LRSN                1
 GAP= 70        1.12       2.2     2.7  4.6 -0.5743E+00  0.3283E+01  0.2787E+00E
 Epicentro: LOS SANTOS - SANTANDER                                             3
 ACTION:UPD 15-02-10 17:02 OP:nd   STATUS:               ID:20141210074923 L   I
 OLDACT:REG 14-12-10 13:22 OP:fm   STATUS:               ID:20141210074749     3
 2014-12-10-0747-49M.COL___300                                                 6
 STAT SP IPHASW D HRMM SECON CODA AMPLIT PERI AZIMU VELO AIN AR TRES W  DIS CAZ7
 BAR2 E  EP        749 42.86                             170    0.3910 25.4 185 
 BAR2 E  ES        749 57.75                             170    0.1110 25.4 185 
 BRR  HZ EP     C  749 44.67                             153    0.8510 68.7 298 
 BRR  HN ES        750  0.61                             153    0.5610 68.7 298 
 BRR  HZ I         750  4.22        84.5 0.22            150           68.7 298 
 PAM  SZ IP     C  749 45.56                             151    0.5710 76.7  42 
 PAM  SE ES        750  2.04                             151   -0.0910 76.7  42 
 PAM  SZ I         750  5.09       177.1 0.60            154           76.7  42 
 RUS  HZ EP     D  749 46.75                             143   -0.0110  103 175 
 RUS  HE ES        750  4.66                             143   -0.6210  103 175 
 RUS  HZ I         750  6.71       106.8 0.32            144            103 175 
 PTB  HZ EP        749 49.40                             132   -0.33 9  147 258 
 PTB  HN ES        750 10.07                             132   -0.49 9  147 258 
 PTB  HZ I         750 12.59       122.6 0.46            131            147 258 
 TAM  HZ IP     C  749 51.13                             130    0.38 9  157 106 
 TAM  HE ES        750 12.01                             130   -0.37 9  157 106 
 TAM  HZ I         750 13.42        53.6 0.64            133            157 106 
 OCA  HZ EP        749 50.58                             130   -0.37 9  158 354 
 OCA  HE ES        750 12.69                             130   -0.05 9  158 354 
 OCA  HZ I         750 18.55       124.2 0.28            130            158 354 
 SPBC HZ EP        749 51.74                             128    0.30 9  164 218 
 SPBC HE ES        750 13.78                             128    0.16 9  164 218 
 SPBC HZ I         750 16.61       163.8 0.26            128            164 218 
 ZAR  HZ EP        749 54.99                             122   -0.11 9  202 292 
 ZAR  HN ES        750 20.19                             122    0.07 9  202 292 
 ZAR  HZ I         750 27.46        90.7 0.32            122            202 292 
 NOR  HZ EP        749 59.33                             118    0.69 8  235 234 
 NOR  HE ES        750 25.89                             118   -0.53 8  235 234 
 NOR  HZ I         750 32.07        76.3 0.54            118            235 234 
 SML  HZ EP        749 58.97                             117   -0.27 8  241 335 
 SML  HN ES        750 26.66                             117   -0.83 8  241 335 
 SML  HZ I         750 29.50       128.3 0.26            118            241 335 
 CHI  HZ EP        750  0.82                             116    0.02 8  250 195 
 CHI  HN ES        750 30.02                             116   -0.26 8  250 195 
 CHI  HZ I         750 34.49        33.4 0.42            117            250 195 
 ROSC BZ EP   4    750  2.54                             116    1.38 0  254 210 
 ROSC BE ES        750 31.01                             116    0.10 8  254 210 
 ROSC BZ I         750 37.89        64.3 0.45            116            254 210 
 HEL  HZ EP        750  3.69                             114    0.67 8  271 255 
 HEL  HE ES        750 34.26                             114    0.04 8  271 255 
 HEL  HZ I         750 42.88        60.2 0.44            114            271 255 
 URE  HZ EP   4    750  1.64                             113   -2.09 0  281 292 
 URE  HE ES   4    750 34.28                             113   -1.21 0  281 292 
 URE  HZ I         750 43.51        45.8 0.24            113            281 292 
 GUY2CHZ EP   4    750  7.68                             112    1.14 0  301 234 
 GUY2CHN ES        750 40.87                             112    0.39 7  301 234 
 GUY2CHZ I         750 49.38        48.5 0.34                           301 234 
 VIL  SZ EP        750  5.67                             111   -0.89 7  305 191 
 VIL  SE ES        750 39.77                             111   -0.76 7  305 191 
 VIL  SZ I         750 46.39        44.0 0.46            112            305 191 
 PTGC HZ EP   4    750  5.91                             111   -1.19 0  311 159 
 PTGC HN ES   4    750 37.90                             111   -3.58 0  311 159 
 PTGC HZ I         750 39.33        34.0 0.40            112            311 159 
 RREF HZ EP        750  9.95                             110    0.84 7  322 229 
 RREF HE ES   4    750 46.12                             110    1.06 0  322 229 
 RREF HZ I         750 54.39        40.2 0.28            111            322 229 
 DBB  SZ EP        750 10.64                             109    0.43 7  338 274 
 DBB  SZ ES        750 46.40                             109   -0.62 7  338 274 
 DBB  SZ I         750 51.00        83.6 0.36            109            338 274 
 TOL  SZ EP   4    750 12.40                             109    1.15 0  344 224 
 TOL  SE ES   4    750 45.77                             109   -3.11 0  344 224 
 MON  HZ EP        750 10.21                             108   -1.42 6  351 308 
 MON  HE ES        750 48.67                             108   -0.88 6  351 308 
 MON  HZ I         750 56.58        16.9 0.58            109            351 308 
 ARGC HZ EP        750 13.17                             108    0.88 6  357 340 
 ARGC HE ES        750 51.17                             108    0.45 6  357 340 
 ARGC HZ I         750 59.33        20.8 0.30            109            357 340 
 ANIL HZ EP        750 12.61                             108   -0.19 6  358 224 
 ANIL HN ES        750 51.55                             108   -0.09 6  358 224 
 ANIL HE I         751  6.14        22.3 0.38            108            358 224 
 SDV  BZ EP     D  750 12.37                             108   -0.59 6  360  51 
 SDV  BE ES   4    750 48.26                             108   -3.66 0  360  51 
 SDV  BZ I         750 52.58        18.3 0.35            109            360  51 
 ORTC HZ EP        750 17.13                             106    0.16 6  396 216 
 ORTC HE ES   4    750 57.75                             106   -1.31 0  396 216 
 ORTC HZ I         751  7.04        27.8 0.54            106            396 216 
 PAL  HZ EP        750 18.68                             106    0.59 6  405 239 
 PAL  HE ES        751  1.32                             106    0.28 6  405 239 
 PAL  HZ I         751  7.56        20.7 0.52            106            405 239 
 SJC  HZ EP   4    750 17.02                             105   -1.17 0  406 327 
 SJC  HE ES   4    750 57.98                             105   -3.24 0  406 327 
 SJC  HZ I         751  1.70        24.5 0.36            106            406 327 
 GUA  SZ EP   4    750 24.15                             103   -2.26 0  476 173 
 GUA  SE ES   4    751 12.45                             103   -3.41 0  476 173 
 GUA  SZ I         751 17.26        17.6 0.38            103            476 173 
 GARC HZ EP   4    750 36.40                             100   -1.98 0  574 207 
 GARC HN ES   4    751 29.66                             100   -7.51 0  574 207 
 GARC HZ I         751 43.62         6.8 0.24            100            574 207 
 FLO2 HZ EP   4    750 45.09                              98   -1.18 0  642 206 
 FLO2 HE ES   4    751 46.80                              98   -4.40 0  642 206 
 FLO2 HZ I         751 57.17         2.8 0.50             99            642 206 
 BBAC HZ EP        750 52.56                              97   -0.72 1  698 221 
 BBAC HN ES   4    752  0.43                              97   -3.25 0  698 221 
 BBAC HZ I         752 15.75         2.8 0.28             98            698 221 
                                                                                
