 2013 1210 0805 40.7 L   6.829 -73.129147.9  RSN 12 0.5 2.1LRSN                1
 GAP=137        1.01       3.1     5.5  5.9 -0.1397E+01  0.8777E+01  0.3795E+00E
 Epicentro: LOS SANTOS - SANTANDER                                             3
 ACTION:UPD 14-01-13 10:17 OP:ep   STATUS:               ID:20131210080540 L   I
 OLDACT:REG 13-12-10 07:14 OP:jn   STATUS:               ID:20131210080000     3
 2013-12-10-0800-00M.COL___285                                                 6
 STAT SP IPHASW D HRMM SECON CODA AMPLIT PERI AZIMU VELO AIN AR TRES W  DIS CAZ7
 BAR2 SZ EP        8 6  0.89                             169    0.2310 26.8 193 
 BAR2 SZ ES        8 6 16.38                             169    0.1510 26.8 193 
 BAR2 SZ I         8 6 18.65        25.0 0.16            164           26.8 193 
 BRR  HZ EP        8 6  2.61                             153    0.5210 71.4 296 
 BRR  HN ES        8 6 19.38                             153    0.6110 71.4 296 
 BRR  HZ I         8 6 20.18        30.2 0.12            144           71.4 296 
 PAM  SN ES   1    8 6 20.77                             153    0.50 7 73.7  40 
 PAM  SZ I         8 6 22.40        15.7 0.16            152           73.7  40 
 RUS  HZ EP        8 6  4.85                             143   -0.0310  104 177 
 RUS  HN ES        8 6 22.79                             143   -0.9610  104 177 
 RUS  HZ I         8 6 25.93         7.9 0.30            138            104 177 
 PTB  HZ EP   2    8 6  7.97                             132   -0.09 5  150 258 
 PTB  HN ES   2    8 6 29.03                             132   -0.37 5  150 258 
 PTB  HZ I         8 6 31.18        19.8 0.26            124            150 258 
 OCA  HZ EP        8 6  8.54                             131   -0.36 9  157 352 
 OCA  HN ES        8 6 30.36                             131   -0.54 9  157 352 
 OCA  HZ I         8 6 35.74        16.3 0.32            125            157 352 
 SPBC HZ EP        8 6 10.01                             129    0.30 9  167 219 
 SPBC HN ES   2    8 6 32.25                             129   -0.08 5  167 219 
 SPBC HZ I         8 6 39.70        16.5 0.22            122            167 219 
 ZAR  HN ES   1    8 6 38.73                             123   -0.06 6  205 291 
 ZAR  HZ I         8 6 46.07        17.7 0.18            116            205 291 
 NOR  HZ EP        8 6 17.21                             119    0.30 8  238 234 
 NOR  HN ES        8 6 45.23                             119    0.07 8  238 234 
 NOR  HZ I         8 6 50.75         6.1 0.16            113            238 234 
 SML  HZ EP        8 6 17.06                             118   -0.15 8  242 335 
 SML  HN ES   1    8 6 44.82                             118   -0.87 6  242 335 
 HEL  HZ EP   4    8 6 22.60                             115    1.30 0  275 255 
 HEL  HZ I         8 6 59.58         8.7 0.44            109            275 255 
 PRA  HZ EP        8 6 35.14                             107    0.42 6  396 210 
 PRA  HN ES   1    8 7 16.18                             107   -0.68 4  396 210 
 PRA  HZ I         8 7 24.76         6.5 0.52            103            396 210 
                                                                                
