 2014  210 0428 57.9 L   6.801 -73.136144.7  RSN 10 0.5 1.8LRSN                1
 GAP=138        1.17       4.1     5.3  6.9  0.7880E+00  0.9348E+01  0.4618E+01E
 Epicentro: LOS SANTOS - SANTANDER                                             3
 ACTION:UPD 14-03-10 08:09 OP:ep   STATUS:               ID:20140210042857 L   I
 OLDACT:UP  14-02-10 13:30 OP:fm   STATUS:               ID:20140210042749     3
 OLDACT:REG 14-02-10 10:48 OP:fm   STATUS:               ID:20140210042749     3
 2014-02-10-0427-49M.COL___221                                                 6
 STAT SP IPHASW D HRMM SECON CODA AMPLIT PERI AZIMU VELO AIN AR TRES W  DIS CAZ7
 BAR2 SZ EP        429 16.69                             170   -0.7210 23.7 192 
 BAR2 SZ ES        429 32.15                             170   -0.4810 23.7 192 
 BAR2 SZ I         429 33.59        24.7 0.24            168           23.7 192 
 BRR  HZ IP     D  429 18.95                             152   -0.0410 72.0 298 
 BRR  HN ES        429 35.96                             152    0.5310 72.0 298 
 BRR  HZ I         429 36.49        16.4 0.32            151           72.0 298 
 PAM  SZ EP        429 20.05                             151    0.0910 76.6  39 
 PAM  SN ES        429 37.42                             151    0.2610 76.6  39 
 RUS  HZ EP        429 21.66                             144    0.1010  101 177 
 RUS  HN ES        429 40.33                             144    0.3210  101 177 
 RUS  HZ I         429 41.77         6.0 0.34            143            101 177 
 PTB  HZ EP        429 24.18                             132   -0.70 9  149 259 
 PTB  HN ES   1    429 44.80                             132   -1.12 7  149 259 
 PTB  HZ I         429 50.34         9.2 0.56            131            149 259 
 OCA  HZ EP   2    429 25.21                             129   -0.92 5  160 353 
 OCA  HE ES   2    429 48.05                             129   -0.10 5  160 353 
 OCA  HZ I         429 50.11         7.9 0.18            131            160 353 
 SPBC HZ EP        429 26.42                             129    0.02 9  164 219 
 SPBC HN ES   1    429 48.30                             129   -0.32 7  164 219 
 SPBC HZ I         429 51.97         6.6 0.20            128            164 219 
 ZAR  HZ EP        429 30.96                             122    0.59 9  205 292 
 ZAR  HN ES        429 56.31                             122    0.61 9  205 292 
 CHI  HZ EP        429 35.66                             117    0.07 8  249 195 
 CHI  HN ES        430  5.84                             117    0.86 8  249 195 
 CHI  HZ I         430 12.52         2.0 0.32            117            249 195 
 PRA  HZ EP   2    429 51.43                             106   -0.03 3  393 210 
                                                                                
