 2010  610 0814 47.6 L   6.788 -73.114146.4  RSN  7 0.3 1.9LRSN                1
 GAP=159        0.70       4.7     7.9  8.3 -0.1943E+02  0.2267E+02  0.5397E+01E
 Epicentro: LOS SANTOS - SANTANDER                                             3
 ACTION:UP  10-08-24 10:09 OP:vdl  STATUS:               ID:20100610081447 L   I
 2010-06-10-0811-17S.COL___111                                                 6
 STAT SP IPHASW D HRMM SECON CODA AMPLIT PERI AZIMU VELO SNR AR TRES W  DIS CAZ7
 RUS  HZ EP   2    815 10.80                             144    -0.5 5   99 178 
 RUS  HN ES   2    815 29.72                             144    -0.1 5   99 178 
 RUS  HZ I         815 30.96         4.4 0.53                            99 178 
 BRI  SZ EP   1    815 11.58                             141     0.0 8  109  19 
 BRI  SZ ES   1    815 30.10                             141    -0.1 8  109  19 
 GUE  SZ EP        815 12.93                             139     0.510  117  10 
 GUE  SZ ES        815 31.99                             139     0.210  117  10 
 GRA  SZ EP        815 12.81                             137    -0.110  126  16 
 GRA  SZ ES   2    815 32.24                             137    -0.4 5  126  16 
 OCA  SZ EP   1    815 15.48                             129    -0.6 7  162 352 
 OCA  SZ ES   2    815 37.88                             129    -0.5 5  162 352 
 OCA  SZ I         815 40.60        16.4 0.33                           162 352 
 HEL  HZ EP   2    815 28.58                             115     0.4 4  275 256 
 HEL  HE ES   2    815 59.77                             115    -0.1 4  275 256 
 HEL  HZ I         816  5.23         6.7 0.31                           275 256 
 RREF BZ EP   1    815 33.92                             111     0.0 5  324 230 
 RREF BE ES   2    816 10.36                             111     0.2 3  324 230 
 RREF BZ I         816 17.54         4.6 0.27                           324 230 
                                                                                
