 2016  210 0029 50.9 L   6.862 -73.197131.3  RSN  4 0.2 1.5LRSN                1
 GAP=278        0.51       4.9     3.5  4.5  0.5051E+01  0.4462E+01 -0.6920E+00E
 Epicentro: ZAPATOCA - SANTANDER                                               3
 ACTION:UPD 16-03-04 21:24 OP:rebc STATUS:               ID:20160210002950 L   I
 OLDACT:DUP 16-02-10 15:39 OP:ak   STATUS:               ID:20160210001751d    3
 2016-02-10-0017-50M.COL___319                                                 6
 STAT SP IPHASW D HRMM SECON CODA AMPLIT PERI AZIMU VELO AIN AR TRES W  DIS CAZ7
 BAR2 EZ ES        030 23.17                             167    0.1010 29.9 177 
 BAR2 EZ I         030 25.91         7.4 0.40            166           29.9 177 
 RUS  HZ EP        030 14.01                             138    0.1510  108 173 
 RUS  HE ES        030 31.51                             138   -0.2510  108 173 
 RUS  HZ I         030 33.77         4.2 0.30            141            108 173 
 PTB  HZ EP        030 16.06                             129   -0.30 9  144 256 
 PTB  HN ES        030 36.25                             129    0.05 9  144 256 
 PTB  HZ I         030 39.63         3.6 0.12            131            144 256 
 SPBC HZ EP        030 18.72                             125    0.18 9  165 216 
 SPBC HE ES        030 40.17                             125    0.07 9  165 216 
 SPBC HZ I         030 42.92         5.0 0.10            127            165 216 
                                                                                
