 2014  710 0856 51.7 L   7.413 -73.235124.9  RSN  7 0.4 1.7LRSN                1
 GAP=120        1.01       3.5     5.3  7.8 -0.3093E+01  0.1937E+02  0.5371E+01E
 Epicentro: EL PLAYON - SANTANDER                                              3
 ACTION:UPD 15-03-16 20:42 OP:nd   STATUS:               ID:20140710085651 L   I
 OLDACT:UP  14-07-11 10:39 OP:SPQ  STATUS:               ID:20140710085651 L   3
 OLDACT:REG 14-07-10 12:23 OP:stll STATUS:               ID:20140710084817     3
 2014-07-10-0848-17M.COL___256                                                 6
 STAT SP IPHASW D HRMM SECON CODA AMPLIT PERI AZIMU VELO AIN AR TRES W  DIS CAZ7
 PAM  SZ EP        857 10.89                             153    0.2710 59.7  98 
 PAM  SZ I         857 10.99        16.2 0.18            157           59.7  98 
 PAM  SN ES        857 25.51                             153    0.1110 59.7  98 
 BAR2 SZ EP        857 12.65                             142    0.3310 90.9 176 
 BAR2 SZ ES        857 28.56                             142    0.1310 90.9 176 
 BAR2 SZ I         857 29.89        64.9 0.82            143           90.9 176 
 OCA  HZ EP        857 12.10                             141   -0.1710 91.8 354 
 OCA  HN ES        857 28.39                             141    0.0510 91.8 354 
 OCA  HZ I         857 31.20         8.0 0.24            145           91.8 354 
 PTB  HZ EP        857 18.42                             123   -0.41 9  166 234 
 PTB  HZ I         857 19.77         4.5 0.16            124            166 234 
 PTB  HN ES        857 39.52                             123   -0.51 9  166 234 
 RUS  HZ EP        857 19.58                             123   -0.18 9  169 174 
 RUS  HN ES        857 40.84                             123   -0.84 9  169 174 
 RUS  HZ I         857 44.90         2.6 0.38            125            169 174 
 SPBC HZ EP        857 24.63                             116    0.43 8  216 205 
 SPBC HN ES   1    857 50.39                             116    0.80 6  216 205 
 SPBC HZ I         857 58.12         4.3 0.22            118            216 205 
 NOR  HZ EP        857 30.32                             110   -0.28 8  273 222 
 NOR  HZ I         857 31.13         3.0 0.28            112            273 222 
 NOR  HE ES        858  1.71                             110    0.74 8  273 222 
                                                                                
