 2010 1010 0258 39.6 L   6.773 -73.098143.1  RSN  8 0.4 1.9LRSN                1
 GAP=182        0.67       3.6     5.8  5.9 -0.1068E+02  0.2640E+01  0.3676E+01E
 Epicentro: LOS SANTOS - SANTANDER                                             3
 ACTION:UP  11-02-18 11:08 OP:tino STATUS:               ID:20101010025839 L   I
 2010-10-10-0255-11S.COL___121                                                 6
 STAT SP IPHASW D HRMM SECON CODA AMPLIT PERI AZIMU VELO SNR AR TRES W  DIS CAZ7
 BAR2 SZ IP        258 59.08                             171     0.210   22 205 
 BAR2 SZ I         258 59.38        22.9 0.15                            22 205 
 BAR2 SZ ES   1    259 13.69                             171    -0.2 7   22 205 
 BRR  HZ IP     C  259  0.98                             150     0.210   77 299 
 BRR  HZ I         259  1.34        30.0 0.10                            77 299 
 BRR  HE ES   1    259 17.81                             150     0.4 7   77 299 
 GRA  SZ EP   1    259  4.83                             136     0.1 7  127  15 
 GRA  SZ ES   1    259 24.26                             136    -0.1 7  127  15 
 GRA  SZ I         259 25.70        10.8 0.37                           127  15 
 OCA  SZ EP   1    259  8.01                             128     0.0 7  164 351 
 OCA  SZ ES   1    259 29.70                             128    -0.5 7  164 351 
 OCA  SZ I         259 40.19         8.2 0.38                           164 351 
 NOR  SZ EP   1    259 15.18                             118    -0.3 6  237 236 
 NOR  SN ES   1    259 42.84                             118    -0.6 6  237 236 
 CHI  HZ EP   2    259 16.58                             117    -0.4 4  247 197 
 CHI  HN ES   2    259 45.94                             117    -0.2 4  247 197 
 CHI  HZ I         259 52.51         3.2 0.29                           247 197 
 HEL  HZ EP   2    259 20.17                             114     0.0 4  277 257 
 HEL  HN ES   2    259 52.31                             114     0.5 4  277 257 
 HEL  HZ I         259 58.92         5.3 0.27                           277 257 
 PRA  HZ EP   2    259 33.54                             106     0.5 3  392 210 
 PRA  HN ES   2    3 0 15.59                             106     0.9 3  392 210 
                                                                                
