 2015  510 0123 56.6 L   6.815 -73.123141.0  RSN  9 0.4 2.0LRSN                1
 GAP=139        1.04       3.0     4.7  6.1 -0.2033E+01  0.8191E+01 -0.1790E+01E
 Epicentro: LOS SANTOS - SANTANDER                                             3
 ACTION:UPD 15-09-10 22:03 OP:cam  STATUS:               ID:20150510012356 L   I
 OLDACT:REG 15-05-10 12:23 OP:y    STATUS:               ID:20150510011742     3
 2015-05-10-0117-42M.COL___285                                                 6
 STAT SP IPHASW D HRMM SECON CODA AMPLIT PERI AZIMU VELO AIN AR TRES W  DIS CAZ7
 BAR2 EZ EP        124 15.90                             169    0.1710 25.5 195 
 BAR2 EZ ES        124 29.82                             169   -0.8110 25.5 195 
 BAR2 EZ I         124 32.12        19.5 0.16            168           25.5 195 
 BRR  HZ EP        124 17.86                             151    0.5210 72.6 296 
 BRR  HN ES        124 34.03                             151    0.5310 72.6 296 
 PAM  SZ EP        124 18.65                             151    0.4910 74.5  39 
 PAM  SN ES        124 34.68                             151   -0.2810 74.5  39 
 PAM  SZ I         124 37.82        11.4 0.46            155           74.5  39 
 RUS  HZ EP        124 20.14                             142    0.1210  102 178 
 RUS  HN ES        124 38.50                             142    0.2210  102 178 
 RUS  HZ I         124 39.51         8.2 0.30            145            102 178 
 OCA  HZ EP        124 24.21                             129   -0.23 9  159 352 
 OCA  HN ES        124 46.52                             129    0.39 9  159 352 
 OCA  HZ I         124 48.94        18.5 0.24            130            159 352 
 SPBC HZ EP        124 24.88                             127   -0.16 9  166 219 
 SPBC HN ES        124 46.81                             127   -0.39 9  166 219 
 SPBC HZ I         124 52.54        12.5 0.10            128            166 219 
 ZAR  HN ES        124 54.20                             121    0.06 8  206 291 
 ZAR  HZ I         125  2.15         8.8 0.42            121            206 291 
 NOR  HZ EP        124 32.26                             117   -0.15 8  238 234 
 NOR  HN ES        125  0.59                             117    0.27 8  238 234 
 NOR  HZ I         125  4.99         6.4 0.16            118            238 234 
 SML  HZ EP        124 32.37                             116   -0.56 8  243 335 
 SML  HN ES        125  0.60                             116   -0.65 8  243 335 
 SML  HZ I         125  2.82         8.9 0.10            118            243 335 
                                                                                
