 2011 1210 0641 32.0 L   6.737 -73.123146.3  RSN  7 0.4 1.7LRSN                1
 GAP=185        0.86       6.2     8.9  7.7  0.1392E+02  0.6588E+00 -0.5877E+01E
 Epicentro: JORDAN - SANTANDER                                                 3
 ACTION:UPD 12-07-13 16:15 OP:ep   STATUS:               ID:20111210064132 L   I
 2011-12-10-0640-00M.COL___186                                                 6
 STAT SP IPHASW D HRMM SECON CODA AMPLIT PERI AZIMU VELO AIN AR TRES W  DIS CAZ7
 BAR2 SZ EP   1    641 51.72                             173    0.13 7 17.3 203 
 BAR2 SZ ES   1    642  6.60                             173   -0.26 7 17.3 203 
 BAR2 SZ I         642  8.20         8.8 0.43                          17.3 203 
 GIR2 SZ EP   1    641 52.04                             164    0.08 7 38.6 348 
 BRR  HZ EP   1    641 53.79                             151    0.25 7 77.0 302 
 BRR  HZ I         641 54.10        19.1 0.16                          77.0 302 
 BRR  HN ES   1    642 10.97                             151    0.63 7 77.0 302 
 RUS  HZ EP   1    641 55.81                             146    0.51 7 93.4 177 
 RUS  HN ES   1    642 13.02                             146   -0.46 7 93.4 177 
 RUS  HZ I         642 15.81         3.7 0.23                          93.4 177 
 PTB  HZ EP   1    641 58.61                             132   -0.53 7  149 262 
 PTB  HN ES   2    642 19.88                             132   -0.41 5  149 262 
 OCA  SZ EP   1    642  0.30                             128   -0.75 7  168 353 
 CTAU SZ EP   1    642  4.99                             124    0.47 6  198 211 
                                                                                
