 2013  810 0122 48.5 L   6.769 -73.153144.7  RSN 10 0.5 1.8LRSN                1
 GAP=137        1.06       4.2     5.2  8.5 -0.5598E+01  0.9523E+01  0.7080E+01E
 Epicentro: LOS SANTOS - SANTANDER                                             3
 ACTION:UPD 14-01-14 09:00 OP:ep   STATUS:               ID:20130810012248 L   I
 OLDACT:REG 13-08-10 07:33 OP:carl STATUS:               ID:20130810011959     3
 2013-08-10-0119-59M.COL___271                                                 6
 STAT SP IPHASW D HRMM SECON CODA AMPLIT PERI AZIMU VELO AIN AR TRES W  DIS CAZ7
 BAR2 SZ ES   1    123 22.33                             172   -0.73 7 19.9 189 
 BAR2 SZ I         123 23.79         8.9 0.28            171           19.9 189 
 BRR  HZ EP        123  9.89                             152    0.3310 72.2 301 
 BRR  HN ES   1    123 26.91                             152    0.91 7 72.2 301 
 BRR  HN I         123 31.27        17.6 0.16            149           72.2 301 
 PAM  SZ EP        123 10.55                             150   -0.2110 80.5  38 
 PAM  SN ES        123 27.82                             150   -0.3310 80.5  38 
 PAM  SN I         123 28.64        11.0 0.56            153           80.5  38 
 RUS  HZ EP   1    123 11.58                             145   -0.30 7 97.3 175 
 RUS  HE ES   1    123 30.34                             145    0.21 7 97.3 175 
 RUS  HZ I         123 31.22         4.2 0.30            148           97.3 175 
 PTB  HZ EP   1    123 14.68                             132   -0.54 7  146 260 
 PTB  HN ES   1    123 35.61                             132   -0.47 7  146 260 
 PTB  HZ I         123 37.68         5.2 0.14            132            146 260 
 SPBC HZ EP   1    123 16.68                             129    0.09 7  160 220 
 SPBC HE ES   1    123 39.45                             129    0.93 7  160 220 
 SPBC HZ I         123 43.66         6.9 0.20            130            160 220 
 OCA  HN ES   1    123 40.13                             129    0.87 7  164 354 
 OCA  HN I         123 41.45        30.9 0.22            130            164 354 
 ZAR  HN ES   1    123 45.47                             122   -0.73 6  205 293 
 ZAR  HN I         123 53.45         9.6 0.14            122            205 293 
 NOR  HN ES        123 51.23                             118   -0.23 8  232 235 
 CHI  HZ EP   1    123 25.93                             117    0.20 6  245 195 
 CHI  HN ES   1    123 55.20                             117    0.41 6  245 195 
                                                                                
