 2012  410 0036 41.9 L   6.750 -73.168143.9  RSN  4 0.2 1.5LRSN                1
 GAP=231        0.58       8.0    11.4  6.3  0.6889E+02  0.1694E+02  0.8080E+01E
 Epicentro: VILLANUEVA - SANTANDER                                             3
 ACTION:UPD 12-07-05 11:52 OP:tino STATUS:               ID:20120410003641 L   I
 2012-04-10-0030-00M.COL___199                                                 6
 STAT SP IPHASW D HRMM SECON CODA AMPLIT PERI AZIMU VELO AIN AR TRES W  DIS CAZ7
 BAR2 SZ EP   1    037  0.96                             173    -0.2 7   18 185 
 BAR2 SZ ES   1    037 16.00                             173    -0.3 7   18 185 
 BAR2 SZ I         037 16.92         7.3 0.23                            18 185 
 BRR  HZ EP   1    037  3.07                             152     0.2 7   72 303 
 BRR  HN ES   1    037 19.48                             152     0.2 7   72 303 
 BRR  HZ I         037 22.78        10.7 0.39                            72 303 
 RUS  HZ EP   1    037  5.35                             145     0.3 7   95 174 
 RUS  HN ES   1    037 23.29                             145     0.1 7   95 174 
 RUS  HZ I         037 25.59         2.7 0.26                            95 174 
 PTB  HZ EP   1    037  8.14                             132    -0.3 7  144 261 
                                                                                
