 2016  510 0446 26.5 L   6.815 -73.122148.7  RSN 15 0.4 2.2LRSN                1
 GAP=162        0.97       2.6     4.3  4.9 -0.5252E+00  0.1226E+01  0.8397E+00E
 Epicentro: LOS SANTOS - SANTANDER                                             3
 ACTION:UPD 16-08-18 17:44 OP:cam  STATUS:               ID:20160510044626 L   I
 OLDACT:UP  16-05-10 15:07 OP:drio STATUS:               ID:20160510043747     3
 OLDACT:UP  16-05-10 15:06 OP:drio STATUS:               ID:20160510043747     3
 OLDACT:UP  16-05-10 15:06 OP:drio STATUS:               ID:20160510043747     3
 OLDACT:REG 16-05-10 12:24 OP:drio STATUS:               ID:20160510043747     3
 2016-05-10-0437-47M.COL___289                                                 6
 STAT SP IPHASW D HRMM SECON CODA AMPLIT PERI AZIMU VELO AIN AR TRES W  DIS CAZ7
 BAR2 EZ EP        446 46.70                             170    0.1510 25.5 195 
 BAR2 EZ ES        447  1.47                             170   -0.7010 25.5 195 
 BAR2 EZ I         447  2.86        24.7 0.22            168           25.5 195 
 BRR  HZ EP     C  446 48.49                             153    0.4210 72.8 296 
 BRR  HE ES        447  5.74                             153    0.8510 72.8 296 
 BRR  HZ I         447  9.24        20.2 0.24            148           72.8 296 
 RUS  HZ EP        446 50.65                             144   -0.0210  102 178 
 RUS  HE ES        447  9.66                             144    0.1510  102 178 
 RUS  HZ I         447 10.44        10.8 0.28            146            102 178 
 PTB  HZ EP        446 53.24                             132   -0.75 9  151 258 
 PTB  HN ES   4    447 14.17                             132   -1.25 0  151 258 
 PTB  HZ I         447 21.41        16.0 0.64            130            151 258 
 OCA  HZ EP        446 55.13                             131    0.19 9  159 352 
 OCA  HE ES        447 16.95                             131   -0.15 9  159 352 
 OCA  HZ I         447 25.16        25.2 0.28            131            159 352 
 SPBC HZ EP        446 55.75                             129    0.23 9  166 219 
 SPBC HN ES        447 18.06                             129   -0.09 9  166 219 
 SPBC HZ I         447 22.16        15.2 0.62            129            166 219 
 ZAR  HZ EP   4    447  0.48                             123    1.14 0  206 291 
 ZAR  HE ES        447 24.58                             123   -0.37 8  206 291 
 ZAR  HZ I         447 30.00        15.3 0.42            122            206 291 
 NOR  HZ EP        447  2.71                             119   -0.04 8  238 235 
 NOR  HN ES        447 30.68                             119   -0.33 8  238 235 
 NOR  HZ I         447 35.25         8.0 0.40            119            238 235 
 SML  HZ EP        447  2.82                             118   -0.45 8  243 335 
 SML  HE ES   4    447 33.41                             118    1.48 0  243 335 
 SML  HZ I         447 37.12        17.2 0.10            118            243 335 
 CHI  HZ EP        447  4.88                             117    0.25 8  251 196 
 CHI  HE ES        447 34.40                             117    0.04 8  251 196 
 CHI  HZ I         447 39.31         7.9 0.38            118            251 196 
 HEL  HZ EP   4    447  8.95                             115    1.74 0  275 256 
 HEL  HN ES        447 39.22                             115    0.27 8  275 256 
 HEL  HZ I         447 44.85         6.4 0.34            115            275 256 
 PTGC HZ EP        447 10.25                             112   -0.33 7  309 159 
 PTGC HE ES   4    447 43.06                             112   -1.88 0  309 159 
 PTGC HZ I         447 44.48         4.7 0.22            114            309 159 
 LL6C HZ EP        447 12.14                             111   -0.03 7  323 357 
 PRA  HZ EP        447 21.47                             107    1.01 6  395 210 
 PRA  HN ES        448  2.19                             107   -0.35 6  395 210 
 PRA  HZ I         448  8.17         5.3 0.30            107            395 210 
 ORTC HZ EP        447 21.08                             107    0.20 6  398 216 
 ORTC HE ES   4    448  4.78                             107    1.50 0  398 216 
 ORTC HZ I         448 10.00         7.8 0.84            107            398 216 
                                                                                
