 2017  510 0445 41.5 L   6.806 -73.186132.3  RSN  5 0.3 0.8LRSN                1
 GAP=131        0.71       3.7     3.5  7.0  0.2988E+01  0.8815E+01  0.6779E+01E
 Epicentro: ZAPATOCA - SANTANDER                                               3
 ACTION:UPD 17-06-16 13:34 OP:jn   STATUS:               ID:20170510044541 L   I
 OLDACT:DUP 17-05-10 18:38 OP:edw  STATUS:               ID:20170510043748d    3
 OLDACT:DUP 17-05-10 18:35 OP:edw  STATUS:               ID:20170510043747d    3
 2017-05-10-0438-00M.COL___356                                                 6
 STAT SP IPHASW D HRMM SECON CODA AMPLIT PERI AZIMU VELO AIN AR TRES W  DIS CAZ7
 BRR  HZ EP        446  1.47                             151    0.4810 67.0 300 
 BRR  HN ES        446 16.19                             151    0.0310 67.0 300 
 PAM  EN ES        446 18.63                             147   -0.2010 79.8  42 
 RUS  HZ EP        446  3.77                             140   -0.3010  102 174 
 RUS  HN ES        446 21.91                             140    0.2710  102 174 
 RUS  HZ I         446 22.70         0.7 0.38            141            102 174 
 PTB  HZ EP        446  6.96                             130   -0.07 9  144 258 
 PTB  HN ES        446 26.60                             130   -0.32 9  144 258 
 PTB  HZ I         446 34.42         1.5 0.44            129            144 258 
 ZAR  HN ES        446 37.05                             120    0.09 9  200 292 
                                                                                
