 2010  710 0743 14.3 L   6.795 -73.097148.6  RSN  5 0.2 1.3LRSN                1
 GAP=161        0.44       3.1     6.0  5.6 -0.4488E+01 -0.3917E+01 -0.9938E+00E
 Epicentro: LOS SANTOS - SANTANDER                                             3
 ACTION:UPD 10-12-01 15:16 OP:pat  STATUS:               ID:20100710074314 L   I
 2010-07-10-0740-34S.COL___120                                                 6
 STAT SP IPHASW D HRMM SECON CODA AMPLIT PERI AZIMU VELO AIN AR TRES W  DIS CAZ7
 BAR2 SZ EP   1    743 33.99                             170    -0.3 7   24 203 
 BAR2 SZ ES   2    743 49.86                             170     0.0 5   24 203 
 BRR  HZ EP        743 35.97                             151    -0.110   76 297 
 BRR  HZ I         743 44.23         6.5 0.43                            76 297 
 BRR  HN ES   2    743 53.19                             151     0.2 5   76 297 
 RUS  HZ EP   1    743 38.40                             144     0.1 7  100 179 
 RUS  HZ I         743 38.83         1.8 0.44                           100 179 
 RUS  HE ES   2    743 57.00                             144     0.0 5  100 179 
 BRI  SZ EP   1    743 38.57                             142     0.2 7  107  18 
 BRI  SZ ES   2    743 57.38                             142     0.3 5  107  18 
 GRA  SZ EP   1    743 39.75                             138     0.0 7  125  15 
 GRA  SZ ES   2    743 59.03                             138    -0.5 5  125  15 
                                                                                
