 2010  710 0538 10.1 L   6.761 -73.091149.7  RSN  4 0.3 1.5LRSN                1
 GAP=165        0.51       4.1     8.7  7.4 -0.4572E+00 -0.1663E+02 -0.3942E+01E
 Epicentro: LOS SANTOS - SANTANDER                                             3
 ACTION:UPD 10-12-01 15:16 OP:pat  STATUS:               ID:20100710053810 L   I
 2010-07-10-0534-16S.COL___120                                                 6
 STAT SP IPHASW D HRMM SECON CODA AMPLIT PERI AZIMU VELO AIN AR TRES W  DIS CAZ7
 BAR2 SZ EP   1    538 30.15                             172    -0.1 7   21 209 
 BAR2 SZ ES   2    538 45.31                             172    -0.5 5   21 209 
 BRR  HZ EP   1    538 31.94                             151    -0.2 7   79 299 
 BRR  HZ I         538 33.50         7.3 0.35                            79 299 
 BRR  HN ES   2    538 49.67                             151     0.4 5   79 299 
 RUS  HZ EP   1    538 33.97                             146     0.0 7   96 180 
 RUS  HE ES   2    538 52.98                             146     0.4 5   96 180 
 RUS  HZ I         538 54.44         4.0 0.49                            96 180 
 GRA  SZ EP   1    538 36.07                             137     0.1 7  128  14 
 GRA  SZ ES   2    538 56.13                             137     0.1 5  128  14 
                                                                                
