 2012 1010 0734 49.6 L   6.807 -73.165140.8  RSN  5 0.3 1.6LRSN                1
 GAP=134        0.53       3.7     4.2  6.0  0.1258E+01  0.1024E+02 -0.3438E+01E
 Epicentro: LOS SANTOS - SANTANDER                                             3
 ACTION:UPD 12-11-22 17:02 OP:ep   STATUS:               ID:20121010073449 L   I
 2012-10-10-0730-00M.COL___226                                                 6
 STAT SP IPHASW D HRMM SECON CODA AMPLIT PERI AZIMU VELO AIN AR TRES W  DIS CAZ7
 BAR2 SZ EP   1    735  8.47                             170   -0.13 7 23.8 185 
 BAR2 SZ I         735  8.84         9.5 0.09                          23.8 185 
 BAR2 SZ ES   1    735 23.33                             170   -0.12 7 23.8 185 
 GIR2 SZ EP   1    735  8.49                             167   -0.12 7 30.2 354 
 PAM  SZ EP   1    735 11.41                             150    0.11 7 78.2  41 
 PAM  SN ES   1    735 28.31                             150    0.06 7 78.2  41 
 PAM  SN I         735 29.32        12.9 0.48                          78.2  41 
 RUS  HZ EP   1    735 12.50                             142   -0.39 7  102 175 
 RUS  HN ES   1    735 31.46                             142    0.37 7  102 175 
 RUS  HN I         735 32.27         3.4 0.16                           102 175 
 ZAR  HZ EP   1    735 21.91                             122    0.46 6  202 292 
 ZAR  HE ES   1    735 46.17                             122   -0.16 6  202 292 
 ZAR  HZ I         735 52.32         3.7 0.48                           202 292 
                                                                                
