 2017  510 0504 32.3 L   6.804 -73.140150.9  RSN 13 0.4 1.9LRSN                1
 GAP=112        1.12       4.2     4.2  7.3 -0.1740E+01 -0.2376E+01  0.1114E+02E
 Epicentro: LOS SANTOS - SANTANDER                                             3
 ACTION:UPD 17-06-16 13:34 OP:jn   STATUS:               ID:20170510050432 L   I
 OLDACT:UP  17-05-10 18:53 OP:edw  STATUS:               ID:20170510045639d    3
 OLDACT:UP  17-05-10 18:53 OP:edw  STATUS:               ID:20170510045639d    3
 OLDACT:UP  17-05-10 18:52 OP:edw  STATUS:               ID:20170510045639d    3
 OLDACT:DUP 17-05-10 18:44 OP:edw  STATUS:               ID:20170510045639d    3
 OLDACT:REG 17-05-10 13:19 OP:osc  STATUS:               ID:20170510045638     3
 2017-05-10-0457-00M.COL___356                                                 6
 STAT SP IPHASW D HRMM SECON CODA AMPLIT PERI AZIMU VELO AIN AR TRES W  DIS CAZ7
 BRR  HZ IP     C  5 4 54.22                             153    0.1710 71.5 298 
 BRR  HN ES        5 5 11.32                             153    0.3310 71.5 298 
 BRR  HZ I         5 5 12.44        11.7 0.36            148           71.5 298 
 PAM  EZ EP     C  5 4 55.24                             151    0.1910 76.7  39 
 PAM  EN ES        5 5 12.67                             151   -0.1010 76.7  39 
 PAM  EZ I         5 5 14.63        15.8 0.52            154           76.7  39 
 RUS  HZ EP        5 4 56.43                             144   -0.1810  101 176 
 RUS  HN ES        5 5 15.08                             144   -0.4810  101 176 
 RUS  HZ I         5 5 16.04        12.4 0.30            144            101 176 
 PTB  HZ EP   9    5 4 59.20                             133   -0.58 0  148 259 
 PTB  HN ES        5 5 19.83                             132   -0.78 9  148 259 
 PTB  HZ I         5 5 25.92         8.2 0.54            129            148 259 
 SPBC HZ EP        5 5  1.70                             130    0.41 9  164 219 
 SPBC HN ES        5 5 23.81                             130   -0.07 9  164 219 
 SPBC HZ I         5 5 26.37        10.6 0.22            128            164 219 
 YPLC HZ IP     D  5 5  2.84                             127    0.33 9  177 152 
 ZAR  HZ EP   4    5 5  6.86                             123    1.71 0  204 292 
 ZAR  HN ES        5 5 30.19                             123   -0.56 9  204 292 
 ZAR  HZ I         5 5 37.20        11.1 0.38            121            204 292 
 NOR  HN ES        5 5 37.59                             119    0.99 8  235 234 
 NOR  HZ I         5 5 44.23         3.5 0.16            117            235 234 
 CHI  HZ EP        5 5 10.52                             118    0.14 8  249 195 
 CHI  HN ES        5 5 40.10                             118    0.04 8  249 195 
 CHI  HZ I         5 5 43.41         3.7 0.58            117            249 195 
 ROSC BZ EP   4    5 5 11.89                             117    1.08 0  253 211 
 ROSC BN ES   4    5 5 44.56                             117    3.74 0  253 211 
 ROSC BZ I         5 5 47.05         8.8 0.45            116            253 211 
 HEL  HN ES        5 5 43.83                             115   -0.68 8  273 256 
 HEL  HZ I         5 5 51.62         3.3 0.26            114            273 256 
 PTGC HZ EP     D  5 5 15.56                             112   -0.88 7  309 159 
 PTGC HN ES   4    5 5 46.44                             112   -4.41 0  309 159 
 SJC  HZ EP   4    5 5 26.62                             106   -1.44 0  409 327 
 SJC  HN ES   4    5 6  7.73                             106   -3.80 0  409 327 
 SJC  HZ I         5 6 15.57         1.6 0.42            106            409 327 
                                                                                
