 2014  110 0027 17.6 L   6.801 -73.153143.7  RSN 12 0.5 2.1LRSN                1
 GAP=135        1.14       3.0     4.5  6.1 -0.1059E+01  0.7229E+01  0.8842E+00E
 Epicentro: LOS SANTOS - SANTANDER                                             3
 ACTION:UPD 14-03-13 09:53 OP:ep   STATUS:               ID:20140110002717 L   I
 OLDACT:REG 14-01-10 07:32 OP:carl STATUS:               ID:20140110002000     3
 2014-01-10-0020-00M.COL___285                                                 6
 STAT SP IPHASW D HRMM SECON CODA AMPLIT PERI AZIMU VELO AIN AR TRES W  DIS CAZ7
 BAR2 SZ IP     C  027 37.08                             170    0.0910 23.3 188 
 BAR2 SZ ES        027 51.30                             170   -0.8110 23.3 188 
 BAR2 SZ I         027 53.97        43.6 0.24            169           23.3 188 
 BRR  HZ EP        027 38.81                             152    0.3210 70.4 299 
 BRR  HE ES        027 55.68                             152    0.9010 70.4 299 
 BRR  HZ I         027 58.74        24.2 0.44            153           70.4 299 
 PAM  SZ IP     C  027 39.85                             150    0.2210 77.8  40 
 PAM  SN ES        027 56.78                             150   -0.0310 77.8  40 
 PAM  SZ I         027 58.78        41.9 0.52            155           77.8  40 
 RUS  HZ EP        027 41.17                             143   -0.0010  101 176 
 RUS  HN ES        027 59.44                             143   -0.1110  101 176 
 RUS  HZ I         028  1.71        13.8 0.34            144            101 176 
 PTB  HZ EP        027 43.77                             132   -0.56 9  147 259 
 PTB  HN ES        028  4.89                             132   -0.29 9  147 259 
 PTB  HZ I         028  7.61        19.8 0.16            132            147 259 
 OCA  HE ES        028  8.32                             129    0.64 9  160 353 
 SPBC HZ EP        027 45.84                             129   -0.07 9  163 219 
 SPBC HN ES        028  7.59                             129   -0.39 9  163 219 
 SPBC HZ I         028 18.10        13.7 0.18            130            163 219 
 ZAR  HZ EP        027 49.97                             122    0.14 9  203 292 
 ZAR  HN ES        028 14.83                             122   -0.14 9  203 292 
 ZAR  HZ I         028 17.17        12.7 0.28            124            203 292 
 NOR  HZ EP        027 53.38                             118    0.23 8  234 234 
 NOR  HN ES        028 21.40                             118    0.53 8  234 234 
 NOR  HZ I         028 23.44         8.2 0.16            119            234 234 
 SML  HZ EP        027 53.22                             117   -0.85 8  243 335 
 SML  HN ES        028 21.86                             117   -0.65 8  243 335 
 SML  HZ I         028 26.06        16.1 0.10            119            243 335 
 CHI  HZ EP        027 55.51                             117    0.33 8  249 195 
 CHI  HN ES        028 24.91                             117    0.42 8  249 195 
 CHI  HZ I         028 30.22         5.2 0.28            118            249 195 
 GUY2CHZ EP   4    028  2.96                             112    1.91 0  301 235 
 GUY2CHN ES   4    028 36.05                             112    1.12 0  301 235 
 GUY2CHZ I         028 45.49         5.2 0.42                           301 235 
 RREF HZ EP   4    028  5.49                             110    1.90 0  321 229 
 RREF HN ES   4    028 43.02                             110    3.56 0  321 229 
 ORTC HN ES   4    028 55.01                             106    1.64 0  395 216 
                                                                                
