 2016  110 0420 24.3 L   6.781 -73.142156.8  RSN  5 0.5 1.1LRSN                1
 GAP=138        1.15       5.1     6.2  8.8  0.3240E+00  0.7313E+01 -0.6895E+01E
 Epicentro: LOS SANTOS - SANTANDER                                             3
 ACTION:UPD 16-03-09 23:24 OP:cam  STATUS:               ID:20160110042024 L   I
 OLDACT:REG 16-01-10 12:20 OP:drio STATUS:               ID:20160110041735     3
 2016-01-10-0417-35M.COL___250                                                 6
 STAT SP IPHASW D HRMM SECON CODA AMPLIT PERI AZIMU VELO AIN AR TRES W  DIS CAZ7
 BRR  HZ EP        420 47.38                             154    0.6110 72.6 300 
 BRR  HN ES        421  4.95                             154    0.6910 72.6 300 
 PAM  EZ EP        420 47.99                             152    0.1610 78.8  38 
 PAM  EN ES        421  5.87                             152   -0.2710 78.8  38 
 PAM  EZ I         421  8.01         1.3 0.22            154           78.8  38 
 RUS  HZ EP        420 49.44                             146    0.3910 98.4 176 
 RUS  HE ES        421  7.73                             146   -0.5910 98.4 176 
 RUS  HZ I         421  8.94         1.0 0.36            149           98.4 176 
 PTB  HZ EP        420 52.12                             134   -0.11 9  148 260 
 PTB  HN ES        421 13.66                             134   -0.32 9  148 260 
 PTB  HZ I         421 18.92         2.1 0.50            134            148 260 
 SML  HZ EP        421  1.44                             119   -0.40 8  246 335 
 SML  HE ES        421 30.50                             119   -0.58 8  246 335 
 SML  HZ I         421 35.28         2.2 0.10            120            246 335 
                                                                                
