 2015 1210 0842 58.9 L   6.781 -73.120149.5  RSN 16 0.5 1.9LRSN                1
 GAP=122        0.75       2.8     4.4  5.0 -0.2442E+01  0.4207E+01 -0.5189E+00E
 Epicentro: LOS SANTOS - SANTANDER                                             3
 ACTION:UPD 16-02-04 15:03 OP:cam  STATUS:               ID:20151210084258 L   I
 OLDACT:UP  15-12-10 19:12 OP:ar   STATUS:               ID:20151210083747     3
 OLDACT:REG 15-12-10 13:08 OP:ar   STATUS:               ID:20151210083747     3
 2015-12-10-0837-47M.COL___334                                                 6
 STAT SP IPHASW D HRMM SECON CODA AMPLIT PERI AZIMU VELO AIN AR TRES W  DIS CAZ7
 BAR2 EZ EP        843 18.77                             171   -0.1510 22.0 198 
 BAR2 EZ ES        843 34.29                             171   -0.2610 22.0 198 
 BAR2 EZ I         843 36.68        10.8 0.22            167           22.0 198 
 BRR  HZ EP        843 20.78                             152    0.1610 74.8 299 
 BRR  HN ES        843 38.29                             152    0.7110 74.8 299 
 BRR  HZ I         843 42.60        12.7 0.28            148           74.8 299 
 PAM  EZ EP   2    843 21.68                             152    0.21 5 77.3  37 
 PAM  EN ES   2    843 39.38                             152    0.28 5 77.3  37 
 PAM  EZ I         843 41.19         6.5 0.48            156           77.3  37 
 RUS  HZ EP   2    843 22.56                             145   -0.26 5 98.3 178 
 RUS  HE ES   2    843 41.75                             145    0.24 5 98.3 178 
 RUS  HZ I         843 42.76         5.9 0.18            146           98.3 178 
 PTB  HZ EP   2    843 25.67                             132   -0.69 5  150 260 
 PTB  HN ES   2    843 47.02                             132   -0.78 5  150 260 
 PTB  HZ I         843 48.81        11.3 0.12            130            150 260 
 OCA  HZ EP        843 28.03                             130    0.33 9  163 352 
 OCA  HN ES        843 49.68                             130   -0.51 9  163 352 
 OCA  HZ I         843 53.63        25.4 0.36            131            163 352 
 SPBC HZ EP   2    843 27.67                             130    0.00 5  163 220 
 SPBC HE ES   2    843 50.13                             130   -0.00 5  163 220 
 SPBC HZ I         843 53.14        21.6 0.12            129            163 220 
 ZAR  HZ EP   2    843 31.37                             123   -0.54 4  208 292 
 ZAR  HN ES   2    843 56.77                             123   -0.92 4  208 292 
 ZAR  HZ I         844  4.94         8.7 0.46            122            208 292 
 NOR  HZ EP   2    843 34.78                             119   -0.15 4  236 235 
 NOR  HN ES        844  2.98                             119   -0.08 8  236 235 
 NOR  HZ I         844  6.43         7.4 0.16            119            236 235 
 SML  HZ EP   2    843 35.36                             118   -0.68 4  247 335 
 SML  HN ES        844  5.13                             118    0.09 8  247 335 
 SML  HZ I         844  9.04        15.6 0.08            118            247 335 
 HEL  HZ EP   2    843 40.53                             115    1.01 4  274 256 
 HEL  HE ES   2    844 11.67                             115    0.44 4  274 256 
 HEL  HZ I         844 18.37         4.5 0.24            115            274 256 
 GUY2CHZ EP   4    843 45.02                             113    2.24 0  302 235 
 GUY2CHN ES   4    844 18.87                             113    1.85 0  302 235 
 GUY2CHZ I         844 23.64         5.1 0.30                           302 235 
 PTGC HZ EP   2    843 41.69                             113   -0.86 4  306 159 
 PTGC HN ES   4    844 14.25                             113   -2.37 0  306 159 
 CBOC HZ EP   2    843 46.97                             110    0.79 3  336 253 
 CBOC HE ES   4    844 21.64                             110   -1.44 0  336 253 
 CBOC HZ I         844 34.22         2.1 0.64            110            336 253 
 PRA  HZ EP   2    843 53.39                             107    0.92 3  392 210 
 PRA  HN ES   2    844 34.46                             107    0.19 3  392 210 
 PRA  HZ I         844 42.10         2.4 0.26            108            392 210 
 SJC  HZ EP   4    843 52.86                             106   -2.09 0  413 327 
 SJC  HN ES   4    844 35.61                             106   -3.08 0  413 327 
 SJC  HZ I         844 38.19         1.9 0.54            107            413 327 
                                                                                
