 2013  610 0538 41.3 L   6.860 -73.355126.0  RSN  7 0.4 1.9LRSN                1
 GAP=111        0.93       3.5     5.7  6.1  0.2326E+01  0.2537E+01 -0.3405E+01E
 Epicentro: SAN VICENTE DE CHUCURI - SANTANDER                                 3
 ACTION:UPD 14-01-08 09:53 OP:ep   STATUS:               ID:20130610053841 L   I
 OLDACT:REG 13-06-10 08:01 OP:cam  STATUS:               ID:20130610052959     3
 2013-06-10-0529-59M.COL___261                                                 6
 STAT SP IPHASW D HRMM SECON CODA AMPLIT PERI AZIMU VELO AIN AR TRES W  DIS CAZ7
 GIR2 SZ EP        538 58.46                             166   -0.0910 30.1  36 
 GIR2 SZ ES   1    539 11.62                             166   -0.42 7 30.1  36 
 BAR2 SZ EP        538 59.00                             164    0.1410 35.2 147 
 BAR2 SZ ES   1    539 12.67                             164    0.08 7 35.2 147 
 BAR2 SZ I         539 13.37        22.9 0.23            168           35.2 147 
 BRR  HZ EP     C  538 59.35                             158    0.3310 48.0 305 
 BRR  HE ES        539 13.52                             158    0.6410 48.0 305 
 BRR  HZ I         539 14.98        15.7 0.14            154           48.0 305 
 RUS  HZ EP        539  4.00                             136    0.0210  111 164 
 RUS  HE ES   1    539 21.78                             136    0.07 7  111 164 
 PTB  HZ EP     C  539  4.28                             132   -0.4310  127 254 
 PTB  HN ES   1    539 22.37                             132   -0.63 7  127 254 
 PTB  HZ I         539 27.22         9.0 0.48            131            127 254 
 OCA  HZ EP        539  7.27                             126   -0.07 9  153   1 
 OCA  HN ES        539 27.03                             126   -0.66 9  153   1 
 OCA  HZ I         539 30.94        12.1 0.32            127            153   1 
 SML  HZ EP        539 15.59                             115    0.41 8  229 340 
 SML  HN ES   1    539 42.21                             115    0.56 6  229 340 
 SML  HZ I         539 46.46        14.3 0.10            115            229 340 
                                                                                
