 2017  410 0245 27.6 L   6.794 -73.179145.0  RSN  8 0.4 1.3LRSN                1
 GAP=133        1.05       4.5     4.5  7.2 -0.2512E+01  0.2158E+01  0.1207E+02E
 Epicentro: LOS SANTOS - SANTANDER                                             3
 ACTION:UPD 17-05-30 21:10 OP:jn   STATUS:               ID:20170410024527 L   I
 OLDACT:UP  17-04-10 15:44 OP:edw  STATUS:               ID:20170410023744d    3
 OLDACT:UP  17-04-10 15:42 OP:edw  STATUS:               ID:20170410023744d    3
 OLDACT:DUP 17-04-10 15:38 OP:edw  STATUS:               ID:20170410023744d    3
 OLDACT:UP  17-04-10 15:36 OP:edw  STATUS:               ID:20170410023742     3
 OLDACT:REG 17-04-10 12:42 OP:edw  STATUS:               ID:20170410023742     3
 2017-04-10-0238-00M.COL___369                                                 6
 STAT SP IPHASW D HRMM SECON CODA AMPLIT PERI AZIMU VELO AIN AR TRES W  DIS CAZ7
 BAR2 EZ EP        245 47.27                             171    0.2010 22.3 181 
 BAR2 EZ ES        246  2.33                             171    0.0310 22.3 181 
 BAR2 EZ I         246  6.13         4.6 0.48            170           22.3 181 
 BRR  HZ EP        245 48.94                             153    0.4810 68.3 300 
 BRR  HN ES        246  5.11                             153    0.3410 68.3 300 
 BRR  HZ I         246  6.64         3.1 0.34            153           68.3 300 
 PAM  EZ EP        245 50.09                             150    0.2210 80.3  41 
 PAM  EN ES        246  6.71                             150   -0.5610 80.3  41 
 PAM  EZ I         246  9.41         2.7 0.42            155           80.3  41 
 RUS  HZ EP        245 51.36                             144    0.1510  100 174 
 RUS  HN ES   4    246  7.92                             144   -1.74 0  100 174 
 RUS  HZ I         246 11.12         4.0 0.36            146            100 174 
 PTB  HZ EP        245 54.24                             133    0.12 9  144 259 
 PTB  HN ES        246 14.83                             133   -0.01 9  144 259 
 PTB  HZ I         246 22.33         1.5 0.32            134            144 259 
 SPBC HZ EP        245 54.62                             129   -1.11 9  160 218 
 SPBC HN ES        246 17.40                             129   -0.30 9  160 218 
 SPBC HZ I         246 20.66         4.2 0.24            131            160 218 
 ZAR  HZ EP   4    245 57.45                             123   -2.17 0  201 293 
 ZAR  HN ES        246 24.42                             123   -0.22 9  201 293 
 ZAR  HZ I         246 29.07         3.3 0.26            125            201 293 
 CHI  HZ EP        246  5.10                             117    0.06 8  247 194 
 CHI  HE ES        246 34.82                             117    0.54 8  247 194 
 CHI  HZ I         246 37.10         1.0 0.32            120            247 194 
                                                                                
