 2010  110 0446 25.9 L   6.392 -73.351122.0  RSN  4 0.4 1.1LRSN                1
 GAP=181        0.94       6.6    30.6 12.8 -0.7646E+02  0.2420E+03  0.5626E+01E
 Epicentro: CHIMA - SANTANDER                                                  3
 ACTION:UP  10-08-24 09:43 OP:vdl  STATUS:               ID:20100110044625 L   I
 2010-01-10-0440-00S.COL___096                                                 6
 STAT SP IPHASW D HRMM SECON CODA AMPLIT PERI AZIMU VELO SNR AR TRES W  DIS CAZ7
 BAR2 SZ EP        446 43.53                             167     0.710   29  40 
 BAR2 SZ ES   1    446 56.12                             167     0.1 7   29  40 
 RUS  BZ EP        446 44.38                             152    -0.310   63 152 
 RUS  BZ I         446 44.95         2.4 0.56                            63 152 
 RUS  BE ES   2    446 59.49                             152     0.1 5   63 152 
 GIR2 SZ EP        446 44.92                             146    -0.310   78  13 
 GIR2 SZ ES   2    446 59.61                             146    -0.6 5   78  13 
 CHI  HZ EP        446 56.86                             118    -0.1 9  199 192 
 CHI  HE ES   2    447 21.19                             118     0.1 4  199 192 
 CHI  HZ I         447 26.26         1.4 0.58                           199 192 
                                                                                
