 2016  210 0132 17.8 L   6.818 -73.170140.8  RSN 15 0.5 1.6LRSN                1
 GAP=133        1.08       2.7     4.5  6.3 -0.1365E+01  0.1341E+02 -0.1076E+01E
 Epicentro: LOS SANTOS - SANTANDER                                             3
 ACTION:UPD 16-03-04 21:24 OP:rebc STATUS:               ID:20160210013217 L   I
 OLDACT:REG 16-02-10 13:38 OP:ak   STATUS:               ID:20160210012750     3
 2016-02-10-0127-50M.COL___319                                                 6
 STAT SP IPHASW D HRMM SECON CODA AMPLIT PERI AZIMU VELO AIN AR TRES W  DIS CAZ7
 BAR2 EZ EP        132 37.13                             169    0.2510 25.0 183 
 BAR2 EZ ES        132 51.74                             169   -0.0110 25.0 183 
 BAR2 EZ I         132 54.11         6.8 0.28            168           25.0 183 
 PAM  EZ EP   2    132 39.90                             150    0.39 5 77.6  42 
 PAM  EN ES        132 57.06                             150    0.6210 77.6  42 
 PAM  EZ I         132 59.14         8.6 0.58            149           77.6  42 
 RUS  HZ EP        132 41.08                             142   -0.1610  103 175 
 RUS  HE ES        132 58.97                             142   -0.5410  103 175 
 RUS  HZ I         133  1.04         2.3 0.46            140            103 175 
 PTB  HZ EP        132 44.30                             131    0.13 9  146 258 
 PTB  HN ES        133  4.26                             131   -0.48 9  146 258 
 PTB  HZ I         133  7.77         8.5 0.14            127            146 258 
 OCA  HE ES        133  7.00                             129   -0.14 9  158 354 
 SPBC HZ EP        132 46.29                             128    0.37 9  163 218 
 SPBC HN ES        133  7.71                             128   -0.14 9  163 218 
 SPBC HZ I         133 11.51        10.5 0.10            124            163 218 
 ZAR  HZ EP   2    132 50.24                             122    0.64 4  201 292 
 ZAR  HN ES        133 15.14                             122    0.74 9  201 292 
 ZAR  HZ I         133 20.82         7.1 0.34            118            201 292 
 NOR  HZ EP        132 53.75                             117    0.60 8  234 234 
 NOR  HN ES        133 21.55                             117    0.84 8  234 234 
 NOR  HZ I         133 28.24         4.0 0.26            114            234 234 
 SML  HZ EP        132 53.69                             117   -0.15 8  241 336 
 SML  HN ES        133 21.22                             117   -0.73 8  241 336 
 SML  HZ I         133 26.51         8.4 0.10            114            241 336 
 CHI  HZ EP   2    132 55.44                             116    0.07 4  250 194 
 CHI  HN ES        133 23.87                             116   -0.80 8  250 194 
 CHI  HZ I         133 26.35         1.4 0.32            113            250 194 
 HEL  HZ EP   2    132 58.23                             114    0.69 4  270 255 
 HEL  HN ES   4    133 30.25                             114    1.72 0  270 255 
 URE  HN ES   4    133 27.19                             113   -2.66 0  281 292 
 GUY2CHZ EP        133  1.07                             111   -0.01 7  300 234 
 GUY2CHE ES        133 34.52                             111   -0.31 7  300 234 
 GUY2CHZ I         133 42.29         2.2 0.28                           300 234 
 CBOC HZ EP        133  4.61                             109    0.31 7  332 252 
 CBOC HZ I         133 44.70         1.1 0.62            106            332 252 
 MON  HZ EP   4    133  5.00                             108   -1.24 0  350 308 
 MON  HN ES        133 43.17                             108   -0.84 6  350 308 
 MON  HZ I         133 44.12         1.3 0.20            105            350 308 
 SJC  HZ EP        133 11.86                             105   -0.99 6  406 327 
 SJC  HN ES   4    133 52.14                             105   -3.63 0  406 327 
                                                                                
