 2015  210 0938 12.3 L   6.799 -73.159140.4  RSN 15 0.5 2.0LRSN                1
 GAP=135        1.10       2.7     4.2  5.5 -0.2740E+01  0.6498E+01  0.1853E+01E
 Epicentro: LOS SANTOS - SANTANDER                                             3
 ACTION:UPD 15-04-30 21:24 OP:nd   STATUS:               ID:20150210093812 L   I
 OLDACT:REG 15-02-10 13:17 OP:fm   STATUS:               ID:20150210092746     3
 2015-02-10-0927-46M.COL___284                                                 6
 STAT SP IPHASW D HRMM SECON CODA AMPLIT PERI AZIMU VELO AIN AR TRES W  DIS CAZ7
 BAR2 EZ EP        938 31.70                             170    0.4110 23.0 187 
 BAR2 EZ ES        938 46.05                             170   -0.0510 23.0 187 
 BAR2 EZ I         938 48.54        49.6 0.22            170           23.0 187 
 BRR  HZ EP        938 32.95                             152    0.1310 70.0 299 
 BRR  HN ES        938 49.45                             152    0.6410 70.0 299 
 BRR  HZ I         938 52.03        13.2 0.16            150           70.0 299 
 PAM  SZ EP     C  938 34.60                             150    0.5710 78.4  40 
 PAM  SE ES        938 50.73                             150   -0.2310 78.4  40 
 PAM  SZ I         938 54.98         6.8 0.46            153           78.4  40 
 RUS  HZ EP        938 35.73                             143    0.1910  101 175 
 RUS  HE ES        938 53.45                             143   -0.2110  101 175 
 RUS  HZ I         938 55.73        18.8 0.22            145            101 175 
 PTB  HZ EP        938 38.85                             131    0.13 9  146 259 
 PTB  HN ES        938 59.23                             131   -0.08 9  146 259 
 PTB  HZ I         939  5.32        12.0 0.32            131            146 259 
 OCA  HZ EP   1    938 39.79                             128   -0.42 7  160 354 
 OCA  HE ES        939  1.85                             128   -0.12 9  160 354 
 OCA  HZ I         939  6.12         7.2 0.20            130            160 354 
 SPBC HZ EP        938 40.32                             128    0.01 9  162 219 
 SPBC HE ES        939  2.33                             128    0.18 9  162 219 
 SPBC HZ I         939  5.53        24.7 0.34            129            162 219 
 ZAR  HN ES   1    939  9.23                             121    0.01 6  203 292 
 NOR  HE ES        939 14.44                             117   -0.69 8  233 234 
 NOR  HZ I         939 20.65         8.2 0.26            118            233 234 
 SML  HZ EP        938 48.22                             116   -0.37 8  243 336 
 SML  HE ES        939 15.96                             116   -0.93 8  243 336 
 SML  HZ I         939 24.93        13.8 0.10            117            243 336 
 CHI  HZ EP        938 48.76                             116   -0.90 8  248 195 
 CHI  HN ES        939 17.82                             116   -0.98 8  248 195 
 CHI  HZ I         939 24.93         4.9 0.22            117            248 195 
 GUY2CHZ EP        938 56.29                             111    0.75 7  300 235 
 GUY2CHN ES        939 29.28                             111    0.03 7  300 235 
 GUY2CHZ I         939 44.09         4.6 0.54                           300 235 
 RREF HZ EP   4    939  0.86                             110    2.77 0  321 229 
 RREF HN ES   4    939 33.24                             110   -0.56 0  321 229 
 RREF HZ I         939 38.97         5.4 0.26            111            321 229 
 TOL  SZ EP        939  1.31                             108    1.08 7  342 224 
 TOL  SN ES        939 37.99                             108    0.38 7  342 224 
 TOL  SZ I         939 44.13         4.6 0.72            109            342 224 
 ORTC HZ EP        939  6.27                             105    0.33 6  394 216 
 ORTC HE ES        939 47.63                             105   -0.14 6  394 216 
 ORTC HZ I         939 55.53         4.0 0.68            107            394 216 
                                                                                
