 2017 1210 0604 44.4 L   6.848 -73.151137.3  RSN  5 0.3 1.1LRSN                1
 GAP=221        0.77       5.7     4.8  6.4  0.1378E+02  0.3745E+01  0.1026E+02E
 Epicentro: LOS SANTOS - SANTANDER                                             3
 ACTION:UPD 18-01-04 13:18 OP:rebc STATUS:               ID:20171210060444 L   I
 OLDACT:REG 17-12-10 12:55 OP:lv   STATUS:               ID:20171210055743     3
 2017-12-10-0558-00M.COL___481                                                 6
 STAT SP IPHASW D HRMM SECON CODA AMPLIT PERI AZIMU VELO AIN AR TRES W  DIS CAZ7
 BAR2 EZ EP        6 5  3.52                             168    0.3910 28.5 187 
 BAR2 EZ ES        6 5 17.66                             168   -0.0810 28.5 187 
 BAR2 EZ I         6 5 19.34         4.6 0.48            162           28.5 187 
 PTB  HZ EP        6 5 10.30                             130   -0.43 9  148 257 
 PTB  HN ES        6 5 30.99                             130   -0.28 9  148 257 
 PTB  HZ I         6 5 34.21         1.0 0.38            129            148 257 
 YPLC HZ EP        6 5 13.77                             124   -0.32 9  182 152 
 ZAR  HE ES        6 5 41.08                             121    0.36 9  202 291 
 CHI  HZ EP        6 5 22.40                             115    0.21 8  254 195 
 CHI  HE ES        6 5 51.94                             115    0.28 8  254 195 
 CHI  HZ I         6 5 56.31         1.0 0.48            115            254 195 
                                                                                
