 2014  910 0254 55.1 L   6.814 -73.128147.9  RSN 16 0.5 2.2LRSN                1
 GAP=138        1.10       2.6     4.2  5.2 -0.2262E+01  0.5887E+01  0.1892E+01E
 Epicentro: LOS SANTOS - SANTANDER                                             3
 ACTION:UPD 14-10-03 23:03 OP:nd   STATUS:               ID:20140910024810 L   I
 OLDACT:UPD 14-09-10 14:12 OP:FJMB STATUS:               ID:20140910024810 L   3
 2014-09-10-0248-10M.COL___278                                                 6
 STAT SP IPHASW D HRMM SECON CODA AMPLIT PERI AZIMU VELO AIN AR TRES W  DIS CAZ7
 BAR2 SZ IP     C  255 15.02                             170    0.0110 25.2 194 
 BAR2 SZ ES        255 30.25                             170   -0.3010 25.2 194 
 BAR2 SZ I         255 31.74        22.6 0.28            168           25.2 194 
 BRR  HZ IP     C  255 16.98                             153    0.4510 72.2 297 
 BRR  HN ES        255 34.34                             153    1.1010 72.2 297 
 BRR  HZ I         255 39.24        17.0 0.14            149           72.2 297 
 PAM  SZ EP        255 17.79                             152    0.4010 75.0  39 
 PAM  SN ES        255 34.73                             152   -0.0610 75.0  39 
 PAM  SZ I         255 37.23        17.1 0.20            157           75.0  39 
 RUS  HZ EP        255 18.92                             144   -0.2310  102 177 
 RUS  HN ES        255 37.31                             144   -0.6010  102 177 
 RUS  HZ I         255 38.84         9.6 0.42            146            102 177 
 PTB  HZ EP        255 21.95                             132   -0.48 9  150 258 
 PTB  HN ES        255 43.35                             132   -0.40 9  150 258 
 PTB  HZ I         255 49.02        24.1 0.40            131            150 258 
 OCA  HZ EP        255 24.15                             130    0.70 9  159 352 
 OCA  HN ES        255 45.43                             130   -0.14 9  159 352 
 OCA  HZ I         255 51.00        18.5 0.26            132            159 352 
 SPBC HZ EP        255 23.98                             129    0.00 9  166 219 
 SPBC HN ES        255 46.48                             129   -0.03 9  166 219 
 SPBC HZ I         255 53.13        34.7 0.32            130            166 219 
 ZAR  HZ EP        255 27.35                             123   -0.45 8  205 292 
 ZAR  HN ES        255 53.03                             123   -0.29 8  205 292 
 ZAR  HZ I         255 59.54        20.1 0.60            123            205 292 
 NOR  HZ EP        255 30.38                             119   -0.83 8  237 234 
 NOR  HN ES        255 59.59                             119    0.22 8  237 234 
 NOR  HZ I         256  2.72        13.2 0.20            119            237 234 
 SML  HZ EP        255 31.59                             118   -0.19 8  243 335 
 SML  HN ES        255 59.85                             118   -0.54 8  243 335 
 SML  HZ I         256  4.73        28.9 0.10            119            243 335 
 CHI  HZ EP        255 33.04                             117   -0.08 8  251 196 
 CHI  HN ES        256  3.18                             117    0.40 8  251 196 
 CHI  HZ I         256  8.34         5.8 0.34            119            251 196 
 GUY2CHZ EP        255 39.32                             112    0.25 7  304 235 
 GUY2CHN ES        256 13.28                             112   -0.10 7  304 235 
 GUY2CHZ I         256 21.85        12.9 0.78                           304 235 
 CBOC HZ EP   4    255 42.85                             110    0.49 0  336 252 
 CBOC HN ES   4    256 20.34                             110    1.12 0  336 252 
 CBOC HZ I         256 30.46         2.7 0.58            111            336 252 
 TOL  SZ EP        255 44.04                             109    0.33 6  346 225 
 TOL  SN ES        256 21.53                             109   -0.10 6  346 225 
 TOL  SZ I         256 28.23        17.1 0.54            111            346 225 
 PRA  HZ EP        255 48.79                             107   -0.16 6  394 210 
 PRA  HE ES        256 31.19                             107    0.23 6  394 210 
 PRA  HZ I         256 36.48         7.3 0.60            108            394 210 
 ORTC HZ EP        255 49.42                             107    0.06 6  398 216 
 ORTC HN ES        256 33.28                             107    1.59 6  398 216 
 ORTC HZ I         256 36.63         5.0 0.38            108            398 216 
                                                                                
