 2017  110 0330 13.2 L   6.123 -73.303154.7  RSN  9 0.2 1.4LRSN                1
 GAP=110        0.56       2.1     2.4  4.0 -0.8271E+00  0.1870E+01 -0.2494E+00E
 Epicentro: OIBA - SANTANDER                                                   3
 ACTION:UPD 17-05-22 15:57 OP:jn   STATUS:               ID:20170110033013 L   I
 OLDACT:UP  17-01-10 14:25 OP:and  STATUS:               ID:20170110032749     3
 OLDACT:UP  17-01-10 14:24 OP:and  STATUS:               ID:20170110032749     3
 OLDACT:UP  17-01-10 14:24 OP:and  STATUS:               ID:20170110032749     3
 OLDACT:REG 17-01-10 12:32 OP:and  STATUS:               ID:20170110032749     3
 2017-01-10-0328-00M.COL___354                                                 6
 STAT SP IPHASW D HRMM SECON CODA AMPLIT PERI AZIMU VELO AIN AR TRES W  DIS CAZ7
 RUS  HZ EP        330 34.63                             167    0.1010 35.2 136 
 RUS  HN ES        330 51.47                             167    0.2710 35.2 136 
 RUS  HZ I         330 53.61         3.1 0.26            172           35.2 136 
 BAR2 EZ IP     D  330 34.63                             160   -0.1710 53.6  14 
 BAR2 EZ ES        330 51.48                             160   -0.1910 53.6  14 
 BRR  HZ EP        330 38.55                             141    0.1810  118 337 
 BRR  HN ES   4    330 59.88                             141    1.84 0  118 337 
 BRR  HZ I         331  5.45         4.1 0.22            141            118 337 
 PTB  HZ EP        330 39.46                             137   -0.37 9  136 290 
 PTB  HN ES        331  0.82                             137    0.18 9  136 290 
 PTB  HZ I         331  2.23         7.2 0.12            136            136 290 
 PAM  EZ EP        330 41.84                             134    0.11 9  150  26 
 PAM  EN ES        331  4.09                             134    0.07 9  150  26 
 PAM  EZ I         331  6.01         1.9 0.36            137            150  26 
 CHI  HZ EP        330 43.73                             130    0.13 9  172 196 
 CHI  HN ES        331  7.00                             130   -0.35 9  172 196 
 CHI  HZ I         331 10.92         1.6 0.29            132            172 196 
 NOR  HZ EP   3    330 45.32                             127    1.02 2  184 250 
 NOR  HN ES        331  8.69                             127    0.11 9  184 250 
 NOR  HZ I         331 13.89         3.6 0.17            128            184 250 
 ZAR  HN ES        331 16.39                             121   -0.17 8  229 311 
 ZAR  HZ I         331 23.46         5.7 0.38            122            229 311 
 CBOC HZ EP   4    330 57.12                             114    0.30 0  301 265 
 CBOC HN ES   4    331 29.31                             114   -1.57 0  301 265 
 CBOC HZ I         331 35.61         0.8 0.14            115            301 265 
                                                                                
