 2017  710 0602 54.7 L   7.299 -73.181128.0  RSN  5 0.3 1.2LRSN                1
 GAP=169        0.64       5.4     3.1  6.5 -0.4282E+01  0.8925E+01 -0.1163E+02E
 Epicentro: RIONEGRO - SANTANDER                                               3
 ACTION:UPD 17-08-30 15:31 OP:rebc STATUS:               ID:20170710060254 L   I
 OLDACT:DUP 17-07-10 17:25 OP:dnl  STATUS:               ID:20170710055744d    3
 OLDACT:UP  17-07-10 16:50 OP:dnl  STATUS:               ID:20170710055743     3
 OLDACT:UP  17-07-10 16:49 OP:dnl  STATUS:               ID:20170710055743     3
 OLDACT:UP  17-07-10 16:48 OP:dnl  STATUS:               ID:20170710055743     3
 OLDACT:REG 17-07-10 13:01 OP:dnl  STATUS:               ID:20170710055743     3
 2017-07-10-0558-00M.COL___371                                                 6
 STAT SP IPHASW D HRMM SECON CODA AMPLIT PERI AZIMU VELO AIN AR TRES W  DIS CAZ7
 PAM  EZ EP        6 3 13.53                             157   -0.1510 53.3  85 
 PAM  EN ES        6 3 28.75                             157    0.2810 53.3  85 
 PAM  EZ I         6 3 30.96         6.0 0.78            157           53.3  85 
 BRR  HZ IP     C  6 3 13.20                             153   -0.2510 62.4 250 
 BRR  HN ES        6 3 28.21                             153    0.1510 62.4 250 
 BRR  HZ I         6 3 29.09         3.1 0.10            152           62.4 250 
 BAR2 EZ ES        6 3 30.22                             147   -0.2010 78.2 180 
 BAR2 EZ I         6 3 34.18         2.8 0.46            145           78.2 180 
 PTB  HZ EP   2    6 3 21.79                             125   -0.13 5  164 239 
 PTB  HN ES        6 3 43.44                             125    0.31 9  164 239 
 PTB  HZ I         6 3 46.88         0.9 0.20            125            164 239 
 ZAR  HZ EP   2    6 3 24.94                             121    0.74 4  186 277 
 ZAR  HE ES        6 3 46.94                             121   -0.25 9  186 277 
 ZAR  HZ I         6 3 47.74         3.0 0.18            122            186 277 
                                                                                
