 2017  210 0918 29.1 L   6.752 -73.198133.4  RSN  5 0.4 1.1LRSN                1
 GAP=228        1.11       9.1     7.5  9.8  0.3885E+02  0.9304E+01 -0.2724E+02E
 Epicentro: VILLANUEVA - SANTANDER                                             3
 ACTION:UPD 17-05-24 15:34 OP:jn   STATUS:               ID:20170210091829 L   I
 OLDACT:UP  17-02-10 18:58 OP:edw  STATUS:               ID:20170210091747     3
 OLDACT:REG 17-02-10 12:23 OP:edw  STATUS:               ID:20170210091747     3
 2017-02-10-0918-00M.COL___352                                                 6
 STAT SP IPHASW D HRMM SECON CODA AMPLIT PERI AZIMU VELO AIN AR TRES W  DIS CAZ7
 BAR2 EZ EP        918 46.79                             172   -0.3110 17.8 174 
 BAR2 EZ ES        919  1.01                             172   -0.1610 17.8 174 
 BAR2 EZ I         919  2.94         4.0 0.40            174           17.8 174 
 BRR  HZ EP        918 48.76                             151   -0.0010 69.0 305 
 BRR  HN ES   4    919  6.12                             151    1.99 0 69.0 305 
 RUS  HZ EP        918 51.32                             142    0.0510 95.9 172 
 RUS  HN ES        919  9.07                             142    0.4810 95.9 172 
 RUS  HZ I         919 10.13         1.6 0.22            146           95.9 172 
 PTB  HZ EP        918 53.57                             130   -0.86 9  141 260 
 PTB  HN ES        919 14.10                             130   -0.11 9  141 260 
 PTB  HZ I         919 16.21         1.5 0.32            131            141 260 
 ZAR  HZ EP        919  1.21                             120    0.82 9  201 294 
 ZAR  HN ES        919 25.11                             120    0.28 9  201 294 
 ZAR  HZ I         919 31.59         1.8 0.32            121            201 294 
                                                                                
