 2012  110 0008 37.8 L   6.742 -73.128140.6  RSN  9 0.3 2.0LRSN                1
 GAP=141        0.59       2.8     3.6  5.1 -0.1846E+00  0.1938E+01  0.6682E+00E
 Epicentro: JORDAN - SANTANDER                                                 3
 ACTION:UP  12-02-03 08:16 OP:REBC STATUS:               ID:20120110000837 L   I
 2012-01-10-0000-00M.COL___186                                                 6
 STAT SP IPHASW D HRMM SECON CODA AMPLIT PERI AZIMU VELO SNR AR TRES W  DIS CAZ7
 BAR2 SZ EP   2    0 8 56.63                             172     0.0 5   18 200 
 BAR2 SZ ES   2    0 9 11.44                             172     0.0 5   18 200 
 BAR2 SZ I         0 9 12.57        44.6 0.28                            18 200 
 BRR  HZ EP   1    0 8 58.55                             150    -0.1 7   76 302 
 BRR  HZ I         0 8 58.91        22.5 0.11                            76 302 
 BRR  HE ES   1    0 9 15.51                             150     0.6 7   76 302 
 PAM  SZ EP        0 8 59.53                             149    -0.210   81  36 
 PAM  SN ES   2    0 9 16.45                             149    -0.3 5   81  36 
 RUS  HZ EP   1    0 9  0.50                             145     0.0 7   94 177 
 RUS  HN ES   1    0 9 18.47                             145     0.2 7   94 177 
 RUS  HZ I         0 9 20.21         9.0 0.41                            94 177 
 PTB  HZ EP   2    0 9  3.89                             131    -0.5 5  149 261 
 PTB  HE ES   2    0 9 24.50                             131    -0.7 5  149 261 
 OCA  SZ EP   1    0 9  6.72                             127     0.4 7  167 353 
 OCA  SZ ES   1    0 9 28.30                             127    -0.3 7  167 353 
 OCA  SZ I         0 9 32.30        14.6 0.20                           167 353 
 ZAR  HZ EP   2    0 9 10.16                             121    -0.2 4  208 294 
 ZAR  HN ES   1    0 9 35.86                             121     0.1 6  208 294 
 ZAR  HZ I         0 9 40.86        10.4 0.24                           208 294 
 NOR  SZ EP   1    0 9 13.19                             118     0.2 6  233 236 
 NOR  SN ES   2    0 9 40.17                             118    -0.3 4  233 236 
 CHI  HZ EP   1    0 9 14.75                             117     0.2 6  243 196 
                                                                                
