 2010  910 0649 54.9 L   6.776 -73.094139.2  RSN  4 0.1 1.2LRSN                1
 GAP=191        0.38       4.3     6.0  6.8 -0.1702E+02 -0.2403E+02  0.1489E+02E
 Epicentro: LOS SANTOS - SANTANDER                                             3
 ACTION:UP  11-02-18 11:01 OP:tino STATUS:               ID:20100910064954 L   I
 2010-09-10-0648-18S.COL___120                                                 6
 STAT SP IPHASW D HRMM SECON CODA AMPLIT PERI AZIMU VELO SNR AR TRES W  DIS CAZ7
 BAR2 SZ EP        650 13.77                             170     0.010   23 206 
 BAR2 SZ I         650 29.65         4.8 0.23                            23 206 
 BRR  HZ EP   1    650 15.73                             149     0.0 7   78 298 
 BRR  HE ES   1    650 32.02                             149     0.0 7   78 298 
 BRR  HZ I         650 36.77         4.6 0.10                            78 298 
 GUE  SZ EP        650 19.33                             137     0.110  118   9 
 GUE  SZ I         650 19.68         1.2 0.01                           118   9 
 GRA  SZ EP   1    650 19.52                             135    -0.2 7  127  15 
 GRA  SZ ES        650 38.97                             135     0.010  127  15 
 GRA  SZ I         650 40.64         3.0 0.35                           127  15 
                                                                                
