 2012  210 0601 43.6 L   6.752 -73.124141.4  RSN  9 0.4 1.7LRSN                1
 GAP=141        0.58       3.9     3.9  5.8 -0.2007E+01  0.1607E+01  0.2005E+01E
 ACTION:UP  12-03-07 16:29 OP:epov STATUS:               ID:20120210060143 L   I
 2012-02-10-0600-00M.COL___188                                                 6
 STAT SP IPHASW D HRMM SECON CODA AMPLIT PERI AZIMU VELO AIN AR TRES W  DIS CAZ7
 BAR2 SZ EP   1    6 2  2.71                             172    0.07 7 18.8 200 
 BAR2 SZ ES   2    6 2 16.95                             172   -0.53 5 18.8 200 
 BAR2 SZ I         6 2 18.74        12.8 0.30                          18.8 200 
 GIR2 SZ EP   2    6 2  2.72                             165   -0.23 5 36.9 348 
 GIR2 SZ ES   2    6 2 17.75                             165   -0.27 5 36.9 348 
 BRR  HZ EP        6 2  4.55                             150   -0.0310 75.9 301 
 BRR  HE ES   1    6 2 21.56                             150    0.63 7 75.9 301 
 BRR  HZ I         6 2 25.38        11.2 0.23                          75.9 301 
 PAM  SZ EP        6 2  5.52                             149   -0.0210 80.1  36 
 PAM  SE ES   2    6 2 22.46                             149   -0.18 5 80.1  36 
 RUS  HZ EP   2    6 2  6.81                             144    0.26 5 95.2 177 
 RUS  HE ES   2    6 2 24.83                             144    0.39 5 95.2 177 
 RUS  HZ I         6 2 27.21         5.4 0.31                          95.2 177 
 PTB  HZ EP   2    6 2  9.66                             131   -0.71 5  149 261 
 PTB  HN ES   2    6 2 30.58                             131   -0.66 5  149 261 
 ZAR  HZ EP   2    6 2 16.78                             121    0.55 4  208 293 
 ZAR  HE ES   2    6 2 41.43                             121   -0.24 4  208 293 
 ZAR  HZ I         6 2 49.87         4.9 0.25                           208 293 
 NOR  SN ES   2    6 2 46.70                             118    0.12 4  234 236 
 CHI  HN ES   2    6 2 49.56                             117    0.12 4  244 196 
                                                                                
