 2016  410 0523 19.4 L   6.760 -73.141143.5  RSN 14 0.4 2.1LRSN                1
 GAP= 73        0.87       2.5     2.4  4.7 -0.5541E+00  0.3792E+01  0.2903E+00E
 Epicentro: LOS SANTOS - SANTANDER                                             3
 ACTION:UPD 16-05-05 14:20 OP:rebc STATUS:               ID:20160410052319 L   I
 OLDACT:REG 16-04-10 12:37 OP:mh   STATUS:               ID:20160410051749     3
 2016-04-10-0517-49M.COL___279                                                 6
 STAT SP IPHASW D HRMM SECON CODA AMPLIT PERI AZIMU VELO AIN AR TRES W  DIS CAZ7
 BAR2 EZ EP     C  523 38.79                             172    0.1610 19.0 194 
 BAR2 EZ ES        523 53.62                             172   -0.0410 19.0 194 
 BAR2 EZ I         523 54.82        25.3 0.33            175           19.0 194 
 PAM  EZ EP     C  523 41.89                             149    0.3710 80.6  37 
 PAM  EN ES        523 59.16                             149    0.3510 80.6  37 
 PAM  EZ I         524  2.61        11.7 0.58            149           80.6  37 
 RUS  HZ EP     C  523 42.50                             145   -0.0610 96.1 176 
 RUS  HN ES        524  0.73                             145    0.0710 96.1 176 
 RUS  HZ I         524  1.96        29.3 0.30            148           96.1 176 
 PTB  HZ EP        523 45.32                             132   -0.78 9  147 261 
 PTB  HN ES        524  6.19                             132   -0.78 9  147 261 
 PTB  HZ I         524  9.03        14.6 0.30            133            147 261 
 TAM  HZ EP     C  523 47.02                             130    0.32 9  154 103 
 TAM  HN ES        524  7.97                             130   -0.07 9  154 103 
 TAM  HZ I         524 16.77        10.5 0.40            133            154 103 
 SPBC HZ EP     C  523 47.43                             129    0.05 9  160 220 
 SPBC HN ES        524  9.32                             129    0.08 9  160 220 
 SPBC HZ I         524 11.83        17.4 0.14            132            160 220 
 OCA  HZ EP        523 47.36                             128   -0.55 9  165 353 
 OCA  HE ES        524  9.89                             128   -0.30 9  165 353 
 OCA  HZ I         524 19.53        40.7 0.50            128            165 353 
 ZAR  HZ EP        523 51.90                             122    0.03 8  206 293 
 ZAR  HN ES        524 17.69                             122    0.45 8  206 293 
 ZAR  HZ I         524 23.97        21.3 0.28            122            206 293 
 NOR  HZ EP        523 54.38                             118   -0.33 8  233 235 
 NOR  HN ES        524 22.45                             118    0.15 8  233 235 
 NOR  HZ I         524 24.01        10.7 0.38            120            233 235 
 CHI  HZ EP        523 56.16                             117   -0.31 8  244 196 
 CHI  HN ES        524 25.28                             117   -0.14 8  244 196 
 CHI  HZ I         524 28.75         6.0 0.12            119            244 196 
 HEL  HZ EP        523 59.43                             114    0.05 8  271 257 
 HEL  HN ES        524 31.10                             114    0.50 8  271 257 
 HEL  HZ I         524 37.90         6.6 0.30            116            271 257 
 URE  HZ EP   4    523 59.20                             113   -1.35 0  286 293 
 URE  HN ES        524 32.89                             113    0.21 7  286 293 
 URE  HZ I         524 42.48        10.0 0.28            114            286 293 
 GUY2CHZ EP   1    524  3.30                             112    0.69 5  299 236 
 GUY2CHN ES   4    524 38.66                             112    2.31 0  299 236 
 GUY2CHZ I         524 44.80         5.9 0.56                           299 236 
 CBOC HZ EP        524  6.72                             109    0.65 7  333 253 
 CBOC HN ES        524 42.57                             109    0.06 7  333 253 
                                                                                
