 2016  710 0841 34.6 L   6.816 -73.149146.9  RSN 14 0.4 2.1LRSN                1
 GAP=135        0.88       3.3     3.7  5.8  0.9465E-02  0.9728E+01  0.4032E+01E
 Epicentro: LOS SANTOS - SANTANDER                                             3
 ACTION:UPD 17-03-29 16:49 OP:lp   STATUS:               ID:20160710084134 L   I
 OLDACT:UP  16-07-10 17:05 OP:dani STATUS:               ID:20160710083745     3
 OLDACT:UP  16-07-10 17:05 OP:dani STATUS:               ID:20160710083745     3
 OLDACT:UP  16-07-10 17:01 OP:dani STATUS:               ID:20160710083745     3
 OLDACT:REG 16-07-10 13:19 OP:dani STATUS:               ID:20160710083745     3
 2016-07-10-0837-45M.COL___313                                                 6
 STAT SP IPHASW D HRMM SECON CODA AMPLIT PERI AZIMU VELO AIN AR TRES W  DIS CAZ7
 BAR2 EZ EP        841 54.38                             170    0.0110 25.0 189 
 BAR2 EZ ES        842  9.53                             170   -0.2810 25.0 189 
 BAR2 EZ I         842 11.09        29.1 0.18            169           25.0 189 
 PAM  EN ES        842 14.53                             151    0.3210 76.3  41 
 RUS  HZ EP        841 58.20                             143   -0.3510  102 176 
 RUS  HE ES        842 17.77                             143    0.5010  102 176 
 RUS  HZ I         842 18.28        14.8 0.30            143            102 176 
 PTB  HZ EP        842  1.14                             132   -0.49 9  148 258 
 PTB  HN ES        842 22.14                             132   -0.60 9  148 258 
 PTB  HZ I         842 24.59         8.7 0.40            130            148 258 
 SPBC HZ EP        842  3.14                             129   -0.12 9  164 219 
 SPBC HN ES        842 25.25                             129   -0.39 9  164 219 
 SPBC HZ I         842 30.03        21.0 0.34            127            164 219 
 ZAR  HZ EP        842  7.11                             123    0.12 9  203 292 
 ZAR  HE ES        842 32.34                             123    0.06 9  203 292 
 ZAR  HZ I         842 39.16        13.6 0.40            121            203 292 
 NOR  HZ EP        842 11.07                             119    0.63 8  235 234 
 NOR  HE ES        842 38.94                             119    0.52 8  235 234 
 NOR  HZ I         842 46.23         9.2 0.18            117            235 234 
 CHI  HZ EP   4    842 11.40                             117   -1.10 0  250 195 
 CHI  HE ES        842 42.05                             117   -0.04 8  250 195 
 CHI  HZ I         842 51.61         6.1 0.42            116            250 195 
 HEL  HN ES        842 46.92                             115    0.65 8  272 255 
 GUY2CHZ EP   4    842 20.26                             112    1.95 0  302 234 
 GUY2CHN ES        842 52.68                             112    0.25 7  302 234 
 GUY2CHE ES   4    842 55.70                             112    3.27 0  302 234 
 GUY2CHZ I         843  0.52         6.1 0.34                           302 234 
 ARGC HZ EP   9    842 24.92                             108    0.86 0  357 340 
 ARGC HN ES        843  3.35                             109   -0.18 6  357 340 
 ARGC HZ I         843  9.90         2.6 0.36            107            357 340 
 ANIL HN ES   4    843  5.79                             108    2.29 0  358 224 
 PRA  HZ EP        842 28.02                             107   -0.26 6  393 209 
 PRA  HE ES        843  9.90                             107   -0.28 6  393 209 
 PRA  HZ I         843 15.33         4.9 0.32            106            393 209 
 SJC  HZ EP   4    842 28.52                             106   -1.45 0  408 327 
 SJC  HN ES   4    843  9.74                             106   -3.45 0  408 327 
 SJC  HZ I         843 17.49         2.0 0.46            105            408 327 
 CRJC HZ EP   9    842 34.81                             103   -2.08 0  466   4 
 CRJC HE ES        843 23.12                             104   -0.31 5  466   4 
 CRJC HZ I         843 29.50         6.9 0.36            103            466   4 
                                                                                
