 2017  610 0907 16.1 L   6.777 -73.144157.6  RSN  6 0.3 1.5LRSN                1
 GAP=236        0.78       4.2     4.8  6.8  0.6321E+01  0.9988E+00  0.1474E+01E
 Epicentro: LOS SANTOS - SANTANDER                                             3
 ACTION:UPD 17-09-14 16:51 OP:jn   STATUS:               ID:20170610090716 L   I
 OLDACT:DUP 17-06-10 15:43 OP:osc  STATUS:               ID:20170610085643d    3
 OLDACT:REG 17-06-10 14:08 OP:cog  STATUS:               ID:20170610085641     3
 2017-06-10-0858-00M.COL___329                                                 6
 STAT SP IPHASW D HRMM SECON CODA AMPLIT PERI AZIMU VELO AIN AR TRES W  DIS CAZ7
 BRR  HZ EP        9 7 38.78                             154    0.1410 72.6 300 
 BRR  HN ES        9 7 56.52                             154    0.3210 72.6 300 
 RUS  HZ EP        9 7 40.61                             147   -0.2810 98.1 176 
 RUS  HN ES        9 7 59.99                             147   -0.2110 98.1 176 
 RUS  HZ I         9 8  0.49         2.4 0.66            144           98.1 176 
 PTB  HZ EP        9 7 43.91                             135   -0.15 9  147 260 
 PTB  HN ES        9 8  5.21                             135   -0.64 9  147 260 
 PTB  HZ I         9 8 12.23         4.5 0.38            129            147 260 
 SPBC HZ EP        9 7 45.74                             132    0.35 9  161 220 
 SPBC HE ES        9 8  8.68                             132    0.46 9  161 220 
 SPBC HZ I         9 8 11.37         5.3 0.14            128            161 220 
 ZAR  HZ EP   4    9 7 51.54                             125    2.06 0  205 293 
 ZAR  HE ES        9 8 15.50                             125   -0.00 9  205 293 
 ZAR  HZ I         9 8 22.20         5.6 0.28            122            205 293 
 NOR  HZ EP   2    9 7 52.44                             121    0.01 4  233 235 
 NOR  HE ES        9 8 20.80                             121    0.05 8  233 235 
 NOR  HZ I         9 8 30.50         1.4 0.32            118            233 235 
                                                                                
