 2012  510 0110 14.3 L   6.500 -73.138169.1  RSN  4 0.3 1.5LRSN                1
 GAP=201        0.77       8.5     8.1  7.9  0.3345E+02  0.1793E+01  0.1874E+01E
 Epicentro: VALLE DE SAN JOSE - SANTANDER                                      3
 ACTION:UP  12-07-05 12:03 OP:pat  STATUS:               ID:20120510011014 L   I
 2012-05-10-0110-00M.COL___195                                                 6
 STAT SP IPHASW D HRMM SECON CODA AMPLIT PERI AZIMU VELO SNR AR TRES W  DIS CAZ7
 BAR2 SZ EP        110 36.29                             176    -0.310   11 334 
 BAR2 SZ ES   1    110 53.56                             176    -0.4 7   11 334 
 BAR2 SZ I         110 54.54         5.8 0.45                            11 334 
 RUS  HZ EP        110 38.69                             157     0.110   67 175 
 RUS  HN ES   1    110 57.82                             157     0.3 7   67 175 
 RUS  HZ I         110 59.23         2.5 0.33                            67 175 
 BRR  HZ EP   1    110 39.61                             150     0.4 7   92 317 
 BRR  HZ I         110 49.42         9.4 0.36                            92 317 
 BRR  HN ES   1    110 58.98                             150     0.4 7   92 317 
 PTB  HZ EP   1    110 42.98                             137    -0.1 7  146 272 
 PTB  HN ES   1    111  5.41                             137    -0.2 7  146 272 
                                                                                
