 2017  910 0524 56.9 L   6.788 -73.104146.7  RSN  8 0.3 1.6LRSN                1
 GAP=142        0.87       3.5     4.1  5.3 -0.1765E+01  0.7580E+01  0.1750E+01E
 Epicentro: LOS SANTOS - SANTANDER                                             3
 ACTION:UPD 17-10-05 19:10 OP:rebc STATUS:               ID:20170910052456 L   I
 OLDACT:DUP 17-09-10 16:57 OP:dhb  STATUS:               ID:20170910051741d    3
 OLDACT:REG 17-09-10 13:03 OP:dhb  STATUS:               ID:20170910051740     3
 2017-09-10-0518-00M.COL___407                                                 6
 STAT SP IPHASW D HRMM SECON CODA AMPLIT PERI AZIMU VELO AIN AR TRES W  DIS CAZ7
 BAR2 EZ IP     C  525 16.44                             171   -0.1910 23.3 202 
 BAR2 EZ ES        525 31.47                             171   -0.5610 23.3 202 
 BAR2 EZ I         525 34.14         5.5 0.12            168           23.3 202 
 PAM  EZ EP        525 19.58                             152    0.4810 75.6  36 
 PAM  EN ES        525 36.35                             152   -0.0710 75.6  36 
 PAM  EZ I         525 38.49         3.5 0.53            156           75.6  36 
 BRR  HZ EP        525 18.38                             151   -0.0310 75.9 298 
 BRR  HE ES        525 35.76                             151    0.5710 75.9 298 
 BRR  HZ I         525 40.56         6.3 0.34            149           75.9 298 
 RUS  HZ EP        525 20.73                             144    0.1110 99.0 179 
 RUS  HN ES        525 39.20                             144    0.0710 99.0 179 
 RUS  HZ I         525 40.77         2.9 0.17            147           99.0 179 
 SPBC HZ EP        525 25.31                             129   -0.33 9  165 221 
 SPBC HE ES        525 48.17                             129    0.11 9  165 221 
 SPBC HZ I         525 53.02         6.2 0.16            130            165 221 
 ZAR  HZ EP        525 29.18                             122   -0.71 8  209 292 
 ZAR  HE ES        525 55.49                             122   -0.14 8  209 292 
 ZAR  HZ I         526  1.11         4.0 0.30            123            209 292 
 NOR  HZ EP        525 33.07                             118    0.08 8  238 235 
 NOR  HN ES        526  1.31                             118    0.16 8  238 235 
 NOR  HZ I         526  6.74         3.8 0.09            120            238 235 
 GUY2CHZ EP        525 41.32                             112    0.44 7  304 235 
 GUY2CHN ES   4    526 19.08                             112    3.89 0  304 235 
 GUY2CHZ I         526 23.37         3.0 0.60                           304 235 
                                                                                
