 2013  210 0027 52.3 L   6.816 -73.132140.7  RSN  7 0.5 1.7LRSN                1
 GAP=137        0.98       4.7     5.3  8.6  0.4294E+01  0.1062E+02  0.1122E+02E
 Epicentro: LOS SANTOS - SANTANDER                                             3
 ACTION:UPD 13-03-12 09:31 OP:ep   STATUS:               ID:20130210002752 L   I
 2013-02-10-0020-00M.COL___240                                                 6
 STAT SP IPHASW D HRMM SECON CODA AMPLIT PERI AZIMU VELO AIN AR TRES W  DIS CAZ7
 BAR2 SZ EP        028 11.39                             169    0.0610 25.4 193 
 BAR2 SZ IP        028 11.39                             169           25.4 193 
 BAR2 SZ ES   1    028 26.15                             169   -0.04 7 25.4 193 
 BAR2 SZ I         028 27.09        13.3 0.42            166           25.4 193 
 BRR  HZ EP   1    028 13.60                             151    0.71 7 71.7 297 
 BRR  HN ES   1    028 29.56                             151    0.57 7 71.7 297 
 BRR  HN I         028 30.28        21.9 0.22            152           71.7 297 
 PAM  SZ EP   1    028 14.42                             151    0.62 7 75.0  40 
 PAM  SE ES   1    028 29.73                             151   -0.86 7 75.0  40 
 PAM  SN I         028 32.62         6.4 0.38            153           75.0  40 
 RUS  HZ EP   1    028 15.46                             142   -0.18 7  102 177 
 RUS  HN ES   1    028 33.92                             142    0.04 7  102 177 
 RUS  HN I         028 35.19         5.5 0.22            140            102 177 
 PTB  HZ EP   1    028 18.27                             130   -0.72 7  150 258 
 PTB  HN ES   1    028 39.36                             130   -0.48 7  150 258 
 PTB  HN I         028 41.47         9.9 0.34            130            150 258 
 ZAR  HN ES        028 49.54                             121   -0.03 9  205 292 
 ZAR  HN I         028 51.06         6.3 0.42            122            205 292 
 CHI  HZ EP   1    028 29.41                             116   -0.51 6  251 195 
 CHI  HE ES        028 59.67                             116    0.38 8  251 195 
 CHI  HE I         029  8.71         2.3 0.52            115            251 195 
                                                                                
