 2017  210 0210 46.0 L   6.736 -73.213131.5  RSN  4 0.3 1.0LRSN                1
 GAP=221        0.75       5.5     5.3  6.1  0.1472E+02  0.5581E+01  0.3044E+01E
 Epicentro: VILLANUEVA - SANTANDER                                             3
 ACTION:UPD 17-05-24 15:34 OP:jn   STATUS:               ID:20170210021046 L   I
 OLDACT:UP  17-02-10 14:34 OP:edw  STATUS:               ID:20170210020635     3
 OLDACT:REG 17-02-10 11:53 OP:edw  STATUS:               ID:20170210020635     3
 2017-02-10-0208-00M.COL___364                                                 6
 STAT SP IPHASW D HRMM SECON CODA AMPLIT PERI AZIMU VELO AIN AR TRES W  DIS CAZ7
 BAR2 EZ EP        211  3.98                             173    0.2510 16.2 168 
 BAR2 EZ ES        211 17.10                             173   -0.5010 16.2 168 
 BAR2 EZ I         211 18.77         2.0 0.09            174           16.2 168 
 BRR  HZ EP        211  5.32                             151   -0.1110 68.8 307 
 BRR  HN ES        211 20.96                             151    0.3410 68.8 307 
 BRR  HZ I         211 25.64         3.5 0.50            151           68.8 307 
 RUS  HZ EP        211  7.67                             142   -0.1810 94.3 171 
 RUS  HN ES        211 25.27                             142    0.3410 94.3 171 
 RUS  HZ I         211 27.01         1.9 0.48            146           94.3 171 
 PTB  HZ EP        211 10.93                             130   -0.05 9  139 261 
 PTB  HN ES        211 30.39                             130   -0.12 9  139 261 
 PTB  HZ I         211 32.92         1.1 0.34            132            139 261 
                                                                                
