 2017  510 0350  2.2 L   6.737 -73.144135.3  RSN  5 0.2 1.0LRSN                1
 GAP=140        0.67       3.2     3.0  6.0  0.5896E+00  0.3589E+01  0.1593E+01E
 Epicentro: LOS SANTOS - SANTANDER                                             3
 ACTION:UPD 17-06-16 13:34 OP:jn   STATUS:               ID:20170510035002 L   I
 OLDACT:DUP 17-05-10 18:03 OP:edw  STATUS:               ID:20170510034737d    3
 OLDACT:UP  17-05-10 18:03 OP:edw  STATUS:               ID:20170510034736     3
 OLDACT:REG 17-05-10 13:13 OP:osc  STATUS:               ID:20170510034736     3
 2017-05-10-0348-00M.COL___356                                                 6
 STAT SP IPHASW D HRMM SECON CODA AMPLIT PERI AZIMU VELO AIN AR TRES W  DIS CAZ7
 BRR  HZ EP        350 22.26                             149   -0.2010 74.9 303 
 BRR  HN ES        350 38.66                             149    0.4010 74.9 303 
 PAM  EZ EP        350 23.59                             147   -0.0710 82.7  36 
 PAM  EE ES        350 40.27                             147   -0.1210 82.7  36 
 RUS  HZ EP        350 24.88                             144    0.4610 93.7 176 
 RUS  HN ES        350 41.52                             144   -0.2410 93.7 176 
 RUS  HZ I         350 44.29         2.0 0.30            144           93.7 176 
 PTB  HZ EP        350 28.21                             130   -0.04 9  147 262 
 PTB  HN ES        350 48.38                             130   -0.18 9  147 262 
 PTB  HZ I         350 54.90         1.1 0.64            130            147 262 
 ZAR  HN ES        350 59.26                             120   -0.07 8  207 294 
                                                                                
