 2011  510 0650 22.9 L   6.341 -73.646 99.6  RSN  9 0.3 1.7LRSN                1
 GAP=101        0.54       4.5     4.7  9.3 -0.4996E+01  0.3178E+02  0.8020E+01E
 Epicentro: SANTA HELENA DEL OPON - SANTANDER                                  3
 ACTION:UP  11-06-29 08:52 OP:tino STATUS:               ID:20110510065022 L   I
 2011-05-10-0648-22S.COL___133                                                 6
 STAT SP IPHASW D HRMM SECON CODA AMPLIT PERI AZIMU VELO SNR AR TRES W  DIS CAZ7
 BAR2 SZ IP        650 38.77                             148     0.110   58  62 
 BAR2 SZ ES   1    650 51.16                             148     0.1 7   58  62 
 BAR2 SZ I         650 52.72        32.9 0.03                            58  62 
 BTL  SZ EP        650 39.87                             140    -0.110   76  33 
 RUS  HZ EP        650 40.56                             139    -0.110   80 129 
 RUS  HZ I         650 40.86         8.3 0.23                            80 129 
 RUS  HN ES   3    650 54.44                             139     0.0 2   80 129 
 BRR  HN ES   3    650 53.81                             137    -0.2 2   85 355 
 NOR  SZ EP        650 47.61                             118    -0.4 9  160 238 
 NOR  SN ES   3    651  8.32                             118     0.8 2  160 238 
 GRA  SZ ES   3    651 15.10                             113     0.6 2  194  29 
 GRA  SZ I         651 21.41         4.2 0.57                           194  29 
 HEL  HZ EP        650 53.89                             111     0.1 8  209 266 
 HEL  HZ I         651 21.64         3.9 0.38                           209 266 
 OCA  SZ EP   3    650 54.32                             111     0.3 2  213  10 
 OCA  SZ I         651 25.74        10.0 0.22                           213  10 
 RREF HZ EP        650 58.97                             108     0.4 8  247 230 
 RREF HN ES   3    651 26.09                             108    -0.3 2  247 230 
 RREF HZ I         651 33.01         3.8 0.50                           247 230 
                                                                                
