 2015 1010 0854 32.9 L   6.797 -73.092144.0  RSN  6 0.3 1.3LRSN                1
 GAP=205        0.67       4.1     5.6  7.1  0.1034E+02 -0.1779E+01 -0.1024E+02E
 Epicentro: LOS SANTOS - SANTANDER                                             3
 ACTION:UPD 15-12-22 20:38 OP:cam  STATUS:               ID:20151010085432 L   I
 OLDACT:REG 15-10-10 12:52 OP:spq  STATUS:               ID:20151010084745     3
 2015-10-10-0847-45M.COL___337                                                 6
 STAT SP IPHASW D HRMM SECON CODA AMPLIT PERI AZIMU VELO AIN AR TRES W  DIS CAZ7
 BAR2 EZ EP        854 52.21                             170   -0.1410 24.8 204 
 BAR2 EZ ES   1    855  6.98                             170   -0.54 7 24.8 204 
 BAR2 EZ I         855  7.93         3.3 0.30            168           24.8 204 
 BRR  HZ EP   1    854 54.39                             150    0.21 7 76.7 297 
 BRR  HE ES   1    855 11.12                             150    0.35 7 76.7 297 
 BRR  HZ I         855 21.16         5.3 0.26            149           76.7 297 
 RUS  HZ EP   1    854 56.57                             144    0.13 7  100 179 
 RUS  HE ES   1    855 15.09                             144    0.29 7  100 179 
 RUS  HZ I         855 16.09         2.1 0.50            148            100 179 
 SPBC HN ES   1    855 24.11                             128    0.11 7  167 221 
 SPBC HZ I         855 29.37         2.2 0.40            131            167 221 
 ZAR  HN ES        855 31.20                             121   -0.30 8  210 292 
 ZAR  HZ I         855 32.33         1.3 0.42            124            210 292 
 SML  HZ EP   1    855  9.31                             117   -0.43 6  247 334 
 SML  HE ES   1    855 39.04                             117    0.57 6  247 334 
 SML  HZ I         855 42.59         2.5 0.09            120            247 334 
                                                                                
