 2013  110 0327 44.4 L   6.718 -73.208146.2  RSN  5 0.4 1.8LRSN                1
 GAP=221        1.06       8.1     7.3  8.5  0.3637E+02  0.1059E+02  0.1935E+01E
 Epicentro: VILLANUEVA - SANTANDER                                             3
 ACTION:UPD 13-02-15 09:13 OP:ep   STATUS:               ID:20130110032744 L   I
 2013-01-10-0320-00M.COL___242                                                 6
 STAT SP IPHASW D HRMM SECON CODA AMPLIT PERI AZIMU VELO AIN AR TRES W  DIS CAZ7
 BAR2 SZ EP        328  3.68                             174   -0.2210 14.2 169 
 BAR2 SZ ES        328 18.48                             174   -0.6510 14.2 169 
 BAR2 SZ I         328 20.13        12.6 0.38            171           14.2 169 
 BRR  HZ EP        328  5.68                             153    0.1710 70.4 308 
 BRR  HN ES        328 22.67                             153    0.6610 70.4 308 
 BRR  HN I         328 26.67        18.8 0.18            150           70.4 308 
 RUS  HZ EP        328  8.03                             146    0.4510 92.3 171 
 RUS  HN ES        328 25.78                             146    0.0910 92.3 171 
 RUS  HN I         328 27.79         5.7 0.24            148           92.3 171 
 PTB  HZ EP        328 10.21                             134   -0.42 9  139 262 
 PTB  HN ES        328 31.27                             134    0.16 9  139 262 
 PTB  HN I         328 37.12        13.5 0.22            132            139 262 
 ZAR  HN ES        328 41.31                             123   -0.37 9  201 295 
 ZAR  HN I         328 47.77         7.6 0.20            123            201 295 
                                                                                
