 2015 1210 0441 59.8 L   6.493 -73.595109.8  RSN  6 0.5 1.5LRSN                1
 GAP=134        1.28       6.5     5.3  9.5 -0.7397E+01  0.2045E+00 -0.1208E+02E
 Epicentro: SANTA HELENA DEL OPON - SANTANDER                                  3
 ACTION:UPD 16-02-04 15:03 OP:cam  STATUS:               ID:20151210044159 L   I
 OLDACT:UP  15-12-10 18:32 OP:ar   STATUS:               ID:20151210043749     3
 OLDACT:REG 15-12-10 13:00 OP:ar   STATUS:               ID:20151210043749     3
 2015-12-10-0437-49M.COL___334                                                 6
 STAT SP IPHASW D HRMM SECON CODA AMPLIT PERI AZIMU VELO AIN AR TRES W  DIS CAZ7
 BAR2 EZ EP        442 16.13                             155    0.1210 46.9  77 
 BAR2 EZ ES        442 29.03                             155    0.3410 46.9  77 
 BAR2 EZ I         442 29.79         8.1 0.22            159           46.9  77 
 BRR  HZ EP   2    442 17.03                             145    0.02 5 69.1 349 
 BRR  HN ES        442 31.25                             145    0.7910 69.1 349 
 BRR  HZ I         442 37.96         4.1 0.34            147           69.1 349 
 RUS  HZ EP   2    442 18.81                             139   -0.26 5 87.3 140 
 RUS  HN ES   2    442 33.89                             139   -0.24 5 87.3 140 
 RUS  HZ I         442 35.96         4.1 0.46            146           87.3 140 
 PTB  HZ EP        442 18.92                             136   -0.1610 95.4 273 
 PTB  HN ES        442 33.63                             136   -0.5110 95.4 273 
 PTB  HZ I         442 35.23         5.6 0.22            140           95.4 273 
 PAM  EZ EP        442 23.96                             125    0.45 9  136  47 
 PAM  EE ES        442 41.01                             125   -1.03 9  136  47 
 PAM  EZ I         442 42.13         7.3 0.24            130            136  47 
 OCA  HZ EP        442 30.01                             115    0.64 9  195   9 
 OCA  HE ES        442 51.92                             115   -0.55 9  195   9 
 OCA  HZ I         442 54.23        12.7 0.50            118            195   9 
                                                                                
