 2015  410 0709 32.2 L   6.813 -73.161144.7  RSN 10 0.5 1.8LRSN                1
 GAP=134        1.33       3.9     5.8  8.2 -0.2035E+01  0.1664E+02 -0.2730E+01E
 Epicentro: LOS SANTOS - SANTANDER                                             3
 ACTION:UPD 15-06-03 16:53 OP:cam  STATUS:               ID:20150410070932 L   I
 OLDACT:REG 15-04-10 12:50 OP:akv  STATUS:               ID:20150410070749     3
 2015-04-10-0707-49M.COL___263                                                 6
 STAT SP IPHASW D HRMM SECON CODA AMPLIT PERI AZIMU VELO AIN AR TRES W  DIS CAZ7
 BAR2 EZ EP        7 9 51.15                             170   -0.6210 24.5 185 
 BAR2 EZ ES        710  6.84                             170   -0.1610 24.5 185 
 BAR2 EZ I         710  7.59        20.0 0.28            169           24.5 185 
 BRR  HZ EP        7 9 53.55                             153    0.3910 69.0 298 
 BRR  HN ES        710 10.57                             153    1.1010 69.0 298 
 BRR  HZ I         710 13.47        11.8 0.28            151           69.0 298 
 PAM  SN ES        710 11.67                             151    0.0810 77.4  41 
 RUS  HZ EP        7 9 56.26                             143    0.2610  102 175 
 RUS  HN ES        710 14.55                             143    0.0110  102 175 
 RUS  HZ I         710 16.25         4.1 0.20            145            102 175 
 PTB  HZ EP        7 9 58.52                             132   -0.48 9  146 258 
 PTB  HN ES        710 19.15                             132   -0.72 9  146 258 
 PTB  HZ I         710 20.79         5.6 0.42            131            146 258 
 OCA  HZ EP   4    7 9 56.27                             130   -4.05 0  159 354 
 OCA  HN ES        710 21.69                             130   -0.53 9  159 354 
 SPBC HZ EP        710  0.74                             129    0.07 9  163 218 
 SPBC HN ES        710 22.64                             129   -0.20 9  163 218 
 SPBC HZ I         710 26.58         7.7 0.22            129            163 218 
 ZAR  HZ EP        710  5.51                             122    1.11 9  202 292 
 ZAR  HN ES        710 29.52                             122    0.04 9  202 292 
 ZAR  HZ I         710 35.32         7.0 0.12            122            202 292 
 NOR  HN ES        710 35.64                             118    0.01 8  234 234 
 NOR  HZ I         710 41.41         4.1 0.18            119            234 234 
 SML  HZ EP        710  8.86                             117    0.27 8  242 336 
 SML  HN ES        710 36.18                             117   -0.76 8  242 336 
 SML  HZ I         710 40.05         9.5 0.10            118            242 336 
                                                                                
