 2010  210 0652 44.9 L   6.783 -73.119140.2  RSN  7 0.5 1.7LRSN                1
 GAP=204        1.02       8.6    14.2 10.8 -0.5490E+02  0.7231E+02 -0.2631E+01E
 Epicentro: LOS SANTOS - SANTANDER                                             3
 ACTION:UP  10-08-24 09:48 OP:vdl  STATUS:               ID:20100210065244 L   I
 2010-02-10-0650-20S.COL___094                                                 6
 STAT SP IPHASW D HRMM SECON CODA AMPLIT PERI AZIMU VELO SNR AR TRES W  DIS CAZ7
 BAR2 SZ EP   1    653  3.51                             171    -0.3 7   22 199 
 BAR2 SZ ES   1    653 18.30                             171    -0.3 7   22 199 
 GIR2 SZ EP        653  4.61                             166     0.610   34 346 
 OCA  SZ EP   1    653 12.32                             128    -0.7 7  163 352 
 CHI  HZ EP   1    653 21.91                             116    -0.3 6  248 196 
 CHI  HZ I         653 58.14         2.3 0.62                           248 196 
 HEL  HZ EP   1    653 25.53                             113     0.4 6  275 256 
 HEL  HE ES   2    653 55.87                             113    -0.6 4  275 256 
 HEL  HZ I         654  3.61         3.0 0.50                           275 256 
 RREF BZ EP   1    653 31.24                             110     0.3 5  323 230 
 RREF BZ I         654 15.55         3.2 0.44                           323 230 
 PRA  HZ EP   1    653 37.45                             105    -0.7 4  392 210 
 PRA  HN ES   1    654 20.20                             105     0.4 4  392 210 
 PRA  HZ I         654 21.88         2.1 0.35                           392 210 
                                                                                
