 2014  710 0958 25.7 L   6.788 -73.215139.1  RSN  5 0.4 1.4LRSN                1
 GAP=193        0.97       4.2     6.0  7.8  0.2107E+01  0.9555E+01 -0.1215E+02E
 Epicentro: ZAPATOCA - SANTANDER                                               3
 ACTION:UPD 15-03-16 20:42 OP:nd   STATUS:               ID:20140710095825 L   I
 OLDACT:REG 14-07-10 12:24 OP:stll STATUS:               ID:20140710094814     3
 2014-07-10-0948-14M.COL___256                                                 6
 STAT SP IPHASW D HRMM SECON CODA AMPLIT PERI AZIMU VELO AIN AR TRES W  DIS CAZ7
 BAR2 SZ EP        958 44.85                             171    0.3910 21.9 171 
 BAR2 SZ ES        958 58.99                             171   -0.1310 21.9 171 
 BAR2 SZ I         959  1.89         7.1 0.28            176           21.9 171 
 RUS  HZ EP        958 48.33                             143   -0.3910  100 172 
 RUS  HN ES        959  6.68                             143   -0.0310  100 172 
 RUS  HZ I         959  8.17         3.2 0.36            150            100 172 
 PTB  HZ EP        958 51.24                             132   -0.13 9  140 259 
 PTB  HN ES        959 10.96                             132   -0.47 9  140 259 
 PTB  HZ I         959 16.25         2.8 0.16            134            140 259 
 SPBC HZ EP        958 52.78                             129   -0.31 9  157 217 
 SPBC HZ I         958 53.41         4.2 0.16            133            157 217 
 SPBC HE ES        959 15.36                             129    0.86 9  157 217 
 SML  HZ EP        959  1.92                             116    0.21 8  242 337 
 SML  HN ES        959 30.00                             116    0.17 8  242 337 
 SML  HZ I         959 39.09         2.6 0.26            118            242 337 
                                                                                
