 2012  710 0828 33.6 L   6.878 -73.018134.6  RSN  6 0.5 1.7LRSN                1
 GAP=196        1.22       6.1     8.5 12.0  0.1422E+02  0.1003E+02 -0.8074E+01E
 Epicentro: CEPITA - SANTANDER                                                 3
 ACTION:UPD 12-08-14 11:44 OP:ep   STATUS:               ID:20120710082833 L   I
 2012-07-10-0820-00M.COL___201                                                 6
 STAT SP IPHASW D HRMM SECON CODA AMPLIT PERI AZIMU VELO AIN AR TRES W  DIS CAZ7
 BAR2 SZ EP   1    828 52.53                             164     0.3 7   36 210 
 BAR2 SZ ES   1    829  6.81                             164     0.0 7   36 210 
 BAR2 SZ I         829  8.41        14.5 0.15            167             36 210 
 BRR  HZ EP   1    828 54.48                             147     0.3 7   81 288 
 BRR  HZ I         828 55.04        16.6 0.11            148             81 288 
 BRR  HN ES        829 10.75                             147     0.610   81 288 
 RUS  HZ EP   1    828 56.59                             139    -0.3 7  109 184 
 RUS  HN ES   1    829 14.95                             139    -0.2 7  109 184 
 RUS  HZ I         829 16.81         4.4 0.34            141            109 184 
 OCA  HN ES        829 20.92                             128    -0.5 9  154 348 
 OCA  HZ I         829 25.28         8.7 0.24            128            154 348 
 PTB  HE ES   1    829 21.85                             126    -0.8 7  163 257 
 PTB  HZ I         829 23.06         5.7 0.16            128            163 257 
 ZAR  HZ EP   1    829  7.17                             119     0.7 6  214 289 
 ZAR  HN ES        829 31.85                             119    -0.2 8  214 289 
 ZAR  HZ I         829 34.76         3.6 0.14            120            214 289 
