 2012  410 0054 12.6 L   6.777 -73.165146.1  RSN  4 0.2 1.6LRSN                1
 GAP=234        0.49       5.2     4.9  5.5  0.1075E+02  0.1921E+01 -0.5431E+01E
 Epicentro: LOS SANTOS - SANTANDER                                             3
 ACTION:UPD 12-07-05 11:52 OP:tino STATUS:               ID:20120410005412 L   I
 2012-04-10-0050-00M.COL___199                                                 6
 STAT SP IPHASW D HRMM SECON CODA AMPLIT PERI AZIMU VELO AIN AR TRES W  DIS CAZ7
 BAR2 SZ EP   1    054 31.95                             172    -0.2 7   21 185 
 BAR2 SZ ES   1    054 47.22                             172    -0.3 7   21 185 
 BAR2 SZ I         054 51.89         8.0 0.66                            21 185 
 BRR  HZ EP        054 33.88                             153     0.210   71 301 
 BRR  HZ I         054 35.48         6.9 0.09                            71 301 
 BRR  HE ES   2    054 50.48                             153     0.3 5   71 301 
 RUS  HZ EP   1    054 36.32                             144     0.1 7   98 175 
 RUS  HN ES   1    054 54.77                             144     0.2 7   98 175 
 PTB  HZ EP   1    054 39.10                             132    -0.2 7  145 260 
 PTB  HE ES   1    055  0.19                             132     0.0 7  145 260 
                                                                                
