 2012 1210 0736 38.3 L   6.756 -73.164141.4  RSN  5 0.4 1.4LRSN                1
 GAP=180        0.86       9.5     6.8  8.6  0.2115E+02  0.2110E+02  0.1466E+02E
 Epicentro: LOS SANTOS - SANTANDER                                             3
 ACTION:UPD 13-01-04 14:26 OP:ep   STATUS:               ID:20121210073638 L   I
 2012-12-10-0730-00M.COL___242                                                 6
 STAT SP IPHASW D HRMM SECON CODA AMPLIT PERI AZIMU VELO AIN AR TRES W  DIS CAZ7
 BAR2 SZ EP   1    736 57.19                             172   -0.09 7 18.3 186 
 BAR2 SZ ES   1    737 12.12                             172    0.02 7 18.3 186 
 BAR2 SZ I         737 15.83         3.8 0.16                          18.3 186 
 GIR2 SZ EP   1    736 56.91                             165   -0.64 7 35.8 355 
 GIR2 SZ ES   1    737 12.85                             165    0.25 7 35.8 355 
 GIR2 SZ I         737 16.98         2.7 0.28                          35.8 355 
 RUS  HZ EP   1    737  1.71                             144    0.46 7 95.9 175 
 PTB  HZ EP   1    737  3.97                             132   -0.65 7  145 261 
 PTB  HN ES   1    737 25.17                             132   -0.01 7  145 261 
 PTB  HZ I         737 26.55         3.4 0.12                           145 261 
 ZAR  HZ EP   1    737 11.29                             121    0.85 6  204 294 
 ZAR  HN ES   1    737 35.48                             121   -0.05 6  204 294 
 ZAR  HZ I         737 40.65         6.2 0.32                           204 294 
                                                                                
