 2016  310 0211 53.0 L   6.797 -73.167136.1  RSN  4 0.2 1.1LRSN                1
 GAP=276        0.60       5.1     3.9  5.1  0.2225E+01  0.5036E+01 -0.2399E+01E
 Epicentro: LOS SANTOS - SANTANDER                                             3
 ACTION:UPD 16-05-13 21:22 OP:cam  STATUS:               ID:20160310021153 L   I
 OLDACT:REG 16-03-10 12:59 OP:cara STATUS:               ID:20160310020750     3
 2016-03-10-0207-50M.COL___286                                                 6
 STAT SP IPHASW D HRMM SECON CODA AMPLIT PERI AZIMU VELO AIN AR TRES W  DIS CAZ7
 BAR2 EZ EP        212 11.60                             170    0.1510 22.7 184 
 BAR2 EZ ES        212 25.94                             170    0.1010 22.7 184 
 BAR2 EZ I         212 28.15         3.2 0.24            169           22.7 184 
 RUS  HZ EP        212 15.95                             142    0.1510  100 175 
 RUS  HN ES        212 33.24                             142   -0.3410  100 175 
 RUS  HZ I         212 35.07         1.7 0.34            143            100 175 
 PTB  HZ EP        212 18.57                             130   -0.40 9  145 259 
 PTB  HN ES        212 39.26                             130    0.03 9  145 259 
 PTB  HZ I         212 40.74         1.4 0.20            131            145 259 
 SPBC HZ EP        212 20.74                             127    0.14 9  161 218 
 SPBC HN ES        212 42.33                             127    0.20 9  161 218 
 SPBC HZ I         212 44.93         3.7 0.22            128            161 218 
                                                                                
