 2011  510 0703 18.2 L   6.821 -73.046144.2  RSN  5 0.2 1.3LRSN                1
 GAP=212        0.53       8.4    13.1  6.1  0.8536E+02 -0.3391E+02 -0.1728E+02E
 Epicentro: LOS SANTOS - SANTANDER                                             3
 ACTION:UP  11-06-29 08:52 OP:tino STATUS:               ID:20110510070318 L   I
 2011-05-10-0700-00M.COL___140                                                 6
 STAT SP IPHASW D HRMM SECON CODA AMPLIT PERI AZIMU VELO SNR AR TRES W  DIS CAZ7
 BTL  SZ EP        7 3 38.06                             169     0.310   27 294 
 BTL  SZ ES   2    7 3 52.76                             169    -0.2 5   27 294 
 BAR2 SZ EP        7 3 37.81                             168     0.010   29 211 
 BAR2 SZ ES   1    7 3 52.98                             168    -0.1 7   29 211 
 BAR2 SZ I         7 3 54.35         5.9 0.38                            29 211 
 GIR2 SZ EP   3    7 3 37.80                             167     0.0 2   33 330 
 BRR  HZ EP        7 3 39.50                             150    -0.310   80 293 
 BRR  HZ I         7 3 39.75         5.8 0.08                            80 293 
 BRR  HN ES   1    7 3 56.71                             150     0.2 7   80 293 
 RUS  HZ EP   1    7 3 41.85                             143    -0.1 7  103 182 
 RUS  HE ES   2    7 4  0.76                             143     0.2 5  103 182 
 RUS  HZ I         7 4  2.72         2.1 0.36                           103 182 
                                                                                
