 2012  610 0114 12.4 L   6.850 -73.095147.7  RSN  5 0.2 1.5LRSN                1
 GAP=249        0.46       4.7     4.3  6.0  0.7100E+01  0.8535E+01 -0.2566E+01E
 Epicentro: LOS SANTOS - SANTANDER                                             3
 ACTION:UPD 12-08-06 17:48 OP:ep   STATUS:               ID:20120610011421 L   I
 2012-06-10-0110-00M.COL___201                                                 6
 STAT SP IPHASW D HRMM SECON CODA AMPLIT PERI AZIMU VELO AIN AR TRES W  DIS CAZ7
 BAR2 SZ EP        114 32.68                             168    0.2710 30.1 199 
 BAR2 SZ ES   1    114 47.87                             168   -0.15 7 30.1 199 
 BAR2 SZ I         114 50.63         8.9 0.22            166           30.1 199 
 RUS  HZ EP   1    114 36.53                             143   -0.19 7  106 179 
 RUS  HN ES   1    114 55.71                             143    0.02 7  106 179 
 RUS  HZ I         114 57.17         5.0 0.45            138            106 179 
 PTB  HZ EP   1    114 39.83                             131   -0.29 7  154 257 
 PTB  HZ I         115  2.97         3.4 0.09            120            154 257 
 ZAR  HN ES   1    115 10.99                             122    0.03 6  207 290 
 ZAR  HZ I         115 19.09         2.5 0.13            112            207 290 
 NOR  SN ES   1    115 17.79                             118    0.11 6  242 234 
                                                                                
