 2016  910 0043 42.8 L   6.277 -73.366133.3  RSN 17 0.3 2.9LRSN                1
 GAP= 59        0.75       1.9     2.1  3.5 -0.1308E+01  0.5454E+00  0.7292E+00E
 Epicentro: GUAPOTA - SANTANDER                                                3
 ACTION:UPD 17-08-17 21:08 OP:lp   STATUS:               ID:20160910004342 L   I
 OLDACT:REG 16-09-10 12:37 OP:cara STATUS:               ID:20160910003733     3
 2016-09-10-0038-00M.COL___336                                                 6
 STAT SP IPHASW D HRMM SECON CODA AMPLIT PERI AZIMU VELO AIN AR TRES W  DIS CAZ7
 BAR2 EZ EP        044  1.23                             162   -0.1610 40.4  30 
 BAR2 HE ES        044 16.40                             162    0.4710 40.4  30 
 BAR2 EZ I         044 17.39       243.8 0.22            165           40.4  30 
 RUS  HZ EP        044  2.25                             157   -0.0410 52.7 144 
 RUS  HN ES        044 17.35                             157   -0.1710 52.7 144 
 RUS  HZ I         044 19.72       120.7 0.24            159           52.7 144 
 BRR  HZ EP        044  4.43                             141   -0.1010 99.5 337 
 BRR  HN ES        044 21.39                             141   -0.1210 99.5 337 
 BRR  HZ I         044 24.16       117.0 0.46            141           99.5 337 
 SPBC HZ EP     C  044  4.94                             140   -0.0910  104 229 
 SPBC HN ES        044 22.20                             140   -0.2110  104 229 
 SPBC HZ I         044 27.81       223.4 0.28            138            104 229 
 PTB  HZ EP   9    044  5.60                             134   -0.98 0  124 284 
 PTB  HN ES        044 24.15                                   -0.0310  124 284 
 PTB  HZ I         044 27.23       128.4 0.14            133            124 284 
 PAM  EZ EP        044  8.82                             131    0.29 9  139  32 
 PAM  HN ES        044 28.84                             131    0.22 9  139  32 
 PAM  EZ I         044 31.28        43.2 0.24            134            139  32 
 TAM  HZ IP        044 11.74                             124    0.29 9  175  84 
 TAM  HE ES        044 33.51                             124   -0.32 9  175  84 
 NOR  HZ EP        044 12.21                             122   -0.19 9  184 245 
 NOR  HN ES        044 35.34                             122   -0.19 9  184 245 
 NOR  HZ I         044 40.21       143.8 0.28            122            184 245 
 CHI  HZ EP        044 13.43                             122    0.31 9  187 193 
 CHI  HN ES        044 36.38                             122   -0.42 9  187 193 
 CHI  HZ I         044 41.47        41.0 0.36            123            187 193 
 ZAR  HZ EP   9    044 14.31                             118   -1.04 0  213 309 
 ZAR  HN ES        044 39.78                                    0.04 8  213 309 
 ZAR  HZ I         044 46.84       164.0 0.28            119            213 309 
 OCA  HZ EP        044 15.96                             118   -0.04 8  217   1 
 OCA  HN ES        044 41.77                             118   -0.16 8  217   1 
 OCA  HZ I         044 46.08       188.0 0.30            119            217   1 
 HEL  HZ EP        044 18.36                             115   -0.38 8  240 268 
 HEL  HN ES   4    044 44.91                             115   -1.89 0  240 268 
 HEL  HZ I         044 54.15        75.6 0.36            115            240 268 
 VIL  EZ EP        044 18.54                             115   -0.17 8  242 189 
 VIL  EE ES        044 47.24                             115    0.49 8  242 189 
 VIL  EZ I         044 56.02        51.8 0.42            116            242 189 
 GUY2CHZ EP   9    044 20.81                             114    0.77 0  250 242 
 GUY2CHE ES        044 50.79                                    0.90 8  250 242 
 GUY2CHZ I         044 58.89        66.9 0.58                           250 242 
 ELA  HZ EP   4    044 24.05                             112    1.21 0  274 235 
 ELA  HN ES        044 54.74                             112    0.64 8  274 235 
 ELA  HZ I         045  2.64        33.2 0.38            112            274 235 
 URE  HZ EP   4    044 21.88                             111   -2.04 0  290 304 
 URE  HN ES   4    044 52.68                             111   -3.35 0  290 304 
 URE  HZ I         044 55.75       117.9 0.14            111            290 304 
 CBOC HZ EP        044 25.14                             110    0.24 7  297 261 
 CBOC HN ES        044 57.88                             110    0.11 7  297 261 
 CBOC HZ I         045  6.53        26.0 0.38            110            297 261 
                                                                                
