 2010  810 0018  1.9 L   6.828 -72.987142.0  RSN  5 0.3 1.3LRSN                1
 GAP=176        0.61       4.1     7.4  7.9 -0.3926E+01 -0.1552E+02  0.3775E+01E
 Epicentro: CEPITA - SANTANDER                                                 3
 ACTION:UP  10-09-07 10:53 OP:vdl  STATUS:               ID:20100810001801 L   I
 2010-08-10-0013-47S.COL___125                                                 6
 STAT SP IPHASW D HRMM SECON CODA AMPLIT PERI AZIMU VELO SNR AR TRES W  DIS CAZ7
 BAR2 SZ EP        018 21.29                             166     0.010   34 220 
 BAR2 SZ ES   2    018 36.10                                    -0.4 5   34 220 
 BAR2 SZ I         018 37.95         5.8 0.32                            34 220 
 BRR  HZ EP        018 23.23                             148    -0.310   86 291 
 BRR  HE ES   1    018 40.77                             148     0.3 7   86 291 
 BRR  HZ I         018 57.02        12.9 0.45                            86 291 
 RUS  HZ EP   1    018 25.55                             143     0.0 7  104 186 
 RUS  HN ES   2    018 44.30                             143     0.4 5  104 186 
 RUS  HZ I         018 45.44         3.2 0.46                           104 186 
 GUE  SZ EP   2    018 26.15                             141     0.3 5  111   4 
 GUE  SZ I         018 48.66         1.1 0.19                           111   4 
 GRA  SZ EP   2    018 26.36                             139     0.2 5  119  10 
 GRA  SZ ES   1    018 45.13                             139     0.0 7  119  10 
 GRA  SZ I         018 48.74         3.4 0.38                           119  10 
                                                                                
