 2013  210 0728 33.0 L   6.733 -73.171145.7  RSN  6 0.4 1.6LRSN                1
 GAP=136        0.83       5.5     5.4  7.8 -0.5561E+01  0.8789E+01  0.2395E+01E
 Epicentro: VILLANUEVA - SANTANDER                                             3
 ACTION:UPD 13-03-12 09:31 OP:ep   STATUS:               ID:20130210072833 L   I
 2013-02-10-0720-00M.COL___241                                                 6
 STAT SP IPHASW D HRMM SECON CODA AMPLIT PERI AZIMU VELO AIN AR TRES W  DIS CAZ7
 BAR2 SZ EP   1    728 52.64                             174    0.11 7 15.6 185 
 BAR2 SZ ES   1    729  7.69                             174   -0.04 7 15.6 185 
 BAR2 SZ I         729  9.42         6.9 0.34            167           15.6 185 
 BRR  HZ EP        728 54.54                             152    0.2710 72.8 305 
 BRR  HN ES   1    729 11.60                             152    0.77 7 72.8 305 
 BRR  HN I         729 14.58        13.5 0.28            146           72.8 305 
 PAM  SZ EP   1    728 55.48                             148   -0.23 7 84.9  38 
 PAM  SN ES        729 13.07                             148   -0.3310 84.9  38 
 PAM  SN I         729 13.89         8.4 0.52            143           84.9  38 
 RUS  HZ EP   1    728 56.70                             146    0.42 7 93.4 174 
 RUS  HN ES   1    729 14.31                             146   -0.09 7 93.4 174 
 RUS  HN I         729 16.48         5.9 0.32            169           93.4 174 
 PTB  HZ EP   1    728 59.40                             133   -0.24 7  144 262 
 PTB  HN ES   1    729 19.69                             133   -0.70 7  144 262 
 PTB  HN I         729 22.05         5.8 0.26            139            144 262 
 CHI  HN I         729 12.58         1.3 0.44            133            241 195 
                                                                                
