 2017  710 0617 35.5 L   6.757 -73.154146.0  RSN  7 0.5 1.5LRSN                1
 GAP=208        1.12       6.5     5.8  8.6  0.2025E+02 -0.2585E-01  0.4908E+01E
 Epicentro: LOS SANTOS - SANTANDER                                             3
 ACTION:UPD 17-08-30 15:31 OP:rebc STATUS:               ID:20170710061735 L   I
 OLDACT:UP  17-07-10 17:39 OP:dnl  STATUS:               ID:20170710060746d    3
 OLDACT:DUP 17-07-10 17:29 OP:dnl  STATUS:               ID:20170710060746d    3
 2017-07-10-0608-00M.COL___371                                                 6
 STAT SP IPHASW D HRMM SECON CODA AMPLIT PERI AZIMU VELO AIN AR TRES W  DIS CAZ7
 BAR2 EZ EP        617 54.70                             172   -0.4110 18.4 190 
 BAR2 EZ ES        618 10.16                             172   -0.2110 18.4 190 
 BAR2 EZ I         618 10.87         8.8 0.28            165           18.4 190 
 BRR  HZ EP        617 56.14                             152   -0.6610 72.8 302 
 BRR  HN ES        618 14.01                             152    0.6210 72.8 302 
 BRR  HZ I         618 17.18         7.7 0.36            152           72.8 302 
 PTB  HZ EP        618  2.27                             133   -0.09 9  146 261 
 PTB  HN ES        618 22.73                             133   -0.55 9  146 261 
 PTB  HZ I         618 31.32         1.6 0.28            130            146 261 
 SPBC HZ EP   4    618  6.58                             130    2.93 0  159 220 
 SPBC HN ES        618 25.69                             130    0.12 9  159 220 
 SPBC HZ I         618 30.95         3.5 0.46            127            159 220 
 YPLC HZ EP        618  5.23                             127    0.24 9  173 150 
 YPLC HN ES        618 28.38                             127    0.42 9  173 150 
 YPLC HZ I         618 39.94         2.3 0.36            126            173 150 
 ZAR  HZ EP   2    618  8.64                             122    0.54 4  205 293 
 ZAR  HE ES        618 34.18                             122    0.68 9  205 293 
 ZAR  HZ I         618 38.99         2.8 0.32            122            205 293 
 SJC  HZ EP   4    618 29.56                             106   -1.96 0  413 327 
 SJC  HN ES   4    619 11.22                             106   -3.96 0  413 327 
 SJC  HZ I         619 16.04         1.4 0.76            106            413 327 
                                                                                
