 2017  310 0517 20.4 L   6.773 -73.152147.1  RSN  7 0.4 1.6LRSN                1
 GAP=137        1.06       4.5     4.6  6.8 -0.6606E+00  0.7759E+01  0.1785E+00E
 Epicentro: LOS SANTOS - SANTANDER                                             3
 ACTION:UPD 17-05-25 18:38 OP:jn   STATUS:               ID:20170310051720 L   I
 OLDACT:UP  17-03-10 17:00 OP:ar   STATUS:               ID:20170310050743d    3
 OLDACT:DUP 17-03-10 16:54 OP:ar   STATUS:               ID:20170310050743d    3
 2017-03-10-0508-00M.COL___403                                                 6
 STAT SP IPHASW D HRMM SECON CODA AMPLIT PERI AZIMU VELO AIN AR TRES W  DIS CAZ7
 BAR2 EZ EP        517 39.99                             172   -0.1710 20.3 189 
 BAR2 EZ ES        517 55.35                             172   -0.2010 20.3 189 
 BAR2 EZ I         517 56.34        17.8 0.10            170           20.3 189 
 BRR  HZ IP     D  517 41.73                             152   -0.0410 72.0 301 
 BRR  HE ES        517 59.15                             152    0.7410 72.0 301 
 BRR  HZ I         518  2.28         7.1 0.26            152           72.0 301 
 PAM  EZ EP        517 42.91                             150   -0.0410 80.1  39 
 PAM  EN ES        518  0.47                             150   -0.0410 80.1  39 
 PAM  EZ I         518  2.07         7.5 0.48            155           80.1  39 
 RUS  HZ EP        517 44.50                             145    0.4010 97.7 176 
 RUS  HN ES        518  2.14                             145   -0.4310 97.7 176 
 RUS  HZ I         518  3.57         4.0 0.22            147           97.7 176 
 PTB  HZ EP        517 46.84                             132   -0.55 9  147 260 
 PTB  HN ES        518  7.96                             132   -0.46 9  147 260 
 PTB  HZ I         518 14.98         4.9 0.44            133            147 260 
 SPBC HZ EP        517 48.79                             130    0.02 9  160 219 
 SPBC HE ES        518 11.57                             130    0.69 9  160 219 
 SPBC HZ I         518 16.01         5.8 0.18            131            160 219 
 ZAR  HZ EP        517 53.53                             123    0.52 9  205 293 
 ZAR  HN ES        518 17.99                             123   -0.43 9  205 293 
                                                                                
