 2017  210 0323 23.2 L   6.616 -73.636103.5  RSN  4 0.1 0.9LRSN                1
 GAP=122        0.45       3.1     2.2  4.7  0.2992E+01  0.3005E+01  0.7108E+01E
 Epicentro: EL CARMEN - SANTANDER                                              3
 ACTION:UPD 17-05-24 15:34 OP:jn   STATUS:               ID:20170210032323 L   I
 OLDACT:REG 17-02-10 11:58 OP:edw  STATUS:               ID:20170210030821     3
 2017-02-10-0318-00M.COL___364                                                 6
 STAT SP IPHASW D HRMM SECON CODA AMPLIT PERI AZIMU VELO AIN AR TRES W  DIS CAZ7
 BAR2 EZ EP        323 38.69                             152   -0.2810 50.3  93 
 BAR2 EZ ES        323 51.32                             152    0.0710 50.3  93 
 BRR  HN ES        323 51.20                             150    0.0710 55.0 351 
 PTB  HZ EP        323 41.68                             135    0.0510 91.1 265 
 PTB  HN ES        323 55.93                             135   -0.0510 91.1 265 
 PTB  HZ I         323 57.53         2.0 0.16            136           91.1 265 
 RUS  HZ EP        323 43.34                             132    0.2110  101 143 
 RUS  HN ES        323 58.59                             132   -0.0610  101 143 
 RUS  HZ I         324  0.35         1.7 0.22            133            101 143 
                                                                                
