 2013  610 0155  4.8 L   6.739 -73.207157.1  RSN  4 0.1 1.2LRSN                1
 GAP=194        0.32       2.4     2.9  3.6  0.3587E+01 -0.5727E+00 -0.9270E+00E
 Epicentro: VILLANUEVA - SANTANDER                                             3
 ACTION:UPD 14-01-08 09:53 OP:ep   STATUS:               ID:20130610015504 L   I
 OLDACT:REG 13-06-10 07:33 OP:cam  STATUS:               ID:20130610014959     3
 2013-06-10-0149-59M.COL___261                                                 6
 STAT SP IPHASW D HRMM SECON CODA AMPLIT PERI AZIMU VELO AIN AR TRES W  DIS CAZ7
 BRR  HZ EP   1    155 26.90                             155   -0.14 7 69.1 306 
 BRR  HN ES        155 44.49                             155    0.0810 69.1 306 
 RUS  HZ EP   1    155 29.33                             148    0.08 7 94.6 172 
 RUS  HN ES        155 48.31                             148   -0.0310 94.6 172 
 RUS  HZ I         155 50.14         2.0 0.48            146           94.6 172 
 PTB  HZ EP   1    155 32.09                             136    0.08 7  140 261 
 PTB  HN ES        155 53.20                             136   -0.05 9  140 261 
 PTB  HZ I         155 57.47         2.3 0.30            134            140 261 
 SML  HE ES   2    156 11.75                             119   -0.04 4  247 337 
                                                                                
