 2011 1010 0721 29.1 L   6.896 -73.092138.5  RSN  4 0.3 1.8LRSN                1
 GAP=155        0.74       7.2     6.9  8.5 -0.7437E+01 -0.9281E+00  0.1383E+01E
 Epicentro: PIEDECUESTA - SANTANDER                                            3
 ACTION:UPD 12-07-13 16:03 OP:ep   STATUS:               ID:20111010072129 L   I
 2011-10-10-0720-00M.COL___171                                                 6
 STAT SP IPHASW D HRMM SECON CODA AMPLIT PERI AZIMU VELO AIN AR TRES W  DIS CAZ7
 BAR2 SZ EP   2    721 48.44                             165    0.29 5 35.0 197 
 BAR2 SZ I         722  4.48        19.1 0.18                          35.0 197 
 PAM  SZ EP        721 50.24                             154    0.4110 65.4  41 
 PAM  SN ES   1    722  5.58                             154   -0.44 7 65.4  41 
 BRR  HZ EP        721 49.24                             151   -0.2810 72.4 289 
 BRR  HN ES   1    722  5.69                             151    0.23 7 72.4 289 
 BRR  HZ I         722  8.38        14.6 0.16                          72.4 289 
 OCA  SZ EP        721 55.65                             130   -0.27 9  151 350 
 OCA  SZ ES   1    722 17.16                             130    0.31 7  151 350 
 OCA  SZ I         722 20.54         5.6 0.22                           151 350 
                                                                                
