 2015  110 0634 43.8 L   6.806 -73.188150.6  RSN  4 0.4 1.4LRSN                1
 GAP=202        1.07       6.9     8.4  8.7  0.3261E+01  0.5243E+01 -0.2162E+02E
 Epicentro: ZAPATOCA - SANTANDER                                               3
 ACTION:UPD 15-03-02 15:38 OP:nd   STATUS:               ID:20150110063443 L   I
 OLDACT:DUP 15-01-10 15:54 OP:cam  STATUS:               ID:20150110062821d    3
 OLDACT:REG 15-01-10 13:33 OP:cam  STATUS:               ID:20150110062820     3
 2015-01-10-0628-20M.COL___265                                                 6
 STAT SP IPHASW D HRMM SECON CODA AMPLIT PERI AZIMU VELO AIN AR TRES W  DIS CAZ7
 BAR2 EZ EP        635  3.79                             171   -0.2010 23.6 178 
 BAR2 EZ ES        635 19.40                             171   -0.3510 23.6 178 
 BAR2 EZ I         635 20.01         4.9 0.48            171           23.6 178 
 BRR  HZ EP        635  5.84                             155    0.6310 66.8 300 
 BRR  HN ES        635 22.49                             155    0.5610 66.8 300 
 BRR  HZ I         635 25.84         4.5 0.34            149           66.8 300 
 PTB  HZ EP        635 10.64                             134   -0.10 9  143 258 
 PTB  HN ES        635 31.51                             134   -0.27 9  143 258 
 PTB  HZ I         635 37.41         2.3 0.16            132            143 258 
 SML  HZ EP        635 20.62                             119    0.21 8  241 336 
 SML  HN ES        635 48.27                             119   -0.71 8  241 336 
 SML  HZ I         635 56.29         3.6 0.26            118            241 336 
                                                                                
