 2017  210 0637 14.8 L   6.794 -73.180137.9  RSN  5 0.4 0.9LRSN                1
 GAP=132        1.00       5.2     4.9  7.4 -0.2285E+01  0.4754E+01  0.1914E+01E
 Epicentro: LOS SANTOS - SANTANDER                                             3
 ACTION:UPD 17-05-24 15:34 OP:jn   STATUS:               ID:20170210063714 L   I
 OLDACT:UP  17-02-10 17:56 OP:edw  STATUS:               ID:20170210062744d    3
 OLDACT:DUP 17-02-10 17:54 OP:edw  STATUS:               ID:20170210062744d    3
 2017-02-10-0628-00M.COL___358                                                 6
 STAT SP IPHASW D HRMM SECON CODA AMPLIT PERI AZIMU VELO AIN AR TRES W  DIS CAZ7
 BAR2 EZ EP        637 33.49                             170   -0.0110 22.3 181 
 BAR2 EZ ES        637 48.08                             170    0.0210 22.3 181 
 BAR2 EZ I         637 49.69         2.3 0.26            170           22.3 181 
 BRR  HZ IP        637 35.06                             152    0.1010 68.2 301 
 BRR  HN ES        637 51.11                             152    0.4510 68.2 301 
 PAM  EZ EP        637 36.32                             148   -0.0810 80.4  41 
 PAM  EN ES        637 52.96                             148   -0.2710 80.4  41 
 PAM  EZ I         637 53.82         1.4 0.20            150           80.4  41 
 RUS  HZ EP        637 38.59                             142    0.8010  100 174 
 RUS  HN ES        637 55.33                             142   -0.3810  100 174 
 RUS  HZ I         637 56.99         1.0 0.50            143            100 174 
 PTB  HZ EP        637 40.21                             131   -0.60 9  144 259 
 PTB  HN ES        638  0.96                             131   -0.11 9  144 259 
 PTB  HZ I         638  2.24         0.9 0.28            132            144 259 
                                                                                
