 2011  610 0238 50.4 L   6.801 -73.106149.2  RSN  6 0.4 1.7LRSN                1
 GAP=163        0.91       4.5     8.9  7.7 -0.6549E+01 -0.1187E+01  0.1504E+01E
 Epicentro: LOS SANTOS - SANTANDER                                             3
 ACTION:UP  11-07-14 19:04 OP:ep   STATUS:               ID:20110610023850 L   I
 2011-06-10-0235-50S.COL___121                                                 6
 STAT SP IPHASW D HRMM SECON CODA AMPLIT PERI AZIMU VELO SNR AR TRES W  DIS CAZ7
 BAR2 SZ EP   1    239 10.25                             170    -0.2 7   25 200 
 BAR2 SZ ES   1    239 26.03                             170    -0.1 7   25 200 
 BAR2 SZ I         239 26.95        16.9 0.15                            25 200 
 BRR  HZ EP        239 12.12                             152     0.010   75 297 
 BRR  HN ES   1    239 29.39                             152     0.3 7   75 297 
 BRR  HZ I         239 30.37        14.5 0.18                            75 297 
 RUS  HZ EP   1    239 14.12                             144    -0.4 7  101 179 
 RUS  HN ES   1    239 33.02                             144    -0.3 7  101 179 
 RUS  HZ I         239 34.48         4.7 0.22                           101 179 
 GRA  SZ EP        239 16.11                             138     0.310  124  16 
 GRA  SZ I         239 40.41         3.8 0.29                           124  16 
 NOR  SZ EP   1    239 26.47                             119    -0.3 6  238 235 
 NOR  SE ES   2    239 54.17                             119    -0.9 4  238 235 
 CHI  HZ EP   1    239 28.30                             118    -0.2 6  250 196 
 CHI  HE ES        239 58.93                             118     0.8 8  250 196 
 CHI  HZ I         239 59.09         4.3 0.53                           250 196 
                                                                                
