 2017  210 0731 27.4 L   6.785 -73.108144.0  RSN  8 0.3 1.3LRSN                1
 GAP=142        0.78       3.1     3.8  4.5  0.1386E+01  0.3442E+01  0.2204E+01E
 Epicentro: LOS SANTOS - SANTANDER                                             3
 ACTION:UPD 17-05-24 15:34 OP:jn   STATUS:               ID:20170210073127 L   I
 OLDACT:UP  17-02-10 18:25 OP:edw  STATUS:               ID:20170210072742     3
 OLDACT:REG 17-02-10 12:19 OP:edw  STATUS:               ID:20170210072742     3
 2017-02-10-0728-00M.COL___358                                                 6
 STAT SP IPHASW D HRMM SECON CODA AMPLIT PERI AZIMU VELO AIN AR TRES W  DIS CAZ7
 BAR2 EZ IP     C  731 46.65                             171   -0.1110 22.8 201 
 BAR2 EZ ES        732  1.77                             171   -0.1310 22.8 201 
 BAR2 EZ I         732  3.40         4.5 0.20            167           22.8 201 
 BRR  HZ IP     C  731 48.52                             151   -0.0510 75.7 298 
 BRR  HN ES        732  5.70                             151    0.5810 75.7 298 
 BRR  HZ I         732 10.38         4.4 0.22            147           75.7 298 
 PAM  EZ EP     D  731 49.53                             151    0.2310 76.1  36 
 PAM  EN ES        732  6.27                             151   -0.1610 76.1  36 
 PAM  EZ I         732  8.85         7.3 0.50            156           76.1  36 
 RUS  HZ EP        731 50.58                             144   -0.2110 98.7 178 
 RUS  HN ES        732  9.23                             144    0.1510 98.7 178 
 RUS  HZ I         732 11.09         1.8 0.20            145           98.7 178 
 PTB  HZ EP   9    731 53.50                             131   -1.03 0  152 260 
 PTB  HN ES        732 14.73                             131    0.03 9  152 260 
 PTB  HZ I         732 20.52         4.7 0.26            129            152 260 
 ZAR  HZ EP        731 59.65                             121   -0.50 8  209 292 
 ZAR  HN ES        732 25.40                             121   -0.34 8  209 292 
 ZAR  HZ I         732 31.17         3.8 0.52            121            209 292 
 CHI  HZ EP        732  5.37                             117    0.47 8  248 196 
 CHI  HN ES        732 33.82                             117   -0.37 8  248 196 
 CHI  HZ I         732 38.48         0.8 0.38            118            248 196 
 CBOC HZ EP        732 15.16                             109    0.56 7  337 253 
 CBOC HN ES   4    732 53.49                             109    2.04 0  337 253 
 CBOC HZ I         733  0.46         0.6 0.60            110            337 253 
 SJC  HZ EP   4    732 20.99                             105   -2.30 0  413 327 
 SJC  HN ES   4    733  1.64                             105   -5.28 0  413 327 
                                                                                
