 2010  910 0640 55.0 L   6.840 -73.240122.0  RSN 10 0.3 1.8LRSN                1
 GAP=145        0.79       4.1     7.1  6.6 -0.1051E+02  0.4827E+01 -0.1064E+01E
 Epicentro: ZAPATOCA - SANTANDER                                               3
 ACTION:UP  11-02-18 11:01 OP:tino STATUS:               ID:20100910064055 L   I
 2010-09-10-0639-19S.COL___120                                                 6
 STAT SP IPHASW D HRMM SECON CODA AMPLIT PERI AZIMU VELO SNR AR TRES W  DIS CAZ7
 GIR2 SZ EP        641 11.77                             167     0.010   27  11 
 BAR2 SZ EP        641 11.93                             166     0.010   28 167 
 BAR2 SZ ES   1    641 24.99                             166    -0.1 7   28 167 
 BAR2 SZ I         641 26.49        45.3 0.39                            28 167 
 BRR  HZ IP     D  641 12.65                             152    -0.310   60 300 
 BRR  HZ I         641 12.88        34.6 0.18                            60 300 
 BRR  HN ES   1    641 27.03                             152     0.1 7   60 300 
 GUE  SZ EP   1    641 17.26                             134    -0.2 7  115  18 
 GUE  SZ I         641 17.64        13.4 0.04                           115  18 
 GRA  SZ EP   1    641 18.61                             131     0.4 7  125  23 
 GRA  SZ ES   1    641 36.62                             131     0.4 7  125  23 
 GRA  SZ I         641 40.34        12.0 0.38                           125  23 
 OCA  SZ EP   1    641 20.39                             124    -0.7 7  155 357 
 OCA  SZ ES   1    641 41.74                             124     0.4 7  155 357 
 OCA  SZ I         641 44.75        12.5 0.14                           155 357 
 CHI  HN ES   2    642  0.29                             112    -0.1 4  250 193 
 CHI  HZ I         642  7.93         2.1 0.39                           250 193 
 HEL  HZ EP   1    641 33.50                             110     0.4 6  263 254 
 HEL  HZ I         642  7.51         2.7 0.35                           263 254 
 RREF HZ EP   2    641 40.33                             106     0.6 3  317 228 
 RREF HZ I         642 24.75         1.9 0.64                           317 228 
 PRA  HZ EP   2    641 48.17                             102     0.5 3  391 208 
 PRA  HZ I         642 32.55         2.0 0.32                           391 208 
                                                                                
