 2012  910 0847 20.8 L   6.746 -73.138145.9  RSN 10 0.3 2.5LRSN                1
 GAP= 73        0.76       3.8     3.2  4.8  0.1724E+01  0.1489E+01  0.2803E+01E
 Epicentro: JORDAN - SANTANDER                                                 3
 ACTION:UPD 12-10-22 14:18 OP:ep   STATUS:               ID:20120910084720 L   I
 2012-09-10-0840-00M.COL___227                                                 6
 STAT SP IPHASW D HRMM SECON CODA AMPLIT PERI AZIMU VELO AIN AR TRES W  DIS CAZ7
 BAR2 SZ IP        847 40.44                             173    0.0910 17.7 196 
 BAR2 SZ ES        847 55.31                             173   -0.2810 17.7 196 
 BAR2 SZ I         847 58.13        81.8 0.12                          17.7 196 
 GIR2 SZ EP        847 40.56                             165   -0.1110 37.3 351 
 BRR  HZ EP        847 42.44                             151    0.2610 75.0 302 
 BRR  HN ES        847 59.55                             151    0.6910 75.0 302 
 BRR  HZ I         848  3.21        50.9 0.16                          75.0 302 
 PAM  SZ EP        847 43.27                             149   -0.0210 81.6  36 
 PAM  SE ES   1    848  0.37                             149   -0.45 7 81.6  36 
 PAM  SZ I         848  2.50        50.8 0.23                          81.6  36 
 RUS  HZ EP        847 44.31                             146    0.1710 94.5 176 
 RUS  HN ES   1    848  1.96                             146   -0.38 7 94.5 176 
 PTB  HZ EP        847 47.25                             132   -0.51 9  148 261 
 PTB  HZ I         848 14.32        33.5 0.23                           148 261 
 TAM  HZ EP        847 48.60                             131    0.32 9  153 103 
 TAM  HZ I         848  9.48        30.0 0.37                           153 103 
 TAM  HN ES   1    848  9.71                             131    0.00 7  153 103 
 ZAR  HZ EP   1    847 53.11                             122   -0.47 6  207 294 
 ZAR  HN ES   1    848 18.90                             122   -0.24 6  207 294 
 ZAR  HZ I         848 24.89        32.6 0.24                           207 294 
 NOR  SZ EP   2    847 56.30                             119    0.05 4  232 236 
 NOR  SN ES   2    848 24.02                             119    0.12 4  232 236 
 NOR  SZ I         848 28.73        30.1 0.22                           232 236 
 CHI  HZ EP   1    847 57.98                             118    0.07 6  243 196 
 CHI  HN ES   2    848 27.30                             118    0.45 4  243 196 
 CHI  HZ I         848 31.91        12.4 0.32                           243 196 
                                                                                
