 2013  710 0249 57.4 L   6.804 -73.073151.9  RSN  5 0.5 1.6LRSN                1
 GAP=207        0.99       6.3     7.6  7.5  0.1984E+02 -0.5379E+01 -0.1537E+02E
 Epicentro: LOS SANTOS - SANTANDER                                             3
 ACTION:UPD 13-08-12 10:36 OP:ep   STATUS:               ID:20130710024957 L   I
 OLDACT:REG 13-07-10 07:30 OP:nd   STATUS:               ID:20130710024959     3
 2013-07-10-0249-59M.COL___265                                                 6
 STAT SP IPHASW D HRMM SECON CODA AMPLIT PERI AZIMU VELO AIN AR TRES W  DIS CAZ7
 BAR2 SZ EP        250 18.01                             170    0.2310 26.3 207 
 BAR2 SZ ES        250 33.19                             170   -0.5210 26.3 207 
 BAR2 SZ I         250 35.79         6.4 0.16            168           26.3 207 
 BRR  HZ IP     D  250 19.85                             151    0.2910 78.1 295 
 BRR  HN ES        250 37.25                             151    0.3710 78.1 295 
 BRR  HZ I         250 41.48         4.9 0.46            148           78.1 295 
 RUS  HZ EP        250 21.52                             145   -0.2010  101 181 
 RUS  HN ES        250 41.00                             145    0.2710  101 181 
 RUS  HZ I         250 42.59         3.9 0.48            148            101 181 
 PTB  HZ EP        250 24.98                             132   -0.56 9  156 259 
 PTB  HN ES        250 47.46                             132   -0.06 9  156 259 
 PTB  HZ I         250 53.79         5.1 0.20            131            156 259 
 SML  HZ EP        250 35.13                             118    0.47 8  247 334 
 SML  HN ES   2    251  2.40                             118   -1.36 4  247 334 
 SML  HZ I         251  8.30         4.2 0.10            119            247 334 
                                                                                
