 2010  310 0320 19.9 L   6.800 -73.079146.8  RSN 16 0.5 3.7LRSN                1
 GAP=166        1.14       3.7     6.9  6.5 -0.8292E+01  0.9092E+01  0.1861E+01E
 Epicentro: LOS SANTOS - SANTANDER                                             3
 ACTION:UP  10-08-24 09:53 OP:vdl  STATUS:               ID:20100310032019 L   I
 2010-03-10-0317-14S.COL___062                                                 6
 STAT SP IPHASW D HRMM SECON CODA AMPLIT PERI AZIMU VELO SNR AR TRES W  DIS CAZ7
 BAR2 SZ IP        320 39.75                             170     0.110   26 207 
 BAR2 SZ ES   1    320 54.52                             170    -0.6 7   26 207 
 BRR  HZ IP        320 41.63                             150     0.110   78 296 
 BRR  HE ES        320 58.54                             150     0.110   78 296 
 BRR  HZ I         321  2.83      1197.1 0.13                            78 296 
 RUS  HZ IP        320 43.62                             144    -0.110  100 180 
 RUS  HE ES        321  2.19                             144    -0.110  100 180 
 RUS  HZ I         321  3.10       422.7 0.47                           100 180 
 GUE  SZ EP        320 44.63                             140     0.110  115   9 
 GRA  SZ IP        320 45.66                             138     0.610  124  14 
 OCA  SZ IP        320 47.90                             130    -0.5 9  161 351 
 OCA  SZ ES   1    321 10.58                             130     0.0 7  161 351 
 OCA  SZ I         321 14.21      1675.4 0.27                           161 351 
 CHI  HZ EP        320 57.81                             117     0.0 8  251 197 
 CHI  HN ES   1    321 27.60                             117     0.1 6  251 197 
 CHI  HZ I         321 33.77       170.4 0.26                           251 197 
 ROSC BZ EP        320 59.52                             116     1.0 8  257 212 
 ROSC BE ES   1    321 28.79                             116     0.2 6  257 212 
 ROSC BZ I         321 33.50       221.3 0.37                           257 212 
 HEL  HZ EP   1    321  0.16                             114    -0.8 6  279 256 
 HEL  HZ I         321 38.13       233.1 0.38                           279 256 
 GUY  HZ EP   1    321  4.36                             112     0.1 5  307 236 
 GUY  HN ES   1    321 39.93                             112     1.1 5  307 236 
 RREF HZ EP   1    321  6.28                             111    -0.4 5  327 230 
 RREF HN ES   1    321 42.70                             111    -0.5 5  327 230 
 RREF HZ I         321 50.06       216.1 0.30                           327 230 
 DBB  SZ EP        321  7.36                             109    -0.9 6  347 274 
 TOL  SZ EP   1    321  9.11                             109     0.3 5  349 226 
 TOL  SZ ES   1    321 47.85                             109     0.9 5  349 226 
 ANIL HZ EP   1    321 10.69                             108     0.4 5  363 225 
 ANIL HZ I         321 56.48       606.7 0.22                           363 225 
 PRA  HZ EP        321 12.82                             106    -1.0 6  396 210 
 PRA  HN ES   1    321 55.07                             106    -0.9 4  396 210 
 PRA  HZ I         322  1.51       292.1 0.25                           396 210 
 POP2 HZ EP   1    321 39.76                              99    -0.7 2  617 220 
 POP2 HZ I         322 49.69        20.2 0.33                           617 220 
                                                                                
