 2010  510 0127 27.4 L   6.785 -73.039147.3  RSN  8 0.5 1.9LRSN                1
 GAP=134        1.11       5.1     8.8  8.6 -0.1871E+02 -0.2462E+02  0.4046E+01E
 Epicentro: LOS SANTOS - SANTANDER                                             3
 ACTION:UP  10-08-24 10:03 OP:vdl  STATUS:               ID:20100510012727 L   I
 2010-05-10-0125-18S.COL___104                                                 6
 STAT SP IPHASW D HRMM SECON CODA AMPLIT PERI AZIMU VELO SNR AR TRES W  DIS CAZ7
 BAR2 SZ EP        127 47.45                             170     0.210   27 217 
 BAR2 SZ ES   1    128  2.20                             170    -0.6 7   27 217 
 BRR  HZ EP        127 49.92                             149     0.510   83 296 
 BRR  HN ES   1    128  6.65                             149     0.1 7   83 296 
 BRR  HZ I         128 11.53        15.8 0.20                            83 296 
 RUS  HZ EP        127 51.36                             145     0.210   99 183 
 RUS  HZ I         127 52.24         5.9 0.41                            99 183 
 RUS  HN ES   2    128  9.89                             145     0.2 5   99 183 
 GUE  SZ EP        127 51.99                             140    -0.210  116   6 
 GRA  SZ IP        127 53.23                             138     0.610  124  12 
 GRA  SZ ES   1    128 12.46                             138     0.1 7  124  12 
 OCA  SZ EP        127 55.78                             129    -0.4 9  164 349 
 OCA  SZ ES   2    128 17.41                             129    -1.2 5  164 349 
 OCA  SZ I         128 25.98        10.1 0.46                           164 349 
 SDV  BZ EP        128 16.95                             109     0.4 6  353  49 
 SDV  BZ I         128 17.84         3.2 0.18                           353  49 
 SDV  BE ES   1    128 53.96                             109    -1.0 5  353  49 
 PRA  HZ EP        128 21.07                             107    -0.4 6  397 211 
 PRA  HN ES   1    129  2.67                             107    -1.0 4  397 211 
 PRA  HZ I         129  7.61         5.6 0.31                           397 211 
                                                                                
