 2016  610 0301 24.8 L   6.789 -73.178158.5  RSN  7 0.1 1.3LRSN                1
 GAP=179        0.32       1.4     3.3  3.9 -0.1817E+00 -0.7821E+01  0.3460E+00E
 Epicentro: LOS SANTOS - SANTANDER                                             3
 ACTION:UPD 16-07-21 22:17 OP:rebc STATUS:               ID:20160610030124 L   I
 OLDACT:UP  16-06-10 15:10 OP:dani STATUS:               ID:20160610025741     3
 OLDACT:REG 16-06-10 12:44 OP:dani STATUS:               ID:20160610025741     3
 2016-06-10-0257-41M.COL___337                                                 6
 STAT SP IPHASW D HRMM SECON CODA AMPLIT PERI AZIMU VELO AIN AR TRES W  DIS CAZ7
 BAR2 EZ EP        3 1 45.82                             172   -0.1210 21.8 181 
 BAR2 EZ I         3 2  3.66         5.0 0.20                          21.8 181 
 BRR  HN ES        3 2  4.72                             155    0.0310 68.6 301 
 RUS  HZ EP        3 1 49.88                             146    0.1110 99.7 174 
 RUS  HE ES        3 2  9.24                             146   -0.0010 99.7 174 
 RUS  HZ I         3 2  9.66         2.6 0.38                          99.7 174 
 PTB  HZ EP   9    3 1 52.34                             135   -0.17 0  144 259 
 PTB  HN ES        3 2 13.91                             134   -0.04 9  144 259 
 PTB  HZ I         3 2 17.48         1.9 0.22                           144 259 
 SPBC HN ES        3 2 16.79                             132   -0.02 9  160 218 
 OCA  HN ES        3 2 17.13                             132   -0.00 9  161 354 
 NOR  HN ES   4    3 2 31.52                             121    2.42 0  231 234 
 NOR  HZ I         3 2 37.21         2.2 0.14                           231 234 
                                                                                
