 2011 1110 0134 51.4 L   6.770 -73.052144.1  RSN  5 0.2 1.5LRSN                1
 GAP=150        0.43       3.5     5.0  6.3  0.3509E+01  0.3720E+01  0.5277E+01E
 Epicentro: LOS SANTOS - SANTANDER                                             3
 ACTION:UPD 12-07-13 16:09 OP:ep   STATUS:               ID:20111110013451 L   I
 2011-11-10-0133-18S.COL___178                                                 6
 STAT SP IPHASW D HRMM SECON CODA AMPLIT PERI AZIMU VELO AIN AR TRES W  DIS CAZ7
 BAR2 SZ EP   1    135 10.89                             170    0.00 7 24.4 216 
 BAR2 SZ I         135 32.02         6.5 0.61                          24.4 216 
 PAM  SN ES   2    135 30.67                             152    0.35 5 74.0  32 
 BRR  HZ EP   1    135 12.85                             149   -0.21 7 82.0 297 
 BRR  HE ES   1    135 29.90                             149   -0.02 7 82.0 297 
 BRR  HZ I         135 32.55         7.9 0.09                          82.0 297 
 RUS  HZ EP   1    135 14.83                             144    0.05 7 97.1 182 
 RUS  HZ I         135 31.58         2.7 0.54                          97.1 182 
 RUS  HN ES   1    135 32.86                             144   -0.12 7 97.1 182 
 RREF HN ES   2    136 15.33                             110    0.69 3  328 231 
 RREF HZ I         136 19.04         1.9 0.32                           328 231 
                                                                                
