 2015  410 0746 12.7 L   6.789 -73.134145.7  RSN  7 0.4 1.6LRSN                1
 GAP=238        1.11       5.7     6.0  7.2  0.1107E+02  0.1168E+02  0.3920E+01E
 Epicentro: LOS SANTOS - SANTANDER                                             3
 ACTION:UPD 15-06-03 16:53 OP:cam  STATUS:               ID:20150410074612 L   I
 OLDACT:REG 15-04-10 12:54 OP:akv  STATUS:               ID:20150410073748     3
 2015-04-10-0737-48M.COL___263                                                 6
 STAT SP IPHASW D HRMM SECON CODA AMPLIT PERI AZIMU VELO AIN AR TRES W  DIS CAZ7
 BAR2 EZ EP        746 32.31                             171    0.0310 22.4 194 
 BAR2 EZ ES        746 47.52                             171   -0.0510 22.4 194 
 BAR2 EZ I         746 50.04         8.5 0.26            166           22.4 194 
 BRR  HN ES        746 51.12                             152    0.6510 72.9 299 
 RUS  HZ EP        746 36.12                             144   -0.2110 99.3 177 
 RUS  HN ES        746 54.64                             144   -0.1310 99.3 177 
 RUS  HZ I         746 56.51         3.8 0.48            143           99.3 177 
 PTB  HZ EP        746 39.17                             132   -0.56 9  149 259 
 PTB  HN ES        746 59.83                             132   -1.00 9  149 259 
 PTB  HZ I         747  2.69         4.8 0.12            130            149 259 
 SPBC HZ EP        746 41.19                             129    0.03 9  163 220 
 SPBC HN ES        747  3.73                             129    0.36 9  163 220 
 SPBC HZ I         747  7.76         8.8 0.62            128            163 220 
 ZAR  HZ EP        746 45.70                             122    0.42 8  206 292 
 ZAR  HN ES        747 10.49                             122   -0.23 8  206 292 
 ZAR  HZ I         747 15.46         5.2 0.26            122            206 292 
 NOR  HZ EP        746 48.75                             118    0.31 8  235 235 
 NOR  HN ES        747 16.93                             118    0.60 8  235 235 
 NOR  HZ I         747 24.28         3.0 0.36            118            235 235 
                                                                                
