 2012  710 0021 47.4 L   7.422 -73.124  7.0  RSN  5 0.3 1.3LRSN                1
 GAP=114        0.76       3.1     2.5  7.8 -0.2968E+00  0.9405E+01 -0.2472E+01E
 Epicentro: EL PLAYON - SANTANDER                                              3
 ACTION:UPD 12-08-14 11:43 OP:ep   STATUS:               ID:20120710002147 L   I
 2012-07-10-0020-00M.COL___201                                                 6
 STAT SP IPHASW D HRMM SECON CODA AMPLIT PERI AZIMU VELO AIN AR TRES W  DIS CAZ7
 PAM  SZ EP   1    021 55.94                              94     0.1 7   48 101 
 PAM  SE ES   1    022  1.90                              94    -0.4 7   48 101 
 PAM  SZ I         022  2.64        19.5 0.21             47             48 101 
 BRR  HZ EP   1    021 59.27                              92     0.1 7   74 242 
 BRR  HN ES   1    022  8.01                              92    -0.4 7   74 242 
 BRR  HZ I         022  9.29         9.0 0.11             47             74 242 
 OCA  HN ES   1    022 13.94                              92     0.1 7   93 347 
 RUS  HZ EP   1    022 14.87                              91     0.7 7  169 178 
 RUS  HZ I         022 33.57         2.4 0.40             37            169 178 
 ZAR  HZ EP   1    022 16.27                              56    -0.1 7  192 272 
 ZAR  HN ES   1    022 38.96                              56     0.0 7  192 272 
 ZAR  HZ I         022 40.63         6.5 0.22             37            192 272 
