 2012  310 0219 20.1 L   6.771 -73.117140.0  RSN 13 0.5 3.3LRSN                1
 GAP=117        1.14       4.5     4.5  7.3  0.1521E+01  0.7717E+01  0.1063E+02E
 ACTION:UP  12-03-31 23:18 OP:EP   STATUS:               ID:20120310021920 L   I
 2012-03-10-0217-35M.COL___181                                                 6
 STAT SP IPHASW D HRMM SECON CODA AMPLIT PERI AZIMU VELO SNR AR TRES W  DIS CAZ7
 BAR2 SZ EP        219 39.12                             171     0.110   21 200 
 BAR2 SZ I         219 39.41       381.2 0.19                            21 200 
 BAR2 SZ ES   1    219 52.94                             171    -0.8 7   21 200 
 BRR  HZ EP        219 41.03                             150     0.110   76 300 
 BRR  HN ES        219 57.94                             150     0.810   76 300 
 BRR  HZ I         220  0.80       666.4 0.13                            76 300 
 PAM  SZ EP        219 41.93                             150     0.110   78  36 
 PAM  SN ES   1    219 58.49                             150    -0.2 7   78  36 
 PAM  SZ I         220  1.34       310.9 0.31                            78  36 
 RUS  HZ EP        219 42.92                             144    -0.210   97 178 
 RUS  HN ES   1    220  0.85                             144    -0.1 7   97 178 
 RUS  HZ I         220  2.83       131.3 0.33                            97 178 
 PTB  HN ES   1    220  7.35                             130    -0.4 7  150 260 
 PTB  HZ I         220 14.55       237.4 0.28                           150 260 
 YOP  SZ EP   1    219 49.50                             126     0.1 7  175 154 
 YOP  SN ES   1    220 12.25                             126     0.1 7  175 154 
 YOP  SZ I         220 16.15       114.1 0.21                           175 154 
 ZAR  HZ EP   1    219 51.59                             121    -1.1 6  208 293 
 ZAR  HN ES   1    220 17.90                             121    -0.1 6  208 293 
 ZAR  HZ I         220 24.07       253.2 0.38                           208 293 
 NOR  SZ EP        219 54.83                             117    -0.8 8  235 236 
 NOR  SN ES        220 23.07                             117    -0.2 8  235 236 
 CHI  HZ EP   1    219 57.23                             116    -0.1 6  246 196 
 CHI  HE ES   1    220 26.78                             116     0.5 6  246 196 
 CHI  HZ I         220 36.07       113.8 0.35                           246 196 
 ROSC BZ EP   1    219 58.71                             116     0.9 6  252 212 
 ROSC BN ES   1    220 27.61                             116     0.4 6  252 212 
 ROSC BZ I         220 36.50       227.8 0.47                           252 212 
 HEL  HZ EP   1    220  0.46                             113     0.1 6  274 257 
 HEL  HN ES   1    220 32.02                             113     0.4 6  274 257 
 HEL  HZ I         220 38.43        87.7 0.35                           274 257 
 GUY  SZ EP   1    220  4.07                             111     0.2 5  304 236 
 GUY  SZ I         220 46.60       219.3 0.45                           304 236 
 RREF HZ EP   1    220  6.23                             110     0.2 5  322 230 
 RREF HZ I         220 51.68       179.8 0.27                           322 230 
                                                                                
