 2013  410 0438 17.5 L   6.771 -73.192140.8  RSN  5 0.5 1.2LRSN                1
 GAP=173        1.23       8.4     8.2  9.7  0.2563E+02  0.2668E+01 -0.4509E+01E
 Epicentro: VILLANUEVA - SANTANDER                                             3
 ACTION:UPD 13-05-22 14:37 OP:EP   STATUS:               ID:20130410043817 L   I
 2013-04-10-0428-43M.COL___215                                                 6
 STAT SP IPHASW D HRMM SECON CODA AMPLIT PERI AZIMU VELO AIN AR TRES W  DIS CAZ7
 BAR2 SZ EP        438 36.42                             172   -0.0210 19.8 177 
 BAR2 SZ ES        438 50.44                             172   -0.7910 19.8 177 
 GIR2 SZ EP        438 36.67                             166    0.0410 34.0 360 
 BRR  HZ EP        438 37.43                             153   -0.4910 68.4 303 
 BRR  HN ES        438 54.76                             153    0.8810 68.4 303 
 RUS  HZ EP        438 40.85                             144    0.3110 97.9 173 
 RUS  HN ES        438 58.88                             144    0.3510 97.9 173 
 RUS  HN I         439  0.85         1.7 0.68            141           97.9 173 
 PTB  HZ EP        438 43.52                             132    0.00 9  142 260 
 PTB  HN ES        439  3.53                             132   -0.31 9  142 260 
 PTB  HN I         439  8.97         4.3 0.66            129            142 260 
                                                                                
