 2017  710 0702 42.5 L   6.785 -73.182151.6  RSN  6 0.3 1.2LRSN                1
 GAP=239        0.73       4.8     4.9  5.9  0.2483E+01  0.6357E+01 -0.3450E+01E
 Epicentro: LOS SANTOS - SANTANDER                                             3
 ACTION:UPD 17-08-30 15:31 OP:rebc STATUS:               ID:20170710070242 L   I
 OLDACT:REG 17-07-10 13:04 OP:dnl  STATUS:               ID:20170710065745     3
 2017-07-10-0658-00M.COL___368                                                 6
 STAT SP IPHASW D HRMM SECON CODA AMPLIT PERI AZIMU VELO AIN AR TRES W  DIS CAZ7
 BAR2 EZ EP        7 3  3.05                             172    0.2210 21.3 180 
 BAR2 EZ ES        7 3 18.29                             172   -0.3710 21.3 180 
 BAR2 EZ I         7 3 18.88         3.1 0.58            174           21.3 180 
 BRR  HZ EP     D  7 3  4.35                             154    0.1710 68.6 301 
 BRR  HN ES        7 3 21.30                             154    0.2510 68.6 301 
 BRR  HZ I         7 3 25.60         2.7 0.48            150           68.6 301 
 PTB  HZ EP        7 3  9.32                             134   -0.30 9  144 259 
 PTB  HN ES        7 3 30.40                             134   -0.33 9  144 259 
 PTB  HZ I         7 3 33.14         1.2 0.56            134            144 259 
 SPBC HN ES        7 3 33.81                             131    0.36 9  159 218 
 ZAR  HZ EP        7 3 14.82                             124   -0.24 9  201 293 
 ZAR  HN ES        7 3 40.64                             124    0.21 9  201 293 
 ZAR  HZ I         7 3 46.99         2.8 0.42            124            201 293 
 GUY2CHE ES   4    7 3 56.74                             114   -3.08 0  297 235 
 GUY2CHZ I         7 4  0.78         1.0 0.24                           297 235 
                                                                                
