 2014 1010 0455 34.2 L   6.784 -73.044149.2  RSN 11 0.6 1.6LRSN                1
 GAP=151        1.15       3.5     6.6  7.2 -0.4609E+01  0.1705E+02  0.8778E+00E
 Epicentro: LOS SANTOS - SANTANDER                                             3
 ACTION:UPD 14-11-29 23:48 OP:nd   STATUS:               ID:20141010045534 L   I
 OLDACT:REG 14-10-10 12:54 OP:fm   STATUS:               ID:20141010044739     3
 2014-10-10-0447-39M.COL___294                                                 6
 STAT SP IPHASW D HRMM SECON CODA AMPLIT PERI AZIMU VELO AIN AR TRES W  DIS CAZ7
 BAR2 SZ EP   1    455 54.45                             170    0.17 7 26.1 216 
 BAR2 SZ ES   1    456  9.96                             170    0.00 7 26.1 216 
 BAR2 SZ I         456 10.84        17.0 0.26            166           26.1 216 
 PAM  SZ EP        455 57.35                             153    0.8810 72.3  32 
 PAM  SE ES        456 13.89                             153    0.0310 72.3  32 
 PAM  SZ I         456 16.75         3.7 0.20            156           72.3  32 
 BRR  HZ EP        455 56.42                             150    0.0810 82.0 296 
 BRR  HN ES        456 13.76                             150    0.1510 82.0 296 
 BRR  HZ I         456 17.55         4.9 0.14            146           82.0 296 
 RUS  HZ EP        455 58.20                             145    0.0610 98.7 183 
 RUS  HN ES        456 16.36                             145   -0.4610 98.7 183 
 RUS  HZ I         456 18.58         2.9 0.32            147           98.7 183 
 PTB  HZ EP   1    456  1.54                             131   -0.87 7  158 260 
 PTB  HN ES   4    456 22.61                             131   -1.81 0  158 260 
 PTB  HZ I         456 30.03         5.0 0.50            130            158 260 
 OCA  HZ EP   1    456  2.57                             130   -0.52 7  164 349 
 OCA  HN ES        456 25.57                             130   -0.06 9  164 349 
 OCA  HZ I         456 28.70         6.4 0.20            131            164 349 
 SPBC HZ EP        456  3.46                             129   -0.05 9  169 222 
 SPBC HN ES   1    456 25.75                             129   -0.64 7  169 222 
 SPBC HZ I         456 27.01         5.1 0.20            129            169 222 
 ZAR  HZ EP   1    456  7.73                             122   -0.27 6  215 291 
 ZAR  HE ES   4    456 32.74                             122   -1.63 0  215 291 
 ZAR  HZ I         456 42.68         3.5 0.24            122            215 291 
 SML  HZ EP   1    456 10.72                             117   -0.98 6  250 333 
 SML  HN ES        456 40.77                             117   -0.20 8  250 333 
 SML  HZ I         456 42.41         7.6 0.10            118            250 333 
 GUY2CHZ EP   1    456 19.36                             112    0.48 5  309 236 
 GUY2CHN ES        456 55.31                             112    1.56 7  309 236 
 GUY2CHZ I         457  1.40         1.5 0.50                           309 236 
 PRA  HZ EP   1    456 28.77                             107    0.46 4  396 211 
 PRA  HN ES        457  9.85                             107   -0.68 6  396 211 
 PRA  HZ I         457 17.24         1.7 0.20            108            396 211 
                                                                                
