 2011  510 0523 42.8 L   6.785 -73.090143.7  RSN 12 0.4 1.8LRSN                1
 GAP=144        0.76       3.7     6.6  5.9 -0.1012E+02  0.7932E+01  0.1274E+01E
 Epicentro: LOS SANTOS - SANTANDER                                             3
 ACTION:UP  11-06-29 08:52 OP:tino STATUS:               ID:20110510052342 L   I
 2011-05-10-0518-54S.COL___133                                                 6
 STAT SP IPHASW D HRMM SECON CODA AMPLIT PERI AZIMU VELO SNR AR TRES W  DIS CAZ7
 BAR2 SZ IP        524  2.07                             170    -0.110   24 206 
 BAR2 SZ ES   2    524 16.62                             170    -0.7 5   24 206 
 BAR2 SZ I         524 18.17        12.6 0.23                            24 206 
 BTL  SZ EP        524  2.62                             170     0.410   25 307 
 BTL  SZ ES   2    524 17.59                             170     0.2 5   25 307 
 GIR2 SZ EP   3    524  2.15                             166    -0.2 2   34 341 
 PAM  SZ IP        524  4.99                             151     0.310   75  35 
 PAM  SN ES   2    524 21.80                             151     0.1 5   75  35 
 BRR  HZ EP        524  3.99                             150    -0.110   77 297 
 BRR  HN ES   2    524 20.89                             150     0.2 5   77 297 
 BRR  HZ I         524 24.67        10.5 0.16                            77 297 
 RUS  HZ EP        524  5.95                             144    -0.310   99 180 
 RUS  HN ES   2    524 24.51                             144     0.0 5   99 180 
 RUS  HZ I         524 26.07         7.7 0.30                            99 180 
 BRI  SZ EP        524  6.62                             141     0.210  108  17 
 BRI  SZ ES   2    524 24.92                             141     0.0 5  108  17 
 GRA  SZ IP        524  7.87                             137     0.010  126  15 
 GRA  SZ ES   1    524 27.37                             137     0.0 7  126  15 
 GRA  SZ I         524 28.80         7.7 0.30                           126  15 
 OCA  SZ EP        524 10.68                             129    -0.5 9  163 351 
 OCA  SZ ES   2    524 32.78                             129    -0.6 5  163 351 
 OCA  SZ I         524 37.58         9.9 0.35                           163 351 
 HEL  HZ EP   1    524 23.93                             114     0.4 6  278 256 
 HEL  HZ I         525  0.34         4.0 0.32                           278 256 
 RREF HZ EP   1    524 29.99                             110     0.7 5  325 230 
 RREF HZ I         525 10.56         5.4 0.25                           325 230 
 PRA  HZ EP   1    524 35.54                             106    -0.9 4  394 210 
 PRA  HN ES   2    525 18.41                             106     0.1 3  394 210 
                                                                                
