 2017  510 0011 47.1 L   6.755 -73.101132.0  RSN  6 0.2 1.0LRSN                1
 GAP=144        0.67       3.0     3.0  5.7 -0.4790E+00  0.1851E+01  0.2076E+01E
 Epicentro: LOS SANTOS - SANTANDER                                             3
 ACTION:UPD 17-06-16 13:34 OP:jn   STATUS:               ID:20170510001147 L   I
 OLDACT:UP  17-05-10 14:39 OP:edw  STATUS:               ID:20170510000733     3
 OLDACT:REG 17-05-10 12:46 OP:osc  STATUS:               ID:20170510000733     3
 2017-05-10-0008-00M.COL___356                                                 6
 STAT SP IPHASW D HRMM SECON CODA AMPLIT PERI AZIMU VELO AIN AR TRES W  DIS CAZ7
 BRR  HZ EP        012  7.14                             147   -0.0610 77.9 300 
 BRR  HN ES        012 23.19                             147    0.3210 77.9 300 
 PAM  EZ EP        012  8.06                             147    0.1310 78.4  34 
 PAM  EN ES        012 23.84                             147   -0.3410 78.4  34 
 PAM  EZ I         012 26.76         2.0 0.28            149           78.4  34 
 RUS  HZ EP        012  9.22                             142    0.0910 95.4 179 
 RUS  HN ES        012 26.35                             142    0.0410 95.4 179 
 RUS  HZ I         012 28.62         1.4 0.44            144           95.4 179 
 PTB  HZ EP   9    012 12.67                             127   -0.69 0  152 261 
 PTB  HN ES        012 32.63                             128   -0.52 9  152 261 
 PTB  HZ I         012 35.36         1.9 0.18            130            152 261 
 ZAR  HN ES        012 44.52                             118   -0.02 8  210 293 
 NOR  HN ES        012 49.31                             115   -0.27 8  236 236 
                                                                                
