 2012  810 0740 47.0 L   6.556 -73.585107.1  RSN  4 0.2 0.9LRSN                1
 GAP=126        0.41       4.5     2.7  5.6  0.2721E+01  0.3059E+01  0.1240E+02E
 Epicentro: EL CARMEN DE CHUCURI - SANTANDER                                   3
 ACTION:UPD 12-09-10 11:55 OP:ep   STATUS:               ID:20120810074047 L   I
 2012-08-10-0740-00M.COL___218                                                 6
 STAT SP IPHASW D HRMM SECON CODA AMPLIT PERI AZIMU VELO AIN AR TRES W  DIS CAZ7
 BAR2 SZ EP   1    741  2.69                             156   -0.10 7 44.7  85 
 BAR2 SZ ES   1    741 15.03                             156   -0.12 7 44.7  85 
 BRR  HZ EP   1    741  3.28                             147   -0.21 7 62.6 347 
 BRR  HE ES   1    741 16.64                             147    0.25 7 62.6 347 
 RUS  HZ EP   1    741  6.61                             137    0.21 7 92.0 143 
 RUS  HZ I         741 23.79         1.7 0.29                          92.0 143 
 PTB  HZ EP   1    741  6.18                             135    0.05 7 96.4 269 
 PTB  HZ I         741  7.02         2.4 0.51                          96.4 269 
 PTB  HN ES   1    741 21.00                             135   -0.08 7 96.4 269 
                                                                                
