 2017  810 0604 31.2 L   6.791 -73.133147.3  RSN 29 0.6 2.6LRSN                1
 GAP= 66        1.03       2.2     2.6  4.1 -0.3508E-01  0.2840E+01  0.4929E+00E
 Epicentro: LOS SANTOS - SANTANDER                                             3
 ACTION:UPD 17-09-04 20:18 OP:rebc STATUS:               ID:20170810060431 L   I
 OLDACT:UP  17-08-10 17:24 OP:dhb  STATUS:               ID:20170810055735     3
 OLDACT:REG 17-08-10 12:33 OP:dhb  STATUS:               ID:20170810055735     3
 2017-08-10-0558-00M.COL___396                                                 6
 STAT SP IPHASW D HRMM SECON CODA AMPLIT PERI AZIMU VELO AIN AR TRES W  DIS CAZ7
 BAR2 EZ IP     C  6 4 50.82                             171   -0.2010 22.7 194 
 BAR2 EZ ES        6 5  5.92                             171   -0.5410 22.7 194 
 BAR2 EZ I         6 5  7.14       162.8 0.17            167           22.7 194 
 BRR  HZ IP     D  6 4 52.71                             152    0.0910 72.9 299 
 BRR  HN ES        6 5  9.98                             152    0.6610 72.9 299 
 BRR  HZ I         6 5 11.86        81.3 0.12            147           72.9 299 
 PAM  EZ IP     D  6 4 53.61                             151    0.0310 77.2  38 
 PAM  EN ES        6 5 10.93                             151   -0.1010 77.2  38 
 PAM  EZ I         6 5 13.36        65.6 0.58            153           77.2  38 
 RUS  HZ IP     C  6 4 54.69                             144   -0.3510 99.5 177 
 RUS  HN ES        6 5 13.67                             144    0.0410 99.5 177 
 RUS  HZ I         6 5 14.40       106.6 0.26            142           99.5 177 
 TAM  HZ IP     D  6 4 59.01                             131    0.14 9  153 105 
 TAM  HN ES        6 5 20.66                             131    0.23 9  153 105 
 SPBC HZ IP     C  6 4 59.70                             129   -0.14 9  163 220 
 SPBC HN ES        6 5 21.67                             129   -0.51 9  163 220 
 SPBC HZ I         6 5 28.79       102.2 0.12            125            163 220 
 YPLC HZ EP        6 5  1.01                             127    0.04 9  175 152 
 YPLC HN ES        6 5 24.80                             127    0.62 9  175 152 
 YPLC HZ I         6 5 25.63        52.0 0.28            126            175 152 
 ZAR  HZ EP        6 5  3.32                             122   -0.61 8  206 292 
 ZAR  HN ES        6 5 29.36                             122   -0.09 8  206 292 
 ZAR  HZ I         6 5 35.80        48.9 0.28            119            206 292 
 TABC EZ EP        6 5  7.66                             120    0.62 8  230 211 
 TABC EZ ES        6 5 35.03                             120    0.04 8  230 211 
 TABC EZ I         6 5 45.29        31.5 0.46            117            230 211 
 NOR  HZ EP        6 5  6.68                             119   -0.42 8  235 235 
 NOR  HN ES        6 5 34.74                             119   -0.34 8  235 235 
 NOR  HZ I         6 5 40.08        45.6 0.46            116            235 235 
 CHI  HZ IP        6 5  8.85                             117   -0.09 8  248 196 
 CHI  HN ES        6 5 38.32                             117   -0.04 8  248 196 
 CHI  HZ I         6 5 43.64        21.1 0.26            115            248 196 
 ROSC BZ EP   9    6 5 10.71                             117    1.30 0  253 211 
 ROSC BN ES        6 5 40.92                                    0.42 8  253 211 
 ROSC BZ I         6 5 46.52        40.0 0.40            114            253 211 
 HEL  HZ EP        6 5 12.12                             115    0.49 8  273 256 
 HEL  HE ES        6 5 43.74                             115    0.59 8  273 256 
 HEL  HZ I         6 5 49.80        24.1 0.28            112            273 256 
 URE  HZ EP   9    6 5 10.68                             114   -1.86 0  285 292 
 URE  HN ES        6 5 42.62                                   -0.30 7  285 292 
 URE  HZ I         6 5 55.16        31.4 0.30            111            285 292 
 GUY2CHZ EP        6 5 15.34                             112    0.38 7  302 235 
 GUY2CHN ES   4    6 5 51.83                             112    2.75 0  302 235 
 GUY2CHZ I         6 5 58.54        23.5 0.26                           302 235 
 VIL  EZ EP        6 5 14.29                             112   -0.34 7  303 192 
 VIL  EE ES   1    6 5 48.77                             112    0.28 5  303 192 
 VIL  EZ I         6 5 55.53        16.7 0.34            110            303 192 
 PTGC HZ IP   9 C  6 5 13.72                             112   -1.26 0  307 159 
 PTGC HN ES        6 5 46.91                             112   -0.95 7  307 159 
 PTGC HZ I         6 5 49.34        14.9 0.24            110            307 159 
 LL6C HZ EP        6 5 16.37                             110   -0.73 7  326 357 
 LL6C HN ES        6 5 52.69                             110   -0.19 7  326 357 
 LL6C HZ I         6 5 58.89         6.4 0.61            109            326 357 
 ELA  HZ EP   4    6 5 20.54                             110    2.36 0  330 230 
 ELA  HZ I         6 6  2.17        22.1 0.32            108            330 230 
 CBOC HZ EP        6 5 18.53                             110    0.22 7  335 252 
 CBOC HN ES   2    6 5 53.28                             110   -1.77 3  335 252 
 CBOC HZ I         6 6  2.23        10.2 0.50            108            335 252 
 DBB  EZ EP        6 5 18.73                             110   -0.19 7  341 274 
 DBB  EN ES        6 5 55.69                             110   -0.44 7  341 274 
 DBB  EZ I         6 5 59.96        13.0 0.22            107            341 274 
 ARGC HZ EP        6 5 21.79                             108    0.70 6  361 340 
 ARGC HE ES        6 6  1.09                             108    1.10 6  361 340 
 ARGC HZ I         6 6  8.85         7.5 0.28            107            361 340 
 PRA  HZ EP        6 5 24.54                             107   -0.23 6  392 210 
 PRA  HE ES        6 6  8.05                             107    1.50 6  392 210 
 PRA  HZ I         6 6 13.45        19.6 0.22            105            392 210 
 ORTC HZ EP        6 5 25.21                             106    0.02 6  396 216 
 ORTC HE ES   2    6 6  7.90                             106    0.60 3  396 216 
 ORTC HZ I         6 6 14.51        15.1 0.22            105            396 216 
 PAL  HZ IP     D  6 5 26.65                             106    0.14 6  406 239 
 PAL  HE ES   2    6 6  7.63                             106   -2.01 3  406 239 
 PAL  HZ I         6 6 15.12        13.7 0.36            104            406 239 
 SJC  HZ EP   2    6 5 25.19                             106   -1.82 3  411 327 
 SJC  HN ES   4    6 6  6.51                             106   -4.02 0  411 327 
 SJC  HZ I         6 6 10.96         7.4 0.42            104            411 327 
 YOT  HZ EP        6 5 34.89                             103    0.54 5  472 229 
 YOT  HN ES        6 6 24.45                             103    0.85 5  472 229 
 GUA  EZ EP        6 5 33.68                             103   -0.60 5  473 173 
 GUA  EE ES        6 6 22.01                             103   -1.46 5  473 173 
 GUA  EZ I         6 6 27.66         9.2 0.32            102            473 173 
 MACC HZ EP   9    6 5 37.55                             102   -2.33 0  520 189 
 MACC HN ES        6 6 30.77                                   -0.34 4  520 189 
 MACC HZ I         6 6 44.28         3.7 0.39            100            520 189 
                                                                                
