 2017  410 0116 34.9 L   6.799 -73.149150.0  RSN 24 0.5 2.3LRSN                1
 GAP=112        1.03       2.7     3.2  4.8  0.1006E+01  0.4275E+01  0.3047E+01E
 Epicentro: LOS SANTOS - SANTANDER                                             3
 ACTION:UPD 17-05-30 21:10 OP:jn   STATUS:               ID:20170410011634 L   I
 OLDACT:UP  17-04-10 14:37 OP:edw  STATUS:               ID:20170410010742     3
 OLDACT:UP  17-04-10 14:35 OP:edw  STATUS:               ID:20170410010742     3
 OLDACT:REG 17-04-10 12:36 OP:edw  STATUS:               ID:20170410010742     3
 2017-04-10-0108-00M.COL___368                                                 6
 STAT SP IPHASW D HRMM SECON CODA AMPLIT PERI AZIMU VELO AIN AR TRES W  DIS CAZ7
 BAR2 EZ IP     D  116 55.01                             171   -0.0310 23.1 189 
 BAR2 EZ ES        117 10.11                             171   -0.6410 23.1 189 
 BAR2 EZ I         117 11.65        65.0 0.14            170           23.1 189 
 BRR  HZ IP     C  116 56.84                             153    0.3410 70.9 299 
 BRR  HN ES        117 13.81                             153    0.4710 70.9 299 
 BRR  HZ I         117 14.55        42.2 0.10            150           70.9 299 
 PAM  EZ EP     C  116 57.84                             151    0.2510 77.7  40 
 PAM  EN ES        117 14.90                             151   -0.3910 77.7  40 
 PAM  EZ I         117 17.23        68.8 0.50            153           77.7  40 
 RUS  HZ IP     D  116 58.96                             144   -0.1110  100 176 
 RUS  HN ES        117 18.34                             144    0.4210  100 176 
 RUS  HZ I         117 18.84        30.8 0.26            144            100 176 
 PTB  HZ EP   9    117  1.68                             133   -0.51 0  147 259 
 PTB  HN ES        117 22.67                             133   -0.29 9  147 259 
 PTB  HZ I         117 24.75        12.0 0.50            131            147 259 
 SPBC HZ EP        117  4.00                             130    0.30 9  163 219 
 SPBC HN ES        117 26.23                             130    0.07 9  163 219 
 SPBC HZ I         117 30.86        35.6 0.26            128            163 219 
 YPLC HZ IP     D  117  5.46                             127    0.44 9  177 151 
 YPLC HN ES        117 28.18                             127   -0.33 9  177 151 
 YPLC HZ I         117 32.25        21.7 0.32            128            177 151 
 ZAR  HZ EP        117  7.62                             123    0.02 9  204 292 
 ZAR  HN ES        117 33.01                             123   -0.09 9  204 292 
 ZAR  HZ I         117 39.83        16.3 0.32            121            204 292 
 TABC EZ EP   4    117 12.79                             120    1.91 0  230 211 
 TABC EZ ES   4    117 40.31                             120    1.37 0  230 211 
 TABC EZ I         117 44.00        24.9 0.76            119            230 211 
 NOR  HZ EP        117 11.20                             119    0.36 8  234 234 
 NOR  HN ES        117 38.19                             119   -0.68 8  234 234 
 NOR  HZ I         117 46.49        11.3 0.48            118            234 234 
 CHI  HZ EP        117 13.20                             118    0.38 8  248 195 
 CHI  HN ES        117 42.10                             118   -0.29 8  248 195 
 CHI  HZ I         117 46.07        14.6 0.46            117            248 195 
 ROSC BZ EP   4    117 14.96                             117    1.73 0  252 211 
 ROSC BN ES        117 42.81                             117   -0.31 8  252 211 
 ROSC BZ I         117 48.89        25.2 0.40            116            252 211 
 URE  HZ EP        117 15.23                             114   -0.92 7  284 292 
 URE  HN ES        117 48.10                             114   -0.22 7  284 292 
 URE  HZ I         117 56.85        12.8 0.28            113            284 292 
 VIL  EZ EP        117 18.81                             112    0.31 7  303 192 
 VIL  EN ES        117 52.34                             112   -0.16 7  303 192 
 VIL  EZ I         117 58.50        19.7 0.36            112            303 192 
 PTGC HZ IP   9 C  117 18.26                             112   -0.70 0  309 159 
 PTGC HN ES        117 51.44                             112   -1.18 7  309 159 
 PTGC HZ I         117 54.22        15.0 0.44            112            309 159 
 LL6C HN EP   9    117  0.61                             111   -20.2 0  325 358 
 LL6C HN ES        117 36.04                                   -0.37 7  325 358 
 CBOC HZ EP   4    117 23.45                             110    1.50 0  333 252 
 CBOC HN ES        117 59.37                             110    0.72 7  333 252 
 CBOC HZ I         118  4.86         2.9 0.72            110            333 252 
 DBB  EZ EP   4    117 23.38                             110    0.86 0  339 274 
 DBB  EN ES   2    117 58.43                             110   -1.22 3  339 274 
 DBB  EZ I         118  1.64         3.2 0.16            109            339 274 
 ANIL HZ EP   4    117 23.03                             109   -1.81 0  357 224 
 ANIL HN ES        118  4.77                             109    0.99 6  357 224 
 ARGC HZ EP   4    117 25.91                             109    1.18 0  359 340 
 ARGC HN ES   4    118  4.97                             109    1.39 0  359 340 
 ARGC HZ I         118 14.21         2.9 0.28            108            359 340 
 PRA  HZ EP        117 28.75                             107    0.21 6  392 210 
 PRA  HN ES        118  9.63                             107   -0.75 6  392 210 
 PRA  HZ I         118 14.13        10.0 0.30            106            392 210 
 ORTC HZ EP   2    117 28.38                             107   -0.56 3  395 216 
 ORTC HN ES   4    118  9.16                             107   -1.92 0  395 216 
 SJC  HZ EP   2    117 29.18                             106   -1.42 3  409 327 
 SJC  HN ES   4    118  9.08                             106   -4.96 0  409 327 
 SJC  HZ I         118 18.16         4.2 0.46            106            409 327 
 SMAR HZ EP   4    117 38.93                             103   -1.96 0  497 346 
 SMAR HN ES   4    118 28.45                             103   -3.91 0  497 346 
 MACC HZ EP   4    117 42.34                             102   -1.36 0  520 189 
 MACC HN ES   4    118 32.91                             102   -4.45 0  520 189 
 MACC HZ I         118 37.69         2.3 0.36            102            520 189 
                                                                                
