 2017 1110 0538 46.7 L   6.798 -73.117146.7  RSN  8 0.3 1.4LRSN                1
 GAP=140        0.83       3.3     3.6  5.6 -0.1660E+01  0.6259E+01  0.2645E+01E
 Epicentro: LOS SANTOS - SANTANDER                                             3
 ACTION:UPD 17-12-12 19:54 OP:rebc STATUS:               ID:20171110053846 L   I
 OLDACT:REG 17-11-10 15:07 OP:dnl  STATUS:               ID:20171110051849     3
 2017-11-10-0528-00M.COL___432                                                 6
 STAT SP IPHASW D HRMM SECON CODA AMPLIT PERI AZIMU VELO AIN AR TRES W  DIS CAZ7
 BAR2 EZ EP        539  6.31                             170   -0.1310 23.9 198 
 BAR2 EZ ES        539 21.61                             170   -0.2410 23.9 198 
 BAR2 EZ I         539 24.16         6.8 0.48            170           23.9 198 
 PAM  EZ EP        539  9.19                             151    0.2910 75.6  38 
 PAM  EN ES        539 26.29                             151    0.0710 75.6  38 
 PAM  EZ I         539 30.29         1.9 0.50            155           75.6  38 
 RUS  HZ EP        539 10.34                             144   -0.1610  100 178 
 RUS  HN ES        539 29.11                             144    0.0310  100 178 
 RUS  HZ I         539 29.85         2.4 0.24            147            100 178 
 PTB  HZ EP        539 13.35                             132   -0.66 9  151 259 
 PTB  HE ES        539 35.15                             132   -0.18 9  151 259 
 PTB  HZ I         539 41.63         3.9 0.54            132            151 259 
 SPBC HZ EP        539 15.36                             129   -0.07 9  165 220 
 SPBC HE ES        539 37.98                             129    0.12 9  165 220 
 SPBC HZ I         539 41.30         5.5 0.32            131            165 220 
 ZAR  HZ EP   2    539 18.96                             122   -0.55 4  207 292 
 ZAR  HN ES        539 45.83                             122    0.72 8  207 292 
 ZAR  HZ I         539 52.39         2.8 0.36            123            207 292 
 CHI  HZ EP        539 24.78                             117    0.27 8  249 196 
 CHI  HE ES        539 54.61                             117    0.61 8  249 196 
 CHI  HZ I         539 59.43         1.2 0.36            120            249 196 
 GUY2CHZ EP   4    539 31.92                             112    1.30 0  304 235 
 GUY2CHE ES        540  4.63                             112   -0.26 7  304 235 
 GUY2CHZ I         540 12.72         2.4 0.32                           304 235 
                                                                                
