 2015  210 0906 17.8 L   6.805 -73.168149.4  RSN 11 0.5 1.7LRSN                1
 GAP=134        1.35       3.7     5.6  7.7 -0.4203E+01  0.1060E+02  0.1365E+01E
 Epicentro: LOS SANTOS - SANTANDER                                             3
 ACTION:UPD 15-04-30 21:24 OP:nd   STATUS:               ID:20150210090617 L   I
 OLDACT:DUP 15-02-10 18:19 OP:fm   STATUS:               ID:20150210085743d    3
 2015-02-10-0857-42M.COL___284                                                 6
 STAT SP IPHASW D HRMM SECON CODA AMPLIT PERI AZIMU VELO AIN AR TRES W  DIS CAZ7
 BAR2 EZ EP        9 6 38.26                             171    0.3610 23.6 184 
 BAR2 EZ ES        9 6 53.94                             171    0.3910 23.6 184 
 BAR2 EZ I         9 6 55.85        11.3 0.24            172           23.6 184 
 BRR  HZ EP        9 6 40.02                             154    0.7810 68.8 299 
 BRR  HE ES        9 6 56.71                             154    0.7710 68.8 299 
 BRR  HZ I         9 7  1.52         4.8 0.52            152           68.8 299 
 PAM  SZ EP        9 6 41.01                             151    0.5110 78.5  41 
 PAM  SN ES        9 6 57.70                             151   -0.4810 78.5  41 
 PAM  SZ I         9 7  0.22        10.0 0.54            153           78.5  41 
 RUS  HZ EP        9 6 42.19                             144    0.2010  101 175 
 RUS  HE ES        9 7  0.03                             144   -0.8110  101 175 
 RUS  HZ I         9 7  1.93         6.0 0.22            147            101 175 
 PTB  HZ EP        9 6 44.10                             133   -0.80 9  145 258 
 PTB  HN ES        9 7  5.72                             133   -0.28 9  145 258 
 PTB  HZ I         9 7  8.15         4.2 0.14            133            145 258 
 OCA  HE ES        9 7  7.65                             131   -0.94 9  159 354 
 OCA  HZ I         9 7 13.99         4.7 0.36            131            159 354 
 SPBC HZ EP        9 6 47.13                             130    0.62 9  162 218 
 SPBC HN ES        9 7  8.76                             130   -0.12 9  162 218 
 SPBC HZ I         9 7 11.86        12.2 0.20            131            162 218 
 NOR  HN ES        9 7 21.74                             119    0.24 8  233 234 
 NOR  HZ I         9 7 27.46         4.8 0.42            121            233 234 
 SML  HZ EP        9 6 54.73                             118    0.23 8  242 336 
 SML  HE ES        9 7 22.85                             118   -0.26 8  242 336 
 SML  HZ I         9 7 30.02         3.9 0.10            119            242 336 
 CHI  HZ EP        9 6 55.28                             118   -0.45 8  249 195 
 CHI  HN ES        9 7 25.10                             118   -0.18 8  249 195 
 CHI  HZ I         9 7 29.89         2.3 0.38            120            249 195 
 CBOC HN ES        9 7 40.86                             111   -0.32 7  331 252 
                                                                                
