 2011 1110 0204 51.1 L   6.831 -72.985147.5  RSN  4 0.3 1.1LRSN                1
 GAP=157        0.51       6.0     9.6 10.5  0.1881E+02 -0.2810E+02 -0.4442E+01E
 Epicentro: CEPITA - SANTANDER                                                 3
 ACTION:UPD 12-07-13 16:09 OP:ep   STATUS:               ID:20111110020451 L   I
 2011-11-10-0203-43S.COL___178                                                 6
 STAT SP IPHASW D HRMM SECON CODA AMPLIT PERI AZIMU VELO AIN AR TRES W  DIS CAZ7
 BAR2 SZ EP   2    2 5 10.97                             167   -0.23 5 34.2 220 
 PAM  SZ EP   2    2 5 13.23                             155    0.45 5 64.5  29 
 PAM  SE ES   3    2 5 29.24                             155   -0.47 2 64.5  29 
 BRR  HZ EP   1    2 5 12.98                             149   -0.34 7 86.0 291 
 BRR  HZ I         2 5 13.24         3.6 0.16                          86.0 291 
 BRR  HE ES   2    2 5 31.00                             149    0.34 5 86.0 291 
 RUS  HZ EP   1    2 5 15.50                             143    0.22 7  104 186 
 RUS  HE ES   2    2 5 33.99                             143   -0.16 5  104 186 
 RUS  HZ I         2 5 35.57         1.1 0.10                           104 186 
                                                                                
