 2012  510 0641 45.8 L   6.740 -73.172143.6  RSN  6 0.2 1.6LRSN                1
 GAP=230        0.58       4.3     4.8  5.0  0.7017E+01  0.5268E+01  0.6762E+01E
 Epicentro: VILLANUEVA - SANTANDER                                             3
 ACTION:UP  12-07-05 12:04 OP:pat  STATUS:               ID:20120510064145 L   I
 2012-05-10-0640-00M.COL___195                                                 6
 STAT SP IPHASW D HRMM SECON CODA AMPLIT PERI AZIMU VELO SNR AR TRES W  DIS CAZ7
 BAR2 SZ EP        642  4.95                             173    -0.110   16 184 
 BAR2 SZ ES   1    642 19.72                             173    -0.4 7   16 184 
 BAR2 SZ I         642 21.53        16.5 0.17                            16 184 
 BRR  HZ EP        642  6.94                             152     0.210   72 304 
 BRR  HN ES   1    642 23.52                             152     0.4 7   72 304 
 BRR  HZ I         642 26.13         8.2 0.22                            72 304 
 RUS  HZ EP        642  8.90                             145     0.010   94 174 
 RUS  HN ES   1    642 27.15                             145     0.2 7   94 174 
 RUS  HZ I         642 28.84         3.7 0.38                            94 174 
 PTB  HZ EP        642 11.91                             132    -0.3 9  144 261 
 PTB  HN ES   1    642 32.74                             132    -0.1 7  144 261 
 CHI  HZ EP   1    642 22.67                             117     0.1 6  241 195 
 PRA  HZ EP   1    642 38.83                             106     0.4 4  385 210 
 PRA  HE ES   1    643 19.53                             106     0.1 4  385 210 
                                                                                
