 2010 1010 0304 49.6 L   6.791 -73.120145.6  RSN  7 0.3 1.7LRSN                1
 GAP=182        0.67       4.5     6.7  6.2 -0.1488E+02 -0.5997E+00 -0.5334E-01E
 Epicentro: LOS SANTOS - SANTANDER                                             3
 ACTION:UP  11-02-18 11:08 OP:tino STATUS:               ID:20101010030449 L   I
 2010-10-10-0300-53S.COL___121                                                 6
 STAT SP IPHASW D HRMM SECON CODA AMPLIT PERI AZIMU VELO SNR AR TRES W  DIS CAZ7
 BAR2 SZ IP        3 5  9.01                             171    -0.210   23 198 
 BAR2 SZ I         3 5  9.32        14.3 0.14                            23 198 
 BAR2 SZ ES   1    3 5 24.52                             171     0.0 7   23 198 
 BRR  HZ IP     C  3 5 10.90                             151     0.010   74 298 
 BRR  HZ I         3 5 11.25        15.3 0.14                            74 298 
 BRR  HN ES   1    3 5 27.88                             151     0.4 7   74 298 
 GUE  SZ EP   2    3 5 14.51                             139     0.2 5  117  11 
 GRA  SZ IP        3 5 15.05                             137     0.210  126  16 
 GRA  SZ ES   1    3 5 34.51                             137     0.0 7  126  16 
 GRA  SZ I         3 5 36.75         4.9 0.51                           126  16 
 OCA  SZ EP   2    3 5 17.95                             129    -0.1 5  162 352 
 OCA  SZ ES   1    3 5 39.64                             129    -0.5 7  162 352 
 OCA  SZ I         3 5 50.82         6.3 0.46                           162 352 
 NOR  SZ EP   2    3 5 25.25                             118    -0.3 4  237 235 
 NOR  SN ES   2    3 5 52.88                             118    -0.6 4  237 235 
 HEL  HZ EP   2    3 5 30.89                             114     0.8 4  275 256 
 HEL  HZ I         3 6  7.37         2.7 0.72                           275 256 
                                                                                
