 2010  510 0553  4.6 L   6.795 -73.009140.7  RSN  7 0.5 1.4LRSN                1
 GAP=172        1.20       5.3    12.8 13.6 -0.3168E+01 -0.6609E+02 -0.1258E+02E
 Epicentro: CEPITA - SANTANDER                                                 3
 ACTION:UP  10-08-24 10:04 OP:vdl  STATUS:               ID:20100510055304 L   I
 2010-05-10-0549-08S.COL___104                                                 6
 STAT SP IPHASW D HRMM SECON CODA AMPLIT PERI AZIMU VELO SNR AR TRES W  DIS CAZ7
 BAR2 SZ EP        553 23.51                             168    -0.210   30 221 
 BAR2 SZ ES   3    553 38.54                             168    -0.2 2   30 221 
 BRR  HZ EP        553 26.14                             147     0.110   85 294 
 BRR  HZ I         553 26.42         5.9 0.19                            85 294 
 BRR  HN ES   1    553 43.40                             147     0.6 7   85 294 
 RUS  HZ EP        553 27.72                             143    -0.110  100 185 
 RUS  HE ES   1    553 45.64                             143    -0.3 7  100 185 
 RUS  HZ I         553 47.40         2.5 0.21                           100 185 
 BRI  SZ EP        553 27.95                             142     0.310  105  13 
 GUE  SZ EP        553 29.40                             139     0.710  115   5 
 GRA  SZ EP        553 29.34                             137     0.210  123  11 
 GRA  SZ ES   1    553 48.12                             137    -0.1 7  123  11 
 OCA  SZ EP        553 31.92                             128    -0.9 9  163 348 
 OCA  SZ ES   1    553 53.94                             128    -0.8 7  163 348 
 OCA  SZ I         554  0.05         3.4 0.31                           163 348 
                                                                                
