 2011  210 0711 47.5 L   6.778 -73.099148.3  RSN 12 0.3 2.4LRSN                1
 GAP=105        0.56       2.8     4.6  4.4 -0.3199E+01  0.2461E+01  0.1288E+01E
 Epicentro: LOS SANTOS - SANTANDER                                             3
 ACTION:UP  11-03-28 15:07 OP:jfem STATUS:               ID:20110210071147 L   I
 2011-02-10-0710-14S.COL___136                                                 6
 STAT SP IPHASW D HRMM SECON CODA AMPLIT PERI AZIMU VELO SNR AR TRES W  DIS CAZ7
 BAR2 SZ IP        712  7.45                             171     0.010   23 204 
 BAR2 SZ ES   2    712 22.92                             171     0.0 5   23 204 
 BAR2 SZ I         712 24.28        86.4 0.19                            23 204 
 BTL  SZ EP   1    712  7.60                             170     0.1 7   24 310 
 BTL  SZ ES   2    712 22.86                             170    -0.2 5   24 310 
 GIR2 SZ EP   1    712  7.51                             166    -0.1 7   35 343 
 GIR2 SZ ES   2    712 23.50                             166     0.3 5   35 343 
 RUS  HZ EP   1    712 11.33                             145     0.0 7   98 179 
 RUS  HN ES   2    712 29.73                             145    -0.2 5   98 179 
 RUS  HZ I         712 31.51        39.6 0.48                            98 179 
 GRA  SZ EP   1    712 13.21                             137     0.1 7  127  15 
 GRA  SZ ES   2    712 32.88                             137    -0.1 5  127  15 
 GRA  SZ I         712 35.15        22.5 0.23                           127  15 
 OCA  SZ EP   1    712 16.16                             130    -0.2 7  163 351 
 YOP  SZ EP   1    712 17.67                             127     0.4 7  175 154 
 YOP  SN ES   2    712 40.83                             127     0.3 4  175 154 
 YOP  SZ I         712 45.42        16.7 0.49                           175 154 
 NOR  SZ EP   1    712 23.11                             119    -0.6 6  238 236 
 NOR  SE ES   2    712 51.89                             119     0.0 4  238 236 
 CHI  HZ EP   1    712 25.40                             118     0.2 6  248 196 
 CHI  HN ES   2    712 53.83                             118    -0.8 4  248 196 
 CHI  HZ I         713  0.49        16.9 0.46                           248 196 
 ROSC BZ EP   1    712 26.00                             117     0.2 6  253 212 
 ROSC BZ I         713  0.88        33.5 0.47                           253 212 
 HEL  HZ EP   1    712 28.87                             115     0.5 6  276 257 
 HEL  HZ I         713  4.64        15.1 0.25                           276 257 
 SDV  BZ EP   1    712 36.79                             109    -0.6 5  358  49 
                                                                                
