 2011  210 0705 24.5 L   6.814 -73.136139.3  RSN 11 0.5 2.5LRSN                1
 GAP=137        0.88       3.9     7.5  7.2 -0.6706E+01  0.1199E+02  0.4001E+01E
 Epicentro: LOS SANTOS - SANTANDER                                             3
 ACTION:UP  11-03-28 15:07 OP:jfem STATUS:               ID:20110210070524 L   I
 2011-02-10-0701-39S.COL___136                                                 6
 STAT SP IPHASW D HRMM SECON CODA AMPLIT PERI AZIMU VELO SNR AR TRES W  DIS CAZ7
 BTL  SZ EP   1    7 5 43.50                             172     0.3 8   19 308 
 BTL  SZ ES   2    7 5 58.68                             172     0.8 5   19 308 
 BAR2 SZ EP   1    7 5 43.32                             169     0.0 8   25 192 
 BAR2 SZ ES   2    7 5 58.00                             169    -0.1 5   25 192 
 BAR2 SZ I         7 5 59.34       180.2 0.29                            25 192 
 GIR2 SZ EP   1    7 5 43.37                             167     0.0 8   30 348 
 GIR2 SZ ES   2    7 5 58.30                             167     0.2 5   30 348 
 RUS  HZ EP   1    7 5 47.28                             142    -0.4 8  102 177 
 RUS  HN ES   2    7 6  5.12                             142    -0.7 5  102 177 
 RUS  HZ I         7 6  7.03        40.6 0.45                           102 177 
 GRA  SZ IP        7 5 49.24                             136     0.210  124  17 
 GRA  SZ I         7 5 50.54        61.3 0.22                           124  17 
 GRA  SZ ES   2    7 6  7.39                             136    -0.7 5  124  17 
 OCA  SZ EP   1    7 5 52.04                             128    -0.1 7  159 353 
 OCA  SZ ES   2    7 6 13.46                             128    -0.3 5  159 353 
 OCA  SZ I         7 6 15.64        53.4 0.49                           159 353 
 YOP  SZ EP   1    7 5 54.03                             125    -0.1 7  180 154 
 YOP  SZ I         7 5 54.44        26.5 0.41                           180 154 
 YOP  SE ES   2    7 6 17.92                             125     0.6 5  180 154 
 NOR  SZ EP   1    7 5 59.41                             117    -0.6 6  237 234 
 NOR  SN ES   2    7 6 26.80                             117    -1.0 4  237 234 
 CHI  HZ EP   1    7 6  1.56                             116    -0.5 6  250 195 
 CHI  HZ I         7 6  4.20        12.6 0.73                           250 195 
 CHI  HE ES   2    7 6 31.38                             116     0.1 4  250 195 
 ROSC BZ EP   1    7 6  3.31                             115     0.9 6  255 211 
 ROSC BZ I         7 6  4.93        21.5 0.47                           255 211 
 ROSC BE ES   2    7 6 32.53                             115     0.4 4  255 211 
 HEL  HZ EP   1    7 6  5.26                             113     0.7 6  274 256 
 HEL  HZ I         7 6 43.25        16.2 0.63                           274 256 
                                                                                
