 2013 1210 0648 41.9 L   6.796 -73.159154.2  RSN  7 0.5 1.3LRSN                1
 GAP=181        1.25       4.2     7.7 10.7 -0.3101E+01  0.8015E+00 -0.8048E+01E
 Epicentro: LOS SANTOS - SANTANDER                                             3
 ACTION:UPD 14-01-13 10:17 OP:ep   STATUS:               ID:20131210064841 L   I
 OLDACT:REG 13-12-10 07:59 OP:jn   STATUS:               ID:20131210064737     3
 2013-12-10-0647-37M.COL___247                                                 6
 STAT SP IPHASW D HRMM SECON CODA AMPLIT PERI AZIMU VELO AIN AR TRES W  DIS CAZ7
 BRR  HZ EP        649  4.11                             154    0.2510 70.1 299 
 BRR  HN ES        649 21.72                             154    0.7010 70.1 299 
 BRR  HZ I         649 22.65         3.1 0.48            155           70.1 299 
 RUS  HZ EP        649  6.84                             146    0.4210  100 175 
 RUS  HN ES        649 24.91                             146   -0.6710  100 175 
 RUS  HZ I         649 26.15         2.0 0.38            149            100 175 
 PTB  HZ EP        649  9.12                             134   -0.26 9  146 259 
 PTB  HN ES        649 30.10                             134   -0.75 9  146 259 
 PTB  HZ I         649 32.62         2.4 0.14            136            146 259 
 OCA  HE ES        649 33.71                             131    0.24 9  160 354 
 OCA  HZ I         649 38.07         3.6 0.34            132            160 354 
 SPBC HN ES        649 33.60                             131    0.05 9  162 219 
 NOR  HN ES        649 46.76                             120    0.69 8  233 234 
 SML  HZ EP        649 18.80                             119   -0.13 8  243 336 
 SML  HN ES        649 47.18                             119   -0.68 8  243 336 
                                                                                
