 2013  410 0441  4.0 L   6.774 -73.180145.5  RSN  5 0.3 1.8LRSN                1
 GAP=176        0.81       5.0     5.2  5.7  0.7157E+01  0.5015E+01  0.4476E+01E
 Epicentro: LOS SANTOS - SANTANDER                                             3
 ACTION:UPD 13-05-22 14:37 OP:EP   STATUS:               ID:20130410044104 L   I
 2013-04-10-0438-37M.COL___215                                                 6
 STAT SP IPHASW D HRMM SECON CODA AMPLIT PERI AZIMU VELO AIN AR TRES W  DIS CAZ7
 BAR2 SZ EP        441 23.60                             172    0.0110 20.1 181 
 BAR2 SZ ES        441 38.43                             172   -0.4010 20.1 181 
 BAR2 SZ I         441 39.47        17.0 0.30            168           20.1 181 
 GIR2 SZ EP        441 23.59                             166   -0.1710 33.7 357 
 GIR2 SZ ES        441 38.91                             166   -0.2310 33.7 357 
 BRR  HZ EP        441 25.37                             153    0.3010 69.4 302 
 BRR  HN ES        441 42.03                             153    0.5610 69.4 302 
 BRR  HN I         441 43.01        50.6 0.18            150           69.4 302 
 RUS  HZ EP        441 27.65                             144    0.0510 98.1 174 
 RUS  HZ I         441 28.76         3.4 0.14            143           98.1 174 
 RUS  HN ES        441 46.28                             144    0.3210 98.1 174 
 PTB  HZ EP        441 30.35                             133   -0.26 9  143 260 
 PTB  HN ES        441 51.08                             133   -0.25 9  143 260 
 PTB  HZ I         441 56.72         6.3 0.30            130            143 260 
                                                                                
