 2017 1010 0618 32.7 L   6.782 -73.113147.3  RSN  5 0.1 1.5LRSN               11
 GAP=142        0.42       1.9     2.4  4.2 -0.7160E+00  0.4625E+01 -0.8020E+00E
 Epicentro: LOS SANTOS - SANTANDER                                             3
 ACTION:UPD 17-11-07 19:30 OP:rebc STATUS:               ID:20171010061832 L   I
 OLDACT:DUP 17-10-10 17:42 OP:leo  STATUS:               ID:20171010060251d    3
 2017-10-10-0608-00M.COL___426                                                 6
 STAT SP IPHASW D HRMM SECON CODA AMPLIT PERI AZIMU VELO AIN AR TRES W  DIS CAZ7
 BAR2 EZ EP     C  618 52.33                             171   -0.1610 22.4 200 
 PAM  EZ EP        618 55.16                             151    0.1310 76.7  37 
 PAM  EN ES        619 12.36                             151   -0.0910 76.7  37 
 PAM  EZ I         619 14.35         7.7 0.54            156           76.7  37 
 RUS  HZ EP        618 56.33                             145   -0.1110 98.5 178 
 RUS  HN ES        619 15.20                             145    0.2310 98.5 178 
 RUS  HZ I         619 17.82         2.3 0.34            150           98.5 178 
 SPBC HZ EP        619  1.34                             129   -0.05 9  164 220 
 SPBC HN ES        619 23.66                             129   -0.11 9  164 220 
 SPBC HZ I         619 25.98         5.2 0.26            132            164 220 
 ZAR  HZ EP        619  5.84                             122    0.18 8  208 292 
 ZAR  HN ES        619 31.38                             122    0.01 8  208 292 
 ZAR  HZ I         619 39.76         2.4 0.12            124            208 292 
                                                                                
