 2012  510 0225 24.1 L   6.546 -73.577112.4  RSN  6 0.4 1.2LRSN                1
 GAP=127        0.86       5.8     4.8  8.3  0.7708E+01  0.1434E+02  0.2557E+01E
 Epicentro: EL CARMEN DE CHUCURI - SANTANDER                                   3
 ACTION:UP  12-07-05 12:03 OP:pat  STATUS:               ID:20120510022524 L   I
 2012-05-10-0220-00M.COL___195                                                 6
 STAT SP IPHASW D HRMM SECON CODA AMPLIT PERI AZIMU VELO SNR AR TRES W  DIS CAZ7
 BAR2 SZ EP        225 40.92                             157     0.410   44  83 
 BAR2 SZ ES   1    225 53.00                             157    -0.3 7   44  83 
 BRR  HZ EP   1    225 41.92                             148     0.6 7   64 346 
 BRR  HZ I         225 44.09         4.3 0.38                            64 346 
 BRR  HN ES   1    225 55.06                             148     0.4 7   64 346 
 RUS  HZ EP   1    225 44.04                             139     0.1 7   91 143 
 RUS  HN ES   1    225 59.29                             139    -0.1 7   91 143 
 PTB  HZ EP        225 43.82                             136     0.010   97 270 
 PTB  HN ES   1    225 59.00                             136    -0.2 7   97 270 
 PAM  SE ES   2    226  5.10                             127    -0.7 5  131  48 
 ZAR  HZ EP        225 51.10                             118    -0.5 9  176 307 
 ZAR  HZ I         226 17.54         2.2 0.65                           176 307 
                                                                                
