 2010  610 0928 24.8 L   6.772 -72.960144.0  RSN  5 0.5 1.6LRSN                1
 GAP=178        0.92       7.0    19.5 13.3 -0.8553E+02  0.6931E+02  0.8832E+01E
 Epicentro: CEPITA - SANTANDER                                                 3
 ACTION:UP  10-08-24 10:09 OP:vdl  STATUS:               ID:20100610092824 L   I
 2010-06-10-0923-43S.COL___111                                                 6
 STAT SP IPHASW D HRMM SECON CODA AMPLIT PERI AZIMU VELO SNR AR TRES W  DIS CAZ7
 RUS  HZ EP   1    928 47.94                             144    -0.2 7   98 188 
 RUS  HZ I         928 49.02         4.2 0.16                            98 188 
 RUS  HN ES   2    929  6.82                             144     0.4 5   98 188 
 BRI  SZ EP   1    928 48.21                             142    -0.1 7  106  10 
 BRI  SZ ES   1    929  6.45                             142    -0.2 7  106  10 
 GUE  SZ EP   1    928 48.70                             139    -0.7 7  117   2 
 GUE  SZ ES   2    929  7.90                             139    -0.7 5  117   2 
 GRA  SZ EP   1    928 50.31                             137     0.6 7  124   8 
 GRA  SZ ES   1    929  9.91                             137     0.7 7  124   8 
 RREF BZ EP   2    929 13.31                             110     0.9 3  336 232 
 RREF BN ES   2    929 49.43                             110    -0.2 3  336 232 
 RREF BZ I         929 55.68         3.0 0.36                           336 232 
                                                                                
