 2017  710 0546 47.0 L   7.481 -73.181133.3  RSN  6 0.5 1.2LRSN                1
 GAP=196        1.08       7.1     4.9  8.8 -0.4533E+01  0.1410E+02  0.2180E+00E
 Epicentro: EL PLAYON - SANTANDER                                              3
 ACTION:UPD 17-08-30 15:31 OP:rebc STATUS:               ID:20170710054647 L   I
 OLDACT:UP  17-07-10 16:44 OP:dnl  STATUS:               ID:20170710053509d    3
 OLDACT:UP  17-07-10 16:44 OP:dnl  STATUS:               ID:20170710053509d    3
 OLDACT:DUP 17-07-10 16:42 OP:dnl  STATUS:               ID:20170710053509d    3
 2017-07-10-0538-00M.COL___380                                                 6
 STAT SP IPHASW D HRMM SECON CODA AMPLIT PERI AZIMU VELO AIN AR TRES W  DIS CAZ7
 PAM  EZ EP        547  7.27                             156    0.6610 55.4 106 
 PAM  EN ES        547 21.67                             156   -0.2710 55.4 106 
 PAM  EZ I         547 44.68         2.0 0.48            157           55.4 106 
 BRR  HZ EP        547  7.11                             150    0.3110 71.7 235 
 BRR  HN ES        547 22.29                             150    0.0110 71.7 235 
 BRR  HZ I         547 24.85         4.2 0.72            162           71.7 235 
 BAR2 EZ EP        547  9.05                             141    0.0810 98.3 180 
 BAR2 EZ ES        547 25.66                             141   -0.4810 98.3 180 
 BAR2 EZ I         547 26.59         3.9 0.12            151           98.3 180 
 PTB  HZ EP        547 15.07                             123   -0.56 9  175 234 
 PTB  HN ES        547 38.55                             123    0.56 9  175 234 
 PTB  HZ I         547 39.09         0.9 0.16            134            175 234 
 ZAR  HZ EP   4    547 18.28                             122    1.65 0  185 271 
 ZAR  HN ES        547 39.31                             122   -0.47 9  185 271 
 ZAR  HZ I         547 44.94         1.9 0.28            131            185 271 
 SPBC HZ EP   2    547 19.90                             116   -1.07 4  225 206 
 SPBC HE ES        547 47.83                             116    0.33 8  225 206 
 SPBC HZ I         547 54.57         2.8 0.22            126            225 206 
                                                                                
