 2012  410 0731 12.4 L   6.775 -73.131140.0  RSN  9 0.4 1.9LRSN                1
 GAP=140        0.91       3.9     4.4  6.5 -0.7515E+00  0.3061E+01  0.1767E+01E
 Epicentro: LOS SANTOS - SANTANDER                                             3
 ACTION:UPD 12-07-05 11:52 OP:tino STATUS:               ID:20120410073112 L   I
 2012-04-10-0730-00M.COL___199                                                 6
 STAT SP IPHASW D HRMM SECON CODA AMPLIT PERI AZIMU VELO AIN AR TRES W  DIS CAZ7
 BAR2 SZ EP        731 31.43                             171     0.110   21 196 
 BAR2 SZ ES   1    731 45.27                             171    -0.8 7   21 196 
 BAR2 SZ I         731 47.45        18.4 0.24                            21 196 
 BRR  HZ IP     C  731 33.26                             151     0.210   74 300 
 BRR  HN ES        731 49.92                             151     0.710   74 300 
 BRR  HZ I         731 50.98        26.3 0.22                            74 300 
 PAM  SZ EP        731 34.20                             149     0.110   79  37 
 PAM  SN ES   1    731 50.94                             149    -0.1 7   79  37 
 RUS  HZ EP        731 35.59                             143     0.210   98 177 
 RUS  HZ I         731 36.87         4.9 0.17                            98 177 
 RUS  HN ES   1    731 53.23                             143    -0.1 7   98 177 
 PTB  HZ EP   1    731 38.25                             131    -0.8 7  149 260 
 PTB  HE ES   1    731 59.59                             131    -0.2 7  149 260 
 OCA  SZ EP   1    731 40.04                             128    -0.5 7  163 353 
 OCA  SZ ES   1    732  2.41                             128    -0.1 7  163 353 
 ZAR  HZ EP   1    731 44.67                             121    -0.1 6  207 293 
 ZAR  HE ES   1    732  9.79                             121    -0.2 6  207 293 
 ZAR  HZ I         732 17.10         8.5 0.36                           207 293 
 NOR  SE ES   1    732 15.38                             117     0.0 6  234 235 
 CHI  HZ EP   1    731 49.97                             116     0.4 6  246 196 
                                                                                
