 2012  710 0231 46.5 L   6.811 -73.753 97.3  RSN  9 0.4 2.1LRSN                1
 GAP= 78        1.06       3.7     3.3  7.3 -0.8631E+00  0.5233E+01  0.2430E+01E
 Epicentro: EL CARMEN DE CHUCURI - SANTANDER                                   3
 ACTION:UPD 12-08-14 11:43 OP:ep   STATUS:               ID:20120710023146 L   I
 2012-07-10-0230-00M.COL___201                                                 6
 STAT SP IPHASW D HRMM SECON CODA AMPLIT PERI AZIMU VELO AIN AR TRES W  DIS CAZ7
 BRR  HZ EP   1    232  0.55                             160     0.3 7   33   8 
 BRR  HN ES        232 11.59                             160     0.510   33   8 
 BRR  HZ I         232 12.78        85.7 0.11            161             33   8 
 BAR2 SZ EP        232  3.11                             143     0.410   68 111 
 BAR2 SZ ES   1    232 15.44                             143     0.1 7   68 111 
 BAR2 SZ I         232 16.65        37.1 0.22            145             68 111 
 PTB  HZ EP        232  3.33                             137    -0.310   83 249 
 PTB  HN ES   1    232 16.43                             137    -0.6 7   83 249 
 PTB  HZ I         232 16.87        32.1 0.10            135             83 249 
 RUS  HZ EP   1    232  8.48                             125     0.2 7  126 144 
 RUS  HE ES        232 24.87                             125    -0.510  126 144 
 RUS  HZ I         232 28.32         8.4 0.18            125            126 144 
 PAM  SZ EP   1    232  8.34                             124    -0.4 7  130  63 
 PAM  SN ES   1    232 26.00                             124    -0.1 7  130  63 
 ZAR  HZ EP   1    232  9.97                             120     0.5 7  143 302 
 ZAR  HN ES   1    232 27.69                             120     0.2 7  143 302 
 ZAR  HZ I         232 31.82        38.5 0.29            119            143 302 
 OCA  HZ EP   1    232 11.87                             117    -0.2 7  165  17 
 OCA  HN ES   1    232 31.29                             117    -0.7 7  165  17 
 NOR  SZ EP   1    232 15.01                             114     0.8 7  185 222 
 NOR  SN ES   1    232 36.15                             114     0.3 7  185 222 
 HEL  HZ EP   1    232 17.33                             111     0.1 6  208 251 
 HEL  HN ES   1    232 40.50                             111    -0.7 6  208 251 
 HEL  HZ I         232 46.94         9.0 0.24            109            208 251 
