 2015  110 0433 59.5 L   6.526 -73.516116.2  RSN 10 0.5 1.7LRSN                1
 GAP= 92        1.22       3.3     5.1  7.4  0.3734E+01  0.1831E+02 -0.1617E+00E
 Epicentro: EL CARMEN - SANTANDER                                              3
 ACTION:UPD 15-03-02 15:38 OP:nd   STATUS:               ID:20150110043359 L   I
 OLDACT:UP  15-01-10 15:32 OP:cam  STATUS:               ID:20150110042816     3
 OLDACT:REG 15-01-10 13:28 OP:cam  STATUS:               ID:20150110042816     3
 2015-01-10-0428-16M.COL___265                                                 6
 STAT SP IPHASW D HRMM SECON CODA AMPLIT PERI AZIMU VELO AIN AR TRES W  DIS CAZ7
 BAR2 EZ EP     D  434 16.32                             161    0.3210 37.6  79 
 BAR2 EZ ES        434 28.60                             161   -0.3110 37.6  79 
 BAR2 EZ I         434 30.14        40.8 0.26            164           37.6  79 
 BRR  HZ EP        434 17.26                             147   -0.0110 67.8 341 
 BRR  HN ES        434 31.41                             147    0.2510 67.8 341 
 BRR  HZ I         434 40.11        10.6 0.44            149           67.8 341 
 RUS  HZ EP        434 19.24                             141    0.0710 84.9 146 
 RUS  HN ES        434 34.94                             141    0.3910 84.9 146 
 RUS  HZ I         434 37.08         3.2 0.20            146           84.9 146 
 PTB  HZ IP     C  434 19.05                             135   -1.0210  104 271 
 PTB  HN ES   4    434 33.79                             135   -2.36 0  104 271 
 PTB  HZ I         434 35.11        13.7 0.28            137            104 271 
 SPBC HZ EP        434 21.07                             132   -0.0310  115 213 
 SPBC HN ES        434 37.10                             132   -0.8910  115 213 
 SPBC HZ I         434 42.68        12.0 0.10            135            115 213 
 ZAR  HZ EP        434 27.90                             118    0.06 9  183 306 
 ZAR  HN ES        434 50.51                             118    0.53 9  183 306 
 ZAR  HZ I         434 53.21         8.4 0.46            121            183 306 
 CHI  HZ EP        434 31.78                             114    0.32 8  211 187 
 CHI  HN ES        434 56.40                             114   -0.02 8  211 187 
 CHI  HZ I         435  3.44         2.1 0.32            118            211 187 
 HEL  HZ EP        434 33.85                             112    0.80 8  226 261 
 HEL  HN ES        435  0.09                             112    0.84 8  226 261 
 HEL  HZ I         435  3.20         3.0 0.24            115            226 261 
 SML  HZ EP        434 36.36                             109    0.01 8  259 346 
 SML  HE ES        435  5.13                             109   -0.01 8  259 346 
 SML  HZ I         435 12.43         6.4 0.26            112            259 346 
 MON  HZ EP        434 45.55                             103   -0.77 7  344 317 
 MON  HN ES        435 22.23                             103   -0.64 7  344 317 
 MON  HZ I         435 22.80         1.2 0.50            106            344 317 
                                                                                
