 2010 1210 0348 58.8 L   6.794 -72.872139.5  RSN  4 0.1 1.3LRSN                1
 GAP=190        0.30       3.1    15.3  7.7 -0.2737E+02 -0.6255E+01  0.8081E+00E
 Epicentro: SAN ANDRES - SANTANDER                                             3
 ACTION:UP  11-01-14 15:23 OP:pat  STATUS:               ID:20101210034858 L   I
 2010-12-10-0348-20S.COL___135                                                 6
 STAT SP IPHASW D HRMM SECON CODA AMPLIT PERI AZIMU VELO SNR AR TRES W  DIS CAZ7
 BAR2 SZ EP   2    349 18.08                             163    -0.1 5   41 237 
 BAR2 SZ I         349 18.74         4.9 0.17                            41 237 
 BTL  SZ EP   1    349 18.42                             161     0.0 7   46 287 
 RUS  HZ EP   1    349 22.09                             142     0.0 7  102 193 
 RUS  HN ES   2    349 40.27                             142     0.0 5  102 193 
 RUS  HZ I         349 42.24         1.8 0.27                           102 193 
 GRA  SZ EP   2    349 23.12                             137     0.0 5  121   4 
 GRA  SZ ES   2    349 42.00                             137     0.0 5  121   4 
 GRA  SZ I         349 44.80         5.4 0.25                           121   4 
                                                                                
