 2012 1110 0531 37.3 L   6.784 -73.142146.7  RSN 13 0.5 2.3LRSN                1
 GAP= 72        1.24       3.7     4.3  5.9  0.6298E+00  0.5800E+01  0.3581E+01E
 Epicentro: LOS SANTOS - SANTANDER                                             3
 ACTION:UPD 12-12-05 15:32 OP:}ep  STATUS:               ID:20121110053137 L   I
 2012-11-10-0530-00M.COL___230                                                 6
 STAT SP IPHASW D HRMM SECON CODA AMPLIT PERI AZIMU VELO AIN AR TRES W  DIS CAZ7
 BAR2 SZ EP     C  531 56.97                             171   -0.0710 21.7 192 
 BAR2 SZ I         531 57.11        51.7 0.40                          21.7 192 
 BAR2 SZ ES        532 12.15                             171   -0.2610 21.7 192 
 GIR2 SZ EP        531 57.13                             167   -0.0310 33.1 350 
 GIR2 SZ ES        532 12.98                             167    0.3510 33.1 350 
 BRR  HZ EP        531 58.87                             152    0.2210 72.4 300 
 BRR  HN ES        532 16.07                             152    0.7910 72.4 300 
 BRR  HN I         532 17.07        44.3 0.20                          72.4 300 
 PAM  SZ EP        531 59.73                             151    0.0210 78.5  38 
 PAM  SN ES        532 17.18                             151    0.0110 78.5  38 
 RUS  HZ EP        532  0.85                             144   -0.2010 98.8 176 
 RUS  HN ES        532 19.28                             144   -0.2610 98.8 176 
 RUS  HN I         532 21.46        29.3 0.26                          98.8 176 
 PTB  HZ EP        532  3.83                             132   -0.55 9  148 260 
 PTB  HN ES        532 24.78                             132   -0.70 9  148 260 
 PTB  HN I         532 30.10        26.2 0.50                           148 260 
 TAM  HZ IP     D  532  5.19                             131    0.19 9  154 104 
 OCA  HE ES   4    532 26.56                             129   -1.59 0  162 353 
 ZAR  HZ EP        532 10.38                             122    0.43 9  205 293 
 ZAR  HN ES        532 34.69                             122   -0.70 9  205 293 
 ZAR  HN I         532 41.66        22.7 0.32                           205 293 
 SML  HZ EP        532 13.13                             117   -1.07 8  245 335 
 SML  HN ES        532 42.88                             117   -0.08 8  245 335 
 CHI  HZ EP        532 15.12                             117    0.21 8  247 195 
 CHI  HN ES        532 44.37                             117    0.15 8  247 195 
 CHI  HN I         532 46.80        11.1 0.34                           247 195 
 ROSC BZ EP   4    532 17.00                             117    1.64 0  251 211 
 ROSC BN ES   4    532 47.06                             117    2.04 0  251 211 
 ROSC BZ I         532 55.24         8.0 0.55                           251 211 
 HEL  HZ EP        532 19.22                             115    1.63 8  272 256 
 HEL  HN ES        532 49.54                             115    0.55 8  272 256 
 PRA  HZ EP        532 30.69                             107   -0.04 6  391 210 
 PRA  HN ES        533 11.87                             107   -0.51 6  391 210 
 PRA  HN I         533 16.74         4.5 0.32                           391 210 
                                                                                
