 2017  910 0420 10.1 L   6.798 -73.163145.6  RSN  9 0.3 1.6LRSN                1
 GAP=110        0.79       2.6     3.0  4.5  0.9197E+00  0.3154E+01  0.2904E+01E
 Epicentro: LOS SANTOS - SANTANDER                                             3
 ACTION:UPD 17-10-05 19:10 OP:rebc STATUS:               ID:20170910042010 L   I
 OLDACT:REG 17-09-10 12:56 OP:dhb  STATUS:               ID:20170910040523     3
 2017-09-10-0418-00M.COL___413                                                 6
 STAT SP IPHASW D HRMM SECON CODA AMPLIT PERI AZIMU VELO AIN AR TRES W  DIS CAZ7
 BAR2 EZ EP        420 29.49                             171   -0.2010 22.9 185 
 BAR2 EZ ES        420 44.57                             171   -0.4110 22.9 185 
 BAR2 EZ I         420 48.04        10.9 0.20            167           22.9 185 
 BRR  HZ EP        420 30.95                             153   -0.1810 69.6 299 
 BRR  HN ES        420 47.93                             153    0.3910 69.6 299 
 BRR  HZ I         420 49.13         4.5 0.11            153           69.6 299 
 PAM  EZ IP     C  420 32.29                             150   -0.0810 78.7  41 
 PAM  EE ES        420 49.61                             150   -0.1310 78.7  41 
 PAM  EZ I         420 51.64         5.2 0.19            156           78.7  41 
 RUS  HZ EP        420 33.98                             144    0.1610  101 175 
 RUS  HN ES        420 52.63                             144    0.3010  101 175 
 RUS  HZ I         420 54.94         8.7 0.45            144            101 175 
 SPBC HZ EP        420 38.46                             129    0.01 9  162 219 
 SPBC HE ES        421  0.26                             129   -0.31 9  162 219 
 SPBC HZ I         421  6.44         7.8 0.08            129            162 219 
 YPLC HZ IP     D  420 39.69                             126   -0.26 9  178 151 
 YPLC HE ES        421  3.87                             126    0.64 9  178 151 
 YPLC HZ I         421  4.40         5.0 0.38            128            178 151 
 ZAR  HZ IP     D  420 42.93                             123    0.58 9  202 292 
 ZAR  HE ES        421  7.45                             123   -0.06 9  202 292 
 ZAR  HZ I         421 13.63         3.0 0.08            124            202 292 
 NOR  HZ EP        420 45.83                             119    0.20 8  233 234 
 NOR  HE ES        421 13.39                             119    0.04 8  233 234 
 NOR  HZ I         421 14.79         3.5 0.14            119            233 234 
 CHI  HZ EP        420 47.13                             117   -0.58 8  248 195 
 CHI  HE ES        421 16.94                             117   -0.11 8  248 195 
 CHI  HZ I         421 30.34         3.8 0.05            118            248 195 
                                                                                
