 2017  310 0007 17.1 L   6.747 -73.072144.4  RSN  5 0.4 1.3LRSN                1
 GAP=149        0.70       4.1     5.2  7.5  0.8141E-01  0.2651E+01  0.8428E+01E
 Epicentro: JORDAN - SANTANDER                                                 3
 ACTION:UPD 17-05-25 18:38 OP:jn   STATUS:               ID:20170310000717 L   I
 OLDACT:DUP 17-03-10 13:00 OP:ar   STATUS:               ID:20170310000001d    3
 2017-03-10-0000-15M.COL___403                                                 6
 STAT SP IPHASW D HRMM SECON CODA AMPLIT PERI AZIMU VELO AIN AR TRES W  DIS CAZ7
 BAR2 EZ EP   2    0 7 36.12                             171   -0.38 5 21.0 215 
 BAR2 EZ ES   2    0 7 51.47                             171   -0.17 5 21.0 215 
 BAR2 EZ I         0 7 54.39         3.2 0.24            170           21.0 215 
 PAM  EZ EP   2    0 7 39.73                             151    0.58 5 77.4  32 
 PAM  EN ES        0 7 56.13                             151   -0.2310 77.4  32 
 PAM  EZ I         0 7 57.90         4.7 0.54            154           77.4  32 
 BRR  HZ EP   2    0 7 38.99                             149    0.32 5 81.1 299 
 BRR  HE ES        0 7 55.76                             149    0.2510 81.1 299 
 RUS  HZ EP        0 7 40.00                             145   -0.2610 94.5 181 
 RUS  HN ES        0 7 58.68                             145    0.3410 94.5 181 
 RUS  HZ I         0 7 59.54         2.4 0.30            147           94.5 181 
 PTB  HZ EP   2    0 7 44.62                             131    0.04 5  155 262 
 PTB  HN ES   2    0 8  5.08                             131   -0.94 5  155 262 
 PTB  HZ I         0 8  9.13         2.8 0.16            132            155 262 
                                                                                
