 2016  410 0232 42.8 L   6.840 -73.125158.0  RSN  4 0.4 1.6LRSN                1
 GAP=247        0.92       8.4     9.6 12.4  0.5442E+02 -0.3842E+02 -0.4525E+02E
 Epicentro: LOS SANTOS - SANTANDER                                             3
 ACTION:UPD 16-05-05 14:20 OP:rebc STATUS:               ID:20160410023242 L   I
 OLDACT:REG 16-04-10 19:02 OP:mh   STATUS:               ID:20160410022407     3
 2016-04-10-0231-00M.COL___398                                                 6
 STAT SP IPHASW D HRMM SECON CODA AMPLIT PERI AZIMU VELO AIN AR TRES W  DIS CAZ7
 RUS  HZ EP        233  8.18                             145    0.1610  105 177 
 RUS  HN ES   1    233 27.61                             145   -0.12 7  105 177 
 SPBC HZ EP   1    233 13.55                             131    0.88 7  168 219 
 SPBC HN ES        233 35.79                             131   -0.21 9  168 219 
 ZAR  HZ EP        233 15.43                             125   -0.64 9  205 291 
 ZAR  HE ES        233 42.41                             125    0.34 9  205 291 
 ZAR  HZ I         233 48.84         3.3 0.45            126            205 291 
 CHI  HZ EP        233 21.51                             119   -0.17 8  254 195 
                                                                                
