 2016  310 0013  1.6 L   6.841 -73.223137.6  RSN  4 0.2 1.2LRSN                1
 GAP=150        0.52       2.6     2.9  5.0 -0.1926E+01  0.3343E+01  0.3009E+01E
 Epicentro: ZAPATOCA - SANTANDER                                               3
 ACTION:UPD 16-05-13 21:22 OP:cam  STATUS:               ID:20160310001301 L   I
 OLDACT:REG 16-03-10 12:39 OP:cara STATUS:               ID:20160310000750     3
 2016-03-10-0007-50M.COL___286                                                 6
 STAT SP IPHASW D HRMM SECON CODA AMPLIT PERI AZIMU VELO AIN AR TRES W  DIS CAZ7
 PAM  EZ EP        013 23.06                             148   -0.0610 79.9  46 
 PAM  EN ES        013 40.05                             148    0.1510 79.9  46 
 PAM  EZ I         013 41.84         4.6 0.54            152           79.9  46 
 RUS  HZ EP        013 24.75                             140   -0.2410  106 172 
 RUS  HN ES        013 43.13                             140   -0.0810  106 172 
 RUS  HZ I         013 44.71         1.8 0.30            144            106 172 
 PTB  HZ EP        013 27.49                             132    0.24 9  140 256 
 PTB  HN ES        013 47.07                             132   -0.17 9  140 256 
 PTB  HZ I         013 51.01         1.9 0.50            133            140 256 
 CHI  HZ EP        013 39.03                             115   -0.10 8  251 193 
 CHI  HZ I         013 39.15         0.8 0.48            118            251 193 
 CHI  HE ES        014  8.75                             115    0.36 8  251 193 
                                                                                
