 2012  910 0833  8.9 L   6.316 -73.590111.4  RSN  7 0.1 1.5LRSN                1
 GAP=155        0.35       2.5     2.0  4.1  0.1704E+01 -0.6804E+00 -0.2722E+01E
 Epicentro: SANTA HELENA DEL OPON - SANTANDER                                  3
 ACTION:UPD 12-10-22 14:18 OP:ep   STATUS:               ID:20120910083308 L   I
 2012-09-10-0830-00M.COL___227                                                 6
 STAT SP IPHASW D HRMM SECON CODA AMPLIT PERI AZIMU VELO AIN AR TRES W  DIS CAZ7
 BAR2 SZ EP        833 25.92                             152    0.1910 54.5  56 
 BAR2 SZ I         833 26.21        25.5 0.17                          54.5  56 
 RUS  HZ EP   1    833 27.43                             145    0.15 7 73.1 130 
 RUS  HN ES   1    833 41.49                             145   -0.14 7 73.1 130 
 BRR  HZ EP        833 27.77                             138    0.0110 88.5 351 
 BRR  HN ES   1    833 42.40                             138   -0.08 7 88.5 351 
 BRR  HZ I         833 43.56         4.5 0.25                          88.5 351 
 GIR2 SZ EP        833 28.52                             136    0.0210 95.1  27 
 PTB  HZ EP        833 28.51                             135   -0.1410 98.9 285 
 PTB  HE ES   1    833 44.08                             135    0.01 7 98.9 285 
 PAM  SZ EP   1    833 33.95                             123   -0.21 7  150  41 
 PAM  SZ I         833 58.86         2.8 0.49                           150  41 
 ZAR  HZ EP   2    833 37.91                             115   -0.02 4  191 313 
 ZAR  HN ES   2    834  0.86                             115    0.28 4  191 313 
 ZAR  HZ I         834  5.63         3.1 0.18                           191 313 
                                                                                
