 2015  810 0849 32.0 L   6.837 -73.055150.2  RSN 12 0.3 2.1LRSN                1
 GAP=192        0.76       2.2     3.8  4.2 -0.5730E+00  0.4600E+01 -0.1195E+00E
 Epicentro: LOS SANTOS - SANTANDER                                             3
 ACTION:UPD 15-09-15 23:01 OP:cam  STATUS:               ID:20150810084932 L   I
 OLDACT:UP  15-08-10 16:50 OP:mh   STATUS:               ID:20150810084736     3
 OLDACT:UP  15-08-10 16:49 OP:mh   STATUS:               ID:20150810084736     3
 OLDACT:REG 15-08-10 12:51 OP:mh   STATUS:               ID:20150810084736     3
 2015-08-10-0847-36M.COL___322                                                 6
 STAT SP IPHASW D HRMM SECON CODA AMPLIT PERI AZIMU VELO AIN AR TRES W  DIS CAZ7
 BAR2 EZ EP        849 52.56                             168    0.2310 30.5 208 
 BAR2 EZ ES        850  7.57                             168   -0.6110 30.5 208 
 BAR2 EZ I         850 13.24        24.6 0.20            165           30.5 208 
 BRR  HZ EP        849 54.25                             151    0.1910 78.5 292 
 BRR  HN ES        850 11.58                             151    0.3310 78.5 292 
 BRR  HZ I         850 19.07        14.4 0.30            149           78.5 292 
 RUS  HZ EP        849 56.55                             144    0.0710  104 182 
 RUS  HN ES        850 15.75                             144    0.1910  104 182 
 RUS  HZ I         850 20.61        12.6 0.28            147            104 182 
 OCA  HZ EP        850  0.53                             131    0.09 9  158 349 
 OCA  HN ES        850 23.08                             131    0.47 9  158 349 
 OCA  HZ I         850 31.65        16.8 0.28            135            158 349 
 SPBC HZ EP        850  1.60                             128   -0.16 9  173 221 
 SPBC HE ES        850 24.67                             128   -0.29 9  173 221 
 SPBC HZ I         850 36.62        18.0 0.32            131            173 221 
 ZAR  HZ EP        850  5.45                             122   -0.11 8  212 290 
 ZAR  HN ES        850 31.26                             122   -0.47 8  212 290 
 ZAR  HZ I         850 36.30        12.2 0.34            124            212 290 
 SML  HZ EP        850  8.62                             118   -0.35 8  244 333 
 SML  HN ES   1    850 37.29                             118   -0.51 6  244 333 
 SML  HZ I         850 45.85        15.4 0.10            122            244 333 
 ROSC BZ EP   4    850 17.50                             117    6.17 0  261 212 
 ROSC BN ES   4    850 43.97                             117    1.98 0  261 212 
 HEL  HZ EP   1    850 13.60                             115   -0.04 6  283 256 
 HEL  HN ES        850 46.56                             115    0.45 7  283 256 
 HEL  HZ I         850 55.01         4.8 0.28            117            283 256 
 GUY2CHZ EP   4    850 14.82                             112   -2.20 0  312 235 
 GUY2CHN ES   4    850 55.74                             112    3.62 0  312 235 
 TOL  SZ EP   1    850 21.81                             109    0.21 5  353 225 
 TOL  SN ES   1    851  0.29                             109    0.02 5  353 225 
 TOL  SZ I         851 10.23         4.9 0.34            112            353 225 
 MON  HZ EP   4    850 19.34                             109   -2.48 0  359 307 
 MON  HN ES   4    850 57.90                             109   -2.77 0  359 307 
 MON  HZ I         851  3.08         2.8 0.40            112            359 307 
 ORTC HZ EP        850 26.82                             107   -0.35 6  405 217 
 ORTC HN ES        851 10.68                             107    0.49 6  405 217 
 ORTC HZ I         851 18.98         3.0 0.56            110            405 217 
 PAL  HZ EP        850 28.02                             106   -0.56 5  416 239 
 PAL  HE ES        851 13.18                             106    0.48 5  416 239 
                                                                                
