 2012  510 0449 54.7 L   6.082 -73.740106.3  RSN  5 0.1 1.5LRSN                1
 GAP=197        0.29       2.7     1.8  3.4  0.2625E+01  0.1817E+01 -0.3448E+00E
 Epicentro: BOLIVAR - SANTANDER                                                3
 ACTION:UP  12-07-05 12:04 OP:pat  STATUS:               ID:20120510044954 L   I
 2012-05-10-0450-00M.COL___195                                                 6
 STAT SP IPHASW D HRMM SECON CODA AMPLIT PERI AZIMU VELO SNR AR TRES W  DIS CAZ7
 RUS  HZ EP        450 12.76                             142     0.010   76 106 
 RUS  HN ES   1    450 26.89                             142     0.1 7   76 106 
 BAR2 SZ EP   1    450 13.02                             139     0.0 7   84  48 
 BAR2 SZ ES   1    450 27.28                             139     0.0 7   84  48 
 BAR2 SZ I         450 28.28        10.0 0.45                            84  48 
 PTB  HZ EP        450 13.51                             135     0.010   94 303 
 PTB  HN ES   1    450 28.27                             135     0.0 7   94 303 
 BRR  HZ EP        450 15.21                             129    -0.110  113   2 
 BRR  HZ I         450 39.26         6.8 0.23                           113   2 
 ZAR  HZ EP   1    450 24.39                             113     0.1 6  199 322 
 ZAR  HZ I         450 43.37         2.8 0.16                           199 322 
 ZAR  HN ES   1    450 47.60                             113     0.2 6  199 322 
                                                                                
