 2014 1110 0750 21.9 L   6.758 -73.369128.8  RSN  4 0.3 0.9LRSN                1
 GAP=176        0.83       6.0     5.5  7.7  0.1354E+02  0.1268E+02  0.3636E+01E
 Epicentro: ZAPATOCA - SANTANDER                                               3
 ACTION:UPD 14-12-19 15:41 OP:nd   STATUS:               ID:20141110075021 L   I
 OLDACT:ARG 14-11-10 13:00 OP:stll STATUS:               ID:20141110074744     3
 2014-11-10-0747-44M.COL___286                                                 6
 STAT SP IPHASW D HRMM SECON CODA AMPLIT PERI AZIMU VELO AIN AR TRES W  DIS CAZ7
 BAR2 SZ EP        750 40.02                             167    0.4310 27.6 132 
 BAR2 SZ ES        750 53.11                             167   -0.2810 27.6 132 
 BRR  HZ EP        750 40.37                             156    0.1110 54.1 315 
 BRR  HZ I         750 40.58         3.4 0.12            154           54.1 315 
 BRR  HN ES        750 54.56                             156   -0.0310 54.1 315 
 RUS  HN ES        751  1.32                             140    0.0210  101 162 
 PTB  HZ EP        750 44.63                             133   -0.5710  123 259 
 PTB  HN ES        751  3.69                             133    0.3010  123 259 
 PTB  HZ I         751  7.65         0.9 0.20            131            123 259 
                                                                                
