 2015  310 0955 35.0 L   6.799 -73.167144.6  RSN 13 0.5 2.2LRSN                1
 GAP= 70        1.19       3.3     3.7  6.2 -0.2623E+00  0.4477E+01 -0.1839E+01E
 Epicentro: LOS SANTOS - SANTANDER                                             3
 ACTION:UPD 15-04-30 16:24 OP:nd   STATUS:               ID:20150310095535 L   I
 OLDACT:UP  15-03-10 17:42 OP:cam  STATUS:               ID:20150310094750     3
 OLDACT:UP  15-03-10 17:42 OP:cam  STATUS:               ID:20150310094750     3
 OLDACT:REG 15-03-10 16:50 OP:cam  STATUS:               ID:20150310094750     3
 2015-03-10-0947-50M.COL___278                                                 6
 STAT SP IPHASW D HRMM SECON CODA AMPLIT PERI AZIMU VELO AIN AR TRES W  DIS CAZ7
 BAR2 EZ IP     C  955 54.50                             171    0.0210 23.0 184 
 BAR2 EZ ES        956  9.04                             171   -0.6410 23.0 184 
 BAR2 EZ I         956 10.39        44.9 0.24            170           23.0 184 
 BRR  HZ EP        955 56.36                             153    0.4610 69.1 300 
 BRR  HN ES        956 13.67                             153    1.4610 69.1 300 
 BRR  HZ I         956 14.25        34.0 0.48            153           69.1 300 
 PAM  SZ EP        955 57.51                             150    0.3210 79.0  41 
 PAM  SN ES        956 14.48                             150   -0.0110 79.0  41 
 PAM  SZ I         956 17.05        31.5 0.76            152           79.0  41 
 RUS  HZ EP        955 58.42                             144   -0.2210  101 175 
 RUS  HN ES        956 17.06                             144   -0.0310  101 175 
 RUS  HZ I         956 18.34        15.9 0.28            145            101 175 
 PTB  HZ EP   1    956  1.40                             132   -0.26 7  145 259 
 PTB  HN ES        956 21.88                             132   -0.57 9  145 259 
 PTB  HZ I         956 24.21        24.5 0.14            132            145 259 
 TAM  HZ IP     C  956  2.74                             130   -0.06 9  157 105 
 TAM  HN ES        956 24.47                             130   -0.01 9  157 105 
 TAM  HN I         956 25.06        13.4 0.52            132            157 105 
 OCA  HZ EP        956  3.09                             129   -0.11 9  160 354 
 OCA  HN ES        956 24.52                             129   -0.67 9  160 354 
 OCA  HZ I         956 29.96        14.7 0.28            131            160 354 
 SPBC HZ EP        956  3.31                             129    0.05 9  162 218 
 SPBC HN ES        956 25.14                             129   -0.16 9  162 218 
 SPBC HZ I         956 32.58        17.3 0.24            130            162 218 
 SML  HZ EP        956 11.28                             117   -0.18 8  243 336 
 SML  HN ES        956 39.98                             117    0.09 8  243 336 
 SML  HZ I         956 44.19        20.1 0.28            118            243 336 
 URE  HZ EP        956 16.29                             114    0.52 7  282 292 
 GUY2CHZ EP   4    956 19.81                             112    1.48 0  299 235 
 GUY2CHN ES        956 52.24                             112    0.11 7  299 235 
 GUY2CHZ I         957  3.29         4.9 0.64                           299 235 
 MON  HZ EP   4    956 22.47                             108   -1.27 0  352 309 
 MON  HN ES        957  0.89                             108   -0.87 6  352 309 
 MON  HZ I         957  1.88         2.9 0.40            109            352 309 
 PRA  HZ EP        956 28.74                             106    0.41 6  391 209 
 PRA  HN ES   4    957  8.15                             106   -1.79 0  391 209 
 PRA  HZ I         957 16.57         3.5 0.34            107            391 209 
                                                                                
