 2017  910 0101 48.6 L   6.762 -73.072139.5  RSN  4 0.3 1.3LRSN                1
 GAP=148        0.91       4.7     7.0  7.4 -0.9111E+00 -0.3736E+01  0.1140E+01E
 Epicentro: LOS SANTOS - SANTANDER                                             3
 ACTION:UPD 17-10-05 19:10 OP:rebc STATUS:               ID:20170910010148 L   I
 OLDACT:REG 17-09-10 12:33 OP:dhb  STATUS:               ID:20170910005740     3
 2017-09-10-0058-00M.COL___410                                                 6
 STAT SP IPHASW D HRMM SECON CODA AMPLIT PERI AZIMU VELO AIN AR TRES W  DIS CAZ7
 BAR2 EZ IP     C  1 2  7.26                             170   -0.1610 22.4 213 
 BAR2 EZ ES        1 2 21.45                             170   -0.6810 22.4 213 
 BAR2 EZ I         1 2 23.04         4.7 0.25            168           22.4 213 
 PAM  EZ EP        1 2 10.10                             150    0.0810 76.0  33 
 PAM  EN ES        1 2 26.93                             150    0.1610 76.0  33 
 PAM  EZ I         1 2 29.50         3.4 0.25            152           76.0  33 
 BRR  HZ EP        1 2  9.37                             148   -0.2210 80.3 298 
 BRR  HE ES        1 2 26.39                             148    0.3910 80.3 298 
 BRR  HZ I         1 2 34.27         3.3 0.29            145           80.3 298 
 RUS  HZ EP        1 2 11.36                             144   -0.0210 96.2 181 
 RUS  HN ES        1 2 29.62                             144    0.4510 96.2 181 
 RUS  HZ I         1 2 30.48         3.7 0.28            148           96.2 181 
                                                                                
