 2010  710 0310  9.6 L   6.768 -73.082143.5  RSN  5 0.2 1.2LRSN                1
 GAP=166        0.40       3.0     6.5  5.8 -0.1257E+01 -0.1184E+02 -0.3674E+01E
 Epicentro: LOS SANTOS - SANTANDER                                             3
 ACTION:UPD 10-12-01 15:16 OP:pat  STATUS:               ID:20100710031009 L   I
 2010-07-10-0307-43S.COL___120                                                 6
 STAT SP IPHASW D HRMM SECON CODA AMPLIT PERI AZIMU VELO AIN AR TRES W  DIS CAZ7
 BAR2 SZ EP   1    310 28.82                             171    -0.1 7   22 210 
 BAR2 SZ ES   2    310 44.17                             171     0.2 5   22 210 
 BRR  HZ EP   1    310 30.81                             150    -0.1 7   79 298 
 BRR  HE ES   2    310 47.62                             150     0.0 5   79 298 
 BRR  HZ I         310 50.15         5.2 0.21                            79 298 
 RUS  HZ EP   1    310 32.82                             144     0.0 7   97 180 
 RUS  HN ES   2    310 50.86                             144    -0.1 5   97 180 
 RUS  HZ I         310 52.74         1.9 0.27                            97 180 
 GUE  SZ EP   1    310 34.59                             138     0.4 7  119   8 
 GRA  SZ EP   1    310 34.62                             136    -0.1 7  127  14 
 GRA  SZ ES   2    310 54.08                             136    -0.3 5  127  14 
                                                                                
