 2016  310 0317 56.3 L   6.812 -73.183141.4  RSN  4 0.2 1.2LRSN                1
 GAP=276        0.56       4.8     3.6  4.8  0.1821E+01  0.4016E+01 -0.2594E+01E
 Epicentro: ZAPATOCA - SANTANDER                                               3
 ACTION:UPD 16-05-13 21:22 OP:cam  STATUS:               ID:20160310031756 L   I
 OLDACT:DUP 16-03-10 15:35 OP:cara STATUS:               ID:20160310030754d    3
 2016-03-10-0307-52M.COL___286                                                 6
 STAT SP IPHASW D HRMM SECON CODA AMPLIT PERI AZIMU VELO AIN AR TRES W  DIS CAZ7
 BAR2 EZ EP        318 15.75                             170    0.2910 24.3 180 
 BAR2 EZ ES        318 30.16                             170   -0.2210 24.3 180 
 BAR2 EZ I         318 31.93         4.8 0.16            165           24.3 180 
 RUS  HZ EP        318 19.92                             142    0.1410  102 174 
 RUS  HE ES        318 38.06                             142   -0.0110  102 174 
 RUS  HZ I         318 40.05         1.8 0.28            141            102 174 
 PTB  HZ EP        318 22.30                             132   -0.31 9  144 258 
 PTB  HN ES        318 43.32                             132    0.22 9  144 258 
 PTB  HZ I         318 46.40         1.7 0.14            131            144 258 
 SPBC HZ EP        318 24.19                             128   -0.17 9  162 218 
 SPBC HN ES        318 46.23                             128    0.02 9  162 218 
 SPBC HZ I         318 51.37         2.2 0.18            127            162 218 
                                                                                
