 2010 1010 0043 37.9 L   6.782 -73.068148.0  RSN  9 0.4 2.0LRSN                1
 GAP=184        0.68       3.8     7.3  5.6 -0.1051E+02 -0.4014E+01  0.6639E+01E
 Epicentro: LOS SANTOS - SANTANDER                                             3
 ACTION:UP  11-02-18 11:08 OP:tino STATUS:               ID:20101010004337 L   I
 2010-10-10-0040-10S.COL___121                                                 6
 STAT SP IPHASW D HRMM SECON CODA AMPLIT PERI AZIMU VELO SNR AR TRES W  DIS CAZ7
 BAR2 SZ EP   1    043 57.54                             170    -0.3 7   25 211 
 BAR2 SZ ES   1    044 13.39                             170     0.0 7   25 211 
 BAR2 SZ I         044 14.17        23.0 0.34                            25 211 
 BRR  HZ IP     C  043 59.89                             150     0.110   80 297 
 BRR  HZ I         044  0.10        38.6 0.10                            80 297 
 BRR  HN ES        044 17.17                             150     0.310   80 297 
 GRA  SZ EP   2    044  4.03                             138     0.7 5  125  13 
 GRA  SZ I         044 24.87         4.2 0.37                           125  13 
 OCA  SZ EP   1    044  6.82                             130     0.1 7  164 350 
 OCA  SZ ES   1    044 28.70                             130    -0.5 7  164 350 
 OCA  SZ I         044 36.72         7.9 0.30                           164 350 
 NOR  SZ EP   2    044 13.86                             118    -0.6 4  241 236 
 NOR  SN ES   2    044 41.96                             118    -1.0 4  241 236 
 CHI  HZ EP   2    044 15.91                             118     0.1 4  249 197 
 CHI  HN ES   2    044 45.33                             118     0.0 4  249 197 
 CHI  HZ I         044 48.08         5.3 0.37                           249 197 
 HEL  HZ EP   2    044 19.44                             114     0.3 4  280 257 
 HEL  HZ I         044 56.55         2.9 0.39                           280 257 
 RREF HZ EP   2    044 24.53                             111    -0.3 3  327 231 
 RREF HE ES   2    045  1.60                             111     0.3 3  327 231 
 RREF HZ I         045  7.61         3.8 0.45                           327 231 
 PRA  HZ EP   1    044 32.22                             107     0.4 4  395 211 
 PRA  HZ I         044 34.20         9.2 0.18                           395 211 
 PRA  HE ES   1    045 14.10                             107     0.2 4  395 211 
                                                                                
