 2016  810 0104 46.7 L   6.770 -73.125145.7  RSN  4 0.1 1.4LRSN                1
 GAP=237        0.37       2.5     3.3  3.6  0.1906E+01  0.3987E+01  0.1260E+01E
 Epicentro: LOS SANTOS - SANTANDER                                             3
 ACTION:UPD 16-10-29 15:34 OP:rebc STATUS:               ID:20160810010446 L   I
 OLDACT:REG 16-08-10 12:26 OP:dnl  STATUS:               ID:20160810005759     3
 2016-08-10-0057-59S.COL___352                                                 6
 STAT SP IPHASW D HRMM SECON CODA AMPLIT PERI AZIMU VELO AIN AR TRES W  DIS CAZ7
 BAR2 EZ EP        1 5  6.24                             172   -0.0810 20.6 198 
 BAR2 EZ ES        1 5 21.43                             172   -0.1610 20.6 198 
 BAR2 EZ I         1 5 22.42         8.7 0.20                          20.6 198 
 BRR  HZ EP        1 5  8.10                             151    0.0010 74.8 300 
 BRR  HN ES        1 5 24.86                             151    0.1110 74.8 300 
 BRR  HZ I         1 5 29.31         5.1 0.14                          74.8 300 
 RUS  HZ EP   2    1 5 10.45                             145    0.21 5 97.1 177 
 RUS  HE ES        1 5 28.68                             145    0.1110 97.1 177 
 RUS  HZ I         1 5 30.62         2.6 0.40                          97.1 177 
 GUY2CHZ EP   4    1 5 32.24                             112    1.90 0  301 236 
 GUY2CHN ES        1 6  4.27                             112   -0.08 7  301 236 
 GUY2CHZ I         1 6 11.66         1.5 0.40                           301 236 
                                                                                
