 2012  410 0709 28.6 L   6.788 -73.147141.2  RSN  9 0.3 1.9LRSN                1
 GAP=137        0.80       3.4     4.3  5.0 -0.2464E+01  0.2895E+01  0.7628E+00E
 Epicentro: LOS SANTOS - SANTANDER                                             3
 ACTION:UPD 12-07-05 11:52 OP:tino STATUS:               ID:20120410070928 L   I
 2012-04-10-0704-37M.COL___172                                                 6
 STAT SP IPHASW D HRMM SECON CODA AMPLIT PERI AZIMU VELO AIN AR TRES W  DIS CAZ7
 BAR2 SZ EP        7 9 47.68                             171     0.110   22 190 
 BAR2 SZ ES        710  2.27                             171    -0.210   22 190 
 BAR2 SZ I         710  6.45        16.5 0.29                            22 190 
 BRR  HZ EP        7 9 49.43                             151     0.210   72 300 
 BRR  HE ES        710  5.97                             151     0.610   72 300 
 BRR  HZ I         710  7.08        30.7 0.15                            72 300 
 PAM  SZ EP        7 9 50.58                             150     0.210   79  39 
 PAM  SN ES   1    710  6.96                             150    -0.4 7   79  39 
 RUS  HZ EP        7 9 51.71                             143    -0.110   99 176 
 RUS  HZ I         7 9 52.93         7.5 0.07                            99 176 
 RUS  HN ES   1    710  9.84                             143     0.0 7   99 176 
 PTB  HZ EP   1    7 9 54.51                             131    -0.6 7  147 259 
 PTB  HN ES   1    710 15.40                             131    -0.5 7  147 259 
 OCA  SZ EP        7 9 56.58                             128    -0.1 9  162 353 
 ZAR  HZ EP   1    710  0.48                             121    -0.3 6  204 293 
 ZAR  HZ I         710 32.17        10.2 0.51                           204 293 
 NOR  SZ EP   1    710  4.22                             118     0.3 6  234 235 
 NOR  SE ES   1    710 31.36                             118    -0.2 6  234 235 
 CHI  HZ EP   1    710  6.17                             116     0.3 6  247 195 
 CHI  HZ I         710  6.99         3.6 0.17                           247 195 
 CHI  HN ES   1    710 35.38                             116     0.4 6  247 195 
                                                                                
