 2017  210 0306  6.2 L   6.815 -73.160148.0  RSN 27 0.5 2.8LRSN                1
 GAP= 64        1.18       3.3     3.1  5.2  0.8915E+00  0.4647E+01  0.4352E+01E
 Epicentro: LOS SANTOS - SANTANDER                                             3
 ACTION:UPD 17-05-24 15:34 OP:jn   STATUS:               ID:20170210030606 L   I
 OLDACT:UP  17-02-10 15:42 OP:edw  STATUS:               ID:20170210025601     3
 OLDACT:REG 17-02-10 11:57 OP:edw  STATUS:               ID:20170210025601     3
 2017-02-10-0258-00M.COL___364                                                 6
 STAT SP IPHASW D HRMM SECON CODA AMPLIT PERI AZIMU VELO AIN AR TRES W  DIS CAZ7
 BAR2 EZ IP     D  3 6 26.04                             170   -0.0410 24.8 186 
 BAR2 EZ ES        3 6 41.12                             170   -0.5110 24.8 186 
 BAR2 EZ I         3 6 42.21       167.5 0.20            169           24.8 186 
 BRR  HZ IP     D  3 6 27.84                             154    0.4110 69.0 298 
 BRR  HN ES        3 6 45.09                             154    1.0710 69.0 298 
 BRR  HZ I         3 6 48.96       104.9 0.28            152           69.0 298 
 PAM  EZ IP     D  3 6 28.87                             151    0.2710 77.1  41 
 PAM  EN ES        3 6 46.00                             151   -0.1010 77.1  41 
 PAM  EZ I         3 6 48.27       243.9 0.50            154           77.1  41 
 RUS  HZ EP     D  3 6 30.04                             144   -0.2210  102 175 
 RUS  HN ES        3 6 48.81                             144   -0.2410  102 175 
 RUS  HZ I         3 6 49.94       190.4 0.34            145            102 175 
 PTB  HZ EP        3 6 32.54                             133   -0.66 9  147 258 
 PTB  HN ES        3 6 53.66                             133   -0.63 9  147 258 
 PTB  HZ I         3 6 55.72        75.7 0.36            132            147 258 
 TAM  HZ IP     D  3 6 34.48                             131    0.29 9  157 105 
 TAM  HN ES        3 6 56.11                             131    0.05 9  157 105 
 TAM  HZ I         3 6 56.67        20.8 0.18            134            157 105 
 ZAR  HZ EP        3 6 38.54                             123    0.01 9  202 292 
 ZAR  HN ES        3 7  3.68                             123   -0.10 9  202 292 
 ZAR  HZ I         3 7 10.14        75.2 0.22            123            202 292 
 NOR  HZ EP        3 6 42.10                             119    0.12 8  234 234 
 NOR  HN ES        3 7 10.42                             119    0.50 8  234 234 
 NOR  HZ I         3 7 12.56        57.0 0.18            119            234 234 
 CHI  HZ IP     C  3 6 44.24                             117    0.13 8  250 195 
 CHI  HN ES        3 7 13.30                             117   -0.41 8  250 195 
 CHI  HZ I         3 7 17.06        53.1 0.42            118            250 195 
 ROSC BZ EP        3 6 45.79                             117    1.32 8  253 211 
 ROSC BN ES        3 7 14.15                             117   -0.20 8  253 211 
 ROSC BZ I         3 7 19.70        67.7 0.35            117            253 211 
 URE  HZ EP        3 6 46.44                             114   -0.66 7  282 292 
 URE  HN ES        3 7 19.33                             114    0.29 7  282 292 
 URE  HZ E         3 7 28.78                                            282 292 
 URE  HZ I         3 7 28.90        48.0 0.28            114            282 292 
 VIL  EZ EP        3 6 49.74                             112   -0.08 7  305 191 
 VIL  EN ES        3 7 24.15                             112    0.26 7  305 191 
 VIL  EZ I         3 7 26.96        63.1 0.50            113            305 191 
 LL1C HZ EP   4    3 6 51.27                             112    1.63 0  305 352 
 LL1C HN ES   4    3 7 28.17                             112    4.61 0  305 352 
 PTGC HZ IP     C  3 6 49.32                             112   -1.03 7  311 158 
 PTGC HE ES   4    3 7 21.72                             112   -3.11 0  311 158 
 PTGC HZ I         3 7 24.42        58.4 0.30            113            311 158 
 LL6C HN EP   4    3 6 32.08                             111   -19.7 0  323 358 
 LL6C HN ES   4    3 7  7.30                             111   -20.0 0  323 358 
 ELA  HZ EP   4    3 6 54.46                             111    1.37 0  329 229 
 ELA  HN ES   4    3 7 31.52                             111    1.83 0  329 229 
 ELA  HZ I         3 7 38.78        23.2 0.62            111            329 229 
 CBOC HZ EP   4    3 6 53.85                             110    0.80 0  333 252 
 CBOC HN ES        3 7 29.59                             110   -0.04 7  333 252 
 CBOC HZ I         3 7 34.61         7.3 0.16            111            333 252 
 DBB  EZ EP        3 6 53.71                             110    0.18 7  338 274 
 DBB  EN ES   4    3 7 28.86                             110   -1.62 0  338 274 
 DBB  EZ I         3 7 30.91        13.0 0.16            110            338 274 
 ARGC HZ EP   4    3 6 57.38                             109    1.73 0  357 341 
 ARGC HN ES   4    3 7 34.62                             109    0.36 0  357 341 
 ANIL HZ EP   4    3 6 57.41                             109    1.35 0  357 224 
 ANIL HN ES   4    3 7 36.60                             109    1.62 0  357 224 
 PRA  HZ EP        3 6 59.41                             107   -0.42 6  393 209 
 PRA  HN ES        3 7 42.37                             107    0.67 6  393 209 
 PRA  HZ I         3 7 47.91        32.4 0.22            107            393 209 
 ORTC HZ EP        3 7  0.41                             107    0.21 6  396 216 
 ORTC HN ES   4    3 7 43.94                             107    1.59 0  396 216 
 ORTC HZ I         3 7 47.28        23.1 0.54            107            396 216 
 APAC HZ EP        3 6 59.91                             107   -0.27 6  396 288 
 APAC HN ES   4    3 7 40.77                             107   -1.55 0  396 288 
 APAC HZ I         3 7 46.82        13.9 0.36            107            396 288 
 PAL  HZ EP     D  3 7  1.60                             106    0.27 6  405 239 
 PAL  HN ES        3 7 44.06                             106   -0.31 6  405 239 
 PAL  HZ I         3 7 50.04        14.9 0.70            107            405 239 
 SJC  HZ EP   9 C  3 7  0.27                             106   -1.26 0  407 327 
 SJC  HN ES        3 7 41.29                             107   -2.17 6  407 327 
 SJC  HZ I         3 7 45.74        15.0 0.62            107            407 327 
 CRJC HZ EP   9    3 7  6.34                             104   -2.19 0  466   4 
 CRJC HN ES        3 7 54.18                             104   -0.81 5  466   4 
 CRJC HZ I         3 8  0.08        17.1 0.26            105            466   4 
 YOT  HZ EP        3 7  9.49                             103    0.24 5  472 229 
 YOT  HN ES   4    3 8  0.54                             103    2.08 0  472 229 
 SMAR HZ EP        3 7 11.00                             103   -0.85 4  495 346 
 SMAR HN ES   4    3 7 58.66                             103   -4.43 0  495 346 
 SMAR HZ I         3 8  2.55        13.5 0.28            103            495 346 
 MACC HZ EP   4    3 7 13.10                             102   -1.99 0  522 188 
 MACC HN ES   4    3 8  2.99                             102   -5.87 0  522 188 
 MACC HZ I         3 8  8.43         5.9 0.24            102            522 188 
 GARC HZ EP   4    3 7 20.10                             100   -1.45 0  574 207 
 GARC HN ES   4    3 8 17.01                             100   -3.34 0  574 207 
 GARC HZ I         3 8 24.73        10.5 0.28            101            574 207 
 CONO HZ EP        3 7 25.78                             100   -0.84 3  612 216 
                                                                                
