 2017  410 0357 24.6 L   6.766 -73.167144.1  RSN  6 0.3 1.2LRSN                1
 GAP=135        0.76       3.5     3.7  5.2 -0.3297E+01  0.2642E+01  0.1892E+01E
 Epicentro: LOS SANTOS - SANTANDER                                             3
 ACTION:UPD 17-05-30 21:10 OP:jn   STATUS:               ID:20170410035724 L   I
 OLDACT:UP  17-04-10 16:39 OP:edw  STATUS:               ID:20170410034740     3
 OLDACT:REG 17-04-10 12:48 OP:edw  STATUS:               ID:20170410034740     3
 2017-04-10-0348-00M.COL___371                                                 6
 STAT SP IPHASW D HRMM SECON CODA AMPLIT PERI AZIMU VELO AIN AR TRES W  DIS CAZ7
 BAR2 EZ EP     C  357 43.98                             172   -0.0210 19.3 185 
 BAR2 EZ ES        357 58.83                             172   -0.2610 19.3 185 
 BAR2 EZ I         358  0.05         4.8 0.46            170           19.3 185 
 BRR  HZ EP        357 46.01                             152    0.4110 71.1 302 
 BRR  HN ES        358  2.35                             152    0.3910 71.1 302 
 PAM  EZ EP        357 47.19                             149    0.2410 81.8  39 
 PAM  EN ES        358  4.02                             149   -0.3310 81.8  39 
 PAM  EZ I         358  5.21         1.2 0.18            151           81.8  39 
 RUS  HZ EP        357 47.87                             144   -0.1010 97.0 175 
 RUS  HN ES        358  6.35                             144    0.1810 97.0 175 
 RUS  HZ I         358  7.33         2.6 0.22            144           97.0 175 
 PTB  HZ EP        357 50.83                             132   -0.37 9  145 260 
 PTB  HN ES        358 11.56                             132   -0.36 9  145 260 
 SPBC HZ EP        357 52.48                             129   -0.12 9  159 219 
 SPBC HN ES        358 14.68                             129    0.28 9  159 219 
 SPBC HZ I         358 18.35         3.6 0.24            130            159 219 
 CHI  HN ES   4    358 28.74                             117   -2.02 0  244 195 
                                                                                
