 2017 1210 0119 35.9 L   6.322 -73.637108.6  RSN 12 0.3 1.6LRSN                1
 GAP= 67        0.94       2.5     2.7  5.6 -0.1740E+00 -0.9713E+00  0.7509E+00E
 Epicentro: SANTA HELENA DEL OPON - SANTANDER                                  3
 ACTION:UPD 18-01-04 13:18 OP:rebc STATUS:               ID:20171210011935 L   I
 OLDACT:REG 17-12-10 12:35 OP:lv   STATUS:               ID:20171210011739     3
 2017-12-10-0118-00M.COL___481                                                 6
 STAT SP IPHASW D HRMM SECON CODA AMPLIT PERI AZIMU VELO AIN AR TRES W  DIS CAZ7
 BAR2 EZ EP        119 52.72                             150    0.0210 58.4  59 
 BAR2 EZ ES        120  5.46                             150   -0.3310 58.4  59 
 BAR2 EZ I         120  7.04        18.0 0.20            153           58.4  59 
 SPBC HZ EP        119 54.90                             138    0.2410 88.4 213 
 SPBC HN ES        120  9.78                             138    0.5110 88.4 213 
 SPBC HZ I         120 12.04        10.4 0.10            135           88.4 213 
 PTB  HZ EP        119 54.50                             136   -0.5110 93.8 285 
 PTB  HN ES        120  9.48                             136   -0.4110 93.8 285 
 PTB  HZ I         120 11.92         7.4 0.18            133           93.8 285 
 PAM  EZ EP        120  0.82                             121   -0.49 9  153  43 
 PAM  EN ES        120 21.31                             121    0.20 9  153  43 
 YPLC HZ EP        120  2.62                             117   -0.26 9  173 126 
 YPLC HN ES        120 24.30                             117    0.39 9  173 126 
 YPLC HZ I         120 25.30        10.4 0.30            117            173 126 
 ZAR  HZ EP        120  4.58                             115    0.22 9  187 314 
 ZAR  HN ES        120 27.15                             115    0.61 9  187 314 
 ZAR  HZ I         120 30.40         8.2 0.22            114            187 314 
 CHI  HZ EP        120  4.97                             115    0.04 9  187 183 
 CHI  HE ES        120 27.37                             115   -0.18 9  187 183 
 CHI  HZ I         120 32.43         2.8 0.24            114            187 183 
 OCA  HZ EP   9    120  8.92                             112    1.26 0  215   9 
 OCA  HN ES        120 34.31                                    0.63 8  215   9 
 GUY2CHZ EP   9    120 11.14                             110    1.72 0  227 238 
 GUY2CHN ES        120 36.79                                   -0.47 8  227 238 
 GUY2CHZ I         120 42.35         2.1 0.28                           227 238 
 CBOC HZ EP   9    120 13.52                             106   -0.28 0  268 259 
 CBOC HN ES        120 42.58                                   -0.48 8  268 259 
 CBOC HZ I         120 51.66         1.0 0.28            105            268 259 
 ORTC HZ EP        120 19.96                             103    0.04 7  321 214 
 ORTC HN ES   4    120 57.42                             103    3.19 0  321 214 
 ORTC HZ I         121  0.87         1.4 0.58            102            321 214 
 DRL03HZ EP        120 22.32                             102    0.21 7  340   3 
 DRL03HN ES   4    121  0.23                             102    2.09 0  340   3 
                                                                                
