 2011  510 0412 20.7 L   6.794 -73.115142.8  RSN 11 0.3 1.8LRSN                1
 GAP=141        0.67       3.2     5.3  4.3 -0.7816E+01  0.4629E+00  0.1283E+01E
 Epicentro: LOS SANTOS - SANTANDER                                             3
 ACTION:UP  11-06-29 08:52 OP:tino STATUS:               ID:20110510041220 L   I
 2011-05-10-0408-56S.COL___133                                                 6
 STAT SP IPHASW D HRMM SECON CODA AMPLIT PERI AZIMU VELO SNR AR TRES W  DIS CAZ7
 BTL  SZ EP        412 40.26                             171     0.310   22 309 
 BTL  SZ ES   1    412 55.60                             171     0.6 7   22 309 
 BAR2 SZ IP        412 39.93                             170     0.010   23 198 
 BAR2 SZ ES   1    412 54.43                             170    -0.6 7   23 198 
 BAR2 SZ I         412 55.88        10.7 0.18                            23 198 
 BRR  HZ EP        412 41.75                             151     0.010   74 298 
 BRR  HN ES   1    412 57.93                             151    -0.2 7   74 298 
 BRR  HZ I         412 59.38        15.9 0.11                            74 298 
 PAM  SZ EP        412 42.81                             151     0.310   76  37 
 PAM  SN ES   2    412 59.53                             151     0.0 5   76  37 
 RUS  HZ EP        412 44.04                             143    -0.110  100 178 
 RUS  HN ES   2    413  2.17                             143    -0.2 5  100 178 
 RUS  HZ I         413  4.44         8.1 0.22                           100 178 
 BRI  SZ EP        412 44.26                             141     0.010  108  19 
 BRI  SZ ES   1    413  2.67                             141     0.0 7  108  19 
 GRA  SZ IP        412 45.62                             136     0.010  125  16 
 GRA  SZ ES   1    413  5.02                             136    -0.1 7  125  16 
 GRA  SZ I         413  6.38        12.1 0.19                           125  16 
 OCA  SZ EP        412 48.40                             129    -0.5 9  161 352 
 HEL  HZ EP   2    413  1.34                             114     0.2 4  275 256 
 HEL  HZ I         413 39.69         4.5 0.39                           275 256 
 RREF HZ EP   2    413  6.84                             110    -0.1 3  324 230 
 RREF HN ES   2    413 43.27                             110     0.2 3  324 230 
 RREF HZ I         413 48.70         3.9 0.43                           324 230 
 PRA  HZ EP        413 14.31                             106     0.1 6  393 210 
 PRA  HN ES   3    413 55.65                             106    -0.4 1  393 210 
                                                                                
