 2014  810 0724 56.4 L   6.809 -73.139151.8  RSN 10 0.3 1.5LRSN                1
 GAP=137        0.85       2.9     3.9  6.0 -0.4036E+00  0.1849E+01 -0.1518E+00E
 Epicentro: LOS SANTOS - SANTANDER                                             3
 ACTION:UPD 14-09-15 21:48 OP:nd   STATUS:               ID:20140810072456 L   I
 OLDACT:REG 14-08-10 13:49 OP:spq  STATUS:               ID:20140810071817     3
 2014-08-10-0718-17M.COL___260                                                 6
 STAT SP IPHASW D HRMM SECON CODA AMPLIT PERI AZIMU VELO AIN AR TRES W  DIS CAZ7
 BAR2 SZ EP        725 16.68                             170   -0.0910 24.5 191 
 BAR2 SZ ES   1    725 32.37                             170   -0.29 7 24.5 191 
 BAR2 SZ I         725 35.16         3.7 0.18            172           24.5 191 
 BRR  HZ EP        725 18.01                             154   -0.1910 71.3 298 
 BRR  HE ES        725 36.01                             154    0.8010 71.3 298 
 BRR  HZ I         725 39.25         3.9 0.26            153           71.3 298 
 PAM  SZ EP        725 19.48                             152    0.3010 76.1  40 
 PAM  SN ES   1    725 36.81                             152   -0.14 7 76.1  40 
 PAM  SZ I         725 38.87         8.0 0.58            154           76.1  40 
 RUS  HZ EP        725 21.06                             145    0.2610  102 176 
 RUS  HN ES   1    725 39.61                             145   -0.24 7  102 176 
 RUS  HZ I         725 40.52         2.7 0.36            149            102 176 
 PTB  HZ EP        725 23.61                             133   -0.32 9  149 258 
 PTB  HN ES        725 44.88                             133   -0.54 9  149 258 
 PTB  HZ I         725 46.44         2.5 0.24            135            149 258 
 OCA  HN ES        725 47.02                             131   -0.45 9  159 353 
 OCA  HZ I         725 52.42         5.5 0.26            133            159 353 
 SPBC HZ EP        725 25.63                             130    0.16 9  164 219 
 SPBC HE ES        725 48.30                             130    0.14 9  164 219 
 SPBC HZ I         725 51.71         5.5 0.26            133            164 219 
 ZAR  HE ES        725 55.07                             124    0.17 9  204 292 
 ZAR  HZ I         726  0.96         2.5 0.21            125            204 292 
 SML  HZ EP   1    725 33.59                             119    0.31 6  243 335 
 SML  HN ES        726  1.96                             119   -0.11 8  243 335 
 SML  HZ I         726  4.94         6.4 0.10            120            243 335 
 GUY2CHE ES   4    726 17.54                             113    2.79 0  302 235 
 GUY2CHZ I         726 24.62         1.9 0.62                           302 235 
                                                                                
