 2017  110 0842 37.7 L   6.803 -73.105140.0  RSN 15 0.5 1.8LRSN                1
 GAP= 71        1.05       3.9     4.3  5.2  0.1350E+01  0.3918E+01  0.4516E+01E
 Epicentro: LOS SANTOS - SANTANDER                                             3
 ACTION:UPD 17-05-22 15:57 OP:jn   STATUS:               ID:20170110084237 L   I
 OLDACT:UP  17-01-10 17:06 OP:and  STATUS:               ID:20170110083760d    3
 OLDACT:UP  17-01-10 17:04 OP:and  STATUS:               ID:20170110083760d    3
 OLDACT:UP  17-01-10 17:04 OP:and  STATUS:               ID:20170110083760d    3
 OLDACT:UP  17-01-10 17:02 OP:and  STATUS:               ID:20170110083760d    3
 OLDACT:DUP 17-01-10 17:00 OP:and  STATUS:               ID:20170110083760d    3
 2017-01-10-0837-59S.COL___290                                                 6
 STAT SP IPHASW D HRMM SECON CODA AMPLIT PERI AZIMU VELO AIN AR TRES W  DIS CAZ7
 BAR2 EZ EP        842 56.46                             169   -0.2310 24.8 200 
 BAR2 EZ ES        843 11.55                             169    0.0710 24.8 200 
 BAR2 EZ I         843 14.40        26.9 0.30            166           24.8 200 
 PAM  EZ EP        842 59.23                             151    0.0910 74.3  37 
 PAM  EN ES        843 15.81                             151   -0.0310 74.3  37 
 PAM  EZ I         843 19.02         9.4 0.22            155           74.3  37 
 BRR  HZ EP        842 58.33                             150   -0.1510 75.0 297 
 BRR  HN ES        843 15.33                             150    0.6610 75.0 297 
 BRR  HZ I         843 19.41        16.0 0.38            147           75.0 297 
 RUS  HZ EP        843  0.49                             143   -0.4310  101 179 
 RUS  HN ES        843 18.93                             143   -0.0810  101 179 
 RUS  HZ I         843 20.46         5.9 0.40            143            101 179 
 TAM  HZ EP        843  4.81                             130    0.27 9  151 106 
 PTB  HZ EP   9    843  3.27                             130   -1.37 0  152 259 
 PTB  HN ES        843 24.57                             130    0.30 9  152 259 
 PTB  HZ I         843 31.47         7.4 0.20            128            152 259 
 ZAR  HZ EP        843  9.73                             121   -0.49 8  208 292 
 ZAR  HN ES        843 34.88                             121   -0.69 8  208 292 
 ZAR  HZ I         843 39.79         7.6 0.26            120            208 292 
 CHI  HZ EP        843 14.95                             116   -0.32 8  250 196 
 CHI  HN ES        843 44.34                             116   -0.23 8  250 196 
 CHI  HZ I         843 47.61         4.2 0.62            116            250 196 
 ROSC BZ EP        843 17.20                             115    1.38 8  255 212 
 URE  HZ EP   4    843 21.77                             112    2.80 0  288 292 
 URE  HN ES   4    843 46.80                             112   -4.35 0  288 292 
 URE  HZ I         844  0.48         4.5 0.16            112            288 292 
 GUY2CHZ EP        843 22.11                             111    0.60 7  305 235 
 GUY2CHN ES   4    843 58.59                             111    2.92 0  305 235 
 GUY2CHZ I         844  4.01         3.2 0.30                           305 235 
 PTGC HZ EP   9    843 19.68                             111   -1.49 0  307 159 
 PTGC HN ES        843 52.99                             111   -0.58 7  307 159 
 PTGC HZ I         843 59.57         2.5 0.22            112            307 159 
 LL6C HZ EP   9    843  2.41                             109   -20.8 0  325 357 
 LL6C HN ES   4    843 41.15                                    3.29 0  325 357 
 CBOC HZ EP        843 24.90                             109   -0.01 7  338 252 
 CBOC HN ES   4    844  4.44                             109    2.72 0  338 252 
 CBOC HZ I         844  9.00         1.1 0.40            109            338 252 
 ORTC HZ EP        843 31.41                             105   -0.39 6  398 217 
 ORTC HN ES   3    844 15.48                             105    1.51 1  398 217 
 ORTC HZ I         844 21.89         2.2 0.28            106            398 217 
 SJC  HZ EP   3 D  843 34.25                             105    0.89 1  411 326 
 SJC  HN ES   4    844 13.36                             105   -3.39 0  411 326 
 URI  HZ EP   4    843 47.22                             100   -3.22 0  555  13 
 URI  HN ES   4    844 43.78                             100   -3.38 0  555  13 
                                                                                
