 2014 1110 0224 54.8 L   6.719 -73.196152.5  RSN  4 0.2 1.1LRSN                1
 GAP=134        0.67       4.5     4.4  6.7  0.4858E+01 -0.6858E+01 -0.5714E+01E
 Epicentro: VILLANUEVA - SANTANDER                                             3
 ACTION:UPD 14-12-19 15:41 OP:nd   STATUS:               ID:20141110022454 L   I
 OLDACT:ARG 14-11-10 12:59 OP:stll STATUS:               ID:20141110021742     3
 2014-11-10-0217-42M.COL___298                                                 6
 STAT SP IPHASW D HRMM SECON CODA AMPLIT PERI AZIMU VELO AIN AR TRES W  DIS CAZ7
 BRR  HZ EP        225 17.05                             154    0.3710 71.3 307 
 BRR  HN ES        225 33.89                             154    0.1310 71.3 307 
 PAM  SZ EP        225 18.00                             149   -0.3610 87.9  39 
 PAM  SZ I         225 21.00         3.8 0.46            150           87.9  39 
 RUS  HZ EP        225 18.68                             147    0.0310 92.2 172 
 RUS  HN ES        225 37.30                             147    0.0510 92.2 172 
 RUS  HZ I         225 39.74         1.1 0.36            148           92.2 172 
 PTB  HZ EP        225 21.82                             135    0.12 9  141 262 
 PTB  HE ES        225 42.34                             135   -0.35 9  141 262 
 PTB  HZ I         225 46.24         1.8 0.42            136            141 262 
                                                                                
