 2014  510 0919 40.7 L   6.793 -73.185142.0  RSN 12 0.4 2.0LRSN                1
 GAP=132        0.93       2.3     3.4  6.0 -0.5646E+00  0.7625E+01  0.8084E+00E
 Epicentro: LOS SANTOS - SANTANDER                                             3
 ACTION:UPD 15-03-16 16:56 OP:nd   STATUS:               ID:20140510091940 L   I
 OLDACT:REG 14-05-10 13:47 OP:carl STATUS:               ID:20140510091813     3
 2014-05-10-0918-13M.COL___239                                                 6
 STAT SP IPHASW D HRMM SECON CODA AMPLIT PERI AZIMU VELO AIN AR TRES W  DIS CAZ7
 PAM  SZ EP        920  2.90                             149    0.1510 80.8  42 
 PAM  SN ES        920 20.05                             149    0.1210 80.8  42 
 PAM  SZ I         920 22.20        14.3 0.50            156           80.8  42 
 RUS  HZ EP        920  3.83                             143   -0.2510  100 174 
 RUS  HN ES        920 22.60                             143    0.3110  100 174 
 RUS  HZ I         920 24.02         8.7 0.32            145            100 174 
 PTB  HZ EP        920  6.78                             132   -0.21 9  143 259 
 PTB  HN ES        920 27.01                             132   -0.46 9  143 259 
 PTB  HZ I         920 30.49        14.1 0.12            132            143 259 
 SPBC HZ EP        920  8.82                             129    0.20 9  160 218 
 SPBC HN ES        920 30.43                             129    0.05 9  160 218 
 SPBC HZ I         920 36.70        16.5 0.34            130            160 218 
 OCA  HE ES        920 30.05                             129   -0.61 9  161 355 
 ZAR  HZ EP        920 13.02                             122    0.47 9  200 293 
 ZAR  HN ES        920 38.40                             122    1.03 9  200 293 
 ZAR  HZ I         920 44.30        14.3 0.40            124            200 293 
 NOR  HZ EP        920 16.07                             118    0.26 8  231 234 
 NOR  HE ES        920 43.41                             118    0.23 8  231 234 
 NOR  HZ I         920 52.29         7.6 0.14            120            231 234 
 SML  HZ EP        920 16.79                             117   -0.24 8  243 336 
 SML  HE ES        920 45.48                             117    0.14 8  243 336 
 SML  HZ I         920 50.14        13.7 0.10            120            243 336 
 CHI  HZ EP        920 17.63                             117   -0.38 8  247 194 
 CHI  HN ES        920 46.73                             117   -0.37 8  247 194 
 CHI  HZ I         920 55.00         3.0 0.56            119            247 194 
 URE  HZ EP        920 21.20                             113    0.00 7  280 292 
 URE  HN ES        920 52.24                             113   -0.53 7  280 292 
 CBOC HZ EP        920 27.58                             109    0.59 7  329 252 
 CBOC HE ES        921  2.26                             109   -0.81 7  329 252 
 CBOC HZ I         921 12.18         2.0 0.54            111            329 252 
 PRA  HZ EP        920 33.82                             106    0.03 6  389 209 
 PRA  HN ES        921 15.29                             106    0.11 6  389 209 
 PRA  HZ I         921 22.97         3.7 0.40            108            389 209 
                                                                                
