 2016  110 0650  5.9 L   6.782 -73.153148.4  RSN  7 0.5 1.3LRSN                1
 GAP=136        1.19       5.2     6.0  7.4 -0.7430E+01  0.7947E+01 -0.2810E+01E
 Epicentro: LOS SANTOS - SANTANDER                                             3
 ACTION:UPD 16-03-09 23:24 OP:cam  STATUS:               ID:20160110065005 L   I
 OLDACT:REG 16-01-10 12:31 OP:drio STATUS:               ID:20160110064747     3
 2016-01-10-0647-47M.COL___265                                                 6
 STAT SP IPHASW D HRMM SECON CODA AMPLIT PERI AZIMU VELO AIN AR TRES W  DIS CAZ7
 BAR2 EZ EP        650 26.00                             171    0.2010 21.3 189 
 BAR2 EZ ES        650 40.92                             171   -0.4110 21.3 189 
 BAR2 EZ I         650 41.80         4.1 0.26            171           21.3 189 
 BRR  HZ EP        650 27.56                             153    0.2210 71.5 300 
 BRR  HN ES        650 44.85                             153    0.7810 71.5 300 
 PAM  EZ EP        650 28.72                             151    0.2210 79.4  39 
 PAM  EE ES        650 46.11                             151   -0.0310 79.4  39 
 PAM  EZ I         650 47.75         2.3 0.22            152           79.4  39 
 RUS  HZ EP        650 29.78                             145    0.0110 98.7 176 
 RUS  HN ES        650 47.88                             145   -0.5110 98.7 176 
 RUS  HZ I         650 49.57         1.5 0.36            149           98.7 176 
 PTB  HZ EP        650 32.85                             133   -0.12 9  147 260 
 PTB  HN ES        650 53.37                             133   -0.73 9  147 260 
 PTB  HZ I         651  1.09         2.8 0.46            131            147 260 
 SPBC HZ EP        650 34.87                             130    0.47 9  161 219 
 SPBC HE ES        650 57.16                             130    0.51 9  161 219 
 SPBC HZ I         650 58.61         3.1 0.22            131            161 219 
 SML  HZ EP        650 41.94                             118   -0.88 8  245 336 
 SML  HN ES   4    651  9.88                             118   -1.75 0  245 336 
 SML  HZ I         651 19.52         3.3 0.24            117            245 336 
                                                                                
