 2015  710 0254 29.8 L   6.808 -73.148143.8  RSN 14 0.4 2.2LRSN                1
 GAP=183        0.86       2.4     4.2  5.6 -0.3809E+00  0.9330E+01  0.6226E+00E
 Epicentro: LOS SANTOS - SANTANDER                                             3
 ACTION:UPD 15-09-08 21:47 OP:cam  STATUS:               ID:20150710025429 L   I
 OLDACT:REG 15-07-10 12:34 OP:spq  STATUS:               ID:20150710024748     3
 2015-07-10-0247-48M.COL___346                                                 6
 STAT SP IPHASW D HRMM SECON CODA AMPLIT PERI AZIMU VELO AIN AR TRES W  DIS CAZ7
 BAR2 EZ EP        254 49.05                             170   -0.1310 24.1 189 
 BAR2 EZ ES   1    255  4.45                             170    0.13 7 24.1 189 
 BAR2 EZ I         255  6.76        39.7 0.20            167           24.1 189 
 RUS  HZ EP        254 52.86                             143   -0.5310  101 176 
 RUS  HN ES        255 11.94                             143    0.1210  101 176 
 RUS  HZ I         255 12.88        12.4 0.26            145            101 176 
 OCA  HZ EP        254 57.77                             129   -0.07 9  159 353 
 OCA  HE ES        255 19.92                             129    0.18 9  159 353 
 OCA  HZ I         255 23.88        23.5 0.36            132            159 353 
 ZAR  HZ EP        255  1.70                             122   -0.33 9  203 292 
 ZAR  HE ES        255 26.79                             122   -0.40 9  203 292 
 ZAR  HZ I         255 33.29        15.8 0.30            123            203 292 
 NOR  HZ EP        255  5.18                             118   -0.24 8  235 234 
 NOR  HN ES        255 33.21                             118   -0.01 8  235 234 
 NOR  HZ I         255 36.57        12.6 0.20            119            235 234 
 SML  HZ EP        255  6.02                             117   -0.17 8  243 335 
 SML  HE ES   1    255 35.49                             117    0.90 6  243 335 
 SML  HZ I         255 39.17        20.0 0.10            119            243 335 
 CHI  HZ EP        255  7.13                             117   -0.32 8  249 195 
 CHI  HE ES        255 37.43                             117    0.60 8  249 195 
 CHI  HZ I         255 42.04         5.3 0.54            119            249 195 
 ROSC BZ EP   4    255  8.99                             116    1.14 0  253 211 
 ROSC BE ES   4    255 39.67                             116    2.12 0  253 211 
 ROSC BZ I         255 46.81        16.8 0.35            118            253 211 
 HEL  HZ EP        255 10.37                             114    0.49 8  272 256 
 HEL  HE ES   1    255 40.89                             114   -0.27 6  272 256 
 HEL  HZ I         255 49.55         7.8 0.34            115            272 256 
 GUY2CHZ EP        255 14.11                             112    0.79 7  301 235 
 GUY2CHN ES   1    255 47.38                             112    0.09 5  301 235 
 GUY2CHZ I         255 55.62         8.2 0.28                           301 235 
 CBOC HZ EP        255 16.80                             109    0.19 7  334 252 
 CBOC HN ES   1    255 52.74                             109   -0.40 5  334 252 
 TOL  SZ EP        255 18.89                             109    0.89 7  344 225 
 TOL  SN ES   4    255 57.51                             109    1.89 0  344 225 
 TOL  SZ I         256  1.36         5.5 0.64            110            344 225 
 PRA  HZ EP        255 22.56                             106   -0.74 6  393 209 
 PRA  HN ES   1    256  5.60                             106    0.55 4  393 209 
 PRA  HZ I         256 10.93         7.9 0.78            108            393 209 
 ORTC HZ EP        255 23.84                             106    0.15 6  396 216 
 ORTC HN ES        256  5.12                             106   -0.62 6  396 216 
 ORTC HZ I         256 11.93         5.1 0.36            108            396 216 
                                                                                
