 2014  810 0239 26.4 L   6.816 -73.035145.6  RSN  9 0.3 1.7LRSN                1
 GAP=194        0.65       2.5     4.5  5.4 -0.7344E+00  0.3447E+01  0.4415E+00E
 Epicentro: CEPITA - SANTANDER                                                 3
 ACTION:UPD 14-09-15 21:48 OP:nd   STATUS:               ID:20140810023926 L   I
 OLDACT:DUP 14-08-10 16:02 OP:spq  STATUS:               ID:20140810023809d    3
 OLDACT:UP  14-08-10 16:00 OP:spq  STATUS:               ID:20140810023808d    3
 OLDACT:UP  14-08-10 15:58 OP:spq  STATUS:               ID:20140810023808d    3
 OLDACT:DUP 14-08-10 15:56 OP:spq  STATUS:               ID:20140810023808d    3
 OLDACT:UP  14-08-10 15:47 OP:spq  STATUS:               ID:20140810023806     3
 OLDACT:REG 14-08-10 12:59 OP:spq  STATUS:               ID:20140810023806     3
 2014-08-10-0238-06M.COL___263                                                 6
 STAT SP IPHASW D HRMM SECON CODA AMPLIT PERI AZIMU VELO AIN AR TRES W  DIS CAZ7
 BAR2 SZ EP        239 46.17                             168   -0.0110 29.6 213 
 BAR2 SZ ES   1    240  1.45                             168   -0.14 7 29.6 213 
 BAR2 SZ I         240  4.04         6.0 0.36            167           29.6 213 
 BRR  HZ EP        239 48.03                             149   -0.1310 81.4 293 
 BRR  HE ES        240  5.35                             149    0.2310 81.4 293 
 BRR  HZ I         240 11.17         4.1 0.26            148           81.4 293 
 RUS  HZ EP        239 50.54                             143    0.2610  102 183 
 RUS  HE ES   1    240  8.88                             143   -0.01 7  102 183 
 RUS  HZ I         240 11.66         4.9 0.38            146            102 183 
 OCA  HN ES   1    240 17.17                             130    0.35 7  160 349 
 OCA  HZ I         240 21.90         5.8 0.16            132            160 349 
 SPBC HE ES        240 18.17                             127   -0.54 9  172 222 
 SPBC HZ I         240 21.39         6.6 0.08            129            172 222 
 SML  HZ EP   1    240  2.92                             117   -0.52 6  247 333 
 SML  HE ES   1    240 32.12                             117   -0.20 6  247 333 
 SML  HZ I         240 34.16         6.3 0.07            119            247 333 
 HEL  HN ES   1    240 40.26                             114   -0.15 6  284 256 
 HEL  HZ I         240 44.65         2.8 0.26            115            284 256 
 GUY2CHE ES   1    240 46.76                             111    0.51 5  312 236 
 GUY2CHZ I         240 54.59         2.1 0.56                           312 236 
 PRA  HN ES        241  3.75                             106    0.47 6  400 211 
 PRA  HZ I         241  8.89         1.6 0.56            108            400 211 
                                                                                
