 2013 1110 0243 18.8 L   6.778 -72.973134.8  RSN  4 0.2 1.5LRSN                1
 GAP=156        0.48       2.3     3.4  4.6 -0.1403E+01 -0.2700E+01 -0.3745E+00E
 Epicentro: CEPITA - SANTANDER                                                 3
 ACTION:UPD 14-01-09 16:26 OP:ep   STATUS:               ID:20131110024318 L   I
 OLDACT:REG 13-11-10 09:11 OP:stll STATUS:               ID:20131110023838     3
 2013-11-10-0238-38M.COL___213                                                 6
 STAT SP IPHASW D HRMM SECON CODA AMPLIT PERI AZIMU VELO AIN AR TRES W  DIS CAZ7
 BAR2 SZ EP        243 37.35                             166    0.0410 31.0 228 
 BAR2 SZ ES        243 51.56                             166   -0.1810 31.0 228 
 BAR2 SZ I         243 54.68        11.9 0.18            165           31.0 228 
 BRR  HZ EP        243 40.09                             144    0.1110 89.4 294 
 BRR  HE ES        243 56.49                             144   -0.0010 89.4 294 
 BRR  HZ I         244  1.71         5.2 0.16            144           89.4 294 
 RUS  HZ EP        243 41.10                             142   -0.2510 98.7 187 
 RUS  HN ES        243 59.17                             142    0.2410 98.7 187 
 RUS  HZ I         244  1.04         4.9 0.34            145           98.7 187 
 CAPV BZ ES        244  4.59                             131    0.04 9  140  31 
                                                                                
