 2012 1210 0221 48.3 L   6.797 -73.164142.0  RSN 14 0.4 2.2LRSN                1
 GAP= 70        0.72       2.5     3.1  4.9  0.5284E+00  0.5598E+01  0.1580E+01E
 Epicentro: LOS SANTOS - SANTANDER                                             3
 ACTION:UPD 13-01-04 14:26 OP:ep   STATUS:               ID:20121210022148 L   I
 2012-12-10-0220-00M.COL___242                                                 6
 STAT SP IPHASW D HRMM SECON CODA AMPLIT PERI AZIMU VELO AIN AR TRES W  DIS CAZ7
 BAR2 SZ EP   1    222  7.57                             170    0.07 7 22.7 185 
 BAR2 SZ ES   1    222 22.60                             170    0.15 7 22.7 185 
 BAR2 SZ I         222 25.57        52.9 0.38                          22.7 185 
 GIR2 SZ EP   1    222  7.71                             167    0.15 7 31.3 354 
 GIR2 SZ ES   1    222 22.65                             167    0.09 7 31.3 354 
 GIR2 SZ I         222 26.02        14.0 0.44                          31.3 354 
 PAM  SZ EP   1    222 10.29                             150    0.04 7 79.0  41 
 PAM  SN ES   1    222 27.66                             150    0.32 7 79.0  41 
 PAM  SZ I         222 28.26        14.5 0.26                          79.0  41 
 RUS  HZ EP   1    222 11.40                             143   -0.31 7  100 175 
 RUS  HN ES   1    222 29.69                             143   -0.25 7  100 175 
 RUS  HZ I         222 31.47        13.7 0.28                           100 175 
 PTB  HZ EP   1    222 14.36                             132   -0.45 7  146 259 
 PTB  HN ES   1    222 35.28                             132   -0.17 7  146 259 
 PTB  HZ I         222 38.96        15.8 0.14                           146 259 
 TAM  HN ES   1    222 37.43                             129    0.04 7  157 105 
 OCA  HZ EP   1    222 15.76                             129   -0.60 7  160 354 
 OCA  HN ES   1    222 37.96                             129   -0.26 7  160 354 
 OCA  HZ I         222 43.57        19.0 0.22                           160 354 
 ZAR  HE ES   1    222 45.92                             122    0.60 6  202 292 
 ZAR  HZ I         222 51.84        20.2 0.36                           202 292 
 SML  HZ EP   1    222 24.65                             117   -0.04 6  243 336 
 SML  HN ES   1    222 53.39                             117    0.34 6  243 336 
 CHI  HZ EP   1    222 25.77                             116    0.03 6  248 195 
 CHI  HN ES   1    222 54.46                             116   -0.45 6  248 195 
 CHI  HZ I         223  0.70         6.5 0.28                           248 195 
 ROSC BZ EP   1    222 26.56                             116    0.45 6  251 211 
 ROSC BE ES   4    222 57.67                             116    2.10 0  251 211 
 ROSC BZ I         223  5.28        18.8 0.40                           251 211 
 HEL  HZ EP   1    222 29.11                             114    0.98 6  270 256 
 HEL  HE ES   2    222 59.69                             114    0.53 4  270 256 
 HEL  HZ I         223  5.75         6.5 0.48                           270 256 
 URE  HN ES   1    222 59.70                             113   -1.06 6  282 292 
 URE  HZ I         223  7.44         9.5 0.17                           282 292 
 MON  HN ES   4    223 13.23                             108   -1.78 0  352 309 
 PRA  HZ EP   1    222 41.62                             106    0.04 4  391 209 
 PRA  HE ES   1    223 23.64                             106    0.54 4  391 209 
 PRA  HZ I         223 28.98        10.4 0.64                           391 209 
                                                                                
