 2015  810 0412 13.4 L   6.815 -73.119143.3  RSN  9 0.4 1.8LRSN                1
 GAP=139        0.93       2.8     4.6  6.1 -0.1394E+01  0.1000E+02 -0.2619E+01E
 Epicentro: LOS SANTOS - SANTANDER                                             3
 ACTION:UPD 15-09-15 23:01 OP:cam  STATUS:               ID:20150810041213 L   I
 OLDACT:UP  15-08-10 17:54 OP:mher STATUS:               ID:20150810040749     3
 OLDACT:UP  15-08-10 17:54 OP:mher STATUS:               ID:20150810040749     3
 OLDACT:REG 15-08-10 12:35 OP:mh   STATUS:               ID:20150810040749     3
 2015-08-10-0407-49M.COL___328                                                 6
 STAT SP IPHASW D HRMM SECON CODA AMPLIT PERI AZIMU VELO AIN AR TRES W  DIS CAZ7
 BAR2 EZ EP        412 32.52                             169   -0.2810 25.7 196 
 BAR2 EZ ES        412 47.57                             169   -0.3510 25.7 196 
 BAR2 EZ I         412 48.46         8.7 0.20            167           25.7 196 
 BRR  HZ EP        412 34.75                             152    0.3510 73.1 296 
 BRR  HN ES   1    412 51.31                             152    0.53 7 73.1 296 
 BRR  HZ I         412 55.08         9.2 0.50            147           73.1 296 
 PAM  EZ EP        412 35.86                             151    0.6910 74.2  39 
 PAM  EN ES        412 52.56                             151    0.4110 74.2  39 
 PAM  EZ I         412 54.52        18.1 0.46            155           74.2  39 
 RUS  HZ EP        412 37.19                             143    0.1610  102 178 
 RUS  HN ES        412 55.15                             143   -0.3110  102 178 
 RUS  HZ I         412 56.32         6.2 0.32            145            102 178 
 OCA  HZ EP   1    412 40.92                             129   -0.49 7  159 352 
 OCA  HN ES        413  2.90                             129   -0.35 9  159 352 
 OCA  HZ I         413  6.71        17.5 0.20            130            159 352 
 SPBC HZ EP   1    412 41.99                             128   -0.04 7  166 219 
 SPBC HN ES        413  4.01                             128   -0.34 9  166 219 
 SPBC HZ I         413  9.12         6.0 0.22            128            166 219 
 ZAR  HZ EP   1    412 45.89                             121   -0.03 6  206 291 
 ZAR  HN ES        413 11.48                             121    0.20 8  206 291 
 ZAR  HZ I         413 19.20         5.3 0.48            121            206 291 
 SML  HZ EP        412 49.33                             117   -0.54 8  243 334 
 SML  HN ES        413 18.01                             117   -0.30 8  243 334 
 SML  HZ I         413 24.63        10.9 0.28            117            243 334 
 URE  HN ES   4    413 24.83                             113   -1.90 0  286 291 
 TOL  SZ EP   4    413  6.55                             109    4.60 0  347 225 
 TOL  SN ES        413 40.40                             109    0.59 6  347 225 
 TOL  SZ I         413 48.39         2.1 0.44            109            347 225 
                                                                                
