 2015  110 0250 29.4 L   6.001 -73.668116.1  RSN  9 0.5 1.7LRSN                1
 GAP= 82        1.14       4.0     3.6  7.2 -0.1825E+01  0.8569E+01 -0.3031E+01E
 Epicentro: VELEZ - SANTANDER                                                  3
 ACTION:UPD 15-03-02 15:38 OP:nd   STATUS:               ID:20150110025029 L   I
 OLDACT:UP  15-01-10 15:21 OP:cam  STATUS:               ID:20150110024815     3
 OLDACT:REG 15-01-10 13:25 OP:cam  STATUS:               ID:20150110024815     3
 2015-01-10-0248-15M.COL___265                                                 6
 STAT SP IPHASW D HRMM SECON CODA AMPLIT PERI AZIMU VELO AIN AR TRES W  DIS CAZ7
 SPBC HZ EP     D  250 46.99                             151    0.1610 59.1 229 
 SPBC HN ES        251  1.18                             151    0.7810 59.1 229 
 SPBC HZ I         251  2.43        16.0 0.22            153           59.1 229 
 RUS  HZ EP        250 47.70                             149   -0.1210 65.8 100 
 RUS  HE ES        251  1.82                             149   -0.3410 65.8 100 
 RUS  HZ I         251  5.01         6.6 0.58            154           65.8 100 
 BAR2 EZ EP        250 48.54                             141   -0.2310 84.6  39 
 BAR2 EZ ES        251  4.15                             141    0.3010 84.6  39 
 BAR2 EZ I         251  5.63        29.9 0.34            144           84.6  39 
 PTB  HZ EP        250 50.03                             135   -0.1510  106 304 
 PTB  HN ES        251  5.79                             135   -0.5710  106 304 
 PTB  HZ I         251  7.64         6.7 0.52            135            106 304 
 BRR  HZ EP        250 51.34                             130   -0.3310  122 358 
 BRR  HN ES        251  9.20                             130    0.1810  122 358 
 BRR  HN I         251 14.91        13.8 0.28            131            122 358 
 NOR  HZ EP     D  250 54.09                             125    0.50 9  142 250 
 NOR  HE ES        251 11.95                             125   -0.49 9  142 250 
 NOR  HZ I         251 15.09        13.0 0.18            128            142 250 
 CHI  HZ EP   1    250 54.65                             124   -0.44 7  152 183 
 HEL  HZ EP        251  1.85                             115    0.92 8  207 276 
 HEL  HN ES        251 24.80                             115   -0.70 8  207 276 
 HEL  HZ I         251 33.36         2.3 0.22            117            207 276 
 ZAR  HZ EP        251  0.99                             114    0.09 8  211 321 
 ZAR  HN ES        251 25.84                             114    0.39 8  211 321 
 ZAR  HZ I         251 30.53         6.0 0.44            116            211 321 
 TOL  SZ EP   4    251  5.30                             111    0.61 0  241 230 
                                                                                
