 2017  810 0857 37.4 L   6.785 -73.129139.3  RSN  5 0.4 1.1LRSN                1
 GAP=139        0.83       4.2     4.5  6.0  0.3991E+01  0.6861E+01 -0.1505E+01E
 Epicentro: LOS SANTOS - SANTANDER                                             3
 ACTION:UPD 17-09-04 20:18 OP:rebc STATUS:               ID:20170810085737 L   I
 OLDACT:UP  17-08-18 16:13 OP:nlst STATUS:               ID:20170810085737 L   3
 OLDACT:UP  17-08-10 18:15 OP:dnl  STATUS:               ID:20170810084744d    3
 OLDACT:DUP 17-08-10 18:09 OP:dnl  STATUS:               ID:20170810084744d    3
 2017-08-10-0848-00M.COL___396                                                 6
 STAT SP IPHASW D HRMM SECON CODA AMPLIT PERI AZIMU VELO AIN AR TRES W  DIS CAZ7
 BAR2 EZ EP   2    857 57.70                             171    1.51 5 22.1 196 
 BAR2 EZ ES        858 10.64                             171   -0.2310 22.1 196 
 BAR2 EZ I         858 11.96         2.7 0.28            171           22.1 196 
 BRR  HZ EP        857 57.94                             150   -0.0210 73.7 299 
 BRR  HN ES        858 14.30                             150    0.2710 73.7 299 
 BRR  HZ I         858 19.02         4.2 0.34            149           73.7 299 
 PAM  EZ EP        857 58.99                             150    0.0910 77.5  38 
 PAM  EN ES        858 15.58                             150   -0.1210 77.5  38 
 PAM  EZ I         858 18.01         2.3 0.50            152           77.5  38 
 RUS  HZ EP        858  0.33                             143   -0.0210 98.8 177 
 RUS  HN ES        858 18.22                             143   -0.0610 98.8 177 
 RUS  HZ I         858 20.07         1.0 0.44            147           98.8 177 
 ZAR  HZ EP        858  9.14                             121   -0.50 8  206 292 
 ZAR  HN ES        858 34.94                             121    0.11 8  206 292 
 ZAR  HZ I         858 40.36         1.5 0.22            122            206 292 
                                                                                
