 2010 1010 0625 36.2 L   6.811 -73.085142.0  RSN  7 0.3 1.8LRSN                1
 GAP=182        0.68       4.5     7.6  6.9 -0.1801E+02 -0.1873E+02  0.9637E+01E
 Epicentro: LOS SANTOS - SANTANDER                                             3
 ACTION:UP  11-02-18 11:08 OP:tino STATUS:               ID:20101010062536 L   I
 2010-10-10-0621-00S.COL___121                                                 6
 STAT SP IPHASW D HRMM SECON CODA AMPLIT PERI AZIMU VELO SNR AR TRES W  DIS CAZ7
 BAR2 SZ EP   2    625 55.22                             169    -0.3 5   27 204 
 BAR2 SZ ES   2    626 10.12                             169    -0.4 5   27 204 
 BAR2 SZ I         626 11.13        20.2 0.24                            27 204 
 BRR  HZ IP     C  625 57.04                             151    -0.310   77 295 
 BRR  HZ I         625 57.32        13.3 0.15                            77 295 
 BRR  HN ES        626 13.94                             151     0.210   77 295 
 GRA  SZ IP        626  1.06                             137     0.210  123  15 
 GRA  SZ ES   1    626 20.45                             137     0.3 7  123  15 
 GRA  SZ I         626 21.71         6.9 0.55                           123  15 
 OCA  SZ EP   1    626  3.81                             129    -0.4 7  160 351 
 OCA  SZ ES   1    626 25.91                             129    -0.1 7  160 351 
 OCA  SZ I         626 28.78         8.3 0.22                           160 351 
 CHI  HE ES   2    626 44.05                             116     0.5 4  252 197 
 CHI  HZ I         626 49.46         2.7 0.48                           252 197 
 HEL  HZ EP   2    626 17.27                             114     0.3 4  279 256 
 HEL  HZ I         626 52.89         2.2 0.35                           279 256 
 PRA  HZ EP   2    626 29.47                             106    -0.7 3  396 210 
 PRA  HN ES   2    627 12.71                             106     0.5 3  396 210 
 PRA  HZ I         627 13.70         6.1 0.12                           396 210 
                                                                                
