 2017 1210 0254 42.0 L   5.943 -73.587126.0  RSN 14 0.4 1.7LRSN                1
 GAP=109        0.90       2.2     2.6  4.8 -0.1991E+01 -0.5307E+00  0.7712E+00E
 Epicentro: BARBOSA - SANTANDER                                                3
 ACTION:UPD 18-01-04 13:18 OP:rebc STATUS:               ID:20171210025442 L   I
 OLDACT:REG 17-12-10 12:43 OP:lv   STATUS:               ID:20171210024739     3
 2017-12-10-0248-00M.COL___481                                                 6
 STAT SP IPHASW D HRMM SECON CODA AMPLIT PERI AZIMU VELO AIN AR TRES W  DIS CAZ7
 SPBC HZ EP        255  0.88                             152    0.1910 62.6 239 
 SPBC HN ES        255 15.28                             152    0.0410 62.6 239 
 SPBC HZ I         255 17.84        18.0 0.20            152           62.6 239 
 BAR2 EZ IP     D  255  2.60                             144    0.2810 84.6  32 
 BAR2 EZ ES        255 18.19                             144    0.0410 84.6  32 
 BAR2 EZ I         255 19.93        21.3 0.32            147           84.6  32 
 PTB  HZ EP        255  4.24                             134   -0.3410  117 304 
 PTB  HN ES        255 22.08                             134   -0.0810  117 304 
 PTB  HZ I         255 25.61         3.8 0.10            136            117 304 
 CHI  HZ EP        255  7.96                             128    0.13 9  146 186 
 CHI  HE ES        255 28.10                             128    0.14 9  146 186 
 CHI  HZ I         255 30.10         3.1 0.34            130            146 186 
 ROSC BZ EP   9    255  9.17                             128    1.32 0  147 214 
 ROSC BN ES        255 29.98                                    0.67 9  147 214 
 ROSC BZ I         255 33.61         4.7 0.40            129            147 214 
 PAM  EZ EP        255 11.74                             121    0.10 9  183  32 
 PAM  EN ES        255 34.88                             121    0.13 9  183  32 
 PAM  EZ I         255 38.72         2.8 0.18            124            183  32 
 VIL  EZ EP        255 12.90                             118   -0.39 9  203 183 
 VIL  EN ES        255 36.67                             118   -1.01 9  203 183 
 VIL  EZ I         255 41.22         6.5 0.54            120            203 183 
 TAM  HZ EP        255 13.62                             117    0.09 8  206  75 
 TAM  HN ES        255 38.02                             117   -0.08 8  206  75 
 GUY2CHZ EP        255 15.57                             117    0.80 8  212 248 
 GUY2CHN ES        255 40.17                             117   -0.15 8  212 248 
 GUY2CHZ I         255 46.57         2.8 0.32                           212 248 
 ZAR  HZ EP        255 15.16                             115   -0.02 8  222 321 
 ZAR  HN ES   4    255 42.03                             115    0.99 0  222 321 
 ZAR  HZ I         255 44.27         4.8 0.54            118            222 321 
 OCA  HZ EP        255 19.27                             112    0.10 8  256   7 
 OCA  HN ES   4    255 50.43                             112    2.30 0  256   7 
 PRA  HZ EP        255 22.23                             109   -0.21 7  286 210 
 PRA  HN ES        255 54.70                             109    0.73 7  286 210 
 PRA  HZ I         256  0.02         6.6 0.30            111            286 210 
 ORTC HZ EP        255 22.91                             109   -0.12 7  291 219 
 ORTC HN ES        255 55.12                             109    0.12 7  291 219 
 ORTC HZ I         255 59.02         3.1 0.20            111            291 219 
 URE  HN ES        255 54.97                             109   -0.61 7  294 313 
                                                                                
