 2011 1110 0806 32.7 L   6.814 -73.137143.5  RSN 13 0.5 2.5LRSN                1
 GAP=137        0.95       4.2     5.1  6.6 -0.3178E+01  0.1164E+02  0.5767E+01E
 Epicentro: LOS SANTOS - SANTANDER                                             3
 ACTION:UP  12-07-13 16:09 OP:ep   STATUS:               ID:20111110080632 L   I
 OLDACT:UPD 12-07-12 22:27 OP:ep   STATUS:               ID:20111110080632 L   3
 2011-11-10-0803-27S.COL___178                                                 6
 STAT SP IPHASW D HRMM SECON CODA AMPLIT PERI AZIMU VELO AIN AR TRES W  DIS CAZ7
 BAR2 SZ EP        8 6 51.96                             170   -0.1010 25.1 192 
 BAR2 SZ ES   1    8 7  6.78                             170   -0.40 7 25.1 192 
 BAR2 SZ I         8 7  8.75        76.7 0.26                          25.1 192 
 BRR  HZ EP   1    8 6 53.83                             152    0.26 7 71.3 297 
 BRR  HN ES   1    8 7 10.82                             152    0.94 7 71.3 297 
 BRR  HZ I         8 7 13.13        66.3 0.15                          71.3 297 
 PAM  SZ EP        8 6 54.73                             151    0.2110 75.5  40 
 PAM  SE ES   1    8 7 11.87                             151    0.29 7 75.5  40 
 RUS  HZ EP   1    8 6 55.78                             143   -0.52 7  102 177 
 RUS  HN ES   1    8 7 14.02                             143   -0.72 7  102 177 
 RUS  HZ I         8 7 15.92        29.4 0.28                           102 177 
 OCA  SZ EP   1    8 7  0.48                             129   -0.18 7  159 353 
 OCA  SZ I         8 7 27.68        47.8 0.23                           159 353 
 ZAR  HZ EP   1    8 7  4.61                             122   -0.38 6  204 292 
 ZAR  HE ES   1    8 7 29.46                             122   -0.75 6  204 292 
 ZAR  HZ I         8 7 36.42        43.7 0.41                           204 292 
 NOR  SZ EP   1    8 7  7.91                             118   -0.53 6  236 234 
 ROSC BZ EP   1    8 7 11.68                             116    0.82 6  255 211 
 ROSC BE ES   1    8 7 41.72                             116    1.06 6  255 211 
 ROSC BZ I         8 7 49.81        41.6 0.36                           255 211 
 HEL  HZ EP   1    8 7 13.32                             114    0.41 6  273 256 
 HEL  HE ES   1    8 7 43.51                             114   -0.79 6  273 256 
 HEL  HZ I         8 7 50.89        13.0 0.42                           273 256 
 VIL  SZ EP   1    8 7 16.35                             111    0.18 5  305 192 
 VIL  SZ I         8 7 55.64        10.0 0.44                           305 192 
 RREF HZ EP   1    8 7 18.95                             110    0.04 5  324 229 
 RREF HN ES   1    8 7 55.48                             110    0.50 5  324 229 
 TOL  SZ EP   1    8 7 21.22                             109    0.19 5  345 225 
 PRA  HZ EP   1    8 7 25.66                             106   -0.66 4  394 210 
 PRA  HN ES   1    8 8  8.62                             106    0.44 4  394 210 
                                                                                
