 2015  210 0619 59.1 L   6.734 -73.229140.9  RSN  6 0.4 1.2LRSN                1
 GAP=214        0.96       4.9     5.4  6.5  0.1048E+02  0.7689E+01  0.2324E+00E
 Epicentro: VILLANUEVA - SANTANDER                                             3
 ACTION:UPD 15-04-30 21:24 OP:nd   STATUS:               ID:20150210061959 L   I
 OLDACT:REG 15-02-10 13:02 OP:fm   STATUS:               ID:20150210061737     3
 2015-02-10-0617-37M.COL___287                                                 6
 STAT SP IPHASW D HRMM SECON CODA AMPLIT PERI AZIMU VELO AIN AR TRES W  DIS CAZ7
 BAR2 EZ EP        620 17.85                             173   -0.1710 16.5 162 
 BAR2 EZ ES        620 32.39                             173   -0.3910 16.5 162 
 BAR2 EZ I         620 34.35         5.7 0.40            171           16.5 162 
 BRR  HZ EP        620 19.93                             153    0.4210 67.5 308 
 BRR  HE ES        620 35.77                             153    0.3410 67.5 308 
 BRR  HZ I         620 41.15         3.1 0.30            152           67.5 308 
 RUS  HZ EP        620 22.26                             145    0.3410 94.4 170 
 RUS  HE ES        620 39.66                             145   -0.0710 94.4 170 
 RUS  HZ I         620 42.46         1.1 0.42            147           94.4 170 
 PTB  HZ EP        620 24.27                             133   -0.46 9  137 261 
 PTB  HE ES        620 44.86                             133    0.13 9  137 261 
 PTB  HZ I         620 48.97         1.9 0.42            133            137 261 
 SPBC HZ EP        620 25.64                             130   -0.49 9  152 218 
 SPBC HE ES        620 47.63                             130    0.40 9  152 218 
 SPBC HZ I         620 53.68         2.9 0.22            131            152 218 
 ZAR  HZ EP        620 31.07                             122    0.42 9  199 295 
 ZAR  HN ES        620 54.72                             122   -0.55 9  199 295 
 ZAR  HZ I         621  1.40         1.6 0.28            124            199 295 
                                                                                
