 2015 1010 0100  7.2 L   6.777 -73.114144.0  RSN  6 0.2 1.4LRSN                1
 GAP=142        0.57       2.6     3.1  5.3 -0.8723E+00  0.3991E+01 -0.1224E+01E
 Epicentro: LOS SANTOS - SANTANDER                                             3
 ACTION:UPD 15-12-22 20:38 OP:cam  STATUS:               ID:20151010010007 L   I
 OLDACT:REG 15-10-10 12:25 OP:spq  STATUS:               ID:20151010005748     3
 2015-10-10-0057-48M.COL___343                                                 6
 STAT SP IPHASW D HRMM SECON CODA AMPLIT PERI AZIMU VELO AIN AR TRES W  DIS CAZ7
 BAR2 EZ EP        1 0 26.51                             171   -0.1010 21.8 200 
 BAR2 EZ ES   1    1 0 41.43                             171   -0.30 7 21.8 200 
 BAR2 EZ I         1 0 42.75         5.3 0.25            169           21.8 200 
 BRR  HZ EP        1 0 28.27                             151   -0.1610 75.5 299 
 BRR  HE ES   1    1 0 45.50                             151    0.53 7 75.5 299 
 BRR  HZ I         1 0 48.64         7.1 0.33            149           75.5 299 
 PAM  EZ EP        1 0 29.24                             151   -0.0010 77.2  36 
 PAM  EN ES        1 0 46.37                             151   -0.0410 77.2  36 
 PAM  EZ I         1 0 47.76         3.9 0.38            154           77.2  36 
 RUS  HZ EP   1    1 0 31.07                             144    0.47 7 97.8 178 
 RUS  HE ES        1 0 48.91                             144    0.0710 97.8 178 
 RUS  HZ I         1 0 50.44         1.3 0.27            147           97.8 178 
 SPBC HE ES        1 0 57.60                             129   -0.16 9  163 221 
 SPBC HZ I         1 1  1.12         2.6 0.54            129            163 221 
 ZAR  HN ES        1 1  5.51                             121   -0.04 8  208 292 
 ZAR  HZ I         1 1 11.21         4.6 0.28            122            208 292 
                                                                                
