 2011  110 0015 10.8 L   6.834 -73.166137.8  RSN  5 0.5 1.6LRSN                1
 GAP=156        0.96       9.0    15.1 16.5 -0.6667E+02  0.9926E+02 -0.8085E+02E
 Epicentro: LOS SANTOS - SANTANDER                                             3
 ACTION:UP  11-02-08 08:39 OP:pat  STATUS:               ID:20110110001510 L   I
 2011-01-10-0000-00M.COL___135                                                 6
 STAT SP IPHASW D HRMM SECON CODA AMPLIT PERI AZIMU VELO SNR AR TRES W  DIS CAZ7
 BAR2 SZ ES   2    015 43.76                             168    -0.4 5   27 184 
 BAR2 SZ I         015 46.32        14.5 0.36                            27 184 
 RUS  HZ EP   1    015 33.77                             141    -0.3 7  105 175 
 RUS  HN ES   2    015 52.56                             141     0.3 5  105 175 
 RUS  HZ I         015 53.62         3.6 0.14                           105 175 
 GRA  SZ EP   1    015 35.83                             136     0.7 7  123  19 
 GRA  SZ I         015 58.53         4.9 0.38                           123  19 
 OCA  SZ EP   1    015 37.63                             128    -0.5 7  156 354 
 OCA  SZ I         016  2.06         9.3 0.25                           156 354 
 NOR  SZ EP   2    015 45.94                             117    -0.2 4  235 233 
 NOR  SE ES   2    016 14.27                             117     0.6 4  235 233 
                                                                                
