 2017  110 0714 18.6 L   6.708 -73.208144.0  RSN  4 0.3 1.4LRSN                1
 GAP=223        0.51       4.1     4.6  5.3  0.9587E+01  0.2162E+01 -0.2090E+01E
 Epicentro: VILLANUEVA - SANTANDER                                             3
 ACTION:UPD 17-05-22 15:57 OP:jn   STATUS:               ID:20170110071418 L   I
 OLDACT:UP  17-01-10 16:19 OP:e    STATUS:               ID:20170110070759     3
 OLDACT:REG 17-01-10 15:22 OP:and  STATUS:               ID:20170110070759     3
 2017-01-10-0707-59S.COL___291                                                 6
 STAT SP IPHASW D HRMM SECON CODA AMPLIT PERI AZIMU VELO AIN AR TRES W  DIS CAZ7
 BRR  HZ EP        714 39.30                             152   -0.2110 71.0 308 
 BRR  HN ES        714 55.93                             152    0.0910 71.0 308 
 RUS  HZ EP   2    714 41.81                             146    0.33 5 91.3 171 
 RUS  HN ES        714 59.39                             146    0.0310 91.3 171 
 PTB  HZ EP        714 44.45                             134   -0.17 9  139 262 
 PTB  HN ES        715  4.93                             134   -0.01 9  139 262 
 PTB  HZ I         715 30.82         3.0 0.56            103            139 262 
 ZAR  HZ EP   2    714 51.37                             122    0.71 4  202 296 
 ZAR  HN ES   3    715 16.58                             122    0.89 2  202 296 
                                                                                
