 2012  410 0120 18.3 L   6.773 -73.145147.2  RSN 12 0.3 2.7LRSN                1
 GAP=138        0.75       2.8     3.4  4.3 -0.2265E+01  0.4014E+01  0.1913E+01E
 Epicentro: LOS SANTOS - SANTANDER                                             3
 ACTION:UPD 12-07-05 11:52 OP:tino STATUS:               ID:20120410012018 L   I
 2012-04-10-0120-00M.COL___199                                                 6
 STAT SP IPHASW D HRMM SECON CODA AMPLIT PERI AZIMU VELO AIN AR TRES W  DIS CAZ7
 BAR2 SZ EP        120 38.19                             172     0.210   20 192 
 BAR2 SZ ES   1    120 53.40                             172     0.0 7   20 192 
 BAR2 SZ I         120 54.72       132.6 0.22                            20 192 
 BRR  HZ EP        120 39.96                             152     0.310   73 301 
 BRR  HE ES        120 56.95                             152     0.610   73 301 
 BRR  HZ I         120 59.93       102.0 0.13                            73 301 
 PAM  SZ EP        120 40.98                             150     0.210   80  38 
 PAM  SN ES        120 57.84                             150    -0.510   80  38 
 RUS  HZ EP        120 41.98                             145     0.010   98 176 
 RUS  HN ES        121  0.48                             145     0.010   98 176 
 PTB  HZ EP        120 44.98                             132    -0.4 9  147 260 
 PTB  HE ES   1    121  5.87                             132    -0.6 7  147 260 
 OCA  SZ EP        120 46.89                             129    -0.1 9  163 353 
 ZAR  HZ EP   1    120 50.61                             122    -0.4 6  205 293 
 ZAR  HZ I         121 23.10        39.3 0.30                           205 293 
 NOR  SZ EP        120 53.88                             119    -0.1 8  233 235 
 NOR  SE ES        121 21.50                             119    -0.2 8  233 235 
 CHI  HZ EP        120 55.93                             118     0.2 8  246 195 
 CHI  HN ES   1    121 24.79                             118    -0.2 6  246 195 
 CHI  HZ I         121 29.04        24.6 0.53                           246 195 
 HEL  HZ EP   1    120 59.07                             115     0.6 6  271 256 
 HEL  HN ES   1    121 29.84                             115     0.0 6  271 256 
 HEL  HZ I         121 36.17        21.0 0.28                           271 256 
 TOL  SZ EP   1    121  6.41                             110     0.0 5  341 225 
 PRA  HZ EP        121 11.61                             107     0.0 6  389 210 
 PRA  HE ES   1    121 53.34                             107     0.2 4  389 210 
                                                                                
