 2012 1110 0429 36.6 L   6.484 -73.592107.2  RSN  9 0.6 1.8LRSN                1
 GAP= 89        1.33       5.2     5.3  8.9  0.6752E+01  0.9975E+01 -0.6864E+01E
 Epicentro: SANTA HELENA DEL OPON - SANTANDER                                  3
 ACTION:UPD 12-12-05 15:32 OP:}ep  STATUS:               ID:20121110042937 L   I
 2012-11-10-0428-12M.COL___197                                                 6
 STAT SP IPHASW D HRMM SECON CODA AMPLIT PERI AZIMU VELO AIN AR TRES W  DIS CAZ7
 BAR2 SZ EP        429 52.53                             155   -0.0510 46.8  75 
 BAR2 SZ ES        430  4.49                             155   -0.5510 46.8  75 
 BAR2 SZ I         430  6.00        73.9 0.40                          46.8  75 
 BRR  HZ EP        429 53.34                             144   -0.3510 70.2 349 
 BRR  HN ES        430  7.55                             144    0.5410 70.2 349 
 BRR  HN I         430 12.73        18.3 0.18                          70.2 349 
 GIR2 SZ EP        429 53.96                             141   -0.6010 79.1  34 
 RUS  HZ EP        429 56.02                             139    0.4110 86.3 139 
 RUS  HN ES        430 10.89                             139    0.4610 86.3 139 
 RUS  HN I         430 12.69         3.3 0.32                          86.3 139 
 PTB  HZ EP        429 55.39                             135   -0.3610 95.8 274 
 PTB  HN ES        430 10.28                             135   -0.4010 95.8 274 
 PTB  HN I         430 11.13        10.8 0.32                          95.8 274 
 ZAR  HZ EP        430  4.38                             116    0.29 9  179 309 
 ZAR  HE ES   1    430 26.68                             116    1.16 7  179 309 
 ZAR  HN I         430 29.80         9.2 0.28                           179 309 
 OCA  HN ES        430 29.95                             114    0.66 9  196   9 
 CHI  HZ EP   2    430  8.67                             112    1.09 4  206 184 
 SML  HZ EP        430 12.62                             107   -0.88 8  262 348 
                                                                                
