 2011  910 0235 56.0 L   6.723 -73.204146.0  RSN  4 0.3 1.4LRSN                1
 GAP=170        0.38       7.2     8.8  7.5  0.5177E+02  0.2420E+01  0.5475E+01E
 Epicentro: VILLANUEVA - SANTANDER                                             3
 ACTION:UPD 12-07-13 15:56 OP:ep   STATUS:               ID:20110910023556 L   I
 2011-09-10-0220-00M.COL___171                                                 6
 STAT SP IPHASW D HRMM SECON CODA AMPLIT PERI AZIMU VELO AIN AR TRES W  DIS CAZ7
 GIR2 SZ EP   3    236 16.23                             164    0.26 2 39.3   2 
 GIR2 SZ ES   3    236 30.85                             164   -0.67 2 39.3   2 
 BRR  HZ EP   2    236 17.04                             153   -0.11 5 70.4 307 
 BRR  HZ I         236 19.28         9.7 0.35                          70.4 307 
 BRR  HE ES   2    236 33.99                             153    0.36 5 70.4 307 
 RUS  HZ EP   1    236 19.27                             146    0.01 7 92.8 172 
 RUS  HZ I         236 19.83         2.4 0.33                          92.8 172 
 RUS  HN ES   2    236 37.35                             146   -0.03 5 92.8 172 
 ZAR  HE ES   2    236 53.15                             123   -0.19 4  202 295 
                                                                                
