 2013  610 0126 43.7 L   6.776 -73.172152.2  RSN  5 0.4 1.7LRSN                1
 GAP=198        0.83       4.8     6.3  6.7  0.1279E+02 -0.4272E+01 -0.1038E+02E
 Epicentro: LOS SANTOS - SANTANDER                                             3
 ACTION:UPD 14-01-08 09:53 OP:ep   STATUS:               ID:20130610012643 L   I
 OLDACT:UP  13-06-10 09:23 OP:cam  STATUS:               ID:20130610011959     3
 OLDACT:REG 13-06-10 07:25 OP:cam  STATUS:               ID:20130610011959     3
 2013-06-10-0119-59M.COL___261                                                 6
 STAT SP IPHASW D HRMM SECON CODA AMPLIT PERI AZIMU VELO AIN AR TRES W  DIS CAZ7
 BAR2 SZ EP   1    127  4.05                             172   -0.04 7 20.4 183 
 BAR2 SZ ES   1    127 19.50                             172   -0.46 7 20.4 183 
 BRR  HZ EP        127  5.89                             154    0.3710 70.0 302 
 BRR  HN ES        127 23.04                             154    0.5310 70.0 302 
 BRR  HZ I         127 26.90         7.5 0.14            150           70.0 302 
 RUS  HZ EP        127  8.06                             146    0.1010 98.2 174 
 RUS  HN ES        127 26.72                             146   -0.1410 98.2 174 
 RUS  HZ I         127 27.80         6.9 0.30            148           98.2 174 
 PTB  HZ EP        127 10.83                             134   -0.11 9  144 260 
 PTB  HN ES        127 31.86                             134   -0.30 9  144 260 
 PTB  HZ I         127 39.05         4.0 0.30            132            144 260 
 SML  HZ EP        127 20.99                             119    0.13 8  245 336 
 SML  HE ES   1    127 48.94                             119   -0.87 6  245 336 
 SML  HZ I         127 52.28         9.0 0.24            120            245 336 
                                                                                
