 2015  110 0208  5.6 L   6.771 -73.136155.2  RSN  7 0.4 2.0LRSN                1
 GAP=201        1.05       4.4     6.0  6.8  0.7983E+01  0.2393E+01 -0.7270E+01E
 Epicentro: LOS SANTOS - SANTANDER                                             3
 ACTION:UPD 15-03-02 15:38 OP:nd   STATUS:               ID:20150110020805 L   I
 OLDACT:UP  15-01-10 17:50 OP:cam  STATUS:               ID:20150110020744     3
 OLDACT:REG 15-01-10 17:27 OP:cam  STATUS:               ID:20150110020744     3
 2015-01-10-0207-44M.COL___268                                                 6
 STAT SP IPHASW D HRMM SECON CODA AMPLIT PERI AZIMU VELO AIN AR TRES W  DIS CAZ7
 BAR2 EZ EP        2 8 26.38                             172    0.0310 20.4 194 
 BAR2 EZ ES        2 8 42.29                             172   -0.2110 20.4 194 
 BRR  HZ EP        2 8 28.23                             153    0.2810 73.7 300 
 BRR  HE ES        2 8 46.13                             153    0.7810 73.7 300 
 BRR  HE I         2 8 46.90        24.6 0.22            148           73.7 300 
 RUS  HZ EP        2 8 29.96                             147   -0.1410 97.3 177 
 RUS  HN ES        2 8 48.76                             147   -0.4210 97.3 177 
 PTB  HZ EP        2 8 33.16                             134   -0.27 9  148 260 
 PTB  HN ES        2 8 54.33                             134   -0.77 9  148 260 
 PTB  HZ I         2 9  0.22         6.4 0.36            130            148 260 
 SPBC HZ EP        2 8 35.21                             131    0.50 9  161 220 
 SPBC HE ES        2 8 57.91                             131    0.53 9  161 220 
 SPBC HZ I         2 9  4.24         9.8 0.24            129            161 220 
 ZAR  HZ EP        2 8 38.84                             124   -0.10 8  206 293 
 ZAR  HN ES        2 9  4.90                             124   -0.01 8  206 293 
 ZAR  HZ I         2 9 10.80         5.8 0.62            122            206 293 
 SML  HZ EP        2 8 43.29                             119    0.12 8  247 335 
 SML  HN ES        2 9 12.01                             119   -0.44 8  247 335 
 SML  HZ I         2 9 16.03         8.5 0.10            119            247 335 
                                                                                
