 2010  910 0717  9.3 L   5.937 -73.644116.6  RSN  8 0.4 1.4LRSN                1
 GAP=149        0.79       4.6     8.1 10.8 -0.1660E+02  0.3185E+02  0.7033E+01E
 Epicentro: BARBOSA - SANTANDER                                                3
 ACTION:UP  11-02-18 11:01 OP:tino STATUS:               ID:20100910071709 L   I
 2010-09-10-0715-48S.COL___120                                                 6
 STAT SP IPHASW D HRMM SECON CODA AMPLIT PERI AZIMU VELO SNR AR TRES W  DIS CAZ7
 BAR2 SZ EP   1    717 29.66                             140     0.7 8   89  35 
 BAR2 SZ ES   1    717 44.35                             140     0.0 8   89  35 
 BAR2 SZ I         717 46.67        17.6 0.25                            89  35 
 BRR  HZ EP        717 32.15                             128    -0.110  130 357 
 BRR  HZ I         717 49.49         2.8 0.12                           130 357 
 BRR  HN ES   1    717 49.83                             128    -0.3 7  130 357 
 GIR2 SZ EP   2    717 33.38                             127     0.3 5  136  22 
 CHI  HZ EP   2    717 33.81                             125    -0.5 5  145 184 
 CHI  HN ES   2    717 53.68                             125    -0.2 5  145 184 
 CHI  HZ I         718  0.17         1.8 0.30                           145 184 
 HEL  HZ EP   2    717 41.47                             114     0.3 4  210 278 
 HEL  HZ I         718 10.17         1.7 0.53                           210 278 
 RREF HZ EP   2    717 43.38                             113     0.7 4  221 239 
 RREF HN ES   2    718  9.11                             113     0.4 4  221 239 
 RREF HZ I         718 12.83         2.0 0.37                           221 239 
 GUE  SZ EP   1    717 42.43                             113    -0.2 6  224  21 
 GUE  SZ I         717 43.67         2.0 0.07                           224  21 
 PRA  HZ EP   1    717 48.44                             107    -0.5 6  282 209 
 PRA  HZ I         718 23.88         2.5 0.38                           282 209 
                                                                                
