 2013  410 0720 39.8 L   6.806 -73.138147.5  RSN 16 0.5 2.7LRSN                1
 GAP= 71        1.19       2.9     3.5  5.2 -0.2472E+01  0.1526E+00  0.1006E+01E
 Epicentro: LOS SANTOS - SANTANDER                                             3
 ACTION:UPD 13-05-22 14:37 OP:EP   STATUS:               ID:20130410072040 L   I
 2013-04-10-0718-38M.COL___215                                                 6
 STAT SP IPHASW D HRMM SECON CODA AMPLIT PERI AZIMU VELO AIN AR TRES W  DIS CAZ7
 BAR2 SZ IP        720 59.84                             170    0.2010 24.2 192 
 BAR2 SZ ES        721 14.73                             170   -0.4010 24.2 192 
 BAR2 SZ I         721 17.53       105.3 0.34            166           24.2 192 
 GIR2 SZ IP     C  720 59.92                             168    0.2710 30.8 348 
 GIR2 SZ ES        721 14.91                             168   -0.2310 30.8 348 
 GIR2 SZ I         721 16.67        42.8 0.34            163           30.8 348 
 BRR  HZ IP     C  721  1.63                             153    0.4910 71.7 298 
 BRR  HN ES        721 19.00                             153    1.1910 71.7 298 
 BRR  HN I         721 19.60       134.4 0.42            145           71.7 298 
 RUS  HZ IP     D  721  3.76                             144    0.0110  101 177 
 RUS  HE ES        721 22.26                             144   -0.1810  101 177 
 RUS  HN I         721 24.16        50.5 0.20            141            101 177 
 CAPV BZ IP     C  721  7.60                             132    0.38 9  148  38 
 CAPV BZ ES        721 28.33                             132   -0.29 9  148  38 
 PTB  HZ EP        721  6.40                             132   -0.58 9  149 259 
 PTB  HN ES        721 27.10                             132   -1.10 9  149 259 
 PTB  HE I         721 33.40        98.3 0.46            126            149 259 
 TAM  HZ EP        721  7.96                             131    0.43 9  154 105 
 TAM  HN ES        721 29.46                             131    0.28 9  154 105 
 TAM  HN I         721 30.39        52.9 0.36            132            154 105 
 OCA  HZ EP        721  7.88                             130   -0.29 9  160 353 
 OCA  HN ES        721 30.40                             130    0.08 9  160 353 
 OCA  HN I         721 35.30       159.2 0.24            127            160 353 
 NOR  HZ EP        721 15.83                             119    0.10 8  236 234 
 NOR  HN ES        721 43.69                             119   -0.08 8  236 234 
 NOR  HN I         721 50.21        58.5 0.14            115            236 234 
 SML  HZ EP        721 16.03                             118   -0.45 8  243 335 
 SML  HN ES        721 45.21                             118    0.11 8  243 335 
 CHI  HZ EP        721 18.11                             117    0.44 8  250 195 
 CHI  HN ES        721 46.90                             117   -0.32 8  250 195 
 ROSC BZ EP   3    721 19.79                             117    1.68 2  254 211 
 ROSC BE ES        721 48.34                             117    0.34 8  254 211 
 ROSC BZ I         721 57.48        28.6 0.40            114            254 211 
 HEL  HZ EP   1    721 21.19                             115    1.00 6  273 256 
 HEL  HN I         721 59.33        11.8 0.32            111            273 256 
 SOCV BZ EP        721 21.79                             113   -0.99 7  300  57 
 SDV  BZ EP        721 29.14                             109   -0.62 6  359  50 
 PRA  HZ EP        721 33.56                             107    0.08 6  393 210 
 PRA  HN ES        722 14.95                             107   -0.41 6  393 210 
 PRA  HE I         722 20.82        15.9 0.52            104            393 210 
                                                                                
