 2012  110 0621 13.3 L   6.804 -73.168138.0  RSN 17 0.5 2.7LRSN                1
 GAP=111        1.13       4.2     4.3  6.8  0.2824E+00  0.8244E+01  0.5434E+01E
 Epicentro: LOS SANTOS - SANTANDER                                             3
 ACTION:UP  12-02-03 08:16 OP:REBC STATUS:               ID:20120110062113 L   I
 2012-01-10-0620-00M.COL___186                                                 6
 STAT SP IPHASW D HRMM SECON CODA AMPLIT PERI AZIMU VELO SNR AR TRES W  DIS CAZ7
 BAR2 SZ EP        621 31.99                             170     0.010   24 184 
 BAR2 SZ ES   1    621 46.07                             170    -0.5 7   24 184 
 BAR2 SZ I         621 48.06       194.2 0.16                            24 184 
 GIR2 SZ EP        621 32.00                             167     0.010   30 355 
 BRR  HZ IP     D  621 33.81                             152     0.410   69 299 
 BRR  HN ES   1    621 50.21                             152     1.0 7   69 299 
 BRR  HZ I         621 55.00       306.3 0.13                            69 299 
 PAM  SZ IP        621 34.77                             149     0.010   79  41 
 PAM  SN ES   1    621 51.37                             149    -0.1 7   79  41 
 RUS  HZ EP        621 36.03                             142    -0.310  101 175 
 RUS  HE ES   1    621 54.45                             142     0.1 7  101 175 
 RUS  HZ I         621 56.22        76.4 0.27                           101 175 
 PTB  HZ EP   1    621 38.92                             131    -0.5 7  145 258 
 PTB  HN ES   1    621 58.64                             131    -1.1 7  145 258 
 OCA  SZ EP        621 40.41                             128    -0.5 9  160 354 
 OCA  SZ I         622  4.52        77.7 0.19                           160 354 
 YOP  SZ EP        621 42.84                             124    -0.1 9  180 153 
 YOP  SE ES   1    622  6.92                             124     0.9 7  180 153 
 YOP  SZ I         622  8.03        25.9 0.34                           180 153 
 ZAR  HZ EP   1    621 44.79                             121    -0.2 6  202 292 
 ZAR  HN ES   1    622 10.50                             121     0.8 6  202 292 
 ZAR  HZ I         622 16.81        96.1 0.29                           202 292 
 NOR  SZ EP   1    621 48.58                             117     0.2 6  233 234 
 NOR  SN ES   1    622 15.31                             117    -0.4 6  233 234 
 CHI  HZ EP   1    621 50.45                             115    -0.1 6  248 195 
 CHI  HZ I         622 27.06        15.6 0.46                           248 195 
 HEL  HZ EP   1    621 52.53                             113    -0.3 6  270 256 
 HEL  HN ES   1    622 23.42                             113    -0.3 6  270 256 
 HEL  HZ I         622 30.80        34.2 0.28                           270 256 
 GUY  SZ EP   1    621 56.88                             111     0.3 5  302 235 
 RREF HZ EP   1    621 58.37                             109    -0.5 5  320 229 
 RREF HN ES   1    622 34.50                             109     0.0 5  320 229 
 RREF HZ I         622 42.40        16.2 0.17                           320 229 
 DBB  SZ EP        622  1.14                             108     1.0 7  337 274 
 TOL  SZ EP   1    622  1.43                             108     0.4 5  342 224 
 PRA  HZ EP   1    622  5.99                             105    -0.5 4  391 209 
 PRA  HN ES   1    622 49.02                             105     1.1 4  391 209 
                                                                                
