 2017  410 0728  1.4 L   6.668 -73.219151.6  RSN  4 0.3 0.9LRSN                1
 GAP=218        0.66       5.6     5.5  7.7  0.2098E+02 -0.4773E+01 -0.7041E+01E
 Epicentro: BARICHARA - SANTANDER                                              3
 ACTION:UPD 17-05-30 21:10 OP:jn   STATUS:               ID:20170410072801 L   I
 OLDACT:UP  17-04-10 17:08 OP:dani STATUS:               ID:20170410071741d    3
 OLDACT:UP  17-04-10 17:08 OP:dani STATUS:               ID:20170410071741d    3
 OLDACT:REG 17-04-10 13:18 OP:edw  STATUS:               ID:20170410071739     3
 2017-04-10-0718-00M.COL___368                                                 6
 STAT SP IPHASW D HRMM SECON CODA AMPLIT PERI AZIMU VELO AIN AR TRES W  DIS CAZ7
 BRR  HZ EP        728 23.05                             153   -0.1810 73.0 312 
 BRR  HN ES        728 40.20                             153   -0.0910 73.0 312 
 BRR  HZ I         728 41.52         2.5 0.27            154           73.0 312 
 RUS  HZ EP        728 24.75                             149   -0.0310 87.1 170 
 RUS  HN ES        728 43.25                             149    0.2010 87.1 170 
 RUS  HZ I         728 44.22         0.8 0.21            150           87.1 170 
 PTB  HN ES        728 48.33                             135   -0.29 9  138 264 
 ZAR  HE ES        729  0.04                             124    0.49 9  203 297 
                                                                                
