 2012  110 0107 30.3 L   6.760 -73.137149.0  RSN 11 0.4 1.9LRSN                1
 GAP=139        0.81       3.6     5.2  6.1 -0.2138E+01  0.1005E+02  0.1718E+01E
 Epicentro: LOS SANTOS - SANTANDER                                             3
 ACTION:UP  12-02-03 08:16 OP:REBC STATUS:               ID:20120110010730 L   I
 2012-01-10-0100-00M.COL___186                                                 6
 STAT SP IPHASW D HRMM SECON CODA AMPLIT PERI AZIMU VELO SNR AR TRES W  DIS CAZ7
 BAR2 SZ EP   1    1 7 50.08                             172    -0.2 7   19 195 
 BAR2 SZ ES   1    1 8  5.85                             172     0.1 7   19 195 
 BAR2 SZ I         1 8  6.82        10.9 0.21                            19 195 
 BRR  HZ IP     C  1 7 51.83                             152    -0.110   74 301 
 BRR  HZ I         1 7 52.15        30.4 0.18                            74 301 
 BRR  HN ES   1    1 8  9.49                             152     0.6 7   74 301 
 PAM  SZ EP   1    1 7 52.95                             151    -0.1 7   80  37 
 PAM  SN ES   1    1 8 10.23                             151    -0.5 7   80  37 
 RUS  HZ EP   1    1 7 54.19                             146     0.1 7   96 176 
 RUS  HN ES   1    1 8 12.46                             146    -0.1 7   96 176 
 RUS  HZ I         1 8 13.57         5.2 0.30                            96 176 
 PTB  HZ EP   1    1 7 56.99                             133    -0.5 7  148 261 
 PTB  HN ES   2    1 8 18.02                             133    -0.8 5  148 261 
 OCA  SZ EP   1    1 7 59.91                             130     0.6 7  165 353 
 OCA  SZ ES   2    1 8 22.37                             130     0.5 5  165 353 
 OCA  SZ I         1 8 26.73        13.1 0.37                           165 353 
 ZAR  HZ EP   1    1 8  2.85                             123    -0.4 6  207 293 
 ZAR  HN ES   2    1 8 29.33                             123     0.5 4  207 293 
 ZAR  HZ I         1 8 36.29         7.7 0.47                           207 293 
 NOR  SZ EP   1    1 8  5.94                             119    -0.1 6  233 235 
 NOR  SN ES   2    1 8 33.64                             119    -0.2 4  233 235 
 CHI  HZ EP   1    1 8  7.87                             118     0.1 6  245 196 
 CHI  HE ES   1    1 8 37.62                             118     0.7 6  245 196 
 CHI  HZ I         1 8 45.62         3.1 0.53                           245 196 
 HEL  HZ EP   2    1 8 10.35                             115    -0.3 4  272 257 
 HEL  HZ I         1 8 48.66         5.0 0.40                           272 257 
 RREF HN ES   2    1 8 52.52                             112     0.3 3  320 230 
 RREF HZ I         1 9  2.18         3.8 0.35                           320 230 
                                                                                
