 2016 1210 0718 13.1 L   6.745 -73.144142.0  RSN  8 0.5 1.7LRSN                1
 GAP=139        1.12       5.2     4.8  6.9  0.1182E+01  0.7945E+01  0.4219E+00E
 Epicentro: LOS SANTOS - SANTANDER                                             3
 ACTION:UPD 17-01-11 20:13 OP:rebc STATUS:               ID:20161210071813 L   I
 OLDACT:REG 16-12-10 13:17 OP:lv   STATUS:               ID:20161210070648     3
 2016-12-10-0707-00M.COL___367                                                 6
 STAT SP IPHASW D HRMM SECON CODA AMPLIT PERI AZIMU VELO AIN AR TRES W  DIS CAZ7
 BAR2 EZ ES        718 47.19                             173    0.1510 17.4 194 
 BAR2 EZ I         718 48.12        15.3 0.16            171           17.4 194 
 BRR  HZ EP        718 34.23                             151    0.2110 74.4 303 
 BRR  HN ES        718 51.24                             151    0.8910 74.4 303 
 BRR  HZ I         718 55.28         7.6 0.15            150           74.4 303 
 PAM  EZ EP        718 35.13                             149   -0.0710 82.0  37 
 PAM  EN ES        718 52.06                             149   -0.3810 82.0  37 
 PAM  EZ I         718 54.00        11.5 0.46            152           82.0  37 
 RUS  HZ EP        718 36.10                             145    0.0610 94.5 176 
 RUS  HE ES        718 53.94                             145    0.0010 94.5 176 
 RUS  HZ I         718 55.55         5.5 0.36            146           94.5 176 
 PTB  HZ EP        718 39.25                             131   -0.42 9  147 261 
 PTB  HN ES        718 59.54                             131   -0.87 9  147 261 
 PTB  HZ I         719  2.05         6.6 0.14            131            147 261 
 ZAR  HZ EP        718 45.27                             121   -0.29 8  207 294 
 ZAR  HN ES        719 11.10                             121    0.22 8  207 294 
 ZAR  HZ I         719 16.23         3.6 0.11            121            207 294 
 GUY2CHZ EP   9    718 58.08                             112    1.93 0  298 236 
 GUY2CHE ES        719 31.99                                    0.32 7  298 236 
 GUY2CHZ I         719 39.68         2.1 0.43                           298 236 
 PRA  HZ EP        719  6.73                             106    0.85 6  387 210 
 PRA  HE ES   4    719 48.41                             106    1.36 0  387 210 
 PRA  HZ I         719 55.03         2.2 0.28            107            387 210 
 SJC  HZ EP   4    719  6.99                             105   -2.15 0  414 327 
 SJC  HN ES   4    719 48.53                             105   -4.33 0  414 327 
                                                                                
