 2017 1210 0607 47.8 L   6.594 -74.175 14.4  RSN  4 0.3 1.1LRSN                1
 GAP=158        0.76       3.1     3.7  5.6 -0.6884E+01 -0.1663E+02  0.9983E+01E
 Epicentro: PUERTO PARRA - SANTANDER                                           3
 ACTION:UPD 18-01-04 13:18 OP:rebc STATUS:               ID:20171210060747 L   I
 OLDACT:DUP 17-12-10 17:54 OP:lv   STATUS:               ID:20171210055744d    3
 2017-12-10-0558-00M.COL___481                                                 6
 STAT SP IPHASW D HRMM SECON CODA AMPLIT PERI AZIMU VELO AIN AR TRES W  DIS CAZ7
 PTB  HZ IP     D  6 7 53.02                             111   -0.5210 31.7 259 
 PTB  HN ES        6 7 58.22                             111    0.2410 31.7 259 
 PTB  HZ I         6 7 58.43         8.4 0.30            112           31.7 259 
 ZAR  HZ EP        6 8  7.73                              95    0.3110  125 323 
 ZAR  HN ES        6 8 22.53                              95   -0.1510  125 323 
 ZAR  HZ I         6 8 23.12         5.5 0.14             95            125 323 
 PAM  EZ EP        6 8 15.69                              56    0.05 9  183  63 
 PAM  EE ES        6 8 37.25                              56   -0.07 9  183  63 
 PAM  EZ I         6 8 39.01         3.0 0.12             56            183  63 
 GUY2CHZ EP        6 8 18.30                              56    0.43 9  201 221 
 GUY2CHN ES        6 8 41.08                              56   -0.22 9  201 221 
 GUY2CHZ I         6 8 44.25         1.2 0.34                           201 221 
                                                                                
