 2014  710 0519 27.7 L   6.777 -73.148143.0  RSN  7 0.4 1.5LRSN                1
 GAP=137        1.09       4.6     4.9  7.2 -0.6386E+00  0.9323E+01  0.1405E+01E
 Epicentro: LOS SANTOS - SANTANDER                                             3
 ACTION:UPD 15-03-16 20:42 OP:nd   STATUS:               ID:20140710051928 L   I
 OLDACT:UP  14-07-11 10:39 OP:SPQ  STATUS:               ID:20140710051928 L   3
 OLDACT:REG 14-07-10 12:18 OP:stll STATUS:               ID:20140710051818     3
 2014-07-10-0518-18M.COL___262                                                 6
 STAT SP IPHASW D HRMM SECON CODA AMPLIT PERI AZIMU VELO AIN AR TRES W  DIS CAZ7
 BAR2 SZ EP        519 46.91                             171   -0.0810 20.8 190 
 BAR2 SZ ES        520  1.62                             171   -0.3810 20.8 190 
 BAR2 SZ I         520  2.65        14.8 0.18            171           20.8 190 
 BRR  HZ EP        519 48.86                             152    0.2110 72.2 300 
 BRR  HZ I         519 49.09         6.8 0.26            151           72.2 300 
 BRR  HN ES        520  5.78                             152    0.8210 72.2 300 
 PAM  SZ EP        519 50.06                             150    0.2610 79.6  39 
 PAM  SN ES        520  6.44                             150   -0.5610 79.6  39 
 PAM  SZ I         520  9.07         4.7 0.48            151           79.6  39 
 RUS  HZ EP        519 51.48                             144    0.4410 98.0 176 
 RUS  HN ES        520  9.36                             144    0.1510 98.0 176 
 RUS  HZ I         520 10.76         3.1 0.50            145           98.0 176 
 PTB  HZ EP        519 53.64                             131   -0.78 9  147 260 
 PTB  HN ES   1    520 14.51                             131   -0.71 7  147 260 
 PTB  HZ I         520 17.91         3.5 0.18            132            147 260 
 SPBC HZ EP        519 55.80                             129   -0.03 9  161 219 
 SPBC HN ES        520 17.84                             129    0.11 9  161 219 
 SPBC HZ I         520 19.76         3.3 0.22            130            161 219 
 ZAR  HZ EP   1    520  0.19                             122    0.11 6  205 293 
 ZAR  HN ES        520 25.40                             122    0.09 9  205 293 
 ZAR  HZ I         520 27.87         3.4 0.70            122            205 293 
                                                                                
