 2016  810 0350  0.8 L   6.778 -73.162145.2  RSN  9 0.5 1.9LRSN                1
 GAP=135        1.08       4.7     4.7  7.5 -0.2373E+01  0.9172E+01  0.8546E+00E
 Epicentro: LOS SANTOS - SANTANDER                                             3
 ACTION:UPD 16-10-29 15:34 OP:rebc STATUS:               ID:20160810035000 L   I
 OLDACT:REG 16-08-10 12:30 OP:dnl  STATUS:               ID:20160810034759     3
 2016-08-10-0347-59S.COL___346                                                 6
 STAT SP IPHASW D HRMM SECON CODA AMPLIT PERI AZIMU VELO AIN AR TRES W  DIS CAZ7
 BAR2 EZ EP        350 20.25                             172   -0.0410 20.6 186 
 BAR2 EZ ES        350 34.98                             172   -0.5310 20.6 186 
 BAR2 EZ I         350 36.52        32.8 0.30                          20.6 186 
 BRR  HZ IP     C  350 22.07                             153    0.2310 70.8 301 
 BRR  HE ES        350 39.40                             153    1.1210 70.8 301 
 BRR  HZ I         350 43.35        14.7 0.22                          70.8 301 
 PAM  EZ EP        350 23.23                             150    0.1110 80.4  39 
 PAM  EN ES        350 40.22                             150   -0.3210 80.4  39 
 PAM  EZ I         350 42.81        11.1 0.46                          80.4  39 
 RUS  HZ EP   2    350 24.37                             144    0.06 5 98.3 175 
 RUS  HE ES        350 42.86                             144    0.2010 98.3 175 
 RUS  HZ I         350 43.90         9.9 0.30                          98.3 175 
 PTB  HZ EP        350 26.82                             132   -0.67 9  146 260 
 PTB  HN ES        350 48.03                             132   -0.31 9  146 260 
 PTB  HZ I         350 53.66        11.1 0.14                           146 260 
 SPBC HZ EP        350 29.27                             130    0.33 9  160 219 
 SPBC HN ES        350 50.97                             130    0.06 9  160 219 
 SPBC HZ I         350 52.96        15.1 0.30                           160 219 
 ZAR  HZ EP   3    350 33.51                             122    0.40 2  203 293 
 ZAR  HE ES        350 57.90                             122   -0.43 9  203 293 
 ZAR  HZ I         351  3.92        10.5 0.36                           203 293 
 GUY2CHZ EP   3    350 44.95                             113    0.92 2  298 235 
 GUY2CHN ES   3    351 18.30                             113    0.53 2  298 235 
 GUY2CHZ I         351 28.15         2.8 0.26                           298 235 
 SJC  HZ EP   4    350 54.41                             106   -2.03 0  410 327 
 SJC  HN ES   4    351 35.23                             106   -4.63 0  410 327 
 SJC  HZ I         351 43.41         1.7 0.28                           410 327 
                                                                                
