 2012  510 0814 41.9 L   6.773 -73.116149.3  RSN 12 0.3 2.3LRSN                1
 GAP=142        0.79       3.0     3.9  5.1 -0.1109E+01  0.4616E+01  0.3718E+01E
 Epicentro: LOS SANTOS - SANTANDER                                             3
 ACTION:UP  12-07-05 12:04 OP:pat  STATUS:               ID:20120510081441 L   I
 2012-05-10-0810-00M.COL___195                                                 6
 STAT SP IPHASW D HRMM SECON CODA AMPLIT PERI AZIMU VELO SNR AR TRES W  DIS CAZ7
 BAR2 SZ EP        815  2.05                             172     0.110   21 200 
 BAR2 SZ ES   1    815 17.40                             172    -0.2 7   21 200 
 BAR2 SZ I         815 18.31        22.7 0.48                            21 200 
 BRR  HZ EP        815  4.02                             152     0.310   76 299 
 BRR  HZ I         815  5.58        41.5 0.11                            76 299 
 BRR  HN ES        815 21.32                             152     0.610   76 299 
 PAM  SZ EP   1    815  4.53                             151     0.0 7   78  36 
 PAM  SN ES   1    815 21.80                             151    -0.4 7   78  36 
 RUS  HZ EP        815  5.91                             145     0.110   97 178 
 RUS  HN ES   1    815 24.06                             145    -0.4 7   97 178 
 RUS  HZ I         815 25.96        10.4 0.31                            97 178 
 PTB  HZ EP        815  9.04                             132    -0.4 9  150 260 
 PTB  HN ES   1    815 30.11                             132    -0.8 7  150 260 
 OCA  HZ EP   1    815 10.92                             130     0.1 7  164 352 
 OCA  HN ES   1    815 33.21                             130    -0.2 7  164 352 
 OCA  HZ I         815 38.11        50.9 0.33                           164 352 
 ZAR  HZ EP   1    815 14.81                             123    -0.2 6  208 293 
 ZAR  HE ES   1    815 40.59                             123    -0.3 6  208 293 
 ZAR  HZ I         815 46.56        27.6 0.31                           208 293 
 NOR  SZ EP   1    815 18.04                             119     0.1 6  236 236 
 NOR  SE ES   1    815 46.30                             119     0.2 6  236 236 
 CHI  HZ EP   1    815 19.93                             118     0.3 6  247 196 
 CHI  HN ES   1    815 49.17                             118     0.2 6  247 196 
 CHI  HZ I         815 55.41         7.7 0.37                           247 196 
 HEL  HZ EP   1    815 22.75                             115     0.2 6  275 257 
 HEL  HZ I         816  2.66         7.9 0.28                           275 257 
 RREF HZ EP   1    815 27.72                             111    -0.6 5  322 230 
 RREF HN ES   1    816  4.82                             111     0.4 5  322 230 
 RREF HZ I         816 10.55        11.5 0.25                           322 230 
 PRA  HZ EP   1    815 35.52                             107     0.1 4  391 210 
 PRA  HN ES   1    816 17.09                             107    -0.1 4  391 210 
                                                                                
