 2010  610 0844  0.7 L   6.814 -73.052142.3  RSN  7 0.5 1.8LRSN                1
 GAP=166        0.88       6.3    13.7 11.1 -0.4613E+02  0.3658E+02 -0.6554E+01E
 Epicentro: LOS SANTOS - SANTANDER                                             3
 ACTION:UP  10-08-24 10:09 OP:vdl  STATUS:               ID:20100610084400 L   I
 2010-06-10-0842-34S.COL___111                                                 6
 STAT SP IPHASW D HRMM SECON CODA AMPLIT PERI AZIMU VELO SNR AR TRES W  DIS CAZ7
 GIR2 SZ EP   2    844 19.71                             166    -0.3 5   33 332 
 GIR2 SZ ES   2    844 35.76                             166     0.7 5   33 332 
 RUS  HZ EP   2    844 23.55                             143    -0.6 5  102 182 
 RUS  HN ES   2    844 42.16                             143    -0.3 5  102 182 
 RUS  HZ I         844 43.14         6.0 0.28                           102 182 
 BRI  SZ EP        844 23.86                             142     0.010  104  16 
 GUE  SZ EP   2    844 25.29                             139     0.5 5  113   7 
 GRA  SZ EP   1    844 26.00                             137     0.8 7  122  13 
 GRA  SZ ES   2    844 44.07                             137    -0.3 5  122  13 
 OCA  SZ EP   1    844 28.03                             129    -0.7 7  160 349 
 OCA  SZ ES   2    844 49.95                             129    -0.6 5  160 349 
 OCA  SZ I         844 55.80         8.2 0.39                           160 349 
 RREF BZ EP   1    844 47.98                             110     0.3 5  331 230 
 RREF BE ES   2    845 24.49                             110     0.2 3  331 230 
 RREF BZ I         845 30.80         4.7 0.31                           331 230 
                                                                                
