 2014 1210 0440 16.6 L   6.820 -73.217143.3  RSN  8 0.3 1.5LRSN                1
 GAP=195        0.77       2.8     4.1  5.6  0.1935E+01  0.2884E+01  0.1623E+01E
 Epicentro: ZAPATOCA - SANTANDER                                               3
 ACTION:UPD 15-02-10 17:02 OP:nd   STATUS:               ID:20141210044016 L   I
 OLDACT:REG 14-12-10 13:15 OP:fm   STATUS:               ID:20141210043737     3
 2014-12-10-0437-37M.COL___303                                                 6
 STAT SP IPHASW D HRMM SECON CODA AMPLIT PERI AZIMU VELO AIN AR TRES W  DIS CAZ7
 BRR  HZ EP        440 37.29                             155    0.2210 63.2 300 
 BRR  HN ES        440 53.39                             155    0.3710 63.2 300 
 BRR  HZ I         441  5.34         8.5 0.28            153           63.2 300 
 RUS  HZ EP        440 40.54                             142    0.1810  104 172 
 RUS  HN ES        440 58.56                             142   -0.3010  104 172 
 RUS  HZ I         440 59.78         2.2 0.34            151            104 172 
 PTB  HZ EP        440 43.13                             133    0.40 9  140 257 
 PTB  HN ES        441  3.09                             133   -0.01 9  140 257 
 PTB  HZ I         441 11.71         3.3 0.30            136            140 257 
 SPBC HZ EP        440 44.25                             129   -0.39 9  160 216 
 SPBC HN ES        441  6.27                             129   -0.22 9  160 216 
 SPBC HZ I         441 13.03         5.5 0.24            134            160 216 
 ZAR  HE ES        441 12.14                             123   -0.46 9  196 292 
 ZAR  HZ I         441 19.78         3.5 0.32            127            196 292 
 NOR  HZ EP        440 52.02                             119    0.35 8  230 233 
 NOR  HE ES        441 19.02                             119    0.02 8  230 233 
 NOR  HZ I         441 27.49         1.9 0.36            124            230 233 
 SML  HE ES        441 20.32                             117   -0.25 8  239 337 
 SML  HZ I         441 25.32         5.7 0.24            123            239 337 
 GUY2CHZ EP        440 59.08                             112   -0.46 7  296 234 
 GUY2CHN ES        441 33.39                             112    0.38 7  296 234 
 GUY2CHZ I         441 42.83         1.9 0.50                           296 234 
                                                                                
