 2011 1210 0657  4.0 L   6.627 -73.162145.7  RSN  4 0.5 1.6LRSN                1
 GAP=223        0.82      13.9    10.7 10.4  0.6650E+02  0.2949E+02  0.4332E+02E
 Epicentro: VILLANUEVA - SANTANDER                                             3
 ACTION:UPD 12-07-13 16:15 OP:ep   STATUS:               ID:20111210065704dL   I
 2011-12-10-0650-00M.COL___186                                                 6
 STAT SP IPHASW D HRMM SECON CODA AMPLIT PERI AZIMU VELO AIN AR TRES W  DIS CAZ7
 BAR2 SZ EP   1    657 23.96                             178    0.57 7 4.49 210 
 BAR2 SZ ES   1    657 38.72                             178    0.20 7 4.49 210 
 BAR2 SZ I         657 39.91         5.3 0.27                          4.49 210 
 BRR  HZ EP   1    657 25.66                             149   -0.04 7 80.7 311 
 BRR  HZ I         657 25.91        10.6 0.13                          80.7 311 
 BRR  HN ES   2    657 41.72                             149   -0.91 5 80.7 311 
 RUS  HZ EP   1    657 25.88                             149   -0.60 7 81.7 174 
 PTB  HZ EP   1    657 30.79                             133    0.22 7  143 266 
 PTB  HN ES   2    657 51.49                             133    0.19 5  143 266 
                                                                                
