 2010  710 0647 57.1 L   7.274 -73.400101.1  RSN  6 0.4 1.3LRSN                1
 GAP=123        0.85       6.4     8.9 11.2 -0.2914E+02  0.1236E+01 -0.1534E+01E
 Epicentro: SABANA DE TORRES - SANTANDER                                       3
 ACTION:UPD 10-12-01 15:16 OP:pat  STATUS:               ID:20100710064757 L   I
 2010-07-10-0646-15S.COL___120                                                 6
 STAT SP IPHASW D HRMM SECON CODA AMPLIT PERI AZIMU VELO AIN AR TRES W  DIS CAZ7
 BRR  HZ EP   1    648 11.12                             157    -0.5 7   39 242 
 BRR  HE ES   2    648 23.11                             157     0.2 5   39 242 
 BRR  HZ I         648 25.41         7.5 0.21                            39 242 
 BAR2 SZ EP        648 14.83                             139     0.310   79 162 
 GUE  SZ EP   1    648 14.07                             138    -0.7 7   81  40 
 GUE  SZ ES   2    648 28.02                             138    -0.6 5   81  40 
 BRI  SZ EP   1    648 14.67                             137    -0.1 7   83  54 
 BRI  SZ ES   2    648 28.79                             137     0.2 5   83  54 
 GRA  SZ EP   1    648 15.70                             133     0.0 7   94  44 
 GRA  SZ ES   2    648 30.83                             133     0.5 5   94  44 
 OCA  SZ EP        648 17.32                             129     0.410  107   5 
                                                                                
