 2011  410 0304 55.2 L   6.734 -73.111140.4  RSN 15 0.3 2.5LRSN                1
 GAP=119        0.59       2.5     3.3  4.0 -0.1545E+01  0.1784E+01  0.2666E+01E
 Epicentro: JORDAN - SANTANDER                                                 3
 ACTION:UP  11-06-22 15:30 OP:REBC STATUS:               ID:20110410030455 L   I
 2011-04-10-0300-00M.COL___140                                                 6
 STAT SP IPHASW D HRMM SECON CODA AMPLIT PERI AZIMU VELO SNR AR TRES W  DIS CAZ7
 BAR2 SZ EP   1    3 5 13.82                             172    -0.2 7   18 207 
 BAR2 SZ ES   1    3 5 28.82                             172     0.0 7   18 207 
 BAR2 SZ I         3 5 30.13        90.5 0.21                            18 207 
 BTL  SZ EP        3 5 14.36                             169     0.110   27 320 
 GIR2 SZ EP   1    3 5 14.24                             163    -0.2 7   39 346 
 GIR2 SZ ES   1    3 5 29.88                             163     0.4 7   39 346 
 BRR  HZ IP     C  3 5 16.01                             149    -0.210   78 302 
 BRR  HN ES   1    3 5 32.47                             149    -0.1 7   78 302 
 PAM  SZ EP        3 5 17.02                             149     0.010   81  34 
 PAM  SN ES   1    3 5 33.77                             149    -0.3 7   81  34 
 GRA  SZ IP        3 5 20.97                             134     0.510  132  15 
 GRA  SZ ES   2    3 5 40.07                             134    -0.1 5  132  15 
 GRA  SZ I         3 5 42.40        50.5 0.38                           132  15 
 OCA  SZ EP   1    3 5 23.45                             127    -0.4 7  168 352 
 OCA  SZ I         3 5 51.75        40.4 0.67                           168 352 
 YOP  SZ EP   1    3 5 24.19                             126     0.2 7  171 153 
 YOP  SN ES   1    3 5 46.26                             126    -0.3 7  171 153 
 YOP  SZ I         3 5 52.23        19.3 0.31                           171 153 
 NOR  SN ES   2    3 5 58.27                             117     0.2 4  234 236 
 CHI  HZ EP   2    3 5 32.23                             117     0.3 4  243 197 
 CHI  HE ES   2    3 6  1.29                             117     0.7 4  243 197 
 CHI  HZ I         3 6  8.28        13.5 0.56                           243 197 
 HEL  HZ EP   2    3 5 35.76                             113     0.4 4  274 257 
 HEL  HN ES   2    3 6  6.56                             113    -0.1 4  274 257 
 HEL  HZ I         3 6 13.93        12.7 0.19                           274 257 
 RREF HZ EP   1    3 5 41.26                             110     0.4 5  320 231 
 RREF HN ES   2    3 6 16.35                             110    -0.2 3  320 231 
 RREF HZ I         3 6 26.03        18.8 0.37                           320 231 
 TOL  SZ EP   2    3 5 42.85                             108    -0.1 3  341 226 
 DBB  SZ EP   2    3 5 42.52                             108    -0.4 3  344 275 
 PRA  HZ EP   1    3 5 47.66                             106    -0.3 4  388 211 
 PRA  HN ES   2    3 6 28.37                             106    -0.8 3  388 211 
                                                                                
