 2011  810 0700 28.7 L   6.792 -73.092143.3  RSN  7 0.3 1.8LRSN                1
 GAP=188        0.54       2.7     6.3  5.1  0.1780E+01 -0.3804E+00 -0.2993E+00E
 Epicentro: LOS SANTOS - SANTANDER                                             3
 ACTION:UPD 12-07-13 15:51 OP:ep   STATUS:               ID:20110810070028 L   I
 2011-08-10-0700-00M.COL___151                                                 6
 STAT SP IPHASW D HRMM SECON CODA AMPLIT PERI AZIMU VELO AIN AR TRES W  DIS CAZ7
 BAR2 SZ EP   1    7 0 48.16                             170    0.09 7 24.2 204 
 BAR2 SZ ES   1    7 1  2.99                             170   -0.17 7 24.2 204 
 BAR2 SZ I         7 1  4.25        15.8 0.23                          24.2 204 
 BRR  HZ EP   1    7 0 50.32                             150    0.39 7 76.8 297 
 BRR  HE ES   1    7 1  6.70                             150    0.22 7 76.8 297 
 BRR  HZ I         7 1 12.46        17.5 0.17                          76.8 297 
 RUS  HZ EP   1    7 0 52.10                             143   -0.04 7 99.4 179 
 RUS  HE ES   1    7 1 10.40                             143   -0.02 7 99.4 179 
 RUS  HZ I         7 1 11.45         7.0 0.25                          99.4 179 
 OCA  SZ EP   1    7 0 57.33                             129    0.34 7  162 351 
 OCA  SZ ES   1    7 1 18.40                             129   -0.66 7  162 351 
 OCA  SZ I         7 1 22.27        15.2 0.39                           162 351 
 NOR  SN ES   2    7 1 32.51                             117   -0.37 4  239 235 
 CHI  HZ EP   2    7 1  6.16                             116   -0.19 4  249 197 
 CHI  HZ I         7 1 38.44         1.8 0.36                           249 197 
 PRA  HZ EP   2    7 1 22.27                             106   -0.13 3  394 210 
 PRA  HN ES   2    7 2  4.08                             106   -0.20 3  394 210 
                                                                                
