 2017  710 0535 12.0 L   6.662 -73.173149.2  RSN  4 0.1 1.3LRSN                1
 GAP=238        0.35       4.3     2.6  3.5  0.4246E+01  0.1759E+01 -0.8257E+00E
 Epicentro: VILLANUEVA - SANTANDER                                             3
 ACTION:UPD 17-08-30 15:31 OP:rebc STATUS:               ID:20170710053512 L   I
 OLDACT:REG 17-07-10 12:59 OP:dnl  STATUS:               ID:20170710052743     3
 2017-07-10-0528-00M.COL___371                                                 6
 STAT SP IPHASW D HRMM SECON CODA AMPLIT PERI AZIMU VELO AIN AR TRES W  DIS CAZ7
 BAR2 EZ EP        535 31.88                             177    0.0510 7.75 187 
 BAR2 EZ ES        535 47.24                             177   -0.0610 7.75 187 
 BAR2 EZ I         535 48.63         6.4 0.28            169           7.75 187 
 BRR  HZ EP        535 33.76                             151   -0.1110 77.3 310 
 BRR  HN ES        535 51.05                             151    0.1310 77.3 310 
 BRR  HZ I         535 51.95         3.8 0.42            148           77.3 310 
 PTB  HZ EP   2    535 39.05                             134    0.26 5  143 265 
 PTB  HN ES        535 59.67                             134   -0.01 9  143 265 
 PTB  HZ I         536  5.61         0.9 0.40            130            143 265 
 ZAR  HZ EP   4    535 47.16                             123    2.13 0  208 296 
 ZAR  HN ES        536 10.71                             123   -0.08 8  208 296 
 ZAR  HZ I         536 16.19         1.9 0.56            121            208 296 
                                                                                
