 2013  110 0843 50.3 L   6.806 -73.115148.4  RSN  8 0.5 2.2LRSN                1
 GAP=186        1.12       4.2     6.5  7.3  0.6177E+01  0.1720E+02  0.4171E+01E
 Epicentro: LOS SANTOS - SANTANDER                                             3
 ACTION:UPD 13-02-15 09:13 OP:ep   STATUS:               ID:20130110084350 L   I
 2013-01-10-0840-00M.COL___242                                                 6
 STAT SP IPHASW D HRMM SECON CODA AMPLIT PERI AZIMU VELO AIN AR TRES W  DIS CAZ7
 BAR2 SZ ES        844 25.65                             170   -0.1910 24.8 198 
 BAR2 SZ I         844 27.36        29.8 0.38            169           24.8 198 
 BRR  HZ EP        844 12.48                             152    0.6210 73.9 297 
 BRR  HN ES        844 29.50                             152    0.8010 73.9 297 
 BRR  HN I         844 30.13        32.4 0.32            149           73.9 297 
 RUS  HZ EP   4    844 11.00                             144   -3.32 0  101 178 
 RUS  HN ES        844 32.64                             144   -0.4410  101 178 
 RUS  HN I         844 33.47        15.3 0.32            145            101 178 
 PTB  HZ EP        844 17.24                             132   -0.53 9  151 259 
 PTB  HN ES        844 38.83                             132   -0.39 9  151 259 
 PTB  HN I         844 44.20        21.0 0.62            131            151 259 
 OCA  HN ES        844 40.60                             130   -0.39 9  160 352 
 OCA  HN I         844 44.55        57.9 0.20            131            160 352 
 ZAR  HZ EP        844 23.35                             123    0.16 8  207 292 
 ZAR  HN ES        844 48.76                             123   -0.11 8  207 292 
 ZAR  HN I         844 57.37        13.1 0.32            122            207 292 
 CHI  HZ EP        844 28.70                             117    0.41 8  250 196 
 CHI  HN ES        844 58.43                             117    0.48 8  250 196 
 CHI  HN I         845  2.26         4.9 0.50            118            250 196 
 HEL  HZ EP        844 30.43                             115   -0.58 7  276 256 
 HEL  HN ES        845  2.89                             115    0.11 7  276 256 
                                                                                
