 2013  710 0638  9.0 L   6.819 -73.141143.1  RSN 12 0.5 2.0LRSN                1
 GAP=136        1.18       3.5     4.3  6.1 -0.3256E+01  0.9472E+01 -0.1620E+01E
 Epicentro: LOS SANTOS - SANTANDER                                             3
 ACTION:UPD 13-08-12 10:36 OP:ep   STATUS:               ID:20130710063809 L   I
 OLDACT:REG 13-07-10 07:56 OP:nd   STATUS:               ID:20130710062959     3
 2013-07-10-0629-59M.COL___266                                                 6
 STAT SP IPHASW D HRMM SECON CODA AMPLIT PERI AZIMU VELO AIN AR TRES W  DIS CAZ7
 BAR2 SZ EP        638 28.35                             169   -0.0410 25.5 190 
 BAR2 SZ ES        638 42.97                             169   -0.5210 25.5 190 
 BAR2 SZ I         638 44.40        39.0 0.22            170           25.5 190 
 GIR2 SZ EP        638 28.54                             168    0.2110 29.3 349 
 GIR2 SZ ES        638 43.39                             168   -0.0010 29.3 349 
 GIR2 SZ I         638 46.56        15.7 0.24            163           29.3 349 
 BRR  HZ IP     C  638 30.25                             152    0.3910 70.7 297 
 BRR  HN ES        638 46.94                             152    0.8310 70.7 297 
 BRR  HZ I         638 48.33        23.0 0.18            148           70.7 297 
 PAM  SZ EP        638 31.30                             151    0.4610 75.4  40 
 PAM  SN ES        638 48.42                             151    0.5610 75.4  40 
 PAM  SZ I         638 50.08        15.4 0.74            152           75.4  40 
 RUS  HZ EP        638 32.46                             143   -0.2210  103 176 
 RUS  HN ES        638 50.80                             143   -0.3210  103 176 
 RUS  HZ I         638 51.75        11.5 0.22            147            103 176 
 PTB  HZ EP        638 35.35                             131   -0.52 9  149 258 
 PTB  HN ES        638 56.19                             131   -0.61 9  149 258 
 PTB  HZ I         638 59.35        14.6 0.18            130            149 258 
 OCA  HZ EP        638 36.93                             129   -0.01 9  158 353 
 OCA  HN ES        638 58.03                             129   -0.68 9  158 353 
 OCA  HZ I         639  1.84        13.4 0.26            129            158 353 
 ZAR  HZ EP        638 41.75                             122    0.48 9  204 292 
 ZAR  HE ES        639  6.84                             122    0.42 9  204 292 
 ZAR  HZ I         639 15.30        10.3 0.30            121            204 292 
 NOR  HZ EP        638 45.02                             118    0.23 8  236 234 
 NOR  HN ES        639 12.31                             118   -0.37 8  236 234 
 NOR  HZ I         639 16.61         8.1 0.20            118            236 234 
 SML  HZ EP        638 44.92                             117   -0.40 8  242 335 
 SML  HN ES        639 12.73                             117   -0.89 8  242 335 
 SML  HZ I         639 23.96         8.8 0.10            117            242 335 
 HEL  HZ EP   4    638 50.74                             114    1.52 0  273 255 
 HEL  HN ES        639 20.78                             114    0.21 8  273 255 
 HEL  HZ I         639 28.11         4.4 0.52            114            273 255 
 GUY2CHZ EP   4    638 54.33                             112    1.63 0  303 234 
 GUY2CHN ES        639 27.45                             112    0.68 7  303 234 
 GUY2CHZ I         639 34.99         4.6 0.42                           303 234 
                                                                                
