 2016  610 0537  6.7 L   6.767 -73.157148.3  RSN  7 0.6 1.6LRSN                1
 GAP=137        1.18       4.9     7.2  8.0 -0.1183E+02  0.5440E+01 -0.3090E-01E
 Epicentro: LOS SANTOS - SANTANDER                                             3
 ACTION:UPD 16-07-21 22:17 OP:rebc STATUS:               ID:20160610053706 L   I
 OLDACT:UP  16-06-13 21:29 OP:nlst STATUS:               ID:20160610053706 L   3
 OLDACT:UP  16-06-10 18:33 OP:dani STATUS:               ID:20160610052745     3
 OLDACT:UP  16-06-10 18:28 OP:dani STATUS:               ID:20160610052745     3
 OLDACT:REG 16-06-10 13:13 OP:dani STATUS:               ID:20160610052745     3
 2016-06-10-0527-45M.COL___337                                                 6
 STAT SP IPHASW D HRMM SECON CODA AMPLIT PERI AZIMU VELO AIN AR TRES W  DIS CAZ7
 BAR2 EZ EP        537 26.31                             172   -0.2710 19.6 188 
 BAR2 EZ ES        537 41.71                             172   -0.3610 19.6 188 
 BAR2 EZ I         537 42.39         8.1 0.42                          19.6 188 
 BRR  HZ EP     C  537 28.45                             152    0.2710 71.9 302 
 BRR  HN ES        537 45.68                             152    0.7610 71.9 302 
 BRR  HZ I         537 49.08         3.8 0.17                          71.9 302 
 PAM  EZ EP        537 29.49                             151    0.0810 81.0  39 
 PAM  EN ES        537 47.31                             151    0.2010 81.0  39 
 PAM  EZ I         537 47.88         8.6 0.20                          81.0  39 
 RUS  HZ EP        537 30.47                             146    0.0010 97.1 175 
 RUS  HE ES   2    537 47.79                             146   -1.20 5 97.1 175 
 RUS  HZ I         537 49.87         4.9 0.28                          97.1 175 
 PTB  HZ EP        537 33.17                             133   -0.55 9  146 260 
 PTB  HN ES   2    537 53.34                             133   -1.44 5  146 260 
 PTB  HZ I         537 54.80         5.1 0.14                           146 260 
 SPBC HZ EP   2    537 35.54                             130    0.47 5  160 219 
 SPBC HE ES        537 58.00                             130    0.81 9  160 219 
 SPBC HZ I         538  1.88         4.0 0.22                           160 219 
 OCA  HZ EP        537 35.40                             130   -0.14 9  164 354 
 OCA  HN ES        537 57.73                             130   -0.30 9  164 354 
 OCA  HZ I         538  1.62         9.2 0.13                           164 354 
                                                                                
