 2011 1010 0225 28.3 L   6.777 -73.128141.8  RSN 17 0.4 2.7LRSN                1
 GAP=116        0.82       2.9     4.1  5.2 -0.1799E+01  0.5077E+01  0.3255E+01E
 Epicentro: LOS SANTOS - SANTANDER                                             3
 ACTION:UPD 12-07-13 16:02 OP:ep   STATUS:               ID:20111010022528 L   I
 2011-10-10-0220-00M.COL___171                                                 6
 STAT SP IPHASW D HRMM SECON CODA AMPLIT PERI AZIMU VELO AIN AR TRES W  DIS CAZ7
 BAR2 SZ EP        225 47.58                             171    0.1910 21.3 197 
 BAR2 SZ ES   1    226  2.24                             171   -0.05 7 21.3 197 
 BAR2 SZ I         226  5.62       192.1 0.49                          21.3 197 
 GIR2 SZ EP        225 47.59                             166    0.0310 34.2 348 
 BRR  HZ IP        225 49.41                             151    0.2410 74.2 300 
 BRR  HN ES   1    226  6.11                             151    0.64 7 74.2 300 
 BRR  HZ I         226  9.23       118.7 0.27                          74.2 300 
 PAM  SZ EP        225 50.33                             150    0.2110 78.2  37 
 PAM  SN ES   1    226  7.29                             150    0.13 7 78.2  37 
 RUS  HZ EP   1    225 51.40                             144   -0.04 7 97.9 177 
 RUS  HN ES   1    226  9.04                             144   -0.47 7 97.9 177 
 RUS  HZ I         226 11.48        59.8 0.29                          97.9 177 
 BRI  SZ EP   1    225 52.07                             140    0.14 7  110  19 
 OCA  SZ EP        225 55.91                             128   -0.64 9  163 353 
 OCA  SZ ES   1    226 18.13                             128   -0.48 7  163 353 
 OCA  SZ I         226 24.82        75.0 0.29                           163 353 
 YOP  SZ EP   1    225 57.08                             126   -0.64 7  176 154 
 ZAR  HZ EP   1    226  1.53                             121    0.77 6  207 293 
 ZAR  HE ES   1    226 25.43                             121   -0.67 6  207 293 
 ZAR  HZ I         226 32.07        33.6 0.14                           207 293 
 NOR  SZ EP   1    226  3.55                             118   -0.24 6  235 235 
 NOR  SE ES   1    226 30.84                             118   -0.66 6  235 235 
 NOR  SZ I         226 36.05         3.7 0.39                           235 235 
 CHI  HZ EP   1    226  5.19                             116   -0.35 6  247 196 
 CHI  HN ES   1    226 34.93                             116    0.32 6  247 196 
 CHI  HZ I         226 43.14        30.6 0.38                           247 196 
 ROSC BZ EP   1    226  6.88                             116    0.83 6  252 212 
 ROSC BZ I         226 43.55        99.9 0.65                           252 212 
 HEL  HZ EP   1    226  8.67                             114    0.23 6  273 256 
 HEL  HZ I         226 48.78        23.4 0.33                           273 256 
 VIL  SZ EP   1    226 11.88                             111    0.61 5  301 192 
 GUY  SZ EP   2    226 12.11                             111    0.12 4  304 236 
 RREF HZ EP   1    226 14.71                             110    0.48 5  322 230 
 RREF HN ES   1    226 49.81                             110   -0.27 5  322 230 
 RREF HZ I         227  0.10        36.1 0.20                           322 230 
 PRA  HZ EP        226 21.18                             106   -0.34 6  391 210 
                                                                                
