 2016  210 0440 27.9 L   6.815 -73.104150.0  RSN 17 0.5 1.9LRSN                1
 GAP=122        1.02       2.6     3.6  5.3 -0.2402E+01  0.5377E+01 -0.1206E+01E
 Epicentro: LOS SANTOS - SANTANDER                                             3
 ACTION:UPD 16-03-04 21:24 OP:rebc STATUS:               ID:20160210044027 L   I
 OLDACT:REG 16-02-10 14:38 OP:ak   STATUS:               ID:20160210043746     3
 2016-02-10-0437-46M.COL___316                                                 6
 STAT SP IPHASW D HRMM SECON CODA AMPLIT PERI AZIMU VELO AIN AR TRES W  DIS CAZ7
 BAR2 EZ EP        440 48.48                             170    0.3910 26.2 199 
 BAR2 EZ ES        441  4.00                             170    0.1510 26.2 199 
 BAR2 EZ I         441  6.35        15.4 0.38            169           26.2 199 
 PAM  EZ EP   2    440 51.05                             153    0.73 5 73.2  38 
 PAM  EN ES        441  8.29                             153    0.4710 73.2  38 
 PAM  EZ I         441 10.63        10.4 0.42            156           73.2  38 
 RUS  HZ EP        440 52.51                             144    0.3410  102 179 
 RUS  HN ES        441 10.42                             144   -0.6810  102 179 
 RUS  HZ I         441 12.20         6.0 0.34            146            102 179 
 PTB  HZ EP        440 54.67                             132   -0.98 9  153 259 
 PTB  HN ES        441 16.63                             132   -0.67 9  153 259 
 PTB  HZ I         441 18.76         7.8 0.20            132            153 259 
 OCA  HZ EP        440 56.48                             131    0.04 9  159 351 
 OCA  HN ES        441 18.69                             131   -0.01 9  159 351 
 OCA  HZ I         441 24.14        21.8 0.30            133            159 351 
 SPBC HZ EP        440 56.66                             129   -0.46 9  167 220 
 SPBC HN ES        441 19.58                             129   -0.34 9  167 220 
 SPBC HZ I         441 25.34        15.9 0.42            130            167 220 
 ZAR  HZ EP        441  1.25                             123    0.25 8  208 291 
 ZAR  HN ES        441 27.23                             123    0.42 8  208 291 
 ZAR  HZ I         441 33.68         5.6 0.52            124            208 291 
 NOR  HZ EP        441  4.24                             119   -0.14 8  239 235 
 NOR  HN ES        441 32.62                             119   -0.22 8  239 235 
 NOR  HZ I         441 37.92         6.4 0.36            120            239 235 
 SML  HZ EP        441  4.67                             118   -0.14 8  244 334 
 SML  HN ES        441 33.55                             118   -0.05 8  244 334 
 SML  HZ I         441 36.34        12.3 0.10            120            244 334 
 CHI  HZ EP        441  6.48                             118    0.34 8  252 196 
 CHI  HN ES        441 36.34                             118    0.36 8  252 196 
 CHI  HZ I         441 41.54         2.6 0.24            120            252 196 
 ROSC BZ EP   4    441  9.21                             117    2.54 0  257 212 
 ROSC BN ES        441 37.35                             117    0.44 8  257 212 
 ROSC BZ I         441 44.41         8.9 0.40            119            257 212 
 HEL  HZ EP   2    441  9.25                             115    0.38 4  277 256 
 HEL  HN ES        441 41.36                             115    0.53 7  277 256 
 HEL  HZ I         441 49.07         3.1 0.46            116            277 256 
 SOCV BZ EP        441 10.18                             113   -0.42 7  296  57 
 SOCV BN ES   4    441 41.67                             113   -2.24 0  296  57 
 GUY2CHZ EP   4    441 14.02                             113    1.78 0  306 235 
 GUY2CHE ES        441 46.59                             113   -0.24 7  306 235 
 GUY2CHZ I         441 55.08         3.2 0.56                           306 235 
 CBOC HZ EP   2    441 16.70                             110    1.15 3  339 252 
 CBOC HN ES        441 53.57                             110    0.85 7  339 252 
 ORTC HZ EP   2    441 23.11                             107    0.67 3  400 217 
 ORTC HN ES   2    442  5.73                             107    0.74 3  400 217 
 SJC  HZ EP        441 22.91                             106   -0.82 6  410 326 
 SJC  HN ES   4    442  3.92                             106   -3.36 0  410 326 
 SJC  HZ I         442  7.40         1.4 0.24            108            410 326 
                                                                                
