 2016  610 0415  3.9 L   6.772 -73.041149.2  RSN 11 0.5 1.8LRSN                1
 GAP=152        0.87       4.1     6.3  7.1 -0.1165E+02 -0.6668E+01  0.3895E+01E
 Epicentro: LOS SANTOS - SANTANDER                                             3
 ACTION:UPD 16-07-21 22:17 OP:rebc STATUS:               ID:20160610041504 L   I
 OLDACT:UP  16-06-14 14:06 OP:rebc STATUS:               ID:20160610041504 L   3
 OLDACT:UP  16-06-13 21:29 OP:nlst STATUS:               ID:20160610041504 L   3
 OLDACT:UP  16-06-10 16:20 OP:dani STATUS:               ID:20160610040745     3
 OLDACT:REG 16-06-10 12:59 OP:dani STATUS:               ID:20160610040745     3
 2016-06-10-0407-45M.COL___337                                                 6
 STAT SP IPHASW D HRMM SECON CODA AMPLIT PERI AZIMU VELO AIN AR TRES W  DIS CAZ7
 BAR2 EZ EP        415 23.86                             170   -0.1010 25.3 218 
 BAR2 EZ I         415 41.86         6.7 0.23                          25.3 218 
 PAM  EZ EP        415 26.87                             153    0.6610 73.2  31 
 PAM  EE ES   4    415 44.57                             153    0.93 0 73.2  31 
 PAM  EZ I         415 46.81         7.5 0.50                          73.2  31 
 BRR  HZ EP     C  415 25.83                             150   -0.2510 82.9 297 
 BRR  HE ES        415 43.44                             150    0.0310 82.9 297 
 BRR  HZ I         415 44.95        13.5 0.16                          82.9 297 
 RUS  HN ES   2    415 46.89                             145    0.53 5 97.4 183 
 PTB  HZ EP   4    415 30.59                             131   -1.52 0  159 261 
 PTB  HN ES   4    415 51.81                             131   -2.33 0  159 261 
 PTB  HZ I         415 57.56         9.0 0.32                           159 261 
 OCA  HZ EP     C  415 32.77                             129   -0.13 9  165 349 
 OCA  HN ES        415 55.20                             129   -0.34 9  165 349 
 OCA  HZ I         415 57.54        12.6 0.24                           165 349 
 SPBC HZ EP        415 32.93                             129   -0.20 9  168 223 
 SPBC HE ES        415 55.53                             129   -0.43 9  168 223 
 SPBC HZ I         416  1.61         8.2 0.18                           168 223 
 NOR  HZ EP   9    415 39.67                             118   -0.97 0  243 237 
 NOR  HN ES        416  8.41                             118    0.06 8  243 237 
 NOR  HZ I         416 10.33         3.6 0.12                           243 237 
 HEL  HZ EP        415 45.60                             114    0.17 7  283 257 
 HEL  HE ES   2    416 19.54                             114    1.70 4  283 257 
 HEL  HZ I         416 25.26         2.8 0.36                           283 257 
 GUY2CHZ EP   4    415 49.81                             112    1.29 0  309 236 
 GUY2CHE ES   4    416 26.86                             112    3.51 0  309 236 
 GUY2CHZ I         416 30.04         2.8 0.30                           309 236 
 CBOC HZ EP        415 52.34                             110    0.25 7  344 253 
 CBOC HZ I         416 34.71         1.3 0.46                           344 253 
                                                                                
