 2015 1010 0229 26.2 L   6.793 -73.120146.8  RSN  7 0.3 1.5LRSN                1
 GAP=140        0.75       3.1     3.9  6.2 -0.3456E+00  0.5383E+01 -0.3956E+01E
 Epicentro: LOS SANTOS - SANTANDER                                             3
 ACTION:UPD 15-12-22 20:38 OP:cam  STATUS:               ID:20151010022926 L   I
 OLDACT:DUP 15-10-10 14:04 OP:spq  STATUS:               ID:20151010022747d    3
 2015-10-10-0227-46M.COL___340                                                 6
 STAT SP IPHASW D HRMM SECON CODA AMPLIT PERI AZIMU VELO AIN AR TRES W  DIS CAZ7
 BAR2 EZ ES   1    230  0.91                             171   -0.46 7 23.3 197 
 BAR2 EZ I         230  1.94         3.9 0.25            167           23.3 197 
 BRR  HZ EP        229 47.81                             152    0.1810 74.1 298 
 BRR  HE ES        230  4.73                             152    0.3910 74.1 298 
 BRR  HZ I         230  9.04         7.2 0.28            148           74.1 298 
 PAM  EZ EP        229 48.56                             151    0.1010 76.1  38 
 PAM  EN ES        230  5.79                             151   -0.0210 76.1  38 
 PAM  EZ I         230  7.93         6.9 0.44            155           76.1  38 
 RUS  HZ EP   1    229 50.50                             144    0.51 7 99.7 178 
 RUS  HE ES        230  8.36                             144   -0.1910 99.7 178 
 RUS  HZ I         230 10.40         1.5 0.32            144           99.7 178 
 SPBC HE ES        230 17.02                             129   -0.27 9  164 220 
 SPBC HZ I         230 27.12         3.9 0.24            128            164 220 
 ZAR  HN ES        230 24.79                             122    0.18 8  207 292 
 ZAR  HZ I         230 29.80         4.9 0.42            121            207 292 
 SML  HZ EP   1    230  2.68                             117   -0.41 6  246 335 
 SML  HE ES   1    230 31.14                             117   -0.72 6  246 335 
 SML  HZ I         230 38.14         5.1 0.10            117            246 335 
 SJC  HZ EP   4    230 20.11                             106   -1.95 0  411 327 
                                                                                
