 2014 1110 0838 38.9 L   6.816 -73.170151.6  RSN  7 0.5 1.1LRSN                1
 GAP=133        1.24       5.0     7.0  9.6 -0.2748E+01 -0.3779E+01 -0.3622E+01E
 Epicentro: LOS SANTOS - SANTANDER                                             3
 ACTION:UPD 14-12-19 15:41 OP:nd   STATUS:               ID:20141110083838 L   I
 OLDACT:ARG 14-11-10 13:00 OP:stll STATUS:               ID:20141110082738     3
 2014-11-10-0827-38M.COL___286                                                 6
 STAT SP IPHASW D HRMM SECON CODA AMPLIT PERI AZIMU VELO AIN AR TRES W  DIS CAZ7
 BAR2 SZ EP        838 59.63                             170    0.3410 24.8 183 
 BAR2 SZ ES        839 15.04                             170   -0.1310 24.8 183 
 BRR  HZ EP        839  1.19                             155    0.6610 67.9 298 
 BRR  HN ES        839 18.02                             155    0.6310 67.9 298 
 BRR  HZ I         839 18.53         3.7 0.32            157           67.9 298 
 PAM  SZ EP        839  1.06                             152   -0.7310 77.8  42 
 PAM  SZ I         839 18.22         2.1 0.26            142           77.8  42 
 RUS  HZ EP        839  3.96                             144    0.5610  103 175 
 RUS  HN ES        839 22.18                             144   -0.3010  103 175 
 RUS  HZ I         839 24.90         1.1 0.74            142            103 175 
 PTB  HZ EP        839  5.82                             134   -0.35 9  145 258 
 PTB  HZ I         839  6.99         2.3 0.16            135            145 258 
 PTB  HN ES        839 26.83                             134   -0.59 9  145 258 
 OCA  HN ES        839 29.56                             131   -0.24 9  158 354 
 SPBC HN ES        839 30.40                             130   -0.01 9  163 218 
                                                                                
