 2013  110 0426 36.9 L   6.718 -73.301148.8  RSN  4 0.2 1.4LRSN                1
 GAP=183        0.48       5.8     3.6  6.4  0.3583E+01 -0.3113E+01  0.9643E+01E
 Epicentro: GALAN - SANTANDER                                                  3
 ACTION:UPD 13-02-15 09:13 OP:ep   STATUS:               ID:20130110042636 L   I
 2013-01-10-0420-00M.COL___242                                                 6
 STAT SP IPHASW D HRMM SECON CODA AMPLIT PERI AZIMU VELO AIN AR TRES W  DIS CAZ7
 BAR2 SZ EP        426 56.97                             172    0.2010 19.2 137 
 BAR2 SZ I         427 17.88         3.2 0.38            146           19.2 137 
 BRR  HZ EP        426 57.59                             156   -0.2810 62.5 313 
 BRR  HN ES        427 14.26                             156    0.0010 62.5 313 
 BRR  HN I         427 14.87         7.4 0.22            173           62.5 313 
 PTB  HZ EP   1    427  2.49                             137    0.03 7  129 261 
 PTB  HN ES        427 22.35                             137   -0.0810  129 261 
 PTB  HN I         427 28.93         4.2 0.24            133            129 261 
 ZAR  HE ES        427 32.96                             125    0.17 9  192 297 
                                                                                
