 2010  410 0145 29.6 L   6.794 -72.896143.4  RSN  6 0.4 2.2LRSN                1
 GAP=229        0.87       4.7     9.0  6.1 -0.1754E+02 -0.4940E+01  0.9144E+01E
 Epicentro: SAN ANDRES - SANTANDER                                             3
 ACTION:UPD 10-08-24 09:58 OP:vdl  STATUS:               ID:20100410014529 L   I
 2010-04-10-0143-58S.COL___097                                                 6
 STAT SP IPHASW D HRMM SECON CODA AMPLIT PERI AZIMU VELO AIN AR TRES W  DIS CAZ7
 BAR2 SZ EP        145 49.78                             164     0.410   39 235 
 BAR2 SZ ES        146  4.65                             164    -0.210   39 235 
 BRR  HZ EP        145 51.85                             144    -0.310   97 291 
 BRR  HZ I         145 52.07        40.7 0.15                            97 291 
 BRR  HN ES        146  9.83                             144     0.110   97 291 
 OCA  SZ EP        145 58.20                             128    -0.2 9  166 344 
 OCA  SZ ES   2    146 21.04                             128     0.3 5  166 344 
 OCA  SZ I         146 27.03        19.7 0.16                           166 344 
 ROSC BZ EP        146  9.66                             115     0.4 8  267 216 
 ROSC BE ES   1    146 40.59                             115     0.4 6  267 216 
 ROSC BZ I         146 45.37         5.7 0.43                           267 216 
 RREF BZ EP        146 18.64                             109     0.5 7  343 232 
 RREF BN ES        146 55.72                             109    -0.2 7  343 232 
 RREF BZ I         146 58.79         4.5 0.23                           343 232 
 PRA  HZ EP        146 24.13                             105    -0.6 6  406 213 
 PRA  HE ES   1    147  6.75                             105    -0.9 4  406 213 
 PRA  HZ I         147 12.28         3.5 0.24                           406 213 
                                                                                
