 2012  710 0336  9.1 L   6.147 -73.709100.4  RSN  6 0.2 1.3LRSN                1
 GAP=131        0.63       3.0     2.7  8.3 -0.6134E+00  0.7877E+01  0.7645E-02E
 Epicentro: LANDAZURI - SANTANDER                                              3
 ACTION:UPD 12-08-14 11:43 OP:ep   STATUS:               ID:20120710033609 L   I
 2012-07-10-0330-00M.COL___201                                                 6
 STAT SP IPHASW D HRMM SECON CODA AMPLIT PERI AZIMU VELO AIN AR TRES W  DIS CAZ7
 RUS  HZ EP   1    336 26.33                             141    -0.2 8   75 112 
 RUS  HN ES   1    336 40.10                             141    -0.1 8   75 112 
 BAR2 SZ EP   1    336 26.55                             140     0.2 8   76  50 
 BAR2 SZ ES   1    336 39.80                             140     0.0 8   76  50 
 BAR2 SZ I         336 42.27         7.6 0.35            143             76  50 
 PTB  HZ EP   1    336 26.92                             133    -0.5 8   93 298 
 PTB  HN ES   1    336 41.50                             133    -0.3 8   93 298 
 PTB  HZ I         336 43.58         1.7 0.07            137             93 298 
 BRR  HZ EP   1    336 28.74                             129     0.1 7  106 360 
 BRR  HZ I         336 29.07         7.5 0.08            133            106 360 
 BRR  HE ES        336 43.95                             129     0.110  106 360 
 NOR  SE ES        336 51.00                             120     0.3 9  144 243 
 ZAR  HN ES   1    337  0.82                             111     0.1 7  196 320 
