 2013  210 0400  7.8 L   6.806 -73.148144.1  RSN  8 0.3 1.8LRSN                1
 GAP=136        0.68       3.7     3.6  6.7 -0.2354E+01  0.1555E+01  0.8793E+01E
 Epicentro: LOS SANTOS - SANTANDER                                             3
 ACTION:UPD 13-03-12 09:31 OP:ep   STATUS:               ID:20130210040007 L   I
 2013-02-10-0359-37M.COL___174                                                 6
 STAT SP IPHASW D HRMM SECON CODA AMPLIT PERI AZIMU VELO AIN AR TRES W  DIS CAZ7
 BAR2 SZ EP   1    4 0 27.20                             170   -0.06 7 24.0 189 
 BAR2 SZ I         4 0 45.61        11.1 0.60            168           24.0 189 
 BRR  HZ EP   1    4 0 28.90                             152    0.15 7 70.6 298 
 BRR  HN ES   1    4 0 45.70                             152    0.62 7 70.6 298 
 PAM  SZ EP     D  4 0 30.08                             151    0.2510 77.0  40 
 PAM  SN ES        4 0 46.77                             151   -0.2310 77.0  40 
 PAM  SN I         4 0 48.07        10.2 0.38            149           77.0  40 
 RUS  HZ EP   1    4 0 31.30                             143   -0.15 7  101 176 
 RUS  HN ES   1    4 0 49.65                             143   -0.24 7  101 176 
 RUS  HN I         4 0 51.58         6.3 0.52            140            101 176 
 PTB  HZ EP   1    4 0 34.10                             132   -0.53 7  148 259 
 PTB  HN ES        4 0 55.33                             132   -0.22 9  148 259 
 PTB  HN I         4 0 59.97         7.4 0.38            127            148 259 
 ZAR  HN ES   2    4 1  5.25                             122   -0.03 4  204 292 
 ZAR  HN I         4 1 12.64         7.4 0.14            118            204 292 
 SML  HN ES   4    4 1 11.17                             117   -1.52 0  243 335 
 SML  HN I         4 1 16.26        10.5 0.10            114            243 335 
 CHI  HZ EP   1    4 0 45.61                             117    0.12 6  249 195 
 CHI  HN ES   1    4 1 15.48                             117    0.61 6  249 195 
 CHI  HN I         4 1 20.74         2.8 0.52            113            249 195 
                                                                                
