 2015  410 0850 34.0 L   6.796 -73.144144.5  RSN  5 0.5 1.6LRSN                1
 GAP=237        1.15       6.8     9.0 10.2  0.2508E+02  0.2748E+02 -0.1014E+02E
 Epicentro: LOS SANTOS - SANTANDER                                             3
 ACTION:UPD 15-06-03 16:53 OP:cam  STATUS:               ID:20150410085034 L   I
 OLDACT:REG 15-04-10 13:03 OP:akv  STATUS:               ID:20150410084750     3
 2015-04-10-0847-50M.COL___263                                                 6
 STAT SP IPHASW D HRMM SECON CODA AMPLIT PERI AZIMU VELO AIN AR TRES W  DIS CAZ7
 BAR2 EZ EP        850 53.63                             171    0.2010 22.9 191 
 BAR2 EZ ES        851  7.87                             171   -0.7410 22.9 191 
 BAR2 EZ I         851 10.52         8.5 0.24            166           22.9 191 
 BRR  HZ EP        850 54.94                             152   -0.0510 71.6 299 
 BRR  HN ES        851 12.20                             152    0.8010 71.6 299 
 BRR  HZ I         851 15.87         5.5 0.12            150           71.6 299 
 RUS  HN ES        851 16.06                             144    0.1110  100 176 
 SPBC HN ES        851 24.60                             129    0.12 9  163 219 
 SPBC HZ I         851 30.20         4.6 0.10            129            163 219 
 ZAR  HZ EP        851  6.36                             122    0.00 9  204 292 
 ZAR  HN ES        851 31.05                             122   -0.58 9  204 292 
 ZAR  HZ I         851 33.44         3.6 0.30            123            204 292 
                                                                                
