 2014  710 0839 21.4 L   6.761 -73.349124.4  RSN  4 0.4 1.3LRSN                1
 GAP=199        1.11       9.4     7.1  9.9  0.4243E+02  0.1237E+02 -0.1899E+02E
 Epicentro: ZAPATOCA - SANTANDER                                               3
 ACTION:UPD 15-03-16 20:42 OP:nd   STATUS:               ID:20140710083921 L   I
 OLDACT:REG 14-07-10 12:23 OP:stll STATUS:               ID:20140710083807     3
 2014-07-10-0838-07M.COL___256                                                 6
 STAT SP IPHASW D HRMM SECON CODA AMPLIT PERI AZIMU VELO AIN AR TRES W  DIS CAZ7
 BAR2 SZ EP        839 38.31                             167   -0.1810 26.2 135 
 BAR2 SZ ES        839 51.70                             167   -0.1610 26.2 135 
 BAR2 SZ I         839 52.70        15.6 0.34            169           26.2 135 
 RUS  HZ EP        839 43.77                             139    0.7110  100 163 
 RUS  HN ES        839 59.98                             139   -0.0010  100 163 
 RUS  HZ I         840  1.83         1.1 0.54            140            100 163 
 PTB  HZ EP        839 43.74                             132   -0.7610  125 259 
 PTB  HE ES        840  2.57                             132    0.0210  125 259 
 PTB  HZ I         840  5.99         2.9 0.20            131            125 259 
 ZAR  HZ EP        839 50.30                             120   -0.19 9  185 296 
 ZAR  HN ES        840 13.82                             120    0.61 9  185 296 
 ZAR  HZ I         840 16.85         2.4 0.28            121            185 296 
                                                                                
