 2013  210 0618 27.6 L   6.783 -73.148139.5  RSN  8 0.5 2.3LRSN                1
 GAP=137        1.07       4.2     5.6  8.9 -0.2521E+00  0.1718E+02 -0.1744E+01E
 Epicentro: LOS SANTOS - SANTANDER                                             3
 ACTION:UPD 13-03-12 09:31 OP:ep   STATUS:               ID:20130210061827 L   I
 2013-02-10-0617-51M.COL___168                                                 6
 STAT SP IPHASW D HRMM SECON CODA AMPLIT PERI AZIMU VELO AIN AR TRES W  DIS CAZ7
 BAR2 SZ EP        618 46.61                             171    0.1410 21.4 190 
 BAR2 SZ ES   1    619  0.44                             171   -0.73 7 21.4 190 
 BAR2 SZ I         619  2.34        30.1 0.30            172           21.4 190 
 BRR  HZ EP        618 48.61                             151    0.4610 71.9 300 
 BRR  HN ES   4    619  5.72                             151    1.57 0 71.9 300 
 BRR  HN I         619  9.74        65.8 0.22            150           71.9 300 
 PAM  SZ EP   1    618 49.75                             149    0.46 7 79.0  39 
 PAM  SN ES        619  6.27                             149    0.0910 79.0  39 
 PAM  SN I         619  7.89        18.8 0.18            151           79.0  39 
 RUS  HZ EP   1    618 50.60                             143   -0.04 7 98.7 176 
 RUS  HE ES   1    619  9.02                             143    0.44 7 98.7 176 
 PTB  HZ EP   1    618 53.77                             131   -0.28 7  147 260 
 PTB  HN ES        619 14.45                             131   -0.19 9  147 260 
 PTB  HN I         619 16.79        35.8 0.24            131            147 260 
 ZAR  HN ES   1    619 25.91                             121    1.14 6  205 293 
 ZAR  HN I         619 26.80        18.1 0.12            122            205 293 
 SML  HZ EP   1    619  3.32                             116   -0.77 6  245 336 
 SML  HN ES        619 31.80                             116   -0.73 8  245 336 
 SML  HN I         619 38.60        23.5 0.10            117            245 336 
 CHI  HZ EP   1    619  5.07                             116    0.28 6  247 195 
 CHI  HN ES   1    619 32.93                             116   -0.84 6  247 195 
 CHI  HN I         619 37.22         7.1 0.34            118            247 195 
                                                                                
