 2017  110 0511 29.0 L   6.478 -73.119140.0  RSN  6 0.4 1.2LRSN                1
 GAP= 85        0.83       4.3     4.2  6.8  0.3357E+01 -0.7956E+01 -0.2056E+01E
 Epicentro: VALLE DE SAN JOSE - SANTANDER                                      3
 ACTION:UPD 17-05-22 15:57 OP:jn   STATUS:               ID:20170110051129 L   I
 OLDACT:UP  17-01-10 15:00 OP:and  STATUS:               ID:20170110050744     3
 OLDACT:UP  17-01-10 15:00 OP:and  STATUS:               ID:20170110050744     3
 OLDACT:REG 17-01-10 13:12 OP:and  STATUS:               ID:20170110050744     3
 2017-01-10-0508-00M.COL___354                                                 6
 STAT SP IPHASW D HRMM SECON CODA AMPLIT PERI AZIMU VELO AIN AR TRES W  DIS CAZ7
 RUS  HZ EP        511 49.65                             155   -0.2910 64.9 176 
 RUS  HN ES        512  6.01                             155   -0.2310 64.9 176 
 RUS  HZ I         512  7.93         6.4 0.28            157           64.9 176 
 BRR  HZ EP        511 50.81                             144   -0.3610 95.5 317 
 BRR  HN ES        512  8.90                             144    0.4710 95.5 317 
 BRR  HZ I         512 10.78         4.5 0.14            144           95.5 317 
 PAM  EZ IP     C  511 52.61                             141   -0.0310  106  26 
 PAM  EN ES        512 10.85                             141   -0.1810  106  26 
 PAM  EZ I         512 13.99         2.0 0.32            143            106  26 
 TAM  HZ EP        511 55.58                             131    0.06 9  147  92 
 TAM  HN ES        512 16.74                             131    0.58 9  147  92 
 PTB  HZ EP   9    511 53.45                             131   -2.13 0  148 273 
 PTB  HN ES        512 13.92                             134   -0.22 9  148 273 
 PTB  HZ I         512 19.07         1.2 0.16            132            148 273 
 NOR  HZ EP   3    512  3.99                             120    1.28 2  219 243 
                                                                                
