 2013  510 0402 45.9 L   6.776 -73.141143.1  RSN  8 0.4 1.8LRSN                1
 GAP=138        0.84       4.5     4.0  6.4 -0.4172E+00  0.5348E+01  0.5114E+01E
 Epicentro: LOS SANTOS - SANTANDER                                             3
 ACTION:UPD 13-06-20 09:49 OP:ep   STATUS:               ID:20130510040245 L   I
 2013-05-10-0400-00M.COL___256                                                 6
 STAT SP IPHASW D HRMM SECON CODA AMPLIT PERI AZIMU VELO AIN AR TRES W  DIS CAZ7
 BAR2 SZ EP        4 3  5.16                             171   -0.0110 20.9 193 
 BAR2 SZ ES   1    4 3 20.15                             171   -0.04 7 20.9 193 
 BAR2 SZ I         4 3 21.14        21.5 0.22            169           20.9 193 
 GIR2 SZ EP        4 3  5.26                             166   -0.0810 33.9 350 
 GIR2 SZ ES   1    4 3 19.97                             166   -0.52 7 33.9 350 
 BRR  HZ EP   1    4 3  7.02                             151    0.15 7 72.9 300 
 BRR  HN ES   1    4 3 23.96                             151    0.75 7 72.9 300 
 BRR  HZ I         4 3 24.86        10.3 0.12            148           72.9 300 
 PAM  SZ EP        4 3  8.17                             150    0.2210 79.1  38 
 PAM  SN ES   1    4 3 24.78                             150   -0.35 7 79.1  38 
 PAM  SZ I         4 3 27.13        14.0 0.50            153           79.1  38 
 RUS  HZ EP        4 3  9.18                             144   -0.0310 97.9 176 
 RUS  HN ES   1    4 3 27.91                             144    0.53 7 97.9 176 
 RUS  HZ I         4 3 28.69         9.0 0.28            146           97.9 176 
 PTB  HZ EP   1    4 3 12.16                             131   -0.50 7  148 260 
 PTB  HN ES   1    4 3 32.63                             131   -0.90 7  148 260 
 PTB  HZ I         4 3 39.14         4.8 0.34            130            148 260 
 ZAR  HN ES        4 3 44.02                             122    0.40 8  206 293 
 ZAR  HZ I         4 3 51.94         4.8 0.36            121            206 293 
 NOR  HZ EP   1    4 3 21.28                             118   -0.09 6  234 235 
 NOR  HN ES   1    4 3 49.11                             118    0.09 6  234 235 
 NOR  HZ I         4 3 54.07         4.2 0.18            118            234 235 
                                                                                
