 2010 1010 0550 14.2 L   6.759 -73.122147.3  RSN 10 0.4 2.4LRSN                1
 GAP=180        0.67       3.6     5.4  5.3 -0.1002E+02 -0.3044E+01  0.5059E+01E
 Epicentro: LOS SANTOS - SANTANDER                                             3
 ACTION:UP  11-02-18 11:08 OP:tino STATUS:               ID:20101010055014 L   I
 2010-10-10-0548-33S.COL___121                                                 6
 STAT SP IPHASW D HRMM SECON CODA AMPLIT PERI AZIMU VELO SNR AR TRES W  DIS CAZ7
 BAR2 SZ IP        550 34.00                             172     0.010   20 200 
 BAR2 SZ ES   1    550 49.25                             172    -0.1 7   20 200 
 BAR2 SZ I         550 50.87        59.3 0.26                            20 200 
 BRR  HZ IP     C  550 36.03                             151     0.210   76 301 
 BRR  HZ I         550 36.36        82.8 0.08                            76 301 
 BRR  HE ES        550 52.89                             151     0.310   76 301 
 GUE  SZ EP   2    550 39.37                             139     0.0 5  120  10 
 GRA  SZ IP        550 40.14                             136     0.210  129  16 
 GRA  SZ ES   1    550 59.81                             136    -0.1 7  129  16 
 GRA  SZ I         551  2.30        21.1 0.35                           129  16 
 OCA  SZ EP   1    550 42.63                             129    -0.5 7  165 352 
 OCA  SZ ES   1    551  5.16                             129    -0.5 7  165 352 
 OCA  SZ I         551 14.93        19.6 0.11                           165 352 
 NOR  SZ EP   2    550 49.57                             119    -0.4 4  234 236 
 NOR  SE ES   2    551 17.96                             119     0.0 4  234 236 
 CHI  HZ EP   2    550 52.01                             118     0.4 4  245 196 
 CHI  HN ES   2    551 19.89                             118    -0.9 4  245 196 
 CHI  HZ I         551 24.35         6.8 0.35                           245 196 
 HEL  HZ EP   2    550 54.97                             115     0.3 4  274 257 
 HEL  HE ES   2    551 25.58                             115    -0.6 4  274 257 
 HEL  HZ I         551 33.36        10.9 0.23                           274 257 
 RREF HZ EP   2    551  0.69                             111     0.4 3  321 230 
 RREF HN ES   2    551 36.11                             111    -0.2 3  321 230 
 RREF HZ I         551 43.61        11.9 0.21                           321 230 
 PRA  HZ EP   1    551  7.99                             107     0.5 4  389 210 
 PRA  HN ES   2    551 48.25                             107    -0.8 3  389 210 
 PRA  HZ I         551 52.76        12.9 0.34                           389 210 
                                                                                
