 2016  310 0616  6.9 L   6.824 -73.183136.1  RSN  5 0.2 1.1LRSN                1
 GAP=146        0.67       3.6     3.7  5.2 -0.5934E+01  0.6026E+01 -0.9918E+00E
 Epicentro: ZAPATOCA - SANTANDER                                               3
 ACTION:UPD 16-05-13 21:22 OP:cam  STATUS:               ID:20160310061606 L   I
 OLDACT:REG 16-03-10 13:49 OP:cara STATUS:               ID:20160310060749     3
 2016-03-10-0607-49M.COL___286                                                 6
 STAT SP IPHASW D HRMM SECON CODA AMPLIT PERI AZIMU VELO AIN AR TRES W  DIS CAZ7
 BAR2 EZ EP        616 25.27                             169   -0.1310 25.6 180 
 BAR2 EZ ES        616 39.38                             169   -0.4710 25.6 180 
 BAR2 EZ I         616 43.22         3.4 0.26            168           25.6 180 
 PAM  EZ EP        616 28.35                             149    0.2310 78.1  43 
 PAM  EZ I         616 28.43         2.6 0.22            154           78.1  43 
 PAM  EN ES        616 44.82                             149    0.1310 78.1  43 
 RUS  HZ EP        616 29.93                             141    0.0110  104 174 
 RUS  HE ES        616 48.14                             141    0.2410  104 174 
 RUS  HZ I         616 48.96         1.3 0.22            142            104 174 
 PTB  HZ EP        616 32.44                             130   -0.31 9  144 257 
 PTB  HN ES        616 53.25                             130    0.31 9  144 257 
 PTB  HZ I         616 55.66         1.4 0.18            131            144 257 
 SPBC HZ EP        616 34.46                             127   -0.15 9  163 217 
 SPBC HN ES        616 56.38                             127    0.14 9  163 217 
 SPBC HZ I         617  2.67         2.6 0.28            128            163 217 
                                                                                
