 2013  210 0751 56.7 L   6.743 -73.208141.7  RSN  8 0.4 1.7LRSN                1
 GAP=130        0.98       3.9     5.6 10.2 -0.2680E+01  0.2511E+02  0.2094E+01E
 Epicentro: VILLANUEVA - SANTANDER                                             3
 ACTION:UPD 13-03-12 09:31 OP:ep   STATUS:               ID:20130210075156 L   I
 2013-02-10-0750-00M.COL___241                                                 6
 STAT SP IPHASW D HRMM SECON CODA AMPLIT PERI AZIMU VELO AIN AR TRES W  DIS CAZ7
 BAR2 SZ EP   1    752 15.89                             173    0.19 7 16.9 171 
 BAR2 SZ I         752 32.02        10.4 0.26            173           16.9 171 
 BRR  HZ EP        752 18.05                             152    0.8010 68.7 306 
 BRR  HN ES   4    752 35.40                             152    2.11 0 68.7 306 
 BRR  HN I         752 35.93        15.7 0.16            149           68.7 306 
 PAM  SZ EP   1    752 19.06                             147    0.01 7 86.6  40 
 PAM  SN ES        752 36.08                             147   -0.4110 86.6  40 
 PAM  SN I         752 37.60         5.2 0.50            148           86.6  40 
 RUS  HZ EP        752 19.71                             144    0.0810 95.1 172 
 RUS  HN ES   1    752 38.00                             144    0.47 7 95.1 172 
 RUS  HN I         752 39.69        10.8 0.24            145           95.1 172 
 PTB  HZ EP        752 22.18                             133   -0.42 9  140 261 
 PTB  HN ES   1    752 42.77                             133   -0.05 7  140 261 
 PTB  HN I         752 45.14         7.2 0.40            130            140 261 
 CHI  HZ EP   1    752 33.77                             117    0.47 6  241 194 
 CHI  HN ES        753  1.07                             117   -0.80 8  241 194 
 CHI  HN I         753  5.04         3.4 0.38            116            241 194 
 SML  HZ EP   1    752 33.32                             116   -0.09 6  247 337 
 SML  HN ES   1    753  1.66                             116   -0.39 6  247 337 
 SML  HN I         753  9.51         7.5 0.10            115            247 337 
 HEL  HN ES   1    753  6.49                             115    0.21 6  264 257 
 HEL  HN I         753 18.18         2.1 0.54            113            264 257 
                                                                                
