 2013  110 0721  1.3 L   6.742 -73.163148.7  RSN  6 0.4 2.0LRSN                1
 GAP=181        1.01       4.7     6.2  9.5 -0.4204E+00  0.2004E+02 -0.6712E+01E
 Epicentro: VILLANUEVA - SANTANDER                                             3
 ACTION:UPD 13-02-15 09:13 OP:ep   STATUS:               ID:20130110072101 L   I
 2013-01-10-0720-00M.COL___242                                                 6
 STAT SP IPHASW D HRMM SECON CODA AMPLIT PERI AZIMU VELO AIN AR TRES W  DIS CAZ7
 BRR  HZ EP        721 23.25                             152    0.3610 72.9 304 
 BRR  HN ES        721 40.04                             152    0.3410 72.9 304 
 BRR  HN I         721 40.36        28.3 0.20            148           72.9 304 
 RUS  HN ES        721 43.41                             146    0.0610 94.4 175 
 PTB  HZ EP        721 27.79                             133   -0.48 9  145 261 
 PTB  HN ES        721 48.74                             133   -0.54 9  145 261 
 PTB  HN I         721 52.45        13.8 0.20            131            145 261 
 OCA  HN ES        721 52.58                             129   -0.57 9  166 354 
 OCA  HN I         722  1.39        16.3 0.28            126            166 354 
 ZAR  HZ EP        721 34.49                             123    0.45 9  205 294 
 ZAR  HN ES        722  0.01                             123    0.45 9  205 294 
 ZAR  HN I         722  4.80        12.7 0.28            120            205 294 
 HEL  HN ES        722 12.42                             116   -0.10 8  269 257 
 HEL  HN I         722 20.40         2.5 0.28            114            269 257 
                                                                                
