 2012  410 0324 13.7 L   6.789 -73.069144.7  RSN  4 0.1 1.4LRSN                1
 GAP=147        0.40       2.9     4.1  5.1  0.2215E+00  0.8781E+00  0.1554E+01E
 Epicentro: LOS SANTOS - SANTANDER                                             3
 ACTION:UPD 12-07-05 11:52 OP:tino STATUS:               ID:20120410032413 L   I
 2012-04-10-0320-00M.COL___199                                                 6
 STAT SP IPHASW D HRMM SECON CODA AMPLIT PERI AZIMU VELO AIN AR TRES W  DIS CAZ7
 BAR2 SZ EP   2    324 33.07                             170    -0.2 5   25 210 
 BAR2 SZ I         324 34.85         6.0 0.43                            25 210 
 PAM  SZ EP   1    324 35.68                             152     0.1 7   73  34 
 PAM  SE ES   1    324 52.63                             152     0.0 7   73  34 
 BRR  HZ EP        324 35.13                             150    -0.110   79 296 
 BRR  HN ES   1    324 52.17                             150     0.1 7   79 296 
 BRR  HZ I         324 55.09         5.0 0.34                            79 296 
 RUS  HZ EP   1    324 37.51                             144     0.2 7   99 181 
 RUS  HE ES   1    324 55.56                             144    -0.1 7   99 181 
                                                                                
