 2011  510 0738 23.9 L   6.797 -73.143138.8  RSN  8 0.2 1.5LRSN                1
 GAP=137        0.59       3.4     9.1  7.5 -0.9361E+01  0.1753E+02 -0.7274E+01E
 Epicentro: LOS SANTOS - SANTANDER                                             3
 ACTION:UP  11-06-29 08:52 OP:tino STATUS:               ID:20110510073823 L   I
 2011-05-10-0720-00M.COL___140                                                 6
 STAT SP IPHASW D HRMM SECON CODA AMPLIT PERI AZIMU VELO SNR AR TRES W  DIS CAZ7
 BTL  SZ EP        738 42.92                             171     0.310   19 314 
 BAR2 SZ EP        738 42.54                             170    -0.110   23 191 
 BAR2 SZ ES   2    738 56.79                             170    -0.5 5   23 191 
 BAR2 SZ I         738 58.44         8.0 0.37                            23 191 
 GIR2 SZ EP   3    738 42.77                             166     0.0 2   32 350 
 BRR  HZ EP        738 44.29                             151     0.010   72 299 
 BRR  HZ I         738 44.57         8.4 0.19                            72 299 
 PAM  SN ES   3    739  2.25                             150     0.1 2   77  39 
 RUS  HZ EP        738 46.92                             142     0.010  100 176 
 RUS  HN ES   2    739  5.24                             142     0.3 5  100 176 
 RUS  HZ I         739  6.93         3.1 0.28                           100 176 
 GRA  SZ EP        738 48.24                             135    -0.310  126  17 
 GRA  SZ ES   1    739  7.91                             135     0.1 7  126  17 
 GRA  SZ I         739  9.12         5.5 0.16                           126  17 
 OCA  SZ EP        738 51.82                             128     0.1 9  161 353 
 OCA  SZ I         739 18.18         5.1 0.29                           161 353 
                                                                                
