 2012  810 0347 37.1 L   6.837 -73.021  1.3  RSN  5 0.4 1.0LRSN                1
 GAP=252        0.71       4.3     7.3  8.1  0.2510E+02  0.4115E+02  0.1862E+02E
 Epicentro: CEPITA - SANTANDER                                                 3
 ACTION:UPD 12-09-10 11:55 OP:ep   STATUS:               ID:20120810034737 L   I
 2012-08-10-0340-00M.COL___218                                                 6
 STAT SP IPHASW D HRMM SECON CODA AMPLIT PERI AZIMU VELO AIN AR TRES W  DIS CAZ7
 BAR2 SZ EP   1    347 43.18                              47   -0.07 7 32.4 213 
 BAR2 SZ ES   1    347 48.22                              47    0.18 7 32.4 213 
 BAR2 SZ I         347 48.90        21.8 0.18                          32.4 213 
 BRR  HZ EP   1    347 50.25                              47   -0.27 7 82.0 291 
 BRR  HZ I         347 53.57         4.8 0.11                          82.0 291 
 BRR  HN ES   1    348  0.64                              47   -0.34 7 82.0 291 
 RUS  HZ EP   1    347 54.95                              47    0.50 7  105 184 
 RUS  HN ES   1    348  7.50                              47   -0.48 7  105 184 
 RUS  HZ I         348 11.01         3.2 0.31                           105 184 
 PTB  HN ES   1    348 22.72                              47    0.11 7  162 258 
 ZAR  HN ES   1    348 35.81                              37    0.57 6  216 290 
                                                                                
