 2017  410 0111 19.4 L   6.772 -73.145149.5  RSN 15 0.6 1.9LRSN                1
 GAP=113        1.30       4.0     4.6  6.5  0.3256E+00  0.3673E+01  0.6614E+01E
 Epicentro: LOS SANTOS - SANTANDER                                             3
 ACTION:UPD 17-05-30 21:10 OP:jn   STATUS:               ID:20170410011119 L   I
 OLDACT:UP  17-04-10 14:44 OP:edw  STATUS:               ID:20170410010743d    3
 OLDACT:DUP 17-04-10 14:37 OP:edw  STATUS:               ID:20170410010743d    3
 OLDACT:UP  17-04-10 14:37 OP:edw  STATUS:               ID:20170410010742     3
 OLDACT:UP  17-04-10 14:35 OP:edw  STATUS:               ID:20170410010742     3
 OLDACT:REG 17-04-10 12:36 OP:edw  STATUS:               ID:20170410010742     3
 2017-04-10-0108-00M.COL___368                                                 6
 STAT SP IPHASW D HRMM SECON CODA AMPLIT PERI AZIMU VELO AIN AR TRES W  DIS CAZ7
 BAR2 EZ EP        111 39.62                             172    0.1910 20.3 192 
 BAR2 EZ ES        111 55.23                             172    0.1810 20.3 192 
 BAR2 EZ I         111 55.67        23.6 0.36            169           20.3 192 
 BRR  HZ IP     C  111 41.47                             152    0.4210 72.8 301 
 BRR  HN ES        111 58.39                             152    0.4610 72.8 301 
 BRR  HZ I         112  2.66        16.2 0.14            150           72.8 301 
 PAM  EZ EP        111 42.46                             150    0.3010 79.8  38 
 PAM  EN ES        111 59.79                             150   -0.1210 79.8  38 
 PAM  EZ I         112  1.81        29.7 0.52            154           79.8  38 
 RUS  HZ EP        111 43.63                             145    0.3210 97.5 176 
 RUS  HN ES        112  0.77                             145   -1.1810 97.5 176 
 RUS  HZ I         112  3.52        14.4 0.30            145           97.5 176 
 PTB  HZ EP   9    111 46.25                             133   -0.39 0  147 260 
 PTB  HN ES        112  7.22                             133   -0.27 9  147 260 
 PTB  HZ I         112  9.31         6.3 0.32            131            147 260 
 SPBC HZ EP   4    111 44.56                             130   -3.41 0  161 220 
 SPBC HN ES        112 10.64                             130    0.39 9  161 220 
 SPBC HZ I         112 15.24        13.3 0.30            129            161 220 
 YPLC HZ EP        111 49.98                             128    0.77 9  174 151 
 YPLC HN ES        112 12.09                             128   -0.36 9  174 151 
 YPLC HZ I         112 14.98        10.6 0.26            129            174 151 
 ZAR  HZ EP   4    111 52.99                             123    0.76 0  205 293 
 ZAR  HN ES        112 16.82                             123   -1.01 8  205 293 
 ZAR  HZ I         112 24.33         7.7 0.12            122            205 293 
 NOR  HZ EP        111 55.19                             119    0.02 8  233 235 
 NOR  HN ES   4    112 24.37                             119    1.31 0  233 235 
 NOR  HZ I         112 26.12         3.7 0.22            119            233 235 
 CHI  HZ EP   4    111 57.88                             118    0.89 0  246 195 
 CHI  HN ES        112 26.70                             118    0.39 8  246 195 
 CHI  HZ I         112 30.63         5.4 0.44            118            246 195 
 ROSC BZ EP        111 56.67                             118   -0.78 8  250 211 
 ROSC BN ES        112 26.74                             118   -0.38 8  250 211 
 ROSC BZ I         112 31.70         9.3 0.35            118            250 211 
 URE  HN ES   4    112 31.00                             114   -2.08 0  285 292 
 PTGC HZ EP        112  2.82                             112   -0.28 7  306 158 
 PTGC HN ES   4    112 36.03                             112   -1.15 0  306 158 
 LL6C HN EP   4    111 45.50                             111   -20.1 0  328 358 
 LL6C HN ES   4    112 18.46                             111   -23.2 0  328 358 
 CBOC HZ EP   4    112  7.33                             110    0.95 0  333 253 
 CBOC HN ES        112 43.84                             110    0.83 7  333 253 
 CBOC HZ I         112 52.91         0.9 0.36            110            333 253 
 PRA  HZ EP        112 13.12                             107    0.38 6  389 210 
 PRA  HN ES        112 54.34                             107   -0.01 6  389 210 
 PRA  HZ I         113  1.67         3.7 0.28            107            389 210 
 SJC  HZ EP        112 14.17                             106   -1.23 6  412 327 
 SJC  HN ES   4    112 55.19                             106   -3.89 0  412 327 
 SJC  HZ I         112 59.05         2.2 0.60            107            412 327 
                                                                                
