 2011  310 0230 43.0 L   6.789 -73.400139.5  RSN  4 0.1 1.4LRSN                1
 GAP=203        0.36       1.9     9.6  5.5 -0.1931E+01  0.2358E+02 -0.2985E+01E
 Epicentro: SAN VICENTE DE CHUCURI - SANTANDER                                 3
 ACTION:UP  11-06-16 14:32 OP:jfem STATUS:               ID:20110310023043 L   I
 2011-03-10-0229-04S.COL___135                                                 6
 STAT SP IPHASW D HRMM SECON CODA AMPLIT PERI AZIMU VELO SNR AR TRES W  DIS CAZ7
 BAR2 SZ EP   1    231  2.26                             166     0.2 7   32 132 
 BAR2 SZ I         231  2.65         8.0 0.51                            32 132 
 BAR2 SZ ES   2    231 16.89                             166    -0.1 5   32 132 
 RUS  HZ EP   1    231  6.27                             141    -0.2 7  105 161 
 RUS  HN ES   1    231 24.90                             141     0.1 7  105 161 
 RUS  HZ I         231 26.45         2.0 0.44                           105 161 
 GRA  SZ EP   1    231  8.84                             133     0.1 7  138  28 
 GRA  SZ ES   1    231 28.81                             133     0.0 7  138  28 
 GRA  SZ I         231 29.50         3.0 0.29                           138  28 
 OCA  SZ EP   1    231 10.89                             128     0.0 7  161   3 
 OCA  SZ ES   1    231 32.57                             128     0.0 7  161   3 
 OCA  SZ I         231 37.77         3.7 0.52                           161   3 
                                                                                
