 2011  310 0354 15.1 L   6.868 -73.489110.0  RSN  4 0.2 1.6LRSN                1
 GAP=210        0.56       3.0    14.2 10.6 -0.1208E+02  0.8852E+02 -0.1334E+02E
 Epicentro: SAN VICENTE DE CHUCURI - SANTANDER                                 3
 ACTION:UP  11-06-16 14:32 OP:jfem STATUS:               ID:20110310035415 L   I
 2011-03-10-0351-37S.COL___135                                                 6
 STAT SP IPHASW D HRMM SECON CODA AMPLIT PERI AZIMU VELO SNR AR TRES W  DIS CAZ7
 BAR2 SZ EP   1    354 31.51                             156     0.2 7   46 132 
 BAR2 SZ ES   2    354 43.85                             156    -0.1 5   46 132 
 BAR2 SZ I         354 45.84        40.0 0.24                            46 132 
 RUS  HZ EP   1    354 36.59                             130    -0.4 7  117 157 
 RUS  HE ES   1    354 54.21                             130     0.1 7  117 157 
 RUS  HZ I         354 56.04         1.9 0.19                           117 157 
 GRA  SZ EP   1    354 38.69                             125     0.3 7  135  34 
 GRA  SZ ES   1    354 56.31                             125    -0.2 7  135  34 
 GRA  SZ I         355  5.69         6.0 0.37                           135  34 
 OCA  SZ EP   1    354 40.04                             121    -0.1 7  153   7 
 OCA  SZ ES   2    354 59.58                             121     0.0 5  153   7 
 OCA  SZ I         355  2.61        11.9 0.30                           153   7 
                                                                                
