 2017 1110 0830 50.0 L   6.824 -73.131150.1  RSN 21 0.6 2.1LRSN                1
 GAP= 66        1.33       4.2     3.5  7.4  0.1073E+01  0.4511E+01  0.1180E+02E
 Epicentro: LOS SANTOS - SANTANDER                                             3
 ACTION:UPD 17-12-12 19:54 OP:rebc STATUS:               ID:20171110083050 L   I
 OLDACT:UP  17-11-10 17:31 OP:dnl  STATUS:               ID:20171110082737     3
 OLDACT:REG 17-11-10 15:16 OP:dnl  STATUS:               ID:20171110082737     3
 2017-11-10-0828-00M.COL___405                                                 6
 STAT SP IPHASW D HRMM SECON CODA AMPLIT PERI AZIMU VELO AIN AR TRES W  DIS CAZ7
 BAR2 EZ IP     C  831  9.86                             170   -0.3110 26.2 193 
 BAR2 EZ I         831 27.65        43.2 0.30            170           26.2 193 
 BRR  HZ IP     C  831 11.66                             153    0.0610 71.5 296 
 BRR  HE ES        831 28.54                             153    0.0710 71.5 296 
 BRR  HZ I         831 32.66        29.0 0.36            149           71.5 296 
 PAM  EZ EP        831 12.70                             152    0.2410 74.3  40 
 PAM  EN ES        831 29.94                             152   -0.0710 74.3  40 
 PAM  EZ I         831 32.77        15.3 0.54            148           74.3  40 
 PTB  HZ EP        831 16.67                             132   -0.81 9  150 258 
 PTB  HE ES        831 38.48                             132   -0.46 9  150 258 
 PTB  HZ I         831 44.85        12.4 0.38            128            150 258 
 TAM  HZ IP     D  831 18.30                             132    0.39 9  154 106 
 TAM  HZ I         831 39.25        11.5 0.32            128            154 106 
 TAM  HE ES        831 40.25                             132    0.55 9  154 106 
 SPBC HZ EP        831 18.85                             129   -0.24 9  166 219 
 SPBC HE ES        831 41.53                             129   -0.27 9  166 219 
 SPBC HZ I         831 47.97        24.2 0.14            126            166 219 
 YPLC HZ IP     C  831 20.34                             127    0.12 9  178 152 
 YPLC HN ES        831 44.35                             127    0.52 9  178 152 
 YPLC HZ I         831 45.26        22.0 0.26            124            178 152 
 ZAR  HZ EP   2    831 22.82                             123    0.07 4  205 291 
 ZAR  HN ES        831 48.22                             123   -0.11 9  205 291 
 ZAR  HZ I         831 52.62        10.5 0.26            119            205 291 
 TABC EZ EP        831 27.48                             120    1.18 8  233 211 
 TABC EZ I         832  1.41        18.0 0.34            116            233 211 
 NOR  HZ EP        831 26.45                             119    0.19 8  238 234 
 NOR  HE ES        831 54.82                             119    0.26 8  238 234 
 NOR  HZ I         831 59.07         9.0 0.32            115            238 234 
 CHI  HZ EP        831 28.22                             118   -0.01 8  252 195 
 CHI  HE ES        831 58.21                             118    0.14 8  252 195 
 CHI  HZ I         832  3.67         5.5 0.32            114            252 195 
 ROSC BZ EP   4    831 30.04                             117    1.38 0  256 211 
 ROSC BE ES   4    832  2.11                             117    3.27 0  256 211 
 ROSC BZ I         832  4.38        16.0 0.40            114            256 211 
 URE  HZ EP        831 30.23                             114   -1.08 7  284 291 
 URE  HE ES   4    832  1.48                             114   -2.08 0  284 291 
 URE  HZ I         832 13.52         7.1 0.38            110            284 291 
 DRL03HZ EP   2    831 32.00                             114    0.48 4  287 352 
 DRL03HE ES   4    832  5.17                             114    1.24 0  287 352 
 GUY2CHZ EP        831 35.10                             113    1.00 7  304 235 
 GUY2CHN ES   4    832  9.84                             113    1.32 0  304 235 
 GUY2CHZ I         832 20.18         7.5 0.44                           304 235 
 PTGC HZ EP        831 33.09                             112   -1.14 7  311 159 
 PTGC HN ES        832  6.58                             112   -2.17 7  311 159 
 PTGC HZ I         832  7.78         7.5 0.24            109            311 159 
 LL6C HZ EP   2    831 35.32                             111   -0.24 3  322 357 
 LL6C HN ES   4    832  9.58                             111   -1.55 0  322 357 
 LL6C HZ I         832 16.62         2.5 0.40            108            322 357 
 CBOC HZ EP        831 37.63                             110    0.29 7  336 252 
 CBOC HN ES        832 15.18                             110    0.90 7  336 252 
 CBOC HZ I         832 27.45         2.7 0.32            107            336 252 
 PRA  HZ EP        831 43.87                             107   -0.13 6  395 210 
 PRA  HN ES        832 25.92                             107   -0.23 6  395 210 
 PRA  HZ I         832 32.16         6.7 0.44            104            395 210 
 ORTC HZ EP        831 44.74                             107    0.34 6  399 216 
 ORTC HN ES        832 27.71                             107    0.86 6  399 216 
 ORTC HZ I         832 34.88         2.1 0.36            104            399 216 
 SJC  HZ EP   4    831 44.15                             106   -1.37 0  408 327 
 SJC  HN ES   4    832 23.31                             106   -5.54 0  408 327 
 SJC  HZ I         832 39.90         1.7 0.30            103            408 327 
                                                                                
