 2017  310 0917 17.2 L   6.727 -73.379122.0  RSN  5 0.5 1.4LRSN                1
 GAP=166        1.03       8.5     6.4  9.8  0.2584E+02  0.2628E+02  0.1400E+02E
 Epicentro: GALAN - SANTANDER                                                  3
 ACTION:UPD 17-05-25 18:38 OP:jn   STATUS:               ID:20170310091717 L   I
 OLDACT:UP  17-04-26 21:26 OP:nlst STATUS:               ID:20170310091717 L   3
 OLDACT:REG 17-03-10 12:38 OP:ar   STATUS:               ID:20170310090748     3
 2017-03-10-0908-00M.COL___391                                                 6
 STAT SP IPHASW D HRMM SECON CODA AMPLIT PERI AZIMU VELO AIN AR TRES W  DIS CAZ7
 BAR2 EZ EP        917 34.13                             167    0.0610 26.4 124 
 BAR2 EZ ES        917 47.07                             167   -0.1510 26.4 124 
 BAR2 EZ I         917 48.45        13.0 0.38            167           26.4 124 
 BRR  HZ EP   1    917 34.58                             154   -0.35 7 55.9 319 
 BRR  HE ES        917 48.58                             154   -0.1710 55.9 319 
 BRR  HZ I         917 48.69         4.0 0.40            155           55.9 319 
 RUS  HZ EP   3    917 38.82                             139    0.33 2 97.9 160 
 RUS  HE ES   2    917 56.25                             139    1.16 5 97.9 160 
 PTB  HZ EP        917 39.38                             132   -0.4310  121 260 
 PTB  HN ES        917 57.26                             132   -0.1710  121 260 
 ZAR  HN ES        918  9.50                             119    0.92 9  184 297 
                                                                                
