 2013  610 0440  8.4 L   6.826 -73.175144.4  RSN  4 0.2 1.7LRSN                1
 GAP=206        0.54       5.0     5.7  6.8 -0.2814E+01  0.1401E+02 -0.1975E+02E
 Epicentro: LOS SANTOS - SANTANDER                                             3
 ACTION:UPD 14-01-08 09:53 OP:ep   STATUS:               ID:20130610044008 L   I
 OLDACT:UP  13-06-10 10:48 OP:cam  STATUS:               ID:20130610043959     3
 OLDACT:REG 13-06-10 07:56 OP:cam  STATUS:               ID:20130610043959     3
 2013-06-10-0439-59M.COL___261                                                 6
 STAT SP IPHASW D HRMM SECON CODA AMPLIT PERI AZIMU VELO AIN AR TRES W  DIS CAZ7
 BAR2 SZ EP   1    440 27.69                             169   -0.23 7 25.9 182 
 BAR2 SZ ES        440 43.10                             169   -0.0510 25.9 182 
 BAR2 SZ I         440 44.17         6.3 0.45            168           25.9 182 
 BRR  HZ IP     C  440 29.55                             154    0.3810 67.0 298 
 BRR  HZ I         440 29.96        13.0 0.25            148           67.0 298 
 PTB  HZ EP   1    440 34.76                             132   -0.26 7  145 257 
 PTB  HN ES   1    440 55.78                             132   -0.01 7  145 257 
 PTB  HZ I         441  1.22         4.6 0.38            131            145 257 
 SML  HZ EP   1    440 44.57                             117    0.05 6  240 336 
 SML  HN ES   1    441 12.45                             117   -0.24 6  240 336 
 SML  HZ I         441 16.19         6.6 0.24            118            240 336 
                                                                                
