 2016  810 0514  6.4 L   6.817 -73.134150.1  RSN 24 0.6 2.7LRSN                1
 GAP=120        1.32       3.5     4.1  5.9 -0.2409E+01  0.5992E+01  0.2008E+01E
 Epicentro: LOS SANTOS - SANTANDER                                             3
 ACTION:UPD 16-10-29 15:34 OP:rebc STATUS:               ID:20160810051406 L   I
 OLDACT:REG 16-08-10 12:31 OP:dnl  STATUS:               ID:20160810050759     3
 2016-08-10-0507-59S.COL___346                                                 6
 STAT SP IPHASW D HRMM SECON CODA AMPLIT PERI AZIMU VELO AIN AR TRES W  DIS CAZ7
 BAR2 EZ IP     C  514 26.56                             170   -0.0610 25.4 192 
 BAR2 EZ ES        514 41.56                             170   -0.8110 25.4 192 
 BAR2 EZ I         514 44.46       107.0 0.36                          25.4 192 
 BRR  HZ IP     C  514 28.44                             153    0.3810 71.5 297 
 BRR  HE ES        514 45.87                             153    0.9410 71.5 297 
 BRR  HZ I         514 50.26        66.4 0.16                          71.5 297 
 PAM  EZ EP        514 29.39                             152    0.4110 75.2  40 
 PAM  EN ES        514 46.65                             152    0.0910 75.2  40 
 PAM  EZ I         514 49.05        59.1 0.64                          75.2  40 
 RUS  HZ EP        514 30.42                             144   -0.3110  102 177 
 RUS  HE ES        514 49.65                             144   -0.0410  102 177 
 RUS  HZ I         514 51.99        39.5 0.36                           102 177 
 PTB  HZ EP        514 33.18                             133   -0.72 9  149 258 
 PTB  HN ES        514 54.41                             133   -0.91 9  149 258 
 PTB  HZ I         514 57.48        61.8 0.18                           149 258 
 OCA  HZ EP        514 34.61                             131   -0.32 9  159 353 
 OCA  HZ ES        514 57.78                             131    0.63 9  159 353 
 OCA  HZ I         515  1.52       159.3 0.32                           159 353 
 SPBC HZ EP        514 35.43                             130   -0.04 9  165 219 
 SPBC HN ES        514 58.25                             130    0.13 9  165 219 
 SPBC HZ I         515  3.19       121.1 0.40                           165 219 
 ZAR  HZ EP        514 39.19                             123   -0.02 9  205 292 
 ZAR  HE ES        515  5.21                             123    0.43 9  205 292 
 ZAR  HZ I         515 10.93        64.5 0.32                           205 292 
 NOR  HZ EP        514 42.40                             119   -0.24 8  237 234 
 NOR  HN ES   4    515  9.35                             119   -1.53 0  237 234 
 NOR  HZ I         515 16.05        48.3 0.28                           237 234 
 CHI  HZ EP        514 44.61                             118    0.01 8  251 195 
 CHI  HN ES        515 14.50                             118    0.13 8  251 195 
 CHI  HZ I         515 19.55        18.9 0.24                           251 195 
 ROSC BZ EP   4    514 46.21                             117    1.18 0  255 211 
 ROSC BN ES   4    515 19.62                             117    4.48 0  255 211 
 ROSC BZ I         515 24.36        52.2 0.35                           255 211 
 HEL  HZ EP        514 47.85                             115    0.80 8  274 255 
 HEL  HN ES        515 18.83                             115    0.09 8  274 255 
 HEL  HZ I         515 27.17        32.7 0.38                           274 255 
 URE  HZ EP        514 47.13                             114   -0.64 7  284 291 
 URE  HE ES        515 18.09                             114   -1.92 7  284 291 
 URE  HZ I         515 29.03        23.2 0.34                           284 291 
 SOCV BZ EP        514 49.11                             113   -0.34 7  299  57 
 SOCV BE ES   4    515 21.29                             113   -1.71 0  299  57 
 GUY2CHZ EP        514 51.07                             113    0.59 7  303 235 
 GUY2CHN ES        515 25.85                             113    1.02 7  303 235 
 GUY2CHZ I         515 33.13        36.9 0.54                           303 235 
 PTGC HZ EP   4    514 49.46                             112   -1.17 0  310 159 
 PTGC HE ES   4    515 22.30                             112   -2.80 0  310 159 
 PTGC HZ I         515 24.84        18.6 0.24                           310 159 
 LL6C HZ EP   4    514 51.15                             111   -0.97 0  323 357 
 LL6C HN ES   4    515 24.98                             111   -2.77 0  323 357 
 LL6C HZ I         515 30.49         8.1 0.48                           323 357 
 ELA  HZ EP   4    514 55.85                             111    2.14 0  331 229 
 ELA  HN ES   4    515 32.55                             111    1.96 0  331 229 
 ELA  HZ I         515 46.29        29.3 0.46                           331 229 
 CBOC HZ EP        514 54.30                             110    0.57 7  335 252 
 CBOC HN ES        515 31.04                             110    0.42 7  335 252 
 CBOC HZ I         515 38.85         9.0 0.34                           335 252 
 ANIL HZ EP   9    514 58.28                             109    1.62 0  360 224 
 ANIL HN ES        515 37.37                                   -0.08 6  360 224 
 PRA  HZ EP        515  0.19                             107   -0.17 6  394 210 
 PRA  HN ES        515 42.64                             107    0.21 6  394 210 
 PRA  HZ I         515 47.33        22.3 0.46                           394 210 
 SJC  HZ EP   4    515  0.41                             106   -1.63 0  408 327 
 SJC  HE ES   4    515 40.47                             106   -4.94 0  408 327 
 PAL  HZ EP        515  2.16                             106    0.18 6  408 239 
 PAL  HE ES   4    515 44.10                             106   -1.20 0  408 239 
 PAL  HZ I         515 51.20        12.4 0.42                           408 239 
 SJC  HZ I         515 48.13         7.0 0.24                           408 327 
 MACC HZ EP   4    515 13.15                             102   -2.34 0  523 189 
 MACC HE ES   4    516  2.58                             102   -6.77 0  523 189 
 MACC HZ I         516  9.44         4.5 0.78                           523 189 
                                                                                
