 2010 1110 0636  1.0 L   6.829 -73.081140.1  RSN  9 0.5 2.3LRSN                1
 GAP=165        1.25       4.7     8.6  8.4 -0.1166E+02  0.1099E+02 -0.1167E+01E
 Epicentro: LOS SANTOS - SANTANDER                                             3
 ACTION:UP  10-12-17 16:51 OP:REBC STATUS:               ID:20101110063601 L   I
 2010-11-10-0633-17S.COL___128                                                 6
 STAT SP IPHASW D HRMM SECON CODA AMPLIT PERI AZIMU VELO SNR AR TRES W  DIS CAZ7
 BAR2 SZ EP        636 19.95                             168    -0.110   29 203 
 BAR2 SZ I         636 20.55        35.6 1.18                            29 203 
 BAR2 SZ ES   1    636 34.41                             168    -0.5 7   29 203 
 BRR  HZ EP        636 21.72                             150    -0.110   76 294 
 BRR  HZ I         636 21.98        42.9 0.65                            76 294 
 BRR  HN ES        636 38.85                             150     0.810   76 294 
 RUS  HZ EP   1    636 24.07                             142    -0.3 7  104 180 
 RUS  HN ES        636 42.89                             142     0.210  104 180 
 RUS  HZ I         636 44.05        15.3 1.29                           104 180 
 GRA  SZ EP        636 25.52                             137     0.210  121  15 
 GRA  SZ ES   2    636 44.79                             137     0.5 5  121  15 
 GRA  SZ I         636 46.22        51.3 0.68                           121  15 
 OCA  SZ EP        636 28.21                             129    -0.4 9  158 350 
 OCA  SZ ES   1    636 49.80                             129    -0.4 7  158 350 
 OCA  SZ I         636 51.55        23.5 0.73                           158 350 
 NOR  SZ EP        636 36.88                             117    -0.4 8  243 235 
 NOR  SN ES   1    637  4.20                             117    -1.3 6  243 235 
 ROSC BZ EP   1    636 40.18                             115     0.7 6  259 212 
 ROSC BN ES   1    637 10.01                             115     0.4 6  259 212 
 ROSC BZ I         637 16.92         8.6 0.57                           259 212 
 HEL  HZ EP   1    636 42.20                             113     0.4 6  280 256 
 HEL  HZ I         637 20.04         9.4 0.32                           280 256 
 RREF HZ EP   2    636 49.13                             110     1.4 3  329 230 
 RREF HN ES   2    637 24.29                             110     0.1 3  329 230 
 RREF HZ I         637 31.23        11.0 1.09                           329 230 
                                                                                
