 2016  510 0518  3.5 L   6.608 -73.242144.9  RSN 15 0.4 2.3LRSN                1
 GAP= 68        1.05       2.7     3.5  6.0 -0.1050E+01  0.6208E+01 -0.1457E+01E
 Epicentro: CABRERA - SANTANDER                                                3
 ACTION:UPD 16-08-18 17:44 OP:cam  STATUS:               ID:20160510051803 L   I
 OLDACT:UP  16-05-15 07:32 OP:ar   STATUS:               ID:20160510051803 L   3
 OLDACT:UP  16-05-10 15:15 OP:drio STATUS:               ID:20160510050744     3
 OLDACT:UP  16-05-10 15:14 OP:drio STATUS:               ID:20160510050744     3
 OLDACT:REG 16-05-10 12:25 OP:drio STATUS:               ID:20160510050744     3
 2016-05-10-0507-44M.COL___289                                                 6
 STAT SP IPHASW D HRMM SECON CODA AMPLIT PERI AZIMU VELO AIN AR TRES W  DIS CAZ7
 BAR2 EZ EP        518 23.02                             177    0.1710 6.87 105 
 BAR2 EZ ES        518 37.55                             177   -0.3510 6.87 105 
 BAR2 EZ I         518 39.09        35.4 0.18            177           6.87 105 
 BRR  HZ IP     C  518 25.29                             151    0.4310 75.7 317 
 BRR  HE ES   4    518 42.66                             151    1.18 0 75.7 317 
 BRR  HZ I         518 43.46        48.2 0.12            148           75.7 317 
 RUS  HZ EP        518 26.19                             149    0.3010 81.1 167 
 RUS  HE ES        518 43.25                             149   -0.0710 81.1 167 
 RUS  HZ I         518 44.72        24.0 0.30            150           81.1 167 
 PAM  EZ EP        518 27.94                             143    0.7310  101  37 
 PAM  EE ES        518 45.72                             143    0.0510  101  37 
 PAM  EZ I         518 47.02        35.7 0.22            146            101  37 
 PTB  HZ EP        518 28.68                             135   -0.5810  134 267 
 PTB  HE ES   4    518 48.21                             135   -1.10 0  134 267 
 PTB  HZ I         518 51.41        30.3 0.34            132            134 267 
 SPBC HZ EP        518 30.77                             133    0.92 9  140 221 
 SPBC HE ES        518 50.61                             133    0.24 9  140 221 
 SPBC HZ I         518 53.95        35.7 0.22            132            140 221 
 OCA  HZ EP        518 33.73                             126   -0.01 9  181 357 
 OCA  HE ES        518 56.63                             126   -0.67 9  181 357 
 ZAR  HZ EP        518 35.74                             122   -0.14 9  204 299 
 ZAR  HN ES        519  1.36                             122    0.27 9  204 299 
 ZAR  HZ I         519  6.45        28.8 0.56            121            204 299 
 NOR  HZ EP        518 36.55                             121   -0.47 8  214 237 
 NOR  HE ES        519  3.08                             121   -0.05 8  214 237 
 NOR  HZ I         519  7.05        19.0 0.22            120            214 237 
 HEL  HZ EP   4    518 43.50                             116    1.44 0  257 260 
 HEL  HN ES        519 11.67                             116   -0.44 8  257 260 
 HEL  HZ I         519 19.57         9.9 0.44            115            257 260 
 SML  HZ EP        518 41.53                             116   -0.28 8  259 339 
 SML  HE ES        519 11.48                             116   -0.17 8  259 339 
 SML  HZ I         519 19.43        26.4 0.10            115            259 339 
 PTGC HZ EP        518 45.26                             112   -0.37 7  293 155 
 PTGC HE ES        519 17.70                             112   -0.75 7  293 155 
 PTGC HZ I         519 19.42        10.5 0.20            113            293 155 
 CBOC HZ EP   4    518 50.03                             111    1.47 0  317 255 
 CBOC HN ES        519 24.00                             111    0.32 7  317 255 
 CBOC HZ I         519 34.13         2.8 0.24            110            317 255 
 PRA  HZ EP   9    518 56.09                             107    1.82 0  368 210 
 PRA  HN ES        519 35.07                             107   -0.58 6  368 210 
 PRA  HZ I         519 40.68         5.8 0.62            107            368 210 
 ORTC HZ EP   4    518 56.07                             107    1.37 0  372 217 
 ORTC HE ES   4    519 37.24                             107    2.64 0  372 217 
 ORTC HZ I         519 42.83         3.9 0.34            107            372 217 
 CRJC HZ EP   4    519  7.29                             102   -1.34 0  490   5 
 CRJC HE ES   4    519 55.04                             102   -4.35 0  490   5 
                                                                                
