 2014 1110 0817 49.5 L   6.784 -73.183138.1  RSN 22 0.5 2.6LRSN                1
 GAP= 63        1.32       3.4     3.5  5.8 -0.2754E+01  0.5408E+01  0.4438E+01E
 Epicentro: LOS SANTOS - SANTANDER                                             3
 ACTION:UPD 14-12-19 15:41 OP:nd   STATUS:               ID:20141110081749 L   I
 OLDACT:ARG 14-11-10 13:00 OP:stll STATUS:               ID:20141110080735     3
 2014-11-10-0807-35M.COL___286                                                 6
 STAT SP IPHASW D HRMM SECON CODA AMPLIT PERI AZIMU VELO AIN AR TRES W  DIS CAZ7
 BAR2 SZ EP        818  8.45                             171    0.3310 21.2 180 
 BAR2 SZ ES        818 22.93                             171    0.2610 21.2 180 
 BAR2 SZ I         818 24.61       201.1 0.16            169           21.2 180 
 BRR  HZ IP     D  818 10.34                             152    0.7210 68.5 301 
 BRR  HN ES        818 25.72                             152    0.3710 68.5 301 
 BRR  HZ I         818 31.71        51.9 0.18            146           68.5 301 
 PAM  SZ IP     D  818 11.23                             148    0.1210 81.4  41 
 PAM  SZ I         818 11.50        62.8 0.22            150           81.4  41 
 PAM  SN ES        818 27.90                             148   -0.1010 81.4  41 
 RUS  HZ IP     C  818 12.29                             142   -0.0610 99.2 174 
 RUS  HN ES        818 30.44                             142    0.2210 99.2 174 
 RUS  HZ I         818 31.80        50.8 0.30            143           99.2 174 
 PTB  HZ EP        818 14.88                             131   -0.52 9  143 259 
 PTB  HN ES        818 35.50                             131   -0.14 9  143 259 
 PTB  HZ I         818 43.28        54.3 0.42            127            143 259 
 SPBC HZ EP        818 17.22                             128    0.23 9  159 218 
 SPBC HN ES        818 38.38                             128   -0.10 9  159 218 
 SPBC HZ I         818 41.88        65.3 0.20            126            159 218 
 TAM  HZ IP     D  818 16.60                             128   -0.27 9  159 104 
 TAM  HZ I         818 16.72        70.3 0.18            131            159 104 
 TAM  HN ES        818 37.82                             128   -0.43 9  159 104 
 OCA  HZ EP        818 16.57                             127   -0.73 9  162 355 
 OCA  HN ES        818 38.47                             127   -0.55 9  162 355 
 OCA  HZ I         818 41.83        48.6 0.18            126            162 355 
 NOR  HZ EP        818 24.14                             117   -0.14 8  230 234 
 NOR  HN ES        818 51.44                             117    0.00 8  230 234 
 NOR  HZ I         818 57.60        40.2 0.42            116            230 234 
 CHI  HZ EP        818 26.24                             116   -0.20 8  246 194 
 CHI  HE ES        818 55.05                             116   -0.23 8  246 194 
 CHI  HZ I         819  1.20        12.8 0.36            115            246 194 
 ROSC BZ EP        818 27.84                             115    1.07 8  249 210 
 ROSC BN ES        818 55.80                             115   -0.07 8  249 210 
 ROSC BZ I         819  3.95        34.3 0.40            114            249 210 
 HEL  HZ EP        818 29.06                             113    0.27 8  268 256 
 HEL  HN ES        818 59.74                             113    0.26 8  268 256 
 HEL  HZ I         819  7.12        22.1 0.28            112            268 256 
 GUY2CHZ EP        818 33.07                             111    0.85 7  297 235 
 GUY2CHE ES        819  5.14                             111   -0.44 7  297 235 
 GUY2CHZ I         819 14.54        26.1 0.28                           297 235 
 PTGC HZ EP   9    818 31.32                             110   -1.64 0  309 158 
 PTGC HZ I         818 31.83        25.5 0.38            110            309 158 
 PTGC HN ES        819  3.44                                   -1.82 7  309 158 
 CBOC HZ EP        818 36.10                             109    0.55 7  329 252 
 CBOC HN ES        819 10.46                             109   -1.04 7  329 252 
 CBOC HZ I         819 26.15         7.4 0.68            107            329 252 
 DBB  SZ EP        818 36.11                             108   -0.06 7  336 275 
 DBB  SZ I         819 16.14        37.8 0.72            107            336 275 
 TOL  SZ EP        818 37.62                             108    0.69 7  339 224 
 TOL  SN ES        819 13.22                             108   -0.75 7  339 224 
 MON  HZ EP   9    818 35.59                             107   -2.33 0  352 309 
 MON  HN ES        819 13.83                                    0.43 6  352 309 
 MON  HZ I         819 16.23         7.4 0.20            106            352 309 
 ANIL HZ EP        818 38.58                             107    0.09 6  353 224 
 ANIL HN ES        819 16.13                             107   -0.61 6  353 224 
 ANIL HZ I         819 21.87         4.4 0.30            106            353 224 
 PRA  HZ EP        818 41.59                             105   -0.71 6  388 209 
 PRA  HN ES        819 22.52                             105   -1.00 6  388 209 
 PRA  HZ I         819 31.76        19.7 0.26            105            388 209 
 ORTC HZ EP        818 43.33                             105    0.66 6  392 216 
 ORTC HE ES        819 25.18                             105    1.00 6  392 216 
 ORTC HZ I         819 31.69        15.5 0.80            105            392 216 
 SJC  HZ EP   9    818 42.37                             104   -2.31 0  408 328 
 SJC  HN ES        819 23.16                                   -2.29 6  408 328 
                                                                                
