 2014  710 0548 24.7 L   6.537 -73.757 82.8  RSN  6 0.3 1.2LRSN                1
 GAP= 80        0.83       4.0     3.0  7.0  0.5736E+01  0.3443E+01 -0.1160E+01E
 Epicentro: SANTA HELENA DEL OPON - SANTANDER                                  3
 ACTION:UPD 15-03-16 20:42 OP:nd   STATUS:               ID:20140710054824 L   I
 OLDACT:UP  14-07-11 10:39 OP:SPQ  STATUS:               ID:20140710054824 L   3
 OLDACT:DUP 14-07-10 17:35 OP:stll STATUS:               ID:20140710053812d    3
 2014-07-10-0538-11M.COL___262                                                 6
 STAT SP IPHASW D HRMM SECON CODA AMPLIT PERI AZIMU VELO AIN AR TRES W  DIS CAZ7
 BRR  HZ EP        548 38.18                             139   -0.6810 63.3   4 
 BRR  HZ I         548 38.35         4.9 0.10            148           63.3   4 
 BRR  HN ES   1    548 49.96                             139    0.04 7 63.3   4 
 BAR2 SZ EPg       548 39.14                             139   -0.1010 63.8  84 
 BAR2 SZ ESg       548 50.73                             139    0.1410 63.8  84 
 BAR2 SZ I         548 53.18        23.8 0.30            149           63.8  84 
 PTB  HZ EP   1    548 39.75                             133   -0.34 7 77.4 270 
 PTB  HN ES        548 52.00                             133   -0.1110 77.4 270 
 PTB  HZ I         548 58.10         3.0 0.20            135           77.4 270 
 RUS  HZ EP        548 43.17                             124   -0.0310  103 134 
 RUS  HZ I         548 44.18         2.4 0.10            131            103 134 
 RUS  HN ES        548 57.94                             124    0.2910  103 134 
 SPBC HZ EP   9    548 45.57                             124    2.82 0  104 200 
 SPBC HE ES   1    548 59.29                                   -0.38 7  104 200 
 SPBC HZ I         549  0.67         2.9 0.26            127            104 200 
 ZAR  HZ EP        548 49.26                             112    0.34 9  161 311 
 ZAR  HN ES        549  8.30                             112    0.46 9  161 311 
 ZAR  HZ I         549 12.00         4.3 0.22            116            161 311 
                                                                                
