 2011  810 0531 21.4 L   6.761 -73.078147.9  RSN  5 0.3 1.8LRSN                1
 GAP=190        0.58       3.1     8.0  4.7  0.9660E+01 -0.7881E+01 -0.1306E+01E
 Epicentro: LOS SANTOS - SANTANDER                                             3
 ACTION:UPD 12-07-13 15:51 OP:ep   STATUS:               ID:20110810053121 L   I
 2011-08-10-0529-45S.COL___150                                                 6
 STAT SP IPHASW D HRMM SECON CODA AMPLIT PERI AZIMU VELO AIN AR TRES W  DIS CAZ7
 BAR2 SZ EP        531 41.47                             172    0.1610 22.0 212 
 BAR2 SZ ES        531 56.82                             172    0.0210 22.0 212 
 BAR2 SZ I         531 58.35        20.0 0.11                          22.0 212 
 BRR  HZ EP        531 43.47                             150    0.1410 79.9 299 
 BRR  HZ I         531 43.74        26.6 0.19                          79.9 299 
 BRR  HN ES        532  0.12                             150   -0.2810 79.9 299 
 RUS  HZ EP   1    531 44.64                             146   -0.45 7 96.1 180 
 RUS  HE ES   1    532  3.56                             146    0.03 7 96.1 180 
 RUS  HZ I         532  5.44         5.1 0.42                          96.1 180 
 OCA  SZ EP   1    531 50.23                             129   -0.19 7  166 351 
 OCA  SZ ES   1    532 13.41                             129    0.39 7  166 351 
 OCA  SZ I         532 17.01         5.7 0.48                           166 351 
 CHI  HZ EP   1    531 59.00                             118   -0.04 6  247 197 
 CHI  HN ES   2    532 29.09                             118    0.72 4  247 197 
 CHI  HZ I         532 32.61         1.9 0.40                           247 197 
                                                                                
