 2015  610 0557 13.1 L   6.821 -73.087138.4  RSN  7 0.6 1.6LRSN                1
 GAP=143        1.50       5.3     8.1 10.2  0.3354E+01  0.4188E+01 -0.9554E+01E
 Epicentro: LOS SANTOS - SANTANDER                                             3
 ACTION:UPD 15-09-10 22:11 OP:cam  STATUS:               ID:20150610055713 L   I
 OLDACT:DUP 15-06-10 18:48 OP:stll STATUS:               ID:20150610054748d    3
 2015-06-10-0547-47M.COL___285                                                 6
 STAT SP IPHASW D HRMM SECON CODA AMPLIT PERI AZIMU VELO AIN AR TRES W  DIS CAZ7
 BAR2 EZ EP        557 31.91                             168   -0.0710 27.4 203 
 BAR2 EZ ES        557 46.89                             168    0.2210 27.4 203 
 BAR2 EZ I         557 47.89         7.0 0.24            173           27.4 203 
 PAM  SZ EP        557 34.92                             151    0.7010 71.5  37 
 PAM  SZ I         557 53.57         9.6 0.40            145           71.5  37 
 BRR  HZ EP        557 33.89                             150    0.1110 75.9 295 
 BRR  HN ES        557 50.56                             150    0.6810 75.9 295 
 BRR  HZ I         557 54.61         5.8 0.12            150           75.9 295 
 RUS  HZ EP        557 36.01                             142   -0.3210  103 180 
 RUS  HN ES        557 54.22                             142   -0.2010  103 180 
 RUS  HZ I         557 56.17         4.4 0.30            143            103 180 
 OCA  HZ EP        557 40.49                             128   -0.26 9  159 351 
 OCA  HN ES        558  1.20                             128   -1.08 9  159 351 
 OCA  HZ I         558  8.06         7.6 0.34            125            159 351 
 SPBC HZ EP        557 41.30                             126   -0.36 9  169 220 
 SPBC HN ES        558  3.58                             126   -0.33 9  169 220 
 SPBC HZ I         558  8.80         5.2 0.38            128            169 220 
 ZAR  HZ EP        557 47.06                             120    1.41 8  209 291 
 ZAR  HN ES        558 10.39                             120   -0.63 8  209 291 
 ZAR  HZ I         558 16.78         3.8 0.26            120            209 291 
                                                                                
