 2014  510 0736 42.5 L   6.827 -73.180142.5  RSN 10 0.5 2.0LRSN                1
 GAP=131        1.13       2.9     4.3  7.7 -0.2298E+01  0.1029E+02 -0.4870E+00E
 Epicentro: ZAPATOCA - SANTANDER                                               3
 ACTION:UPD 15-03-16 16:56 OP:nd   STATUS:               ID:20140510073642 L   I
 OLDACT:REG 14-05-10 13:44 OP:carl STATUS:               ID:20140510072806     3
 2014-05-10-0728-06M.COL___239                                                 6
 STAT SP IPHASW D HRMM SECON CODA AMPLIT PERI AZIMU VELO AIN AR TRES W  DIS CAZ7
 PAM  SZ EP        737  4.76                             150    0.4110 77.6  43 
 PAM  SN ES        737 21.61                             150    0.1910 77.6  43 
 RUS  HZ EP        737  5.74                             142   -0.4010  104 174 
 RUS  HN ES        737 24.52                             142   -0.0910  104 174 
 PTB  HZ EP        737  8.24                             132   -0.64 9  145 257 
 PTB  HN ES        737 29.30                             132   -0.19 9  145 257 
 PTB  HZ I         737 30.93        12.0 0.14            132            145 257 
 OCA  HZ EP        737 10.56                             129    0.36 9  157 354 
 OCA  HN ES        737 32.04                             129    0.20 9  157 354 
 OCA  HZ I         737 36.28        10.3 0.24            131            157 354 
 SPBC HZ EP        737 10.05                             128   -0.66 9  163 217 
 SPBC HE ES        737 32.55                             128   -0.20 9  163 217 
 SPBC HZ I         737 39.68         9.3 0.34            130            163 217 
 ZAR  HZ EP        737 13.94                             122   -0.28 9  199 292 
 ZAR  HN ES        737 39.18                             122    0.20 9  199 292 
 ZAR  HZ I         737 45.00         9.7 0.26            123            199 292 
 NOR  HZ EP        737 18.33                             118    0.47 8  233 233 
 NOR  HE ES        737 45.35                             118   -0.13 8  233 233 
 NOR  HZ I         737 51.40         6.6 0.14            119            233 233 
 SML  HZ EP        737 17.76                             117   -0.68 8  239 336 
 SML  HN ES        737 46.04                             117   -0.46 8  239 336 
 SML  HZ I         737 53.88        11.3 0.10            119            239 336 
 CHI  HZ EP        737 20.13                             116   -0.06 8  251 194 
 CHI  HN ES        737 50.21                             116    0.59 8  251 194 
 CHI  HZ I         737 52.53         3.6 0.26            119            251 194 
 HEL  HZ EP        737 23.49                             114    1.31 8  269 255 
 HEL  HE ES        737 53.79                             114    0.62 8  269 255 
 HEL  HZ I         738  0.67         6.0 0.56            116            269 255 
                                                                                
