 2012  410 0332 53.5 L   7.029 -73.108139.1  RSN  6 0.2 1.7LRSN                1
 GAP=128        0.54       3.4     2.9  4.8 -0.5148E+00  0.3575E+01  0.1653E+01E
 Epicentro: FLORIDABLANCA - SANTANDER                                          3
 ACTION:UPD 12-07-05 11:52 OP:tino STATUS:               ID:20120410033253 L   I
 2012-04-10-0330-00M.COL___199                                                 6
 STAT SP IPHASW D HRMM SECON CODA AMPLIT PERI AZIMU VELO AIN AR TRES W  DIS CAZ7
 BAR2 SZ EP        333 13.20                             160     0.110   49 190 
 BAR2 SZ I         333 13.50        11.7 0.10                            49 190 
 BAR2 SZ ES   1    333 28.15                             160    -0.3 7   49 190 
 PAM  SZ EP        333 13.73                             157    -0.110   57  53 
 PAM  SN ES        333 29.75                             157     0.010   57  53 
 BRR  HZ EP        333 13.64                             153     0.010   67 277 
 BRR  HZ I         333 13.82        11.8 0.11                            67 277 
 BRR  HN ES   1    333 29.71                             153     0.3 7   67 277 
 RUS  HZ EP   1    333 19.03                             136     0.5 7  126 179 
 RUS  HE ES   1    333 38.13                             136     0.0 7  126 179 
 PTB  HZ EP   1    333 20.51                             128    -0.4 7  159 250 
 PTB  HN ES   1    333 42.31                             128     0.0 7  159 250 
 ZAR  HN ES   1    333 49.77                             121     0.1 6  200 285 
 ZAR  HZ I         333 54.59         3.4 0.17                           200 285 
                                                                                
