 2010  810 0601 40.7 L   6.347 -73.635111.9  RSN 11 0.4 2.3LRSN                1
 GAP=117        0.95       3.1     6.1  7.1 -0.4817E+01  0.1550E+02 -0.1281E-01E
 Epicentro: SANTA HELENA DEL OPON - SANTANDER                                  3
 ACTION:UP  10-09-07 10:53 OP:vdl  STATUS:               ID:20100810060140 L   I
 2010-08-10-0559-54S.COL___125                                                 6
 STAT SP IPHASW D HRMM SECON CODA AMPLIT PERI AZIMU VELO SNR AR TRES W  DIS CAZ7
 BAR2 SZ IP        6 1 57.78                             151     0.110   57  62 
 BAR2 SZ ES   1    6 2 11.10                             151     0.1 7   57  62 
 BAR2 SZ I         6 2 12.19        63.0 0.13                            57  62 
 RUS  HZ EP        6 1 59.27                             142    -0.310   79 129 
 RUS  HE ES   1    6 2 13.94                             142    -0.3 7   79 129 
 RUS  HZ I         6 2 16.94        21.8 0.48                            79 129 
 BRR  HZ IP     D  6 1 58.88                             140    -0.410   84 354 
 BRR  HZ I         6 2  8.22        32.4 0.14                            84 354 
 BRR  HN ES        6 2 13.63                             140    -0.110   84 354 
 GIR2 SZ EP   1    6 2  0.32                             137     0.1 7   94  31 
 GUE  SZ EP        6 2  8.87                             117    -0.2 9  182  26 
 GUE  SZ ES   2    6 2 31.36                             117     0.1 4  182  26 
 GUE  SZ I         6 2 32.47        12.5 0.23                           182  26 
 CHI  HZ EP   1    6 2  9.78                             116    -0.4 7  190 183 
 CHI  HE ES   1    6 2 34.15                             116     1.0 7  190 183 
 CHI  HZ I         6 2 35.42         8.1 0.17                           190 183 
 GRA  SZ EP        6 2 10.38                             115     0.2 9  193  28 
 GRA  SZ ES   1    6 2 34.11                             115     1.0 7  193  28 
 GRA  SZ I         6 2 38.16        24.6 0.26                           193  28 
 OCA  SZ EP   1    6 2 11.79                             113    -0.5 6  212   9 
 OCA  SZ ES   1    6 2 37.26                             113     0.4 6  212   9 
 OCA  SZ I         6 2 42.07        31.1 0.23                           212   9 
 GUY  SZ EP   1    6 2 14.72                             111     0.2 6  228 237 
 GUY  SZ I         6 2 15.60        43.6 0.54                           228 237 
 RREF HZ EP   1    6 2 16.95                             109     0.0 6  248 230 
 RREF HE ES   2    6 2 45.72                             109     0.5 4  248 230 
 RREF HZ I         6 2 49.89        25.3 0.28                           248 230 
 PRA  HZ EP   2    6 2 24.64                             103    -0.3 3  323 206 
 PRA  HZ I         6 3  7.64         9.1 0.10                           323 206 
                                                                                
