 2010  210 0240 24.2 L   6.845 -73.093142.2  RSN  9 0.4 3.1LRSN                1
 GAP=205        0.79       3.8     7.0  6.1 -0.7229E+01  0.1823E+02  0.3347E+01E
 Epicentro: LOS SANTOS - SANTANDER                                             3
 ACTION:UP  10-08-24 09:48 OP:vdl  STATUS:               ID:20100210024024 L   I
 2010-02-10-0237-38S.COL___094                                                 6
 STAT SP IPHASW D HRMM SECON CODA AMPLIT PERI AZIMU VELO SNR AR TRES W  DIS CAZ7
 GIR2 SZ IP        240 43.56                             168     0.210   28 337 
 GIR2 SZ ES   1    240 58.49                             168     0.1 7   28 337 
 BAR2 SZ IP        240 43.72                             168     0.110   30 200 
 BAR2 SZ ES   1    240 58.41                             168    -0.3 7   30 200 
 OCA  SZ EP        240 52.03                             129     0.2 9  156 351 
 OCA  SZ ES   1    241 13.01                             129    -0.4 7  156 351 
 CHI  HZ EP        241  2.27                             116    -0.2 8  255 196 
 CHI  HE ES   1    241 31.99                             116    -0.2 6  255 196 
 CHI  HZ I         241 37.77        32.3 0.28                           255 196 
 HEL  HZ EP   1    241  5.82                             113     0.8 6  279 255 
 HEL  HN ES   1    241 36.90                             113     0.0 6  279 255 
 HEL  HZ I         241 43.31        66.2 0.50                           279 255 
 RREF BZ EP   1    241 11.17                             110     0.1 5  329 229 
 RREF BN ES   1    241 47.78                             110     0.1 5  329 229 
 RREF BZ I         241 54.42        46.1 0.30                           329 229 
 DBB  SZ IP        241 11.49                             108    -0.7 7  345 273 
 ANIL BZ EP        241 15.34                             107     0.5 6  365 225 
 ANIL BZ I         242  1.94        81.9 0.27                           365 225 
 PRA  HZ EP   1    241 17.54                             105    -0.9 4  399 210 
 PRA  HZ I         242  7.14        44.1 0.38                           399 210 
                                                                                
