 2015  210 0825 59.1 L   6.785 -73.150139.9  RSN 13 0.5 1.6LRSN                1
 GAP=137        1.17       3.2     4.6  6.7 -0.1640E+01  0.8805E+01 -0.1245E+01E
 Epicentro: LOS SANTOS - SANTANDER                                             3
 ACTION:UPD 15-04-30 21:24 OP:nd   STATUS:               ID:20150210082559 L   I
 OLDACT:DUP 15-02-10 18:07 OP:fm   STATUS:               ID:20150210081746d    3
 2015-02-10-0817-43M.COL___284                                                 6
 STAT SP IPHASW D HRMM SECON CODA AMPLIT PERI AZIMU VELO AIN AR TRES W  DIS CAZ7
 BAR2 EZ EP        826 18.36                             171    0.3510 21.6 189 
 BAR2 EZ ES        826 33.08                             171    0.3310 21.6 189 
 BAR2 EZ I         826 34.43         9.1 0.38            168           21.6 189 
 BRR  HZ EP        826 20.30                             151    0.6410 71.6 300 
 BRR  HN ES        826 36.17                             151    0.4910 71.6 300 
 BRR  HZ I         826 38.33         9.1 0.18            148           71.6 300 
 PAM  SZ EP     D  826 21.22                             149    0.4010 79.0  39 
 PAM  SE ES        826 37.34                             149   -0.3910 79.0  39 
 PAM  SZ I         826 40.35         6.1 0.56            153           79.0  39 
 RUS  HZ EP        826 22.63                             143    0.4510 99.0 176 
 RUS  HE ES        826 39.69                             143   -0.4810 99.0 176 
 RUS  HZ I         826 41.80         3.6 0.30            144           99.0 176 
 PTB  HZ EP        826 25.05                             131   -0.49 9  147 259 
 PTB  HN ES        826 45.60                             131   -0.55 9  147 259 
 PTB  HZ I         826 53.23         3.6 0.16            129            147 259 
 OCA  HE ES        826 48.23                             128   -0.75 9  162 353 
 SPBC HN ES        826 48.42                             128   -0.37 9  162 219 
 SPBC HZ I         826 51.10         5.3 0.22            127            162 219 
 ZAR  HZ EP        826 31.77                             121    0.56 9  204 293 
 ZAR  HE ES        826 56.85                             121    0.61 9  204 293 
 ZAR  HZ I         827  3.53         4.3 0.34            120            204 293 
 NOR  HZ EP   1    826 34.48                             117    0.11 6  233 235 
 NOR  HE ES        827  1.76                             117   -0.10 8  233 235 
 NOR  HZ I         827  9.52         3.2 0.34            117            233 235 
 SML  HZ EP        826 35.43                             116   -0.14 8  245 336 
 SML  HE ES        827  3.34                             116   -0.65 8  245 336 
 SML  HZ I         827  9.79         4.1 0.28            117            245 336 
 CHI  HZ EP   1    826 35.63                             116   -0.68 6  247 195 
 CHI  HN ES   1    827  5.25                             116   -0.07 6  247 195 
 CHI  HZ I         827 10.46         1.6 0.20            117            247 195 
 GUY2CHZ EP   4    826 43.63                             111    1.32 0  300 235 
 GUY2CHN ES   4    827 14.08                             111   -1.92 0  300 235 
 GUY2CHZ I         827 26.36         1.8 0.66                           300 235 
 RREF HE ES   4    827 23.25                             110    2.73 0  320 230 
 RREF HZ I         827 27.18         3.1 0.30            110            320 230 
                                                                                
