 2010 1010 0242 48.0 L   6.619 -74.056  9.3  RSN  6 0.4 1.5LRSN                1
 GAP=141        0.84       4.2     4.1  7.1 -0.7263E+01  0.1086E+02 -0.6477E+01E
 Epicentro: PUERTO PARRA - SANTANDER                                           3
 ACTION:UP  11-02-18 11:08 OP:tino STATUS:               ID:20101010024248 L   I
 2010-10-10-0239-02S.COL___121                                                 6
 STAT SP IPHASW D HRMM SECON CODA AMPLIT PERI AZIMU VELO SNR AR TRES W  DIS CAZ7
 BRR  HZ IP     C  242 58.69                              94     0.010   66  35 
 BRR  HN ES   1    243  6.65                              94    -0.3 7   66  35 
 BRR  HZ I         243  7.17        16.6 0.08                            66  35 
 BAR2 SZ IP        243  3.94                              93     0.410   96  92 
 BAR2 SZ I         243  4.15        10.7 0.11                            96  92 
 BAR2 SZ ES   1    243 14.96                              93    -0.6 7   96  92 
 NOR  SN ES   2    243 29.00                              92     0.0 5  147 218 
 HEL  HZ I         243 15.64         4.3 0.13                           170 254 
 HEL  HN ES   2    243 34.51                              56    -0.6 5  170 254 
 GUE  SZ EP   2    243 15.88                              56    -0.2 4  183  43 
 GRA  SZ EP   2    243 17.99                              56     0.4 4  197  45 
 GRA  SZ ES   1    243 40.92                              56     0.2 6  197  45 
 GRA  SZ I         243 42.23        10.8 0.16                           197  45 
                                                                                
