 2014 1110 0604 52.7 L   6.557 -73.579114.7  RSN  5 0.4 0.8LRSN                1
 GAP=126        0.95       4.6     3.9  8.3  0.1405E+01  0.4548E+01  0.5418E+01E
 Epicentro: EL CARMEN - SANTANDER                                              3
 ACTION:UPD 14-12-19 15:41 OP:nd   STATUS:               ID:20141110060452 L   I
 OLDACT:DUP 14-11-10 18:40 OP:stll STATUS:               ID:20141110055742d    3
 OLDACT:ARG 14-11-10 13:00 OP:stll STATUS:               ID:20141110055741     3
 2014-11-10-0557-41M.COL___289                                                 6
 STAT SP IPHASW D HRMM SECON CODA AMPLIT PERI AZIMU VELO AIN AR TRES W  DIS CAZ7
 BAR2 SZ EP        6 5  9.51                             158    0.1410 44.0  85 
 BAR2 SZ ES        6 5 22.62                             158    0.2510 44.0  85 
 BRR  HZ EP        6 5 10.20                             149    0.1610 62.5 346 
 BRR  HN ES        6 5 24.01                             149    0.4610 62.5 346 
 RUS  HZ EP        6 5 13.08                             139    0.2510 91.7 143 
 RUS  HN ES        6 5 28.31                             139   -0.2010 91.7 143 
 RUS  HZ I         6 5 28.87         1.0 0.16            141           91.7 143 
 PTB  HZ EP        6 5 12.69                             137    0.0910 97.0 269 
 PTB  HN ES        6 5 27.59                             137   -0.5310 97.0 269 
 PTB  HZ I         6 5 30.80         2.1 0.32            137           97.0 269 
 PAM  SN ES        6 5 33.90                             128   -0.6710  130  48 
                                                                                
