 2015 1010 0351 10.7 L   6.777 -73.094145.7  RSN  5 0.2 1.3LRSN                1
 GAP=144        0.55       3.1     3.3  5.9  0.2363E+01  0.4114E+01  0.1948E+01E
 Epicentro: LOS SANTOS - SANTANDER                                             3
 ACTION:UPD 15-12-22 20:38 OP:cam  STATUS:               ID:20151010035110 L   I
 OLDACT:REG 15-10-10 12:34 OP:spq  STATUS:               ID:20151010034745     3
 2015-10-10-0347-45M.COL___337                                                 6
 STAT SP IPHASW D HRMM SECON CODA AMPLIT PERI AZIMU VELO AIN AR TRES W  DIS CAZ7
 BAR2 EZ EP        351 30.08                             171   -0.2210 22.6 206 
 PAM  EZ EP   1    351 33.14                             151    0.32 7 76.0  35 
 PAM  EN ES        351 50.04                             151   -0.0310 76.0  35 
 PAM  EZ I         351 50.44         2.9 0.34            156           76.0  35 
 BRR  HZ EP   1    351 31.75                             150   -0.45 7 77.4 298 
 BRR  HE ES        351 49.06                             150    0.0910 77.4 298 
 BRR  HZ I         351 55.47         4.5 0.26            148           77.4 298 
 RUS  HZ EP   1    351 34.54                             145    0.30 7 97.8 179 
 RUS  HN ES        351 52.60                             145   -0.0010 97.8 179 
 RUS  HZ I         351 53.70         1.9 0.26            148           97.8 179 
 ZAR  HE ES        352  9.68                             121    0.09 8  210 292 
 ZAR  HZ I         352 14.93         2.0 0.12            123            210 292 
                                                                                
