 2017  310 0458 11.5 L   6.765 -73.134141.8  RSN  7 0.4 1.8LRSN                1
 GAP=140        1.06       4.4     4.5  7.1 -0.1024E+01  0.7313E+01  0.1905E+01E
 Epicentro: LOS SANTOS - SANTANDER                                             3
 ACTION:UPD 17-05-25 18:38 OP:jn   STATUS:               ID:20170310045811 L   I
 OLDACT:UP  17-03-10 16:45 OP:ar   STATUS:               ID:20170310044747     3
 OLDACT:REG 17-03-10 12:22 OP:ar   STATUS:               ID:20170310044747     3
 2017-03-10-0448-00M.COL___403                                                 6
 STAT SP IPHASW D HRMM SECON CODA AMPLIT PERI AZIMU VELO AIN AR TRES W  DIS CAZ7
 BAR2 EZ IP     C  458 30.49                             172   -0.0610 19.9 196 
 BAR2 EZ ES        458 45.20                             172   -0.2410 19.9 196 
 BAR2 EZ I         458 45.99        21.4 0.34            172           19.9 196 
 BRR  HZ IP     C  458 32.35                             151   -0.0210 74.2 301 
 BRR  HE ES        458 49.39                             151    0.7310 74.2 301 
 BRR  HZ I         458 54.20        10.6 0.12            148           74.2 301 
 PAM  EZ EP        458 33.40                             149    0.0010 79.6  37 
 PAM  EN ES        458 50.27                             149   -0.2310 79.6  37 
 PAM  EZ I         458 52.62        13.1 0.40            151           79.6  37 
 RUS  HZ EP        458 34.97                             144    0.4210 96.7 177 
 RUS  HN ES        458 52.52                             144   -0.0310 96.7 177 
 RUS  HZ I         458 53.61         6.0 0.26            148           96.7 177 
 PTB  HZ EP        458 37.30                             131   -0.87 9  148 260 
 PTB  HN ES        458 58.30                             131   -0.69 9  148 260 
 PTB  HZ I         459  0.36        12.3 0.20            131            148 260 
 SPBC HZ EP        458 39.85                             128    0.39 9  161 220 
 SPBC HN ES        459  1.50                             128    0.21 9  161 220 
 SPBC HZ I         459  3.34         8.6 0.12            130            161 220 
 ZAR  HZ EP   2    458 44.22                             121    0.29 4  207 293 
 ZAR  HN ES        459  9.57                             121    0.31 8  207 293 
 ZAR  HZ I         459 18.26         7.1 0.10            121            207 293 
                                                                                
