 2014 1110 0043 58.0 L   6.804 -73.146145.4  RSN 14 0.5 1.8LRSN                1
 GAP= 71        2.50       7.7     9.2 12.9 -0.2022E+02  0.8282E+01  0.2790E+02E
 Epicentro: LOS SANTOS - SANTANDER                                             3
 ACTION:UPD 14-12-19 15:41 OP:nd   STATUS:               ID:20141110004358 L   I
 OLDACT:ARG 14-11-10 12:59 OP:stll STATUS:               ID:20141110003738     3
 2014-11-10-0037-38M.COL___298                                                 6
 STAT SP IPHASW D HRMM SECON CODA AMPLIT PERI AZIMU VELO AIN AR TRES W  DIS CAZ7
 BAR2 SZ EP        044 17.70                             170    0.1510 23.7 190 
 BAR2 SZ ES        044 32.47                             170   -0.3710 23.7 190 
 BAR2 SZ I         044 34.50        19.3 0.46            171           23.7 190 
 BRR  HZ EP        044 19.53                             153    0.4710 71.0 298 
 BRR  HN ES        044 36.86                             153    1.3510 71.0 298 
 BRR  HZ I         044 41.94         9.0 0.16            150           71.0 298 
 PAM  SZ EP        044 20.12                             151   -0.0010 77.1  40 
 PAM  SN ES        044 37.55                             151    0.1410 77.1  40 
 PAM  SZ I         044 40.10        12.3 0.62            152           77.1  40 
 RUS  HZ EP        044 22.06                             143    0.3610  101 176 
 RUS  HN ES        044 40.15                             143   -0.0710  101 176 
 RUS  HZ I         044 43.14         6.7 0.36            146            101 176 
 PTB  HZ EP        044 24.44                             132   -0.46 9  148 259 
 PTB  HN ES        044 45.25                             132   -0.66 9  148 259 
 PTB  HZ I         044 47.93         8.0 0.14            131            148 259 
 TAM  HZ EP        044 25.84                             130    0.22 9  155 105 
 TAM  HZ I         044 26.08        15.8 0.36            134            155 105 
 OCA  HZ EP   1    044 26.34                             130    0.13 7  160 353 
 OCA  HN ES        044 46.99                             130   -1.25 9  160 353 
 OCA  HZ I         044 53.35         9.2 0.22            129            160 353 
 SPBC HZ EP        044 26.77                             129    0.31 9  163 219 
 SPBC HN ES        044 48.50                             129   -0.18 9  163 219 
 SPBC HZ I         044 53.65        12.0 0.20            130            163 219 
 NOR  HZ EP        044 33.60                             118   -0.09 8  235 234 
 NOR  HE ES        045  1.36                             118   -0.20 8  235 234 
 NOR  HZ I         045  5.12         4.7 0.42            119            235 234 
 CHI  HZ EP        044 35.28                             117   -0.40 8  249 195 
 CHI  HZ I         044 37.63         2.5 0.48            118            249 195 
 CHI  HE ES        045  4.51                             117   -0.59 8  249 195 
 GUY2CHZ EP        044 42.08                             112    0.51 7  301 235 
 GUY2CHN ES        045 16.19                             112    0.60 7  301 235 
 GUY2CHZ I         045 22.98         3.5 0.28                           301 235 
 MON  HZ EP   9    044 41.54                             109   -5.37 0  353 308 
 MON  HN ES        045 21.67                                    1.95 6  353 308 
 MON  HZ I         045 38.33         1.4 0.44            109            353 308 
 PRA  HZ EP        044 51.69                             106    0.18 6  392 210 
 PRA  HE ES        045 32.72                             106   -0.55 6  392 210 
 PRA  HZ I         045 37.61         2.5 0.32            107            392 210 
 SJC  HZ EP   9 C  044 51.94                             106   -1.53 0  409 327 
 SJC  HE ES        045 28.48                                   -6.76 6  409 327 
                                                                                
