 2015  410 0234 54.8 L   6.758 -73.149141.7  RSN  5 0.2 1.3LRSN                1
 GAP=234        0.47       3.6     3.3  3.8  0.7520E+01  0.1889E+01  0.1223E-01E
 Epicentro: LOS SANTOS - SANTANDER                                             3
 ACTION:UPD 15-06-03 16:53 OP:cam  STATUS:               ID:20150410023454 L   I
 OLDACT:REG 15-04-10 12:21 OP:akv  STATUS:               ID:20150410022749     3
 2015-04-10-0227-49M.COL___269                                                 6
 STAT SP IPHASW D HRMM SECON CODA AMPLIT PERI AZIMU VELO AIN AR TRES W  DIS CAZ7
 BAR2 EZ EP        235 13.75                             172   -0.1410 18.7 191 
 BAR2 EZ ES        235 28.69                             172   -0.0610 18.7 191 
 BAR2 EZ I         235 29.62         6.0 0.20            166           18.7 191 
 BRR  HZ EP        235 15.74                             151    0.0810 73.2 302 
 BRR  HN ES        235 31.87                             151   -0.0310 73.2 302 
 RUS  HZ EP        235 17.75                             144   -0.1110 96.0 176 
 RUS  HE ES        235 36.07                             144    0.2610 96.0 176 
 RUS  HZ I         235 37.59         1.3 0.40            143           96.0 176 
 PTB  HZ EPn    C  234 26.56                                            147 261 
 PTB  HZ EP        235 21.39                             131    0.02 9  147 261 
 PTB  HN ES        235 41.81                             131   -0.25 9  147 261 
 PTB  HZ I         235 46.48         3.3 0.40            128            147 261 
 ZAR  HN ES        235 52.67                             121    0.28 8  205 293 
 ZAR  HZ I         236  2.63         2.5 0.50            119            205 293 
                                                                                
