 2016  310 0937 52.5 L   6.789 -73.150140.8  RSN  9 0.5 1.6LRSN                1
 GAP=137        1.20       4.4     4.9  7.6 -0.3626E+01  0.1388E+02  0.2616E+01E
 Epicentro: LOS SANTOS - SANTANDER                                             3
 ACTION:UPD 16-05-13 21:22 OP:cam  STATUS:               ID:20160310093753dL   I
 OLDACT:REG 16-03-10 14:10 OP:cara STATUS:               ID:20160310092948     3
 2016-03-10-0929-48M.COL___285                                                 6
 STAT SP IPHASW D HRMM SECON CODA AMPLIT PERI AZIMU VELO AIN AR TRES W  DIS CAZ7
 BAR2 EZ EP        938 11.35                             171   -0.1710 22.1 189 
 BAR2 EZ ES        938 26.26                             171   -0.0810 22.1 189 
 BAR2 EZ I         938 31.60         5.7 0.10            170           22.1 189 
 PAM  EZ EP        938 14.32                             149    0.0510 78.6  39 
 PAM  EN ES        938 31.36                             149    0.1110 78.6  39 
 PAM  EZ I         938 35.35         4.7 0.36            155           78.6  39 
 RUS  HZ EP        938 15.35                             143   -0.3410 99.4 176 
 RUS  HN ES        938 34.31                             143    0.5410 99.4 176 
 RUS  HZ I         938 34.94         5.3 0.22            146           99.4 176 
 PTB  HZ EP        938 18.00                             131   -1.01 9  147 259 
 PTB  HN ES        938 39.30                             131   -0.39 9  147 259 
 PTB  HZ I         938 41.03         5.4 0.50            133            147 259 
 SPBC HZ EP        938 20.35                             128   -0.16 9  162 219 
 SPBC HE ES        938 42.11                             128   -0.25 9  162 219 
 SPBC HZ I         938 49.42         8.2 0.16            131            162 219 
 ZAR  HZ EP        938 25.99                             121    1.35 9  204 292 
 ZAR  HE ES        938 49.63                             121   -0.07 9  204 292 
 ZAR  HZ I         938 56.14         5.2 0.62            124            204 292 
 NOR  HZ EP        938 27.73                             117   -0.11 8  234 235 
 NOR  HN ES        938 55.67                             117    0.27 8  234 235 
 NOR  HZ I         939  0.62         4.1 0.54            120            234 235 
 CHI  HZ EP        938 29.61                             116   -0.18 8  247 195 
 CHI  HN ES        938 59.04                             116    0.16 8  247 195 
 CHI  HZ I         939  4.40         1.6 0.36            120            247 195 
 GUY2CHZ EP   4    938 37.66                             111    1.89 0  300 235 
 GUY2CHN ES        939 10.33                             111    0.82 7  300 235 
 GUY2CHZ I         939 17.88         2.2 0.34                           300 235 
                                                                                
