 2013  510 0724 18.2 L   6.817 -73.165147.5  RSN 11 0.4 1.7LRSN                1
 GAP=133        1.00       3.2     4.4  6.2  0.5803E+00  0.8632E+01  0.2078E+01E
 Epicentro: LOS SANTOS - SANTANDER                                             3
 ACTION:UPD 13-06-20 09:49 OP:ep   STATUS:               ID:20130510072418 L   I
 2013-05-10-0720-00M.COL___256                                                 6
 STAT SP IPHASW D HRMM SECON CODA AMPLIT PERI AZIMU VELO AIN AR TRES W  DIS CAZ7
 BAR2 SZ EP        724 38.10                             170    0.0210 24.9 185 
 BAR2 SZ ES   1    724 53.30                             170   -0.28 7 24.9 185 
 BAR2 SZ I         725  3.40         7.6 0.48            169           24.9 185 
 GIR2 SZ EP        724 38.17                             168    0.1410 29.2 354 
 GIR2 SZ ES   1    724 52.96                             168   -0.53 7 29.2 354 
 GIR2 SZ I         724 55.74         4.7 0.68            168           29.2 354 
 BRR  HZ EP        724 40.04                             154    0.6410 68.5 298 
 BRR  HN ES        724 56.63                             154    0.7110 68.5 298 
 BRR  HZ I         725  0.83        11.3 0.10            153           68.5 298 
 PAM  SZ EP   1    724 40.85                             151    0.24 7 77.3  42 
 PAM  SN ES   1    724 58.20                             151    0.12 7 77.3  42 
 PAM  SZ I         724 59.15         5.7 0.16            158           77.3  42 
 RUS  HZ EP        724 42.09                             144   -0.1910  103 175 
 RUS  HN ES        725  0.86                             144   -0.1910  103 175 
 RUS  HZ I         725  1.80         4.4 0.32            148            103 175 
 PTB  HZ EP        724 44.80                             133   -0.37 9  146 258 
 PTB  HN ES   1    725  6.13                             133   -0.07 7  146 258 
 PTB  HZ I         725  9.03         7.0 0.12            134            146 258 
 OCA  HN ES        725  8.33                             130   -0.17 9  158 354 
 OCA  HZ I         725 12.88         8.9 0.26            135            158 354 
 ZAR  HN ES        725 16.17                             123    0.48 9  201 292 
 ZAR  HZ I         725 22.21         9.6 0.26            126            201 292 
 SML  HZ EP   1    724 54.76                             118    0.10 6  241 336 
 SML  HN ES        725 22.13                             118   -0.96 8  241 336 
 HEL  HZ EP   1    724 58.69                             115    0.35 6  271 255 
 HEL  HN ES        725 28.84                             115   -0.80 8  271 255 
 HEL  HZ I         725 37.39         3.9 0.36            118            271 255 
 PRA  HZ EP   1    725 12.35                             107    0.49 4  393 209 
 PRA  HE ES        725 53.96                             107    0.25 6  393 209 
 PRA  HZ I         725 57.89         1.9 0.34            110            393 209 
                                                                                
