 2014  610 0621 56.1 L   6.024 -73.550126.2  RSN  8 0.4 1.4LRSN                1
 GAP=105        0.76       3.4     3.6  5.9 -0.4890E+00  0.6249E+01  0.2217E+01E
 Epicentro: GUEPSA - SANTANDER                                                 3
 ACTION:UPD 14-07-01 22:52 OP:nd   STATUS:               ID:20140610062156 L   I
 OLDACT:UP  14-06-10 16:01 OP:mh   STATUS:               ID:20140610061819     3
 OLDACT:REG 14-06-10 12:29 OP:mh   STATUS:               ID:20140610061819     3
 2014-06-10-0618-19M.COL___253                                                 6
 STAT SP IPHASW D HRMM SECON CODA AMPLIT PERI AZIMU VELO AIN AR TRES W  DIS CAZ7
 RUS  HZ EP        622 15.03                             156    0.1110 53.6 106 
 RUS  HN ES   1    622 29.33                             156   -0.25 7 53.6 106 
 RUS  HZ I         622 31.44         1.1 0.09            163           53.6 106 
 SPBC HZ EP   1    622 14.52                             149   -0.81 7 71.0 235 
 SPBC HN ES        622 30.39                             149    0.0910 71.0 235 
 SPBC HZ I         622 35.19         5.7 0.21            147           71.0 235 
 BAR2 SZ EP   1    622 15.29                             148   -0.50 7 74.8  33 
 BAR2 SZ ES   1    622 31.76                             148    0.65 7 74.8  33 
 BAR2 SZ I         622 32.28         5.4 0.07            154           74.8  33 
 PTB  HZ EP   1    622 18.71                             135    0.11 7  115 300 
 PTB  HN ES   1    622 35.97                             135   -0.15 7  115 300 
 PTB  HZ I         622 42.25                             136            115 300 
 ZAR  HZ EP   1    622 28.77                             116   -0.08 6  217 318 
 ZAR  HN ES   1    622 54.40                             116    0.04 6  217 318 
 ZAR  HZ I         622 58.12         2.9 0.38            119            217 318 
 HEL  HN ES   1    622 55.79                             116    0.14 6  220 275 
 PRA  HZ EP        622 38.24                             109    0.55 7  295 210 
 PRA  HN ES        623 10.13                             109    0.02 7  295 210 
 PRA  HZ I         623 17.32         3.5 0.05            111            295 210 
 ORTC HZ E         622 20.60                                            300 219 
                                                                                
