 2010 1010 0649 49.9 L   6.791 -73.116141.4  RSN  5 0.5 1.9LRSN                1
 GAP=183        1.07       7.1    13.1 10.5 -0.3626E+02 -0.1085E+02 -0.8095E+00E
 Epicentro: LOS SANTOS - SANTANDER                                             3
 ACTION:UP  11-02-18 11:08 OP:tino STATUS:               ID:20101010064949 L   I
 2010-10-10-0647-38S.COL___121                                                 6
 STAT SP IPHASW D HRMM SECON CODA AMPLIT PERI AZIMU VELO SNR AR TRES W  DIS CAZ7
 BAR2 SZ EP   1    650  8.83                             170    -0.2 7   23 199 
 BAR2 SZ I         650  9.27        10.1 0.11                            23 199 
 BAR2 SZ ES   1    650 23.70                             170    -0.2 7   23 199 
 BRR  HZ IP     D  650 10.67                             151    -0.110   75 298 
 BRR  HZ I         650 11.07        20.1 0.11                            75 298 
 BRR  HN ES   1    650 27.59                             151     0.5 7   75 298 
 GRA  SZ EP   1    650 15.84                             136     1.1 7  126  16 
 GRA  SZ ES   1    650 34.08                             136    -0.1 7  126  16 
 GRA  SZ I         650 35.48        10.1 0.30                           126  16 
 OCA  SZ EP   1    650 17.39                             128    -0.6 7  162 352 
 OCA  SZ ES   1    650 39.60                             128    -0.4 7  162 352 
 OCA  SZ I         650 42.69         6.4 0.19                           162 352 
 PRA  HZ EP   2    650 43.61                             106     0.2 3  393 210 
 PRA  HE ES   2    651 24.93                             106    -0.1 3  393 210 
 PRA  HZ I         651 28.17         7.9 0.15                           393 210 
                                                                                
