 2012  410 0411 18.8 L   6.132 -73.716101.8  RSN  6 0.2 1.6LRSN                1
 GAP=118        0.48       2.6     2.6  5.6  0.3239E+01  0.6050E+01  0.5488E+01E
 Epicentro: LANDAZURI - SANTANDER                                              3
 ACTION:UPD 12-07-05 11:52 OP:tino STATUS:               ID:20120410041118 L   I
 2012-04-10-0410-00M.COL___199                                                 6
 STAT SP IPHASW D HRMM SECON CODA AMPLIT PERI AZIMU VELO AIN AR TRES W  DIS CAZ7
 RUS  HZ EP        411 36.53                             141     0.110   75 111 
 RUS  HE ES   1    411 50.16                             141     0.1 7   75 111 
 BAR2 SZ EP        411 36.26                             140     0.010   78  49 
 BAR2 SZ ES   1    411 49.55                             140    -0.3 7   78  49 
 BAR2 SZ I         411 51.60        14.5 0.11                            78  49 
 PTB  HZ EP        411 37.10                             134    -0.210   93 299 
 PTB  HN ES   1    411 51.65                             134     0.0 7   93 299 
 BRR  HZ EP        411 38.41                             129    -0.110  108   0 
 BRR  HZ I         411 38.87         6.8 0.09                           108   0 
 BRR  HN ES        411 54.19                             129     0.210  108   0 
 CHI  HZ EP   1    411 45.18                             116     0.1 7  166 181 
 ZAR  HN ES   1    412 10.83                             112     0.1 6  196 320 
 ZAR  HZ I         412 13.75         4.6 0.16                           196 320 
                                                                                
