 2014  210 0301 39.3 L   6.787 -73.126143.1  RSN 10 0.6 1.9LRSN                1
 GAP=158        1.37       4.2     6.0  8.5 -0.6660E+01  0.1385E+02 -0.6349E+00E
 Epicentro: LOS SANTOS - SANTANDER                                             3
 ACTION:UPD 14-03-10 08:09 OP:ep   STATUS:               ID:20140210030139 L   I
 OLDACT:REG 14-02-10 09:59 OP:mh   STATUS:               ID:20140210030000     3
 2014-02-10-0300-00M.COL___291                                                 6
 STAT SP IPHASW D HRMM SECON CODA AMPLIT PERI AZIMU VELO AIN AR TRES W  DIS CAZ7
 BAR2 SZ EP        3 1 58.67                             171    0.1110 22.4 196 
 BAR2 SZ ES        3 2 13.01                             171   -0.6010 22.4 196 
 BAR2 SZ I         3 2 14.33        25.6 0.27            170           22.4 196 
 BRR  HZ EP     C  3 2  0.52                             151    0.2410 73.8 299 
 BRR  HN ES        3 2 17.53                             151    0.8510 73.8 299 
 BRR  HZ I         3 2 28.09        13.7 0.22            149           73.8 299 
 PAM  SZ EP        3 2  1.76                             150    0.5710 77.1  38 
 PAM  SN ES        3 2 18.51                             150    0.2310 77.1  38 
 PAM  SZ E         3 2 20.01                                           77.1  38 
 PAM  SZ I         3 2 20.75        13.8 0.54            154           77.1  38 
 PTB  HZ EP        3 2  5.53                             131   -0.67 9  150 260 
 PTB  HN ES        3 2 26.24                             131   -0.96 9  150 260 
 PTB  HZ I         3 2 28.65        13.3 0.15            133            150 260 
 OCA  HE ES        3 2 29.05                             129   -0.53 9  162 352 
 OCA  HZ I         3 2 30.75         8.4 0.22            131            162 352 
 SPBC HZ EP        3 2  7.83                             128    0.23 9  163 220 
 SPBC HN ES        3 2 29.62                             128   -0.07 9  163 220 
 SPBC HZ I         3 2 31.50         5.3 0.14            132            163 220 
 ZAR  HZ EP        3 2 12.24                             121    0.43 8  207 292 
 ZAR  HN ES        3 2 37.62                             121    0.42 8  207 292 
 ZAR  HZ I         3 2 46.41         8.0 0.12            123            207 292 
 NOR  HN ES        3 2 43.72                             118    0.94 8  236 235 
 SML  HZ EP        3 2 15.28                             117   -0.71 8  246 335 
 SML  HN ES        3 2 44.32                             117   -0.31 8  246 335 
 CHI  HN ES        3 2 45.53                             117   -0.43 8  248 196 
                                                                                
