 2011  710 0350 19.4 L   6.813 -73.010149.8  RSN 11 0.4 1.9LRSN                1
 GAP=174        0.80       3.7     5.7  5.0 -0.4285E+01  0.1797E+01  0.1770E+01E
 Epicentro: CEPITA - SANTANDER                                                 3
 ACTION:UPD 12-07-25 13:59 OP:epov STATUS:               ID:20110710035019 L   I
 2011-07-10-0348-06S.COL___140                                                 6
 STAT SP IPHASW D HRMM SECON CODA AMPLIT PERI AZIMU VELO AIN AR TRES W  DIS CAZ7
 BAR2 SZ EP   1    350 39.97                             168    0.27 7 31.0 218 
 BAR2 SZ ES   1    350 55.08                             168   -0.45 7 31.0 218 
 BAR2 SZ I         350 56.34        19.9 0.21                          31.0 218 
 GIR2 SZ EP   1    350 40.41                             166    0.72 7 35.7 325 
 GIR2 SZ ES   1    350 55.53                             166    0.02 7 35.7 325 
 BRR  HZ EP        350 42.10                             149    0.3410 84.1 293 
 BRR  HZ I         350 44.05        18.9 0.13                          84.1 293 
 BRR  HN ES        350 59.40                             149    0.2110 84.1 293 
 RUS  HZ EP   1    350 43.81                             144    0.14 7  102 185 
 RUS  HN ES   1    351  2.31                             144   -0.28 7  102 185 
 RUS  HZ I         351  3.87        13.3 0.35                           102 185 
 GRA  SZ EP        350 44.12                             139   -0.4910  121  11 
 GRA  SZ ES   1    351  4.10                             139   -0.16 7  121  11 
 GRA  SZ I         351  5.53         8.3 0.37                           121  11 
 OCA  SZ EP   1    350 48.44                             130    0.30 7  161 348 
 OCA  SZ ES   2    351 10.64                             130    0.09 5  161 348 
 OCA  SZ I         351 16.16         9.5 0.09                           161 348 
 NOR  SZ EP   1    350 56.04                             118   -0.75 6  248 236 
 NOR  SZ I         351 25.54         1.4 0.41                           248 236 
 CHI  HZ EP   1    350 58.18                             117    0.22 6  254 198 
 CHI  HZ I         351 30.29         3.5 0.52                           254 198 
 HEL  HZ EP   1    351  2.03                             114    0.54 5  287 256 
 HEL  HN ES   1    351 33.79                             114   -0.51 5  287 256 
 HEL  HZ I         351 39.08         8.2 0.22                           287 256 
 PRA  HZ EP   1    351 13.86                             107   -0.25 4  401 211 
 SJC  HZ EP   1    351 14.97                             106   -0.99 4  416 325 
                                                                                
