 2016 1110 0157 19.8 L   7.400 -73.194131.5  RSN  5 0.1 1.6LRSN                1
 GAP=184        0.42       3.4     2.0  3.7 -0.1405E+01  0.3497E+01 -0.4554E+01E
 Epicentro: EL PLAYON - SANTANDER                                              3
 ACTION:UPD 17-10-26 21:06 OP:lp   STATUS:               ID:20161110015719 L   I
 OLDACT:REG 16-11-10 11:51 OP:lv   STATUS:               ID:20161110014744     3
 2016-11-10-0148-00M.COL___349                                                 6
 STAT SP IPHASW D HRMM SECON CODA AMPLIT PERI AZIMU VELO AIN AR TRES W  DIS CAZ7
 PAM  EZ EP        157 39.41                             156    0.2010 55.0  97 
 PAM  EE ES        157 54.23                             156   -0.1410 55.0  97 
 PAM  EZ I         157 54.81         4.5 0.30            160           55.0  97 
 BRR  HZ IP     C  157 39.15                             152    0.0710 65.7 241 
 BRR  HN ES        157 54.28                             152    0.1510 65.7 241 
 BRR  HZ I         157 54.97        11.9 0.12            150           65.7 241 
 BAR2 EZ ES        157 57.36                             144   -0.1110 89.3 179 
 BAR2 EZ I         157 58.70        18.4 0.13            144           89.3 179 
 PTB  HZ EP        157 47.52                             124   -0.17 9  169 236 
 PTB  HN ES        158  9.58                             124    0.12 9  169 236 
 PTB  HZ I         158 13.37         3.6 0.14            124            169 236 
 ZAR  HZ EP        157 49.22                             122   -0.01 9  184 273 
 ZAR  HE ES        158 12.04                             122   -0.15 9  184 273 
 ZAR  HZ I         158 15.84         4.3 0.22            122            184 273 
                                                                                
