 2017  110 0216 50.3 L   6.777 -73.137146.5  RSN  5 0.2 1.1LRSN                1
 GAP=139        0.52       2.8     2.7  3.8 -0.7146E+00  0.1258E+01  0.4404E+00E
 Epicentro: LOS SANTOS - SANTANDER                                             3
 ACTION:UPD 17-05-22 15:57 OP:jn   STATUS:               ID:20170110021650 L   I
 OLDACT:UP  17-01-10 14:05 OP:and  STATUS:               ID:20170110020746d    3
 OLDACT:DUP 17-01-10 14:03 OP:and  STATUS:               ID:20170110020746d    3
 OLDACT:REG 17-01-10 12:28 OP:and  STATUS:               ID:20170110020745     3
 2017-01-10-0208-00M.COL___354                                                 6
 STAT SP IPHASW D HRMM SECON CODA AMPLIT PERI AZIMU VELO AIN AR TRES W  DIS CAZ7
 BAR2 EZ EP        217  9.99                             171    0.0210 21.0 194 
 BAR2 EZ ES        217 24.91                             171   -0.4010 21.0 194 
 BAR2 EZ I         217 25.77         4.4 0.42            171           21.0 194 
 BRR  HZ EP        217 11.68                             152    0.0410 73.3 300 
 BRR  HN ES        217 28.46                             152    0.1710 73.3 300 
 BRR  HZ I         217 30.31         2.2 0.15            150           73.3 300 
 PAM  EZ EP        217 12.50                             150   -0.1710 78.8  38 
 PAM  EN ES        217 30.28                             150    0.1610 78.8  38 
 PAM  EZ I         217 32.00         2.4 0.40            153           78.8  38 
 RUS  HZ EP        217 13.89                             145   -0.0410 97.9 176 
 RUS  HN ES        217 32.61                             145    0.2510 97.9 176 
 RUS  HZ I         217 33.82         1.0 0.32            146           97.9 176 
 PTB  HZ EP        217 17.39                             132    0.03 9  148 260 
 PTB  HN ES        217 38.39                             132   -0.08 9  148 260 
 PTB  HZ I         217 44.60         1.2 0.20            132            148 260 
                                                                                
