 2011  510 0138 41.9 L   6.774 -73.111143.9  RSN 13 0.3 2.0LRSN                1
 GAP=142        0.73       3.5     5.3  4.5 -0.6887E+01  0.1910E+01  0.1588E+00E
 Epicentro: LOS SANTOS - SANTANDER                                             3
 ACTION:UP  11-06-29 08:52 OP:tino STATUS:               ID:20110510013841 L   I
 2011-05-10-0135-01S.COL___133                                                 6
 STAT SP IPHASW D HRMM SECON CODA AMPLIT PERI AZIMU VELO SNR AR TRES W  DIS CAZ7
 BAR2 SZ EP        139  1.24                             171     0.010   22 201 
 BAR2 SZ ES   1    139 15.51                             171    -0.8 7   22 201 
 BAR2 SZ I         139 17.29        29.1 0.32                            22 201 
 BTL  SZ IP        139  1.32                             170     0.010   24 313 
 BTL  SZ ES   2    139 16.11                             170    -0.3 5   24 313 
 GIR2 SZ EP        139  1.29                             166    -0.110   35 345 
 GIR2 SZ ES   1    139 16.75                             166     0.1 7   35 345 
 BRR  HZ IP     C  139  2.94                             151    -0.210   76 299 
 BRR  HZ I         139  3.23        58.6 0.13                            76 299 
 BRR  HN ES   1    139 20.25                             151     0.6 7   76 299 
 PAM  SZ EP        139  4.17                             150     0.310   77  36 
 PAM  SN ES   1    139 21.29                             150     0.2 7   77  36 
 RUS  HZ EP        139  5.16                             144    -0.110   98 178 
 RUS  HN ES   1    139 23.86                             144     0.4 7   98 178 
 RUS  HZ I         139 25.02         7.6 0.28                            98 178 
 BRI  SZ EP        139  5.81                             141     0.110  110  18 
 GRA  SZ EP        139  6.99                             136    -0.110  127  15 
 GRA  SZ I         139 27.75         5.8 0.41                           127  15 
 OCA  SZ EP   1    139  9.91                             129    -0.4 7  164 352 
 OCA  SZ I         139 39.99         8.6 0.25                           164 352 
 NOR  SN ES   2    139 45.67                             118     0.1 4  236 236 
 HEL  HZ EP   1    139 22.46                             114     0.1 6  275 257 
 HEL  HZ I         140  0.77         3.8 0.16                           275 257 
 RREF HZ EP   3    139 28.58                             110     0.5 2  323 230 
 RREF HN ES   3    140  3.71                             110    -0.4 2  323 230 
 RREF HZ I         140 10.60         3.7 0.63                           323 230 
 PRA  HZ EP        139 35.23                             106     0.0 6  391 210 
 PRA  HN ES   2    140 17.15                             106     0.2 3  391 210 
 PRA  HZ I         140 20.80         6.4 0.15                           391 210 
                                                                                
