 2014  210 0548 23.3 L   6.835 -73.135140.8  RSN 10 0.4 1.5LRSN                1
 GAP=136        0.89       2.6     4.8  5.8 -0.4470E+00  0.1206E+02  0.1400E+01E
 Epicentro: LOS SANTOS - SANTANDER                                             3
 ACTION:UPD 14-03-10 08:09 OP:ep   STATUS:               ID:20140210054823 L   I
 OLDACT:DUP 14-02-10 13:29 OP:mh   STATUS:               ID:20140210054649d    3
 2014-02-10-0546-48M.COL___221                                                 6
 STAT SP IPHASW D HRMM SECON CODA AMPLIT PERI AZIMU VELO AIN AR TRES W  DIS CAZ7
 BAR2 SZ IP     D  548 42.80                             168    0.3510 27.3 191 
 BAR2 SZ ES        548 57.57                             168    0.2110 27.3 191 
 BAR2 SZ I         548 59.21        12.5 0.11            168           27.3 191 
 PAM  SZ EP        548 45.07                             151    0.2810 73.7  41 
 PAM  SN ES        549  1.12                             151   -0.4110 73.7  41 
 PAM  SZ I         549  4.92         5.6 0.47            154           73.7  41 
 RUS  HZ EP   1    548 46.78                             142   -0.09 7  104 177 
 RUS  HN ES        549  5.59                             142    0.3610  104 177 
 RUS  HZ I         549  7.30         2.4 0.30            144            104 177 
 PTB  HZ EP   1    548 50.65                             130    0.58 7  150 257 
 PTB  HN ES   1    549 10.13                             130   -0.80 7  150 257 
 OCA  HN ES   1    549 11.50                             129   -0.92 7  157 353 
 OCA  HZ I         549 17.18         3.6 0.24            131            157 353 
 SPBC HZ EP        548 51.60                             127   -0.21 9  167 218 
 SPBC HN ES   2    549 13.99                             127   -0.03 5  167 218 
 ZAR  HZ EP   1    548 55.96                             121    0.54 6  204 291 
 ZAR  HN ES   1    549 20.71                             121    0.27 6  204 291 
 ZAR  HZ I         549 26.87         4.4 0.09            122            204 291 
 SML  HZ EP   1    548 59.21                             117   -0.14 6  241 335 
 SML  HE ES        549 27.84                             117    0.39 8  241 335 
 CHI  HZ EP        549  0.60                             116   -0.59 8  253 195 
 CHI  HN ES        549 30.43                             116   -0.30 8  253 195 
 CHI  HZ I         549 37.64         1.4 0.42            117            253 195 
 PRA  HZ EP        549 17.06                             105   -0.08 6  396 209 
 PRA  HN ES        549 59.16                             105    0.05 6  396 209 
 PRA  HZ I         550  4.12         1.9 0.21            107            396 209 
                                                                                
