 2017  210 0247 58.2 L   6.833 -73.156139.7  RSN  4 0.3 0.9LRSN                1
 GAP=239        0.69       8.5     9.9  7.6  0.6386E+02  0.1699E+02  0.2299E+02E
 Epicentro: LOS SANTOS - SANTANDER                                             3
 ACTION:UPD 17-05-24 15:34 OP:jn   STATUS:               ID:20170210024758 L   I
 OLDACT:DUP 17-02-10 15:20 OP:edw  STATUS:               ID:20170210023749d    3
 OLDACT:DUP 17-02-10 15:16 OP:edw  STATUS:               ID:20170210023748d    3
 2017-02-10-0238-00M.COL___364                                                 6
 STAT SP IPHASW D HRMM SECON CODA AMPLIT PERI AZIMU VELO AIN AR TRES W  DIS CAZ7
 BAR2 EZ ES        248 32.28                             169    0.3510 26.8 186 
 BRR  HN ES        248 34.09                             152   -0.2710 68.5 296 
 RUS  HZ EP        248 21.74                             142    0.1510  104 176 
 RUS  HN ES        248 39.53                             142   -0.3410  104 176 
 RUS  HZ I         248 42.00         1.3 0.42            140            104 176 
 PTB  HZ EP   2    248 24.63                             131    0.03 5  147 257 
 PTB  HN ES   2    248 45.69                             131    0.46 5  147 257 
                                                                                
