 2011 1210 0453 53.7 L   6.457 -73.544120.5  RSN  4 0.4 1.4LRSN                1
 GAP=135        0.72       7.3     6.8 10.5  0.2258E+02  0.2078E+02  0.2802E+02E
 Epicentro: SANTA HELENA DEL OPON - SANTANDER                                  3
 ACTION:UPD 12-07-13 16:15 OP:ep   STATUS:               ID:20111210045353 L   I
 2011-12-10-0450-00M.COL___186                                                 6
 STAT SP IPHASW D HRMM SECON CODA AMPLIT PERI AZIMU VELO AIN AR TRES W  DIS CAZ7
 BAR2 SZ EP   1    454 10.91                             159   -0.07 7 42.7  70 
 BAR2 SZ ES   2    454 23.78                             159   -0.66 5 42.7  70 
 BAR2 SZ I         454 25.86        13.7 0.49                          42.7  70 
 BRR  HZ EP   1    454 12.70                             146    0.30 7 74.2 346 
 BRR  HN ES   1    454 27.11                             146    0.14 7 74.2 346 
 BRR  HZ I         454 27.97         5.9 0.15                          74.2 346 
 RUS  HZ EP   1    454 13.93                             144    0.38 7 80.6 141 
 RUS  HN ES   2    454 28.93                             144   -0.08 5 80.6 141 
 RUS  HZ I         454 31.36         3.1 0.19                          80.6 141 
 PTB  HZ EP   1    454 13.84                             137   -0.64 7  101 275 
 PTB  HE ES   2    454 31.17                             137    0.50 5  101 275 
                                                                                
