 2014  910 0713 21.3 L   6.812 -73.126143.2  RSN 11 0.5 1.9LRSN                1
 GAP=138        1.26       3.8     4.9  7.0 -0.2349E+01  0.9867E+01  0.5245E+01E
 Epicentro: LOS SANTOS - SANTANDER                                             3
 ACTION:UPD 14-10-03 23:03 OP:nd   STATUS:               ID:20140910070819dL   I
 OLDACT:DUP 14-09-10 15:14 OP:carl STATUS:               ID:20140910070819dL   3
 2014-09-10-0708-18M.COL___278                                                 6
 STAT SP IPHASW D HRMM SECON CODA AMPLIT PERI AZIMU VELO AIN AR TRES W  DIS CAZ7
 BAR2 SZ EP        713 40.73                             170    0.0910 25.1 194 
 BAR2 SZ ES        713 55.44                             170   -0.3010 25.1 194 
 BAR2 SZ I         713 56.58        16.6 0.34            169           25.1 194 
 BRR  HZ EP        713 42.56                             152    0.3310 72.5 297 
 BRR  HN ES        713 59.29                             152    0.7210 72.5 297 
 BRR  HZ I         714  3.25        12.9 0.12            151           72.5 297 
 PAM  SZ IP     D  713 43.58                             151    0.5010 74.9  39 
 PAM  SN ES        714  0.14                             151    0.0610 74.9  39 
 PAM  SZ I         714  2.58        13.3 0.46            154           74.9  39 
 RUS  HZ EP        713 44.79                             143   -0.0810  102 177 
 RUS  HN ES        714  3.51                             143    0.2410  102 177 
 RUS  HZ I         714  5.20        11.4 0.34            145            102 177 
 PTB  HZ EP        713 47.41                             131   -0.86 9  150 258 
 PTB  HN ES        714  8.29                             131   -1.02 9  150 258 
 PTB  HZ I         714 12.29         8.5 0.26            132            150 258 
 OCA  HN ES        714 10.49                             129   -0.65 9  159 352 
 OCA  HZ I         714 14.35        10.2 0.12            131            159 352 
 SPBC HZ EP        713 49.81                             128   -0.01 9  166 219 
 SPBC HN ES        714 12.02                             128   -0.06 9  166 219 
 SPBC HZ I         714 14.37        12.0 0.22            129            166 219 
 ZAR  HZ EP        713 54.00                             122    0.28 8  206 292 
 ZAR  HN ES        714 19.06                             122    0.04 8  206 292 
 ZAR  HZ I         714 24.31         9.6 0.54            123            206 292 
 NOR  HZ EP        713 57.18                             118    0.04 8  237 235 
 NOR  HE ES        714 25.03                             118   -0.08 8  237 235 
 NOR  HZ I         714 28.39        16.6 0.92            119            237 235 
 CHI  HZ EP        713 58.63                             116   -0.42 8  251 196 
 CHI  HN ES        714 28.14                             116   -0.36 8  251 196 
 CHI  HZ I         714 34.45         2.7 0.36            118            251 196 
 GUY2CHZ EP        714  5.35                             112    0.28 7  304 235 
 GUY2CHN ES        714 40.77                             112    1.55 7  304 235 
 GUY2CHZ I         714 46.70         3.2 0.48                           304 235 
                                                                                
