 2016  710 0341 16.2 L   6.955 -73.154128.3  RSN  6 0.5 1.6LRSN                1
 GAP=257        1.04       6.6     8.6  9.0  0.1229E+02  0.4284E+02  0.3357E+01E
 Epicentro: PIEDECUESTA - SANTANDER                                            3
 ACTION:UPD 17-03-29 16:48 OP:lp   STATUS:               ID:20160710034116 L   I
 OLDACT:UP  16-08-19 22:00 OP:lp   STATUS:               ID:20160710034116 L   3
 OLDACT:UP  16-08-18 22:43 OP:nlst STATUS:               ID:20160710034116 L   3
 OLDACT:UP  16-07-10 15:03 OP:dani STATUS:               ID:20160710033743     3
 OLDACT:UP  16-07-10 15:00 OP:dani STATUS:               ID:20160710033743     3
 OLDACT:UP  16-07-10 15:00 OP:dani STATUS:               ID:20160710033743     3
 OLDACT:UP  16-07-10 14:59 OP:dani STATUS:               ID:20160710033743     3
 OLDACT:UP  16-07-10 14:57 OP:dani STATUS:               ID:20160710033743     3
 OLDACT:REG 16-07-10 12:29 OP:dani STATUS:               ID:20160710033743     3
 2016-07-10-0337-43M.COL___327                                                 6
 STAT SP IPHASW D HRMM SECON CODA AMPLIT PERI AZIMU VELO AIN AR TRES W  DIS CAZ7
 BAR2 EZ EP   3    341 33.42                             161   -0.81 2 40.3 184 
 BAR2 EZ ES        341 48.92                             161    0.6010 40.3 184 
 BAR2 EZ I         341 51.41         7.3 0.24            161           40.3 184 
 BRR  HZ EP   3    341 35.57                             152    0.54 2 63.9 285 
 BRR  HE ES        341 49.33                             152   -0.4010 63.9 285 
 RUS  HN ES   4    341 53.13                             135   -4.87 0  118 176 
 PTB  HZ EP   4    341 40.82                             127   -1.29 0  151 252 
 PTB  HE ES        342  2.02                             127   -0.31 9  151 252 
 PTB  HZ I         342  6.81         4.4 0.34            127            151 252 
 SPBC HZ EP   4    341 42.38                             122   -2.35 0  176 215 
 SPBC HE ES        342  6.47                             122   -0.54 9  176 215 
 SPBC HZ I         342 10.55         4.8 0.18            124            176 215 
 ZAR  HZ EP        341 46.37                             119   -0.46 9  197 288 
 ZAR  HN ES        342 10.95                             119    0.21 9  197 288 
 ZAR  HZ I         342 17.34         6.2 0.34            120            197 288 
 HEL  HZ EP        341 56.57                             111    0.57 7  276 252 
 HEL  HN ES        342 27.71                             111    0.65 7  276 252 
                                                                                
