 2017  410 0721 31.3 L   6.754 -73.132147.1  RSN  6 0.3 1.6LRSN                1
 GAP=140        0.82       4.1     3.7  5.5  0.1497E+01  0.5099E+01 -0.1106E+01E
 Epicentro: LOS SANTOS - SANTANDER                                             3
 ACTION:UPD 17-05-30 21:10 OP:jn   STATUS:               ID:20170410072131 L   I
 OLDACT:UP  17-04-10 16:59 OP:dani STATUS:               ID:20170410071739     3
 OLDACT:REG 17-04-10 13:18 OP:edw  STATUS:               ID:20170410071739     3
 2017-04-10-0718-00M.COL___368                                                 6
 STAT SP IPHASW D HRMM SECON CODA AMPLIT PERI AZIMU VELO AIN AR TRES W  DIS CAZ7
 BAR2 EZ EP        721 50.90                             172   -0.0710 18.7 197 
 BAR2 EZ ES        722  6.34                             172   -0.0110 18.7 197 
 BAR2 EZ I         722  8.87         7.3 0.40            173           18.7 197 
 BRR  HZ EP        721 52.89                             151    0.1110 75.1 301 
 BRR  HE ES        722  9.96                             151    0.4010 75.1 301 
 BRR  HZ I         722 14.53         7.4 0.12            151           75.1 301 
 PAM  EZ EP        721 54.01                             150    0.2110 80.4  36 
 PAM  EE ES        722 10.93                             150   -0.4610 80.4  36 
 PAM  EZ I         722 13.31         7.9 0.66            152           80.4  36 
 RUS  HZ EP        721 54.88                             146    0.1010 95.4 177 
 RUS  HN ES        722 13.34                             146    0.2110 95.4 177 
 RUS  HZ I         722 14.29         2.0 0.36            150           95.4 177 
 PTB  HZ EP        721 57.77                             132   -0.63 9  148 261 
 PTB  HN ES        722 19.19                             132   -0.37 9  148 261 
 PTB  HZ I         722 21.46         4.3 0.14            134            148 261 
 ZAR  HZ EP        722  4.54                             122    0.40 8  207 293 
 ZAR  HE ES        722 29.92                             122    0.13 8  207 293 
 ZAR  HZ I         722 35.57         8.7 0.56            124            207 293 
                                                                                
