 2017  410 0654 51.2 L   6.453 -73.760100.2  RSN  5 0.1 1.1LRSN                1
 GAP=148        0.31       1.6     1.3  2.6  0.5509E+00 -0.1579E+00  0.3006E+00E
 Epicentro: SANTA HELENA DEL OPON - SANTANDER                                  3
 ACTION:UPD 17-05-30 21:10 OP:jn   STATUS:               ID:20170410065451 L   I
 OLDACT:UP  17-04-10 18:31 OP:edw  STATUS:               ID:20170410064745d    3
 OLDACT:DUP 17-04-10 18:23 OP:edw  STATUS:               ID:20170410064745d    3
 2017-04-10-0648-00M.COL___368                                                 6
 STAT SP IPHASW D HRMM SECON CODA AMPLIT PERI AZIMU VELO AIN AR TRES W  DIS CAZ7
 BAR2 EZ EP        655  7.67                             144    0.0410 65.7  76 
 BAR2 EZ ES        655 20.43                             144    0.0110 65.7  76 
 BAR2 EZ I         655 21.67         6.1 0.18            147           65.7  76 
 BRR  HZ EP        655  7.83                             141    0.0310 72.6   4 
 BRR  HN ES        655 20.77                             141    0.0410 72.6   4 
 PTB  HZ EP        655  8.22                             139   -0.0010 77.6 277 
 PTB  HZ ES        655 21.43                             139   -0.0410 77.6 277 
 PTB  HZ I         655 22.97         3.4 0.12            141           77.6 277 
 RUS  HZ EP        655 10.69                             132    0.1410 97.2 130 
 RUS  HN ES        655 25.52                             132   -0.0910 97.2 130 
 RUS  HZ I         655 27.46         1.4 0.18            134           97.2 130 
 PAM  EZ EP        655 15.96                             118   -0.14 9  153  50 
 PAM  EN ES   4    655 32.18                             118   -3.31 0  153  50 
                                                                                
