 2011  510 0643 59.6 L   6.786 -73.119148.0  RSN 12 0.2 2.2LRSN                1
 GAP=141        0.61       3.5     5.4  4.9 -0.9029E+01  0.7005E+01  0.9722E+00E
 Epicentro: LOS SANTOS - SANTANDER                                             3
 ACTION:UP  11-06-29 08:52 OP:tino STATUS:               ID:20110510064359 L   I
 2011-05-10-0640-00M.COL___140                                                 6
 STAT SP IPHASW D HRMM SECON CODA AMPLIT PERI AZIMU VELO SNR AR TRES W  DIS CAZ7
 BTL  SZ EP        644 19.48                             171     0.010   22 312 
 BTL  SZ ES   3    644 35.03                             171     0.1 2   22 312 
 BAR2 SZ IP        644 19.27                             171    -0.210   22 198 
 BAR2 SZ ES   1    644 35.31                             171     0.3 7   22 198 
 BAR2 SZ I         644 37.32        26.9 0.23                            22 198 
 BRR  HZ IP        644 21.24                             152     0.110   75 299 
 BRR  HZ I         644 21.48        40.2 0.14                            75 299 
 BRR  HE ES   2    644 37.75                             152    -0.3 5   75 299 
 PAM  SZ EP        644 22.45                             151     0.410   77  37 
 RUS  HZ EP        644 23.15                             145    -0.310   99 178 
 RUS  HZ I         644 43.40        13.6 0.50                            99 178 
 BRI  SZ EP        644 23.91                             142     0.210  109  19 
 BRI  SZ ES   3    644 42.24                             142    -0.3 2  109  19 
 GRA  SZ EP   1    644 24.83                             137    -0.3 7  126  16 
 GRA  SZ ES   1    644 44.79                             137    -0.2 7  126  16 
 GRA  SZ I         644 47.66        19.8 0.26                           126  16 
 OCA  SZ EP        644 28.05                             130    -0.2 9  162 352 
 NOR  SZ EP        644 35.57                             119     0.0 8  236 235 
 HEL  HZ EP        644 40.43                             115     0.2 8  275 256 
 HEL  HZ I         645 17.66         8.7 0.41                           275 256 
 GUY  SZ EP   3    644 43.99                             113     0.3 2  305 236 
 GUY  SZ I         645 29.16        16.7 0.50                           305 236 
 MON  HZ EP   4    644 46.33                             109    -2.7 0  357 308 
 PRA  HZ EP        644 53.28                             107     0.1 6  392 210 
                                                                                
