 2011  910 0135 53.7 L   6.819 -73.141148.0  RSN  4 0.2 1.6LRSN                1
 GAP=188        0.41       6.5     8.0  7.2  0.3597E+02  0.1380E+02  0.9494E+01E
 Epicentro: LOS SANTOS - SANTANDER                                             3
 ACTION:UPD 12-07-13 15:56 OP:ep   STATUS:               ID:20110910013553 L   I
 2011-09-10-0120-00M.COL___171                                                 6
 STAT SP IPHASW D HRMM SECON CODA AMPLIT PERI AZIMU VELO AIN AR TRES W  DIS CAZ7
 GIR2 SZ EP   3    136 13.22                             168   -0.34 2 29.3 349 
 GIR2 SZ ES   2    136 28.83                             168   -0.24 5 29.3 349 
 BRR  HZ EP   1    136 15.24                             153    0.21 7 70.7 297 
 BRR  HN ES   2    136 31.97                             153    0.28 5 70.7 297 
 BRR  HZ I         136 34.14         6.9 0.22                          70.7 297 
 RUS  HZ EP   2    136 17.67                             144   -0.11 5  103 176 
 RUS  HN ES   2    136 36.57                             144   -0.03 5  103 176 
 RUS  HZ I         136 37.76         3.2 0.33                           103 176 
 ZAR  HN ES   2    136 51.22                             123   -0.40 4  204 292 
 ZAR  HZ I         136 57.44         5.9 0.53                           204 292 
                                                                                
