 2012  110 0428  9.2 L   6.798 -73.111146.1  RSN 14 0.3 2.6LRSN                1
 GAP=141        0.57       2.9     3.4  4.2 -0.1920E+01  0.3959E+01  0.2375E+01E
 Epicentro: LOS SANTOS - SANTANDER                                             3
 ACTION:UP  12-02-03 08:16 OP:REBC STATUS:               ID:20120110042809 L   I
 2012-01-10-0420-00M.COL___181                                                 6
 STAT SP IPHASW D HRMM SECON CODA AMPLIT PERI AZIMU VELO SNR AR TRES W  DIS CAZ7
 BAR2 SZ EP   1    428 28.82                             170    -0.1 7   24 199 
 BAR2 SZ ES   1    428 44.36                             170     0.1 7   24 199 
 BAR2 SZ I         428 46.63       106.4 0.33                            24 199 
 GIR2 SZ EP   2    428 28.91                             167     0.0 5   32 344 
 GIR2 SZ ES   2    428 44.46                             167     0.1 5   32 344 
 BRR  HZ IP     D  428 30.70                             151     0.110   75 297 
 BRR  HE ES   2    428 47.80                             151     0.5 5   75 297 
 BRR  HZ I         428 52.12        47.0 0.23                            75 297 
 PAM  SZ EP        428 31.61                             151     0.310   75  37 
 PAM  SN ES   1    428 48.49                             151    -0.1 7   75  37 
 RUS  HZ EP        428 32.83                             144    -0.110  100 178 
 RUS  HN ES   2    428 50.62                             144    -0.9 5  100 178 
 RUS  HZ I         428 53.45        47.9 0.43                           100 178 
 PTB  HE ES   2    428 57.40                             131    -0.5 5  152 259 
 ZAR  HZ EP   2    428 41.39                             122    -0.7 4  208 292 
 ZAR  HE ES   2    429  7.10                             122    -0.6 4  208 292 
 ZAR  HZ I         429 13.53        40.9 0.43                           208 292 
 NOR  SZ EP   1    428 45.17                             118    -0.1 6  238 235 
 NOR  SN ES   2    429 13.44                             118     0.0 4  238 235 
 CHI  HZ EP   1    428 47.18                             117     0.2 6  249 196 
 CHI  HN ES   2    429 16.67                             117     0.2 4  249 196 
 CHI  HZ I         429 20.47        19.6 0.40                           249 196 
 HEL  HZ EP   1    428 50.28                             114     0.4 6  276 256 
 HEL  HN ES   2    429 21.89                             114     0.3 4  276 256 
 HEL  HZ I         429 28.49        27.3 0.43                           276 256 
 VIL  SZ EP   2    428 52.84                             112     0.1 4  304 192 
 RREF HZ EP   2    428 56.24                             111     0.6 3  325 230 
 RREF HN ES   2    429 32.01                             111     0.1 3  325 230 
 RREF HZ I         429 43.16        22.0 0.44                           325 230 
 COD  HZ EP   2    428 56.98                             109    -0.7 3  349 354 
 COD  HN ES   2    429 34.97                             109    -0.5 3  349 354 
 PRA  HZ EP   2    429  3.23                             106     0.3 3  394 210 
                                                                                
