 2014 1010 0402 19.5 L   6.793 -73.132140.3  RSN  7 0.3 1.5LRSN                1
 GAP=202        0.71       3.3     5.0  6.7  0.5543E+01 -0.2858E+01 -0.5284E+01E
 Epicentro: LOS SANTOS - SANTANDER                                             3
 ACTION:UPD 14-11-29 23:48 OP:nd   STATUS:               ID:20141010040219 L   I
 OLDACT:DUP 14-10-10 16:55 OP:fm   STATUS:               ID:20141010035740d    3
 2014-10-10-0357-39M.COL___293                                                 6
 STAT SP IPHASW D HRMM SECON CODA AMPLIT PERI AZIMU VELO AIN AR TRES W  DIS CAZ7
 BRR  HZ EP   1    4 2 40.36                             151    0.21 7 72.9 298 
 BRR  HN ES        4 2 56.56                             151    0.2910 72.9 298 
 BRR  HZ I         4 3  2.39         4.8 0.46            148           72.9 298 
 RUS  HZ EP   1    4 2 42.98                             143    0.33 7 99.8 177 
 RUS  HN ES        4 3  0.28                             143   -0.4410 99.8 177 
 RUS  HZ I         4 3  2.92         2.5 0.30            147           99.8 177 
 PTB  HZ EP   1    4 2 45.98                             130   -0.17 7  149 259 
 PTB  HN ES        4 3  6.66                             130   -0.27 9  149 259 
 PTB  HZ I         4 3 14.85         4.3 0.42            130            149 259 
 SPBC HZ EP   1    4 2 47.55                             128   -0.07 7  164 220 
 SPBC HN ES        4 3 10.05                             128    0.50 9  164 220 
 SPBC HZ I         4 3 15.31         5.1 0.26            129            164 220 
 ZAR  HE ES   1    4 3 16.51                             121   -0.42 6  206 292 
 ZAR  HZ I         4 3 23.62         3.7 0.32            122            206 292 
 SML  HZ EP   1    4 2 55.90                             116   -0.06 6  245 335 
 SML  HE ES   1    4 3 24.36                             116   -0.05 6  245 335 
 SML  HZ I         4 3 29.01         7.3 0.10            118            245 335 
 GUY2CHZ EP   4    4 3  4.26                             111    1.31 0  302 235 
 GUY2CHN ES   4    4 3 41.60                             111    4.76 0  302 235 
 GUY2CHZ I         4 3 45.97         2.1 0.40                           302 235 
 MON  HN ES   4    4 3 43.64                             107   -3.04 0  355 308 
 MON  HZ I    4    4 3 47.75         0.7 0.36            109            355 308 
                                                                                
