 2017 1210 0440 17.3 L   6.784 -73.185138.0  RSN 12 0.4 1.7LRSN                1
 GAP=109        1.00       3.0     3.4  6.2  0.9311E-01  0.6974E+01  0.4801E+01E
 Epicentro: LOS SANTOS - SANTANDER                                             3
 ACTION:UPD 18-01-04 13:18 OP:rebc STATUS:               ID:20171210044017 L   I
 OLDACT:REG 17-12-10 12:50 OP:lv   STATUS:               ID:20171210043741     3
 2017-12-10-0438-00M.COL___475                                                 6
 STAT SP IPHASW D HRMM SECON CODA AMPLIT PERI AZIMU VELO AIN AR TRES W  DIS CAZ7
 BAR2 EZ EP        440 35.75                             171   -0.2510 21.3 179 
 BAR2 EZ ES        440 50.71                             171    0.1610 21.3 179 
 BAR2 EZ I         440 53.57        11.8 0.30            170           21.3 179 
 PAM  EZ EP        440 38.72                             148   -0.2810 81.5  41 
 PAM  EN ES        440 55.89                             148   -0.0110 81.5  41 
 PAM  EZ I         440 59.00         5.5 0.42            154           81.5  41 
 PTB  HZ EP        440 42.54                             131   -0.73 9  143 259 
 PTB  HN ES        441  3.36                             131   -0.13 9  143 259 
 PTB  HZ I         441 10.15         3.4 0.32            133            143 259 
 SPBC HZ EP        440 45.04                             128    0.17 9  159 218 
 SPBC HN ES   4    441  7.65                             128    1.31 0  159 218 
 SPBC HZ I         441 11.58         7.5 0.20            131            159 218 
 OCA  HZ EP        440 45.06                             128   -0.13 9  162 355 
 OCA  HN ES        441  7.20                             128    0.30 9  162 355 
 OCA  HZ I         441  9.65        11.8 0.24            132            162 355 
 YPLC HZ EP        440 46.18                             125   -0.47 9  177 150 
 YPLC HN ES        441 10.32                             125    0.81 9  177 150 
 YPLC HZ I         441 11.12         5.0 0.24            129            177 150 
 ZAR  HE ES        441 13.86                             121    0.26 9  201 293 
 CHI  HZ EP        440 54.18                             116   -0.14 8  246 194 
 CHI  HN ES        441 22.66                             116   -0.50 8  246 194 
 CHI  HZ I         441 27.06         2.9 0.74            119            246 194 
 URE  HN ES   4    441 26.49                             112   -2.63 0  280 293 
 URE  HZ I         441 34.11         2.5 0.16            115            280 293 
 GUY2CHZ EP        441  1.12                             111    1.03 7  297 235 
 GUY2CHN ES        441 33.24                             111   -0.19 7  297 235 
 GUY2CHZ I         441 42.12         2.6 0.64                           297 235 
 PTGC HZ EP   9    440 58.83                             110   -2.04 0  309 158 
 PTGC HN ES        441 32.80                                    0.02 7  309 158 
 CBOC HZ EP        441  4.17                             109    0.76 7  329 252 
 CBOC HN ES        441 39.39                             109    0.05 7  329 252 
 SJC  HZ EP   4    441  9.69                             104   -2.87 0  408 328 
 SJC  HN ES   4    441 51.16                             104   -4.46 0  408 328 
                                                                                
