 2017  410 0526 43.9 L   6.789 -73.106142.0  RSN  5 0.3 0.9LRSN                1
 GAP=142        0.80       4.3     4.2  7.7  0.4093E+01  0.1180E+02  0.7928E+01E
 Epicentro: LOS SANTOS - SANTANDER                                             3
 ACTION:UPD 17-05-30 21:10 OP:jn   STATUS:               ID:20170410052643 L   I
 OLDACT:UP  17-04-10 17:28 OP:edw  STATUS:               ID:20170410051740d    3
 OLDACT:DUP 17-04-10 17:21 OP:edw  STATUS:               ID:20170410051740d    3
 OLDACT:REG 17-04-10 12:54 OP:edw  STATUS:               ID:20170410051739     3
 2017-04-10-0518-00M.COL___371                                                 6
 STAT SP IPHASW D HRMM SECON CODA AMPLIT PERI AZIMU VELO AIN AR TRES W  DIS CAZ7
 PAM  EN ES        527 22.27                             151   -0.3210 75.6  36 
 BRR  HZ EP        527  5.35                             150    0.4010 75.6 298 
 BRR  HN ES        527 21.54                             150    0.2110 75.6 298 
 RUS  HZ EP        527  7.20                             143   -0.0310 99.2 179 
 RUS  HN ES        527 25.61                             143    0.2210 99.2 179 
 PTB  HZ EP        527 10.70                             130   -0.28 9  152 260 
 PTB  HN ES        527 31.57                             130   -0.50 9  152 260 
 PTB  HZ I         527 33.99         1.0 0.20            130            152 260 
 ZAR  HN ES        527 42.34                             121    0.25 8  209 292 
                                                                                
