 2010  710 0806 24.0 L   6.799 -73.105138.6  RSN  9 0.5 1.9LRSN                1
 GAP=160        0.80       4.4     7.2  7.3 -0.1137E+02  0.6226E+01 -0.1985E+01E
 Epicentro: LOS SANTOS - SANTANDER                                             3
 ACTION:UPD 10-12-01 15:16 OP:pat  STATUS:               ID:20100710080624 L   I
 2010-07-10-0804-50S.COL___120                                                 6
 STAT SP IPHASW D HRMM SECON CODA AMPLIT PERI AZIMU VELO AIN AR TRES W  DIS CAZ7
 BAR2 SZ IP     D  8 6 42.74                             169     0.010   25 201 
 BAR2 SZ ES   2    8 6 56.98                             169    -0.5 5   25 201 
 GIR2 SZ EP   1    8 6 42.85                             166     0.0 7   32 342 
 GIR2 SZ ES   2    8 6 57.85                             166     0.3 5   32 342 
 BRR  HZ EP   1    8 6 44.64                             150     0.0 7   75 297 
 BRR  HN ES   2    8 7  1.55                             150     0.8 5   75 297 
 BRR  HZ I         8 7  5.97        30.0 0.13                            75 297 
 RUS  HZ EP   1    8 6 46.80                             142    -0.2 7  100 179 
 RUS  HN ES   2    8 7  4.92                             142    -0.1 5  100 179 
 RUS  HZ I         8 7  5.93         5.0 0.16                           100 179 
 BRI  SZ EP   1    8 6 47.33                             140     0.2 7  107  18 
 BRI  SZ ES   2    8 7  5.88                             140     0.8 5  107  18 
 GUE  SZ EP   1    8 6 47.83                             138    -0.1 7  116  10 
 GUE  SZ ES   2    8 7  5.97                             138    -0.7 5  116  10 
 GRA  SZ IP     D  8 6 48.69                             136     0.210  125  15 
 GRA  SZ ES   2    8 7  7.65                             136     0.0 5  125  15 
 OCA  SZ EP   1    8 6 51.44                             128    -0.4 7  161 352 
 OCA  SZ ES   2    8 7 12.54                             128    -1.0 5  161 352 
 OCA  SZ I         8 7 17.42        11.4 0.43                           161 352 
 HEL  HZ EP   1    8 7  5.09                             113     0.8 6  276 256 
 HEL  HN ES   2    8 7 34.74                             113    -1.1 4  276 256 
 HEL  HZ I         8 7 41.81         4.2 0.58                           276 256 
                                                                                
