 2010  810 0810 58.0 L   6.299 -73.478114.2  RSN  7 0.5 1.8LRSN                1
 GAP=124        0.90       5.7    10.2 10.5 -0.3651E+02  0.6324E+02 -0.2213E+02E
 Epicentro: CONTRATACION - SANTANDER                                           3
 ACTION:UP  10-09-07 10:53 OP:vdl  STATUS:               ID:20100810081058 L   I
 2010-08-10-0808-12S.COL___125                                                 6
 STAT SP IPHASW D HRMM SECON CODA AMPLIT PERI AZIMU VELO SNR AR TRES W  DIS CAZ7
 BAR2 SZ IP        811 14.97                             156     0.310   46  45 
 BAR2 SZ I         811 15.14        22.2 0.34                            46  45 
 BAR2 SZ ES   1    811 27.12                             156    -0.6 7   46  45 
 RUS  HZ EP        811 16.27                             149     0.310   63 136 
 RUS  HZ I         811 16.73         5.9 0.29                            63 136 
 GUE  SZ EP        811 25.87                             118    -0.5 9  180  20 
 GUE  SZ ES   2    811 48.39                             118    -0.1 4  180  20 
 GRA  SZ EP   2    811 28.08                             116     0.8 4  191  23 
 GRA  SZ ES   2    811 51.11                             116     0.9 4  191  23 
 GRA  SZ I         812  2.82         6.7 0.19                           191  23 
 OCA  SZ EP        811 29.98                             113    -0.1 8  215   5 
 OCA  SZ ES   2    811 55.47                             113     0.4 4  215   5 
 OCA  SZ I         812  5.29         9.1 0.27                           215   5 
 GUY  SZ EP   1    811 33.02                             110    -0.3 6  241 241 
 GUY  SE ES   2    812  1.54                             110     0.7 4  241 241 
 PRA  HZ EP   2    811 42.27                             103    -0.4 3  326 209 
 PRA  HE ES   2    812 17.27                             103    -0.3 3  326 209 
 PRA  HZ I         812 24.45         5.8 0.35                           326 209 
                                                                                
