 2012  210 0613 10.1 L   6.866 -73.312123.2  RSN 16 0.4 2.4LRSN                1
 GAP=102        0.68       2.7     3.7  5.1 -0.1427E+01  0.6554E+01  0.1628E+01E
 ACTION:UP  12-03-07 16:29 OP:epov STATUS:               ID:20120210061310 L   I
 2012-02-10-0610-00M.COL___188                                                 6
 STAT SP IPHASW D HRMM SECON CODA AMPLIT PERI AZIMU VELO AIN AR TRES W  DIS CAZ7
 GIR2 SZ EP        613 27.06                             167    0.0410 27.0  29 
 GIR2 SZ ES   2    613 40.16                             167   -0.02 5 27.0  29 
 BAR2 SZ EP        613 27.47                             164    0.1010 33.5 155 
 BAR2 SZ ES   2    613 40.10                             164   -0.70 5 33.5 155 
 BAR2 SZ I         613 42.05       122.8 0.18                          33.5 155 
 BRR  HZ IP     C  613 27.90                             156    0.1310 51.6 301 
 BRR  HE ES   1    613 42.02                             156    0.49 7 51.6 301 
 BRR  HZ I         613 43.21        92.0 0.12                          51.6 301 
 PAM  SZ EP   2    613 30.89                             143    0.30 5 85.6  52 
 PAM  SN ES   2    613 46.76                             143    0.22 5 85.6  52 
 RUS  HZ EP   1    613 32.24                             136   -0.34 7  111 167 
 RUS  HN ES   2    613 50.01                             136   -0.07 5  111 167 
 RUS  HZ I         613 51.22        15.9 0.27                           111 167 
 PTB  HZ IP     C  613 32.80                             130   -1.0210  132 254 
 OCA  SZ EP        613 36.11                             125    0.15 9  152 360 
 OCA  SZ ES   2    613 55.92                             125   -0.18 5  152 360 
 ZAR  HZ EP   2    613 39.01                             120   -0.09 4  184 292 
 ZAR  HE ES   2    614  2.10                             120    0.41 4  184 292 
 ZAR  HZ I         614  5.38        33.7 0.30                           184 292 
 NOR  SZ EP   2    613 44.00                             114    0.46 4  225 230 
 NOR  SN ES   2    614  9.49                             114   -0.10 4  225 230 
 ROSC BE ES   2    614 15.33                             112   -0.16 4  250 207 
 ROSC BZ I         614 25.33        12.1 0.47                           250 207 
 CHI  HZ EP   1    613 47.53                             112    0.49 6  252 191 
 CHI  HN ES   2    614 16.55                             112    0.74 4  252 191 
 CHI  HZ I         614 19.62         8.0 0.83                           252 191 
 HEL  HZ EP   2    613 47.47                             111   -0.04 4  256 253 
 HEL  HE ES   2    614 16.82                             111    0.17 4  256 253 
 HEL  HZ I         614 20.91        14.4 0.30                           256 253 
 RREF HZ EP   2    613 54.73                             107    0.34 3  313 226 
 RREF HN ES   2    614 28.66                             107   -0.24 3  313 226 
 RREF HZ I         614 35.72        11.5 0.28                           313 226 
 DBB  SZ EP   1    613 55.04                             106    0.45 5  321 273 
 DBB  SZ ES   2    614 28.82                             106   -0.43 3  321 273 
 COD  HZ EP   2    613 57.09                             105    0.37 3  340 358 
 COD  HN ES   2    614 32.52                             105   -0.53 3  340 358 
 COD  HZ I         614 46.70        25.8 0.54                           340 358 
 PRA  HZ EP   2    614  3.09                             102    0.38 3  390 207 
 PRA  HN ES   2    614 44.28                             102    0.57 3  390 207 
                                                                                
