 2016  710 0154 32.2 L   6.834 -73.157138.0  RSN  9 0.5 1.9LRSN                1
 GAP=244        1.06       5.3     5.3  8.7  0.9609E+01  0.4666E+01 -0.7636E+01E
 Epicentro: LOS SANTOS - SANTANDER                                             3
 ACTION:UPD 17-03-29 16:48 OP:lp   STATUS:               ID:20160710015432 L   I
 OLDACT:UP  16-07-10 13:43 OP:dani STATUS:               ID:20160710014745     3
 OLDACT:UP  16-07-10 13:42 OP:dani STATUS:               ID:20160710014745     3
 OLDACT:UP  16-07-10 13:41 OP:dani STATUS:               ID:20160710014745     3
 OLDACT:UP  16-07-10 13:40 OP:dani STATUS:               ID:20160710014745     3
 OLDACT:REG 16-07-10 12:05 OP:dani STATUS:               ID:20160710014745     3
 2016-07-10-0147-45M.COL___325                                                 6
 STAT SP IPHASW D HRMM SECON CODA AMPLIT PERI AZIMU VELO AIN AR TRES W  DIS CAZ7
 BAR2 EZ EP     C  154 50.96                             168   -0.0210 26.9 186 
 BAR2 EZ I         155  7.60        20.0 0.20            173           26.9 186 
 RUS  HZ EP        154 55.33                             141   -0.1510  104 176 
 RUS  HN ES        155 14.10                             141    0.4510  104 176 
 RUS  HZ I         155 15.46        12.0 0.36            147            104 176 
 PTB  HZ EP        154 57.79                             130   -0.71 9  147 257 
 PTB  HE ES        155 18.66                             130   -0.36 9  147 257 
 PTB  HZ I         155 24.38         7.2 0.28            135            147 257 
 SPBC HZ EP        154 59.94                             127   -0.38 9  165 218 
 SPBC HN ES        155 22.21                             127   -0.05 9  165 218 
 SPBC HZ I         155 29.15        14.3 0.36            132            165 218 
 ZAR  HZ EP        155  4.76                             121    0.88 9  202 291 
 ZAR  HN ES        155 28.71                             121    0.11 9  202 291 
 ZAR  HZ I         155 34.69        15.0 0.68            125            202 291 
 NOR  HZ EP        155  7.18                             117   -0.44 8  236 234 
 NOR  HN ES        155 35.26                             117    0.01 8  236 234 
 NOR  HZ I         155 41.33         6.3 0.20            121            236 234 
 CHI  HZ EP        155  9.25                             115   -0.59 8  252 195 
 CHI  HE ES        155 39.62                             115    0.42 8  252 195 
 CHI  HZ I         155 44.50         3.8 0.22            120            252 195 
 GUY2CHZ EP        155 16.52                             111    0.93 7  302 234 
 GUY2CHN ES   4    155 50.85                             111    1.41 0  302 234 
 GUY2CHZ I         155 57.03         3.6 0.58                           302 234 
 CBOC HZ EP        155 18.93                             109    0.13 7  334 251 
 CBOC HN ES        155 55.49                             109    0.34 7  334 251 
 CBOC HZ I         156  6.00         1.6 0.38            112            334 251 
                                                                                
