 2016  510 0753  3.9 L   6.808 -73.076156.5  RSN 14 0.4 1.7LRSN                1
 GAP=125        0.91       3.0     3.8  6.0 -0.1159E+01  0.2882E+01  0.6211E+01E
 Epicentro: LOS SANTOS - SANTANDER                                             3
 ACTION:UPD 16-08-18 17:44 OP:cam  STATUS:               ID:20160510075303 L   I
 OLDACT:UP  16-05-10 15:45 OP:dani STATUS:               ID:20160510074742     3
 OLDACT:UP  16-05-10 15:43 OP:drio STATUS:               ID:20160510074742     3
 OLDACT:UP  16-05-10 13:45 OP:dani STATUS:               ID:20160510074742     3
 OLDACT:UP  16-05-10 13:41 OP:dani STATUS:               ID:20160510074742     3
 OLDACT:UP  16-05-10 13:40 OP:dani STATUS:               ID:20160510074742     3
 OLDACT:REG 16-05-10 12:28 OP:drio STATUS:               ID:20160510074742     3
 2016-05-10-0747-42M.COL___283                                                 6
 STAT SP IPHASW D HRMM SECON CODA AMPLIT PERI AZIMU VELO AIN AR TRES W  DIS CAZ7
 BAR2 EZ EP     D  753 24.91                             170    0.0010 26.5 206 
 BAR2 EZ I         753 42.72         7.7 0.16            168           26.5 206 
 PAM  EZ EP        753 26.91                             154   -0.0910 72.1  35 
 PAM  EN ES        753 45.06                             154    0.0610 72.1  35 
 PAM  EZ I         753 47.01         8.5 0.20            159           72.1  35 
 BRR  HZ EP        753 27.02                             152    0.4310 77.6 295 
 BRR  HN ES        753 44.21                             152   -0.0710 77.6 295 
 BRR  HZ I         753 47.37         5.9 0.11            154           77.6 295 
 RUS  HZ EP        753 29.04                             146    0.2610  101 180 
 RUS  HN ES   2    753 48.74                             146    0.57 5  101 180 
 PTB  HZ EP        753 31.78                             133   -0.68 9  155 259 
 PTB  HN ES   4    753 53.09                             133   -1.63 0  155 259 
 PTB  HZ I         754  0.30         7.8 0.48            135            155 259 
 OCA  HZ EP   4    753 34.50                             132    1.39 0  161 350 
 OCA  HE ES        753 55.15                             132   -0.73 9  161 350 
 OCA  HZ I         753 59.05        14.2 0.18            136            161 350 
 SPBC HZ EP        753 33.91                             130    0.13 9  169 221 
 SPBC HN ES        753 56.83                             130   -0.23 9  169 221 
 SPBC HZ I         754  3.90         8.0 0.28            132            169 221 
 ZAR  HZ EP   4    753 40.06                             124    2.29 0  211 291 
 ZAR  HN ES        754  4.17                             124   -0.01 8  211 291 
 NOR  HZ EP        753 41.14                             120    0.13 8  241 235 
 NOR  HN ES        754  9.68                             120   -0.25 8  241 235 
 NOR  HZ I         754 14.84         4.0 0.17            122            241 235 
 SML  HZ EP        753 41.82                             119    0.38 8  246 334 
 SML  HE ES        754 11.21                             119    0.51 8  246 334 
 SML  HZ I         754 13.92         6.9 0.10            123            246 334 
 CHI  HZ EP        753 42.67                             119    0.12 8  252 197 
 CHI  HN ES   4    754 14.11                             119    1.44 0  252 197 
 CHI  HZ I         754 18.72         2.0 0.29            120            252 197 
 HEL  HZ EP   4    753 46.87                             116    1.34 0  280 256 
 HEL  HE ES   4    754 19.65                             116    1.66 0  280 256 
 PTGC HZ EP        753 47.86                             114   -0.20 7  307 160 
 PTGC HE ES   4    754 20.82                             114   -1.67 0  307 160 
 CBOC HZ EP   4    753 53.54                             111    1.38 0  341 252 
 CBOC HN ES        754 30.66                             111    0.88 7  341 252 
 CBOC HZ I         754 37.39         0.9 0.30            113            341 252 
 PAL  HZ EP        753 59.29                             107   -0.98 6  413 240 
                                                                                
