 2015  610 0459 59.8 L   6.358 -73.618112.5  RSN  7 0.3 1.7LRSN                1
 GAP=100        0.73       2.5     3.5  5.4 -0.5407E+00  0.4084E+01 -0.2386E+01E
 Epicentro: SANTA HELENA DEL OPON - SANTANDER                                  3
 ACTION:UPD 15-09-10 22:11 OP:cam  STATUS:               ID:20150610045959 L   I
 OLDACT:DUP 15-06-10 18:33 OP:stll STATUS:               ID:20150610045752d    3
 2015-06-10-0457-50M.COL___294                                                 6
 STAT SP IPHASW D HRMM SECON CODA AMPLIT PERI AZIMU VELO AIN AR TRES W  DIS CAZ7
 BAR2 EZ EP        5 0 17.07                             152    0.2910 54.7  62 
 BAR2 EZ ES        5 0 29.99                             152   -0.0310 54.7  62 
 BAR2 EZ I         5 0 31.20        40.3 0.34            159           54.7  62 
 RUS  HZ EP        5 0 18.78                             143    0.0810 78.4 131 
 RUS  HZ I         5 0 18.96         7.4 0.46            153           78.4 131 
 BRR  HZ EP        5 0 18.27                             141   -0.1210 83.5 353 
 BRR  HN ES        5 0 32.55                             141   -0.3310 83.5 353 
 BRR  HZ I         5 0 42.12         7.1 0.28            144           83.5 353 
 SPBC HZ EP        5 0 19.22                             137   -0.0410 92.8 213 
 SPBC HN ES        5 0 34.49                             137    0.0610 92.8 213 
 SPBC HZ I         5 0 40.27         7.2 0.24            143           92.8 213 
 ZAR  HZ EP        5 0 28.16                             116   -0.16 9  186 313 
 ZAR  HN ES        5 0 50.86                             116    0.30 9  186 313 
 ZAR  HZ I         5 0 54.65         6.9 0.52            121            186 313 
 OCA  HZ EP        5 0 30.75                             113   -0.51 8  211   9 
 OCA  HN ES        5 0 56.26                             113    0.48 8  211   9 
 OCA  HZ I         5 1  1.36        11.4 0.18            119            211   9 
 MON  HZ EP   9    5 0 45.64                             102   -1.70 0  350 320 
 MON  HZ I         5 0 46.16         1.2 0.44            106            350 320 
 MON  HN ES        5 1 22.07                                   -0.64 6  350 320 
                                                                                
