 2014  410 0850 43.2 L   7.072 -73.283125.4  RSN  9 0.4 1.8LRSN                1
 GAP=172        0.91       2.4     4.1  8.2 -0.6586E+00  0.4737E+01  0.1067E+01E
 Epicentro: LEBRIJA - SANTANDER                                                3
 ACTION:UPD 14-05-13 23:07 OP:nd   STATUS:               ID:20140410085043 L   I
 OLDACT:REG 14-04-10 13:27 OP:l    STATUS:               ID:20140410084817     3
 2014-04-10-0848-17M.COL___250                                                 6
 STAT SP IPHASW D HRMM SECON CODA AMPLIT PERI AZIMU VELO AIN AR TRES W  DIS CAZ7
 OCA  HZ EP        851  7.33                             131    0.3610  129 358 
 OCA  HN ES        851 25.62                             131    0.0810  129 358 
 RUS  HZ EP        851  7.25                             131   -0.4610  132 170 
 RUS  HN ES        851 27.23                             131    0.3710  132 170 
 PTB  HZ EP        851  7.57                             128   -0.4610  142 246 
 PTB  HN ES   1    851 26.57                             128   -0.86 7  142 246 
 ZAR  HZ EP        851 11.87                             121    0.06 9  180 285 
 ZAR  HN ES        851 34.42                             121    0.27 9  180 285 
 ZAR  HZ I         851 39.67         9.1 0.05            118            180 285 
 SPBC HZ EP        851 12.19                             121    0.32 9  180 209 
 SPBC HN ES        851 34.29                             121    0.02 9  180 209 
 SML  HZ EP        851 15.03                             117    0.03 9  210 336 
 SML  HE ES        851 39.41                             117   -0.43 9  210 336 
 NOR  HZ EP        851 18.42                             113   -0.20 8  242 227 
 NOR  HN ES        851 46.04                             113   -0.24 8  242 227 
 NOR  HZ I         851 52.43         5.2 0.22            111            242 227 
 HEL  HZ EP   1    851 21.90                             111    0.09 6  267 249 
 HEL  HN ES        851 52.90                             111    0.94 8  267 249 
 HEL  HZ I         851 57.13         2.9 0.19            109            267 249 
 RREF HZ EP   4    851 31.03                             106    1.40 0  331 224 
 RREF HN ES   4    852  8.05                             106    2.17 0  331 224 
 SJC  HZ EP   4    851 32.29                             104   -1.86 0  376 326 
 SJC  HN ES   4    852 12.57                             104   -1.34 0  376 326 
 PRA  HZ EP        851 38.37                             102   -0.02 6  412 206 
 PRA  HN ES   4    852 22.88                             102    1.42 0  412 206 
 PRA  HZ I         852 34.25         2.3 0.47            101            412 206 
                                                                                
