 2013  210 0625 36.5 L   6.799 -73.163142.4  RSN 10 0.5 2.5LRSN                1
 GAP=134        1.08       3.7     4.9  7.1 -0.2866E+00  0.7950E+01 -0.9589E+00E
 Epicentro: LOS SANTOS - SANTANDER                                             3
 ACTION:UPD 13-03-12 09:31 OP:ep   STATUS:               ID:20130210062536 L   I
 2013-02-10-0620-00M.COL___241                                                 6
 STAT SP IPHASW D HRMM SECON CODA AMPLIT PERI AZIMU VELO AIN AR TRES W  DIS CAZ7
 BAR2 SZ EP        625 55.86                             170    0.1010 23.0 185 
 BAR2 SZ ES   1    626 10.03        58.2 0.34            170   -0.72 7 23.0 185 
 BRR  HZ IP     C  625 57.58                             153    0.3510 69.5 299 
 BRR  HN ES   1    626 14.39                             153    1.02 7 69.5 299 
 BRR  HN I         626 15.20       109.1 0.26            150           69.5 299 
 PAM  SZ EP        625 58.76                             150    0.2810 78.7  41 
 PAM  SN ES   1    626 15.70                             150    0.11 7 78.7  41 
 PAM  SN I         626 17.82        13.3 0.60            151           78.7  41 
 RUS  HZ EP        625 59.85                             143   -0.1210  101 175 
 RUS  HN ES        626 18.33                             143    0.0910  101 175 
 PTB  HZ EP        626  2.18                             132   -0.88 9  146 259 
 PTB  HN ES        626 23.51                             132   -0.24 9  146 259 
 PTB  HN I         626 28.49        32.9 0.40            132            146 259 
 OCA  HZ EP   1    626  4.68                             129    0.10 7  160 354 
 OCA  HN ES   1    626 26.24                             129   -0.21 7  160 354 
 OCA  HN I         626 34.31        53.4 0.36            129            160 354 
 ZAR  HZ EP   1    626  9.60                             122    1.01 6  202 292 
 ZAR  HN ES   2    626 33.42                             122   -0.16 4  202 292 
 ZAR  HN I         626 39.02        41.3 0.26            122            202 292 
 SML  HZ EP   1    626 12.41                             117   -0.49 6  243 336 
 SML  HN ES   1    626 40.22                             117   -1.04 6  243 336 
 SML  HN I         626 43.47        31.4 0.10            118            243 336 
 CHI  HZ EP        626 14.00                             116    0.00 8  248 195 
 CHI  HN ES   1    626 43.01                             116   -0.20 6  248 195 
 CHI  HN I         626 45.70        24.7 0.48            119            248 195 
 HEL  HZ EP   1    626 17.38                             114    1.00 6  270 256 
 HEL  HN ES   1    626 47.49                             114    0.04 6  270 256 
                                                                                
