 2017  510 0327 27.2 L   6.721 -73.124145.8  RSN  6 0.4 1.4LRSN                1
 GAP=143        0.91       4.0     4.1  8.0 -0.1361E+01  0.5266E+01  0.6489E+00E
 Epicentro: JORDAN - SANTANDER                                                 3
 ACTION:UPD 17-06-16 13:34 OP:jn   STATUS:               ID:20170510032727 L   I
 OLDACT:UP  17-05-10 17:41 OP:edw  STATUS:               ID:20170510031743     3
 OLDACT:REG 17-05-10 13:09 OP:osc  STATUS:               ID:20170510031743     3
 2017-05-10-0318-00M.COL___356                                                 6
 STAT SP IPHASW D HRMM SECON CODA AMPLIT PERI AZIMU VELO AIN AR TRES W  DIS CAZ7
 BRR  HZ IP     C  327 48.61                             150   -0.1010 77.8 303 
 BRR  HE ES        328  6.00                             150    0.4910 77.8 303 
 PAM  EZ EP     D  327 49.76                             149    0.0310 82.9  34 
 PAM  EN ES        328  7.02                             149   -0.3110 82.9  34 
 PAM  EZ I         328  9.00         6.8 0.52            152           82.9  34 
 RUS  HZ EP        327 50.85                             146    0.5410 91.7 177 
 RUS  HN ES        328  8.21                             146   -0.1510 91.7 177 
 RUS  HZ I         328 10.41         1.7 0.32            149           91.7 177 
 PTB  HZ EP        327 53.79                             132   -0.44 9  149 262 
 PTB  HN ES        328 14.82                             132   -0.52 9  149 262 
 PTB  HZ I         328 21.88         2.9 0.42            132            149 262 
 SPBC HN ES        328 17.17                             130    0.12 9  158 222 
 ZAR  HZ EP   4    328  2.59                             122    2.39 0  210 294 
 ZAR  HN ES        328 26.28                             122    0.31 8  210 294 
 ZAR  HZ I         328 31.58         2.6 0.26            122            210 294 
 CHI  HN ES   4    328 34.09                             118    1.30 0  241 196 
                                                                                
