 2013  910 0426 49.9 L   6.821 -73.153142.9  RSN 17 0.5 2.5LRSN                1
 GAP=135        1.06       2.6     3.8  5.4 -0.2550E+01  0.4352E+01  0.4497E+00E
 Epicentro: LOS SANTOS - SANTANDER                                             3
 ACTION:UPD 13-10-22 09:21 OP:ep   STATUS:               ID:20130910042649 L   I
 OLDACT:REG 13-09-10 07:50 OP:carl STATUS:               ID:20130910041960d    3
 2013-09-10-0419-59M.COL___269                                                 6
 STAT SP IPHASW D HRMM SECON CODA AMPLIT PERI AZIMU VELO AIN AR TRES W  DIS CAZ7
 BAR2 SZ IP     D  427  9.39                             169    0.1410 25.5 187 
 BAR2 SZ ES   1    427 24.14                             169   -0.18 7 25.5 187 
 BAR2 SZ I         427 25.62       121.8 0.22            169           25.5 187 
 BRR  HZ IP     D  427 11.18                             153    0.5310 69.4 297 
 BRR  HN ES   1    427 27.98                             153    1.16 7 69.4 297 
 BRR  HZ I         427 31.90        63.8 0.14            151           69.4 297 
 PAM  SZ IP     D  427 12.16                             151    0.4110 76.1  41 
 PAM  SN ES   1    427 29.21                             151    0.43 7 76.1  41 
 PAM  SZ I         427 31.47        52.6 0.62            154           76.1  41 
 RUS  HZ IP     C  427 13.43                             142   -0.1310  103 176 
 RUS  HN ES   1    427 31.45                             142   -0.55 7  103 176 
 RUS  HZ I         427 33.31        37.8 0.24            145            103 176 
 PTB  HZ EP        427 16.01                             131   -0.61 9  147 258 
 PTB  HN ES        427 36.41                             131   -1.03 9  147 258 
 PTB  HZ I         427 41.36        45.0 0.12            132            147 258 
 OCA  HZ EP        427 17.89                             129    0.12 9  158 353 
 OCA  HN ES   1    427 39.04                             129   -0.46 7  158 353 
 OCA  HZ I         427 44.08        50.8 0.14            131            158 353 
 SPBC HZ IP     C  427 18.32                             128    0.00 9  164 218 
 SPBC HN ES        427 40.38                             128   -0.09 9  164 218 
 SPBC HZ I         427 46.52        49.8 0.22            129            164 218 
 ZAR  HZ EP   1    427 22.37                             122    0.37 6  202 292 
 ZAR  HE ES        427 47.38                             122    0.35 9  202 292 
 ZAR  HZ I         427 53.28        25.7 0.38            123            202 292 
 NOR  HZ EP        427 25.52                             118   -0.03 8  235 234 
 NOR  HE ES   1    427 53.51                             118    0.16 6  235 234 
 NOR  HZ I         427 55.44        44.7 0.20            119            235 234 
 SML  HZ EP        427 25.81                             117   -0.30 8  241 335 
 SML  HE ES        427 54.01                             117   -0.33 8  241 335 
 SML  HZ I         427 58.98        70.5 0.10            119            241 335 
 CHI  HZ EP        427 27.81                             116    0.13 8  251 195 
 CHI  HN ES   1    427 56.92                             116   -0.21 6  251 195 
 CHI  HZ I         428  4.53        16.1 0.32            118            251 195 
 HEL  HZ EP        427 30.60                             114    0.64 8  272 255 
 HEL  HN ES        428  0.52                             114   -0.67 8  272 255 
 HEL  HZ I         428  7.86        19.9 0.38            115            272 255 
 GUY2CHZ EP        427 33.93                             112    0.46 7  302 234 
 GUY2CHN ES        428  7.93                             112    0.49 7  302 234 
 GUY2CHZ I         428 14.70        17.9 0.42                           302 234 
 CBOC HZ EP        427 37.49                             109    0.79 7  334 252 
 CBOC HN ES        428 13.35                             109    0.15 7  334 252 
 CBOC HZ I         428 19.71         5.1 0.42            111            334 252 
 COD  HZ EP        427 37.47                             108   -0.43 6  346 355 
 COD  HN ES        428 14.48                             108   -0.85 6  346 355 
 COD  HZ I         428 22.48         4.0 0.62            110            346 355 
 PRA  HZ EP        427 42.99                             106   -0.54 6  394 209 
 PRA  HE ES        428 24.51                             106   -0.84 6  394 209 
 PRA  HZ I         428 32.02        27.8 0.28            108            394 209 
 ORTC HZ EP        427 44.26                             106    0.36 6  397 216 
 ORTC HE ES        428 26.37                             106    0.36 6  397 216 
 ORTC HZ I         428 34.20        10.9 0.46            107            397 216 
                                                                                
