 2010  610 0217 45.2 L   6.813 -73.361135.3  RSN  4 0.2 1.1LRSN                1
 GAP=220        0.36       5.4    38.3 15.0 -0.1848E+03  0.5188E+03 -0.6501E+02E
 Epicentro: ZAPATOCA - SANTANDER                                               3
 ACTION:UP  10-08-24 10:09 OP:vdl  STATUS:               ID:20100610021745 L   I
 2010-06-10-0215-37S.COL___111                                                 6
 STAT SP IPHASW D HRMM SECON CODA AMPLIT PERI AZIMU VELO SNR AR TRES W  DIS CAZ7
 RUS  HZ EP   1    218  8.36                             140    -0.1 7  106 163 
 RUS  HE ES   2    218 26.56                             140     0.1 5  106 163 
 RUS  HZ I         218 27.45         2.2 0.30                           106 163 
 BRI  SZ EP   1    218  9.02                             136     0.1 7  118  32 
 BRI  SZ ES   2    218 27.59                             136     0.2 5  118  32 
 GUE  SZ EP   1    218  9.47                             135     0.0 7  122  23 
 GUE  SZ ES   2    218 28.52                             135     0.1 5  122  23 
 GRA  SZ EP   1    218 10.30                             132     0.0 7  134  27 
 GRA  SZ ES   2    218 29.33                             132    -0.4 5  134  27 
                                                                                
