 2012  810 0918  1.2 L   6.676 -73.139138.6  RSN  4 0.4 1.6LRSN                1
 GAP=215        0.74      10.6     6.9  7.9 -0.1071E+02  0.9628E+01  0.2065E+02E
 Epicentro: VILLANUEVA - SANTANDER                                             3
 ACTION:UPD 12-09-10 11:55 OP:ep   STATUS:               ID:20120810091801 L   I
 2012-08-10-0910-00M.COL___218                                                 6
 STAT SP IPHASW D HRMM SECON CODA AMPLIT PERI AZIMU VELO AIN AR TRES W  DIS CAZ7
 BAR2 SZ EP   1    918 20.30                             175    0.56 7 10.5 208 
 BAR2 SZ ES   1    918 34.18                             175   -0.05 7 10.5 208 
 BAR2 SZ I         918 36.31         6.5 0.26                          10.5 208 
 GIR2 SZ EP   1    918 20.07                             161   -0.39 7 44.9 352 
 GIR2 SZ ES   1    918 35.11                             161   -0.39 7 44.9 352 
 BRR  HZ EP   1    918 22.10                             148    0.06 7 79.3 307 
 BRR  HN ES   1    918 38.90                             148    0.57 7 79.3 307 
 PTB  HZ EP   1    918 27.32                             131   -0.13 7  147 264 
 PTB  HZ I         918 27.82         8.3 0.70                           147 264 
 PTB  HN ES   1    918 47.66                             131   -0.28 7  147 264 
                                                                                
