 2010  510 0609 58.0 L   7.470 -73.445115.5  RSN  5 0.1 2.1LRSN                1
 GAP=153        0.39       3.6     3.8  4.1 -0.7184E+01  0.1704E+01 -0.2487E+01E
 Epicentro: SABANA DE TORRES - SANTANDER                                       3
 ACTION:UP  10-08-24 10:04 OP:vdl  STATUS:               ID:20100510060958 L   I
 2010-05-10-0606-54S.COL___104                                                 6
 STAT SP IPHASW D HRMM SECON CODA AMPLIT PERI AZIMU VELO SNR AR TRES W  DIS CAZ7
 BRR  HZ EP   2    610 14.58                             155    -0.1 5   50 216 
 BRR  HE ES   1    610 27.71                             155     0.0 7   50 216 
 BRR  HZ I         610 28.44        45.6 0.09                            50 216 
 GUE  SZ IP        610 16.60                             147     0.310   70  55 
 GUE  SZ ES   1    610 30.56                             147    -0.1 7   70  55 
 BRI  SZ ES   2    610 31.18                             144     0.1 5   76  69 
 GRA  SZ IP        610 17.07                             141    -0.110   84  57 
 GRA  SZ ES   1    610 31.98                             141    -0.1 7   84  57 
 OCA  SZ IP        610 17.18                             141    -0.110   86   9 
 OCA  SZ ES   1    610 32.41                             141     0.1 7   86   9 
 OCA  SZ I         610 33.70        21.2 0.24                            86   9 
                                                                                
