 2011  510 0734 23.6 L   6.833 -73.007138.8  RSN  6 0.3 1.3LRSN                1
 GAP=153        0.68       4.6     8.0  9.0 -0.4638E+00 -0.1094E+02  0.1242E+02E
 Epicentro: CEPITA - SANTANDER                                                 3
 ACTION:UP  11-06-29 08:52 OP:tino STATUS:               ID:20110510073423 L   I
 2011-05-10-0730-35S.COL___133                                                 6
 STAT SP IPHASW D HRMM SECON CODA AMPLIT PERI AZIMU VELO SNR AR TRES W  DIS CAZ7
 BTL  SZ EP        734 43.07                             167     0.510   30 288 
 BAR2 SZ EP        734 42.77                             166     0.110   33 216 
 BAR2 SZ ES   2    734 57.63                             166     0.1 5   33 216 
 BAR2 SZ I         734 59.03         8.5 0.11                            33 216 
 PAM  SN ES   3    735  0.87                             154     0.3 2   65  31 
 BRR  HZ EP        734 44.63                             147    -0.210   84 291 
 BRR  HN ES   1    735  1.19                             147    -0.1 7   84 291 
 RUS  HZ EP        734 46.73                             141    -0.210  104 185 
 RUS  HN ES   2    735  4.96                             141    -0.2 5  104 185 
 RUS  HZ I         735 15.47         1.7 1.06                           104 185 
 GRA  SZ ES   1    735  6.08                             137    -0.3 7  118  11 
 GRA  SZ I         735  9.80         3.4 0.68                           118  11 
                                                                                
