 2013  210 0420 11.8 L   6.800 -73.144149.0  RSN 10 0.5 2.1LRSN                1
 GAP=137        1.03       3.6     5.2  8.2  0.8493E+00  0.7178E+01 -0.2438E-01E
 Epicentro: LOS SANTOS - SANTANDER                                             3
 ACTION:UPD 13-03-12 09:31 OP:ep   STATUS:               ID:20130210042011 L   I
 2013-02-10-0419-39M.COL___177                                                 6
 STAT SP IPHASW D HRMM SECON CODA AMPLIT PERI AZIMU VELO AIN AR TRES W  DIS CAZ7
 BAR2 SZ EP        420 32.00                             171    0.2210 23.4 191 
 BAR2 SZ I         420 49.69        13.1 0.26            171           23.4 191 
 BRR  HZ EP     D  420 33.87                             153    0.6010 71.4 298 
 BRR  HN ES   1    420 50.57                             153    0.52 7 71.4 298 
 BRR  HN I         420 54.56        52.6 0.16            151           71.4 298 
 PAM  SZ EP        420 34.68                             151    0.3710 77.2  39 
 PAM  SN ES   1    420 51.69                             151   -0.21 7 77.2  39 
 PAM  SN I         420 53.21        10.2 0.20            152           77.2  39 
 RUS  HZ EP   1    420 35.92                             144    0.09 7  101 176 
 RUS  HN ES        420 54.21                             144   -0.4010  101 176 
 RUS  HN I         420 55.02        13.2 0.32            145            101 176 
 PTB  HZ EP        420 38.66                             133   -0.35 9  148 259 
 PTB  HN ES        420 59.87                             133   -0.40 9  148 259 
 PTB  HN I         421  5.33        19.7 0.38            131            148 259 
 OCA  HN ES   1    421  2.04                             130   -0.56 7  160 353 
 ZAR  HN ES   1    421 10.93                             123    1.00 6  204 292 
 ZAR  HN I         421 16.15        16.6 0.18            122            204 292 
 SML  HZ EP   1    420 48.39                             118   -0.18 6  244 335 
 SML  HN ES   1    421 16.22                             118   -1.07 6  244 335 
 SML  HN I         421 24.44        23.5 0.28            117            244 335 
 CHI  HZ EP   1    420 50.14                             118    0.49 6  249 195 
 CHI  HN ES        421 19.09                             118   -0.11 8  249 195 
 CHI  HN I         421 23.96         4.5 0.44            117            249 195 
 URE  HZ EP   1    420 52.51                             114   -0.50 6  284 292 
                                                                                
