 2015 1110 0214 33.1 L   6.757 -73.121147.8  RSN 17 0.5 2.1LRSN                1
 GAP=123        1.00       2.8     4.5  5.4 -0.1525E+00  0.4154E+01  0.2238E+00E
 Epicentro: LOS SANTOS - SANTANDER                                             3
 ACTION:UPD 15-12-28 16:09 OP:cam  STATUS:               ID:20151110021433 L   I
 OLDACT:REG 15-11-10 12:45 OP:dnl  STATUS:               ID:20151110020741     3
 2015-11-10-0207-41M.COL___319                                                 6
 STAT SP IPHASW D HRMM SECON CODA AMPLIT PERI AZIMU VELO AIN AR TRES W  DIS CAZ7
 BAR2 EZ EP        214 52.94                             172    0.0610 19.5 200 
 BAR2 EZ ES        215  7.66                             172   -0.6710 19.5 200 
 BAR2 EZ I         215  9.12        24.3 0.17            166           19.5 200 
 BRR  HN ES        215 12.19                             151    0.6010 75.9 301 
 BRR  HZ I         215 13.02        27.2 0.17            143           75.9 301 
 PAM  EZ EP     D  214 56.10                             150    0.4710 79.4  36 
 PAM  EN ES        215 13.46                             150    0.2410 79.4  36 
 PAM  EZ I         215 16.19        23.4 0.67            152           79.4  36 
 RUS  HZ EP     D  214 56.72                             146    0.0310 95.7 177 
 RUS  HN ES        215 15.26                             146    0.1610 95.7 177 
 RUS  HZ I         215 16.44        14.0 0.31            145           95.7 177 
 SPBC HZ EP     C  215  1.77                             130    0.21 9  161 221 
 SPBC HN ES        215 23.66                             130   -0.11 9  161 221 
 SPBC HZ I         215 26.08        14.8 0.23            126            161 221 
 OCA  HZ EP        215  1.86                             129   -0.16 9  165 352 
 OCA  HN ES        215 23.92                             129   -0.67 9  165 352 
 OCA  HZ I         215 27.20        27.4 0.31            126            165 352 
 ZAR  HZ EP        215  6.21                             122    0.11 8  208 293 
 ZAR  HN ES        215 31.63                             122   -0.23 8  208 293 
 ZAR  HZ I         215 37.13        16.5 0.25            118            208 293 
 NOR  HZ EP   4    215  6.64                             119   -2.24 0  234 236 
 NOR  HN ES   4    215 35.61                             119   -1.19 0  234 236 
 NOR  HZ I         215 42.57         8.7 0.15            116            234 236 
 CHI  HZ EP   2    215 10.93                             118    0.45 4  245 196 
 CHI  HN ES        215 39.42                             118   -0.23 8  245 196 
 CHI  HZ I         215 44.37         4.0 0.26            116            245 196 
 SML  HZ EP        215 11.06                             117    0.65 8  249 335 
 SML  HN ES   2    215 38.89                             117   -0.63 4  249 335 
 SML  HZ I         215 44.72        13.9 0.12            115            249 335 
 HEL  HZ EP   4    215 14.80                             115    1.24 0  274 257 
 HEL  HN ES   2    215 45.67                             115    0.53 4  274 257 
 HEL  HZ I         215 51.95         6.0 0.28            112            274 257 
 URE  HN ES   4    215 45.15                             113   -2.06 0  288 293 
 URE  HZ I         215 56.96         9.7 0.26            111            288 293 
 GUY2CHZ EP   4 D  215 18.23                             113    1.50 0  301 236 
 GUY2CHN ES   4    215 53.11                             113    2.33 0  301 236 
 GUY2CHZ I         215 59.93         4.3 0.54                           301 236 
 PTGC HZ EP        215 15.53                             112   -0.89 7  303 159 
 PTGC HN ES   4    215 48.70                             112   -1.52 0  303 159 
 CBOC HZ EP   4    215 21.64                             110    1.43 0  335 253 
 CBOC HN ES   4    215 55.64                             110   -1.34 0  335 253 
 CBOC HZ I         216  7.81         2.0 0.35            108            335 253 
 MON  HZ EP   4    215 21.75                             109   -0.99 0  359 309 
 MON  HN ES   2    215 59.85                             109   -1.63 3  359 309 
 MON  HZ I         216 18.33         2.7 0.34            106            359 309 
 ORTC HN ES   2    216  9.79                             107    1.06 3  393 217 
 ORTC HZ I         216 15.61         2.9 0.24            105            393 217 
                                                                                
