 2016 1010 0054 41.5 L   6.804 -73.194141.2  RSN  7 0.4 1.6LRSN                1
 GAP=130        0.99       3.6     4.4  7.2 -0.2003E+01  0.9350E+01 -0.2873E+01E
 Epicentro: ZAPATOCA - SANTANDER                                               3
 ACTION:UPD 16-11-09 19:18 OP:rebc STATUS:               ID:20161010005441 L   I
 OLDACT:UP  16-10-10 16:20 OP:ar   STATUS:               ID:20161010004743     3
 OLDACT:REG 16-10-10 12:27 OP:ar   STATUS:               ID:20161010004743     3
 2016-10-10-0048-00M.COL___360                                                 6
 STAT SP IPHASW D HRMM SECON CODA AMPLIT PERI AZIMU VELO AIN AR TRES W  DIS CAZ7
 BAR2 EZ EP        055  0.55                             170   -0.0310 23.4 177 
 BAR2 EZ ES        055 15.36                             170   -0.1010 23.4 177 
 BAR2 EZ I         055 15.92        19.6 0.24            169           23.4 177 
 PAM  EZ EP        055  3.83                             149    0.4110 80.6  43 
 PAM  EE ES        055 20.98                             149    0.4610 80.6  43 
 PAM  EZ I         055 22.60         8.0 0.58            153           80.6  43 
 RUS  HZ EP        055  4.64                             143   -0.2310  102 173 
 RUS  HN ES        055 22.95                             143   -0.1410  102 173 
 RUS  HZ I         055 23.77         3.8 0.32            143            102 173 
 PTB  HZ EP        055  7.39                             132   -0.24 9  143 258 
 PTB  HN ES        055 27.62                             132   -0.39 9  143 258 
 PTB  HZ I         055 30.78         3.3 0.15            132            143 258 
 OCA  HZ EP        055  8.90                             129   -0.46 9  159 355 
 OCA  HN ES        055 30.55                             129   -0.55 9  159 355 
 SPBC HZ EP        055  9.89                             128    0.53 9  160 217 
 SPBC HN ES   2    055 31.19                             128    0.09 5  160 217 
 SPBC HZ I         055 38.67         8.5 0.22            129            160 217 
 ZAR  HZ EP   4    055 14.96                             122    1.84 0  199 293 
 ZAR  HN ES        055 38.56                             122    0.77 9  199 293 
 ZAR  HZ I         055 40.80         3.7 0.32            123            199 293 
                                                                                
