 2010  210 0830 51.1 L   6.813 -72.997147.0  RSN  8 0.6 1.9LRSN                1
 GAP=211        1.25       6.7    17.0 10.6 -0.4416E+02  0.7231E+02  0.9966E+01E
 Epicentro: CEPITA - SANTANDER                                                 3
 ACTION:UP  10-08-24 09:48 OP:vdl  STATUS:               ID:20100210083051 L   I
 2010-02-10-0827-38S.COL___094                                                 6
 STAT SP IPHASW D HRMM SECON CODA AMPLIT PERI AZIMU VELO SNR AR TRES W  DIS CAZ7
 BAR2 SZ IP        831 10.76                             167    -0.310   32 220 
 BAR2 SZ ES   1    831 25.97                             167    -0.6 7   32 220 
 GIR2 SZ IP        831 11.87                             165     0.810   37 324 
 GIR2 SZ ES   1    831 27.29                             165     0.7 7   37 324 
 OCA  SZ EP   1    831 19.32                             130    -0.3 7  162 347 
 OCA  SZ ES   1    831 41.08                             130    -0.8 7  162 347 
 CHI  HZ EP   1    831 29.54                             117     0.1 6  255 199 
 CHI  HE ES   1    831 58.49                             117    -1.0 6  255 199 
 CHI  HZ I         832  1.53         1.8 0.22                           255 199 
 HEL  HZ EP   2    831 33.07                             113    -0.1 4  288 256 
 HEL  HZ I         832 10.63         5.7 0.28                           288 256 
 RREF BZ EP        831 39.30                             110     0.5 7  335 231 
 RREF BE ES   1    832 16.29                             110     0.3 5  335 231 
 RREF BZ I         832 17.77         3.9 0.24                           335 231 
 DBB  SZ EP   1    831 39.73                             109    -0.7 5  356 274 
 PRA  HZ EP   1    831 45.32                             106    -0.4 4  402 212 
 PRA  HN ES   1    832 29.22                             106     0.8 4  402 212 
 PRA  HZ I         832 29.72         3.1 0.77                           402 212 
                                                                                
