 2011 1210 0752 10.3 L   6.723 -73.217149.1  RSN  4 0.2 1.3LRSN                1
 GAP=218        0.45       6.3     6.0  7.8  0.1869E+02 -0.3325E+01 -0.1970E+01E
 Epicentro: VILLANUEVA - SANTANDER                                             3
 ACTION:UPD 12-07-13 16:15 OP:ep   STATUS:               ID:20111210075210 L   I
 2011-12-10-0750-00M.COL___186                                                 6
 STAT SP IPHASW D HRMM SECON CODA AMPLIT PERI AZIMU VELO AIN AR TRES W  DIS CAZ7
 BAR2 SZ EP   1    752 29.79                             174   -0.37 7 15.0 165 
 BAR2 SZ I         752 46.14         5.2 0.30                          15.0 165 
 BRR  HZ EP   1    752 31.73                             154    0.06 7 69.3 308 
 BRR  HN ES   2    752 48.60                             154    0.23 5 69.3 308 
 BRR  HZ I         752 50.99         4.4 0.14                          69.3 308 
 RUS  HZ EP   1    752 34.11                             146    0.28 7 93.0 171 
 RUS  HN ES   2    752 52.13                             146   -0.07 5 93.0 171 
 RUS  HZ I         752 53.66         2.3 0.30                          93.0 171 
 PTB  HZ EP   1    752 36.72                             134    0.02 7  139 262 
 PTB  HN ES   2    752 57.18                             134   -0.14 5  139 262 
 PTB  HZ I         753  1.31         1.8 0.21                           139 262 
                                                                                
