 2012  810 0952  9.3 L   6.724 -73.175144.3  RSN  6 0.4 1.6LRSN                1
 GAP=177        0.77       6.9     6.1  8.0  0.2159E+02  0.2348E+01 -0.5679E+01E
 Epicentro: VILLANUEVA - SANTANDER                                             3
 ACTION:UPD 12-09-10 11:55 OP:ep   STATUS:               ID:20120810095209 L   I
 2012-08-10-0950-00M.COL___218                                                 6
 STAT SP IPHASW D HRMM SECON CODA AMPLIT PERI AZIMU VELO AIN AR TRES W  DIS CAZ7
 BAR2 SZ EP        952 28.58                             174    0.0010 14.6 183 
 BAR2 SZ ES   1    952 43.26                             174   -0.38 7 14.6 183 
 BAR2 SZ I         952 45.14        15.4 0.20                          14.6 183 
 GIR2 SZ EP   1    952 28.72                             164   -0.29 7 39.2 357 
 BRR  HZ EP   1    952 30.29                             152   -0.07 7 72.9 306 
 BRR  HZ I         952 30.87         7.3 0.10                          72.9 306 
 BRR  HN ES   1    952 47.52                             152    0.71 7 72.9 306 
 RUS  HZ EP   1    952 32.98                             146    0.67 7 92.5 174 
 RUS  HZ I         952 33.76         3.7 0.17                          92.5 174 
 RUS  HN ES   1    952 50.04                             146   -0.24 7 92.5 174 
 PTB  HZ EP   1    952 35.52                             133   -0.19 7  143 262 
 PTB  HN ES   1    952 56.40                             133    0.08 7  143 262 
 PTB  HZ I         952 59.67         4.2 0.28                           143 262 
 ZAR  HN ES   1    953  6.51                             122   -0.41 6  204 295 
 ZAR  HZ I         953 12.76         4.1 0.18                           204 295 
                                                                                
