 2012  310 0916 16.6 L   6.152 -73.745102.8  RSN  4 0.3 1.2LRSN                1
 GAP=128        0.59       3.9     5.9 11.4  0.1202E+02 -0.2388E+02 -0.1046E+02E
 *COD                                                                          3
 ACTION:UP  12-03-31 23:18 OP:EP   STATUS:               ID:20120310091616 L   I
 2012-03-10-0910-00M.COL___193                                                 6
 STAT SP IPHASW D HRMM SECON CODA AMPLIT PERI AZIMU VELO SNR AR TRES W  DIS CAZ7
 BAR2 SZ EP   1    916 34.27                             139     0.0 7   79  52 
 PTB  HZ EP   1    916 34.98                             135     0.2 7   90 299 
 PTB  HN ES   1    916 48.83                             135    -0.2 7   90 299 
 PTB  HZ I         916 50.60         3.1 0.50                            90 299 
 CHI  HN ES   1    917  4.00                             116     0.1 7  168 180 
 ZAR  HZ EP   1    916 44.94                             112    -0.4 7  193 320 
 ZAR  HN ES   1    917  8.23                             112     0.4 7  193 320 
 ZAR  HZ I         917 12.17         1.9 0.15                           193 320 
                                                                                
