 2011  610 0438 42.7 L   5.900 -73.640121.8  RSN 13 0.2 2.2LRSN                1
 GAP=102        0.41       1.5     2.7  4.0 -0.2313E+01  0.2943E+01 -0.5135E+00E
 Epicentro: PUENTE NACIONAL - SANTANDER                                        3
 ACTION:UP  11-07-14 19:04 OP:ep   STATUS:               ID:20110610043842 L   I
 2011-06-10-0435-54S.COL___120                                                 6
 STAT SP IPHASW D HRMM SECON CODA AMPLIT PERI AZIMU VELO SNR AR TRES W  DIS CAZ7
 RUS  HZ EP   1    439  1.43                             152    -0.1 7   62  91 
 RUS  HE ES   2    439 15.83                             152    -0.3 5   62  91 
 RUS  HZ I         439 17.00         9.3 0.30                            62  91 
 BAR2 SZ IP        439  3.27                             141     0.110   92  33 
 BAR2 SZ ES   1    439 19.19                             141     0.1 7   92  33 
 BAR2 SZ I         439 20.36       101.9 0.50                            92  33 
 BRR  HZ EP   1    439  6.36                             129    -0.1 7  134 357 
 BRR  HZ I         439  6.93        54.1 0.12                           134 357 
 BRR  HN ES   1    439 25.16                             129     0.2 7  134 357 
 ROSC BZ EP   2    439  6.94                             128    -0.6 5  139 213 
 ROSC BN ES   2    439 26.90                             128     0.0 5  139 213 
 ROSC BZ I         439 31.72        17.0 0.34                           139 213 
 CHI  HZ EP   1    439  8.17                             128     0.4 7  141 184 
 CHI  HN ES   1    439 27.21                             128     0.0 7  141 184 
 CHI  HZ I         439 32.02         9.4 0.65                           141 184 
 NOR  SZ EP   1    439  7.00                             127    -0.3 7  141 255 
 NOR  SN ES   2    439 26.45                             127     0.0 5  141 255 
 VIL  SZ EP   2    439 13.11                             117    -0.1 4  198 182 
 VIL  SN ES   2    439 36.99                             117     0.0 4  198 182 
 VIL  SZ I         439 42.19        15.6 0.39                           198 182 
 RREF HZ EP   2    439 16.39                             115     0.2 4  219 240 
 RREF HN ES   2    439 42.52                             115     0.2 4  219 240 
 RREF HZ I         439 47.80        11.2 0.23                           219 240 
 BRI  SZ EP   1    439 16.12                             114     0.2 6  221  25 
 BRI  SZ ES   1    439 41.52                             114    -0.2 6  221  25 
 BRI  SZ I         439 48.52        14.3 0.38                           221  25 
 TOL  SZ EP   2    439 17.82                             113     0.1 4  236 232 
 GRA  SZ EP   2    439 17.76                             113     0.0 4  238  23 
 GRA  SZ ES   2    439 44.63                             113    -0.4 4  238  23 
 GRA  SZ I         439 48.58        11.4 0.37                           238  23 
 OCA  SZ EP   2    439 20.24                             110    -0.1 4  261   8 
 OCA  SZ ES   2    439 49.69                             110     0.1 4  261   8 
 OCA  SZ I         439 54.36        13.5 0.47                           261   8 
 PRA  HZ EP   1    439 22.19                             109     0.0 6  279 210 
 PRA  HN ES   2    439 52.87                             109    -0.1 4  279 210 
                                                                                
