 2013  210 0552  2.8 L   7.041 -73.136151.3  RSN 10 0.4 2.3LRSN                1
 GAP=122        0.84       2.6     3.4  4.8  0.1868E+00  0.3807E+01  0.7348E+00E
 Epicentro: FLORIDABLANCA - SANTANDER                                          3
 ACTION:UPD 13-03-12 09:31 OP:ep   STATUS:               ID:20130210055202 L   I
 2013-02-10-0550-00M.COL___241                                                 6
 STAT SP IPHASW D HRMM SECON CODA AMPLIT PERI AZIMU VELO AIN AR TRES W  DIS CAZ7
 BAR2 SZ EP        552 24.04                             161    0.1010 49.9 186 
 BAR2 SZ ES        552 40.09                             161   -0.2910 49.9 186 
 BAR2 SZ I         552 41.35        81.8 0.16            160           49.9 186 
 PAM  SZ EP        552 24.74                             158    0.0710 58.4  56 
 PAM  SN ES        552 41.42                             158   -0.2710 58.4  56 
 PAM  SN I         552 44.42         9.3 0.18            163           58.4  56 
 BRR  HZ EP        552 24.55                             156    0.3310 64.0 277 
 BRR  HN ES        552 41.54                             156    0.6510 64.0 277 
 BRR  HN I         552 44.40        40.3 0.16            151           64.0 277 
 RUS  HZ EP        552 29.19                             138    0.0210  127 177 
 RUS  HN ES        552 49.64                             138   -0.0610  127 177 
 RUS  HN I         552 50.95        35.9 0.40            139            127 177 
 OCA  HZ EP   1    552 28.95                             136   -0.31 7  134 351 
 OCA  HN ES        552 49.73                             136   -0.1410  134 351 
 OCA  HN I         552 51.58        56.5 0.16            136            134 351 
 PTB  HZ EP        552 30.87                             132   -0.15 9  156 249 
 PTB  HN ES        552 52.63                             132   -0.37 9  156 249 
 PTB  HN I         552 57.90        19.7 0.26            130            156 249 
 ZAR  HZ EP   1    552 35.38                             125    0.48 6  197 285 
 ZAR  HN ES        553  0.18                             125    0.28 9  197 285 
 ZAR  HN I         553  7.89        21.8 0.14            123            197 285 
 SML  HZ EP        552 36.92                             121   -0.38 8  220 332 
 SML  HN ES   1    553  4.52                             121    0.34 6  220 332 
 SML  HN I         553 11.51        23.9 0.10            121            220 332 
 CHI  HZ EP        552 43.97                             116    0.28 8  275 194 
 CHI  HN ES        553 15.92                             116    0.36 8  275 194 
 CHI  HN I         553 22.75         5.1 0.30            116            275 194 
 HEL  HN ES        553 15.77                             115   -0.87 7  281 251 
 HEL  HN I         553 26.87         5.2 0.36            115            281 251 
                                                                                
