 2014 1010 0630  2.5 L   6.753 -73.145141.3  RSN  7 0.4 1.6LRSN                1
 GAP=139        0.85       4.4     5.1  6.6  0.2845E+01  0.7455E+01  0.9507E+00E
 Epicentro: LOS SANTOS - SANTANDER                                             3
 ACTION:UPD 14-11-29 23:48 OP:nd   STATUS:               ID:20141010063002 L   I
 OLDACT:REG 14-10-10 13:01 OP:fm   STATUS:               ID:20141010062740     3
 2014-10-10-0627-40M.COL___287                                                 6
 STAT SP IPHASW D HRMM SECON CODA AMPLIT PERI AZIMU VELO AIN AR TRES W  DIS CAZ7
 BAR2 SZ EP        630 21.71                             172    0.1810 18.2 193 
 BAR2 SZ ES   1    630 36.01                             172   -0.33 7 18.2 193 
 BAR2 SZ I         630 39.25        12.7 0.58            174           18.2 193 
 BRR  HZ EP        630 23.49                             151    0.1310 73.9 302 
 BRR  HN ES        630 40.20                             151    0.6010 73.9 302 
 BRR  HZ I         630 40.99         6.9 0.30            154           73.9 302 
 PAM  SZ EP        630 24.61                             149    0.0910 81.4  37 
 PAM  SN ES        630 41.38                             149   -0.3010 81.4  37 
 PAM  SZ I         630 43.49         5.7 0.44            150           81.4  37 
 RUS  HZ EP   1    630 25.77                             144    0.30 7 95.4 176 
 RUS  HN ES        630 43.16                             144   -0.1910 95.4 176 
 RUS  HZ I         630 45.90         2.9 0.24            148           95.4 176 
 OCA  HN ES   4    630 50.84                             128   -2.36 0  165 353 
 OCA  HZ I         630 55.22         3.9 0.22            130            165 353 
 ZAR  HZ EP   1    630 34.02                             121   -0.89 6  206 293 
 ZAR  HN ES   1    630 59.71                             121   -0.45 6  206 293 
 ROSC BN ES   4    631 12.23                             116    3.14 0  248 212 
 PRA  HZ EP   1    630 55.58                             106    0.21 4  387 210 
 PRA  HE ES   4    631 29.61                             106   -6.98 0  387 210 
 PRA  HZ I         631 31.85         2.3 0.20            109            387 210 
                                                                                
