 2012  910 0312 53.1 L   6.494 -73.506 10.4  RSN  7 0.4 1.4LRSN                1
 GAP=117        0.75       3.0     2.3  6.3  0.1279E+01  0.8018E+01  0.2451E+01E
 Epicentro: SIMACOTA - SANTANDER                                               3
 ACTION:UPD 12-10-22 14:18 OP:ep   STATUS:               ID:20120910031253 L   I
 2012-09-10-0310-00M.COL___227                                                 6
 STAT SP IPHASW D HRMM SECON CODA AMPLIT PERI AZIMU VELO AIN AR TRES W  DIS CAZ7
 BAR2 SZ EP        313  0.07                             101    0.3610 37.4  73 
 BAR2 SZ I         313  0.90        28.2 0.33                          37.4  73 
 BAR2 SZ ES   1    313  4.27                             101   -0.60 7 37.4  73 
 BRR  HZ EP        313  4.70                              95    0.1210 71.5 341 
 BRR  HZ I         313  5.24        21.5 0.12                          71.5 341 
 BRR  HE ES   1    313 13.36                              95   -0.17 7 71.5 341 
 GIR2 SZ EP   2    313  5.25                              95    0.25 5 73.3  28 
 RUS  HZ EP   2    313  7.50                              95    0.93 5 81.3 145 
 RUS  HN ES   2    313 16.25                              95   -0.83 5 81.3 145 
 RUS  HZ I         313 19.97         7.7 0.20                          81.3 145 
 PTB  HZ EP   1    313  9.48                              93   -0.21 7  105 273 
 PTB  HN ES   1    313 22.55                              93   -0.07 7  105 273 
 PTB  HZ I         313 25.03        15.7 0.31                           105 273 
 ZAR  HN ES   1    313 42.73                              56   -0.10 7  186 307 
 HEL  HZ EP   1    313 26.94                              56    0.40 6  226 262 
 HEL  HE ES   2    313 52.15                              56   -0.47 4  226 262 
 HEL  HZ I         313 53.27         3.6 0.28                           226 262 
                                                                                
