 2017  710 0437 32.2 L   6.783 -73.133144.0  RSN 13 0.4 2.1LRSN                1
 GAP=114        0.93       3.7     3.4  5.6 -0.5437E-02  0.7742E+01  0.5027E+01E
 Epicentro: LOS SANTOS - SANTANDER                                             3
 ACTION:UPD 17-08-30 15:31 OP:rebc STATUS:               ID:20170710043732 L   I
 OLDACT:UP  17-07-10 16:34 OP:dnl  STATUS:               ID:20170710042740d    3
 OLDACT:UP  17-07-10 16:33 OP:dnl  STATUS:               ID:20170710042740d    3
 OLDACT:DUP 17-07-10 16:28 OP:dnl  STATUS:               ID:20170710042740d    3
 OLDACT:UP  17-07-10 16:28 OP:dnl  STATUS:               ID:20170710042739     3
 OLDACT:UP  17-07-10 16:27 OP:dnl  STATUS:               ID:20170710042739     3
 OLDACT:REG 17-07-10 12:58 OP:dnl  STATUS:               ID:20170710042739     3
 2017-07-10-0428-00M.COL___380                                                 6
 STAT SP IPHASW D HRMM SECON CODA AMPLIT PERI AZIMU VELO AIN AR TRES W  DIS CAZ7
 BAR2 EZ IP     C  437 51.40                             171   -0.1510 21.8 195 
 BAR2 EZ ES        438  6.53                             171   -0.1510 21.8 195 
 BAR2 EZ I         438  7.61        32.6 0.30            166           21.8 195 
 BRR  HZ IP     C  437 53.29                             152    0.0410 73.3 299 
 BRR  HE ES        438 10.56                             152    0.8710 73.3 299 
 BRR  HZ I         438 11.37        26.4 0.14            151           73.3 299 
 PAM  EZ EP        437 54.25                             150    0.0210 78.0  38 
 PAM  EN ES        438 11.12                             150   -0.3210 78.0  38 
 PAM  EZ I         438 12.33        14.1 0.18            156           78.0  38 
 PTB  HZ EP        437 58.42                             131   -0.67 9  149 260 
 PTB  HN ES   4    438 18.64                             131   -1.44 0  149 260 
 PTB  HZ I         438 21.44        15.0 0.12            131            149 260 
 SPBC HZ EP        438  0.54                             129    0.06 9  163 220 
 SPBC HN ES        438 22.24                             129   -0.32 9  163 220 
 SPBC HZ I         438 28.20        23.4 0.44            128            163 220 
 YPLC HZ EP   2    438  1.79                             127    0.19 4  174 151 
 YPLC HN ES        438 24.86                             127    0.30 9  174 151 
 YPLC HZ I         438 28.05         6.9 0.38            127            174 151 
 ZAR  HZ EP        438  4.27                             122   -0.44 8  206 292 
 ZAR  HN ES        438 30.16                             122    0.07 8  206 292 
 ZAR  HZ I         438 36.38        21.3 0.44            122            206 292 
 NOR  HZ EP        438  7.90                             118    0.10 8  235 235 
 NOR  HE ES        438 35.41                             118   -0.19 8  235 235 
 NOR  HZ I         438 37.18         9.9 0.24            118            235 235 
 ROSC BZ EP   4    438 11.63                             116    1.54 0  252 212 
 ROSC BN ES   4    438 43.88                             116    4.20 0  252 212 
 ROSC BZ I         438 49.36         9.9 0.35            116            252 212 
 HEL  HZ EP   2    438 12.50                             114    0.11 4  273 256 
 HEL  HE ES        438 43.84                             114    0.07 8  273 256 
 HEL  HZ I         438 50.59         8.4 0.42            115            273 256 
 GUY2CHZ EP        438 16.70                             112    1.00 7  301 235 
 GUY2CHN ES   4    438 48.92                             112   -0.74 0  301 235 
 GUY2CHZ I         438 56.04         4.3 0.42                           301 235 
 CBOC HZ EP        438 19.47                             110    0.37 7  334 252 
 CBOC HE ES        438 55.24                             110   -0.46 7  334 252 
 CBOC HZ I         439  4.78         2.4 0.44            110            334 252 
 SJC  HZ EP   4    438 26.13                             105   -1.82 0  412 327 
 SJC  HN ES   4    439  3.88                             105   -7.58 0  412 327 
 SJC  HZ I         439 10.76         2.2 0.42            107            412 327 
                                                                                
