 2014 1110 0600 55.5 L   6.802 -73.180142.7  RSN 13 0.7 1.9LRSN                1
 GAP= 69        1.64       4.8     6.1  8.1 -0.1038E+02  0.4717E+01  0.9455E+01E
 Epicentro: ZAPATOCA - SANTANDER                                               3
 ACTION:UPD 14-12-19 15:41 OP:nd   STATUS:               ID:20141110060055 L   I
 OLDACT:ARG 14-11-10 13:00 OP:stll STATUS:               ID:20141110055741     3
 2014-11-10-0557-41M.COL___289                                                 6
 STAT SP IPHASW D HRMM SECON CODA AMPLIT PERI AZIMU VELO AIN AR TRES W  DIS CAZ7
 BAR2 SZ EP        6 1 14.96                             170    0.2410 23.2 181 
 BAR2 SZ ES        6 1 29.76                             170    0.0210 23.2 181 
 BAR2 SZ I         6 1 31.03        22.4 0.24            170           23.2 181 
 BRR  HZ EP        6 1 16.65                             153    0.5710 67.8 300 
 BRR  HN ES        6 1 33.23                             153    1.0610 67.8 300 
 BRR  HZ I         6 1 37.77         8.4 0.14            151           67.8 300 
 PAM  SZ EP        6 1 17.72                             150    0.2310 79.6  42 
 PAM  SN ES        6 1 34.00                             150   -0.6710 79.6  42 
 PAM  SZ I         6 1 36.94        14.9 0.44            154           79.6  42 
 RUS  HZ EP        6 1 19.05                             143    0.1010  101 174 
 RUS  HN ES        6 1 37.63                             143    0.3510  101 174 
 RUS  HZ I         6 1 38.71         9.5 0.30            146            101 174 
 PTB  HZ EP        6 1 21.37                             132   -0.47 9  144 258 
 PTB  HN ES        6 1 41.95                             132   -0.47 9  144 258 
 PTB  HZ I         6 1 49.55         7.4 0.46            132            144 258 
 TAM  HZ EP        6 1 23.05                             129   -0.19 9  159 105 
 TAM  HZ I         6 1 23.43        14.0 0.20            135            159 105 
 OCA  HZ EP        6 1 23.34                             129   -0.13 9  160 354 
 OCA  HN ES        6 1 44.51                             129   -0.80 9  160 354 
 OCA  HZ I         6 1 49.64         7.8 0.52            131            160 354 
 SPBC HZ EP        6 1 23.69                             129    0.17 9  161 218 
 SPBC HN ES        6 1 45.52                             129    0.11 9  161 218 
 SPBC HZ I         6 1 52.84        11.6 0.26            130            161 218 
 NOR  HZ EP        6 1 30.84                             118    0.14 8  232 234 
 NOR  HE ES        6 1 56.60                             118   -1.58 8  232 234 
 NOR  HZ I         6 2  6.69         6.1 0.16            119            232 234 
 CHI  HZ EP        6 1 33.07                             117    0.16 8  248 194 
 CHI  HZ I         6 1 33.38         4.2 0.38            119            248 194 
 CHI  HE ES        6 2  0.51                             117   -1.61 8  248 194 
 ROSC BZ EP        6 1 33.94                             116    0.72 8  251 210 
 ROSC BN ES        6 2  4.09                             116    1.41 8  251 210 
 GUY2CHZ EP        6 1 39.64                             112    1.05 7  298 234 
 GUY2CHE ES        6 2 12.42                             112    0.18 7  298 234 
 GUY2CHZ I         6 2 20.89         3.3 0.28                           298 234 
 PRA  HZ EP        6 1 48.39                             106   -0.29 6  390 209 
 PRA  HN ES        6 2 29.18                             106   -1.02 6  390 209 
 PRA  HZ I         6 2 34.67         2.6 0.30            108            390 209 
                                                                                
