 2010  510 0823 11.2 L   6.837 -72.969144.7  RSN  5 0.2 1.5LRSN                1
 GAP=178        0.49       3.2     7.9  8.3 -0.1814E+01 -0.2285E+02 -0.2351E+01E
 Epicentro: CEPITA - SANTANDER                                                 3
 ACTION:UP  10-08-24 10:04 OP:vdl  STATUS:               ID:20100510082311 L   I
 2010-05-10-0820-19S.COL___104                                                 6
 STAT SP IPHASW D HRMM SECON CODA AMPLIT PERI AZIMU VELO SNR AR TRES W  DIS CAZ7
 BRR  HZ EP   1    823 33.29                             147     0.1 7   87 290 
 BRR  HE ES   2    823 50.48                             147     0.1 5   87 290 
 BRR  HZ I         823 53.16         4.9 0.12                            87 290 
 RUS  HZ EP   1    823 34.94                             142    -0.2 7  105 187 
 RUS  HE ES   2    823 53.93                             142     0.1 5  105 187 
 RUS  HZ I         823 55.30         3.7 0.30                           105 187 
 GUE  SZ EP   1    823 35.62                             141     0.4 7  110   3 
 GRA  SZ EP   1    823 35.48                             139    -0.1 7  117   9 
 GRA  SZ ES   2    823 54.76                             139     0.1 5  117   9 
 OCA  SZ EP   1    823 39.34                             129     0.0 7  160 346 
 OCA  SZ ES   2    824  0.77                             129    -0.6 5  160 346 
 OCA  SZ I         824  6.50         4.2 0.28                           160 346 
                                                                                
