 2017 1110 0839 55.5 L   6.762 -73.116149.0  RSN  6 0.2 1.3LRSN                1
 GAP=166        0.67       4.7     4.9  4.8 -0.1367E+02  0.1098E+01  0.3617E+01E
 Epicentro: LOS SANTOS - SANTANDER                                             3
 ACTION:UPD 17-12-12 19:54 OP:rebc STATUS:               ID:20171110083955 L   I
 OLDACT:UP  17-11-10 17:51 OP:dnl  STATUS:               ID:20171110083740     3
 OLDACT:REG 17-11-10 15:16 OP:dnl  STATUS:               ID:20171110083740     3
 2017-11-10-0838-00M.COL___405                                                 6
 STAT SP IPHASW D HRMM SECON CODA AMPLIT PERI AZIMU VELO AIN AR TRES W  DIS CAZ7
 BAR2 EZ EP        840 15.47                             172    0.0410 20.2 201 
 BAR2 EZ ES        840 31.10                             172    0.1010 20.2 201 
 BAR2 EZ I         840 31.44         5.8 0.20            172           20.2 201 
 BRR  HZ EP        840 17.50                             152    0.2510 76.2 300 
 BRR  HN ES        840 34.23                             152   -0.0110 76.2 300 
 BRR  HZ I         840 38.19         2.8 0.12            150           76.2 300 
 PAM  EZ EP        840 18.41                             151    0.3010 78.7  36 
 PAM  EN ES        840 35.41                             151   -0.3610 78.7  36 
 PAM  EZ I         840 37.34         4.6 0.54            152           78.7  36 
 PTB  HZ EP        840 22.63                             132   -0.30 9  150 261 
 PTB  HN ES   4    840 42.81                             132   -1.54 0  150 261 
 PTB  HZ I         840 45.63         1.8 0.28            132            150 261 
 SPBC HZ EP        840 23.94                             130   -0.17 9  162 221 
 SPBC HN ES        840 46.55                             130    0.09 9  162 221 
 SPBC HZ I         840 49.09         5.2 0.14            131            162 221 
 GUY2CHZ EP   9    840 41.90                             113    2.64 0  302 236 
 GUY2CHN ES        841 15.49                             111   -0.57 7  302 236 
 GUY2CHZ I         841 18.88         0.7 0.30                           302 236 
                                                                                
