 2016 1010 0908  4.8 L   6.544 -73.632 94.0  RSN  4 0.1 1.1LRSN                1
 GAP=136        0.35       2.0     2.0  3.6 -0.4879E+00  0.3142E+01 -0.5708E+00E
 Epicentro: EL CARMEN - SANTANDER                                              3
 ACTION:UPD 16-11-09 19:18 OP:rebc STATUS:               ID:20161010090804 L   I
 OLDACT:DUP 16-10-10 19:18 OP:y    STATUS:               ID:20161010085745d    3
 OLDACT:DUP 16-10-10 19:08 OP:y    STATUS:               ID:20161010085744d    3
 2016-10-10-0858-00M.COL___354                                                 6
 STAT SP IPHASW D HRMM SECON CODA AMPLIT PERI AZIMU VELO AIN AR TRES W  DIS CAZ7
 BAR2 EZ ES        9 8 31.01                             150   -0.0010 50.0  84 
 BAR2 EZ I         9 8 32.44         8.3 0.28            163           50.0  84 
 PTB  HZ EP   4    9 8 21.01                             132   -1.44 0 91.2 270 
 PTB  HE ES        9 8 36.22                             132    0.0410 91.2 270 
 PTB  HZ I         9 8 42.70         1.7 0.11            133           91.2 270 
 SPBC HZ EP        9 8 24.43                             127    0.0910  110 206 
 SPBC HN ES        9 8 39.46                             127   -0.0810  110 206 
 SPBC HZ I         9 8 43.38         4.0 0.19            132            110 206 
 ZAR  HZ EP        9 8 30.72                             114   -0.07 9  171 308 
 ZAR  HN ES   4    9 8 52.89                             114    1.87 0  171 308 
 ZAR  HZ I         9 8 55.94         2.0 0.18            117            171 308 
                                                                                
