 2016  510 0859  7.4 L   6.806 -73.136146.9  RSN 17 0.4 2.0LRSN                1
 GAP=120        1.01       2.6     3.6  5.5 -0.2082E+01  0.3926E+01  0.7354E-02E
 Epicentro: LOS SANTOS - SANTANDER                                             3
 ACTION:UPD 16-08-18 17:44 OP:cam  STATUS:               ID:20160510085907 L   I
 OLDACT:UP  16-05-15 07:32 OP:ar   STATUS:               ID:20160510085907 L   3
 OLDACT:UP  16-05-10 15:43 OP:drio STATUS:               ID:20160510085742     3
 OLDACT:UP  16-05-10 14:08 OP:dani STATUS:               ID:20160510085742     3
 OLDACT:UP  16-05-10 14:05 OP:dani STATUS:               ID:20160510085742     3
 OLDACT:UP  16-05-10 14:04 OP:dani STATUS:               ID:20160510085742     3
 OLDACT:REG 16-05-10 12:30 OP:drio STATUS:               ID:20160510085742     3
 2016-05-10-0857-42M.COL___282                                                 6
 STAT SP IPHASW D HRMM SECON CODA AMPLIT PERI AZIMU VELO AIN AR TRES W  DIS CAZ7
 BAR2 EZ EP        859 27.00                             170   -0.1510 24.2 192 
 BAR2 EZ I         859 44.79        25.5 0.26            167           24.2 192 
 BRR  HZ EP     D  859 28.86                             152    0.1910 71.8 298 
 BRR  HN ES        859 45.58                             152    0.2910 71.8 298 
 BRR  HZ I         859 48.52        17.5 0.28            152           71.8 298 
 PAM  EZ EP        859 29.88                             151    0.2510 76.1  39 
 PAM  EE ES        859 47.21                             151    0.2110 76.1  39 
 PAM  EZ I         859 49.13        19.3 0.48            155           76.1  39 
 RUS  HZ EP        859 31.23                             144   -0.0410  101 177 
 RUS  HN ES        859 49.96                             144    0.0410  101 177 
 RUS  HZ I         859 50.89        16.7 0.30            143            101 177 
 PTB  HZ EP        859 33.79                             132   -0.75 9  149 259 
 PTB  HN ES        859 54.90                             132   -0.83 9  149 259 
 PTB  HZ I         859 55.81        10.3 0.15            131            149 259 
 OCA  HZ EP        859 35.61                             130   -0.10 9  160 353 
 OCA  HE ES        859 57.50                             130   -0.32 9  160 353 
 OCA  HZ I         9 0  2.01        16.0 0.50            131            160 353 
 SPBC HZ EP        859 35.97                             129   -0.10 9  164 219 
 SPBC HN ES        859 58.23                             129   -0.23 9  164 219 
 SPBC HZ I         9 0  5.04        19.2 0.24            128            164 219 
 ZAR  HZ EP        859 39.50                             122   -0.46 9  205 292 
 ZAR  HN ES        9 0  5.57                             122    0.18 9  205 292 
 ZAR  HZ I         9 0 12.27         6.3 0.11            122            205 292 
 NOR  HZ EP        859 43.50                             119    0.20 8  236 234 
 NOR  HE ES        9 0 11.03                             119   -0.30 8  236 234 
 NOR  HZ I         9 0 18.84         9.7 0.19            118            236 234 
 SML  HZ EP        859 43.89                             118   -0.15 8  244 335 
 SML  HN ES        9 0 13.45                             118    0.81 8  244 335 
 SML  HZ I         9 0 15.36        14.4 0.09            118            244 335 
 CHI  HZ EP        859 45.32                             117    0.09 8  250 195 
 CHI  HN ES   4    9 0 16.11                             117    1.35 0  250 195 
 CHI  HZ I         9 0 24.43         5.3 0.44            117            250 195 
 ROSC BZ EP   4    859 47.55                             117    1.88 0  254 211 
 ROSC BE ES        9 0 16.47                             117    0.92 8  254 211 
 ROSC BZ I         9 0 23.28         8.0 0.60            116            254 211 
 REAC EZ EP   4    859 47.88                             116    1.41 0  262 204 
 REAC EE ES   4    9 0 19.01                             116    2.04 0  262 204 
 HEL  HZ EP   4    859 49.96                             115    2.19 0  273 256 
 HEL  HE ES        9 0 19.70                             115    0.41 8  273 256 
 HEL  HZ I         9 0 26.52         4.6 0.20            115            273 256 
 PTGC HZ EP   9    859 49.93                             112   -1.37 0  309 159 
 PTGC HE ES        9 0 23.34                             112   -0.86 7  309 159 
 LL6C HZ EP        859 52.56                             111   -0.48 7  324 357 
 CBOC HZ EP   4    859 57.24                             110    2.77 0  335 252 
 CBOC HN ES        9 0 31.69                             110    0.48 7  335 252 
 CBOC HZ I         9 0 48.13         2.1 0.58            110            335 252 
 ORTC HZ EP        9 0  2.14                             106    0.67 6  397 216 
                                                                                
