 2012  110 0500 29.8 L   6.787 -73.103144.0  RSN 12 0.3 2.1LRSN                1
 GAP=143        0.54       2.9     3.7  4.1 -0.1038E+01  0.4728E+01  0.2763E+01E
 Epicentro: LOS SANTOS - SANTANDER                                             3
 ACTION:UP  12-02-03 08:16 OP:REBC STATUS:               ID:20120110050029 L   I
 2012-01-10-0500-00M.COL___186                                                 6
 STAT SP IPHASW D HRMM SECON CODA AMPLIT PERI AZIMU VELO SNR AR TRES W  DIS CAZ7
 BAR2 SZ EP   1    5 0 49.23                             170     0.0 7   23 202 
 BAR2 SZ ES   1    5 1  4.40                             170     0.0 7   23 202 
 BAR2 SZ I         5 1  5.64        35.2 0.28                            23 202 
 GIR2 SZ EP   1    5 0 49.29                             166    -0.1 7   34 343 
 GIR2 SZ ES   2    5 1  4.13                             166    -0.5 5   34 343 
 PAM  SZ EP   1    5 0 51.88                             151     0.1 7   76  36 
 PAM  SN ES   2    5 1  8.92                             151     0.1 5   76  36 
 BRR  HZ EP   1    5 0 50.96                             151    -0.1 7   76 298 
 BRR  HE ES   1    5 1  8.07                             151     0.4 7   76 298 
 BRR  HZ I         5 1 12.08        17.2 0.21                            76 298 
 RUS  HZ EP   1    5 0 53.10                             144    -0.2 7   99 179 
 RUS  HN ES   2    5 1 11.57                             144     0.0 5   99 179 
 RUS  HZ I         5 1 13.05        10.1 0.36                            99 179 
 OCA  SZ EP   2    5 0 58.49                             129     0.3 5  162 352 
 OCA  SZ ES   2    5 1 20.40                             129     0.1 5  162 352 
 OCA  SZ I         5 1 24.94        15.1 0.35                           162 352 
 ZAR  HZ EP   1    5 1  1.98                             121    -0.7 6  209 292 
 ZAR  HN ES   2    5 1 27.63                             121    -0.6 4  209 292 
 ZAR  HZ I         5 1 33.23        12.2 0.44                           209 292 
 NOR  SZ EP   1    5 1  5.72                             118     0.0 6  238 235 
 NOR  SE ES   2    5 1 34.09                             118     0.3 4  238 235 
 CHI  HZ EP   2    5 1  7.36                             117     0.0 4  248 196 
 CHI  HE ES   2    5 1 36.60                             117    -0.1 4  248 196 
 CHI  HZ I         5 1 43.75         5.7 0.55                           248 196 
 HEL  HZ EP   1    5 1 11.01                             114     0.6 6  276 256 
 HEL  HE ES   2    5 1 42.14                             114     0.1 4  276 256 
 HEL  HZ I         5 1 48.79         7.6 0.57                           276 256 
 RREF HZ EP   1    5 1 16.40                             110     0.2 5  324 230 
 RREF HN ES   2    5 1 52.17                             110    -0.2 3  324 230 
 RREF HZ I         5 2  1.54         7.0 0.23                           324 230 
 PRA  HZ EP   1    5 1 23.34                             106    -0.1 4  393 210 
                                                                                
