 2010  610 0441 51.0 L   6.770 -72.986149.8  RSN  8 0.5 2.0LRSN                1
 GAP=175        0.91       5.5    10.6 12.8 -0.3165E+02  0.5582E+02 -0.1182E+00E
 Epicentro: CEPITA - SANTANDER                                                 3
 ACTION:UP  10-08-24 10:09 OP:vdl  STATUS:               ID:20100610044151 L   I
 2010-06-10-0441-08S.COL___111                                                 6
 STAT SP IPHASW D HRMM SECON CODA AMPLIT PERI AZIMU VELO SNR AR TRES W  DIS CAZ7
 RUS  HZ EP   1    442 14.56                             145    -0.4 7   98 186 
 RUS  HN ES   2    442 33.36                             145    -0.3 5   98 186 
 RUS  HZ I         442 35.48         9.9 0.27                            98 186 
 BRI  SZ EP   1    442 15.02                             143    -0.2 7  107  11 
 BRI  SZ ES   2    442 34.17                             143     0.2 5  107  11 
 GUE  SZ EP   1    442 15.70                             140    -0.5 7  117   3 
 GRA  SZ EP   1    442 17.37                             138     0.8 7  125   9 
 GRA  SZ ES   2    442 36.95                             138     0.5 5  125   9 
 OCA  SZ EP   1    442 19.56                             129    -0.7 7  167 347 
 OCA  SZ ES   2    442 43.57                             129     0.5 5  167 347 
 ROSC BZ EP   1    442 30.75                             117     0.6 6  260 215 
 ROSC BN ES   2    443  1.20                             117     0.6 4  260 215 
 ROSC BZ I         443  5.24         7.8 0.46                           260 215 
 HEL  HZ EP   1    442 32.87                             114    -0.4 5  288 257 
 HEL  HE ES   2    443  5.78                             114    -0.4 4  288 257 
 HEL  HZ I         443  9.07         6.3 0.33                           288 257 
 RREF BZ EP   1    442 39.37                             111     0.7 5  333 232 
 RREF BN ES   2    443 15.72                             111    -0.1 3  333 232 
 RREF BZ I         443 22.30         6.2 0.38                           333 232 
                                                                                
