 2011  910 0148 23.4 L   6.808 -73.129143.1  RSN  4 0.2 1.6LRSN                1
 GAP=138        0.36       3.7     4.9  6.1 -0.8329E+00 -0.1356E+01  0.1115E+01E
 Epicentro: LOS SANTOS - SANTANDER                                             3
 ACTION:UPD 12-07-13 15:56 OP:ep   STATUS:               ID:20110910014823 L   I
 2011-09-10-0140-00M.COL___171                                                 6
 STAT SP IPHASW D HRMM SECON CODA AMPLIT PERI AZIMU VELO AIN AR TRES W  DIS CAZ7
 GIR2 SZ EP   3    148 42.24                             167   -0.53 2 30.7 347 
 GIR2 SZ ES   3    148 57.60                             167   -0.25 2 30.7 347 
 BRR  HZ EP   1    148 44.24                             152   -0.12 7 72.4 297 
 BRR  HE ES   2    149  0.89                             152    0.21 5 72.4 297 
 BRR  HZ I         149  1.96        17.2 0.12                          72.4 297 
 PAM  SZ EP   1    148 45.46                             151    0.21 7 75.5  39 
 PAM  SE ES   2    149  2.08                             151   -0.19 5 75.5  39 
 RUS  HZ EP   2    148 46.89                             143   -0.09 5  101 177 
 RUS  HZ I         148 47.75         2.8 0.21                           101 177 
 RUS  HE ES   2    149  5.39                             143    0.05 5  101 177 
                                                                                
