 2016  310 0834  6.5 L   6.790 -73.165142.3  RSN  9 0.3 1.7LRSN                1
 GAP=135        0.81       2.4     3.4  5.0 -0.1329E+01  0.4315E+01 -0.4169E+00E
 Epicentro: LOS SANTOS - SANTANDER                                             3
 ACTION:UPD 16-05-13 21:22 OP:cam  STATUS:               ID:20160310083406 L   I
 OLDACT:REG 16-03-10 14:06 OP:cara STATUS:               ID:20160310082752     3
 2016-03-10-0827-52M.COL___285                                                 6
 STAT SP IPHASW D HRMM SECON CODA AMPLIT PERI AZIMU VELO AIN AR TRES W  DIS CAZ7
 BAR2 EZ EP        834 25.66                             171   -0.0010 21.9 185 
 BAR2 EZ ES        834 41.02                             171    0.4010 21.9 185 
 BAR2 EZ I         834 43.40        10.9 0.42            169           21.9 185 
 PAM  EZ IP        834 28.35                             149   -0.1110 79.6  40 
 PAM  EZ I         834 28.63        21.0 0.22            154           79.6  40 
 PAM  EN ES        834 45.71                             149    0.1110 79.6  40 
 RUS  HZ EP        834 29.49                             143   -0.3310 99.6 175 
 RUS  HN ES        834 47.70                             143   -0.3210 99.6 175 
 RUS  HZ I         834 49.47         4.6 0.34            145           99.6 175 
 PTB  HZ EP        834 32.70                             132   -0.25 9  145 259 
 PTB  HN ES        834 53.15                             132   -0.45 9  145 259 
 PTB  HZ I         835  0.45         4.2 0.70            131            145 259 
 OCA  HZ EP        834 35.10                             129    0.50 9  161 354 
 OCA  HE ES        834 56.15                             129   -0.39 9  161 354 
 OCA  HZ I         834 59.67        15.3 0.20            130            161 354 
 SPBC HZ EP        834 34.85                             129    0.35 9  161 219 
 SPBC HN ES        834 56.36                             129    0.01 9  161 219 
 SPBC HZ I         834 58.61         8.3 0.10            129            161 219 
 ZAR  HZ EP        834 38.26                             122   -0.28 9  202 293 
 ZAR  HN ES        835  4.08                             122    0.54 9  202 293 
 ZAR  HZ I         835 10.79         4.8 0.38            122            202 293 
 CHI  HZ EP        834 43.83                             116    0.02 8  247 195 
 CHI  HN ES        835 13.36                             116    0.44 8  247 195 
 CHI  HZ I         835 20.10         1.2 0.24            118            247 195 
 GUY2CHZ EP   9    834 50.67                             112    1.01 0  299 235 
 GUY2CHE ES        835 24.21                                   -0.14 7  299 235 
 GUY2CHZ I         835 32.36         1.8 0.46                           299 235 
                                                                                
