 2012 1110 0252 13.4 L   6.826 -73.041140.6  RSN  4 0.4 2.1LRSN                1
 GAP=214        1.07       8.4    15.5  9.7  0.7559E+02 -0.2621E+02 -0.1445E+02E
 Epicentro: LOS SANTOS - SANTANDER                                             3
 ACTION:UPD 12-12-05 15:32 OP:}ep  STATUS:               ID:20121110025213 L   I
 2012-11-10-0250-00M.COL___230                                                 6
 STAT SP IPHASW D HRMM SECON CODA AMPLIT PERI AZIMU VELO AIN AR TRES W  DIS CAZ7
 BAR2 SZ EP        252 32.40                             167   -0.1410 30.2 211 
 BAR2 SZ ES        252 46.67                             167   -0.8210 30.2 211 
 BAR2 SZ I         252 48.79        28.6 0.18                          30.2 211 
 GIR2 SZ EP        252 32.52                             166    0.0510 32.6 329 
 GIR2 SZ ES        252 47.81                             166    0.4510 32.6 329 
 BRR  HZ EP        252 34.39                             148   -0.1310 80.4 293 
 BRR  HE ES        252 51.16                             148    0.1410 80.4 293 
 BRR  HN I         252 53.74        22.2 0.18                          80.4 293 
 RUS  HN ES        252 55.57                             142    0.4610  103 183 
                                                                                
