 2012  110 0416 41.8 L   6.783 -73.117144.7  RSN 13 0.4 2.1LRSN                1
 GAP=117        0.63       3.4     4.1  6.9 -0.4695E+00  0.8322E+01  0.2698E+01E
 Epicentro: LOS SANTOS - SANTANDER                                             3
 ACTION:DUP 12-02-03 08:16 OP:REBC STATUS:               ID:20120110041641 L   I
 2012-01-10-0410-00M.COL___186                                                 6
 STAT SP IPHASW D HRMM SECON CODA AMPLIT PERI AZIMU VELO SNR AR TRES W  DIS CAZ7
 BAR2 SZ ES   1    417 16.01                                    -0.4 7   22 199 
 BAR2 SZ I         417 18.68        37.5 0.44                            22 199 
 BRR  HZ EP   2    417  3.82                                     0.8 5   75 299 
 BRR  HN ES   2    417 20.28                                     0.7 5   75 299 
 PAM  SZ EP   1    417  3.52                                    -0.3 7   77  37 
 PAM  SE ES   2    417 21.04                                     0.0 5   77  37 
 RUS  HZ EP   2    417  4.82                                    -0.4 5   99 178 
 RUS  HN ES   1    417 23.76                                     0.2 7   99 178 
 RUS  HZ I         417 25.42        15.6 0.50                            99 178 
 PTB  HE ES   2    417 29.76                                    -0.3 5  151 260 
 OCA  SZ ES   2    417 32.80                                     0.4 5  162 352 
 YOP  SN ES   2    417 34.85                                     0.3 4  176 154 
 ZAR  HN ES   2    417 39.61                                    -0.4 4  208 292 
 ZAR  HZ I         417 45.57        12.6 0.51                           208 292 
 NOR  SN ES   2    417 45.51                                     0.0 4  236 235 
 CHI  HZ EP   2    417 19.08                                    -0.2 4  248 196 
 CHI  HN ES   2    417 48.97                                     0.4 4  248 196 
 CHI  HZ I         417 52.39         7.1 0.31                           248 196 
 HEL  HN ES   2    417 53.40                                    -0.4 4  275 256 
 GUY  SE ES   2    418  0.05                                     0.0 4  305 236 
 RREF HE ES   2    418  4.50                                     0.4 3  323 230 
                                                                                
