 2012  710 0816 33.4 L   6.640 -73.230139.4  RSN  4 0.2 1.2LRSN                1
 GAP=215        0.65       5.6     5.6  7.9  0.1782E+02  0.4289E+01  0.4132E+01E
 Epicentro: BARICHARA - SANTANDER                                              3
 ACTION:UPD 12-08-14 11:43 OP:ep   STATUS:               ID:20120710081633 L   I
 2012-07-10-0810-00M.COL___201                                                 6
 STAT SP IPHASW D HRMM SECON CODA AMPLIT PERI AZIMU VELO AIN AR TRES W  DIS CAZ7
 BRR  HZ EP   1    816 53.78                             150    -0.3 7   74 314 
 BRR  HN ES        817 10.34                             150     0.210   74 314 
 BRR  HZ I         817 13.86         4.9 0.15            144             74 314 
 RUS  HZ EP   1    816 55.77                             147     0.3 7   84 169 
 RUS  HZ I         816 56.95         1.9 0.16            149             84 169 
 RUS  HN ES   1    817 12.27                             147    -0.3 7   84 169 
 PTB  HZ EP   1    816 58.93                             133     0.1 7  136 265 
 PTB  HN ES        817 18.70                             133     0.1 9  136 265 
 PTB  HZ I         817 22.68         2.1 0.10            129            136 265 
 ZAR  HN ES   1    817 29.99                             121    -0.3 6  203 298 
 ZAR  HZ I         817 38.89         1.8 0.25            118            203 298 
