 2011  810 0819  4.3 L   6.775 -73.093141.9  RSN  7 0.2 1.8LRSN                1
 GAP=145        0.44       2.4     3.4  3.8 -0.2199E+01  0.2036E+01  0.2911E+01E
 Epicentro: LOS SANTOS - SANTANDER                                             3
 ACTION:UPD 12-07-13 15:51 OP:ep   STATUS:               ID:20110810081904 L   I
 2011-08-10-0815-00S.MAN___143                                                 6
 STAT SP IPHASW D HRMM SECON CODA AMPLIT PERI AZIMU VELO AIN AR TRES W  DIS CAZ7
 BAR2 SZ EP        819 23.44                             170    0.0110 22.5 206 
 BAR2 SZ ES   1    819 38.57                             170    0.20 7 22.5 206 
 BAR2 SZ I         819 40.29        16.4 0.28                          22.5 206 
 PAM  SZ EP   1    819 26.18                             151    0.17 7 76.0  35 
 PAM  SZ I         819 26.46         7.9 0.14                          76.0  35 
 PAM  SE ES   1    819 42.71                             151   -0.24 7 76.0  35 
 BRR  HZ IP     C  819 25.18                             150   -0.2210 77.7 298 
 BRR  HZ I         819 25.47        31.8 0.12                          77.7 298 
 BRR  HN ES   1    819 42.07                             150    0.20 7 77.7 298 
 RUS  HZ EP   1    819 27.59                             144    0.15 7 97.6 179 
 RUS  HN ES   1    819 45.40                             144   -0.10 7 97.6 179 
 RUS  HZ I         819 48.57         8.0 0.26                          97.6 179 
 NOR  SN ES   1    820  8.11                             117    0.00 6  238 236 
 CHI  HZ EP   1    819 41.53                             116   -0.13 6  248 197 
 CHI  HE ES   1    820 10.94                             116    0.13 6  248 197 
 CHI  HZ I         820 16.10         2.6 0.24                           248 197 
 PRA  HZ EP   1    819 58.25                             106    0.51 4  393 211 
 PRA  HN ES   1    820 38.92                             106   -0.51 4  393 211 
                                                                                
