 2010  910 0557 28.4 L   6.901 -73.090137.2  RSN  6 0.5 1.4LRSN                1
 GAP=181        1.16      14.0    17.9 18.0 -0.1166E+03 -0.4920E+02 -0.6173E+02E
 Epicentro: PIEDECUESTA - SANTANDER                                            3
 ACTION:UP  11-02-18 11:01 OP:tino STATUS:               ID:20100910055728 L   I
 2010-09-10-0556-18S.COL___120                                                 6
 STAT SP IPHASW D HRMM SECON CODA AMPLIT PERI AZIMU VELO SNR AR TRES W  DIS CAZ7
 BTL  SZ EP        557 47.71                             172     0.810   20 276 
 GIR2 SZ EP        557 46.70                             171    -0.210   23 330 
 BAR2 SZ EP   2    557 46.49                             164    -0.9 5   36 197 
 BAR2 SZ ES   2    558  1.92                             164    -0.2 5   36 197 
 BAR2 SZ I         558  2.49         5.4 0.37                            36 197 
 BRR  HZ EP        557 48.22                             151    -0.510   72 288 
 BRR  HZ I         557 48.44         9.1 0.10                            72 288 
 BRR  HE ES   2    558  4.90                             151     0.4 5   72 288 
 GUE  SZ EP        557 51.42                             141     0.010  104  10 
 GRA  SZ EP   1    557 52.22                             138     0.4 7  113  16 
 GRA  SZ ES   2    558  9.38                             138    -0.8 5  113  16 
 GRA  SZ I         558 13.11         2.3 0.71                           113  16 
                                                                                
