 2016  210 0540 17.1 L   6.825 -73.116144.0  RSN 12 0.5 1.7LRSN                1
 GAP=121        1.09       3.2     4.1  6.2 -0.2479E+01  0.6324E+01 -0.3595E+01E
 Epicentro: LOS SANTOS - SANTANDER                                             3
 ACTION:UPD 16-03-04 21:24 OP:rebc STATUS:               ID:20160210054017 L   I
 OLDACT:REG 16-02-10 14:45 OP:ak   STATUS:               ID:20160210053739     3
 2016-02-10-0537-39M.COL___310                                                 6
 STAT SP IPHASW D HRMM SECON CODA AMPLIT PERI AZIMU VELO AIN AR TRES W  DIS CAZ7
 BAR2 EZ EP        540 36.92                             169    0.3610 26.8 196 
 BAR2 EZ ES        540 52.35                             169    0.5910 26.8 196 
 BAR2 EZ I         540 53.59         8.4 0.22            169           26.8 196 
 RUS  HZ EP        540 40.36                             143   -0.4710  103 178 
 RUS  HN ES        540 59.20                             143   -0.1810  103 178 
 RUS  HZ I         541  0.93         2.9 0.40            147            103 178 
 PTB  HZ EP        540 43.78                             131   -0.45 9  152 258 
 PTB  HN ES        541  4.28                             131   -1.14 9  152 258 
 PTB  HZ I         541 10.85         6.4 0.54            132            152 258 
 OCA  HZ EP   2    540 46.03                             130    1.02 5  158 352 
 OCA  HN ES        541  6.94                             130    0.12 9  158 352 
 OCA  HZ I         541 13.32         8.2 0.50            132            158 352 
 SPBC HZ EP        540 46.01                             128    0.18 9  167 219 
 SPBC HN ES        541  8.41                             128    0.14 9  167 219 
 SPBC HZ I         541 15.85         8.6 0.28            131            167 219 
 ZAR  HZ EP        540 49.87                             122    0.27 8  206 291 
 ZAR  HN ES        541 14.94                             122   -0.04 8  206 291 
 ZAR  HZ I         541 20.49         4.8 0.32            123            206 291 
 NOR  HZ EP        540 53.14                             118   -0.01 8  239 234 
 NOR  HN ES        541 21.21                             118   -0.09 8  239 234 
 NOR  HZ I         541 24.57         3.9 0.36            120            239 234 
 SML  HZ EP        540 53.38                             117   -0.08 8  243 334 
 SML  HN ES        541 21.82                             117   -0.04 8  243 334 
 SML  HZ I         541 25.40         7.1 0.10            119            243 334 
 HEL  HZ EP        540 58.33                             114    0.72 7  276 255 
 HEL  HN ES        541 29.25                             114    0.01 7  276 255 
 HEL  HZ I         541 37.48         2.3 0.36            116            276 255 
 URE  HZ EP   4    540 55.86                             113   -2.41 0  286 291 
 SOCV BZ EP        540 58.62                             112   -0.92 7  297  57 
 GUY2CHZ EP        541  1.72                             112    0.65 7  305 235 
 GUY2CHN ES        541 36.01                             112    0.61 7  305 235 
 GUY2CHZ I         541 43.58         3.0 0.32                           305 235 
 CBOC HZ EP        541  4.57                             109    0.21 7  338 252 
 CBOC HN ES        541 40.79                             109   -0.46 7  338 252 
 SJC  HZ EP   4    541 10.62                             105   -1.88 0  409 326 
 SJC  HN ES   4    541 51.47                             105   -4.27 0  409 326 
                                                                                
