 2014 1210 0701 33.9 L   6.828 -73.189143.4  RSN 14 0.5 2.0LRSN                1
 GAP= 68        1.21       3.2     3.9  6.5 -0.9624E+00  0.4765E+01  0.1435E+01E
 Epicentro: ZAPATOCA - SANTANDER                                               3
 ACTION:UPD 15-02-10 17:02 OP:nd   STATUS:               ID:20141210070133 L   I
 OLDACT:REG 14-12-10 13:19 OP:fm   STATUS:               ID:20141210065748     3
 2014-12-10-0657-48M.COL___300                                                 6
 STAT SP IPHASW D HRMM SECON CODA AMPLIT PERI AZIMU VELO AIN AR TRES W  DIS CAZ7
 BRR  HZ IP     C  7 1 55.43                             154    0.9510 65.5 298 
 BRR  HE ES        7 2 11.40                             154    0.8710 65.5 298 
 BRR  HZ I         7 2 16.05        25.6 0.12            154           65.5 298 
 PAM  SZ EP        7 1 56.38                             150    0.4610 78.3  44 
 PAM  SE ES        7 2 12.72                             150   -0.3710 78.3  44 
 PAM  SZ I         7 2 15.52        27.1 0.52            156           78.3  44 
 RUS  HZ EP        7 1 58.05                             142    0.3810  104 174 
 RUS  HE ES        7 2 15.72                             142   -0.5010  104 174 
 RUS  HZ I         7 2 18.25        11.1 0.16            146            104 174 
 PTB  HZ EP        7 2  0.30                             132   -0.01 9  144 257 
 PTB  HN ES        7 2 20.32                             132   -0.59 9  144 257 
 PTB  HZ I         7 2 26.45        15.7 0.16            134            144 257 
 OCA  HZ EP        7 2  1.25                             130   -0.44 9  157 355 
 OCA  HE ES        7 2 22.95                             130   -0.42 9  157 355 
 OCA  HZ I         7 2 27.22        16.6 0.16            134            157 355 
 TAM  HZ EP        7 2  2.03                             129    0.13 9  161 106 
 SPBC HZ EP        7 2  2.29                             129    0.12 9  163 217 
 SPBC HN ES        7 2 24.21                             129   -0.01 9  163 217 
 SPBC HZ I         7 2 32.72        14.6 0.24            131            163 217 
 ZAR  HZ EP        7 2  5.62                             123    0.01 9  198 292 
 ZAR  HE ES        7 2 30.03                             123   -0.32 9  198 292 
 ZAR  HZ I         7 2 37.39        15.2 0.44            125            198 292 
 CHI  HZ EP        7 2 11.11                             116   -0.55 8  250 194 
 CHI  HN ES        7 2 40.35                             116   -0.76 8  250 194 
 CHI  HZ I         7 2 46.14         3.5 0.34            120            250 194 
 HEL  HZ EP        7 2 14.38                             115    0.82 8  268 255 
 HEL  HE ES        7 2 44.57                             115    0.07 8  268 255 
 HEL  HZ I         7 2 51.96         7.5 0.36            117            268 255 
 GUY2CHZ EP        7 2 17.81                             112    0.65 7  299 234 
 GUY2CHN ES        7 2 50.86                             112   -0.05 7  299 234 
 GUY2CHZ I         7 2 59.97         4.1 0.38                           299 234 
 PTGC HZ EP   4    7 2 16.47                             111   -1.70 0  313 158 
 PTGC HN ES   4    7 2 48.51                             111   -4.20 0  313 158 
 PTGC HZ I         7 2 52.34         6.4 0.42            115            313 158 
 MON  HZ EP        7 2 22.13                             108   -0.02 6  348 308 
 MON  HE ES        7 2 59.32                             108   -0.47 6  348 308 
 MON  HZ I         7 3  0.19         2.7 0.26            111            348 308 
 SJC  HZ EP        7 2 27.78                             105   -0.99 6  404 327 
 SJC  HE ES   4    7 3  7.93                             105   -3.65 0  404 327 
 SJC  HZ I         7 3 13.39         3.4 0.38            108            404 327 
                                                                                
