 2016  210 0654  8.4 L   6.846 -73.159143.3  RSN 13 0.4 1.6LRSN                1
 GAP=133        0.82       2.1     2.9  5.1 -0.7788E+00  0.6092E+01 -0.4865E+00E
 Epicentro: LOS SANTOS - SANTANDER                                             3
 ACTION:UPD 16-03-04 21:24 OP:rebc STATUS:               ID:20160210065408 L   I
 OLDACT:REG 16-02-10 15:03 OP:ak   STATUS:               ID:20160210064740     3
 2016-02-10-0647-40M.COL___313                                                 6
 STAT SP IPHASW D HRMM SECON CODA AMPLIT PERI AZIMU VELO AIN AR TRES W  DIS CAZ7
 BAR2 EZ EP        654 28.04                             168    0.2310 28.2 185 
 BAR2 EZ ES        654 43.26                             168    0.2910 28.2 185 
 BAR2 EZ I         654 44.28         9.7 0.14            169           28.2 185 
 PAM  EZ EP        654 29.61                             151   -0.5410 74.5  43 
 PAM  EN ES        654 47.33                             151    0.1910 74.5  43 
 PAM  EZ I         654 50.08         9.3 0.48            155           74.5  43 
 RUS  HZ EP        654 32.43                             142    0.1710  106 175 
 RUS  HE ES        654 50.37                             142   -0.5310  106 175 
 RUS  HZ I         654 52.35         2.7 0.22            145            106 175 
 PTB  HZ EP        654 34.71                             132   -0.39 9  147 257 
 PTB  HN ES        654 55.77                             132   -0.18 9  147 257 
 PTB  HZ I         655  2.97         5.3 0.58            132            147 257 
 OCA  HZ EP   2    654 35.90                             130   -0.09 5  155 353 
 OCA  HN ES        654 57.71                             130    0.17 9  155 353 
 OCA  HZ I         655  1.13        14.7 0.22            132            155 353 
 SPBC HZ EP   2    654 37.00                             128    0.02 5  166 217 
 SPBC HN ES        654 59.02                             128   -0.27 9  166 217 
 SPBC HZ I         655  3.15         6.2 0.22            130            166 217 
 ZAR  HZ EP   2    654 40.30                             122   -0.02 4  201 291 
 ZAR  HN ES        655  5.61                             122    0.37 9  201 291 
 ZAR  HZ I         655 11.80         5.0 0.36            123            201 291 
 NOR  HN ES        655 12.50                             118    0.44 8  237 233 
 SML  HZ EP        654 44.00                             118   -0.29 8  238 335 
 SML  HN ES        655 12.67                             118    0.37 8  238 335 
 SML  HZ I         655 16.64                             119            238 335 
 CHI  HZ EP        654 46.83                             116    0.40 8  253 195 
 CHI  HN ES        655 16.24                             116    0.12 8  253 195 
 CHI  HZ I         655 22.06         1.4 0.40            118            253 195 
 HEL  HZ EP   2    654 48.89                             114    0.45 4  272 255 
 HEL  HE ES        655 19.86                             114    0.16 8  272 255 
 HEL  HZ I         655 26.44         3.1 0.42            116            272 255 
 URE  HZ EP   2    654 49.27                             113    0.31 4  281 291 
 URE  HN ES        655 19.63                             113   -0.98 7  281 291 
 GUY2CHZ EP   2    654 52.93                             112    0.86 4  303 234 
 GUY2CHN ES        655 26.33                             112    0.18 7  303 234 
 GUY2CHZ I         655 34.69         2.2 0.66                           303 234 
                                                                                
