 2015  210 0734  8.1 L   6.770 -73.146158.8  RSN  5 0.4 1.2LRSN                1
 GAP=138        1.12       5.0     6.0  8.5  0.3615E+00  0.6626E+01 -0.6678E+01E
 Epicentro: LOS SANTOS - SANTANDER                                             3
 ACTION:UPD 15-04-30 21:24 OP:nd   STATUS:               ID:20150210073408 L   I
 OLDACT:DUP 15-02-10 16:58 OP:fm   STATUS:               ID:20150210072745d    3
 2015-02-10-0727-44M.COL___287                                                 6
 STAT SP IPHASW D HRMM SECON CODA AMPLIT PERI AZIMU VELO AIN AR TRES W  DIS CAZ7
 BRR  HZ EP        734 30.61                             154   -0.1010 72.8 301 
 BRR  HN ES        734 49.19                             154    0.8110 72.8 301 
 BRR  HZ I         734 54.74         2.1 0.18            154           72.8 301 
 PAM  SZ EP        734 32.50                             152    0.6810 80.0  38 
 PAM  SE ES        734 49.93                             152   -0.4210 80.0  38 
 PAM  SZ I         734 53.50         2.0 0.56            156           80.0  38 
 RUS  HZ EP        734 32.93                             147    0.0410 97.3 176 
 RUS  HE ES        734 51.90                             147   -0.3510 97.3 176 
 RUS  HZ I         734 55.84         1.1 0.30            152           97.3 176 
 PTB  HZ EP        734 35.99                             135   -0.07 9  147 260 
 PTB  HN ES        734 57.69                             135   -0.21 9  147 260 
 PTB  HZ I         735  2.28         2.3 0.16            138            147 260 
 SML  HZ EP        734 45.70                             120   -0.06 8  247 336 
 SML  HN ES        735 14.53                             120   -0.64 8  247 336 
 SML  HZ I         735 19.66         2.5 0.24            123            247 336 
                                                                                
