 2010  810 0443 48.8 L   6.794 -73.120144.7  RSN  5 0.2 1.4LRSN                1
 GAP=162        0.50       3.8     6.4  6.3 -0.6295E+01 -0.8666E+01  0.1826E+00E
 Epicentro: LOS SANTOS - SANTANDER                                             3
 ACTION:UP  10-09-07 10:53 OP:vdl  STATUS:               ID:20100810044348 L   I
 2010-08-10-0440-52S.COL___125                                                 6
 STAT SP IPHASW D HRMM SECON CODA AMPLIT PERI AZIMU VELO SNR AR TRES W  DIS CAZ7
 BAR2 SZ EP   1    444  8.00                             170    -0.3 7   23 198 
 BAR2 SZ ES   2    444 23.17                             170    -0.3 5   23 198 
 BAR2 SZ I         444 24.92         5.7 0.16                            23 198 
 BRR  HZ EP   1    444 10.06                             152     0.1 7   74 298 
 BRR  HE ES   1    444 26.55                             152     0.0 7   74 298 
 BRR  HZ I         444 29.05         4.2 0.13                            74 298 
 RUS  HN ES   2    444 31.21                             144     0.5 5  100 178 
 RUS  HZ I         444 32.70         3.6 0.40                           100 178 
 GRA  SZ EP   1    444 13.91                             137     0.0 7  126  16 
 GRA  SZ ES   1    444 33.62                             137     0.1 7  126  16 
 GRA  SZ I         444 36.48         2.9 0.52                           126  16 
 PRA  HZ EP   2    444 42.49                             106     0.1 3  393 210 
 PRA  HZ I         444 43.20         1.1 0.33                           393 210 
                                                                                
