 2011  410 0044 55.7 L   6.703 -73.085142.0  RSN  8 0.2 1.9LRSN                1
 GAP=166        0.55       3.3     6.4  5.3 -0.8839E+01  0.3908E+00  0.1411E+01E
 Epicentro: JORDAN - SANTANDER                                                 3
 ACTION:UP  11-06-22 15:30 OP:REBC STATUS:               ID:20110410004455 L   I
 2011-04-10-0041-17S.COL___138                                                 6
 STAT SP IPHASW D HRMM SECON CODA AMPLIT PERI AZIMU VELO SNR AR TRES W  DIS CAZ7
 BAR2 SZ EP        045 14.80                             173     0.110   16 221 
 BAR2 SZ ES   1    045 29.57                             173     0.0 7   16 221 
 BAR2 SZ I         045 31.24        19.4 0.40                            16 221 
 BTL  SZ EP   1    045 15.00                             167    -0.1 7   31 320 
 GIR2 SZ EP   1    045 15.09                             162    -0.2 7   43 344 
 BRR  HZ EP   1    045 16.81                             148    -0.3 7   82 303 
 BRR  HZ I         045 17.14        33.1 0.19                            82 303 
 BRR  HN ES   2    045 34.07                             148     0.2 5   82 303 
 PAM  SZ EP   1    045 17.73                             148    -0.1 7   82  31 
 PAM  SN ES   1    045 34.82                             148    -0.2 7   82  31 
 GRA  SZ IP        045 21.70                             134     0.410  134  13 
 GRA  SZ I         045 22.90        12.4 0.34                           134  13 
 GRA  SZ ES   1    045 41.37                             134     0.0 7  134  13 
 OCA  SZ ES   1    045 47.55                             126     0.0 7  172 351 
 OCA  SZ I         045 51.64         9.0 0.26                           172 351 
 CHI  HZ EP   2    045 31.83                             117    -0.4 4  240 197 
 CHI  HN ES   2    046  1.40                             117     0.6 4  240 197 
 CHI  HZ I         046 10.13         3.0 0.38                           240 197 
                                                                                
