 2013  210 0651  2.1 L   6.813 -73.136142.1  RSN 10 0.5 2.5LRSN                1
 GAP=137        1.05       4.1     5.8  7.3  0.2445E+00  0.9520E+01  0.4133E+01E
 Epicentro: LOS SANTOS - SANTANDER                                             3
 ACTION:UPD 13-03-12 09:31 OP:ep   STATUS:               ID:20130210065102 L   I
 2013-02-10-0650-00M.COL___241                                                 6
 STAT SP IPHASW D HRMM SECON CODA AMPLIT PERI AZIMU VELO AIN AR TRES W  DIS CAZ7
 BAR2 SZ EP        651 21.35                             170    0.0610 24.9 192 
 BAR2 SZ ES   1    651 35.89                             170   -0.39 7 24.9 192 
 BAR2 SZ I         651 37.19        47.6 0.24            170           24.9 192 
 BRR  HZ IP     D  651 23.08                             152    0.2510 71.5 297 
 BRR  HN ES        651 39.81                             152    0.7810 71.5 297 
 BRR  HN I         651 40.55        89.3 0.38            149           71.5 297 
 PAM  SZ EP   1    651 24.19                             151    0.40 7 75.6  40 
 PAM  SN ES   1    651 40.83                             151    0.10 7 75.6  40 
 PAM  SN I         651 43.07        22.6 0.42            152           75.6  40 
 RUS  HZ EP   1    651 25.42                             143   -0.13 7  102 177 
 RUS  HN ES   1    651 43.55                             143   -0.32 7  102 177 
 RUS  HN I         651 46.90        24.3 0.40            144            102 177 
 PTB  HZ EP   1    651 28.16                             131   -0.69 7  149 258 
 PTB  HN ES   1    651 48.68                             131   -1.07 7  149 258 
 PTB  HN I         651 51.59        43.4 0.20            130            149 258 
 OCA  HN ES   1    651 50.94                             129   -0.80 7  159 353 
 OCA  HN I         651 53.73        93.7 0.20            129            159 353 
 ZAR  HZ EP   1    651 35.13                             122    0.81 6  204 292 
 ZAR  HN ES   2    651 59.19                             122   -0.28 4  204 292 
 ZAR  HN I         652  3.69        32.6 0.38            121            204 292 
 SML  HZ EP   1    651 37.62                             117   -0.78 6  243 335 
 SML  HN ES   4    652  5.29                             117   -1.44 0  243 335 
 SML  HN I         652 13.47        37.7 0.10            116            243 335 
 CHI  HZ EP   1    651 39.75                             116    0.01 6  250 195 
 CHI  HN ES        652  9.31                             116    0.19 8  250 195 
 CHI  HN I         652 11.62        23.8 0.26            117            250 195 
 HEL  HZ EP   1    651 42.67                             114    0.43 6  273 256 
 HEL  HN ES   2    652 14.07                             114    0.49 4  273 256 
 HEL  HN I         652 19.33         7.4 0.24            114            273 256 
                                                                                
