 2017  410 0513 42.6 L   6.762 -73.132142.7  RSN  8 0.4 1.5LRSN                1
 GAP=140        1.04       4.1     4.8  6.0 -0.9576E-01  0.3740E+01  0.2454E+01E
 Epicentro: LOS SANTOS - SANTANDER                                             3
 ACTION:UPD 17-05-30 21:10 OP:jn   STATUS:               ID:20170410051342 L   I
 OLDACT:UP  17-04-10 17:15 OP:edw  STATUS:               ID:20170410050744d    3
 OLDACT:DUP 17-04-10 17:10 OP:edw  STATUS:               ID:20170410050744d    3
 2017-04-10-0508-00M.COL___371                                                 6
 STAT SP IPHASW D HRMM SECON CODA AMPLIT PERI AZIMU VELO AIN AR TRES W  DIS CAZ7
 BAR2 EZ IP     C  514  1.75                             172   -0.0610 19.5 196 
 BAR2 EZ ES        514 16.77                             172    0.0010 19.5 196 
 BAR2 EZ I         514 17.54         8.1 0.36            170           19.5 196 
 BRR  HZ IP     C  514  3.63                             151   -0.0010 74.6 301 
 BRR  HN ES        514 20.59                             151    0.5710 74.6 301 
 BRR  HZ I         514 23.70         4.2 0.30            149           74.6 301 
 PAM  EZ EP     C  514  4.59                             149   -0.0710 79.8  37 
 PAM  EN ES        514 21.44                             149   -0.4010 79.8  37 
 PAM  EZ I         514 24.06         6.6 0.42            152           79.8  37 
 RUS  HZ EP     C  514  5.70                             144   -0.0610 96.2 177 
 RUS  HN ES        514 24.02                             144    0.2210 96.2 177 
 RUS  HZ I         514 25.12         5.7 0.24            144           96.2 177 
 PTB  HZ EP   9    514  8.60                             131   -0.80 0  148 261 
 PTB  HN ES        514 28.82                             131   -0.67 9  148 261 
 PTB  HZ I         514 31.73         4.0 0.14            130            148 261 
 SPBC HZ EP        514 10.61                             128   -0.05 9  161 220 
 SPBC HN ES        514 31.75                             128   -0.78 9  161 220 
 SPBC HZ I         514 35.26         8.2 0.18            128            161 220 
 ZAR  HZ EP        514 14.82                             121   -0.36 8  207 293 
 ZAR  HN ES        514 40.86                             121    0.29 8  207 293 
 ZAR  HZ I         514 46.51         5.1 0.34            121            207 293 
 CHI  HZ EP        514 20.61                             117    0.86 8  245 196 
 CHI  HN ES   4    514 50.86                             117    2.16 0  245 196 
 CHI  HZ I         514 57.06         1.0 0.42            117            245 196 
                                                                                
