 2016 1110 0703 44.4 L   6.774 -73.136139.9  RSN  9 0.4 1.7LRSN                1
 GAP=157        0.90       4.5     4.3  6.0 -0.5289E+01  0.3932E+01  0.1231E+02E
 Epicentro: LOS SANTOS - SANTANDER                                             3
 ACTION:UPD 17-10-26 21:06 OP:lp   STATUS:               ID:20161110070344 L   I
 OLDACT:REG 16-11-10 12:20 OP:lv   STATUS:               ID:20161110065740     3
 2016-11-10-0658-00M.COL___340                                                 6
 STAT SP IPHASW D HRMM SECON CODA AMPLIT PERI AZIMU VELO AIN AR TRES W  DIS CAZ7
 BAR2 EZ EP        7 4  3.15                             171   -0.0810 20.7 194 
 BAR2 EZ ES        7 4 17.92                             171   -0.0310 20.7 194 
 BAR2 EZ I         7 4 19.06        11.7 0.16            167           20.7 194 
 BRR  HZ EP        7 4  5.11                             151    0.0910 73.5 300 
 BRR  HN ES        7 4 21.82                             151    0.6910 73.5 300 
 BRR  HZ I         7 4 26.12        10.3 0.10            152           73.5 300 
 PAM  EZ EP        7 4  6.16                             149    0.1110 79.0  38 
 PAM  EN ES        7 4 22.71                             149   -0.2610 79.0  38 
 PAM  EZ I         7 4 25.02        19.6 0.50            155           79.0  38 
 PTB  HZ EP        7 4 10.42                             130   -0.48 9  148 260 
 PTB  HN ES        7 4 30.97                             130   -0.64 9  148 260 
 PTB  HZ I         7 4 34.31         5.6 0.24            131            148 260 
 CHI  HZ EP        7 4 21.15                             116   -0.32 8  246 196 
 CHI  HN ES        7 4 50.71                             116    0.30 8  246 196 
 CHI  HZ I         7 4 53.91         2.6 0.26            117            246 196 
 ROSC BZ EP   4    7 4 23.29                             116    1.33 0  251 212 
 ROSC BE ES   4    7 4 54.04                             116    2.76 0  251 212 
 ROSC BZ I         7 5  0.84         4.6 0.35            116            251 212 
 PTGC HN EP   4    7 4 29.54                             111    1.93 0  306 159 
 PTGC HE ES   4    7 4 59.79                             111   -1.55 0  306 159 
 CBOC HZ EP        7 4 31.58                             109    0.53 7  334 253 
 CBOC HE ES        7 5  7.51                             109    0.04 7  334 253 
 CBOC HZ I         7 5 10.93         1.5 0.76            110            334 253 
 PRA  HN EP        7 4 38.06                             106    0.61 6  390 210 
 PRA  HE ES        7 5 18.87                             106    0.01 6  390 210 
 PRA  HN I         7 5 26.62         1.5 0.34            107            390 210 
 SJC  HZ EP   4    7 4 38.04                             105   -2.05 0  412 327 
 SJC  HE ES   4    7 5 19.54                             105   -4.02 0  412 327 
 SJC  HZ I         7 5 23.92         1.7 0.29            106            412 327 
                                                                                
