 2012  710 0825 53.1 L   6.794 -73.163150.3  RSN  6 0.4 1.5LRSN                1
 GAP=181        1.21       5.7     7.7 10.9  0.1209E+02  0.2708E+01 -0.1215E+02E
 Epicentro: LOS SANTOS - SANTANDER                                             3
 ACTION:UPD 12-08-14 11:44 OP:ep   STATUS:               ID:20120710082553 L   I
 2012-07-10-0820-00M.COL___201                                                 6
 STAT SP IPHASW D HRMM SECON CODA AMPLIT PERI AZIMU VELO AIN AR TRES W  DIS CAZ7
 BAR2 SZ EP   1    826 13.64                             171     0.3 7   22 185 
 BAR2 SZ I         826 14.09         3.1 0.15            169             22 185 
 BAR2 SZ ES   1    826 29.10                             171     0.1 7   22 185 
 BRR  HZ EP   1    826 15.60                             154     0.9 7   70 300 
 BRR  HN ES        826 32.08                             154     0.510   70 300 
 BRR  HZ I         826 36.52         9.8 0.15            149             70 300 
 RUS  HZ EP   1    826 17.41                             145     0.1 7  100 175 
 RUS  HN ES        826 35.70                             145    -0.510  100 175 
 RUS  HZ I         826 37.12         1.9 0.33            147            100 175 
 PTB  HZ EP   1    826 20.07                             133    -0.2 7  146 259 
 PTB  HN ES   1    826 41.49                             133     0.0 7  146 259 
 PTB  HZ I         826 48.67         2.3 0.35            132            146 259 
 OCA  HZ EP   1    826 21.96                             131     0.1 7  161 354 
 OCA  HN ES        826 43.71                             131    -0.5 9  161 354 
 OCA  HZ I         826 47.62         6.5 0.14            132            161 354 
 ZAR  HN ES        826 50.70                             124    -0.5 9  202 293 
 ZAR  HZ I         826 57.72         4.8 0.29            123            202 293 
