 2014 1210 0702 46.1 L   6.790 -73.170140.0  RSN 10 0.4 1.6LRSN                1
 GAP=134        1.04       3.3     3.9  8.0 -0.1472E+01  0.5535E+01  0.8406E+01E
 Epicentro: LOS SANTOS - SANTANDER                                             3
 ACTION:UPD 15-02-10 17:02 OP:nd   STATUS:               ID:20141210070246 L   I
 OLDACT:DUP 14-12-10 16:48 OP:fm   STATUS:               ID:20141210065749d    3
 OLDACT:REG 14-12-10 13:19 OP:fm   STATUS:               ID:20141210065748     3
 2014-12-10-0657-48M.COL___300                                                 6
 STAT SP IPHASW D HRMM SECON CODA AMPLIT PERI AZIMU VELO AIN AR TRES W  DIS CAZ7
 BRR  HZ EP        7 3  6.56                             152    0.0410 69.4 300 
 BRR  HE ES        7 3 22.76                             152    0.3110 69.4 300 
 BRR  HZ I         7 3 28.28         8.1 0.28            152           69.4 300 
 PAM  SZ EP        7 3  8.36                             149    0.5110 79.9  40 
 PAM  SE ES        7 3 24.74                             149   -0.0910 79.9  40 
 PAM  SZ I         7 3 27.64         5.4 0.48            154           79.9  40 
 RUS  HZ EP        7 3  9.65                             143    0.4410 99.7 174 
 RUS  HE ES        7 3 26.73                             143   -0.5210 99.7 174 
 RUS  HZ I         7 3 29.32         4.8 0.32            145           99.7 174 
 PTB  HE ES        7 3 32.87                             131    0.07 9  145 259 
 PTB  HZ I         7 3 35.83         4.0 0.16            132            145 259 
 OCA  HE ES        7 3 35.25                             128   -0.58 9  161 354 
 OCA  HZ I         7 3 39.13         3.4 0.16            132            161 354 
 SPBC HZ EP        7 3 14.62                             128    0.71 9  161 219 
 SPBC HN ES        7 3 35.64                             128    0.03 9  161 219 
 SPBC HZ I         7 3 42.66         7.7 0.26            130            161 219 
 ZAR  HN ES        7 3 42.54                             121   -0.27 9  202 293 
 ZAR  HZ I         7 3 46.56         3.2 0.28            123            202 293 
 CHI  HZ EP        7 3 22.29                             116   -0.99 8  247 195 
 CHI  HN ES        7 3 52.22                             116   -0.07 8  247 195 
 CHI  HZ I         7 3 59.11         2.1 0.28            118            247 195 
 HEL  HN ES        7 3 56.58                             114   -0.01 8  269 256 
 HEL  HZ I         7 4  5.78         2.8 0.34            116            269 256 
 GUY2CHN ES        7 4  2.64                             111   -0.04 7  298 235 
 GUY2CHZ I         7 4 12.18         2.2 0.28                           298 235 
                                                                                
