 2017  410 0304  0.5 L   6.802 -73.162145.6  RSN  5 0.3 1.1LRSN                1
 GAP=134        0.89       4.8     4.6  6.6 -0.2278E+01  0.4493E+01  0.1121E+01E
 Epicentro: LOS SANTOS - SANTANDER                                             3
 ACTION:UPD 17-05-30 21:10 OP:jn   STATUS:               ID:20170410030400 L   I
 OLDACT:DUP 17-04-10 15:49 OP:edw  STATUS:               ID:20170410025750d    3
 OLDACT:REG 17-04-10 12:44 OP:edw  STATUS:               ID:20170410025749     3
 2017-04-10-0258-00M.COL___371                                                 6
 STAT SP IPHASW D HRMM SECON CODA AMPLIT PERI AZIMU VELO AIN AR TRES W  DIS CAZ7
 BAR2 EZ ES        3 4 35.39                             170    0.0110 23.4 186 
 BAR2 EZ I         3 4 37.89         3.6 0.42            171           23.4 186 
 BRR  HZ EP        3 4 21.88                             153    0.3710 69.5 299 
 BRR  HN ES        3 4 38.40                             153    0.4810 69.5 299 
 BRR  HZ I         3 4 38.87         4.6 0.30            154           69.5 299 
 PAM  EZ IP     C  3 4 22.93                             150    0.2110 78.3  41 
 PAM  EE ES        3 4 39.54                             150   -0.5410 78.3  41 
 PAM  EZ I         3 4 42.32         1.8 0.78            152           78.3  41 
 RUS  HZ EP        3 4 24.27                             144    0.0410  101 175 
 RUS  HN ES        3 4 42.88                             144    0.1110  101 175 
 RUS  HZ I         3 4 43.85         2.7 0.34            145            101 175 
 PTB  HZ EP        3 4 26.95                             132   -0.32 9  146 259 
 PTB  HN ES        3 4 47.74                             132   -0.44 9  146 259 
 PTB  HZ I         3 4 50.87         0.8 0.26            134            146 259 
                                                                                
