 2014  810 0215 24.8 L   6.751 -73.231147.2  RSN  6 0.4 1.2LRSN                1
 GAP=185        0.88       4.3     6.8  7.6  0.5390E+01 -0.1191E+01 -0.5893E+01E
 Epicentro: ZAPATOCA - SANTANDER                                               3
 ACTION:UPD 14-09-15 21:48 OP:nd   STATUS:               ID:20140810021524 L   I
 OLDACT:REG 14-08-10 15:26 OP:spq  STATUS:               ID:20140810021247     3
 2014-08-10-0212-47M.COL___269                                                 6
 STAT SP IPHASW D HRMM SECON CODA AMPLIT PERI AZIMU VELO AIN AR TRES W  DIS CAZ7
 BAR2 SZ ES   1    215 59.54                             173   -0.33 7 18.4 163 
 BAR2 SZ I         216  0.45         3.4 0.20            173           18.4 163 
 BRR  HZ EP        215 45.91                             154    0.1010 66.1 307 
 BRR  HE ES        216  2.67                             154    0.4610 66.1 307 
 BRR  HZ I         216  9.25         4.1 0.48            152           66.1 307 
 RUS  HZ EP        215 48.53                             145    0.1610 96.4 170 
 RUS  HN ES   1    216  6.31                             145   -0.47 7 96.4 170 
 RUS  HZ I         216  7.71         1.3 0.17            150           96.4 170 
 PTB  HZ EP   1    215 50.47                             134   -0.49 7  138 260 
 PTB  HN ES   1    216 10.68                             134   -0.69 7  138 260 
 PTB  HZ I         216 16.23         1.8 0.17            134            138 260 
 SPBC HE ES        216 14.48                             131    0.44 9  153 218 
 SPBC HZ I         216 16.78         1.9 0.35            133            153 218 
 SML  HZ EP   1    216  1.91                             118    0.30 6  245 338 
 SML  HE ES   1    216 29.89                             118   -0.45 6  245 338 
                                                                                
