 2017  410 0629 27.4 L   6.847 -73.108149.4  RSN  4 0.4 1.1LRSN                1
 GAP=245        1.03       8.5     8.2  8.3  0.3501E+02  0.1244E+01 -0.2817E+01E
 Epicentro: LOS SANTOS - SANTANDER                                             3
 ACTION:UPD 17-05-30 21:10 OP:jn   STATUS:               ID:20170410062927 L   I
 OLDACT:UP  17-04-10 18:16 OP:edw  STATUS:               ID:20170410062702d    3
 OLDACT:DUP 17-04-10 18:14 OP:edw  STATUS:               ID:20170410062702d    3
 OLDACT:UP  17-04-10 18:14 OP:edw  STATUS:               ID:20170410062701d    3
 OLDACT:DUP 17-04-10 18:10 OP:edw  STATUS:               ID:20170410062701d    3
 OLDACT:REG 17-04-10 13:13 OP:edw  STATUS:               ID:20170410062700     3
 2017-04-10-0628-00M.COL___368                                                 6
 STAT SP IPHASW D HRMM SECON CODA AMPLIT PERI AZIMU VELO AIN AR TRES W  DIS CAZ7
 BAR2 EZ EP        629 47.50                             168   -0.0910 29.3 196 
 BAR2 EZ ES        630  3.02                             168   -0.3310 29.3 196 
 BRR  HZ EP        629 49.44                             153    0.4210 72.7 293 
 BRR  HN ES        630  5.93                             153    0.0510 72.7 293 
 BRR  HZ I         630 10.91         2.1 0.40            153           72.7 293 
 RUS  HZ EP        629 52.24                             143    0.3810  106 179 
 RUS  HN ES        630 10.98                             143    0.0410  106 179 
 RUS  HZ I         630 13.07         1.6 0.34            146            106 179 
 PTB  HZ EP        629 54.24                             132   -0.88 9  153 257 
 PTB  HN ES        630 17.09                             132    0.34 9  153 257 
 PTB  HZ I         630 18.97         1.5 0.22            134            153 257 
 ZAR  HN ES   4    630 19.92                             123   -6.01 0  206 290 
                                                                                
