 2011  110 0904 51.8 L   6.354 -73.626106.5  RSN  7 0.2 1.8LRSN                1
 GAP=108        0.51       4.3     3.9  6.8 -0.1213E+02  0.1507E+02 -0.1139E+02E
 Epicentro: SANTA HELENA DEL OPON - SANTANDER                                  3
 ACTION:UP  11-02-08 08:40 OP:pat  STATUS:               ID:20110110090451 L   I
 2011-01-10-0901-43S.COL___136                                                 6
 STAT SP IPHASW D HRMM SECON CODA AMPLIT PERI AZIMU VELO SNR AR TRES W  DIS CAZ7
 BAR2 SZ EP        9 5  8.31                             150     0.110   56  62 
 BAR2 SZ ES   1    9 5 20.72                             150    -0.3 7   56  62 
 BAR2 SZ I         9 5 23.20        29.1 0.38                            56  62 
 BTL  SZ EP        9 5  9.63                             143     0.210   74  32 
 RUS  HZ EP   1    9 5 10.21                             141     0.0 7   79 130 
 RUS  HZ I         9 5 10.64         9.5 0.22                            79 130 
 NOR  SZ EP   1    9 5 17.26                             118    -0.4 7  163 238 
 NOR  SN ES   1    9 5 37.91                             118     0.2 7  163 238 
 GRA  SZ EP   2    9 5 21.22                             114     0.3 4  192  28 
 GRA  SZ ES   1    9 5 43.64                             114     0.0 7  192  28 
 GRA  SZ I         9 5 54.10         6.6 0.36                           192  28 
 HEL  HN ES   2    9 5 48.07                             111     0.1 4  211 265 
 OCA  SZ I         9 5 52.91        10.1 0.24                           211   9 
 HEL  HZ EP   1    9 5 23.23                             111    -0.1 6  211 265 
 HEL  HZ I         9 5 50.31         4.9 0.32                           211 265 
 OCA  SZ EP   1    9 5 22.74                             111    -0.3 6  211   9 
                                                                                
