 2011 1010 0314 53.0 L   6.808 -73.070134.0  RSN  4 0.3 1.2LRSN                1
 GAP=146        0.54       5.9     6.2  9.6  0.3353E+00 -0.1408E+02 -0.8537E+00E
 Epicentro: LOS SANTOS - SANTANDER                                             3
 ACTION:UPD 12-07-13 16:03 OP:ep   STATUS:               ID:20111010031453 L   I
 2011-10-10-0300-00M.COL___171                                                 6
 STAT SP IPHASW D HRMM SECON CODA AMPLIT PERI AZIMU VELO AIN AR TRES W  DIS CAZ7
 BAR2 SZ EP   2    315 11.25                             168   -0.07 5 26.9 208 
 BAR2 SZ I         315 27.96         3.8 0.20                          26.9 208 
 PAM  SZ EP   1    315 13.98                             151    0.34 7 71.6  35 
 PAM  SE ES   2    315 29.31                             151   -0.41 5 71.6  35 
 BRR  HZ EP   1    315 13.00                             148   -0.35 7 78.3 295 
 BRR  HZ I         315 13.96         4.0 0.10                          78.3 295 
 BRR  HN ES   1    315 29.42                             148    0.21 7 78.3 295 
 RUS  HE ES   2    315 33.40                             141    0.04 5  101 181 
                                                                                
