 2013  610 0920 46.2 L   6.778 -73.178150.7  RSN  7 0.3 1.6LRSN                1
 GAP=177        0.65       3.7     4.1  4.3  0.5371E+01  0.3808E+01 -0.6492E+00E
 Epicentro: LOS SANTOS - SANTANDER                                             3
 ACTION:UPD 14-01-08 09:53 OP:ep   STATUS:               ID:20130610092046 L   I
 OLDACT:UP  13-06-10 12:00 OP:cam  STATUS:               ID:20130610091959     3
 OLDACT:UP  13-06-10 11:59 OP:cam  STATUS:               ID:20130610091959     3
 OLDACT:REG 13-06-10 08:23 OP:cam  STATUS:               ID:20130610091959     3
 2013-06-10-0919-59M.COL___261                                                 6
 STAT SP IPHASW D HRMM SECON CODA AMPLIT PERI AZIMU VELO AIN AR TRES W  DIS CAZ7
 BAR2 SZ IP        921  6.23                             172   -0.1510 20.6 181 
 BAR2 SZ EP   1    921  6.23                             172   -0.15 7 20.6 181 
 BAR2 SZ ES        921 22.12                             172    0.0110 20.6 181 
 BAR2 SZ I         921 22.86         8.4 0.23            171           20.6 181 
 GIR2 SZ ES        921 22.08                             167   -0.2810 33.3 357 
 BRR  HZ EP        921  7.97                             154    0.1910 69.3 302 
 BRR  HN ES        921 24.73                             154    0.1110 69.3 302 
 BRR  HZ I         921 27.65         6.6 0.30            151           69.3 302 
 RUS  HZ EP   1    921 10.05                             145   -0.25 7 98.5 174 
 RUS  HN ES        921 29.55                             145    0.4610 98.5 174 
 RUS  HZ I         921 30.85         3.0 0.30            147           98.5 174 
 PTB  HZ EP        921 13.04                             134   -0.18 9  144 259 
 PTB  HN ES        921 33.92                             134   -0.38 9  144 259 
 PTB  HZ I         921 36.49         5.3 0.16            133            144 259 
 ZAR  HZ EP   2    921 19.27                             124    0.54 4  202 293 
 ZAR  HN ES   1    921 44.64                             124    0.54 6  202 293 
 ZAR  HZ I         921 50.35         4.7 0.32            123            202 293 
 SML  HZ EP   1    921 23.28                             118    0.10 6  244 336 
 SML  HN ES   2    921 52.26                             118    0.23 4  244 336 
 SML  HZ I         921 53.32         6.1 0.10            119            244 336 
                                                                                
