 2013  110 0618 46.2 L   6.569 -73.589 99.2  RSN  9 0.4 2.3LRSN                1
 GAP= 78        1.03       2.9     3.5  6.1  0.9819E+00  0.7722E+01  0.1829E+01E
 Epicentro: EL CARMEN DE CHUCURI - SANTANDER                                   3
 ACTION:UPD 13-02-15 09:13 OP:ep   STATUS:               ID:20130110061846 L   I
 2013-01-10-0616-48M.COL___181                                                 6
 STAT SP IPHASW D HRMM SECON CODA AMPLIT PERI AZIMU VELO AIN AR TRES W  DIS CAZ7
 BAR2 SZ EP        619  1.22                             154    0.0710 45.0  87 
 BAR2 SZ ES        619 12.91                             154    0.0810 45.0  87 
 BAR2 SZ I         619 15.28       146.1 0.48            160           45.0  87 
 BRR  HZ EP        619  2.04                             146    0.2510 61.0 347 
 BRR  HN ES        619 14.19                             146    0.2110 61.0 347 
 BRR  HN I         619 23.85        71.5 0.16            143           61.0 347 
 RUS  HZ EP        619  4.28                             134   -0.7710 93.4 143 
 RUS  HN ES        619 20.06                             134    0.2710 93.4 143 
 RUS  HN I         619 23.40        19.1 0.16            137           93.4 143 
 PTB  HZ IP     C  619  4.06                             133   -0.5810 96.0 268 
 PTB  HN ES        619 18.71                             133   -0.3310 96.0 268 
 PTB  HN I         619 25.15        57.6 0.20            129           96.0 268 
 ZAR  HZ EP        619 13.31                             116    0.70 9  173 306 
 ZAR  HN I         619 39.29        62.6 0.30            113            173 306 
 OCA  HZ EP        619 14.74                             114    0.42 9  187   9 
 OCA  HE ES        619 35.76                             114   -0.53 9  187   9 
 CHI  HZ EP        619 17.53                             111   -0.32 8  215 184 
 CHI  HN ES        619 43.11                             111    0.54 8  215 184 
 CHI  HN I         619 49.77        17.0 0.64            109            215 184 
 HEL  HZ EP        619 18.37                             110    0.16 8  219 259 
 HEL  HN ES        619 43.24                             110    0.03 8  219 259 
 HEL  HN I         619 48.45        12.3 0.46            108            219 259 
 DBB  SZ EP        619 26.82                             105    0.09 7  294 280 
                                                                                
