 2017  610 0532  2.0 L   6.782 -73.145147.5  RSN  7 0.5 1.6LRSN                1
 GAP=236        1.05       5.1     5.7  7.8  0.7737E+01  0.7177E+01 -0.2401E+00E
 Epicentro: LOS SANTOS - SANTANDER                                             3
 ACTION:UPD 17-09-14 16:51 OP:jn   STATUS:               ID:20170610053202 L   I
 OLDACT:REG 17-06-10 13:50 OP:cog  STATUS:               ID:20170610052739     3
 2017-06-10-0528-00M.COL___362                                                 6
 STAT SP IPHASW D HRMM SECON CODA AMPLIT PERI AZIMU VELO AIN AR TRES W  DIS CAZ7
 BRR  HZ EP        532 23.37                             153   -0.0010 72.3 300 
 BRR  HN ES        532 40.53                             153    0.4710 72.3 300 
 BRR  HZ I         532 43.55         7.6 0.26            153           72.3 300 
 RUS  HZ EP        532 25.95                             145    0.1910 98.6 176 
 RUS  HN ES        532 44.32                             145    0.0210 98.6 176 
 PTB  HZ EP        532 28.75                             133   -0.31 9  147 260 
 PTB  HN ES        532 49.65                             133   -0.54 9  147 260 
 PTB  HZ I         532 54.37         3.8 0.22            134            147 260 
 SPBC HZ EP        532 30.53                             130    0.06 9  162 219 
 SPBC HN ES        532 52.57                             130   -0.12 9  162 219 
 SPBC HZ I         532 57.41         7.0 0.20            132            162 219 
 ZAR  HZ EP        532 34.21                             123   -0.42 9  205 293 
 ZAR  HN ES        532 59.97                             123   -0.12 9  205 293 
 NOR  HN ES        533  4.98                             119   -0.57 8  234 235 
 CBOC HZ EP        532 49.51                             110    0.60 7  333 252 
 CBOC HN ES        533 26.86                             110    1.35 7  333 252 
                                                                                
