 2012 1110 0327 53.7 L   6.824 -73.160143.6  RSN 16 0.6 2.5LRSN 3.1WRSN        1
 SPEC AVERAGE  MO 13.7 ST 22.1 OM  2.2 f0 5.70 R0.2896 AL 3.38 WI 22.1 MW  3.1 3
 SPEC SD       MO  0.2 ST 25.5 OM  0.4 f0 2.04 R0.0900 AL      WI      MW  0.1 3
 GAP= 69        1.27       3.8     3.8  6.1  0.1751E+01  0.6543E+01  0.4400E+01E
 Epicentro: LOS SANTOS - SANTANDER                                             3
 SPEC ZAR HH N MO 13.9 ST 71.2 OM  2.1 f0 8.91 R0.1650 AL 4.65 WI 27.6 MW  3.2 3
 SPEC ZAR HH N T 32850 K 0.000 GD  247 VS 4.20 DE 3.00 Q0230.0 QA 0.60 VS 4.20 3
 SPEC RUS HH N MO 13.2 ST  2.6 OM  1.6 f0 4.83 R0.3043 AL 2.50 WI 16.9 MW  2.8 3
 SPEC RUS HH N T 32835 K 0.000 GD  176 VS 4.20 DE 3.00 Q0230.0 QA 0.60 VS 4.20 3
 SPEC HEL HH N MO 13.7 ST  3.2 OM  1.8 f0 3.71 R0.3962 AL 1.64 WI 30.6 MW  3.0 3
 SPEC HEL HH N T 329 2 K 0.000 GD  306 VS 4.20 DE 3.00 Q0230.0 QA 0.60 VS 4.20 3
 SPEC OCA HH N MO 13.9 ST 12.7 OM  2.2 f0 4.89 R0.3006 AL 2.80 WI 24.9 MW  3.2 3
 SPEC OCA HH N T 32842 K 0.000 GD  212 VS 4.20 DE 3.00 Q0230.0 QA 0.60 VS 4.20 3
 SPEC CHI HH N MO 13.6 ST  3.2 OM  1.8 f0 3.78 R0.3889 AL 2.55 WI 17.8 MW  3.0 3
 SPEC CHI HH N T 32859 K 0.000 GD  289 VS 4.20 DE 3.00 Q0230.0 QA 0.60 VS 4.20 3
 SPEC BRR HH Z MO 13.7 ST 40.0 OM  1.4 f0 8.06 R0.1824 AL 6.14 WI 14.5 MW  3.1 3
 SPEC BRR HH Z T 32814 K 0.000 GD  159 VP 7.60 DE 3.00 Q0230.0 QA 0.60 VS 4.20 3
 ACTION:UPD 12-12-05 15:32 OP:}ep  STATUS:               ID:20121110032753 L   I
 2012-11-10-0320-00M.COL___230                                                 6
 STAT SP IPHASW D HRMM SECON CODA AMPLIT PERI AZIMU VELO AIN AR TRES W  DIS CAZ7
 BAR2 SZ IP     D  328 13.06                             169   -0.0210 25.8 185 
 BAR2 SZ I         328 13.42        82.5 0.32                          25.8 185 
 BAR2 SZ ES        328 27.68                             169   -0.5510 25.8 185 
 GIR2 SZ EP        328 13.04                             168    0.0410 28.4 353 
 GIR2 SZ ES        328 28.17                             168    0.0910 28.4 353 
 BRR  HZ IP        328 14.85                             153    0.4210 68.5 297 
 BRR  HZ I         328 15.10        56.1 0.26                          68.5 297 
 BRR  HN ES        328 31.69                             153    1.0710 68.5 297 
 PAM  SZ EP        328 15.88                             151    0.2910 76.4  42 
 PAM  SN ES        328 32.86                             151    0.1710 76.4  42 
 PAM  SN I         328 34.82        85.2 0.46                          76.4  42 
 RUS  HZ EP        328 17.12                             143   -0.2910  103 175 
 RUS  HN ES        328 35.54                             143   -0.3910  103 175 
 PTB  HZ EP        328 19.49                             132   -0.87 9  147 258 
 PTB  HN ES        328 40.87                             132   -0.32 9  147 258 
 PTB  HN I         328 47.70        48.8 0.26                           147 258 
 OCA  HZ EP   2    328 22.34                             130    0.80 5  157 354 
 TAM  HN I         328 43.88        24.4 0.28                           157 106 
 OCA  HN ES        328 42.61                             130   -0.66 9  157 354 
 OCA  HN I         328 49.72        70.0 0.30                           157 354 
 TAM  HZ EP        328 21.44                             130    0.06 9  157 106 
 TAM  HN ES        328 42.92                             130   -0.08 9  157 106 
 ZAR  HZ EP        328 25.80                             122    0.09 9  202 292 
 ZAR  HN ES        328 51.24                             122    0.53 9  202 292 
 SML  HZ EP   3    328 31.78                             117    1.95 2  241 335 
 CHI  HZ EP        328 31.54                             116    0.06 8  251 195 
 CHI  HN ES        329  1.01                             116    0.03 8  251 195 
 CHI  HN I         329  3.53        18.1 0.36                           251 195 
 ROSC BZ EP   2    328 33.07                             116    1.24 4  254 210 
 ROSC BZ I         329  7.60        12.6 0.40                           254 210 
 HEL  HZ EP        328 34.18                             114    0.51 8  271 255 
 HEL  HN I         329 10.91        11.6 0.30                           271 255 
 DBB  SZ EP        328 40.93                             109    0.08 7  338 274 
 DBB  SZ I         329 22.66         8.6 0.38                           338 274 
 MON  HN ES        329 18.31                             108   -1.82 6  351 308 
 ANIL HN ES        329 22.95                             108    0.61 6  358 224 
 ANIL HZ I         329 29.36        28.5 0.30                           358 224 
                                                                                
