 2016  810 0732 33.8 L   6.764 -73.167147.0  RSN  5 0.4 1.5LRSN                1
 GAP=232        0.93       5.6     6.3  7.7  0.5810E+01  0.7943E+01  0.4141E+01E
 Epicentro: LOS SANTOS - SANTANDER                                             3
 ACTION:UPD 16-10-29 15:34 OP:rebc STATUS:               ID:20160810073233 L   I
 OLDACT:REG 16-08-10 12:34 OP:dnl  STATUS:               ID:20160810072759     3
 2016-08-10-0727-59S.COL___346                                                 6
 STAT SP IPHASW D HRMM SECON CODA AMPLIT PERI AZIMU VELO AIN AR TRES W  DIS CAZ7
 BAR2 EZ EP        732 53.23                             172   -0.3010 19.1 185 
 BAR2 EZ ES        733  8.71                             172   -0.1910 19.1 185 
 BAR2 EZ I         733  9.48         9.9 0.22                          19.1 185 
 BRR  HZ EP        732 55.13                             153    0.0210 71.2 302 
 BRR  HE ES        733 12.27                             153    0.5610 71.2 302 
 BRR  HZ I         733 16.22         6.2 0.14                          71.2 302 
 RUS  HZ EP   2    732 57.20                             145   -0.23 5 96.8 175 
 RUS  HE ES        733 15.81                             145   -0.0310 96.8 175 
 RUS  HZ I         733 17.13         4.2 0.28                          96.8 175 
 PTB  HZ EP   2    733  0.26                             133   -0.36 5  145 260 
 PTB  HN ES        733 20.83                             133   -0.70 9  145 260 
 PTB  HZ I         733 23.46         3.0 0.42                           145 260 
 SPBC HZ EP        733  2.47                             130    0.48 9  159 219 
 SPBC HE ES        733 24.30                             130    0.34 9  159 219 
 SPBC HZ I         733 25.99         6.8 0.16                           159 219 
                                                                                
