 2010  910 0432 10.1 L   6.718 -73.030138.5  RSN  5 0.1 1.5LRSN                1
 GAP=220        0.44       8.8     6.2  7.2  0.1466E+01 -0.1769E+02 -0.4278E+02E
 Epicentro: ARATOCA - SANTANDER                                                3
 ACTION:UP  11-02-18 11:01 OP:tino STATUS:               ID:20100910043210 L   I
 2010-09-10-0429-22S.COL___120                                                 6
 STAT SP IPHASW D HRMM SECON CODA AMPLIT PERI AZIMU VELO SNR AR TRES W  DIS CAZ7
 BAR2 SZ ES   1    432 43.40                             171     0.0 7   22 231 
 BAR2 SZ I         432 45.42        10.7 0.04                            22 231 
 GIR2 SZ EP   2    432 29.47                             161     0.1 5   44 336 
 BRR  HZ EP        432 31.45                             146     0.010   87 300 
 BRR  HZ I         432 42.64         5.9 0.08                            87 300 
 BRR  HN ES   1    432 48.14                             146     0.0 7   87 300 
 GUE  SZ EP   1    432 34.48                             136    -0.3 7  124   5 
 GUE  SZ I         432 35.23         2.7 0.09                           124   5 
 GRA  SZ IP        432 35.35                             134     0.110  131  11 
 GRA  SZ I         432 56.14         3.9 0.32                           131  11 
                                                                                
