 2016  210 0227  2.6 L   6.850 -73.141145.0  RSN  7 0.4 1.5LRSN                1
 GAP=202        0.87       6.3     6.0  7.0  0.9896E+01  0.7126E+01 -0.1562E+02E
 Epicentro: LOS SANTOS - SANTANDER                                             3
 ACTION:UPD 16-03-04 21:24 OP:rebc STATUS:               ID:20160210022702 L   I
 OLDACT:DUP 16-02-10 16:36 OP:ak   STATUS:               ID:20160210021737d    3
 OLDACT:UP  16-02-10 16:34 OP:ak   STATUS:               ID:20160210021736     3
 OLDACT:REG 16-02-10 14:22 OP:ak   STATUS:               ID:20160210021736     3
 2016-02-10-0217-36M.COL___319                                                 6
 STAT SP IPHASW D HRMM SECON CODA AMPLIT PERI AZIMU VELO AIN AR TRES W  DIS CAZ7
 BAR2 EZ EP        227 22.75                             168    0.5210 28.9 189 
 BAR2 EZ ES        227 37.77                             168    0.1910 28.9 189 
 BAR2 EZ I         227 39.59         6.2 0.18            168           28.9 189 
 RUS  HZ EP        227 26.58                             142   -0.0710  106 177 
 RUS  HN ES        227 45.12                             142   -0.3210  106 177 
 RUS  HZ I         227 46.74         3.6 0.24            144            106 177 
 PTB  HZ EP        227 29.30                             132   -0.33 9  149 257 
 PTB  HN ES        227 50.57                             132   -0.17 9  149 257 
 PTB  HZ I         227 52.84         3.6 0.16            133            149 257 
 ZAR  HN ES   2    228  0.39                             122    0.43 4  203 291 
 NOR  HZ EP   2    227 38.20                             118   -0.45 4  238 233 
 SML  HZ EP        227 38.18                             118   -0.45 8  239 335 
 GUY2CHZ EP        227 47.34                             112    0.78 7  305 234 
 GUY2CHN ES   4    228 23.22                             112    2.35 0  305 234 
 GUY2CHZ I         228 29.29         2.0 0.40                           305 234 
                                                                                
