 2017  810 0743 19.1 L   6.820 -72.955139.3  RSN  5 0.4 1.2LRSN                1
 GAP=257        0.98       6.0     7.7  7.9  0.2241E+02  0.5424E+01  0.1167E+01E
 Epicentro: CEPITA - SANTANDER                                                 3
 ACTION:UPD 17-09-04 20:18 OP:rebc STATUS:               ID:20170810074319 L   I
 OLDACT:REG 17-08-10 12:43 OP:dhb  STATUS:               ID:20170810073742     3
 2017-08-10-0738-00M.COL___399                                                 6
 STAT SP IPHASW D HRMM SECON CODA AMPLIT PERI AZIMU VELO AIN AR TRES W  DIS CAZ7
 BAR2 EZ EP        743 38.56                             165    0.3110 35.6 225 
 BAR2 EZ ES        743 52.68                             165   -0.5310 35.6 225 
 BAR2 EZ I         744  1.91         3.2 0.24            164           35.6 225 
 BRR  HZ EP        743 40.52                             145   -0.1810 89.5 291 
 BRR  HN ES        743 57.58                             145    0.0110 89.5 291 
 BRR  HZ I         744  0.53         4.2 0.37            147           89.5 291 
 RUS  HZ EP        743 42.63                             142    0.2110  104 188 
 RUS  HN ES        744  1.11                             142    0.4810  104 188 
 RUS  HZ I         744  2.44         1.8 0.28            145            104 188 
 SPBC HZ EP        743 47.93                             125   -0.70 9  179 224 
 SPBC HN ES        744 11.59                             125   -0.09 9  179 224 
 SPBC HZ I         744 15.97         1.9 0.24            129            179 224 
 ZAR  HN ES        744 20.12                             118    0.46 8  223 290 
 ZAR  HZ I         744 23.99         1.6 0.36            122            223 290 
                                                                                
