 2010 1110 0810  6.3 L   6.784 -73.154143.0  RSN  4 0.4 1.8LRSN                1
 GAP=158        1.30      11.1    22.5 22.7  0.1404E+03 -0.3809E+03 -0.1351E+03E
 Epicentro: LOS SANTOS - SANTANDER                                             3
 ACTION:UP  10-12-17 16:51 OP:REBC STATUS:               ID:20101110081006 L   I
 2010-11-10-0807-02S.COL___128                                                 6
 STAT SP IPHASW D HRMM SECON CODA AMPLIT PERI AZIMU VELO SNR AR TRES W  DIS CAZ7
 BTL  SZ EP        810 26.42                             172     0.910   19 320 
 BRR  HZ EP        810 27.09                             152    -0.110   71 300 
 BRR  HZ I         810 27.50        32.6 0.04                            71 300 
 BRR  HN ES        810 43.24                             152    -0.210   71 300 
 RUS  HZ EP   1    810 29.25                             144    -0.4 7   99 175 
 RUS  HN ES   1    810 47.75                             144    -0.1 7   99 175 
 RUS  HZ I         810 51.14         3.6 0.15                            99 175 
 GRA  SZ EP        810 31.14                             136    -0.310  128  18 
 GRA  SZ I         810 51.85        11.5 0.54                           128  18 
                                                                                
