 2016  610 0628 44.2 L   6.770 -73.133151.5  RSN  8 0.4 1.6LRSN                1
 GAP=139        1.03       4.1     5.8  7.4 -0.6325E+01  0.5037E+01  0.2076E+01E
 Epicentro: LOS SANTOS - SANTANDER                                             3
 *RUS-BRR-BAR2                                                                 3
 ACTION:UPD 16-07-21 22:17 OP:rebc STATUS:               ID:20160610062844 L   I
 OLDACT:UP  16-06-10 18:44 OP:dani STATUS:               ID:20160610061744d    3
 OLDACT:DUP 16-06-10 18:39 OP:dani STATUS:               ID:20160610061744d    3
 2016-06-10-0617-43M.COL___337                                                 6
 STAT SP IPHASW D HRMM SECON CODA AMPLIT PERI AZIMU VELO AIN AR TRES W  DIS CAZ7
 BAR2 EZ EP     C  629  4.19                             172   -0.2910 20.4 195 
 BAR2 EZ ES        629 19.73                             172   -0.5610 20.4 195 
 BAR2 EZ I         629 20.76        11.6 0.17                          20.4 195 
 BRR  HN ES        629 23.44                             153    0.1910 74.0 300 
 PAM  EZ EP     C  629  7.08                             151   -0.0710 79.1  37 
 PAM  EN ES   2    629 24.64                             151   -0.39 5 79.1  37 
 PAM  EZ I         629 26.39         4.0 0.36                          79.1  37 
 RUS  HZ EP        629  8.27                             146   -0.0310 97.2 177 
 RUS  HE ES        629 27.60                             146    0.5110 97.2 177 
 RUS  HZ I         629 28.26         3.7 0.36                          97.2 177 
 PTB  HZ EP        629 11.08                             133   -0.65 9  149 260 
 PTB  HN ES   2    629 32.11                             133   -1.07 5  149 260 
 SPBC HZ EP        629 13.19                             131    0.18 9  162 220 
 SPBC HE ES        629 35.81                             131    0.34 9  162 220 
 SPBC HZ I         629 37.85         7.7 0.17                           162 220 
 OCA  HE ES        629 36.62                             130    0.64 9  164 353 
 OCA  HZ I         629 46.32         7.3 0.40                           164 353 
 NOR  HN ES        629 48.54                             120    0.26 8  234 235 
 NOR  HZ I         629 53.63         2.4 0.18                           234 235 
                                                                                
