 2012  310 0432 42.8 L   6.764 -73.182135.3  RSN  5 0.3 1.6LRSN                1
 GAP=134        0.68       4.3     3.9  7.3  0.1384E+01  0.6947E+01  0.9714E+00E
 ACTION:UP  12-03-31 23:18 OP:EP   STATUS:               ID:20120310043242 L   I
 2012-03-10-0430-00M.COL___193                                                 6
 STAT SP IPHASW D HRMM SECON CODA AMPLIT PERI AZIMU VELO SNR AR TRES W  DIS CAZ7
 BRR  HZ EP   1    433  2.93                             151     0.2 7   70 303 
 BRR  HZ I         433  5.40         8.7 0.10                            70 303 
 BRR  HN ES   1    433 18.69                             151     0.4 7   70 303 
 PAM  SZ EP   1    433  4.05                             147    -0.2 7   83  40 
 PAM  SZ I         433  4.33         6.9 0.17                            83  40 
 PAM  SN ES   1    433 20.77                             147    -0.2 7   83  40 
 RUS  HZ EP   1    433  5.12                             143    -0.1 7   97 174 
 RUS  HN ES   1    433 22.93                             143     0.2 7   97 174 
 PTB  HZ EP   1    433  8.41                             130    -0.1 7  143 260 
 PTB  HN ES   1    433 28.06                             130    -0.4 7  143 260 
 PTB  HZ I         433 31.35         3.2 0.14                           143 260 
 ZAR  HZ EP   1    433 14.81                             120     0.5 6  202 294 
 ZAR  HN ES   1    433 38.71                             120    -0.2 6  202 294 
 ZAR  HZ I         433 45.16         6.1 0.26                           202 294 
                                                                                
