 2010 1210 0903 39.3 L   6.803 -73.105139.0  RSN 10 0.4 1.9LRSN                1
 GAP=139        0.72       4.0     8.9  6.9 -0.1955E+02  0.1772E+02 -0.3272E+01E
 Epicentro: LOS SANTOS - SANTANDER                                             3
 ACTION:UP  11-01-14 15:23 OP:pat  STATUS:               ID:20101210090339 L   I
 2010-12-10-0901-14S.COL___134                                                 6
 STAT SP IPHASW D HRMM SECON CODA AMPLIT PERI AZIMU VELO SNR AR TRES W  DIS CAZ7
 BAR2 SZ EP        9 3 58.53                             169     0.310   25 200 
 BAR2 SZ I         9 3 58.92        22.8 0.08                            25 200 
 BAR2 SZ ES   1    9 4 12.53                             169    -0.4 7   25 200 
 GIR2 SZ EP   1    9 3 58.59                             166     0.4 7   32 342 
 RUS  HZ EP   1    9 4  2.53                             142     0.1 7  101 179 
 RUS  HN ES   2    9 4 20.58                             142     0.1 5  101 179 
 RUS  HZ I         9 4 22.51        12.3 0.44                           101 179 
 GRA  SZ EP        9 4  3.36                             136    -0.510  124  16 
 GRA  SZ I         9 4  4.70        15.6 0.21                           124  16 
 GRA  SZ ES   1    9 4 23.07                             136     0.1 7  124  16 
 OCA  SZ EP   1    9 4  7.18                             128     0.0 7  160 352 
 OCA  SZ I         9 4 33.43        17.6 0.22                           160 352 
 YOP  SZ EP   2    9 4  8.97                             125     0.2 4  177 155 
 YOP  SZ I         9 4 36.20         4.6 0.55                           177 155 
 NOR  SZ EP   2    9 4 14.56                             117    -0.5 4  239 235 
 NOR  SN ES   2    9 4 43.06                             117     0.0 4  239 235 
 CHI  HZ EP   2    9 4 16.89                             115     0.1 4  250 196 
 CHI  HE ES   2    9 4 45.56                             115    -0.5 4  250 196 
 CHI  HZ I         9 4 53.28         3.1 0.47                           250 196 
 HEL  HZ EP   2    9 4 20.52                             113     0.8 4  276 256 
 HEL  HZ I         9 4 57.21         6.0 0.47                           276 256 
 PRA  HZ EP   2    9 4 32.62                             105    -0.3 3  395 210 
 PRA  HN ES   2    9 5 13.94                             105    -0.8 3  395 210 
                                                                                
