 2012  510 0159  8.7 L   6.650 -73.571106.0  RSN  4 0.2 1.4LRSN                1
 GAP=116        0.66       5.0     4.2  7.5  0.9187E+01  0.7360E+01  0.1553E+02E
 Epicentro: EL CARMEN DE CHUCURI - SANTANDER                                   3
 ACTION:UP  12-07-05 12:03 OP:pat  STATUS:               ID:20120510015908 L   I
 2012-05-10-0154-35M.COL___190                                                 6
 STAT SP IPHASW D HRMM SECON CODA AMPLIT PERI AZIMU VELO SNR AR TRES W  DIS CAZ7
 BAR2 SZ EP        159 24.25                             156    -0.110   43  98 
 BAR2 SZ I         159 24.48         9.0 0.28                            43  98 
 BAR2 SZ ES   1    159 36.26                             156    -0.3 7   43  98 
 BRR  HZ EP   1    159 24.23                             152    -0.3 7   53 343 
 BRR  HN ES        159 37.21                             152     0.310   53 343 
 BRR  HZ I         159 37.84        14.2 0.32                            53 343 
 PTB  HZ EP   1    159 28.08                             134     0.1 7   99 263 
 PTB  HN ES   1    159 42.86                             134    -0.2 7   99 263 
 RUS  HZ EP   1    159 28.96                             134     0.2 7  100 147 
 RUS  HN ES   1    159 44.59                             134     0.2 7  100 147 
 RUS  HZ I         159 46.05         2.6 0.24                           100 147 
                                                                                
