 2012  110 0252 36.2 L   6.761 -73.123145.2  RSN  8 0.4 1.4LRSN                1
 GAP=141        0.93       6.0     5.7  8.2 -0.3027E+01  0.1011E+02  0.1537E+01E
 Epicentro: LOS SANTOS - SANTANDER                                             3
 ACTION:UP  12-02-03 08:16 OP:REBC STATUS:               ID:20120110025236 L   I
 2012-01-10-0250-00M.COL___186                                                 6
 STAT SP IPHASW D HRMM SECON CODA AMPLIT PERI AZIMU VELO SNR AR TRES W  DIS CAZ7
 BAR2 SZ EP   1    252 54.91                             172    -0.8 7   20 199 
 BAR2 SZ I         252 56.04         5.8 0.25                            20 199 
 BAR2 SZ ES   1    253 10.34                             172    -0.6 7   20 199 
 GIR2 SZ EP   1    252 55.90                             165    -0.1 7   36 348 
 GIR2 SZ ES   2    253 11.46                             165     0.1 5   36 348 
 BRR  HZ EP   1    252 57.86                             151     0.3 7   76 300 
 BRR  HE ES   1    253 14.89                             151     0.7 7   76 300 
 BRR  HZ I         253 16.00         9.0 0.36                            76 300 
 PAM  SZ EP   1    252 58.90                             150     0.4 7   79  36 
 PAM  SE ES   1    253 15.59                             150    -0.3 7   79  36 
 RUS  HZ EP   1    252 59.80                             145     0.2 7   96 177 
 RUS  HN ES   1    253 18.38                             145     0.5 7   96 177 
 RUS  HZ I         253 19.90         1.6 0.28                            96 177 
 PTB  HZ EP   1    253  2.80                             131    -0.5 7  149 261 
 PTB  HE ES   1    253 24.23                             131    -0.2 7  149 261 
 ZAR  HZ EP   2    253  9.43                             122     0.4 4  208 293 
 ZAR  HN ES   2    253 34.42                             122    -0.2 4  208 293 
 ZAR  HZ I         253 36.73         3.0 0.17                           208 293 
 NOR  SN ES   2    253 39.74                             118     0.1 4  234 236 
                                                                                
