 2016  410 0810 39.8 L   6.807 -73.133142.6  RSN 10 0.5 1.9LRSN                1
 GAP=138        1.12       3.7     4.6  6.8 -0.4753E+01  0.1328E+02 -0.2357E+01E
 Epicentro: LOS SANTOS - SANTANDER                                             3
 ACTION:UPD 16-05-05 14:20 OP:rebc STATUS:               ID:20160410081039 L   I
 OLDACT:UP  16-04-10 18:02 OP:mh   STATUS:               ID:20160410080748     3
 OLDACT:UP  16-04-10 18:02 OP:mh   STATUS:               ID:20160410080748     3
 OLDACT:UP  16-04-10 18:01 OP:mh   STATUS:               ID:20160410080748     3
 OLDACT:REG 16-04-10 12:52 OP:mh   STATUS:               ID:20160410080748     3
 2016-04-10-0807-48M.COL___273                                                 6
 STAT SP IPHASW D HRMM SECON CODA AMPLIT PERI AZIMU VELO AIN AR TRES W  DIS CAZ7
 BAR2 EZ EP        810 59.20                             170    0.1210 24.4 193 
 BAR2 EZ ES        811 14.17                             170    0.0610 24.4 193 
 BAR2 EZ I         811 14.97        22.0 0.14            170           24.4 193 
 PAM  EZ EP        811  1.94                             151    0.3410 75.9  39 
 PAM  EN ES        811 19.18                             151    0.5910 75.9  39 
 PAM  EZ I         811 21.75        11.3 0.54            153           75.9  39 
 RUS  HZ EP        811  3.20                             143   -0.1010  101 177 
 RUS  HN ES        811 21.35                             143   -0.2810  101 177 
 RUS  HZ I         811 22.44         7.9 0.20            146            101 177 
 PTB  HZ EP        811  5.87                             131   -0.79 9  149 259 
 PTB  HN ES        811 27.05                             131   -0.56 9  149 259 
 PTB  HZ I         811 29.18         7.2 0.35            131            149 259 
 OCA  HZ EP        811  7.42                             129   -0.40 9  160 353 
 OCA  HN ES        811 29.07                             129   -0.59 9  160 353 
 OCA  HZ I         811 32.44        17.9 0.22            130            160 353 
 SPBC HZ EP        811  8.11                             128   -0.10 9  165 219 
 SPBC HN ES        811 30.45                             128    0.08 9  165 219 
 SPBC HZ I         811 34.29        10.2 0.34            130            165 219 
 ZAR  HZ EP        811 12.82                             121    0.67 9  205 292 
 ZAR  HN ES        811 37.62                             121    0.23 9  205 292 
 ZAR  HZ I         811 43.01        10.4 0.20            122            205 292 
 NOR  HZ EP        811 14.85                             118   -0.68 8  236 235 
 NOR  HN ES        811 43.94                             118    0.55 8  236 235 
 NOR  HZ I         811 45.80         5.9 0.16            119            236 235 
 HEL  HZ EP        811 20.94                             114    0.90 8  274 256 
 HEL  HN ES   1    811 51.75                             114    0.33 6  274 256 
 HEL  HZ I         811 57.44         1.9 0.22            115            274 256 
 URE  HN ES   4    811 48.60                             113   -4.25 0  285 292 
 GUY2CHZ EP        811 23.65                             112    0.20 7  303 235 
 GUY2CHN ES   4    811 59.74                             112    2.24 0  303 235 
                                                                                
