 2016  510 0101 43.1 L   6.821 -73.101152.4  RSN 15 0.4 2.1LRSN                1
 GAP=186        0.99       3.1     4.4  5.2  0.3910E+01  0.2147E+01  0.2404E+01E
 Epicentro: LOS SANTOS - SANTANDER                                             3
 ACTION:UPD 16-08-18 17:44 OP:cam  STATUS:               ID:20160510010143 L   I
 OLDACT:UP  16-05-10 12:56 OP:drio STATUS:               ID:20160510005742     3
 OLDACT:UP  16-05-10 12:56 OP:drio STATUS:               ID:20160510005742     3
 OLDACT:REG 16-05-10 12:18 OP:drio STATUS:               ID:20160510005742     3
 2016-05-10-0057-42M.COL___295                                                 6
 STAT SP IPHASW D HRMM SECON CODA AMPLIT PERI AZIMU VELO AIN AR TRES W  DIS CAZ7
 BAR2 EZ EP        1 2  3.91                             170    0.3110 26.9 199 
 BAR2 EZ ES        1 2 19.36                             170   -0.2310 26.9 199 
 BAR2 EZ I         1 2 20.40        27.8 0.16            166           26.9 199 
 BRR  HZ EP        1 2  5.75                             153    0.6010 74.5 295 
 BRR  HE ES        1 2 22.89                             153    0.5410 74.5 295 
 BRR  HZ I         1 2 26.44        21.3 0.36            148           74.5 295 
 RUS  HZ EP        1 2  7.86                             145    0.2010  103 179 
 RUS  HE ES        1 2 27.01                             145    0.2010  103 179 
 RUS  HZ I         1 2 27.57        13.7 0.20            145            103 179 
 PTB  HZ EP        1 2 10.40                             133   -0.69 9  153 258 
 PTB  HN ES   4    1 2 31.47                             133   -1.45 0  153 258 
 PTB  HZ I         1 2 38.58        20.0 0.64            130            153 258 
 SPBC HZ EP        1 2 12.83                             130    0.26 9  168 220 
 SPBC HN ES        1 2 34.97                             130   -0.60 9  168 220 
 SPBC HZ I         1 2 37.40        24.3 0.36            128            168 220 
 ZAR  HE ES        1 2 41.67                             123   -0.63 8  208 291 
 NOR  HZ EP        1 2 19.89                             119    0.10 8  240 235 
 NOR  HN ES        1 2 48.27                             119   -0.14 8  240 235 
 NOR  HZ I         1 2 52.50        11.2 0.24            118            240 235 
 SML  HZ EP        1 2 20.02                             119   -0.08 8  244 334 
 SML  HE ES        1 2 48.62                             119   -0.34 8  244 334 
 SML  HZ I         1 2 54.36        19.2 0.24            119            244 334 
 CHI  HZ EP        1 2 21.82                             118    0.26 8  252 196 
 CHI  HN ES        1 2 51.56                             118    0.00 8  252 196 
 CHI  HZ I         1 2 54.62         9.0 0.40            118            252 196 
 HEL  HZ EP   4    1 2 25.96                             116    1.72 0  277 256 
 HEL  HN ES        1 2 56.44                             116    0.11 7  277 256 
 HEL  HZ I         1 3  2.02         8.5 0.34            115            277 256 
 PTGC HZ EP        1 2 27.07                             113   -0.24 7  309 160 
 PTGC HN ES        1 3  0.75                             113   -1.05 7  309 160 
 CBOC HZ EP   4    1 2 32.21                             111    1.30 0  339 252 
 CBOC HN ES   4    1 3  8.92                             111    0.72 0  339 252 
 CBOC HZ I         1 3 12.38         1.8 0.16            110            339 252 
 PRA  HZ EP        1 2 37.61                             107    0.24 6  396 210 
 PRA  HE ES        1 3 20.40                             107    0.69 6  396 210 
 PRA  HZ I         1 3 25.33         5.2 0.24            107            396 210 
 ORTC HZ EP        1 2 38.14                             107    0.33 6  400 217 
 ORTC HN ES   4    1 3 21.74                             107    1.25 0  400 217 
 ORTC HZ I         1 3 26.88         3.5 0.46            107            400 217 
 SJC  HZ EP   4    1 2 37.99                             107   -0.98 0  410 326 
 SJC  HN ES   4    1 3 19.98                             107   -2.57 0  410 326 
 SJC  HZ I         1 3 26.72         2.2 0.28            107            410 326 
                                                                                
