 2014  510 0521 51.4 L   7.418 -73.218131.3  RSN  8 0.5 1.8LRSN                1
 GAP=106        1.23       3.7     5.3  9.6  0.2352E+01  0.2231E+02  0.1165E+02E
 Epicentro: EL PLAYON - SANTANDER                                              3
 ACTION:UPD 15-03-16 16:56 OP:nd   STATUS:               ID:20140510052151 L   I
 OLDACT:REG 14-05-10 13:43 OP:carl STATUS:               ID:20140510051816     3
 2014-05-10-0518-16M.COL___227                                                 6
 STAT SP IPHASW D HRMM SECON CODA AMPLIT PERI AZIMU VELO AIN AR TRES W  DIS CAZ7
 PAM  SZ EP        522 11.37                             155    0.4210 57.8  99 
 PAM  SN ES        522 26.41                             155    0.2010 57.8  99 
 OCA  HN ES        522 29.29                             143    0.1710 91.4 353 
 OCA  HZ I         522 31.52         7.1 0.38            148           91.4 353 
 PTB  HZ EP        522 19.46                             125    0.27 9  168 235 
 PTB  HN ES        522 40.13                             125   -0.75 9  168 235 
 PTB  HZ I         522 45.17         6.5 0.44            126            168 235 
 RUS  HZ EP        522 19.75                             125   -0.22 9  169 175 
 RUS  HE ES        522 41.94                             125   -0.32 9  169 175 
 SML  HZ EP        522 19.76                             123   -0.59 9  180 328 
 SML  HN ES        522 42.22                             123   -0.73 9  180 328 
 SML  HZ I         522 43.66         8.6 0.28            126            180 328 
 ZAR  HZ EP        522 21.35                             122    0.80 9  181 273 
 ZAR  HN ES        522 43.88                             122    0.59 9  181 273 
 ZAR  HZ I         522 47.68         6.9 0.34            124            181 273 
 SPBC HZ EP        522 23.67                             117   -0.76 8  217 206 
 SPBC HE ES        522 50.25                             117    0.05 8  217 206 
 SPBC HZ I         522 58.35         5.4 0.30            120            217 206 
 NOR  HZ EP        522 31.56                             111    0.76 8  275 222 
 NOR  HN ES        523  1.66                             111    0.12 8  275 222 
 NOR  HZ I         523  8.23         4.4 0.18            114            275 222 
                                                                                
