 2014  710 0905 20.5 L   6.811 -73.177139.5  RSN  6 0.3 1.5LRSN                1
 GAP=132        0.66       3.6     3.3  5.3  0.1698E+01  0.2982E+01 -0.5856E+01E
 Epicentro: ZAPATOCA - SANTANDER                                               3
 ACTION:UPD 15-03-16 20:42 OP:nd   STATUS:               ID:20140710090520 L   I
 OLDACT:REG 14-07-10 12:23 OP:stll STATUS:               ID:20140710085807     3
 2014-07-10-0858-07M.COL___256                                                 6
 STAT SP IPHASW D HRMM SECON CODA AMPLIT PERI AZIMU VELO AIN AR TRES W  DIS CAZ7
 BAR2 SZ ES        9 5 54.21                             170    0.0910 24.2 181 
 BAR2 SZ I         9 5 55.71        19.9 0.22            170           24.2 181 
 PAM  SZ EP        9 5 42.18                             149    0.0610 78.7  42 
 PAM  SZ I         9 5 42.57         7.0 0.24            152           78.7  42 
 RUS  HZ EP        9 5 43.70                             142   -0.0410  102 174 
 RUS  HZ I         9 5 44.51         2.7 0.48            144            102 174 
 RUS  HE ES        9 6  1.71                             142   -0.1710  102 174 
 PTB  HZ EP        9 5 46.44                             131   -0.22 9  145 258 
 PTB  HN ES        9 6  6.58                             131   -0.49 9  145 258 
 PTB  HZ I         9 6  9.21         2.8 0.14            131            145 258 
 SPBC HZ EP        9 5 48.49                             128    0.09 9  162 218 
 SPBC HN ES        9 6 10.62                             128    0.46 9  162 218 
 SPBC HZ I         9 6 14.95         4.2 0.42            128            162 218 
 ZAR  HZ EP        9 5 52.11                             121   -0.04 9  200 292 
 ZAR  HN ES        9 6 17.18                             121    0.34 9  200 292 
 ZAR  HZ I         9 6 23.26         2.7 0.26            121            200 292 
                                                                                
