 2016  210 0540 50.4 L   6.789 -73.140138.1  RSN  7 0.4 1.5LRSN                1
 GAP=244        0.87       5.5     6.1 11.9  0.6984E+01  0.4602E+02  0.2969E+01E
 Epicentro: LOS SANTOS - SANTANDER                                             3
 ACTION:UPD 16-03-04 21:24 OP:rebc STATUS:               ID:20160210054050 L   I
 OLDACT:DUP 16-02-10 18:36 OP:ak   STATUS:               ID:20160210053740d    3
 OLDACT:REG 16-02-10 14:45 OP:ak   STATUS:               ID:20160210053739     3
 2016-02-10-0537-39M.COL___310                                                 6
 STAT SP IPHASW D HRMM SECON CODA AMPLIT PERI AZIMU VELO AIN AR TRES W  DIS CAZ7
 BAR2 EZ EP        541  8.93                             171   -0.1110 22.2 192 
 BAR2 EZ ES        541 23.96                             171    0.3510 22.2 192 
 BAR2 EZ I         541 29.52         3.5 0.26            169           22.2 192 
 RUS  HN ES        541 30.85                             143   -0.2810 99.3 176 
 PTB  HN ES        541 36.65                             130   -0.68 9  148 259 
 PTB  HZ I         541 38.04         3.5 0.12            132            148 259 
 SPBC HN ES        541 40.35                             128    0.39 9  163 219 
 SPBC HZ I         541 44.78         4.0 0.22            130            163 219 
 ZAR  HN ES        541 47.76                             121    0.32 9  205 292 
 ZAR  HZ I         541 51.81         4.3 0.26            123            205 292 
 NOR  HN ES        541 53.15                             117    0.01 8  235 235 
 NOR  HZ I         541 59.26         2.8 0.18            119            235 235 
 HEL  HN ES   4    542  3.86                             113    2.54 0  272 256 
 GUY2CHN ES   2    542  7.83                             111    0.50 4  301 235 
 GUY2CHZ I         542 18.78         1.6 0.42                           301 235 
                                                                                
