 2017  410 0315 53.8 L   5.861 -73.969102.7  RSN  7 0.3 1.1LRSN                1
 GAP=118        0.90       3.5     2.9  7.0 -0.1480E+01  0.1399E+01 -0.8083E+01E
 Epicentro: LA BELLEZA - SANTANDER                                             3
 ACTION:UPD 17-05-30 21:10 OP:jn   STATUS:               ID:20170410031553 L   I
 OLDACT:UP  17-04-10 16:13 OP:edw  STATUS:               ID:20170410030746d    3
 OLDACT:DUP 17-04-10 16:09 OP:edw  STATUS:               ID:20170410030746d    3
 OLDACT:UP  17-04-10 16:09 OP:edw  STATUS:               ID:20170410030745     3
 OLDACT:UP  17-04-10 16:07 OP:edw  STATUS:               ID:20170410030745     3
 OLDACT:REG 17-04-10 12:45 OP:edw  STATUS:               ID:20170410030745     3
 2017-04-10-0308-00M.COL___371                                                 6
 STAT SP IPHASW D HRMM SECON CODA AMPLIT PERI AZIMU VELO AIN AR TRES W  DIS CAZ7
 SPBC HZ EP        316  7.69                             165   -0.4810 25.8 206 
 SPBC HN ES        316 18.98                             165   -0.3710 25.8 206 
 PTB  HZ EP        316 11.77                             134   -0.5110 92.4 324 
 PTB  HN ES        316 27.00                             134    0.3310 92.4 324 
 PTB  HZ I         316 28.69         2.6 0.18            138           92.4 324 
 RUS  HZ EP        316 13.86                             133    0.4210 98.1  88 
 RUS  HN ES        316 28.80                             133    0.0710 98.1  88 
 RUS  HZ I         316 33.85         1.1 0.44            136           98.1  88 
 NOR  HZ EP        316 13.48                             130    0.0110  105 252 
 NOR  HN ES        316 29.32                             130    0.5410  105 252 
 NOR  HZ I         316 30.67         5.9 0.14            135            105 252 
 BAR2 EZ ES        316 31.82                             127    0.2610  119  47 
 BRR  HZ EP        316 16.88                             121   -0.05 9  141  12 
 BRR  HN ES        316 34.73                             121   -0.22 9  141  12 
 BRR  HZ I         316 38.26         3.4 0.12            125            141  12 
 ZAR  HN ES        316 47.63                             111   -0.00 8  205 331 
                                                                                
