 2013  310 0619 37.2 L   6.769 -73.159145.5  RSN  8 0.3 1.8LRSN                1
 GAP=136        0.65       3.2     3.3  4.7  0.1193E+00  0.4068E+01  0.3272E+01E
 Epicentro: LOS SANTOS - SANTANDER                                             3
 ACTION:UPD 13-04-09 14:01 OP:ep   STATUS:               ID:20130310061937 L   I
 2013-03-10-0614-37M.COL___204                                                 6
 STAT SP IPHASW D HRMM SECON CODA AMPLIT PERI AZIMU VELO AIN AR TRES W  DIS CAZ7
 BAR2 SZ EP        619 56.86                             172    0.1110 19.8 188 
 BAR2 SZ ES   1    620 11.98                             172    0.00 7 19.8 188 
 BAR2 SZ I         620 13.28        23.0 0.26            166           19.8 188 
 BRR  HZ EP        619 58.14                             152   -0.2310 71.6 301 
 BRR  HN ES        620 15.24                             152    0.3810 71.6 301 
 BRR  HN I         620 16.54        50.8 0.26            140           71.6 301 
 PAM  SZ EP        619 59.83                             150    0.2110 80.9  39 
 PAM  SN ES        620 16.82                             150   -0.2710 80.9  39 
 PAM  SZ I         620 19.32         4.9 0.25            145           80.9  39 
 RUS  HZ EP   1    620  0.97                             145    0.26 7 97.3 175 
 RUS  HE ES   1    620 18.99                             145   -0.04 7 97.3 175 
 RUS  HE I         620 20.70        11.4 0.23            136           97.3 175 
 PTB  HZ EP        620  3.51                             132   -0.47 9  146 260 
 PTB  HN ES   1    620 24.77                             132   -0.08 7  146 260 
 PTB  HZ I         620 31.84         6.6 0.27            120            146 260 
 ZAR  HZ EP   1    620  9.74                             122    0.09 6  204 293 
 ZAR  HN ES   1    620 34.69                             122   -0.25 6  204 293 
 ZAR  HZ I         620 40.62         6.5 0.25            112            204 293 
 CHI  HZ EP   1    620 14.57                             117    0.06 6  245 195 
 CHI  HN ES   1    620 43.35                             117   -0.24 6  245 195 
 CHI  HZ I         620 46.83         3.6 0.41            109            245 195 
 HEL  HZ EP   1    620 17.97                             115    0.80 6  270 256 
 HEL  HZ I         620 56.74         2.5 0.32            106            270 256 
                                                                                
