 2012  810 0027 27.2 L   6.762 -73.152152.1  RSN  6 0.4 1.6LRSN                1
 GAP=137        0.78       5.4     4.7  7.5  0.2305E+01  0.6311E+01  0.4129E+00E
 Epicentro: LOS SANTOS - SANTANDER                                             3
 ACTION:UPD 12-09-10 11:55 OP:ep   STATUS:               ID:20120810002727 L   I
 2012-08-10-0020-00M.COL___218                                                 6
 STAT SP IPHASW D HRMM SECON CODA AMPLIT PERI AZIMU VELO AIN AR TRES W  DIS CAZ7
 BAR2 SZ EP   1    027 47.51                             173   -0.02 7 19.1 190 
 BAR2 SZ ES   1    028  3.47                             173    0.09 7 19.1 190 
 BAR2 SZ I         028  4.23         8.3 0.24                          19.1 190 
 BRR  HZ EP   1    027 49.33                             153    0.20 7 72.7 302 
 BRR  HZ I         027 49.64        13.1 0.16                          72.7 302 
 BRR  HN ES   1    028  7.02                             153    0.79 7 72.7 302 
 PAM  SZ EP   1    027 50.34                             151    0.02 7 81.1  38 
 PAM  SZ I         027 50.49         7.1 0.23                          81.1  38 
 PAM  SN ES   1    028  7.77                             151   -0.58 7 81.1  38 
 RUS  HZ EP   1    027 51.71                             146    0.41 7 96.4 175 
 RUS  HN ES   1    028  9.94                             146   -0.16 7 96.4 175 
 RUS  HZ I         028 11.32         2.6 0.35                          96.4 175 
 PTB  HZ EP   1    027 54.38                             134   -0.19 7  146 260 
 PTB  HN ES   1    028 15.31                             134   -0.60 7  146 260 
 PTB  HZ I         028 15.60         4.1 0.62                           146 260 
 ZAR  HE ES   1    028 25.77                             124   -0.11 6  205 293 
                                                                                
