 2017  410 0600 35.1 L   6.716 -73.328164.4  RSN  4 0.4 0.9LRSN                1
 GAP=175        0.95       8.1     7.6  9.2  0.2908E+02 -0.9558E+01 -0.3674E+01E
 Epicentro: GALAN - SANTANDER                                                  3
 ACTION:UPD 17-05-30 21:10 OP:jn   STATUS:               ID:20170410060035 L   I
 OLDACT:UP  17-04-10 18:03 OP:edw  STATUS:               ID:20170410055740     3
 OLDACT:REG 17-04-10 13:11 OP:edw  STATUS:               ID:20170410055740     3
 2017-04-10-0558-00M.COL___371                                                 6
 STAT SP IPHASW D HRMM SECON CODA AMPLIT PERI AZIMU VELO AIN AR TRES W  DIS CAZ7
 BAR2 EZ EP        6 0 56.35                             172   -0.6110 21.1 130 
 BRR  HZ EP        6 0 58.41                             159    0.6010 60.6 316 
 BRR  HN ES        6 1 15.43                             159   -0.0810 60.6 316 
 RUS  HZ EP        6 1  0.65                             149    0.2610 95.0 163 
 RUS  HN ES        6 1 20.16                             149    0.0710 95.0 163 
 RUS  HZ I         6 1 20.53         1.1 0.44            146           95.0 163 
 PTB  HZ EP        6 1  1.61                             141   -0.3210  126 261 
 PTB  HN ES        6 1 22.90                             141    0.0610  126 261 
 PTB  HZ I         6 1 31.70         1.3 0.34            134            126 261 
                                                                                
