 2013 1210 0112 29.8 L   6.729 -73.124142.9  RSN  6 0.4 1.6LRSN                1
 GAP=234        0.80       4.9     5.0  7.0  0.8143E+01  0.8121E+01  0.3733E+01E
 Epicentro: JORDAN - SANTANDER                                                 3
 ACTION:UPD 14-01-13 10:17 OP:ep   STATUS:               ID:20131210011229 L   I
 OLDACT:REG 13-12-10 06:58 OP:jn   STATUS:               ID:20131210011000     3
 2013-12-10-0110-00M.COL___285                                                 6
 STAT SP IPHASW D HRMM SECON CODA AMPLIT PERI AZIMU VELO AIN AR TRES W  DIS CAZ7
 BAR2 SZ EP        112 49.00                             173    0.0910 16.5 203 
 BAR2 SZ ES        113  3.77                             173   -0.0910 16.5 203 
 BAR2 SZ I         113  5.46        14.5 0.38            171           16.5 203 
 BRR  HZ EP        112 50.88                             150   -0.0710 77.3 303 
 BRR  HN ES        113  7.80                             150    0.3210 77.3 303 
 RUS  HZ EP        112 52.55                             145   -0.1010 92.6 177 
 RUS  HN ES        113 10.52                             145    0.0010 92.6 177 
 RUS  HZ I         113 12.34         3.4 0.24            147           92.6 177 
 PTB  HN ES   1    113 16.53                             131   -0.98 7  149 262 
 PTB  HZ I         113 20.69         3.9 0.14            130            149 262 
 ZAR  HE ES   1    113 28.14                             121   -0.01 6  209 294 
 ZAR  HZ I         113 33.40         5.0 0.34            121            209 294 
 NOR  HE ES        113 33.08                             118    0.50 8  232 236 
                                                                                
