 2010 1210 0454 40.7 L   6.795 -73.203139.6  RSN  5 0.5 1.5LRSN                1
 GAP=152        0.69       4.3    17.7 10.3 -0.2820E+02  0.8661E+02 -0.1191E+02E
 Epicentro: ZAPATOCA - SANTANDER                                               3
 ACTION:UP  11-01-14 15:23 OP:pat  STATUS:               ID:20101210045440 L   I
 2010-12-10-0440-00M.COL___136                                                 6
 STAT SP IPHASW D HRMM SECON CODA AMPLIT PERI AZIMU VELO SNR AR TRES W  DIS CAZ7
 BAR2 SZ EP   2    454 59.75                             170     0.2 5   23 174 
 BAR2 SZ ES   2    455 13.66                             170    -0.6 5   23 174 
 BAR2 SZ I         455 16.95         5.4 0.47                            23 174 
 RUS  HZ EP   1    455  3.78                             142     0.0 7  101 172 
 RUS  HE ES   1    455 22.14                             142     0.3 7  101 172 
 RUS  HZ I         455 23.62         2.9 0.21                           101 172 
 GRA  SZ EP   2    455  5.24                             135    -0.3 5  128  20 
 GRA  SZ ES   2    455 24.92                             135    -0.1 5  128  20 
 GRA  SZ I         455 28.08         5.7 0.29                           128  20 
 OCA  SZ EP   2    455  8.05                             128    -0.4 5  160 355 
 OCA  SZ ES   2    455 30.93                             128     0.7 5  160 355 
 OCA  SZ I         455 34.11         7.4 0.24                           160 355 
 PRA  HZ EP   2    455 34.38                             106     0.8 3  388 209 
 PRA  HN ES   2    456 14.02                             106    -0.8 3  388 209 
                                                                                
