 2016 1210 0312 57.3 L   6.767 -73.200143.8  RSN  4 0.2 1.0LRSN                1
 GAP=239        0.53       5.4     4.0  5.1  0.1413E+02  0.2664E+01 -0.3820E+01E
 Epicentro: ZAPATOCA - SANTANDER                                               3
 ACTION:UPD 17-01-11 20:13 OP:rebc STATUS:               ID:20161210031257 L   I
 OLDACT:REG 16-12-10 12:50 OP:lv   STATUS:               ID:20161210030742     3
 2016-12-10-0308-00M.COL___367                                                 6
 STAT SP IPHASW D HRMM SECON CODA AMPLIT PERI AZIMU VELO AIN AR TRES W  DIS CAZ7
 BAR2 EZ EP        313 16.82                             172    0.2210 19.4 174 
 BAR2 EZ ES        313 31.45                             172   -0.2210 19.4 174 
 RUS  HZ EP        313 20.62                             144   -0.0010 97.6 172 
 RUS  HN ES        313 38.96                             144    0.1310 97.6 172 
 RUS  HZ I         313 39.87         2.4 0.28            143           97.6 172 
 PTB  HZ EP        313 23.17                             133   -0.33 9  141 260 
 PTB  HN ES        313 43.98                             133    0.04 9  141 260 
 PTB  HZ I         313 45.70         1.1 0.13            132            141 260 
 ZAR  HE ES        313 54.21                             122    0.16 9  200 294 
                                                                                
