 2012  210 0741 27.7 L   6.745 -73.119144.1  RSN  6 0.4 1.5LRSN                1
 GAP=142        0.83       5.6     5.0  8.1  0.2193E+01  0.8256E+01  0.1631E+00E
 ACTION:UP  12-03-07 16:29 OP:epov STATUS:               ID:20120210074127 L   I
 2012-02-10-0740-00M.COL___188                                                 6
 STAT SP IPHASW D HRMM SECON CODA AMPLIT PERI AZIMU VELO AIN AR TRES W  DIS CAZ7
 BAR2 SZ EP   1    741 47.12                             172    0.11 7 18.3 203 
 BAR2 SZ ES   1    742  1.81                             172   -0.29 7 18.3 203 
 BAR2 SZ I         742  3.80         5.5 0.15                          18.3 203 
 BRR  HZ EP   1    741 49.29                             150    0.32 7 76.8 301 
 BRR  HN ES   1    742  6.15                             150    0.56 7 76.8 301 
 BRR  HZ I         742 12.73        10.6 0.10                          76.8 301 
 PAM  SZ EP   1    741 50.39                             150    0.50 7 80.4  35 
 PAM  SZ I         741 51.08         4.0 0.20                          80.4  35 
 PAM  SN ES   1    742  6.63                             150   -0.60 7 80.4  35 
 RUS  HZ EP   1    741 50.29                             145   -0.53 7 94.4 178 
 RUS  HN ES   1    742  9.38                             145    0.50 7 94.4 178 
 RUS  HZ I         742 12.07         4.6 0.30                          94.4 178 
 PTB  HZ EP   1    741 54.49                             131   -0.19 7  150 261 
 PTB  HN ES   1    742 15.35                             131   -0.40 7  150 261 
 PTB  HZ I         742 18.67                                            150 261 
 ZAR  HN ES   1    742 26.09                             121   -0.09 6  209 293 
                                                                                
