 2013  710 0810 30.1 L   6.772 -73.101150.5  RSN  7 0.4 1.7LRSN                1
 GAP=169        1.00       5.0     5.5  6.0 -0.6418E+01  0.6355E+01 -0.6378E+01E
 Epicentro: LOS SANTOS - SANTANDER                                             3
 ACTION:UPD 13-08-12 10:36 OP:ep   STATUS:               ID:20130710081030 L   I
 OLDACT:REG 13-07-10 08:08 OP:nd   STATUS:               ID:20130710080959     3
 2013-07-10-0809-59M.COL___265                                                 6
 STAT SP IPHASW D HRMM SECON CODA AMPLIT PERI AZIMU VELO AIN AR TRES W  DIS CAZ7
 BAR2 SZ EP        810 50.40                             171    0.1610 21.7 204 
 BAR2 SZ ES        811  5.47                             171   -0.5010 21.7 204 
 BAR2 SZ I         811  7.19        10.0 0.20            170           21.7 204 
 GIR2 SZ EP        810 50.65                             166    0.2310 35.5 343 
 GIR2 SZ ES        811  6.15                             166   -0.1410 35.5 343 
 GIR2 SZ I         811  7.53         7.0 0.10            164           35.5 343 
 PAM  SZ EP        810 53.32                             152    0.5610 76.9  35 
 PAM  SN ES        811 10.47                             152    0.0110 76.9  35 
 PAM  SZ I         811 12.42        17.7 0.52            155           76.9  35 
 BRR  HZ IP     C  810 52.36                             151    0.3010 77.0 299 
 BRR  HN ES        811  9.53                             151    0.3210 77.0 299 
 BRR  HZ I         811 13.93         6.2 0.32            149           77.0 299 
 PTB  HZ EP        810 57.43                             132   -0.37 9  152 260 
 PTB  HN ES        811 19.56                             132    0.12 9  152 260 
 PTB  HZ I         811 25.57         3.2 0.20            132            152 260 
 OCA  HZ EP        810 58.88                             130   -0.22 9  164 352 
 OCA  HN ES        811 21.36                             130   -0.38 9  164 352 
 OCA  HZ I         811 24.74         4.6 0.22            131            164 352 
 SML  HZ EP        811  6.56                             118   -0.93 8  249 335 
 SML  HE ES        811 37.25                             118    0.57 8  249 335 
 SML  HZ I         811 38.13         7.2 0.10            119            249 335 
                                                                                
