 2014 1010 0933  7.7 L   6.800 -73.162142.3  RSN  7 0.5 1.3LRSN                1
 GAP=134        1.06       5.2     4.8  8.9 -0.1965E+01  0.1721E+02 -0.1175E+01E
 Epicentro: LOS SANTOS - SANTANDER                                             3
 ACTION:UPD 14-11-29 23:48 OP:nd   STATUS:               ID:20141010093307 L   I
 OLDACT:UP  14-10-10 15:12 OP:fm   STATUS:               ID:20141010092748     3
 OLDACT:REG 14-10-10 13:13 OP:fm   STATUS:               ID:20141010092748     3
 2014-10-10-0927-48M.COL___284                                                 6
 STAT SP IPHASW D HRMM SECON CODA AMPLIT PERI AZIMU VELO AIN AR TRES W  DIS CAZ7
 BAR2 SZ EP   1    933 27.13                             170    0.24 7 23.1 185 
 BAR2 SZ ES   1    933 43.00                             170    1.13 7 23.1 185 
 BAR2 SZ I         933 44.62         3.9 0.18            151           23.1 185 
 PAM  SZ EP        933 29.80                             150    0.2010 78.5  41 
 PAM  SN ES        933 46.35                             150   -0.3510 78.5  41 
 PAM  SZ I         933 48.92         3.7 0.44            135           78.5  41 
 RUS  HZ EP        933 31.39                             143    0.2810  101 175 
 RUS  HE ES        933 48.74                             143   -0.6410  101 175 
 RUS  HZ I         933 51.98         1.1 0.36            169            101 175 
 PTB  HZ EP   1    933 33.73                             131   -0.48 7  146 259 
 PTB  HN ES        933 54.62                             131   -0.27 9  146 259 
 PTB  HZ I         933 57.05         2.1 0.32            140            146 259 
 ZAR  HZ EP   1    933 39.28                             122   -0.45 6  202 292 
 ZAR  HE ES        934  4.84                             122    0.12 9  202 292 
 ZAR  HZ I         934 11.68         2.5 0.56            126            202 292 
 GUY2CHZ EP   1    933 51.56                             112    0.59 5  300 235 
 GUY2CHN ES   1    934 25.23                             112    0.50 5  300 235 
 GUY2CHZ I    4    934 35.81         1.1 0.54                           300 235 
 PRA  HZ I         933 26.79         1.2 0.20            126            391 209 
                                                                                
