 2016  210 0810 52.2 L   6.830 -73.140148.6  RSN 21 0.5 2.2LRSN                1
 GAP=119        1.12       2.6     3.6  5.3 -0.3247E+01  0.5864E+01 -0.2141E+01E
 Epicentro: LOS SANTOS - SANTANDER                                             3
 ACTION:UPD 16-03-04 21:24 OP:rebc STATUS:               ID:20160210081052 L   I
 OLDACT:REG 16-02-10 15:08 OP:ak   STATUS:               ID:20160210080738     3
 2016-02-10-0807-38M.COL___309                                                 6
 STAT SP IPHASW D HRMM SECON CODA AMPLIT PERI AZIMU VELO AIN AR TRES W  DIS CAZ7
 BAR2 EZ EP        811 12.57                             169    0.3110 26.7 190 
 BAR2 EZ ES        811 27.12                             169   -0.7710 26.7 190 
 BAR2 EZ I         811 28.78        39.7 0.34            169           26.7 190 
 PAM  EZ EP        811 15.50                             152    0.9310 74.4  41 
 PAM  EN ES        811 32.66                             152    0.6710 74.4  41 
 PAM  EZ I         811 34.77        35.0 0.52            156           74.4  41 
 RUS  HZ EP        811 16.63                             143    0.1410  104 177 
 RUS  HN ES        811 35.30                             143   -0.1110  104 177 
 RUS  HZ I         811 36.82        11.3 0.46            147            104 177 
 PTB  HZ EP        811 18.75                             132   -0.79 9  149 258 
 PTB  HN ES        811 40.32                             132   -0.53 9  149 258 
 PTB  HZ I         811 46.97        12.4 0.16            132            149 258 
 OCA  HZ EP        811 20.65                             131    0.19 9  157 353 
 OCA  HN ES        811 42.71                             131    0.23 9  157 353 
 OCA  HZ I         811 51.10        35.2 0.22            132            157 353 
 SPBC HZ EP        811 21.52                             129    0.30 9  166 218 
 SPBC HN ES        811 43.72                             129   -0.12 9  166 218 
 SPBC HZ I         811 48.22        28.7 0.30            131            166 218 
 ZAR  HZ EP        811 25.39                             123    0.60 9  203 291 
 ZAR  HN ES        811 50.28                             123    0.09 9  203 291 
 ZAR  HZ I         811 55.76        16.5 0.32            124            203 291 
 NOR  HZ EP        811 28.54                             119    0.16 8  237 234 
 NOR  HN ES        811 55.89                             119   -0.70 8  237 234 
 NOR  HZ I         812  2.63        10.7 0.31            120            237 234 
 SML  HZ EP        811 28.38                             118   -0.34 8  241 335 
 SML  HN ES        811 57.21                             118    0.03 8  241 335 
 SML  HZ I         812  1.10        24.9 0.09            120            241 335 
 CHI  HZ EP        811 30.80                             117    0.35 8  252 195 
 CHI  HN ES        811 59.80                             117   -0.46 8  252 195 
 CHI  HZ I         812  3.58        12.7 0.58            120            252 195 
 ROSC BZ EP   9    811 32.81                             117    1.96 0  256 211 
 ROSC BN ES        812  2.39                                   -0.54 8  256 211 
 ROSC BZ I         812  7.03        23.4 0.45            119            256 211 
 HEL  HZ EP   2    811 33.67                             115    0.92 4  274 255 
 HEL  HN ES        812  4.80                             115    0.45 8  274 255 
 HEL  HZ I         812 10.63         6.8 0.28            116            274 255 
 URE  HZ EP        811 32.81                             114   -0.56 7  283 291 
 URE  HN ES   4    812  8.58                             114    3.13 0  283 291 
 URE  HZ I         812 16.29        12.1 0.34            115            283 291 
 SOCV BZ EP        811 34.20                             113   -0.94 7  299  57 
 SOCV BN ES   4    812  6.59                             113   -2.02 0  299  57 
 GUY2CHZ EP        811 36.70                             112    0.46 7  304 234 
 GUY2CHN ES        812 10.53                             112   -0.04 7  304 234 
 GUY2CHZ I         812 18.82         6.8 0.34                           304 234 
 LL6C HZ EP        811 37.26                             111   -0.41 7  322 357 
 LL6C HN ES        812 12.68                             111   -0.44 7  322 357 
 CBOC HZ EP        811 39.85                             110    0.40 7  335 252 
 CBOC HN ES        812 16.35                             110    0.07 7  335 252 
 ANIL HZ EP   4    811 45.20                             109    2.73 0  360 224 
 ANIL HN ES        812 21.83                             109    0.18 6  360 224 
 ORTC HZ EP   4    811 41.82                             106   -4.78 0  399 216 
 ORTC HN ES        812 29.82                             106    0.81 6  399 216 
 SJC  HZ EP        811 46.66                             106   -0.94 6  407 327 
 SJC  HN ES   4    812 28.77                             106   -2.02 0  407 327 
 SJC  HZ I         812 35.73         3.4 0.30            108            407 327 
 PAL  HZ EP        811 47.50                             106   -0.25 6  408 239 
 PAL  HE ES   4    812 26.64                             106   -4.41 0  408 239 
 PAL  HZ I         812 36.08         1.9 0.20            108            408 239 
                                                                                
