 2013  310 0538 37.0 L   6.786 -73.119148.5  RSN  7 0.3 1.5LRSN                1
 GAP=141        0.70       4.1     3.9  5.4 -0.1165E+01  0.4554E+01 -0.3007E+01E
 Epicentro: LOS SANTOS - SANTANDER                                             3
 ACTION:UPD 13-04-09 14:01 OP:ep   STATUS:               ID:20130310053837 L   I
 2013-03-10-0530-00M.COL___231                                                 6
 STAT SP IPHASW D HRMM SECON CODA AMPLIT PERI AZIMU VELO AIN AR TRES W  DIS CAZ7
 BAR2 SZ EP        538 56.76                             171   -0.1710 22.5 198 
 BAR2 SZ I         538 57.12         6.5 0.18            170           22.5 198 
 BAR2 SZ ES        539 12.73                             171    0.2510 22.5 198 
 BRR  HZ EP   1    538 59.16                             152    0.54 7 74.5 299 
 BRR  HN ES   1    539 15.80                             152    0.31 7 74.5 299 
 PAM  SZ EP        538 59.76                             151    0.3010 76.8  37 
 PAM  SN ES        539 16.65                             151   -0.3410 76.8  37 
 PAM  SZ I         539 19.17         6.2 0.68            154           76.8  37 
 RUS  HZ EP   1    539  0.96                             145    0.08 7 98.8 178 
 RUS  HE ES   1    539 19.11                             145   -0.41 7 98.8 178 
 RUS  HE I         539 20.78         3.9 0.29            146           98.8 178 
 PTB  HZ EP   1    539  4.37                             132   -0.04 7  150 260 
 PTB  HN ES   1    539 25.80                             132    0.00 7  150 260 
 PTB  HZ I         539 30.74         4.2 0.32            132            150 260 
 ZAR  HE ES   1    539 35.12                             122   -0.54 6  207 292 
 SML  HZ EP   1    539 13.79                             118   -0.26 6  246 335 
                                                                                
