 2013  310 0053 16.6 L   6.759 -73.153147.4  RSN  6 0.5 1.8LRSN                1
 GAP=137        0.95       6.2     5.4  8.7  0.1285E+01  0.5426E+01 -0.3138E+01E
 Epicentro: LOS SANTOS - SANTANDER                                             3
 ACTION:UPD 13-04-09 14:01 OP:ep   STATUS:               ID:20130310005316 L   I
 2013-03-10-0050-00M.COL___231                                                 6
 STAT SP IPHASW D HRMM SECON CODA AMPLIT PERI AZIMU VELO AIN AR TRES W  DIS CAZ7
 BAR2 SZ EP        053 36.25                             172   -0.0910 18.7 190 
 BAR2 SZ ES   1    053 51.78                             172    0.03 7 18.7 190 
 BAR2 SZ I         053 53.16        13.6 0.24            171           18.7 190 
 BRR  HZ IP     C  053 38.30                             152    0.2910 72.8 302 
 BRR  HZ I         053 38.65        11.3 0.18            149           72.8 302 
 BRR  HE ES   1    053 55.69                             152    0.97 7 72.8 302 
 PAM  SZ EP        053 39.30                             150    0.0710 81.4  38 
 PAM  SZ I         053 39.55         7.4 0.22            152           81.4  38 
 PAM  SN ES   1    053 56.20                             150   -0.69 7 81.4  38 
 RUS  HZ EP   1    053 40.72                             145    0.52 7 96.1 175 
 RUS  HE ES   1    053 58.40                             145   -0.21 7 96.1 175 
 RUS  HE I         054  0.19         8.1 0.50            147           96.1 175 
 PTB  HZ EP   1    053 43.12                             133   -0.43 7  146 261 
 PTB  HE ES   1    054  4.10                             133   -0.48 7  146 261 
 PTB  HE I         054  6.29         7.1 0.33            131            146 261 
 ZAR  HN ES   1    054 14.33                             123   -0.40 6  205 293 
 ZAR  HN I         054 22.27         9.9 0.32            122            205 293 
                                                                                
