 2017 1210 0243 58.5 L   6.806 -73.179140.8  RSN 17 0.3 2.1LRSN                1
 GAP= 63        0.91       2.3     2.4  5.0  0.1073E+00  0.1975E+01 -0.1928E+00E
 Epicentro: ZAPATOCA - SANTANDER                                               3
 ACTION:UPD 18-01-04 13:18 OP:rebc STATUS:               ID:20171210024358 L   I
 OLDACT:REG 17-12-10 12:42 OP:lv   STATUS:               ID:20171210023740     3
 2017-12-10-0238-00M.COL___481                                                 6
 STAT SP IPHASW D HRMM SECON CODA AMPLIT PERI AZIMU VELO AIN AR TRES W  DIS CAZ7
 BAR2 EZ EP        244 17.69                             170    0.1610 23.7 181 
 BAR2 EZ ES        244 32.31                             170   -0.0810 23.7 181 
 BAR2 EZ I         244 33.37        27.4 0.22            168           23.7 181 
 PAM  EZ EP        244 20.74                             149    0.4410 79.3  42 
 PAM  EN ES        244 37.49                             149    0.1810 79.3  42 
 PAM  EZ I         244 39.63        35.0 0.46            146           79.3  42 
 PTB  HZ EP        244 24.61                             132   -0.13 9  144 258 
 PTB  HN ES        244 45.07                             132   -0.14 9  144 258 
 PTB  HZ I         244 47.66        13.0 0.12            129            144 258 
 OCA  HZ EP        244 26.10                             129   -0.22 9  159 354 
 OCA  HN ES        244 47.84                             129   -0.18 9  159 354 
 OCA  HZ I         244 51.93        41.8 0.16            126            159 354 
 TAM  HZ IP     D  244 26.07                             129   -0.07 9  159 105 
 TAM  HN ES        244 47.95                             129    0.25 9  159 105 
 TAM  HZ I         244 48.02         7.2 0.26            125            159 105 
 SPBC HZ EP        244 26.91                             128    0.46 9  161 218 
 SPBC HN ES        244 48.62                             128    0.37 9  161 218 
 SPBC HZ I         244 51.37        12.3 0.28            125            161 218 
 YPLC HZ EP        244 27.75                             125   -0.42 9  179 150 
 YPLC HN ES        244 50.71                             125   -0.61 9  179 150 
 YPLC HZ I         244 54.54        17.4 0.26            121            179 150 
 ZAR  HZ EP        244 30.40                             122    0.16 9  200 292 
 ZAR  HE ES        244 54.73                             122   -0.27 9  200 292 
 ZAR  HZ I         245  0.02        12.9 0.24            119            200 292 
 CHI  HZ EP        244 36.05                             116    0.16 8  248 194 
 CHI  HN ES        245  5.08                             116    0.02 8  248 194 
 CHI  HZ I         245 11.92         2.7 0.30            113            248 194 
 ROSC BN EP   4    244 38.21                             116    2.01 0  251 210 
 ROSC BE ES        245  5.60                             116   -0.02 8  251 210 
 ROSC BN I         245 11.96        16.9 0.40            113            251 210 
 URE  HZ EP        244 38.54                             113   -0.37 7  280 292 
 URE  HN ES        245 10.56                             113    0.12 7  280 292 
 URE  HZ I         245 11.79        11.8 0.12            111            280 292 
 DRL03HZ EP        244 39.65                             112   -0.09 7  288 354 
 DRL03HN ES   4    245 13.93                             112    2.01 0  288 354 
 GUY2CHZ EP   9    244 43.69                             112    2.11 0  299 234 
 GUY2CHN ES        245 16.92                                   -0.38 7  299 234 
 GUY2CHZ I         245 25.26         4.0 0.68                           299 234 
 PTGC HZ EP   9    244 41.02                             110   -1.34 0  311 158 
 PTGC HN ES        245 13.92                                   -1.32 7  311 158 
 PTGC HZ I         245 16.65         7.0 0.56            108            311 158 
 CBOC HZ EP   9    244 45.85                             109    1.02 0  330 252 
 CBOC HN ES        245 22.83                                    0.84 7  330 252 
 CBOC HZ I         245 26.12         1.7 0.30            107            330 252 
 ORTC HZ EP   9    244 53.05                             106    0.99 0  394 216 
 ORTC HN ES        245 35.73                                    0.90 6  394 216 
 ORTC HZ I         245 39.73         1.9 0.44            103            394 216 
 SJC  HZ EP   4    244 52.57                             105   -1.02 0  407 327 
 SJC  HN ES   4    245 34.36                             105   -2.21 0  407 327 
 SJC  HZ I         245 37.75         4.1 0.40            103            407 327 
                                                                                
