 2013  410 0950  0.8 L   6.783 -73.125144.5  RSN  8 0.5 2.1LRSN                1
 GAP=185        1.23       4.2     6.2  7.5  0.1682E+00  0.6976E+01  0.1636E+01E
 Epicentro: LOS SANTOS - SANTANDER                                             3
 ACTION:UPD 13-05-22 14:37 OP:EP   STATUS:               ID:20130410095000 L   I
 2013-04-10-0948-53M.COL___211                                                 6
 STAT SP IPHASW D HRMM SECON CODA AMPLIT PERI AZIMU VELO AIN AR TRES W  DIS CAZ7
 BAR2 SZ EP        950 20.25                             171   -0.0410 22.0 197 
 BAR2 SZ ES        950 35.34                             171   -0.1310 22.0 197 
 BAR2 SZ I         950 36.93        24.8 0.32            172           22.0 197 
 GIR2 SZ EP        950 20.40                             166   -0.0310 33.6 347 
 BRR  HZ EP        950 22.13                             151    0.1110 74.1 299 
 BRR  HN ES        950 39.47                             151    0.9210 74.1 299 
 BRR  HN I         950 40.72        28.8 0.20            148           74.1 299 
 RUS  HZ EP        950 24.14                             144   -0.1810 98.6 177 
 RUS  HZ I         950 25.24         4.9 0.44            147           98.6 177 
 RUS  HN ES        950 42.71                             144    0.0710 98.6 177 
 PTB  HZ EP        950 27.14                             131   -0.74 9  150 260 
 PTB  HN ES        950 47.96                             131   -1.01 9  150 260 
 PTB  HN I         950 53.85        49.7 0.32            130            150 260 
 OCA  HZ EP        950 29.33                             129    0.07 9  162 352 
 OCA  HN ES        950 51.19                             129   -0.23 9  162 352 
 OCA  HN I         951  0.24        47.0 0.22            128            162 352 
 CHI  HZ EP        950 38.24                             117   -0.10 8  247 196 
 CHI  HN ES        951  8.05                             117    0.47 8  247 196 
 HEL  HZ EP        950 42.21                             114    1.03 8  274 256 
 HEL  HN ES        951 12.86                             114    0.21 8  274 256 
 HEL  HZ I         951 19.28         4.4 0.30            114            274 256 
                                                                                
