 2017  710 0701 29.6 L   6.697 -73.123139.9  RSN  5 0.4 1.1LRSN                1
 GAP=265        0.91       8.0     6.4  7.3  0.1224E+02  0.1213E+02 -0.3983E+01E
 Epicentro: JORDAN - SANTANDER                                                 3
 ACTION:UPD 17-08-30 15:31 OP:rebc STATUS:               ID:20170710070129 L   I
 OLDACT:DUP 17-07-10 17:43 OP:edw  STATUS:               ID:20170710065746d    3
 OLDACT:REG 17-07-10 13:04 OP:dnl  STATUS:               ID:20170710065745     3
 2017-07-10-0658-00M.COL___368                                                 6
 STAT SP IPHASW D HRMM SECON CODA AMPLIT PERI AZIMU VELO AIN AR TRES W  DIS CAZ7
 BAR2 EZ EP        7 1 48.23                             175   -0.0810 13.3 209 
 BAR2 EZ ES        7 2  2.85                             175   -0.1010 13.3 209 
 BAR2 EZ I         7 2  4.35         1.6 0.28            174           13.3 209 
 BRR  HZ EP        7 1 50.63                             149    0.0610 79.3 305 
 BRR  HN ES        7 2  7.35                             149    0.3910 79.3 305 
 BRR  HZ I         7 2 11.59         3.1 0.10            147           79.3 305 
 PTB  HZ EP        7 1 56.58                             131    0.47 9  148 263 
 PTB  HN ES        7 2 16.16                             131   -0.67 9  148 263 
 PTB  HZ I         7 2 18.61         1.9 0.18            132            148 263 
 SPBC HN ES   2    7 2 19.12                             129    0.82 5  156 222 
 ZAR  HZ EP        7 2  1.91                             120   -0.43 8  211 295 
 ZAR  HN ES        7 2 27.95                             120    0.04 8  211 295 
 ZAR  HZ I         7 2 32.36         2.0 0.20            121            211 295 
 GUY2CHN ES   4    7 2 45.55                             112   -0.28 0  297 237 
                                                                                
