 2016  710 0901 40.4 L   6.778 -73.148135.7  RSN  7 0.4 1.5LRSN                1
 GAP=276        1.00       6.1     6.2  6.9  0.3266E+01  0.1091E+02  0.9356E+01E
 Epicentro: LOS SANTOS - SANTANDER                                             3
 ACTION:UPD 17-03-29 16:49 OP:lp   STATUS:               ID:20160710090140 L   I
 OLDACT:UP  16-07-10 17:31 OP:dani STATUS:               ID:20160710085743d    3
 OLDACT:DUP 16-07-10 17:27 OP:dani STATUS:               ID:20160710085743d    3
 OLDACT:UP  16-07-10 17:26 OP:dani STATUS:               ID:20160710085742     3
 OLDACT:UP  16-07-10 17:25 OP:dani STATUS:               ID:20160710085742     3
 OLDACT:UP  16-07-10 17:25 OP:dani STATUS:               ID:20160710085742     3
 OLDACT:UP  16-07-10 17:23 OP:dani STATUS:               ID:20160710085742     3
 OLDACT:REG 16-07-10 13:21 OP:dani STATUS:               ID:20160710085742     3
 2016-07-10-0857-42M.COL___313                                                 6
 STAT SP IPHASW D HRMM SECON CODA AMPLIT PERI AZIMU VELO AIN AR TRES W  DIS CAZ7
 BAR2 EZ EP        9 1 59.05                             171    0.2610 20.9 191 
 BAR2 EZ ES        9 2 13.72                             171    0.6010 20.9 191 
 BAR2 EZ I         9 2 15.24         6.1 0.22            167           20.9 191 
 RUS  HZ EP        9 2  2.89                             142   -0.1310 98.2 176 
 RUS  HN ES        9 2 19.81                             142   -0.8310 98.2 176 
 RUS  HZ I         9 2 23.49         2.1 0.46            144           98.2 176 
 PTB  HZ EP        9 2  6.12                             130   -0.41 9  147 260 
 PTB  HE ES        9 2 26.83                             130   -0.06 9  147 260 
 PTB  HZ I         9 2 33.03         2.9 0.34            128            147 260 
 SPBC HZ EP        9 2  7.77                             127   -0.20 9  161 219 
 SPBC HE ES        9 2 29.45                             127   -0.01 9  161 219 
 SPBC HZ I         9 2 32.44         5.9 0.28            127            161 219 
 ZAR  HE ES   4    9 2 35.09                             120   -2.09 0  205 293 
 ZAR  HZ I         9 2 42.54         2.9 0.37            120            205 293 
 CHI  HZ EP        9 2 17.62                             115    0.30 8  246 195 
 CHI  HN ES        9 2 46.69                             115    0.59 8  246 195 
 CHI  HZ I         9 2 50.02         2.9 0.48            117            246 195 
 PRA  HZ EP        9 2 33.74                             105    0.39 6  390 210 
 PRA  HE ES        9 3 14.64                             105   -0.00 6  390 210 
 PRA  HZ I         9 3 20.24         1.8 0.32            106            390 210 
                                                                                
