 2013  410 0504 50.4 L   6.792 -73.166143.1  RSN  5 0.4 1.7LRSN                1
 GAP=180        1.13       7.6     7.8  8.5  0.2269E+02  0.1750E+02  0.1701E+02E
 Epicentro: LOS SANTOS - SANTANDER                                             3
 ACTION:UPD 13-05-22 14:37 OP:EP   STATUS:               ID:20130410050450 L   I
 2013-04-10-0458-46M.COL___215                                                 6
 STAT SP IPHASW D HRMM SECON CODA AMPLIT PERI AZIMU VELO AIN AR TRES W  DIS CAZ7
 BAR2 SZ EP        5 5  9.61                             171   -0.0310 22.2 185 
 BAR2 SZ ES        5 5 24.82                             171    0.1410 22.2 185 
 BAR2 SZ I         5 5 26.36         9.6 0.48            167           22.2 185 
 GIR2 SZ ES        5 5 24.03                             167   -0.8010 31.8 355 
 BRR  HZ EP        5 5 11.57                             153    0.4410 69.6 300 
 BRR  HN ES        5 5 28.05                             153    0.7210 69.6 300 
 BRR  HN I         5 5 30.08        11.4 0.32            150           69.6 300 
 RUS  HZ EP        5 5 13.82                             143    0.0310 99.9 175 
 RUS  HN ES        5 5 32.21                             143    0.1310 99.9 175 
 RUS  HN I         5 5 32.90         6.3 0.30            144           99.9 175 
 PTB  HZ EP        5 5 16.52                             132   -0.37 9  145 259 
 PTB  HN ES        5 5 37.23                             132   -0.35 9  145 259 
 PTB  HN I         5 5 43.14         5.6 0.16            130            145 259 
                                                                                
