 2011  610 0726 38.7 L   6.660 -73.026138.9  RSN  6 0.6 1.4LRSN                1
 GAP=227        1.31      17.3    20.6 26.7 -0.1807E+03 -0.3417E+03  0.8920E+02E
 Epicentro: ARATOCA - SANTANDER                                                3
 ACTION:UP  11-07-14 19:04 OP:ep   STATUS:               ID:20110610072638 L   I
 2011-06-10-0725-07S.COL___120                                                 6
 STAT SP IPHASW D HRMM SECON CODA AMPLIT PERI AZIMU VELO SNR AR TRES W  DIS CAZ7
 BAR2 SZ EP   1    726 57.94                             172     0.6 7   19 247 
 BAR2 SZ I         727 14.40         5.5 0.48                            19 247 
 BRR  HZ EP   1    726 59.85                             145    -0.5 7   91 303 
 BRR  HN ES   1    727 17.22                             145     0.0 7   91 303 
 BRR  HZ I         727 22.52         5.4 0.18                            91 303 
 BRI  SZ EP   1    727  2.40                             137    -0.4 7  120  12 
 BRI  SZ I         727 21.88         3.7 0.49                           120  12 
 GRA  SZ EP   1    727  3.74                             133    -0.6 7  138  10 
 GRA  SZ I         727 25.90         3.4 0.29                           138  10 
 OCA  SZ EP   1    727  9.26                             125     1.1 7  178 350 
 NOR  SN ES   2    727 41.74                             117    -0.3 4  237 239 
                                                                                
