 2013  510 0428 34.2 L   6.774 -73.156149.1  RSN  8 0.3 1.7LRSN                1
 GAP=136        0.69       3.5     4.4  4.9 -0.2553E+00  0.2334E+01 -0.1929E+01E
 Epicentro: LOS SANTOS - SANTANDER                                             3
 ACTION:UPD 13-06-20 09:49 OP:ep   STATUS:               ID:20130510042834 L   I
 2013-05-10-0420-00M.COL___256                                                 6
 STAT SP IPHASW D HRMM SECON CODA AMPLIT PERI AZIMU VELO AIN AR TRES W  DIS CAZ7
 BAR2 SZ EP   1    428 54.21                             172    0.06 7 20.3 188 
 BAR2 SZ ES   1    429  9.93                             172    0.20 7 20.3 188 
 BAR2 SZ I         429 11.99        14.3 0.28            173           20.3 188 
 GIR2 SZ EP        428 54.23                             166   -0.0910 34.0 353 
 GIR2 SZ ES   1    429 10.21                             166    0.18 7 34.0 353 
 BRR  HZ EP   1    428 55.93                             153    0.22 7 71.6 301 
 BRR  HN ES   1    429 13.16                             153    0.65 7 71.6 301 
 PAM  SZ EP        428 57.11                             150    0.1810 80.4  39 
 PAM  SN ES   1    429 14.08                             150   -0.59 7 80.4  39 
 PAM  SZ I         429 17.42         5.0 0.46            152           80.4  39 
 RUS  HZ EP        428 58.14                             145    0.0810 97.8 175 
 RUS  HN ES   1    429 16.47                             145   -0.22 7 97.8 175 
 RUS  HZ I         429 18.30         5.5 0.20            148           97.8 175 
 PTB  HZ EP   1    429  1.02                             133   -0.25 7  146 260 
 PTB  HN ES   1    429 21.85                             133   -0.55 7  146 260 
 PTB  HZ I         429 24.55         6.9 0.14            135            146 260 
 OCA  HN ES   2    429 24.76                             130   -0.73 5  163 354 
 SML  HZ EP        429 11.44                             118    0.21 8  246 336 
 SML  HN ES   2    429 39.91                             118   -0.22 4  246 336 
 SML  HZ I         429 42.57         8.5 0.10            120            246 336 
                                                                                
