 2017  510 0643  3.7 L   6.782 -73.127145.2  RSN  5 0.2 1.1LRSN                1
 GAP=140        0.66       3.5     3.4  5.6  0.1983E+01 -0.1053E+01  0.1632E+00E
 Epicentro: LOS SANTOS - SANTANDER                                             3
 ACTION:UPD 17-06-16 13:34 OP:jn   STATUS:               ID:20170510064303 L   I
 OLDACT:UP  17-05-10 19:42 OP:edw  STATUS:               ID:20170510063732     3
 OLDACT:REG 17-05-10 13:27 OP:osc  STATUS:               ID:20170510063732     3
 2017-05-10-0638-00M.COL___356                                                 6
 STAT SP IPHASW D HRMM SECON CODA AMPLIT PERI AZIMU VELO AIN AR TRES W  DIS CAZ7
 BRR  HZ EP        643 25.08                             151    0.1410 74.0 299 
 BRR  HN ES        643 41.80                             151    0.2910 74.0 299 
 BRR  HZ I         643 42.71         2.6 0.34            152           74.0 299 
 PAM  EZ EP     C  643 26.16                             150    0.2910 77.7  37 
 PAM  EN ES        643 42.87                             150   -0.2910 77.7  37 
 PAM  EZ I         643 45.43         1.9 0.50            151           77.7  37 
 RUS  HZ EP        643 26.99                             144   -0.2410 98.4 177 
 RUS  HN ES        643 45.60                             144    0.0110 98.4 177 
 RUS  HZ I         643 46.44         2.4 0.22            146           98.4 177 
 PTB  HZ EP   9    643 30.05                             131   -0.71 0  149 260 
 PTB  HN ES        643 50.90                             132   -0.27 9  149 260 
 PTB  HZ I         643 53.43         1.4 0.40            133            149 260 
 ZAR  HE ES        644  1.60                             122   -0.27 8  207 292 
                                                                                
