 2014  210 0227 53.9 L   6.125 -73.740106.1  RSN  7 0.4 1.3LRSN                1
 GAP=106        0.92       3.6     3.7  8.1 -0.2009E+00  0.1279E+02 -0.1705E+01E
 Epicentro: BOLIVAR - SANTANDER                                                3
 ACTION:UPD 14-03-10 08:09 OP:ep   STATUS:               ID:20140210022753 L   I
 OLDACT:UP  14-02-10 14:35 OP:mh   STATUS:               ID:20140210022749     3
 OLDACT:UP  14-02-10 14:35 OP:mh   STATUS:               ID:20140210022749     3
 OLDACT:REG 14-02-10 14:31 OP:mh   STATUS:               ID:20140210022749     3
 2014-02-10-0227-49M.COL___224                                                 6
 STAT SP IPHASW D HRMM SECON CODA AMPLIT PERI AZIMU VELO AIN AR TRES W  DIS CAZ7
 SPBC HZ EP        228  9.84                             146   -0.6710 64.0 215 
 SPBC HN ES   2    228 23.97                             146    0.47 5 64.0 215 
 SPBC HZ I         228 26.65         3.7 0.16            144           64.0 215 
 RUS  HZ EP        228 12.26                             141    0.2410 77.1 109 
 RUS  HN ES     C  228 26.04                             141   -0.1410 77.1 109 
 RUS  HZ I         228 28.81         1.7 0.23            140           77.1 109 
 BAR2 SZ EP   1    228 12.17                             140    0.26 7 80.4  50 
 BAR2 SZ ES        228 26.00                             140   -0.0010 80.4  50 
 BAR2 SZ I         228 26.98        16.8 0.45            139           80.4  50 
 PTB  HZ EP   1    228 12.41                             136   -0.11 7 91.6 300 
 PTB  HN ES   1    228 26.31                             136   -0.77 7 91.6 300 
 BRR  HZ EP        228 14.00                             130   -0.0110  109   2 
 BRR  HZ I         228 25.84         4.0 0.39            129            109   2 
 BRR  HN ES        228 30.11                             130    0.3710  109   2 
 NOR  HZ EP   1    228 17.66                             123    0.53 7  140 244 
 NOR  HN ES   1    228 36.03                             123    0.74 7  140 244 
 NOR  HZ I         228 39.61         4.1 0.11            121            140 244 
 ZAR  HZ EP        228 22.76                             113   -0.32 9  195 321 
 ZAR  HN ES   1    228 46.02                             113    0.15 6  195 321 
                                                                                
