 2017 1110 0220 13.2 L   6.794 -73.114150.8  RSN 12 0.7 1.9LRSN                1
 GAP=115        1.54       4.9     5.1  7.9  0.4390E+01  0.5896E+01  0.1208E+02E
 Epicentro: LOS SANTOS - SANTANDER                                             3
 ACTION:UPD 17-12-12 19:53 OP:rebc STATUS:               ID:20171110022013 L   I
 OLDACT:DUP 17-11-10 18:19 OP:leo  STATUS:               ID:20171110021401d    3
 2017-11-10-0218-00M.COL___465                                                 6
 STAT SP IPHASW D HRMM SECON CODA AMPLIT PERI AZIMU VELO AIN AR TRES W  DIS CAZ7
 BAR2 EZ EP     D  220 33.43                             171   -0.0310 23.6 199 
 BAR2 EZ ES        220 48.71                             171   -0.5410 23.6 199 
 BAR2 EZ I         220 49.89        12.7 0.26            168           23.6 199 
 BRR  HZ EP     D  220 35.26                             152    0.1510 74.7 298 
 BRR  HN ES        220 52.81                             152    0.6310 74.7 298 
 BRR  HZ I         220 57.22        11.2 0.62            150           74.7 298 
 PAM  EZ IP     D  220 36.17                             152    0.2910 75.7  37 
 PAM  EN ES        220 53.89                             152    0.3410 75.7  37 
 RUS  HZ EP        220 37.35                             145   -0.0610 99.7 178 
 RUS  HN ES        220 55.95                             145   -0.3310 99.7 178 
 RUS  HZ I         220 57.22         7.1 0.24            146           99.7 178 
 PTB  HZ EP        220 40.32                             132   -0.59 9  151 259 
 PTB  HN ES        221  1.35                             132   -1.15 9  151 259 
 PTB  HZ I         221  7.33         9.5 0.60            132            151 259 
 SPBC HZ EP        220 42.32                             130    0.05 9  165 220 
 SPBC HN ES        221  4.39                             130   -0.55 9  165 220 
 SPBC HZ I         221  7.57        10.7 0.14            130            165 220 
 YPLC HZ EP        220 43.60                             128    0.43 9  175 152 
 YPLC HN ES        221  7.23                             128    0.71 9  175 152 
 ZAR  HZ EP        220 46.21                             123   -0.15 8  208 292 
 ZAR  HN ES        221 12.38                             123    0.17 8  208 292 
 ZAR  HZ I         221 17.48        15.4 0.32            123            208 292 
 NOR  HZ EP        220 49.79                             119    0.27 8  237 235 
 NOR  HN ES        221 18.21                             119    0.39 8  237 235 
 NOR  HZ I         221 21.76         5.7 0.36            119            237 235 
 CHI  HZ EP        220 51.59                             118    0.35 8  249 196 
 CHI  HN ES        221 22.58                             118    1.69 8  249 196 
 CHI  HZ I         221 25.17         1.8 0.34            119            249 196 
 PTGC HZ EP        220 56.40                             113   -0.69 7  307 159 
 PTGC HN ES        221 29.51                             113   -1.80 7  307 159 
 PRA  HZ EP        221  6.38                             107   -0.68 6  393 210 
 PRA  HN ES        221 50.01                             107    0.96 6  393 210 
 PRA  HZ I         221 53.73         2.6 0.36            108            393 210 
                                                                                
