 2015  510 0529 20.0 L   6.980 -73.237122.6  RSN  5 0.5 1.6LRSN                1
 GAP=176        1.33       6.9     8.8 10.4  0.2443E+02  0.1356E+02  0.1462E+00E
 Epicentro: BETULIA - SANTANDER                                                3
 ACTION:UPD 15-09-10 22:03 OP:cam  STATUS:               ID:20150510052920 L   I
 OLDACT:REG 15-05-10 18:43 OP:drio STATUS:               ID:20150510052746     3
 2015-05-10-0527-46M.COL___261                                                 6
 STAT SP IPHASW D HRMM SECON CODA AMPLIT PERI AZIMU VELO AIN AR TRES W  DIS CAZ7
 BAR2 EZ EP        529 37.72                             159    0.2310 43.3 172 
 BAR2 EZ ES        529 50.87                             159   -0.3010 43.3 172 
 BAR2 EZ I         529 52.04        27.4 0.28            161           43.3 172 
 BRR  HZ EP        529 38.14                             155    0.4710 54.3 285 
 BRR  HN ES        529 52.03                             155    0.5510 54.3 285 
 BRR  HZ I         529 58.87         5.7 0.12            152           54.3 285 
 RUS  HZ EP        529 42.81                             133   -0.5010  121 172 
 RUS  HN ES   4    529 58.90                             133   -2.62 0  121 172 
 OCA  HN ES        530  3.36                             128   -0.33 9  139 356 
 SPBC HN ES   4    530  6.99                             121   -2.64 0  174 212 
 ZAR  HZ EP        529 49.95                             119    0.69 9  188 288 
 ZAR  HN ES        530 11.16                             119   -0.95 9  188 288 
 ZAR  HZ I         530 15.29         3.0 0.32            121            188 288 
                                                                                
