 2014  610 0735 21.2 L   6.789 -73.158142.0  RSN  9 0.6 1.8LRSN                1
 GAP=136        1.23       4.2     6.0  8.1 -0.3248E+01  0.1387E+02 -0.5236E+01E
 Epicentro: LOS SANTOS - SANTANDER                                             3
 ACTION:UPD 14-07-01 22:52 OP:nd   STATUS:               ID:20140610073521 L   I
 OLDACT:REG 14-06-10 12:33 OP:mh   STATUS:               ID:20140610072808     3
 2014-06-10-0728-08M.COL___253                                                 6
 STAT SP IPHASW D HRMM SECON CODA AMPLIT PERI AZIMU VELO AIN AR TRES W  DIS CAZ7
 BAR2 SZ EP   1    735 40.69                             171    0.36 7 21.9 187 
 BAR2 SZ ES        735 55.82                             171    0.5510 21.9 187 
 BAR2 SZ I    1    735 57.20        21.3 0.08            171           21.9 187 
 PAM  SZ EP        735 43.62                             150    0.5110 79.2  40 
 PAM  SN ES   1    736  0.04                             150   -0.17 7 79.2  40 
 PAM  SZ I         736  2.66        10.2 0.35            153           79.2  40 
 RUS  HZ EP        735 43.60                             144   -0.8810 99.4 175 
 RUS  HN ES   1    736  2.60                             144   -0.05 7 99.4 175 
 RUS  HZ I         736  4.53         2.7 0.16            148           99.4 175 
 PTB  HZ EP        735 47.35                             132   -0.35 9  146 259 
 PTB  HN ES        736  7.71                             132   -0.68 9  146 259 
 PTB  HZ I         736 13.54         6.2 0.11            131            146 259 
 SPBC HZ EP   1    735 49.56                             129    0.34 7  161 219 
 SPBC HN ES   1    736 11.26                             129    0.17 7  161 219 
 OCA  HZ EP        735 48.40                             129   -0.91 9  161 354 
 OCA  HN ES   1    736 11.11                             129   -0.13 7  161 354 
 OCA  HZ I         736 13.78         7.3 0.20            129            161 354 
 ZAR  HZ EP        735 53.69                             122    0.38 9  203 293 
 ZAR  HN ES   1    736 18.78                             122    0.42 6  203 293 
 ZAR  HZ I         736 25.95         4.0 0.35            122            203 293 
 SML  HZ EP   1    735 57.25                             117   -0.41 6  244 336 
 SML  HN ES        736 26.78                             117    0.66 8  244 336 
 SML  HZ I         736 36.62         9.3 0.13            117            244 336 
 PRA  HZ EP        736 15.37                             106    1.00 6  390 209 
 PRA  HN ES   1    736 56.62                             106    0.77 4  390 209 
 PRA  HZ I         737  2.04         2.4 0.24            108            390 209 
                                                                                
