 2014  810 0739 46.8 L   6.004 -73.780109.0  RSN  5 0.3 1.1LRSN                1
 GAP=121        0.88       4.9     3.3  7.5 -0.4036E+01  0.5952E+00 -0.4077E+01E
 Epicentro: BOLIVAR - SANTANDER                                                3
 ACTION:UPD 14-09-15 21:48 OP:nd   STATUS:               ID:20140810073946 L   I
 OLDACT:REG 14-08-10 13:51 OP:spq  STATUS:               ID:20140810073815     3
 2014-08-10-0738-15M.COL___260                                                 6
 STAT SP IPHASW D HRMM SECON CODA AMPLIT PERI AZIMU VELO AIN AR TRES W  DIS CAZ7
 SPBC HZ EP        740  2.79                             153   -0.2010 50.6 220 
 SPBC HE ES        740 15.36                             153   -0.2210 50.6 220 
 SPBC HZ I         740 16.21         3.6 0.22            157           50.6 220 
 RUS  HZ EP        740  5.21                             142   -0.1510 78.1  99 
 RUS  HN ES   1    740 19.62                             142   -0.19 7 78.1  99 
 RUS  HZ I         740 22.17         1.1 0.58            145           78.1  99 
 BAR2 SZ EP        740  6.45                             136    0.2710 92.8  45 
 BAR2 SZ ES   1    740 21.88                             136    0.62 7 92.8  45 
 BAR2 SZ I         740 23.98         4.7 0.32            138           92.8  45 
 PTB  HZ EP        740  5.67                             135   -0.4310 95.5 308 
 PTB  HN ES        740 20.90                             135   -0.2210 95.5 308 
 PTB  HZ I         740 23.25         1.7 0.28            138           95.5 308 
 NOR  HZ EP        740  9.49                             126    0.1310  130 248 
 NOR  HE ES        740 27.56                             126    0.6310  130 248 
 NOR  HZ I         740 28.60         5.2 0.16            130            130 248 
                                                                                
