 2017  410 0100 32.4 L   6.869 -73.328120.0  RSN 17 0.5 2.0LRSN                1
 GAP= 94        1.27       3.4     4.0  5.9 -0.9991E-01  0.4969E+01  0.2179E+01E
 Epicentro: BETULIA - SANTANDER                                                3
 ACTION:UPD 17-05-30 21:10 OP:jn   STATUS:               ID:20170410010032 L   I
 OLDACT:UP  17-04-10 14:06 OP:edw  STATUS:               ID:20170410005746     3
 OLDACT:UP  17-04-10 13:59 OP:edw  STATUS:               ID:20170410005746     3
 OLDACT:REG 17-04-10 12:35 OP:edw  STATUS:               ID:20170410005746     3
 2017-04-10-0058-00M.COL___368                                                 6
 STAT SP IPHASW D HRMM SECON CODA AMPLIT PERI AZIMU VELO AIN AR TRES W  DIS CAZ7
 BAR2 EZ IP     D  1 0 49.37                             163    0.1310 34.6 152 
 BAR2 EZ ES        1 1  2.17                             163   -0.2410 34.6 152 
 BAR2 EZ I         1 1  3.67        52.4 0.26            165           34.6 152 
 BRR  HZ EP        1 0 49.86                             156    0.3110 49.9 302 
 BRR  HN ES        1 1  3.37                             156    0.4210 49.9 302 
 BRR  HZ I         1 1  5.51        22.0 0.26            153           49.9 302 
 PAM  EZ EP        1 0 52.69                             141    0.1110 86.8  53 
 PAM  EN ES        1 1  8.16                             141   -0.2010 86.8  53 
 PAM  EZ I         1 1 11.62        19.3 0.28            147           86.8  53 
 RUS  HZ EP        1 0 54.23                             134   -0.3510  111 166 
 RUS  HN ES        1 1 11.08                             134   -0.8410  111 166 
 RUS  HZ I         1 1 13.91        13.4 0.24            136            111 166 
 PTB  HZ IP   9 D  1 0 54.69                             129   -0.94 0  130 254 
 PTB  HN ES        1 1 12.03                             129   -0.8110  130 254 
 PTB  HZ I         1 1 16.94        15.4 0.38            128            130 254 
 SPBC HZ EP        1 0 58.59                             123    0.13 9  158 212 
 SPBC HN ES        1 1 19.17                             123    0.35 9  158 212 
 SPBC HZ I         1 1 23.29        17.3 0.10            124            158 212 
 ZAR  HZ EP        1 1  1.35                             119    0.41 9  182 292 
 ZAR  HN ES   4    1 1 24.28                             119    1.05 0  182 292 
 ZAR  HZ I         1 1 31.52        14.0 0.42            119            182 292 
 YPLC HZ EP        1 1  2.39                             117    0.16 9  194 147 
 YPLC HN ES        1 1 26.00                             117    0.48 9  194 147 
 NOR  HZ EP        1 1  5.52                             113    0.05 8  223 230 
 NOR  HN ES        1 1 30.74                             113   -0.55 8  223 230 
 NOR  HZ I         1 1 37.69         6.0 0.16            114            223 230 
 CHI  HZ EP        1 1  9.26                             110    0.15 8  252 190 
 CHI  HE ES        1 1 38.61                             110    0.84 8  252 190 
 CHI  HZ I         1 1 43.48         4.5 0.58            112            252 190 
 HEL  HZ EP   4    1 1 10.89                             110    1.49 0  255 253 
 HEL  HE ES        1 1 37.72                             110   -0.57 8  255 253 
 HEL  HZ I         1 1 42.37         4.7 0.36            111            255 253 
 LL6C HN EP   9    1 0 57.95                             105   -18.2 0  317   1 
 LL6C HN ES        1 1 30.44                                   -1.69 7  317   1 
 CBOC HZ EP        1 1 16.55                             105    0.17 7  317 250 
 CBOC HE ES   4    1 1 51.73                             105    1.01 0  317 250 
 CBOC HZ I         1 1 54.28         2.2 0.62            106            317 250 
 PTGC HZ EP        1 1 16.03                             105   -0.91 7  324 156 
 PTGC HN ES   4    1 1 50.25                             105   -1.46 0  324 156 
 ARGC HZ EP        1 1 18.75                             104   -0.80 6  346 343 
 ARGC HN ES        1 1 56.78                             104    0.42 6  346 343 
 SJC  HZ EP   4    1 1 23.48                             101   -1.66 0  392 329 
 SJC  HN ES   4    1 2  3.15                             101   -3.15 0  392 329 
 SJC  HZ I         1 2  6.39         3.1 0.28            103            392 329 
 PAL  HZ EP   4    1 1 23.58                             101   -1.64 0  393 237 
 PAL  HE ES   4    1 2  4.29                             101   -2.17 0  393 237 
 PAL  HZ I         1 2 12.50         3.7 0.26            102            393 237 
                                                                                
