 2012  110 0545  9.9 L   5.762 -73.945102.2  RSN  8 0.5 1.5LRSN                1
 GAP= 89        0.94       3.6     5.5 13.0 -0.1219E+01 -0.5633E+01 -0.1548E+01E
 Epicentro: ALBANIA - SANTANDER                                                3
 ACTION:UP  12-02-03 08:16 OP:REBC STATUS:               ID:20120110054510 L   I
 2012-01-10-0540-00M.COL___186                                                 6
 STAT SP IPHASW D HRMM SECON CODA AMPLIT PERI AZIMU VELO SNR AR TRES W  DIS CAZ7
 RUS  HZ EP   3    545 28.87                             133    -0.5 3   97  81 
 PTB  HZ EP   1    545 28.62                             130    -0.7 8  103 327 
 PTB  HN ES   1    545 43.81                             130    -0.6 8  103 327 
 NOR  SZ EP   1    545 30.32                             130     0.8 8  105 258 
 NOR  SN ES   2    545 45.14                             130     0.4 5  105 258 
 BAR2 SZ ES   1    545 48.62                             125     0.0 8  125  43 
 BAR2 SZ I         545 50.26         6.7 0.24                           125  43 
 CHI  HZ EP   1    545 32.15                             124     0.0 8  127 169 
 CHI  HE ES   1    545 49.27                             124    -0.2 8  127 169 
 CHI  HZ I         545 54.34         2.3 0.30                           127 169 
 BRR  HZ EP        545 34.06                             119     0.010  151  10 
 BRR  HZ I         545 35.14        10.0 0.13                           151  10 
 BRR  HN ES   1    545 53.71                             119     0.8 7  151  10 
 GIR2 SZ EP   2    545 36.29                             116     0.2 5  168  30 
 GIR2 SZ ES   3    545 56.01                             116    -0.4 2  168  30 
 ZAR  HZ EP   2    545 40.69                             109    -0.7 4  216 332 
 ZAR  HE ES   2    546  5.99                             109     0.1 4  216 332 
 ZAR  HZ I         546  8.24         3.2 0.30                           216 332 
                                                                                
