 2011  510 0830 42.6 L   7.381 -73.177126.8  RSN  5 0.1 1.1LRSN                1
 GAP=154        0.36       3.2     4.2  4.4 -0.8070E+01  0.1050E+01 -0.1980E+01E
 Epicentro: EL PLAYON - SANTANDER                                              3
 ACTION:UP  11-06-29 08:52 OP:tino STATUS:               ID:20110510083042 L   I
 2011-05-10-0827-37S.COL___132                                                 6
 STAT SP IPHASW D HRMM SECON CODA AMPLIT PERI AZIMU VELO SNR AR TRES W  DIS CAZ7
 GIR2 SZ ES   3    831 13.71                             164     0.0 2   33 183 
 BTL  SZ EP        831  1.05                             156     0.010   52 191 
 BRR  HZ EP        831  1.30                             151    -0.110   66 243 
 BRR  HZ I         831  1.72         3.0 0.14                            66 243 
 BRR  HN ES   1    831 16.24                             151     0.1 7   66 243 
 GRA  SZ EP        831  1.94                             150     0.110   69  36 
 GRA  SZ I         831  2.91         2.9 0.30                            69  36 
 GRA  SZ ES   1    831 16.74                             150    -0.1 7   69  36 
 BAR2 SZ ES   1    831 19.18                             143     0.0 7   87 180 
                                                                                
