 2015 1010 0812 11.3 L   6.776 -73.114143.8  RSN  6 0.3 1.4LRSN                1
 GAP=142        0.67       5.5     5.3  6.4 -0.8824E+01 -0.3089E+01  0.2031E+02E
 Epicentro: LOS SANTOS - SANTANDER                                             3
 ACTION:UPD 15-12-22 20:38 OP:cam  STATUS:               ID:20151010081211 L   I
 OLDACT:REG 15-10-10 12:49 OP:spq  STATUS:               ID:20151010080736     3
 2015-10-10-0807-36M.COL___337                                                 6
 STAT SP IPHASW D HRMM SECON CODA AMPLIT PERI AZIMU VELO AIN AR TRES W  DIS CAZ7
 BAR2 EZ EP        812 30.51                             171   -0.1610 21.7 200 
 BAR2 EZ ES   1    812 45.41                             171   -0.36 7 21.7 200 
 BAR2 EZ I         812 46.83         5.4 0.16            171           21.7 200 
 BRR  HZ EP        812 32.30                             151   -0.2010 75.5 299 
 BRR  HN ES        812 49.31                             151    0.2910 75.5 299 
 PAM  EZ EP        812 33.32                             150    0.0110 77.3  36 
 PAM  EE ES        812 50.55                             150    0.0810 77.3  36 
 PAM  EZ I         812 52.34         5.2 0.44            151           77.3  36 
 RUS  HZ EP   1    812 35.01                             144    0.34 7 97.8 178 
 SPBC HZ EP        812 39.39                             128   -0.29 9  163 221 
 CHI  HZ EP   1    812 49.40                             117    0.67 6  247 196 
                                                                                
