 2014  210 0413 47.0 L   6.731 -73.226146.1  RSN  5 0.1 1.0LRSN                1
 GAP=223        0.35       2.7     3.2  4.4  0.2881E+01 -0.5219E+00  0.2011E+01E
 Epicentro: VILLANUEVA - SANTANDER                                             3
 ACTION:UPD 14-03-10 08:09 OP:ep   STATUS:               ID:20140210041347 L   I
 OLDACT:REG 14-02-10 10:03 OP:mh   STATUS:               ID:20140210041000     3
 2014-02-10-0410-00M.COL___291                                                 6
 STAT SP IPHASW D HRMM SECON CODA AMPLIT PERI AZIMU VELO AIN AR TRES W  DIS CAZ7
 BRR  HZ EP   1    414  7.94                             154   -0.09 7 68.0 308 
 BRR  HN ES        414 24.36                             154   -0.0510 68.0 308 
 BRR  HZ I         414 33.02         1.7 0.28            157           68.0 308 
 RUS  HZ EP   1    414 10.51                             146    0.17 7 94.0 170 
 RUS  HN ES   2    414 28.60                             146    0.07 5 94.0 170 
 RUS  HZ I         414 30.73         1.5 0.28            155           94.0 170 
 PTB  HZ EP   1    414 12.92                             134   -0.20 7  138 261 
 PTB  HN ES   1    414 33.51                             134    0.03 7  138 261 
 PTB  HZ I         414 36.20         1.6 0.23            143            138 261 
 SPBC HN ES   1    414 35.82                             131   -0.06 7  152 218 
 ZAR  HN ES   1    414 44.13                             123    0.24 6  199 295 
                                                                                
