 2016  510 0742 51.4 L   7.443 -73.343112.8  RSN 10 0.5 1.7LRSN                1
 GAP=168        0.91       2.5     4.2  5.4 -0.1649E+01  0.4287E+01 -0.3384E+00E
 Epicentro: EL PLAYON - SANTANDER                                              3
 ACTION:UPD 16-08-18 17:44 OP:cam  STATUS:               ID:20160510074251 L   I
 OLDACT:UP  16-05-10 15:41 OP:drio STATUS:               ID:20160510073742     3
 OLDACT:UP  16-05-10 15:40 OP:dani STATUS:               ID:20160510073742     3
 OLDACT:UP  16-05-10 13:23 OP:dani STATUS:               ID:20160510073742     3
 OLDACT:REG 16-05-10 12:28 OP:drio STATUS:               ID:20160510073742     3
 2016-05-10-0737-42M.COL___284                                                 6
 STAT SP IPHASW D HRMM SECON CODA AMPLIT PERI AZIMU VELO AIN AR TRES W  DIS CAZ7
 BRR  HZ IP     D  743  8.01                             152   -0.0810 55.1 228 
 BRR  HE ES        743 21.17                             152    0.0710 55.1 228 
 BRR  HZ I         743 21.73         9.3 0.12            150           55.1 228 
 OCA  HZ EP        743 10.82                             139    0.2310 88.0   2 
 OCA  HN ES        743 25.80                             139    0.2510 88.0   2 
 OCA  HZ I         743 27.11        16.6 0.16            140           88.0   2 
 BAR2 EZ EP        743 11.19                             137   -0.1410 95.7 169 
 BAR2 EZ ES        743 26.64                             137   -0.2310 95.7 169 
 BAR2 EZ I         743 27.97        15.5 0.16            138           95.7 169 
 PTB  HZ EP     D  743 16.83                             121   -0.20 9  158 231 
 PTB  HE ES        743 37.09                             121    0.08 9  158 231 
 PTB  HZ I         743 39.72         5.5 0.24            121            158 231 
 ZAR  HZ EP        743 18.07                             119    0.12 9  167 272 
 ZAR  HN ES        743 39.12                             119    0.47 9  167 272 
 ZAR  HZ I         743 41.38         6.5 0.21            119            167 272 
 SML  HZ EP        743 17.67                             119   -0.58 9  170 332 
 SML  HE ES        743 38.59                             119   -0.59 9  170 332 
 SML  HZ I         743 45.46         9.0 0.10            119            170 332 
 SPBC HZ EP        743 23.39                             113    0.24 8  214 202 
 SPBC HN ES   4    743 49.01                             113    1.11 0  214 202 
 SPBC HZ I         743 56.51         4.3 0.10            113            214 202 
 LL6C HZ EP        743 27.91                             109    0.33 8  254   2 
 NOR  HZ EP        743 30.18                             107    0.90 8  268 219 
 NOR  HN ES        743 58.39                             107   -0.42 8  268 219 
 HEL  HZ EP        743 30.76                             107   -0.16 7  278 240 
 HEL  HE ES   3    743 58.86                             107   -2.88 2  278 240 
                                                                                
