 2013  410 0016 54.6 L   6.813 -73.195145.1  RSN  7 0.5 1.9LRSN                1
 GAP=173        1.22       4.4     7.6  6.9  0.8418E+01  0.8536E+01  0.1985E+01E
 Epicentro: ZAPATOCA - SANTANDER                                               3
 ACTION:UPD 13-05-22 14:37 OP:EP   STATUS:               ID:20130410001654 L   I
 2013-04-10-0008-35M.COL___217                                                 6
 STAT SP IPHASW D HRMM SECON CODA AMPLIT PERI AZIMU VELO AIN AR TRES W  DIS CAZ7
 BAR2 SZ EP        017 14.58                             170    0.4010 24.5 177 
 BAR2 SZ ES        017 28.80                             170   -0.6510 24.5 177 
 BAR2 SZ I         017 31.50        24.3 0.18            169           24.5 177 
 GIR2 SZ EP        017 14.16                             168    0.0110 29.4   0 
 GIR2 SZ ES        017 28.98                             168   -0.4210 29.4   0 
 BRR  HZ EP        017 15.90                             154    0.5210 65.7 300 
 BRR  HZ I         017 16.06        15.0 0.14            153           65.7 300 
 BRR  HN ES        017 32.76                             154    1.1710 65.7 300 
 RUS  HZ EP        017 18.44                             143    0.0010  103 173 
 RUS  HN ES        017 37.10                             143    0.0710  103 173 
 RUS  HE I         017 38.78         8.4 0.28            144            103 173 
 PTB  HZ EP        017 20.87                             133   -0.19 9  143 258 
 PTB  HN ES        017 41.23                             133   -0.47 9  143 258 
 PTB  HN I         017 45.99         9.2 0.24            132            143 258 
 SML  HZ EP        017 30.77                             118   -0.04 8  240 336 
 SML  HN ES        017 58.48                             118   -0.57 8  240 336 
 CHI  HZ EP        017 32.25                             117   -0.02 8  249 194 
 CHI  HN ES        018  1.50                             117   -0.15 8  249 194 
                                                                                
