 2016  110 0505 38.6 L   6.800 -73.179146.8  RSN  7 0.4 1.4LRSN                1
 GAP=132        0.99       3.5     4.7  6.1 -0.2092E+01  0.5978E+01 -0.2878E+01E
 Epicentro: LOS SANTOS - SANTANDER                                             3
 ACTION:UPD 16-03-09 23:24 OP:cam  STATUS:               ID:20160110050538 L   I
 OLDACT:DUP 16-01-10 14:49 OP:drio STATUS:               ID:20160110045742d    3
 2016-01-10-0457-41M.COL___252                                                 6
 STAT SP IPHASW D HRMM SECON CODA AMPLIT PERI AZIMU VELO AIN AR TRES W  DIS CAZ7
 BAR2 EZ EP        5 5 58.56                             171    0.1810 22.9 181 
 BAR2 EZ ES        5 6 13.65                             171   -0.1410 22.9 181 
 BAR2 EZ I         5 6 14.87         3.3 0.22            170           22.9 181 
 BRR  HZ EP        5 6  0.44                             154    0.7210 68.0 300 
 BRR  HN ES        5 6 16.69                             154    0.5110 68.0 300 
 PAM  EZ EP        5 6  1.27                             150    0.1610 79.8  42 
 PAM  EN ES        5 6 18.46                             150   -0.1710 79.8  42 
 PAM  EZ I         5 6 20.55         3.6 0.36            154           79.8  42 
 RUS  HZ EP        5 6  2.41                             144   -0.1010  101 174 
 RUS  HE ES        5 6 20.82                             144   -0.3110  101 174 
 RUS  HZ I         5 6 22.19         2.4 0.36            145            101 174 
 PTB  HZ EP        5 6  5.24                             133   -0.13 9  144 259 
 PTB  HN ES        5 6 26.22                             133    0.00 9  144 259 
 PTB  HZ I         5 6 31.00         1.8 0.50            132            144 259 
 SPBC HZ EP        5 6  7.40                             130    0.40 9  161 218 
 SPBC HN ES        5 6 28.62                             130   -0.50 9  161 218 
 SPBC HZ I         5 6 35.49         4.3 0.28            130            161 218 
 SML  HZ EP        5 6 14.98                             118   -0.18 8  242 336 
 SML  HN ES        5 6 42.80                             118   -0.85 8  242 336 
 SML  HZ I         5 6 46.70         4.9 0.28            119            242 336 
                                                                                
