 2014 1110 0006 45.0 L   6.791 -73.150143.7  RSN  4 0.4 1.1LRSN                1
 GAP=136        1.05       5.9     5.5  9.8 -0.4406E+01  0.2849E+01  0.1204E+02E
 Epicentro: LOS SANTOS - SANTANDER                                             3
 ACTION:UPD 14-12-19 15:41 OP:nd   STATUS:               ID:20141110000645 L   I
 OLDACT:DUP 14-11-10 13:24 OP:stll STATUS:               ID:20141110000001d    3
 2014-11-10-0000-00M.COL___292                                                 6
 STAT SP IPHASW D HRMM SECON CODA AMPLIT PERI AZIMU VELO AIN AR TRES W  DIS CAZ7
 BRR  HN ES        0 7 22.89                             152    0.5910 71.2 299 
 PAM  SZ EP        0 7  7.17                             150    0.0710 78.4  39 
 PAM  SE ES        0 7 23.91                             150   -0.4010 78.4  39 
 PAM  SZ I         0 7 26.44         5.0 0.50            152           78.4  39 
 RUS  HZ EP        0 7  9.10                             144    0.5710 99.7 176 
 RUS  HE ES        0 7 26.64                             144   -0.2010 99.7 176 
 RUS  HZ I         0 7 28.61         1.4 0.38            145           99.7 176 
 PTB  HZ EP        0 7 11.38                             132   -0.40 9  147 259 
 PTB  HN ES        0 7 32.32                             132   -0.32 9  147 259 
 PTB  HZ I         0 7 34.53         1.3 0.16            133            147 259 
                                                                                
