 2017  510 0302 25.9 L   7.564 -73.065155.5  RSN  8 0.4 1.8LRSN                1
 GAP=164        0.83       5.4     4.2  5.6 -0.2839E+01  0.5249E+01 -0.8090E+00E
 Epicentro: EL PLAYON - SANTANDER                                              3
 ACTION:UPD 17-06-16 13:34 OP:jn   STATUS:               ID:20170510030225 L   I
 OLDACT:UP  17-05-10 17:05 OP:edw  STATUS:               ID:20170510025743     3
 OLDACT:UP  17-05-10 17:04 OP:edw  STATUS:               ID:20170510025743     3
 OLDACT:REG 17-05-10 13:08 OP:osc  STATUS:               ID:20170510025743     3
 2017-05-10-0258-00M.COL___356                                                 6
 STAT SP IPHASW D HRMM SECON CODA AMPLIT PERI AZIMU VELO AIN AR TRES W  DIS CAZ7
 PAM  EZ EP     C  3 2 48.04                             162    0.3110 47.3 122 
 PAM  EN ES        3 3  4.61                             162   -0.1610 47.3 122 
 PAM  EZ I         3 3  6.01        11.7 0.18            163           47.3 122 
 BRR  HZ IP     C  3 2 49.10                             149    0.0710 87.5 235 
 BRR  HN ES        3 3  7.38                             149    0.2810 87.5 235 
 BRR  HZ I         3 3  8.53        15.1 0.10            146           87.5 235 
 RUS  HZ EP        3 2 57.20                             128   -0.52 9  185 181 
 RUS  HN ES   4    3 3 20.56                             128   -2.00 0  185 181 
 RUS  HZ I         3 3 22.00         2.1 0.26            127            185 181 
 PTB  HZ EP        3 2 57.26                             126   -0.43 9  191 234 
 PTB  HN ES        3 3 21.97                             126   -0.53 9  191 234 
 PTB  HZ I         3 3 27.55         7.1 0.34            125            191 234 
 ZAR  HE ES        3 3 23.71                             125   -0.02 9  198 268 
 SPBC HZ EP        3 3  3.00                             120    0.31 8  239 208 
 SPBC HN ES        3 3 31.74                             120    0.34 8  239 208 
 SPBC HZ I         3 3 38.16         8.3 0.22            119            239 208 
 NOR  HN ES   4    3 3 45.21                             114    2.49 0  298 222 
 SJC  HZ EP        3 3 14.54                             111   -0.10 6  347 318 
 SJC  HN ES   4    3 3 50.26                             111   -2.42 0  347 318 
 CBOC HZ EP        3 3 18.80                             109    0.72 6  376 240 
 CBOC HE ES   4    3 3 56.89                             109   -1.91 0  376 240 
 CBOC HZ I         3 4  5.56         1.4 0.36            109            376 240 
                                                                                
