 2016 1110 0520 33.4 L   6.720 -73.119143.3  RSN  4 0.4 1.3LRSN                1
 GAP=263        0.90      10.1     6.7  7.2  0.2519E+02  0.1071E+02 -0.5242E+01E
 Epicentro: JORDAN - SANTANDER                                                 3
 ACTION:UPD 17-10-26 21:06 OP:lp   STATUS:               ID:20161110052033 L   I
 OLDACT:REG 16-11-10 12:05 OP:lv   STATUS:               ID:20161110051742     3
 2016-11-10-0518-00M.COL___340                                                 6
 STAT SP IPHASW D HRMM SECON CODA AMPLIT PERI AZIMU VELO AIN AR TRES W  DIS CAZ7
 BAR2 EZ EP        520 52.75                             173    0.1210 15.7 206 
 BAR2 EZ ES        521  7.55                             173   -0.0510 15.7 206 
 BAR2 EZ I         521  8.67         3.7 0.14            172           15.7 206 
 BRR  HZ EP        520 54.33                             150   -0.3910 78.3 303 
 BRR  HN ES        521 11.54                             150    0.2010 78.3 303 
 PTB  HZ EP        520 59.98                             131   -0.34 9  149 262 
 PTB  HE ES        521 21.48                             131    0.18 9  149 262 
 PTB  HZ I         521 23.62         1.6 0.18            130            149 262 
 ZAR  HZ EP        521  7.13                             121    0.78 8  210 294 
 ZAR  HE ES        521 31.62                             121   -0.41 8  210 294 
 ZAR  HZ I         521 37.76         2.5 0.09            121            210 294 
                                                                                
