 2011  810 0930 27.5 L   6.800 -73.093142.6  RSN  7 0.3 1.8LRSN                1
 GAP=188        0.52       2.3     5.6  4.9  0.8126E+00 -0.1071E+00  0.1781E+01E
 Epicentro: LOS SANTOS - SANTANDER                                             3
 ACTION:UPD 12-07-13 15:51 OP:ep   STATUS:               ID:20110810093027 L   I
 2011-08-10-0927-43S.COL___149                                                 6
 STAT SP IPHASW D HRMM SECON CODA AMPLIT PERI AZIMU VELO AIN AR TRES W  DIS CAZ7
 BAR2 SZ EP   1    930 46.65                             170   -0.15 7 25.0 203 
 BAR2 SZ ES   2    931  2.28                             170    0.44 5 25.0 203 
 BAR2 SZ I         931  4.66        12.6 0.26                          25.0 203 
 BRR  HZ EP        930 48.87                             150    0.2510 76.4 296 
 BRR  HE ES   1    931  5.17                             150    0.08 7 76.4 296 
 BRR  HZ I         931  9.91        17.8 0.05                          76.4 296 
 RUS  HZ EP        930 50.88                             143   -0.0510  100 179 
 RUS  HN ES   1    931  8.85                             143   -0.36 7  100 179 
 RUS  HZ I         931 12.19         6.9 0.30                           100 179 
 OCA  SZ EP   1    930 55.78                             129    0.13 7  161 351 
 OCA  SZ ES   1    931 17.28                             129   -0.32 7  161 351 
 OCA  SZ I         931 22.45        16.4 0.50                           161 351 
 NOR  SZ EP   2    931  3.09                             117   -0.48 4  239 235 
 NOR  SN ES   2    931 31.04                             117   -0.66 4  239 235 
 CHI  HZ EP   1    931  5.43                             116    0.22 6  250 196 
 CHI  HZ I         931  5.94         3.9 0.11                           250 196 
 CHI  HE ES   1    931 35.07                             116    0.46 6  250 196 
 PRA  HZ EP   2    931 20.96                             106   -0.30 3  395 210 
 PRA  HN ES   2    932  3.16                             106   -0.03 3  395 210 
                                                                                
