 2014  810 0316 49.6 L   6.740 -73.090146.9  RSN  5 0.3 1.1LRSN                1
 GAP=239        0.59       3.9     6.0  7.9  0.2069E+01  0.1371E+02  0.5390E+00E
 Epicentro: JORDAN - SANTANDER                                                 3
 ACTION:UPD 14-09-15 21:48 OP:nd   STATUS:               ID:20140810031649 L   I
 OLDACT:DUP 14-08-10 16:31 OP:spq  STATUS:               ID:20140810030817d    3
 OLDACT:UP  14-08-10 16:28 OP:spq  STATUS:               ID:20140810030816     3
 OLDACT:UP  14-08-10 16:19 OP:spq  STATUS:               ID:20140810030816     3
 OLDACT:REG 14-08-10 13:04 OP:spq  STATUS:               ID:20140810030816     3
 2014-08-10-0308-16M.COL___260                                                 6
 STAT SP IPHASW D HRMM SECON CODA AMPLIT PERI AZIMU VELO AIN AR TRES W  DIS CAZ7
 BAR2 SZ ES   1    317 24.92                             172    0.29 7 19.3 212 
 BAR2 SZ I         317 25.69         3.8 0.28            167           19.3 212 
 BRR  HZ EP        317 11.39                             150    0.0310 79.9 301 
 BRR  HN ES        317 28.31                             150   -0.0410 79.9 301 
 BRR  HZ I         317 28.94         3.6 0.46            151           79.9 301 
 RUS  HE ES   1    317 30.80                             146   -0.39 7 93.7 180 
 RUS  HZ I         317 34.56         1.0 0.24            142           93.7 180 
 PTB  HE ES   1    317 38.20                             131   -0.35 7  153 262 
 SPBC HN ES        317 40.56                             129    0.27 9  162 222 
 SPBC HZ I         317 45.40         1.0 0.07            128            162 222 
                                                                                
