 2014 1010 0515 31.0 L   6.775 -73.151142.0  RSN  8 0.5 1.4LRSN                1
 GAP=137        0.98       4.8     5.1  7.6 -0.4038E+01  0.8618E+00  0.6681E+01E
 Epicentro: LOS SANTOS - SANTANDER                                             3
 ACTION:UPD 14-11-29 23:48 OP:nd   STATUS:               ID:20141010051531 L   I
 OLDACT:DUP 14-10-10 17:11 OP:fm   STATUS:               ID:20141010050742d    3
 2014-10-10-0507-41M.COL___294                                                 6
 STAT SP IPHASW D HRMM SECON CODA AMPLIT PERI AZIMU VELO AIN AR TRES W  DIS CAZ7
 BAR2 SZ EP   1    515 50.38                             171    0.31 7 20.5 190 
 BAR2 SZ ES   1    516  5.02                             171    0.03 7 20.5 190 
 BAR2 SZ I         516  8.70        12.6 0.60            169           20.5 190 
 BRR  HZ EP   1    515 52.29                             152    0.54 7 72.1 301 
 BRR  HN ES        516  8.55                             152    0.5910 72.1 301 
 BRR  HZ I         516 13.35         4.9 0.26            152           72.1 301 
 PAM  SZ EP        515 52.76                             149   -0.1710 79.9  39 
 PAM  SN ES   1    516  9.36                             149   -0.70 7 79.9  39 
 PAM  SZ I         516 13.59         4.0 0.32            156           79.9  39 
 RUS  HZ EP        515 54.52                             144    0.3910 97.8 176 
 RUS  HN ES        516 12.15                             144   -0.0710 97.8 176 
 RUS  HZ I         516 14.42         2.1 0.36            146           97.8 176 
 PTB  HZ EP   1    515 56.56                             131   -0.95 7  147 260 
 PTB  HN ES        516 17.90                             131   -0.33 9  147 260 
 PTB  HZ I         516 23.45         2.6 0.42            132            147 260 
 SPBC HN ES   1    516 20.33                             129   -0.41 7  161 219 
 SPBC HZ I         516 28.48         4.1 0.24            130            161 219 
 MON  HN ES   4    516 51.71                             108   -6.48 0  355 309 
 MON  HZ I         516 59.31         0.5 0.54            110            355 309 
 PRA  HZ EP   1    516 24.32                             106    0.30 4  389 210 
 PRA  HE ES   1    517  5.69                             106    0.27 4  389 210 
 PRA  HZ I         517 12.87         1.5 0.30            108            389 210 
                                                                                
