 2010  710 0100 24.1 L   6.798 -73.081145.1  RSN  4 0.2 1.5LRSN                1
 GAP=166        0.45       3.1     7.2  6.3 -0.1725E+01 -0.1551E+02 -0.1759E+01E
 Epicentro: LOS SANTOS - SANTANDER                                             3
 ACTION:UPD 10-12-01 15:16 OP:pat  STATUS:               ID:20100710010024 L   I
 2010-07-10-0056-17S.COL___120                                                 6
 STAT SP IPHASW D HRMM SECON CODA AMPLIT PERI AZIMU VELO AIN AR TRES W  DIS CAZ7
 BAR2 SZ EP   1    1 0 43.56                             170    -0.2 7   25 206 
 BAR2 SZ ES   2    1 0 58.79                             170    -0.2 5   25 206 
 BRR  HZ EP   1    1 0 45.38                             150    -0.2 7   78 296 
 BRR  HN ES   2    1 1  2.57                             150     0.2 5   78 296 
 BRR  HZ I         1 1  6.91         8.4 0.22                            78 296 
 RUS  HZ EP        1 0 47.79                             144     0.010  100 180 
 RUS  HN ES   2    1 1  6.53                             144     0.3 5  100 180 
 RUS  HZ I         1 1  7.26         3.4 0.80                           100 180 
 GRA  SZ IP     D  1 0 49.36                             137     0.210  124  14 
 GRA  SZ ES   2    1 1  8.51                             137    -0.2 5  124  14 
                                                                                
