 2010 1210 0804 24.6 L   6.811 -73.084143.3  RSN  7 0.4 1.6LRSN                1
 GAP=165        0.70       4.2    18.3  8.9 -0.4057E+02  0.4851E+02 -0.3542E+01E
 Epicentro: LOS SANTOS - SANTANDER                                             3
 ACTION:UP  11-01-14 15:23 OP:pat  STATUS:               ID:20101210080424 L   I
 2010-12-10-0802-27S.COL___134                                                 6
 STAT SP IPHASW D HRMM SECON CODA AMPLIT PERI AZIMU VELO SNR AR TRES W  DIS CAZ7
 BAR2 SZ EP   1    8 4 44.11                             169     0.1 7   27 204 
 BAR2 SZ ES   2    8 4 58.96                             169    -0.2 5   27 204 
 BAR2 SZ I         8 5  2.99         7.4 0.22                            27 204 
 GIR2 SZ EP   1    8 4 44.25                             167     0.3 7   32 338 
 RUS  HZ EP   1    8 4 48.69                             143     0.5 7  102 180 
 RUS  HN ES   2    8 5  5.84                             143    -0.7 5  102 180 
 RUS  HZ I         8 5  8.21         5.2 0.29                           102 180 
 GRA  SZ EP   1    8 4 48.99                             137    -0.4 7  123  15 
 GRA  SZ ES   1    8 5  8.75                             137     0.1 7  123  15 
 GRA  SZ I         8 5  9.87         7.7 0.16                           123  15 
 OCA  SZ EP   1    8 4 52.66                             129     0.0 7  160 351 
 OCA  SZ ES   2    8 5 14.58                             129     0.0 5  160 351 
 OCA  SZ I         8 5 23.29         5.9 0.50                           160 351 
 CHI  HZ EP   2    8 5  1.97                             116    -0.5 4  252 197 
 CHI  HN ES   2    8 5 32.58                             116     0.5 4  252 197 
 CHI  HZ I         8 5 35.72         2.3 0.43                           252 197 
 PRA  HZ EP   2    8 5 17.84                             106    -0.7 3  396 210 
                                                                                
