 2015  910 0630 31.4 L   6.795 -73.134150.0  RSN 10 0.4 1.9LRSN                1
 GAP=138        1.11       3.3     5.1  6.2 -0.4632E+01  0.7167E+01  0.1074E+01E
 Epicentro: LOS SANTOS - SANTANDER                                             3
 ACTION:UPD 15-10-28 16:25 OP:cam  STATUS:               ID:20150910063031 L   I
 OLDACT:REG 15-09-10 12:19 OP:drio STATUS:               ID:20150910062739     3
 2015-09-10-0627-39M.COL___353                                                 6
 STAT SP IPHASW D HRMM SECON CODA AMPLIT PERI AZIMU VELO AIN AR TRES W  DIS CAZ7
 BAR2 EZ EP        630 51.61                             171    0.1210 23.1 193 
 BAR2 EZ ES        631  7.06                             171   -0.1310 23.1 193 
 BAR2 EZ I         631  9.07        12.6 0.40            170           23.1 193 
 BRR  HZ EP        630 53.45                             153    0.4110 72.6 298 
 BRR  HE ES        631 11.03                             153    1.0810 72.6 298 
 BRR  HZ I         631 13.80         7.9 0.14            150           72.6 298 
 PAM  EZ EP        630 54.38                             152    0.3910 77.0  39 
 PAM  EE ES        631 11.21                             152   -0.4410 77.0  39 
 PAM  EZ I         631 13.81         9.5 0.52            155           77.0  39 
 RUS  HZ EP        630 55.37                             145   -0.1110100.0 177 
 RUS  HE ES        631 13.83                             145   -0.4610100.0 177 
 RUS  HZ I         631 15.73         5.0 0.18            147          100.0 177 
 PTB  HZ EP        630 58.54                             133   -0.24 9  149 259 
 PTB  HN ES        631 19.58                             133   -0.59 9  149 259 
 PTB  HZ I         631 25.49        11.3 0.18            132            149 259 
 OCA  HZ EP        631  0.18                             130    0.12 9  161 353 
 OCA  HN ES        631 22.52                             130    0.07 9  161 353 
 OCA  HZ I         631 27.38        18.8 0.36            131            161 353 
 SPBC HZ EP        631  0.53                             130    0.31 9  164 219 
 SPBC HE ES        631 22.97                             130    0.24 9  164 219 
 SPBC HZ I         631 26.57        11.6 0.22            131            164 219 
 NOR  HZ EP        631  7.39                             119   -0.02 8  235 235 
 NOR  HE ES        631 35.38                             119   -0.16 8  235 235 
 NOR  HZ I         631 41.32         4.1 0.38            120            235 235 
 SML  HE ES        631 36.13                             118   -1.04 8  245 335 
 SML  HZ I         631 41.21        11.7 0.24            119            245 335 
 PRA  HZ EP        631 25.09                             107    0.04 6  392 210 
 PRA  HN ES        632  6.95                             107    0.03 6  392 210 
 PRA  HZ I         632 13.42         1.9 0.52            108            392 210 
                                                                                
