 2017  510 0952 48.6 L   6.812 -73.159142.7  RSN  9 0.4 1.8LRSN                1
 GAP=110        1.08       4.0     4.1  7.9 -0.1217E+00 -0.9906E+00  0.1016E+02E
 Epicentro: LOS SANTOS - SANTANDER                                             3
 ACTION:UPD 17-06-16 13:34 OP:jn   STATUS:               ID:20170510095248 L   I
 OLDACT:UP  17-05-10 20:14 OP:osc  STATUS:               ID:20170510094728     3
 OLDACT:UP  17-05-10 20:13 OP:osc  STATUS:               ID:20170510094728     3
 OLDACT:UP  17-05-10 20:13 OP:osc  STATUS:               ID:20170510094728     3
 OLDACT:REG 17-05-10 13:46 OP:osc  STATUS:               ID:20170510094728     3
 2017-05-10-0948-00M.COL___353                                                 6
 STAT SP IPHASW D HRMM SECON CODA AMPLIT PERI AZIMU VELO AIN AR TRES W  DIS CAZ7
 BRR  HE ES        953 24.50                             153   -0.9410 69.3 298 
 PAM  EZ EP        953 10.76                             150    0.3010 77.3  41 
 PAM  EN ES        953 28.00                             150    0.4710 77.3  41 
 PAM  EZ I         953 32.59         3.9 0.44            152           77.3  41 
 RUS  HZ EP        953 11.87                             143   -0.2610  102 175 
 RUS  HN ES        953 30.94                             143    0.4410  102 175 
 RUS  HZ I         953 31.51         7.4 0.26            146            102 175 
 PTB  HZ EP   9    953 15.14                             132   -0.05 0  147 258 
 PTB  HN ES        953 35.86                             132   -0.04 9  147 258 
 PTB  HZ I         953 43.35        16.9 0.44            133            147 258 
 SPBC HZ EP        953 16.76                             128   -0.09 9  163 218 
 SPBC HN ES        953 39.34                             128    0.44 9  163 218 
 SPBC HZ I         953 41.23        21.8 0.10            131            163 218 
 YPLC HZ EP        953 18.06                             126   -0.27 9  179 151 
 YPLC HN ES        953 40.98                             126   -0.56 9  179 151 
 ZAR  HE ES        953 45.95                             122    0.31 9  202 292 
 NOR  HN ES        953 51.63                             118   -0.15 8  234 234 
 CHI  HE ES        953 55.91                             116    0.36 8  249 195 
 PTGC HE ES   4    954  3.43                             111   -3.32 0  310 158 
 CBOC HE ES   4    954 12.67                             109    1.01 0  333 252 
 SJC  HZ EP   4    953 42.23                             105   -1.59 0  407 327 
 SJC  HN ES   4    954 22.50                             105   -4.41 0  407 327 
                                                                                
