 2010  710 0738 56.7 L   6.803 -73.085142.1  RSN  8 0.3 1.8LRSN                1
 GAP=162        0.51       2.9     5.7  5.3 -0.5335E+01  0.3702E+01 -0.7984E+00E
 Epicentro: LOS SANTOS - SANTANDER                                             3
 ACTION:UPD 10-12-01 15:16 OP:pat  STATUS:               ID:20100710073856 L   I
 2010-07-10-0734-48S.COL___120                                                 6
 STAT SP IPHASW D HRMM SECON CODA AMPLIT PERI AZIMU VELO AIN AR TRES W  DIS CAZ7
 BAR2 SZ EP   1    739 15.83                             169    -0.1 7   26 205 
 BAR2 SZ ES   2    739 30.42                             169    -0.5 5   26 205 
 BRR  HZ EP   1    739 17.52                             150    -0.3 7   77 296 
 BRR  HN ES   2    739 34.79                             150     0.5 5   77 296 
 BRR  HZ I         739 38.67        17.2 0.25                            77 296 
 RUS  HZ EP   1    739 20.24                             143     0.2 7  101 180 
 RUS  HN ES   2    739 38.33                             143     0.0 5  101 180 
 RUS  HZ I         739 39.77         6.1 0.28                           101 180 
 BRI  SZ EP   1    739 20.24                             141     0.2 7  106  17 
 BRI  SZ ES   2    739 38.65                             141     0.4 5  106  17 
 GUE  SZ EP   1    739 20.76                             139    -0.2 7  115   9 
 GUE  SZ ES   2    739 39.81                             139     0.0 5  115   9 
 GRA  SZ EP   1    739 21.55                             137     0.1 7  124  15 
 GRA  SZ ES   2    739 40.81                             137     0.1 5  124  15 
 OCA  SZ EP   1    739 24.49                             129    -0.3 7  161 351 
 OCA  SZ ES   2    739 46.37                             129    -0.3 5  161 351 
 OCA  SZ I         739 53.47         8.6 0.32                           161 351 
 HEL  HZ EP   1    739 37.71                             113     0.3 6  279 256 
 HEL  HZ I         740 14.83         3.9 0.59                           279 256 
                                                                                
