 2012  410 0703 24.0 L   6.812 -73.123146.6  RSN  5 0.3 1.3LRSN                1
 GAP=139        0.62       4.4     4.2  5.9 -0.2981E+01  0.1575E+01 -0.1091E+00E
 Epicentro: LOS SANTOS - SANTANDER                                             3
 ACTION:UPD 12-07-05 11:52 OP:tino STATUS:               ID:20120410070324 L   I
 2012-04-10-0700-00M.COL___199                                                 6
 STAT SP IPHASW D HRMM SECON CODA AMPLIT PERI AZIMU VELO AIN AR TRES W  DIS CAZ7
 BAR2 SZ EP   1    7 3 43.83                             170     0.1 7   25 195 
 BAR2 SZ ES   1    7 3 59.41                             170     0.2 7   25 195 
 BAR2 SZ I         7 4  0.44         7.1 0.37                            25 195 
 BRR  HZ EP   1    7 3 45.55                             152     0.2 7   73 297 
 BRR  HN ES   1    7 4  1.83                             152    -0.2 7   73 297 
 BRR  HZ I         7 4  6.12         4.9 0.12                            73 297 
 PAM  SZ EP        7 3 46.34                             152     0.210   75  39 
 PAM  SN ES   1    7 4  3.18                             152    -0.3 7   75  39 
 RUS  HZ EP   1    7 3 48.06                             144     0.1 7  102 178 
 RUS  HE ES   1    7 4  6.37                             144    -0.2 7  102 178 
 RUS  HZ I         7 4  7.45         2.1 0.18                           102 178 
 PTB  HZ EP   1    7 3 50.70                             132    -0.6 7  150 259 
 PTB  HE ES   1    7 4 12.83                             132     0.3 7  150 259 
                                                                                
