 2016  410 0640 25.4 L   6.796 -73.155150.7  RSN 11 0.4 1.7LRSN                1
 GAP=135        0.85       3.3     3.4  5.5 -0.1473E+01  0.6100E+01  0.1861E+01E
 Epicentro: LOS SANTOS - SANTANDER                                             3
 ACTION:UPD 16-05-05 14:20 OP:rebc STATUS:               ID:20160410064025 L   I
 OLDACT:UP  16-04-10 17:28 OP:mh   STATUS:               ID:20160410063746     3
 OLDACT:REG 16-04-10 12:39 OP:mh   STATUS:               ID:20160410063746     3
 2016-04-10-0637-46M.COL___279                                                 6
 STAT SP IPHASW D HRMM SECON CODA AMPLIT PERI AZIMU VELO AIN AR TRES W  DIS CAZ7
 BAR2 EZ EP        640 45.64                             171    0.0310 22.8 188 
 BAR2 EZ ES        641  1.01                             171   -0.3710 22.8 188 
 BAR2 EZ I         641  2.49        19.9 0.45            170           22.8 188 
 PAM  EZ EP        640 48.46                             151    0.2710 78.4  40 
 PAM  EE ES        641  5.89                             151   -0.0910 78.4  40 
 PAM  EZ I         641  8.44         3.9 0.18            155           78.4  40 
 RUS  HZ EP        640 49.59                             145   -0.0210  100 175 
 RUS  HN ES        641  8.74                             145    0.2410  100 175 
 RUS  HZ I         641  9.27         4.4 0.24            146            100 175 
 PTB  HZ EP        640 52.49                             133   -0.18 9  147 259 
 PTB  HN ES        641 13.57                             133   -0.37 9  147 259 
 PTB  HZ I         641 16.40         5.3 0.44            133            147 259 
 OCA  HZ EP   4    640 44.22                             131   -9.90 0  161 354 
 OCA  HN ES   4    641 15.92                             131   -0.60 0  161 354 
 OCA  HZ I         641 19.11         8.9 0.20            132            161 354 
 SPBC HZ EP        640 54.56                             130    0.37 9  162 219 
 SPBC HN ES        641 16.95                             130    0.31 9  162 219 
 SPBC HZ I         641 23.74         9.1 0.26            131            162 219 
 ZAR  HZ EP   1    640 58.10                             124    0.02 6  203 292 
 ZAR  HN ES        641 24.17                             124    0.59 9  203 292 
 ZAR  HZ I         641 28.30         5.8 0.42            124            203 292 
 NOR  HZ EP        641  0.60                             120   -0.70 8  234 234 
 NOR  HN ES        641 29.88                             120    0.58 8  234 234 
 NOR  HZ I         641 33.59         3.3 0.36            120            234 234 
 CHI  HZ EP        641  3.13                             118   -0.17 8  248 195 
 CHI  HN ES        641 32.77                             118   -0.10 8  248 195 
 CHI  HZ I         641 39.33         2.1 0.18            119            248 195 
 HEL  HN ES        641 36.63                             116   -0.58 8  271 256 
 HEL  HZ I         641 45.05         2.4 0.28            116            271 256 
 GUY2CHZ EP   4    641 11.06                             113    1.95 0  300 235 
 GUY2CHN ES   4    641 45.94                             113    2.73 0  300 235 
 GUY2CHZ I         641 57.13         2.0 0.58                           300 235 
                                                                                
