 2012  710 0721  1.3 L   6.827 -73.174126.0  RSN  8 0.4 1.7LRSN                1
 GAP=132        1.09       4.9     5.0  9.6 -0.4943E+01  0.2329E+02 -0.7240E+01E
 Epicentro: LOS SANTOS - SANTANDER                                             3
 ACTION:UPD 12-08-14 11:43 OP:ep   STATUS:               ID:20120710072101 L   I
 2012-07-10-0720-00M.COL___201                                                 6
 STAT SP IPHASW D HRMM SECON CODA AMPLIT PERI AZIMU VELO AIN AR TRES W  DIS CAZ7
 BAR2 SZ EP   1    721 18.51                             168    -0.1 7   26 182 
 BAR2 SZ ES   1    721 31.67                             168    -0.5 7   26 182 
 BAR2 SZ I         721 35.64         5.4 0.17            170             26 182 
 BRR  HZ EP   1    721 20.66                             150     0.6 7   67 298 
 BRR  HZ I         721 41.59        27.2 0.13            147             67 298 
 PAM  SZ EP   1    721 21.48                             147     0.0 7   77  43 
 PAM  SZ I         721 22.09        13.1 0.19            148             77  43 
 PAM  SE ES        721 37.77                             147     0.610   77  43 
 RUS  HZ EP   1    721 23.50                             138     0.1 7  104 174 
 RUS  HN ES   1    721 40.45                             138    -0.2 7  104 174 
 RUS  HZ I         721 42.94         2.8 0.16            140            104 174 
 PTB  HZ EP   1    721 25.73                             128    -0.8 7  145 257 
 PTB  HN ES        721 46.30                             128     0.1 9  145 257 
 PTB  HZ I         721 48.62         4.4 0.14            127            145 257 
 OCA  HZ EP   1    721 27.41                             125    -0.4 7  157 354 
 OCA  HN ES   1    721 47.68                             125    -0.9 7  157 354 
 OCA  HZ I         721 52.97        15.0 0.19            125            157 354 
 ZAR  HZ EP   1    721 32.22                             118     0.1 6  200 292 
 ZAR  HN ES        721 56.24                             118     0.1 9  200 292 
 ZAR  HZ I         722  1.49         5.5 0.29            117            200 292 
 HEL  HZ EP   1    721 40.83                             111     0.5 6  270 255 
 HEL  HE ES   1    722 11.09                             111     0.3 6  270 255 
 HEL  HZ I         722 17.27         3.1 0.24            111            270 255 
