 2011  810 0324  4.4 L   6.789 -73.129142.7  RSN  7 0.4 1.8LRSN                1
 GAP=184        0.63       3.5     5.9  5.3 -0.7927E+00  0.6691E+01  0.2014E+01E
 Epicentro: LOS SANTOS - SANTANDER                                             3
 ACTION:UPD 12-07-13 15:51 OP:ep   STATUS:               ID:20110810032404 L   I
 2011-08-10-0320-18S.COL___150                                                 6
 STAT SP IPHASW D HRMM SECON CODA AMPLIT PERI AZIMU VELO AIN AR TRES W  DIS CAZ7
 BAR2 SZ EP   1    324 23.66                             171    0.00 7 22.5 195 
 BAR2 SZ ES   1    324 37.99                             171   -0.68 7 22.5 195 
 BAR2 SZ I         324 40.04        21.8 0.20                          22.5 195 
 BRR  HZ EP        324 25.54                             151    0.1810 73.4 299 
 BRR  HE ES   1    324 41.92                             151    0.23 7 73.4 299 
 BRR  HZ I         324 43.83        29.7 0.14                          73.4 299 
 RUS  HZ EP   1    324 27.67                             143   -0.10 7 99.3 177 
 RUS  HN ES   1    324 46.44                             143    0.46 7 99.3 177 
 RUS  HZ I         324 48.16         3.6 0.28                          99.3 177 
 OCA  SZ EP   1    324 32.51                             129   -0.11 7  162 353 
 OCA  SZ I         324 55.25         9.7 0.40                           162 353 
 NOR  SZ EP   1    324 40.25                             118    0.20 6  235 235 
 NOR  SN ES   1    325  7.63                             118   -0.22 6  235 235 
 CHI  HZ EP   2    324 42.23                             116    0.36 4  248 196 
 CHI  HN ES   2    325 11.45                             116    0.37 4  248 196 
 CHI  HZ I         325 18.07         3.0 0.53                           248 196 
 PRA  HZ EP   1    324 56.98                             106   -0.83 4  392 210 
 PRA  HN ES   1    325 39.31                             106   -0.15 4  392 210 
                                                                                
