 2013  410 0333 27.5 L   7.233 -73.086156.6  RSN  7 0.5 2.0LRSN                1
 GAP=129        1.25       6.4     6.8  8.3 -0.1946E+02 -0.5060E+01  0.9746E+01E
 Epicentro: RIONEGRO - SANTANDER                                               3
 ACTION:UPD 13-05-22 14:37 OP:EP   STATUS:               ID:20130410033327 L   I
 2013-04-10-0328-35M.COL___215                                                 6
 STAT SP IPHASW D HRMM SECON CODA AMPLIT PERI AZIMU VELO AIN AR TRES W  DIS CAZ7
 GIR2 SZ EP        333 48.25                             172    0.0110 20.8 215 
 GIR2 SZ ES        334  4.71                             172    0.2910 20.8 215 
 BRR  HZ EP        333 50.00                             154    0.2110 70.6 259 
 BRR  HN ES        334  8.19                             154    1.0110 70.6 259 
 BRR  HN I         334  8.75        16.8 0.38            154           70.6 259 
 BAR2 SZ EP        333 49.99                             154   -0.2010 71.7 189 
 BAR2 SZ ES        334  7.16                             154   -0.7510 71.7 189 
 BAR2 SZ I         334  8.72        14.2 0.14            154           71.7 189 
 CAPV BZ EP        333 53.10                             143    0.4810  110  51 
 CAPV BZ ES        334 12.07                             143   -0.1510  110  51 
 OCA  HN ES        334 11.96                             142   -0.6110  114 347 
 RUS  HZ EP        333 56.32                             135    0.26 9  148 180 
 PTB  HZ EP        333 57.00                             130   -0.35 9  170 243 
 PTB  HN ES        334 20.35                             130   -0.30 9  170 243 
                                                                                
