 2016  110 0945 55.6 L   6.794 -73.166146.7  RSN  7 0.5 1.5LRSN                1
 GAP=134        1.20       4.3     5.8  7.5 -0.3169E+01  0.8910E+01 -0.4268E+01E
 Epicentro: LOS SANTOS - SANTANDER                                             3
 ACTION:UPD 16-03-09 23:24 OP:cam  STATUS:               ID:20160110094555 L   I
 OLDACT:REG 16-01-10 12:42 OP:drio STATUS:               ID:20160110093751     3
 2016-01-10-0937-51M.COL___229                                                 6
 STAT SP IPHASW D HRMM SECON CODA AMPLIT PERI AZIMU VELO AIN AR TRES W  DIS CAZ7
 BAR2 EZ EP        946 15.17                             171   -0.1510 22.4 185 
 BAR2 EZ ES        946 30.29                             171   -0.4210 22.4 185 
 BAR2 EZ I         946 31.74         7.7 0.20            171           22.4 185 
 BRR  HZ EP        946 17.37                             153    0.6110 69.5 300 
 BRR  HE ES        946 34.11                             153    0.8510 69.5 300 
 PAM  EZ EP        946 18.28                             150    0.2510 79.4  40 
 PAM  EE ES        946 35.41                             150   -0.1210 79.4  40 
 PAM  EZ I         946 37.36         4.0 0.48            153           79.4  40 
 RUS  HZ EP        946 19.65                             144    0.2410  100 175 
 RUS  HE ES        946 37.69                             144   -0.2910  100 175 
 RUS  HZ I         946 39.04         3.2 0.20            147            100 175 
 PTB  HZ EP        946 22.93                             133    0.50 9  145 259 
 PTB  HN ES        946 42.99                             133   -0.37 9  145 259 
 PTB  HZ I         946 50.23         3.1 0.56            132            145 259 
 SPBC HZ EP        946 24.22                             129    0.24 9  161 219 
 SPBC HE ES        946 45.68                             129   -0.44 9  161 219 
 SPBC HZ I         946 48.96         6.2 0.18            130            161 219 
 SML  HZ EP        946 31.38                             118   -0.86 8  243 336 
 SML  HE ES        947  0.23                             118   -0.59 8  243 336 
 SML  HZ I         947  7.05         3.4 0.10            118            243 336 
                                                                                
