 2016 1110 0742  6.9 L   6.887 -73.167146.9  RSN  7 0.4 1.5LRSN                1
 GAP=137        0.93       5.5     4.3  6.5 -0.2598E+01  0.3982E+01  0.1563E+02E
 Epicentro: BETULIA - SANTANDER                                                3
 ACTION:UPD 17-10-26 21:06 OP:lp   STATUS:               ID:20161110074206 L   I
 OLDACT:REG 16-11-10 12:21 OP:lv   STATUS:               ID:20161110073745     3
 2016-11-10-0738-00M.COL___340                                                 6
 STAT SP IPHASW D HRMM SECON CODA AMPLIT PERI AZIMU VELO AIN AR TRES W  DIS CAZ7
 BAR2 EZ EP        742 26.83                             167   -0.1010 32.6 183 
 BAR2 EZ ES        742 42.53                             167    0.0110 32.6 183 
 BAR2 EZ I         742 43.27         3.5 0.09            165           32.6 183 
 BRR  HZ EP        742 28.06                             155    0.1810 65.0 292 
 BRR  HE ES        742 44.91                             155    0.7010 65.0 292 
 PAM  EZ EP        742 29.07                             153    0.1110 71.9  46 
 PAM  EE ES        742 45.73                             153   -0.4110 71.9  46 
 PAM  EZ I         742 47.86        10.0 0.26            157           71.9  46 
 PTB  HZ EP        742 33.45                             132   -0.54 9  148 255 
 PTB  HN ES        742 54.55                             132   -0.54 9  148 255 
 PTB  HZ I         743  0.08         3.1 0.14            131            148 255 
 ZAR  HZ EP   4    742 40.92                             123    2.03 0  198 290 
 ZAR  HE ES        743  3.87                             123    0.07 9  198 290 
 ZAR  HZ I         743  9.34         7.0 0.38            123            198 290 
 CHI  HZ EP        742 46.14                             116    0.49 8  257 194 
 CHI  HN ES   4    743 17.89                             116    2.05 0  257 194 
 CHI  HZ I         743 19.42         1.2 0.30            116            257 194 
 PRA  HZ EP        743  1.68                             106    0.33 6  399 209 
 PRA  HE ES        743 43.73                             106   -0.05 6  399 209 
 PRA  HZ I         743 49.79         1.6 0.26            106            399 209 
                                                                                
