 2014 1010 0801 43.3 L   7.219 -74.210 16.8  RSN  5 0.3 1.0LRSN                1
 GAP=152        0.72       2.3     1.7  3.6  0.7224E+00 -0.2422E+01 -0.6385E-01E
 Epicentro: PUERTO WILCHES - SANTANDER                                         3
 ACTION:UPD 14-11-29 23:48 OP:nd   STATUS:               ID:20141010080143 L   I
 OLDACT:REG 14-10-10 13:08 OP:fm   STATUS:               ID:20141010075740     3
 2014-10-10-0757-40M.COL___284                                                 6
 STAT SP IPHASW D HRMM SECON CODA AMPLIT PERI AZIMU VELO AIN AR TRES W  DIS CAZ7
 BRR  HZ EP     D  8 1 52.59                             103   -0.0410 56.3 103 
 BRR  HN ES        8 1 59.89                             103   -0.0410 56.3 103 
 BRR  HZ I         8 2  0.82        10.3 0.22            100           56.3 103 
 ZAR  HZ EP        8 1 55.97                             100    0.1610 77.7 293 
 ZAR  HN ES        8 2  5.35                             100   -0.2410 77.7 293 
 ZAR  HZ I         8 2  6.52         8.6 0.10             98           77.7 293 
 PTB  HZ EP        8 1 56.51                              99    0.3610 79.9 200 
 PTB  HN ES        8 2  5.85                              99   -0.3610 79.9 200 
 PTB  HZ I         8 2  9.86         2.3 0.20             97           79.9 200 
 PAM  SZ EP        8 2  9.27                              56    0.35 9  167  85 
 PAM  SN ES   1    8 2 28.26                              56   -0.67 7  167  85 
 PAM  SZ I         8 2 30.75         2.7 0.70             56            167  85 
 RUS  HZ EP   1    8 2 12.28                              56    0.21 7  192 140 
 RUS  HN ES        8 2 34.66                              56    0.12 9  192 140 
 RUS  HZ I         8 2 37.37         1.5 0.52             56            192 140 
                                                                                
