 2015 1010 0424 59.5 L   6.798 -73.118146.6  RSN  6 0.1 1.3LRSN                1
 GAP=140        0.42       1.9     2.1  3.1 -0.1043E+00  0.1552E+01  0.6629E+00E
 Epicentro: LOS SANTOS - SANTANDER                                             3
 ACTION:UPD 15-12-22 20:38 OP:cam  STATUS:               ID:20151010042459 L   I
 OLDACT:DUP 15-10-10 14:42 OP:spq  STATUS:               ID:20151010041741d    3
 2015-10-10-0417-40M.COL___337                                                 6
 STAT SP IPHASW D HRMM SECON CODA AMPLIT PERI AZIMU VELO AIN AR TRES W  DIS CAZ7
 BAR2 EZ EP        425 19.02                             170   -0.2510 23.8 197 
 BAR2 EZ ES   1    425 34.51                             170   -0.15 7 23.8 197 
 BAR2 EZ I         425 36.07         3.3 0.18            169           23.8 197 
 BRR  HZ EP     C  425 20.81                             152   -0.1210 74.0 298 
 BRR  HN ES        425 37.82                             152    0.2110 74.0 298 
 BRR  HZ I         425 38.58         3.6 0.30            151           74.0 298 
 PAM  EZ EP        425 21.98                             152    0.2510 75.6  38 
 PAM  EN ES        425 38.99                             152   -0.0510 75.6  38 
 PAM  EZ I         425 41.29         4.0 0.48            155           75.6  38 
 RUS  HZ EP        425 23.41                             144    0.0810  100 178 
 RUS  HE ES   1    425 41.85                             144   -0.05 7  100 178 
 RUS  HZ I         425 43.04         1.7 0.28            145            100 178 
 SPBC HZ EP        425 28.27                             129    0.01 9  165 220 
 SPBC HE ES        425 50.79                             129    0.12 9  165 220 
 SPBC HZ I         425 56.24         3.1 0.26            129            165 220 
 ZAR  HZ EP        425 32.29                             122   -0.04 8  207 292 
 ZAR  HN ES        425 57.80                             122   -0.11 8  207 292 
 ZAR  HZ I         426  2.83         3.0 0.44            123            207 292 
                                                                                
