 2017  410 0704 40.1 L   6.782 -73.093143.0  RSN  9 0.4 1.5LRSN                1
 GAP=144        0.91       3.7     4.3  5.3 -0.9943E+00  0.1324E+01  0.4409E+01E
 Epicentro: LOS SANTOS - SANTANDER                                             3
 ACTION:UPD 17-05-30 21:10 OP:jn   STATUS:               ID:20170410070440 L   I
 OLDACT:UP  17-04-10 18:37 OP:edw  STATUS:               ID:20170410065741     3
 OLDACT:UP  17-04-10 18:36 OP:edw  STATUS:               ID:20170410065741     3
 OLDACT:REG 17-04-10 13:17 OP:edw  STATUS:               ID:20170410065741     3
 2017-04-10-0658-00M.COL___368                                                 6
 STAT SP IPHASW D HRMM SECON CODA AMPLIT PERI AZIMU VELO AIN AR TRES W  DIS CAZ7
 BAR2 EZ EP        7 4 59.11                             170   -0.2710 23.2 205 
 BAR2 EZ ES        7 5 13.86                             170   -0.5710 23.2 205 
 BAR2 EZ I         7 5 15.77         8.5 0.16            167           23.2 205 
 PAM  EZ EP     D  7 5  2.06                             151    0.1710 75.4  35 
 PAM  EN ES        7 5 19.28                             151    0.3910 75.4  35 
 PAM  EZ I         7 5 21.28         5.1 0.52            154           75.4  35 
 BRR  HZ EP        7 5  0.91                             150   -0.3810 77.3 298 
 BRR  HN ES        7 5 18.05                             150    0.2210 77.3 298 
 BRR  HZ I         7 5 21.98         4.9 0.32            147           77.3 298 
 RUS  HZ EP        7 5  3.08                             144   -0.3210 98.4 179 
 RUS  HN ES        7 5 21.91                             144    0.3210 98.4 179 
 RUS  HZ I         7 5 23.41         3.0 0.44            145           98.4 179 
 PTB  HZ EP   9    7 5  5.66                             130   -1.66 0  153 260 
 PTB  HN ES        7 5 27.11                             131    0.21 9  153 260 
 PTB  HZ I         7 5 33.17         2.7 0.28            129            153 260 
 SPBC HZ EP        7 5  8.21                             128   -0.38 9  165 221 
 SPBC HN ES        7 5 31.27                             128    0.46 9  165 221 
 SPBC HZ I         7 5 34.94         6.8 0.22            128            165 221 
 ZAR  HZ EP   3    7 5 14.54                             121    1.55 2  210 292 
 ZAR  HN ES        7 5 38.58                             121   -0.07 8  210 292 
 ZAR  HZ I         7 5 43.89         2.8 0.40            121            210 292 
 CHI  HZ EP        7 5 18.22                             117    0.62 8  248 197 
 PRA  HZ EP        7 5 33.59                             106   -0.06 6  393 210 
 PRA  HE ES   4    7 6 13.24                             106   -2.19 0  393 210 
 PRA  HZ I         7 6 21.93         1.5 0.36            107            393 210 
                                                                                
