 2016  910 0858  7.7 L   6.792 -73.112145.2  RSN  6 0.4 1.4LRSN                1
 GAP=262        0.75       5.4     5.8  6.5 -0.3406E+01  0.2790E+01  0.8017E+01E
 Epicentro: LOS SANTOS - SANTANDER                                             3
 ACTION:UPD 17-08-17 21:08 OP:lp   STATUS:               ID:20160910085807 L   I
 OLDACT:DUP 16-09-10 14:57 OP:dnl  STATUS:               ID:20160910085743d    3
 OLDACT:DUP 16-09-10 14:51 OP:dnl  STATUS:               ID:20160910085742d    3
 2016-09-10-0858-00M.COL___324                                                 6
 STAT SP IPHASW D HRMM SECON CODA AMPLIT PERI AZIMU VELO AIN AR TRES W  DIS CAZ7
 BAR2 EZ EP        858 27.05                             171   -0.2410 23.4 199 
 BAR2 EZ ES        858 42.22                             171   -0.3310 23.4 199 
 BAR2 EZ I         858 43.88         4.6 0.12            164           23.4 199 
 BRR  HZ EP        858 29.35                             150    0.3310 74.8 298 
 BRR  HE ES        858 46.19                             150    0.5610 74.8 298 
 BRR  HZ I         858 51.27         4.7 0.18            146           74.8 298 
 PTB  HZ EP   2    858 34.50                             131   -0.46 5  151 259 
 PTB  HE ES        858 55.80                             131   -0.40 9  151 259 
 PTB  HZ I         859  1.64         2.4 0.38            129            151 259 
 SPBC HZ EP        858 36.48                             129    0.14 9  165 220 
 SPBC HE ES        858 58.68                             129    0.02 9  165 220 
 SPBC HZ I         859  5.46         4.1 0.24            128            165 220 
 ZAR  HZ EP   3    858 40.22                             121   -0.30 2  208 292 
 ZAR  HN ES   3    859  4.93                             121   -1.17 2  208 292 
 ZAR  HZ I         859 11.11         2.1 0.52            121            208 292 
 GUY2CHZ EP   3    858 52.71                             112    1.12 2  304 235 
 GUY2CHN ES   3    859 26.26                             112    0.45 2  304 235 
 GUY2CHZ I         859 32.79         1.0 0.60                           304 235 
                                                                                
