 2017 1110 0332  5.3 L   6.757 -73.131145.4  RSN  6 0.5 1.4LRSN                1
 GAP=236        1.16       6.2     6.9  7.9  0.1742E+02  0.9286E+01 -0.1718E+01E
 Epicentro: LOS SANTOS - SANTANDER                                             3
 ACTION:UPD 17-12-12 19:53 OP:rebc STATUS:               ID:20171110033205 L   I
 OLDACT:REG 17-11-10 14:23 OP:dnl  STATUS:               ID:20171110032043     3
 2017-11-10-0328-00M.COL___465                                                 6
 STAT SP IPHASW D HRMM SECON CODA AMPLIT PERI AZIMU VELO AIN AR TRES W  DIS CAZ7
 BAR2 EZ EP        332 24.61                             172   -0.1610 19.1 197 
 BAR2 EZ ES        332 39.57                             172   -0.4110 19.1 197 
 BRR  HZ EP        332 26.67                             151    0.0910 74.9 301 
 BRR  HN ES        332 43.58                             151    0.3710 74.9 301 
 RUS  HZ EP        332 28.60                             145   -0.0310 95.8 177 
 RUS  HN ES        332 47.21                             145    0.3510 95.8 177 
 RUS  HZ I         332 47.96         3.0 0.22            144           95.8 177 
 PTB  HZ EP        332 31.74                             132   -0.52 9  149 261 
 PTB  HN ES        332 52.45                             132   -0.87 9  149 261 
 PTB  HZ I         332 54.65         3.4 0.16            131            149 261 
 SPBC HZ EP        332 33.16                             129   -0.32 9  161 220 
 SPBC HN ES        332 56.21                             129    0.71 9  161 220 
 SPBC HZ I         332 58.04         3.5 0.36            128            161 220 
 ZAR  HN EP        332 38.63                             122    0.61 8  207 293 
 ZAR  HE ES        333  3.91                             122    0.34 8  207 293 
                                                                                
