 2013 1110 0618 57.0 L   6.789 -73.158153.7  RSN  5 0.6 1.4LRSN                1
 GAP=137        1.42       7.1     9.2 14.2  0.1800E+02 -0.4417E+02 -0.3543E+02E
 Epicentro: LOS SANTOS - SANTANDER                                             3
 ACTION:UPD 14-01-09 16:26 OP:ep   STATUS:               ID:20131110061857 L   I
 OLDACT:REG 13-11-10 09:16 OP:stll STATUS:               ID:20131110061844     3
 2013-11-10-0618-44M.COL___213                                                 6
 STAT SP IPHASW D HRMM SECON CODA AMPLIT PERI AZIMU VELO AIN AR TRES W  DIS CAZ7
 BRR  HZ EP        619 19.22                             154    0.2710 70.6 300 
 BRR  HN ES        619 36.86                             154    0.7710 70.6 300 
 BRR  HZ I         619 39.64         4.4 0.36            152           70.6 300 
 RUS  HZ EP        619 21.61                             146    0.1810 99.5 175 
 RUS  HN ES        619 39.77                             146   -0.7410 99.5 175 
 RUS  HZ I         619 42.03         1.5 0.18            147           99.5 175 
 PTB  HZ EP        619 24.61                             134    0.15 9  146 259 
 PTB  HN ES        619 45.73                             134   -0.17 9  146 259 
 PTB  HZ I         619 53.14         2.9 0.42            133            146 259 
 CAPV BZ EP        619 25.56                             133    0.38 9  151  38 
 SML  HN ES        620  1.85                             119   -1.23 8  244 336 
 SML  HZ I         620  4.81         3.7 0.10            120            244 336 
                                                                                
