 2016  710 0217  8.4 L   6.794 -73.142148.3  RSN 16 0.5 2.1LRSN                1
 GAP=120        1.14       4.2     3.9  6.2 -0.9505E+00  0.5060E+01  0.6958E+01E
 Epicentro: LOS SANTOS - SANTANDER                                             3
 ACTION:UPD 17-03-29 16:48 OP:lp   STATUS:               ID:20160710021708 L   I
 OLDACT:UP  16-07-10 14:10 OP:dani STATUS:               ID:20160710020741     3
 OLDACT:UP  16-07-10 14:09 OP:dani STATUS:               ID:20160710020741     3
 OLDACT:UP  16-07-10 14:09 OP:dani STATUS:               ID:20160710020741     3
 OLDACT:UP  16-07-10 14:05 OP:dani STATUS:               ID:20160710020741     3
 OLDACT:UP  16-07-10 14:05 OP:dani STATUS:               ID:20160710020741     3
 OLDACT:REG 16-07-10 12:09 OP:dani STATUS:               ID:20160710020741     3
 2016-07-10-0207-41M.COL___326                                                 6
 STAT SP IPHASW D HRMM SECON CODA AMPLIT PERI AZIMU VELO AIN AR TRES W  DIS CAZ7
 BAR2 EZ EP        217 28.38                             171    0.0610 22.7 191 
 BAR2 EZ ES        217 43.46                             171   -0.4010 22.7 191 
 BAR2 EZ I         217 46.14        31.2 0.28            166           22.7 191 
 BRR  HZ EP        217 30.08                             153    0.2310 71.9 299 
 BRR  HE ES        217 47.44                             153    0.8410 71.9 299 
 PAM  EZ EP        217 31.26                             151    0.3610 77.7  39 
 PAM  EN ES        217 48.27                             151   -0.1810 77.7  39 
 PAM  EZ I         217 50.50        26.9 0.50            156           77.7  39 
 RUS  HZ EP        217 32.61                             144    0.2710 99.9 176 
 RUS  HE ES        217 51.26                             144    0.2310 99.9 176 
 RUS  HZ I         217 52.24        20.0 0.32            142           99.9 176 
 PTB  HZ EP        217 34.89                             133   -0.70 9  148 259 
 PTB  HN ES        217 56.04                             133   -0.77 9  148 259 
 PTB  HZ I         218  1.24        11.2 0.10            131            148 259 
 SPBC HZ EP        217 37.26                             130    0.20 9  163 219 
 SPBC HN ES        217 59.06                             130   -0.36 9  163 219 
 SPBC HZ I         218  1.03        19.4 0.28            128            163 219 
 ZAR  HZ EP        217 40.62                             123   -0.45 9  205 292 
 ZAR  HN ES        218  6.12                             123   -0.43 9  205 292 
 ZAR  HZ I         218 11.55         8.3 0.26            123            205 292 
 NOR  HN ES        218 12.03                             119   -0.21 8  235 235 
 CHI  HZ EP        217 46.63                             118    0.46 8  248 195 
 CHI  HE ES   4    218 15.35                             118   -0.29 0  248 195 
 CHI  HZ I         218 25.74         6.1 0.44            117            248 195 
 ROSC BZ EP   4    217 48.91                             117    2.30 0  252 211 
 ROSC BN ES   4    218 19.85                             117    3.43 0  252 211 
 ROSC BZ I         218 23.02         8.6 0.45            116            252 211 
 HEL  HE ES        218 21.08                             115    0.84 8  272 256 
 HEL  HZ I         218 27.16         5.6 0.36            115            272 256 
 GUY2CHZ EP   4    217 53.61                             113    1.50 0  301 235 
 GUY2CHN ES   4    218 30.49                             113    4.28 0  301 235 
 GUY2CHZ I         218 33.57         6.1 0.42                           301 235 
 PTGC HZ EP        217 51.48                             112   -0.79 7  308 159 
 PTGC HN ES   4    218 25.03                             112   -1.47 0  308 159 
 PTGC HZ I         218 32.58        10.7 0.34            112            308 159 
 CBOC HZ EP   4    217 51.58                             110   -3.85 0  334 252 
 CBOC HN ES        218 32.69                             110    0.57 7  334 252 
 CBOC HZ I         218 45.94         1.9 0.22            110            334 252 
 PRA  HZ EP        218  2.05                             107    0.10 6  392 210 
 PRA  HN ES        218 44.06                             107    0.33 6  392 210 
 PRA  HZ I         218 48.42         3.9 0.26            107            392 210 
 SJC  HZ EP   4    218  2.36                             106   -1.77 0  410 327 
 SJC  HE ES   4    218 42.95                             106   -4.65 0  410 327 
 SJC  HZ I         218 46.35         3.9 0.84            107            410 327 
 CRJC HN ES   4    218 56.14                             104   -3.76 0  468   3 
                                                                                
