 2016  910 0130 15.9 L   6.741 -73.098140.5  RSN  5 0.3 1.6LRSN                1
 GAP=145        0.68       3.4     3.3  5.5 -0.2721E+01  0.3641E+01  0.3919E+01E
 Epicentro: JORDAN - SANTANDER                                                 3
 ACTION:UPD 17-08-17 21:08 OP:lp   STATUS:               ID:20160910013015 L   I
 OLDACT:REG 16-09-10 12:42 OP:cara STATUS:               ID:20160910012735     3
 2016-09-10-0128-00M.COL___342                                                 6
 STAT SP IPHASW D HRMM SECON CODA AMPLIT PERI AZIMU VELO AIN AR TRES W  DIS CAZ7
 BRR  HZ EP        130 37.15                             149    0.2010 79.0 301 
 BRR  HN ES        130 53.49                             149    0.1110 79.0 301 
 BRR  HZ I         130 57.95         8.3 0.38            150           79.0 301 
 PAM  EZ IP        130 37.75                             149    0.0610 79.5  34 
 PAM  EE ES        130 54.52                             149   -0.1610 79.5  34 
 PAM  EZ I         130 55.44         7.4 0.24            154           79.5  34 
 RUS  HZ EP        130 39.06                             145    0.4110 93.9 179 
 RUS  HE ES        130 56.19                             145   -0.2110 93.9 179 
 RUS  HZ I         130 59.09         2.1 0.34            146           93.9 179 
 PTB  HZ EP        130 42.25                             130   -0.57 9  152 262 
 PTB  HE ES        131  3.92                             130    0.10 9  152 262 
 PTB  HZ I         131  5.12         5.7 0.32            131            152 262 
 NOR  HZ EP        130 51.31                             117   -0.09 8  235 236 
 NOR  HE ES        131 19.17                             117    0.08 8  235 236 
 NOR  HZ I         131 26.55         4.8 0.14            119            235 236 
                                                                                
