 2017  310 0441  8.3 L   6.765 -73.141146.2  RSN  6 0.4 1.3LRSN                1
 GAP=139        1.14       5.4     5.7  8.3 -0.7637E+01  0.5726E+01  0.1371E+01E
 Epicentro: LOS SANTOS - SANTANDER                                             3
 ACTION:UPD 17-05-25 18:38 OP:jn   STATUS:               ID:20170310044108 L   I
 OLDACT:REG 17-03-10 12:22 OP:ar   STATUS:               ID:20170310043739     3
 2017-03-10-0438-00M.COL___403                                                 6
 STAT SP IPHASW D HRMM SECON CODA AMPLIT PERI AZIMU VELO AIN AR TRES W  DIS CAZ7
 BAR2 EZ EP        441 27.81                             172   -0.0910 19.7 193 
 BAR2 EZ ES        441 42.98                             172   -0.2110 19.7 193 
 BAR2 EZ I         441 44.24         4.4 0.18            170           19.7 193 
 BRR  HZ EP        441 29.59                             152   -0.0210 73.5 301 
 BRR  HE ES        441 47.05                             152    0.8110 73.5 301 
 PAM  EZ EP        441 30.85                             150    0.1410 80.1  38 
 PAM  EN ES        441 47.95                             150   -0.2410 80.1  38 
 RUS  HZ EP        441 32.25                             145    0.4510 96.7 176 
 RUS  HN ES        441 49.81                             145   -0.3410 96.7 176 
 RUS  HZ I         441 51.11         1.8 0.22            145           96.7 176 
 PTB  HZ EP        441 34.83                             132   -0.44 9  148 260 
 PTB  HN ES        441 55.61                             132   -0.70 9  148 260 
 PTB  HZ I         441 57.66         2.3 0.18            132            148 260 
 SPBC HE ES        441 59.22                             130    0.60 9  161 220 
 SPBC HZ I         442  1.36         3.1 0.12            129            161 220 
                                                                                
