 2012  110 0526 39.7 L   6.379 -73.562107.3  RSN 10 0.4 1.7LRSN                1
 GAP= 75        0.90       3.6     4.3  7.4 -0.3255E+00  0.6198E+01  0.3047E+00E
 Epicentro: SANTA HELENA DEL OPON - SANTANDER                                  3
 ACTION:UP  12-02-03 08:16 OP:REBC STATUS:               ID:20120110052639 L   I
 2012-01-10-0520-00M.COL___186                                                 6
 STAT SP IPHASW D HRMM SECON CODA AMPLIT PERI AZIMU VELO SNR AR TRES W  DIS CAZ7
 BAR2 SZ EP        526 55.88                             154     0.210   48  61 
 BAR2 SZ ES   1    527  8.09                             154    -0.1 7   48  61 
 BAR2 SZ I         527 10.25        70.3 0.42                            48  61 
 RUS  HZ EP        526 57.58                             143    -0.210   75 135 
 RUS  HE ES   1    527 12.09                             143     0.1 7   75 135 
 RUS  HZ I         527 16.02         5.0 0.30                            75 135 
 BRR  HZ EP   1    526 57.74                             139     0.1 7   82 348 
 BRR  HZ I         527 10.39        11.8 0.11                            82 348 
 BRR  HN ES   1    527 12.34                             139     0.7 7   82 348 
 GIR2 SZ EP        526 58.37                             138     0.110   87  28 
 PTB  HZ EP   1    526 58.73                             133    -0.5 7  101 280 
 PTB  HN ES   1    527 14.03                             133    -0.4 7  101 280 
 PAM  SZ EP   1    527  3.36                             123    -0.5 7  143  42 
 PAM  SN ES   1    527 22.28                             123    -0.5 7  143  42 
 NOR  SZ EP   2    527  6.06                             117    -0.2 4  171 238 
 ZAR  HZ EP   1    527  8.35                             114     0.1 7  189 311 
 ZAR  HZ I         527 36.29         6.9 0.24                           189 311 
 CHI  HZ EP   2    527  9.46                             114     0.1 4  194 186 
 CHI  HN ES   1    527 33.02                             114     0.5 6  194 186 
 CHI  HZ I         527 37.38         2.5 0.63                           194 186 
 OCA  SZ EP   1    527 11.29                             112     0.8 6  207   7 
 OCA  SZ I         527 42.63        10.0 0.24                           207   7 
                                                                                
