 2017  410 0328 59.9 L   6.773 -73.131148.1  RSN  6 0.5 1.2LRSN                1
 GAP=140        1.34       6.8     6.1  9.8  0.3551E+01  0.1130E+02  0.8096E+00E
 Epicentro: LOS SANTOS - SANTANDER                                             3
 ACTION:UPD 17-05-30 21:10 OP:jn   STATUS:               ID:20170410032859 L   I
 OLDACT:UP  17-04-10 16:21 OP:edw  STATUS:               ID:20170410032742     3
 OLDACT:UP  17-04-10 16:18 OP:edw  STATUS:               ID:20170410032742     3
 OLDACT:REG 17-04-10 12:46 OP:edw  STATUS:               ID:20170410032742     3
 2017-04-10-0328-00M.COL___371                                                 6
 STAT SP IPHASW D HRMM SECON CODA AMPLIT PERI AZIMU VELO AIN AR TRES W  DIS CAZ7
 BAR2 EZ EP        329 19.84                             172    0.0510 20.7 196 
 BAR2 EZ ES        329 35.82                             172    0.5410 20.7 196 
 BAR2 EZ I         329 36.33         5.5 0.12            173           20.7 196 
 BRR  HZ EP        329 21.66                             152    0.1710 74.1 300 
 BRR  HN ES        329 39.01                             152    0.7010 74.1 300 
 PAM  EZ EP     D  329 22.70                             151    0.2310 78.8  37 
 PAM  EN ES        329 39.14                             151   -0.9210 78.8  37 
 PAM  EZ I         329 42.88         1.8 0.40            151           78.8  37 
 RUS  HZ EP        329 24.07                             145    0.3910 97.5 177 
 RUS  HN ES        329 41.96                             145   -0.2610 97.5 177 
 RUS  HZ I         329 43.41         1.7 0.26            147           97.5 177 
 PTB  HZ EP        329 26.86                             132   -0.31 9  149 260 
 PTB  HN ES        329 47.51                             132   -0.92 9  149 260 
 PTB  HZ I         329 49.73         2.0 0.34            134            149 260 
 ZAR  HN ES        329 58.64                             122    0.21 8  207 293 
                                                                                
