 2017  210 0914 40.5 L   6.805 -73.107146.7  RSN  7 0.5 1.3LRSN                1
 GAP=242        0.99       5.6     8.3  6.8  0.1649E+02 -0.2912E+01  0.9296E+01E
 Epicentro: LOS SANTOS - SANTANDER                                             3
 ACTION:UPD 17-05-24 15:34 OP:jn   STATUS:               ID:20170210091440 L   I
 OLDACT:DUP 17-02-10 18:52 OP:edw  STATUS:               ID:20170210090743d    3
 OLDACT:UP  17-02-10 18:52 OP:edw  STATUS:               ID:20170210090742     3
 OLDACT:UP  17-02-10 18:51 OP:edw  STATUS:               ID:20170210090742     3
 OLDACT:REG 17-02-10 12:23 OP:edw  STATUS:               ID:20170210090742     3
 2017-02-10-0908-00M.COL___343                                                 6
 STAT SP IPHASW D HRMM SECON CODA AMPLIT PERI AZIMU VELO AIN AR TRES W  DIS CAZ7
 BAR2 EZ EP        915  0.45                             171    0.2110 25.0 200 
 BAR2 EZ ES        915 15.62                             171   -0.0510 25.0 200 
 BAR2 EZ I         915 17.01         7.3 0.26            164           25.0 200 
 BRR  HZ EP   2    915  1.03                             151   -0.89 5 74.8 297 
 BRR  HN ES        915 18.86                             151    0.2010 74.8 297 
 RUS  HZ EP        915  4.51                             144    0.1710  101 179 
 RUS  HN ES        915 22.35                             144   -0.6110  101 179 
 RUS  HZ I         915 24.26         3.6 0.30            141            101 179 
 PTB  HZ EP   9    915  7.48                             131   -0.43 0  152 259 
 PTB  HN ES        915 28.16                             130   -0.73 9  152 259 
 PTB  HZ I         915 31.74         1.2 0.28            127            152 259 
 ZAR  HZ EP   2    915 14.10                             121    0.74 4  208 292 
 ZAR  HN ES   2    915 38.81                             121   -0.22 4  208 292 
 ZAR  HZ I         915 44.28         1.4 0.36            119            208 292 
 CHI  HZ EP        915 18.54                             117    0.14 8  250 196 
 CHI  HN ES        915 48.44                             117    0.45 8  250 196 
 CHI  HZ I         915 53.55         1.1 0.42            115            250 196 
 PRA  HZ EP   2    915 32.28                             106   -2.05 3  395 210 
 PRA  HN ES   2    916 16.58                             106    0.24 3  395 210 
                                                                                
