 2016  610 0402 45.8 L   6.800 -73.119145.9  RSN 10 0.4 1.7LRSN                1
 GAP=140        0.98       3.3     4.8  6.0 -0.3045E+01  0.2480E+01  0.3817E+01E
 Epicentro: LOS SANTOS - SANTANDER                                             3
 ACTION:UPD 16-07-21 22:17 OP:rebc STATUS:               ID:20160610040245 L   I
 OLDACT:UP  16-06-10 16:01 OP:dani STATUS:               ID:20160610035743     3
 OLDACT:UP  16-06-10 15:59 OP:dani STATUS:               ID:20160610035743     3
 OLDACT:REG 16-06-10 12:55 OP:dani STATUS:               ID:20160610035743     3
 2016-06-10-0357-43M.COL___337                                                 6
 STAT SP IPHASW D HRMM SECON CODA AMPLIT PERI AZIMU VELO AIN AR TRES W  DIS CAZ7
 BAR2 EZ EP        4 3  5.27                             170   -0.1710 24.0 197 
 BAR2 EZ ES        4 3 20.59                             170   -0.1810 24.0 197 
 BAR2 EZ I         4 3 21.85        13.5 0.22                          24.0 197 
 BRR  HZ EP        4 3  7.11                             152    0.0210 73.8 297 
 BRR  HN ES        4 3 24.27                             152    0.5610 73.8 297 
 BRR  HZ I         4 3 28.11         8.4 0.28                          73.8 297 
 PAM  EZ EP     D  4 3  8.22                             151    0.3210 75.5  38 
 PAM  EN ES   2    4 3 24.37                             151   -0.78 5 75.5  38 
 PAM  EZ I         4 3 28.50         6.7 0.40                          75.5  38 
 RUS  HZ EP        4 3  9.30                             144   -0.2310  100 178 
 RUS  HE ES        4 3 28.23                             144    0.1710  100 178 
 RUS  HZ I         4 3 29.29         4.1 0.36                           100 178 
 PTB  HZ EP        4 3 12.01                             132   -1.01 9  151 259 
 PTB  HE ES        4 3 33.92                             132   -0.34 9  151 259 
 PTB  HZ I         4 3 40.48         5.1 0.20                           151 259 
 OCA  HN ES        4 3 36.33                             130    0.08 9  161 352 
 SPBC HZ EP        4 3 14.53                             129    0.07 9  165 220 
 SPBC HN ES        4 3 37.21                             129    0.37 9  165 220 
 SPBC HZ I         4 3 41.22         8.6 0.18                           165 220 
 NOR  HN ES        4 3 49.82                             118   -0.02 8  237 235 
 NOR  HZ I         4 3 54.82         3.1 0.18                           237 235 
 CHI  HZ EP        4 3 24.22                             117    0.66 8  249 196 
 CHI  HN ES        4 3 52.82                             117   -0.22 8  249 196 
 CHI  HZ I         4 3 55.08         3.0 0.31                           249 196 
 GUY2CHZ EP        4 3 30.01                             112    0.35 7  304 235 
 GUY2CHE ES   4    4 4  8.03                             112    4.14 0  304 235 
 GUY2CHZ I         4 4 11.48         3.2 0.34                           304 235 
                                                                                
