 2012 1110 0252 54.2 L   5.747 -73.909 98.2  RSN 12 0.4 2.0LRSN 2.7WRSN        1
 SPEC AVERAGE  MO 13.2 ST  5.0 OM  2.0 f0 4.79 R0.3310 AL 2.04 WI 21.2 MW  2.7 3
 SPEC SD       MO  0.3 ST  6.8 OM  0.5 f0 1.28 R0.0928 AL      WI      MW  0.2 3
 GAP= 91        0.97       2.4     2.6  7.4 -0.1634E+01  0.3408E+01 -0.1120E+01E
 Epicentro: ALBANIA - SANTANDER                                                3
 SPEC PTB HH N MO 13.1 ST  4.4 OM  1.6 f0 6.20 R0.2371 AL 0.81 WI 19.5 MW  2.7 3
 SPEC PTB HH N T 25326 K 0.000 GD  143 VS 4.20 DE 3.00 Q0230.0 QA 0.60 VS 4.20 3
 SPEC RUS HH N MO 12.9 ST0.766 OM  1.4 f0 4.12 R0.3568 AL 1.70 WI 18.4 MW  2.5 3
 SPEC RUS HH N T 25326 K 0.000 GD  135 VS 4.20 DE 3.00 Q0230.0 QA 0.60 VS 4.20 3
 SPEC HEL HH N MO 13.1 ST0.468 OM  1.4 f0 3.03 R0.4851 AL 1.68 WI 31.5 MW  2.7 3
 SPEC HEL HH N T 25343 K 0.000 GD  207 VS 4.20 DE 3.00 Q0230.0 QA 0.60 VS 4.20 3
 SPEC BRR HH N MO 13.7 ST 18.3 OM  2.1 f0 6.32 R0.2326 AL 3.87 WI 21.2 MW  3.1 3
 SPEC BRR HH N T 25337 K 0.000 GD  178 VS 4.20 DE 3.00 Q0230.0 QA 0.60 VS 4.20 3
 SPEC CHI HH E MO 13.1 ST  1.3 OM  1.5 f0 4.28 R0.3435 AL 2.12 WI 15.6 MW  2.7 3
 SPEC CHI HH E T 25332 K 0.000 GD  157 VS 4.20 DE 3.00 Q0230.0 QA 0.60 VS 4.20 3
 ACTION:UPD 12-12-05 15:32 OP:}ep  STATUS:               ID:20121110025254 L   I
 2012-11-10-0250-00M.COL___230                                                 6
 STAT SP IPHASW D HRMM SECON CODA AMPLIT PERI AZIMU VELO AIN AR TRES W  DIS CAZ7
 RUS  HZ IP        253 12.77                             134   -0.1410 92.9  80 
 RUS  HZ I         253 13.03        11.1 0.36                          92.9  80 
 RUS  HN ES        253 27.69                             134    0.1410 92.9  80 
 PTB  HZ EP        253 13.33                             129   -0.2010  107 325 
 PTB  HN ES        253 27.97                             129   -0.6710  107 325 
 PTB  HN I         253 30.58        52.3 0.26                           107 325 
 ROSC BN ES        253 30.35                             128    0.1910  110 204 
 ROSC BZ I         253 35.05        20.4 0.40                           110 204 
 BAR2 SZ EP        253 15.54                             125    0.0610  123  41 
 BAR2 SZ ES   1    253 33.02                             125    0.90 7  123  41 
 CHI  HZ EP        253 15.39                             125   -0.5110  125 171 
 CHI  HE ES        253 32.67                             125   -0.1910  125 171 
 BRR  HZ EP        253 17.98                             119   -0.20 9  152   8 
 BRR  HN ES   1    253 37.84                             119    0.92 7  152   8 
 GIR2 SZ EP        253 20.18                             116    0.15 9  167  28 
 HEL  HZ EP        253 22.77                             114    0.36 9  186 285 
 HEL  HN ES        253 44.22                             114   -0.23 9  186 285 
 TOL  SZ EP        253 24.21                             112   -0.04 9  202 231 
 TOL  SZ ES   1    253 47.71                             112   -0.01 6  202 231 
 ANIL HE ES        253 51.01                             110    0.57 8  216 230 
 ANIL HZ I         253 53.57        30.7 0.40                           216 230 
 TAM  HN ES        253 55.66                             107   -0.54 8  247  72 
 PRA  HZ EP        253 29.77                             107    0.40 8  250 206 
 PRA  HN I         254  1.11         4.2 0.24                           250 206 
                                                                                
