 2013 1210 0534 39.4 L   6.687 -73.257141.2  RSN  6 0.4 1.2LRSN                1
 GAP=163        1.01       4.2     6.2  7.3  0.4360E+01  0.5651E+01 -0.8838E+01E
 Epicentro: BARICHARA - SANTANDER                                              3
 ACTION:UPD 14-01-13 10:17 OP:ep   STATUS:               ID:20131210053439 L   I
 OLDACT:REG 13-12-10 07:11 OP:jn   STATUS:               ID:20131210053000     3
 2013-12-10-0530-00M.COL___285                                                 6
 STAT SP IPHASW D HRMM SECON CODA AMPLIT PERI AZIMU VELO AIN AR TRES W  DIS CAZ7
 BAR2 SZ ES        535 12.70                             174   -0.3410 13.3 142 
 BAR2 SZ I         535 13.62         9.6 0.16            176           13.3 142 
 BRR  HZ EP        535  0.28                             153    0.4110 68.5 313 
 BRR  HN ES        535 16.61                             153    0.7510 68.5 313 
 BRR  HZ I         535 18.80         2.4 0.32            153           68.5 313 
 RUS  HZ EP        535  2.05                             146    0.1410 89.9 168 
 RUS  HN ES        535 19.25                             146   -0.2510 89.9 168 
 RUS  HZ I         535 21.08         1.6 0.24            148           89.9 168 
 PTB  HZ EP        535  4.57                             134   -0.1210  134 263 
 PTB  HN ES        535 24.03                             134   -0.4210  134 263 
 PTB  HZ I         535 25.58         2.6 0.14            135            134 263 
 SPBC HN ES        535 26.73                             131    0.17 9  146 218 
 SML  HZ EP        535 16.55                             116    0.07 8  250 339 
 SML  HN ES        535 44.76                             116   -0.67 8  250 339 
                                                                                
