 2013 1210 0520 34.5 L   6.524 -73.602114.1  RSN  6 0.3 1.2LRSN                1
 GAP= 91        0.61       3.5     3.9  7.8 -0.3773E+00 -0.1267E+02  0.2358E+01E
 Epicentro: EL CARMEN DE CHUCURI - SANTANDER                                   3
 *BAR2-PTB-RUS                                                                 3
 ACTION:UPD 14-01-13 10:17 OP:ep   STATUS:               ID:20131210052034 L   I
 OLDACT:REG 13-12-10 07:11 OP:jn   STATUS:               ID:20131210052000     3
 2013-12-10-0520-00M.COL___285                                                 6
 STAT SP IPHASW D HRMM SECON CODA AMPLIT PERI AZIMU VELO AIN AR TRES W  DIS CAZ7
 BAR2 SZ EP        520 51.55                             156    0.2710 47.0  81 
 BAR2 SZ ES   2    521  3.67                             156   -0.67 5 47.0  81 
 BRR  HN ES   1    521  5.96                             148    0.33 7 65.7 349 
 BRR  HZ I         521 10.13         2.7 0.12            155           65.7 349 
 RUS  HZ EP        520 54.38                             139   -0.1210 90.4 141 
 PTB  HN ES        521  9.22                             138   -0.2710 94.5 271 
 SPBC HN ES   1    521 12.22                             133    0.25 7  110 208 
 SPBC HZ I         521 16.72         4.6 0.22            139            110 208 
 SML  HZ EP   2    521 11.08                             109   -0.08 4  257 348 
 SML  HN ES   2    521 39.53                             109   -0.18 4  257 348 
                                                                                
