 2016  510 0734 12.1 L   6.817 -73.118147.2  RSN  9 0.4 1.5LRSN                1
 GAP=186        1.12       3.5     6.3  7.5  0.1826E+01  0.1034E+02 -0.2730E+01E
 Epicentro: LOS SANTOS - SANTANDER                                             3
 ACTION:UPD 16-08-18 17:44 OP:cam  STATUS:               ID:20160510073412 L   I
 OLDACT:UP  16-05-10 15:40 OP:drio STATUS:               ID:20160510072742     3
 OLDACT:UP  16-05-10 15:35 OP:dani STATUS:               ID:20160510072742     3
 OLDACT:UP  16-05-10 15:35 OP:dani STATUS:               ID:20160510072742     3
 OLDACT:UP  16-05-10 13:16 OP:dani STATUS:               ID:20160510072742     3
 OLDACT:UP  16-05-10 13:15 OP:dani STATUS:               ID:20160510072742     3
 OLDACT:REG 16-05-10 12:28 OP:drio STATUS:               ID:20160510072742     3
 2016-05-10-0727-42M.COL___284                                                 6
 STAT SP IPHASW D HRMM SECON CODA AMPLIT PERI AZIMU VELO AIN AR TRES W  DIS CAZ7
 BAR2 EZ EP        734 32.18                             170    0.2110 25.9 196 
 BAR2 EZ ES        734 46.47                             170   -0.9810 25.9 196 
 BAR2 EZ I         734 48.26         9.6 0.20            171           25.9 196 
 BRR  HZ EP        734 33.95                             152    0.4310 73.0 296 
 BRR  HN ES        734 50.91                             152    0.7010 73.0 296 
 BRR  HZ I         734 54.28         3.9 0.12            147           73.0 296 
 RUS  HZ EP        734 36.24                             144    0.1110  102 178 
 RUS  HE ES        734 55.39                             144    0.5310  102 178 
 RUS  HZ I         734 55.59         4.0 0.20            148            102 178 
 PTB  HZ EP        734 39.09                             132   -0.41 9  151 258 
 PTB  HN ES   4    734 59.83                             132   -1.03 0  151 258 
 PTB  HZ I         735  2.27         3.0 0.18            130            151 258 
 OCA  HN ES        735  2.23                             130   -0.22 9  159 352 
 SPBC HZ EP        734 40.95                             129   -0.09 9  167 219 
 SPBC HN ES        735  3.33                             129   -0.27 9  167 219 
 SPBC HZ I         735  8.09         5.4 0.09            130            167 219 
 ZAR  HZ EP   4    734 43.03                             122   -1.84 0  206 291 
 ZAR  HE ES        735 10.69                             122    0.28 8  206 291 
 ZAR  HZ I         735 16.34         2.3 0.24            121            206 291 
 NOR  HZ EP   4    734 50.24                             118    1.94 0  238 235 
 NOR  HE ES        735 16.30                             118   -0.24 8  238 235 
 SML  HZ EP        734 48.69                             118   -0.08 8  243 334 
 SML  HE ES        735 17.10                             118   -0.26 8  243 334 
 SML  HZ I         735 39.39         4.5 0.10            116            243 334 
                                                                                
