 2013  310 0102 26.0 L   7.113 -73.348 39.6  RSN  5 0.2 1.7LRSN                1
 GAP=101        0.45       1.8     2.0  5.0  0.6989E+00 -0.5536E+01 -0.2971E+01E
 Epicentro: LEBRIJA - SANTANDER                                                3
 ACTION:UPD 13-04-09 14:01 OP:ep   STATUS:               ID:20130310010226 L   I
 2013-03-10-0100-00M.COL___231                                                 6
 STAT SP IPHASW D HRMM SECON CODA AMPLIT PERI AZIMU VELO AIN AR TRES W  DIS CAZ7
 BRR  HZ IP     D  1 2 34.27                             124   -0.2010 40.2 269 
 BRR  HN ES        1 2 41.15                             124    0.0710 40.2 269 
 BRR  HE I         1 2 42.65        70.8 0.14             47           40.2 269 
 BAR2 SZ EP        1 2 37.09                             110    0.0710 60.4 162 
 BAR2 SZ ES   1    1 2 45.85                             110    0.24 7 60.4 162 
 BAR2 SZ I         1 2 47.43        85.6 0.34             47           60.4 162 
 PAM  SZ EP   1    1 2 38.93                             104   -0.25 7 75.8  71 
 PAM  SN ES   1    1 2 49.44                             104   -0.01 7 75.8  71 
 PAM  SZ I         1 2 50.71        11.5 0.23             47           75.8  71 
 OCA  HN ES   1    1 2 59.70                              81    0.27 7  125   1 
 RUS  HZ EP   1    1 2 46.73                              81   -0.13 7  138 168 
 RUS  HN I         1 3  5.47         7.8 0.28             47            138 168 
                                                                                
