 2017  710 0416  2.3 L   6.782 -73.159139.8  RSN 11 0.5 2.1LRSN                1
 GAP=111        1.19       5.0     4.0  6.8 -0.2870E+01  0.5890E+01  0.8722E+01E
 Epicentro: LOS SANTOS - SANTANDER                                             3
 ACTION:UPD 17-08-30 15:31 OP:rebc STATUS:               ID:20170710041602 L   I
 OLDACT:UP  17-07-10 15:33 OP:dnl  STATUS:               ID:20170710040742     3
 OLDACT:UP  17-07-10 15:33 OP:dnl  STATUS:               ID:20170710040742     3
 OLDACT:REG 17-07-10 12:57 OP:dnl  STATUS:               ID:20170710040742     3
 2017-07-10-0408-00M.COL___371                                                 6
 STAT SP IPHASW D HRMM SECON CODA AMPLIT PERI AZIMU VELO AIN AR TRES W  DIS CAZ7
 BAR2 EZ EP     C  416 20.94                             171   -0.1910 21.1 187 
 BAR2 EZ ES        416 35.56                             171   -0.2810 21.1 187 
 BAR2 EZ I         416 36.51        37.8 0.38            168           21.1 187 
 BRR  HZ IP     C  416 22.84                             152    0.0910 70.9 301 
 BRR  HE ES        416 39.68                             152    0.9510 70.9 301 
 BRR  HZ I         416 40.79        25.1 0.46            152           70.9 301 
 PAM  EZ EP        416 24.07                             149    0.0710 79.8  39 
 PAM  EN ES        416 40.66                             149   -0.2910 79.8  39 
 PAM  EZ I         416 43.73        16.9 0.42            153           79.8  39 
 PTB  HZ EP        416 27.76                             131   -0.82 9  146 259 
 PTB  HN ES        416 48.57                             131   -0.54 9  146 259 
 PTB  HZ I         416 51.45        12.0 0.40            130            146 259 
 SPBC HZ EP        416 29.89                             128   -0.18 9  161 219 
 SPBC HN ES        416 52.17                             128    0.41 9  161 219 
 SPBC HZ I         416 55.71        27.1 0.22            127            161 219 
 YPLC HZ EP        416 31.37                             125   -0.15 9  176 151 
 YPLC HN ES        416 54.84                             125    0.49 9  176 151 
 YPLC HZ I         416 57.56        14.9 0.32            126            176 151 
 NOR  HZ EP        416 36.92                             117   -0.48 8  232 235 
 NOR  HE ES        417  4.65                             117   -0.15 8  232 235 
 NOR  HZ I         417  6.72        10.5 0.20            117            232 235 
 ROSC BZ EP   9    416 41.20                             116    1.41 0  250 211 
 ROSC BN ES        417 10.41                             116   -0.06 8  250 211 
 ROSC BZ I         417 17.34        15.1 0.45            116            250 211 
 HEL  HZ EP        416 43.04                             114    1.08 8  270 256 
 HEL  HE ES        417 12.39                             114   -0.54 8  270 256 
 HEL  HZ I         417 20.74         6.3 0.40            114            270 256 
 GUY2CHZ EP   4    416 46.77                             111    1.44 0  299 235 
 GUY2CHE ES   4    417 21.82                             111    2.89 0  299 235 
 GUY2CHZ I         417 26.33         8.0 0.22                           299 235 
 CBOC HZ EP        416 49.40                             109    0.70 7  332 252 
 CBOC HN ES        417 25.32                             109    0.39 7  332 252 
 CBOC HZ I         417 34.39         2.5 0.48            109            332 252 
                                                                                
