 2017 1110 0648 42.6 L   6.814 -73.129143.6  RSN 19 0.5 1.9LRSN                1
 GAP= 67        1.16       3.3     3.1  6.0  0.1635E+00  0.2289E+01  0.2262E+01E
 Epicentro: LOS SANTOS - SANTANDER                                             3
 ACTION:UPD 17-12-12 19:54 OP:rebc STATUS:               ID:20171110064842 L   I
 OLDACT:UP  17-11-10 16:33 OP:dnl  STATUS:               ID:20171110063328     3
 OLDACT:REG 17-11-10 15:10 OP:dnl  STATUS:               ID:20171110063328     3
 2017-11-10-0638-00M.COL___423                                                 6
 STAT SP IPHASW D HRMM SECON CODA AMPLIT PERI AZIMU VELO AIN AR TRES W  DIS CAZ7
 BAR2 EZ EP        649  1.66                             170   -0.3410 25.2 194 
 BAR2 EZ ES        649 17.22                             170    0.0810 25.2 194 
 BAR2 EZ I         649 17.80        28.1 0.22            167           25.2 194 
 BRR  HZ IP     C  649  3.66                             152    0.1010 72.1 297 
 BRR  HN ES        649 20.50                             152    0.5910 72.1 297 
 BRR  HZ I         649 24.97        29.2 0.12            149           72.1 297 
 PAM  EZ IP     C  649  4.61                             151    0.1710 75.0  39 
 PAM  EN ES        649 21.64                             151    0.1710 75.0  39 
 PAM  EZ I         649 25.46         6.3 0.26            153           75.0  39 
 RUS  HZ EP        649  5.79                             143   -0.4410  102 177 
 RUS  HN ES        649 23.92                             143   -0.7510  102 177 
 RUS  HZ I         649 25.43        20.2 0.28            142            102 177 
 PTB  HZ EP        649  8.86                             131   -0.72 9  150 258 
 PTB  HN ES        649 29.29                             131   -1.33 9  150 258 
 PTB  HZ I         649 31.85        11.7 0.22            128            150 258 
 TAM  HZ IP     C  649 10.13                             130    0.16 9  154 106 
 TAM  HE ES        649 31.38                             130    0.06 9  154 106 
 TAM  HZ I         649 31.90        12.6 0.60            131            154 106 
 SPBC HZ EP        649 11.16                             128    0.01 9  166 219 
 SPBC HN ES        649 33.53                             128    0.11 9  166 219 
 SPBC HZ I         649 35.74        10.8 0.62            126            166 219 
 YPLC HZ EP        649 12.17                             126   -0.10 9  177 152 
 YPLC HE ES        649 36.01                             126    0.59 9  177 152 
 YPLC HZ I         649 38.35         8.3 0.30            126            177 152 
 ZAR  HZ EP   2    649 15.25                             122    0.24 4  205 292 
 ZAR  HE ES        649 41.25                             122    0.94 9  205 292 
 ZAR  HZ I         649 48.80        17.4 0.30            120            205 292 
 NOR  HZ EP   2    649 18.78                             118    0.33 4  237 234 
 NOR  HE ES        649 46.39                             118   -0.03 8  237 234 
 NOR  HZ I         649 47.96         5.7 0.14            116            237 234 
 CHI  HZ EP   2    649 20.51                             116    0.13 4  251 195 
 CHI  HN ES        649 50.61                             116    0.75 8  251 195 
 CHI  HZ I         649 59.53         2.2 0.52            115            251 195 
 ROSC BZ EP   4    649 22.76                             116    1.92 0  255 211 
 ROSC BE ES   4    649 54.73                             116    4.06 0  255 211 
 ROSC BZ I         650  0.02         5.7 0.40            115            255 211 
 URE  HZ EP   9    649 22.03                             113   -1.66 0  285 291 
 URE  HN ES        649 54.26                             114    0.18 7  285 291 
 URE  HZ I         650  7.41         8.2 0.36            112            285 291 
 DRL03HZ EP   2    649 23.83                             113   -0.12 4  288 352 
 DRL03HE ES        649 55.78                             113   -0.44 7  288 352 
 GUY2CHZ EP   4    649 27.52                             112    1.15 0  304 235 
 GUY2CHN ES        650  1.06                             112    0.54 7  304 235 
 GUY2CHZ I         650  9.36         3.8 0.68                           304 235 
 PTGC HZ EP   4    649 25.02                             111   -1.42 0  309 159 
 PTGC HN ES   4    649 57.88                             111   -2.75 0  309 159 
 PTGC HZ I         650  4.47         3.9 0.38            111            309 159 
 CBOC HZ EP        649 30.23                             109    0.56 7  336 252 
 CBOC HN ES   4    650  5.25                             109   -1.14 0  336 252 
 CBOC HZ I         650 18.63         1.7 0.44            108            336 252 
 PRA  HZ EP   2    649 36.25                             106   -0.05 3  394 210 
 PRA  HN ES   4    650 19.71                             106    1.52 0  394 210 
 PRA  HZ I         650 23.55         2.5 0.40            105            394 210 
 SJC  HZ EP   4    649 36.70                             105   -1.35 0  409 327 
 SJC  HN ES   4    650 17.68                             105   -3.63 0  409 327 
 SJC  HZ I         650 22.06         3.1 0.64            105            409 327 
                                                                                
