 2016  610 0306 34.8 L   6.810 -73.179153.7  RSN  7 0.3 1.6LRSN                1
 GAP=235        0.84       4.3     5.7  7.3  0.4768E+01 -0.4719E+01  0.3987E+01E
 Epicentro: ZAPATOCA - SANTANDER                                               3
 ACTION:UPD 16-07-21 22:17 OP:rebc STATUS:               ID:20160610030634 L   I
 OLDACT:UP  16-06-10 15:24 OP:dani STATUS:               ID:20160610025743d    3
 OLDACT:DUP 16-06-10 15:17 OP:dani STATUS:               ID:20160610025743d    3
 OLDACT:DUP 16-06-10 15:10 OP:dani STATUS:               ID:20160610025742d    3
 OLDACT:UP  16-06-10 15:10 OP:dani STATUS:               ID:20160610025741     3
 OLDACT:REG 16-06-10 12:44 OP:dani STATUS:               ID:20160610025741     3
 2016-06-10-0257-41M.COL___337                                                 6
 STAT SP IPHASW D HRMM SECON CODA AMPLIT PERI AZIMU VELO AIN AR TRES W  DIS CAZ7
 BAR2 EZ EP        3 6 55.02                             171   -0.3510 24.0 181 
 BAR2 EZ I         3 7 11.27        11.2 0.24                          24.0 181 
 BRR  HZ EP     C  3 6 56.80                             155    0.2210 67.4 299 
 BRR  HN ES        3 7 14.09                             155    0.4910 67.4 299 
 BRR  HZ I         3 7 14.96         5.7 0.22                          67.4 299 
 RUS  HZ EP        3 6 59.33                             145   -0.0810  102 174 
 RUS  HN ES        3 7 18.37                             145   -0.2510  102 174 
 RUS  HZ I         3 7 18.80         6.2 0.28                           102 174 
 PTB  HZ EP        3 7  1.79                             134   -0.30 9  144 258 
 PTB  HN ES        3 7 22.97                             134   -0.44 9  144 258 
 PTB  HZ I         3 7 25.76         4.4 0.13                           144 258 
 OCA  HE ES   4    3 7 28.24                             132    2.19 0  159 354 
 SPBC HZ EP        3 7  3.99                             131    0.24 9  162 218 
 SPBC HN ES        3 7 26.34                             131   -0.02 9  162 218 
 SPBC HZ I         3 7 30.02         8.5 0.07                           162 218 
 CHI  HZ EP   2    3 7 13.48                             119    0.55 4  249 194 
 CHI  HE ES        3 7 43.27                             119    0.58 8  249 194 
 CHI  HZ I         3 7 45.93         2.7 0.18                           249 194 
 GUY2CHZ EP   4    3 7 21.30                             114    2.81 0  299 234 
 GUY2CHE ES   4    3 7 58.70                             114    6.12 0  299 234 
 GUY2CHZ I         3 8  0.30         1.9 0.62                           299 234 
 CBOC HN ES   4    3 7 57.65                             111   -0.58 0  330 252 
                                                                                
