 2016  110 0657 50.0 L   6.709 -73.197146.3  RSN  4 0.2 1.0LRSN                1
 GAP=224        0.48       3.7     3.5  3.8  0.6390E+01  0.1694E+01  0.6160E+00E
 Epicentro: VILLANUEVA - SANTANDER                                             3
 ACTION:UPD 16-03-09 23:24 OP:cam  STATUS:               ID:20160110065750 L   I
 OLDACT:DUP 16-01-10 16:00 OP:drio STATUS:               ID:20160110064748d    3
 2016-01-10-0647-47M.COL___265                                                 6
 STAT SP IPHASW D HRMM SECON CODA AMPLIT PERI AZIMU VELO AIN AR TRES W  DIS CAZ7
 BAR2 EZ EP        658  9.35                             175   -0.1810 13.0 173 
 BAR2 EZ ES        658 24.80                             175    0.0410 13.0 173 
 BAR2 EZ I         658 25.48         3.1 0.38            175           13.0 173 
 BRR  HZ EP        658 11.43                             152    0.1810 72.0 308 
 BRR  HN ES        658 27.77                             152   -0.0610 72.0 308 
 BRR  HZ I         658 41.88         3.0 0.56            149           72.0 308 
 RUS  HZ EP        658 13.36                             147    0.2210 91.1 172 
 RUS  HN ES        658 31.11                             147   -0.0910 91.1 172 
 RUS  HZ I         658 33.48         0.9 0.46            157           91.1 172 
 PTB  HZ EP        658 16.11                             134   -0.25 9  141 262 
 PTB  HN ES        658 37.05                             134    0.12 9  141 262 
 PTB  HZ I         658 41.88         1.1 0.12            136            141 262 
                                                                                
