 2017  810 0909 50.0 L   6.789 -73.136144.6  RSN 12 0.3 1.7LRSN                1
 GAP=138        0.68       2.6     3.1  4.3 -0.1698E+01  0.5144E+01  0.1386E+01E
 Epicentro: LOS SANTOS - SANTANDER                                             3
 ACTION:UPD 17-09-04 20:18 OP:rebc STATUS:               ID:20170810090950 L   I
 OLDACT:UP  17-08-10 18:00 OP:dnl  STATUS:               ID:20170810090738     3
 OLDACT:REG 17-08-10 12:52 OP:dhb  STATUS:               ID:20170810090738     3
 2017-08-10-0908-00M.COL___396                                                 6
 STAT SP IPHASW D HRMM SECON CODA AMPLIT PERI AZIMU VELO AIN AR TRES W  DIS CAZ7
 BAR2 EZ EP        910  9.28                             171   -0.2010 22.3 193 
 BAR2 EZ ES        910 24.94                             171    0.2710 22.3 193 
 BAR2 EZ I         910 25.09        12.2 0.30            167           22.3 193 
 BRR  HZ EP        910 11.15                             152    0.0210 72.7 299 
 BRR  HN ES        910 27.96                             152    0.3710 72.7 299 
 BRR  HZ I         910 31.22        12.2 0.24            143           72.7 299 
 PAM  EZ EP        910 12.20                             151    0.0810 77.7  38 
 PAM  EN ES        910 29.12                             151   -0.2510 77.7  38 
 PAM  EZ I         910 31.52        10.4 0.54            147           77.7  38 
 RUS  HZ EP   2    910 13.44                             144   -0.12 5 99.3 177 
 RUS  HN ES        910 31.86                             144   -0.0610 99.3 177 
 RUS  HZ I         910 32.83         3.8 0.26            139           99.3 177 
 SPBC HZ EP        910 18.49                             129    0.09 9  163 220 
 SPBC HN ES        910 40.24                             129   -0.29 9  163 220 
 SPBC HZ I         910 47.46         7.6 0.26            122            163 220 
 ZAR  HZ EP        910 22.35                             122   -0.19 8  206 292 
 ZAR  HE ES        910 47.97                             122    0.07 8  206 292 
 ZAR  HZ I         910 54.03        10.7 0.40            115            206 292 
 NOR  HZ EP   2    910 25.48                             118   -0.21 4  235 235 
 NOR  HN ES        910 52.85                             118   -0.67 8  235 235 
 NOR  HZ I         910 58.14         3.0 0.12            112            235 235 
 URE  HZ EP   4    910 33.12                             113    1.93 0  285 292 
 URE  HE ES   4    911  1.27                             113   -2.04 0  285 292 
 URE  HZ I         911  9.63         3.6 0.18            107            285 292 
 GUY2CHZ EP   4    910 35.05                             112    1.46 0  301 235 
 GUY2CHN ES        911  7.85                             112    0.28 7  301 235 
 GUY2CHZ I         911 14.28         2.4 0.38                           301 235 
 CBOC HZ EP   4    910 38.15                             110    1.20 0  334 252 
 CBOC HZ I         911 18.83         0.9 0.42            104            334 252 
 PRA  HZ EP        910 43.76                             106    0.33 6  391 210 
 PRA  HN ES        911 25.88                             106    0.79 6  391 210 
 PRA  HZ I         911 30.95         2.2 0.30            102            391 210 
 SJC  HZ EP   4    910 43.51                             105   -2.22 0  411 327 
 SJC  HN ES   4    911 27.05                             105   -2.14 0  411 327 
 SJC  HZ I         911 28.88         1.4 0.72            101            411 327 
                                                                                
