 2010 1110 0134 44.2 L   6.826 -73.144135.9  RSN 12 0.4 2.5LRSN                1
 GAP=159        0.93       3.2     5.6  6.0 -0.6792E+01  0.5554E+01  0.1366E+01E
 Epicentro: LOS SANTOS - SANTANDER                                             3
 ACTION:UP  10-12-17 16:51 OP:REBC STATUS:               ID:20101110013444 L   I
 2010-11-10-0131-47S.COL___128                                                 6
 STAT SP IPHASW D HRMM SECON CODA AMPLIT PERI AZIMU VELO SNR AR TRES W  DIS CAZ7
 BTL  SZ EP        135  2.98                             172     0.410   17 307 
 BAR2 SZ EP        135  2.69                             169    -0.110   26 190 
 BAR2 SZ I         135  3.30        95.8 0.35                            26 190 
 BAR2 SZ ES   2    135 16.77                             169    -0.4 5   26 190 
 BRR  HZ IP     C  135  4.56                             151     0.310   70 296 
 BRR  HZ I         135  4.84       181.5 0.17                            70 296 
 BRR  HN ES        135 19.98                             151     0.110   70 296 
 RUS  HZ EP        135  6.81                             141    -0.510  103 176 
 RUS  HN ES        135 25.28                             141     0.110  103 176 
 RUS  HZ I         135 26.94        43.5 0.09                           103 176 
 GUE  SZ EP        135  8.05                             138     0.210  114  12 
 GUE  SZ I         135  8.73         5.2 0.00                           114  12 
 GRA  SZ EP        135  8.52                             135     0.110  123  18 
 GRA  SZ ES   2    135 27.38                             135     0.2 5  123  18 
 GRA  SZ I         135 31.21        59.0 1.00                           123  18 
 OCA  SZ EP        135 11.08                             128    -0.5 9  157 353 
 OCA  SZ ES   2    135 31.86                             128    -1.0 5  157 353 
 OCA  SZ I         135 36.39        34.3 0.83                           157 353 
 NOR  SZ EP        135 19.18                             116    -0.5 8  237 234 
 NOR  SN ES   2    135 46.52                             116    -0.7 4  237 234 
 ROSC BZ EP   1    135 22.52                             114     0.4 6  255 211 
 ROSC BN ES        135 51.86                             114     0.2 8  255 211 
 ROSC BZ I         135 57.35        23.2 0.35                           255 211 
 HEL  HZ EP   1    135 24.62                             113     0.5 6  273 255 
 HEL  HN ES   2    135 54.70                             113    -0.5 4  273 255 
 HEL  HZ I         136  1.80        27.9 1.13                           273 255 
 RREF HZ EP        135 30.99                             109     0.8 7  324 229 
 RREF HN ES   2    136  6.08                             109     0.0 3  324 229 
 RREF HZ I         136 11.23        11.2 0.83                           324 229 
 PRA  HZ EP        135 37.34                             105    -0.4 6  395 209 
 PRA  HN ES        136 19.14                             105    -0.3 6  395 209 
 PRA  HZ I         136 24.35        39.6 1.24                           395 209 
                                                                                
