 2014  410 0423 19.3 L   7.024 -73.235  9.0  RSN  4 0.4 1.2LRSN                1
 GAP=197        0.73       5.7     4.2 12.6  0.7058E+01 -0.2189E+01 -0.6212E+02E
 Epicentro: GIRON - SANTANDER                                                  3
 OLDACT:REG 14-04-10 13:17 OP:l    STATUS:               ID:20140410041813     3
 ACTION:UPD 14-05-13 23:07 OP:nd   STATUS:               ID:20140410042320dL   I
 OLDACT:DUP 14-05-12 21:04 OP:nd   STATUS:               ID:20140410042320dL   3
 OLDACT:UP  14-04-10 14:56 OP:mh   STATUS:               ID:20140410041813     3
 2014-04-10-0418-13M.COL___256                                                 6
 STAT SP IPHASW D HRMM SECON CODA AMPLIT PERI AZIMU VELO AIN AR TRES W  DIS CAZ7
 RUS  HZ EP        423 39.85                              93    0.3310  126 172 
 RUS  HN ES        423 55.09                              93   -0.2210  126 172 
 RUS  HZ I         424  5.68         3.5 1.48            155            126 172 
 PTB  HN ES   1    423 59.55                              92    0.00 7  145 248 
 ZAR  HN ES   1    424  9.33                              56   -0.04 7  187 286 
 SML  HZ EP   1    423 50.51                              56   -0.70 6  217 335 
 SML  HE ES   1    424 16.62                              56    0.49 6  217 335 
 SML  HZ I         424 36.31         2.6 1.80            123            217 335 
                                                                                
