 2011 1010 0831 49.2 L   6.790 -73.121146.4  RSN  4 0.1 1.5LRSN                1
 GAP=140        0.37       2.7     3.9  4.8 -0.2165E+00 -0.1073E+01  0.2033E+01E
 Epicentro: LOS SANTOS - SANTANDER                                             3
 ACTION:UPD 12-07-13 16:03 OP:ep   STATUS:               ID:20111010083149 L   I
 2011-10-10-0820-00M.COL___171                                                 6
 STAT SP IPHASW D HRMM SECON CODA AMPLIT PERI AZIMU VELO AIN AR TRES W  DIS CAZ7
 BAR2 SZ EP   1    832  8.66                             171   -0.20 7 22.9 197 
 BAR2 SZ I         832 26.09         9.4 0.53                          22.9 197 
 BRR  HZ EP   1    832 10.41                             152   -0.14 7 74.1 298 
 BRR  HN ES   1    832 27.34                             152    0.11 7 74.1 298 
 PAM  SZ EP   1    832 11.55                             151    0.15 7 76.6  37 
 PAM  SN ES   1    832 28.69                             151   -0.05 7 76.6  37 
 RUS  HZ EP   1    832 13.03                             144    0.14 7 99.3 178 
 RUS  HN ES   1    832 31.37                             144   -0.02 7 99.3 178 
 RUS  HZ I         832 32.72         4.0 0.46                          99.3 178 
                                                                                
