 2010  710 0931 12.9 L   6.745 -73.155149.1  RSN  6 0.3 1.5LRSN                1
 GAP=155        0.67       5.1    11.3 11.9 -0.5307E+01 -0.5291E+02 -0.1102E+02E
 Epicentro: JORDAN - SANTANDER                                                 3
 ACTION:UPD 10-12-01 15:16 OP:pat  STATUS:               ID:20100710093112 L   I
 2010-07-10-0927-35S.COL___120                                                 6
 STAT SP IPHASW D HRMM SECON CODA AMPLIT PERI AZIMU VELO AIN AR TRES W  DIS CAZ7
 BAR2 SZ EP   1    931 32.71                             173    -0.2 7   17 191 
 BRR  HZ EP   1    931 34.76                             152     0.2 7   73 303 
 BRR  HE ES   2    931 51.38                             152    -0.1 5   73 303 
 BRR  HZ I         931 57.80        12.9 0.58                            73 303 
 RUS  HZ EP   1    931 36.54                             146    -0.1 7   95 175 
 RUS  HN ES   2    931 55.28                             146     0.2 5   95 175 
 RUS  HZ I         931 56.92         2.3 0.35                            95 175 
 BRI  SZ EP   1    931 37.45                             140    -0.2 7  114  20 
 GUE  SZ EP   1    931 37.96                             139    -0.5 7  123  12 
 GRA  SZ EP   1    931 39.67                             136     0.7 7  132  17 
 GRA  SZ ES   2    931 59.28                             136     0.0 5  132  17 
                                                                                
