 2014  310 0952 48.2 L   6.696 -73.174139.4  RSN  4 0.3 1.2LRSN                1
 GAP=238        0.67       8.0     6.2 11.9  0.2761E+02  0.1334E+01 -0.3495E+02E
 Epicentro: VILLANUEVA - SANTANDER                                             3
 *RUS-PTB                                                                      3
 ACTION:UPD 14-04-09 23:15 OP:nd   STATUS:               ID:20140310095248 L   I
 OLDACT:REG 14-03-10 08:38 OP:y    STATUS:               ID:20140310094949     3
 2014-03-10-0949-49M.COL___206                                                 6
 STAT SP IPHASW D HRMM SECON CODA AMPLIT PERI AZIMU VELO AIN AR TRES W  DIS CAZ7
 RUS  HZ EP   1    953 11.00                             146    0.52 8 89.4 174 
 RUS  HN ES   1    953 27.64                             146   -0.25 8 89.4 174 
 PTB  HZ EP        953 13.77                             131   -0.3810  143 263 
 PTB  HN ES   1    953 34.61                             131    0.18 7  143 263 
 PTB  HZ I         953 42.09         1.9 0.08            137            143 263 
 ZAR  HN ES   1    953 45.66                             121    0.15 7  206 295 
 ZAR  HZ I         953 55.91         1.6 0.08            125            206 295 
 NOR  HE ES   1    953 49.45                             118    0.11 7  226 236 
                                                                                
