 2015  810 0408  3.5 L   6.749 -73.054141.5  RSN  4 0.3 1.2LRSN                1
 GAP=151        0.85       5.1     5.7  8.2 -0.2940E+01  0.2184E+02 -0.1448E+02E
 Epicentro: JORDAN - SANTANDER                                                 3
 ACTION:UPD 15-09-15 23:01 OP:cam  STATUS:               ID:20150810040803 L   I
 OLDACT:UP  15-08-10 17:49 OP:mher STATUS:               ID:20150810035751d    3
 OLDACT:UP  15-08-10 17:47 OP:mher STATUS:               ID:20150810035751d    3
 OLDACT:UP  15-08-10 17:46 OP:mher STATUS:               ID:20150810035751d    3
 OLDACT:DUP 15-08-10 17:44 OP:mher STATUS:               ID:20150810035751d    3
 2015-08-10-0357-50M.COL___334                                                 6
 STAT SP IPHASW D HRMM SECON CODA AMPLIT PERI AZIMU VELO AIN AR TRES W  DIS CAZ7
 BAR2 EZ EP        4 8 22.46                             171   -0.1810 22.4 219 
 BAR2 EZ ES        4 8 36.99                             171   -0.5510 22.4 219 
 PAM  EZ EP        4 8 25.20                             150   -0.0310 76.1  31 
 PAM  EN ES        4 8 42.42                             150    0.2710 76.1  31 
 PAM  EZ I         4 8 44.50         2.9 0.32            152           76.1  31 
 RUS  HN ES        4 8 44.74                             145    0.4110 94.8 182 
 RUS  HZ I         4 8 46.12         2.9 0.34            147           94.8 182 
 ZAR  HZ EP        4 8 36.68                             120   -0.24 8  216 293 
 ZAR  HN ES        4 9  3.31                             120    0.35 8  216 293 
 ZAR  HZ I         4 9  7.25         1.7 0.42            121            216 293 
                                                                                
