 2016  910 0902 46.0 L   6.056 -73.702113.5  RSN  6 0.3 1.3LRSN                1
 GAP=118        0.86       4.6     4.0  7.0  0.5374E+01  0.3146E+01 -0.9768E+01E
 Epicentro: VELEZ - SANTANDER                                                  3
 ACTION:UPD 17-08-17 21:08 OP:lp   STATUS:               ID:20160910090246 L   I
 OLDACT:DUP 16-09-10 14:51 OP:dnl  STATUS:               ID:20160910085742d    3
 2016-09-10-0858-00M.COL___324                                                 6
 STAT SP IPHASW D HRMM SECON CODA AMPLIT PERI AZIMU VELO AIN AR TRES W  DIS CAZ7
 SPBC HZ EP        9 3  2.99                             150   -0.2110 60.6 223 
 SPBC HE ES        9 3 16.99                             150    0.3610 60.6 223 
 SPBC HZ I         9 3 20.08         5.0 0.22            155           60.6 223 
 RUS  HZ EP        9 3  4.72                             146    0.2810 70.9 105 
 RUS  HN ES        9 3 18.56                             146   -0.2810 70.9 105 
 PTB  HZ EP        9 3  5.26                             136   -0.7010 99.1 303 
 PTB  HE ES        9 3 21.49                             136   -0.0410 99.1 303 
 PTB  HZ I         9 3 23.77         3.1 0.12            138           99.1 303 
 BRR  HZ EP        9 3  7.83                             131    0.3710  116 359 
 BRR  HE ES   4    9 3 26.11                             131    1.91 0  116 359 
 BRR  HZ I         9 3 28.73         5.6 0.40            133            116 359 
 ZAR  HZ EP   2    9 3 17.05                             114    0.50 4  204 321 
 ZAR  HN ES        9 3 40.49                             114    0.11 9  204 321 
 ZAR  HZ I         9 3 43.53         2.8 0.36            118            204 321 
 GUY2CHZ EP        9 3 17.44                             114    0.08 8  206 244 
 GUY2CHN ES   4    9 3 42.06                             114    0.23 0  206 244 
 GUY2CHZ I         9 3 48.36         1.9 0.48                           206 244 
                                                                                
