 2016 1210 0617 41.8 L   6.801 -73.164143.3  RSN 15 0.4 2.1LRSN                1
 GAP= 70        0.99       3.5     3.1  4.9  0.5545E+00  0.3230E+01  0.4337E+01E
 Epicentro: LOS SANTOS - SANTANDER                                             3
 ACTION:UPD 17-01-11 20:13 OP:rebc STATUS:               ID:20161210061741 L   I
 OLDACT:DUP 16-12-10 16:13 OP:lv   STATUS:               ID:20161210060745d    3
 2016-12-10-0608-00M.COL___367                                                 6
 STAT SP IPHASW D HRMM SECON CODA AMPLIT PERI AZIMU VELO AIN AR TRES W  DIS CAZ7
 BAR2 EZ EP        618  1.00                             170   -0.1210 23.2 185 
 BAR2 EZ ES        618 16.27                             170    0.0810 23.2 185 
 BAR2 EZ I         618 17.64        33.6 0.18            168           23.2 185 
 BRR  HZ EP        618  2.94                             153    0.3710 69.4 299 
 BRR  HN ES        618 19.54                             153    0.7710 69.4 299 
 BRR  HZ I         618 23.89        17.9 0.26            152           69.4 299 
 PAM  EZ EP        618  3.98                             150    0.1610 78.6  41 
 PAM  EN ES        618 20.61                             150   -0.3810 78.6  41 
 PAM  EZ I         618 24.26        15.1 0.25            154           78.6  41 
 RUS  HZ EP        618  5.07                             143   -0.2510  101 175 
 RUS  HN ES        618 23.78                             143    0.1110  101 175 
 RUS  HZ I         618 25.05         8.1 0.29            144            101 175 
 PTB  HZ EP        618  7.75                             132   -0.63 9  146 259 
 PTB  HN ES        618 28.21                             132   -0.91 9  146 259 
 PTB  HZ I         618 31.38        11.3 0.16            132            146 259 
 TAM  HZ EP        618  9.44                             130   -0.02 9  157 105 
 TAM  HN ES        618 31.05                             130    0.01 9  157 105 
 ZAR  HZ EP        618 13.60                             122   -0.28 9  202 292 
 ZAR  HE ES        618 39.16                             122    0.25 9  202 292 
 ZAR  HZ I         618 44.22        13.1 0.32            123            202 292 
 CHI  HZ EP        618 19.44                             117    0.13 8  248 195 
 CHI  HN ES        618 48.58                             117    0.01 8  248 195 
 CHI  HZ I         618 54.00         6.0 0.31            118            248 195 
 ROSC BZ EP   9    618 21.32                             116    1.64 0  252 211 
 ROSC BN ES        618 51.39                                    0.52 8  252 211 
 ROSC BZ I         618 55.72        18.8 0.40            117            252 211 
 GUY2CHZ EP   4    618 26.32                             112    1.21 0  300 235 
 GUY2CHE ES   4    619  2.35                             112    3.46 0  300 235 
 GUY2CHZ I         619  7.42         7.4 0.37                           300 235 
 PTGC HZ EP   4    618 24.20                             111   -1.44 0  310 158 
 PTGC HE ES   4    618 57.65                             111   -2.18 0  310 158 
 LL6C HZ EP   9    618  7.05                             110   -20.3 0  325 358 
 LL6C HN ES        618 42.05                                   -0.55 7  325 358 
 CBOC HZ EP        618 29.29                             109    0.90 7  332 252 
 CBOC HN ES   4    619  7.16                             109    2.43 0  332 252 
 PRA  HZ EP        618 34.88                             106   -0.25 6  391 209 
 PRA  HE ES   4    619 16.38                             106   -0.34 0  391 209 
 PRA  HZ I         619 23.27         7.0 0.38            107            391 209 
 ORTC HZ EP        618 35.83                             106    0.33 6  394 216 
 ORTC HN ES        619 17.76                             106    0.37 6  394 216 
 PAL  HZ EP        618 36.69                             105    0.01 6  404 239 
 PAL  HN ES   4    619 17.97                             105   -1.51 0  404 239 
 PAL  HZ I         619 23.86         1.8 0.31            106            404 239 
                                                                                
