 2016  910 0415  9.6 L   6.800 -73.152146.3  RSN 10 0.3 2.0LRSN                1
 GAP=136        0.82       2.4     3.3  4.5 -0.1081E+01  0.3457E+01  0.1087E+01E
 Epicentro: LOS SANTOS - SANTANDER                                             3
 ACTION:UPD 17-08-17 21:08 OP:lp   STATUS:               ID:20160910041509 L   I
 OLDACT:REG 16-09-10 13:45 OP:cara STATUS:               ID:20160910040646     3
 2016-09-10-0408-00M.COL___342                                                 6
 STAT SP IPHASW D HRMM SECON CODA AMPLIT PERI AZIMU VELO AIN AR TRES W  DIS CAZ7
 BAR2 EZ IP        415 29.07                             171   -0.1710 23.2 188 
 BAR2 EZ ES        415 44.50                             171   -0.0910 23.2 188 
 BAR2 EZ I         415 46.81        24.4 0.30            171           23.2 188 
 BRR  HZ EP        415 30.99                             153    0.2810 70.5 299 
 BRR  HN ES        415 47.58                             153    0.3610 70.5 299 
 BRR  HZ I         415 51.80        13.6 0.34            151           70.5 299 
 PAM  EZ EP        415 32.05                             151    0.2110 77.8  40 
 PAM  EE ES        415 49.36                             151    0.1310 77.8  40 
 PAM  EZ I         415 51.22        13.5 0.48            154           77.8  40 
 RUS  HZ EP        415 33.34                             144   -0.0210  101 176 
 RUS  HN ES        415 51.86                             144   -0.0610  101 176 
 RUS  HZ I         415 52.97        11.6 0.26            147            101 176 
 PTB  HZ EP        415 35.87                             132   -0.62 9  147 259 
 PTB  HE ES        415 57.40                             132   -0.11 9  147 259 
 PTB  HZ I         415 59.86        11.2 0.38            133            147 259 
 OCA  HZ EP        415 38.23                             130    0.34 9  160 353 
 OCA  HE ES        415 59.68                             130   -0.31 9  160 353 
 OCA  HZ I         416  7.76        18.3 0.30            131            160 353 
 SPBC HZ EP        415 37.99                             129   -0.05 9  163 219 
 SPBC HN ES        415 59.92                             129   -0.35 9  163 219 
 SPBC HZ I         416  6.92        15.1 0.24            131            163 219 
 ZAR  HZ EP        415 41.59                             123   -0.37 9  203 292 
 ZAR  HN ES        416  7.05                             123   -0.18 9  203 292 
 ZAR  HZ I         416 15.15         5.6 0.28            123            203 292 
 ZAR  HZ E         416 36.73                                            203 292 
 CHI  HZ EP        415 47.01                             117   -0.25 8  248 195 
 CHI  HN ES        416 16.78                             117    0.11 8  248 195 
 CHI  HZ I         416 22.15         4.4 0.28            120            248 195 
 GUY2CHZ EP        415 53.68                             112    0.57 7  301 235 
 GUY2CHE ES        416 28.08                             112    0.99 7  301 235 
 GUY2CHZ I         416 34.24         4.6 0.54                           301 235 
                                                                                
