 2014  610 0008  6.8 L   6.829 -73.182140.1  RSN 12 0.4 2.0LRSN                1
 GAP=131        0.79       2.7     3.8  6.5 -0.3510E+01  0.8227E+01 -0.6150E+00E
 Epicentro: ZAPATOCA - SANTANDER                                               3
 ACTION:UPD 14-07-01 22:52 OP:nd   STATUS:               ID:20140610000806 L   I
 OLDACT:UP  14-06-10 13:00 OP:mh   STATUS:               ID:20140610000006     3
 OLDACT:UP  14-06-10 12:59 OP:mh   STATUS:               ID:20140610000006     3
 OLDACT:UP  14-06-10 12:59 OP:mh   STATUS:               ID:20140610000006     3
 OLDACT:REG 14-06-10 12:07 OP:mh   STATUS:               ID:20140610000006     3
 2014-06-10-0000-06M.COL___186                                                 6
 STAT SP IPHASW D HRMM SECON CODA AMPLIT PERI AZIMU VELO AIN AR TRES W  DIS CAZ7
 PAM  SZ EP   1    0 8 28.81                             150    0.35 8 77.6  43 
 PAM  SN ES   1    0 8 45.53                             150    0.20 8 77.6  43 
 PAM  HZ I         0 8 47.30        10.6 0.20            152           77.6  43 
 RUS  HZ EP   1    0 8 30.04                             141   -0.26 8  104 174 
 RUS  HZ I         0 8 48.22         6.5 1.18            140            104 174 
 RUS  HN ES   1    0 8 48.34                             141   -0.27 8  104 174 
 PTB  HZ EP   1    0 8 32.59                             131   -0.46 8  145 257 
 PTB  HN ES   1    0 8 53.19                             131   -0.30 8  145 257 
 PTB  HZ I         0 8 57.12        12.0 0.48            133            145 257 
 OCA  HZ EP        0 8 34.52                             129    0.1610  157 354 
 OCA  HN ES   1    0 8 56.12                             129    0.29 7  157 354 
 OCA  HZ I         0 9  0.14        13.0 0.42            133            157 354 
 SPBC HZ EP   1    0 8 34.78                             128   -0.13 7  163 217 
 SPBC HN ES   1    0 8 56.51                             128   -0.30 7  163 217 
 SPBC HZ I         0 9  6.57        11.3 0.18            128            163 217 
 ZAR  HZ EP   1    0 8 38.02                             122   -0.38 7  199 292 
 ZAR  HN ES   1    0 9  3.81                             122    0.79 7  199 292 
 ZAR  HZ I         0 9 10.85        11.8 0.28            124            199 292 
 NOR  HZ EP        0 8 42.52                             117    0.42 9  233 233 
 NOR  HN ES   1    0 9  9.74                             117    0.14 7  233 233 
 NOR  HZ I         0 9 11.93         7.8 0.14            119            233 233 
 SML  HZ EP        0 8 41.93                             117   -0.71 9  239 336 
 SML  HN ES   1    0 9 10.60                             117    0.03 7  239 336 
 SML  HZ I         0 9 14.36        17.3 0.10            119            239 336 
 HEL  HE ES        0 9 16.71                             114   -0.59 8  269 255 
 GUY2CHZ EP   1    0 8 49.83                             111   -0.20 6  300 234 
 GUY2CHE ES   1    0 9 24.40                             111    0.68 6  300 234 
 GUY2CHZ I         0 9 34.18         3.5 0.28                           300 234 
 RREF HE ES   4    0 9 30.56                             110    2.20 0  321 228 
 TOL  SZ EP   1    0 8 55.46                             108    0.65 5  343 224 
 TOL  SN ES   1    0 9 32.67                             108    0.43 5  343 224 
 TOL  HZ I         0 9 41.90        11.9 2.12            109            343 224 
 ORTC HZ EP   1    0 9  0.72                             105    0.12 5  396 215 
 ORTC HN ES   1    0 9 43.45                             105    0.91 5  396 215 
 ORTC HZ I         0 9 49.29         3.7 1.74            106            396 215 
                                                                                
