 2016  210 0221 31.1 L   6.780 -73.160142.4  RSN  5 0.4 1.3LRSN                1
 GAP=199        0.98       5.4     6.0  8.4  0.1328E+02  0.3052E+01 -0.2035E+02E
 Epicentro: LOS SANTOS - SANTANDER                                             3
 ACTION:UPD 16-03-04 21:24 OP:rebc STATUS:               ID:20160210022131 L   I
 OLDACT:UP  16-02-10 16:34 OP:ak   STATUS:               ID:20160210021736     3
 OLDACT:REG 16-02-10 14:22 OP:ak   STATUS:               ID:20160210021736     3
 2016-02-10-0217-36M.COL___319                                                 6
 STAT SP IPHASW D HRMM SECON CODA AMPLIT PERI AZIMU VELO AIN AR TRES W  DIS CAZ7
 BAR2 EZ EP        221 50.50                             171    0.2010 20.9 187 
 BAR2 EZ ES        222  5.39                             171    0.1310 20.9 187 
 BAR2 EZ I         222  7.29         4.9 0.40            172           20.9 187 
 RUS  HZ EP        221 54.63                             144    0.2410 98.5 175 
 RUS  HE ES        222 12.32                             144   -0.2210 98.5 175 
 RUS  HZ I         222 14.78         1.2 0.20            148           98.5 175 
 PTB  HZ EP        221 57.28                             132   -0.35 9  146 260 
 PTB  HN ES        222 17.89                             132   -0.42 9  146 260 
 PTB  HZ I         222 20.73         3.1 0.15            133            146 260 
 ZAR  HZ EP   1    222  3.12                             122   -0.16 6  203 293 
 ZAR  HN ES        222 29.26                             122    0.90 9  203 293 
 ZAR  HZ I         222 34.83         2.5 0.18            123            203 293 
 SML  HZ EP        222  7.93                             117    0.23 8  245 336 
 SML  HE ES        222 35.58                             117   -0.65 8  245 336 
 SML  HZ I         222 39.69         2.8 0.19            118            245 336 
                                                                                
