 2015  110 0852 17.8 L   6.810 -73.153146.8  RSN 17 0.5 2.3LRSN                1
 GAP= 70        1.15       2.8     3.3  5.3  0.5424E-01  0.4505E+01  0.8986E+00E
 Epicentro: LOS SANTOS - SANTANDER                                             3
 ACTION:UPD 15-03-02 15:38 OP:nd   STATUS:               ID:20150110085217 L   I
 OLDACT:UP  15-01-10 16:38 OP:cam  STATUS:               ID:20150110084809     3
 OLDACT:UP  15-01-10 16:36 OP:cam  STATUS:               ID:20150110084809     3
 OLDACT:UP  15-01-10 16:36 OP:cam  STATUS:               ID:20150110084809     3
 OLDACT:UP  15-01-10 16:30 OP:cam  STATUS:               ID:20150110084809     3
 OLDACT:REG 15-01-10 13:39 OP:cam  STATUS:               ID:20150110084809     3
 2015-01-10-0848-09M.COL___265                                                 6
 STAT SP IPHASW D HRMM SECON CODA AMPLIT PERI AZIMU VELO AIN AR TRES W  DIS CAZ7
 BAR2 EZ EP     C  852 37.63                             170    0.0210 24.3 188 
 BAR2 EZ ES        852 52.64                             170   -0.4010 24.3 188 
 BAR2 EZ I         852 54.18        30.2 0.20            168           24.3 188 
 BRR  HZ EP        852 39.54                             153    0.5110 70.0 298 
 BRR  HE ES        852 56.92                             153    1.3610 70.0 298 
 BRR  HZ I         853  0.06        23.8 0.12            151           70.0 298 
 PAM  SZ EP        852 40.37                             151    0.2310 77.0  41 
 PAM  SN ES        852 57.76                             151    0.2210 77.0  41 
 PAM  SZ I         852 59.67        22.3 0.22            155           77.0  41 
 RUS  HZ EP        852 41.43                             144   -0.3510  102 176 
 RUS  HE ES        853  0.14                             144   -0.3110  102 176 
 RUS  HZ I         853  0.97        20.1 0.38            145            102 176 
 PTB  HZ EP        852 44.15                             132   -0.69 9  147 258 
 PTB  HN ES        853  5.39                             132   -0.51 9  147 258 
 PTB  HZ I         853 13.06        25.5 0.46            131            147 258 
 TAM  HZ IP     C  852 45.78                             131    0.08 9  156 105 
 TAM  HN ES        853  7.22                             131   -0.21 9  156 105 
 OCA  HZ EP        852 46.40                             130    0.28 9  159 353 
 OCA  HN ES        853  7.73                             130   -0.44 9  159 353 
 OCA  HZ I         853 11.98        21.2 0.32            132            159 353 
 SPBC HZ EP        852 46.62                             129    0.17 9  164 219 
 SPBC HN ES        853  8.60                             129   -0.17 9  164 219 
 SPBC HZ I         853 10.85        40.6 0.40            129            164 219 
 ZAR  HZ EP        852 50.31                             123    0.08 9  203 292 
 ZAR  HE ES        853 15.65                             123    0.15 9  203 292 
 ZAR  HZ I         853 21.20        31.7 0.36            123            203 292 
 NOR  HZ EP        852 53.71                             119    0.08 8  235 234 
 NOR  HE ES        853 21.42                             119   -0.12 8  235 234 
 NOR  HZ I         853 29.32        21.5 0.14            119            235 234 
 SML  HZ EP        852 53.98                             118   -0.40 8  242 335 
 SML  HE ES        853 22.32                             118   -0.55 8  242 335 
 SML  HZ I         853 28.91        28.8 0.10            119            242 335 
 CHI  HZ EP        852 55.61                             117   -0.08 8  250 195 
 CHI  HN ES        853 25.16                             117   -0.05 8  250 195 
 CHI  HZ I         853 31.54         5.2 0.30            118            250 195 
 ROSC BZ EP   4    852 57.56                             117    1.49 0  253 211 
 HEL  HZ EP        852 58.50                             115    0.45 8  272 256 
 HEL  HN ES   4    853 28.29                             115   -1.12 0  272 256 
 HEL  HZ I         853 36.19        12.0 0.34            115            272 256 
 CBOC HZ EP        853  5.59                             110    0.84 7  333 252 
 TOL  SZ EP        853  6.86                             109    0.70 7  344 224 
 MON  HZ EP   4    853  4.87                             109   -1.86 0  352 308 
 MON  HN ES        853 43.69                             109   -1.17 6  352 308 
 MON  HZ I         853 47.32         3.5 0.24            110            352 308 
 ORTC HZ EP        853 12.11                             106    0.27 6  396 216 
 ORTC HN ES   4    853 55.11                             106    1.14 0  396 216 
 ORTC HZ I         854  5.25         4.6 0.66            107            396 216 
 SJC  HZ EP   4    853 11.98                             106   -1.29 0  408 327 
 SJC  HN ES   4    853 52.57                             106   -3.94 0  408 327 
                                                                                
