 2011  310 0252 23.0 L   6.776 -73.285132.2  RSN  7 0.4 1.8LRSN                1
 GAP=151        0.76       3.0    11.4 11.3  0.2897E+01  0.7075E+02  0.1881E+01E
 Epicentro: ZAPATOCA - SANTANDER                                               3
 ACTION:UP  11-06-16 14:32 OP:jfem STATUS:               ID:20110310025222 L   I
 2011-03-10-0251-29S.COL___135                                                 6
 STAT SP IPHASW D HRMM SECON CODA AMPLIT PERI AZIMU VELO SNR AR TRES W  DIS CAZ7
 BAR2 SZ EP   1    252 41.18                             170     0.113   23 151 
 BAR2 SZ I         252 57.71        20.1 0.20                            23 151 
 RUS  HZ EP   1    252 45.09                             141    -0.413  100 167 
 RUS  HE ES   1    253  3.00                             141     0.113  100 167 
 RUS  HZ I         253  5.52         8.7 0.33                           100 167 
 GRA  SZ EP   1    252 47.83                             132     0.012  134  23 
 GRA  SZ ES   1    253  7.48                             132     0.312  134  23 
 GRA  SZ I         253  8.84         9.9 0.50                           134  23 
 OCA  SZ EP   1    252 50.17                             126    -0.311  162 359 
 OCA  SZ ES   1    253 11.71                             126    -0.211  162 359 
 OCA  SZ I         253 16.08        12.1 0.24                           162 359 
 YOP  SN ES   1    253 15.68                             122    -0.111  184 149 
 YOP  SZ I         253 17.04         5.9 0.56                           184 149 
 CHI  HZ EP   3    252 59.24                             115    -0.1 3  242 192 
 CHI  HE ES   3    253 25.91                             115    -1.7 3  242 192 
 PRA  HZ EP        253 15.78                             104     0.810  382 208 
                                                                                
