 2017  610 0418 22.6 L   6.722 -73.195148.9  RSN  4 0.3 1.2LRSN                1
 GAP=226        0.74       6.1     6.1  7.4  0.2464E+02 -0.3261E+00 -0.2939E+01E
 Epicentro: VILLANUEVA - SANTANDER                                             3
 ACTION:UPD 17-09-14 16:51 OP:jn   STATUS:               ID:20170610041822 L   I
 OLDACT:REG 17-06-10 13:40 OP:cog  STATUS:               ID:20170610041741     3
 2017-06-10-0418-00M.COL___368                                                 6
 STAT SP IPHASW D HRMM SECON CODA AMPLIT PERI AZIMU VELO AIN AR TRES W  DIS CAZ7
 BRR  HZ EP        418 43.75                             153   -0.3010 71.3 307 
 BRR  HN ES        419  0.75                             153   -0.0610 71.3 307 
 BRR  HZ I         419  3.65         6.5 0.75            154           71.3 307 
 RUS  HZ EP        418 46.28                             147    0.2210 92.5 172 
 RUS  HN ES        419  4.50                             147    0.1110 92.5 172 
 RUS  HZ I         419  5.49         1.7 0.34            149           92.5 172 
 PTB  HZ EP        418 48.99                             134   -0.19 9  141 262 
 PTB  HN ES        419  9.68                             134   -0.26 9  141 262 
 PTB  HZ I         419 12.94         1.9 0.14            136            141 262 
 ZAR  HN ES        419 21.00                             123    0.60 9  203 295 
                                                                                
