 2013  210 0813 21.5 L   6.811 -73.169150.4  RSN  7 0.5 1.7LRSN                1
 GAP=133        1.04       5.1     6.2 10.4  0.1275E+01  0.1035E+02 -0.5056E+01E
 Epicentro: LOS SANTOS - SANTANDER                                             3
 ACTION:UPD 13-03-12 09:31 OP:ep   STATUS:               ID:20130210081321 L   I
 2013-02-10-0810-00M.COL___241                                                 6
 STAT SP IPHASW D HRMM SECON CODA AMPLIT PERI AZIMU VELO AIN AR TRES W  DIS CAZ7
 BRR  HZ EP        813 43.44                             154    0.4110 68.3 299 
 BRR  HN ES   1    814  0.74                             154    0.95 7 68.3 299 
 BRR  HN I         814  1.34        10.4 0.20            151           68.3 299 
 PAM  SZ EP   1    813 44.33                             151    0.04 7 78.2  42 
 PAM  SN ES   1    814  1.73                             151   -0.31 7 78.2  42 
 PAM  SN I         814  2.60         7.9 0.22            153           78.2  42 
 RUS  HZ EP   1    813 46.42                             144    0.58 7  102 175 
 RUS  HN ES   1    814  4.07                             144   -0.73 7  102 175 
 RUS  HN I         814  5.59         2.9 0.28            147            102 175 
 PTB  HZ EP   1    813 48.45                             133   -0.22 7  145 258 
 PTB  HN ES   1    814  9.26                             133   -0.58 7  145 258 
 PTB  HN I         814 14.82         4.6 0.14            133            145 258 
 OCA  HN ES   1    814 12.33                             131    0.00 7  159 354 
 OCA  HN I         814 15.94        15.5 0.30            131            159 354 
 ZAR  HE ES   1    814 19.51                             124    0.21 6  201 292 
 SML  HZ EP   1    813 58.00                             119   -0.19 6  242 336 
 SML  HN ES   1    814 25.83                             119   -0.95 6  242 336 
 SML  HN I         814 32.43         8.5 0.10            119            242 336 
                                                                                
