 2012 1210 0603 21.3 L   6.765 -73.198142.8  RSN  5 0.3 1.3LRSN                1
 GAP=172        0.61       5.2     5.4  6.4  0.2137E+01  0.1029E+02  0.6152E+01E
 Epicentro: VILLANUEVA - SANTANDER                                             3
 ACTION:UPD 13-01-04 14:26 OP:ep   STATUS:               ID:20121210060321 L   I
 2012-12-10-0600-00M.COL___242                                                 6
 STAT SP IPHASW D HRMM SECON CODA AMPLIT PERI AZIMU VELO AIN AR TRES W  DIS CAZ7
 BAR2 SZ EP   1    6 3 40.61                             172    0.09 7 19.2 175 
 BAR2 SZ ES   1    6 3 54.93                             172   -0.56 7 19.2 175 
 BAR2 SZ I         6 3 57.12        12.8 0.20                          19.2 175 
 GIR2 SZ EP   1    6 3 40.45                             166   -0.29 7 34.7   1 
 GIR2 SZ ES   1    6 3 56.40                             166    0.52 7 34.7   1 
 GIR2 SZ I         6 3 56.83         3.7 0.42                          34.7   1 
 RUS  HZ EP   1    6 3 44.69                             144    0.14 7 97.3 172 
 RUS  HN ES   1    6 4  2.79                             144    0.13 7 97.3 172 
 RUS  HZ I         6 4  4.70         2.7 0.26                          97.3 172 
 PTB  HZ EP   1    6 3 47.32                             133   -0.15 7  141 260 
 PTB  HN ES   1    6 4  7.92                             133    0.06 7  141 260 
 PTB  HZ I         6 4 10.83         2.0 0.11                           141 260 
 PRA  HN ES   2    6 4 55.38                             106    0.26 3  386 209 
                                                                                
