 2012  610 0227 22.5 L   6.799 -73.142139.0  RSN 10 0.4 2.2LRSN                1
 GAP=183        0.78       3.3     4.9  6.1  0.1306E+01  0.9083E+01  0.8978E+00E
 Epicentro: LOS SANTOS - SANTANDER                                             3
 ACTION:UPD 12-08-06 17:48 OP:ep   STATUS:               ID:20120610022728 L   I
 2012-06-10-0220-00M.COL___201                                                 6
 STAT SP IPHASW D HRMM SECON CODA AMPLIT PERI AZIMU VELO AIN AR TRES W  DIS CAZ7
 BAR2 SZ EP        227 41.52                             170    0.1610 23.3 191 
 BAR2 SZ ES   1    227 55.77                             170   -0.27 7 23.3 191 
 BAR2 SZ I         227 59.36        39.4 0.27            163           23.3 191 
 RUS  HZ EP   1    227 45.44                             142   -0.18 7  100 176 
 RUS  HN ES   1    228  4.25                             142    0.62 7  100 176 
 RUS  HZ I         228  5.65        15.3 0.43            132            100 176 
 PTB  HZ EP   1    227 48.17                             130   -0.83 7  148 259 
 PTB  HN ES   1    228  9.27                             130   -0.37 7  148 259 
 PTB  HZ I         228 11.31        13.2 0.19            122            148 259 
 OCA  HZ EP   1    227 49.98                             128   -0.37 7  160 353 
 OCA  HN ES   1    228 11.97                             128   -0.08 7  160 353 
 OCA  HZ I         228 16.01        31.1 0.13            121            160 353 
 ZAR  HZ EP   1    227 55.49                             121    0.89 6  204 292 
 ZAR  HN ES   1    228 20.08                             121    0.47 6  204 292 
 ZAR  HZ I         228 26.04        21.6 0.35            114            204 292 
 NOR  SZ EP        227 58.10                             117    0.18 8  235 235 
 NOR  SN ES   1    228 25.20                             117   -0.31 6  235 235 
 CHI  HZ EP   1    227 59.54                             116   -0.33 6  249 195 
 CHI  HN ES   1    228 28.95                             116   -0.04 6  249 195 
 CHI  HZ I         228 35.17         6.3 0.19            108            249 195 
 ROSC BZ EP   1    228  0.65                             115    0.34 6  253 211 
 ROSC BZ I         228 37.63        14.7 0.52            107            253 211 
 DBB  SZ EP   1    228 10.00                             108    0.20 5  340 274 
 PRA  HZ EP   1    228 15.62                             105   -0.23 4  392 210 
                                                                                
