 2011  910 0020  9.4 L   6.738 -73.364110.0  RSN  6 0.3 1.7LRSN                1
 GAP=135        0.44       3.9     4.5  6.9  0.5925E+01  0.1186E+02  0.4799E+01E
 Epicentro: ZAPATOCA - SANTANDER                                               3
 ACTION:UPD 12-07-13 15:56 OP:ep   STATUS:               ID:20110910002009 L   I
 2011-09-10-0020-00M.COL___171                                                 6
 STAT SP IPHASW D HRMM SECON CODA AMPLIT PERI AZIMU VELO AIN AR TRES W  DIS CAZ7
 BAR2 SZ ES   2    020 37.21                             166    0.32 5 25.7 129 
 BAR2 SZ I         020 38.44        23.4 0.13                          25.7 129 
 GIR2 SZ EP   2    020 25.57                             158    0.22 5 42.2  27 
 GIR2 SZ ES   2    020 37.80                             158    0.05 5 42.2  27 
 BRR  HZ EP   1    020 25.62                             151   -0.26 7 56.1 317 
 BRR  HZ I         020 35.22        18.1 0.37                          56.1 317 
 BRR  HE ES   2    020 38.79                             151    0.09 5 56.1 317 
 RUS  HZ EP   2    020 30.14                             135    0.44 5 98.5 162 
 RUS  HN ES   2    020 45.06                             135   -0.44 5 98.5 162 
 RUS  HZ I         020 46.90         4.6 0.20                          98.5 162 
 PAM  SE ES   2    020 45.43                             135   -0.16 5 99.1  48 
 ZAR  HN ES   2    020 59.85                             116    0.07 4  185 297 
 ZAR  HZ I         021  1.55         6.3 0.42                           185 297 
                                                                                
