 2010 1110 0549 41.4 L   6.772 -73.072150.0  RSN  6 0.5 1.9LRSN                1
 GAP=167        1.38       8.3    18.0 17.6  0.3437E+02 -0.1590E+03 -0.5117E+02E
 Epicentro: LOS SANTOS - SANTANDER                                             3
 ACTION:UP  10-12-17 16:51 OP:REBC STATUS:               ID:20101110054941 L   I
 2010-11-10-0546-18S.COL___128                                                 6
 STAT SP IPHASW D HRMM SECON CODA AMPLIT PERI AZIMU VELO SNR AR TRES W  DIS CAZ7
 BAR2 SZ EP        550  1.44                             171    -0.110   23 212 
 BAR2 SZ I         550 17.72        20.7 0.42                            23 212 
 BTL  SZ EP        550  1.75                             169     0.210   27 307 
 BRR  HZ EP        550  3.34                             151    -0.110   80 298 
 BRR  HZ I         550  3.82        16.6 0.43                            80 298 
 BRR  HN ES        550 21.11                             151     0.410   80 298 
 RUS  HN ES   1    550 23.60                             146    -0.4 7   97 181 
 RUS  HZ I         550 25.06         6.4 0.41                            97 181 
 GRA  SZ EP   1    550  8.29                             138     1.2 7  127  14 
 GRA  SZ I         550  9.45         8.7 0.30                           127  14 
 GRA  SZ ES   2    550 27.24                             138     0.1 5  127  14 
 OCA  SZ EP        550  9.95                             130    -0.5 9  164 350 
 OCA  SZ ES   1    550 32.20                             130    -0.9 7  164 350 
 OCA  SZ I         550 38.44         9.1 0.55                           164 350 
                                                                                
