 2010  110 0850  1.4 L   6.811 -73.215143.6  RSN  5 0.3 1.5LRSN                1
 GAP=167        0.60       3.1    21.8  5.5 -0.2527E+01  0.5409E+02  0.1516E+01E
 Epicentro: ZAPATOCA - SANTANDER                                               3
 ACTION:UP  10-08-24 09:43 OP:vdl  STATUS:               ID:20100110085001 L   I
 2010-01-10-0844-58S.COL___096                                                 6
 STAT SP IPHASW D HRMM SECON CODA AMPLIT PERI AZIMU VELO SNR AR TRES W  DIS CAZ7
 BAR2 SZ EP        850 20.81                             170     0.010   24 172 
 BAR2 SZ ES   1    850 35.67                             170    -0.3 7   24 172 
 GIR2 SZ EP        850 20.96                             168     0.210   30   5 
 GIR2 SZ ES   1    850 36.33                             168     0.4 7   30   5 
 RUS  BZ EP        850 25.03                             143    -0.110  103 172 
 RUS  BN ES   2    850 43.27                             143    -0.3 5  103 172 
 RUS  BZ I         850 44.68         2.6 0.30                           103 172 
 OCA  SZ EP        850 29.32                             129    -0.1 9  158 356 
 OCA  SZ ES   2    850 50.49                             129    -0.7 5  158 356 
 OCA  SZ I         850 56.28        10.7 0.26                           158 356 
 CHI  HZ EP        850 39.14                             117     0.2 8  248 193 
 CHI  HE ES   2    851  7.90                             117    -0.3 4  248 193 
 CHI  HZ I         851 12.04         1.8 0.46                           248 193 
                                                                                
