 2014  810 0747 11.6 L   6.794 -73.139147.6  RSN  5 0.3 1.3LRSN                1
 GAP=238        0.74       5.4     5.5  6.3  0.5580E+01  0.1514E+01  0.8643E+01E
 Epicentro: LOS SANTOS - SANTANDER                                             3
 ACTION:UPD 14-09-15 21:48 OP:nd   STATUS:               ID:20140810074711 L   I
 OLDACT:DUP 14-08-10 19:36 OP:spq  STATUS:               ID:20140810073816d    3
 OLDACT:REG 14-08-10 13:51 OP:spq  STATUS:               ID:20140810073815     3
 2014-08-10-0738-15M.COL___260                                                 6
 STAT SP IPHASW D HRMM SECON CODA AMPLIT PERI AZIMU VELO AIN AR TRES W  DIS CAZ7
 BAR2 SZ EP        747 31.40                             171   -0.0310 22.8 192 
 BAR2 SZ ES   1    747 46.57                             171   -0.34 7 22.8 192 
 BAR2 SZ I         747 47.39         5.4 0.28            169           22.8 192 
 BRR  HE ES        747 50.07                             153    0.3810 72.2 299 
 BRR  HZ I         747 53.29         4.7 0.30            152           72.2 299 
 RUS  HZ EP        747 35.51                             144    0.0410 99.8 176 
 RUS  HN ES   1    747 53.96                             144   -0.14 7 99.8 176 
 RUS  HZ I         747 55.45         1.9 0.46            145           99.8 176 
 PTB  HZ EP        747 38.54                             132   -0.23 9  148 259 
 PTB  HN ES   1    747 59.25                             132   -0.71 7  148 259 
 PTB  HZ I         748  1.00         2.7 0.16            133            148 259 
 SPBC HZ EP        747 40.38                             129    0.15 9  163 219 
 SPBC HE ES        748  2.94                             129    0.38 9  163 219 
 SPBC HZ I         748  6.68         3.2 0.22            130            163 219 
                                                                                
