 2016  710 0758 19.2 L   6.808 -73.086149.2  RSN 14 0.5 1.7LRSN                1
 GAP=194        1.06       3.9     5.4  6.7  0.4619E+01  0.3403E+01 -0.1627E+00E
 Epicentro: LOS SANTOS - SANTANDER                                             3
 ACTION:UPD 17-03-29 16:49 OP:lp   STATUS:               ID:20160710075819 L   I
 OLDACT:UP  16-07-10 16:49 OP:dani STATUS:               ID:20160710075750     3
 OLDACT:UP  16-07-10 16:48 OP:dani STATUS:               ID:20160710075750     3
 OLDACT:UP  16-07-10 16:46 OP:dani STATUS:               ID:20160710075750     3
 OLDACT:REG 16-07-10 16:41 OP:dani STATUS:               ID:20160710075750     3
 2016-07-10-0757-50M.COL___313                                                 6
 STAT SP IPHASW D HRMM SECON CODA AMPLIT PERI AZIMU VELO AIN AR TRES W  DIS CAZ7
 BAR2 EZ EP        758 39.54                             170    0.2210 26.1 204 
 BAR2 EZ I         758 55.40        15.3 0.18            168           26.1 204 
 BRR  HZ EP        758 41.70                             152    0.6510 76.7 296 
 BRR  HN ES        758 58.59                             152    0.5210 76.7 296 
 BRR  HZ I         759  3.20        10.2 0.12            149           76.7 296 
 RUS  HZ EP        758 43.49                             145    0.1410  101 180 
 RUS  HN ES        759  1.95                             145   -0.2310  101 180 
 RUS  HZ I         759  2.47         6.0 0.40            141            101 180 
 PTB  HZ EP        758 46.41                             132   -0.66 9  154 259 
 PTB  HN ES   4    759  5.40                             132   -3.39 0  154 259 
 PTB  HZ I         759 10.36         4.4 0.14            128            154 259 
 SPBC HZ EP        758 48.51                             129    0.07 9  168 221 
 SPBC HE ES        759 10.51                             129   -0.73 9  168 221 
 SPBC HZ I         759 14.78         9.0 0.12            125            168 221 
 ZAR  HZ EP        758 52.40                             122   -0.08 8  210 291 
 ZAR  HN ES        759 18.17                             122   -0.26 8  210 291 
 ZAR  HZ I         759 23.86         5.0 0.14            119            210 291 
 NOR  HN ES        759 23.77                             119   -0.52 8  241 235 
 CHI  HZ EP   4    758 56.51                             118   -0.89 0  251 197 
 CHI  HN ES   4    759 28.37                             118    1.20 0  251 197 
 CHI  HZ I         759 35.69         1.9 0.24            114            251 197 
 HEL  HZ EP        759  1.07                             115    0.73 7  279 256 
 HEL  HN ES   4    759 34.59                             115    2.18 0  279 256 
 HEL  HZ I         759 38.44         3.0 0.40            112            279 256 
 PTGC HZ EP        759  2.61                             112   -0.45 7  307 160 
 GUY2CHZ EP   4    759  4.83                             113    1.18 0  307 235 
 GUY2CHN ES        759 38.56                             113    0.25 7  307 235 
 GUY2CHZ I         759 48.28         2.8 0.54                           307 235 
 PRA  HZ EP        759 13.88                             107    0.55 6  396 210 
 PRA  HE ES        759 56.21                             107    0.67 6  396 210 
 PRA  HZ I         759 57.81         1.7 0.28            104            396 210 
 SJC  HZ EP        759 14.57                             106   -0.66 6  412 326 
 SJC  HN ES        759 58.21                             106   -0.71 6  412 326 
 SJC  HZ I         759 59.70         1.2 0.34            104            412 326 
 PAL  HZ EP        759 15.46                             106    0.25 6  412 239 
 PAL  HZ I         8 0  6.49         1.9 0.36            104            412 239 
                                                                                
