 2013  810 0334 49.8 L   6.804 -73.149153.7  RSN  8 0.5 2.0LRSN                1
 GAP=200        1.04       4.4     6.5  8.4  0.6033E+01  0.2465E+01  0.1633E+01E
 Epicentro: LOS SANTOS - SANTANDER                                             3
 ACTION:UPD 14-01-14 09:00 OP:ep   STATUS:               ID:20130810033449 L   I
 OLDACT:DUP 13-08-10 12:41 OP:carl STATUS:               ID:20130810032960d    3
 2013-08-10-0329-59M.COL___271                                                 6
 STAT SP IPHASW D HRMM SECON CODA AMPLIT PERI AZIMU VELO AIN AR TRES W  DIS CAZ7
 BAR2 SZ EP        335 10.36                             171   -0.0010 23.7 189 
 BAR2 SZ ES   1    335 26.15                             171   -0.27 7 23.7 189 
 BAR2 SZ I         335 29.19         8.8 0.50            172           23.7 189 
 BRR  HZ EP        335 12.31                             154    0.5610 70.6 298 
 BRR  HN ES   1    335 29.76                             154    0.87 7 70.6 298 
 BRR  HN I         335 32.00        23.3 0.16            153           70.6 298 
 RUS  HZ EP        335 14.26                             145   -0.0810  101 176 
 RUS  HN ES   1    335 32.82                             145   -0.69 7  101 176 
 RUS  HZ I         335 33.93         4.5 0.38            149            101 176 
 PTB  HZ EP   1    335 16.95                             134   -0.42 7  147 259 
 PTB  HN ES   1    335 38.19                             134   -0.70 7  147 259 
 PTB  HZ I         335 40.29         7.5 0.52            135            147 259 
 ZAR  HN ES   1    335 48.32                             124   -0.04 6  203 292 
 ZAR  HN I         335 53.98        13.6 0.46            125            203 292 
 NOR  HE ES        335 54.12                             120   -0.08 8  235 234 
 NOR  HE I         335 56.18        12.1 0.16            122            235 234 
 SML  HZ EP   1    335 26.78                             119   -0.01 6  243 335 
 SML  HN ES   1    335 55.24                             119   -0.43 6  243 335 
 SML  HZ I         335 57.69        10.8 0.28            121            243 335 
 CHI  HZ EP        335 27.60                             119   -0.36 8  249 195 
 CHI  HN ES        335 58.67                             119    0.93 8  249 195 
                                                                                
