 2012  510 0508 56.0 L   6.770 -73.159147.7  RSN  4 0.3 1.3LRSN                1
 GAP=234        0.52       7.3     6.9  7.1  0.2458E+02  0.3101E+01 -0.1703E+00E
 Epicentro: LOS SANTOS - SANTANDER                                             3
 ACTION:UP  12-07-05 12:04 OP:pat  STATUS:               ID:20120510050856 L   I
 2012-05-10-0504-36M.COL___184                                                 6
 STAT SP IPHASW D HRMM SECON CODA AMPLIT PERI AZIMU VELO SNR AR TRES W  DIS CAZ7
 BAR2 SZ EP   1    5 9 15.80                             172     0.0 7   20 187 
 BAR2 SZ ES   2    5 9 30.76                             172    -0.5 5   20 187 
 BAR2 SZ I         5 9 31.85         4.1 0.29                            20 187 
 BRR  HZ EP   1    5 9 17.63                             153     0.2 7   72 301 
 BRR  HE ES   2    5 9 34.28                             153     0.2 5   72 301 
 BRR  HZ I         5 9 38.38         3.9 0.14                            72 301 
 RUS  HZ EP   1    5 9 19.80                             145     0.1 7   97 175 
 RUS  HN ES   2    5 9 38.50                             145     0.3 5   97 175 
 PTB  HZ EP   1    5 9 22.58                             133    -0.4 7  146 260 
 PTB  HE ES   2    5 9 44.09                             133     0.1 5  146 260 
                                                                                
