 2012  510 0445 43.8 L   5.990 -73.739114.0  RSN  6 0.3 1.4LRSN                1
 GAP=151        0.59       4.5     3.0  7.0 -0.4049E+01  0.2988E+01  0.5808E+01E
 Epicentro: GUAVATA - SANTANDER                                                3
 ACTION:UP  12-07-05 12:04 OP:pat  STATUS:               ID:20120510044543 L   I
 2012-05-10-0440-00M.COL___195                                                 6
 STAT SP IPHASW D HRMM SECON CODA AMPLIT PERI AZIMU VELO SNR AR TRES W  DIS CAZ7
 RUS  HZ EP   1    446  2.55                             146     0.1 7   73  98 
 RUS  HN ES   2    446 16.41                             146    -0.6 5   73  98 
 BAR2 SZ EP        446  3.32                             139    -0.110   91  43 
 BAR2 SZ I         446 13.50         6.2 0.28                            91  43 
 BAR2 SZ ES   1    446 19.28                             139     0.6 7   91  43 
 PTB  HZ EP   1    446  3.71                             136    -0.2 7  100 307 
 PTB  HN ES   1    446 19.49                             136     0.0 7  100 307 
 BRR  HZ EP   1    446  5.91                             130    -0.1 7  124   1 
 BRR  HN ES   2    446 22.88                             130    -0.4 5  124   1 
 BRR  HZ I         446 26.73         3.7 0.32                           124   1 
 NOR  SZ EP   1    446  6.97                             127    -0.1 7  134 249 
 NOR  SE ES   1    446 25.39                             127     0.2 7  134 249 
 HEL  HZ EP   1    446 14.33                             116     0.0 6  199 276 
 HEL  HZ I         446 42.15         2.5 0.28                           199 276 
                                                                                
