 2017 1210 0719  4.0 L   6.811 -73.189143.3  RSN 11 0.4 1.4LRSN                1
 GAP=107        0.88       2.5     3.0  5.3 -0.3782E+00  0.4587E+01  0.1889E+01E
 Epicentro: ZAPATOCA - SANTANDER                                               3
 ACTION:UPD 18-01-04 13:18 OP:rebc STATUS:               ID:20171210071904 L   I
 OLDACT:UP  17-12-10 19:05 OP:lv   STATUS:               ID:20171210071741     3
 OLDACT:UP  17-12-10 19:03 OP:lv   STATUS:               ID:20171210071741     3
 OLDACT:REG 17-12-10 13:03 OP:lv   STATUS:               ID:20171210071741     3
 2017-12-10-0718-00M.COL___475                                                 6
 STAT SP IPHASW D HRMM SECON CODA AMPLIT PERI AZIMU VELO AIN AR TRES W  DIS CAZ7
 BAR2 EZ EP        719 23.18                             170   -0.2010 24.2 178 
 BAR2 EZ ES        719 38.30                             170   -0.1810 24.2 178 
 BAR2 EZ I         719 39.17         9.8 0.40            171           24.2 178 
 PAM  EZ EP        719 26.12                             150    0.0010 79.7  43 
 PAM  EN ES        719 43.35                             150   -0.0110 79.7  43 
 PAM  EZ I         719 45.23         2.5 0.46            152           79.7  43 
 PTB  HZ EP        719 30.10                             132   -0.29 9  143 258 
 PTB  HN ES        719 51.05                             132    0.10 9  143 258 
 PTB  HZ I         719 53.14         1.8 0.32            133            143 258 
 OCA  HZ EP        719 31.90                             129   -0.09 9  159 355 
 OCA  HN ES        719 54.30                             129    0.49 9  159 355 
 OCA  HZ I         719 58.59         8.2 0.34            131            159 355 
 SPBC HZ EP        719 32.36                             129    0.22 9  161 217 
 SPBC HN ES        719 54.55                             129    0.47 9  161 217 
 SPBC HZ I         719 59.71         3.8 0.22            130            161 217 
 YPLC HZ IP     C  719 33.59                             125   -0.39 9  180 150 
 YPLC HN ES        719 57.77                             125    0.43 9  180 150 
 ZAR  HZ EP        719 35.87                             122    0.06 9  199 292 
 ZAR  HN ES        719 59.93                             122   -0.67 9  199 292 
 ZAR  HZ I         720  6.31         3.4 0.26            123            199 292 
 CHI  HZ EP        719 41.94                             117    0.36 8  249 194 
 CHI  HN ES        720 10.10                             117   -0.78 8  249 194 
 CHI  HZ I         720 15.85         1.4 0.42            118            249 194 
 ROSC BZ EP   4    719 44.22                             116    2.36 0  251 210 
 GUY2CHZ EP   4    719 48.72                             112    1.56 0  298 234 
 GUY2CHN ES        720 21.40                             112    0.60 7  298 234 
 GUY2CHZ I         720 29.65         1.1 0.56                           298 234 
 PTGC HZ EP   9    719 46.51                             111   -1.59 0  312 158 
 PTGC HN ES        720 20.25                             111   -0.64 7  312 158 
 CBOC HZ EP        719 50.28                             110   -0.08 7  329 252 
 CBOC HN ES        720 26.64                             110    0.14 7  329 252 
                                                                                
