 2014  810 0618 15.3 L   6.794 -73.133148.0  RSN 17 0.4 1.9LRSN                1
 GAP=138        0.89       2.3     3.5  4.6 -0.1541E+01  0.3031E+01  0.1200E+01E
 Epicentro: LOS SANTOS - SANTANDER                                             3
 ACTION:UPD 14-09-15 21:48 OP:nd   STATUS:               ID:20140810061815 L   I
 OLDACT:UP  14-08-10 19:13 OP:spq  STATUS:               ID:20140810060806     3
 OLDACT:REG 14-08-10 13:37 OP:spq  STATUS:               ID:20140810060806     3
 2014-08-10-0608-06M.COL___260                                                 6
 STAT SP IPHASW D HRMM SECON CODA AMPLIT PERI AZIMU VELO AIN AR TRES W  DIS CAZ7
 BAR2 SZ EP        618 34.99                             171   -0.1910 22.9 194 
 BAR2 SZ ES   1    618 50.54                             171   -0.16 7 22.9 194 
 BAR2 SZ I         618 52.14        12.3 0.14            169           22.9 194 
 BRR  HZ EP        618 36.93                             152    0.1610 72.8 298 
 BRR  HN ES        618 54.38                             152    0.8510 72.8 298 
 BRR  HZ I         618 57.11         9.8 0.12            151           72.8 298 
 PAM  SZ EP     C  618 37.92                             151    0.2010 77.0  38 
 PAM  SE ES   1    618 55.23                             151    0.01 7 77.0  38 
 PAM  SZ I         618 57.49         7.4 0.41            155           77.0  38 
 RUS  HZ EP        618 38.88                             145   -0.3210 99.8 177 
 RUS  HE ES        618 57.77                             145   -0.0910 99.8 177 
 RUS  HZ I         619  0.25         9.2 0.50            146           99.8 177 
 PTB  HZ EP   1    618 41.76                             132   -0.80 7  149 259 
 PTB  HN ES        619  3.10                             132   -0.72 9  149 259 
 PTB  HZ I         619  6.06        11.0 0.10            132            149 259 
 OCA  HZ EP        618 44.38                             130    0.52 9  161 353 
 OCA  HE ES        619  6.02                             130   -0.12 9  161 353 
 OCA  HZ I         619 10.43         6.0 0.57            132            161 353 
 SPBC HZ EP        618 43.86                             130   -0.14 9  164 220 
 SPBC HN ES        619  6.21                             130   -0.18 9  164 220 
 SPBC HZ I         619 11.51        10.2 0.16            130            164 220 
 ZAR  HZ EP        618 47.82                             123   -0.23 8  206 292 
 ZAR  HN ES        619 13.44                             123   -0.16 8  206 292 
 ZAR  HZ I         619 19.96         7.8 0.28            123            206 292 
 NOR  HZ EP        618 51.00                             119   -0.23 8  235 235 
 NOR  HE ES        619 19.55                             119    0.28 8  235 235 
 NOR  HZ I         619 23.40         9.5 0.22            120            235 235 
 SML  HZ EP        618 51.47                             118   -0.71 8  245 335 
 SML  HN ES   1    619 21.16                             118    0.21 6  245 335 
 SML  HZ I         619 27.65        11.7 0.05            119            245 335 
 CHI  HZ EP   1    618 53.11                             118    0.03 6  248 196 
 CHI  HE ES   1    619 22.78                             118    0.22 6  248 196 
 CHI  HZ I         619 27.84         4.6 0.28            119            248 196 
 HEL  HE ES   1    619 27.90                             115    0.59 6  273 256 
 HEL  HZ I         619 33.32         4.8 0.30            116            273 256 
 GUY2CHZ EP        618 59.38                             113    0.29 7  302 235 
 GUY2CHN ES   4    619 37.16                             113    3.91 0  302 235 
 GUY2CHZ I         619 39.98         4.2 0.34                           302 235 
 TOL  SZ EP   4    619  5.05                             110    1.35 0  344 225 
 TOL  SN ES   1    619 41.97                             110    0.52 5  344 225 
 TOL  SZ I         619 47.81         5.7 0.23            111            344 225 
 PRA  HZ EP        619  9.58                             107    0.68 6  392 210 
 PRA  HN ES        619 51.34                             107    0.62 6  392 210 
 PRA  HZ I         619 54.91         2.8 0.55            108            392 210 
 ORTC HZ EP        619  9.36                             107    0.04 6  396 216 
 ORTC HE ES        619 51.50                             107    0.04 6  396 216 
 ORTC HZ I         619 58.77         2.9 0.46            108            396 216 
 SJC  HZ EP   4    619  9.19                             106   -1.90 0  411 327 
 SJC  HN ES   4    619 52.59                             106   -2.02 0  411 327 
 SJC  HZ I         619 53.88         1.4 0.58            107            411 327 
                                                                                
