 2014  210 0316 47.0 L   6.781 -73.136135.6  RSN 16 0.4 2.4LRSN                1
 GAP= 72        0.89       3.1     3.5  4.9 -0.1612E+01  0.3815E+01  0.1202E+01E
 Epicentro: LOS SANTOS - SANTANDER                                             3
 ACTION:UPD 14-03-10 08:09 OP:ep   STATUS:               ID:20140210031647 L   I
 OLDACT:UP  14-02-10 12:06 OP:mh   STATUS:               ID:20140210031001d    3
 OLDACT:DUP 14-02-10 11:50 OP:mh   STATUS:               ID:20140210031001d    3
 2014-02-10-0310-00M.COL___291                                                 6
 STAT SP IPHASW D HRMM SECON CODA AMPLIT PERI AZIMU VELO AIN AR TRES W  DIS CAZ7
 BAR2 SZ IP     D  317  5.46                             171    0.0910 21.4 194 
 BAR2 SZ ES   1    317 19.15                             171   -0.54 7 21.4 194 
 BAR2 SZ I         317 21.36       106.6 0.19            170           21.4 194 
 BRR  HZ IP     C  317  7.38                             150    0.2110 73.2 300 
 BRR  HN ES   1    317 23.59                             150    0.68 7 73.2 300 
 BRR  HZ I         317 28.96        53.9 0.11            135           73.2 300 
 PAM  SZ EP     C  317  8.30                             149    0.1010 78.4  38 
 PAM  SN ES   1    317 25.07                             149    0.32 7 78.4  38 
 PAM  SZ I         317 26.30        44.4 0.23            136           78.4  38 
 RUS  HZ EP     C  317  9.41                             142   -0.1810 98.4 177 
 RUS  HN ES        317 27.16                             142   -0.0610 98.4 177 
 RUS  HZ I         317 28.78        24.9 0.14            134           98.4 177 
 PTB  HZ EP   1    317 12.03                             129   -1.18 7  148 260 
 PTB  HN ES   1    317 33.79                             129    0.13 7  148 260 
 TAM  HZ IP     D  317 13.80                             128    0.06 9  154 104 
 SPBC HZ EP   1 C  317 14.36                             127   -0.28 7  162 220 
 SPBC HN ES        317 36.26                             127    0.06 9  162 220 
 SPBC HZ I         317 37.45        33.8 0.25            116            162 220 
 OCA  HZ EP   1    317 14.14                             127   -0.62 7  163 353 
 OCA  HZ I         317 37.72        27.9 0.09            114            163 353 
 ZAR  HZ EP        317 18.47                             120   -0.52 8  206 293 
 ZAR  HN ES   2    317 44.30                             120    0.36 4  206 293 
 ZAR  HZ I         317 52.52        36.5 0.21            109            206 293 
 NOR  HZ EP   1    317 21.48                             116   -0.63 6  234 235 
 NOR  HZ I         317 55.97        23.3 0.15            107            234 235 
 SML  HZ EP   4    317 21.74                             115   -1.60 0  246 335 
 SML  HN ES   4    317 48.45                             115   -3.23 0  246 335 
 CHI  HZ EP        317 24.22                             115    0.27 8  247 196 
 CHI  HN ES        317 52.72                             115   -0.06 8  247 196 
 CHI  HZ I         317 59.65         5.5 0.35            107            247 196 
 ROSC BN ES   4    317 55.66                             115    2.02 0  251 211 
 HEL  HZ EP   1    317 27.40                             113    0.63 6  273 256 
 HEL  HN ES   1    317 57.52                             113   -0.27 6  273 256 
 HEL  HZ I         318  4.49        18.7 0.28            105            273 256 
 URE  HZ EP   4    317 25.73                             111   -2.06 0  286 292 
 URE  HN ES   4    317 57.04                             111   -2.57 0  286 292 
 GUY2CHZ EP        317 31.13                             110    1.02 7  301 235 
 GUY2CHE ES   4    318  6.80                             110    3.06 0  301 235 
 GUY2CHZ I         318 10.85        15.1 0.39                           301 235 
 CBOC HZ EP        317 33.60                             108    0.05 7  334 253 
 CBOC HN ES   4    318  7.25                             108   -2.61 0  334 253 
 CBOC HZ I         318 13.36         5.1 0.17            102            334 253 
 PRA  HZ EP   1    317 40.41                             105    0.39 4  391 210 
 PRA  HZ I         318 26.17         7.9 0.23            100            391 210 
 ORTC HZ EP        317 40.83                             105    0.38 6  394 216 
 ORTC HN ES   1    318 21.98                             105   -0.17 4  394 216 
 ORTC HZ I         318 28.75         5.1 0.51            100            394 216 
 SJC  HZ EP   4    317 35.69                             104   -6.83 0  412 327 
 SJC  HN ES   4    318 20.48                             104   -5.35 0  412 327 
                                                                                
