 2010  710 0224  7.3 L   6.718 -73.183142.0  RSN  5 0.5 1.4LRSN                1
 GAP=152        0.90       6.9    14.1 12.2 -0.2620E+01 -0.3987E+02 -0.1753E+02E
 Epicentro: VILLANUEVA - SANTANDER                                             3
 ACTION:UPD 10-12-01 15:16 OP:pat  STATUS:               ID:20100710022407 L   I
 2010-07-10-0221-27S.COL___120                                                 6
 STAT SP IPHASW D HRMM SECON CODA AMPLIT PERI AZIMU VELO AIN AR TRES W  DIS CAZ7
 BAR2 SZ EP   1    224 26.07                             174    -0.2 7   14 180 
 BAR2 SZ ES   2    224 40.68                             174    -0.5 5   14 180 
 BRR  HZ EP   1    224 27.98                             152    -0.1 7   73 306 
 BRR  HZ I         224 28.44         8.8 0.13                            73 306 
 BRR  HE ES   2    224 44.79                             152     0.4 5   73 306 
 RUS  HZ EP   1    224 30.02                             146     0.0 7   92 173 
 RUS  HN ES   2    224 48.30                             146     0.5 5   92 173 
 RUS  HZ I         224 49.54         2.8 0.41                            92 173 
 BRI  SZ EP   1    224 32.50                             138     0.9 7  118  21 
 BRI  SZ ES   2    224 50.54                             138    -0.1 5  118  21 
 GUE  SZ EP   1    224 31.85                             136    -0.6 7  126  13 
                                                                                
