 2017  510 0159  0.1 L   6.778 -73.153145.3  RSN  8 0.3 1.7LRSN                1
 GAP=112        0.85       3.1     3.7  5.7  0.1949E+00  0.9444E-02  0.3056E+01E
 Epicentro: LOS SANTOS - SANTANDER                                             3
 ACTION:UPD 17-06-16 13:34 OP:jn   STATUS:               ID:20170510015900 L   I
 OLDACT:UP  17-05-10 16:13 OP:edw  STATUS:               ID:20170510015741     3
 OLDACT:UP  17-05-10 16:12 OP:edw  STATUS:               ID:20170510015741     3
 OLDACT:UP  17-05-10 16:10 OP:edw  STATUS:               ID:20170510015741     3
 OLDACT:REG 17-05-10 13:00 OP:osc  STATUS:               ID:20170510015741     3
 2017-05-10-0158-00M.COL___353                                                 6
 STAT SP IPHASW D HRMM SECON CODA AMPLIT PERI AZIMU VELO AIN AR TRES W  DIS CAZ7
 BRR  HZ IP     D  159 20.97                             152   -0.2110 71.7 301 
 BRR  HE ES        159 38.30                             152    0.6410 71.7 301 
 BRR  HZ I         159 43.65         8.2 0.32            152           71.7 301 
 PAM  EZ EP     C  159 22.24                             150   -0.1310 79.7  39 
 PAM  EN ES        159 39.48                             150   -0.2910 79.7  39 
 PAM  EZ I         159 41.74         6.4 0.50            154           79.7  39 
 RUS  HZ EP        159 23.45                             144   -0.1510 98.2 175 
 RUS  HN ES        159 41.82                             144   -0.1310 98.2 175 
 RUS  HZ I         159 43.05         6.8 0.38            146           98.2 175 
 PTB  HZ EP   9    159 26.19                             132   -0.69 0  147 260 
 PTB  HN ES        159 46.59                             133   -0.52 9  147 260 
 PTB  HZ I         159 54.26         8.2 0.36            133            147 260 
 SPBC HZ EP        159 28.00                             129   -0.30 9  161 219 
 SPBC HN ES        159 50.10                             129   -0.22 9  161 219 
 SPBC HZ I         159 52.73        10.6 0.38            131            161 219 
 YPLC HZ EP        159 30.23                             127    0.58 9  175 151 
 YPLC HN ES   4    159 53.92                             127    1.19 0  175 151 
 YPLC HZ I         159 57.29         4.2 0.34            130            175 151 
 ZAR  HZ EP        159 32.68                             122    0.19 9  204 293 
 ZAR  HN ES        159 57.75                             122   -0.04 9  204 293 
 ZAR  HZ I         2 0  2.52         5.6 0.34            124            204 293 
 NOR  HN ES   4    2 0  4.54                             118    1.32 0  233 235 
 CHI  HZ EP   4    159 35.07                             117   -2.39 0  246 195 
 CHI  HE ES        2 0  6.83                             117    0.21 8  246 195 
 CHI  HZ I         2 0 10.63         1.8 0.14            119            246 195 
 PTGC HE ES   4    2 0 15.53                             111   -2.16 0  307 158 
                                                                                
