 2014  610 0737 26.2 L   6.771 -73.165138.3  RSN 10 0.5 1.7LRSN                1
 GAP=135        0.97       3.4     5.0  8.0 -0.4510E+01  0.1463E+02 -0.4855E+01E
 Epicentro: LOS SANTOS - SANTANDER                                             3
 ACTION:UPD 14-07-01 22:52 OP:nd   STATUS:               ID:20140610073726 L   I
 OLDACT:UP  14-06-10 16:57 OP:mh   STATUS:               ID:20140610072809d    3
 OLDACT:UP  14-06-10 16:57 OP:mh   STATUS:               ID:20140610072809d    3
 OLDACT:UP  14-06-10 16:57 OP:mh   STATUS:               ID:20140610072809d    3
 OLDACT:UP  14-06-10 16:56 OP:mh   STATUS:               ID:20140610072809d    3
 OLDACT:UP  14-06-10 16:56 OP:mh   STATUS:               ID:20140610072809d    3
 OLDACT:UP  14-06-10 16:56 OP:mh   STATUS:               ID:20140610072809d    3
 OLDACT:DUP 14-06-10 16:46 OP:mh   STATUS:               ID:20140610072809d    3
 2014-06-10-0728-08M.COL___253                                                 6
 STAT SP IPHASW D HRMM SECON CODA AMPLIT PERI AZIMU VELO AIN AR TRES W  DIS CAZ7
 BAR2 SZ EP     C  737 45.26                             171    0.3610 19.9 186 
 BAR2 SZ ES   1    737 59.04                             171   -0.42 7 19.9 186 
 BAR2 SZ I         738  0.97        27.2 0.27            173           19.9 186 
 PAM  SZ EP        737 48.61                             148    0.7010 81.2  39 
 PAM  SN ES   1    738  4.63                             148   -0.18 7 81.2  39 
 PAM  SZ I         738  7.22         7.9 0.30            149           81.2  39 
 RUS  HZ EP   1    737 48.32                             143   -0.72 7 97.6 175 
 RUS  HN ES   1    738  7.25                             143    0.43 7 97.6 175 
 RUS  HZ I         738  7.78         5.9 0.32            148           97.6 175 
 PTB  HZ EP   1    737 52.00                             131   -0.36 7  145 260 
 PTB  HN ES   1    738 12.50                             131   -0.23 7  145 260 
 PTB  HZ I         738 15.85         6.7 0.24            130            145 260 
 SPBC HZ EP   1    737 53.83                             128    0.03 7  159 219 
 SPBC HN ES   1    738 15.06                             128   -0.25 7  159 219 
 SPBC HZ I         738 17.77         7.8 0.22            130            159 219 
 OCA  HZ EP        737 53.62                             127   -0.65 9  163 354 
 OCA  HN ES        738 16.21                             127    0.08 9  163 354 
 OCA  HZ I         738 22.80         4.3 0.15            127            163 354 
 ZAR  HZ EP   1    737 59.07                             121    0.94 6  203 293 
 ZAR  HN ES   1    738 23.52                             121    0.51 6  203 293 
 ZAR  HZ I         738 28.07         6.2 0.13            120            203 293 
 SML  HZ EP   2    738  2.00                             116   -0.68 4  246 336 
 SML  HN ES   1    738 30.59                             116   -0.52 6  246 336 
 SML  HZ I         738 41.13         8.0 0.11            116            246 336 
 GUY2CHZ EP   4    738 10.50                             111    1.40 0  298 235 
 GUY2CHN ES   1    738 42.66                             111    0.12 5  298 235 
 GUY2CHZ I         738 52.35         1.7 0.46                           298 235 
 PRA  HZ EP   4    738 18.14                             105   -0.92 0  388 210 
 PRA  HN ES   1    739  0.08                             105   -0.18 4  388 210 
 PRA  HZ I         739  5.25         1.6 0.26            107            388 210 
                                                                                
