 2013  110 0005 37.8 L   6.790 -73.140147.6  RSN  7 0.4 2.2LRSN                1
 GAP=183        1.11       3.8     6.0  6.9  0.5378E+01  0.3446E+01 -0.6487E-01E
 Epicentro: LOS SANTOS - SANTANDER                                             3
 ACTION:UPD 13-02-15 09:13 OP:ep   STATUS:               ID:20130110000537 L   I
 2013-01-10-0000-00M.COL___242                                                 6
 STAT SP IPHASW D HRMM SECON CODA AMPLIT PERI AZIMU VELO AIN AR TRES W  DIS CAZ7
 BAR2 SZ EP        0 5 57.68                             171    0.0210 22.4 192 
 BAR2 SZ ES        0 6 13.21                             171    0.0810 22.4 192 
 BAR2 SZ I         0 6 14.24        23.3 0.24            168           22.4 192 
 BRR  HZ EP        0 5 59.69                             152    0.4610 72.2 299 
 BRR  HN ES        0 6 16.86                             152    0.9310 72.2 299 
 BRR  HN I         0 6 17.52        30.2 0.40            149           72.2 299 
 RUS  HZ EP        0 6  1.78                             145    0.1010 99.5 176 
 RUS  HN ES        0 6 19.68                             145   -0.6010 99.5 176 
 RUS  HN I         0 6 21.95        21.7 0.42            145           99.5 176 
 PTB  HZ EP        0 6  4.75                             132   -0.23 9  148 259 
 PTB  HN ES        0 6 25.78                             132   -0.38 9  148 259 
 PTB  HN I         0 6 30.89        18.9 0.62            130            148 259 
 OCA  HZ EP        0 6  6.61                             130    0.23 9  161 353 
 OCA  HN ES        0 6 27.89                             130   -0.77 9  161 353 
 OCA  HN I         0 6 32.23        64.4 0.20            130            161 353 
 ZAR  HZ EP        0 6 10.28                             123   -0.21 9  205 292 
 ZAR  HN ES        0 6 35.77                             123   -0.20 9  205 292 
 ZAR  HN I         0 6 43.10        18.4 0.16            122            205 292 
 CHI  HZ EP        0 6 15.95                             118    0.42 8  248 195 
 CHI  HN ES        0 6 44.96                             118    0.02 8  248 195 
 CHI  HN I         0 6 50.40         7.7 0.34            118            248 195 
                                                                                
