 2013  410 0452 35.6 L   6.753 -73.193145.2  RSN  5 0.2 1.4LRSN                1
 GAP=173        0.50       4.3     3.4  4.7  0.3020E+01  0.1996E+01 -0.6500E+01E
 Epicentro: VILLANUEVA - SANTANDER                                             3
 ACTION:UPD 13-05-22 14:37 OP:EP   STATUS:               ID:20130410045235 L   I
 2013-04-10-0448-46M.COL___215                                                 6
 STAT SP IPHASW D HRMM SECON CODA AMPLIT PERI AZIMU VELO AIN AR TRES W  DIS CAZ7
 BAR2 SZ EP        452 54.89                             173   -0.2110 17.8 176 
 BAR2 SZ ES        453 10.36                             173    0.0810 17.8 176 
 BAR2 SZ I         453 11.94         6.3 0.26            174           17.8 176 
 GIR2 SZ EP        452 55.26                             165   -0.1310 36.1 360 
 BRR  HZ EP   1    452 57.02                             153    0.39 7 69.5 304 
 RUS  HZ EP        452 59.23                             145    0.2310 95.9 173 
 RUS  HN ES        453 17.14                             145   -0.0810 95.9 173 
 PTB  HZ EP        453  1.90                             133   -0.12 9  142 260 
 PTB  HN ES        453 22.59                             133    0.00 9  142 260 
                                                                                
