 2017 1010 0232 46.9 L   6.116 -73.620119.9  RSN  7 0.3 1.6LRSN                1
 GAP= 84        0.85       2.8     3.5  5.8 -0.1204E+01  0.8264E+01  0.6458E+00E
 Epicentro: CHIPATA - SANTANDER                                                3
 ACTION:UPD 17-11-07 19:30 OP:rebc STATUS:               ID:20171010023246 L   I
 OLDACT:UP  17-10-10 16:13 OP:leo  STATUS:               ID:20171010022157     3
 OLDACT:REG 17-10-10 13:28 OP:leo  STATUS:               ID:20171010022157     3
 2017-10-10-0228-00M.COL___426                                                 6
 STAT SP IPHASW D HRMM SECON CODA AMPLIT PERI AZIMU VELO AIN AR TRES W  DIS CAZ7
 RUS  HZ EP        233  5.29                             150   -0.2610 64.4 113 
 RUS  HN ES        233 19.60                             150   -0.5310 64.4 113 
 RUS  HZ I         233 22.51         4.1 0.38            154           64.4 113 
 BAR2 EZ EP        233  5.81                             147    0.1710 71.5  43 
 BAR2 EZ ES        233 20.82                             147    0.5310 71.5  43 
 BAR2 EZ I         233 21.91        23.6 0.32            149           71.5  43 
 SPBC HZ EP     C  233  5.69                             147    0.2510 71.7 224 
 SPBC HN ES        233 19.88                             147   -0.0510 71.7 224 
 SPBC HZ I         233 21.53        13.8 0.22            147           71.7 224 
 NOR  HZ EP        233 11.87                             125   -0.38 9  151 246 
 NOR  HN ES        233 31.81                             125   -0.24 9  151 246 
 NOR  HZ I         233 34.31         7.7 0.66            125            151 246 
 CHI  HZ EP        233 14.01                             122   -0.10 9  165 184 
 CHI  HN ES        233 35.66                             122    0.30 9  165 184 
 CHI  HZ I         233 38.07         2.1 0.44            124            165 184 
 ZAR  HZ EP        233 17.89                             116    0.06 9  205 318 
 ZAR  HN ES        233 41.93                             116   -0.05 9  205 318 
 ZAR  HZ I         233 48.83         5.1 0.66            117            205 318 
 PRA  HZ EP        233 28.44                             107   -0.33 7  300 208 
 PRA  HE ES        234  2.25                             107    0.78 7  300 208 
 PRA  HZ I         234  6.03         2.6 0.26            108            300 208 
                                                                                
