 2016  810 0004  7.3 L   6.732 -73.097138.5  RSN  5 0.4 1.5LRSN                1
 GAP=146        0.97       5.5     5.6  9.2 -0.3466E+01  0.1404E+02 -0.4063E+01E
 Epicentro: JORDAN - SANTANDER                                                 3
 ACTION:UPD 16-10-29 15:34 OP:rebc STATUS:               ID:20160810000407 L   I
 OLDACT:REG 16-08-10 12:24 OP:dnl  STATUS:               ID:20160810000014     3
 2016-08-10-0000-14S.COL___352                                                 6
 STAT SP IPHASW D HRMM SECON CODA AMPLIT PERI AZIMU VELO AIN AR TRES W  DIS CAZ7
 BAR2 EZ EP        0 4 26.37                             172    0.4310 18.1 211 
 BAR2 EZ ES        0 4 40.55                             172    0.0610 18.1 211 
 BAR2 EZ I         0 4 42.02        10.1 0.34                          18.1 211 
 BRR  HZ EP        0 4 28.26                             148    0.1010 79.6 301 
 BRR  HE ES        0 4 44.97                             148    0.5210 79.6 301 
 BRR  HZ I         0 4 46.14         6.8 0.15                          79.6 301 
 PAM  EZ EP   2    0 4 29.39                             148    0.49 5 80.2  33 
 PAM  EE ES        0 4 45.18                             148   -0.5910 80.2  33 
 PAM  EZ I         0 4 46.68         9.0 0.30                          80.2  33 
 RUS  HE ES        0 4 47.16                             144   -0.1310 92.9 179 
 RUS  HZ I         0 4 50.25         3.5 0.32                          92.9 179 
 PTB  HZ EP   2    0 4 33.30                             129   -0.75 5  152 262 
 PTB  HN ES        0 4 54.50                             129   -0.42 9  152 262 
 PTB  HZ I         0 4 56.75         4.3 0.22                           152 262 
                                                                                
