 2016  310 0605 56.2 L   6.903 -73.483105.7  RSN 10 0.4 1.6LRSN                1
 GAP= 75        0.88       2.6     3.2  5.7 -0.2899E+01  0.7586E+01 -0.2261E+01E
 Epicentro: SAN VICENTE DE CHUCURI - SANTANDER                                 3
 ACTION:UPD 16-05-13 21:22 OP:cam  STATUS:               ID:20160310060556 L   I
 OLDACT:UP  16-03-14 10:33 OP:Ak   STATUS:               ID:20160310060556 L   3
 OLDACT:REG 16-03-10 13:47 OP:cara STATUS:               ID:20160310055747     3
 2016-03-10-0557-47M.COL___286                                                 6
 STAT SP IPHASW D HRMM SECON CODA AMPLIT PERI AZIMU VELO AIN AR TRES W  DIS CAZ7
 BAR2 EZ IP        6 6 12.53                             154    0.5310 47.8 136 
 BAR2 EZ ES        6 6 24.52                             154    0.1610 47.8 136 
 BAR2 EZ I         6 6 25.80        33.5 0.12            162           47.8 136 
 PAM  EZ EP        6 6 16.07                             134   -0.0210 99.1  61 
 PAM  EN ES        6 6 31.55                             134   -0.0910 99.1  61 
 PAM  EZ I         6 6 34.37         4.7 0.48            141           99.1  61 
 PTB  HZ EP     D  6 6 16.70                             129   -0.2010  115 250 
 PTB  HN ES        6 6 32.61                             129   -0.4710  115 250 
 PTB  HZ I         6 6 38.06         5.2 0.28            132            115 250 
 RUS  HZ EP        6 6 17.92                             128   -0.1210  120 158 
 RUS  HE ES        6 6 34.76                             128   -0.3610  120 158 
 RUS  HZ I         6 6 36.04         3.9 0.30            135            120 158 
 OCA  HZ EP        6 6 20.50                             121    0.01 9  149   7 
 OCA  HN ES        6 6 39.69                             121    0.21 9  149   7 
 OCA  HZ I         6 6 46.19        13.8 0.36            126            149   7 
 SPBC HZ EP        6 6 20.34                             120   -0.50 9  153 205 
 SPBC HE ES        6 6 40.27                             120    0.17 9  153 205 
 SPBC HZ I         6 6 46.79         6.5 0.32            125            153 205 
 ZAR  HZ EP   9    6 6 23.47                             118    1.41 0  165 293 
 ZAR  HN ES        6 6 43.96                                    0.29 9  165 293 
 ZAR  HZ I         6 6 47.09         5.7 0.34            121            165 293 
 NOR  HZ EP        6 6 27.92                             111    0.46 8  213 226 
 NOR  HN ES   4    6 6 53.19                             111    1.32 0  213 226 
 NOR  HZ I         6 6 56.45         3.7 0.28            115            213 226 
 GUY2CHZ EP        6 6 36.02                             105    0.39 7  279 228 
 GUY2CHN ES        6 7  7.09                             105    0.67 7  279 228 
 GUY2CHZ I         6 7 14.65         2.0 0.64                           279 228 
 MON  HZ EP        6 6 38.99                             102   -0.63 7  318 311 
 MON  HN ES   4    6 7 12.10                             102   -1.42 0  318 311 
 MON  HZ I         6 7 13.38         2.9 0.88            106            318 311 
                                                                                
