 2010  610 0515 49.5 L   6.782 -72.975146.0  RSN  6 0.2 1.6LRSN                1
 GAP=176        0.50       3.4     6.5  8.8 -0.1366E+02  0.1645E+02  0.4665E+00E
 Epicentro: CEPITA - SANTANDER                                                 3
 ACTION:UP  10-08-24 10:09 OP:vdl  STATUS:               ID:20100610051549 L   I
 2010-06-10-0512-56S.COL___111                                                 6
 STAT SP IPHASW D HRMM SECON CODA AMPLIT PERI AZIMU VELO SNR AR TRES W  DIS CAZ7
 RUS  HZ EP   1    516 13.09                             144    -0.111   99 187 
 RUS  HE ES   2    516 31.58                             144    -0.1 8   99 187 
 RUS  HZ I         516 32.48         4.9 0.37                            99 187 
 BRI  SZ EP   1    516 13.23                             143     0.011  105  11 
 GUE  SZ EP   1    516 14.10                             140    -0.111  116   3 
 GRA  SZ EP   1    516 14.56                             138     0.011  123   9 
 GRA  SZ ES   1    516 34.47                             138     0.311  123   9 
 OCA  SZ ES   2    516 40.21                             129    -0.6 7  165 347 
 OCA  SZ I         516 42.22         5.7 0.44                           165 347 
 RREF BN ES        517 14.52                             110     0.110  335 232 
 RREF BZ I         517 20.75         2.2 0.26                           335 232 
                                                                                
