 2014  710 0931  6.1 L   6.780 -73.176139.3  RSN  6 0.3 1.6LRSN                1
 GAP=141        0.69       3.7     3.3  4.8 -0.5159E+01  0.1279E+01  0.3385E+00E
 Epicentro: LOS SANTOS - SANTANDER                                             3
 ACTION:UPD 15-03-16 20:42 OP:nd   STATUS:               ID:20140710093106 L   I
 OLDACT:REG 14-07-10 12:24 OP:stll STATUS:               ID:20140710092815     3
 2014-07-10-0928-15M.COL___256                                                 6
 STAT SP IPHASW D HRMM SECON CODA AMPLIT PERI AZIMU VELO AIN AR TRES W  DIS CAZ7
 BAR2 SZ EP        931 25.06                             171    0.2110 20.8 182 
 BAR2 SZ ES        931 39.97                             171    0.4610 20.8 182 
 BAR2 SZ I         931 42.56        18.3 0.26            171           20.8 182 
 PAM  SZ EP        931 27.77                             148   -0.0510 81.2  40 
 PAM  SN ES        931 44.57                             148   -0.2310 81.2  40 
 PAM  SZ I         931 46.98         5.4 0.62            151           81.2  40 
 RUS  HZ EP        931 29.40                             143    0.3710 98.7 174 
 RUS  HN ES        931 46.64                             143   -0.3110 98.7 174 
 RUS  HZ I         931 48.67         3.9 0.26            145           98.7 174 
 PTB  HZ EP        931 32.19                             131    0.03 9  144 259 
 PTB  HN ES        931 52.33                             131   -0.19 9  144 259 
 PTB  HZ I         931 54.51         3.5 0.22            133            144 259 
 TAM  HZ EP        931 33.25                             128   -0.23 9  158 104 
 SPBC HZ EP        931 33.82                             128    0.12 9  159 219 
 SPBC HN ES        931 55.01                             128   -0.24 9  159 219 
 SPBC HZ I         931 58.55         5.9 0.20            130            159 219 
                                                                                
