 2017  310 0618 45.9 L   6.809 -73.150148.4  RSN  9 0.4 2.1LRSN                1
 GAP=102        0.89       4.2     3.2  5.4  0.2882E+01  0.3495E+01  0.2363E+01E
 Epicentro: LOS SANTOS - SANTANDER                                             3
 ACTION:UPD 17-05-25 18:38 OP:jn   STATUS:               ID:20170310061845 L   I
 OLDACT:UP  17-03-10 17:22 OP:ar   STATUS:               ID:20170310061742d    3
 OLDACT:UP  17-03-10 17:21 OP:ar   STATUS:               ID:20170310061742d    3
 OLDACT:DUP 17-03-10 17:18 OP:ar   STATUS:               ID:20170310061742d    3
 2017-03-10-0618-00M.COL___397                                                 6
 STAT SP IPHASW D HRMM SECON CODA AMPLIT PERI AZIMU VELO AIN AR TRES W  DIS CAZ7
 BAR2 EZ EP        619  5.66                             170   -0.2410 24.3 188 
 BAR2 EZ ES        619 20.98                             170   -0.4910 24.3 188 
 BAR2 EZ I         619 21.71        25.5 0.38            166           24.3 188 
 BRR  HZ EP        619  7.53                             153    0.2210 70.2 298 
 BRR  HN ES        619 24.65                             153    0.6610 70.2 298 
 PAM  EZ EP        619  8.66                             151    0.2610 76.9  40 
 PAM  EN ES        619 25.67                             151   -0.2510 76.9  40 
 PAM  EZ I         619 27.71        19.1 0.54            152           76.9  40 
 RUS  HZ EP        619 10.00                             144   -0.0210  102 176 
 RUS  HZ I         619 28.61        12.5 0.44            140            102 176 
 RUS  HN ES        619 28.76                             144   -0.0510  102 176 
 PTB  HZ EP        619 13.26                             133    0.18 9  147 258 
 TAM  HZ EP        619 14.04                             131    0.15 9  156 105 
 TAM  HN ES        619 35.86                             131    0.17 9  156 105 
 SPBC HZ EP        619 14.76                             129    0.08 9  164 219 
 ZAR  HZ EP        619 17.62                             123   -0.84 9  203 292 
 ZAR  HN ES        619 43.72                             123   -0.11 9  203 292 
 ZAR  HZ I         620  2.46        27.6 0.44            118            203 292 
 NOR  HN ES   2    619 50.42                             119    0.58 4  235 234 
                                                                                
