 2017 1110 0508  9.1 L   6.759 -73.170148.3  RSN  7 0.4 1.4LRSN                1
 GAP=135        0.89       4.1     4.1  7.7 -0.2069E+01  0.8120E+01 -0.3663E+01E
 Epicentro: LOS SANTOS - SANTANDER                                             3
 ACTION:UPD 17-12-12 19:54 OP:rebc STATUS:               ID:20171110050809 L   I
 OLDACT:DUP 17-11-10 16:12 OP:dnl  STATUS:               ID:20171110045642d    3
 2017-11-10-0457-00M.COL___465                                                 6
 STAT SP IPHASW D HRMM SECON CODA AMPLIT PERI AZIMU VELO AIN AR TRES W  DIS CAZ7
 BAR2 EZ EP   2    5 8 29.07                             173    0.09 5 18.4 184 
 BAR2 EZ ES        5 8 44.42                             173   -0.0410 18.4 184 
 BAR2 EZ I         5 8 45.56         6.4 0.18            170           18.4 184 
 BRR  HZ EP   2    5 8 31.37                             153    0.82 5 71.2 303 
 BRR  HN ES        5 8 47.87                             153    0.6110 71.2 303 
 BRR  HZ I         5 8 53.57         5.9 0.44            150           71.2 303 
 PAM  EZ EP        5 8 31.87                             150   -0.0610 82.7  39 
 PAM  EN ES        5 8 49.39                             150   -0.3310 82.7  39 
 PAM  EZ I         5 8 52.08         2.7 0.40            155           82.7  39 
 RUS  HN EP   2    5 8 33.45                             146    0.62 5 96.2 174 
 RUS  HE ES        5 8 51.24                             146   -0.0710 96.2 174 
 RUS  HN I         5 8 52.90         5.9 0.18            148           96.2 174 
 PTB  HZ EP   2    5 8 35.99                             133   -0.00 5  144 260 
 PTB  HN ES        5 8 56.31                             133   -0.64 9  144 260 
 PTB  HZ I         5 9  5.13         1.1 0.42            132            144 260 
 SPBC HN ES        5 8 59.46                             131    0.13 9  158 219 
 SPBC HZ I         5 9  6.70         2.8 0.24            131            158 219 
 ZAR  HZ EP   2    5 8 40.59                             123   -1.08 4  203 294 
 ZAR  HN ES        5 9  7.27                             123    0.22 9  203 294 
 ZAR  HZ I         5 9 12.41         2.4 0.42            123            203 294 
                                                                                
