 2017  410 0906 23.1 L   6.493 -73.459130.0  RSN  4 0.3 1.4LRSN                1
 GAP=170        0.66       4.5     4.4  5.8  0.1254E+02  0.3954E+01 -0.8083E+00E
 Epicentro: SIMACOTA - SANTANDER                                               3
 ACTION:UPD 17-05-30 21:10 OP:jn   STATUS:               ID:20170410090623 L   I
 OLDACT:UP  17-04-10 15:19 OP:dani STATUS:               ID:20170410085739     3
 OLDACT:REG 17-04-10 13:23 OP:edw  STATUS:               ID:20170410085739     3
 2017-04-10-0858-00M.COL___368                                                 6
 STAT SP IPHASW D HRMM SECON CODA AMPLIT PERI AZIMU VELO AIN AR TRES W  DIS CAZ7
 BRR  HZ EP     C  9 6 42.50                             149   -0.2510 73.4 338 
 BRR  HN ES        9 6 58.15                             149    0.1110 73.4 338 
 BRR  HZ I         9 6 59.21        18.5 0.18            150           73.4 338 
 RUS  HZ EP        9 6 43.60                             147   -0.1710 78.4 148 
 RUS  HN ES        9 7  0.01                             147    0.1410 78.4 148 
 RUS  HZ I         9 7  2.86         2.0 0.22            150           78.4 148 
 PTB  HZ EP        9 6 45.37                             137   -0.1410  110 273 
 PTB  HN ES        9 7  2.99                             137    0.0310  110 273 
 PTB  HZ I         9 7  5.77         3.7 0.18            137            110 273 
 ZAR  HZ EP        9 6 53.70                             121    0.58 9  190 306 
 ZAR  HN ES        9 7 16.27                             121   -0.23 9  190 306 
 ZAR  HZ I         9 7 22.40         3.6 0.28            122            190 306 
                                                                                
