 2011  510 0457 54.1 L   6.759 -73.081139.9  RSN 14 0.4 2.3LRSN                1
 GAP=147        0.87       4.1     6.6  5.5 -0.1287E+02  0.6310E+01  0.3398E+01E
 Epicentro: LOS SANTOS - SANTANDER                                             3
 ACTION:UP  11-06-29 08:52 OP:tino STATUS:               ID:20110510045754 L   I
 2011-05-10-0456-19S.COL___133                                                 6
 STAT SP IPHASW D HRMM SECON CODA AMPLIT PERI AZIMU VELO SNR AR TRES W  DIS CAZ7
 BAR2 SZ IP        458 13.02                             171     0.110   22 211 
 BAR2 SZ I         458 13.31        46.8 0.21                            22 211 
 BTL  SZ IP        458 13.25                             169     0.210   27 311 
 BTL  SZ ES   1    458 27.70                             169    -0.2 7   27 311 
 GIR2 SZ IP        458 13.23                             165     0.010   37 341 
 GIR2 SZ ES   1    458 27.92                             165    -0.3 7   37 341 
 PAM  SZ EP        458 16.12                             150     0.510   77  33 
 PAM  SN ES   1    458 32.72                             150     0.3 7   77  33 
 BRR  HZ IP        458 15.03                             149    -0.110   80 299 
 BRR  HN ES   2    458 32.08                             149     0.6 5   80 299 
 BRR  HZ I         458 33.62        44.5 0.19                            80 299 
 RUS  HZ EP        458 16.97                             144     0.110   96 180 
 RUS  HN ES   2    458 34.29                             144    -0.4 5   96 180 
 RUS  HZ I         458 36.33        18.6 0.38                            96 180 
 BRI  SZ EP        458 17.81                             140     0.210  110  17 
 BRI  SZ ES   1    458 35.64                             140    -0.2 7  110  17 
 GUE  SZ EP        458 18.60                             137     0.110  120   8 
 GRA  SZ IP        458 19.06                             135     0.110  128  14 
 GRA  SZ ES   1    458 38.02                             135    -0.4 7  128  14 
 GRA  SZ I         458 39.63        42.3 0.46                           128  14 
 OCA  SZ EP        458 21.63                             127    -0.8 9  166 351 
 OCA  SZ ES   2    458 44.36                             127    -0.2 5  166 351 
 OCA  SZ I         458 47.73        25.3 0.05                           166 351 
 HEL  HZ EP        458 35.20                             113     0.6 7  278 257 
 HEL  HZ I         459 11.93         9.6 0.36                           278 257 
 RREF HZ EP   1    458 40.58                             109     0.3 5  324 231 
 RREF HE ES   2    459 16.08                             109    -0.2 3  324 231 
 RREF HZ I         459 24.39        11.5 0.34                           324 231 
 PRA  HZ EP        458 46.50                             105    -0.9 6  392 211 
 SJA  SZ EP   3    458 47.42                             105    -0.7 1  397 194 
                                                                                
