 2016  110 0544 54.4 L   6.773 -73.244145.8  RSN  6 0.3 1.2LRSN                1
 GAP=117        0.87       4.2     5.1  6.3  0.6272E+01 -0.2805E+01 -0.9470E+01E
 Epicentro: ZAPATOCA - SANTANDER                                               3
 ACTION:UPD 16-03-09 23:24 OP:cam  STATUS:               ID:20160110054454 L   I
 OLDACT:REG 16-01-10 12:25 OP:drio STATUS:               ID:20160110053736     3
 2016-01-10-0537-36M.COL___253                                                 6
 STAT SP IPHASW D HRMM SECON CODA AMPLIT PERI AZIMU VELO AIN AR TRES W  DIS CAZ7
 BAR2 EZ EP        545 13.81                             171   -0.2310 21.1 161 
 BAR2 EZ ES        545 29.01                             171   -0.3110 21.1 161 
 BAR2 EZ I         545 30.31         2.8 0.22            174           21.1 161 
 BRR  HZ EP        545 15.65                             155    0.4610 63.5 306 
 BRR  HN ES        545 31.96                             155    0.6010 63.5 306 
 BRR  HZ I         545 32.96         3.6 0.44            153           63.5 306 
 PAM  EZ EP        545 17.23                             148   -0.0310 86.9  44 
 RUS  HZ EP        545 18.09                             144    0.0010 99.0 170 
 RUS  HN ES        545 36.57                             144    0.0410 99.0 170 
 RUS  HZ I         545 37.46         1.3 0.24            147           99.0 170 
 PTB  HZ EP        545 20.65                             134    0.24 9  136 259 
 PTB  HN ES        545 40.19                             134   -0.48 9  136 259 
 PTB  HZ I         545 43.93         1.9 0.16            134            136 259 
 SML  HZ EP        545 30.88                             118   -0.02 8  242 338 
 SML  HE ES        545 58.85                             118   -0.48 8  242 338 
 SML  HZ I         546  5.75         3.2 0.22            118            242 338 
                                                                                
