 2016  610 0103 39.2 L   6.850 -73.130156.2  RSN 22 0.4 2.6LRSN                1
 GAP= 70        0.94       2.8     3.0  5.3 -0.9834E+00  0.2170E+01  0.3843E+01E
 Epicentro: LOS SANTOS - SANTANDER                                             3
 ACTION:UPD 16-07-21 22:17 OP:rebc STATUS:               ID:20160610010339 L   I
 OLDACT:UP  16-06-10 14:33 OP:dani STATUS:               ID:20160610005742     3
 OLDACT:UP  16-06-10 14:31 OP:dani STATUS:               ID:20160610005742     3
 OLDACT:REG 16-06-10 12:26 OP:dani STATUS:               ID:20160610005742     3
 2016-06-10-0057-42M.COL___340                                                 6
 STAT SP IPHASW D HRMM SECON CODA AMPLIT PERI AZIMU VELO AIN AR TRES W  DIS CAZ7
 BAR2 EZ IP     C  1 3 59.90                             169   -0.2610 29.0 191 
 BAR2 EZ I         1 4 16.77        79.3 0.40                          29.0 191 
 BRR  HZ IP     C  1 4  1.76                             154    0.3710 70.3 294 
 BRR  HN ES        1 4 19.32                             154    0.5810 70.3 294 
 BRR  HZ I         1 4 25.44        46.1 0.32                          70.3 294 
 PAM  EZ EP     C  1 4  2.66                             154    0.4610 72.1  41 
 PAM  EN ES        1 4 20.12                             154   -0.0610 72.1  41 
 PAM  EZ I         1 4 21.17        39.6 0.18                          72.1  41 
 RUS  HZ EP        1 4  4.06                             144   -0.2610  106 177 
 RUS  HN ES   4    1 4 22.65                             144   -1.30 0  106 177 
 RUS  HZ I         1 4 23.76        47.8 0.28                           106 177 
 PTB  HZ EP        1 4  6.49                             134   -0.75 9  151 257 
 PTB  HN ES        1 4 28.54                             134   -0.60 9  151 257 
 PTB  HZ I         1 4 35.16        52.6 0.42                           151 257 
 OCA  HZ EP        1 4  8.32                             133    0.50 9  155 352 
 OCA  HN ES        1 4 30.05                             133   -0.14 9  155 352 
 TAM  HZ EP        1 4  7.52                             133   -0.15 9  155 107 
 TAM  HN ES        1 4 29.83                             133   -0.08 9  155 107 
 TAM  HZ I         1 4 33.06        18.3 0.34                           155 107 
 SPBC HZ EP        1 4  8.91                             130   -0.06 9  169 218 
 SPBC HE ES   4    1 4 31.24                             130   -0.98 0  169 218 
 SPBC HZ I         1 4 33.77       105.3 0.26                           169 218 
 NOR  HZ EP   2    1 4 16.17                             120    0.18 4  239 234 
 NOR  HN ES   4    1 4 43.52                             120   -1.21 0  239 234 
 NOR  HZ I         1 4 48.52        40.9 0.22                           239 234 
 CHI  HZ EP        1 4 17.88                             119   -0.19 8  254 195 
 CHI  HE ES        1 4 48.18                             119   -0.24 8  254 195 
 CHI  HZ I         1 4 56.99        12.1 0.48                           254 195 
 ROSC BZ EP   9    1 4 19.55                             118    1.09 0  258 211 
 ROSC BN ES        1 4 50.41                             117    0.20 8  258 211 
 HEL  HZ EP   4    1 4 22.05                             116    1.80 0  275 255 
 HEL  HN ES        1 4 52.47                             116    0.17 8  275 255 
 HEL  HZ I         1 4 58.41        27.7 0.30                           275 255 
 URE  HZ EP        1 4 20.61                             116   -0.09 7  283 291 
 URE  HE ES   4    1 4 51.64                             116   -1.47 0  283 291 
 URE  HZ I         1 5  4.05        29.5 0.24                           283 291 
 GUY2CHZ EP   4    1 4 25.14                             114    1.37 0  306 234 
 GUY2CHE ES   4    1 5  3.07                             114    4.50 0  306 234 
 GUY2CHZ I         1 5  6.19        18.1 0.32                           306 234 
 PTGC HZ EP   4 D  1 4 22.71                             113   -1.29 0  313 159 
 PTGC HN ES   4    1 4 56.26                             113   -2.73 0  313 159 
 PTGC HZ I         1 4 58.52        17.5 0.32                           313 159 
 ELA  HZ EP   9    1 4 29.91                             112    2.90 0  334 229 
 ELA  HE ES        1 5  7.47                             111    0.23 7  334 229 
 ELA  HZ I         1 5 12.42        19.9 0.52                           334 229 
 CBOC HZ EP   4    1 4 23.05                             111   -3.85 0  337 251 
 CBOC HE ES   4    1 5  2.21                             111   -1.92 0  337 251 
 CBOC HZ I         1 5 20.49         8.6 0.56                           337 251 
 ANIL HZ EP        1 4 31.18                             110    1.22 6  362 224 
 ANIL HE ES   4    1 5 17.48                             110    7.88 0  362 224 
 PRA  HZ EP        1 4 34.59                             108    0.89 6  398 209 
 PRA  HE ES        1 5 16.16                             108   -0.09 6  398 209 
 PRA  HZ I         1 5 23.32        15.3 0.26                           398 209 
 ORTC HZ EP        1 4 34.11                             108    0.03 6  401 216 
 ORTC HE ES   4    1 5 18.79                             108    1.87 0  401 216 
 ORTC HZ I         1 5 21.23        10.0 0.20                           401 216 
 SJC  HN ES        1 5 17.49                             107   -0.45 6  406 326 
 CRJC HZ EP   4 C  1 4 40.03                             105   -1.27 0  462   3 
 CRJC HE ES        1 5 29.16                             105   -0.62 5  462   3 
 CRJC HZ I         1 5 36.62         7.1 0.28                           462   3 
                                                                                
