 2017  410 0755 46.9 L   6.797 -73.157151.7  RSN  6 0.4 1.1LRSN                1
 GAP=135        1.11       8.3     7.6  8.7  0.2909E+02  0.4824E+01 -0.2225E+02E
 Epicentro: LOS SANTOS - SANTANDER                                             3
 ACTION:UPD 17-05-30 21:10 OP:jn   STATUS:               ID:20170410075546 L   I
 OLDACT:UP  17-04-10 16:37 OP:dani STATUS:               ID:20170410074741     3
 OLDACT:REG 17-04-10 13:21 OP:edw  STATUS:               ID:20170410074741     3
 2017-04-10-0748-00M.COL___368                                                 6
 STAT SP IPHASW D HRMM SECON CODA AMPLIT PERI AZIMU VELO AIN AR TRES W  DIS CAZ7
 BAR2 EZ EP        756  8.02                             171    0.7810 22.8 187 
 BAR2 EZ ES        756 22.77                             171   -0.3310 22.8 187 
 BAR2 EZ I         756 24.89         2.0 0.46            151           22.8 187 
 BRR  HZ EP        756  8.85                             154    0.2010 70.2 299 
 BRR  HN ES        756 25.71                             154    0.1110 70.2 299 
 BRR  HZ I         756 30.61         2.0 0.13            139           70.2 299 
 PAM  EZ EP        756  9.64                             151   -0.1810 78.5  40 
 RUS  HN ES        756 29.98                             145   -0.2210  100 175 
 PTB  HZ EP        756 14.49                             133    0.24 9  146 259 
 PTB  HZ I         756 38.41         1.3 0.20            118            146 259 
 ZAR  HZ EP        756 18.70                             124   -0.94 9  203 292 
 ZAR  HN ES        756 45.32                             124    0.15 9  203 292 
 ZAR  HZ I         756 51.61         3.0 0.34            113            203 292 
                                                                                
