 2013  610 0607 27.7 L   6.714 -73.186154.6  RSN  4 0.3 1.1LRSN                1
 GAP=226        0.56       6.5     6.2  7.7  0.2124E+02 -0.4436E+01 -0.1276E+01E
 Epicentro: VILLANUEVA - SANTANDER                                             3
 ACTION:UPD 14-01-08 09:53 OP:ep   STATUS:               ID:20130610060727 L   I
 OLDACT:UP  13-06-10 11:04 OP:cam  STATUS:               ID:20130610055959     3
 OLDACT:UP  13-06-10 11:04 OP:cam  STATUS:               ID:20130610055959     3
 OLDACT:REG 13-06-10 08:03 OP:cam  STATUS:               ID:20130610055959     3
 2013-06-10-0559-59M.COL___261                                                 6
 STAT SP IPHASW D HRMM SECON CODA AMPLIT PERI AZIMU VELO AIN AR TRES W  DIS CAZ7
 BAR2 SZ EP   1    6 7 47.89                             175   -0.39 7 13.4 178 
 BRR  HZ EP   2    6 7 49.97                             154    0.05 5 72.6 307 
 BRR  HN ES   1    6 8  7.39                             154    0.16 7 72.6 307 
 RUS  HZ EP   1    6 7 52.25                             148    0.49 7 91.5 173 
 RUS  HN ES   1    6 8 10.36                             148   -0.14 7 91.5 173 
 RUS  HZ I         6 8 13.27         1.3 0.42            142           91.5 173 
 PTB  HZ EP   1    6 7 54.74                             135   -0.18 7  142 262 
 PTB  HN ES   1    6 8 16.14                             135    0.02 7  142 262 
 PTB  HZ I         6 8 23.30         2.3 0.40            130            142 262 
                                                                                
