 2012  810 0910 57.8 L   6.784 -73.134151.7  RSN 10 0.4 2.2LRSN                1
 GAP=115        0.71       3.1     3.6  5.7  0.5358E+00  0.4984E+01  0.2003E+01E
 Epicentro: LOS SANTOS - SANTANDER                                             3
 ACTION:UPD 12-09-10 11:55 OP:ep   STATUS:               ID:20120810091057 L   I
 2012-08-10-0910-00M.COL___218                                                 6
 STAT SP IPHASW D HRMM SECON CODA AMPLIT PERI AZIMU VELO AIN AR TRES W  DIS CAZ7
 BAR2 SZ EP   1    911 18.26                             171    0.12 7 21.9 194 
 BAR2 SZ I         911 34.70       114.3 0.14                          21.9 194 
 GIR2 SZ EP   1    911 18.38                             167    0.13 7 33.2 349 
 GIR2 SZ ES   1    911 33.99                             167   -0.20 7 33.2 349 
 BRR  HZ EP   1    911 20.13                             153    0.41 7 73.2 299 
 BRR  HN ES   1    911 37.47                             153    0.67 7 73.2 299 
 BRR  HZ I         911 38.42        28.8 0.14                          73.2 299 
 PAM  SZ EP   1    911 21.09                             152    0.39 7 77.9  38 
 PAM  SZ I         911 21.55        15.3 0.25                          77.9  38 
 PAM  SN ES   1    911 38.15                             152   -0.40 7 77.9  38 
 RUS  HZ EP   1    911 22.17                             145    0.13 7 98.8 177 
 RUS  HN ES   1    911 41.25                             145    0.33 7 98.8 177 
 RUS  HZ I         911 42.75        19.2 0.35                          98.8 177 
 PTB  HZ EP   1    911 24.93                             133   -0.44 7  149 260 
 PTB  HN ES   1    911 46.11                             133   -0.74 7  149 260 
 PTB  HZ I         911 47.12        15.0 0.31                           149 260 
 OCA  HZ EP   1    911 26.52                             131   -0.25 7  162 353 
 OCA  HN ES   1    911 49.25                             131   -0.10 7  162 353 
 YOP  SE ES   1    911 51.18                             128   -0.53 7  177 153 
 ZAR  HZ EP   1    911 30.74                             123   -0.11 6  206 292 
 ZAR  HN ES   1    911 56.58                             123   -0.03 6  206 292 
 NOR  SZ EP   1    911 34.15                             120    0.24 6  235 235 
 NOR  SN ES   1    912  2.22                             120    0.16 6  235 235 
                                                                                
