 2010  710 0108 44.9 L   6.724 -73.207154.2  RSN  5 0.4 1.5LRSN                1
 GAP=148        0.87       6.4    14.6 10.9  0.8177E+01 -0.2261E+02 -0.1182E+02E
 Epicentro: VILLANUEVA - SANTANDER                                             3
 ACTION:UPD 10-12-01 15:16 OP:pat  STATUS:               ID:20100710010844 L   I
 2010-07-10-0104-33S.COL___120                                                 6
 STAT SP IPHASW D HRMM SECON CODA AMPLIT PERI AZIMU VELO AIN AR TRES W  DIS CAZ7
 BAR2 SZ EP   1    1 9  5.23                             174    -0.2 7   15 170 
 BAR2 SZ ES   2    1 9 20.72                             174    -0.7 5   15 170 
 BRR  HZ EP   1    1 9  7.12                             154     0.2 7   70 307 
 BRR  HN ES   2    1 9 24.60                             154     0.5 5   70 307 
 BRR  HZ I         1 9 25.85         9.5 0.12                            70 307 
 RUS  HZ EP        1 9  9.18                             148     0.210   93 172 
 RUS  HZ I         1 9 10.02         2.3 0.41                            93 172 
 RUS  HN ES   2    1 9 27.74                             148    -0.1 5   93 172 
 BRI  SZ EP   1    1 9 10.84                             140     0.4 7  119  22 
 BRI  SZ ES   2    1 9 30.69                             140     0.4 5  119  22 
 OCA  SZ EP   1    1 9 13.81                             130    -0.8 7  168 356 
 OCA  SZ I         1 9 40.28         4.6 0.48                           168 356 
                                                                                
