 2010 1210 0412 33.9 L   6.788 -72.924141.5  RSN 11 0.5 2.1LRSN                1
 GAP=184        0.86       4.9    12.7  7.0 -0.3540E+02 -0.5245E+01  0.4938E+01E
 Epicentro: CEPITA - SANTANDER                                                 3
 ACTION:UP  11-01-14 15:23 OP:pat  STATUS:               ID:20101210041233 L   I
 2010-12-10-0409-30S.COL___135                                                 6
 STAT SP IPHASW D HRMM SECON CODA AMPLIT PERI AZIMU VELO SNR AR TRES W  DIS CAZ7
 BAR2 SZ EP   2    412 53.51                             165     0.2 5   36 233 
 BAR2 SZ ES   2    413  8.16                             165    -0.3 5   36 233 
 BAR2 SZ I         413  9.44        51.1 0.34                            36 233 
 BTL  SZ EP        412 53.54                             163     0.110   41 291 
 BTL  SZ ES   1    413  9.10                             163     0.3 7   41 291 
 GIR2 SZ EP   1    412 53.42                             162     0.0 7   44 317 
 GIR2 SZ ES   2    413  8.96                             162     0.2 5   44 317 
 RUS  HZ EP   1    412 57.34                             143     0.1 7  101 190 
 RUS  HE ES   2    413 14.48                             143    -0.9 5  101 190 
 RUS  HZ I         413 17.18        11.0 0.41                           101 190 
 GUE  SZ EP   1    412 58.29                             139     0.2 7  115 360 
 GRA  SZ EP   1    412 59.07                             137     0.6 7  122   6 
 GRA  SZ ES   2    413 16.80                             137    -0.8 5  122   6 
 GRA  SZ I         413 26.19         8.6 0.30                           122   6 
 OCA  SZ EP   1    413  1.87                             127    -0.6 7  166 345 
 OCA  SZ ES   2    413 24.48                             127    -0.2 5  166 345 
 OCA  SZ I         413 31.96        15.3 0.27                           166 345 
 CHI  HZ EP   2    413 11.85                             116    -0.2 4  255 201 
 CHI  HE ES   2    413 41.15                             116    -0.6 4  255 201 
 CHI  HZ I         413 43.42         6.6 0.40                           255 201 
 ROSC BZ EP   2    413 13.76                             115     0.6 4  265 216 
 ROSC BN ES   1    413 44.45                             115     0.7 6  265 216 
 ROSC BZ I         413 47.50        11.2 0.22                           265 216 
 HEL  HZ EP   2    413 15.67                             112    -0.9 4  296 257 
 HEL  HZ I         413 52.81         6.5 0.38                           296 257 
 RREF HZ EP   1    413 21.42                             109    -0.5 5  340 232 
 RREF HZ I         414  3.27         7.0 0.29                           340 232 
                                                                                
