 2012  110 0415 50.1 L   6.784 -73.123144.5  RSN 14 0.3 2.5LRSN                1
 GAP=140        0.66       2.6     3.7  4.5 -0.2042E+01  0.4038E+01  0.2496E+01E
 Epicentro: LOS SANTOS - SANTANDER                                             3
 ACTION:UP  12-02-03 08:16 OP:REBC STATUS:               ID:20120110041550 L   I
 2012-01-10-0410-00M.COL___186                                                 6
 STAT SP IPHASW D HRMM SECON CODA AMPLIT PERI AZIMU VELO SNR AR TRES W  DIS CAZ7
 BAR2 SZ EP   1    416  9.29                             171    -0.2 7   22 197 
 BAR2 SZ ES   2    416 24.82                             171     0.1 5   22 197 
 BAR2 SZ I         416 27.25        82.5 0.50                            22 197 
 GIR2 SZ EP   1    416  9.44                             166    -0.2 7   33 346 
 GIR2 SZ ES   1    416 24.47                             166    -0.5 7   33 346 
 BRR  HZ EP   1    416 11.18                             151    -0.1 7   74 299 
 BRR  HN ES   1    416 28.26                             151     0.5 7   74 299 
 BRR  HZ I         416 32.55        24.6 0.16                            74 299 
 PAM  SZ EP        416 12.13                             151     0.010   77  37 
 PAM  SN ES   2    416 29.14                             151    -0.2 5   77  37 
 RUS  HZ EP   1    416 13.36                             144    -0.2 7   99 177 
 RUS  HN ES   1    416 32.27                             144     0.4 7   99 177 
 RUS  HZ I         416 33.96        32.3 0.42                            99 177 
 PTB  HE ES   2    416 37.99                             131    -0.2 5  150 260 
 OCA  SZ EP   1    416 18.80                             129     0.3 7  162 352 
 OCA  SZ ES   1    416 41.08                             129     0.5 7  162 352 
 OCA  SZ I         416 46.41        28.2 0.34                           162 352 
 ZAR  HZ EP   1    416 21.95                             122    -0.8 6  207 292 
 ZAR  HE ES   2    416 48.25                             122     0.0 4  207 292 
 ZAR  HZ I         416 54.11        32.3 0.46                           207 292 
 NOR  SZ EP   1    416 25.97                             118     0.1 6  236 235 
 NOR  SN ES   1    416 53.19                             118    -0.6 6  236 235 
 CHI  HZ EP   1    416 27.52                             117    -0.1 6  248 196 
 CHI  HN ES   1    416 57.07                             117     0.2 6  248 196 
 CHI  HZ I         417  0.97        16.1 0.32                           248 196 
 HEL  HZ EP   1    416 30.92                             114     0.5 6  274 256 
 HEL  HN ES   2    417  2.11                             114     0.2 4  274 256 
 GUY  SZ EP   2    416 33.93                             112    -0.1 4  305 236 
 GUY  SN ES   2    417  8.38                             112     0.1 4  305 236 
 GUY  SZ I         417 16.60        33.6 0.32                           305 236 
 RREF HZ EP   1    416 36.68                             111     0.4 5  323 230 
 RREF HN ES   2    417 12.21                             111    -0.1 3  323 230 
 RREF HZ I         417 18.79        16.6 0.29                           323 230 
 PRA  HZ EP   1    416 43.32                             106    -0.2 4  392 210 
 PRA  HN ES   2    417 25.85                             106     0.6 3  392 210 
                                                                                
