 2016 1110 0623 52.6 L   6.797 -73.112147.0  RSN 12 0.5 2.0LRSN                1
 GAP=122        1.18       4.3     4.4  7.0  0.1624E+01  0.6055E+01  0.1416E+02E
 Epicentro: LOS SANTOS - SANTANDER                                             3
 ACTION:UPD 17-10-26 21:06 OP:lp   STATUS:               ID:20161110062352 L   I
 OLDACT:REG 16-11-10 12:10 OP:lv   STATUS:               ID:20161110061740     3
 2016-11-10-0618-00M.COL___340                                                 6
 STAT SP IPHASW D HRMM SECON CODA AMPLIT PERI AZIMU VELO AIN AR TRES W  DIS CAZ7
 BAR2 EZ EP        624 12.46                             170    0.0610 23.9 199 
 BAR2 EZ ES        624 27.16                             170   -0.6710 23.9 199 
 BAR2 EZ I         624 28.48        47.3 0.34            168           23.9 199 
 BRR  HZ IP     C  624 14.21                             152    0.1210 74.7 297 
 BRR  HE ES        624 31.40                             152    0.5610 74.7 297 
 BRR  HZ I         624 34.44        19.6 0.30            151           74.7 297 
 PAM  EZ EP        624 15.45                             151    0.6110 75.4  37 
 PAM  EN ES        624 32.39                             151    0.2210 75.4  37 
 PAM  EZ I         624 34.88        22.0 0.68            156           75.4  37 
 PTB  HZ EP        624 19.30                             131   -0.70 9  151 259 
 PTB  HE ES        624 41.02                             131   -0.35 9  151 259 
 PTB  HZ I         624 47.56        12.1 0.20            132            151 259 
 ZAR  HZ EP        624 25.33                             122   -0.18 8  208 292 
 ZAR  HE ES        624 50.49                             122   -0.67 8  208 292 
 ZAR  HZ I         624 52.83         9.4 0.22            123            208 292 
 CHI  HZ EP        624 30.53                             117    0.08 8  249 196 
 CHI  HN ES        625  0.69                             117    0.73 8  249 196 
 CHI  HZ I         625  3.02         2.8 0.34            119            249 196 
 ROSC BZ EP   4    624 32.91                             117    1.94 0  254 212 
 ROSC BN ES        625  1.59                             117    0.69 8  254 212 
 ROSC BZ I         625  7.14         6.5 0.35            118            254 212 
 PTGC HZ EP        624 35.60                             112   -0.73 7  307 159 
 PTGC HN ES        625  9.63                             112   -0.80 7  307 159 
 PTGC HZ I         625 10.26         5.1 0.26            114            307 159 
 LL6C HZ EP   9    624 18.15                             110   -20.3 0  325 357 
 LL6C HE ES        624 53.56                                   -0.33 7  325 357 
 CBOC HZ EP        624 40.83                             110    0.86 7  337 252 
 CBOC HN ES        625 16.80                             110   -0.11 7  337 252 
 CBOC HZ I         625 17.70         0.9 0.18            111            337 252 
 PRA  HZ EP        624 46.47                             107    0.12 6  394 210 
 PRA  HN ES        625 28.48                             107    0.21 6  394 210 
 PRA  HZ I         625 33.66         4.5 0.32            108            394 210 
 SJC  HZ EP   4    624 46.56                             106   -1.93 0  412 327 
 SJC  HN ES   4    625 27.89                             106   -4.18 0  412 327 
 SJC  HZ I         625 35.43         2.1 0.30            107            412 327 
                                                                                
