 2015  710 0844  5.4 L   6.764 -73.149149.8  RSN  4 0.1 1.4LRSN                1
 GAP=182        0.32       1.7     2.7  3.8  0.1484E+01  0.4838E+00 -0.2742E+01E
 Epicentro: LOS SANTOS - SANTANDER                                             3
 ACTION:UPD 15-09-08 21:47 OP:cam  STATUS:               ID:20150710084405 L   I
 OLDACT:REG 15-07-10 12:58 OP:spq  STATUS:               ID:20150710083747     3
 2015-07-10-0837-47M.COL___340                                                 6
 STAT SP IPHASW D HRMM SECON CODA AMPLIT PERI AZIMU VELO AIN AR TRES W  DIS CAZ7
 BAR2 EZ EP   1    844 25.25                             172   -0.20 7 19.4 191 
 BAR2 EZ ES   1    844 41.03                             172   -0.06 7 19.4 191 
 BAR2 EZ I         844 43.42         4.3 0.38            171           19.4 191 
 RUS  HZ EP   1    844 29.31                             146    0.03 7 96.7 176 
 RUS  HE ES        844 47.98                             146    0.0710 96.7 176 
 RUS  HZ I         844 50.37         2.4 0.54            149           96.7 176 
 OCA  HZ EP        844 34.43                             130    0.04 9  164 353 
 OCA  HN ES        844 57.03                             130    0.03 9  164 353 
 OCA  HZ I         845  0.93         4.6 0.22            132            164 353 
 ZAR  HE ES        845  3.85                             123    0.00 8  205 293 
 ZAR  HZ I         845 10.09         2.5 0.38            124            205 293 
                                                                                
