 2014  810 0915 50.3 L   6.784 -73.152142.8  RSN  7 0.5 1.4LRSN                1
 GAP=136        1.37       5.5     6.0 10.0  0.9728E+00  0.1184E+02 -0.9310E+00E
 Epicentro: LOS SANTOS - SANTANDER                                             3
 ACTION:UPD 14-09-15 21:48 OP:nd   STATUS:               ID:20140810091550 L   I
 OLDACT:REG 14-08-10 14:03 OP:spq  STATUS:               ID:20140810090809     3
 2014-08-10-0908-09M.COL___254                                                 6
 STAT SP IPHASW D HRMM SECON CODA AMPLIT PERI AZIMU VELO AIN AR TRES W  DIS CAZ7
 BAR2 SZ EP        916  9.51                             171    0.0210 21.5 189 
 BAR2 SZ ES        916 24.06                             171   -0.4310 21.5 189 
 BAR2 SZ I         916 25.35         6.8 0.22            172           21.5 189 
 BRR  HZ EP        916 11.62                             152    0.5310 71.4 300 
 BRR  HN ES        916 28.28                             152    0.9310 71.4 300 
 BRR  HZ I         916 32.56         4.6 0.12            153           71.4 300 
 PAM  SZ EP        916 12.53                             150    0.2610 79.2  39 
 PAM  SN ES        916 29.20                             150   -0.2310 79.2  39 
 PAM  SZ I         916 31.79         7.2 0.52            153           79.2  39 
 RUS  HZ EP        916 13.59                             144    0.0010 98.9 176 
 RUS  HE ES        916 32.08                             144    0.2910 98.9 176 
 RUS  HZ I         916 33.61         1.5 0.44            147           98.9 176 
 PTB  HZ EP        916 16.44                             131   -0.44 9  147 259 
 PTB  HN ES        916 36.68                             131   -0.97 9  147 259 
 PTB  HZ I         916 40.02         4.6 0.16            134            147 259 
 OCA  HN ES        916 39.85                             129   -0.67 9  162 353 
 OCA  HZ I         916 40.87         3.5 0.14            131            162 353 
 ZAR  HN ES        916 48.24                             122    0.58 9  204 293 
                                                                                
