 2011  310 0637  0.5 L   6.772 -73.400143.6  RSN  4 0.3 1.4LRSN                1
 GAP=203        0.77       3.3    19.5  9.1  0.6971E+01  0.6433E+02 -0.6884E+01E
 Epicentro: EL CARMEN DE CHUCURI - SANTANDER                                   3
 ACTION:UP  11-06-16 14:32 OP:jfem STATUS:               ID:20110310063700 L   I
 2011-03-10-0633-48S.COL___135                                                 6
 STAT SP IPHASW D HRMM SECON CODA AMPLIT PERI AZIMU VELO SNR AR TRES W  DIS CAZ7
 BAR2 SZ I         637 28.65         7.5 0.65                            31 130 
 BAR2 SZ ES   1    637 35.23                             167    -0.1 8   31 130 
 RUS  HZ EP        637 23.91                             143    -0.410  103 160 
 RUS  HE ES        637 43.07                             143     0.310  103 160 
 RUS  HZ I         637 44.80         1.4 0.50                           103 160 
 GRA  SZ EP   1    637 27.21                             133     0.4 7  140  28 
 GRA  SZ ES   1    637 46.96                             133    -0.3 7  140  28 
 GRA  SZ I         637 48.14         3.6 0.44                           140  28 
 OCA  SZ EP   1    637 29.05                             129     0.2 7  162   3 
 OCA  SZ ES        637 51.01                             129     0.0 9  162   3 
 OCA  SZ I         637 53.85         6.5 0.39                           162   3 
                                                                                
