 2011  710 0912  4.4 L   6.786 -73.097145.9  RSN 11 0.3 2.2LRSN                1
 GAP=161        0.62       2.6     4.1  5.4 -0.3826E+01  0.2538E+01  0.3424E+01E
 Epicentro: LOS SANTOS - SANTANDER                                             3
 ACTION:UPD 12-07-25 13:59 OP:epov STATUS:               ID:20110710091204 L   I
 2011-07-10-0900-00M.COL___130                                                 6
 STAT SP IPHASW D HRMM SECON CODA AMPLIT PERI AZIMU VELO AIN AR TRES W  DIS CAZ7
 BAR2 SZ EP        912 24.08                             170   -0.0110 23.4 204 
 BAR2 SZ I         913  7.17       216.3 0.76                          23.4 204 
 BRR  HZ EP   1    912 25.98                             151    0.06 7 76.7 298 
 BRR  HN ES   1    912 42.54                             151   -0.14 7 76.7 298 
 BRR  HZ I         912 47.05        23.4 0.18                          76.7 298 
 RUS  HZ EP   1    912 27.78                             144   -0.30 7 98.8 179 
 RUS  HZ I         912 28.65         6.7 0.18                          98.8 179 
 RUS  HN ES   1    912 46.97                             144    0.45 7 98.8 179 
 BRI  SZ EP   1    912 28.60                             142    0.28 7  108  18 
 GRA  SZ EP   1    912 29.83                             137    0.14 7  126  15 
 GRA  SZ ES   1    912 48.80                             137   -0.59 7  126  15 
 GRA  SZ I         912 50.58         8.9 0.42                           126  15 
 OCA  SZ EP   1    912 33.28                             129    0.31 7  163 351 
 OCA  SZ ES   1    912 55.33                             129    0.10 7  163 351 
 OCA  SZ I         912 59.83        15.6 0.28                           163 351 
 NOR  SZ EP   1    912 40.00                             118   -0.56 6  238 236 
 NOR  SN ES   1    913  9.18                             118    0.45 6  238 236 
 CHI  HZ EP   1    912 41.84                             117   -0.31 6  249 196 
 CHI  HZ I         913 21.31         4.4 0.32                           249 196 
 ROSC BZ EP   1    912 42.98                             117    0.24 6  254 212 
 HEL  HZ EP   1    912 45.51                             114    0.31 6  277 256 
 HEL  HN ES   1    913 16.77                             114   -0.22 6  277 256 
 HEL  HZ I         913 23.05        16.8 0.33                           277 256 
 PRA  HZ EP   1    912 58.35                             106    0.22 4  393 210 
 PRA  HN ES   1    913 39.27                             106   -0.73 4  393 210 
 PRA  HZ I         913 46.60        16.6 0.19                           393 210 
                                                                                
