 2012 1010 0844 49.9 L   6.795 -73.110152.5  RSN  6 0.2 1.3LRSN                1
 GAP=141        0.53       4.0     4.7  5.8  0.6586E+01  0.8717E+01  0.5971E+01E
 Epicentro: LOS SANTOS - SANTANDER                                             3
 ACTION:UPD 12-11-22 17:02 OP:ep   STATUS:               ID:20121010084449 L   I
 2012-10-10-0840-00M.COL___226                                                 6
 STAT SP IPHASW D HRMM SECON CODA AMPLIT PERI AZIMU VELO AIN AR TRES W  DIS CAZ7
 BAR2 SZ EP   1    845 10.28                             171   -0.10 7 23.8 200 
 BAR2 SZ I         845 10.40         5.3 0.18                          23.8 200 
 BAR2 SZ ES   1    845 26.54                             171    0.22 7 23.8 200 
 GIR2 SZ ES   1    845 26.04                             167   -0.40 7 32.8 344 
 BRR  HZ EP   1    845 12.30                             152    0.28 7 75.0 297 
 BRR  HZ I         845 12.61         3.3 0.13                          75.0 297 
 BRR  HN ES   1    845 29.61                             152    0.36 7 75.0 297 
 PAM  SN ES   1    845 30.55                             153    0.00 7 75.4  37 
 PAM  SN I         845 30.86         3.8 0.22                          75.4  37 
 RUS  HZ EP   1    845 14.31                             145    0.02 7 99.8 178 
 RUS  HN ES   1    845 33.16                             145   -0.13 7 99.8 178 
 RUS  HZ I         845 33.87         1.6 0.24                          99.8 178 
 ZAR  HN ES   1    845 48.83                             123   -0.35 6  208 292 
 ZAR  HZ I         845 54.50         2.0 0.24                           208 292 
                                                                                
