 2017  410 0146  1.5 L   6.778 -73.120135.9  RSN  9 0.2 1.5LRSN                1
 GAP=141        0.60       2.5     3.2  4.3 -0.3088E+01 -0.5875E+00  0.2624E+01E
 Epicentro: LOS SANTOS - SANTANDER                                             3
 ACTION:UPD 17-05-30 21:10 OP:jn   STATUS:               ID:20170410014601 L   I
 OLDACT:UP  17-04-10 14:51 OP:edw  STATUS:               ID:20170410013744     3
 OLDACT:UP  17-04-10 14:51 OP:edw  STATUS:               ID:20170410013744     3
 OLDACT:UP  17-04-10 14:51 OP:edw  STATUS:               ID:20170410013744     3
 OLDACT:REG 17-04-10 12:38 OP:edw  STATUS:               ID:20170410013744     3
 2017-04-10-0138-00M.COL___368                                                 6
 STAT SP IPHASW D HRMM SECON CODA AMPLIT PERI AZIMU VELO AIN AR TRES W  DIS CAZ7
 BAR2 EZ EP     C  146 19.76                             170   -0.1310 21.7 199 
 BAR2 EZ ES        146 33.80                             170   -0.4510 21.7 199 
 BAR2 EZ I         146 35.47         7.7 0.26            169           21.7 199 
 BRR  HZ EP        146 21.68                             149   -0.1110 74.9 299 
 BRR  HN ES        146 37.79                             149    0.1510 74.9 299 
 BRR  HZ I         146 42.57         7.7 0.32            146           74.9 299 
 PAM  EZ EP        146 22.67                             149    0.0110 77.5  37 
 PAM  EN ES        146 39.51                             149    0.3310 77.5  37 
 PAM  EZ I         146 40.20         5.2 0.34            150           77.5  37 
 RUS  HZ EP        146 23.80                             142   -0.2810 98.0 178 
 RUS  HN ES        146 41.91                             142    0.2010 98.0 178 
 RUS  HZ I         146 43.03         4.4 0.24            144           98.0 178 
 PTB  HZ EP   9    146 26.44                             129   -1.45 0  150 260 
 PTB  HN ES        146 46.89                             131   -0.15 9  150 260 
 PTB  HZ I         146 50.16         4.9 0.16            127            150 260 
 SPBC HZ EP   4    146 26.14                             127   -3.10 0  163 220 
 SPBC HN ES        146 50.99                             127    0.10 9  163 220 
 SPBC HZ I         146 54.41         6.8 0.22            126            163 220 
 ZAR  HZ EP   4    146 34.59                             120    0.91 0  208 292 
 ZAR  HN ES   4    146 59.12                             120    0.32 0  208 292 
 ZAR  HZ I         147  4.52         3.9 0.30            118            208 292 
 NOR  HN ES        147  4.36                             116    0.08 8  236 235 
 CHI  HZ EP   4    146 39.48                             115    1.00 0  247 196 
 CHI  HN ES        147  7.56                             115    0.23 8  247 196 
 CHI  HZ I         147 10.15         0.7 0.38            116            247 196 
 PRA  HZ EP   4    146 52.01                             105   -2.59 0  391 210 
 PRA  HN ES   4    147 36.97                             105    0.94 0  391 210 
 SJC  HZ EP   4    146 54.37                             104   -2.79 0  413 327 
 SJC  HN ES   4    147 36.62                             104   -3.97 0  413 327 
                                                                                
