 2017  810 0520  3.4 L   6.815 -73.161142.4  RSN  5 0.4 1.1LRSN                1
 GAP=237        1.02       5.7     7.3  7.4  0.2104E+02  0.1176E+02  0.1349E+01E
 Epicentro: LOS SANTOS - SANTANDER                                             3
 ACTION:UPD 17-09-04 20:18 OP:rebc STATUS:               ID:20170810052003 L   I
 OLDACT:REG 17-08-10 12:30 OP:dhb  STATUS:               ID:20170810051741     3
 2017-08-10-0518-00M.COL___396                                                 6
 STAT SP IPHASW D HRMM SECON CODA AMPLIT PERI AZIMU VELO AIN AR TRES W  DIS CAZ7
 BAR2 EZ EP        520 21.89                             170   -0.7910 24.8 185 
 BAR2 EZ ES        520 37.84                             170    0.1510 24.8 185 
 BAR2 EZ I         520 39.82         2.3 0.16            169           24.8 185 
 BRR  HZ EP        520 24.37                             153    0.2910 68.9 298 
 BRR  HN ES        520 39.88                             153   -0.3110 68.9 298 
 BRR  HZ I         520 44.22         2.1 0.31            152           68.9 298 
 RUS  HZ EP        520 27.00                             143    0.0210  102 175 
 RUS  HN ES        520 45.92                             143    0.5710  102 175 
 RUS  HZ I         520 47.08         2.7 0.34            145            102 175 
 SPBC HZ EP        520 31.71                             128    0.02 9  163 218 
 SPBC HN ES        520 53.29                             128   -0.44 9  163 218 
 SPBC HZ I         520 56.18         1.8 0.17            130            163 218 
 ZAR  HZ EP        520 35.69                             122    0.27 9  202 292 
 ZAR  HN ES        521  0.67                             122    0.29 9  202 292 
 ZAR  HZ I         521  4.30         1.3 0.04            123            202 292 
                                                                                
