 2017  110 0006 17.1 L   7.243 -73.095155.3  RSN  8 0.4 1.6LRSN                1
 GAP=114        0.87       3.8     3.9  5.9  0.5060E+00  0.6951E+01 -0.3951E+01E
 Epicentro: RIONEGRO - SANTANDER                                               3
 ACTION:UPD 17-05-22 15:57 OP:jn   STATUS:               ID:20170110000617 L   I
 OLDACT:UP  17-01-10 12:58 OP:and  STATUS:               ID:20170110000000     3
 OLDACT:UP  17-01-10 12:57 OP:and  STATUS:               ID:20170110000000     3
 OLDACT:UP  17-01-10 12:54 OP:and  STATUS:               ID:20170110000000     3
 OLDACT:REG 17-01-10 12:18 OP:and  STATUS:               ID:20170110000000     3
 2017-01-10-0000-15M.COL___363                                                 6
 STAT SP IPHASW D HRMM SECON CODA AMPLIT PERI AZIMU VELO AIN AR TRES W  DIS CAZ7
 PAM  EZ EP        0 6 39.07                             163    0.2010 45.0  76 
 PAM  EN ES        0 6 55.42                             163   -0.4110 45.0  76 
 PAM  EZ I         0 6 57.21         6.6 0.25            169           45.0  76 
 BRR  HZ EP        0 6 39.53                             155    0.2910 69.7 258 
 BRR  HN ES        0 6 56.19                             155   -0.3010 69.7 258 
 BRR  HZ I         0 7  1.52         5.5 0.36            152           69.7 258 
 BAR2 EZ EP   3    0 6 40.85                             154    1.11 2 72.6 188 
 BAR2 EZ ES        0 6 57.78                             154    0.4110 72.6 188 
 BAR2 EZ I         0 7  1.03         6.1 0.18            154           72.6 188 
 RUS  HZ EP        0 6 45.58                             134   -0.10 9  149 179 
 RUS  HN ES        0 7  8.10                             134    0.16 9  149 179 
 RUS  HZ I         0 7  9.43         2.2 0.32            136            149 179 
 PTB  HZ EP        0 6 46.63                             130   -0.22 9  169 243 
 PTB  HN ES        0 7  9.72                             130   -0.31 9  169 243 
 PTB  HZ I         0 7 12.16         5.3 0.12            131            169 243 
 ZAR  HZ EP   4    0 6 51.68                             125    2.21 0  197 278 
 ZAR  HN ES        0 7 15.46                             125    0.77 9  197 278 
 ZAR  HZ I         0 7 21.54         4.2 0.16            126            197 278 
 NOR  HN ES        0 7 27.99                             117   -0.52 8  270 227 
 NOR  HZ I         0 7 35.27         2.0 0.14            118            270 227 
 SJC  HZ EP        0 7  8.56                             109   -0.21 6  373 322 
 SJC  HN ES        0 7 48.84                             109   -0.21 6  373 322 
 SJC  HZ I         0 7 50.70         2.0 0.14            111            373 322 
                                                                                
