 2015 1010 0319 57.4 L   6.779 -73.079147.6  RSN 15 0.4 1.8LRSN                1
 GAP=146        0.77       2.2     3.0  4.2 -0.1536E+01  0.3904E+01  0.9669E+00E
 Epicentro: LOS SANTOS - SANTANDER                                             3
 ACTION:UPD 15-12-22 20:38 OP:cam  STATUS:               ID:20151010031957 L   I
 OLDACT:REG 15-10-10 12:33 OP:spq  STATUS:               ID:20151010031740     3
 2015-10-10-0317-40M.COL___337                                                 6
 STAT SP IPHASW D HRMM SECON CODA AMPLIT PERI AZIMU VELO AIN AR TRES W  DIS CAZ7
 BAR2 EZ EP     D  320 17.05                             170   -0.1710 23.6 209 
 BAR2 EZ ES   1    320 31.84                             170   -0.87 7 23.6 209 
 BAR2 EZ I         320 34.81        10.5 0.13            168           23.6 209 
 PAM  EZ EP        320 19.96                             152    0.3310 74.8  34 
 PAM  EE ES        320 37.21                             152    0.2210 74.8  34 
 PAM  EZ I         320 39.18         6.6 0.54            157           74.8  34 
 BRR  HZ EP        320 19.09                             150   -0.0610 78.8 297 
 BRR  HN ES        320 36.42                             150    0.2710 78.8 297 
 BRR  HZ I         320 41.69         9.7 0.27            149           78.8 297 
 RUS  HZ EP        320 20.89                             145   -0.2310 98.1 180 
 RUS  HE ES   1    320 39.90                             145    0.25 7 98.1 180 
 RUS  HZ I         320 42.68         3.0 0.36            147           98.1 180 
 OCA  HZ EP        320 26.03                             129   -0.10 9  164 351 
 OCA  HE ES        320 48.51                             129   -0.05 9  164 351 
 OCA  HZ I         320 52.00        20.3 0.16            132            164 351 
 SPBC HZ EP        320 26.00                             129   -0.29 9  166 221 
 SPBC HN ES        320 49.01                             129    0.16 9  166 221 
 SPBC HZ I         320 53.67        11.9 0.20            130            166 221 
 ZAR  HZ EP   1    320 30.33                             122   -0.40 6  212 292 
 ZAR  HN ES        320 57.14                             122    0.39 8  212 292 
 ZAR  HZ I         321  1.44         8.2 0.34            123            212 292 
 NOR  HZ EP        320 33.09                             118   -0.62 8  239 236 
 NOR  HN ES        321  2.04                             118   -0.02 8  239 236 
 NOR  HZ I         321  4.80         5.7 0.26            120            239 236 
 CHI  HZ EP        320 35.35                             117    0.20 8  248 197 
 CHI  HE ES   1    321  5.09                             117    0.47 6  248 197 
 CHI  HZ I         321 12.38         1.9 0.56            120            248 197 
 SML  HZ EP        320 34.69                             117    0.03 8  249 334 
 SML  HE ES   1    321  3.13                             117   -0.62 6  249 334 
 SML  HZ I         321  6.70        12.6 0.22            119            249 334 
 HEL  HZ EP        320 38.69                             114    0.28 7  279 257 
 HEL  HE ES        321 10.56                             114    0.14 7  279 257 
 HEL  HZ I         321 16.08         6.0 0.34            116            279 257 
 URE  HZ EP   4    320 36.77                             113   -2.62 0  292 292 
 URE  HE ES   4    321  9.26                             113   -2.90 0  292 292 
 URE  HZ I         321 22.12         4.2 0.16            115            292 292 
 GUY2CHZ EP        320 42.21                             112    0.61 7  306 236 
 GUY2CHE ES   1    321 15.80                             112   -0.30 5  306 236 
 GUY2CHZ I         321 23.72         4.6 0.50                           306 236 
 CBOC HZ EP   1    320 45.70                             110    0.62 5  340 253 
 CBOC HN ES        321 21.87                             110   -0.43 7  340 253 
 CBOC HZ I         321 29.23         1.4 0.40            111            340 253 
 SJC  HZ EP   4    320 51.37                             106   -2.32 0  415 326 
 SJC  HN ES   4    321 33.47                             106   -4.15 0  415 326 
 SJC  HZ I         321 40.14         1.5 0.38            108            415 326 
                                                                                
