 2013  110 0948 32.4 L   6.782 -73.167148.0  RSN  8 0.4 2.4LRSN                1
 GAP=181        1.07       3.6     4.9  6.6  0.2559E+01  0.5576E+01  0.1812E+01E
 Epicentro: LOS SANTOS - SANTANDER                                             3
 ACTION:UPD 13-02-15 09:13 OP:ep   STATUS:               ID:20130110094832 L   I
 2013-01-10-0946-42M.COL___171                                                 6
 STAT SP IPHASW D HRMM SECON CODA AMPLIT PERI AZIMU VELO AIN AR TRES W  DIS CAZ7
 BAR2 SZ EP        948 52.07                             171   -0.2010 21.1 185 
 BAR2 SZ ES        949  7.12                             171   -0.6410 21.1 185 
 BAR2 SZ I         949  8.23        38.9 0.36            168           21.1 185 
 BRR  HZ EP        948 53.93                             153    0.1810 70.1 301 
 BRR  HN ES        949 11.25                             153    0.8610 70.1 301 
 RUS  HZ EP        948 56.46                             145    0.1910 98.8 175 
 RUS  HN ES        949 15.08                             145    0.2210 98.8 175 
 RUS  HN I         949 16.19        31.3 0.42            144           98.8 175 
 PTB  HZ EP        948 58.57                             133   -0.76 9  145 259 
 PTB  HN ES        949 20.05                             133   -0.27 9  145 259 
 PTB  HN I         949 23.39        38.0 0.20            130            145 259 
 OCA  HZ EP        949  1.29                             130    0.23 9  162 354 
 OCA  HN ES        949 23.06                             130   -0.34 9  162 354 
 OCA  HN I         949 24.84        43.2 0.34            130            162 354 
 ZAR  HN ES        949 30.45                             123    0.28 9  203 293 
 ZAR  HN I         949 36.32        33.7 0.56            121            203 293 
 CHI  HZ EP        949  9.98                             118    0.01 8  246 195 
 CHI  HN ES        949 39.66                             118    0.39 8  246 195 
 CHI  HN I         949 44.14        11.0 0.60            117            246 195 
 HEL  HZ EP        949 12.70                             115    0.26 8  269 256 
 HEL  HN ES        949 43.28                             115   -0.38 8  269 256 
 HEL  HN I         949 52.10         6.5 0.24            114            269 256 
                                                                                
