 2014  910 0712  2.3 L   7.519 -73.049152.7  RSN  5 0.2 1.4LRSN                1
 GAP=138        0.50       2.7     4.4  5.0 -0.6317E+00  0.6319E+01  0.4574E+01E
 Epicentro: EL PLAYON - SANTANDER                                              3
 ACTION:UPD 14-10-03 23:03 OP:nd   STATUS:               ID:20140910070818 L   I
 OLDACT:UPD 14-09-10 14:12 OP:FJMB STATUS:               ID:20140910070818 L   3
 2014-09-10-0708-18M.COL___278                                                 6
 STAT SP IPHASW D HRMM SECON CODA AMPLIT PERI AZIMU VELO AIN AR TRES W  DIS CAZ7
 PAM  SN ES        712 40.27                             163   -0.0610 43.4 117 
 OCA  HN ES        712 42.99                             149   -0.1010 85.0 340 
 OCA  HZ I         712 44.44         5.2 0.50            152           85.0 340 
 BRR  HZ EP        712 25.34                             149    0.2910 86.2 238 
 BRR  HN ES        712 42.81                             149   -0.0110 86.2 238 
 BRR  HZ I         712 46.76         3.2 0.12            149           86.2 238 
 BAR2 SZ EP        712 26.42                             144   -0.1410  104 188 
 BAR2 SZ ES        712 45.69                             144    0.1910  104 188 
 BAR2 SZ I         712 49.39         5.7 0.22            145            104 188 
 SPBC HN ES        713  6.57                             120   -0.25 8  235 209 
                                                                                
