 2011  610 0741 39.8 L   6.796 -73.142140.4  RSN 12 0.3 2.6LRSN                1
 GAP=152        0.68       3.3     5.4  5.4 -0.1061E+02  0.5221E+01  0.2416E+01E
 Epicentro: LOS SANTOS - SANTANDER                                             3
 ACTION:UP  11-07-14 19:04 OP:ep   STATUS:               ID:20110610074139 L   I
 2011-06-10-0739-36S.COL___120                                                 6
 STAT SP IPHASW D HRMM SECON CODA AMPLIT PERI AZIMU VELO SNR AR TRES W  DIS CAZ7
 BTL  SZ EP   1    741 59.27                             172     0.6 7   19 314 
 BAR2 SZ IP        741 58.77                             170     0.010   23 191 
 BAR2 SZ ES   1    742 13.33                             170    -0.2 7   23 191 
 BAR2 SZ I         742 15.16       179.4 0.19                            23 191 
 BRR  HZ IP     C  742  0.62                             152     0.310   72 299 
 BRR  HN ES   2    742 16.87                             152     0.4 5   72 299 
 BRR  HZ I         742 21.81        95.2 0.13                            72 299 
 PAM  SZ EP   1    742  1.50                             150     0.1 7   78  39 
 PAM  SN ES   2    742 18.56                             150     0.3 5   78  39 
 BRI  SZ IP        742  3.33                             140     0.210  109  20 
 BRI  SZ ES   2    742 21.31                             140    -0.1 5  109  20 
 BRI  SZ I         742 23.79        39.4 1.12                           109  20 
 GRA  SZ IP        742  4.61                             136     0.110  126  17 
 GRA  SZ I         742  6.03        61.8 0.24                           126  17 
 GRA  SZ ES   1    742 23.57                             136    -0.3 7  126  17 
 OCA  SZ EP   1    742  7.24                             128    -0.5 7  161 353 
 OCA  SZ ES   1    742 29.06                             128    -0.4 7  161 353 
 OCA  SZ I         742 33.95        52.6 0.29                           161 353 
 NOR  SZ EP   1    742 14.58                             117    -0.6 6  235 235 
 NOR  SN ES   1    742 42.42                             117    -0.4 6  235 235 
 CHI  HZ EP   1    742 16.90                             116    -0.2 6  248 195 
 CHI  HN ES   1    742 46.05                             116    -0.2 6  248 195 
 CHI  HZ I         742 53.66        14.7 0.55                           248 195 
 RREF HZ EP   1    742 25.98                             110     0.3 5  322 229 
 RREF HN ES   2    743  1.88                             110     0.4 3  322 229 
 RREF HZ I         743  8.80        18.0 0.47                           322 229 
 DBB  SZ EP   2    742 27.81                             108     0.7 3  340 274 
 PRA  HZ EP   1    742 32.74                             106    -0.3 4  392 210 
 PRA  HN ES   2    743 14.82                             106     0.2 3  392 210 
                                                                                
