 2012  410 0907  6.2 L   6.769 -73.108147.8  RSN  9 0.3 1.8LRSN                1
 GAP=143        0.76       3.9     4.0  5.8 -0.2143E+01  0.5709E+01  0.2713E+01E
 Epicentro: LOS SANTOS - SANTANDER                                             3
 ACTION:UPD 12-07-05 11:52 OP:tino STATUS:               ID:20120410090706 L   I
 2012-04-10-0900-00M.COL___199                                                 6
 STAT SP IPHASW D HRMM SECON CODA AMPLIT PERI AZIMU VELO AIN AR TRES W  DIS CAZ7
 BAR2 SZ EP        9 7 26.04                             171     0.110   21 203 
 BAR2 SZ ES   1    9 7 41.57                             171     0.1 7   21 203 
 BAR2 SZ I         9 7 42.68        12.0 0.17                            21 203 
 BRR  HZ EP        9 7 28.02                             151     0.210   76 299 
 BRR  HN ES   1    9 7 45.41                             151     0.7 7   76 299 
 BRR  HZ I         9 7 49.53        13.7 0.29                            76 299 
 PAM  SZ EP   1    9 7 28.65                             151     0.1 7   78  36 
 PAM  SN ES        9 7 45.64                             151    -0.510   78  36 
 RUS  HZ EP        9 7 29.87                             145     0.010   97 178 
 RUS  HN ES   1    9 7 48.44                             145     0.1 7   97 178 
 RUS  HZ I         9 7 50.06         7.3 0.33                            97 178 
 PTB  HZ EP   1    9 7 33.23                             132    -0.4 7  151 260 
 PTB  HE ES   1    9 7 54.42                             132    -0.6 7  151 260 
 OCA  SZ EP   1    9 7 35.34                             129     0.4 7  164 352 
 ZAR  HN ES   1    9 8  4.80                             122    -0.3 6  209 293 
 NOR  SZ EP   1    9 7 42.26                             119     0.1 6  236 236 
 NOR  SN ES   1    9 8 10.45                             119     0.2 6  236 236 
 CHI  HZ EP   2    9 7 43.52                             118    -0.2 4  246 196 
 CHI  HZ I         9 8 18.98         4.1 0.39                           246 196 
                                                                                
