 2013  410 0413 23.9 L   6.096 -73.785102.0  RSN  5 0.3 1.8LRSN                1
 GAP=197        0.83       4.3     3.5  7.8  0.3659E+01  0.3811E+01  0.1553E+01E
 Epicentro: EL PEON - SANTANDER                                                3
 ACTION:UPD 13-05-22 14:37 OP:EP   STATUS:               ID:20130410041323 L   I
 2013-04-10-0408-43M.COL___215                                                 6
 STAT SP IPHASW D HRMM SECON CODA AMPLIT PERI AZIMU VELO AIN AR TRES W  DIS CAZ7
 RUS  HZ EP        413 42.05                             139    0.1010 80.9 106 
 RUS  HN ES        413 56.12                             139    0.0710 80.9 106 
 RUS  HN I         413 56.82        10.1 0.20            145           80.9 106 
 BAR2 SZ EP        413 42.19                             137    0.1510 86.3  51 
 BAR2 SZ ES        413 56.10                             137   -0.1210 86.3  51 
 BAR2 SZ I         413 57.79        39.3 0.16            140           86.3  51 
 PTB  HZ EP        413 41.76                             135   -0.2010 89.0 303 
 PTB  HN ES        413 55.97                             135   -0.1010 89.0 303 
 PTB  HN I         413 59.28        16.3 0.12            137           89.0 303 
 BRR  HZ EP        413 43.96                             128   -0.0810  112   4 
 BRR  HN ES        414  0.48                             128    0.7010  112   4 
 BRR  HN I         414  7.20        11.4 0.22            130            112   4 
 GIR2 SZ EP        413 45.76                             124    0.0810  127  31 
 GIR2 SZ ES        414  2.09                             124   -0.6110  127  31 
                                                                                
