 2016 1110 0450 56.9 L   6.607 -73.202153.3  RSN  4 0.2 1.0LRSN                1
 GAP=172        0.57       6.5     4.1  4.6  0.9267E+01  0.4780E+01  0.7972E+00E
 Epicentro: BARICHARA - SANTANDER                                              3
 ACTION:UPD 17-10-26 21:06 OP:lp   STATUS:               ID:20161110045056 L   I
 OLDACT:REG 16-11-10 12:02 OP:lv   STATUS:               ID:20161110044742     3
 2016-11-10-0448-00M.COL___340                                                 6
 STAT SP IPHASW D HRMM SECON CODA AMPLIT PERI AZIMU VELO AIN AR TRES W  DIS CAZ7
 BAR2 EZ EP        451 16.92                             179   -0.2610 2.77 127 
 BAR2 EZ ES        451 32.97                             179   -0.0610 2.77 127 
 BRR  HZ EP        451 19.39                             151    0.1210 78.9 314 
 BRR  HE ES        451 36.96                             151    0.2210 78.9 314 
 PTB  HZ EP        451 24.04                             135    0.35 9  139 267 
 PTB  HE ES        451 44.52                             135   -0.09 9  139 267 
 PTB  HZ I         451 47.07         1.2 0.15            134            139 267 
 ZAR  HZ EP        451 30.06                             123   -0.10 8  207 298 
 ZAR  HE ES        451 55.86                             123   -0.27 8  207 298 
                                                                                
