 2010 1110 0025 19.4 L   6.684 -73.220158.7  RSN  4 0.1 1.7LRSN                1
 GAP=170        0.47       9.4    17.6  8.4  0.1513E+03 -0.1069E+03 -0.5116E+02E
 Epicentro: BARICHARA - SANTANDER                                              3
 ACTION:UP  10-12-17 16:51 OP:REBC STATUS:               ID:20101110002519 L   I
 2010-11-10-0022-09S.COL___129                                                 6
 STAT SP IPHASW D HRMM SECON CODA AMPLIT PERI AZIMU VELO SNR AR TRES W  DIS CAZ7
 BAR2 SZ EP   1    025 40.41                             176     0.0 7   11 159 
 BAR2 SZ I         025 57.03        11.1 1.22                            11 159 
 BTL  SZ EP        025 40.68                             170     0.010   26 348 
 BRR  HZ EP        025 42.20                             154     0.210   72 311 
 BRR  HN ES        025 59.54                             154    -0.110   72 311 
 BRR  HZ I         026  2.75        13.5 0.38                            72 311 
 RUS  HZ EP   1    025 43.47                             149    -0.2 7   89 170 
 RUS  HN ES   1    026  2.79                             149     0.1 7   89 170 
 RUS  HZ I         026  4.73         5.3 0.50                            89 170 
                                                                                
