 2012  310 0247 22.4 L   6.788 -73.122146.6  RSN 14 0.5 2.0LRSN                1
 GAP=140        0.98       3.8     5.1  6.6 -0.3448E+01  0.1027E+02  0.2395E+01E
 ACTION:UP  12-03-31 23:18 OP:EP   STATUS:               ID:20120310024722 L   I
 2012-03-10-0240-00M.COL___193                                                 6
 STAT SP IPHASW D HRMM SECON CODA AMPLIT PERI AZIMU VELO SNR AR TRES W  DIS CAZ7
 BAR2 SZ EP   1    247 42.41                             171     0.3 7   23 197 
 BAR2 SZ ES   1    247 57.33                             171    -0.2 7   23 197 
 BAR2 SZ I         247 59.11        45.4 0.16                            23 197 
 BRR  HZ EP   1    247 44.19                             152     0.4 7   74 298 
 BRR  HZ I         247 44.56        20.4 0.14                            74 298 
 BRR  HN ES   1    248  1.36                             152     0.9 7   74 298 
 PAM  SZ EP   1    247 45.14                             151     0.5 7   77  37 
 PAM  SZ I         247 45.42        19.1 0.19                            77  37 
 PAM  SN ES   1    248  2.07                             151     0.0 7   77  37 
 RUS  HZ EP   1    247 46.03                             144    -0.1 7   99 178 
 RUS  HN ES   1    248  4.25                             144    -0.4 7   99 178 
 RUS  HZ I         248  6.28        10.3 0.36                            99 178 
 PTB  HZ EP   1    247 48.94                             132    -0.7 7  150 260 
 PTB  HE ES   1    248 10.89                             132     0.0 7  150 260 
 PTB  HZ I         248 17.65         5.1 0.11                           150 260 
 OCA  SZ EP   1    247 50.70                             130    -0.2 7  162 352 
 ZAR  HZ EP   1    247 54.76                             122    -0.4 6  207 292 
 ZAR  HN ES   1    248 20.43                             122    -0.4 6  207 292 
 ZAR  HZ I         248 26.90         7.4 0.18                           207 292 
 NOR  SZ EP   1    247 57.99                             119    -0.3 6  236 235 
 NOR  SN ES   2    248 25.81                             119    -0.5 4  236 235 
 CHI  HZ EP   1    248  0.37                             117     0.3 6  248 196 
 CHI  HN ES   1    248 28.83                             117    -0.6 6  248 196 
 CHI  HZ I         248 39.23         5.2 0.61                           248 196 
 HEL  HZ EP   1    248  3.51                             115     0.6 6  274 256 
 HEL  HZ I         248 40.26         3.9 0.21                           274 256 
 GUY  SZ EP   1    248  7.24                             112     0.8 5  305 236 
 GUY  SN ES   1    248 40.29                             112    -0.6 5  305 236 
 GUY  SZ I         248 53.10         8.4 0.41                           305 236 
 RREF HN ES   1    248 45.41                             111     0.6 5  323 230 
 RREF HZ I         248 53.19         5.8 0.25                           323 230 
 COD  HN ES   1    248 48.09                             109    -0.8 5  350 354 
 PRA  HZ EP   1    248 16.38                             107     0.4 4  392 210 
 PRA  HN ES   1    248 58.27                             107     0.5 4  392 210 
                                                                                
