 2010  310 0714 45.4 L   7.412 -73.186134.0  RSN 10 0.3 2.5LRSN                1
 GAP=116        0.60       3.2     4.3  3.9 -0.5992E+01  0.1687E+01  0.1322E+01E
 Epicentro: EL PLAYON - SANTANDER                                              3
 ACTION:UP  10-08-24 09:53 OP:vdl  STATUS:               ID:20100310071445 L   I
 2010-03-10-0711-38S.COL___062                                                 6
 STAT SP IPHASW D HRMM SECON CODA AMPLIT PERI AZIMU VELO SNR AR TRES W  DIS CAZ7
 GUE  SZ IP        715  4.99                             157     0.210   55  32 
 GUE  SZ ES        715 20.04                             157     0.110   55  32 
 BRR  HZ IP        715  5.03                             152     0.010   67 240 
 GRA  SZ IP        715  5.62                             152     0.410   67  39 
 GRA  SZ ES   1    715 20.73                             152     0.0 7   67  39 
 BRR  HE ES   1    715 20.59                             152     0.2 7   67 240 
 BRR  HZ I         715 21.41        59.3 0.15                            67 240 
 BAR2 SZ EP   1    715  6.91                             144     0.0 7   91 180 
 BAR2 SZ ES   1    715 23.35                             144    -0.3 7   91 180 
 OCA  SZ EP        715  6.85                             143    -0.110   93 351 
 OCA  SZ ES   1    715 23.19                             143    -0.5 7   93 351 
 OCA  SZ I         715 25.52        80.2 0.17                            93 351 
 RUS  HZ EP   2    715 13.75                             125    -0.3 5  168 176 
 HEL  HZ EP   2    715 27.68                             111     0.4 4  292 243 
 HEL  HZ I         716  7.83         7.0 0.15                           292 243 
 SDV  BZ IP        715 30.54                             108    -0.3 7  325  60 
 SDV  BZ I         715 32.02        25.7 0.11                           325  60 
 DBB  SZ EP        715 31.90                             107    -0.2 7  337 263 
 PRA  HZ EP   2    715 45.89                             102     0.5 3  450 205 
 PRA  HN ES   3    716 31.83                             102    -0.4 1  450 205 
 PRA  HZ I         716 44.25         4.0 0.78                           450 205 
                                                                                
