 2014  210 0101 12.9 L   6.570 -73.449114.6  RSN  5 0.4 1.5LRSN                1
 GAP=117        0.77       5.4     4.5  9.0 -0.1369E+01 -0.2485E+01  0.1526E+02E
 Epicentro: EL CARMEN DE CHUCURI - SANTANDER                                   3
 ACTION:UPD 14-03-10 08:09 OP:ep   STATUS:               ID:20140210010112 L   I
 OLDACT:UP  14-02-10 13:57 OP:fm   STATUS:               ID:20140210005950     3
 OLDACT:REG 14-02-10 11:00 OP:fm   STATUS:               ID:20140210005950     3
 2014-02-10-0059-50M.COL___224                                                 6
 STAT SP IPHASW D HRMM SECON CODA AMPLIT PERI AZIMU VELO AIN AR TRES W  DIS CAZ7
 BAR2 SZ IP     D  1 1 28.94                             165   -0.0810 29.6  85 
 BAR2 SZ ES   1    1 1 41.34                             165   -0.22 7 29.6  85 
 BAR2 SZ I         1 1 42.68        25.6 0.37            164           29.6  85 
 BRR  HN ES   1    1 1 43.71                             148   -0.44 7 66.1 334 
 RUS  HZ EP        1 1 32.32                             141   -0.2110 85.2 152 
 RUS  HN ES   2    1 1 48.33                             141    0.51 5 85.2 152 
 RUS  HZ I         1 1 49.00         3.3 0.25            142           85.2 152 
 PTB  HZ EP   2    1 1 33.50                             132   -0.57 5  111 268 
 PTB  HN ES   1    1 1 51.17                             132    0.62 7  111 268 
 PAM  SZ EP   2    1 1 36.05                             131    0.68 5  119  44 
 PAM  SN ES   1    1 1 53.20                             131    0.32 7  119  44 
 PAM  SZ I         1 1 54.08         5.4 0.20            132            119  44 
                                                                                
