 2010  110 0541 41.4 L   5.897 -73.747114.1  RSN  4 0.1 0.8LRSN                1
 GAP=206        0.34       3.8    12.5 10.7 -0.3843E+02  0.1121E+03 -0.2520E+02E
 Epicentro: JESUS MARIA - SANTANDER                                            3
 ACTION:UP  10-08-24 09:43 OP:vdl  STATUS:               ID:20100110054141 L   I
 2010-01-10-0538-01S.COL___097                                                 6
 STAT SP IPHASW D HRMM SECON CODA AMPLIT PERI AZIMU VELO SNR AR TRES W  DIS CAZ7
 RUS  BZ EP        541 59.99                             146    -0.110   74  90 
 RUS  BZ I         542  0.77         2.4 0.20                            74  90 
 RUS  BE ES   2    542 14.75                             146     0.1 5   74  90 
 BAR2 SZ EP        542  1.83                             136     0.110   99  39 
 BAR2 SZ ES   2    542 17.37                             136    -0.2 5   99  39 
 CHI  HZ EP        542  5.76                             126     0.0 9  140 179 
 CHI  HZ I         542  6.95         0.8 0.28                           140 179 
 CHI  HN ES   2    542 24.76                             126     0.0 5  140 179 
 GIR2 SZ EP   2    542  5.69                             125    -0.1 5  144  25 
                                                                                
