 2012  410 0439 19.3 L   6.755 -73.134146.8  RSN  6 0.3 1.5LRSN                1
 GAP=140        0.70       4.8     4.2  8.0  0.1646E+01  0.5384E+01  0.2807E+01E
 Epicentro: LOS SANTOS - SANTANDER                                             3
 ACTION:UPD 12-07-05 11:52 OP:tino STATUS:               ID:20120410043919 L   I
 2012-04-10-0434-38M.COL___181                                                 6
 STAT SP IPHASW D HRMM SECON CODA AMPLIT PERI AZIMU VELO AIN AR TRES W  DIS CAZ7
 BAR2 SZ EP   1    439 38.65                             172    -0.4 7   19 197 
 BAR2 SZ I         439 55.02         7.2 0.19                            19 197 
 BRR  HZ EP        439 41.07                             151     0.310   75 301 
 BRR  HZ I         439 43.30         7.1 0.13                            75 301 
 BRR  HN ES   1    439 57.96                             151     0.4 7   75 301 
 PAM  SZ EP   1    439 41.95                             150     0.1 7   81  37 
 PAM  SN ES   1    439 59.05                             150    -0.4 7   81  37 
 RUS  HZ EP   1    439 43.03                             145     0.2 7   95 177 
 RUS  HN ES   1    440  1.26                             145     0.1 7   95 177 
 RUS  HZ I         440  2.08         2.4 0.29                            95 177 
 PTB  HZ EP   1    439 46.15                             132    -0.3 7  148 261 
 PTB  HN ES   1    440  7.15                             132    -0.4 7  148 261 
 ZAR  HN ES   1    440 17.82                             122     0.0 6  207 293 
 ZAR  HZ I         440 23.71         5.1 0.21                           207 293 
                                                                                
