 2016 1210 0144 20.2 L   6.787 -73.159144.0  RSN 11 0.4 2.0LRSN                1
 GAP=136        0.96       3.4     3.9  6.0 -0.5695E+00  0.5675E+01  0.7586E+01E
 Epicentro: LOS SANTOS - SANTANDER                                             3
 ACTION:UPD 17-01-11 20:13 OP:rebc STATUS:               ID:20161210014420 L   I
 OLDACT:REG 16-12-10 12:45 OP:lv   STATUS:               ID:20161210013743     3
 2016-12-10-0138-00M.COL___367                                                 6
 STAT SP IPHASW D HRMM SECON CODA AMPLIT PERI AZIMU VELO AIN AR TRES W  DIS CAZ7
 BAR2 EZ EP        144 39.63                             171    0.0010 21.6 187 
 BAR2 EZ ES        144 54.48                             171   -0.2710 21.6 187 
 BAR2 EZ I         144 55.96        33.3 0.34            171           21.6 187 
 BRR  HZ EP        144 41.51                             152    0.3410 70.7 300 
 BRR  HE ES        144 58.47                             152    0.9710 70.7 300 
 BRR  HZ I         145  2.04        22.3 0.29            151           70.7 300 
 PAM  EZ EP        144 42.58                             150    0.1810 79.4  40 
 PAM  EN ES        144 59.50                             150   -0.1810 79.4  40 
 PAM  EZ I         145  1.92        25.5 0.44            152           79.4  40 
 RUS  HZ EP        144 43.58                             144   -0.1410 99.2 175 
 RUS  HN ES        145  1.79                             144   -0.2410 99.2 175 
 RUS  HZ I         145  3.55        13.2 0.34            145           99.2 175 
 PTB  HZ EP        144 46.45                             132   -0.46 9  146 259 
 PTB  HN ES        145  7.23                             132   -0.48 9  146 259 
 PTB  HZ I         145  9.45         6.9 0.15            132            146 259 
 ZAR  HZ EP   4    144 53.86                             122    1.36 0  203 293 
 ZAR  HN ES        145 17.22                             122   -0.43 9  203 293 
 ZAR  HZ I         145 23.69         8.0 0.13            122            203 293 
 CHI  HZ EP        144 57.81                             117    0.16 8  247 195 
 CHI  HN ES        145 26.89                             117    0.07 8  247 195 
 CHI  HZ I         145 31.96         3.9 0.26            118            247 195 
 ROSC BZ EP   4    145  0.70                             116    2.65 0  251 211 
 ROSC BN ES        145 27.83                             116    0.30 8  251 211 
 GUY2CHZ EP   4    145  5.09                             112    1.55 0  299 235 
 GUY2CHE ES        145 37.59                             112    0.28 7  299 235 
 GUY2CHZ I         145 46.08         4.2 0.29                           299 235 
 LL6C HZ EP   9    144 44.83                             110   -21.2 0  326 358 
 LL6C HE ES        145 19.79                                   -0.76 7  326 358 
 PRA  HZ EP        145 13.35                             106   -0.12 6  390 209 
 PRA  HE ES        145 55.11                             106    0.13 6  390 209 
 PRA  HZ I         146  0.43         4.4 0.34            107            390 209 
 SJC  HZ EP   4    145 14.28                             105   -1.52 0  410 327 
 SJC  HN ES   4    145 55.29                             105   -3.85 0  410 327 
                                                                                
