 2011  210 0900 45.7 L   6.785 -73.078149.1  RSN  4 0.2 1.2LRSN                1
 GAP=166        0.55       5.7    24.0  8.8 -0.8704E+02 -0.3002E+02 -0.6759E+01E
 Epicentro: LOS SANTOS - SANTANDER                                             3
 *BAR2-BTL-RUS                                                                 3
 ACTION:UP  11-03-28 15:07 OP:jfem STATUS:               ID:20110210085551 L   I
 2011-02-10-0855-51S.COL___136                                                 6
 STAT SP IPHASW D HRMM SECON CODA AMPLIT PERI AZIMU VELO SNR AR TRES W  DIS CAZ7
 BAR2 SZ IP        9 1  5.68                             170    -0.110   24 209 
 BAR2 SZ ES   2    9 1 21.60                             170     0.2 5   24 209 
 BAR2 SZ I         9 1 22.14         6.7 0.15                            24 209 
 BTL  SZ EP   1    9 1  5.80                             170     0.0 7   26 305 
 RUS  HZ EP   1    9 1  9.49                             145    -0.2 7   99 180 
 RUS  HN ES   2    9 1 28.56                             145     0.2 5   99 180 
 RUS  HZ I         9 1 29.50         1.2 0.46                            99 180 
 GRA  SZ EP        9 1 11.49                             138     0.310  125  14 
 GRA  SZ ES   2    9 1 30.59                             138    -0.5 5  125  14 
 GRA  SZ I         9 1 33.24         1.7 0.41                           125  14 
                                                                                
