 2011  110 0919 54.2 L   6.791 -73.177142.6  RSN 13 0.3 2.4LRSN                1
 GAP=133        0.63       2.2     3.5  4.3 -0.1406E+01  0.4886E+01  0.8997E+00E
 Epicentro: LOS SANTOS - SANTANDER                                             3
 ACTION:UP  11-02-08 08:40 OP:pat  STATUS:               ID:20110110091954 L   I
 2011-01-10-0916-03S.COL___136                                                 6
 STAT SP IPHASW D HRMM SECON CODA AMPLIT PERI AZIMU VELO SNR AR TRES W  DIS CAZ7
 BTL  SZ EP   1    920 13.69                             173     0.4 7   17 325 
 BTL  SZ ES   1    920 28.57                             173     0.3 7   17 325 
 BAR2 SZ IP        920 13.48                             171     0.110   22 182 
 BAR2 SZ ES   1    920 28.42                             171     0.0 7   22 182 
 BAR2 SZ I         920 30.06        70.2 0.14                            22 182 
 RUS  HZ EP   1    920 17.47                             143    -0.1 7  100 174 
 RUS  HN ES   1    920 35.90                             143     0.1 7  100 174 
 RUS  HZ I         920 38.13        20.1 0.19                           100 174 
 GRA  SZ EP        920 19.33                             136     0.010  128  19 
 GRA  SZ ES   1    920 38.71                             136    -0.2 7  128  19 
 GRA  SZ I         920 43.54        25.8 0.48                           128  19 
 OCA  SZ EP   1    920 21.82                             129    -0.5 7  161 354 
 OCA  SZ ES   1    920 44.35                             129     0.1 7  161 354 
 OCA  SZ I         920 48.47        42.1 0.34                           161 354 
 YOP  SZ EP   1    920 24.18                             126     0.1 7  180 152 
 YOP  SN ES   1    920 46.62                             126    -0.8 7  180 152 
 YOP  SZ I         920 50.38        20.4 0.34                           180 152 
 NOR  SZ EP   1    920 29.64                             118     0.3 6  231 234 
 NOR  SE ES   1    920 56.62                             118    -0.2 6  231 234 
 CHI  HZ EP   1    920 31.74                             117     0.2 6  247 194 
 CHI  HE ES   1    921  0.71                             117     0.1 6  247 194 
 CHI  HZ I         921  7.32        16.0 0.35                           247 194 
 HEL  HZ EP   1    920 34.13                             114     0.3 6  268 256 
 HEL  HN ES   1    921  4.30                             114    -0.5 6  268 256 
 HEL  HZ I         921 11.98        23.1 0.36                           268 256 
 RREF HE ES   2    921 14.75                             110    -0.7 3  319 229 
 RREF HZ I         921 23.07        17.9 0.34                           319 229 
 DBB  SZ EP   1    920 40.93                             109    -0.2 5  336 274 
 PRA  HZ EP   1    920 47.66                             106     0.4 4  389 209 
 PRA  HN ES   1    921 29.30                             106     0.6 4  389 209 
 SJA  SZ EP   2    920 48.56                             106     0.1 3  398 192 
                                                                                
