 2012  210 0440 16.2 L   6.686 -73.133148.0  RSN  5 0.3 1.0LRSN                1
 GAP=143        0.69       5.8     5.7  7.7  0.7248E+01  0.5154E+00 -0.1692E+02E
 ACTION:UP  12-03-07 16:29 OP:epov STATUS:               ID:20120210044016 L   I
 2012-02-10-0438-35S.COL___158                                                 6
 STAT SP IPHASW D HRMM SECON CODA AMPLIT PERI AZIMU VELO AIN AR TRES W  DIS CAZ7
 BAR2 SZ EP   1    440 35.19                             175   -0.72 7 11.7 208 
 BAR2 SZ ES   1    440 51.22                             175   -0.07 7 11.7 208 
 BRR  HZ EP   1    440 38.50                             150    0.47 7 79.1 306 
 BRR  HZ I         440 38.78         3.4 0.15                          79.1 306 
 BRR  HN ES   1    440 55.18                             150    0.11 7 79.1 306 
 PAM  SZ EP   1    440 39.22                             148    0.01 7 86.7  34 
 RUS  HN ES        440 57.48                             148    0.1710 87.9 176 
 RUS  HZ I         441 48.19         0.8 0.20                          87.9 176 
 PTB  HZ EP   1    440 43.45                             133    0.16 7  147 264 
 PTB  HN ES   1    441  4.15                             133   -0.28 7  147 264 
 PTB  HZ I         441  6.21         0.0 0.24                           147 264 
                                                                                
