 2011 1210 0841 20.4 L   6.688 -73.226143.4  RSN  4 0.1 1.2LRSN                1
 GAP=205        0.35       5.1     4.7  6.5  0.7961E+01  0.2097E+01 -0.5048E+01E
 Epicentro: BARICHARA - SANTANDER                                              3
 ACTION:UPD 12-07-13 16:15 OP:ep   STATUS:               ID:20111210084120 L   I
 2011-12-10-0840-00M.COL___186                                                 6
 STAT SP IPHASW D HRMM SECON CODA AMPLIT PERI AZIMU VELO AIN AR TRES W  DIS CAZ7
 BAR2 SZ EP   1    841 39.45                             175   -0.13 7 11.6 156 
 BAR2 SZ I         841 56.20         4.4 0.16                          11.6 156 
 BRR  HZ EP   1    841 41.30                             152    0.00 7 71.0 311 
 BRR  HN ES   2    841 57.68                             152    0.09 5 71.0 311 
 BRR  HZ I         841 59.79         3.0 0.18                          71.0 311 
 RUS  HE ES   2    842  0.98                             146    0.10 5 89.3 170 
 PTB  HZ EP   1    841 46.39                             134    0.16 7  137 263 
 PTB  HN ES   2    842  6.14                             134   -0.23 5  137 263 
                                                                                
