 2017  310 0425 57.9 L   6.785 -73.130142.9  RSN 15 0.5 2.1LRSN                1
 GAP=121        1.07       3.4     3.7  5.6  0.5323E+00  0.6112E+01  0.4494E+01E
 Epicentro: LOS SANTOS - SANTANDER                                             3
 ACTION:UPD 17-05-25 18:38 OP:jn   STATUS:               ID:20170310042557 L   I
 OLDACT:UP  17-03-10 16:39 OP:ar   STATUS:               ID:20170310041742d    3
 OLDACT:UP  17-03-10 16:38 OP:ar   STATUS:               ID:20170310041742d    3
 OLDACT:DUP 17-03-10 16:23 OP:ar   STATUS:               ID:20170310041742d    3
 OLDACT:UP  17-03-10 16:21 OP:ar   STATUS:               ID:20170310041740     3
 OLDACT:UP  17-03-10 16:21 OP:ar   STATUS:               ID:20170310041740     3
 OLDACT:REG 17-03-10 12:21 OP:ar   STATUS:               ID:20170310041740     3
 2017-03-10-0418-00M.COL___403                                                 6
 STAT SP IPHASW D HRMM SECON CODA AMPLIT PERI AZIMU VELO AIN AR TRES W  DIS CAZ7
 BAR2 EZ IP     C  426 17.14                             171   -0.0510 22.1 195 
 BAR2 EZ ES        426 31.92                             171   -0.2910 22.1 195 
 BAR2 EZ I         426 32.62        40.1 0.26            169           22.1 195 
 BRR  HZ IP     C  426 19.02                             151    0.1210 73.5 299 
 BRR  HE ES        426 36.15                             151    0.8910 73.5 299 
 BRR  HZ I         426 40.05        36.5 0.10            152           73.5 299 
 PAM  EZ EP        426 20.12                             150    0.2610 77.6  38 
 PAM  EN ES        426 36.78                             150   -0.1710 77.6  38 
 PAM  EZ I         426 41.47        13.7 0.46            154           77.6  38 
 RUS  HZ EP        426 21.50                             144    0.2310 98.8 177 
 RUS  HN ES        426 39.27                             144   -0.2110 98.8 177 
 RUS  HZ I         426 40.37        14.4 0.22            144           98.8 177 
 PTB  HZ EP        426 24.10                             131   -0.69 9  149 260 
 PTB  HN ES        426 44.79                             131   -0.95 9  149 260 
 PTB  HZ I         426 47.50        19.5 0.14            132            149 260 
 SPBC HZ EP        426 26.14                             128   -0.05 9  163 220 
 SPBC HN ES        426 48.54                             128    0.31 9  163 220 
 SPBC HZ I         426 51.76        22.3 0.24            129            163 220 
 ZAR  HZ EP        426 30.33                             121   -0.09 8  206 292 
 ZAR  HN ES        426 56.22                             121    0.46 8  206 292 
 NOR  HZ EP        426 33.77                             118    0.23 8  235 235 
 NOR  HN ES        427  0.95                             118   -0.37 8  235 235 
 NOR  HZ I         427  3.87         9.6 0.24            119            235 235 
 CHI  HZ EP   2    426 35.96                             117    0.61 4  247 196 
 CHI  HE ES        427  4.82                             117    0.29 8  247 196 
 CHI  HZ I         427  9.13         3.0 0.58            118            247 196 
 ROSC BZ EP   4    426 37.45                             116    1.61 0  252 212 
 ROSC BN ES   4    427  9.48                             116    4.08 0  252 212 
 ROSC BZ I         427 13.35        11.2 0.60            117            252 212 
 URE  HZ EP   4    426 41.89                             113    2.78 0  286 292 
 URE  HN ES        427 10.57                             113   -0.66 7  286 292 
 URE  HZ I         427 12.84         9.7 0.14            114            286 292 
 GUY2CHZ EP   4    426 43.10                             112    1.64 0  302 235 
 GUY2CHN ES   4    427 18.70                             112    3.29 0  302 235 
 GUY2CHZ  IAML     427 22.52         7.3 0.26                           302 235 
 PTGC HZ EP        426 40.98                             111   -0.44 7  307 159 
 PTGC HN ES   4    427 13.57                             111   -1.76 0  307 159 
 CBOC HZ EP        426 44.56                             109   -0.30 7  335 252 
 CBOC HE ES        427 22.37                             109    0.91 7  335 252 
 CBOC HZ I         427 24.90         2.6 0.24            110            335 252 
 PRA  HZ EP        426 51.80                             106    0.51 6  391 210 
 PRA  HE ES        427 33.23                             106    0.33 6  391 210 
 PRA  HZ I         427 39.13         2.9 0.46            107            391 210 
                                                                                
