 2011  710 0040 28.0 L   6.798 -73.117142.1  RSN 12 0.4 2.4LRSN                1
 GAP=140        0.68       3.0     4.1  4.8 -0.4128E+01  0.6298E+01  0.2194E+00E
 Epicentro: LOS SANTOS - SANTANDER                                             3
 ACTION:UPD 12-07-25 13:59 OP:epov STATUS:               ID:20110710004028 L   I
 2011-07-10-0036-28S.COL___140                                                 6
 STAT SP IPHASW D HRMM SECON CODA AMPLIT PERI AZIMU VELO AIN AR TRES W  DIS CAZ7
 BAR2 SZ EP        040 46.95                             170   -0.2610 23.9 198 
 BAR2 SZ ES   1    041  2.22                             170    0.04 7 23.9 198 
 BAR2 SZ I         041  3.24        64.4 0.27                          23.9 198 
 GIR2 SZ EP   1    040 47.59                             167    0.32 7 32.2 345 
 BRR  HZ EP        040 48.96                             151    0.0310 74.1 298 
 BRR  HZ I         040 49.46        90.3 0.08                          74.1 298 
 BRR  HN ES   1    041  5.85                             151    0.60 7 74.1 298 
 PAM  SZ EP        040 49.97                             151    0.2410 75.6  38 
 PAM  SN ES   1    041  6.64                             151   -0.02 7 75.6  38 
 RUS  HZ EP   1    040 51.17                             143   -0.20 7  100 178 
 RUS  HN ES   1    041  9.38                             143   -0.21 7  100 178 
 RUS  HZ I         041 10.63        19.0 0.29                           100 178 
 BRI  SZ EP        040 51.75                             141    0.2610  108  19 
 OCA  SZ EP   1    040 55.76                             129   -0.34 7  161 352 
 OCA  SZ ES   1    041 17.13                             129   -0.88 7  161 352 
 OCA  SZ I         041 24.82        38.9 0.41                           161 352 
 NOR  SZ EP   1    041  3.39                             117   -0.41 6  237 235 
 NOR  SE ES   2    041 31.08                             117   -0.63 4  237 235 
 HEL  HZ EP   1    041  8.65                             114    0.27 6  275 256 
 HEL  HN ES   1    041 39.78                             114   -0.08 6  275 256 
 HEL  HZ I         041 45.96        17.2 0.43                           275 256 
 DBB  SZ EP   1    041 15.88                             109    0.17 5  343 274 
 TOL  SZ EP   1    041 16.98                             108    0.62 5  346 225 
 PRA  HZ EP   1    041 21.56                             106   -0.01 4  393 210 
 PRA  HE ES   1    042  3.41                             106    0.07 4  393 210 
                                                                                
