 2016  310 0624 14.0 L   6.822 -73.183144.4  RSN  6 0.2 1.5LRSN                1
 GAP=131        0.49       1.8     2.7  3.6 -0.1850E+01  0.2813E+01 -0.1048E+01E
 Epicentro: ZAPATOCA - SANTANDER                                               3
 ACTION:UPD 16-05-13 21:22 OP:cam  STATUS:               ID:20160310062414 L   I
 OLDACT:REG 16-03-10 13:53 OP:cara STATUS:               ID:20160310061746     3
 2016-03-10-0617-46M.COL___286                                                 6
 STAT SP IPHASW D HRMM SECON CODA AMPLIT PERI AZIMU VELO AIN AR TRES W  DIS CAZ7
 BAR2 EZ EP        624 33.49                             170   -0.0410 25.4 180 
 BAR2 EZ ES        624 48.92                             170    0.1710 25.4 180 
 BAR2 EZ I         624 51.75         4.4 0.26            171           25.4 180 
 PAM  EZ IP        624 36.19                             150    0.0510 78.2  43 
 PAM  EN ES        624 53.45                             150    0.0610 78.2  43 
 PAM  EZ I         624 55.72         6.5 0.60            153           78.2  43 
 RUS  HZ EP        624 38.06                             143    0.2210  103 174 
 RUS  HN ES        624 56.18                             143   -0.2410  103 174 
 RUS  HZ I         624 57.18         2.4 0.30            147            103 174 
 PTB  HZ EP        624 40.47                             132   -0.09 9  144 258 
 PTB  HN ES        625  1.48                             132    0.22 9  144 258 
 PTB  HZ I         625  3.63         1.9 0.22            134            144 258 
 OCA  HZ EP        624 42.13                             130    0.18 9  157 355 
 OCA  HN ES        625  3.41                             130   -0.33 9  157 355 
 OCA  HZ I         625  8.97         9.1 0.34            132            157 355 
 SPBC HZ EP        624 42.26                             129   -0.10 9  163 217 
 SPBC HN ES        625  4.33                             129   -0.13 9  163 217 
 SPBC HZ I         625 10.18         6.1 0.42            131            163 217 
                                                                                
