 2016  110 0421 37.4 L   6.815 -73.141146.5  RSN  6 0.5 1.2LRSN                1
 GAP=201        1.22       6.2     7.7  8.2  0.7813E+01  0.2726E+01 -0.8227E+01E
 Epicentro: LOS SANTOS - SANTANDER                                             3
 ACTION:UPD 16-03-09 23:24 OP:cam  STATUS:               ID:20160110042137 L   I
 OLDACT:DUP 16-01-10 14:38 OP:drio STATUS:               ID:20160110041736d    3
 2016-01-10-0417-35M.COL___250                                                 6
 STAT SP IPHASW D HRMM SECON CODA AMPLIT PERI AZIMU VELO AIN AR TRES W  DIS CAZ7
 BAR2 EZ EP        421 56.82                             170   -0.3110 25.1 190 
 BAR2 EZ ES        422 12.05                             170   -0.4910 25.1 190 
 BAR2 EZ I         422 13.66         3.0 0.22            171           25.1 190 
 BRR  HZ EP        421 59.08                             153    0.4910 70.8 297 
 BRR  HN ES        422 15.92                             153    0.8010 70.8 297 
 BRR  HZ I         422 20.70         2.8 0.12            153           70.8 297 
 RUS  HZ EP        422  1.56                             144    0.2410  102 176 
 RUS  HE ES        422 19.96                             144   -0.0310  102 176 
 RUS  HZ I         422 21.39         1.2 0.28            147            102 176 
 PTB  HZ EP        422  4.24                             132   -0.24 9  149 258 
 PTB  HN ES        422 25.11                             132   -0.50 9  149 258 
 SPBC HZ EP        422  6.75                             129    0.66 9  165 219 
 SPBC HN ES        422 28.31                             129   -0.17 9  165 219 
 SPBC HZ I         422 30.64         3.1 0.10            131            165 219 
 SML  HZ EP        422 13.17                             118   -0.73 8  242 335 
 SML  HE ES   4    422 40.89                             118   -1.50 0  242 335 
                                                                                
