 2015  510 0905 25.6 L   6.720 -73.107145.7  RSN  5 0.4 1.3LRSN                1
 GAP=236        0.93       5.4     6.9  7.3  0.1726E+02  0.7951E+01 -0.4677E+01E
 Epicentro: JORDAN - SANTANDER                                                 3
 ACTION:UPD 15-09-10 22:03 OP:cam  STATUS:               ID:20150510090525 L   I
 OLDACT:DUP 15-05-10 17:27 OP:drio STATUS:               ID:20150510085741d    3
 2015-05-10-0857-40M.COL___261                                                 6
 STAT SP IPHASW D HRMM SECON CODA AMPLIT PERI AZIMU VELO AIN AR TRES W  DIS CAZ7
 BAR2 EZ EP        9 5 45.07                             173   -0.0410 16.4 210 
 BAR2 EZ ES        9 6  0.57                             173    0.2510 16.4 210 
 BAR2 EZ I         9 6  2.47         5.0 0.24            171           16.4 210 
 BRR  HZ EP        9 5 46.85                             150   -0.3810 79.4 303 
 BRR  HN ES        9 6  4.35                             150    0.2610 79.4 303 
 BRR  HZ I         9 6  4.82         4.3 0.30            149           79.4 303 
 RUS  HZ EP        9 5 48.83                             146    0.1110 91.5 178 
 RUS  HN ES        9 6  6.33                             146   -0.4210 91.5 178 
 RUS  HZ I         9 6  8.50         2.0 0.36            147           91.5 178 
 SPBC HN ES        9 6 15.90                             130    0.24 9  159 222 
 ZAR  HZ EP        9 5 59.46                             121    0.65 8  211 294 
 ZAR  HN ES        9 6 24.09                             121   -0.62 8  211 294 
 ZAR  HZ I         9 6 29.82         2.7 0.42            122            211 294 
                                                                                
