 2016 1210 0828 58.2 L   6.789 -73.158137.6  RSN  6 0.3 1.3LRSN                1
 GAP=136        0.89       4.2     3.8  6.0  0.1631E+01  0.6178E+01 -0.1068E+01E
 Epicentro: LOS SANTOS - SANTANDER                                             3
 ACTION:UPD 17-01-11 20:13 OP:rebc STATUS:               ID:20161210082858 L   I
 OLDACT:REG 16-12-10 13:21 OP:lv   STATUS:               ID:20161210082746     3
 2016-12-10-0828-00M.COL___367                                                 6
 STAT SP IPHASW D HRMM SECON CODA AMPLIT PERI AZIMU VELO AIN AR TRES W  DIS CAZ7
 BAR2 EZ EP        829 16.80                             170    0.0010 21.9 187 
 BAR2 EZ ES        829 31.05                             170   -0.2710 21.9 187 
 BAR2 EZ I         829 32.79         7.7 0.18            171           21.9 187 
 BRR  HZ EP        829 18.60                             151    0.1810 70.7 300 
 BRR  HN ES        829 34.44                             151    0.2410 70.7 300 
 BRR  HZ I         829 38.64         5.4 0.38            151           70.7 300 
 PAM  EZ EP        829 19.76                             149    0.1110 79.2  40 
 PAM  EN ES        829 36.10                             149   -0.2910 79.2  40 
 PAM  EZ I         829 38.61         6.3 0.50            152           79.2  40 
 RUS  HZ EP        829 21.27                             142    0.2210 99.4 175 
 RUS  HN ES        829 39.25                             142    0.3610 99.4 175 
 RUS  HZ I         829 41.18         1.7 0.22            146           99.4 175 
 PTB  HZ EP        829 23.69                             130   -0.66 9  146 259 
 PTB  HN ES        829 44.31                             130   -0.45 9  146 259 
 PTB  HZ I         829 47.80         2.1 0.17            132            146 259 
 ZAR  HZ EP        829 29.97                             121   -0.06 9  203 293 
 ZAR  HN ES        829 55.48                             121    0.61 9  203 293 
 ZAR  HZ I         829 58.79         2.4 0.10            123            203 293 
                                                                                
