 2017  410 0727 28.1 L   6.527 -73.722 98.0  RSN  6 0.5 1.0LRSN                1
 GAP=136        1.24       6.0     4.5  9.0  0.1189E+02  0.5421E+01 -0.1021E+00E
 Epicentro: SANTA HELENA DEL OPON - SANTANDER                                  3
 ACTION:UPD 17-05-30 21:10 OP:jn   STATUS:               ID:20170410072728 L   I
 OLDACT:UP  17-04-10 17:03 OP:dani STATUS:               ID:20170410071740d    3
 OLDACT:DUP 17-04-10 17:00 OP:dani STATUS:               ID:20170410071740d    3
 OLDACT:UP  17-04-10 16:59 OP:dani STATUS:               ID:20170410071739     3
 OLDACT:REG 17-04-10 13:18 OP:edw  STATUS:               ID:20170410071739     3
 2017-04-10-0718-00M.COL___368                                                 6
 STAT SP IPHASW D HRMM SECON CODA AMPLIT PERI AZIMU VELO AIN AR TRES W  DIS CAZ7
 BAR2 EZ EP        727 43.75                             146   -0.1010 60.1  83 
 BAR2 EZ ES        727 56.30                             146    0.1410 60.1  83 
 BAR2 EZ I         727 56.81         7.8 0.24            150           60.1  83 
 BRR  HZ EP        727 43.16                             144   -0.6310 64.2   1 
 BRR  HE ES        727 55.78                             144   -0.2810 64.2   1 
 PTB  HZ EP        727 44.14                             137   -1.0110 81.2 271 
 PTB  HN ES        727 58.73                             137    0.2610 81.2 271 
 PTB  HZ I         728  1.21         1.7 0.12            136           81.2 271 
 RUS  HZ EP        727 47.55                             132    0.1310 99.6 135 
 RUS  HN ES        728  2.79                             132    0.2810 99.6 135 
 RUS  HZ I         728  3.61         1.5 0.28            134           99.6 135 
 PAM  EZ EP        727 52.22                             121    0.33 9  144  51 
 ZAR  HZ EP        727 53.82                             117    0.33 9  165 310 
 ZAR  HE ES        728 14.10                             117    0.78 9  165 310 
 ZAR  HZ I         728 18.07         2.3 0.39            116            165 310 
                                                                                
