 2014  210 0715 49.9 L   6.816 -73.117143.6  RSN 13 0.4 2.1LRSN                1
 GAP=139        1.00       2.6     4.2  5.7 -0.2700E+01  0.7883E+01 -0.5743E+00E
 Epicentro: LOS SANTOS - SANTANDER                                             3
 ACTION:UPD 14-03-10 08:09 OP:ep   STATUS:               ID:20140210071549 L   I
 OLDACT:UP  14-02-10 12:47 OP:fm   STATUS:               ID:20140210071000     3
 OLDACT:REG 14-02-10 10:16 OP:mh   STATUS:               ID:20140210071000     3
 2014-02-10-0710-00M.COL___291                                                 6
 STAT SP IPHASW D HRMM SECON CODA AMPLIT PERI AZIMU VELO AIN AR TRES W  DIS CAZ7
 BAR2 SZ EP        716  9.46                             169    0.1210 25.8 196 
 BAR2 SZ ES        716 24.05                             169   -0.4410 25.8 196 
 BAR2 SZ I         716 26.24        47.2 0.16            168           25.8 196 
 PAM  SZ EP        716 12.38                             151    0.6810 73.9  39 
 PAM  SN ES        716 29.41                             151    0.7210 73.9  39 
 PAM  SZ I         716 31.50        28.8 0.66            153           73.9  39 
 RUS  HZ EP     C  716 13.49                             143   -0.0910  102 178 
 RUS  HN ES        716 31.71                             143   -0.3210  102 178 
 RUS  HE ES        716 32.70                             143            102 178 
 RUS  HZ I         716 33.82        22.6 0.32            143            102 178 
 PTB  HN ES        716 38.53                             131    0.35 9  151 258 
 OCA  HZ EP        716 17.97                             129    0.04 9  159 352 
 OCA  HN ES        716 39.27                             129   -0.51 9  159 352 
 SPBC HZ EP        716 18.52                             128   -0.06 9  167 219 
 SPBC HN ES        716 40.94                             128    0.00 9  167 219 
 SPBC HZ I         716 45.04        20.1 0.24            128            167 219 
 ZAR  HZ EP   1    716 22.63                             122    0.17 6  206 291 
 ZAR  HN ES   1    716 48.39                             122    0.54 6  206 291 
 NOR  HZ EP        716 26.13                             118    0.21 8  238 235 
 NOR  HN ES        716 54.06                             118    0.06 8  238 235 
 SML  HZ EP        716 25.75                             117   -0.64 8  243 334 
 SML  HN ES        716 54.14                             117   -0.70 8  243 334 
 CHI  HZ EP        716 28.03                             116    0.25 8  251 196 
 CHI  HN ES        716 56.61                             116   -0.71 8  251 196 
 CHI  HZ I         717  1.40         3.8 0.27            117            251 196 
 GUY2CHZ EP   4    716 34.77                             112    0.93 0  305 235 
 GUY2CHN ES        717  8.42                             112    0.32 7  305 235 
 GUY2CHZ I         717 14.69         5.5 0.30                           305 235 
 PTGC HE E         713 35.95                                            309 159 
 PRA  HZ EP        716 43.69                             106   -0.05 6  395 210 
 PRA  HN ES   4    717 22.53                             106   -3.18 0  395 210 
 PRA  HZ I         717 32.18         4.6 0.30            107            395 210 
                                                                                
