 2012  110 0052 36.8 L   6.807 -73.128150.4  RSN 10 0.3 1.7LRSN                1
 GAP=138        0.62       3.2     3.8  6.4 -0.1402E+01  0.2923E+01  0.6733E+01E
 Epicentro: LOS SANTOS - SANTANDER                                             3
 ACTION:UP  12-02-03 08:16 OP:REBC STATUS:               ID:20120110005236 L   I
 2012-01-10-0050-00M.COL___186                                                 6
 STAT SP IPHASW D HRMM SECON CODA AMPLIT PERI AZIMU VELO SNR AR TRES W  DIS CAZ7
 GIR2 SZ EP   2    052 56.74                             168    -0.3 5   31 346 
 BRR  HZ EP   1    052 58.59                             153     0.1 7   73 297 
 BRR  HN ES   1    053 15.86                             153     0.4 7   73 297 
 BRR  HZ I         053 20.19         7.2 0.24                            73 297 
 PAM  SZ EP   1    052 59.62                             152     0.2 7   76  39 
 PAM  SN ES   1    053 16.75                             152    -0.3 7   76  39 
 RUS  HZ EP   1    053  1.07                             144     0.0 7  101 177 
 RUS  HE ES   1    053 20.00                             144     0.0 7  101 177 
 RUS  HZ I         053 21.31         6.8 0.41                           101 177 
 PTB  HZ EP   1    053  3.82                             133    -0.5 7  150 259 
 PTB  HE ES   1    053 25.38                             133    -0.4 7  150 259 
 OCA  SZ ES   2    053 28.13                             131     0.4 5  160 352 
 OCA  SZ I         053 33.87         7.8 0.30                           160 352 
 ZAR  HE ES   2    053 35.56                             123     0.2 4  206 292 
 ZAR  HZ I         053 42.10         4.8 0.11                           206 292 
 NOR  SN ES   2    053 41.81                             119     0.5 4  237 235 
 CHI  HZ EP   1    053 15.15                             118     0.2 6  250 196 
 CHI  HZ I         053 15.91         2.4 0.39                           250 196 
 CHI  HN ES   1    053 44.76                             118     0.1 6  250 196 
 RREF HE ES   2    053 59.85                             111     0.1 3  324 230 
 RREF HZ I         054  9.13         3.2 0.28                           324 230 
                                                                                
