 2017  110 0415 52.7 L   6.784 -73.135143.5  RSN  8 0.3 1.4LRSN                1
 GAP= 99        0.71       3.5     2.7  4.8 -0.7768E+00  0.7125E+00  0.2233E+01E
 Epicentro: LOS SANTOS - SANTANDER                                             3
 ACTION:UPD 17-05-22 15:57 OP:jn   STATUS:               ID:20170110041552 L   I
 OLDACT:UP  17-01-10 14:36 OP:and  STATUS:               ID:20170110040744d    3
 OLDACT:UP  17-01-10 14:36 OP:and  STATUS:               ID:20170110040744d    3
 OLDACT:DUP 17-01-10 14:34 OP:and  STATUS:               ID:20170110040744d    3
 OLDACT:UP  17-01-10 14:33 OP:and  STATUS:               ID:20170110040743     3
 OLDACT:UP  17-01-10 14:33 OP:and  STATUS:               ID:20170110040743     3
 OLDACT:UP  17-01-10 14:32 OP:and  STATUS:               ID:20170110040743     3
 OLDACT:UP  17-01-10 14:32 OP:and  STATUS:               ID:20170110040743     3
 OLDACT:REG 17-01-10 12:35 OP:and  STATUS:               ID:20170110040743     3
 2017-01-10-0408-00M.COL___354                                                 6
 STAT SP IPHASW D HRMM SECON CODA AMPLIT PERI AZIMU VELO AIN AR TRES W  DIS CAZ7
 BAR2 EZ EP        416 11.86                             171   -0.1610 21.9 194 
 BAR2 EZ ES        416 26.92                             171   -0.1810 21.9 194 
 BAR2 EZ I         416 27.51         4.2 0.23            173           21.9 194 
 BRR  HZ EP        416 13.61                             152   -0.1010 73.1 299 
 BRR  HN ES        416 30.55                             152    0.4510 73.1 299 
 BRR  HZ I         416 39.39         3.9 0.20            149           73.1 299 
 PAM  EZ IP     C  416 14.91                             150    0.2110 77.9  38 
 PAM  EN ES        416 31.58                             150   -0.2910 77.9  38 
 PAM  EZ I         416 33.94         6.6 0.50            150           77.9  38 
 RUS  HZ EP        416 16.20                             144    0.1110 98.8 177 
 RUS  HN ES        416 34.60                             144    0.2510 98.8 177 
 RUS  HZ I         416 35.65         3.8 0.34            148           98.8 177 
 PTB  HZ EP        416 19.08                             131   -0.48 9  149 260 
 PTB  HN ES   4    416 39.44                             131   -1.07 0  149 260 
 PTB  HZ I         416 42.23         2.6 0.17            131            149 260 
 TAM  HZ IP     D  416 20.29                             130    0.25 9  153 104 
 TAM  HN ES        416 41.37                             130   -0.00 9  153 104 
 TAM  HZ I         416 49.39         8.6 0.48            133            153 104 
 ZAR  HN ES   3    416 52.02                             122    1.50 2  206 292 
 ZAR  HZ I         417  0.61         2.1 0.20            121            206 292 
 NOR  HN ES        416 55.84                             118   -0.22 8  235 235 
 NOR  HZ I         416 59.96         2.4 0.22            119            235 235 
 SJC  HZ EP   4    416 46.53                             105   -1.90 0  411 327 
 SJC  HN ES   4    417 27.45                             105   -4.45 0  411 327 
                                                                                
