 2012  710 0902 13.4 L   7.381 -73.135  4.0  RSN  6 0.5 1.1LRSN                1
 GAP=110        1.05       4.6     6.2 12.8  0.1770E+02  0.6114E+02  0.4457E+02E
 Epicentro: RIONEGRO - SANTANDER                                               3
 ACTION:UPD 12-08-14 11:44 OP:ep   STATUS:               ID:20120710090213 L   I
 2012-07-10-0900-00M.COL___201                                                 6
 STAT SP IPHASW D HRMM SECON CODA AMPLIT PERI AZIMU VELO AIN AR TRES W  DIS CAZ7
 PAM  SZ EP   1    9 2 22.32                             101     0.5 7   48  95 
 PAM  SE ES   1    9 2 28.09                             101    -0.3 7   48  95 
 BAR2 SZ ES   2    9 2 38.53                              95     0.1 5   87 183 
 OCA  HN ES        9 2 40.75                              95    -0.210   97 348 
 RUS  HZ EP   2    9 2 40.17                              56     0.7 5  165 178 
 RUS  HN ES   1    9 2 59.17                              56    -0.6 7  165 178 
 RUS  HZ I         9 3  2.62         1.3 0.21             47            165 178 
 PTB  HZ EP   1    9 2 41.13                              56     0.9 7  173 238 
 PTB  HN ES   1    9 3  0.78                              56    -0.4 7  173 238 
 PTB  HZ I         9 3  2.31         2.3 0.32             47            173 238 
 ZAR  HZ I         9 3  7.09         4.2 0.21             37            191 274 
