 2017 1110 0836  5.0 L   6.803 -73.146148.0  RSN  7 0.3 1.4LRSN                1
 GAP=150        0.80       5.0     4.8  5.8 -0.1249E+02  0.4637E+00  0.9059E+01E
 Epicentro: LOS SANTOS - SANTANDER                                             3
 ACTION:UPD 17-12-12 19:54 OP:rebc STATUS:               ID:20171110083605 L   I
 OLDACT:UP  17-11-10 17:37 OP:dnl  STATUS:               ID:20171110082738d    3
 OLDACT:DUP 17-11-10 17:32 OP:dnl  STATUS:               ID:20171110082738d    3
 OLDACT:UP  17-11-10 17:31 OP:dnl  STATUS:               ID:20171110082737     3
 OLDACT:REG 17-11-10 15:16 OP:dnl  STATUS:               ID:20171110082737     3
 2017-11-10-0828-00M.COL___405                                                 6
 STAT SP IPHASW D HRMM SECON CODA AMPLIT PERI AZIMU VELO AIN AR TRES W  DIS CAZ7
 BAR2 EZ IP     C  836 24.75                             170   -0.2010 23.7 190 
 BAR2 EZ ES        836 40.95                             170    0.4710 23.7 190 
 BAR2 EZ I         836 41.41         5.6 0.56            170           23.7 190 
 BRR  HZ EP        836 26.71                             153    0.2910 71.0 298 
 BRR  HE ES        836 43.42                             153    0.3210 71.0 298 
 BRR  HZ I         836 47.22         3.9 0.46            151           71.0 298 
 PAM  EZ EP        836 27.56                             152    0.0810 77.1  40 
 PAM  EN ES        836 44.62                             152   -0.3610 77.1  40 
 PAM  EZ I         836 46.92         4.3 0.48            155           77.1  40 
 PTB  HZ EP        836 31.75                             133   -0.45 9  148 259 
 PTB  HE ES        836 53.25                             133   -0.13 9  148 259 
 PTB  HZ I         836 58.71         2.5 0.34            132            148 259 
 SPBC HZ EP        836 33.73                             130   -0.01 9  163 219 
 SPBC HE ES        836 55.75                             130   -0.37 9  163 219 
 SPBC HZ I         836 58.23         5.3 0.22            130            163 219 
 GUY2CHZ EP   4    836 50.82                             113    2.04 0  301 235 
 GUY2CHN ES   4    837 26.51                             113    3.62 0  301 235 
 GUY2CHZ I         837 31.84         1.3 0.36                           301 235 
 PRA  HZ EP   2    836 59.45                             107    0.77 3  392 210 
 PRA  HN ES        837 40.99                             107    0.48 6  392 210 
 PRA  HZ I         837 46.26         1.0 0.62            108            392 210 
                                                                                
