 2013  610 0905 44.8 L   6.771 -73.124148.4  RSN  6 0.5 1.6LRSN                1
 GAP=202        0.95       8.0     7.5  8.7  0.1428E+02  0.5933E+01 -0.1726E+02E
 Epicentro: LOS SANTOS - SANTANDER                                             3
 ACTION:UPD 14-01-08 09:53 OP:ep   STATUS:               ID:20130610090544 L   I
 OLDACT:UP  13-06-10 11:43 OP:cam  STATUS:               ID:20130610085959     3
 OLDACT:UP  13-06-10 11:42 OP:cam  STATUS:               ID:20130610085959     3
 OLDACT:UP  13-06-10 11:41 OP:cam  STATUS:               ID:20130610085959     3
 OLDACT:REG 13-06-10 08:21 OP:cam  STATUS:               ID:20130610085959     3
 2013-06-10-0859-59M.COL___261                                                 6
 STAT SP IPHASW D HRMM SECON CODA AMPLIT PERI AZIMU VELO AIN AR TRES W  DIS CAZ7
 BAR2 SZ EP   1    9 6  4.81                             173    0.09 7 20.8 198 
 BAR2 SZ ES   1    9 6 20.11                             173   -0.14 7 20.8 198 
 BRR  HZ EP        9 6  6.64                             152    0.1810 74.8 300 
 BRR  HN ES        9 6 23.79                             152    0.4510 74.8 300 
 BRR  HZ I         9 6 25.33         5.9 0.18            148           74.8 300 
 RUS  HE ES   2    9 6 27.33                             146    0.18 5 97.3 177 
 PTB  HZ EP   1    9 6 11.69                             133   -0.48 7  150 260 
 PTB  HN ES        9 6 32.74                             133   -0.75 9  150 260 
 PTB  HZ I         9 6 34.91         4.2 0.48            131            150 260 
 ZAR  HZ EP   1    9 6 18.63                             123    0.84 6  207 293 
 ZAR  HE ES   1    9 6 43.83                             123    0.32 6  207 293 
 ZAR  HZ I         9 6 49.54         5.5 0.34            121            207 293 
 SML  HZ EP   2    9 6 21.36                             118   -0.66 4  248 335 
 SML  HE ES   2    9 6 50.21                             118   -0.82 4  248 335 
                                                                                
