 2015 1210 0241 31.6 L   6.808 -73.167150.0  RSN 23 0.4 2.7LRSN                1
 GAP= 64        0.79       1.9     2.2  3.9  0.2929E-01  0.1538E+01  0.1197E+01E
 Epicentro: LOS SANTOS - SANTANDER                                             3
 ACTION:UPD 16-02-04 15:03 OP:cam  STATUS:               ID:20151210024131 L   I
 OLDACT:UP  15-12-29 07:27 OP:CARA STATUS:               ID:20151210024131 L   3
 OLDACT:UP  15-12-10 17:33 OP:ar   STATUS:               ID:20151210023750     3
 OLDACT:UP  15-12-10 17:12 OP:ar   STATUS:               ID:20151210023750     3
 OLDACT:REG 15-12-10 12:56 OP:ar   STATUS:               ID:20151210023750     3
 2015-12-10-0237-50M.COL___335                                                 6
 STAT SP IPHASW D HRMM SECON CODA AMPLIT PERI AZIMU VELO AIN AR TRES W  DIS CAZ7
 BAR2 EZ EP     C  241 51.74                             171   -0.0310 23.9 184 
 BAR2 EZ ES   2    242  6.80                             171   -0.69 5 23.9 184 
 BAR2 EZ I         242  8.41       134.6 0.32            169           23.9 184 
 BRR  HZ IP     C  241 53.47                             154    0.3710 68.7 299 
 BRR  HN ES        242 10.47                             154    0.6310 68.7 299 
 BRR  HZ I         242 14.25        79.7 0.36            151           68.7 299 
 PAM  EZ EP     C  241 54.55                             151    0.2110 78.2  41 
 PAM  EE ES        242 12.10                             151    0.0410 78.2  41 
 PAM  EZ I         242 13.83        78.2 0.56            155           78.2  41 
 RUS  HZ EP        241 55.65                             144   -0.2210  102 175 
 RUS  HN ES        242 14.41                             144   -0.3710  102 175 
 RUS  HZ I         242 15.28        34.6 0.50            146            102 175 
 PTB  HZ EP        241 58.40                             133   -0.35 9  146 258 
 PTB  HN ES        242 19.50                             133   -0.41 9  146 258 
 PTB  HZ I         242 25.08        48.8 0.42            132            146 258 
 TAM  HZ EP     D  242  0.16                             131    0.29 9  158 105 
 TAM  HN ES        242 21.91                             131    0.01 9  158 105 
 TAM  HZ I         242 24.18        19.6 0.32            135            158 105 
 OCA  HZ EP        241 59.78                             131   -0.38 9  159 354 
 OCA  HN ES        242 22.41                             131   -0.01 9  159 354 
 OCA  HZ I         242 25.48        89.9 0.22            131            159 354 
 SPBC HZ EP        242  0.59                             130    0.21 9  162 218 
 SPBC HE ES        242 23.13                             130    0.33 9  162 218 
 SPBC HZ I         242 26.84        47.0 0.16            130            162 218 
 ZAR  HZ EP        242  4.28                             124    0.19 9  202 292 
 ZAR  HN ES        242 28.97                             124   -0.45 9  202 292 
 ZAR  HZ I         242 36.39        54.6 0.36            123            202 292 
 NOR  HZ EP        242  8.00                             120    0.55 8  233 234 
 NOR  HN ES        242 35.24                             120   -0.16 8  233 234 
 NOR  HZ I         242 42.02        17.6 0.18            119            233 234 
 SML  HZ EP        242  8.07                             118   -0.23 8  242 336 
 SML  HE ES        242 36.92                             118    0.02 8  242 336 
 SML  HZ I         242 46.31        46.6 0.12            119            242 336 
 ROSC BZ EP   4    242 11.67                             118    1.74 0  252 210 
 ROSC BN ES   4    242 39.27                             118   -0.54 0  252 210 
 ROSC BZ I         242 46.31        55.1 0.40            118            252 210 
 URE  HZ EP   2    242 12.16                             115   -0.46 4  281 292 
 URE  HE ES   4    242 42.70                             115   -1.90 0  281 292 
 URE  HZ I         242 55.57        27.3 0.20            115            281 292 
 GUY2CHZ EP   4    242 18.58                             113    3.31 0  300 234 
 GUY2CHN ES   4    242 51.20                             113    1.88 0  300 234 
 GUY2CHZ I         242 57.93        12.8 0.36                           300 234 
 SOCV BZ EP   4    242 13.54                             113   -1.49 0  303  57 
 SOCV BN ES   4    242 44.00                             113   -4.90 0  303  57 
 VIL  SZ EP        242 15.53                             113    0.25 7  304 191 
 VIL  SN ES        242 49.34                             113    0.00 7  304 191 
 PTGC HZ EP        242 14.85                             112   -1.01 7  310 158 
 PTGC HN ES   4    242 48.83                             112   -1.54 0  310 158 
 PTGC HZ I         242 50.93        24.3 0.32            114            310 158 
 DBB  SZ EP        242 19.25                             110    0.25 7  337 274 
 DBB  SZ ES        242 55.74                             110   -0.21 7  337 274 
 DBB  SZ I         242 57.26        38.4 0.32            110            337 274 
 ANIL HZ EP   4    242 23.09                             109    1.61 0  356 224 
 ANIL HN ES   4    243  2.74                             109    2.38 0  356 224 
 ANIL HZ I         243 11.66        50.4 0.36            110            356 224 
 PRA  HZ EP        242 25.57                             107    0.32 6  392 209 
 PRA  HN ES        243  7.51                             107    0.44 6  392 209 
 PRA  HZ I         243 12.89        27.3 0.32            108            392 209 
 ORTC HZ EP   2    242 26.03                             107    0.42 3  395 216 
 ORTC HN ES   2    243  7.82                             107    0.10 3  395 216 
 ORTC HZ I         243 13.01        12.9 0.24            108            395 216 
 SJC  HZ EP   4    242 25.85                             106   -1.24 0  407 327 
 SJC  HN ES   4    243  7.85                             106   -2.50 0  407 327 
 SJC  HZ I         243 14.74         9.2 0.30            107            407 327 
 CRJC HZ EP   4    242 31.99                             104   -2.17 0  467   4 
 CRJC HN ES   4    243 19.11                             104   -3.82 0  467   4 
 CRJC HZ I         243 22.39        12.0 0.44            105            467   4 
 MACC HZ EP   4    242 48.42                             102    7.92 0  521 188 
 MACC HE ES   4    243 29.83                             102   -4.40 0  521 188 
 MACC HZ I         243 35.93        15.6 0.90            103            521 188 
                                                                                
