 2011  910 0704 55.8 L   7.377 -73.395110.0  RSN  5 0.2 1.4LRSN                1
 GAP=141        0.34       2.1     6.4  5.3  0.2699E+01 -0.1114E+02 -0.8576E+00E
 Epicentro: SABANA DE TORRES - SANTANDER                                       3
 ACTION:UPD 12-07-13 15:56 OP:ep   STATUS:               ID:20110910070455 L   I
 2011-09-10-0700-00M.COL___171                                                 6
 STAT SP IPHASW D HRMM SECON CODA AMPLIT PERI AZIMU VELO AIN AR TRES W  DIS CAZ7
 GIR2 SZ EP   2    7 5 11.52                             159   -0.05 5 39.7 146 
 GIR2 SZ ES   3    7 5 23.65                             159   -0.23 2 39.7 146 
 BRR  HZ EP   1    7 5 11.47                             156   -0.18 7 46.0 230 
 BRR  HZ I         7 5 11.68         7.7 0.13                          46.0 230 
 BRR  HN ES   2    7 5 24.28                             156    0.24 5 46.0 230 
 BAR2 SZ EP   1    7 5 15.06                             138    0.10 7 89.8 165 
 BAR2 SZ ES   2    7 5 29.88                             138   -0.04 5 89.8 165 
 BAR2 SZ I         7 5 31.55        11.8 0.44                          89.8 165 
 OCA  SZ EP   1    7 5 15.24                             136   -0.09 7 95.7   5 
 OCA  SZ ES   2    7 5 30.75                             136    0.17 5 95.7   5 
 OCA  SZ I         7 5 32.85         9.4 0.56                          95.7   5 
 RUS  HZ EP   2    7 5 23.14                             119    0.33 5  168 168 
 RUS  HZ I         7 5 36.80         1.1 0.45                           168 168 
 RUS  HE ES   2    7 5 43.70                             119   -0.19 5  168 168 
                                                                                
