 2011 1110 0029  9.4 L   6.916 -73.156144.6  RSN  6 0.2 1.6LRSN                1
 GAP=129        0.42       2.8     2.9  4.4  0.1540E+01  0.2423E+01 -0.6465E+00E
 Epicentro: BETULIA - SANTANDER                                                3
 ACTION:UPD 12-07-13 16:09 OP:ep   STATUS:               ID:20111110002909 L   I
 2011-11-10-0026-04S.COL___178                                                 6
 STAT SP IPHASW D HRMM SECON CODA AMPLIT PERI AZIMU VELO AIN AR TRES W  DIS CAZ7
 BAR2 SZ EP   1    029 29.30                             165    0.09 7 35.9 185 
 BAR2 SZ I         029 46.18         9.8 0.24                          35.9 185 
 BRR  HZ EP        029 30.23                             154    0.1510 65.0 289 
 BRR  HE ES   1    029 46.46                             154    0.25 7 65.0 289 
 BRR  HZ I         029 50.14        12.8 0.16                          65.0 289 
 PAM  SZ EP   1    029 31.09                             153    0.09 7 68.8  47 
 PAM  SN ES   1    029 47.55                             153   -0.29 7 68.8  47 
 RUS  HZ EP   1    029 33.93                             140   -0.07 7  113 176 
 RUS  HE ES   1    029 53.11                             140   -0.08 7  113 176 
 RUS  HZ I         029 55.63         2.2 0.18                           113 176 
 OCA  SZ EP   1    029 36.55                             132    0.12 7  147 353 
 OCA  SZ I         030  1.36         6.2 0.12                           147 353 
 ZAR  HZ EP   1    029 40.99                             123   -0.21 6  199 289 
 ZAR  HN ES   1    030  5.72                             123   -0.28 6  199 289 
                                                                                
