 2017 1210 0030 45.8 L   6.760 -73.191141.7  RSN  6 0.4 1.3LRSN                1
 GAP=137        1.07       5.4     5.1  8.8 -0.2950E+01  0.1081E+02  0.1375E+02E
 Epicentro: LOS SANTOS - SANTANDER                                             3
 ACTION:UPD 18-01-04 13:18 OP:rebc STATUS:               ID:20171210003045 L   I
 OLDACT:REG 17-12-10 12:24 OP:lv   STATUS:               ID:20171210002740     3
 2017-12-10-0028-00M.COL___481                                                 6
 STAT SP IPHASW D HRMM SECON CODA AMPLIT PERI AZIMU VELO AIN AR TRES W  DIS CAZ7
 BAR2 EZ EP        031  4.90                             172    0.0910 18.6 177 
 BAR2 EZ ES        031 20.34                             172    0.6710 18.6 177 
 BAR2 EZ I         031 21.25         6.1 0.52            173           18.6 177 
 PAM  EZ EP        031  7.91                             148   -0.0410 84.0  40 
 PAM  EE ES        031 24.79                             148   -0.4810 84.0  40 
 PAM  EZ I         031 27.66         4.6 0.46            150           84.0  40 
 PTB  HZ EP        031 11.88                             132    0.01 9  142 260 
 PTB  HN ES        031 31.84                             132   -0.40 9  142 260 
 PTB  HZ I         031 34.73         2.1 0.58            132            142 260 
 ZAR  HN ES        031 42.70                             122    0.19 9  201 294 
 ZAR  HZ I         031 48.34         2.0 0.12            122            201 294 
 CHI  HZ EP        031 23.28                             117    0.65 8  243 194 
 CHI  HN ES        031 50.69                             117   -0.70 8  243 194 
 CHI  HZ I         031 54.77         1.4 0.44            118            243 194 
 GUY2CHZ EP   4    031 30.39                             112    1.96 0  295 235 
 GUY2CHN ES   4    032  5.02                             112    3.31 0  295 235 
 GUY2CHZ I         032 11.14         1.2 0.38                           295 235 
                                                                                
