 2014  810 0555 38.0 L   6.800 -73.109145.4  RSN  9 0.4 1.5LRSN                1
 GAP=141        0.88       3.1     4.3  6.4  0.5295E+00 -0.2215E+00 -0.2037E+01E
 Epicentro: LOS SANTOS - SANTANDER                                             3
 ACTION:UPD 14-09-15 21:48 OP:nd   STATUS:               ID:20140810055538 L   I
 OLDACT:REG 14-08-10 13:35 OP:spq  STATUS:               ID:20140810054817     3
 2014-08-10-0548-17M.COL___260                                                 6
 STAT SP IPHASW D HRMM SECON CODA AMPLIT PERI AZIMU VELO AIN AR TRES W  DIS CAZ7
 BAR2 SZ EP        555 57.65                             170   -0.0010 24.3 200 
 BAR2 SZ ES   1    556 12.70                             170   -0.25 7 24.3 200 
 BAR2 SZ I         556 13.68         5.2 0.22            172           24.3 200 
 BRR  HZ EP        555 59.51                             151    0.1510 74.8 297 
 BRR  HE ES        556 16.53                             151    0.5410 74.8 297 
 BRR  HZ I         556 19.67         5.7 0.30            149           74.8 297 
 PAM  SZ EP        556  0.46                             151    0.3910 74.9  37 
 RUS  HZ EP        556  1.77                             144    0.0310  100 178 
 RUS  HE ES   1    556 19.92                             144   -0.31 7  100 178 
 RUS  HZ I         556 21.36         2.5 0.28            148            100 178 
 PTB  HZ EP   1    556  5.12                             131   -0.23 7  152 259 
 PTB  HE ES        556 26.30                             131   -0.34 9  152 259 
 PTB  HZ I         556 27.70         4.9 0.16            132            152 259 
 OCA  HN ES        556 28.09                             129   -0.39 9  161 352 
 OCA  HZ I         556 32.81         3.9 0.16            129            161 352 
 SPBC HZ EP        556  6.60                             128   -0.16 9  166 220 
 SPBC HN ES        556 29.06                             128   -0.10 9  166 220 
 SPBC HZ I         556 31.49         2.8 0.22            130            166 220 
 ZAR  HZ EP        556 11.65                             122    0.79 8  208 292 
 ZAR  HE ES        556 36.58                             122    0.13 8  208 292 
 ZAR  HZ I         556 41.67         2.7 0.18            122            208 292 
 SML  HZ EP   1    556 14.16                             117   -0.68 6  245 334 
 SML  HN ES   1    556 42.80                             117   -0.74 6  245 334 
 SML  HZ I         556 52.59         5.0 0.10            117            245 334 
                                                                                
