 2013  310 0400 23.7 L   6.752 -73.116137.6  RSN  5 0.4 1.6LRSN                1
 GAP=143        1.01       6.5     6.2  8.6 -0.3652E+01  0.4767E+01  0.1979E+01E
 Epicentro: LOS SANTOS - SANTANDER                                             3
 ACTION:UPD 13-04-09 14:01 OP:ep   STATUS:               ID:20130310040023 L   I
 2013-03-10-0400-00M.COL___231                                                 6
 STAT SP IPHASW D HRMM SECON CODA AMPLIT PERI AZIMU VELO AIN AR TRES W  DIS CAZ7
 BAR2 SZ ES   1    4 0 56.39                             172   -0.35 7 19.2 203 
 BAR2 SZ I         4 0 58.72         9.1 0.23            173           19.2 203 
 BRR  HZ EP        4 0 44.40                             149    0.1010 76.7 301 
 BRR  HN ES        4 1  1.02                             149    0.6510 76.7 301 
 BRR  HN I         4 1  5.00        21.4 0.12            149           76.7 301 
 PAM  SZ EP        4 0 45.43                             149    0.2510 79.6  35 
 PAM  SZ I         4 0 45.72         9.9 0.16            150           79.6  35 
 PAM  SN ES   1    4 1  1.26                             149   -0.68 7 79.6  35 
 RUS  HZ EP   1    4 0 46.57                             144    0.33 7 95.1 178 
 RUS  HN ES   1    4 1  4.01                             144    0.17 7 95.1 178 
 PTB  HZ EP        4 0 49.64                             130   -0.58 9  150 261 
 PTB  HN ES   1    4 1 10.51                             130   -0.41 7  150 261 
 PTB  HZ I         4 1 12.53         2.5 0.27            131            150 261 
                                                                                
