 2012 1210 0146  1.8 L   6.774 -73.145144.9  RSN  6 0.4 1.4LRSN                1
 GAP=185        0.75       5.9     6.4  8.2  0.1658E+02  0.2002E+02  0.4967E+01E
 Epicentro: LOS SANTOS - SANTANDER                                             3
 ACTION:UPD 13-01-04 14:26 OP:ep   STATUS:               ID:20121210014601 L   I
 2012-12-10-0140-00M.COL___242                                                 6
 STAT SP IPHASW D HRMM SECON CODA AMPLIT PERI AZIMU VELO AIN AR TRES W  DIS CAZ7
 BAR2 SZ EP   1    146 21.61                             172    0.32 7 20.5 192 
 BAR2 SZ ES   1    146 35.84                             172   -0.64 7 20.5 192 
 BAR2 SZ I         146 37.81        13.3 0.14                          20.5 192 
 GIR2 SZ ES   1    146 37.28                             166    0.49 7 34.1 351 
 GIR2 SZ I         146 38.50         3.2 0.14                          34.1 351 
 RUS  HZ EP   1    146 25.41                             145    0.13 7 97.7 176 
 RUS  HN ES   1    146 43.66                             145    0.09 7 97.7 176 
 RUS  HZ I         146 43.87         4.1 0.42                          97.7 176 
 PTB  HZ EP   1    146 28.26                             132   -0.42 7  147 260 
 PTB  HN ES   1    146 49.46                             132   -0.16 7  147 260 
 PTB  HZ I         146 50.86         3.3 0.09                           147 260 
 ZAR  HE ES   1    147  0.10                             122    0.41 6  205 293 
 SML  HE ES   2    147  6.78                             117   -0.66 4  246 336 
                                                                                
