 2013  310 0352 15.7 L   6.766 -73.142154.1  RSN  4 0.4 1.2LRSN                1
 GAP=139        0.96       6.0     6.5  9.7  0.1849E+01  0.3838E+01  0.1058E+01E
 Epicentro: LOS SANTOS - SANTANDER                                             3
 ACTION:UPD 13-04-09 14:01 OP:ep   STATUS:               ID:20130310035215 L   I
 2013-03-10-0350-00M.COL___231                                                 6
 STAT SP IPHASW D HRMM SECON CODA AMPLIT PERI AZIMU VELO AIN AR TRES W  DIS CAZ7
 BRR  HZ IP     D  352 38.27                             153    0.3810 73.4 301 
 BRR  HZ I         352 38.53         3.5 0.17            149           73.4 301 
 BRR  HE ES        352 55.64                             153    0.4510 73.4 301 
 PAM  SZ EP   1    352 38.68                             151   -0.29 7 80.1  38 
 PAM  SZ I         352 39.35         2.3 0.18            155           80.1  38 
 PAM  SE ES   1    352 56.63                             151   -0.49 7 80.1  38 
 RUS  HZ EP   1    352 40.16                             147    0.13 7 96.8 176 
 RUS  HE ES        352 59.03                             147    0.0310 96.8 176 
 RUS  HE I         352 59.93         2.1 0.25            146           96.8 176 
 PTB  HZ EP   1    352 43.33                             134   -0.02 7  147 260 
 PTB  HN ES   1    353  3.91                             134   -0.99 7  147 260 
 PTB  HZ I         353 11.71         2.1 0.28            131            147 260 
                                                                                
