 2016  610 0304 57.7 L   6.808 -73.138158.4  RSN  6 0.2 1.1LRSN                1
 GAP=184        0.64       2.7     6.1  6.5  0.6762E+00 -0.1725E+02 -0.5851E+00E
 Epicentro: LOS SANTOS - SANTANDER                                             3
 ACTION:UPD 16-07-21 22:17 OP:rebc STATUS:               ID:20160610030457 L   I
 OLDACT:DUP 16-06-10 15:10 OP:dani STATUS:               ID:20160610025742d    3
 OLDACT:UP  16-06-10 15:10 OP:dani STATUS:               ID:20160610025741     3
 OLDACT:REG 16-06-10 12:44 OP:dani STATUS:               ID:20160610025741     3
 2016-06-10-0257-41M.COL___337                                                 6
 STAT SP IPHASW D HRMM SECON CODA AMPLIT PERI AZIMU VELO AIN AR TRES W  DIS CAZ7
 BAR2 EZ EP   2    3 5 18.46                             171   -0.38 5 24.4 192 
 BAR2 EZ ES   2    3 5 35.21                             171   -0.14 5 24.4 192 
 BAR2 EZ I         3 5 35.84         2.1 0.15                          24.4 192 
 BRR  HZ EP     D  3 5 20.36                             155    0.1510 71.5 298 
 BRR  HE ES        3 5 37.95                             155    0.1610 71.5 298 
 BRR  HZ I         3 5 39.56         2.3 0.10                          71.5 298 
 RUS  HZ EP        3 5 22.74                             146    0.0010  101 177 
 RUS  HE ES        3 5 42.45                             146    0.1610  101 177 
 RUS  HZ I         3 5 42.60         1.4 0.20                           101 177 
 PTB  HZ EP   9    3 5 25.44                             135   -0.34 0  149 259 
 PTB  HE ES        3 5 46.79                                   -0.57 9  149 259 
 PTB  HZ I         3 5 52.34         1.7 0.17                           149 259 
 OCA  HN ES        3 5 49.53                             132   -0.20 9  159 353 
 SPBC HZ ES        3 5 50.15                             132   -0.22 9  164 219 
                                                                                
