 2017 1110 0816 27.2 L   6.660 -73.428121.2  RSN  5 0.3 1.1LRSN                1
 GAP=158        0.86       7.9     5.1  8.2  0.1286E+02  0.1656E+02  0.8467E+01E
 Epicentro: EL CARMEN - SANTANDER                                              3
 ACTION:UPD 17-12-12 19:54 OP:rebc STATUS:               ID:20171110081627 L   I
 OLDACT:DUP 17-11-10 17:07 OP:dnl  STATUS:               ID:20171110080739d    3
 2017-11-10-0808-00M.COL___411                                                 6
 STAT SP IPHASW D HRMM SECON CODA AMPLIT PERI AZIMU VELO AIN AR TRES W  DIS CAZ7
 BAR2 EZ EP        816 44.25                             166    0.2910 28.1 105 
 BAR2 EZ ES        816 57.30                             166    0.2310 28.1 105 
 BAR2 EZ I         816 58.59         9.0 0.30            168           28.1 105 
 BRR  HZ EP        816 44.57                             152   -0.3610 58.6 328 
 BRR  HN ES        816 58.46                             152   -0.3310 58.6 328 
 BRR  HZ I         816 59.61         2.7 0.44            156           58.6 328 
 PTB  HZ EP        816 48.87                             134   -0.2410  115 263 
 PTB  HN ES        817  6.15                             134   -0.0810  115 263 
 PTB  HZ I         817 10.70         2.0 0.12            134            115 263 
 ZAR  HN ES        817 18.83                             119    0.61 9  183 300 
 GUY2CHZ EP   4    817  9.44                             110    3.67 0  267 234 
 GUY2CHN ES   4    817 39.89                             110    3.99 0  267 234 
 GUY2CHZ I         817 44.00         0.6 0.60                           267 234 
                                                                                
