 2016  210 0840 38.8 L   6.805 -73.099145.9  RSN  7 0.5 1.4LRSN                1
 GAP=205        1.07       4.0     8.0  8.9  0.1624E+01  0.2134E+02  0.5618E+01E
 Epicentro: LOS SANTOS - SANTANDER                                             3
 ACTION:UPD 16-03-04 21:24 OP:rebc STATUS:               ID:20160210084038 L   I
 OLDACT:DUP 16-02-10 21:55 OP:ar   STATUS:               ID:20160210083749d    3
 2016-02-10-0837-48M.COL___312                                                 6
 STAT SP IPHASW D HRMM SECON CODA AMPLIT PERI AZIMU VELO AIN AR TRES W  DIS CAZ7
 BAR2 EZ EP        840 59.03                             170    0.5610 25.3 201 
 BAR2 EZ ES        841 13.52                             170   -0.3010 25.3 201 
 BAR2 EZ I         841 15.11         5.0 0.26            163           25.3 201 
 OCA  HE ES        841 29.35                             130    0.14 9  160 351 
 SPBC HZ EP        841  6.66                             128   -0.99 9  167 220 
 SPBC HN ES        841 30.21                             128    0.05 9  167 220 
 ZAR  HZ EP        841 11.96                             122    0.25 8  209 291 
 ZAR  HN ES        841 37.26                             122   -0.14 8  209 291 
 ZAR  HZ I         841 41.72         2.9 0.22            121            209 291 
 NOR  HN ES   2    841 43.85                             118    0.58 4  239 235 
 NOR  HZ I         841 50.79         1.9 0.14            117            239 235 
 CHI  HZ EP        841 16.47                             117   -0.23 8  251 196 
 CHI  HN ES        841 46.87                             117    0.60 8  251 196 
 CHI  HZ I         841 52.32         1.6 0.46            117            251 196 
 GUY2CHE ES   4    842  1.23                             112    3.89 0  306 235 
 GUY2CHZ I         842  5.19         1.6 0.72                           306 235 
                                                                                
