 2012  310 0424 46.7 L   6.799 -73.147149.8  RSN  6 0.5 1.4LRSN                1
 GAP=136        1.01       6.3     5.8  9.6  0.1648E+01  0.1642E+02  0.1610E+02E
 ACTION:UP  12-03-31 23:18 OP:EP   STATUS:               ID:20120310042446 L   I
 2012-03-10-0420-00M.COL___193                                                 6
 STAT SP IPHASW D HRMM SECON CODA AMPLIT PERI AZIMU VELO SNR AR TRES W  DIS CAZ7
 BRR  HZ EP   1    425  9.20                             153     0.9 7   71 299 
 BRR  HN ES   1    425 24.98                             153    -0.1 7   71 299 
 BRR  HZ I         425 30.33         6.1 0.15                            71 299 
 PAM  SZ EP   1    425  9.26                             151    -0.1 7   78  40 
 PAM  SE ES        425 26.90                             151    -0.110   78  40 
 RUS  HZ EP   1    425 11.54                             144     0.7 7  100 176 
 RUS  HN ES   1    425 29.30                             144    -0.4 7  100 176 
 RUS  HZ I         425 31.42         3.8 0.19                           100 176 
 PTB  HZ EP   1    425 13.81                             133    -0.2 7  148 259 
 PTB  HN ES   1    425 35.67                             133     0.4 7  148 259 
 PTB  HZ I         425 41.27         2.0 0.07                           148 259 
 ZAR  HZ EP   1    425 18.89                             123    -0.5 6  204 292 
 ZAR  HN ES   1    425 44.53                             123    -0.4 6  204 292 
 CHI  HZ EP   1    425 24.07                             118    -0.5 6  248 195 
                                                                                
