 2014 1110 0607  4.5 L   6.822 -73.160145.9  RSN  5 0.5 1.3LRSN                1
 GAP=134        1.29       7.0     6.6  9.4 -0.4513E+01  0.7566E+01  0.3463E+01E
 Epicentro: LOS SANTOS - SANTANDER                                             3
 ACTION:UPD 14-12-19 15:41 OP:nd   STATUS:               ID:20141110060704 L   I
 OLDACT:DUP 14-11-10 18:44 OP:stll STATUS:               ID:20141110055743d    3
 OLDACT:DUP 14-11-10 18:40 OP:stll STATUS:               ID:20141110055742d    3
 OLDACT:ARG 14-11-10 13:00 OP:stll STATUS:               ID:20141110055741     3
 2014-11-10-0557-41M.COL___289                                                 6
 STAT SP IPHASW D HRMM SECON CODA AMPLIT PERI AZIMU VELO AIN AR TRES W  DIS CAZ7
 BAR2 SZ EP        6 7 24.05                             170   -0.1410 25.5 185 
 BAR2 SZ ES        6 7 39.17                             170   -0.3810 25.5 185 
 BAR2 SZ I         6 7 39.87        10.8 0.46            167           25.5 185 
 BRR  HZ EP        6 7 25.95                             153    0.4310 68.6 297 
 BRR  HN ES        6 7 42.62                             153    0.7010 68.6 297 
 PAM  SZ EP        6 7 27.25                             151    0.5710 76.6  42 
 PAM  SN ES        6 7 43.31                             151   -0.6810 76.6  42 
 RUS  HZ EP        6 7 28.41                             143   -0.0410  103 175 
 RUS  HN ES        6 7 47.57                             143    0.4410  103 175 
 RUS  HZ I         6 7 48.59         2.0 0.40            143            103 175 
 PTB  HZ EP        6 7 30.66                             132   -0.72 9  147 258 
 PTB  HN ES        6 7 52.05                             132   -0.30 9  147 258 
 PTB  HZ I         6 7 59.28         1.9 0.32            130            147 258 
                                                                                
