 2012 1210 0808 57.3 L   6.510 -73.613104.4  RSN  6 0.3 1.6LRSN                1
 GAP=133        0.64       4.9     3.4  8.0  0.3797E+01  0.5314E+01 -0.2240E+02E
 Epicentro: SANTA HELENA DEL OPON - SANTANDER                                  3
 ACTION:UPD 13-01-04 14:26 OP:ep   STATUS:               ID:20121210080857 L   I
 2012-12-10-0807-39M.COL___194                                                 6
 STAT SP IPHASW D HRMM SECON CODA AMPLIT PERI AZIMU VELO AIN AR TRES W  DIS CAZ7
 BAR2 SZ EP   1    8 9 13.05                             153   -0.02 7 48.4  79 
 BAR2 SZ ES   1    8 9 25.43                             153    0.09 7 48.4  79 
 BAR2 SZ I         8 9 26.71        30.5 0.46                          48.4  79 
 GIR2 SZ EP   1    8 9 14.46                             140   -0.46 7 78.1  36 
 RUS  HN ES   1    8 9 31.43                             136    0.20 7 90.0 139 
 PTB  HZ EP   1    8 9 15.94                             135   -0.07 7 93.4 272 
 PTB  HN ES   1    8 9 30.45                             135   -0.13 7 93.4 272 
 PTB  HZ I         8 9 32.40         5.0 0.07                          93.4 272 
 ZAR  HZ EP   1    8 9 24.91                             115    0.65 7  175 308 
 ZAR  HE ES   1    8 9 45.06                             115   -0.20 7  175 308 
 ZAR  HZ I         8 9 49.70         3.1 0.41                           175 308 
 SML  HZ EP   1    8 9 33.29                             106   -0.44 6  258 349 
 SML  HN ES   1    810  2.63                             106    0.51 6  258 349 
                                                                                
