 2016 1210 0907 33.1 L   6.773 -73.195149.5  RSN  6 0.2 1.2LRSN                1
 GAP=230        0.54       4.2     3.8  4.0  0.9867E+01  0.1803E+01 -0.1381E+01E
 Epicentro: ZAPATOCA - SANTANDER                                               3
 ACTION:UPD 17-01-11 20:13 OP:rebc STATUS:               ID:20161210090733 L   I
 OLDACT:DUP 16-12-10 18:32 OP:lv   STATUS:               ID:20161210085745d    3
 2016-12-10-0858-00M.COL___361                                                 6
 STAT SP IPHASW D HRMM SECON CODA AMPLIT PERI AZIMU VELO AIN AR TRES W  DIS CAZ7
 BAR2 EZ EP        9 7 52.80                             172   -0.2710 20.0 176 
 BAR2 EZ ES        9 8  8.76                             172    0.0810 20.0 176 
 BRR  HZ EP        9 7 54.26                             154   -0.1810 68.1 303 
 BRR  HN ES        9 8 11.26                             154    0.1410 68.1 303 
 RUS  HZ EP        9 7 57.01                             145    0.0110 98.1 173 
 RUS  HE ES        9 8 15.73                             145    0.0610 98.1 173 
 RUS  HZ I         9 8 16.65         1.7 0.32            144           98.1 173 
 PTB  HZ EP        9 7 59.85                             134    0.05 9  142 260 
 PTB  HE ES        9 8 20.58                             134   -0.09 9  142 260 
 PTB  HZ I         9 8 25.37         1.6 0.20            130            142 260 
 ZAR  HZ EP        9 8  5.83                             124    0.48 9  200 294 
 ZAR  HN ES        9 8 30.32                             124   -0.23 9  200 294 
 ZAR  HZ I         9 8 37.22         1.6 0.19            122            200 294 
 GUY2CHZ EP   4    9 8 18.51                             113    2.37 0  295 235 
 GUY2CHE ES   4    9 8 53.84                             113    4.09 0  295 235 
 GUY2CHZ I         9 8 59.49         1.1 0.50                           295 235 
                                                                                
