 2017  910 0102 31.9 L   6.815 -73.075145.0  RSN  4 0.3 1.4LRSN                1
 GAP=246        0.89       5.5     8.2  7.2  0.1042E+02  0.1459E+01  0.4457E+01E
 Epicentro: LOS SANTOS - SANTANDER                                             3
 ACTION:UPD 17-10-05 19:10 OP:rebc STATUS:               ID:20170910010231 L   I
 OLDACT:DUP 17-09-10 14:29 OP:dhb  STATUS:               ID:20170910005741d    3
 OLDACT:REG 17-09-10 12:33 OP:dhb  STATUS:               ID:20170910005740     3
 2017-09-10-0058-00M.COL___410                                                 6
 STAT SP IPHASW D HRMM SECON CODA AMPLIT PERI AZIMU VELO AIN AR TRES W  DIS CAZ7
 BAR2 EZ IP        1 2 51.67                             169    0.1110 27.3 206 
 BAR2 EZ ES        1 3  6.23                             169   -0.6410 27.3 206 
 BAR2 EZ I         1 3  7.73         5.7 0.17            163           27.3 206 
 BRR  HZ EP        1 2 53.24                             150   -0.1310 77.4 295 
 BRR  HN ES        1 3 10.50                             150    0.4110 77.4 295 
 BRR  HZ I         1 3 13.01                             146           77.4 295 
 RUS  HZ EP        1 2 55.74                             143    0.0310  102 181 
 RUS  HN ES        1 3 14.74                             143    0.4810  102 181 
 RUS  HZ I         1 3 15.31         2.7 0.21            142            102 181 
 SPBC HZ IP     D  1 3  0.83                             128   -0.14 9  169 221 
 SPBC HE ES        1 3 23.45                             128   -0.17 9  169 221 
 SPBC HZ I         1 3 28.47         4.2 0.10            126            169 221 
                                                                                
