 2011  110 0720  2.6 L   6.787 -73.179144.0  RSN  7 0.4 1.5LRSN                1
 GAP=179        0.75       3.9     8.9  8.4 -0.9188E+01  0.2676E+02 -0.5653E+01E
 Epicentro: LOS SANTOS - SANTANDER                                             3
 ACTION:UP  11-02-08 08:39 OP:pat  STATUS:               ID:20110110072002 L   I
 2011-01-10-0718-00S.COL___130                                                 6
 STAT SP IPHASW D HRMM SECON CODA AMPLIT PERI AZIMU VELO SNR AR TRES W  DIS CAZ7
 BTL  SZ EP   1    720 22.18                             173     0.2 7   18 326 
 BAR2 SZ EP   1    720 21.89                             171    -0.1 7   22 181 
 BAR2 SZ ES   1    720 37.35                             171     0.2 7   22 181 
 BAR2 SZ I         720 38.63         6.7 0.19                            22 181 
 RUS  HZ EP   1    720 26.22                             144     0.1 7   99 174 
 RUS  HN ES   1    720 44.19                             144    -0.3 7   99 174 
 RUS  HZ I         720 45.74         4.7 0.31                            99 174 
 OCA  SZ EP   1    720 30.15                             129    -0.8 7  161 354 
 OCA  SZ ES   1    720 53.35                             129     0.4 7  161 354 
 OCA  SZ I         720 58.45         6.2 0.46                           161 354 
 NOR  SN ES   1    721  5.13                             119    -0.2 6  231 234 
 CHI  HN ES   2    721  9.35                             117     0.2 4  246 194 
 PRA  HZ EP   1    720 56.45                             106     0.7 4  389 209 
                                                                                
