 2013 1110 0823 21.4 L   6.855 -73.192145.9  RSN  5 0.5 1.4LRSN                1
 GAP=128        1.26       6.9     6.4  9.2 -0.4491E+01  0.6908E+01  0.3778E+01E
 Epicentro: ZAPATOCA - SANTANDER                                               3
 ACTION:UPD 14-01-09 16:26 OP:ep   STATUS:               ID:20131110082321 L   I
 OLDACT:UP  13-11-10 13:09 OP:stll STATUS:               ID:20131110081846d    3
 OLDACT:DUP 13-11-10 13:02 OP:stll STATUS:               ID:20131110081846d    3
 2013-11-10-0818-45M.COL___212                                                 6
 STAT SP IPHASW D HRMM SECON CODA AMPLIT PERI AZIMU VELO AIN AR TRES W  DIS CAZ7
 BAR2 SZ EP        823 41.50                             168    0.3610 29.0 178 
 BAR2 SZ ES        823 56.38                             168   -0.1910 29.0 178 
 BAR2 SZ I         823 57.93        10.9 0.32            169           29.0 178 
 BRR  HZ EP        823 42.25                             155    0.1210 63.9 296 
 BRR  HN ES        823 59.31                             155    0.9710 63.9 296 
 BRR  HZ I         824  3.04         4.6 0.48            155           63.9 296 
 PAM  SZ EP        823 43.48                             151   -0.0510 76.4  45 
 PAM  SZ I         823 43.70         5.8 0.14            154           76.4  45 
 PAM  SN ES        824  0.23                             151   -0.6010 76.4  45 
 RUS  HZ EP        823 46.02                             142    0.4110  107 174 
 RUS  HN ES        824  4.49                             142   -0.0310  107 174 
 RUS  HZ I         824  6.70         1.9 0.36            144            107 174 
 PTB  HZ EP        823 47.60                             133   -0.41 9  144 256 
 PTB  HN ES        824  8.09                             133   -0.71 9  144 256 
 PTB  HZ I         824 10.21         3.5 0.66            134            144 256 
                                                                                
