 2017  910 0816 17.7 L   6.751 -73.082142.9  RSN  5 0.4 1.7LRSN                1
 GAP=147        0.97       4.6     6.5  7.1 -0.9723E+01  0.2718E+01  0.4567E+01E
 Epicentro: LOS SANTOS - SANTANDER                                             3
 ACTION:UPD 17-10-05 19:10 OP:rebc STATUS:               ID:20170910081617 L   I
 OLDACT:DUP 17-09-10 18:43 OP:dhb  STATUS:               ID:20170910080742d    3
 2017-09-10-0808-00M.COL___403                                                 6
 STAT SP IPHASW D HRMM SECON CODA AMPLIT PERI AZIMU VELO AIN AR TRES W  DIS CAZ7
 BAR2 EZ EP        816 36.69                             171   -0.2610 20.7 212 
 BAR2 EZ ES        816 52.07                             171    0.1110 20.7 212 
 BAR2 EZ I         816 53.43         5.0 0.29            173           20.7 212 
 PAM  EZ EP        816 39.48                             150   -0.1610 77.6  33 
 PAM  EN ES        816 57.15                             150    0.4010 77.6  33 
 PAM  EZ I         817  0.46         2.4 0.08            151           77.6  33 
 BRR  HZ EP        816 38.80                             149   -0.2810 80.0 300 
 BRR  HN ES        816 55.63                             149   -0.1210 80.0 300 
 BRR  HZ I         817  0.16      1159.0 0.02            150           80.0 300 
 RUS  HZ EP        816 41.34                             145    0.5610 94.9 180 
 RUS  HN ES        816 58.15                             145   -0.6210 94.9 180 
 RUS  HZ I         817  0.44         0.9 0.12            149           94.9 180 
 SPBC HZ EP        816 45.94                             128   -0.09 9  164 222 
 SPBC HE ES        817  8.66                             128    0.53 9  164 222 
                                                                                
