 2015  210 0801 25.2 L   7.104 -73.357115.2  RSN 10 0.5 1.5LRSN                1
 GAP= 91        1.18       3.0     4.4  6.7 -0.2541E+01  0.1076E+02  0.1165E+01E
 Epicentro: LEBRIJA - SANTANDER                                                3
 ACTION:UPD 15-04-30 21:24 OP:nd   STATUS:               ID:20150210080125 L   I
 OLDACT:REG 15-02-10 13:06 OP:fm   STATUS:               ID:20150210075749     3
 2015-02-10-0757-49M.COL___287                                                 6
 STAT SP IPHASW D HRMM SECON CODA AMPLIT PERI AZIMU VELO AIN AR TRES W  DIS CAZ7
 BRR  HZ EP        8 1 41.24                             160   -0.1310 39.2 270 
 BRR  HE ES        8 1 53.21                             160   -0.7510 39.2 270 
 BRR  HZ I         8 1 56.38         5.5 0.12            154           39.2 270 
 BAR2 EZ EP        8 1 42.71                             151   -0.0610 59.8 161 
 BAR2 EZ ES        8 1 56.89                             151    0.4310 59.8 161 
 BAR2 EZ I         8 1 58.47         9.2 0.18            152           59.8 161 
 PAM  SZ EP        8 1 44.78                             144    0.5110 77.2  70 
 PAM  SE ES        8 1 59.54                             144    0.4210 77.2  70 
 PAM  SZ I         8 2  2.49         7.1 0.56            146           77.2  70 
 OCA  HN ES        8 2  5.75                             129    0.1810  126   2 
 PTB  HZ EP        8 1 48.62                             126   -0.15 9  137 243 
 PTB  HE ES        8 2  7.82                             126    0.68 9  137 243 
 PTB  HZ I         8 2 10.30         5.7 0.48            123            137 243 
 RUS  HZ EP        8 1 49.21                             126   -0.27 9  137 167 
 RUS  HN ES        8 2  7.52                             126   -0.88 9  137 167 
 SPBC HZ EP        8 1 53.35                             118    0.11 9  179 206 
 SPBC HE ES        8 2 14.91                             118   -0.19 9  179 206 
 SPBC HZ I         8 2 22.31         3.6 0.18            116            179 206 
 SML  HZ EP        8 1 56.00                             115    0.20 9  203 337 
 SML  HE ES        8 2 18.98                             115   -0.67 9  203 337 
 SML  HZ I         8 2 28.62         6.3 0.24            112            203 337 
 NOR  HZ EP        8 1 59.44                             111   -0.40 8  239 225 
 NOR  HE ES     C  8 2 27.68                             111    0.84 8  239 225 
 NOR  HZ I         8 2 32.74         3.5 0.36            108            239 225 
 GUY2CHZ EP        8 2  7.65                             105   -0.32 7  304 227 
 GUY2CHE ES        8 2 41.78                             105    0.47 7  304 227 
 GUY2CHZ I         8 2 50.51         2.0 0.44                           304 227 
                                                                                
