 2016 1010 0610 36.3 L   6.876 -73.125141.8  RSN  7 0.4 1.5LRSN                1
 GAP=135        0.84       2.8     3.8  6.9 -0.1740E+01  0.8527E+01 -0.1959E+00E
 Epicentro: LOS SANTOS - SANTANDER                                             3
 ACTION:UPD 16-11-09 19:18 OP:rebc STATUS:               ID:20161010061036 L   I
 OLDACT:REG 16-10-10 13:04 OP:ar   STATUS:               ID:20161010060745     3
 2016-10-10-0608-00M.COL___354                                                 6
 STAT SP IPHASW D HRMM SECON CODA AMPLIT PERI AZIMU VELO AIN AR TRES W  DIS CAZ7
 PAM  EZ EP        610 58.14                             153    0.4910 69.5  42 
 PAM  EN ES        611 14.46                             153    0.1710 69.5  42 
 PAM  EZ I         611 17.16         9.5 0.50            156           69.5  42 
 RUS  HZ EP        611  0.44                             141    0.1310  109 178 
 RUS  HE ES        611 18.85                             141   -0.1710  109 178 
 RUS  HZ I         611 19.84         2.1 0.36            142            109 178 
 OCA  HZ EP        611  3.33                             130   -0.24 9  152 352 
 OCA  HE ES        611 24.29                             130   -0.53 9  152 352 
 PTB  HZ EP        611  2.76                             130   -0.59 9  152 256 
 PTB  HN ES        611 24.35                             130   -0.08 9  152 256 
 PTB  HZ I         611 25.88         4.9 0.30            132            152 256 
 SPBC HZ EP        611  5.10                             127   -0.20 9  171 218 
 SPBC HN ES        611 27.87                             127   -0.03 9  171 218 
 SPBC HZ I         611 32.88         3.6 0.24            128            171 218 
 ZAR  HZ EP        611  8.87                             122    0.45 9  203 290 
 ZAR  HE ES        611 33.99                             122    0.53 9  203 290 
 ZAR  HN I         611 35.79         7.1 0.12            124            203 290 
 CHI  HZ EP   2    611 14.67                             115   -0.09 4  257 195 
 CHI  HN ES   2    611 45.28                             115    0.54 4  257 195 
 CHI  HZ I         611 47.83         1.3 0.46            117            257 195 
                                                                                
