 2013  610 0254  9.4 L   6.725 -73.174153.5  RSN  5 0.3 1.3LRSN                1
 GAP=197        0.61       5.0     6.0  5.9  0.1440E+02  0.4617E+00 -0.1365E+01E
 Epicentro: VILLANUEVA - SANTANDER                                             3
 ACTION:UPD 14-01-08 09:53 OP:ep   STATUS:               ID:20130610025409 L   I
 OLDACT:UP  13-06-10 09:39 OP:cam  STATUS:               ID:20130610024959     3
 OLDACT:REG 13-06-10 07:44 OP:cam  STATUS:               ID:20130610024959     3
 2013-06-10-0249-59M.COL___261                                                 6
 STAT SP IPHASW D HRMM SECON CODA AMPLIT PERI AZIMU VELO AIN AR TRES W  DIS CAZ7
 BAR2 SZ EP   1    254 29.52                             174   -0.33 7 14.7 184 
 BAR2 SZ ES   1    254 45.48                             174   -0.30 7 14.7 184 
 BRR  HZ EP        254 31.80                             153    0.2910 72.9 305 
 BRR  HN ES        254 48.99                             153    0.2610 72.9 305 
 BRR  HZ I         254 50.46         3.2 0.14            151           72.9 305 
 RUS  HZ EP   1    254 33.60                             148    0.19 7 92.6 174 
 RUS  HN ES   1    254 52.07                             148   -0.04 7 92.6 174 
 RUS  HZ I         254 53.26         2.5 0.66            147           92.6 174 
 PTB  HZ EP   1    254 36.58                             135   -0.07 7  143 262 
 PTB  HN ES   1    254 57.63                             135   -0.24 7  143 262 
 PTB  HZ I         255  1.49         2.5 0.12            133            143 262 
 SML  HN ES   2    255 15.82                             118   -0.79 4  250 337 
                                                                                
