 2016 1010 0821 57.0 L   6.841 -73.082132.6  RSN  6 0.6 1.4LRSN                1
 GAP=143        1.49       5.6     8.6 11.4 -0.1205E+02  0.3007E+02 -0.1066E+02E
 Epicentro: LOS SANTOS - SANTANDER                                             3
 ACTION:UPD 16-11-09 19:18 OP:rebc STATUS:               ID:20161010082157 L   I
 OLDACT:UP  16-10-10 20:06 OP:ar   STATUS:               ID:20161010081741     3
 OLDACT:REG 16-10-10 13:28 OP:ar   STATUS:               ID:20161010081741     3
 2016-10-10-0818-00M.COL___354                                                 6
 STAT SP IPHASW D HRMM SECON CODA AMPLIT PERI AZIMU VELO AIN AR TRES W  DIS CAZ7
 BAR2 EZ EP        822 16.01                             167    0.8410 29.7 202 
 BAR2 EZ ES        822 30.13                             167    0.7610 29.7 202 
 BAR2 EZ I         822 31.92         9.9 0.52            173           29.7 202 
 PAM  EZ EP        822 18.00                             151    0.7010 69.4  37 
 PAM  EN ES        822 32.23                             151   -0.9410 69.4  37 
 PAM  EZ I         822 46.16         2.8 0.18            151           69.4  37 
 RUS  HZ EP        822 19.72                             140   -0.0610  105 180 
 RUS  HN ES        822 36.89                             140   -0.6810  105 180 
 RUS  HZ I         822 38.31         2.7 0.26            147            105 180 
 PTB  HZ EP        822 23.05                             127   -0.58 9  156 258 
 PTB  HN ES        822 44.42                             127   -0.02 9  156 258 
 PTB  HZ I         822 45.65         3.4 0.18            135            156 258 
 OCA  HZ EP        822 23.79                             127   -0.15 9  157 350 
 OCA  HN ES        822 44.99                             127    0.01 9  157 350 
 OCA  HZ I         822 47.31        10.4 0.38            131            157 350 
 CHI  HN ES   2    823  3.99                             113   -0.08 4  255 196 
                                                                                
