 2016 1210 0221 34.7 L   6.809 -73.165139.0  RSN  4 0.2 0.8LRSN                1
 GAP=236        0.66       5.3     5.4  5.5  0.1596E+02  0.5208E+01  0.2652E+01E
 Epicentro: LOS SANTOS - SANTANDER                                             3
 ACTION:UPD 17-01-11 20:13 OP:rebc STATUS:               ID:20161210022134 L   I
 OLDACT:DUP 16-12-10 14:41 OP:lv   STATUS:               ID:20161210021746d    3
 2016-12-10-0218-00M.COL___367                                                 6
 STAT SP IPHASW D HRMM SECON CODA AMPLIT PERI AZIMU VELO AIN AR TRES W  DIS CAZ7
 BAR2 EZ ES        222  8.41                             170    0.2010 24.0 185 
 BRR  HZ EP        221 54.78                             152   -0.1910 68.8 299 
 BRR  HE ES        222 10.75                             152   -0.0510 68.8 299 
 RUS  HZ EP        221 57.65                             142   -0.2210  102 175 
 RUS  HN ES        222 15.94                             142   -0.0110  102 175 
 RUS  HZ I         222 17.19         1.0 0.41            141            102 175 
 PTB  HZ EP        222  1.45                             131    0.52 9  146 258 
 PTB  HN ES        222 21.20                             131   -0.21 9  146 258 
 PTB  HZ I         222 21.59         1.0 0.29            131            146 258 
                                                                                
