 2017  310 0058 14.7 L   6.789 -73.160148.3  RSN  6 0.4 1.4LRSN                1
 GAP=135        1.03       5.2     4.6  6.9  0.2599E+01  0.7778E+01 -0.1545E+01E
 Epicentro: LOS SANTOS - SANTANDER                                             3
 ACTION:UPD 17-05-25 18:38 OP:jn   STATUS:               ID:20170310005814 L   I
 OLDACT:REG 17-03-10 12:11 OP:ar   STATUS:               ID:20170310004741     3
 2017-03-10-0048-00M.COL___403                                                 6
 STAT SP IPHASW D HRMM SECON CODA AMPLIT PERI AZIMU VELO AIN AR TRES W  DIS CAZ7
 BAR2 EZ EP        058 34.44                             171   -0.2110 21.9 187 
 BAR2 EZ ES        058 50.02                             171   -0.1610 21.9 187 
 BAR2 EZ I         058 51.35         4.6 0.29            172           21.9 187 
 BRR  HZ EP        058 36.39                             153    0.2710 70.4 300 
 BRR  HN ES        058 53.39                             153    0.5910 70.4 300 
 PAM  EZ EP        058 37.54                             151    0.2010 79.3  40 
 PAM  EN ES        058 54.60                             151   -0.3810 79.3  40 
 PAM  EZ I         058 56.61         8.2 0.50            152           79.3  40 
 RUS  HZ EP        058 38.93                             145    0.2610 99.5 175 
 RUS  HE ES        058 57.36                             145    0.0310 99.5 175 
 RUS  HZ I         058 58.66         2.9 0.26            147           99.5 175 
 PTB  HZ EP        058 42.14                             133    0.38 9  146 259 
 PTB  HN ES        059  2.25                             133   -0.58 9  146 259 
 PTB  HZ I         059  4.46         2.2 0.12            133            146 259 
 ZAR  HZ EP        058 46.41                             123   -0.84 9  203 293 
 ZAR  HN ES        059 12.88                             123    0.27 9  203 293 
 ZAR  HZ I         059 18.43         4.1 0.26            123            203 293 
                                                                                
