 2012  810 0851  9.7 L   6.786 -73.139144.1  RSN  8 0.4 2.2LRSN                1
 GAP=138        0.85       4.3     4.9  6.5 -0.2817E+00  0.7144E+01 -0.2321E+01E
 Epicentro: LOS SANTOS - SANTANDER                                             3
 ACTION:UPD 12-09-10 11:55 OP:ep   STATUS:               ID:20120810085109 L   I
 2012-08-10-0850-00M.COL___218                                                 6
 STAT SP IPHASW D HRMM SECON CODA AMPLIT PERI AZIMU VELO AIN AR TRES W  DIS CAZ7
 BAR2 SZ EP   1    851 29.22                             171    0.11 7 22.0 193 
 BAR2 SZ ES   1    851 44.58                             171    0.34 7 22.0 193 
 BAR2 SZ I         851 45.34        78.8 0.22                          22.0 193 
 GIR2 SZ EP   1    851 29.33                             166    0.10 7 32.9 349 
 GIR2 SZ ES   1    851 44.35                             166   -0.10 7 32.9 349 
 BRR  HZ EP   1    851 31.15                             152    0.39 7 72.6 299 
 BRR  HN ES   1    851 47.93                             152    0.75 7 72.6 299 
 BRR  HZ I         851 52.48        35.5 0.19                          72.6 299 
 PAM  SZ EP   1    851 32.18                             150    0.39 7 78.1  38 
 PAM  SN ES   1    851 48.79                             150   -0.22 7 78.1  38 
 RUS  HZ EP   1    851 33.18                             144    0.00 7 99.0 176 
 RUS  HE ES   1    851 51.07                             144   -0.42 7 99.0 176 
 RUS  HZ I         851 53.00        14.4 0.42                          99.0 176 
 PTB  HZ EP   1    851 36.03                             132   -0.55 7  148 259 
 PTB  HN ES   1    851 56.95                             132   -0.59 7  148 259 
 PTB  HZ I         851 59.75        12.3 0.11                           148 259 
 OCA  HZ EP   1    851 37.79                             129   -0.25 7  162 353 
 OCA  HN ES   1    851 59.35                             129   -0.79 7  162 353 
 ZAR  HZ EP   1    851 42.88                             122    0.70 6  205 292 
 ZAR  HN ES   1    852  7.50                             122    0.00 6  205 292 
                                                                                
