 2013  410 0151  9.7 L   6.717 -73.171149.8  RSN  4 0.3 1.4LRSN                1
 GAP=228        0.91       7.2     6.9  7.3  0.2443E+02  0.5103E+01  0.1087E+01E
 Epicentro: VILLANUEVA - SANTANDER                                             3
 ACTION:UPD 13-05-22 14:37 OP:EP   STATUS:               ID:20130410015109 L   I
 2013-04-10-0148-43M.COL___218                                                 6
 STAT SP IPHASW D HRMM SECON CODA AMPLIT PERI AZIMU VELO AIN AR TRES W  DIS CAZ7
 BAR2 SZ EP        151 29.49                             174   -0.2110 13.8 185 
 BAR2 SZ ES        151 44.78                             174   -0.4910 13.8 185 
 BRR  HZ EP        151 31.27                             152   -0.1910 73.8 306 
 BRR  HE ES        151 49.00                             152    0.5910 73.8 306 
 RUS  HZ EP        151 33.70                             147    0.4310 91.7 174 
 RUS  HN ES        151 51.78                             147    0.1510 91.7 174 
 RUS  HZ I         151 53.22         2.6 0.30            144           91.7 174 
 PTB  HZ EP        151 36.50                             134   -0.16 9  144 262 
 PTB  HN ES        151 57.50                             134   -0.16 9  144 262 
 PTB  HN I         152  2.63         4.7 0.62            131            144 262 
                                                                                
