 2016  410 0159 48.4 L   6.812 -73.145144.3  RSN 21 0.3 2.5LRSN                1
 GAP= 71        0.82       2.2     2.3  4.2 -0.7324E+00  0.2991E+01  0.9273E+00E
 Epicentro: LOS SANTOS - SANTANDER                                             3
 ACTION:UPD 16-05-05 14:19 OP:rebc STATUS:               ID:20160410015948 L   I
 OLDACT:UP  16-04-10 14:20 OP:mh   STATUS:               ID:20160410015744     3
 OLDACT:UP  16-04-10 14:13 OP:mh   STATUS:               ID:20160410015744     3
 OLDACT:UP  16-04-10 13:58 OP:mh   STATUS:               ID:20160410015744     3
 OLDACT:REG 16-04-10 12:29 OP:mh   STATUS:               ID:20160410015744     3
 2016-04-10-0157-44M.COL___292                                                 6
 STAT SP IPHASW D HRMM SECON CODA AMPLIT PERI AZIMU VELO AIN AR TRES W  DIS CAZ7
 BAR2 EZ EP     C  2 0  7.92                             170    0.0210 24.7 190 
 BAR2 EZ ES        2 0 22.92                             170   -0.1710 24.7 190 
 BAR2 EZ I         2 0 24.64       125.1 0.27            170           24.7 190 
 PAM  EZ EP     C  2 0 10.64                             151    0.2310 76.3  40 
 PAM  EN ES        2 0 27.83                             151    0.2610 76.3  40 
 PAM  EZ I         2 0 30.99        26.8 0.46            148           76.3  40 
 RUS  HZ EP     D  2 0 11.84                             143   -0.2810  102 176 
 RUS  HE ES        2 0 30.55                             143   -0.0610  102 176 
 RUS  HZ I         2 0 31.49        45.6 0.26            141            102 176 
 PTB  HZ EP   1    2 0 14.49                             132   -0.80 7  148 258 
 PTB  HE ES        2 0 35.79                             132   -0.46 9  148 258 
 PTB  HZ I         2 0 41.95        30.1 0.14            128            148 258 
 TAM  HZ EP        2 0 16.25                             130    0.24 9  155 105 
 TAM  HZ I         2 0 36.98        23.9 0.40            127            155 105 
 TAM  HE ES        2 0 37.61                             130    0.08 9  155 105 
 OCA  HZ EP     C  2 0 15.85                             130   -0.64 9  159 353 
 OCA  HN ES        2 0 38.71                             130    0.33 9  159 353 
 OCA  HZ I         2 0 41.08        80.8 0.18            126            159 353 
 SPBC HZ EP        2 0 16.84                             129   -0.06 9  164 219 
 SPBC HE ES        2 0 39.45                             129    0.33 9  164 219 
 SPBC HZ I         2 0 43.13        66.8 0.26            125            164 219 
 ZAR  HZ EP        2 0 20.91                             122    0.20 9  204 292 
 ZAR  HN ES        2 0 45.86                             122   -0.05 9  204 292 
 ZAR  HZ I         2 0 50.81        49.9 0.30            119            204 292 
 CHI  HZ EP   1    2 0 26.17                             117   -0.00 6  250 195 
 CHI  HN ES        2 0 55.40                             117   -0.23 8  250 195 
 CHI  HZ I         2 0 58.34        23.1 0.66            114            250 195 
 HEL  HZ EP   1    2 0 29.30                             115    0.71 6  272 256 
 HEL  HN ES        2 1  0.56                             115    0.63 8  272 256 
 HEL  HZ I         2 1  3.68        12.4 0.30            112            272 256 
 URE  HZ EP   4    2 0 27.90                             113   -1.46 0  283 292 
 URE  HN ES   4    2 1  3.45                             113    2.15 0  283 292 
 URE  HZ I         2 1  8.66        22.7 0.16            110            283 292 
 GUY2CHZ EP   1    2 0 32.06                             112    0.01 5  302 235 
 GUY2CHE ES   4    2 1  8.98                             112    2.90 0  302 235 
 GUY2CHZ I         2 1 13.76        22.9 0.34                           302 235 
 VIL  SZ EP   1    2 0 31.61                             112   -0.31 5  305 192 
 VIL  SN ES        2 1  5.78                             112   -0.07 7  305 192 
 PTGC HZ EP   4 D  2 0 30.99                             111   -1.36 0  310 159 
 PTGC HN ES   4    2 1  3.93                             111   -2.69 0  310 159 
 PTGC HZ I         2 1  8.04        12.0 0.43            109            310 159 
 ELA  HZ EP   9    2 0 36.71                             110    1.40 0  330 229 
 ELA  HN ES        2 1 13.58                             111    0.29 7  330 229 
 ELA  HZ I         2 1 20.84        17.6 0.32            107            330 229 
 CBOC HZ EP        2 0 35.38                             110    0.06 7  334 252 
 CBOC HN ES        2 1 12.11                             110    0.21 7  334 252 
 CBOC HZ I         2 1 22.74         5.2 0.48            107            334 252 
 ANIL HZ EP   9    2 0 39.71                             108    1.43 0  358 224 
 ANIL HE ES        2 1 19.82                                    1.22 6  358 224 
 ORTC HZ EP   1    2 0 42.42                             106    0.01 4  397 216 
 ORTC HN ES        2 1 25.26                             106    0.73 6  397 216 
 ORTC HZ I         2 1 31.13        10.0 0.64            104            397 216 
 PAL  HZ EP        2 0 43.40                             106   -0.21 6  406 239 
 PAL  HE ES        2 1 26.11                             106   -0.55 6  406 239 
 PAL  HZ I         2 1 36.85         4.2 0.44            103            406 239 
 CRJC HZ EP   4    2 0 48.09                             103   -2.62 0  466   4 
 CRJC HN ES   4    2 1 35.82                             103   -3.48 0  466   4 
 CRJC HZ I         2 1 44.69        11.0 0.18            101            466   4 
 MACC HZ EP   4    2 0 54.78                             101   -2.47 0  522 189 
 MACC HN ES   4    2 1 47.13                             101   -3.81 0  522 189 
 MACC HZ I         2 1 52.13         7.1 0.82             99            522 189 
                                                                                
