 2013  310 0813 10.4 L   5.835 -74.093 22.0  RSN  5 0.4 1.4LRSN                1
 GAP=197        0.78       6.2     2.8  5.8 -0.3223E+01  0.5893E+01 -0.2175E+02E
 Epicentro: FLORIAN - SANTANDER                                                3
 ACTION:UPD 13-04-09 14:01 OP:ep   STATUS:               ID:20130310081310 L   I
 2013-03-10-0810-00M.COL___231                                                 6
 STAT SP IPHASW D HRMM SECON CODA AMPLIT PERI AZIMU VELO AIN AR TRES W  DIS CAZ7
 PTB  HZ EP   1    813 24.88                             102    0.28 8 87.7 333 
 RUS  HZ EP   1    813 28.30                             100   -0.41 8  112  87 
 RUS  HN ES   1    813 43.28                             100    0.29 8  112  87 
 BAR2 SZ EP   2    813 30.14                              56   -0.65 5  131  50 
 BAR2 SZ ES   1    813 47.28                              56    0.59 8  131  50 
 BAR2 SZ I         813 48.90         6.1 0.14            134            131  50 
 BRR  HN ES        813 49.40                              56   -0.3110  147  17 
 BRR  HN I         813 49.94        12.8 0.16            128            147  17 
 HEL  HZ EP   1    813 34.72                              56   -0.33 7  164 284 
 HEL  HN ES   1    813 54.65                              56    0.38 7  164 284 
 HEL  HZ I         813 59.13         1.7 0.44            122            164 284 
                                                                                
