 2012  110 0047 16.7 L   6.795 -73.134146.8  RSN  5 0.2 1.6LRSN                1
 GAP=138        0.47       4.8     4.8  7.1  0.2067E+01 -0.8480E+00  0.1047E+02E
 Epicentro: LOS SANTOS - SANTANDER                                             3
 ACTION:UP  12-02-03 08:16 OP:REBC STATUS:               ID:20120110004716 L   I
 2012-01-10-0040-00M.COL___186                                                 6
 STAT SP IPHASW D HRMM SECON CODA AMPLIT PERI AZIMU VELO SNR AR TRES W  DIS CAZ7
 GIR2 SZ EP   1    047 36.40                             167    -0.1 7   32 348 
 BRR  HZ EP   1    047 38.06                             152     0.0 7   73 298 
 BRR  HN ES   1    047 54.92                             152     0.3 7   73 298 
 BRR  HZ I         047 58.92         7.1 0.18                            73 298 
 PAM  SN ES   2    047 56.06                             151    -0.3 5   77  39 
 RUS  HZ EP   1    047 40.77                             144     0.3 7  100 177 
 RUS  HN ES   2    047 58.87                             144    -0.2 5  100 177 
 PTB  HZ EP   2    047 43.52                             132    -0.3 5  149 259 
 PTB  HE ES   2    048  4.68                             132    -0.3 5  149 259 
                                                                                
