 2011  410 0625 55.3 L   6.749 -73.123138.2  RSN  5 0.4 2.0LRSN                1
 GAP=161        0.87       7.0    10.4  9.0 -0.2118E+02  0.4241E+01 -0.5983E+01E
 Epicentro: LOS SANTOS - SANTANDER                                             3
 ACTION:UP  11-06-22 15:30 OP:REBC STATUS:               ID:20110410062555 L   I
 2011-04-10-0624-42S.COL___133                                                 6
 STAT SP IPHASW D HRMM SECON CODA AMPLIT PERI AZIMU VELO SNR AR TRES W  DIS CAZ7
 BAR2 SZ EP   1    626 14.17                             172     0.2 7   19 201 
 BAR2 SZ ES   1    626 28.20                             172    -0.3 7   19 201 
 BAR2 SZ I         626 30.50        30.3 0.28                            19 201 
 BRR  HZ EP        626 16.14                             149     0.210   76 301 
 BRR  HN ES   2    626 32.16                             149     0.1 5   76 301 
 BRR  HZ I         626 37.50        18.4 0.53                            76 301 
 PAM  SZ EP        626 17.26                             148     0.410   80  36 
 PAM  SE ES   2    626 33.17                             148    -0.6 5   80  36 
 OCA  SZ EP   1    626 22.83                             126    -0.8 7  166 353 
 OCA  SZ I         626 49.09        15.6 0.37                           166 353 
 CHI  HZ EP   2    626 31.99                             116    -0.1 4  244 196 
 CHI  HE ES   2    627  0.22                             116    -0.5 4  244 196 
 CHI  HZ I         627  8.33         3.4 0.23                           244 196 
                                                                                
