 2017  310 0419 14.6 L   6.778 -73.118141.3  RSN 17 0.4 2.1LRSN                1
 GAP= 98        0.95       3.0     3.0  4.5 -0.1043E+01  0.3190E+01  0.2297E+01E
 Epicentro: LOS SANTOS - SANTANDER                                             3
 ACTION:UPD 17-05-25 18:38 OP:jn   STATUS:               ID:20170310041914 L   I
 OLDACT:UP  17-03-10 16:21 OP:ar   STATUS:               ID:20170310041740     3
 OLDACT:UP  17-03-10 16:21 OP:ar   STATUS:               ID:20170310041740     3
 OLDACT:REG 17-03-10 12:21 OP:ar   STATUS:               ID:20170310041740     3
 2017-03-10-0418-00M.COL___403                                                 6
 STAT SP IPHASW D HRMM SECON CODA AMPLIT PERI AZIMU VELO AIN AR TRES W  DIS CAZ7
 BAR2 EZ IP     D  419 33.46                             171   -0.1710 21.7 199 
 BAR2 EZ ES        419 48.22                             171   -0.2810 21.7 199 
 BAR2 EZ I         419 49.27        29.2 0.16            168           21.7 199 
 BRR  HZ EP        419 35.36                             150   -0.1010 75.1 299 
 BRR  HN ES        419 52.43                             150    0.6610 75.1 299 
 BRR  HZ I         419 56.39        21.0 0.12            149           75.1 299 
 PAM  EZ EP        419 36.39                             150    0.0810 77.4  37 
 PAM  EN ES        419 53.26                             150   -0.0110 77.4  37 
 PAM  EZ I         419 55.20        41.2 0.52            155           77.4  37 
 RUS  HZ EP        419 37.45                             144   -0.2410 98.0 178 
 RUS  HN ES        419 55.85                             144    0.1310 98.0 178 
 RUS  HZ I         419 57.41        21.0 0.40            144           98.0 178 
 PTB  HZ EP        419 40.62                             130   -0.79 9  150 260 
 PTB  HN ES        420  2.94                             130    0.59 9  150 260 
 PTB  HZ I         420  3.97        18.6 0.42            130            150 260 
 TAM  HZ IP     D  419 41.84                             130    0.29 9  151 104 
 SPBC HZ EP        419 42.39                             128   -0.34 9  163 220 
 SPBC HN ES        420  4.63                             128   -0.07 9  163 220 
 SPBC HZ I         420  7.71        28.8 0.22            128            163 220 
 ZAR  HZ EP        419 46.30                             121   -0.82 8  208 292 
 ZAR  HN ES        420 12.27                             121   -0.24 8  208 292 
 ZAR  HZ I         420 21.81        14.3 0.38            122            208 292 
 NOR  HZ EP        419 50.09                             117   -0.07 8  236 235 
 NOR  HN ES        420 17.64                             117   -0.29 8  236 235 
 NOR  HZ I         420 24.82        10.9 0.20            118            236 235 
 CHI  HZ EP        419 52.15                             116    0.30 8  247 196 
 CHI  HN ES        420 20.74                             116   -0.19 8  247 196 
 CHI  HZ I         420 24.19         5.8 0.32            117            247 196 
 ROSC BZ EP   9    419 54.88                             116    2.49 0  252 212 
 ROSC BN ES        420 24.71                             115    0.32 8  252 212 
 ROSC BZ I         420 32.65         9.9 0.45            117            252 212 
 HEL  HZ EP        419 55.82                             114    1.00 8  274 256 
 HEL  HN ES        420 25.91                             114   -0.32 8  274 256 
 HEL  HZ I         420 32.77         6.7 0.38            114            274 256 
 URE  HN ES   4    420 26.13                             112   -1.92 0  288 292 
 URE  HZ I         420 27.37        10.1 0.34            113            288 292 
 GUY2CHZ EP        419 58.36                             111    0.26 7  302 235 
 GUY2CHN ES   2    420 32.84                             111    0.78 4  302 235 
 GUY2CHZ  IAML     420 36.67         4.7 0.30                           302 235 
 PTGC HZ EP   9    419 56.74                             111   -1.09 0  305 159 
 PTGC HN ES        420 30.38                             111   -0.11 7  305 159 
 PTGC HZ I         420 32.26         7.8 0.40            113            305 159 
 CBOC HZ EP        420  2.37                             109    0.82 7  336 253 
 CBOC HE ES        420 38.11                             109   -0.09 7  336 253 
 CBOC HZ I         420 41.18         2.4 0.68            110            336 253 
 PRA  HZ EP        420  8.23                             106    0.37 6  391 210 
 PRA  HN ES        420 49.63                             106    0.19 6  391 210 
 PRA  HZ I         420 55.29         4.9 0.48            107            391 210 
                                                                                
