 2014 1210 0927 32.3 L   6.764 -73.150137.0  RSN 10 0.4 1.5LRSN                1
 GAP=138        0.97       3.5     3.6  6.6 -0.8921E+00  0.8659E+01  0.5167E+01E
 Epicentro: LOS SANTOS - SANTANDER                                             3
 ACTION:UPD 15-02-10 17:02 OP:nd   STATUS:               ID:20141210092732 L   I
 OLDACT:REG 14-12-10 13:30 OP:fm   STATUS:               ID:20141210091747     3
 2014-12-10-0917-47M.COL___299                                                 6
 STAT SP IPHASW D HRMM SECON CODA AMPLIT PERI AZIMU VELO AIN AR TRES W  DIS CAZ7
 BAR2 E  EP        927 51.00                             172    0.2510 19.3 191 
 BRR  HZ EP        927 52.69                             150    0.1410 72.8 301 
 BRR  HE ES        928  8.70                             150    0.3110 72.8 301 
 BRR  HZ I         928 13.69         7.2 0.14            149           72.8 301 
 PAM  SZ EP     D  927 53.89                             148    0.1310 80.8  38 
 PAM  SE ES        928 10.50                             148   -0.0310 80.8  38 
 PAM  SZ I         928 11.36         5.2 0.18            154           80.8  38 
 RUS  HZ EP        927 55.09                             143    0.2410 96.6 176 
 RUS  HE ES        928 12.29                             143   -0.1910 96.6 176 
 RUS  HZ I         928 14.79         2.5 0.30            147           96.6 176 
 PTB  HZ EP        927 57.85                             130   -0.55 9  147 260 
 PTB  HN ES        928 18.02                             130   -0.78 9  147 260 
 PTB  HZ I         928 23.65         5.1 0.12            131            147 260 
 ZAR  HZ EP        928  3.58                             120   -0.68 9  205 293 
 ZAR  HE ES        928 29.21                             120   -0.01 9  205 293 
 ZAR  HZ I         928 35.79         5.8 0.40            122            205 293 
 NOR  HZ EP        928  7.82                             117    0.63 8  232 235 
 NOR  HE ES        928 34.71                             117    0.27 8  232 235 
 NOR  HZ I         928 40.83         3.7 0.16            119            232 235 
 CHI  HN ES        928 37.28                             116   -0.45 8  245 195 
 HEL  HZ EP        928 11.77                             113   -0.10 8  271 257 
 HEL  HN ES        928 43.51                             113    0.74 8  271 257 
 HEL  HZ I         928 50.19         2.0 0.62            116            271 257 
 GUY2CHZ EP        928 15.06                             111   -0.10 7  298 235 
 GUY2CHE ES        928 48.99                             111    0.36 7  298 235 
 GUY2CHZ I         928 57.35         2.0 0.46                           298 235 
                                                                                
