 2010  110 0111 15.8 L   5.745 -73.938104.0  RSN  4 0.3 1.2LRSN                1
 GAP=162        0.69       5.2     8.8 16.7 -0.3225E+02  0.1133E+03 -0.4688E+02E
 Epicentro: ALBANIA - SANTANDER                                                3
 ACTION:UP  10-08-24 09:43 OP:vdl  STATUS:               ID:20100110011116 L   I
 2010-01-10-0100-00S.COL___096                                                 6
 STAT SP IPHASW D HRMM SECON CODA AMPLIT PERI AZIMU VELO SNR AR TRES W  DIS CAZ7
 RUS  BZ EP        111 35.00                             133    -0.310   96  80 
 RUS  BN ES   1    111 50.30                             133    -0.2 7   96  80 
 RUS  BZ I         111 52.45         2.3 0.20                            96  80 
 CHI  HZ EP        111 38.17                             125     0.210  125 169 
 CHI  HN ES   1    111 55.35                             125     0.1 7  125 169 
 CHI  HZ I         112  0.15         2.7 0.33                           125 169 
 BAR2 SZ EP        111 38.02                             125     0.310  125  42 
 BAR2 SZ ES   2    111 55.09                             125     0.3 5  125  42 
 RREF BZ EP   1    111 43.77                             114    -0.4 7  182 239 
 RREF BN ES   3    112  6.81                             114     0.4 2  182 239 
 RREF BZ I         112 10.49         2.6 0.33                           182 239 
                                                                                
