 2017  210 0910  1.7 L   6.788 -73.115138.8  RSN 10 0.5 1.5LRSN                1
 GAP=141        1.05       3.8     4.5  5.7  0.8472E+00  0.7780E+01  0.5210E+01E
 Epicentro: LOS SANTOS - SANTANDER                                             3
 ACTION:UPD 17-05-24 15:34 OP:jn   STATUS:               ID:20170210091001 L   I
 OLDACT:UP  17-02-10 18:52 OP:edw  STATUS:               ID:20170210090742     3
 OLDACT:UP  17-02-10 18:51 OP:edw  STATUS:               ID:20170210090742     3
 OLDACT:REG 17-02-10 12:23 OP:edw  STATUS:               ID:20170210090742     3
 2017-02-10-0908-00M.COL___343                                                 6
 STAT SP IPHASW D HRMM SECON CODA AMPLIT PERI AZIMU VELO AIN AR TRES W  DIS CAZ7
 BAR2 EZ IP     C  910 20.28                             170   -0.2510 22.9 199 
 BAR2 EZ ES        910 34.99                             170   -0.1910 22.9 199 
 BAR2 EZ I         910 36.61        10.9 0.18            168           22.9 199 
 BRR  HZ IP     C  910 22.15                             150   -0.2110 74.8 298 
 BRR  HN ES        910 39.15                             150    0.7110 74.8 298 
 BRR  HZ I         910 40.11         6.5 0.22            145           74.8 298 
 PAM  EZ EP        910 23.31                             150    0.1510 76.3  37 
 PAM  EN ES        910 40.09                             150    0.2310 76.3  37 
 PAM  EZ I         910 42.54         5.2 0.52            151           76.3  37 
 RUS  HZ EP        910 24.61                             143   -0.0910 99.1 178 
 RUS  HN ES        910 42.01                             143   -0.6010 99.1 178 
 RUS  HZ I         910 43.62         4.8 0.22            143           99.1 178 
 PTB  HZ EP   9    910 27.45                             130   -0.99 0  151 260 
 PTB  HN ES        910 47.99                             130   -0.28 9  151 260 
 PTB  HZ I         910 50.29         6.4 0.12            127            151 260 
 ZAR  HZ EP        910 33.10                             120   -1.03 8  208 292 
 ZAR  HE ES        910 59.49                             120    0.10 8  208 292 
 ZAR  HZ I         911  5.25         6.3 0.64            118            208 292 
 CHI  HZ EP        910 39.29                             116    0.27 8  248 196 
 CHI  HN ES        911  8.89                             116    0.79 8  248 196 
 CHI  HZ I         911 13.05         1.0 0.38            115            248 196 
 URE  HZ EP   2    910 42.79                             112   -0.10 4  287 292 
 URE  HE ES   4    911 17.27                             112    2.28 0  287 292 
 URE  HZ I         911 25.62         3.1 0.62            111            287 292 
 CBOC HZ EP        910 49.23                             108    0.53 7  336 252 
 CBOC HN ES        911 24.96                             108   -0.37 7  336 252 
 CBOC HZ I         911 36.41         0.9 0.46            108            336 252 
 PRA  HZ EP        910 55.72                             105    0.63 6  393 210 
 PRA  HE ES        911 36.65                             105   -0.05 6  393 210 
 SJC  HZ EP   4    910 54.85                             104   -2.58 0  412 327 
 SJC  HN ES   4    911 35.91                             104   -4.97 0  412 327 
                                                                                
