 2014  910 0153 44.0 L   6.876 -73.288128.3  RSN 11 0.4 1.9LRSN                1
 GAP=161        0.99       2.5     4.6  5.7  0.1116E+01  0.8796E+01  0.1157E+01E
 Epicentro: BETULIA - SANTANDER                                                3
 ACTION:UPD 14-10-03 23:03 OP:nd   STATUS:               ID:20140910015344 L   I
 OLDACT:REG 14-09-10 13:06 OP:carl STATUS:               ID:20140910014820     3
 2014-09-10-0148-20M.COL___278                                                 6
 STAT SP IPHASW D HRMM SECON CODA AMPLIT PERI AZIMU VELO AIN AR TRES W  DIS CAZ7
 BAR2 SZ IP     C  154  2.30                             165    0.4710 33.5 160 
 BAR2 SZ ES        154 15.79                             165    0.0710 33.5 160 
 BAR2 SZ I         154 16.70        43.7 0.24            165           33.5 160 
 BRR  HZ IP     C  154  2.58                             156    0.2810 53.4 299 
 BRR  HN ES        154 16.63                             156    0.0710 53.4 299 
 BRR  HZ I         154 17.63        23.5 0.12            153           53.4 299 
 RUS  HZ EP        154  7.19                             137    0.2510  111 168 
 RUS  HN ES        154 24.67                             137   -0.1510  111 168 
 RUS  HZ I         154 25.77         7.3 0.20            138            111 168 
 PTB  HZ IP     C  154  7.47                             131   -0.8810  134 254 
 PTB  HN ES   4    154 24.65                             131   -2.69 0  134 254 
 PTB  HZ I         154 30.72        11.9 0.40            129            134 254 
 OCA  HN ES        154 30.11                             127   -0.32 9  151 359 
 SPBC HZ EP        154 10.68                             125   -0.31 9  161 213 
 SPBC HN ES        154 31.56                             125   -0.47 9  161 213 
 SPBC HZ I         154 39.53        11.7 0.18            125            161 213 
 ZAR  HZ EP        154 13.96                             121    0.46 9  186 292 
 ZAR  HN ES        154 37.33                             121    0.83 9  186 292 
 ZAR  HZ I         154 39.90         6.7 0.18            120            186 292 
 NOR  HN ES        154 44.29                             115   -0.18 8  227 230 
 NOR  HZ I         154 47.58         6.3 0.20            115            227 230 
 SML  HZ EP        154 18.05                             115   -0.12 8  230 338 
 SML  HN ES        154 44.26                             115   -0.55 8  230 338 
 SML  HZ I         154 51.52        19.3 0.46            116            230 338 
 CHI  HZ EP        154 21.53                             113    0.21 8  253 191 
 CHI  HN ES        154 50.59                             113    0.17 8  253 191 
 CHI  HZ I         154 55.29         2.4 0.26            113            253 191 
 GUY2CHZ EP        154 26.26                             109    0.26 7  294 232 
 GUY2CHE ES        154 58.66                             109   -0.09 7  294 232 
 GUY2CHZ I         155  4.22         4.4 0.40                           294 232 
                                                                                
