 2017  710 0928 40.9 L   6.801 -73.184149.8  RSN  8 0.4 1.6LRSN                1
 GAP=108        1.03       4.1     3.7  6.5  0.6995E+00  0.3417E+01  0.5681E+01E
 Epicentro: ZAPATOCA - SANTANDER                                               3
 ACTION:UPD 17-08-30 15:31 OP:rebc STATUS:               ID:20170710092840 L   I
 OLDACT:UP  17-07-10 16:44 OP:edw  STATUS:               ID:20170710092736     3
 OLDACT:REG 17-07-10 13:09 OP:dnl  STATUS:               ID:20170710092736     3
 2017-07-10-0928-00M.COL___377                                                 6
 STAT SP IPHASW D HRMM SECON CODA AMPLIT PERI AZIMU VELO AIN AR TRES W  DIS CAZ7
 BAR2 EZ EP     C  929  0.85                             171   -0.1410 23.1 180 
 BAR2 EZ ES        929 16.52                             171   -0.1610 23.1 180 
 BAR2 EZ I         929 18.62        12.9 0.28            171           23.1 180 
 BRR  HZ EP        929  2.35                             154    0.0810 67.5 300 
 BRR  HN ES        929 19.79                             154    0.8410 67.5 300 
 BRR  HZ I         929 23.63         8.1 0.34            154           67.5 300 
 PAM  EZ IP     D  929  3.80                             151    0.1210 80.0  42 
 PAM  EN ES        929 20.93                             151   -0.5410 80.0  42 
 PAM  EZ I         929 22.98         5.8 0.48            154           80.0  42 
 PTB  HZ EP        929  7.18                             134   -0.64 9  144 258 
 PTB  HN ES        929 28.29                             134   -0.54 9  144 258 
 PTB  HZ I         929 34.17         2.2 0.20            135            144 258 
 SPBC HZ EP        929  9.79                             130    0.33 9  161 218 
 SPBC HN ES        929 31.57                             130   -0.17 9  161 218 
 SPBC HZ I         929 34.77         7.7 0.34            132            161 218 
 YPLC HZ EP        929 11.05                             127   -0.13 9  179 150 
 YPLC HE ES        929 35.35                             127    0.54 9  179 150 
 YPLC HZ I         929 36.16         6.8 0.28            131            179 150 
 ZAR  HZ EP        929 13.43                             124    0.24 9  200 293 
 ZAR  HN ES        929 38.65                             124    0.25 9  200 293 
 ZAR  HZ I         929 43.82         3.0 0.62            125            200 293 
 NOR  HE ES        929 44.29                             120    0.02 8  231 234 
 ROSC BZ EP   4    929 20.80                             118    1.80 0  251 210 
 HEL  HN ES   4    929 46.05                             116   -5.99 0  268 256 
 GUY2CHN ES   4    930  0.63                             113    2.46 0  298 234 
 CBOC HN ES   4    930  0.01                             111   -3.88 0  330 252 
 SJC  HZ EP   4    929 34.93                             106   -1.37 0  407 327 
 SJC  HN ES   4    930 14.28                             106   -5.25 0  407 327 
                                                                                
