 2015 1010 0556 19.4 L   6.805 -73.135145.4  RSN 11 0.3 1.6LRSN                1
 GAP= 71        0.82       2.2     3.3  4.8 -0.3378E+00  0.1433E+01  0.8374E+00E
 Epicentro: LOS SANTOS - SANTANDER                                             3
 ACTION:UPD 15-12-22 20:38 OP:cam  STATUS:               ID:20151010055619 L   I
 OLDACT:DUP 15-10-10 15:31 OP:spq  STATUS:               ID:20151010054741d    3
 2015-10-10-0547-40M.COL___337                                                 6
 STAT SP IPHASW D HRMM SECON CODA AMPLIT PERI AZIMU VELO AIN AR TRES W  DIS CAZ7
 BAR2 EZ EP        556 38.59                             170   -0.4110 24.1 192 
 BAR2 EZ ES   1    556 53.97                             170   -0.32 7 24.1 192 
 BAR2 EZ I         556 55.63         6.0 0.28            171           24.1 192 
 BRR  HZ EP        556 40.38                             152   -0.1610 71.9 298 
 BRR  HN ES        556 57.60                             152    0.5610 71.9 298 
 BRR  HZ I         557  1.50         4.9 0.18            151           71.9 298 
 PAM  EZ IP     D  556 41.55                             151    0.0510 76.2  39 
 PAM  EN ES        556 58.99                             151    0.2410 76.2  39 
 PAM  EZ I         557  0.74         8.7 0.48            153           76.2  39 
 RUS  HZ EP        556 43.64                             144    0.4910  101 177 
 RUS  HN ES        557  1.41                             144   -0.2710  101 177 
 RUS  HZ I         557  2.46         4.9 0.30            146            101 177 
 TAM  HZ EP        556 46.99                             131    0.04 9  154 105 
 OCA  HZ EP        556 47.61                             130   -0.02 9  160 353 
 OCA  HN ES        557  9.25                             130   -0.41 9  160 353 
 OCA  HZ I         557 13.97         6.9 0.27            131            160 353 
 SPBC HZ EP        556 47.87                             129   -0.10 9  164 219 
 SPBC HN ES        557  9.81                             129   -0.46 9  164 219 
 SPBC HZ I         557 12.14         6.4 0.36            130            164 219 
 ZAR  HZ EP   1    556 52.25                             122    0.35 6  205 292 
 ZAR  HN ES        557 17.33                             122    0.07 9  205 292 
 ZAR  HZ I         557 22.16         3.5 0.44            123            205 292 
 SML  HZ EP   1    556 55.84                             117   -0.15 6  244 335 
 SML  HE ES   1    557 24.65                             117    0.11 6  244 335 
 SML  HZ I         557 26.93         6.8 0.10            119            244 335 
 CHI  HZ EP        556 56.95                             117   -0.21 8  250 195 
 CHI  HN ES        557 27.40                             117    0.77 8  250 195 
 CHI  HZ I         557 29.60         1.6 0.40            119            250 195 
 GUY2CHN ES   1    557 37.02                             112   -0.22 5  302 235 
 GUY2CHZ I         557 44.58         1.6 0.32                           302 235 
                                                                                
