 2011  510 0845  4.0 L   6.774 -73.105143.0  RSN 13 0.3 2.1LRSN                1
 GAP=143        0.71       2.9     5.0  5.0 -0.7132E+01  0.9224E+01 -0.7999E+00E
 Epicentro: LOS SANTOS - SANTANDER                                             3
 ACTION:UP  11-06-29 08:52 OP:tino STATUS:               ID:20110510084504 L   I
 2011-05-10-0843-55S.COL___132                                                 6
 STAT SP IPHASW D HRMM SECON CODA AMPLIT PERI AZIMU VELO SNR AR TRES W  DIS CAZ7
 BAR2 SZ EP        845 23.19                             171     0.010   22 203 
 BAR2 SZ ES   1    845 38.10                             171    -0.2 7   22 203 
 BAR2 SZ I         845 40.89        37.4 0.32                            22 203 
 BTL  SZ EP        845 23.55                             170     0.310   24 312 
 GIR2 SZ EP   2    845 23.43                             166     0.0 5   35 344 
 BRR  HZ EP        845 25.12                             150     0.010   77 299 
 BRR  HN ES   2    845 42.13                             150     0.5 5   77 299 
 BRR  HZ I         845 44.74        32.5 0.16                            77 299 
 PAM  SZ EP        845 26.04                             150     0.210   77  36 
 PAM  SN ES   2    845 42.93                             150     0.0 5   77  36 
 RUS  HZ EP        845 27.06                             144    -0.210   97 179 
 RUS  HN ES   1    845 45.69                             144     0.3 7   97 179 
 RUS  HZ I         845 46.86        11.9 0.27                            97 179 
 BRI  SZ EP        845 27.66                             140     0.010  110  18 
 GRA  SZ EP        845 29.10                             136     0.010  127  15 
 GRA  SZ ES   1    845 48.21                             136    -0.5 7  127  15 
 GRA  SZ I         845 51.30         9.8 0.41                           127  15 
 OCA  SZ EP        845 32.40                             128     0.0 9  164 352 
 OCA  SZ ES   1    845 54.58                             128     0.0 7  164 352 
 OCA  SZ I         845 59.46        21.0 0.21                           164 352 
 NOR  SZ EP        845 39.33                             118    -0.4 8  237 236 
 NOR  SN ES   1    846  6.91                             118    -0.8 6  237 236 
 HEL  HZ EP        845 44.98                             114     0.5 7  276 257 
 HEL  HZ I         846 22.12        11.0 0.32                           276 257 
 RREF HZ EP        845 50.58                             110     0.4 7  323 230 
 RREF HZ I         846 32.18         7.8 0.26                           323 230 
 PRA  HZ EP        845 56.98                             106    -0.4 6  392 210 
 PRA  HN ES   1    846 39.36                             106     0.3 4  392 210 
                                                                                
