 2010  210 0518 51.2 L   7.393 -73.118128.9  RSN  4 0.2 2.2LRSN                1
 GAP=153        0.50       2.9    10.6  6.4  0.4515E+01 -0.4117E+02 -0.4362E+01E
 Epicentro: MATANZA - SANTANDER                                                3
 ACTION:UP  10-08-24 09:48 OP:vdl  STATUS:               ID:20100210051851 L   I
 2010-02-10-0518-38S.COL___094                                                 6
 STAT SP IPHASW D HRMM SECON CODA AMPLIT PERI AZIMU VELO SNR AR TRES W  DIS CAZ7
 GIR2 SZ EP        519  9.14                             164     0.210   36 193 
 GIR2 SZ ES   1    519 22.59                             164    -0.3 7   36 193 
 BAR2 SZ EP        519 12.03                             143     0.010   89 185 
 BAR2 SZ ES   1    519 28.41                             143     0.1 7   89 185 
 OCA  SZ EP   1    519 12.13                             141    -0.3 7   96 347 
 OCA  SZ I         519 12.75        30.0 0.24                            96 347 
 OCA  SZ ES   1    519 29.30                             141     0.2 7   96 347 
 SDV  BZ EP   1    519 35.85                             107     0.0 5  320  59 
                                                                                
