 2017  510 0754 40.0 L   6.780 -73.160136.5  RSN  5 0.2 0.9LRSN                1
 GAP=136        0.67       3.5     3.4  6.5  0.2643E+01  0.7902E+01  0.5454E+01E
 Epicentro: LOS SANTOS - SANTANDER                                             3
 ACTION:UPD 17-06-16 13:34 OP:jn   STATUS:               ID:20170510075440 L   I
 OLDACT:REG 17-05-10 13:34 OP:osc  STATUS:               ID:20170510074606     3
 2017-05-10-0748-00M.COL___353                                                 6
 STAT SP IPHASW D HRMM SECON CODA AMPLIT PERI AZIMU VELO AIN AR TRES W  DIS CAZ7
 BRR  HZ EP        755  0.41                             151    0.2310 70.9 301 
 BRR  HN ES        755 15.84                             151   -0.0410 70.9 301 
 PAM  EN ES        755 18.03                             148   -0.1110 80.1  39 
 RUS  HZ EP        755  2.40                             142   -0.3310 98.5 175 
 RUS  HN ES        755 20.76                             142    0.3210 98.5 175 
 RUS  HZ I         755 21.95         2.1 0.34            143           98.5 175 
 PTB  HZ EP        755  6.16                             130    0.08 9  146 260 
 PTB  HN ES        755 26.03                             130   -0.37 9  146 260 
 PTB  HZ I         755 30.26         0.9 0.52            131            146 260 
 ZAR  HN ES        755 36.89                             120    0.26 9  203 293 
                                                                                
