 2010  710 0617 11.9 L   7.376 -73.194131.6  RSN  5 0.3 1.5LRSN                1
 GAP=148        0.52       5.7     7.4  6.6 -0.2742E+02  0.4747E+01  0.2185E+01E
 Epicentro: EL PLAYON - SANTANDER                                              3
 ACTION:UPD 10-12-01 15:16 OP:pat  STATUS:               ID:20100710061711 L   I
 2010-07-10-0613-51S.COL___120                                                 6
 STAT SP IPHASW D HRMM SECON CODA AMPLIT PERI AZIMU VELO AIN AR TRES W  DIS CAZ7
 BRI  SZ EP   1    617 31.29                             155     0.3 7   58  49 
 BRI  SZ ES   2    617 46.50                             155     0.6 5   58  49 
 GUE  SZ EP   1    617 31.12                             155    -0.1 7   58  31 
 GUE  SZ ES   2    617 46.18                             155    -0.2 5   58  31 
 BRR  HZ IP        617 31.00                             152    -0.110   64 243 
 BRR  HZ I         617 31.15         7.5 0.26                            64 243 
 BRR  HE ES   2    617 46.38                             152     0.3 5   64 243 
 GRA  SZ EP   1    617 31.78                             150     0.1 7   71  37 
 GRA  SZ ES   2    617 46.56                             150    -0.6 5   71  37 
 BAR2 SZ EP   1    617 32.87                             145     0.0 7   87 179 
 BAR2 SZ ES   2    617 49.02                             145    -0.2 5   87 179 
                                                                                
