 2012  110 0005 53.3 L   6.777 -73.095138.6  RSN 12 0.3 2.0LRSN                1
 GAP=144        0.62       2.9     3.5  4.6 -0.2200E+01  0.4230E+01  0.2682E+01E
 Epicentro: LOS SANTOS - SANTANDER                                             3
 ACTION:UP  12-02-03 08:15 OP:REBC STATUS:               ID:20120110000553 L   I
 2012-01-10-0000-00M.COL___186                                                 6
 STAT SP IPHASW D HRMM SECON CODA AMPLIT PERI AZIMU VELO SNR AR TRES W  DIS CAZ7
 BAR2 SZ EP   1    0 6 11.79                             170    -0.2 7   23 205 
 BAR2 SZ ES   1    0 6 26.51                             170    -0.2 7   23 205 
 BAR2 SZ I         0 6 35.52        15.6 0.34                            23 205 
 PAM  SZ EP        0 6 14.64                             150     0.010   76  35 
 PAM  SN ES   1    0 6 31.48                             150     0.2 7   76  35 
 BRR  HZ IP     D  0 6 13.54                             149    -0.510   77 298 
 BRR  HN ES   1    0 6 30.58                             149     0.4 7   77 298 
 BRR  HZ I         0 6 34.32        20.3 0.15                            77 298 
 RUS  HZ EP   1    0 6 15.98                             143    -0.2 7   98 179 
 RUS  HN ES   2    0 6 34.51                             143     0.6 5   98 179 
 RUS  HZ I         0 6 36.89         9.9 0.28                            98 179 
 PTB  HN ES   2    0 6 40.54                             129    -0.6 5  153 260 
 OCA  SZ EP   1    0 6 21.74                             127     0.4 7  164 351 
 OCA  SZ ES   2    0 6 43.53                             127     0.3 5  164 351 
 OCA  SZ I         0 6 47.31        14.6 0.21                           164 351 
 ZAR  HZ EP   2    0 6 26.24                             120     0.3 4  210 292 
 ZAR  HN ES   2    0 6 51.11                             120    -0.3 4  210 292 
 ZAR  HZ I         0 6 56.13        18.2 0.47                           210 292 
 NOR  SZ EP   1    0 6 28.77                             117    -0.2 6  238 236 
 NOR  SN ES   2    0 6 56.81                             117     0.0 4  238 236 
 CHI  HZ EP   1    0 6 30.45                             116     0.0 6  248 197 
 CHI  HN ES   1    0 6 59.84                             116     0.3 6  248 197 
 CHI  HZ I         0 7  8.77         3.0 0.49                           248 197 
 HEL  HZ EP   1    0 6 34.02                             113     0.3 6  277 257 
 HEL  HN ES   1    0 7  5.50                             113     0.3 6  277 257 
 HEL  HZ I         0 7 11.69         6.8 0.32                           277 257 
 GUY  SZ EP   1    0 6 37.30                             110     0.1 5  307 236 
 GUY  SZ I         0 7 20.63         9.0 0.51                           307 236 
 RREF HZ EP   1    0 6 39.41                             109     0.0 5  324 230 
 RREF HN ES   2    0 7 15.48                             109     0.1 3  324 230 
 RREF HZ I         0 7 22.40         4.9 0.37                           324 230 
                                                                                
