 2017  410 0630 48.5 L   6.833 -73.160148.6  RSN 10 0.6 1.5LRSN                1
 GAP=109        1.35       4.8     5.4  7.4  0.7804E+00  0.5966E+01  0.9771E+01E
 Epicentro: LOS SANTOS - SANTANDER                                             3
 ACTION:UPD 17-05-30 21:10 OP:jn   STATUS:               ID:20170410063048 L   I
 OLDACT:REG 17-04-10 13:13 OP:edw  STATUS:               ID:20170410062700     3
 2017-04-10-0628-00M.COL___368                                                 6
 STAT SP IPHASW D HRMM SECON CODA AMPLIT PERI AZIMU VELO AIN AR TRES W  DIS CAZ7
 BAR2 EZ EP        631  8.62                             169    0.0510 26.7 185 
 BAR2 EZ ES        631 23.47                             169   -0.7410 26.7 185 
 BAR2 EZ I         631 24.88         7.8 0.24            169           26.7 185 
 BRR  HZ EP     C  631 10.43                             154    0.6110 68.1 296 
 BRR  HN ES        631 27.29                             154    0.8610 68.1 296 
 BRR  HZ I         631 30.40         3.1 0.16            154           68.1 296 
 PAM  EZ EP        631 11.68                             152    0.7310 75.7  42 
 PAM  EN ES        631 28.11                             152   -0.3310 75.7  42 
 PAM  EZ I         631 30.86         4.8 0.46            154           75.7  42 
 RUS  HZ EP        631 12.86                             143    0.0310  104 175 
 RUS  HN ES        631 31.61                             143   -0.1710  104 175 
 RUS  HZ I         631 32.42         5.8 0.28            145            104 175 
 PTB  HZ EP        631 15.29                             133   -0.37 9  147 257 
 PTB  HN ES        631 36.63                             133   -0.19 9  147 257 
 PTB  HZ I         631 39.34         3.1 0.16            133            147 257 
 SPBC HZ EP        631 16.63                             129   -0.80 9  165 218 
 SPBC HN ES        631 40.65                             129    0.69 9  165 218 
 SPBC HZ I         631 41.40         5.2 0.16            130            165 218 
 YPLC HZ EP        631 19.05                             127    0.14 9  181 151 
 ZAR  HZ EP        631 19.80                             123   -1.08 9  201 291 
 ZAR  HN ES        631 45.96                             123   -0.15 9  201 291 
 ZAR  HZ I         631 48.44         3.6 0.32            124            201 291 
 CHI  HZ EP        631 26.85                             117    0.13 8  252 195 
 CHI  HN ES        631 56.19                             117   -0.32 8  252 195 
 CHI  HZ I         632  0.17         1.7 0.64            118            252 195 
 PRA  HZ EP        631 42.89                             107    0.46 6  394 209 
 PRA  HN ES        632 25.37                             107    0.90 6  394 209 
 PRA  HZ I         632 28.81         1.6 0.62            108            394 209 
                                                                                
