 2017 1210 0727  6.4 L   6.538 -73.715 94.9  RSN  5 0.2 1.2LRSN                1
 GAP=118        1.01       4.7     3.7  9.1 -0.3112E+01  0.6871E+01 -0.1701E+02E
 Epicentro: SANTA HELENA DEL OPON - SANTANDER                                  3
 ACTION:UPD 18-01-04 13:18 OP:rebc STATUS:               ID:20171210072706 L   I
 OLDACT:DUP 17-12-10 19:09 OP:lv   STATUS:               ID:20171210071742d    3
 OLDACT:UP  17-12-10 19:05 OP:lv   STATUS:               ID:20171210071741     3
 OLDACT:UP  17-12-10 19:03 OP:lv   STATUS:               ID:20171210071741     3
 OLDACT:REG 17-12-10 13:03 OP:lv   STATUS:               ID:20171210071741     3
 2017-12-10-0718-00M.COL___475                                                 6
 STAT SP IPHASW D HRMM SECON CODA AMPLIT PERI AZIMU VELO AIN AR TRES W  DIS CAZ7
 BAR2 EZ EP        727 21.66                             146   -0.0910 59.2  84 
 BAR2 EZ ES        727 33.88                             146    0.1210 59.2  84 
 BAR2 EZ I         727 35.14         9.7 0.42            148           59.2  84 
 PTB  HZ EP   9    727 21.68                             136   -1.54 0 82.0 270 
 PTB  HN ES        727 33.94                             132   -0.8910 82.0 270 
 PTB  HZ I         727 37.81         2.5 0.10            136           82.0 270 
 SPBC HN ES        727 40.47                             128    0.0610  106 202 
 PAM  EZ EP        727 30.22                             120    0.38 9  143  52 
 PAM  EN ES        727 47.70                             120   -0.45 9  143  52 
 PAM  EZ I         727 48.81         1.7 0.28            121            143  52 
 ZAR  HZ EP        727 31.46                             116   -0.12 9  165 310 
 ZAR  HN ES        727 51.36                             116    0.10 9  165 310 
 ZAR  HZ I         727 53.42         2.4 0.32            116            165 310 
                                                                                
