 2017  510 0022 31.1 L   6.808 -73.114148.5  RSN  8 0.4 1.4LRSN                1
 GAP=140        0.90       3.9     4.3  6.4 -0.1576E+01  0.1871E+01  0.4928E+01E
 Epicentro: LOS SANTOS - SANTANDER                                             3
 ACTION:UPD 17-06-16 13:34 OP:jn   STATUS:               ID:20170510002231 L   I
 OLDACT:UP  17-05-10 14:55 OP:edw  STATUS:               ID:20170510001743d    3
 OLDACT:DUP 17-05-10 14:50 OP:edw  STATUS:               ID:20170510001743d    3
 2017-05-10-0018-00M.COL___353                                                 6
 STAT SP IPHASW D HRMM SECON CODA AMPLIT PERI AZIMU VELO AIN AR TRES W  DIS CAZ7
 BRR  HZ EP        022 52.35                             152   -0.3710 73.9 297 
 BRR  HN ES        023  9.96                             152    0.3910 73.9 297 
 BRR  HZ I         023 13.44         5.0 0.24            152           73.9 297 
 PAM  EZ IP     C  022 53.78                             152    0.3210 74.5  38 
 PAM  EN ES        023 10.76                             152   -0.1310 74.5  38 
 PAM  EZ I         023 12.28         2.9 0.36            157           74.5  38 
 RUS  HZ EP        022 55.47                             144    0.2810  101 178 
 RUS  HN ES        023 13.61                             144   -0.3510  101 178 
 RUS  HZ I         023 16.07         3.0 0.36            145            101 178 
 PTB  HZ EP   9    022 57.59                             132   -1.05 0  151 259 
 PTB  HN ES        023 19.01                             132   -0.04 9  151 259 
 PTB  HZ I         023 22.32         3.4 0.38            133            151 259 
 SPBC HZ EP        022 59.45                             129   -0.65 9  166 220 
 SPBC HN ES        023 23.03                             129    0.32 9  166 220 
 SPBC HZ I         023 27.03         5.7 0.10            130            166 220 
 ZAR  HN ES        023 29.40                             123   -0.33 8  207 292 
 NOR  HZ EP        023  7.91                             119    0.54 8  238 235 
 NOR  HE ES   4    023 36.75                             119    1.11 0  238 235 
 NOR  HZ I         023 40.34         2.3 0.48            120            238 235 
 CHI  HN ES   2    023 38.94                             117    0.11 4  250 196 
                                                                                
