 2016 1110 0524 37.7 L   6.670 -73.188145.7  RSN  4 0.5 0.9LRSN                1
 GAP=226        1.20      13.5    10.0 10.1  0.2899E+02  0.3721E+02 -0.9749E+01E
 Epicentro: VILLANUEVA - SANTANDER                                             3
 ACTION:UPD 17-10-26 21:06 OP:lp   STATUS:               ID:20161110052437 L   I
 OLDACT:DUP 16-11-10 16:57 OP:lv   STATUS:               ID:20161110051743d    3
 2016-11-10-0518-00M.COL___340                                                 6
 STAT SP IPHASW D HRMM SECON CODA AMPLIT PERI AZIMU VELO AIN AR TRES W  DIS CAZ7
 BAR2 EZ ES        525 11.78                             177   -0.4410 8.64 176 
 BRR  HZ EP        524 59.79                             151    0.7510 75.4 310 
 BRR  HN ES        525 15.94                             151    0.2210 75.4 310 
 PTB  HZ EP        525  3.60                             133   -0.41 9  141 264 
 PTB  HN ES        525 25.06                             133    0.49 9  141 264 
 PTB  HZ I         525 28.81         0.7 0.16            130            141 264 
 ZAR  HZ EP        525 10.05                             122   -0.21 8  206 296 
 ZAR  HE ES        525 35.07                             122   -0.63 8  206 296 
 ZAR  HZ I         525 43.50         1.0 0.45            120            206 296 
                                                                                
