 2015  210 0841 46.3 L   6.797 -73.097142.6  RSN  5 0.4 1.4LRSN                1
 GAP=205        1.06       4.4     9.5  7.6  0.1352E+02  0.9082E+00 -0.7562E+01E
 Epicentro: LOS SANTOS - SANTANDER                                             3
 ACTION:UPD 15-04-30 21:24 OP:nd   STATUS:               ID:20150210084146 L   I
 OLDACT:REG 15-02-10 13:08 OP:fm   STATUS:               ID:20150210083745     3
 2015-02-10-0837-45M.COL___284                                                 6
 STAT SP IPHASW D HRMM SECON CODA AMPLIT PERI AZIMU VELO AIN AR TRES W  DIS CAZ7
 BAR2 EZ EP        842  5.84                             170    0.3110 24.5 203 
 BAR2 EZ ES        842 20.81                             170    0.2510 24.5 203 
 BAR2 EZ I         842 23.47         3.7 0.28            170           24.5 203 
 BRR  HZ EP        842  7.66                             150    0.3110 76.1 297 
 BRR  HN ES        842 23.94                             150    0.1410 76.1 297 
 BRR  HZ I         842 25.94         3.2 0.14            151           76.1 297 
 RUS  HZ EP        842 10.10                             143    0.4510  100 179 
 RUS  HN ES        842 26.99                             143   -0.9210  100 179 
 RUS  HZ I         842 29.94         3.2 0.28            145            100 179 
 SPBC HZ EP        842 14.79                             128   -0.02 9  166 220 
 SPBC HN ES        842 37.11                             128    0.02 9  166 220 
 SPBC HZ I         842 39.38         4.0 0.32            129            166 220 
 SML  HZ EP        842 22.61                             116   -0.37 8  246 334 
 SML  HN ES        842 51.13                             116   -0.50 8  246 334 
 SML  HZ I         842 53.38         2.7 0.10            118            246 334 
                                                                                
