 2013  510 0415 37.6 L   6.520 -73.522114.7  RSN 10 0.4 2.0LRSN                1
 GAP= 71        0.94       3.7     4.3  7.1 -0.4044E+01  0.1536E+02  0.1635E+01E
 Epicentro: EL CARMEN DE CHUCURI - SANTANDER                                   3
 ACTION:UPD 13-06-20 09:49 OP:ep   STATUS:               ID:20130510041537 L   I
 2013-05-10-0410-00M.COL___256                                                 6
 STAT SP IPHASW D HRMM SECON CODA AMPLIT PERI AZIMU VELO AIN AR TRES W  DIS CAZ7
 BAR2 SZ IP     C  415 54.29                             160    0.3210 38.3  78 
 BAR2 SZ ES   1    416  6.83                             160    0.07 7 38.3  78 
 BAR2 SZ I         416  7.77        55.2 0.22            161           38.3  78 
 BRR  HZ EP        415 55.22                             147   -0.0210 68.2 342 
 BRR  HN ES   1    416  9.17                             147    0.13 7 68.2 342 
 GIR2 SZ IP     D  415 55.84                             146    0.1710 71.6  30 
 GIR2 SZ ES   1    416 10.21                             146    0.40 7 71.6  30 
 GIR2 SZ I         416 10.43        31.4 0.12            145           71.6  30 
 RUS  HZ EP        415 57.12                             141    0.0010 84.7 145 
 RUS  HN ES   1    416 12.45                             141    0.07 7 84.7 145 
 RUS  HZ I         416 14.64         5.6 0.24            141           84.7 145 
 PTB  HZ EP        415 56.92                             135   -1.0710  103 271 
 PTB  HN ES   4    416 11.95                             135   -1.97 0  103 271 
 PTB  HZ I         416 13.15        41.3 0.30            134            103 271 
 PAM  SZ EP   1    416  0.50                             128   -0.40 7  128  45 
 PAM  SN ES   1    416 18.76                             128   -0.34 7  128  45 
 PAM  SZ I         416 20.42        19.4 0.28            128            128  45 
 NOR  HZ EP        416  5.82                             118   -0.11 9  183 235 
 NOR  HN ES   1    416 27.39                             118   -0.67 7  183 235 
 NOR  HZ I         416 31.96        10.8 0.16            117            183 235 
 HEL  HZ EP        416 11.33                             112    0.33 8  225 261 
 HEL  HN ES   1    416 37.70                             112    0.62 6  225 261 
 HEL  HZ I         416 39.65         5.4 0.46            112            225 261 
 SML  HZ EP        416 14.63                             109    0.18 8  259 347 
 SML  HN ES   2    416 43.90                             109    0.67 4  259 347 
 SML  HZ I         416 49.93        15.9 0.10            108            259 347 
 PRA  HZ EP   1    416 25.12                             103    0.52 5  345 206 
 PRA  HN ES   1    417  2.05                             103    0.76 5  345 206 
 PRA  HZ I         417  4.68         2.9 0.22            102            345 206 
                                                                                
