 2010  610 0646  6.1 L   6.792 -72.935147.5  RSN  5 0.3 1.7LRSN                1
 GAP=182        0.70       3.5    11.2 10.0 -0.1267E+02  0.1826E+02 -0.7940E+01E
 Epicentro: CEPITA - SANTANDER                                                 3
 ACTION:UP  10-08-24 10:09 OP:vdl  STATUS:               ID:20100610064606 L   I
 2010-06-10-0641-11S.COL___111                                                 6
 STAT SP IPHASW D HRMM SECON CODA AMPLIT PERI AZIMU VELO SNR AR TRES W  DIS CAZ7
 RUS  HZ EP        646 29.80                             144    -0.210  101 189 
 RUS  HE ES   1    646 48.67                             144     0.0 7  101 189 
 RUS  HZ I         646 49.56         3.8 0.40                           101 189 
 GUE  SZ EP        646 30.74                             140     0.010  115   1 
 GRA  SZ EP        646 31.53                             138     0.410  122   7 
 GRA  SZ ES   2    646 50.97                             138     0.3 5  122   7 
 OCA  SZ EP   1    646 34.82                             129    -0.2 7  166 345 
 OCA  SZ ES   1    646 57.06                             129    -0.5 7  166 345 
 OCA  SZ I         647  1.78         6.6 0.21                           166 345 
 RREF BZ EP   2    646 54.02                             110    -0.2 3  339 232 
 RREF BN ES   2    647 32.71                             110     0.9 3  339 232 
 RREF BZ I         647 37.17         2.5 0.22                           339 232 
                                                                                
