 2014  110 0211 33.0 L   6.739 -73.208145.1  RSN  6 0.5 1.4LRSN                1
 GAP=224        1.24       6.6     7.5  9.2  0.1436E+02  0.1794E+02  0.2160E+02E
 Epicentro: VILLANUEVA - SANTANDER                                             3
 ACTION:UPD 14-03-13 09:53 OP:ep   STATUS:               ID:20140110021133 L   I
 OLDACT:REG 14-01-10 07:39 OP:carl STATUS:               ID:20140110021000     3
 2014-01-10-0210-00M.COL___285                                                 6
 STAT SP IPHASW D HRMM SECON CODA AMPLIT PERI AZIMU VELO AIN AR TRES W  DIS CAZ7
 BAR2 SZ ES        212  7.00                             173   -0.6110 16.4 170 
 BAR2 SZ E      C  212  7.35                                           16.4 170 
 BAR2 SZ I         212  8.08        13.8 0.20            167           16.4 170 
 BRR  HZ EP        211 53.50                             153   -0.4810 69.0 306 
 BRR  HN ES        212 10.93                             153    0.6110 69.0 306 
 BRR  HZ I         212 14.75         4.6 0.16            151           69.0 306 
 RUS  HZ EP        211 56.50                             145    0.2210 94.6 172 
 RUS  HN ES        212 14.90                             145    0.4810 94.6 172 
 RUS  HZ I         212 15.58         2.3 0.30            144           94.6 172 
 PTB  HZ EP        211 58.92                             134   -0.30 9  140 261 
 PTB  HN ES        212 19.61                             134   -0.05 9  140 261 
 PTB  HZ I         212 26.34         2.9 0.50            131            140 261 
 NOR  HN ES        212 34.96                             119    0.22 8  225 235 
 CHI  HZ EP        212 10.53                             118    0.75 8  240 194 
 CHI  HN ES        212 37.61                             118   -0.85 8  240 194 
 CHI  HZ I         212 48.87         1.0 0.44            118            240 194 
                                                                                
