 2014  610 0707 59.0 L   6.794 -73.138157.0  RSN  5 0.4 1.6LRSN                1
 GAP=184        0.87       4.7     6.0  9.3  0.8135E+01  0.3592E+01 -0.1004E+02E
 Epicentro: LOS SANTOS - SANTANDER                                             3
 ACTION:UPD 14-07-01 22:52 OP:nd   STATUS:               ID:20140610070759 L   I
 OLDACT:UP  14-06-10 16:39 OP:mh   STATUS:               ID:20140610065810d    3
 OLDACT:DUP 14-06-10 16:35 OP:mh   STATUS:               ID:20140610065810d    3
 2014-06-10-0658-09M.COL___253                                                 6
 STAT SP IPHASW D HRMM SECON CODA AMPLIT PERI AZIMU VELO AIN AR TRES W  DIS CAZ7
 RUS  HZ EP        7 8 23.37                             146   -0.4410 99.9 177 
 RUS  HN ES        7 8 43.46                             146    0.2910 99.9 177 
 RUS  HZ I         7 8 46.14         1.8 0.25            148           99.9 177 
 PTB  HZ EP        7 8 26.96                             134    0.01 9  148 259 
 PTB  HN ES        7 8 48.24                             134   -0.53 9  148 259 
 PTB  HZ I         7 8 55.38         4.8 0.21            134            148 259 
 OCA  HN ES   1    7 8 51.01                             132   -0.08 7  161 353 
 SPBC HZ EP        7 8 28.86                             131    0.49 9  163 219 
 SPBC HE ES   1    7 8 51.23                             131   -0.06 7  163 219 
 SPBC HZ I         7 8 58.34         7.1 0.32            132            163 219 
 ZAR  HZ EP        7 8 32.23                             125   -0.06 9  205 292 
 ZAR  HN ES   1    7 8 59.00                             125    0.73 6  205 292 
 ZAR  HZ I         7 9  4.78         4.3 0.37            126            205 292 
                                                                                
