 2015  610 0318 42.5 L   6.813 -73.124144.0  RSN  6 0.4 1.2LRSN                1
 GAP=185        0.91       3.3     8.0  8.0  0.6582E+01 -0.1645E+01 -0.4922E+01E
 Epicentro: LOS SANTOS - SANTANDER                                             3
 ACTION:UPD 15-09-10 22:11 OP:cam  STATUS:               ID:20150610031842 L   I
 OLDACT:REG 15-06-10 13:02 OP:stll STATUS:               ID:20150610030749     3
 2015-06-10-0307-49M.COL___303                                                 6
 STAT SP IPHASW D HRMM SECON CODA AMPLIT PERI AZIMU VELO AIN AR TRES W  DIS CAZ7
 BAR2 EZ EP        319  2.31                             170    0.3610 25.3 195 
 BAR2 EZ ES        319 16.94                             170   -0.1910 25.3 195 
 BAR2 EZ I         319 18.68         3.9 0.28            170           25.3 195 
 BRR  HZ EP        319  3.87                             152    0.3410 72.7 297 
 BRR  HZ I         319  5.83         4.5 0.58            152           72.7 297 
 BRR  HN ES        319 20.44                             152    0.4910 72.7 297 
 RUS  HZ EP        319  6.29                             143    0.1210  102 177 
 RUS  HN ES        319 24.29                             143   -0.3410  102 177 
 RUS  HZ I         319 25.89         1.4 0.26            143            102 177 
 OCA  HN ES        319 32.35                             129   -0.10 9  159 352 
 SPBC HN ES        319 33.13                             128   -0.30 9  166 219 
 SML  HN ES        319 46.76                             117   -0.69 8  243 335 
                                                                                
