 2012  910 0724 22.1 L   6.737 -73.157144.9  RSN  6 0.4 1.5LRSN                1
 GAP=138        0.81       5.6     5.2  8.0 -0.3096E+00  0.7794E+01  0.5745E-01E
 Epicentro: VILLANUEVA - SANTANDER                                             3
 ACTION:UPD 12-10-22 14:18 OP:ep   STATUS:               ID:20120910072422 L   I
 2012-09-10-0720-00M.COL___227                                                 6
 STAT SP IPHASW D HRMM SECON CODA AMPLIT PERI AZIMU VELO AIN AR TRES W  DIS CAZ7
 BAR2 SZ ES   1    724 56.10                             173   -0.58 7 16.2 190 
 BRR  HZ EP   1    724 43.58                             151    0.23 7 73.8 304 
 BRR  HN ES   1    725  0.45                             151    0.57 7 73.8 304 
 BRR  HZ I         725  1.91         4.5 0.14                          73.8 304 
 PAM  SZ EP   1    724 44.63                             149   -0.02 7 83.6  37 
 PAM  SZ I         724 45.09         8.8 0.23                          83.6  37 
 PAM  SN ES   1    725  2.06                             149   -0.15 7 83.6  37 
 RUS  HZ EP   1    724 45.82                             146    0.50 7 93.7 175 
 RUS  HN ES   1    725  3.54                             146    0.14 7 93.7 175 
 RUS  HZ I         725  5.52         3.9 0.20                          93.7 175 
 PTB  HZ EP   1    724 48.02                             132   -0.80 7  145 261 
 PTB  HN ES   1    725  9.63                             132    0.00 7  145 261 
 ZAR  HN ES   2    725 20.13                             122    0.04 4  206 294 
 ZAR  HZ I         725 26.27         3.0 0.24                           206 294 
                                                                                
