 2010 1110 0457 13.8 L   6.811 -73.050141.7  RSN 12 0.4 2.4LRSN                1
 GAP=169        1.05       4.5     7.7  6.8 -0.9106E+01  0.1539E+01  0.7377E+01E
 Epicentro: LOS SANTOS - SANTANDER                                             3
 ACTION:UP  10-12-17 16:51 OP:REBC STATUS:               ID:20101110045713 L   I
 2010-11-10-0454-21S.COL___128                                                 6
 STAT SP IPHASW D HRMM SECON CODA AMPLIT PERI AZIMU VELO SNR AR TRES W  DIS CAZ7
 BTL  SZ EP        457 33.17                             169     0.210   27 296 
 BTL  SZ ES   2    457 47.26                             169    -0.7 5   27 296 
 BAR2 SZ EP        457 33.03                             168     0.010   28 211 
 BAR2 SZ ES   1    457 47.95                             168    -0.1 7   28 211 
 BAR2 SZ I         457 49.16        53.0 0.20                            28 211 
 GIR2 SZ EP        457 33.05                             166     0.010   34 332 
 BRR  HZ EP        457 34.84                             149    -0.210   80 294 
 BRR  HN ES        457 51.95                             149     0.310   80 294 
 BRR  HZ I         457 56.48        46.3 0.16                            80 294 
 RUS  HZ EP        457 37.07                             143    -0.210  102 182 
 RUS  HN ES   2    457 55.82                             143     0.3 5  102 182 
 RUS  HZ I         457 57.61        36.9 0.57                           102 182 
 GRA  SZ EP        457 38.68                             137     0.310  122  13 
 GRA  SZ ES   2    457 57.45                             137     0.0 5  122  13 
 GRA  SZ I         457 59.53        36.2 0.53                           122  13 
 OCA  SZ EP        457 41.37                             129    -0.5 9  161 349 
 OCA  SZ ES   1    458  3.75                             129     0.1 7  161 349 
 OCA  SZ I         458  7.88        33.0 0.04                           161 349 
 NOR  SZ EP        457 49.51                             117    -0.8 8  244 236 
 NOR  SZ I         458 19.14         3.8 0.22                           244 236 
 ROSC BZ EP        457 53.35                             115     0.9 8  259 213 
 ROSC BZ I         458 28.00        18.3 0.52                           259 213 
 HEL  HZ EP   1    457 54.92                             113    -0.1 6  283 256 
 HEL  HN ES   2    458 27.19                             113     0.1 4  283 256 
 HEL  HZ I         458 32.32        15.4 0.62                           283 256 
 RREF HZ EP   1    458  1.83                             109     1.1 5  331 230 
 RREF HZ I         458 44.18        11.6 0.05                           331 230 
 PRA  HZ EP   1    458  7.56                             106    -0.4 4  398 211 
 PRA  HN ES   1    458 49.47                             106    -0.7 4  398 211 
 PRA  HZ I         458 55.75        31.5 1.44                           398 211 
                                                                                
