 2016 1110 0015 54.6 L   7.502 -73.142142.0  RSN  6 0.3 1.5LRSN                1
 GAP=150        0.74       4.2     3.5  6.0  0.2011E+00  0.7068E+01 -0.1129E+02E
 Epicentro: EL PLAYON - SANTANDER                                              3
 ACTION:UPD 17-10-26 21:06 OP:lp   STATUS:               ID:20161110001554 L   I
 OLDACT:REG 16-11-10 11:45 OP:lv   STATUS:               ID:20161110000245     3
 2016-11-10-0008-00M.COL___349                                                 6
 STAT SP IPHASW D HRMM SECON CODA AMPLIT PERI AZIMU VELO AIN AR TRES W  DIS CAZ7
 PAM  EZ EP        016 15.34                             159    0.2710 52.0 110 
 PAM  EE ES        016 30.94                             159   -0.1010 52.0 110 
 PAM  EZ I         016 34.19         2.5 0.26            163           52.0 110 
 BRR  HZ EP        016 15.70                             150    0.0510 76.6 235 
 BRR  HE ES        016 31.81                             150   -0.2610 76.6 235 
 BRR  HZ I         016 33.77         7.3 0.24            152           76.6 235 
 BAR2 EZ EP        016 17.32                             143   -0.3010  101 183 
 BAR2 EZ ES        016 35.85                             143    0.2710  101 183 
 PTB  HZ EP        016 23.81                             125   -0.54 9  180 234 
 PTB  HN ES        016 47.55                             125   -0.02 9  180 234 
 PTB  HZ I         016 49.71         3.5 0.15            128            180 234 
 ZAR  HZ EP        016 25.83                             124    0.54 9  189 270 
 ZAR  HN ES        016 49.49                             124    0.26 9  189 270 
 ZAR  HZ I         016 52.68         4.2 0.27            126            189 270 
 SJC  HZ EP        016 42.80                             108    0.04 6  347 320 
 SJC  HE ES        017 20.02                             108   -0.31 6  347 320 
                                                                                
