 2011  810 0136 36.5 L   6.735 -73.106138.2  RSN 18 0.4 3.8LRSN                1
 GAP=130        0.85       2.7     4.1  4.0 -0.3505E+01  0.3451E+01  0.1998E+01E
 Epicentro: JORDAN - SANTANDER                                                 3
 ACTION:UPD 12-07-25 14:07 OP:epov STATUS:               ID:20110810013636 L   I
 2011-08-10-0135-02S.COL___150                                                 6
 STAT SP IPHASW D HRMM SECON CODA AMPLIT PERI AZIMU VELO AIN AR TRES W  DIS CAZ7
 BAR2 SZ IP        136 55.52                             172    0.4010 17.9 208 
 BAR2 SZ ES        137  9.56                             172   -0.0910 17.9 208 
 BAR2 SZ I         137 11.22      2589.8 0.27                          17.9 208 
 GIR2 SZ EP   1    136 55.99                             163    0.46 7 39.2 346 
 GIR2 SZ ES   2    137 10.23                             163   -0.14 5 39.2 346 
 BRR  HZ IP     C  136 57.46                             149    0.1710 78.6 302 
 BRR  HZ I         136 57.82      2182.3 0.15                          78.6 302 
 BRR  HE ES        137 13.84                             149    0.3310 78.6 302 
 PAM  SZ EP        136 58.40                             148    0.2810 80.5  34 
 PAM  SZ I         136 58.82       577.6 0.16                          80.5  34 
 PAM  SN ES        137 15.01                             148    0.0310 80.5  34 
 RUS  HZ EP        136 59.36                             144    0.3810 93.2 178 
 RUS  HN ES        137 15.91                             144   -0.6010 93.2 178 
 RUS  HZ I         137 20.19       842.0 0.31                          93.2 178 
 OCA  SZ EP        137  4.41                             126   -0.57 9  168 352 
 OCA  SZ ES   1    137 26.73                             126   -0.47 7  168 352 
 OCA  SZ I         137 30.07      1026.6 0.45                           168 352 
 NOR  SZ EP        137 11.51                             117   -0.24 8  234 237 
 NOR  SN ES   1    137 38.24                             117   -1.01 6  234 237 
 CHI  HZ EP        137 13.76                             116    0.59 8  243 197 
 CHI  HN ES   1    137 41.75                             116   -0.02 6  243 197 
 CHI  HZ I         137 52.47       200.8 0.42                           243 197 
 VIL  SZ EP   1    137 19.11                             111    0.22 5  297 193 
 VIL  SE ES   1    137 52.01                             111    0.06 5  297 193 
 VIL  SZ I         137 59.25       153.5 0.62                           297 193 
 GUY  SZ EP   1    137 20.52                             111    0.53 5  303 237 
 GUY  SE ES   1    137 53.60                             111   -0.31 5  303 237 
 GUY  SZ I         138  0.50       496.3 0.32                           303 237 
 RREF HZ EP   1    137 22.37                             109    0.19 5  321 231 
 RREF HE ES   1    137 57.84                             109    0.02 5  321 231 
 RREF HZ I         138  7.71       222.4 0.30                           321 231 
 TOL  SZ EP   1    137 25.01                             108    0.77 5  342 226 
 DBB  SZ EP        137 24.21                             108   -0.04 7  344 275 
 ANIL HZ EP   1    137 25.90                             107    0.10 5  355 226 
 ANIL HE ES   2    138  4.37                             107    0.12 3  355 226 
 COD  HZ EP   2    137 25.61                             107    0.14 3  356 354 
 SDV  BZ EP        137 25.50                             107   -0.92 6  362  49 
 SDV  BZ I         138  7.45       193.0 0.45                           362  49 
 PRA  HZ EP        137 28.72                             105   -0.58 6  388 211 
 SJA  SZ EP        137 29.68                             105   -0.43 6  394 194 
 SJA  SZ I         138 16.42       262.1 0.28                           394 194 
                                                                                
