 2010  810 0810 12.5 L   6.726 -73.100150.5  RSN  4 0.4 1.6LRSN                1
 GAP=197        1.06      10.3    15.4 13.3 -0.8423E+02 -0.8661E+02  0.2840E+02E
 Epicentro: JORDAN - SANTANDER                                                 3
 ACTION:UP  10-09-07 10:53 OP:vdl  STATUS:               ID:20100810081012 L   I
 2010-08-10-0808-12S.COL___125                                                 6
 STAT SP IPHASW D HRMM SECON CODA AMPLIT PERI AZIMU VELO SNR AR TRES W  DIS CAZ7
 BAR2 SZ EP        810 32.62                             173     0.110   18 212 
 BAR2 SZ I         810 33.08         6.2 0.14                            18 212 
 BAR2 SZ ES   2    810 48.13                                    -0.1 5   18 212 
 BRR  HZ EP   1    810 34.35                             152    -0.3 7   80 302 
 BRR  HZ I         810 34.63        14.1 0.34                            80 302 
 BRR  HE ES   1    810 52.06                             152     0.2 7   80 302 
 GUE  SZ EP        810 37.64                             139    -0.510  124   9 
 GUE  SZ I         811  0.75         2.2 0.16                           124   9 
 GRA  SZ IP        810 39.32                             137     0.710  132  14 
 GRA  SZ ES        810 59.01                             137    -0.110  132  14 
 GRA  SZ I         811  2.02         8.6 0.36                           132  14 
                                                                                
