 2015  610 0805  3.6 L   6.779 -73.197142.9  RSN  6 0.4 1.4LRSN                1
 GAP=196        0.91       3.7     6.1  6.1  0.8957E+01  0.5280E+01 -0.4561E+01E
 Epicentro: ZAPATOCA - SANTANDER                                               3
 ACTION:UPD 15-09-10 22:11 OP:cam  STATUS:               ID:20150610080503 L   I
 OLDACT:DUP 15-06-10 18:35 OP:drio STATUS:               ID:20150610075751d    3
 2015-06-10-0757-50M.COL___285                                                 6
 STAT SP IPHASW D HRMM SECON CODA AMPLIT PERI AZIMU VELO AIN AR TRES W  DIS CAZ7
 BAR2 EZ EP        8 5 22.53                             171   -0.3310 20.7 176 
 BAR2 EZ ES        8 5 37.45                             171   -0.4110 20.7 176 
 BAR2 EZ I         8 5 40.21         5.5 0.26            169           20.7 176 
 BRR  HZ EP        8 5 24.54                             153    0.2810 67.5 303 
 BRR  HE ES        8 5 40.82                             153    0.4710 67.5 303 
 BRR  HZ I         8 5 45.44         4.6 0.40            149           67.5 303 
 RUS  HZ EP        8 5 27.11                             144    0.1410 98.8 173 
 RUS  HE ES        8 5 45.29                             144    0.1210 98.8 173 
 RUS  HZ I         8 5 46.20         3.1 0.28            147           98.8 173 
 SPBC HZ EP        8 5 31.68                             129    0.28 9  158 218 
 SPBC HE ES        8 5 52.93                             129   -0.13 9  158 218 
 SPBC HZ I         8 5 59.48         5.1 0.34            130            158 218 
 ZAR  HZ EP        8 5 35.71                             122    0.27 9  200 293 
 ZAR  HE ES        8 5 59.69                             122   -0.56 9  200 293 
 ZAR  HZ I         8 6  6.62         2.1 0.28            122            200 293 
 SML  HZ EP        8 5 39.41                             117   -0.66 8  244 337 
 SML  HN ES        8 6  8.88                             117    0.38 8  244 337 
 SML  HZ I         8 6 14.05         3.2 0.10            118            244 337 
                                                                                
