 2011 1210 0240 14.6 L   6.759 -73.120143.3  RSN  6 0.3 1.7LRSN                1
 GAP=142        0.57       3.9     5.8  6.5 -0.4717E+01  0.4452E+01  0.3531E+01E
 Epicentro: LOS SANTOS - SANTANDER                                             3
 ACTION:UPD 12-07-13 16:15 OP:ep   STATUS:               ID:20111210024014 L   I
 2011-12-10-0240-00M.COL___186                                                 6
 STAT SP IPHASW D HRMM SECON CODA AMPLIT PERI AZIMU VELO AIN AR TRES W  DIS CAZ7
 BAR2 SZ EP   1    240 33.40                             172   -0.49 7 19.7 200 
 BAR2 SZ ES   1    240 48.88                             172   -0.03 7 19.7 200 
 BAR2 SZ I         240 50.46        20.7 0.12                          19.7 200 
 BRR  HZ EP   1    240 35.57                             150   -0.21 7 75.9 301 
 BRR  HN ES   2    240 52.85                             150    0.57 5 75.9 301 
 BRR  HZ I         240 54.15        10.4 0.14                          75.9 301 
 PAM  SZ EP   1    240 36.84                             150    0.15 7 79.2  36 
 PAM  SN ES   2    240 54.05                             150    0.15 5 79.2  36 
 RUS  HZ EP   1    240 38.13                             145    0.33 7 95.9 178 
 RUS  HN ES   2    240 55.44                             145   -0.43 5 95.9 178 
 RUS  HZ I         240 57.74         4.7 0.29                          95.9 178 
 CHI  HN ES   1    241 21.07                             117    0.28 6  245 196 
 HEL  HE ES   2    241 26.14                             114   -0.18 4  274 257 
                                                                                
