 2010 1110 0417 41.1 L   6.832 -73.102141.5  RSN  5 0.2 1.9LRSN                1
 GAP=163        0.71       3.7     9.1  9.0  0.6181E+01 -0.4841E+02 -0.8697E+01E
 Epicentro: LOS SANTOS - SANTANDER                                             3
 ACTION:UP  10-12-17 16:51 OP:REBC STATUS:               ID:20101110041741 L   I
 2010-11-10-0414-55S.COL___128                                                 6
 STAT SP IPHASW D HRMM SECON CODA AMPLIT PERI AZIMU VELO SNR AR TRES W  DIS CAZ7
 BRR  HZ EP        418  1.95                             151     0.010   74 294 
 BRR  HN ES        418 18.27                             151     0.110   74 294 
 BRR  HZ I         418 23.10        21.6 0.51                            74 294 
 RUS  HZ EP   1    418  4.51                             142    -0.2 7  104 179 
 RUS  HN ES   1    418 22.94                             142    -0.1 7  104 179 
 RUS  HZ I         418 24.66         5.0 0.70                           104 179 
 GRA  SZ EP        418  5.99                             137     0.410  121  16 
 GRA  SZ I         418  7.15        10.3 0.42                           121  16 
 OCA  SZ EP        418  8.48                             129    -0.3 9  157 351 
 OCA  SZ ES   1    418 30.20                             129    -0.2 7  157 351 
 OCA  SZ I         418 33.50         9.3 0.42                           157 351 
 PRA  HN ES   2    419 17.58                             106     0.3 3  397 210 
 PRA  HZ I         419 20.87         8.7 0.57                           397 210 
                                                                                
