 2017 1010 0448  5.8 L   6.805 -73.111148.0  RSN  5 0.2 1.5LRSN                1
 GAP=141        0.60       2.7     3.5  5.9 -0.1342E+01  0.9421E+01 -0.1355E+01E
 Epicentro: LOS SANTOS - SANTANDER                                             3
 ACTION:UPD 17-11-07 19:30 OP:rebc STATUS:               ID:20171010044805 L   I
 OLDACT:UP  17-10-10 16:55 OP:leo  STATUS:               ID:20171010042642     3
 OLDACT:REG 17-10-10 13:45 OP:y    STATUS:               ID:20171010042642     3
 2017-10-10-0438-00M.COL___426                                                 6
 STAT SP IPHASW D HRMM SECON CODA AMPLIT PERI AZIMU VELO AIN AR TRES W  DIS CAZ7
 BAR2 EZ EP        448 25.64                             170   -0.1210 24.8 198 
 BAR2 EZ I         448 49.53         6.1 0.54            170           24.8 198 
 PAM  EZ EP        448 28.06                             152   -0.0610 74.6  38 
 PAM  EN ES        448 45.52                             152    0.0110 74.6  38 
 PAM  EZ I         448 46.07         3.7 0.34            148           74.6  38 
 RUS  HZ EP        448 29.63                             144   -0.2010  101 178 
 RUS  HN ES        448 48.84                             144    0.3010  101 178 
 RUS  HZ I         448 49.47         2.9 0.30            142            101 178 
 SPBC HZ EP        448 34.66                             129   -0.11 9  166 220 
 SPBC HN ES        448 57.23                             129   -0.11 9  166 220 
 SPBC HZ I         448 59.16         5.3 0.10            126            166 220 
 ZAR  HZ EP        448 39.30                             122    0.54 8  207 292 
 ZAR  HN ES        449  4.27                             122   -0.18 8  207 292 
 ZAR  HZ I         449  9.50         3.1 0.28            119            207 292 
                                                                                
