 2016  610 0408 53.2 L   6.794 -73.073145.7  RSN 12 0.4 2.0LRSN                1
 GAP=146        0.91       3.1     5.0  4.7 -0.4904E+01  0.1156E+00  0.2192E+01E
 Epicentro: LOS SANTOS - SANTANDER                                             3
 ACTION:UPD 16-07-21 22:17 OP:rebc STATUS:               ID:20160610040853 L   I
 OLDACT:UP  16-06-10 16:10 OP:dani STATUS:               ID:20160610035744d    3
 OLDACT:DUP 16-06-10 16:02 OP:dani STATUS:               ID:20160610035744d    3
 OLDACT:UP  16-06-10 16:01 OP:dani STATUS:               ID:20160610035743     3
 OLDACT:UP  16-06-10 15:59 OP:dani STATUS:               ID:20160610035743     3
 OLDACT:REG 16-06-10 12:55 OP:dani STATUS:               ID:20160610035743     3
 2016-06-10-0357-43M.COL___337                                                 6
 STAT SP IPHASW D HRMM SECON CODA AMPLIT PERI AZIMU VELO AIN AR TRES W  DIS CAZ7
 BAR2 EZ EP     C  4 9 12.74                             170   -0.1810 25.4 208 
 BAR2 EZ ES        4 9 27.73                             170   -0.5310 25.4 208 
 BAR2 EZ I         4 9 30.78        20.5 0.28                          25.4 208 
 PAM  EZ EP     C  4 9 15.61                             152    0.4110 73.0  34 
 PAM  EN ES   4    4 9 33.49                             152    1.16 0 73.0  34 
 PAM  EZ I         4 9 35.21        10.5 0.56                          73.0  34 
 BRR  HZ EP     D  4 9 14.52                             150   -0.3110 78.6 296 
 BRR  HN ES        4 9 32.03                             150    0.3710 78.6 296 
 BRR  HZ I         4 9 35.29         7.1 0.15                          78.6 296 
 RUS  HZ EP        4 9 16.91                             144   -0.0210 99.7 181 
 RUS  HN ES        4 9 35.87                             144    0.4610 99.7 181 
 RUS  HZ I         4 9 37.01        10.2 0.30                          99.7 181 
 PTB  HZ EP   9 D  4 9 19.66                             130   -1.26 0  156 260 
 PTB  HN ES        4 9 40.90                             130   -0.35 9  156 260 
 PTB  HZ I         4 9 46.76         8.9 0.17                           156 260 
 OCA  HZ EP        4 9 21.80                             129    0.08 9  162 350 
 OCA  HN ES        4 9 43.80                             129   -0.13 9  162 350 
 OCA  HZ I         4 9 47.80        20.9 0.41                           162 350 
 SPBC HZ EP        4 9 21.63                             128   -0.56 9  168 221 
 SPBC HN ES        4 9 44.80                             128    0.03 9  168 221 
 SPBC HZ I         4 9 47.61        18.5 0.36                           168 221 
 NOR  HZ EP        4 9 29.14                             118   -0.50 8  241 236 
 NOR  HE ES        4 9 58.18                             118    0.15 8  241 236 
 NOR  HZ I         410  0.33         9.2 0.16                           241 236 
 CHI  HZ EP     D  4 9 31.04                             117   -0.08 8  250 197 
 CHI  HE ES   4    410  0.02                             117   -0.64 0  250 197 
 CHI  HZ I         410  5.65         2.7 0.11                           250 197 
 ROSC BZ EP   4    4 9 33.55                             116    1.78 0  256 213 
 ROSC BE ES   4    410  6.06                             116    4.24 0  256 213 
 GUY2CHZ EP        4 9 38.62                             112    1.06 7  307 236 
 GUY2CHE ES   4    410 17.13                             112    5.01 0  307 236 
 GUY2CHZ I         410 19.50         5.2 0.74                           307 236 
 PRA  HZ EP        4 9 47.30                             106    0.13 6  396 211 
 PRA  HE ES   4    410 31.60                             106    2.36 0  396 211 
 PRA  HZ I         410 32.86         3.8 0.24                           396 211 
 ORTC HZ EP        4 9 47.42                             106   -0.25 6  400 217 
 ORTC HN ES        410 30.27                             106    0.15 6  400 217 
 ORTC HZ I         410 36.26         3.7 0.38                           400 217 
                                                                                
