 2017  210 0804 24.1 L   6.697 -73.172140.1  RSN  4 0.4 0.9LRSN                1
 GAP=226        1.06       8.0     7.8  8.5  0.3117E+02  0.9590E+01  0.3280E+01E
 Epicentro: VILLANUEVA - SANTANDER                                             3
 ACTION:UPD 17-05-24 15:34 OP:jn   STATUS:               ID:20170210080424 L   I
 OLDACT:UP  17-02-10 18:31 OP:edw  STATUS:               ID:20170210075748     3
 OLDACT:REG 17-02-10 12:20 OP:edw  STATUS:               ID:20170210075748     3
 2017-02-10-0758-00M.COL___343                                                 6
 STAT SP IPHASW D HRMM SECON CODA AMPLIT PERI AZIMU VELO AIN AR TRES W  DIS CAZ7
 BAR2 EZ EP        8 4 42.44                             175   -0.4110 11.6 186 
 BAR2 EZ ES        8 4 56.92                             175   -0.5710 11.6 186 
 BAR2 EZ I         8 4 57.76         2.1 0.30            167           11.6 186 
 BRR  HZ EP        8 4 45.34                             150    0.4910 75.0 307 
 BRR  HN ES        8 5  1.41                             150    0.3610 75.0 307 
 RUS  HZ EP        8 4 46.68                             146    0.1910 89.5 174 
 RUS  HN ES        8 5  4.38                             146    0.4110 89.5 174 
 RUS  HZ I         8 5  6.38         1.3 0.32            143           89.5 174 
 PTB  HZ EP        8 4 49.69                             132   -0.48 9  143 263 
 PTB  HN ES        8 5 10.46                             132   -0.06 9  143 263 
 PTB  HZ I         8 5 15.63         1.1 0.22            129            143 263 
                                                                                
