 2012  110 0023 19.4 L   6.790 -73.075149.2  RSN 16 0.3 2.4LRSN                1
 GAP=146        0.58       2.1     3.1  3.5 -0.1584E+01  0.3130E+01  0.1087E+01E
 Epicentro: LOS SANTOS - SANTANDER                                             3
 ACTION:UP  12-02-03 08:16 OP:REBC STATUS:               ID:20120110002319 L   I
 2012-01-10-0020-00M.COL___186                                                 6
 STAT SP IPHASW D HRMM SECON CODA AMPLIT PERI AZIMU VELO SNR AR TRES W  DIS CAZ7
 BAR2 SZ EP        023 39.37                             170    -0.110   25 209 
 BAR2 SZ ES   1    023 54.59                             170    -0.5 7   25 209 
 BAR2 SZ I         023 57.05        59.1 0.25                            25 209 
 GIR2 SZ EP        023 39.45                             166    -0.110   35 338 
 GIR2 SZ ES   2    023 55.63                             166     0.4 5   35 338 
 PAM  SZ EP        023 42.10                             153     0.410   74  34 
 PAM  SE ES   1    023 59.23                             153     0.1 7   74  34 
 BRR  HZ IP        023 41.22                             151    -0.110   79 297 
 BRR  HZ I         023 41.52       104.0 0.23                            79 297 
 BRR  HE ES   1    023 58.72                             151     0.3 7   79 297 
 RUS  HZ EP        023 43.15                             145    -0.210   99 181 
 RUS  HN ES   1    024  2.29                             145     0.2 7   99 181 
 RUS  HZ I         024  3.23        15.1 0.30                            99 181 
 PTB  HE ES   2    024  8.31                             131    -0.8 5  155 260 
 OCA  SZ EP   1    023 48.09                             130    -0.1 7  163 350 
 OCA  SZ ES   1    024 10.71                             130     0.1 7  163 350 
 OCA  SZ I         024 16.66        23.9 0.26                           163 350 
 ZAR  HZ EP   1    023 52.65                             122    -0.2 6  212 292 
 ZAR  HN ES   2    024 18.75                             122    -0.2 4  212 292 
 ZAR  HZ I         024 24.43        23.9 0.46                           212 292 
 NOR  SZ EP        023 55.78                             118    -0.1 8  240 236 
 NOR  SE ES   2    024 24.44                             118     0.0 4  240 236 
 CHI  HZ EP        023 57.30                             118    -0.1 8  250 197 
 CHI  HE ES   1    024 26.95                             118    -0.1 6  250 197 
 CHI  HZ I         024 36.22         9.6 0.52                           250 197 
 HEL  HZ EP   1    024  1.20                             115     0.6 6  279 256 
 HEL  HN ES   2    024 33.01                             115     0.3 4  279 256 
 HEL  HZ I         024 38.01        14.0 0.31                           279 256 
 GUY  SZ EP   2    024  4.31                             112     0.3 4  309 236 
 GUY  SN ES   2    024 39.00                             112     0.1 4  309 236 
 GUY  SZ I         024 47.23        16.0 0.27                           309 236 
 RREF HZ EP   1    024  6.24                             111     0.0 5  327 230 
 RREF HN ES   1    024 42.90                             111     0.1 5  327 230 
 RREF HZ I         024 51.50        11.1 0.44                           327 230 
 TOL  SZ EP   2    024  8.95                             110     0.7 3  348 226 
 TOL  SZ ES   2    024 46.36                             110    -0.1 3  348 226 
 COD  HZ EP   1    024  7.35                             109    -0.7 5  350 353 
 COD  HN ES   2    024 45.91                             109    -0.2 3  350 353 
 COD  HZ I         025  2.74        22.1 0.69                           350 353 
 PRA  HZ EP   1    024 13.74                             107     0.4 4  395 211 
 PRA  HE ES   2    024 55.73                             107     0.3 3  395 211 
                                                                                
