 2017  810 0612 58.8 L   6.798 -73.110130.5  RSN  8 0.5 1.3LRSN                1
 GAP=141        1.12       4.4     5.4  6.8 -0.1764E+00  0.1389E+02  0.2632E+01E
 Epicentro: LOS SANTOS - SANTANDER                                             3
 ACTION:UPD 17-09-04 20:18 OP:rebc STATUS:               ID:20170810061258 L   I
 OLDACT:REG 17-08-10 12:34 OP:dhb  STATUS:               ID:20170810060738     3
 2017-08-10-0608-00M.COL___396                                                 6
 STAT SP IPHASW D HRMM SECON CODA AMPLIT PERI AZIMU VELO AIN AR TRES W  DIS CAZ7
 BAR2 EZ EP        613 16.22                             169   -0.3810 24.1 199 
 BAR2 EZ ES        613 30.04                             169   -0.4510 24.1 199 
 BAR2 EZ I         613 32.21         4.6 0.28            168           24.1 199 
 BRR  HZ EP        613 18.07                             148   -0.4610 74.8 297 
 BRR  HN ES        613 34.65                             148    0.7210 74.8 297 
 BRR  HZ I         613 40.26         6.8 0.49            149           74.8 297 
 PAM  EZ IP     C  613 19.12                             149   -0.1310 75.1  37 
 PAM  EN ES        613 35.60                             149    0.3810 75.1  37 
 PAM  EZ I         613 38.50         4.3 0.42            154           75.1  37 
 RUS  HZ EP        613 20.77                             141   -0.2610  100 178 
 RUS  HN ES        613 38.52                             141    0.1410  100 178 
 RUS  HZ I         613 40.23         1.6 0.22            145            100 178 
 SPBC HZ EP        613 26.92                             125    0.53 9  165 220 
 SPBC HN ES        613 47.91                             125   -0.01 9  165 220 
 SPBC HZ I         613 55.38         2.5 0.19            128            165 220 
 ZAR  HZ EP        613 30.93                             118    0.25 8  208 292 
 ZAR  HE ES        613 54.91                             118   -0.65 8  208 292 
 ZAR  HZ I         613 59.90         3.1 0.11            121            208 292 
 GUY2CHZ EP        613 43.00                             109    0.91 7  304 235 
 GUY2CHZ I         614 22.53         1.1 0.48                           304 235 
 CBOC HZ EP        613 45.14                             107   -0.40 7  337 252 
 CBOC HN ES   4    614 18.19                             107   -3.82 0  337 252 
 CBOC HZ I         614 20.11         0.4 0.18            110            337 252 
                                                                                
