 2015  410 0857 58.0 L   6.850 -73.308127.2  RSN  8 0.5 2.0LRSN                1
 GAP=103        1.21       3.8     5.5  7.9  0.1013E+00  0.1647E+02 -0.3881E+00E
 Epicentro: ZAPATOCA - SANTANDER                                               3
 ACTION:UPD 15-06-03 16:53 OP:cam  STATUS:               ID:20150410085758 L   I
 OLDACT:DUP 15-04-10 14:09 OP:carl STATUS:               ID:20150410084753d    3
 2015-04-10-0847-50M.COL___263                                                 6
 STAT SP IPHASW D HRMM SECON CODA AMPLIT PERI AZIMU VELO AIN AR TRES W  DIS CAZ7
 BAR2 EZ EP        858 15.91                             165    0.3210 31.8 154 
 BAR2 EZ ES        858 29.01                             165   -0.3310 31.8 154 
 BAR2 EZ I         858 30.19        58.2 0.46            166           31.8 154 
 BRR  HZ EP        858 16.24                             156    0.1510 52.9 302 
 BRR  HN ES        858 30.28                             156    0.0410 52.9 302 
 BRR  HZ I         858 31.24        16.1 0.10            154           52.9 302 
 PAM  SN ES        858 35.97                             144    0.8310 86.3  51 
 RUS  HZ EP        858 20.80                             137    0.2010  109 167 
 RUS  HN ES        858 37.66                             137   -0.6010  109 167 
 PTB  HZ EP        858 21.15                             131   -0.7910  132 255 
 PTB  HN ES   4    858 38.24                             131   -2.41 0  132 255 
 PTB  HZ I         858 43.40        11.8 0.40            130            132 255 
 OCA  HZ EP        858 24.08                             126   -0.15 9  154 360 
 OCA  HN ES        858 43.88                             126   -0.84 9  154 360 
 OCA  HZ I         858 45.00        17.1 0.26            128            154 360 
 SPBC HZ EP        858 24.62                             126    0.12 9  157 213 
 SPBC HN ES        858 45.57                             126    0.36 9  157 213 
 SPBC HZ I         858 50.49         9.2 0.16            125            157 213 
 ZAR  HZ EP        858 27.53                             121    0.26 9  185 293 
 ZAR  HN ES        858 50.56                             121    0.43 9  185 293 
 ZAR  HZ I         858 53.39         9.3 0.28            121            185 293 
                                                                                
