 2017 1210 0949 13.1 L   6.824 -73.167146.3  RSN  8 0.4 1.6LRSN                1
 GAP=109        0.74       2.6     2.9  5.7  0.5645E+00  0.4054E+01  0.4491E+01E
 Epicentro: LOS SANTOS - SANTANDER                                             3
 ACTION:UPD 18-01-04 13:18 OP:rebc STATUS:               ID:20171210094913 L   I
 OLDACT:UP  17-12-10 17:44 OP:dnl  STATUS:               ID:20171210094735     3
 OLDACT:REG 17-12-10 13:16 OP:lv   STATUS:               ID:20171210094735     3
 2017-12-10-0948-00M.COL___460                                                 6
 STAT SP IPHASW D HRMM SECON CODA AMPLIT PERI AZIMU VELO AIN AR TRES W  DIS CAZ7
 BAR2 EZ IP     C  949 32.80                             170   -0.0510 25.7 184 
 BAR2 EZ ES        949 48.42                             170    0.1710 25.7 184 
 BAR2 EZ I         949 48.83        10.9 0.34            171           25.7 184 
 PAM  EZ EP        949 35.73                             151    0.3810 76.9  42 
 PAM  EN ES        949 52.73                             151    0.0310 76.9  42 
 PAM  EZ I         949 55.24         4.6 0.48            151           76.9  42 
 PTB  HZ EP        949 39.49                             132   -0.47 9  146 258 
 PTB  HN ES        950  0.64                             132   -0.27 9  146 258 
 PTB  HZ I         950  2.40         2.8 0.12            132            146 258 
 OCA  HZ EP   3    949 42.62                             130    1.43 2  157 354 
 OCA  HE ES        950  2.70                             130   -0.39 9  157 354 
 OCA  HZ I         950  7.11        15.6 0.54            130            157 354 
 YPLC HZ EP        949 43.39                             126    0.11 9  180 151 
 YPLC HN ES        950  6.61                             126   -0.20 9  180 151 
 YPLC HZ I         950  9.81         4.2 0.34            127            180 151 
 ZAR  HZ EP   2    949 44.59                             123   -0.67 4  201 292 
 ZAR  HN ES        950 10.81                             123    0.46 9  201 292 
 ZAR  HZ I         950 16.30         6.0 0.50            123            201 292 
 CHI  HZ EP   2    949 50.93                             117   -0.12 4  251 194 
 CHI  HE ES        950 20.66                             117    0.02 8  251 194 
 CHI  HZ I         950 22.75         2.2 0.32            117            251 194 
 GUY2CHZ EP   4    949 59.15                             112    2.45 0  301 234 
 GUY2CHN ES        950 31.19                             112    0.48 7  301 234 
 GUY2CHZ I         950 40.67         1.2 0.24                           301 234 
                                                                                
