 2012  510 0128 52.8 L   6.707 -73.218155.6  RSN  4 0.1 1.4LRSN                1
 GAP=222        0.35       4.4     4.4  4.9  0.1261E+02 -0.2105E+00  0.1780E+01E
 Epicentro: VILLANUEVA - SANTANDER                                             3
 ACTION:UP  12-07-05 12:03 OP:pat  STATUS:               ID:20120510012852 L   I
 2012-05-10-0124-36M.COL___190                                                 6
 STAT SP IPHASW D HRMM SECON CODA AMPLIT PERI AZIMU VELO SNR AR TRES W  DIS CAZ7
 BRR  HZ EP        129 14.90                             154    -0.110   70 309 
 BRR  HE ES   1    129 32.39                             154     0.1 7   70 309 
 BRR  HZ I         129 33.73         6.1 0.33                            70 309 
 RUS  HZ EP   1    129 16.98                             148     0.1 7   91 171 
 RUS  HN ES   2    129 35.60                             148    -0.1 5   91 171 
 RUS  HZ I         129 37.14         2.1 0.31                            91 171 
 PTB  HZ EP   1    129 19.91                             136     0.1 7  138 262 
 PTB  HE ES   2    129 40.83                             136     0.0 5  138 262 
 ZAR  HN ES   1    129 51.06                             125    -0.1 6  201 296 
 ZAR  HZ I         129 56.55         2.8 0.29                           201 296 
                                                                                
