 2010  110 0616 52.1 L   6.792 -73.295133.7  RSN  5 0.3 1.3LRSN                1
 GAP=168        0.55       3.1    22.2  9.1  0.5590E+01  0.1133E+03 -0.3405E+01E
 Epicentro: ZAPATOCA - SANTANDER                                               3
 ACTION:UP  10-08-24 09:43 OP:vdl  STATUS:               ID:20100110061653dL   I
 2010-01-10-0616-51S.COL___097                                                 6
 STAT SP IPHASW D HRMM SECON CODA AMPLIT PERI AZIMU VELO SNR AR TRES W  DIS CAZ7
 BAR2 SZ ES   2    617 24.65                             168     0.1 5   25 151 
 GIR2 SZ EP   3    617 10.66                             165     0.2 3   34  19 
 RUS  BZ EP        617 15.09                             140     0.210  102 167 
 RUS  BZ I         617 15.92         1.8 0.21                           102 167 
 RUS  BN ES   2    617 32.07                             140    -0.5 5  102 167 
 OCA  SZ EP        617 19.28                             127    -0.2 9  160 359 
 OCA  SZ ES   2    617 41.26                             127     0.4 5  160 359 
 OCA  SZ I         617 45.31         8.7 0.13                           160 359 
 CHI  HZ EP   2    617 28.61                             115    -0.1 4  244 191 
 CHI  HN ES   2    617 57.05                             115    -0.1 4  244 191 
 CHI  HZ I         617 58.92         0.7 0.57                           244 191 
                                                                                
