 2015  210 0434 55.4 L   6.733 -73.229135.7  RSN  5 0.5 0.9LRSN                1
 GAP=214        1.18       6.6     7.0  9.9  0.1029E+02  0.8172E+01  0.5040E+01E
 Epicentro: VILLANUEVA - SANTANDER                                             3
 ACTION:UPD 15-04-30 21:24 OP:nd   STATUS:               ID:20150210043455 L   I
 OLDACT:REG 15-02-10 12:56 OP:fm   STATUS:               ID:20150210042750     3
 2015-02-10-0427-50M.COL___281                                                 6
 STAT SP IPHASW D HRMM SECON CODA AMPLIT PERI AZIMU VELO AIN AR TRES W  DIS CAZ7
 BAR2 EZ EP        435 13.56                             173   -0.1710 16.4 162 
 BAR2 EZ ES        435 27.48                             173   -0.5210 16.4 162 
 BAR2 EZ I         435 29.85         2.5 0.22            168           16.4 162 
 BRR  HZ EP        435 15.40                             152    0.1110 67.5 308 
 BRR  HN ES        435 31.52                             152    0.7410 67.5 308 
 BRR  HZ I         435 32.83         2.2 0.32            152           67.5 308 
 RUS  HZ EP        435 17.83                             143    0.0810 94.3 170 
 RUS  HE ES        435 35.20                             143    0.0410 94.3 170 
 RUS  HZ I         435 37.94         0.8 0.30            143           94.3 170 
 PTB  HZ EP   1    435 20.42                             132   -0.23 7  137 261 
 PTB  HN ES        435 39.53                             132   -0.78 9  137 261 
 PTB  HZ I         435 44.37         1.1 0.16            131            137 261 
 SPBC HN ES        435 43.47                             129    0.62 9  152 218 
 SPBC HZ I         435 49.37         1.8 0.28            128            152 218 
                                                                                
