 2016 1210 0720 30.4 L   6.773 -73.240151.7  RSN  4 0.2 0.7LRSN                1
 GAP=217        0.51       4.6     3.8  4.3  0.9317E+01  0.2823E+01  0.4039E+01E
 Epicentro: ZAPATOCA - SANTANDER                                               3
 ACTION:UPD 17-01-11 20:13 OP:rebc STATUS:               ID:20161210072030 L   I
 OLDACT:REG 16-12-10 13:17 OP:lv   STATUS:               ID:20161210071744     3
 2016-12-10-0718-00M.COL___367                                                 6
 STAT SP IPHASW D HRMM SECON CODA AMPLIT PERI AZIMU VELO AIN AR TRES W  DIS CAZ7
 BAR2 EZ EP        720 50.52                             172   -0.1910 20.9 162 
 BAR2 EZ ES        721  6.53                             172   -0.0210 20.9 162 
 BRR  HN ES        721  8.62                             156    0.0910 63.9 305 
 RUS  HZ EP        720 54.96                             145    0.3310 98.8 170 
 RUS  HN ES        721 13.41                             145   -0.1110 98.8 170 
 RUS  HZ I         721 14.30         0.8 0.40            144           98.8 170 
 PTB  HZ EP        720 56.75                             136   -0.17 9  137 259 
 PTB  HN ES        721 17.66                             136    0.05 9  137 259 
 PTB  HZ I         721 20.79         0.8 0.11            134            137 259 
                                                                                
