 2014 1210 0137 54.1 L   6.833 -73.181144.8  RSN 17 0.4 2.0LRSN                1
 GAP=131        1.03       2.5     3.7  5.5 -0.1146E+01  0.8636E+01  0.9856E+00E
 Epicentro: ZAPATOCA - SANTANDER                                               3
 ACTION:UPD 15-02-10 17:02 OP:nd   STATUS:               ID:20141210013754 L   I
 OLDACT:REG 14-12-10 13:02 OP:fm   STATUS:               ID:20141210012745     3
 2014-12-10-0127-45M.COL___309                                                 6
 STAT SP IPHASW D HRMM SECON CODA AMPLIT PERI AZIMU VELO AIN AR TRES W  DIS CAZ7
 BAR2 E  EP        138 14.01                             169    0.3110 26.6 180 
 BAR2 E  ES        138 29.65                             169    0.6710 26.6 180 
 PAM  SZ EP        138 16.90                             151    0.6810 77.2  43 
 PAM  SN ES        138 33.48                             151    0.0210 77.2  43 
 PAM  SZ I         138 36.50        14.5 0.32            152           77.2  43 
 RUS  HZ EP        138 18.03                             142   -0.0310  105 174 
 RUS  HN ES        138 35.91                             142   -0.8410  105 174 
 RUS  HZ I         138 37.75         7.7 0.22            141            105 174 
 PTB  HZ EP        138 20.87                             132    0.14 9  145 257 
 PTB  HE ES        138 41.56                             132    0.06 9  145 257 
 PTB  HZ I         138 43.93        13.6 0.16            128            145 257 
 OCA  HE ES        138 43.11                             130   -0.60 9  156 354 
 OCA  HZ I         138 47.60        10.8 0.32            127            156 354 
 SPBC HZ EP        138 22.66                             129    0.07 9  164 217 
 SPBC HE ES        138 44.28                             129   -0.52 9  164 217 
 SPBC HZ I         138 53.77        20.1 0.36            125            164 217 
 ZAR  HZ EP        138 25.42                             123   -0.57 9  199 292 
 ZAR  HE ES        138 51.00                             123    0.14 9  199 292 
 ZAR  HZ I         138 57.25        12.1 0.38            119            199 292 
 NOR  HZ EP        138 30.06                             118    0.37 8  234 233 
 NOR  HE ES        138 57.43                             118   -0.00 8  234 233 
 NOR  HZ I         139  6.10         6.3 0.36            115            234 233 
 SML  HZ EP        138 29.81                             118   -0.35 8  239 336 
 SML  HN ES        138 58.63                             118    0.36 8  239 336 
 SML  HZ I         139  8.75        13.1 0.10            115            239 336 
 CHI  HZ EP        138 31.82                             117   -0.22 8  251 194 
 CHI  HN ES        139  1.16                             117   -0.46 8  251 194 
 CHI  HZ I         139  6.96         6.6 0.34            114            251 194 
 HEL  HZ EP        138 33.81                             115   -0.16 8  269 255 
 HEL  HN ES        139  4.92                             115   -0.13 8  269 255 
 HEL  HZ I         139 12.18         6.4 0.28            112            269 255 
 GUY2CHZ EP        138 38.08                             112    0.51 7  300 234 
 GUY2CHE ES        139 12.48                             112    1.02 7  300 234 
 GUY2CHZ I         139 20.54         5.7 0.58                           300 234 
 RREF HZ EP        138 40.72                             111    0.56 7  321 228 
 RREF HE ES   4    139 19.18                             111    3.11 0  321 228 
 RREF HZ I         139 26.09         6.3 0.44            108            321 228 
 CBOC HZ EP   4    138 41.66                             110    0.96 0  331 251 
 CBOC HZ I         139 23.69         1.8 0.34            107            331 251 
 TOL  SZ EP        138 42.15                             109   -0.17 7  343 224 
 TOL  SE ES        139 19.94                             109    0.02 7  343 224 
 TOL  SZ I         139 30.30        11.5 0.48            107            343 224 
 MON  HZ EP   4    138 41.20                             109   -1.27 0  348 308 
 MON  HE ES        139 19.35                             109   -0.83 6  348 308 
 MON  HZ I         139 21.91         2.2 0.34            106            348 308 
 ORTC HZ EP        138 47.77                             106   -0.31 6  396 215 
 ORTC HN ES        139 30.20                             106    0.02 6  396 215 
 ORTC HZ I         139 35.51         4.3 0.28            104            396 215 
                                                                                
