 2016 1010 0900 57.2 L   6.765 -73.187130.0  RSN  7 0.4 1.4LRSN                1
 GAP=133        1.01       4.2     4.2  7.2 -0.3164E+01  0.1109E+02 -0.4662E+01E
 Epicentro: LOS SANTOS - SANTANDER                                             3
 ACTION:UPD 16-11-09 19:18 OP:rebc STATUS:               ID:20161010090057 L   I
 OLDACT:UP  16-10-10 19:06 OP:lv   STATUS:               ID:20161010085743     3
 OLDACT:REG 16-10-10 13:32 OP:ar   STATUS:               ID:20161010085743     3
 2016-10-10-0858-00M.COL___354                                                 6
 STAT SP IPHASW D HRMM SECON CODA AMPLIT PERI AZIMU VELO AIN AR TRES W  DIS CAZ7
 BAR2 EZ EP        9 1 14.75                             171   -0.0710 19.1 179 
 BAR2 EZ ES        9 1 28.80                             171    0.2210 19.1 179 
 BAR2 EZ I         9 1 30.31         6.5 0.20            172           19.1 179 
 PAM  EZ EP        9 1 17.76                             146   -0.3610 83.2  40 
 PAM  EN ES        9 1 34.56                             146    0.0910 83.2  40 
 PAM  EZ I         9 1 36.11         3.6 0.18            149           83.2  40 
 RUS  HZ EP        9 1 19.47                             141    0.3310 97.2 173 
 RUS  HN ES        9 1 36.24                             141   -0.0410 97.2 173 
 RUS  HZ I         9 1 38.31         2.1 0.27            145           97.2 173 
 PTB  HZ EP        9 1 21.80                             129   -0.60 9  143 260 
 PTB  HN ES        9 1 41.52                             129   -0.57 9  143 260 
 PTB  HZ I         9 1 44.66         3.8 0.11            130            143 260 
 SPBC HZ EP        9 1 24.49                             126    0.56 9  157 219 
 SPBC HE ES        9 1 44.57                             126   -0.23 9  157 219 
 SPBC HZ I         9 1 48.93         3.4 0.09            128            157 219 
 ZAR  HZ EP        9 1 28.46                             119    0.11 9  201 294 
 ZAR  HN ES        9 1 53.34                             119    0.67 9  201 294 
 ZAR  HZ I         9 2  1.39         2.9 0.15            120            201 294 
 GUY2CHZ EP   9    9 1 40.95                             110    1.54 0  295 235 
 GUY2CHN ES        9 2 14.56                                    0.66 7  295 235 
 GUY2CHZ I         9 2 20.13         1.6 0.30                           295 235 
                                                                                
