 2017  110 0053 52.6 L   6.753 -73.123156.4  RSN  5 0.3 1.2LRSN                1
 GAP=142        0.80       4.6     4.4  7.0 -0.2353E+01  0.2521E+01  0.3502E+01E
 Epicentro: LOS SANTOS - SANTANDER                                             3
 ACTION:UPD 17-05-22 15:57 OP:jn   STATUS:               ID:20170110005352 L   I
 OLDACT:UP  17-01-10 13:19 OP:and  STATUS:               ID:20170110004748     3
 OLDACT:REG 17-01-10 12:21 OP:and  STATUS:               ID:20170110004748     3
 2017-01-10-0048-00M.COL___354                                                 6
 STAT SP IPHASW D HRMM SECON CODA AMPLIT PERI AZIMU VELO AIN AR TRES W  DIS CAZ7
 BRR  HZ EP        054 15.52                             153    0.3610 75.9 301 
 BRR  HN ES        054 33.15                             153    0.3910 75.9 301 
 BRR  HZ I         054 34.32         3.4 0.26            154           75.9 301 
 PAM  EZ EP        054 16.23                             152    0.1310 79.9  36 
 PAM  EN ES        054 34.00                             152   -0.4310 79.9  36 
 PAM  EZ I         054 41.57         1.2 0.18            154           79.9  36 
 RUS  HZ EP        054 16.96                             147   -0.0910 95.3 177 
 RUS  HN ES        054 36.29                             147    0.1710 95.3 177 
 RUS  HZ I         054 38.07         2.5 0.24            152           95.3 177 
 PTB  HZ EP        054 20.40                             134   -0.19 9  149 261 
 PTB  HN ES        054 42.00                             134   -0.42 9  149 261 
 PTB  HZ I         054 48.91         2.7 0.50            137            149 261 
 GUY2CHZ EP   4    054 38.46                             114    1.84 0  300 236 
 GUY2CHN ES   4    055 13.77                             114    2.82 0  300 236 
 GUY2CHZ I         055 19.28         0.9 0.28                           300 236 
                                                                                
