 2013  110 0129  1.4 L   6.157 -73.315  5.0  RSN  7 0.4 1.9LRSN                1
 GAP=122        1.02       2.3     3.0  6.0  0.3402E+01  0.1023E+02  0.6738E+01E
 Epicentro: OIBA - SANTANDER                                                   3
 ACTION:UPD 13-02-15 09:13 OP:ep   STATUS:               ID:20130110012901 L   I
 2013-01-10-0126-38M.COL___190                                                 6
 STAT SP IPHASW D HRMM SECON CODA AMPLIT PERI AZIMU VELO AIN AR TRES W  DIS CAZ7
 RUS  HZ IP     D  129  8.31                              92   -0.1410 38.9 139 
 RUS  HN ES        129 13.51                              92   -0.4010 38.9 139 
 RUS  HN I         129 14.01       113.1 0.48             47           38.9 139 
 BAR2 SZ EP        129 10.06                              91    0.1610 50.2  17 
 BAR2 SZ ES        129 16.40                              91   -0.1010 50.2  17 
 BAR2 SZ I         129 18.95        46.8 0.32             47           50.2  17 
 BRR  HZ EP        129 19.94                              91    0.6510  114 337 
 BRR  HN ES        129 32.82                              91   -0.3910  114 337 
 BRR  HN I         129 40.38        31.1 0.16             47            114 337 
 PTB  HZ EP        129 21.79                              90   -0.4510  133 289 
 PTB  HE ES        129 38.61                              90    0.1510  133 289 
 PTB  HN I         129 41.90        19.5 0.26             47            133 289 
 CHI  HZ EP        129 29.62                              56    0.61 9  175 195 
 CHI  HN ES        129 50.70                              56    0.19 9  175 195 
 CHI  HN I         130  0.11        11.8 0.40             47            175 195 
 ZAR  HZ EP        129 35.30                              56    0.48 8  226 311 
 ZAR  HN ES        130  0.73                              56   -0.13 8  226 311 
 ZAR  HN I         130  2.28        11.7 0.30             37            226 311 
 HEL  HZ EP        129 37.96                              56    0.26 8  245 271 
 HEL  HN ES        130  5.11                              56   -0.86 8  245 271 
 HEL  HN I         130  5.90        11.7 0.28             37            245 271 
                                                                                
