 2014 1210 0606 22.5 L   6.821 -73.173145.9  RSN  9 0.5 1.4LRSN                1
 GAP=132        1.34       6.0     5.7  8.8 -0.8875E+01  0.1542E+02  0.5285E+01E
 Epicentro: ZAPATOCA - SANTANDER                                               3
 ACTION:UPD 15-02-10 17:02 OP:nd   STATUS:               ID:20141210060622 L   I
 OLDACT:REG 14-12-10 13:17 OP:fm   STATUS:               ID:20141210055747     3
 2014-12-10-0557-47M.COL___300                                                 6
 STAT SP IPHASW D HRMM SECON CODA AMPLIT PERI AZIMU VELO AIN AR TRES W  DIS CAZ7
 BAR2 E  EP        6 6 42.50                             170    0.3210 25.3 182 
 BRR  HZ EP        6 6 44.46                             154    1.0110 67.5 298 
 BRR  HN ES        6 7  0.39                             154    0.6010 67.5 298 
 BRR  HZ I         6 7  5.01         4.4 0.36            144           67.5 298 
 PAM  SZ EP        6 6 44.11                             151   -0.6210 77.6  42 
 PAM  SE ES        6 7  1.87                             151   -0.2110 77.6  42 
 PAM  SZ I         6 7  4.75         6.0 0.54            145           77.6  42 
 RUS  HZ EP        6 6 46.80                             143    0.3610  103 174 
 RUS  HE ES        6 7  4.73                             143   -0.3910  103 174 
 RUS  HZ I         6 7  7.94         2.5 0.44            144            103 174 
 PTB  HZ EP        6 6 49.26                             133    0.02 9  145 258 
 PTB  HN ES        6 7  9.52                             133   -0.60 9  145 258 
 PTB  HZ I         6 7 11.63         3.4 0.28            126            145 258 
 SPBC HZ EP        6 6 51.57                             129    0.58 9  163 218 
 SPBC HN ES        6 7 12.78                             129   -0.45 9  163 218 
 SPBC HZ I         6 7 18.51         5.5 0.22            125            163 218 
 ZAR  HZ EP        6 6 53.72                             123   -0.85 9  200 292 
 ZAR  HZ I         6 7 26.83         3.1 0.30            116            200 292 
 HEL  HZ EP        6 7  2.13                             115   -0.32 8  270 255 
 HEL  HN ES        6 7 33.38                             115   -0.24 8  270 255 
 HEL  HZ I         6 7 42.01         1.3 0.36            110            270 255 
 GUY2CHZ EP        6 7  5.74                             112   -0.24 7  300 234 
 GUY2CHE ES        6 7 40.68                             112    0.77 7  300 234 
 GUY2CHZ I         6 7 49.44         1.5 0.62                           300 234 
                                                                                
