 2010  610 0120 59.9 L   6.794 -73.001143.5  RSN  8 0.5 2.4LRSN                1
 GAP=175        0.82       4.3     9.3 11.4 -0.1751E+02  0.4050E+02  0.5648E+01E
 Epicentro: CEPITA - SANTANDER                                                 3
 ACTION:UP  10-08-24 10:09 OP:vdl  STATUS:               ID:20100610012059 L   I
 2010-06-10-0119-26S.COL___111                                                 6
 STAT SP IPHASW D HRMM SECON CODA AMPLIT PERI AZIMU VELO SNR AR TRES W  DIS CAZ7
 RUS  HZ EP   1    121 23.11                             143    -0.2 7  100 185 
 RUS  HN ES   2    121 41.16                             143    -0.5 5  100 185 
 RUS  HZ I         121 42.96        44.3 0.36                           100 185 
 GUE  SZ EP   1    121 24.15                             139    -0.1 7  115   4 
 GUE  SZ ES   2    121 43.63                             139     0.4 5  115   4 
 GRA  SZ EP   1    121 25.19                             137     0.5 7  123  10 
 GRA  SZ ES   2    121 44.68                             137     0.7 5  123  10 
 OCA  SZ EP   1    121 27.81                             128    -0.5 7  164 348 
 OCA  SZ ES   2    121 49.67                             128    -0.8 5  164 348 
 OCA  SZ I         121 51.52        39.5 0.56                           164 348 
 CHI  HZ EP   1    121 37.44                             116    -0.4 6  253 199 
 CHI  HN ES   2    122  7.48                             116     0.0 4  253 199 
 CHI  HZ I         122 10.12        10.4 0.54                           253 199 
 ROSC BZ EP   1    121 39.31                             115     0.6 6  261 214 
 ROSC BN ES   2    122  9.89                             115     0.8 4  261 214 
 ROSC BZ I         122 14.69        13.5 0.39                           261 214 
 HEL  HZ EP   1    121 41.51                             113    -0.2 5  287 257 
 HEL  HN ES   2    122 14.02                             113    -0.3 4  287 257 
 HEL  HZ I         122 18.45        14.8 0.30                           287 257 
 RREF BZ EP   1    121 47.38                             110     0.1 5  334 231 
 RREF BN ES   2    122 24.96                             110     0.7 3  334 231 
 RREF BZ I         122 26.56        14.4 0.29                           334 231 
                                                                                
