 2014  710 0406 53.6 L   6.783 -73.171144.4  RSN  6 0.4 1.5LRSN                1
 GAP=180        1.14       4.5     6.9  8.4  0.9321E+00  0.6414E+01  0.2013E+01E
 Epicentro: LOS SANTOS - SANTANDER                                             3
 ACTION:UPD 15-03-16 20:42 OP:nd   STATUS:               ID:20140710040653 L   I
 OLDACT:DUP 14-07-10 16:36 OP:stll STATUS:               ID:20140710035819d    3
 2014-07-10-0358-17M.COL___262                                                 6
 STAT SP IPHASW D HRMM SECON CODA AMPLIT PERI AZIMU VELO AIN AR TRES W  DIS CAZ7
 BAR2 SZ EP        4 7 12.83                             171   -0.2110 21.2 183 
 BAR2 SZ ES        4 7 27.44                             171   -0.7510 21.2 183 
 BAR2 SZ I         4 7 28.68        12.0 0.30            172           21.2 183 
 BRR  HZ EP        4 7 14.54                             153    0.0110 69.7 301 
 BRR  HN ES        4 7 31.46                             153    0.6110 69.7 301 
 BRR  HZ I         4 7 34.89         5.7 0.12            152           69.7 301 
 RUS  HZ EP        4 7 17.44                             144    0.3210 99.0 174 
 RUS  HN ES        4 7 35.66                             144    0.2110 99.0 174 
 RUS  HZ I         4 7 37.34         2.8 0.18            146           99.0 174 
 PTB  HZ EP        4 7 19.37                             132   -0.82 9  145 259 
 PTB  HN ES        4 7 40.71                             132   -0.21 9  145 259 
 PTB  HZ I         4 7 43.11         4.1 0.42            133            145 259 
 SPBC HZ EP        4 7 21.99                             129    0.28 9  160 219 
 SPBC HN ES        4 7 43.99                             129    0.37 9  160 219 
 SPBC HZ I         4 7 47.03         2.5 0.42            131            160 219 
 OCA  HN ES        4 7 44.29                             129    0.21 9  162 354 
 OCA  HZ I         4 7 46.48         3.7 0.16            131            162 354 
                                                                                
