 2016  710 0714 23.1 L   6.956 -73.476116.1  RSN 13 0.5 2.0LRSN                1
 GAP=137        1.18       4.7     3.7  8.1  0.3261E+01  0.3717E+01 -0.7240E+01E
 Epicentro: SAN VICENTE DE CHUCURI - SANTANDER                                 3
 ACTION:UPD 17-03-29 16:49 OP:lp   STATUS:               ID:20160710071423 L   I
 OLDACT:UP  16-07-10 16:16 OP:dani STATUS:               ID:20160710070740     3
 OLDACT:UP  16-07-10 16:15 OP:dani STATUS:               ID:20160710070740     3
 OLDACT:UP  16-07-10 16:15 OP:dani STATUS:               ID:20160710070740     3
 OLDACT:UP  16-07-10 16:15 OP:dani STATUS:               ID:20160710070740     3
 OLDACT:UP  16-07-10 16:12 OP:dani STATUS:               ID:20160710070740     3
 OLDACT:UP  16-07-10 16:11 OP:dani STATUS:               ID:20160710070740     3
 OLDACT:REG 16-07-10 13:06 OP:dani STATUS:               ID:20160710070740     3
 2016-07-10-0707-40M.COL___313                                                 6
 STAT SP IPHASW D HRMM SECON CODA AMPLIT PERI AZIMU VELO AIN AR TRES W  DIS CAZ7
 BRR  HZ EP        714 39.06                             164   -0.0110 31.0 303 
 BAR2 EZ EP     D  714 40.43                             154    0.1110 51.7 141 
 BAR2 EZ ES        714 53.41                             154   -0.3210 51.7 141 
 BAR2 EZ I         714 54.77        52.3 0.18            152           51.7 141 
 PTB  HZ EP        714 44.10                             131   -0.8510  118 247 
 PTB  HN ES   4    715  0.60                             131   -1.37 0  118 247 
 PTB  HZ I         715  2.03        41.8 0.18            126            118 247 
 RUS  HZ EP        714 46.11                             130   -0.1910  125 160 
 RUS  HN ES        715  3.84                             130   -0.5310  125 160 
 RUS  HZ I         715  7.52         9.4 0.46            126            125 160 
 SPBC HZ EP        714 49.08                             122    0.03 9  159 205 
 SPBC HE ES        715  9.73                             122    0.46 9  159 205 
 SPBC HZ I         715 14.47        23.6 0.22            117            159 205 
 ZAR  HZ EP        714 50.22                             121    0.74 9  164 291 
 ZAR  HE ES        715 10.28                             121    0.24 9  164 291 
 ZAR  HZ I         715 13.32        22.0 0.22            117            164 291 
 TAM  HZ EP        714 52.76                             116   -0.11 9  195 107 
 TAM  HE ES        715 17.02                             116    0.94 9  195 107 
 TAM  HN ES        715 17.23                             114            195 107 
 TAM  HZ I         715 18.86         8.7 0.36            113            195 107 
 NOR  HZ EP        714 54.76                             113   -0.66 8  218 225 
 NOR  HE ES        715 21.27                             113    0.66 8  218 225 
 NOR  HZ I         715 26.23        12.5 0.20            109            218 225 
 HEL  HZ EP   4    714 59.81                             111    1.23 0  242 250 
 HEL  HN ES   4    715 24.60                             111   -1.63 0  242 250 
 HEL  HZ I         715 33.24         7.8 0.24            107            242 250 
 GUY2CHZ EP   9    715  5.32                             107    1.85 0  283 228 
 GUY2CHN ES        715 36.89                             105    0.10 7  283 228 
 GUY2CHZ I         715 44.07         3.7 0.24                           283 228 
 PTGC HZ EP        715  9.51                             103    0.08 7  339 154 
 PTGC HN ES   4    715 44.79                             103   -0.76 0  339 154 
 PTGC HZ I         715 48.19         5.1 0.35            100            339 154 
 SJC  HZ EP        715 13.27                             101   -0.56 6  375 330 
 SJC  HN ES   4    715 50.54                             101   -2.83 0  375 330 
 SJC  HZ I         716  6.66         1.5 0.36             98            375 330 
 PRA  HZ EP   4    715 19.09                             101    3.43 0  391 204 
 PRA  HE ES   4    715 58.08                             101    1.43 0  391 204 
 PRA  HZ I         716  6.35         2.5 0.38             97            391 204 
                                                                                
