 2017  110 0024 22.9 L   6.777 -73.125151.1  RSN 23 0.5 2.5LRSN                1
 GAP= 67        0.96       3.1     2.8  4.7 -0.3232E+00  0.3651E+01  0.4241E+01E
 Epicentro: LOS SANTOS - SANTANDER                                             3
 ACTION:UPD 17-05-22 15:57 OP:jn   STATUS:               ID:20170110002422 L   I
 OLDACT:UP  17-01-10 13:08 OP:and  STATUS:               ID:20170110001746     3
 OLDACT:UP  17-01-10 13:04 OP:and  STATUS:               ID:20170110001746     3
 OLDACT:UP  17-01-10 13:03 OP:and  STATUS:               ID:20170110001746     3
 OLDACT:UP  17-01-10 13:03 OP:and  STATUS:               ID:20170110001746     3
 OLDACT:UP  17-01-10 13:01 OP:and  STATUS:               ID:20170110001746     3
 OLDACT:REG 17-01-10 12:19 OP:and  STATUS:               ID:20170110001746     3
 2017-01-10-0018-00M.COL___354                                                 6
 STAT SP IPHASW D HRMM SECON CODA AMPLIT PERI AZIMU VELO AIN AR TRES W  DIS CAZ7
 BAR2 EZ IP     C  024 43.07                             172   -0.0610 21.4 197 
 BAR2 EZ ES        024 58.59                             172   -0.3210 21.4 197 
 BAR2 EZ I         024 60.00       100.2 0.18            171           21.4 197 
 BRR  HZ IP     C  024 45.10                             152    0.3010 74.5 299 
 BRR  HN ES        025  2.34                             152    0.4510 74.5 299 
 BRR  HZ I         025  4.80        99.4 0.12            150           74.5 299 
 PAM  EZ IP     C  024 46.07                             151    0.3610 78.0  37 
 PAM  EN ES        025  3.35                             151   -0.1610 78.0  37 
 PAM  EZ I         025  5.41        32.5 0.28            150           78.0  37 
 RUS  HZ IP     C  024 46.83                             146   -0.1510 97.9 177 
 RUS  HN ES   2    025  4.71                             146   -1.06 5 97.9 177 
 RUS  HZ I         025  6.56        50.8 0.50            144           97.9 177 
 PTB  HZ EP        024 49.60                             133   -0.86 9  150 260 
 PTB  HN ES   3    025 11.13                             133   -0.83 2  150 260 
 PTB  HZ I         025 13.21        44.5 0.28            130            150 260 
 TAM  HZ EP        024 51.32                             132    0.58 9  152 104 
 TAM  HZ I         025 11.95        35.2 0.36            131            152 104 
 TAM  HN ES        025 12.46                             132    0.01 9  152 104 
 ZAR  HZ EP        024 56.00                             123   -0.01 8  207 293 
 ZAR  HN ES        025 22.27                             123    0.44 8  207 293 
 ZAR  HZ I         025 29.67        63.6 0.42            121            207 293 
 NOR  HZ EP        024 59.01                             119    0.03 8  235 235 
 NOR  HN ES        025 27.02                             119   -0.11 8  235 235 
 NOR  HZ I         025 32.25        42.6 0.30            117            235 235 
 CHI  HZ EP        025  0.95                             118    0.26 8  247 196 
 CHI  HN ES        025 29.82                             118   -0.35 8  247 196 
 CHI  HZ I         025 33.21        10.2 0.36            116            247 196 
 ROSC BZ EP   3    025  2.71                             118    1.51 2  252 212 
 ROSC BN ES        025 31.14                             118    0.06 8  252 212 
 ROSC BZ I         025 40.32        18.6 0.25            116            252 212 
 URE  HZ EP   9    025  3.04                             114   -1.53 0  287 292 
 URE  HN ES        025 35.27                             114   -0.28 7  287 292 
 URE  HZ I         025 41.29        27.7 0.28            112            287 292 
 GUY2CHZ EP        025  7.17                             113    0.37 7  302 235 
 GUY2CHN ES   4    025 42.45                             113    1.41 0  302 235 
 GUY2CHZ I         025 49.35        28.2 0.62                           302 235 
 PTGC HZ EP        025  5.87                             113   -0.76 7  305 159 
 PTGC HN ES   4    025 38.71                             113   -2.03 0  305 159 
 PTGC HZ I         025 39.74        15.0 0.62            111            305 159 
 LL6C HZ EP   9    024 50.23                             111   -18.9 0  328 357 
 LL6C HE ES        025 26.47                                    0.18 7  328 357 
 ELA  HZ EP   4    025 12.25                             111    2.27 0  329 230 
 ELA  HN ES   4    025 49.69                             111    2.97 0  329 230 
 ELA  HZ I         025 54.53        13.9 0.32            109            329 230 
 CBOC HZ EP        025 10.24                             111    0.05 7  335 253 
 CBOC HN ES        025 46.65                             111   -0.44 7  335 253 
 CBOC HZ I         025 58.92         8.7 0.42            109            335 253 
 DBB  EZ EP        025 10.81                             110   -0.07 7  342 275 
 DBB  EN ES   3    025 46.83                             110   -1.47 2  342 275 
 DBB  EZ I         025 55.45         8.1 0.36            108            342 275 
 ORTC HZ EP        025 17.49                             107    0.57 6  395 217 
 ORTC HN ES        026  0.35                             107    1.29 6  395 217 
 ORTC HZ I         026  5.92         6.7 0.26            106            395 217 
 PAL  HZ EP        025 18.56                             107    0.25 6  406 240 
 PAL  HE ES        026  1.49                             107   -0.05 6  406 240 
 PAL  HZ I         026  7.14        10.2 0.56            105            406 240 
 SJC  HZ EP        025 17.47                             106   -1.56 6  413 327 
 SJC  HN ES   4    026  0.00                             106   -2.82 0  413 327 
 SJC  HZ I         026  5.99         6.3 0.45            105            413 327 
 CRJC HZ EP   4    025 23.67                             104   -2.16 0  470   3 
 CRJC HN ES   4    026 12.62                             104   -2.30 0  470   3 
 CRJC HZ I         026 16.89         6.7 0.14            103            470   3 
 YOT  HZ EP        025 26.55                             104    0.46 5  472 229 
 SMAR HZ EP        025 28.90                             103   -0.37 4  500 346 
 SMAR HN ES   4    026 16.42                             103   -4.62 0  500 346 
                                                                                
