 2017  710 0749 27.1 L   6.701 -73.217150.1  RSN  5 0.2 1.3LRSN                1
 GAP=198        0.53       5.3     3.8  4.8  0.1058E+02  0.4486E+01  0.3489E+01E
 Epicentro: VILLANUEVA - SANTANDER                                             3
 ACTION:UPD 17-08-30 15:31 OP:rebc STATUS:               ID:20170710074927 L   I
 OLDACT:REG 17-07-10 13:05 OP:dnl  STATUS:               ID:20170710073737     3
 2017-07-10-0738-00M.COL___368                                                 6
 STAT SP IPHASW D HRMM SECON CODA AMPLIT PERI AZIMU VELO AIN AR TRES W  DIS CAZ7
 BAR2 EZ EP        749 46.88                             175   -0.2510 12.7 162 
 BAR2 EZ ES        750  2.79                             175    0.0610 12.7 162 
 BAR2 EZ I         750  3.18         6.7 0.24            177           12.7 162 
 BRR  HZ EP        749 48.76                             153    0.0210 70.7 309 
 BRR  HN ES        750  5.53                             153   -0.0510 70.7 309 
 BRR  HZ I         750  9.46         3.0 0.12            153           70.7 309 
 PTB  HZ EP        749 53.68                             135    0.05 9  138 263 
 PTB  HN ES        750 14.07                             135   -0.22 9  138 263 
 PTB  HZ I         750 16.49         1.8 0.28            136            138 263 
 YPLC HE ES   2    750 20.42                             128    0.59 4  171 147 
 ZAR  HN ES        750 25.23                             124    0.33 9  201 296 
                                                                                
