 2017 1110 0408 24.1 L   6.790 -73.129149.9  RSN  8 0.4 1.4LRSN                1
 GAP=139        1.04       4.5     4.4  8.0 -0.2103E+01  0.2774E+01  0.4155E+01E
 Epicentro: LOS SANTOS - SANTANDER                                             3
 ACTION:UPD 17-12-12 19:53 OP:rebc STATUS:               ID:20171110040824 L   I
 OLDACT:UP  17-11-10 15:30 OP:dnl  STATUS:               ID:20171110040734     3
 OLDACT:UP  17-11-10 15:29 OP:dnl  STATUS:               ID:20171110040734     3
 OLDACT:REG 17-11-10 14:56 OP:dnl  STATUS:               ID:20171110040734     3
 2017-11-10-0408-00M.COL___455                                                 6
 STAT SP IPHASW D HRMM SECON CODA AMPLIT PERI AZIMU VELO AIN AR TRES W  DIS CAZ7
 BAR2 EZ EP        4 8 44.02                             171   -0.1810 22.6 195 
 BAR2 EZ I         4 9  1.76         5.8 0.34            174           22.6 195 
 BRR  HZ EP        4 8 45.94                             152    0.1310 73.3 299 
 BRR  HN ES        4 9  3.52                             152    0.7710 73.3 299 
 BRR  HZ I         4 9  6.52         4.5 0.34            151           73.3 299 
 PAM  EZ EP        4 8 46.89                             152    0.1610 77.1  38 
 PAM  EZ I         4 9  1.54         1.5 0.26            145           77.1  38 
 PAM  EN ES        4 9  3.84                             152   -0.5510 77.1  38 
 RUS  HZ EP        4 8 48.44                             145    0.2810 99.4 177 
 RUS  HE ES        4 9  7.01                             145    0.0710 99.4 177 
 RUS  HZ I         4 9  9.49         2.8 0.40            144           99.4 177 
 PTB  HZ EP        4 8 51.06                             133   -0.48 9  149 259 
 PTB  HN ES        4 9 12.17                             133   -0.78 9  149 259 
 PTB  HZ I         4 9 19.20         3.2 0.60            131            149 259 
 SPBC HZ EP        4 8 53.20                             130    0.26 9  163 220 
 SPBC HE ES        4 9 15.47                             130    0.03 9  163 220 
 SPBC HZ I         4 9 19.05         3.9 0.22            129            163 220 
 ZAR  HZ EP   4    4 8 59.56                             123    2.54 0  206 292 
 ZAR  HN ES        4 9 22.95                             123    0.24 8  206 292 
 ZAR  HZ I         4 9 28.58         3.7 0.42            120            206 292 
 GUY2CHZ EP   9    4 9 10.19                             113    2.20 0  302 235 
 GUY2CHN ES        4 9 44.32                             112   -0.11 7  302 235 
 GUY2CHZ I         4 9 52.73         1.7 0.56                           302 235 
                                                                                
