 2014 1210 0850 17.9 L   6.829 -73.162149.3  RSN 14 0.5 1.7LRSN                1
 GAP=133        1.22       3.3     4.4  6.6 -0.1832E+01  0.9409E+01  0.3718E+01E
 Epicentro: LOS SANTOS - SANTANDER                                             3
 ACTION:UPD 15-02-10 17:02 OP:nd   STATUS:               ID:20141210085017 L   I
 OLDACT:REG 14-12-10 13:25 OP:fm   STATUS:               ID:20141210084740     3
 2014-12-10-0847-40M.COL___299                                                 6
 STAT SP IPHASW D HRMM SECON CODA AMPLIT PERI AZIMU VELO AIN AR TRES W  DIS CAZ7
 BAR2 E  EP        850 38.09                             170    0.1110 26.3 185 
 BAR2 E  ES        850 53.84                             170    0.1710 26.3 185 
 BRR  HZ EP        850 40.12                             154    0.8910 68.1 297 
 BRR  HE ES        850 56.65                             154    0.7610 68.1 297 
 BRR  HZ I         851  1.01         4.6 0.52            151           68.1 297 
 PAM  SZ EP        850 40.84                             152    0.4510 76.1  42 
 PAM  SE ES        850 58.06                             152    0.1110 76.1  42 
 PAM  SZ I         851  0.27         7.6 0.22            156           76.1  42 
 RUS  HZ EP        850 42.42                             144    0.2110  104 175 
 RUS  HE ES        851  0.23                             144   -0.9610  104 175 
 RUS  HZ I         851  1.93         3.1 0.46            147            104 175 
 PTB  HZ EP        850 45.13                             133    0.10 9  147 257 
 PTB  HE ES        851  6.09                             133   -0.12 9  147 257 
 PTB  HZ I         851 11.96         6.9 0.22            132            147 257 
 OCA  HE ES        851  7.14                             131   -1.05 9  157 354 
 OCA  HZ I         851 16.55         4.8 0.30            133            157 354 
 SPBC HZ EP        850 47.06                             130    0.29 9  165 218 
 SPBC HE ES        851  9.34                             130    0.02 9  165 218 
 SPBC HZ I         851 16.28        10.0 0.38            131            165 218 
 ZAR  HZ EP        850 50.48                             123    0.23 9  201 291 
 ZAR  HN ES        851 15.60                             123    0.09 9  201 291 
 ZAR  HZ I         851 22.50         5.4 0.16            124            201 291 
 NOR  HZ EP        850 53.61                             119   -0.24 8  235 234 
 NOR  HE ES        851 21.73                             119   -0.19 8  235 234 
 NOR  HZ I         851 29.31         4.0 0.22            120            235 234 
 SML  HE ES        851 21.88                             119   -0.83 8  240 335 
 SML  HZ I         851 27.29         7.9 0.10            120            240 335 
 CHI  HZ EP        850 55.57                             117   -0.48 8  251 195 
 CHI  HN ES        851 25.42                             117   -0.41 8  251 195 
 CHI  HZ I         851 31.29         2.2 0.38            120            251 195 
 HEL  HN ES        851 28.81                             115   -0.78 8  271 255 
 HEL  HZ I         851 36.80         2.9 0.38            116            271 255 
 GUY2CHZ EP   1    851  1.83                             113    0.14 5  302 234 
 GUY2CHE ES        851 36.16                             113    0.29 7  302 234 
 GUY2CHZ I         851 44.98         4.3 0.76                           302 234 
 RREF HZ EP   1    851  4.57                             111    0.32 5  323 229 
 RREF HN ES        851 40.90                             111    0.47 7  323 229 
 RREF HZ I         851 49.87         2.6 0.46            113            323 229 
                                                                                
