 2017  410 0823 50.2 L   6.891 -73.333123.8  RSN 15 0.6 1.8LRSN                1
 GAP= 93        1.31       3.9     3.9  6.5  0.2825E+01  0.7062E+01  0.4026E+01E
 Epicentro: BETULIA - SANTANDER                                                3
 ACTION:UPD 17-05-30 21:10 OP:jn   STATUS:               ID:20170410082350 L   I
 OLDACT:UP  17-04-10 15:53 OP:dani STATUS:               ID:20170410081744     3
 OLDACT:UP  17-04-10 15:50 OP:dani STATUS:               ID:20170410081744     3
 OLDACT:UP  17-04-10 15:50 OP:dani STATUS:               ID:20170410081744     3
 OLDACT:UP  17-04-10 15:49 OP:dani STATUS:               ID:20170410081744     3
 OLDACT:UP  17-04-10 15:49 OP:dani STATUS:               ID:20170410081744     3
 OLDACT:UP  17-04-10 15:46 OP:dani STATUS:               ID:20170410081744     3
 OLDACT:REG 17-04-10 13:22 OP:edw  STATUS:               ID:20170410081744     3
 2017-04-10-0818-00M.COL___368                                                 6
 STAT SP IPHASW D HRMM SECON CODA AMPLIT PERI AZIMU VELO AIN AR TRES W  DIS CAZ7
 BAR2 EZ EP     D  824  7.54                             163   -0.1010 37.0 153 
 BAR2 EZ ES        824 20.71                             163   -0.5110 37.0 153 
 BAR2 EZ I         824 22.07        36.8 0.20            163           37.0 153 
 BRR  HZ EP        824  8.03                             157    0.2710 48.2 300 
 BRR  HN ES        824 22.11                             157    0.6810 48.2 300 
 BRR  HZ I         824 23.72        16.5 0.16            156           48.2 300 
 PAM  HZ EP        824 11.36                             143    0.6210 85.7  55 
 PAM  EE ES        824 26.74                             143   -0.0010 85.7  55 
 PAM  HZ I         824 29.37        13.2 0.32            146           85.7  55 
 RUS  HZ EP        824 12.59                             135   -0.4010  114 166 
 RUS  HE ES        824 30.76                             135    0.0110  114 166 
 RUS  HZ I         824 31.96         3.3 0.16            136            114 166 
 PTB  HZ EP     C  824 12.88                             130   -0.9410  130 253 
 PTB  HE ES        824 31.08                             130   -1.1410  130 253 
 PTB  HZ I         824 35.61         9.7 0.46            130            130 253 
 SPBC HZ EP        824 17.04                             124    0.26 9  160 211 
 SPBC HN ES        824 36.93                             124   -0.56 9  160 211 
 SPBC HZ I         824 38.78        16.6 0.10            124            160 211 
 ZAR  HZ EP        824 19.39                             120    0.50 9  181 292 
 ZAR  HE ES        824 42.07                             120    0.83 9  181 292 
 ZAR  HZ I         824 45.95        10.0 0.30            121            181 292 
 YPLC HZ EP        824 20.48                             118   -0.08 9  196 147 
 YPLC HE ES        824 44.30                             118    0.07 9  196 147 
 YPLC HZ I         824 46.62        20.3 0.28            119            196 147 
 NOR  HZ EP        824 24.33                             114    0.67 8  225 229 
 NOR  HN ES   3    824 48.53                             114   -1.21 2  225 229 
 NOR  HZ I         824 54.03         3.8 0.23            115            225 229 
 CHI  HZ EP        824 27.59                             111    0.18 8  254 190 
 CHI  HN ES        824 56.82                             111    0.41 8  254 190 
 CHI  HZ I         825  3.33         1.6 0.38            112            254 190 
 HEL  HZ EP   3    824 28.50                             111    1.04 2  255 252 
 HEL  HN ES        824 56.94                             111    0.43 8  255 252 
 HEL  HZ I         825  1.76         5.3 0.52            112            255 252 
 URE  HZ EP        824 26.99                             110   -0.70 8  261 292 
 URE  HN ES   3    824 55.51                             110   -1.40 2  261 292 
 URE  HZ I         824 58.01        10.6 0.36            111            261 292 
 CBOC HZ EP        824 35.33                             106    0.90 7  317 249 
 PTGC HZ EP   3    824 33.63                             106   -1.59 2  326 156 
 PTGC HN ES   4    825  8.01                             106   -2.30 0  326 156 
 PTGC HZ I         825 12.06         2.7 0.51            107            326 156 
 SJC  HZ EP        824 41.68                             102   -1.14 6  390 329 
 SJC  HN ES   3    825 21.72                             102   -2.12 1  390 329 
 SJC  HZ I         825 27.19         1.5 0.14            103            390 329 
                                                                                
