 2015  410 0850 33.5 L   6.819 -73.131146.5  RSN  6 0.5 1.5LRSN                1
 GAP=202        1.11       5.2     8.1  9.0  0.1288E+02  0.1132E+02 -0.1875E+02E
 Epicentro: LOS SANTOS - SANTANDER                                             3
 ACTION:UPD 15-06-03 16:53 OP:cam  STATUS:               ID:20150410085033 L   I
 OLDACT:REG 15-04-10 13:04 OP:akv  STATUS:               ID:20150410084752d    3
 2015-04-10-0847-50M.COL___263                                                 6
 STAT SP IPHASW D HRMM SECON CODA AMPLIT PERI AZIMU VELO AIN AR TRES W  DIS CAZ7
 BAR2 EZ EP        850 53.49                             170    0.1810 25.7 193 
 BAR2 EZ ES        851  8.41                             170   -0.3210 25.7 193 
 BAR2 EZ I         851 10.42         8.5 0.24            171           25.7 193 
 BRR  HZ EP        850 54.97                             153    0.1710 71.7 296 
 BRR  HN ES        851 12.16                             153    0.7810 71.7 296 
 BRR  HZ I         851 15.90         5.5 0.12            153           71.7 296 
 RUS  HN ES        851 16.11                             144   -0.1010  103 177 
 RUS  HZ I         851 18.67         2.4 0.56            147            103 177 
 SPBC HN ES        851 24.36                             129   -0.46 9  166 219 
 SPBC HZ I         851 26.21         4.8 0.24            132            166 219 
 ZAR  HZ EP        851  6.64                             122    0.53 9  205 291 
 ZAR  HN ES        851 31.30                             122   -0.21 9  205 291 
 ZAR  HZ I         851 33.45         3.6 0.30            125            205 291 
 SML  HZ EP        851 10.07                             118   -0.00 8  242 335 
 SML  HN ES        851 37.67                             118   -0.90 8  242 335 
 SML  HZ I         851 42.20         4.5 0.28            120            242 335 
                                                                                
