 2017  710 0653 42.5 L   7.052 -73.120157.3  RSN  4 0.2 1.2LRSN                1
 GAP=263        0.45       5.5     3.9  4.3  0.8431E+01  0.2571E+01 -0.4777E+01E
 Epicentro: FLORIDABLANCA - SANTANDER                                          3
 ACTION:UPD 17-08-30 15:31 OP:rebc STATUS:               ID:20170710065342 L   I
 OLDACT:REG 17-07-10 13:03 OP:dnl  STATUS:               ID:20170710064739     3
 2017-07-10-0648-00M.COL___368                                                 6
 STAT SP IPHASW D HRMM SECON CODA AMPLIT PERI AZIMU VELO AIN AR TRES W  DIS CAZ7
 BAR2 EZ EP   2    654  4.32                             161    0.03 5 51.3 188 
 BAR2 EZ ES        654 21.08                             161   -0.2410 51.3 188 
 BAR2 EZ I         654 22.42         2.7 0.46            164           51.3 188 
 BRR  HZ EP        654  4.69                             156    0.1210 65.6 275 
 BRR  HN ES        654 21.97                             156    0.1410 65.6 275 
 BRR  HZ I         654 24.35         2.4 0.20            153           65.6 275 
 PTB  HZ EP        654 11.46                             132    0.16 9  158 249 
 PTB  HN ES        654 33.83                             132    0.02 9  158 249 
 PTB  HZ I         654 36.36         1.4 0.30            132            158 249 
 ZAR  HZ EP   2    654 14.61                             126   -0.46 4  198 284 
 ZAR  HE ES        654 40.37                             126   -0.14 9  198 284 
 ZAR  HZ I         654 47.18         1.7 0.28            125            198 284 
                                                                                
