 2013 1210 0030 53.8 L   6.825 -73.140146.2  RSN 16 0.5 2.4LRSN                1
 GAP= 70        1.10       3.1     3.2  5.8 -0.7408E+00  0.3067E+01  0.4047E+01E
 Epicentro: LOS SANTOS - SANTANDER                                             3
 ACTION:UPD 14-01-13 10:17 OP:ep   STATUS:               ID:20131210003053 L   I
 OLDACT:REG 13-12-10 06:57 OP:jn   STATUS:               ID:20131210003000     3
 2013-12-10-0030-00M.COL___285                                                 6
 STAT SP IPHASW D HRMM SECON CODA AMPLIT PERI AZIMU VELO AIN AR TRES W  DIS CAZ7
 BAR2 SZ EP        031 13.77                             169    0.2410 26.1 190 
 BAR2 SZ ES        031 28.19                             169   -0.7410 26.1 190 
 BAR2 SZ I         031 30.73        51.3 0.24            164           26.1 190 
 BRR  HZ EP        031 15.48                             153    0.5310 70.5 296 
 BRR  HN ES        031 32.35                             153    0.9010 70.5 296 
 BRR  HZ I         031 36.91        61.3 0.14            141           70.5 296 
 PAM  SZ EP        031 16.46                             152    0.5510 74.9  41 
 PAM  SE ES        031 33.23                             152    0.0710 74.9  41 
 PAM  SZ I         031 35.85        36.5 0.50            145           74.9  41 
 RUS  HZ EP        031 17.86                             143    0.0810  103 176 
 RUS  HE ES        031 36.42                             143   -0.0710  103 176 
 RUS  HZ I         031 40.48        19.3 0.28            134            103 176 
 PTB  HZ EP        031 20.41                             132   -0.49 9  149 258 
 PTB  HN ES        031 41.53                             132   -0.51 9  149 258 
 PTB  HZ I         031 44.37        60.4 0.18            120            149 258 
 TAM  HZ EP        031 20.82                             131   -0.70 9  155 106 
 TAM  HN ES        031 43.60                             131    0.45 9  155 106 
 TAM  HZ I         031 44.35        23.4 0.22            122            155 106 
 OCA  HN ES        031 42.95                             130   -0.86 9  158 353 
 OCA  HZ I         031 48.40        34.1 0.20            120            158 353 
 SPBC HZ EP   1    031 22.40                             129   -0.16 7  166 219 
 SPBC HN ES        031 44.93                             129   -0.07 9  166 219 
 SPBC HZ I         031 51.21        40.4 0.24            118            166 219 
 ZAR  HN ES        031 51.91                             122    0.40 9  204 291 
 ZAR  HZ I         031 58.02        54.2 0.48            112            204 291 
 NOR  HZ EP        031 29.89                             118    0.12 8  237 234 
 NOR  HE ES        031 58.05                             118    0.22 8  237 234 
 NOR  HZ I         032  1.67        16.8 0.14            108            237 234 
 SML  HZ EP   1    031 29.88                             118   -0.32 6  241 335 
 SML  HN ES   2    031 57.86                             118   -0.74 4  241 335 
 CHI  HZ EP        031 32.13                             117    0.31 8  251 195 
 CHI  HN ES        032  1.43                             117   -0.04 8  251 195 
 CHI  HZ I         032  7.90         6.3 0.26            108            251 195 
 HEL  HN ES   1    032  5.82                             115    0.17 6  273 255 
 HEL  HZ I         032 13.48        11.6 0.42            105            273 255 
 RREF HZ EP   4    031 42.34                             111    2.14 0  324 229 
 RREF HZ I         032 26.27        12.4 0.58            102            324 229 
 CBOC HZ EP   2    031 40.91                             110    0.03 3  335 252 
 CBOC HZ I         032 28.01         5.0 0.46            101            335 252 
 PRA  HZ EP        031 47.90                             106    0.26 6  395 209 
 PRA  HN ES        032 28.99                             106   -0.64 6  395 209 
 PRA  HZ I         032 34.73         9.0 0.72             99            395 209 
 SJC  HZ EP   4    031 47.50                             106   -1.64 0  407 327 
                                                                                
