 2017  510 0547 59.2 L   6.731 -73.163137.7  RSN  4 0.3 0.8LRSN                1
 GAP=137        0.89       4.6     4.7  9.2 -0.2254E+01 -0.2413E+01  0.4622E+01E
 Epicentro: VILLANUEVA - SANTANDER                                             3
 ACTION:UPD 17-06-16 13:34 OP:jn   STATUS:               ID:20170510054759 L   I
 OLDACT:UP  17-05-10 19:29 OP:edw  STATUS:               ID:20170510054737     3
 OLDACT:REG 17-05-10 13:23 OP:osc  STATUS:               ID:20170510054737     3
 2017-05-10-0548-00M.COL___356                                                 6
 STAT SP IPHASW D HRMM SECON CODA AMPLIT PERI AZIMU VELO AIN AR TRES W  DIS CAZ7
 BRR  HZ EP        548 19.80                             150    0.1810 73.6 304 
 BRR  HN ES        548 35.89                             150    0.3310 73.6 304 
 PAM  EZ EP        548 20.55                             147   -0.4710 84.5  37 
 PAM  EN ES        548 38.05                             147    0.0010 84.5  37 
 RUS  HZ EP        548 22.12                             144    0.5010 93.1 175 
 RUS  HN ES        548 38.92                             144   -0.1910 93.1 175 
 RUS  HZ I         548 42.51         1.1 0.32            144           93.1 175 
 PTB  HN ES        548 45.14                             131   -0.39 9  145 262 
                                                                                
