 2015  410 0400 13.3 L   6.842 -73.167137.5  RSN  6 0.4 1.7LRSN                1
 GAP=132        1.06       3.6     4.7  9.1 -0.3325E+01  0.1446E+02 -0.3079E+01E
 Epicentro: ZAPATOCA - SANTANDER                                               3
 ACTION:UPD 15-06-03 16:53 OP:cam  STATUS:               ID:20150410040013 L   I
 OLDACT:REG 15-04-10 12:29 OP:akv  STATUS:               ID:20150410035749     3
 2015-04-10-0357-49M.COL___266                                                 6
 STAT SP IPHASW D HRMM SECON CODA AMPLIT PERI AZIMU VELO AIN AR TRES W  DIS CAZ7
 PAM  SZ EP        4 0 34.80                             150    0.2710 75.4  43 
 PAM  SN ES        4 0 51.25                             150    0.1710 75.4  43 
 PAM  SZ I         4 0 53.83         6.5 0.26            154           75.4  43 
 RUS  HZ EP        4 0 36.17                             141   -0.4510  105 175 
 RUS  HN ES        4 0 54.92                             141    0.1110  105 175 
 RUS  HZ I         4 0 57.09         2.9 0.40            146            105 175 
 PTB  HZ EP        4 0 39.01                             130   -0.48 9  146 257 
 PTB  HN ES        4 0 59.45                             130   -0.46 9  146 257 
 PTB  HZ I         4 1  1.47         7.2 0.28            133            146 257 
 OCA  HZ EP        4 0 40.98                             129    0.46 9  155 354 
 OCA  HE ES        4 1  1.04                             129   -0.70 9  155 354 
 OCA  HZ I         4 1  9.36         8.6 0.46            132            155 354 
 SPBC HZ EP        4 0 41.18                             127   -0.22 9  165 217 
 SPBC HN ES        4 1  3.81                             127    0.50 9  165 217 
 SPBC HZ I         4 1 10.26         7.5 0.40            131            165 217 
 ZAR  HZ EP        4 0 45.21                             121    0.40 9  200 291 
 ZAR  HN ES        4 1  9.91                             121    0.52 9  200 291 
 ZAR  HZ I         4 1 15.66         8.9 0.38            124            200 291 
                                                                                
