 2012  710 0223  0.8 L   6.572 -73.158144.5  RSN  5 0.3 1.3LRSN                1
 GAP=220        0.60       5.6     4.8  5.8  0.1379E+02  0.4402E+01 -0.3329E+01E
 Epicentro: SAN GIL - SANTANDER                                                3
 ACTION:UPD 12-08-14 11:43 OP:ep   STATUS:               ID:20120710022300 L   I
 2012-07-10-0220-00M.COL___201                                                 6
 STAT SP IPHASW D HRMM SECON CODA AMPLIT PERI AZIMU VELO AIN AR TRES W  DIS CAZ7
 BAR2 SZ EP   1    223 20.39                             179     0.3 8    3 310 
 BAR2 SZ ES   1    223 35.12                             179     0.0 8    3 310 
 BAR2 SZ I         223 38.10         5.7 0.19            169              3 310 
 RUS  HZ EP   1    223 22.57                             151    -0.3 8   76 174 
 RUS  HN ES   1    223 39.89                             151    -0.1 8   76 174 
 RUS  HZ I         223 44.84         2.0 0.24            147             76 174 
 BRR  HZ EP   1    223 22.49                             148    -0.2 8   85 314 
 BRR  HN ES   1    223 39.85                             148     0.1 8   85 314 
 PTB  HZ EP   1    223 27.39                             133     0.1 7  144 269 
 PTB  HN ES        223 48.13                             133     0.110  144 269 
 PTB  HZ I         223 54.87         2.1 0.39            132            144 269 
 ZAR  HZ EP   1    223 34.61                             121     0.4 7  214 299 
 ZAR  HE ES   1    223 59.68                             121    -0.5 7  214 299 
 ZAR  HZ I         224  1.38         2.1 0.08            123            214 299 
