 2017  310 0709 44.9 L   6.706 -73.189150.0  RSN  7 0.5 1.5LRSN                1
 GAP=135        1.43       6.1     6.1  9.7 -0.2478E+01  0.1072E+02  0.3404E+01E
 Epicentro: VILLANUEVA - SANTANDER                                             3
 ACTION:UPD 17-05-25 18:38 OP:jn   STATUS:               ID:20170310070944 L   I
 OLDACT:UP  17-03-10 18:40 OP:ar   STATUS:               ID:20170310065744     3
 OLDACT:UP  17-03-10 18:39 OP:ar   STATUS:               ID:20170310065744     3
 OLDACT:UP  17-03-10 18:39 OP:ar   STATUS:               ID:20170310065744     3
 OLDACT:REG 17-03-10 12:28 OP:ar   STATUS:               ID:20170310065744     3
 2017-03-10-0658-00M.COL___391                                                 6
 STAT SP IPHASW D HRMM SECON CODA AMPLIT PERI AZIMU VELO AIN AR TRES W  DIS CAZ7
 BAR2 EZ EP        710  4.49                             175   -0.4010 12.6 177 
 BAR2 EZ ES        710 19.81                             175   -0.6610 12.6 177 
 BAR2 EZ I         710 20.64         7.1 0.16            174           12.6 177 
 BRR  HZ EP        710  6.48                             153   -0.1310 72.8 308 
 BRR  HN ES        710 23.92                             153    0.3810 72.8 308 
 BRR  HZ I         710 25.65         6.1 0.28            151           72.8 308 
 PAM  EZ EP        710  7.58                             148   -0.6810 88.5  38 
 PAM  EE ES        710 27.43                             148    0.9610 88.5  38 
 PAM  EZ I         710 29.54         2.8 0.52            152           88.5  38 
 RUS  HZ EP        710  8.80                             147    0.3910 90.7 173 
 RUS  HN ES        710 26.37                             147   -0.3710 90.7 173 
 RUS  HZ I         710 28.00         4.8 0.34            149           90.7 173 
 PTB  HZ EP        710 11.52                             134   -0.14 9  141 263 
 PTB  HN ES        710 31.90                             134   -0.63 9  141 263 
 PTB  HZ I         710 37.31         3.7 0.18            134            141 263 
 SPBC HZ EP        710 13.14                             132    0.42 9  152 220 
 SPBC HN ES        710 35.33                             132    0.92 9  152 220 
 SPBC HZ I         710 41.76         5.5 0.22            132            152 220 
 ZAR  HN ES        710 43.18                             123    0.06 9  204 295 
 ZAR  HZ I         710 48.61         5.6 0.46            124            204 295 
                                                                                
