 2015  310 0242 33.5 L   6.775 -73.127145.5  RSN 17 0.5 2.3LRSN                1
 GAP= 97        1.03       3.8     3.2  4.9 -0.3236E+01  0.3371E+01  0.5488E+01E
 Epicentro: LOS SANTOS - SANTANDER                                             3
 ACTION:UPD 15-04-30 16:24 OP:nd   STATUS:               ID:20150310024233 L   I
 OLDACT:UP  15-03-10 17:01 OP:cam  STATUS:               ID:20150310023749     3
 OLDACT:REG 15-03-10 16:39 OP:cam  STATUS:               ID:20150310023749     3
 2015-03-10-0237-49M.COL___275                                                 6
 STAT SP IPHASW D HRMM SECON CODA AMPLIT PERI AZIMU VELO AIN AR TRES W  DIS CAZ7
 BAR2 EZ IP     D  242 52.95                             171   -0.1010 21.2 197 
 BAR2 EZ ES        243  7.63                             171   -0.6810 21.2 197 
 BAR2 EZ I         243  9.60        31.3 0.36            169           21.2 197 
 BRR  HZ EP        242 54.77                             151   -0.0310 74.4 300 
 BRR  HN ES        243 12.32                             151    0.9010 74.4 300 
 BRR  HZ I         243 16.60        25.8 0.24            152           74.4 300 
 PAM  SZ EP        242 55.70                             150   -0.0410 78.2  37 
 PAM  SN ES        243 13.01                             150   -0.0710 78.2  37 
 PAM  SZ I         243 14.79        29.8 0.20            150           78.2  37 
 RUS  HZ EP        242 56.79                             145   -0.2310 97.7 177 
 RUS  HN ES        243 15.52                             145    0.1510 97.7 177 
 PTB  HZ EP        242 59.83                             132   -0.75 9  149 260 
 PTB  HN ES        243 21.38                             132   -0.33 9  149 260 
 PTB  HZ I         243 26.85        34.5 0.40            131            149 260 
 TAM  HZ IP     D  243  1.09                             131    0.19 9  152 104 
 TAM  HZ I         243 21.91        16.8 0.32            129            152 104 
 TAM  HN ES        243 22.83                             131    0.55 9  152 104 
 SPBC HZ EP        243  1.86                             129   -0.04 9  162 220 
 SPBC HN ES        243 23.53                             129   -0.53 9  162 220 
 SPBC HZ I         243 31.07        55.4 0.36            128            162 220 
 NOR  HZ EP        243  9.04                             118   -0.19 8  235 235 
 NOR  HN ES        243 37.37                             118    0.28 8  235 235 
 NOR  HZ I         243 40.36        20.7 0.20            117            235 235 
 CHI  HZ EP        243 10.83                             117   -0.12 8  247 196 
 CHI  HN ES        243 39.99                             117   -0.18 8  247 196 
 CHI  HZ I         243 46.07         7.6 0.26            116            247 196 
 HEL  HZ EP        243 14.29                             114    0.44 8  273 256 
 HEL  HE ES   4    243 43.74                             114   -1.58 0  273 256 
 HEL  HZ I         243 51.53        12.1 0.34            114            273 256 
 GUY2CHZ EP   4    243 18.11                             112    1.00 0  301 235 
 GUY2CHE ES   4    243 53.54                             112    2.41 0  301 235 
 GUY2CHZ I         243 59.44        22.5 0.80                           301 235 
 CBOC HZ EP        243 20.56                             110    0.03 7  335 253 
 TOL  SZ EP        243 22.17                             109    0.48 7  343 225 
 TOL  SN ES        244  0.13                             109    0.85 7  343 225 
 TOL  SZ I         244  6.56        11.6 0.40            108            343 225 
 ANIL HZ EP   1    243 23.56                             108    0.32 5  357 225 
 ANIL HN ES        244  3.05                             108    1.02 6  357 225 
 ANIL HZ I         244  6.88         3.2 0.34            107            357 225 
 SDV  BZ EP   4    243 22.05                             108   -1.49 0  361  50 
 PRA  HZ EP        243 25.99                             106   -0.86 6  391 210 
 PRA  HE ES   4    244  7.04                             106   -1.43 0  391 210 
 PRA  HZ I         244 14.53        11.4 0.36            105            391 210 
 ORTC HZ EP        243 27.05                             106   -0.24 6  394 217 
 ORTC HN ES        244  9.67                             106    0.41 6  394 217 
 ORTC HZ I         244 17.32         6.9 0.68            105            394 217 
 PAL  HZ EP        243 28.50                             106   -0.19 6  406 240 
                                                                                
