 2011  810 0355 17.9 L   6.826 -73.020145.3  RSN  4 0.4 1.4LRSN                1
 GAP=252        0.59       6.9    14.0  7.8  0.5718E+02 -0.1570E+02  0.1041E+02E
 Epicentro: CEPITA - SANTANDER                                                 3
 ACTION:UPD 12-07-25 14:07 OP:epov STATUS:               ID:20110810035517 L   I
 2011-08-10-0340-00M.COL___151                                                 6
 STAT SP IPHASW D HRMM SECON CODA AMPLIT PERI AZIMU VELO AIN AR TRES W  DIS CAZ7
 BAR2 SZ EP   2    355 37.04                             167   -0.58 5 31.5 215 
 BAR2 SZ ES   2    355 52.83                             167   -0.21 5 31.5 215 
 BAR2 SZ I         355 54.83         6.6 0.52                          31.5 215 
 BRR  HZ EP   1    355 39.59                             149   -0.04 7 82.5 292 
 BRR  HN ES   1    355 56.74                             149    0.12 7 82.5 292 
 BRR  HZ I         355 59.48         5.7 0.13                          82.5 292 
 RUS  HZ EP   2    355 42.71                             143    0.94 5  103 184 
 RUS  HE ES   2    356  0.46                             143    0.04 5  103 184 
 RUS  HZ I         356  1.86         2.6 0.27                           103 184 
 CHI  HZ EP   1    355 56.05                             116   -0.21 6  255 198 
 CHI  HN ES   2    356 26.13                             116   -0.09 4  255 198 
 CHI  HZ I         356 32.99         1.8 0.72                           255 198 
                                                                                
