 2013  210 0632  6.2 L   6.816 -73.190142.7  RSN  8 0.4 2.0LRSN                1
 GAP=130        0.89       3.0     4.9  6.8 -0.8725E+00  0.2581E+01  0.1654E+01E
 Epicentro: ZAPATOCA - SANTANDER                                               3
 ACTION:UPD 13-03-12 09:31 OP:ep   STATUS:               ID:20130210063206 L   I
 2013-02-10-0630-00M.COL___241                                                 6
 STAT SP IPHASW D HRMM SECON CODA AMPLIT PERI AZIMU VELO AIN AR TRES W  DIS CAZ7
 BAR2 SZ EP   1    632 25.30                             170   -0.23 7 24.8 178 
 BAR2 SZ ES   1    632 40.52                             170   -0.06 7 24.8 178 
 BAR2 SZ I         632 41.80        27.7 0.18            171           24.8 178 
 BRR  HZ EP        632 27.47                             154    0.7010 66.0 299 
 BRR  HN ES   1    632 43.62                             154    0.84 7 66.0 299 
 BRR  HN I         632 44.61        30.2 0.22            153           66.0 299 
 PAM  SZ EP        632 28.52                             150    0.2710 79.3  43 
 PAM  SN ES   1    632 45.36                             150   -0.05 7 79.3  43 
 PAM  SN I         632 48.05         6.5 0.18            150           79.3  43 
 RUS  HZ EP        632 29.69                             142   -0.1710  103 173 
 RUS  HN ES   1    632 47.90                             142   -0.38 7  103 173 
 RUS  HN I         632 50.74         6.5 0.22            143            103 173 
 PTB  HZ EP   1    632 32.70                             132    0.15 7  143 258 
 PTB  HN ES        632 52.64                             132   -0.43 9  143 258 
 PTB  HN I         632 55.72        10.4 0.34            132            143 258 
 OCA  HN ES        632 55.27                             129   -0.55 9  158 355 
 OCA  HN I         633  0.24        31.5 0.34            129            158 355 
 SML  HZ EP   1    632 42.02                             117   -0.27 6  240 336 
 SML  HN ES   1    633 10.22                             117   -0.20 6  240 336 
 SML  HN I         633 16.54        11.9 0.10            117            240 336 
 CHI  HZ EP   1    632 44.01                             116    0.18 6  249 194 
 CHI  HN ES        633 13.13                             116   -0.01 8  249 194 
 CHI  HN I         633 19.24         5.7 0.30            117            249 194 
                                                                                
