 2013  110 0817 30.4 L   6.760 -73.174147.7  RSN  7 0.4 2.2LRSN                1
 GAP=180        0.94       3.2     5.0  5.8  0.3812E+01  0.2860E+01  0.3554E-01E
 Epicentro: LOS SANTOS - SANTANDER                                             3
 ACTION:UPD 13-02-15 09:13 OP:ep   STATUS:               ID:20130110081730 L   I
 2013-01-10-0810-00M.COL___242                                                 6
 STAT SP IPHASW D HRMM SECON CODA AMPLIT PERI AZIMU VELO AIN AR TRES W  DIS CAZ7
 BAR2 SZ EP        817 49.71                             172   -0.4510 18.6 183 
 BAR2 SZ ES        818  5.16                             172   -0.4310 18.6 183 
 BAR2 SZ I         818  7.36        31.9 0.28            172           18.6 183 
 BRR  HZ EP        817 51.69                             153   -0.0210 70.7 303 
 BRR  HN ES        818  8.97                             153    0.6110 70.7 303 
 BRR  HN I         818  9.34        34.8 0.28            151           70.7 303 
 RUS  HZ EP        817 54.13                             145    0.1010 96.5 174 
 RUS  HN ES        818 12.68                             145    0.2010 96.5 174 
 RUS  HN I         818 14.19        13.6 0.24            147           96.5 174 
 PTB  HZ EP        817 56.55                             133   -0.61 9  144 260 
 PTB  HN ES        818 17.62                             133   -0.43 9  144 260 
 PTB  HN I         818 23.32        32.7 0.36            132            144 260 
 OCA  HZ EP        817 59.16                             129   -0.06 9  164 354 
 OCA  HN ES        818 21.95                             129    0.23 9  164 354 
 OCA  HN I         818 25.67        50.7 0.28            130            164 354 
 ZAR  HZ EP        818  3.09                             123    0.26 9  203 294 
 ZAR  HN ES        818 28.28                             123    0.14 9  203 294 
 ZAR  HN I         818 33.71        13.7 0.28            123            203 294 
 CHI  HZ EP        818  7.80                             118    0.16 8  244 195 
 CHI  HN ES        818 37.31                             118    0.61 8  244 195 
 CHI  HN I         818 39.61         9.0 0.28            119            244 195 
                                                                                
