 2016 1110 0421 35.5 L   6.438 -73.387125.2  RSN  5 0.6 1.2LRSN                1
 GAP=138        1.51       6.8     9.0 12.3  0.2158E+02  0.3760E+02  0.3320E+02E
 Epicentro: SIMACOTA - SANTANDER                                               3
 ACTION:UPD 17-10-26 21:06 OP:lp   STATUS:               ID:20161110042135 L   I
 OLDACT:DUP 16-11-10 16:26 OP:lv   STATUS:               ID:20161110041742d    3
 2016-11-10-0418-00M.COL___349                                                 6
 STAT SP IPHASW D HRMM SECON CODA AMPLIT PERI AZIMU VELO AIN AR TRES W  DIS CAZ7
 BAR2 EZ EP        421 51.89                             167   -0.9010 28.3  53 
 BAR2 EZ ES        422  6.73                             167    0.4610 28.3  53 
 BAR2 EZ I         422  7.87         4.6 0.23            172           28.3  53 
 BRR  HZ EP        421 54.77                             145   -0.4410 82.2 334 
 BRR  HE ES        422 10.97                             145    0.3910 82.2 334 
 BRR  HZ I         422 11.55         5.2 0.12            148           82.2 334 
 PTB  HZ EP   4    421 56.93                             134   -1.24 0  119 275 
 PTB  HN ES        422 14.95                             134   -0.9010  119 275 
 PTB  HZ I         422 17.35         2.3 0.15            134            119 275 
 ZAR  HZ EP        422  6.89                             118    0.63 9  200 306 
 ZAR  HN ES        422 30.86                             118    0.61 9  200 306 
 ZAR  HZ I         422 32.80         2.0 0.30            120            200 306 
 CHI  HZ EP        422  7.18                             118    0.01 9  204 191 
 CHI  HN ES        422 32.47                             118    0.59 9  204 191 
 CHI  HZ I         422 38.75         1.1 0.28            118            204 191 
                                                                                
