 2016 1010 0002 48.1 L   6.804 -73.155144.0  RSN 20 0.4 2.4LRSN                1
 GAP=135        0.92       2.6     3.3  4.7 -0.2119E+01  0.5826E+01  0.6026E+00E
 Epicentro: LOS SANTOS - SANTANDER                                             3
 ACTION:UPD 16-11-09 19:18 OP:rebc STATUS:               ID:20161010000248 L   I
 OLDACT:UP  16-10-10 14:30 OP:ar   STATUS:               ID:20161009235958     3
 OLDACT:UP  16-10-10 13:53 OP:ar   STATUS:               ID:20161009235958     3
 OLDACT:REG 16-10-10 12:23 OP:ar   STATUS:               ID:20161009235958     3
 2016-10-10-0000-15M.COL___360                                                 6
 STAT SP IPHASW D HRMM SECON CODA AMPLIT PERI AZIMU VELO AIN AR TRES W  DIS CAZ7
 BAR2 EZ IP     C  0 3  7.39                             170   -0.1010 23.6 187 
 BAR2 EZ ES        0 3 22.66                             170    0.0210 23.6 187 
 BAR2 EZ I         0 3 23.88       100.4 0.16            168           23.6 187 
 PAM  EZ EP        0 3 10.19                             150    0.0810 77.7  40 
 PAM  EN ES        0 3 27.60                             150    0.2910 77.7  40 
 PAM  EZ I         0 3 29.75        14.5 0.46            154           77.7  40 
 RUS  HZ EP        0 3 11.39                             143   -0.2910  101 175 
 RUS  HN ES        0 3 30.09                             143   -0.0110  101 175 
 RUS  HZ I         0 3 31.26        36.7 0.24            143            101 175 
 PTB  HZ EP        0 3 14.33                             132   -0.47 9  147 259 
 PTB  HN ES        0 3 35.14                             132   -0.52 9  147 259 
 PTB  HZ I         0 3 36.94        20.4 0.20            129            147 259 
 OCA  HZ EP        0 3 15.59                             129   -0.60 9  160 353 
 OCA  HN ES        0 3 38.62                             129    0.50 9  160 353 
 SPBC HZ EP        0 3 16.43                             129    0.03 9  163 219 
 SPBC HN ES        0 3 38.65                             129    0.15 9  163 219 
 SPBC HZ I         0 3 42.95        34.4 0.34            127            163 219 
 ZAR  HZ EP        0 3 19.94                             122   -0.34 9  203 292 
 ZAR  HN ES        0 3 45.52                             122    0.11 9  203 292 
 ZAR  HZ I         0 3 51.00        31.0 0.54            120            203 292 
 NOR  HZ EP        0 3 23.33                             118   -0.30 8  234 234 
 NOR  HN ES        0 3 51.15                             118   -0.22 8  234 234 
 NOR  HZ I         0 3 55.65        16.5 0.46            117            234 234 
 CHI  HZ EP        0 3 25.58                             117   -0.10 8  249 195 
 CHI  HN ES        0 3 55.17                             117    0.15 8  249 195 
 CHI  HZ I         0 3 58.24        10.9 0.56            116            249 195 
 ROSC BZ EP   9    0 3 27.54                             116    1.47 0  253 211 
 ROSC BN ES        0 3 57.81                             117    0.63 8  253 211 
 ROSC BZ I         0 4  5.09        31.7 0.35            116            253 211 
 HEL  HZ EP        0 3 29.02                             115    0.93 8  271 256 
 HEL  HN ES        0 3 59.14                             115   -0.17 8  271 256 
 HEL  HZ I         0 4  5.52        10.5 0.26            113            271 256 
 URE  HZ EP   4    0 3 31.94                             113    3.02 0  283 292 
 URE  HN ES   4    0 3 58.34                             113   -2.45 0  283 292 
 URE  HZ I         0 4  8.94        15.4 0.20            112            283 292 
 GUY2CHZ EP        0 3 31.63                             112    0.10 7  301 235 
 GUY2CHE ES   4    0 4  8.05                             112    2.63 0  301 235 
 GUY2CHZ I         0 4 13.17         8.1 0.32                           301 235 
 PTGC HZ EP   4    0 3 30.41                             111   -1.52 0  309 159 
 PTGC HN ES   4    0 4  3.89                             111   -2.25 0  309 159 
 PTGC HZ I         0 4  7.34         7.4 0.46            112            309 159 
 ELA  HZ EP        0 3 35.66                             110    0.88 7  329 229 
 ELA  HN ES        0 4 11.94                             110    0.72 7  329 229 
 ELA  HZ I         0 4 20.65        10.0 0.50            109            329 229 
 CBOC HZ EP        0 3 35.60                             110    0.79 7  333 252 
 CBOC HN ES        0 4 11.21                             110   -0.06 7  333 252 
 CBOC HZ I         0 4 25.94         3.3 0.40            109            333 252 
 ANIL HE ES   4    0 4 18.33                             108    1.82 0  357 224 
 ANIL HZ I         0 4 23.87        28.8 0.30            108            357 224 
 PRA  HZ EP        0 3 41.00                             106   -0.51 6  392 209 
 PRA  HN ES        0 4 22.91                             106   -0.28 6  392 209 
 PRA  HZ I         0 4 31.81        11.3 0.34            106            392 209 
 SJC  HZ EP   4    0 3 41.54                             105   -1.92 0  408 327 
 SJC  HN ES   4    0 4 22.47                             105   -4.20 0  408 327 
 SJC  HZ I         0 4 41.68         5.4 0.54            105            408 327 
 CRJC HZ EP   4    0 3 47.62                             103   -2.85 0  467   4 
 CRJC HN ES   4    0 4 34.93                             103   -4.22 0  467   4 
 CRJC HZ I         0 4 41.31         8.4 0.42            103            467   4 
                                                                                
