 2017  310 0521 50.7 L   5.858 -73.757115.2  RSN  4 0.4 0.9LRSN                1
 GAP=150        0.95       7.1     4.9  8.8 -0.1109E+02  0.7489E+01 -0.2170E+02E
 Epicentro: JESUS MARIA - SANTANDER                                            3
 ACTION:UPD 17-05-25 18:38 OP:jn   STATUS:               ID:20170310052150 L   I
 OLDACT:UP  17-03-10 17:06 OP:ar   STATUS:               ID:20170310051744     3
 OLDACT:REG 17-03-10 12:23 OP:ar   STATUS:               ID:20170310051744     3
 2017-03-10-0518-00M.COL___403                                                 6
 STAT SP IPHASW D HRMM SECON CODA AMPLIT PERI AZIMU VELO AIN AR TRES W  DIS CAZ7
 SPBC HZ EP        522  6.86                             159   -0.2210 41.7 237 
 SPBC HN ES        522 20.07                             159    0.2010 41.7 237 
 SPBC HZ I         522 21.60         2.8 0.24            159           41.7 237 
 RUS  HZ EP        522  9.47                             145   -0.0910 74.7  87 
 RUS  HN ES        522 24.27                             145   -0.0210 74.7  87 
 RUS  HZ I         522 25.08         1.5 0.28            149           74.7  87 
 BAR2 EZ EP        522 12.19                             135    0.7610  103  38 
 BAR2 EZ ES        522 27.25                             135   -0.3710  103  38 
 PTB  HZ EP        522 11.17                             134   -0.3910  108 314 
 PTB  HN ES   2    522 28.34                             134    0.49 5  108 314 
 PTB  HZ I         522 30.14         1.5 0.10            134            108 314 
                                                                                
