 2016  310 0937 52.1 L   6.807 -73.153143.3  RSN  8 0.3 1.6LRSN                1
 GAP=135        0.80       3.2     3.4  5.4 -0.1523E+01  0.4035E+01  0.2179E+01E
 Epicentro: LOS SANTOS - SANTANDER                                             3
 ACTION:UPD 16-05-13 21:22 OP:cam  STATUS:               ID:20160310093752 L   I
 OLDACT:UP  16-03-14 10:33 OP:Ak   STATUS:               ID:20160310093752 L   3
 OLDACT:UP  16-03-10 18:06 OP:cara STATUS:               ID:20160310092748     3
 OLDACT:UP  16-03-10 18:06 OP:cara STATUS:               ID:20160310092748     3
 OLDACT:REG 16-03-10 14:19 OP:cara STATUS:               ID:20160310092748     3
 2016-03-10-0927-48M.COL___285                                                 6
 STAT SP IPHASW D HRMM SECON CODA AMPLIT PERI AZIMU VELO AIN AR TRES W  DIS CAZ7
 BAR2 EZ EP        938 11.40                             170   -0.0710 24.0 188 
 BAR2 EZ ES        938 26.14                             170   -0.4310 24.0 188 
 BAR2 EZ I         938 27.64        12.3 0.14            170           24.0 188 
 PAM  EZ EP        938 14.34                             150    0.2710 77.3  40 
 PAM  EN ES        938 31.38                             150    0.1810 77.3  40 
 PAM  EZ I         938 35.38         4.7 0.36            153           77.3  40 
 RUS  HZ EP        938 15.40                             143   -0.2910  101 176 
 RUS  HN ES        938 34.28                             143    0.2010  101 176 
 RUS  HZ I         938 34.93         5.3 0.22            145            101 176 
 PTB  HZ EP        938 18.32                             131   -0.51 9  147 258 
 PTB  HN ES        938 39.46                             131   -0.20 9  147 258 
 PTB  HZ I         938 41.08         5.4 0.50            131            147 258 
 SPBC HZ EP        938 20.41                             128   -0.03 9  163 219 
 SPBC HN ES        938 42.66                             128    0.13 9  163 219 
 SPBC HZ I         938 49.45         8.2 0.16            129            163 219 
 ZAR  HZ EP   4    938 25.98                             122    1.68 0  203 292 
 ZAR  HE ES        938 49.90                             122    0.50 9  203 292 
 ZAR  HZ I         938 56.27         5.2 0.62            122            203 292 
 CHI  HZ EP        938 29.62                             116   -0.12 8  249 195 
 CHI  HE ES        938 59.73                             116    0.64 8  249 195 
 CHI  HZ I         939  4.43         1.6 0.36            118            249 195 
 GUY2CHZ EP   9    938 37.98                             112    2.39 0  301 235 
 GUY2CHE ES        939 11.65                             112   -0.24 7  301 235 
 GUY2CHZ I         939 17.93         2.2 0.34                           301 235 
                                                                                
