 2016  610 0433 40.9 L   6.806 -73.154148.6  RSN  7 0.5 1.6LRSN                1
 GAP=182        1.05       3.8     6.4  7.0 -0.1246E+01  0.4340E+00 -0.9894E+00E
 Epicentro: LOS SANTOS - SANTANDER                                             3
 ACTION:UPD 16-07-21 22:17 OP:rebc STATUS:               ID:20160610043340 L   I
 OLDACT:UP  16-06-10 17:45 OP:dani STATUS:               ID:20160610042747     3
 OLDACT:UP  16-06-10 17:44 OP:dani STATUS:               ID:20160610042747     3
 OLDACT:REG 16-06-10 13:04 OP:dani STATUS:               ID:20160610042747     3
 2016-06-10-0427-47M.COL___337                                                 6
 STAT SP IPHASW D HRMM SECON CODA AMPLIT PERI AZIMU VELO AIN AR TRES W  DIS CAZ7
 BAR2 EZ EP        434  0.39                             171   -0.4410 23.8 188 
 BAR2 EZ ES        434 16.15                             171   -0.2710 23.8 188 
 BAR2 EZ I         434 17.03         5.8 0.14                          23.8 188 
 BRR  HZ EP        434  2.19                             153   -0.0610 70.1 298 
 BRR  HE ES        434 19.58                             153    0.6510 70.1 298 
 BRR  HZ I         434 20.95         8.7 0.12                          70.1 298 
 RUS  HZ EP        434  5.18                             144    0.2410  101 176 
 RUS  HE ES        434 23.62                             144   -0.1010  101 176 
 RUS  HZ I         434 24.23         3.1 0.40                           101 176 
 PTB  HZ EP        434  7.12                             133   -0.86 9  147 259 
 PTB  HN ES        434 28.94                             133   -0.20 9  147 259 
 PTB  HZ I         434 33.19         4.7 0.24                           147 259 
 OCA  HZ EP        434  9.92                             130    0.60 9  160 353 
 OCA  HN ES        434 31.33                             130   -0.19 9  160 353 
 OCA  HZ I         434 34.99        11.9 0.38                           160 353 
 SPBC HZ EP        434  9.72                             130    0.16 9  163 219 
 SPBC HN ES        434 32.25                             130    0.29 9  163 219 
 CHI  HZ EP   2    434 18.75                             118   -0.00 4  249 195 
 CHI  HE ES   2    434 49.53                             118    1.22 4  249 195 
 CHI  HZ I         434 50.43         3.1 0.16                           249 195 
                                                                                
