 2016  410 0631 33.3 L   7.458 -73.422117.8  RSN  7 0.4 1.7LRSN                1
 GAP= 96        0.93       3.4     3.5  8.9 -0.3813E-01  0.1095E+02  0.1358E+02E
 Epicentro: SABANA DE TORRES - SANTANDER                                       3
 ACTION:UPD 16-05-05 14:20 OP:rebc STATUS:               ID:20160410063133 L   I
 OLDACT:UP  16-04-10 17:23 OP:mh   STATUS:               ID:20160410062744     3
 OLDACT:REG 16-04-10 12:39 OP:mh   STATUS:               ID:20160410062744     3
 2016-04-10-0627-44M.COL___279                                                 6
 STAT SP IPHASW D HRMM SECON CODA AMPLIT PERI AZIMU VELO AIN AR TRES W  DIS CAZ7
 PAM  EZ EP        631 52.98                             143    0.0910 80.9  99 
 PAM  EE ES        632  8.41                             143    0.2510 80.9  99 
 PAM  EZ I         632 10.82         8.2 0.22            147           80.9  99 
 OCA  HZ EP   1    631 52.85                             141   -0.03 7 87.0   8 
 OCA  HN ES        632  7.82                             141   -0.3210 87.0   8 
 OCA  HZ I         632  9.85        22.0 0.42            147           87.0   8 
 PTB  HZ EP        631 57.95                             124   -0.73 9  153 228 
 PTB  HE ES        632 17.96                             124   -0.50 9  153 228 
 PTB  HZ I         632 19.18         7.1 0.24            127            153 228 
 ZAR  HZ EP        631 59.34                             123    0.10 9  158 271 
 ZAR  HN ES        632 20.17                             123    0.71 9  158 271 
 ZAR  HZ I         632 22.26        10.3 0.28            126            158 271 
 RUS  HZ EP        632  1.89                             120    0.07 9  177 168 
 RUS  HE ES        632 23.91                             120   -0.15 9  177 168 
 RUS  HZ I         632 26.31         1.8 0.48            123            177 168 
 SPBC HZ EP        632  5.48                             114    0.36 8  212 200 
 SPBC HN ES        632 30.31                             114    0.38 8  212 200 
 SPBC HZ I         632 36.67         4.2 0.31            118            212 200 
 URE  HN ES   4    632 32.27                             112   -2.04 0  235 278 
 NOR  HN ES        632 40.05                             109   -0.16 8  264 217 
                                                                                
