 2017  410 0335 40.2 L   6.725 -73.137146.4  RSN  5 0.4 1.0LRSN                1
 GAP=141        0.91       5.1     4.9  7.0 -0.3995E+01  0.6250E+01 -0.2885E+01E
 Epicentro: JORDAN - SANTANDER                                                 3
 ACTION:UPD 17-05-30 21:10 OP:jn   STATUS:               ID:20170410033540 L   I
 OLDACT:UP  17-04-10 16:27 OP:edw  STATUS:               ID:20170410032743d    3
 OLDACT:UP  17-04-10 16:26 OP:edw  STATUS:               ID:20170410032743d    3
 OLDACT:DUP 17-04-10 16:23 OP:edw  STATUS:               ID:20170410032743d    3
 OLDACT:UP  17-04-10 16:21 OP:edw  STATUS:               ID:20170410032742     3
 OLDACT:UP  17-04-10 16:18 OP:edw  STATUS:               ID:20170410032742     3
 OLDACT:REG 17-04-10 12:46 OP:edw  STATUS:               ID:20170410032742     3
 2017-04-10-0328-00M.COL___371                                                 6
 STAT SP IPHASW D HRMM SECON CODA AMPLIT PERI AZIMU VELO AIN AR TRES W  DIS CAZ7
 BAR2 EZ EP        336  0.05                             174    0.2710 15.5 199 
 BAR2 EZ ES        336 15.48                             174    0.4410 15.5 199 
 BAR2 EZ I         336 18.41         3.6 0.50            172           15.5 199 
 BRR  HZ EP        336  1.96                             151    0.2510 76.3 304 
 BRR  HN ES        336 18.68                             151    0.1910 76.3 304 
 PAM  EZ EP     C  336  3.07                             149    0.2210 83.4  35 
 PAM  EN ES        336 19.91                             149   -0.6110 83.4  35 
 PAM  EZ I         336 20.45         1.7 0.38            152           83.4  35 
 RUS  HZ EP   2    336  2.68                             146   -0.75 5 92.2 176 
 RUS  HN ES        336 21.42                             146   -0.1310 92.2 176 
 RUS  HZ I         336 23.38         1.1 0.22            147           92.2 176 
 PTB  HZ EP        336  7.15                             132   -0.03 9  147 262 
 PTB  HN ES        336 27.75                             132   -0.47 9  147 262 
 PTB  HZ I         336 30.54         1.6 0.32            133            147 262 
                                                                                
