 2017 1110 0057 25.9 L   6.754 -73.139147.5  RSN 10 0.5 1.8LRSN                1
 GAP=114        1.31       4.4     4.9  7.4  0.4091E+01  0.5601E+01  0.6465E+01E
 Epicentro: LOS SANTOS - SANTANDER                                             3
 ACTION:UPD 17-12-12 19:53 OP:rebc STATUS:               ID:20171110005725 L   I
 OLDACT:REG 17-11-10 14:17 OP:dnl  STATUS:               ID:20171110004744     3
 2017-11-10-0048-00M.COL___459                                                 6
 STAT SP IPHASW D HRMM SECON CODA AMPLIT PERI AZIMU VELO AIN AR TRES W  DIS CAZ7
 BAR2 EZ EP        057 45.49                             172   -0.1110 18.6 195 
 BAR2 EZ IP        057 45.49                             172           18.6 195 
 BAR2 EZ ES        058  1.04                             172    0.0310 18.6 195 
 BAR2 EZ I         058  2.36        16.5 0.30            174           18.6 195 
 BRR  HZ EP        057 47.60                             152    0.2310 74.4 302 
 BRR  HN ES        058  4.90                             152    0.7510 74.4 302 
 BRR  HZ I         058  9.69        12.7 0.50            152           74.4 302 
 PAM  EZ EP        057 48.44                             150   -0.0210 80.9  37 
 PAM  EN ES        058  5.86                             150   -0.2310 80.9  37 
 PAM  EZ I         058  8.12        11.6 0.44            151           80.9  37 
 RUS  HZ EP        057 49.26                             146   -0.1510 95.5 176 
 RUS  HN ES        058  7.91                             146    0.1210 95.5 176 
 RUS  HZ I         058  9.26         8.7 0.32            149           95.5 176 
 PTB  HZ EP        057 52.31                             132   -0.64 9  148 261 
 PTB  HN ES        058 13.01                             132   -1.07 9  148 261 
 PTB  HZ I         058 13.91         5.5 0.14            134            148 261 
 SPBC HZ EP        057 53.32                             130   -0.84 9  160 220 
 SPBC HN ES        058 16.28                             130    0.03 9  160 220 
 YPLC HZ EP        057 55.52                             128    0.21 9  172 151 
 YPLC HN ES        058 17.93                             128   -0.35 9  172 151 
 ZAR  HZ EP        057 59.30                             122    0.62 8  207 293 
 ZAR  HE ES        058 24.59                             122    0.30 8  207 293 
 ZAR  HZ I         058 26.37         6.3 0.16            124            207 293 
 CHI  HZ EP        058  3.52                             118    0.38 8  244 196 
 CHI  HN ES        058 33.44                             118    1.21 8  244 196 
 GUY2CHZ EP   4    058 12.12                             113    2.83 0  299 236 
 GUY2CHN ES   4    058 47.42                             113    4.25 0  299 236 
 GUY2CHZ I         058 50.66         1.9 0.30                           299 236 
                                                                                
