 2010  810 0230 38.1 L   6.797 -73.096147.1  RSN  5 0.4 1.5LRSN                1
 GAP=164        0.63       5.4    10.7  9.6 -0.2074E+01 -0.2031E+02 -0.1034E+02E
 Epicentro: LOS SANTOS - SANTANDER                                             3
 ACTION:UP  10-09-07 10:53 OP:vdl  STATUS:               ID:20100810023038 L   I
 2010-08-10-0228-29S.COL___125                                                 6
 STAT SP IPHASW D HRMM SECON CODA AMPLIT PERI AZIMU VELO SNR AR TRES W  DIS CAZ7
 BAR2 SZ EP   1    230 57.87                             170     0.0 7   25 203 
 BAR2 SZ ES   2    231 12.57                             170    -0.8 5   25 203 
 BAR2 SZ I         231 14.32         6.2 0.23                            25 203 
 BRR  HZ EP   1    230 59.64                             151     0.0 7   76 297 
 BRR  HE ES   2    231 16.78                             151     0.3 5   76 297 
 BRR  HZ I         231 21.35         9.1 0.12                            76 297 
 RUS  HZ EP   2    231  2.06                             144     0.1 5  100 179 
 RUS  HE ES   2    231 20.99                             144     0.5 5  100 179 
 RUS  HZ I         231 22.33         3.4 0.35                           100 179 
 GUE  SZ EP   2    231  2.63                             140    -0.2 5  116   9 
 GRA  SZ EP   2    231  3.14                             138    -0.2 5  125  15 
 GRA  SZ ES   2    231 23.53                             138     0.5 5  125  15 
 GRA  SZ I         231 25.34         3.4 0.24                           125  15 
                                                                                
