 2010  210 0411 20.3 L   6.557 -73.874 32.1  RSN  5 0.5 2.0LRSN                1
 GAP=155        0.96      11.4     6.9 13.2 -0.6771E+02  0.7540E+02 -0.1060E+03E
 Epicentro: PUERTO PARRA - SANTANDER                                           3
 ACTION:UP  10-08-24 09:48 OP:vdl  STATUS:               ID:20100210041120 L   I
 2010-02-10-0409-07S.COL___094                                                 6
 STAT SP IPHASW D HRMM SECON CODA AMPLIT PERI AZIMU VELO SNR AR TRES W  DIS CAZ7
 BAR2 SZ IP        411 32.86                              99    -0.210   76  87 
 BAR2 SZ ES   1    411 42.32                              99    -0.6 7   76  87 
 GIR2 SZ EP   1    411 35.76                              61     0.6 7   95  52 
 GIR2 SZ ES   1    411 47.14                              61     0.3 7   95  52 
 HEL  HZ EP        411 46.89                              61    -0.2 9  188 258 
 HEL  HN ES   1    412  7.42                              61    -0.5 7  188 258 
 HEL  HZ I         412  8.73        13.7 0.15                           188 258 
 RREF BZ EP   1    411 54.95                              61     0.3 6  245 222 
 RREF BN ES   2    412 21.37                              61     0.0 4  245 222 
 RREF BZ I         412 24.44         9.8 0.29                           245 222 
 TOL  SZ EP   1    411 58.28                              60     0.9 6  271 216 
                                                                                
