 2017 1110 0059 27.5 L   6.776 -73.150150.9  RSN  5 0.3 1.4LRSN                1
 GAP=137        0.87       4.5     4.0  6.9  0.1560E+01  0.6094E+01  0.7657E+00E
 Epicentro: LOS SANTOS - SANTANDER                                             3
 ACTION:UPD 17-12-12 19:53 OP:rebc STATUS:               ID:20171110005928dL   I
 OLDACT:REG 17-11-10 14:17 OP:dnl  STATUS:               ID:20171110005739     3
 2017-11-10-0058-00M.COL___459                                                 6
 STAT SP IPHASW D HRMM SECON CODA AMPLIT PERI AZIMU VELO AIN AR TRES W  DIS CAZ7
 BRR  HZ EP        059 49.56                             153    0.2910 72.1 301 
 BRR  HN ES        1 0  6.84                             153    0.6010 72.1 301 
 PAM  EZ EP        059 50.37                             151   -0.0510 79.8  39 
 PAM  EN ES        1 0  7.86                             151   -0.4210 79.8  39 
 RUS  HZ EP        059 51.91                             146    0.3210 98.0 176 
 RUS  HN ES        1 0 10.32                             146   -0.0510 98.0 176 
 RUS  HZ I         1 0 11.41         5.0 0.42            146           98.0 176 
 PTB  HZ EP        059 54.64                             133   -0.18 9  147 260 
 PTB  HN ES        1 0 15.57                             133   -0.55 9  147 260 
 PTB  HZ I         1 0 23.13         2.4 0.48            133            147 260 
 ZAR  HZ EP        1 0  0.25                             123   -0.11 9  205 293 
 ZAR  HE ES        1 0 26.00                             123    0.03 9  205 293 
                                                                                
