 2011  410 0714 40.3 L   6.738 -73.080140.0  RSN  4 0.4 1.5LRSN                1
 GAP=183        0.76      15.6     9.0 10.1 -0.4659E+02 -0.1712E+02 -0.2812E+02E
 Epicentro: JORDAN - SANTANDER                                                 3
 ACTION:UP  11-06-22 15:30 OP:REBC STATUS:               ID:20110410071440 L   I
 2011-04-10-0712-02S.COL___138                                                 6
 STAT SP IPHASW D HRMM SECON CODA AMPLIT PERI AZIMU VELO SNR AR TRES W  DIS CAZ7
 BAR2 SZ ES   2    715 13.48                             172    -0.4 5   20 215 
 BAR2 SZ I         715 16.13         8.2 0.16                            20 215 
 PAM  SZ EP   1    715  2.50                             149     0.5 7   79  32 
 PAM  SE ES   2    715 19.11                             149     0.2 5   79  32 
 BRR  HZ EP        715  1.53                             148     0.110   81 300 
 BRR  HZ I         715  1.90         6.3 0.10                            81 300 
 BRR  HN ES   1    715 18.01                             148     0.1 7   81 300 
 GRA  SZ EP   1    715  4.91                             135    -0.6 7  130  14 
                                                                                
