 2017  210 0620 43.6 L   6.777 -73.137150.0  RSN 15 0.4 1.8LRSN                1
 GAP= 98        0.93       3.7     2.6  4.8  0.7165E-01  0.2770E+01  0.5805E+01E
 Epicentro: LOS SANTOS - SANTANDER                                             3
 ACTION:UPD 17-05-24 15:34 OP:jn   STATUS:               ID:20170210062043 L   I
 OLDACT:UP  17-02-10 17:29 OP:edw  STATUS:               ID:20170210061746     3
 OLDACT:REG 17-02-10 12:14 OP:edw  STATUS:               ID:20170210061746     3
 2017-02-10-0618-00M.COL___358                                                 6
 STAT SP IPHASW D HRMM SECON CODA AMPLIT PERI AZIMU VELO AIN AR TRES W  DIS CAZ7
 BAR2 EZ IP     D  621  3.59                             172   -0.1110 21.0 194 
 BAR2 EZ ES        621 19.04                             172   -0.3310 21.0 194 
 BAR2 EZ I         621 20.28        11.9 0.52            169           21.0 194 
 BRR  HZ EP     C  621  5.60                             153    0.2710 73.3 300 
 BRR  HN ES        621 23.03                             153    0.7610 73.3 300 
 BRR  HZ I         621 25.16        13.9 0.14            152           73.3 300 
 PAM  EZ EP        621  6.37                             151    0.0210 78.7  38 
 PAM  EN ES        621 23.69                             151   -0.4010 78.7  38 
 PAM  EZ I         621 25.90         9.8 0.52            149           78.7  38 
 RUS  HZ EP        621  7.43                             145   -0.1610 98.0 177 
 RUS  HN ES        621 26.32                             145    0.0210 98.0 177 
 RUS  HZ I         621 27.82        10.6 0.30            141           98.0 177 
 PTB  HZ EP        621 10.28                             133   -0.69 9  148 260 
 PTB  HN ES        621 31.83                             133   -0.48 9  148 260 
 PTB  HZ I         621 37.10         8.0 0.18            130            148 260 
 TAM  HZ IP     D  621 11.73                             132    0.26 9  153 104 
 TAM  HZ I         621 32.65         4.8 0.11            128            153 104 
 TAM  HN ES        621 33.69                             132    0.48 9  153 104 
 ZAR  HZ EP        621 16.40                             123   -0.13 8  206 293 
 ZAR  HN ES        621 42.32                             123    0.12 8  206 293 
 ZAR  HZ I         621 45.72         6.8 0.26            121            206 293 
 NOR  HZ EP        621 19.53                             119    0.01 8  234 235 
 NOR  HN ES        621 47.63                             119    0.11 8  234 235 
 NOR  HZ I         621 54.58         5.0 0.50            116            234 235 
 CHI  HZ EP        621 21.59                             118    0.28 8  246 196 
 CHI  HN ES   4    621 49.45                             118   -1.26 0  246 196 
 CHI  HZ I         621 54.90         3.4 0.38            115            246 196 
 ROSC BZ EP   4    621 19.93                             118   -1.85 0  251 212 
 ROSC BN ES   4    621 55.92                             118    4.36 0  251 212 
 ROSC BZ I         621 58.09         5.2 0.35            115            251 212 
 PTGC HZ EP        621 26.39                             113   -0.96 7  306 159 
 PTGC HN ES   4    621 59.07                             113   -2.39 0  306 159 
 CBOC HZ EP   4    621 32.02                             111    1.30 0  334 253 
 CBOC HN ES        622  7.70                             111    0.23 7  334 253 
 CBOC HZ I         622 15.19         1.4 0.44            108            334 253 
 PRA  HZ EP        621 37.41                             107    0.33 6  390 210 
 PRA  HN ES        622 19.34                             107    0.56 6  390 210 
 PRA  HZ I         622 25.18         3.6 0.28            105            390 210 
 ORTC HZ EP   4    621 34.42                             107   -3.08 0  394 217 
 ORTC HN ES   4    622 22.74                             107    3.20 0  394 217 
 ORTC HZ I         622 27.09         2.7 0.46            105            394 217 
 PAL  HZ EP        621 39.38                             107    0.52 6  405 239 
 PAL  HN ES        622 21.86                             107   -0.09 6  405 239 
 PAL  HZ I         622 27.77         1.4 0.30            104            405 239 
                                                                                
