 2016 1210 0453 14.3 L   6.776 -73.185140.8  RSN 10 0.2 1.9LRSN                1
 GAP=133        0.72       2.7     3.1  4.5  0.1092E+01  0.3491E+01  0.2415E+01E
 Epicentro: LOS SANTOS - SANTANDER                                             3
 ACTION:UPD 17-01-11 20:13 OP:rebc STATUS:               ID:20161210045314 L   I
 OLDACT:REG 16-12-10 12:55 OP:lv   STATUS:               ID:20161210044747     3
 2016-12-10-0448-00M.COL___367                                                 6
 STAT SP IPHASW D HRMM SECON CODA AMPLIT PERI AZIMU VELO AIN AR TRES W  DIS CAZ7
 BAR2 EZ EP        453 33.25                             171    0.0010 20.3 179 
 BAR2 EZ ES        453 47.99                             171   -0.0610 20.3 179 
 BAR2 EZ I         453 49.33        19.9 0.36            169           20.3 179 
 BRR  HZ EP        453 35.02                             152    0.2710 68.8 302 
 BRR  HN ES        453 51.10                             152    0.3810 68.8 302 
 BRR  HZ I         453 55.40        10.5 0.14            151           68.8 302 
 PAM  EZ EP        453 36.22                             148   -0.0510 82.2  41 
 PAM  EN ES        453 53.26                             148   -0.1610 82.2  41 
 PAM  EZ I         453 54.02         8.1 0.22            153           82.2  41 
 RUS  HZ EP        453 37.22                             143   -0.1610 98.3 173 
 RUS  HN ES        453 55.39                             143   -0.0110 98.3 173 
 RUS  HZ I         453 56.91         7.9 0.20            144           98.3 173 
 PTB  HZ EP        453 40.00                             132   -0.40 9  143 260 
 PTB  HN ES        454  0.85                             132    0.06 9  143 260 
 PTB  HZ I         454  2.94        10.8 0.16            131            143 260 
 ZAR  HZ EP        453 46.25                             122    0.16 9  201 293 
 ZAR  HE ES        454 10.63                             122   -0.28 9  201 293 
 ZAR  HZ I         454 16.41        10.4 0.36            122            201 293 
 CHI  HZ EP        453 51.70                             116    0.40 8  245 194 
 CHI  HN ES        454 20.04                             116   -0.14 8  245 194 
 CHI  HZ I         454 23.29         5.5 0.35            117            245 194 
 ROSC BZ EP   4    453 54.21                             116    2.58 0  248 210 
 ROSC BE ES   4    454 24.28                             116    3.51 0  248 210 
 ROSC BZ I         454 27.94        16.1 0.45            117            248 210 
 GUY2CHZ EP   4    453 58.30                             112    1.22 0  296 235 
 GUY2CHN ES   4    454 33.62                             112    3.15 0  296 235 
 GUY2CHZ I         454 39.49         4.8 0.34                           296 235 
 PTGC HZ EP   4    453 56.49                             111   -1.32 0  308 158 
 PTGC HN ES   4    454 29.23                             111   -2.55 0  308 158 
 LL6C HZ EP   9    453 39.31                             109   -20.7 0  327 358 
 LL6C HE ES        454 14.08                                   -0.94 7  327 358 
                                                                                
