 2010  510 0106 49.0 L   6.148 -73.290153.9  RSN 14 0.5 2.8LRSN                1
 GAP=124        1.27       5.1     8.6  9.5 -0.2285E+02  0.3093E+02 -0.6562E+01E
 Epicentro: OIBA - SANTANDER                                                   3
 ACTION:UP  10-08-24 10:03 OP:vdl  STATUS:               ID:20100510010649 L   I
 2010-05-10-0105-24S.COL___104                                                 6
 STAT SP IPHASW D HRMM SECON CODA AMPLIT PERI AZIMU VELO SNR AR TRES W  DIS CAZ7
 RUS  HZ IP     D  1 7 10.36                             166     0.110   36 141 
 RUS  HZ I         1 7 11.02        97.5 0.17                            36 141 
 RUS  HE ES   2    1 7 27.13                             166     0.2 5   36 141 
 BAR2 SZ EP        1 7 10.27                             161    -0.110   50  13 
 BAR2 SZ ES   1    1 7 26.35                             161    -0.8 7   50  13 
 BRR  HZ IP     D  1 7 14.85                             141     0.910  116 336 
 BRR  HE ES   2    1 7 34.19                             141     0.7 5  116 336 
 BRR  HZ I         1 7 39.82        71.9 0.16                           116 336 
 CHI  HZ EP        1 7 19.46                             129    -0.2 9  175 196 
 CHI  HZ I         1 7 20.01       109.8 0.20                           175 196 
 CHI  HE ES   1    1 7 43.17                             129    -0.4 7  175 196 
 BRI  SZ EP        1 7 20.29                             128     0.3 9  182  17 
 ROSC BZ EP        1 7 21.65                             127     1.1 9  184 218 
 ROSC BZ I         1 7 53.58        30.0 0.22                           184 218 
 GUE  SZ EP        1 7 20.30                             126    -0.7 9  190  12 
 GRA  SZ EP        1 7 21.95                             125     0.2 9  199  16 
 OCA  SZ EP        1 7 24.56                             121    -0.4 8  231 359 
 OCA  SZ ES   2    1 7 53.08                             121     0.0 4  231 359 
 OCA  SZ I         1 7 56.69        42.4 0.33                           231 359 
 HEL  HZ EP        1 7 26.83                             119    -0.2 8  248 271 
 HEL  HE ES   2    1 7 55.83                             119    -0.8 4  248 271 
 HEL  HZ I         1 8  4.03        82.4 0.47                           248 271 
 RREF BZ EP        1 7 29.60                             117     0.2 8  266 239 
 RREF BE ES   2    1 8  0.80                             117     0.0 4  266 239 
 RREF BZ I         1 8 11.10        38.5 0.27                           266 239 
 ANIL BZ EP        1 7 32.31                             114     0.0 7  297 232 
 ANIL BN ES   2    1 8  6.52                             114     0.4 4  297 232 
 ANIL BZ I         1 8 16.72        46.6 0.31                           297 232 
 PRA  HZ EP        1 7 33.96                             112    -0.8 7  322 213 
 PRA  HN ES   2    1 8 10.10                             112    -0.4 3  322 213 
 PRA  HZ I         1 8 12.03        33.7 0.18                           322 213 
 DBB  SZ EP        1 7 36.02                             111    -0.5 7  337 287 
                                                                                
