 2016  310 0845  5.3 L   6.808 -73.213139.4  RSN  5 0.2 1.2LRSN                1
 GAP=128        0.61       3.2     2.7  5.1 -0.1359E+00  0.4337E+01 -0.1367E+01E
 Epicentro: ZAPATOCA - SANTANDER                                               3
 ACTION:UPD 16-05-13 21:22 OP:cam  STATUS:               ID:20160310084505 L   I
 OLDACT:REG 16-03-10 14:14 OP:cara STATUS:               ID:20160310083748     3
 2016-03-10-0837-48M.COL___285                                                 6
 STAT SP IPHASW D HRMM SECON CODA AMPLIT PERI AZIMU VELO AIN AR TRES W  DIS CAZ7
 BAR2 EZ IP        845 24.29                             170    0.1310 24.1 172 
 BAR2 EZ ES        845 38.96                             170    0.0710 24.1 172 
 BAR2 EZ I         845 40.26         3.7 0.52            171           24.1 172 
 PAM  EZ EP        845 27.28                             148    0.1910 81.6  44 
 PAM  EZ I         845 27.53         3.3 0.50            150           81.6  44 
 PAM  EN ES        845 43.82                             148   -0.2810 81.6  44 
 RUS  HZ EP        845 28.48                             142   -0.0610  102 172 
 RUS  HN ES        845 46.84                             142    0.1610  102 172 
 RUS  HZ I         845 47.58         2.5 0.24            145            102 172 
 PTB  HZ EP        845 30.77                             132   -0.32 9  141 258 
 PTB  HN ES        845 50.98                             132   -0.24 9  141 258 
 PTB  HZ I         845 53.97         3.0 0.14            132            141 258 
 ZAR  HE ES        846  1.35                             122    0.37 9  197 293 
 ZAR  HZ I         846  7.08         1.9 0.44            122            197 293 
                                                                                
