 2015 1010 0636  3.2 L   7.298 -73.393  8.6  RSN 11 0.3 1.9LRSN                1
 GAP= 82        0.72       1.3     1.7  3.3 -0.3430E+00  0.2816E+01 -0.5780E+00E
 Epicentro: SABANA DE TORRES - SANTANDER                                       3
 ACTION:UPD 15-12-22 20:38 OP:cam  STATUS:               ID:20151010063603 L   I
 OLDACT:REG 15-10-10 12:44 OP:spq  STATUS:               ID:20151010062747     3
 2015-10-10-0627-47M.COL___337                                                 6
 STAT SP IPHASW D HRMM SECON CODA AMPLIT PERI AZIMU VELO AIN AR TRES W  DIS CAZ7
 BRR  HZ IP     D  636 10.02                              97   -0.0410 41.1 239 
 BRR  HN ES        636 15.75                              97    0.3410 41.1 239 
 BRR  HZ I         636 16.17       147.4 0.14             47           41.1 239 
 PAM  EZ EP        636 16.29                              94    0.3610 76.7  87 
 PAM  EN ES        636 26.10                              94    0.2310 76.7  87 
 PAM  EZ I         636 27.75        15.4 0.18             47           76.7  87 
 BAR2 EZ EP        636 16.27                              94   -0.1310 81.5 163 
 BAR2 EZ ES   1    636 26.01                              94   -0.69 7 81.5 163 
 BAR2 EZ I         636 30.65        20.8 0.36             47           81.5 163 
 OCA  HZ EP        636 19.77                              93    0.0010  104   4 
 OCA  HE ES        636 32.31                              93   -0.3810  104   4 
 OCA  HZ I         636 36.52        61.9 0.18             47            104   4 
 RUS  HZ EP        636 28.62                              92    0.20 9  159 168 
 RUS  HE ES   1    636 48.25                              92    0.15 7  159 168 
 RUS  HZ I         636 49.67        20.4 0.30             47            159 168 
 ZAR  HZ EP     D  636 27.89                              56   -0.57 9  163 278 
 ZAR  HE ES   4    636 46.48                              56   -1.69 0  163 278 
 ZAR  HZ I         636 48.22        20.7 0.22             47            163 278 
 SML  HZ EP        636 31.08                              56    0.25 9  182 336 
 SML  HE ES   1    636 52.36                              56   -0.02 7  182 336 
 SPBC HZ EP        636 32.49                              56   -0.29 9  197 202 
 SPBC HE ES   1    636 55.92                              56    0.06 6  197 202 
 SPBC HZ I         636 59.98        16.1 0.18             37            197 202 
 URE  HE ES        637  5.90                              56    0.30 8  241 282 
 URE  HZ I         637  8.71         8.2 0.26             37            241 282 
 HEL  HN ES        637 12.02                              56    0.19 8  266 243 
 HEL  HZ I         637 18.48         3.0 0.40             37            266 243 
 GUY2CHZ EP   1    636 47.91                              55   -0.25 5  317 224 
 GUY2CHE ES   1    637 23.21                              55   -0.02 5  317 224 
 GUY2CHZ I         637 25.21         1.9 0.22                           317 224 
 SJC  HZ EP   4    636 52.69                              55    1.13 0  348 326 
                                                                                
