 2017 1210 0214 49.8 L   6.768 -73.156139.9  RSN  7 0.5 1.2LRSN                1
 GAP=150        1.13       4.2     5.5  8.8 -0.4578E+01  0.4719E+01  0.2843E+01E
 Epicentro: LOS SANTOS - SANTANDER                                             3
 ACTION:UPD 18-01-04 13:18 OP:rebc STATUS:               ID:20171210021449 L   I
 OLDACT:REG 17-12-10 12:40 OP:lv   STATUS:               ID:20171210020739     3
 2017-12-10-0208-00M.COL___481                                                 6
 STAT SP IPHASW D HRMM SECON CODA AMPLIT PERI AZIMU VELO AIN AR TRES W  DIS CAZ7
 BAR2 EZ EP        215  8.44                             172   -0.1910 19.6 189 
 BAR2 EZ ES        215 23.52                             172    0.1810 19.6 189 
 BAR2 EZ I         215 24.39         7.2 0.38            168           19.6 189 
 PAM  EZ EP        215 11.36                             149   -0.2310 80.9  39 
 PTB  HZ EP        215 16.01                             131   -0.10 9  146 260 
 PTB  HN ES        215 36.05                             131   -0.60 9  146 260 
 PTB  HZ I         215 38.36         1.3 0.26            131            146 260 
 OCA  HZ EP        215 18.64                             128    0.67 9  164 354 
 OCA  HN ES        215 39.69                             128   -0.26 9  164 354 
 ZAR  HE ES        215 47.55                             121    0.63 9  204 293 
 CHI  HZ EP        215 26.09                             116   -0.66 8  245 195 
 CHI  HN ES        215 56.46                             116    0.88 8  245 195 
 CHI  HZ I         216  3.19         1.1 0.58            115            245 195 
 GUY2CHZ EP   4    215 35.03                             111    2.25 0  298 235 
 GUY2CHN ES        216  6.17                             111   -0.16 7  298 235 
 GUY2CHZ I         216 14.70         0.8 0.26                           298 235 
                                                                                
