 2013 1210 0526 26.0 L   6.801 -73.169149.2  RSN  9 0.4 1.9LRSN                1
 GAP=134        0.96       3.2     4.3  6.0 -0.9797E+00  0.5248E+01 -0.2091E+01E
 Epicentro: LOS SANTOS - SANTANDER                                             3
 ACTION:UPD 14-01-13 10:17 OP:ep   STATUS:               ID:20131210052626 L   I
 OLDACT:DUP 13-12-10 07:52 OP:jn   STATUS:               ID:20131210052001d    3
 2013-12-10-0520-00M.COL___285                                                 6
 STAT SP IPHASW D HRMM SECON CODA AMPLIT PERI AZIMU VELO AIN AR TRES W  DIS CAZ7
 BAR2 SZ EP        526 46.12                             171    0.0810 23.2 184 
 BAR2 SZ ES        527  1.81                             171    0.1410 23.2 184 
 BAR2 SZ I         527  2.77        44.3 0.34            170           23.2 184 
 BRR  HZ EP        526 47.86                             154    0.4710 68.9 299 
 BRR  HN ES        527  4.75                             154    0.6710 68.9 299 
 BRR  HZ I         527  8.84        14.5 0.48            151           68.9 299 
 PAM  SZ EP        526 49.03                             151    0.3610 78.9  41 
 PAM  SN ES        527  5.87                             151   -0.4810 78.9  41 
 PAM  SZ I         527  8.20        14.7 0.56            155           78.9  41 
 RUS  HZ EP        526 50.05                             144   -0.0610  101 175 
 RUS  HN ES        527  8.66                             144   -0.2610  101 175 
 RUS  HZ I         527  9.71         5.1 0.28            147            101 175 
 PTB  HZ EP        526 52.66                             133   -0.36 9  145 259 
 PTB  HN ES        527 13.39                             133   -0.72 9  145 259 
 PTB  HZ I         527 19.39         8.0 0.24            133            145 259 
 OCA  HN ES   1    527 16.54                             130   -0.26 7  160 354 
 SPBC HZ EP        526 55.02                             130    0.40 9  162 218 
 SPBC HN ES        527 16.92                             130   -0.03 9  162 218 
 SPBC HZ I         527 21.36        10.1 0.44            131            162 218 
 ZAR  HE ES   1    527 24.06                             123    0.35 6  202 292 
 ZAR  HZ I         527 30.81         9.1 0.36            124            202 292 
 SML  HZ EP        527  2.43                             118   -0.26 8  243 336 
 SML  HE ES        527 31.09                             118   -0.22 8  243 336 
                                                                                
