 2017  110 0332 15.0 L   6.798 -73.055152.0  RSN 11 0.5 1.6LRSN                1
 GAP=127        0.97       3.5     3.8  6.5  0.1241E+01  0.6466E+01  0.7218E+01E
 Epicentro: LOS SANTOS - SANTANDER                                             3
 ACTION:UPD 17-05-22 15:57 OP:jn   STATUS:               ID:20170110033215 L   I
 OLDACT:UP  17-01-10 14:30 OP:and  STATUS:               ID:20170110032750d    3
 OLDACT:UP  17-01-10 14:28 OP:and  STATUS:               ID:20170110032750d    3
 OLDACT:UP  17-01-10 14:27 OP:and  STATUS:               ID:20170110032750d    3
 OLDACT:DUP 17-01-10 14:25 OP:and  STATUS:               ID:20170110032750d    3
 OLDACT:UP  17-01-10 14:25 OP:and  STATUS:               ID:20170110032749     3
 OLDACT:UP  17-01-10 14:24 OP:and  STATUS:               ID:20170110032749     3
 OLDACT:UP  17-01-10 14:24 OP:and  STATUS:               ID:20170110032749     3
 OLDACT:REG 17-01-10 12:32 OP:and  STATUS:               ID:20170110032749     3
 2017-01-10-0328-00M.COL___354                                                 6
 STAT SP IPHASW D HRMM SECON CODA AMPLIT PERI AZIMU VELO AIN AR TRES W  DIS CAZ7
 PAM  EZ EP        332 38.42                             153    0.8510 71.6  33 
 PAM  EN ES        332 54.97                             153   -0.1910 71.6  33 
 PAM  EZ I         332 57.09         5.1 0.18            156           71.6  33 
 BRR  HZ EP        332 37.45                             150    0.1010 80.3 295 
 BRR  HN ES        332 54.62                             150   -0.1610 80.3 295 
 BRR  HZ I         332 58.50         7.3 0.14            149           80.3 295 
 RUS  HZ EP        332 39.55                             145    0.2010  100 182 
 RUS  HN ES        332 58.14                             145   -0.1910  100 182 
 RUS  HZ I         332 59.11         2.4 0.36            146            100 182 
 PTB  HZ EP   2    332 42.58                             131   -0.80 5  158 260 
 PTB  HN ES   4    333  3.40                             131   -2.11 0  158 260 
 PTB  HZ I         333  5.52         4.8 0.08            131            158 260 
 ZAR  HN ES        333 14.66                             122   -0.56 8  214 291 
 ZAR  HZ I         333 20.42         6.7 0.40            122            214 291 
 NOR  HZ EP        332 52.15                             119    0.18 8  243 236 
 NOR  HN ES        333 20.88                             119    0.08 8  243 236 
 NOR  HZ I         333 21.83         3.9 0.29            119            243 236 
 CHI  HN ES        333 23.09                             118   -0.15 8  251 197 
 CHI  HZ I         333 29.29         2.0 0.33            119            251 197 
 PTGC HZ EP        332 58.74                             113    0.01 7  305 160 
 PTGC HN ES        333 32.11                             113   -0.72 7  305 160 
 GUY2CHZ EP   4    333  2.52                             113    2.69 0  309 236 
 GUY2CHN ES        333 35.33                             113    0.55 7  309 236 
 GUY2CHZ I         333 42.24         3.1 0.46                           309 236 
 CBOC HZ EP        333  3.54                             110    0.26 7  343 253 
 CBOC HN ES        333 41.36                             110    0.44 7  343 253 
 CBOC HZ I         333 52.41         1.0 0.44            110            343 253 
 SJC  HZ EP        333 10.37                             106   -1.08 6  415 326 
 SJC  HN ES   4    333 51.97                             106   -3.51 0  415 326 
                                                                                
