 2016  610 0420 36.6 L   6.813 -73.139148.0  RSN 10 0.6 2.0LRSN                1
 GAP=137        1.34       6.3     6.5  8.5 -0.1256E+02  0.1198E+02  0.1099E+02E
 Epicentro: LOS SANTOS - SANTANDER                                             3
 ACTION:UPD 16-07-21 22:17 OP:rebc STATUS:               ID:20160610042036 L   I
 OLDACT:UP  16-06-10 17:07 OP:dani STATUS:               ID:20160610041743     3
 OLDACT:UP  16-06-10 16:42 OP:dani STATUS:               ID:20160610041743     3
 OLDACT:UP  16-06-10 16:41 OP:dani STATUS:               ID:20160610041743     3
 OLDACT:REG 16-06-10 13:02 OP:dani STATUS:               ID:20160610041743     3
 2016-06-10-0417-43M.COL___337                                                 6
 STAT SP IPHASW D HRMM SECON CODA AMPLIT PERI AZIMU VELO AIN AR TRES W  DIS CAZ7
 BRR  HZ EP     C  420 57.82                             153   -0.1210 71.2 297 
 BRR  HE ES        421 15.43                             153    0.8010 71.2 297 
 BRR  HZ I         421 19.62        16.8 0.15                          71.2 297 
 PAM  EZ EP     D  420 58.88                             152   -0.0410 75.8  40 
 PAM  EN ES        421 16.32                             152   -0.0410 75.8  40 
 PAM  EZ I         421 18.45        21.6 0.66                          75.8  40 
 RUS  HZ EP        421  0.38                             144   -0.2410  102 177 
 RUS  HE ES        421 19.84                             144    0.4510  102 177 
 RUS  HZ I         421 20.92         5.0 0.36                           102 177 
 PTB  HZ EP        421  2.72                             133   -1.07 9  149 258 
 PTB  HN ES        421 24.27                             133   -0.77 9  149 258 
 PTB  HZ I         421 31.19        13.3 0.42                           149 258 
 SPBC HZ EP        421  5.17                             130   -0.20 9  165 219 
 SPBC HN ES        421 27.51                             130   -0.34 9  165 219 
 SPBC HZ I         421 33.89        16.2 0.30                           165 219 
 NOR  HZ EP        421 12.17                             119   -0.39 8  236 234 
 NOR  HN ES        421 41.46                             119    0.81 8  236 234 
 NOR  HZ I         421 44.19         6.6 0.22                           236 234 
 ROSC BN ES   4    421 48.97                             117    4.04 0  254 211 
 HEL  HZ EP        421 17.99                             115    0.99 8  273 256 
 HEL  HE ES   4    421 52.58                             115    4.03 0  273 256 
 HEL  HZ I         421 54.38         6.7 0.42                           273 256 
 GUY2CHZ EP   4    421 22.00                             113    1.58 0  303 235 
 GUY2CHN ES   4    421 57.68                             113    3.04 0  303 235 
 GUY2CHZ I         422  5.41         4.3 0.72                           303 235 
 CBOC HZ EP        421 24.50                             110    0.81 7  335 252 
 CBOC HZ I         421 42.06         1.9 0.16                           335 252 
 PRA  HZ EP        421 30.44                             107    0.10 6  394 210 
 PRA  HN ES   2    422 12.40                             107    0.11 3  394 210 
 PRA  HZ I         422 15.78         3.8 0.34                           394 210 
                                                                                
