 2014 1010 0328 29.8 L   6.796 -73.139144.4  RSN 15 0.5 1.9LRSN                1
 GAP=138        1.06       3.2     4.7  7.2 -0.7728E+00  0.8279E+01 -0.6867E-01E
 Epicentro: LOS SANTOS - SANTANDER                                             3
 ACTION:UPD 14-11-29 23:48 OP:nd   STATUS:               ID:20141010032829 L   I
 OLDACT:DUP 14-10-10 16:39 OP:fm   STATUS:               ID:20141010031736d    3
 2014-10-10-0317-35M.COL___293                                                 6
 STAT SP IPHASW D HRMM SECON CODA AMPLIT PERI AZIMU VELO AIN AR TRES W  DIS CAZ7
 BAR2 SZ EP   1    328 49.68                             170    0.45 7 23.1 192 
 BAR2 SZ ES   1    329  3.94                             170   -0.47 7 23.1 192 
 BAR2 SZ I         329  5.43        19.7 0.30            167           23.1 192 
 BRR  HZ EP        328 51.53                             152    0.7110 72.0 299 
 BRR  HN ES        329  7.80                             152    0.5610 72.0 299 
 BRR  HZ I         329 12.60        28.8 0.44            149           72.0 299 
 PAM  SZ EP        328 52.47                             151    0.6410 77.2  39 
 PAM  SN ES        329  8.81                             151   -0.2310 77.2  39 
 PAM  SZ I         329 11.51        10.1 0.48            155           77.2  39 
 RUS  HZ EP   1    328 53.69                             144    0.33 7  100 176 
 RUS  HN ES        329 11.45                             144   -0.3010  100 176 
 RUS  HZ I         329 13.03         3.9 0.22            142            100 176 
 PTB  HZ EP        328 56.34                             131   -0.35 9  148 259 
 PTB  HN ES        329 17.46                             131   -0.22 9  148 259 
 PTB  HZ I         329 20.36         8.6 0.16            129            148 259 
 OCA  HN ES        329 19.53                             129   -0.53 9  161 353 
 OCA  HZ I         329 21.07         8.5 0.24            130            161 353 
 SPBC HN ES   1    329 20.49                             129    0.15 7  163 219 
 SPBC HZ I         329 26.75         8.0 0.30            127            163 219 
 ZAR  HN ES        329 27.77                             122    0.25 9  205 292 
 ZAR  HZ I         329 33.54         9.0 0.30            121            205 292 
 SML  HZ EP   1    329  5.53                             117   -0.87 6  244 335 
 SML  HE ES        329 34.48                             117   -0.48 8  244 335 
 SML  HZ I         329 37.88        10.3 0.10            117            244 335 
 CHI  HN ES   1    329 36.01                             117   -0.69 6  248 195 
 CHI  HZ I         329 42.96         2.6 0.24            116            248 195 
 ROSC BN ES   4    329 41.82                             116    4.32 0  253 211 
 ROSC BZ I         329 45.83         7.9 0.40            115            253 211 
 GUY2CHZ EP   4    329 12.31                             112   -1.05 0  302 235 
 GUY2CHN ES   4    329 49.15                             112    1.79 0  302 235 
 GUY2CHZ I         329 55.00         2.4 0.28                           302 235 
 MON  HZ EP   4    329 17.38                             108   -1.44 0  355 308 
 MON  HN ES   4    329 55.38                             108   -1.69 0  355 308 
 MON  HZ I         330  1.79         1.1 0.36            108            355 308 
 PRA  HZ EP   1    329 23.49                             106    0.24 4  392 210 
 PRA  HN ES   1    330  4.61                             106   -0.35 4  392 210 
 PRA  HZ I         330 11.58         2.7 0.42            106            392 210 
 SJC  HZ EP   4    329 24.09                             105   -1.29 0  410 327 
 SJC  HN ES   4    330  4.50                             105   -4.25 0  410 327 
 SJC  HZ I         330  9.57         2.4 0.66            105            410 327 
                                                                                
