 2011  810 0657 28.8 L   6.713 -73.184148.6  RSN  5 0.4 1.6LRSN                1
 GAP=178        0.66       3.5     8.2  8.9  0.4618E+01 -0.9101E+00 -0.2053E+01E
 Epicentro: VILLANUEVA - SANTANDER                                             3
 ACTION:UPD 12-07-13 15:51 OP:ep   STATUS:               ID:20110810065728 L   I
 2011-08-10-0640-00M.COL___151                                                 6
 STAT SP IPHASW D HRMM SECON CODA AMPLIT PERI AZIMU VELO AIN AR TRES W  DIS CAZ7
 BAR2 SZ EP   2    657 47.97                             175   -0.60 6 13.4 179 
 BAR2 SZ ES   2    658  3.42                             175   -0.60 6 13.4 179 
 BAR2 SZ I         658  4.86        12.7 0.15                          13.4 179 
 BRR  HZ EP   1    657 49.95                             153   -0.35 8 72.8 307 
 BRR  HE ES   1    658  7.04                             153   -0.06 8 72.8 307 
 BRR  HZ I         658 10.17         6.0 0.30                          72.8 307 
 RUS  HZ EP   1    657 52.13                             147   -0.02 8 91.4 173 
 RUS  HE ES   1    658 10.84                             147    0.44 8 91.4 173 
 RUS  HZ I         658 12.08         3.6 0.26                          91.4 173 
 OCA  SZ ES        658 21.37                             129    0.3010  169 355 
 OCA  SZ I         658 25.79         4.4 0.42                           169 355 
 NOR  SE ES   2    658 31.27                             120    0.33 5  226 236 
                                                                                
