 2015  810 0213 22.6 L   6.864 -72.938139.7  RSN  6 0.5 1.4LRSN                1
 GAP=204        1.06       4.6     8.2 10.1  0.1695E+02 -0.1972E+02 -0.1801E+02E
 Epicentro: GUACA - SANTANDER                                                  3
 ACTION:UPD 15-09-15 23:01 OP:cam  STATUS:               ID:20150810021322 L   I
 OLDACT:UP  15-08-10 14:49 OP:mh   STATUS:               ID:20150810020740     3
 OLDACT:REG 15-08-10 12:28 OP:mh   STATUS:               ID:20150810020740     3
 2015-08-10-0207-40M.COL___334                                                 6
 STAT SP IPHASW D HRMM SECON CODA AMPLIT PERI AZIMU VELO AIN AR TRES W  DIS CAZ7
 BAR2 EZ EP        213 42.20                             163    0.2610 40.4 222 
 BAR2 EZ I         213 58.94         2.6 0.18            167           40.4 222 
 BRR  HZ EP        213 44.11                             145   -0.1310 89.7 287 
 BRR  HN ES        214  0.81                             145   -0.3410 89.7 287 
 BRR  HZ I         214  4.21         4.0 0.40            150           89.7 287 
 RUS  HZ EP        213 46.78                             140    0.4510  109 189 
 RUS  HN ES        214  4.49                             140   -0.3810  109 189 
 RUS  HZ I         214  6.75         1.4 0.26            142            109 189 
 OCA  HZ EP        213 50.33                             128    0.17 9  158 345 
 OCA  HN ES        214 12.19                             128    0.49 9  158 345 
 OCA  HZ I         214 16.55         8.4 0.18            130            158 345 
 ZAR  HZ EP   1    213 56.01                             118   -0.63 6  223 288 
 ZAR  HN ES        214 23.98                             118    0.75 8  223 288 
 ZAR  HZ I         214 26.41         3.2 0.28            121            223 288 
 SML  HZ EP        213 58.85                             116   -0.47 8  248 330 
 SML  HN ES     C  214 27.36                             116   -0.64 8  248 330 
 SML  HZ I         214 34.53         3.1 0.22            117            248 330 
                                                                                
