 2011 1010 0432 35.5 L   6.740 -73.156146.0  RSN  9 0.4 2.0LRSN                1
 GAP=181        0.74       3.8     6.4  6.0 -0.2839E+00  0.5737E+01  0.2323E+01E
 Epicentro: JORDAN - SANTANDER                                                 3
 ACTION:UPD 12-07-13 16:03 OP:ep   STATUS:               ID:20111010043235 L   I
 2011-10-10-0420-00M.COL___171                                                 6
 STAT SP IPHASW D HRMM SECON CODA AMPLIT PERI AZIMU VELO AIN AR TRES W  DIS CAZ7
 BAR2 SZ EP        432 55.08                             173    0.0910 16.6 190 
 BAR2 SZ ES   1    433  9.79                             173   -0.44 7 16.6 190 
 BAR2 SZ I         433 11.71        56.7 0.13                          16.6 190 
 GIR2 SZ EP   1    432 55.07                             165   -0.27 7 37.7 354 
 BRR  HZ EP        432 56.86                             152    0.1010 73.6 303 
 BRR  HE ES   1    433 14.01                             152    0.63 7 73.6 303 
 BRR  HZ I         433 16.48        16.0 0.27                          73.6 303 
 RUS  HZ EP        432 59.02                             146    0.2510 94.1 175 
 RUS  HN ES   1    433 17.06                             146    0.11 7 94.1 175 
 RUS  HZ I         433 18.98        16.0 0.33                          94.1 175 
 OCA  SZ EP   1    433  3.72                             128   -0.67 7  167 354 
 OCA  SZ I         433 30.13         8.0 0.30                           167 354 
 NOR  SZ EP   2    433 10.86                             119    0.18 4  230 236 
 NOR  SN ES   1    433 37.71                             119   -0.46 6  230 236 
 CHI  HZ EP   1    433 12.76                             118    0.32 6  242 195 
 CHI  HE ES   1    433 40.73                             118   -0.56 6  242 195 
 CHI  HZ I         433 47.96         5.3 0.33                           242 195 
 HEL  HZ EP   2    433 15.08                             115   -0.30 4  269 257 
 PRA  HZ EP   1    433 28.85                             107    0.61 4  386 210 
                                                                                
