 2014  310 1058  7.8 L   6.819 -73.179138.9  RSN  4 0.1 1.4LRSN                1
 GAP=145        0.30       1.8     1.7  2.5 -0.9711E+00  0.1264E+01 -0.4218E+00E
 Epicentro: LOS SANTOS - SANTANDER                                             3
 ACTION:UPD 14-04-09 23:15 OP:nd   STATUS:               ID:20140310105807 L   I
 OLDACT:REG 14-03-10 15:42 OP:nd   STATUS:               ID:20140310105050     3
 2014-03-10-1050-50M.COL___218                                                 6
 STAT SP IPHASW D HRMM SECON CODA AMPLIT PERI AZIMU VELO AIN AR TRES W  DIS CAZ7
 BAR2 SZ EP       1058 26.61                             169   -0.0710 25.1 181 
 BAR2 SZ ES       1058 41.37                             169   -0.0110 25.1 181 
 BAR2 SZ I        1058 42.61         8.1 0.28            168           25.1 181 
 PAM  SZ EP       1058 29.44                             149    0.0610 78.2  43 
 PAM  SN ES       1058 46.17                             149   -0.0110 78.2  43 
 RUS  HZ EP       1058 31.02                             142   -0.0910  103 174 
 RUS  HN ES       1058 49.33                             142    0.0810  103 174 
 RUS  HZ I        1058 50.30         2.9 0.26            144            103 174 
 PTB  HZ EP       1058 34.04                             131    0.08 9  145 258 
 PTB  HN ES       1058 54.31                             131   -0.03 9  145 258 
 PTB  HZ I        1059  1.33         3.0 0.18            130            145 258 
                                                                                
