 2016  710 1616 16.0 L   6.728 -73.183147.6  RSN  6 0.5 1.5LRSN                1
 GAP=228        1.17       8.1     8.6 10.6 -0.5351E+01  0.1817E+02  0.7107E-01E
 Epicentro: VILLANUEVA - SANTANDER                                             3
 ACTION:UPD 17-03-29 16:49 OP:lp   STATUS:               ID:20160710161616 L   I
 OLDACT:UP  16-07-11 04:29 OP:dani STATUS:               ID:20160710160602d    3
 OLDACT:DUP 16-07-11 04:21 OP:dani STATUS:               ID:20160710160602d    3
 OLDACT:UP  16-07-11 04:21 OP:dani STATUS:               ID:20160710160601d    3
 OLDACT:UP  16-07-11 04:19 OP:dani STATUS:               ID:20160710160601d    3
 OLDACT:UP  16-07-11 04:19 OP:dani STATUS:               ID:20160710160601d    3
 OLDACT:UP  16-07-11 04:14 OP:dani STATUS:               ID:20160710160601d    3
 OLDACT:UP  16-07-11 04:14 OP:dani STATUS:               ID:20160710160601d    3
 OLDACT:DUP 16-07-11 01:54 OP:edw  STATUS:               ID:20160710160601d    3
 2016-07-10-1605-59S.COL___331                                                 6
 STAT SP IPHASW D HRMM SECON CODA AMPLIT PERI AZIMU VELO AIN AR TRES W  DIS CAZ7
 BAR2 HZ EP       1616 35.67                             174   -0.0310 15.0 180 
 BAR2 HZ ES       1616 50.34                             174   -0.7310 15.0 180 
 BAR2 HZ I        1616 51.88        10.5 0.29            169           15.0 180 
 BRR  HZ EP       1616 37.41                             152    0.0310 72.0 306 
 BRR  HE ES       1616 54.75                             152    0.6910 72.0 306 
 BRR  HZ I        1616 59.44         5.8 0.26            144           72.0 306 
 RUS  HE ES   2   1616 58.55                             146    0.90 5 93.0 173 
 PTB  HZ EP       1616 42.43                             133   -0.20 9  142 262 
 PTB  HE ES       1617  2.97                             133   -0.43 9  142 262 
 PTB  HZ I        1617  9.02         3.9 0.14            130            142 262 
 SPBC HN ES       1617  5.95                             131    0.44 9  154 220 
 ZAR  HZ EP   4   1616 50.21                             123    1.72 0  203 295 
 ZAR  HE ES   4   1617 12.29                             123   -1.56 0  203 295 
 ZAR  HZ I        1617 22.47         2.9 0.22            120            203 295 
                                                                                
