 2011 1210 1946 56.2 L   6.769 -73.085146.0  RSN  5 0.4 1.6LRSN                1
 GAP=146        0.69       4.9     7.1  7.9  0.5164E+00  0.1650E+01  0.2984E+00E
 Epicentro: LOS SANTOS - SANTANDER                                             3
 ACTION:UPD 12-07-13 16:15 OP:ep   STATUS:               ID:20111210194656 L   I
 2011-12-10-1940-00M.COL___186                                                 6
 STAT SP IPHASW D HRMM SECON CODA AMPLIT PERI AZIMU VELO AIN AR TRES W  DIS CAZ7
 BAR2 SZ ES   2   1947 30.22                             171   -0.89 5 22.3 209 
 GIR2 SZ EP   2   1947 15.64                             165   -0.36 5 36.3 341 
 PAM  SZ EP   1   1947 18.37                             151    0.05 7 76.2  34 
 PAM  SN ES   1   1947 35.76                             151    0.15 7 76.2  34 
 BRR  HZ EP       1947 17.49                             150   -0.2810 78.7 298 
 BRR  HZ I        1947 25.07        11.9 0.37                          78.7 298 
 BRR  HN ES   1   1947 35.10                             150    0.47 7 78.7 298 
 RUS  HZ EP   1   1947 19.95                             145    0.29 7 96.9 180 
 RUS  HN ES   1   1947 38.10                             145    0.10 7 96.9 180 
 RUS  HZ I        1947 39.44         3.7 0.31                          96.9 180 
                                                                                
