 2012  110 1840  6.0 L   6.802 -73.189149.7  RSN  5 0.4 1.4LRSN                1
 GAP=131        0.69       5.7     5.5 10.0 -0.1261E+01 -0.2447E+01 -0.5706E+01E
 Epicentro: ZAPATOCA - SANTANDER                                               3
 ACTION:UP  12-02-03 08:16 OP:REBC STATUS:               ID:20120110184006 L   I
 2012-01-10-1840-00M.COL___186                                                 6
 STAT SP IPHASW D HRMM SECON CODA AMPLIT PERI AZIMU VELO SNR AR TRES W  DIS CAZ7
 BAR2 SZ EP   2   1840 25.78                             171    -0.3 5   23 178 
 BAR2 SZ I        1840 43.35         6.4 0.17                            23 178 
 BRR  HZ EP   1   1840 27.82                             155     0.5 7   67 300 
 BRR  HN ES   2   1840 44.47                             155     0.5 5   67 300 
 PAM  SZ EP   1   1840 29.02                             150     0.2 7   80  42 
 PAM  SN ES   2   1840 45.91                             150    -0.7 5   80  42 
 RUS  HZ EP   1   1840 30.13                             144    -0.1 7  101 173 
 RUS  HN ES   1   1840 49.25                             144     0.2 7  101 173 
 RUS  HZ I        1840 49.85         3.5 0.24                           101 173 
 PTB  HZ EP   2   1840 32.40                             134    -0.5 5  143 258 
 PTB  HN ES   1   1840 53.58                             134    -0.3 7  143 258 
                                                                                
