 2014  110 1000 25.6 L   6.819 -73.172139.2  RSN  6 0.3 1.2LRSN                1
 GAP=243        0.70       3.8     4.0  5.0  0.6723E+01  0.7077E+01  0.2260E+01E
 Epicentro: LOS SANTOS - SANTANDER                                             3
 ACTION:UPD 14-03-13 09:54 OP:ep   STATUS:               ID:20140110100025 L   I
 OLDACT:REG 14-01-10 15:36 OP:stll STATUS:               ID:20140110095813     3
 2014-01-10-0958-13M.COL___237                                                 6
 STAT SP IPHASW D HRMM SECON CODA AMPLIT PERI AZIMU VELO AIN AR TRES W  DIS CAZ7
 BAR2 SZ EP       10 0 44.43                             169   -0.0610 25.1 183 
 BAR2 SZ I        10 0 45.03         4.4 0.18            168           25.1 183 
 BAR2 SZ ES       10 0 59.36                             169    0.1510 25.1 183 
 RUS  HZ EP       10 0 48.99                             142    0.1010  103 175 
 RUS  HN ES       10 1  6.88                             142   -0.1810  103 175 
 RUS  HZ I        10 1  8.34         1.4 0.46            143            103 175 
 PTB  HZ EP       10 0 51.80                             131   -0.03 9  145 258 
 PTB  HN ES       10 1 12.25                             131   -0.03 9  145 258 
 PTB  HZ I        10 1 18.49         2.6 0.38            131            145 258 
 ZAR  HZ EP       10 0 57.63                             121    0.36 9  201 292 
 ZAR  HN ES       10 1 21.74                             121   -0.23 9  201 292 
 CHI  HZ EP       10 1  2.34                             116   -0.75 8  250 194 
 CHI  HE ES       10 1 32.80                             116    0.47 8  250 194 
 GUY2CHZ EP       10 1  9.17                             111    0.38 7  300 234 
 GUY2CHN ES       10 1 42.32                             111   -0.15 7  300 234 
 GUY2CHZ I        10 1 51.15         1.2 0.44                           300 234 
                                                                                
