 2013  210 1902 45.0 L   6.787 -73.145149.3  RSN 11 0.3 2.2LRSN                1
 GAP=137        0.69       2.4     3.2  4.2 -0.4824E+00  0.3271E+01  0.9317E+00E
 Epicentro: LOS SANTOS - SANTANDER                                             3
 ACTION:UPD 13-03-12 09:32 OP:ep   STATUS:               ID:20130210190245 L   I
 2013-02-10-1900-00M.COL___241                                                 6
 STAT SP IPHASW D HRMM SECON CODA AMPLIT PERI AZIMU VELO AIN AR TRES W  DIS CAZ7
 BAR2 SZ EP       19 3  4.69                             171   -0.3810 21.9 191 
 BAR2 SZ ES   1   19 3 20.62                             171   -0.07 7 21.9 191 
 BAR2 SZ I        19 3 21.90        36.5 0.42            165           21.9 191 
 BRR  HZ EP       19 3  7.09                             153    0.4710 72.0 299 
 BRR  HZ I        19 3  7.38        43.3 0.20            143           72.0 299 
 BRR  HE ES       19 3 23.87                             153    0.4310 72.0 299 
 PAM  SZ EP       19 3  8.08                             151    0.3810 78.4  39 
 PAM  SN ES       19 3 25.37                             151    0.0110 78.4  39 
 PAM  SZ I        19 3 27.66        16.4 0.56            152           78.4  39 
 RUS  HZ EP       19 3  9.04                             145    0.0010 99.1 176 
 RUS  HN ES   1   19 3 27.49                             145   -0.27 7 99.1 176 
 RUS  HN I        19 3 29.37        17.4 0.17            141           99.1 176 
 PTB  HZ EP       19 3 11.94                             133   -0.35 9  148 259 
 PTB  HE ES   1   19 3 33.23                             133   -0.30 7  148 259 
 PTB  HZ I        19 3 40.49        28.1 0.19            125            148 259 
 OCA  HZ EP   1   19 3 13.34                             130   -0.42 7  162 353 
 OCA  HN ES   1   19 3 35.74                             130   -0.42 7  162 353 
 OCA  HZ I        19 3 40.09        22.2 0.28            126            162 353 
 ZAR  HZ EP   1   19 3 17.70                             123   -0.09 6  205 293 
 ZAR  HN ES   1   19 3 43.34                             123    0.02 6  205 293 
 ZAR  HZ I        19 3 51.68        11.9 0.26            117            205 293 
 NOR  HZ EP   1   19 3 21.21                             119    0.31 6  234 235 
 NOR  HN ES   1   19 3 48.85                             119   -0.02 6  234 235 
 NOR  HZ I        19 3 54.45         9.8 0.39            114            234 235 
 SML  HZ EP       19 3 21.95                             118   -0.06 8  245 335 
 SML  HN ES   1   19 3 50.49                             118   -0.36 6  245 335 
 CHI  HZ EP       19 3 23.07                             118    0.28 8  247 195 
 CHI  HN ES   1   19 3 51.96                             118   -0.28 6  247 195 
 HEL  HZ EP   1   19 3 25.86                             115    0.45 6  272 256 
 HEL  HZ I        19 4  4.38         8.9 0.27            110            272 256 
                                                                                
