 2010  810 1038 17.7 L   6.790 -73.066147.5  RSN  8 0.2 1.9LRSN                1
 GAP=168        0.52       2.2     5.1  3.9 -0.2386E+01 -0.5913E+01  0.2693E-01E
 Epicentro: LOS SANTOS - SANTANDER                                             3
 ACTION:UP  10-09-07 10:53 OP:vdl  STATUS:               ID:20100810103817 L   I
 2010-08-10-1034-09S.COL___125                                                 6
 STAT SP IPHASW D HRMM SECON CODA AMPLIT PERI AZIMU VELO SNR AR TRES W  DIS CAZ7
 BAR2 SZ EP       1038 37.70                             170     0.110   26 211 
 BAR2 SZ ES       1038 52.96                             170    -0.110   26 211 
 BAR2 SZ I        1038 54.12        18.4 0.74                            26 211 
 BRR  HZ EP       1038 39.46                             150    -0.110   80 296 
 BRR  HZ I        1038 41.27        18.3 0.08                            80 296 
 BRR  HN ES       1038 56.66                             150     0.110   80 296 
 RUS  HZ EP   1   1038 41.55                             145     0.0 7   99 181 
 RUS  HN ES   2   1038 59.92                             145    -0.2 5   99 181 
 RUS  HZ I        1039  1.35         5.9 0.71                            99 181 
 GUE  SZ EP       1038 42.57                             140     0.010  116   8 
 GRA  SZ EP       1038 43.27                             138     0.310  124  13 
 GRA  SZ I        1038 44.70        14.6 0.37                           124  13 
 GRA  SZ ES   1   1039  2.61                             138    -0.1 7  124  13 
 OCA  SZ EP       1038 45.98                             130    -0.4 9  163 350 
 OCA  SZ ES   1   1039  8.82                             130     0.1 7  163 350 
 OCA  SZ I        1039 11.88        17.6 0.10                           163 350 
 CHI  HZ EP   1   1038 55.52                             117    -0.1 6  250 197 
 CHI  HN ES   2   1039 25.70                             117     0.5 4  250 197 
 CHI  HZ I        1039 30.73         3.6 0.65                           250 197 
 PRA  HN ES   2   1039 53.55                             107    -0.2 3  395 211 
 PRA  HZ I        1039 58.61         4.0 0.51                           395 211 
                                                                                
