 2016  610 1018 36.8 L   6.782 -73.182148.4  RSN  6 0.3 1.2LRSN                1
 GAP=179        0.74       3.6     4.5  5.1  0.8068E+00  0.3078E+00 -0.2692E+01E
 Epicentro: LOS SANTOS - SANTANDER                                             3
 ACTION:UPD 16-07-21 22:17 OP:rebc STATUS:               ID:20160610101836 L   I
 OLDACT:UP  16-06-10 21:34 OP:edw  STATUS:               ID:20160610101748     3
 OLDACT:REG 16-06-10 19:52 OP:edw  STATUS:               ID:20160610101748     3
 2016-06-10-1017-48M.COL___337                                                 6
 STAT SP IPHASW D HRMM SECON CODA AMPLIT PERI AZIMU VELO AIN AR TRES W  DIS CAZ7
 BAR2 EZ EP       1018 56.43                             172   -0.2510 21.0 180 
 BAR2 EZ ES       1019 11.75                             172   -0.4510 21.0 180 
 BAR2 EZ I        1019 13.74         3.9 0.22                          21.0 180 
 BRR  HZ EP       1018 58.18                             154    0.1110 68.7 302 
 BRR  HN ES       1019 15.18                             154    0.4910 68.7 302 
 RUS  HZ EP       1019  0.75                             145    0.0810 98.9 174 
 RUS  HE ES       1019 19.51                             145    0.2010 98.9 174 
 RUS  HZ I        1019 21.32         1.7 0.40                          98.9 174 
 PTB  HZ EP       1019  3.30                             133   -0.28 9  143 259 
 PTB  HN ES       1019 24.13                             133   -0.35 9  143 259 
 PTB  HZ I        1019 26.28         2.1 0.46                           143 259 
 SPBC HZ EP       1019  5.24                             130    0.14 9  159 218 
 SPBC HN ES       1019 27.41                             130    0.22 9  159 218 
 OCA  HZ EP       1019  5.50                             130    0.06 9  162 355 
                                                                                
