 2014  610 1719  3.5 L   6.832 -73.098149.6  RSN  9 0.4 1.9LRSN                1
 GAP=205        0.79       3.9     4.9  5.5  0.6687E+01  0.2813E+01 -0.1679E+01E
 Epicentro: LOS SANTOS - SANTANDER                                             3
 ACTION:UPD 14-07-01 22:52 OP:nd   STATUS:               ID:20140610171903 L   I
 OLDACT:REG 14-06-10 20:47 OP:fm   STATUS:               ID:20140610171819     3
 2014-06-10-1718-19M.COL___250                                                 6
 STAT SP IPHASW D HRMM SECON CODA AMPLIT PERI AZIMU VELO AIN AR TRES W  DIS CAZ7
 BAR2 SZ EP       1719 23.74                             169    0.0110 28.1 199 
 BAR2 SZ ES   1   1719 39.77                             169    0.29 7 28.1 199 
 BAR2 SZ I        1719 41.66        13.4 0.38            167           28.1 199 
 BRR  HZ EP       1719 25.84                             152    0.5610 74.4 294 
 BRR  HN ES       1719 42.34                             152    0.1010 74.4 294 
 BRR  HZ I        1719 50.58         9.9 0.38            149           74.4 294 
 RUS  HZ EP       1719 27.75                             144   -0.1610  104 179 
 RUS  HN ES       1719 46.82                             144   -0.0910  104 179 
 RUS  HZ I        1719 49.05         4.3 0.50            147            104 179 
 PTB  HZ EP       1719 30.64                             132   -0.72 9  154 258 
 PTB  HN ES       1719 52.66                             132   -0.39 9  154 258 
 PTB  HZ I        1719 53.96         9.6 0.36            131            154 258 
 ZAR  HZ EP   1   1719 36.52                             123   -0.10 6  208 291 
 ZAR  HE ES   1   1720  2.61                             123    0.20 6  208 291 
 ZAR  HZ I        1720  8.94         8.0 0.30            123            208 291 
 SML  HZ EP   1   1719 40.26                             118   -0.03 6  243 334 
 SML  HE ES   1   1720  8.79                             118   -0.16 6  243 334 
 SML  HZ I        1720 14.18        12.2 0.10            120            243 334 
 GUY2CHZ EP   1   1719 48.57                             113    0.52 5  308 235 
 GUY2CHN ES   4   1720 24.34                             113    1.58 0  308 235 
 GUY2CHZ I        1720 30.52         2.4 0.30                           308 235 
 RREF HN ES   1   1720 27.71                             111    0.45 5  328 230 
 RREF HZ I        1720 36.07         3.7 0.28            113            328 230 
 PRA  HZ EP   1   1719 58.59                             107    0.73 4  398 210 
 PRA  HN ES   4   1720 39.34                             107   -0.89 0  398 210 
 PRA  HZ I        1720 42.81         2.1 0.68            109            398 210 
                                                                                
