 2010  410 1000 24.4 L   6.792 -73.029144.4  RSN 12 0.4 2.4LRSN                1
 GAP=149        0.65       3.3     4.6  4.8 -0.7242E+01 -0.2408E+01  0.2446E+01E
 Epicentro: CEPITA - SANTANDER                                                 3
 ACTION:UPD 10-08-24 09:58 OP:vdl  STATUS:               ID:20100410100024 L   I
 2010-04-10-0959-45S.COL___097                                                 6
 STAT SP IPHASW D HRMM SECON CODA AMPLIT PERI AZIMU VELO AIN AR TRES W  DIS CAZ7
 BAR2 SZ IP       10 0 44.24                             169     0.310   28 218 
 BAR2 SZ ES   1   10 0 59.04                             169    -0.2 7   28 218 
 BRR  HZ EP       10 0 46.40                             149     0.310   83 295 
 BRR  HN ES   1   10 1  2.96                             149    -0.1 7   83 295 
 BRR  HZ I        10 1  6.02        65.6 0.15                            83 295 
 OCA  SZ EP       10 0 52.71                             129    -0.1 9  163 349 
 OCA  SZ ES   1   10 1 14.94                             129    -0.1 7  163 349 
 OCA  SZ I        10 1 20.42        49.7 0.19                           163 349 
 CHI  HZ EP   2   10 1  1.57                             117    -0.7 4  251 198 
 CHI  HN ES   2   10 1 30.95                             117    -0.9 4  251 198 
 CHI  HZ I        10 1 41.42         8.6 0.57                           251 198 
 ROSC BZ EP   2   10 1  3.48                             116     0.4 4  259 214 
 ROSC BN ES   2   10 1 33.53                             116     0.2 4  259 214 
 HEL  HZ EP   3   10 1  5.92                             113     0.0 2  284 257 
 HEL  HN ES   2   10 1 38.13                             113    -0.1 4  284 257 
 HEL  HZ I        10 1 44.94         7.3 0.22                           284 257 
 RREF BZ EP   2   10 1 12.22                             110     0.7 3  331 231 
 RREF BN ES   2   10 1 49.23                             110     0.9 3  331 231 
 RREF BZ I        10 1 55.90        16.9 0.39                           331 231 
 SDV  BZ EP       10 1 13.61                             109     0.3 6  351  49 
 SDV  BE ES   2   10 1 50.44                             109    -1.0 3  351  49 
 TOL  SZ ES   3   10 1 51.04                             109    -0.9 2  352 226 
 DBB  SZ EP       10 1 12.64                             108    -0.6 6  352 274 
 TOL  SZ EP   2   10 1 13.77                             109     0.2 3  352 226 
 ANIL BZ EP   2   10 1 15.04                             108    -0.1 3  366 226 
 ANIL BN ES   1   10 1 54.65                             108     0.0 5  366 226 
 PRA  HZ EP   2   10 1 18.19                             106    -0.3 3  398 211 
 PRA  HE ES   3   10 2  0.70                             106    -0.1 1  398 211 
 PRA  HZ I        10 2  3.90         6.8 0.38                           398 211 
                                                                                
