 2017  210 1434 38.2 L   6.807 -73.069146.0  RSN  9 0.4 2.0LRSN                1
 GAP=146        1.09       4.2     5.3  6.3  0.1492E+01  0.2640E+01  0.2400E+01E
 Epicentro: LOS SANTOS - SANTANDER                                             3
 ACTION:UPD 17-05-24 15:34 OP:jn   STATUS:               ID:20170210143438 L   I
 OLDACT:UP  17-02-10 23:43 OP:and  STATUS:               ID:20170210142746d    3
 OLDACT:UP  17-02-10 23:43 OP:and  STATUS:               ID:20170210142746d    3
 OLDACT:DUP 17-02-10 23:39 OP:and  STATUS:               ID:20170210142746d    3
 OLDACT:UP  17-02-10 23:39 OP:and  STATUS:               ID:20170210142745     3
 OLDACT:REG 17-02-10 20:36 OP:and  STATUS:               ID:20170210142745     3
 2017-02-10-1428-00M.COL___358                                                 6
 STAT SP IPHASW D HRMM SECON CODA AMPLIT PERI AZIMU VELO AIN AR TRES W  DIS CAZ7
 BAR2 EZ IP     C 1434 57.76                             169   -0.1710 26.8 208 
 BAR2 EZ ES       1435 13.12                             169   -0.2010 26.8 208 
 BAR2 EZ I        1435 15.32        16.4 0.14            165           26.8 208 
 PAM  EZ EP     C 1435  0.44                             153    0.3410 71.7  35 
 PAM  EN ES       1435 17.53                             153    0.3410 71.7  35 
 PAM  EZ I        1435 19.01        15.2 0.16            157           71.7  35 
 BRR  HZ IP     D 1434 59.58                             150   -0.2110 78.4 295 
 BRR  HN ES       1435 16.40                             150   -0.2410 78.4 295 
 BRR  HZ I        1435 17.07        28.2 0.10            149           78.4 295 
 RUS  HZ IP     C 1435  1.83                             144   -0.1710  101 181 
 RUS  HN ES       1435 20.31                             144   -0.2710  101 181 
 RUS  HZ I        1435 22.84        16.2 0.28            142            101 181 
 PTB  HZ EP   9   1435  4.38                             130   -1.58 0  156 259 
 PTB  HN ES       1435 25.51                                   -0.53 9  156 259 
 PTB  HZ I        1435 30.53        18.1 0.10            129            156 259 
 ZAR  HZ EP       1435 10.64                             121   -0.80 8  212 291 
 ZAR  HN ES       1435 38.30                             121    0.92 8  212 291 
 ZAR  HZ I        1435 42.06        17.9 0.40            121            212 291 
 CHI  HZ EP       1435 16.28                             117    0.04 8  252 197 
 CHI  HN ES       1435 46.66                             117    0.75 8  252 197 
 CHI  HZ I        1435 51.80         3.6 0.50            116            252 197 
 ROSC BZ EP   9   1435 18.59                             116    1.71 0  258 213 
 ROSC BN ES       1435 49.21                             116    0.44 8  258 213 
 ROSC BZ I        1435 53.66        10.2 0.40            115            258 213 
 SJC  HZ EP   4   1435 32.04                             105   -2.20 0  413 326 
 SJC  HN ES   4   1436 14.72                             105   -3.24 0  413 326 
 SJC  HZ I        1436 16.22         2.3 0.32            106            413 326 
                                                                                
