 2016  510 1922 10.1 L   6.651 -73.294170.0  RSN  4 0.2 1.5LRSN                1
 GAP=124        0.46       4.0     3.6  8.8  0.6308E+01 -0.1317E+02 -0.2716E+02E
 Epicentro: GALAN - SANTANDER                                                  3
 ACTION:UPD 16-08-18 17:44 OP:cam  STATUS:               ID:20160510192210 L   I
 OLDACT:UP  16-05-10 22:28 OP:ak   STATUS:               ID:20160510191749     3
 OLDACT:REG 16-05-10 20:20 OP:ak   STATUS:               ID:20160510191749     3
 2016-05-10-1917-49M.COL___285                                                 6
 STAT SP IPHASW D HRMM SECON CODA AMPLIT PERI AZIMU VELO AIN AR TRES W  DIS CAZ7
 RUS  HZ EP   2   1922 35.32                             152   -0.11 5 87.1 164 
 RUS  HN ES       1922 55.11                             152   -0.1110 87.1 164 
 RUS  HZ I        1922 56.35         2.7 0.38            155           87.1 164 
 PAM  EZ EP       1922 36.44                             148    0.2010  101  41 
 PTB  HZ EP   2   1922 37.23                             141   -0.37 5  129 265 
 PTB  HN ES       1922 59.24                             141    0.1510  129 265 
 SML  HZ EP   2   1922 49.29                             121    0.21 4  253 340 
 SML  HE ES       1923 19.30                             121   -0.23 8  253 340 
 SML  HZ I        1923 22.20         3.2 0.13            123            253 340 
                                                                                
