 2016  710 1745  1.3 L   6.782 -73.132143.6  RSN 19 0.4 2.6LRSN                1
 GAP= 98        1.04       3.5     2.7  4.7 -0.1733E+01  0.2552E+01  0.2718E+01E
 Epicentro: LOS SANTOS - SANTANDER                                             3
 ACTION:UPD 17-03-29 16:49 OP:lp   STATUS:               ID:20160710174501 L   I
 OLDACT:UP  16-08-18 22:43 OP:nlst STATUS:               ID:20160710174501 L   3
 OLDACT:UP  16-07-11 05:03 OP:dani STATUS:               ID:20160710173604d    3
 OLDACT:UP  16-07-11 05:02 OP:dani STATUS:               ID:20160710173604d    3
 OLDACT:UP  16-07-11 05:02 OP:dani STATUS:               ID:20160710173604d    3
 OLDACT:UP  16-07-11 04:59 OP:dani STATUS:               ID:20160710173604d    3
 OLDACT:UP  16-07-11 04:56 OP:dani STATUS:               ID:20160710173604d    3
 OLDACT:UP  16-07-11 04:55 OP:dani STATUS:               ID:20160710173604d    3
 OLDACT:UP  16-07-11 04:55 OP:dani STATUS:               ID:20160710173604d    3
 OLDACT:UP  16-07-11 04:55 OP:dani STATUS:               ID:20160710173604d    3
 OLDACT:UP  16-07-11 04:50 OP:dani STATUS:               ID:20160710173604d    3
 OLDACT:UP  16-07-11 04:50 OP:dani STATUS:               ID:20160710173604d    3
 OLDACT:DUP 16-07-11 04:44 OP:dani STATUS:               ID:20160710173604d    3
 2016-07-10-1735-59S.COL___331                                                 6
 STAT SP IPHASW D HRMM SECON CODA AMPLIT PERI AZIMU VELO AIN AR TRES W  DIS CAZ7
 BAR2 HZ EP     C 1745 20.69                             171    0.0210 21.7 195 
 BAR2 HZ ES       1745 34.98                             171   -0.7810 21.7 195 
 BAR2 HZ I        1745 37.01       124.8 0.18            168           21.7 195 
 BRR  HZ EP     C 1745 22.67                             151    0.2910 73.5 299 
 BRR  HE ES       1745 39.61                             151    0.8210 73.5 299 
 BRR  HZ I        1745 43.03        67.1 0.16            151           73.5 299 
 PAM  HZ EP     D 1745 23.59                             150    0.2410 78.0  38 
 PAM  HN ES       1745 40.79                             150    0.2610 78.0  38 
 PAM  HZ I        1745 42.31        30.9 0.22            151           78.0  38 
 RUS  HZ EP     C 1745 24.58                             144   -0.1410 98.5 177 
 RUS  HN ES       1745 42.95                             144   -0.0210 98.5 177 
 RUS  HZ I        1745 44.44        23.7 0.42            141           98.5 177 
 PTB  HZ EP       1745 27.41                             131   -0.82 9  149 260 
 PTB  HN ES       1745 48.32                             131   -0.88 9  149 260 
 PTB  HZ I        1745 54.36        44.3 0.24            129            149 260 
 TAM  HZ EP     D 1745 28.98                             130    0.32 9  153 104 
 TAM  HZ I        1745 49.82        26.4 0.23            129            153 104 
 TAM  HN ES       1745 50.20                             130    0.23 9  153 104 
 SPBC HZ EP       1745 29.63                             129    0.02 9  163 220 
 SPBC HN ES       1745 51.50                             129   -0.17 9  163 220 
 SPBC HZ I        1745 58.93        64.3 0.26            126            163 220 
 ZAR  HZ EP       1745 33.82                             121   -0.04 8  206 292 
 ZAR  HE ES       1745 59.26                             121    0.03 8  206 292 
 ZAR  HZ I        1746  5.43        41.8 0.64            121            206 292 
 NOR  HZ EP       1745 37.14                             118    0.19 8  235 235 
 NOR  HE ES       1746  4.73                             118    0.00 8  235 235 
 NOR  HZ I        1746 10.95        45.1 0.16            116            235 235 
 CHI  HZ EP       1745 38.57                             117   -0.18 8  247 196 
 CHI  HN ES   4   1746  9.83                             117    1.90 0  247 196 
 CHI  HZ I        1746 13.95        17.3 0.28            115            247 196 
 ROSC HZ EP   4   1745 40.47                             116    1.23 0  252 212 
 ROSC HN ES   4   1746 11.78                             116    2.98 0  252 212 
 ROSC HZ I        1746 18.44        31.4 0.40            114            252 212 
 HEL  HZ EP   4   1745 42.38                             114    0.84 0  273 256 
 HEL  HE ES       1746 13.14                             114    0.23 8  273 256 
 HEL  HZ I        1746 20.08        14.8 0.24            113            273 256 
 URE  HZ EP       1745 41.94                             113   -0.60 7  286 292 
 URE  HN ES   4   1746 12.66                             113   -2.01 0  286 292 
 SOCV BZ EP       1745 43.64                             112   -0.62 7  301  56 
 GUY2CHZ EP       1745 45.55                             112    0.70 7  301 235 
 GUY2CHN ES       1746 19.62                             112    0.82 7  301 235 
 GUY2CHZ I        1746 27.21        28.2 0.36                           301 235 
 CBOC HZ EP   4   1745 48.72                             109    0.47 0  334 252 
 CBOC HN ES   4   1746 20.46                             109   -4.39 0  334 252 
 CBOC HZ I        1746 32.91         5.4 0.58            108            334 252 
 ANIL HZ EP       1745 51.45                             108    0.44 6  357 225 
 ANIL HN ES       1746 29.96                             108    0.19 6  357 225 
 ANIL HZ I        1746 35.54        36.1 0.38            107            357 225 
 PRA  HZ EP       1745 54.15                             106   -0.52 6  391 210 
 PRA  HN ES       1746 36.47                             106    0.20 6  391 210 
 PRA  HZ I        1746 43.11        25.5 0.32            105            391 210 
 PAL  HZ EP       1745 56.49                             105    0.04 6  406 239 
 PAL  HN ES   4   1746 40.85                             105    1.40 0  406 239 
 PAL  HZ I        1746 45.06         7.1 0.42            104            406 239 
                                                                                
