 2017 1110 1103 46.3 L   6.804 -73.174145.3  RSN  7 0.5 1.5LRSN                1
 GAP=141        0.87       5.7     5.1  7.4 -0.1119E+02 -0.3052E+00  0.1307E+02E
 Epicentro: LOS SANTOS - SANTANDER                                             3
 ACTION:UPD 17-12-12 19:54 OP:rebc STATUS:               ID:20171110110346 L   I
 OLDACT:UP  17-11-10 22:42 OP:mg   STATUS:               ID:20171110105740     3
 OLDACT:REG 17-11-10 20:35 OP:mg   STATUS:               ID:20171110105740     3
 2017-11-10-1058-00M.COL___444                                                 6
 STAT SP IPHASW D HRMM SECON CODA AMPLIT PERI AZIMU VELO AIN AR TRES W  DIS CAZ7
 BAR2 EZ EP       11 4  5.75                             171   -0.1310 23.5 182 
 BAR2 EZ ES       11 4 20.84                             171   -0.3110 23.5 182 
 BAR2 EZ I        11 4 22.36         7.8 0.20            169           23.5 182 
 BRR  HZ EP   1   11 4  7.66                             153    0.42 7 68.2 299 
 BRR  HN ES   1   11 4 24.50                             153    0.94 7 68.2 299 
 BRR  HZ I        11 4 27.05         7.9 0.34            148           68.2 299 
 PAM  EZ EP       11 4  8.71                             150    0.1410 79.1  42 
 PAM  EN ES       11 4 25.74                             150   -0.2010 79.1  42 
 PAM  EZ I        11 4 27.90         5.9 0.48            153           79.1  42 
 PTB  HZ EP   2   11 4 12.49                             132   -0.47 5  145 258 
 PTB  HN ES       11 4 33.40                             132   -0.35 9  145 258 
 PTB  HZ I        11 4 40.58         2.1 0.17            129            145 258 
 ZAR  HE ES   3   11 4 41.92                             122   -1.51 2  201 292 
 ZAR  HZ I        11 4 49.97         3.0 0.25            120            201 292 
 CHI  HZ EP   1   11 4 24.39                             117    0.45 6  248 194 
 CHI  HN ES   1   11 4 53.46                             117    0.17 6  248 194 
 CHI  HZ I        11 4 57.14         2.6 0.50            117            248 194 
 GUY2CHZ EP   4   11 4 32.20                             112    2.57 0  299 234 
 GUY2CHE ES   4   11 5  8.11                             112    4.69 0  299 234 
 GUY2CHZ I        11 5 12.24         1.6 0.34                           299 234 
                                                                                
