 2014  610 1553 31.8 L   7.286 -74.020 17.1  RSN  5 0.3 1.6LRSN                1
 GAP=196        0.81       3.5     2.0  4.4  0.3236E+01  0.3423E+00  0.3227E+01E
 Epicentro: PUERTO WILCHES - SANTANDER                                         3
 ACTION:UPD 14-07-01 22:52 OP:nd   STATUS:               ID:20140610155331 L   I
 OLDACT:DUP 14-06-11 00:07 OP:fm   STATUS:               ID:20140610154813d    3
 2014-06-10-1548-12M.COL___250                                                 6
 STAT SP IPHASW D HRMM SECON CODA AMPLIT PERI AZIMU VELO AIN AR TRES W  DIS CAZ7
 BRR  HZ IP       1553 38.66                             110   -0.0110 39.3 120 
 BRR  HN ES       1553 44.58                             110    0.5310 39.3 120 
 BRR  HZ I        1553 45.44        78.8 0.28            105           39.3 120 
 ZAR  HZ EP       1553 47.01                              98    0.0610 95.3 284 
 ZAR  HE ES       1553 58.77                              98   -0.0310 95.3 284 
 ZAR  HZ I        1554  0.14        11.7 0.10             96           95.3 284 
 PTB  HZ EP       1553 46.94                              98   -0.0610 95.6 210 
 PTB  HN ES       1553 58.95                              98    0.0710 95.6 210 
 PTB  HZ I        1553 59.30         9.8 0.18             96           95.6 210 
 BAR2 SZ EP       1553 50.61                              97   -0.3110  120 130 
 BAR2 SZ ES   1   1554  4.95                              97   -0.92 7  120 130 
 BAR2 SZ I        1554  6.05        10.7 0.12             95            120 130 
 RUS  HZ EP   1   1553 59.81                              56    0.12 7  186 146 
 RUS  HE ES       1554 21.69                              56    0.21 9  186 146 
 RUS  HZ I        1554 23.99         6.3 0.36             56            186 146 
                                                                                
