 2014 1010 1538 10.4 L   6.741 -73.132143.9  RSN  6 0.4 1.5LRSN                1
 GAP=141        1.06       5.6     5.5  7.5 -0.4198E+01  0.5263E+01  0.8044E+01E
 Epicentro: LOS SANTOS - SANTANDER                                             3
 ACTION:UPD 14-11-29 23:48 OP:nd   STATUS:               ID:20141010153810 L   I
 OLDACT:REG 14-10-10 21:35 OP:stll STATUS:               ID:20141010152749     3
 2014-10-10-1527-49M.COL___290                                                 6
 STAT SP IPHASW D HRMM SECON CODA AMPLIT PERI AZIMU VELO AIN AR TRES W  DIS CAZ7
 BAR2 SZ EP       1538 29.93                             173    0.2110 17.3 199 
 BAR2 SZ ES       1538 44.91                             173    0.1310 17.3 199 
 BAR2 SZ I        1538 46.74         8.8 0.26            171           17.3 199 
 BRR  HN ES       1538 48.48                             151    0.2910 75.9 302 
 PAM  SZ EP       1538 32.86                             149    0.1610 81.6  36 
 PAM  SN ES       1538 49.86                             149   -0.2210 81.6  36 
 PAM  SZ I        1538 52.04         7.6 0.56            153           81.6  36 
 RUS  HZ EP       1538 33.25                             145   -0.2710 93.9 177 
 RUS  HN ES       1538 51.32                             145   -0.2110 93.9 177 
 RUS  HZ I        1538 54.07         3.4 0.50            147           93.9 177 
 PTB  HZ EP       1538 36.50                             131   -0.78 9  148 261 
 PTB  HN ES       1538 58.04                             131   -0.18 9  148 261 
 PTB  HZ I        1539  3.83         3.9 0.40            132            148 261 
 SPBC HZ EP       1538 39.29                             129    0.89 9  159 221 
                                                                                
