 2016 1010 1732  9.5 L   6.847 -73.175141.3  RSN  5 0.2 1.5LRSN                1
 GAP=243        0.44       3.1     2.9  4.4  0.3250E+01  0.3840E+01 -0.2589E+01E
 Epicentro: ZAPATOCA - SANTANDER                                               3
 ACTION:UPD 16-11-09 19:18 OP:rebc STATUS:               ID:20161010173209 L   I
 OLDACT:REG 16-10-10 20:13 OP:dln  STATUS:               ID:20161010172745     3
 2016-10-10-1728-00M.COL___354                                                 6
 STAT SP IPHASW D HRMM SECON CODA AMPLIT PERI AZIMU VELO AIN AR TRES W  DIS CAZ7
 BAR2 EZ EP       1732 28.86                             168    0.1910 28.2 182 
 BAR2 EZ ES       1732 43.73                             168    0.0910 28.2 182 
 BAR2 EZ I        1732 44.87         8.3 0.22            170           28.2 182 
 RUS  HZ EP   2   1732 33.25                             141    0.06 5  106 174 
 RUS  HN ES       1732 51.41                             141   -0.2810  106 174 
 RUS  HZ I        1732 52.40         3.1 0.30            144            106 174 
 PTB  HZ EP       1732 35.84                             131   -0.04 9  146 257 
 PTB  HN ES       1732 56.57                             131    0.09 9  146 257 
 PTB  HZ I        1732 58.78         3.1 0.62            131            146 257 
 SPBC HZ EP   2   1732 38.24                             128    0.41 5  165 217 
 SPBC HE ES       1732 59.97                             128    0.02 9  165 217 
 SPBC HZ I        1733  2.39         5.0 0.18            129            165 217 
 ZAR  HZ EP   2   1732 40.71                             122   -0.40 4  199 291 
 ZAR  HN ES       1733  5.67                             122   -0.12 9  199 291 
 ZAR  HZ I        1733 12.82         2.6 0.36            122            199 291 
                                                                                
