 2011  610 1357 53.6 L   6.780 -73.038137.8  RSN  4 0.2 1.7LRSN                1
 GAP=169        0.52       3.9     7.3  8.8  0.2274E+01 -0.4002E+02  0.1572E+01E
 Epicentro: CEPITA - SANTANDER                                                 3
 ACTION:UP  11-07-14 19:04 OP:ep   STATUS:               ID:20110610135753 L   I
 2011-06-10-1352-55S.COL___132                                                 6
 STAT SP IPHASW D HRMM SECON CODA AMPLIT PERI AZIMU VELO SNR AR TRES W  DIS CAZ7
 BAR2 SZ EP   1   1358 12.20                             169    -0.1 7   26 218 
 BAR2 SZ ES   2   1358 27.19                             169     0.2 5   26 218 
 BAR2 SZ I        1358 28.77        17.7 0.13                            26 218 
 BRR  HE ES       1358 30.98                             147     0.010   83 296 
 BRR  HZ I        1358 33.98        14.3 0.14                            83 296 
 RUS  HZ EP   1   1358 16.32                             143    -0.1 7   98 183 
 RUS  HE ES   2   1358 34.27                             143     0.1 5   98 183 
 RUS  HZ I        1358 36.58         7.0 0.34                            98 183 
 BRI  SZ EP   1   1358 16.98                             140     0.4 7  107  14 
 BRI  SZ I        1358 22.89         5.9 0.51                           107  14 
 BRI  SZ ES   2   1358 34.20                             140    -0.4 5  107  14 
                                                                                
