 2013 1210 1743 32.0 L   6.817 -73.147141.0  RSN 16 0.3 2.9LRSN 3.2WRSN        1
 SPEC AVERAGE  MO 13.9 ST 52.1 OM  2.6 f0 6.70 R0.2842 AL 0.00 WI 27.1 MW  3.2 3
 SPEC SD       MO  0.2 ST 45.3 OM  0.4 f0 2.85 R0.1268 AL      WI      MW  0.2 3
 GAP= 70        0.83       2.3     2.4  4.5 -0.7223E+00  0.3209E+01 -0.3418E+00E
 Epicentro: LOS SANTOS - SANTANDER                                             3
 SPEC CHI HH N MO 14.0 ST  4.2 OM  2.1 f0 3.42 R0.4544 AL 0.00 WI 25.2 MW  3.2 3
 SPEC CHI HH N T174435 K 0.000 GD  287 VS 4.20 DE 3.20 Q0300.0 QA 0.60 VS 4.20 3
 SPEC NOR HH E MO 13.9 ST100.7 OM  2.1 f0 10.0 R0.1554 AL 0.00 WI 20.5 MW  3.2 3
 SPEC NOR HH E T174435 K 0.000 GD  274 VS 4.20 DE 3.20 Q0300.0 QA 0.60 VS 4.20 3
 SPEC SPBCHH E MO 13.9 ST100.1 OM  2.2 f0 10.0 R0.1554 AL 0.00 WI 28.8 MW  3.2 3
 SPEC SPBCHH E T174420 K 0.000 GD  217 VS 4.20 DE 3.20 Q0300.0 QA 0.60 VS 4.20 3
 SPEC OCA HH N MO 14.4 ST 68.1 OM  2.7 f0 6.04 R0.2573 AL 0.00 WI 22.9 MW  3.6 3
 SPEC OCA HH N T174420 K 0.000 GD  211 VS 4.20 DE 3.20 Q0300.0 QA 0.60 VS 4.20 3
 SPEC TAM HH E MO 13.9 ST  3.2 OM  2.2 f0 3.20 R0.4856 AL 0.00 WI 29.4 MW  3.2 3
 SPEC TAM HH E T174420 K 0.000 GD  210 VS 4.20 DE 3.20 Q0300.0 QA 0.60 VS 4.20 3
 SPEC PTB HH N MO 13.9 ST 69.4 OM  2.2 f0 9.03 R0.1721 AL 0.00 WI 31.1 MW  3.2 3
 SPEC PTB HH N T174418 K 0.000 GD  204 VS 4.20 DE 3.20 Q0300.0 QA 0.60 VS 4.20 3
 SPEC RUS HH E MO 13.4 ST  2.8 OM  1.8 f0 4.43 R0.3508 AL 0.00 WI 28.2 MW  2.9 3
 SPEC RUS HH E T174413 K 0.000 GD  174 VS 4.20 DE 3.20 Q0300.0 QA 0.60 VS 4.20 3
 SPEC PAM SH N MO 13.8 ST  5.4 OM  2.2 f0 4.18 R0.3718 AL 0.00 WI 35.8 MW  3.1 3
 SPEC PAM SH N T174410 K 0.000 GD  160 VS 4.20 DE 3.20 Q0300.0 QA 0.60 VS 4.20 3
 SPEC BRR HH N MO 14.0 ST115.2 OM  2.4 f0 10.0 R0.1554 AL 0.00 WI 22.3 MW  3.3 3
 SPEC BRR HH N T174410 K 0.000 GD  157 VS 4.20 DE 3.20 Q0300.0 QA 0.60 VS 4.20 3
 ACTION:UPD 14-01-13 10:17 OP:ep   STATUS:               ID:20131210174332 L   I
 OLDACT:UP  13-12-10 16:08 OP:cam  STATUS:               ID:20131210174000     3
 OLDACT:UP  13-12-10 16:07 OP:cam  STATUS:               ID:20131210174000     3
 OLDACT:REG 13-12-10 14:56 OP:cam  STATUS:               ID:20131210174000     3
 2013-12-10-1740-00M.COL___285                                                 6
 STAT SP IPHASW D HRMM SECON CODA AMPLIT PERI AZIMU VELO AIN AR TRES W  DIS CAZ7
 BAR2 SZ IP     C 1743 51.17                             169    0.0510 25.2 189 
 BAR2 SZ ES       1744  6.01                             169   -0.0010 25.2 189 
 BAR2 SZ I        1744  8.55       179.3 0.36            169           25.2 189 
 BRR  HZ EP       1743 52.99                             152    0.4010 70.2 297 
 BRR  HN ES   4   1744  9.75                             152    1.11 0 70.2 297 
 BRR  HZ I        1744 13.90       184.2 0.12            151           70.2 297 
 PAM  SZ EP       1743 53.99                             150    0.3410 76.0  41 
 PAM  SN ES       1744 10.80                             150    0.2810 76.0  41 
 PAM  SN I        1744 11.74       231.7 0.46            155           76.0  41 
 RUS  HZ EP       1743 55.23                             142   -0.2210  103 176 
 RUS  HE ES       1744 13.78                             142    0.0610  103 176 
 RUS  HZ I        1744 14.87        27.6 0.18            145            103 176 
 PTB  HZ EP       1743 58.26                             131   -0.36 9  148 258 
 PTB  HN ES       1744 18.80                             131   -0.57 9  148 258 
 PTB  HZ I        1744 21.54       128.3 0.12            131            148 258 
 TAM  HZ EP       1743 59.68                             129    0.30 9  156 106 
 TAM  HE ES       1744 20.68                             129   -0.05 9  156 106 
 TAM  HZ I        1744 21.57        56.4 0.22            135            156 106 
 OCA  HZ EP       1743 59.39                             129   -0.39 9  158 353 
 OCA  HN ES       1744 20.92                             129   -0.51 9  158 353 
 OCA  HZ I        1744 23.94       118.3 0.34            131            158 353 
 SPBC HZ EP       1744  0.25                             128   -0.04 9  165 219 
 SPBC HE ES       1744 22.10                             128   -0.24 9  165 219 
 SPBC HZ I        1744 29.23        79.5 0.26            129            165 219 
 ZAR  HZ EP       1744  3.94                             121   -0.13 9  203 292 
 ZAR  HE ES       1744 29.72                             121    0.66 9  203 292 
 ZAR  HZ I        1744 37.57        96.8 0.14            123            203 292 
 NOR  HZ EP       1744  7.90                             117    0.32 8  236 234 
 NOR  HE ES       1744 35.66                             117    0.34 8  236 234 
 NOR  HZ I        1744 40.85        92.1 0.14            119            236 234 
 SML  HZ EP       1744  7.73                             117   -0.45 8  242 335 
 SML  HE ES   4   1744 34.77                             117   -1.62 0  242 335 
 SML  HZ I        1744 40.52       101.1 0.22            119            242 335 
 CHI  HZ EP       1744  9.77                             116    0.12 8  250 195 
 CHI  HN ES       1744 38.50                             116   -0.51 8  250 195 
 CHI  HZ I        1744 42.16        20.9 0.28            118            250 195 
 ROSC BZ EP   4   1744 11.12                             115    1.07 0  254 211 
 HEL  HZ EP       1744 12.39                             114    0.36 8  272 255 
 HEL  HN ES       1744 43.52                             114    0.29 8  272 255 
 HEL  HZ I        1744 49.74        53.6 0.44            115            272 255 
 GUY2CHZ EP   4   1744 16.40                             111    0.88 0  302 234 
 PTGC HZ EP   4   1744 14.77                             110   -1.10 0  311 159 
 RREF HZ EP   4   1744 19.59                             110    1.51 0  323 229 
 CBOC HZ EP   4   1744 19.42                             109    0.63 0  334 252 
 DBB  SZ EP   4   1744 19.22                             109   -0.05 0  339 274 
 DBB  SZ ES   4   1744 54.91                             109   -1.21 0  339 274 
 DBB  SZ I        1744 59.74        40.7 0.26            110            339 274 
 PRA  HZ EP   4   1744 25.81                             106    0.25 0  394 209 
 PRA  HE ES   4   1745  7.38                             106    0.05 0  394 209 
 PRA  HZ I        1745 12.05        21.4 0.50            107            394 209 
 SJC  HZ EP   4   1744 25.08                             105   -2.15 0  408 327 
 SJC  HE ES   4   1745  6.96                             105   -3.33 0  408 327 
 SJC  HZ I        1745 10.26        23.2 0.56            107            408 327 
                                                                                
