 2012 1110 1225 37.5 L   6.792 -73.159145.4  RSN 11 0.5 2.4LRSN                1
 GAP=135        1.04       4.2     5.0  7.0 -0.5588E+00  0.9920E+01  0.7643E+01E
 Epicentro: LOS SANTOS - SANTANDER                                             3
 ACTION:UPD 12-12-05 15:32 OP:}ep  STATUS:               ID:20121110122537 L   I
 2012-11-10-1220-00M.COL___230                                                 6
 STAT SP IPHASW D HRMM SECON CODA AMPLIT PERI AZIMU VELO AIN AR TRES W  DIS CAZ7
 BAR2 SZ IP     D 1225 57.03                             171    0.0010 22.2 187 
 BAR2 SZ ES   1   1226 11.64                             171   -0.64 7 22.2 187 
 BAR2 SZ I        1226 13.07        56.5 0.14                          22.2 187 
 GIR2 SZ EP       1225 57.20                             167    0.0910 32.0 353 
 GIR2 SZ ES   1   1226 12.45                             167    0.02 7 32.0 353 
 BRR  HZ IP     C 1225 58.93                             153    0.4010 70.4 300 
 BRR  HN ES   1   1226 15.84                             153    0.89 7 70.4 300 
 BRR  HN I        1226 16.28       109.9 0.26                          70.4 300 
 PAM  SZ EP     D 1226  0.02                             150    0.2810 79.0  40 
 PAM  SN ES   1   1226 16.85                             150   -0.26 7 79.0  40 
 RUS  HZ EP       1226  0.99                             144   -0.1310 99.8 175 
 RUS  HN ES   1   1226 19.59                             144    0.02 7 99.8 175 
 RUS  HN I        1226 20.29        28.1 0.22                          99.8 175 
 PTB  HZ EP       1226  3.69                             132   -0.57 9  146 259 
 PTB  HN ES   1   1226 24.85                             132   -0.30 7  146 259 
 PTB  HN I        1226 29.80        42.8 0.36                           146 259 
 OCA  HE ES   1   1226 27.09                             129   -0.84 7  161 354 
 ZAR  HZ EP   1   1226 10.77                             122    0.99 6  203 293 
 ZAR  HN ES   1   1226 35.62                             122    0.63 6  203 293 
 ZAR  HZ I        1226 41.54        19.3 0.22                           203 293 
 CHI  HZ EP   1   1226 14.86                             117   -0.14 6  247 195 
 CHI  HN ES   1   1226 45.12                             117    0.84 6  247 195 
 CHI  HN I        1226 54.38        10.5 0.32                           247 195 
 HEL  HZ EP   1   1226 16.73                             115   -0.75 6  270 256 
 HEL  HN ES   1   1226 47.64                             115   -1.05 6  270 256 
 HEL  HZ I        1226 55.82         7.3 0.24                           270 256 
 PRA  HZ EP   1   1226 30.62                             106   -0.17 4  390 209 
 PRA  HN ES   1   1227 12.77                             106    0.38 4  390 209 
 PRA  HZ I        1227 19.77         7.0 0.28                           390 209 
                                                                                
