 2011 1110 1901 29.6 L   6.761 -73.113149.9  RSN  8 0.4 2.3LRSN                1
 GAP=143        0.92       3.9     4.9  6.5 -0.3402E+01  0.7693E+01  0.1271E+01E
 Epicentro: LOS SANTOS - SANTANDER                                             3
 ACTION:UPD 12-07-13 16:09 OP:ep   STATUS:               ID:20111110190129 L   I
 2011-11-10-1856-45S.COL___178                                                 6
 STAT SP IPHASW D HRMM SECON CODA AMPLIT PERI AZIMU VELO AIN AR TRES W  DIS CAZ7
 BAR2 SZ EP       19 1 49.66                             172    0.0010 20.2 202 
 BAR2 SZ ES   1   19 2  4.47                             172   -0.84 7 20.2 202 
 BAR2 SZ I        19 2  6.10        47.8 0.44                          20.2 202 
 BRR  HZ IP     C 19 1 51.71                             151    0.2310 76.4 300 
 BRR  HZ I        19 1 52.00        90.9 0.19                          76.4 300 
 BRR  HN ES       19 2  9.16                             151    0.6010 76.4 300 
 PAM  SZ EP       19 1 52.50                             151    0.1810 78.6  36 
 PAM  SN ES       19 2  9.87                             151   -0.1710 78.6  36 
 RUS  HZ EP       19 1 53.70                             146    0.2710 96.1 178 
 RUS  HN ES   1   19 2 11.97                             146   -0.06 7 96.1 178 
 RUS  HZ I        19 2 13.68        14.8 0.14                          96.1 178 
 OCA  SZ EP       19 1 58.47                             130   -0.19 9  165 352 
 OCA  SZ ES   1   19 2 21.60                             130    0.26 7  165 352 
 OCA  SZ I        19 2 26.83        24.0 0.51                           165 352 
 ZAR  HZ EP   1   19 2  2.17                             123   -0.64 6  209 293 
 ZAR  HE ES   1   19 2 28.10                             123   -0.63 6  209 293 
 ZAR  HZ I        19 2 34.97        21.2 0.23                           209 293 
 NOR  SZ EP   1   19 2  5.11                             119   -0.50 6  235 236 
 NOR  SN ES   1   19 2 33.41                             119   -0.30 6  235 236 
 RREF HN ES   1   19 2 52.97                             112    0.93 5  322 230 
 RREF HZ I        19 2 58.29         7.1 0.16                           322 230 
                                                                                
