 2013  110 1322 42.2 L   6.770 -73.185146.9  RSN  5 0.3 1.7LRSN                1
 GAP=231        0.67       5.7     5.0  5.3  0.1127E+02  0.4534E+01 -0.8451E+00E
 Epicentro: VILLANUEVA - SANTANDER                                             3
 ACTION:UPD 13-02-15 09:13 OP:ep   STATUS:               ID:20130110132242 L   I
 2013-01-10-1318-40M.COL___172                                                 6
 STAT SP IPHASW D HRMM SECON CODA AMPLIT PERI AZIMU VELO AIN AR TRES W  DIS CAZ7
 BAR2 SZ EP       1323  1.62                             172   -0.2910 19.6 179 
 BAR2 SZ ES       1323 17.47                             172    0.1910 19.6 179 
 BAR2 SZ I        1323 18.86        11.4 0.70            168           19.6 179 
 BRR  HZ EP       1323  3.55                             153    0.1810 69.2 303 
 RUS  HZ EP       1323  6.13                             145    0.2610 97.6 173 
 RUS  HN ES       1323 24.07                             145   -0.2510 97.6 173 
 RUS  HN I        1323 26.10         8.4 0.28            145           97.6 173 
 PTB  HZ EP       1323  8.45                             133   -0.39 9  143 260 
 PTB  HN ES       1323 29.71                             133    0.11 9  143 260 
 PTB  HN I        1323 34.88         6.7 0.32            132            143 260 
 CHI  HZ EP       1323 19.76                             118    0.26 8  244 194 
                                                                                
