 2016  710 1442 20.5 L   6.779 -73.166147.7  RSN  6 0.4 1.5LRSN                1
 GAP=234        1.08       5.8     6.3  7.3  0.1516E+02  0.7691E+01 -0.1266E+01E
 Epicentro: LOS SANTOS - SANTANDER                                             3
 ACTION:UPD 17-03-29 16:49 OP:lp   STATUS:               ID:20160710144220 L   I
 OLDACT:REG 16-07-10 21:40 OP:edw  STATUS:               ID:20160710143000     3
 2016-07-10-1429-59S.COL___328                                                 6
 STAT SP IPHASW D HRMM SECON CODA AMPLIT PERI AZIMU VELO AIN AR TRES W  DIS CAZ7
 BAR2 EZ EP       1442 40.12                             172   -0.2010 20.7 185 
 BAR2 EZ ES       1442 55.19                             172   -0.5910 20.7 185 
 BAR2 EZ I        1442 56.19         8.8 0.24            171           20.7 185 
 BRR  HZ EP       1442 42.23                             153    0.4110 70.4 301 
 BRR  HN ES       1442 58.87                             153    0.4210 70.4 301 
 BRR  HZ I        1442 59.95         6.9 0.24            153           70.4 301 
 RUS  HZ EP       1442 43.84                             145   -0.4510 98.4 175 
 RUS  HN ES       1443  3.47                             145    0.6210 98.4 175 
 RUS  HZ I        1443  3.51         4.1 0.22            146           98.4 175 
 PTB  HZ EP       1442 46.93                             133   -0.46 9  145 260 
 PTB  HN ES       1443  7.84                             133   -0.53 9  145 260 
 PTB  HZ I        1443 10.77         2.9 0.15            133            145 260 
 SPBC HZ EP       1442 49.11                             130    0.26 9  160 219 
 SPBC HN ES       1443 11.18                             130    0.22 9  160 219 
 ZAR  HZ EP       1442 53.23                             123    0.27 9  203 293 
 ZAR  HN ES       1443 18.33                             123    0.06 9  203 293 
 NOR  HZ EP   4   1442 52.11                             119   -3.89 0  231 235 
 NOR  HN ES   4   1443 20.01                             119   -3.69 0  231 235 
                                                                                
