 2014 1010 1000 39.0 L   6.783 -73.159137.9  RSN 19 0.6 2.3LRSN                1
 GAP= 71        1.72       4.3     4.6  8.0 -0.2255E+01  0.5180E+01  0.9140E+01E
 Epicentro: LOS SANTOS - SANTANDER                                             3
 ACTION:UPD 14-11-29 23:48 OP:nd   STATUS:               ID:20141010100039 L   I
 OLDACT:REG 14-10-10 21:18 OP:stll STATUS:               ID:20141010095745     3
 2014-10-10-0957-45M.COL___290                                                 6
 STAT SP IPHASW D HRMM SECON CODA AMPLIT PERI AZIMU VELO AIN AR TRES W  DIS CAZ7
 BAR2 SZ EP       10 0 57.83                             171    0.2110 21.3 187 
 BAR2 SZ ES       10 1 12.49                             171    0.3310 21.3 187 
 BAR2 SZ I        10 1 14.19       112.8 0.18            169           21.3 187 
 BRR  HZ IP     D 10 0 59.65                             151    0.3910 70.9 300 
 BRR  HN ES       10 1 16.40                             151    1.3210 70.9 300 
 BRR  HZ I        10 1 17.51        34.1 0.12            148           70.9 300 
 PAM  SZ IP     D 10 1  0.52                             148    0.0110 79.7  39 
 PAM  SZ I        10 1  0.80        52.0 0.24            151           79.7  39 
 PAM  SN ES       10 1 17.33                             148    0.0310 79.7  39 
 RUS  HZ EP       10 1  1.75                             142   -0.0810 98.8 175 
 RUS  HN ES       10 1 19.70                             142    0.0410 98.8 175 
 RUS  HZ I        10 1 21.52        30.5 0.32            143           98.8 175 
 PTB  HZ EP       10 1  4.35                             130   -0.80 9  146 259 
 PTB  HE ES       10 1 25.04                             130   -0.53 9  146 259 
 PTB  HZ I        10 1 29.87        22.2 0.36            129            146 259 
 TAM  HZ IP     D 10 1  6.12                             128   -0.01 9  156 104 
 TAM  HZ I        10 1  6.23        41.4 0.18            131            156 104 
 TAM  HN ES       10 1 26.65                             128   -0.66 9  156 104 
 SPBC HZ EP       10 1  6.76                             127    0.10 9  161 219 
 SPBC HN ES       10 1 27.98                             127   -0.27 9  161 219 
 SPBC HZ I        10 1 31.37        44.1 0.20            127            161 219 
 OCA  HZ EP       10 1  6.65                             127   -0.20 9  162 354 
 OCA  HN ES       10 1 27.42                             127   -1.17 9  162 354 
 OCA  HZ I        10 1 30.79        25.5 0.22            128            162 354 
 ZAR  HZ EP       10 1 11.12                             120    0.26 9  203 293 
 ZAR  HE ES       10 1 35.65                             120   -0.07 9  203 293 
 ZAR  HZ I        10 1 44.27        18.8 0.44            120            203 293 
 SML  HZ EP   9   10 1 14.20                             115   -1.09 0  245 336 
 SML  HN ES       10 1 41.75                                   -0.78 8  245 336 
 SML  HZ I        10 1 46.85        23.1 0.26            116            245 336 
 CHI  HZ EP       10 1 15.77                             115   -0.24 8  246 195 
 CHI  HZ I        10 1 17.79         8.6 0.50            116            246 195 
 CHI  HN ES       10 1 43.79                             115   -1.11 8  246 195 
 ROSC BZ EP       10 1 17.99                             115    1.57 8  250 211 
 ROSC BE ES       10 1 45.40                             115   -0.23 8  250 211 
 ROSC BZ I        10 1 53.74        21.8 0.40            115            250 211 
 URE  HZ EP   9   10 1 18.62                             112   -0.98 0  283 292 
 URE  HE ES       10 1 48.89                                   -1.42 7  283 292 
 URE  HZ I        10 1 59.19        13.6 0.26            112            283 292 
 GUY2CHZ EP       10 1 23.08                             111    1.10 7  299 235 
 GUY2CHN ES       10 1 55.37                             111   -0.15 7  299 235 
 GUY2CHZ I        10 2  3.94        10.6 0.28                           299 235 
 RREF HZ EP   9   10 1 21.71                             109   -2.82 0  319 229 
 RREF HE ES       10 1 55.74                                   -1.50 7  319 229 
 RREF HZ I        10 2  5.68         8.7 0.24            109            319 229 
 TOL  SZ EP       10 1 27.49                             108    0.83 7  341 225 
 TOL  SE ES       10 2  4.26                             108    0.41 7  341 225 
 MON  HZ EP   9   10 1 25.14                             107   -2.55 0  354 309 
 MON  HN ES       10 2  2.30                                   -0.83 6  354 309 
 MON  HZ I        10 2  5.35         3.0 0.24            107            354 309 
 PRA  HZ EP       10 1 31.32                             105   -0.64 6  390 210 
 PRA  HN ES       10 2 12.77                             105   -0.52 6  390 210 
 PRA  HZ I        10 2 20.11         8.8 0.30            105            390 210 
 SJC  HZ EP   9   10 1 31.29                             104   -3.09 0  410 327 
 SJC  HZ I        10 1 33.97         3.5 0.34            104            410 327 
 SJC  HN ES       10 2 11.98                                   -2.53 6  410 327 
                                                                                
