 2011  710 1933 16.9 L   6.800 -73.151145.1  RSN  5 0.3 1.7LRSN                1
 GAP=220        0.53       5.0     7.0  7.1  0.5810E+01  0.8151E+01 -0.1262E+01E
 Epicentro: LOS SANTOS - SANTANDER                                             3
 ACTION:UPD 12-07-25 13:59 OP:epov STATUS:               ID:20110710193316 L   I
 2011-07-10-1930-55S.COL___139                                                 6
 STAT SP IPHASW D HRMM SECON CODA AMPLIT PERI AZIMU VELO AIN AR TRES W  DIS CAZ7
 BTL  SZ EP       1933 36.60                             172    0.2310 18.4 315 
 BAR2 SZ EP   2   1933 36.19                             171   -0.27 5 23.3 189 
 BAR2 SZ ES   2   1933 51.65                             171   -0.05 5 23.3 189 
 BAR2 SZ I        1933 54.26         8.3 0.53                          23.3 189 
 BRR  HZ EP   2   1933 37.15                             153   -0.81 5 70.7 299 
 BRR  HZ I        1933 45.19        21.7 0.45                          70.7 299 
 BRR  HE ES   2   1933 54.61                             153    0.23 5 70.7 299 
 RUS  HZ EP   1   1933 40.58                             144   -0.02 7  101 176 
 RUS  HN ES   1   1933 59.02                             144   -0.06 7  101 176 
 RUS  HZ I        1934  0.87         5.6 0.23                           101 176 
 NOR  SZ EP   2   1933 53.01                             118    0.45 4  234 234 
 NOR  SN ES   2   1934 20.16                             118   -0.20 4  234 234 
                                                                                
