 2012  810 1159 48.2 L   6.797 -73.130143.8  RSN 12 0.3 2.6LRSN                1
 GAP= 67        0.63       2.5     2.4  3.9  0.9422E-01  0.1055E+01  0.2843E+01E
 Epicentro: LOS SANTOS - SANTANDER                                             3
 ACTION:UPD 12-09-10 11:55 OP:ep   STATUS:               ID:20120810115948 L   I
 2012-08-10-1200-00M.COL___219                                                 6
 STAT SP IPHASW D HRMM SECON CODA AMPLIT PERI AZIMU VELO AIN AR TRES W  DIS CAZ7
 BAR2 SZ EP       12 0  7.72                             170    0.1010 23.4 194 
 BAR2 SZ ES   1   12 0 22.52                             170   -0.23 7 23.4 194 
 BAR2 SZ I        12 0 24.48       195.4 0.12                          23.4 194 
 BRR  HZ EP       12 0  9.52                             152    0.2710 72.9 298 
 BRR  HN ES       12 0 25.95                             152    0.2910 72.9 298 
 BRR  HZ I        12 0 31.10        77.2 0.16                          72.9 298 
 PAM  SZ EP       12 0 10.29                             151    0.1210 76.5  38 
 PAM  SN ES   1   12 0 26.98                             151   -0.32 7 76.5  38 
 RUS  HZ IP       12 0 11.72                             143   -0.0310  100 177 
 RUS  HE ES   1   12 0 29.79                             143   -0.32 7  100 177 
 RUS  HZ I        12 0 32.01        37.3 0.30                           100 177 
 PTB  HZ EP       12 0 14.78                             131   -0.40 9  149 259 
 PTB  HE ES   1   12 0 36.13                             131   -0.08 7  149 259 
 TAM  HZ EP   1   12 0 15.78                             130    0.20 7  153 105 
 TAM  HZ I        12 0 36.50        35.3 0.44                           153 105 
 TAM  HN ES   1   12 0 36.98                             130    0.06 7  153 105 
 OCA  HZ EP   1   12 0 15.87                             129   -0.55 7  161 353 
 OCA  HZ I        12 0 41.96        69.5 0.12                           161 353 
 YOP  SZ EP       12 0 18.40                             126    0.38 9  178 154 
 YOP  SZ I        12 0 20.24        40.4 0.12                           178 154 
 YOP  SN ES   1   12 0 41.29                             126    0.02 7  178 154 
 NOR  SZ EP       12 0 23.81                             118   -0.16 8  236 235 
 NOR  SN ES   1   12 0 52.19                             118    0.33 6  236 235 
 CHI  HZ IP   1   12 0 25.67                             117   -0.16 6  249 196 
 CHI  HZ I        12 0 28.98        19.6 0.24                           249 196 
 CHI  HE ES   1   12 0 54.91                             117   -0.26 6  249 196 
 HEL  HZ EP   1   12 0 29.13                             114    0.62 6  274 256 
 HEL  HZ I        12 1  8.76        32.5 0.33                           274 256 
 PRA  HZ EP       12 0 41.15                             106   -0.59 6  393 210 
 PRA  HN ES   1   12 1 23.89                             106    0.40 4  393 210 
                                                                                
