 2011  410 1005 36.5 L   6.854 -73.086151.6  RSN  4 0.3 1.5LRSN                1
 GAP=162        0.67       9.3     7.8  8.7 -0.1403E+02  0.1474E+02  0.1024E+01E
 Epicentro: LOS SANTOS - SANTANDER                                             3
 ACTION:UP  11-06-22 15:30 OP:REBC STATUS:               ID:20110410100536 L   I
 2011-04-10-1001-19S.COL___132                                                 6
 STAT SP IPHASW D HRMM SECON CODA AMPLIT PERI AZIMU VELO SNR AR TRES W  DIS CAZ7
 BAR2 SZ EP   3   10 5 56.70                             167    -0.3 2   31 200 
 PAM  SZ EP       10 5 59.27                             155     0.410   69  38 
 PAM  SN ES   1   10 6 16.00                             155    -0.3 7   69  38 
 PAM  SZ I        10 6 18.40         2.9 0.42                            69  38 
 BRR  HZ EP       10 5 58.44                             153    -0.110   75 292 
 BRR  HN ES   2   10 6 15.91                             153     0.3 5   75 292 
 BRR  HZ I        10 6 19.58         7.1 0.13                            75 292 
 OCA  SZ EP       10 6  4.61                             132    -0.2 9  155 350 
 OCA  SZ ES   2   10 6 27.07                             132     0.1 5  155 350 
 OCA  SZ I        10 6 31.89         5.2 0.41                           155 350 
                                                                                
