 2013  210 1308 45.0 L   6.781 -73.147154.0  RSN  5 0.2 1.5LRSN                1
 GAP=236        0.58       5.4     5.9  6.7  0.1400E+02 -0.5086E+01  0.1665E+01E
 Epicentro: LOS SANTOS - SANTANDER                                             3
 ACTION:UPD 13-03-12 09:32 OP:ep   STATUS:               ID:20130210130845 L   I
 2013-02-10-1300-00M.COL___241                                                 6
 STAT SP IPHASW D HRMM SECON CODA AMPLIT PERI AZIMU VELO AIN AR TRES W  DIS CAZ7
 BAR2 SZ EP       13 9  5.26                             172   -0.3710 21.3 191 
 BAR2 SZ I        13 9 23.20         6.0 0.30            173           21.3 191 
 BRR  HZ EP       13 9  7.34                             154    0.2010 72.1 300 
 BRR  HE ES   1   13 9 24.61                             154    0.24 7 72.1 300 
 BRR  HZ I        13 9 36.17         6.0 0.37            154           72.1 300 
 RUS  HZ EP   1   13 9  9.64                             146    0.16 7 98.5 176 
 RUS  HE ES   1   13 9 28.57                             146    0.04 7 98.5 176 
 PTB  HZ EP   1   13 9 12.38                             134   -0.27 7  147 260 
 PTB  HN ES   1   13 9 34.04                             134   -0.14 7  147 260 
 PTB  HZ I        13 9 40.59         3.4 0.35            143            147 260 
 CHI  HZ EP   1   13 9 23.37                             119    0.37 6  247 195 
                                                                                
