 2015 1210 1945 20.1 L   6.140 -73.715108.4  RSN 19 0.4 2.5LRSN                1
 GAP= 68        1.03       2.6     2.7  5.3 -0.2010E+01  0.4710E+01  0.4578E-01E
 Epicentro: CHIPATA - SANTANDER                                                3
 ACTION:UPD 16-02-04 15:03 OP:cam  STATUS:               ID:20151210194520 L   I
 OLDACT:UP  15-12-11 01:28 OP:mh   STATUS:               ID:20151210193748     3
 OLDACT:UP  15-12-11 01:28 OP:mh   STATUS:               ID:20151210193748     3
 OLDACT:UP  15-12-11 01:28 OP:mh   STATUS:               ID:20151210193748     3
 OLDACT:UP  15-12-11 01:28 OP:mh   STATUS:               ID:20151210193748     3
 OLDACT:UP  15-12-11 01:27 OP:mh   STATUS:               ID:20151210193748     3
 OLDACT:UP  15-12-11 01:27 OP:mh   STATUS:               ID:20151210193748     3
 OLDACT:UP  15-12-11 01:26 OP:mh   STATUS:               ID:20151210193748     3
 OLDACT:UP  15-12-11 01:25 OP:mh   STATUS:               ID:20151210193748     3
 OLDACT:REG 15-12-10 22:22 OP:mh   STATUS:               ID:20151210193748     3
 2015-12-10-1937-48M.COL___334                                                 6
 STAT SP IPHASW D HRMM SECON CODA AMPLIT PERI AZIMU VELO AIN AR TRES W  DIS CAZ7
 SPBC HZ EP       1945 37.21                             146    0.0310 66.9 216 
 SPBC HN ES       1945 50.71                             146    0.2010 66.9 216 
 SPBC HZ I        1945 52.64       148.3 0.20            145           66.9 216 
 RUS  HZ IP     D 1945 38.02                             143   -0.3010 75.1 111 
 RUS  HN ES       1945 51.84                             143   -0.7110 75.1 111 
 RUS  HZ I        1945 55.80        30.7 0.44            146           75.1 111 
 BAR2 EZ EP       1945 38.41                             142    0.2810 77.2  50 
 BAR2 EZ ES       1945 52.43                             142    0.2310 77.2  50 
 BAR2 EZ I        1945 53.22       165.8 0.20            146           77.2  50 
 PTB  HZ IP     C 1945 38.39                             136   -0.7110 93.2 298 
 PTB  HN ES       1945 53.15                             136   -0.7810 93.2 298 
 PTB  HZ I        1945 56.20        46.5 0.14            137           93.2 298 
 BRR  HZ EP       1945 40.43                             132    0.1510  107   0 
 BRR  HN ES       1945 56.80                             132    0.7610  107   0 
 BRR  HZ I        1946  0.15        39.6 0.29            135            107   0 
 NOR  HZ EP       1945 43.48                             123   -0.37 9  143 244 
 NOR  HN ES       1946  2.63                             123    0.24 9  143 244 
 NOR  HZ I        1946  5.67        76.3 0.12            123            143 244 
 ROSC BZ EP   4   1945 38.84                             120   -7.09 0  159 205 
 ROSC BN ES       1946  6.95                             120    0.86 9  159 205 
 ROSC BZ I        1946 11.25        32.1 0.35            121            159 205 
 PAM  EZ EP   1   1945 47.51                             117   -0.16 7  174  40 
 PAM  EN ES       1946  9.33                             117    0.14 9  174  40 
 PAM  EZ I        1946 12.38        23.8 0.20            120            174  40 
 ZAR  HZ EP       1945 49.46                             114   -0.02 9  196 320 
 ZAR  HN ES       1946 12.84                             114    0.42 9  196 320 
 ZAR  HZ I        1946 15.00        48.5 0.14            116            196 320 
 HEL  HZ EP       1945 50.84                             113    0.33 9  201 272 
 HEL  HN ES       1946 13.76                             113   -0.49 9  201 272 
 HEL  HZ I        1946 19.87        19.4 0.32            114            201 272 
 GUY2CHZ EP       1945 51.52                             112   -0.04 8  209 241 
 GUY2CHN ES   4   1946 17.66                             112    1.55 0  209 241 
 GUY2CHZ I        1946 22.77        48.4 0.46                           209 241 
 VIL  SZ EP       1945 52.77                             110   -0.09 8  224 179 
 VIL  SE ES   4   1946 18.50                             110    0.08 0  224 179 
 ELA  HZ EP       1945 54.53                             110    0.02 8  234 233 
 ELA  HN ES       1946 21.68                             110    0.32 8  234 233 
 ELA  HZ I        1946 31.78        13.9 0.44            110            234 233 
 ANIL HZ EP   1   1945 57.37                             107    0.03 6  261 226 
 ANIL HE ES   4   1946 29.05                             107    2.65 0  261 226 
 ANIL HZ I        1946 32.80        49.0 0.22            108            261 226 
 URE  HZ EP   1   1945 57.83                             106   -0.01 6  269 312 
 DBB  SZ EP   1   1946  0.32                             104   -0.42 5  293 290 
 DBB  SZ ES   4   1946 30.61                             104   -1.85 0  293 290 
 PRA  HZ EP   4   1945 59.73                             104   -1.62 0  298 206 
 PRA  HN ES   4   1946 32.28                             104   -1.26 0  298 206 
 PRA  HZ I        1946 39.61        24.3 0.18            105            298 206 
 ORTC HZ EP   4   1945 59.94                             104   -1.57 0  299 215 
 ORTC HN ES   4   1946 35.49                             104    1.66 0  299 215 
 ORTC HZ I        1946 38.73        23.6 0.50            105            299 215 
 PAL  HZ EP       1946  3.49                             103    0.02 7  316 244 
 PAL  HN ES   4   1946 35.11                             103   -2.20 0  316 244 
 PAL  HZ I        1946 40.06        10.0 0.26            104            316 244 
                                                                                
