 2013  210 1035 53.6 L   6.782 -73.146149.5  RSN  7 0.3 1.2LRSN                1
 GAP=137        0.73       3.0     4.2  5.4  0.5895E+00  0.4303E+01 -0.1040E+01E
 Epicentro: LOS SANTOS - SANTANDER                                             3
 ACTION:UPD 13-03-12 09:32 OP:ep   STATUS:               ID:20130210103553 L   I
 2013-02-10-1030-00M.COL___241                                                 6
 STAT SP IPHASW D HRMM SECON CODA AMPLIT PERI AZIMU VELO AIN AR TRES W  DIS CAZ7
 BAR2 SZ EP   1   1036 13.70                             171    0.09 7 21.4 191 
 BAR2 SZ I        1036 30.35         6.3 0.16            157           21.4 191 
 BRR  HZ EP   1   1036 15.48                             153    0.31 7 72.1 300 
 BRR  HN ES       1036 32.46                             153    0.4410 72.1 300 
 BRR  HZ I        1036 38.04         3.3 0.22            148           72.1 300 
 PAM  SZ EP       1036 16.50                             151    0.2310 79.0  39 
 PAM  SN ES       1036 33.76                             151   -0.2210 79.0  39 
 PAM  SZ I        1036 35.73         3.0 0.18            148           79.0  39 
 RUS  HZ EP   1   1036 17.75                             145    0.21 7 98.6 176 
 RUS  HN ES       1036 35.90                             145   -0.3510 98.6 176 
 RUS  HN I        1036 38.12         2.0 0.24            129           98.6 176 
 PTB  HZ EP       1036 20.48                             133   -0.32 9  147 260 
 PTB  HN ES   1   1036 41.86                             133   -0.18 7  147 260 
 PTB  HZ I        1036 47.47         2.4 0.31            122            147 260 
 SML  HZ EP       1036 30.23                             118   -0.36 8  245 336 
 SML  HE ES       1036 59.36                             118   -0.11 8  245 336 
 CHI  HZ EP   1   1036 31.87                             118    0.61 6  247 195 
 CHI  HZ I        1037  8.88         0.8 0.50            107            247 195 
                                                                                
