 2013  810 1905  0.1 L   6.785 -73.144152.6  RSN  8 0.3 1.9LRSN                1
 GAP=186        0.66       3.3     3.5  5.1  0.1712E+01  0.3684E+01 -0.1419E+01E
 Epicentro: LOS SANTOS - SANTANDER                                             3
 ACTION:UPD 14-01-14 09:00 OP:ep   STATUS:               ID:20130810190500 L   I
 OLDACT:REG 13-08-10 17:29 OP:carl STATUS:               ID:20130810185959     3
 2013-08-10-1859-59M.COL___271                                                 6
 STAT SP IPHASW D HRMM SECON CODA AMPLIT PERI AZIMU VELO AIN AR TRES W  DIS CAZ7
 BAR2 SZ EP   1   19 5 20.64                             172    0.08 7 21.7 191 
 BAR2 SZ ES   1   19 5 36.24                             172   -0.25 7 21.7 191 
 BAR2 SZ I        19 5 37.37         9.9 0.46            166           21.7 191 
 GIR2 SZ EP       19 5 20.76                             167    0.0910 33.0 350 
 GIR2 SZ ES   1   19 5 36.50                             167   -0.19 7 33.0 350 
 BRR  HZ EP   1   19 5 22.52                             153    0.43 7 72.2 300 
 BRR  HN ES   1   19 5 39.78                             153    0.57 7 72.2 300 
 BRR  HN I        19 5 43.18        31.2 0.18            149           72.2 300 
 RUS  HZ EP       19 5 24.39                             146   -0.0610 98.9 176 
 RUS  HN ES       19 5 43.37                             146   -0.0410 98.9 176 
 RUS  HZ I        19 5 44.37         3.2 0.38            146           98.9 176 
 PTB  HZ EP   1   19 5 26.99                             134   -0.67 7  148 259 
 PTB  HN ES       19 5 48.81                             134   -0.32 9  148 259 
 PTB  HZ I        19 5 56.06         6.1 0.16            131            148 259 
 SPBC HN ES       19 5 51.82                             131    0.20 9  162 219 
 SPBC HN I        19 5 58.14        30.4 0.10            129            162 219 
 ZAR  HZ EP       19 5 33.19                             124    0.06 9  205 293 
 ZAR  HE ES       19 5 58.74                             124   -0.11 9  205 293 
 ZAR  HZ I        19 6  5.13         7.1 0.44            123            205 293 
 NOR  HE ES   1   19 6  4.68                             120    0.37 6  234 235 
 NOR  HE I        19 6  9.10        11.2 0.22            119            234 235 
 GUY2CHZ EP   4   19 5 46.34                             114    2.36 0  300 235 
 GUY2CHN ES   4   19 6 22.31                             114    4.13 0  300 235 
                                                                                
