 2012  510 1046 32.5 L   6.740 -73.207138.1  RSN  5 0.2 1.1LRSN                1
 GAP=224        0.54       5.3     4.7  4.9  0.1430E+02  0.2890E+01 -0.3479E+00E
 Epicentro: VILLANUEVA - SANTANDER                                             3
 ACTION:UP  12-07-05 12:04 OP:pat  STATUS:               ID:20120510104632 L   I
 2012-05-10-1040-00M.COL___195                                                 6
 STAT SP IPHASW D HRMM SECON CODA AMPLIT PERI AZIMU VELO SNR AR TRES W  DIS CAZ7
 BAR2 SZ EP       1046 50.89                             173    -0.210   17 170 
 BAR2 SZ ES   1   1047  5.42                             173    -0.2 7   17 170 
 BAR2 SZ I        1047  6.88         5.2 0.52                            17 170 
 BRR  HZ EP       1046 52.72                             152     0.010   69 306 
 BRR  HN ES   1   1047  8.76                             152     0.3 7   69 306 
 RUS  HZ EP       1046 55.39                             144     0.310   95 172 
 RUS  HE ES   2   1047 12.82                             144     0.1 5   95 172 
 RUS  HZ I        1047 14.23         1.2 0.50                            95 172 
 PTB  HZ EP   1   1046 57.95                             132    -0.2 7  140 261 
 PTB  HZ I        1046 59.47         1.4 0.16                           140 261 
 PTB  HN ES   1   1047 18.02                             132    -0.1 7  140 261 
 ZAR  HZ EP       1047  4.09                             121     0.0 9  200 295 
 ZAR  HN ES   2   1047 29.05                             121     0.3 4  200 295 
 ZAR  HZ I        1047 34.68         2.4 0.30                           200 295 
                                                                                
