 2016 1010 1151 57.6 L   6.733 -73.163145.0  RSN 10 0.5 1.8LRSN                1
 GAP=137        1.17       4.8     5.4  8.9 -0.4793E-01  0.2207E+02  0.3525E+01E
 Epicentro: VILLANUEVA - SANTANDER                                             3
 ACTION:UPD 16-11-09 19:18 OP:rebc STATUS:               ID:20161010115157 L   I
 OLDACT:DUP 16-10-10 21:17 OP:dnl  STATUS:               ID:20161010114744d    3
 2016-10-10-1148-00M.COL___357                                                 6
 STAT SP IPHASW D HRMM SECON CODA AMPLIT PERI AZIMU VELO AIN AR TRES W  DIS CAZ7
 BAR2 EZ EP       1152 17.14                             174    0.1210 15.7 188 
 BAR2 EZ ES       1152 32.31                             174    0.1510 15.7 188 
 BAR2 EZ I        1152 33.88        15.2 0.26            171           15.7 188 
 PAM  EZ EP   2   1152 20.21                             148    0.03 5 84.4  37 
 PAM  EE ES       1152 37.32                             148   -0.4610 84.4  37 
 PAM  EZ I        1152 39.77        13.8 0.46            152           84.4  37 
 RUS  HZ EP       1152 21.11                             146    0.3410 93.3 175 
 RUS  HN ES       1152 39.42                             146    0.5810 93.3 175 
 RUS  HZ I        1152 40.89        10.1 0.36            147           93.3 175 
 PTB  HZ EP       1152 23.94                             132   -0.29 9  145 262 
 PTB  HN ES       1152 44.09                             132   -0.90 9  145 262 
 PTB  HZ I        1152 47.01         7.5 0.12            132            145 262 
 ZAR  HZ EP       1152 30.33                             122    0.21 8  205 294 
 ZAR  HN ES       1152 56.05                             122    0.56 8  205 294 
 ZAR  HZ I        1153  1.07         6.1 0.24            122            205 294 
 NOR  HZ EP   2   1152 32.58                             119   -0.09 4  229 236 
 NOR  HN ES       1153  0.82                             119    0.81 8  229 236 
 NOR  HZ I        1153  5.74         7.0 0.50            119            229 236 
 CHI  HZ EP   2   1152 34.20                             118   -0.23 4  241 195 
 CHI  HE ES       1153  2.07                             118   -1.08 8  241 195 
 CHI  HZ I        1153  7.17         2.3 0.64            119            241 195 
 HEL  HE ES   3   1153  7.57                             115   -0.84 2  268 257 
 HEL  HZ I        1153 16.41         3.4 0.36            115            268 257 
 GUY2CHZ EP   4   1152 41.98                             113    1.46 0  295 236 
 GUY2CHE ES   3   1153 13.48                             113   -0.52 2  295 236 
 GUY2CHZ I        1153 23.32         4.3 0.32                           295 236 
 SJC  HZ EP   4   1152 52.03                             105   -1.73 0  414 328 
 SJC  HE ES   4   1153 31.93                             105   -5.63 0  414 328 
 SJC  HZ I        1153 38.18         1.5 0.34            106            414 328 
                                                                                
