 2013  810 1640 54.4 L   5.991 -74.021  7.1  RSN  5 0.3 1.2LRSN                1
 GAP=134        0.71       1.8     1.8  6.4  0.3391E+00  0.2885E+01  0.6613E+00E
 Epicentro: LA BELLEZA - SANTANDER                                             3
 ACTION:UPD 14-01-14 09:00 OP:ep   STATUS:               ID:20130810164054 L   I
 OLDACT:REG 13-08-10 17:27 OP:carl STATUS:               ID:20130810163959     3
 2013-08-10-1639-59M.COL___270                                                 6
 STAT SP IPHASW D HRMM SECON CODA AMPLIT PERI AZIMU VELO AIN AR TRES W  DIS CAZ7
 SPBC HZ EP       1641  0.96                              95    0.1010 37.8 189 
 SPBC HN ES       1641  5.70                              95   -0.1910 37.8 189 
 PTB  HZ EP       1641  6.92                              92    0.1510 77.4 322 
 PTB  HN ES       1641 16.21                              92   -0.2010 77.4 322 
 PTB  HZ I        1641 19.41        21.6 0.10             94           77.4 322 
 RUS  HZ EP       1641 11.88                              92    0.5310  104  96 
 RUS  HN ES   1   1641 23.96                              92   -0.60 7  104  96 
 RUS  HZ I        1641 24.84         3.0 0.20             93            104  96 
 NOR  HE ES       1641 23.93                              92   -0.0010  105 243 
 GUY2CHZ EP   2   1641 21.30                              56   -0.09 4  171 240 
 GUY2CHN ES   1   1641 42.40                              56   -0.03 7  171 240 
 GUY2CHZ I        1641 49.05         2.8 0.36                           171 240 
                                                                                
