 2016  910 1109 47.7 L   6.692 -73.233140.0  RSN  4 0.4 1.1LRSN                1
 GAP=218        0.94       7.2     7.4  8.4  0.3577E+02  0.9246E+00 -0.7868E+01E
 Epicentro: BARICHARA - SANTANDER                                              3
 ACTION:UPD 17-08-17 21:08 OP:lp   STATUS:               ID:20160910110947 L   I
 OLDACT:DUP 16-09-10 21:52 OP:lv   STATUS:               ID:20160910110733d    3
 2016-09-10-1108-00M.COL___336                                                 6
 STAT SP IPHASW D HRMM SECON CODA AMPLIT PERI AZIMU VELO AIN AR TRES W  DIS CAZ7
 BRR  HZ EP       1110  7.75                             152   -0.4210 70.1 311 
 BRR  HN ES       1110 24.15                             152    0.0210 70.1 311 
 RUS  HZ EP       1110 10.06                             146   -0.0810 89.9 169 
 RUS  HN ES       1110 27.94                             146    0.3110 89.9 169 
 PTB  HZ EP       1110 12.68                             133   -0.49 9  136 263 
 PTB  HN ES       1110 32.91                             133   -0.12 9  136 263 
 PTB  HZ I        1110 35.75         1.7 0.16            130            136 263 
 ZAR  HZ EP       1110 20.16                             122    0.78 9  200 296 
 ZAR  HN ES       1110 44.30                             122    0.22 9  200 296 
 ZAR  HZ I        1110 52.51         1.3 0.19            120            200 296 
                                                                                
