 2015 1210 1346 56.7 L   6.067 -73.591124.6  RSN  9 0.3 2.0LRSN                1
 GAP=100        0.82       2.7     3.1  5.0 -0.1026E+01  0.4924E+01  0.9086E+00E
 Epicentro: GUEPSA - SANTANDER                                                 3
 ACTION:UPD 16-02-04 15:03 OP:cam  STATUS:               ID:20151210134656 L   I
 OLDACT:UP  15-12-10 23:46 OP:mh   STATUS:               ID:20151210133748     3
 OLDACT:REG 15-12-10 21:58 OP:mh   STATUS:               ID:20151210133748     3
 2015-12-10-1337-48M.COL___331                                                 6
 STAT SP IPHASW D HRMM SECON CODA AMPLIT PERI AZIMU VELO AIN AR TRES W  DIS CAZ7
 RUS  HZ EP       1347 15.83                             153    0.1810 59.5 109 
 RUS  HN ES       1347 30.35                             153   -0.0610 59.5 109 
 RUS  HZ I        1347 32.32        10.2 0.14            156           59.5 109 
 SPBC HZ EP   1   1347 15.76                             149    0.04 7 70.3 229 
 SPBC HN ES       1347 30.25                             149   -0.2710 70.3 229 
 SPBC HZ I        1347 35.25        34.7 0.24            149           70.3 229 
 BAR2 EZ EP       1347 16.34                             148    0.2010 73.6  38 
 BAR2 EZ ES       1347 31.23                             148   -0.0510 73.6  38 
 BAR2 EZ I        1347 32.66        53.1 0.21            152           73.6  38 
 PTB  HZ EP       1347 17.63                             136   -0.8810  109 299 
 PTB  HN ES       1347 35.74                             136    0.2410  109 299 
 PTB  HZ I        1347 36.92        13.8 0.12            138            109 299 
 BRR  HZ EP       1347 19.36                             134    0.2910  116 353 
 BRR  HN ES       1347 36.51                             134    0.0210  116 353 
 BRR  HZ I        1347 40.10        11.5 0.16            137            116 353 
 NOR  HZ EP   1   1347 22.28                             126   -0.26 7  152 249 
 NOR  HN ES       1347 42.98                             126    0.30 9  152 249 
 NOR  HZ I        1347 44.43        19.6 0.16            128            152 249 
 ZAR  HZ EP       1347 28.61                             116   -0.02 8  211 318 
 ZAR  HN ES       1347 53.52                             116    0.01 8  211 318 
 ZAR  HZ I        1347 55.33         9.3 0.24            119            211 318 
 GUY2CHZ EP   1   1347 30.58                             116    0.62 6  217 245 
 GUY2CHN ES   4   1347 57.39                             116    1.51 0  217 245 
 GUY2CHZ I        1348  3.03         5.0 0.38                           217 245 
 PRA  HZ EP       1347 37.97                             108   -0.48 7  297 209 
 PRA  HN ES       1348 11.36                             108    0.37 7  297 209 
 PRA  HZ I        1348 16.59         6.7 0.26            110            297 209 
                                                                                
