 2016 1110 1425  0.5 L   6.804 -73.159144.0  RSN  7 0.5 1.9LRSN                1
 GAP=146        1.14       5.2     5.2  7.8 -0.1960E+01  0.6937E+01  0.1762E+02E
 Epicentro: LOS SANTOS - SANTANDER                                             3
 ACTION:UPD 17-10-26 21:06 OP:lp   STATUS:               ID:20161110142500 L   I
 OLDACT:REG 16-11-10 20:16 OP:dnl  STATUS:               ID:20161110141747     3
 2016-11-10-1418-00M.COL___343                                                 6
 STAT SP IPHASW D HRMM SECON CODA AMPLIT PERI AZIMU VELO AIN AR TRES W  DIS CAZ7
 BAR2 EZ EP       1425 19.74                             170   -0.1410 23.6 186 
 BAR2 EZ ES       1425 34.98                             170   -0.0510 23.6 186 
 BAR2 EZ I        1425 35.93        22.0 0.26            169           23.6 186 
 BRR  HZ EP       1425 21.47                             153    0.1410 69.7 299 
 BRR  HE ES       1425 38.71                             153    1.1010 69.7 299 
 BRR  HZ I        1425 42.60        14.1 0.56            152           69.7 299 
 PAM  EZ EP       1425 22.65                             151    0.1310 78.0  41 
 PAM  EE ES       1425 39.27                             151   -0.4610 78.0  41 
 PAM  EZ I        1425 42.52         9.0 0.42            154           78.0  41 
 PTB  HZ EP       1425 26.44                             132   -0.72 9  146 259 
 PTB  HN ES       1425 47.38                             132   -0.60 9  146 259 
 PTB  HZ I        1425 49.42         9.6 0.42            132            146 259 
 ZAR  HZ EP   2   1425 33.41                             122    0.78 4  202 292 
 ZAR  HE ES       1425 57.53                             122   -0.19 9  202 292 
 ZAR  HZ I        1426  2.86         7.1 0.32            123            202 292 
 CHI  HZ EP       1425 38.37                             117    0.30 8  249 195 
 CHI  HN ES       1426  7.56                             117    0.16 8  249 195 
 CHI  HZ I        1426 12.30         4.4 0.46            118            249 195 
 PRA  HZ EP       1425 54.21                             106    0.33 6  392 209 
 PRA  HN ES       1426 35.61                             106    0.06 6  392 209 
 PRA  HZ I        1426 42.17         3.2 0.24            107            392 209 
                                                                                
