 2012  610 1521 41.6 L   6.820 -73.119146.0  RSN 16 0.5 4.0LRSN 3.8WRSN        1
 SPEC AVERAGE  MO 14.8 ST 89.9 OM  4.2 f0 4.63 R0.3427 AL 2.34 WI 21.9 MW  3.8 3
 SPEC SD       MO  0.1 ST 61.8 OM  1.3 f00.656 R0.0521 AL      WI      MW  0.1 3
 GAP=184        0.87       2.8     4.2  5.4  0.2750E+00  0.5381E+01 -0.1745E-01E
 Epicentro: LOS SANTOS - SANTANDER                                             3
 SPEC OCA HH Z MO 15.0 ST176.4 OM  3.3 f0 5.32 R0.2921 AL 2.42 WI 21.3 MW  3.9 3
 SPEC OCA HH Z T152230 K 0.000 GD  215 VS 4.20 DE 3.00 Q0230.0 QA 0.60 VS 4.20 3
 SPEC COD HH Z MO 14.6 ST 57.9 OM  2.7 f0 4.83 R0.3217 AL 2.43 WI 27.2 MW  3.7 3
 SPEC COD HH Z T1523 4 K 0.000 GD  375 VS 4.20 DE 3.00 Q0230.0 QA 0.60 VS 4.20 3
 SPEC HEL HH Z MO 14.8 ST 35.6 OM  2.9 f0 3.75 R0.4144 AL 2.18 WI 17.1 MW  3.8 3
 SPEC HEL HH Z T152254 K 0.000 GD  311 VS 4.20 DE 3.00 Q0230.0 QA 0.60 VS 4.20 3
 ACTION:UPD 12-08-06 17:48 OP:ep   STATUS:               ID:20120610152148 L   I
 2012-06-10-1520-00M.COL___201                                                 6
 STAT SP IPHASW D HRMM SECON CODA AMPLIT PERI AZIMU VELO AIN AR TRES W  DIS CAZ7
 BAR2 SZ EP       1522  1.89                             169    0.5510 26.2 195 
 BAR2 SZ ES   1   1522 16.75                             169    0.03 7 26.2 195 
 BAR2 SZ I        1522 18.63      1339.4 0.16            162           26.2 195 
 RUS  HZ EP       1522  5.73                             143    0.1910  103 178 
 RUS  HN ES       1522 23.91                             143   -0.3010  103 178 
 PTB  HZ EP       1522  8.44                             131   -0.47 9  151 258 
 PTB  HN ES   1   1522 29.45                             131   -0.74 7  151 258 
 PTB  HZ I        1522 37.52       867.0 0.40            123            151 258 
 OCA  HZ EP       1522  9.95                             130    0.18 9  158 352 
 OCA  HN ES   1   1522 31.88                             130    0.15 7  158 352 
 OCA  HZ I        1522 37.86      1262.0 0.22            124            158 352 
 ZAR  HZ EP   1   1522 14.17                             122   -0.10 6  206 291 
 ZAR  HN ES       1522 39.83                             122    0.09 8  206 291 
 ZAR  HZ I        1522 46.33      1146.8 0.23            115            206 291 
 NOR  SZ EP       1522 17.68                             118   -0.08 8  238 234 
 NOR  SN ES   1   1522 46.09                             118    0.15 6  238 234 
 CHI  HZ EP   1   1522 19.85                             117    0.20 6  252 196 
 CHI  HN ES   1   1522 49.01                             117   -0.30 6  252 196 
 CHI  HZ I        1522 55.33       286.1 0.47            109            252 196 
 ROSC BZ EP   1   1522 21.35                             116    1.22 6  256 211 
 ROSC BZ I        1522 59.70       961.9 0.40            109            256 211 
 HEL  HZ EP   1   1522 21.86                             114   -0.36 6  275 255 
 HEL  HN ES   1   1522 54.21                             114    0.33 6  275 255 
 HEL  HZ I        1523  0.79       502.5 0.31            108            275 255 
 VIL  SZ EP       1522 24.85                             112   -0.51 7  306 192 
 DBB  SZ EP       1522 29.37                             109   -0.05 7  342 274 
 COD  HZ EP   1   1522 29.25                             109   -0.53 5  346 354 
 COD  HN ES   1   1523  6.84                             109   -0.50 5  346 354 
 TOL  SZ EP       1522 31.19                             109    0.89 6  347 225 
 TOL  SZ ES   1   1523  9.28                             109    1.00 5  347 225 
 PRA  HZ EP   1   1522 35.08                             106   -0.47 4  395 210 
 PRA  HN ES   1   1523 17.27                             106   -0.34 4  395 210 
 SJA  SZ EP   1   1522 35.62                             106   -0.90 4  403 193 
 SJA  SZ I        1523 23.57       507.5 0.41            100            403 193 
 YOT  HZ EP   1   1522 44.33                             103   -0.78 3  476 229 
                                                                                
