 2010  310 1917  4.1 L   6.870 -72.973148.0  RSN  8 0.5 1.9LRSN                1
 GAP=259        0.96       6.1     8.7  7.8  0.1396E+02  0.1234E+02  0.1167E+02E
 Epicentro: CEPITA - SANTANDER                                                 3
 ACTION:UP  10-08-24 09:53 OP:vdl  STATUS:               ID:20100310191704 L   I
 2010-03-10-1913-22S.COL___091                                                 6
 STAT SP IPHASW D HRMM SECON CODA AMPLIT PERI AZIMU VELO SNR AR TRES W  DIS CAZ7
 BAR2 SZ EP       1917 24.75                             165     0.410   39 217 
 BAR2 SZ ES   1   1917 39.31                             165    -0.9 7   39 217 
 BRR  HZ EP       1917 26.46                             148     0.110   86 288 
 BRR  HZ I        1917 33.43        19.8 0.23                            86 288 
 BRR  HN ES       1917 43.63                             148    -0.110   86 288 
 RUS  BZ EP       1917 28.71                             142     0.110  109 186 
 RUS  BZ I        1917 29.60         6.3 0.14                           109 186 
 RUS  BN ES       1917 47.96                             142     0.210  109 186 
 CHI  HN ES   2   1918 12.96                             116    -0.9 4  262 199 
 CHI  HZ I        1918 19.47         4.6 0.63                           262 199 
 RREF BZ EP   2   1917 52.13                             110    -0.4 3  341 230 
 RREF BN ES       1918 30.90                             110     0.6 7  341 230 
 RREF BZ I        1918 34.23         3.9 0.20                           341 230 
 DBB  SZ EP   2   1917 53.18                             108    -0.6 3  358 273 
 TOL  SZ EP   2   1917 53.82                             108    -0.8 3  363 226 
 PRA  HZ EP   1   1917 58.51                             106    -1.1 4  408 211 
 PRA  HE ES   2   1918 43.31                             106     0.5 3  408 211 
                                                                                
