 2012 1110 1422 26.1 L   6.777 -73.138154.2  RSN  8 0.4 2.1LRSN                1
 GAP=138        0.96       4.7     5.5  6.7  0.3426E+01  0.9630E+01  0.7582E+01E
 Epicentro: LOS SANTOS - SANTANDER                                             3
 ACTION:UPD 12-12-05 15:32 OP:}ep  STATUS:               ID:20121110142226 L   I
 2012-11-10-1420-00M.COL___230                                                 6
 STAT SP IPHASW D HRMM SECON CODA AMPLIT PERI AZIMU VELO AIN AR TRES W  DIS CAZ7
 BAR2 SZ IP     C 1422 46.70                             172   -0.0210 21.0 193 
 BAR2 SZ ES   1   1423  2.57                             172   -0.22 7 21.0 193 
 BAR2 SZ I        1423  4.51        29.9 0.34                          21.0 193 
 GIR2 SZ EP       1422 46.98                             167    0.1110 33.9 350 
 GIR2 SZ ES   1   1423  3.35                             167    0.30 7 33.9 350 
 BRR  HZ IP     D 1422 48.67                             153    0.3810 73.1 300 
 BRR  HN ES   1   1423  6.19                             153    0.60 7 73.1 300 
 BRR  HN I        1423  6.72        68.8 0.20                          73.1 300 
 PAM  SZ EP   1   1422 49.70                             152    0.38 7 78.9  38 
 PAM  SN ES   1   1423  6.60                             152   -0.82 7 78.9  38 
 PAM  SN I        1423  8.10        13.2 0.70                          78.9  38 
 RUS  HZ EP       1422 50.55                             146    0.0210 98.0 176 
 RUS  HN ES   1   1423  9.59                             146    0.02 7 98.0 176 
 RUS  HZ I        1423 10.34         8.0 0.20                          98.0 176 
 PTB  HZ EP       1422 53.17                             134   -0.64 9  148 260 
 PTB  HN ES   1   1423 14.93                             134   -0.49 7  148 260 
 ZAR  HZ EP       1422 58.76                             124   -0.54 8  206 293 
 ZAR  HN ES   1   1423 25.71                             124    0.53 6  206 293 
 ZAR  HZ I        1423 30.23        10.4 0.34                           206 293 
 CHI  HZ EP       1423  4.71                             119    0.65 8  246 196 
 CHI  HN ES   1   1423 33.44                             119   -0.21 6  246 196 
 CHI  HZ I        1423 41.79         5.3 0.58                           246 196 
                                                                                
