 2014  310 1613  3.7 L   6.812 -73.115144.5  RSN 18 0.5 2.6LRSN                1
 GAP=140        1.18       2.9     4.5  5.7 -0.2193E+01  0.6919E+01  0.2799E+00E
 Epicentro: LOS SANTOS - SANTANDER                                             3
 ACTION:UPD 14-04-09 23:16 OP:nd   STATUS:               ID:20140310161303 L   I
 OLDACT:REG 14-03-10 15:52 OP:nd   STATUS:               ID:20140310161047     3
 2014-03-10-1610-47M.COL___244                                                 6
 STAT SP IPHASW D HRMM SECON CODA AMPLIT PERI AZIMU VELO AIN AR TRES W  DIS CAZ7
 BAR2 SZ EP       1613 23.49                             170    0.2310 25.4 197 
 BAR2 SZ ES       1613 38.17                             170   -0.3210 25.4 197 
 BAR2 SZ I        1613 42.19       111.8 0.40            168           25.4 197 
 BRR  HZ EP       1613 25.29                             151    0.4010 73.5 296 
 BRR  HN ES       1613 42.10                             151    0.7210 73.5 296 
 BRR  HZ I        1613 47.32        86.4 0.12            148           73.5 296 
 PAM  SZ EP     C 1613 26.38                             151    0.7410 74.2  38 
 PAM  SN ES       1613 42.95                             151    0.2410 74.2  38 
 RUS  HZ EP       1613 27.52                             143    0.0710  102 178 
 RUS  HN ES       1613 44.98                             143   -0.9710  102 178 
 RUS  HZ I        1613 46.80        40.7 0.24            146            102 178 
 PTB  HZ EP       1613 30.59                             131   -0.34 9  151 259 
 PTB  HN ES       1613 51.59                             131   -0.55 9  151 259 
 PTB  HZ I        1613 54.43        69.4 0.16            130            151 259 
 OCA  HZ EP       1613 31.83                             129   -0.04 9  159 352 
 OCA  HN ES       1613 53.57                             129   -0.24 9  159 352 
 OCA  HZ I        1613 57.76        65.7 0.52            131            159 352 
 SPBC HZ EP       1613 32.59                             128    0.14 9  166 220 
 SPBC HN ES       1613 55.33                             128    0.50 9  166 220 
 SPBC HZ I        1614  0.75        39.8 0.24            129            166 220 
 ZAR  HZ EP       1613 36.50                             122    0.12 8  207 291 
 ZAR  HN ES       1614  2.10                             122    0.27 8  207 291 
 ZAR  HZ I        1614  8.40        67.9 0.28            122            207 291 
 NOR  HZ EP     D 1613 40.19                             118    0.41 8  238 235 
 NOR  HN ES       1614  7.43                             118   -0.45 8  238 235 
 NOR  HZ I        1614  9.51        25.4 0.16            119            238 235 
 SML  HZ EP       1613 39.79                             117   -0.53 8  244 334 
 SML  HN ES       1614  8.00                             117   -0.85 8  244 334 
 SML  HZ I        1614 11.89        76.5 0.10            118            244 334 
 CHI  HZ EP       1613 41.75                             117    0.14 8  251 196 
 CHI  HN ES       1614 10.60                             117   -0.54 8  251 196 
 CHI  HZ I        1614 14.26        14.3 0.32            119            251 196 
 URE  HZ EP   4   1613 44.00                             113   -1.05 0  286 291 
 URE  HN ES   4   1614 15.08                             113   -2.18 0  286 291 
 URE  HZ I        1614 25.16        23.9 0.32            114            286 291 
 GUY2CHZ EP       1613 48.19                             112    0.50 7  305 235 
 GUY2CHN ES       1614 22.68                             112    0.71 7  305 235 
 GUY2CHZ I        1614 29.01        16.9 0.26                           305 235 
 CBOC HZ EP   4   1613 51.70                             109    0.68 0  337 252 
 CBOC HN ES   4   1614 27.15                             109   -0.74 0  337 252 
 CBOC HZ I        1614 31.41         8.9 0.62            110            337 252 
 DBB  SZ EP   4   1613 52.00                             109    0.46 0  343 274 
 DBB  SZ ES   4   1614 27.91                             109   -0.91 0  343 274 
 DBB  SZ I        1614 34.53        20.2 0.48            110            343 274 
 COD  HZ EP   4   1613 51.56                             109   -0.39 0  347 354 
 COD  HN ES   4   1614 27.99                             109   -1.57 0  347 354 
 COD  HZ I        1614 35.75         7.0 0.60            110            347 354 
 ORTC HZ EP       1613 57.63                             106   -0.35 6  398 216 
 ORTC HN ES   4   1614 41.48                             106    1.20 0  398 216 
 ORTC HZ I        1614 46.65        10.0 0.50            107            398 216 
 SJC  HZ EP       1613 58.46                             105   -0.89 6  410 326 
 SJC  HN ES   4   1614 39.42                             105   -3.30 0  410 326 
 SJC  HZ I        1614 43.28        14.3 0.52            107            410 326 
                                                                                
