 2015  710 1316 11.6 L   6.825 -73.145142.1  RSN 13 0.5 2.5LRSN                1
 GAP=135        1.02       2.9     4.6  6.7 -0.1269E+01  0.1819E+02  0.2153E+01E
 Epicentro: LOS SANTOS - SANTANDER                                             3
 *CBOC-PAL-GUY2C                                                               3
 ACTION:UPD 15-09-08 21:47 OP:cam  STATUS:               ID:20150710131611 L   I
 OLDACT:REG 15-07-10 22:05 OP:ar   STATUS:               ID:20150710130749     3
 2015-07-10-1307-49M.COL___343                                                 6
 STAT SP IPHASW D HRMM SECON CODA AMPLIT PERI AZIMU VELO AIN AR TRES W  DIS CAZ7
 BAR2 EZ EP     C 1316 30.70                             169   -0.1310 26.1 189 
 BAR2 EZ ES       1316 45.48                             169   -0.3710 26.1 189 
 BAR2 EZ I        1316 47.06        98.9 0.18            168           26.1 189 
 PAM  EZ EP       1316 33.52                             151    0.2410 75.2  41 
 PAM  EN ES       1316 50.92                             151    0.7210 75.2  41 
 PAM  EZ I        1316 52.39        37.2 0.72            155           75.2  41 
 RUS  HZ EP       1316 34.58                             142   -0.6010  103 176 
 RUS  HN ES       1316 53.65                             142    0.0610  103 176 
 RUS  HZ I        1316 54.45        29.8 0.30            144            103 176 
 OCA  HN ES       1317  0.58                             129   -0.43 9  158 353 
 OCA  HZ I        1317  3.93        69.1 0.24            131            158 353 
 ZAR  HZ EP       1316 43.90                             122    0.21 9  203 291 
 ZAR  HN ES       1317  8.79                             122    0.05 9  203 291 
 ZAR  HZ I        1317 14.35        15.8 0.38            122            203 291 
 NOR  HZ EP       1316 47.13                             117   -0.16 8  236 234 
 NOR  HN ES       1317 15.09                             117   -0.04 8  236 234 
 NOR  HZ I        1317 20.75        25.6 0.22            118            236 234 
 SML  HE ES       1317 15.84                             117   -0.09 8  241 335 
 SML  HZ I        1317 19.26        22.3 0.26            118            241 335 
 CHI  HZ EP   2   1316 47.48                             116   -1.90 4  251 195 
 CHI  HN ES   2   1317 18.21                             116   -0.65 4  251 195 
 CHI  HZ I        1317 25.14        12.2 0.38            117            251 195 
 ROSC BZ EP   2   1316 51.16                             116    1.39 4  255 211 
 URE  HN ES   4   1317 22.54                             113   -1.64 0  283 291 
 GUY2CHZ EP       1316 56.06                             111    0.84 7  303 234 
 GUY2CHN ES       1317 29.89                             111    0.64 7  303 234 
 GUY2CHZ I        1317 37.23        25.3 0.34                           303 234 
 DBB  SZ EP       1316 58.07                             109   -0.83 7  339 274 
 DBB  SZ ES       1317 35.61                             109   -0.20 7  339 274 
 DBB  SZ I        1317 37.27        19.3 0.62            110            339 274 
 TOL  SZ EP       1317  0.32                             108    0.39 6  346 224 
 TOL  SN ES       1317 37.63                             108   -0.01 6  346 224 
 TOL  SZ I        1317 43.79        12.1 0.23            110            346 224 
 ANIL HZ EP       1317  1.66                             108    0.17 6  359 224 
 ANIL HN ES       1317 40.64                             108    0.23 6  359 224 
 ANIL HZ I        1317 45.87        24.7 0.36            109            359 224 
                                                                                
