 2010  410 1751 59.7 L   6.796 -73.009151.6  RSN  7 0.3 2.5LRSN                1
 GAP=211        0.63       3.9     8.7  5.1 -0.6422E+01 -0.6881E-01  0.6993E+01E
 Epicentro: CEPITA - SANTANDER                                                 3
 ACTION:UPD 10-08-24 09:58 OP:vdl  STATUS:               ID:20100410175159 L   I
 2010-04-10-1740-00S.COL___098                                                 6
 STAT SP IPHASW D HRMM SECON CODA AMPLIT PERI AZIMU VELO AIN AR TRES W  DIS CAZ7
 BAR2 SZ EP       1752 20.38                             168     0.210   30 221 
 BAR2 SZ ES   1   1752 35.79                             168    -0.4 7   30 221 
 BRR  HZ IP     C 1752 22.54                             149     0.210   85 294 
 BRR  HZ I        1752 22.82        92.4 0.15                            85 294 
 BRR  HN ES   1   1752 40.17                             149     0.2 7   85 294 
 OCA  SZ EP       1752 28.71                             130    -0.1 9  163 348 
 OCA  SZ ES   2   1752 50.90                             130    -0.5 5  163 348 
 OCA  SZ I        1752 56.57        54.0 0.21                           163 348 
 CHI  HZ EP       1752 38.47                             118     0.3 8  253 199 
 CHI  HN ES   3   1753  7.93                             118    -0.3 2  253 199 
 RREF BZ EP       1752 47.12                             111    -0.3 7  333 231 
 RREF BE ES   3   1753 23.79                             111    -0.8 2  333 231 
 RREF BZ I        1753 32.57         7.5 0.46                           333 231 
 TOL  SZ EP       1752 49.56                             110     0.1 6  354 226 
 PRA  HZ EP       1752 53.73                             107    -0.6 6  399 212 
 PRA  HN ES   3   1753 37.82                             107     0.9 1  399 212 
 PRA  HZ I        1753 40.22         4.3 0.22                           399 212 
                                                                                
