 2017  710 1251 35.4 L   6.773 -73.143142.0  RSN 14 0.5 2.4LRSN                1
 GAP=170        1.04       4.5     3.8  5.6  0.2414E+01  0.4927E+01  0.3459E+01E
 Epicentro: LOS SANTOS - SANTANDER                                             3
 ACTION:UPD 17-08-30 15:31 OP:rebc STATUS:               ID:20170710125135 L   I
 OLDACT:UP  17-07-10 23:04 OP:lv   STATUS:               ID:20170710124743     3
 OLDACT:REG 17-07-10 20:57 OP:lv   STATUS:               ID:20170710124743     3
 2017-07-10-1248-00M.COL___380                                                 6
 STAT SP IPHASW D HRMM SECON CODA AMPLIT PERI AZIMU VELO AIN AR TRES W  DIS CAZ7
 BAR2 EZ IP     C 1251 54.28                             171   -0.2010 20.4 192 
 BAR2 EZ ES       1252  9.00                             171   -0.4010 20.4 192 
 BAR2 EZ I        1252 10.55        85.4 0.07            170           20.4 192 
 BRR  HZ EP       1251 56.14                             151   -0.0710 72.9 301 
 BRR  HN ES       1252 13.30                             151    0.8410 72.9 301 
 BRR  HZ I        1252 17.35        41.2 0.20            151           72.9 301 
 PTB  HZ EP       1252  1.04                             131   -0.96 9  147 260 
 PTB  HN ES       1252 22.33                             131   -0.45 9  147 260 
 PTB  HZ I        1252 24.00        26.9 0.16            131            147 260 
 SPBC HZ EP       1252  3.45                             129    0.08 9  161 220 
 SPBC HN ES       1252 25.82                             129    0.61 9  161 220 
 YPLC HZ IP     C 1252  4.66                             126    0.05 9  174 151 
 YPLC HN ES       1252 27.33                             126   -0.10 9  174 151 
 YPLC HZ I        1252 32.28        19.1 0.35            127            174 151 
 NOR  HZ EP       1252 10.85                             118    0.14 8  233 235 
 NOR  HN ES       1252 38.51                             118    0.22 8  233 235 
 NOR  HZ I        1252 40.18        37.8 0.25            118            233 235 
 HEL  HZ EP       1252 16.16                             114    0.82 8  272 256 
 HEL  HE ES       1252 46.47                             114   -0.04 8  272 256 
 HEL  HZ I        1252 55.35        12.4 0.27            114            272 256 
 GUY2CHE ES       1252 52.42                             112    0.04 7  300 235 
 PTGC HZ EP   4   1252 17.48                             111   -1.24 0  306 158 
 PTGC HN ES   4   1252 51.08                             111   -1.46 0  306 158 
 LL6C HZ EP   4   1252 19.08                             110   -2.17 0  328 358 
 LL6C HN ES   4   1252 55.43                             110   -1.62 0  328 358 
 CBOC HZ EP   4   1252 19.09                             109   -2.96 0  333 253 
 CBOC HN ES   4   1252 54.59                             109   -3.87 0  333 253 
 DBB  EZ EP       1252 22.98                             109    0.23 7  340 275 
 DBB  EN ES       1252 58.92                             109   -0.79 7  340 275 
 ARGC HZ EP       1252 25.56                             107    0.34 6  362 340 
 ORTC HZ EP       1252 29.19                             106    0.30 6  393 216 
 ORTC HN ES   3   1253 12.08                             106    1.44 1  393 216 
 ORTC HZ I        1253 18.68         9.6 0.41            106            393 216 
 PAL  HZ EP       1252 30.06                             105   -0.19 6  404 239 
 PAL  HN ES       1253 12.58                             105   -0.47 6  404 239 
 PAL  HZ I        1253 17.40         8.2 0.11            106            404 239 
 SJC  HZ EP   4   1252 28.91                             105   -2.21 0  412 327 
 SJC  HN ES   4   1253 10.10                             105   -4.51 0  412 327 
 SJC  HZ I        1253 17.76         4.4 0.30            106            412 327 
 CRJC HZ EP   4   1252 34.79                             103   -3.33 0  471   3 
 CRJC HN ES   4   1253 21.99                             103   -5.07 0  471   3 
 CRJC HZ I        1253 29.72         4.1 0.18            103            471   3 
                                                                                
