 2017  810 1235 48.0 L   6.429 -73.719103.3  RSN  6 0.3 1.4LRSN                1
 GAP= 80        0.88       3.0     3.6  7.9  0.9665E+00  0.1551E+02  0.2385E+01E
 Epicentro: SANTA HELENA DEL OPON - SANTANDER                                  3
 ACTION:UPD 17-09-04 20:18 OP:rebc STATUS:               ID:20170810123548 L   I
 OLDACT:UP  17-08-10 22:40 OP:dani STATUS:               ID:20170810122745d    3
 OLDACT:DUP 17-08-10 22:34 OP:dani STATUS:               ID:20170810122745d    3
 OLDACT:REG 17-08-10 20:41 OP:dani STATUS:               ID:20170810122744     3
 2017-08-10-1228-00M.COL___408                                                 6
 STAT SP IPHASW D HRMM SECON CODA AMPLIT PERI AZIMU VELO AIN AR TRES W  DIS CAZ7
 BAR2 EZ IP     D 1236  4.35        13.9 0.48            147   -0.1210 62.0  73 
 BAR2 EZ ES       1236 17.59                             147    0.2910 62.0  73 
 BAR2 EZ I        1236 18.63         7.0 0.40            151           62.0  73 
 BRR  HZ EP       1236  4.81                             141   -0.2610 75.0   1 
 BRR  HN ES       1236 17.91                             141   -0.4510 75.0   1 
 BRR  HZ I        1236 18.78         9.3 0.14            145           75.0   1 
 RUS  HZ EP       1236  7.15                             135    0.0210 92.0 130 
 RUS  HN ES       1236 22.16                             135    0.1110 92.0 130 
 RUS  HZ I        1236 23.76         5.0 0.20            139           92.0 130 
 SPBC HZ EP   1   1236  6.71                             134   -0.08 7 94.4 205 
 SPBC HN ES   1   1236 21.77                             134    0.33 7 94.4 205 
 SPBC HZ I        1236 23.72         6.9 0.11            136           94.4 205 
 NOR  HZ EP       1236 13.54                             118    0.34 9  159 233 
 NOR  HN ES       1236 32.26                             118   -0.58 9  159 233 
 NOR  HZ I        1236 35.01         5.5 0.11            120            159 233 
 ZAR  HZ EP       1236 14.42                             116   -0.13 9  172 313 
 ZAR  HE ES       1236 35.96                             116    0.71 9  172 313 
 ZAR  HZ I        1236 37.88         2.5 0.10            118            172 313 
                                                                                
