 2013  410 1021 27.3 L   6.786 -73.158147.6  RSN 11 0.4 2.0LRSN                1
 GAP=182        0.83       2.8     4.4  5.1  0.1415E+01  0.3827E+01  0.1750E+01E
 Epicentro: LOS SANTOS - SANTANDER                                             3
 ACTION:UPD 13-05-22 14:37 OP:EP   STATUS:               ID:20130410102127 L   I
 2013-04-10-1020-00M.COL___245                                                 6
 STAT SP IPHASW D HRMM SECON CODA AMPLIT PERI AZIMU VELO AIN AR TRES W  DIS CAZ7
 BAR2 SZ EP       1021 47.22                             171    0.0710 21.5 187 
 BAR2 SZ ES       1022  2.35                             171   -0.2610 21.5 187 
 BAR2 SZ I        1022  4.95        37.0 0.42            168           21.5 187 
 GIR2 SZ EP       1021 47.21                             167   -0.0610 32.7 353 
 GIR2 SZ ES   1   1022  3.30                             167    0.49 7 32.7 353 
 BRR  HZ EP       1021 49.03                             153    0.3710 70.8 300 
 BRR  HE ES   1   1022  6.04                             153    0.75 7 70.8 300 
 BRR  HZ I        1022 10.97        11.3 0.13            150           70.8 300 
 RUS  HZ EP       1021 51.02                             145   -0.1410 99.1 175 
 RUS  HE ES       1022  9.50                             145   -0.2410 99.1 175 
 RUS  HZ I        1022 11.04         8.7 0.30            146           99.1 175 
 PTB  HZ EP       1021 53.84                             133   -0.47 9  146 259 
 PTB  HN ES       1022 14.97                             133   -0.37 9  146 259 
 PTB  HZ I        1022 22.65        12.9 0.38            131            146 259 
 OCA  HZ EP   1   1021 55.83                             130   -0.10 7  162 354 
 OCA  HN ES   1   1022 17.51                             130   -0.71 7  162 354 
 OCA  HZ I        1022 22.42        12.8 0.28            132            162 354 
 ZAR  HN ES   1   1022 25.29                             123    0.10 6  203 293 
 NOR  HN ES   1   1022 30.52                             119   -0.22 6  233 235 
 NOR  HZ I        1022 35.34        11.0 0.18            119            233 235 
 SML  HE ES   1   1022 33.37                             118    0.48 6  245 336 
 CHI  HZ EP       1022  5.12                             118    0.19 8  247 195 
 CHI  HN ES       1022 34.80                             118    0.54 8  247 195 
 CHI  HZ I        1022 40.75         2.9 0.48            119            247 195 
 PRA  HZ EP       1022 20.96                             107    0.28 6  390 210 
 PRA  HN ES   4   1023  3.66                             107    1.37 0  390 210 
 PRA  HZ I        1023  8.63         4.6 0.64            108            390 210 
                                                                                
