 2017  210 1825 59.2 L   6.825 -73.218144.1  RSN  6 0.2 1.7LRSN                1
 GAP=148        0.52       3.3     5.5  4.1 -0.1044E+02  0.2507E+01  0.1522E+01E
 Epicentro: ZAPATOCA - SANTANDER                                               3
 ACTION:UPD 17-05-24 15:34 OP:jn   STATUS:               ID:20170210182559 L   I
 OLDACT:UP  17-02-11 00:45 OP:and  STATUS:               ID:20170210181745     3
 OLDACT:REG 17-02-10 21:40 OP:and  STATUS:               ID:20170210181745     3
 2017-02-10-1818-00M.COL___363                                                 6
 STAT SP IPHASW D HRMM SECON CODA AMPLIT PERI AZIMU VELO AIN AR TRES W  DIS CAZ7
 BAR2 EZ ES       1826 34.12                             170    0.2410 26.0 171 
 BAR2 EZ I        1826 35.49        12.3 0.16            169           26.0 171 
 PAM  EZ EP       1826 21.61                             150    0.1810 80.7  45 
 PAM  EN ES       1826 38.57                             150   -0.2110 80.7  45 
 PAM  EZ I        1826 40.94         9.5 0.40            153           80.7  45 
 RUS  HZ EP       1826 23.11                             143    0.0710  104 172 
 RUS  HN ES       1826 41.44                             143   -0.2010  104 172 
 RUS  HZ I        1826 43.16        10.1 0.40            144            104 172 
 PTB  HN ES   2   1826 45.57                             133   -0.22 5  141 257 
 NOR  HZ EP   9   1826 35.01                             119    0.70 0  230 233 
 NOR  HN ES   2   1827  3.10                             118    0.70 4  230 233 
 NOR  HZ I        1827  6.12         4.6 0.16            118            230 233 
 CHI  HZ EP       1826 36.87                             117   -0.00 8  249 193 
 CHI  HN ES   2   1827  6.10                             117   -0.16 4  249 193 
 CHI  HZ I        1827  9.49         2.7 0.58            117            249 193 
                                                                                
