 2015  110 1933 32.0 L   6.818 -73.156146.2  RSN 28 0.4 3.1LRSN 3.6WRSN        1
 SPEC AVERAGE  MO 14.5 ST  1.2 OM  2.6 f0 1.68 R1.5378 AL 0.00 WI 30.0 MW  3.6 3
 SPEC SD       MO  0.3 ST  1.8 OM  0.4 f0 1.06 R0.6961 AL      WI      MW  0.2 3
 GAP= 70        0.94       2.4     2.6  4.3 -0.5085E+00  0.2125E+01  0.1792E+01E
 Epicentro: LOS SANTOS - SANTANDER                                             3
 SPEC BAR2EH Z MO 14.2 ST  6.6 OM  2.3 f0 4.12 R0.4670 AL-0.00 WI 30.0 MW  3.4 3
 SPEC BAR2EH Z T1934 5 K 0.000 GD  148 VS 5.20 DE 3.50 Q0750.0 QA 1.50 VS 5.20 3
 SPEC BRR HH Z MO 14.4 ST  1.6 OM  2.5 f0 2.16 R0.8907 AL-0.00 WI 30.0 MW  3.6 3
 SPEC BRR HH Z T1934 8 K 0.000 GD  161 VS 5.20 DE 3.50 Q0750.0 QA 1.50 VS 5.20 3
 SPEC PAM SH Z MO 14.5 ST0.470 OM  2.6 f0 1.31 R1.4687 AL-0.00 WI 30.0 MW  3.6 3
 SPEC PAM SH Z T1934 9 K 0.000 GD  165 VS 5.20 DE 3.50 Q0750.0 QA 1.50 VS 5.20 3
 SPEC OCA HH Z MO 14.1 ST  1.5 OM  2.1 f0 2.60 R0.7400 AL-0.00 WI 30.0 MW  3.4 3
 SPEC OCA HH Z T193421 K 0.000 GD  215 VS 5.20 DE 3.50 Q0750.0 QA 1.50 VS 5.20 3
 SPEC ZAR HH Z MO 14.1 ST  3.5 OM  2.0 f0 3.53 R0.5450 AL-0.00 WI 30.0 MW  3.4 3
 SPEC ZAR HH Z T193428 K 0.000 GD  249 VS 5.20 DE 3.50 Q0750.0 QA 1.50 VS 5.20 3
 SPEC CHI HH Z MO 14.7 ST0.180 OM  2.5 f00.851 R2.2609 AL-0.00 WI 30.0 MW  3.7 3
 SPEC CHI HH Z T193437 K 0.000 GD  289 VS 5.20 DE 3.50 Q0750.0 QA 1.50 VS 5.20 3
 SPEC ROSCBH Z MO 14.7 ST0.313 OM  2.5 f0 1.02 R1.8863 AL-0.00 WI 30.0 MW  3.7 3
 SPEC ROSCBH Z T193439 K 0.000 GD  293 VS 5.20 DE 3.50 Q0750.0 QA 1.50 VS 5.20 3
 SPEC URE HH Z MO 15.1 ST0.223 OM  2.9 f00.652 R2.9509 AL-0.00 WI 30.0 MW  4.0 3
 SPEC URE HH Z T193441 K 0.000 GD  317 VS 5.20 DE 3.50 Q0750.0 QA 1.50 VS 5.20 3
 SPEC VIL SH Z MO 14.5 ST0.215 OM  2.3 f0 1.00 R1.9240 AL-0.00 WI 30.0 MW  3.6 3
 SPEC VIL SH Z T193447 K 0.000 GD  338 VS 5.20 DE 3.50 Q0750.0 QA 1.50 VS 5.20 3
 SPEC RREFHH Z MO 14.6 ST0.185 OM  2.3 f00.938 R2.0512 AL-0.00 WI 30.0 MW  3.7 3
 SPEC RREFHH Z T193455 K 0.000 GD  353 VS 5.20 DE 3.50 Q0750.0 QA 1.50 VS 5.20 3
 SPEC MON HH Z MO 14.3 ST0.249 OM  2.0 f0 1.27 R1.5150 AL-0.00 WI 30.0 MW  3.5 3
 SPEC MON HH Z T193455 K 0.000 GD  381 VS 5.20 DE 3.50 Q0750.0 QA 1.50 VS 5.20 3
 SPEC ORTCHH Z MO 14.5 ST0.276 OM  2.2 f0 1.09 R1.7651 AL-0.00 WI 30.0 MW  3.6 3
 SPEC ORTCHH Z T1935 6 K 0.000 GD  422 VS 5.20 DE 3.50 Q0750.0 QA 1.50 VS 5.20 3
 SPEC SJC HH Z MO 14.3 ST0.275 OM  2.0 f0 1.26 R1.5270 AL-0.00 WI 30.0 MW  3.5 3
 SPEC SJC HH Z T1935 5 K 0.000 GD  432 VS 5.20 DE 3.50 Q0750.0 QA 1.50 VS 5.20 3
 OLDACT:UP  15-01-11 01:36 OP:mh   STATUS:               ID:20150110192944     3
 OLDACT:REG 15-01-11 01:00 OP:mh   STATUS:               ID:20150110192944     3
 ACTION:UPD 15-03-02 15:38 OP:nd   STATUS:               ID:20150110193332 L   I
 OLDACT:UP  15-01-11 01:37 OP:mh   STATUS:               ID:20150110192944     3
 2015-01-10-1929-44M.COL___271                                                 6
 STAT SP IPHASW D HRMM SECON CODA AMPLIT PERI AZIMU VELO AIN AR TRES W  DIS CAZ7
 BAR2 EZ EP       1933 51.88                             170    0.1910 25.2 187 
 BAR2 EZ ES       1934  6.72                             170   -0.3510 25.2 187 
 BAR2 EZ I        1934  7.23       641.5 0.38            169           25.2 187 
 BRR  HZ EP       1933 53.60                             153    0.5510 69.2 297 
 BRR  HN ES       1934 10.04                             153    0.5410 69.2 297 
 BRR  HZ I        1934 14.34       311.9 0.30            147           69.2 297 
 PAM  SZ EP       1933 54.53                             151    0.3510 76.6  41 
 PAM  SN ES       1934 11.41                             151   -0.1010 76.6  41 
 PAM  SZ I        1934 13.84       361.8 0.40            149           76.6  41 
 RUS  HZ EP       1933 55.66                             143   -0.2510  103 176 
 RUS  HN ES       1934 14.73                             143    0.1410  103 176 
 RUS  HZ I        1934 16.05       107.2 0.18            141            103 176 
 PTB  HZ EP       1933 58.37                             132   -0.53 9  147 258 
 PTB  HN ES       1934 19.56                             132   -0.36 9  147 258 
 PTB  HZ I        1934 25.22       113.7 0.72            127            147 258 
 TAM  HZ EP     D 1934  0.09                             130    0.26 9  157 106 
 TAM  HZ I        1934 20.93        54.8 0.32            129            157 106 
 TAM  HN ES       1934 21.32                             130   -0.24 9  157 106 
 OCA  HZ EP       1933 59.30                             130   -0.81 9  158 353 
 OCA  HN ES       1934 22.59                             130    0.53 9  158 353 
 OCA  HZ I        1934 26.38       154.4 0.20            126            158 353 
 SPBC HZ EP   1   1934  0.75                             129    0.17 7  164 218 
 SPBC HN ES   1   1934 22.67                             129   -0.23 7  164 218 
 SPBC HZ I        1934 27.15       319.8 0.44            125            164 218 
 ZAR  HZ EP   1   1934  4.36                             123    0.11 6  202 292 
 ZAR  HN ES       1934 29.51                             123    0.08 9  202 292 
 ZAR  HZ I        1934 36.46       140.2 0.34            118            202 292 
 NOR  HZ EP       1934  8.09                             118    0.34 8  235 234 
 NOR  HN ES       1934 35.37                             118   -0.29 8  235 234 
 NOR  HZ I        1934 40.07       100.6 0.18            115            235 234 
 SML  HZ EP   1   1934  7.96                             118   -0.40 6  241 335 
 SML  HN ES   1   1934 35.96                             118   -0.79 6  241 335 
 SML  HZ I        1934 40.57       155.5 0.22            114            241 335 
 CHI  HZ EP       1934  9.80                             117   -0.07 8  250 195 
 CHI  HN ES       1934 38.91                             117   -0.52 8  250 195 
 CHI  HZ I        1934 42.51        82.4 0.44            114            250 195 
 ROSC BZ EP   1   1934 11.32                             117    1.09 6  254 211 
 ROSC BN ES   4   1934 40.83                             117    0.74 0  254 211 
 ROSC BZ I        1934 45.05       201.1 0.35            113            254 211 
 HEL  HZ EP   1   1934 12.32                             115    0.19 6  271 255 
 HEL  HN ES       1934 43.20                             115   -0.26 8  271 255 
 HEL  HZ I        1934 55.33        23.5 0.20            111            271 255 
 URE  HZ EP   4   1934 12.06                             114   -0.79 0  282 292 
 URE  HN ES   4   1934 43.07                             114   -1.67 0  282 292 
 URE  HZ I        1934 55.44        78.6 0.14            110            282 292 
 VIL  SZ EP       1934 15.71                             112    0.11 7  305 191 
 VIL  SN ES   4   1934 48.62                             112   -1.02 0  305 191 
 VIL  SZ I        1934 59.12       127.7 0.40            109            305 191 
 PTGC HZ EP   4   1934 14.67                             111   -1.43 0  311 159 
 PTGC HN ES   4   1934 48.19                             111   -2.34 0  311 159 
 PTGC HZ I        1934 50.66        47.1 0.50            109            311 159 
 RREF HZ EP       1934 18.78                             111    0.60 7  322 229 
 RREF HN ES   4   1934 56.51                             111    2.29 0  322 229 
 DBB  SZ EP   1   1934 18.76                             110   -0.55 5  338 274 
 DBB  SZ ES   4   1934 52.73                             110   -3.51 0  338 274 
 DBB  SZ I        1935  4.23       124.3 0.60            106            338 274 
 TOL  SZ EP   1   1934 21.13                             109    0.82 5  344 224 
 TOL  SN ES   4   1934 58.61                             109    0.59 0  344 224 
 TOL  SZ I        1935  5.24       151.0 0.68            106            344 224 
 MON  HZ EP   4   1934 18.88                             109   -1.85 0  352 308 
 MON  HN ES   4   1934 56.93                             109   -1.84 0  352 308 
 MON  HZ I        1935 14.50        24.5 0.52            106            352 308 
 ARGC HZ EP   4   1934 21.86                             108    0.49 0  357 340 
 ARGC HN ES   4   1935  0.72                             108    0.82 0  357 340 
 ARGC HZ I        1935 10.12        36.9 0.54            105            357 340 
 ANIL HZ EP   4   1934 21.61                             108   -0.25 0  358 224 
 ANIL HN ES   4   1935  3.23                             108    2.45 0  358 224 
 ANIL HZ I        1935  5.97        23.6 0.30            106            358 224 
 SDV  BZ EP   1   1934 21.00                             108   -0.97 5  360  51 
 SDV  BN ES   4   1934 58.49                             108   -2.48 0  360  51 
 SDV  BZ I        1935  0.66        23.3 0.45            106            360  51 
 ORTC HZ EP       1934 26.13                             106    0.12 6  396 216 
 ORTC HN ES       1935  8.44                             106    0.27 6  396 216 
 ORTC HZ I        1935 14.66        44.3 0.44            104            396 216 
 PAL  HZ EP   4   1934 26.65                             106   -0.50 0  406 239 
 PAL  HN ES   4   1935 10.47                             106    0.28 0  406 239 
 PAL  HZ I        1935 19.37        19.9 0.28            103            406 239 
 SJC  HZ EP   4   1934 25.83                             106   -1.43 0  407 327 
 SJC  HN ES   4   1935  6.64                             106   -3.76 0  407 327 
 SJC  HZ I        1935 13.99        33.1 0.30            103            407 327 
 MACC HZ EP   4   1934 38.20                             102   -2.70 0  522 188 
 MACC HN ES   4   1935 29.30                             102   -5.38 0  522 188 
 MACC HZ I        1935 35.50        14.8 0.52             99            522 188 
                                                                                
