 2014 1010 1012 49.7 L   6.801 -73.141141.9  RSN 15 0.6 2.4LRSN                1
 GAP= 71        1.40       3.3     4.0  6.6 -0.8092E+00  0.5633E+01  0.2920E+01E
 Epicentro: LOS SANTOS - SANTANDER                                             3
 ACTION:UPD 14-11-29 23:48 OP:nd   STATUS:               ID:20141010101249 L   I
 OLDACT:DUP 14-10-10 22:24 OP:stll STATUS:               ID:20141010100739d    3
 2014-10-10-1007-38M.COL___290                                                 6
 STAT SP IPHASW D HRMM SECON CODA AMPLIT PERI AZIMU VELO AIN AR TRES W  DIS CAZ7
 BAR2 SZ IP       1013  9.13                             170    0.2610 23.5 191 
 BAR2 SZ ES       1013 23.97                             170    0.1410 23.5 191 
 BAR2 SZ I        1013 25.08       167.4 0.22            170           23.5 191 
 BRR  HZ IP     D 1013 10.98                             152    0.5210 71.6 298 
 BRR  HN ES       1013 27.67                             152    1.0210 71.6 298 
 BRR  HZ I        1013 31.14        56.5 0.30            150           71.6 298 
 PAM  SZ IP     C 1013 11.95                             150    0.4610 77.0  39 
 PAM  SZ I        1013 12.21        98.5 0.22            152           77.0  39 
 PAM  SN ES       1013 28.66                             150    0.1810 77.0  39 
 RUS  HZ EP       1013 13.03                             143   -0.0510  101 176 
 RUS  HN ES       1013 31.25                             143   -0.0610  101 176 
 RUS  HZ I        1013 32.60        26.2 0.22            144            101 176 
 PTB  HZ EP       1013 15.81                             131   -0.59 9  148 259 
 PTB  HN ES       1013 36.35                             131   -0.88 9  148 259 
 PTB  HZ I        1013 39.03        36.8 0.16            131            148 259 
 TAM  HZ IP     C 1013 17.43                             130    0.39 9  155 105 
 TAM  HZ I        1013 17.64        52.3 0.36            132            155 105 
 TAM  HN ES       1013 37.67                             130   -0.69 9  155 105 
 OCA  HZ EP       1013 17.60                             129   -0.12 9  160 353 
 OCA  HN ES       1013 38.96                             129   -0.61 9  160 353 
 OCA  HZ I        1013 42.38        34.2 0.24            129            160 353 
 SPBC HZ EP       1013 18.08                             128    0.14 9  164 219 
 SPBC HN ES       1013 39.79                             128   -0.18 9  164 219 
 SPBC HZ I        1013 44.99        31.2 0.20            128            164 219 
 ZAR  HZ EP       1013 21.77                             121   -0.17 9  204 292 
 ZAR  HN ES       1013 47.26                             121    0.17 9  204 292 
 ZAR  HZ I        1013 53.68        48.1 0.26            122            204 292 
 SML  HZ EP       1013 25.70                             117   -0.43 8  244 335 
 SML  HN ES       1013 53.64                             117   -0.90 8  244 335 
 SML  HZ I        1014  1.70        34.5 0.10            117            244 335 
 CHI  HZ EP       1013 27.13                             116   -0.08 8  249 195 
 CHI  HN ES       1013 55.66                             116   -0.81 8  249 195 
 CHI  HZ I        1014  3.67         6.3 0.54            117            249 195 
 GUY2CHZ EP       1013 34.90                             112    1.72 7  302 235 
 GUY2CHN ES       1014  7.59                             112    0.49 7  302 235 
 GUY2CHZ I        1014 13.73         8.9 0.46                           302 235 
 TOL  SZ EP       1013 38.86                             109    1.01 7  344 225 
 TOL  SE ES       1014 15.35                             109   -0.05 7  344 225 
 MON  HZ EP   9   1013 35.23                             108   -3.36 0  354 308 
 MON  HN ES       1014 12.72                                   -0.65 6  354 308 
 MON  HZ I        1014 19.15         4.1 0.20            108            354 308 
 PRA  HZ EP       1013 43.29                             106    0.16 6  392 210 
 PRA  HN ES       1014 23.34                             106   -1.46 6  392 210 
 PRA  HZ I        1014 29.46         6.2 0.22            107            392 210 
                                                                                
