 2011 1010 1110  1.8 L   6.418 -73.632109.9  RSN  6 0.2 1.7LRSN                1
 GAP=178        0.51       4.2     6.3  5.3  0.1517E+02  0.3057E+01  0.1707E+01E
 Epicentro: SANTA HELENA DEL OPON - SANTANDER                                  3
 ACTION:UPD 12-07-13 16:03 OP:ep   STATUS:               ID:20111010111001 L   I
 2011-10-10-1100-00M.COL___171                                                 6
 STAT SP IPHASW D HRMM SECON CODA AMPLIT PERI AZIMU VELO AIN AR TRES W  DIS CAZ7
 BAR2 SZ EP       1110 18.65                             153    0.2110 53.3  69 
 BAR2 SZ ES   1   1110 31.03                             153   -0.36 7 53.3  69 
 BAR2 SZ I        1110 33.21        21.6 0.74                          53.3  69 
 BRR  HZ EP       1110 19.50                             142   -0.1410 76.7 353 
 BRR  HE ES   1   1110 33.67                             142    0.14 7 76.7 353 
 BRR  HZ I        1110 34.50         8.8 0.10                          76.7 353 
 RUS  HZ EP       1110 20.81                             140   -0.0810 84.0 134 
 RUS  HN ES   2   1110 36.03                             140    0.28 5 84.0 134 
 GIR2 SZ EP       1110 20.93                             139    0.2410 87.7  34 
 PAM  SZ EP       1110 26.30                             123   -0.17 9  145  45 
 ZAR  HE ES   3   1110 50.80                             116   -0.44 2  180 311 
 ZAR  HZ I        1110 55.05         4.3 0.28                           180 311 
                                                                                
