 2016  110 1651 37.2 L   6.892 -73.160143.2  RSN 16 0.5 2.4LRSN                1
 GAP=130        1.12       2.6     4.1  5.3 -0.1251E+01  0.5339E+01  0.2539E+01E
 Epicentro: BETULIA - SANTANDER                                                3
 ACTION:UPD 16-03-09 23:24 OP:cam  STATUS:               ID:20160110165137 L   I
 OLDACT:UP  16-01-11 00:00 OP:ar   STATUS:               ID:20160110164757     3
 OLDACT:REG 16-01-10 20:40 OP:ar   STATUS:               ID:20160110164757     3
 2016-01-10-1647-57M.COL___251                                                 6
 STAT SP IPHASW D HRMM SECON CODA AMPLIT PERI AZIMU VELO AIN AR TRES W  DIS CAZ7
 BAR2 EZ EP     D 1651 56.79                             166    0.0010 33.3 184 
 BAR2 EZ ES       1652 11.35                             166   -0.7010 33.3 184 
 BAR2 EZ I        1652 13.76        24.4 0.12            166           33.3 184 
 BRR  HZ EP     D 1651 58.10                             154    0.3310 65.5 291 
 BRR  HN ES       1652 14.65                             154    0.8410 65.5 291 
 BRR  HZ I        1652 18.20        43.2 0.32            151           65.5 291 
 PAM  EZ EP       1651 59.11                             152    0.3310 70.9  46 
 PAM  EN ES       1652 16.15                             152    0.5510 70.9  46 
 PAM  EZ I        1652 18.07        61.4 0.28            156           70.9  46 
 RUS  HZ EP       1652  1.31                             140   -0.1810  111 176 
 RUS  HN ES       1652 20.61                             140    0.1810  111 176 
 RUS  HZ I        1652 21.55        18.7 0.46            143            111 176 
 PTB  HZ EP       1652  3.35                             131   -0.70 9  149 255 
 PTB  HN ES       1652 24.01                             131   -0.97 9  149 255 
 PTB  HZ I        1652 26.65        27.4 0.42            131            149 255 
 OCA  HZ EP       1652  4.11                             131   -0.25 9  150 353 
 OCA  HN ES       1652 25.15                             131   -0.39 9  150 353 
 OCA  HZ I        1652 28.98        66.8 0.20            132            150 353 
 SPBC HZ EP       1652  6.36                             127    0.15 9  170 216 
 SPBC HN ES       1652 28.62                             127   -0.20 9  170 216 
 SPBC HZ I        1652 31.42        43.7 0.26            128            170 216 
 ZAR  HZ EP       1652  8.88                             123   -0.09 9  199 290 
 ZAR  HN ES       1652 33.89                             123    0.15 9  199 290 
 ZAR  HZ I        1652 39.95        23.9 0.32            123            199 290 
 SML  HZ EP       1652 12.43                             118   -0.20 8  234 335 
 SML  HN ES       1652 40.16                             118   -0.08 8  234 335 
 SML  HZ I        1652 47.40        38.6 0.10            119            234 335 
 NOR  HZ EP       1652 13.23                             117   -0.09 8  240 232 
 NOR  HN ES       1652 41.44                             117   -0.05 8  240 232 
 NOR  HZ I        1652 47.38        16.2 0.26            118            240 232 
 CHI  HZ EP       1652 15.78                             116   -0.03 8  258 194 
 CHI  HN ES       1652 45.62                             116   -0.30 8  258 194 
 CHI  HZ I        1652 52.71        11.4 0.34            117            258 194 
 HEL  HZ EP   4   1652 19.52                             114    2.09 0  273 254 
 HEL  HN ES   4   1652 50.54                             114    1.74 0  273 254 
 HEL  HZ I        1652 56.37        11.1 0.30            115            273 254 
 GUY2CHZ EP       1652 22.12                             111    0.87 7  306 233 
 GUY2CHN ES       1652 56.57                             111    0.98 7  306 233 
 GUY2CHZ I        1653  4.53         8.2 0.40                           306 233 
 VIL  SZ EP       1652 21.39                             111   -0.23 7  313 191 
 VIL  SN ES       1652 56.09                             111   -0.17 7  313 191 
 PRA  HZ EP       1652 31.00                             106   -0.61 6  400 209 
 PRA  HN ES       1653 14.03                             106   -0.00 6  400 209 
 PRA  HZ I        1653 19.19        16.4 0.46            107            400 209 
 ORTC HZ EP       1652 32.73                             106    0.81 6  403 215 
 ORTC HN ES       1653 15.63                             106    1.04 6  403 215 
 ORTC HZ I        1653 18.81         8.6 0.46            107            403 215 
                                                                                
