 2014  310 1127 41.6 L   6.822 -73.142143.1  RSN 22 0.5 2.8LRSN                1
 GAP=136        1.18       2.8     4.2  6.1 -0.3076E+01  0.9757E+01 -0.1944E+01E
 Epicentro: LOS SANTOS - SANTANDER                                             3
 ACTION:UPD 14-04-09 23:15 OP:nd   STATUS:               ID:20140310112741 L   I
 OLDACT:REG 14-03-10 15:43 OP:nd   STATUS:               ID:20140310112048     3
 2014-03-10-1120-48M.COL___216                                                 6
 STAT SP IPHASW D HRMM SECON CODA AMPLIT PERI AZIMU VELO AIN AR TRES W  DIS CAZ7
 BAR2 SZ IP     C 1128  1.21                             169    0.2710 25.8 190 
 BAR2 SZ ES       1128 15.88                             169   -0.1610 25.8 190 
 BAR2 SZ I        1128 17.88       152.1 0.20            167           25.8 190 
 PAM  SZ EP     C 1128  4.03                             151    0.6510 75.3  40 
 PAM  SN ES       1128 21.12                             151    0.7310 75.3  40 
 PAM  SZ I        1128 23.75      2506.6 0.56            155           75.3  40 
 RUS  HZ EP     D 1128  5.15                             142   -0.0910  103 176 
 RUS  HN ES       1128 23.26                             142   -0.4310  103 176 
 RUS  HZ I        1128 26.03        56.5 0.26            143            103 176 
 PTB  HZ EP       1128  7.86                             131   -0.55 9  149 258 
 PTB  HN ES       1128 28.42                             131   -0.92 9  149 258 
 PTB  HZ I        1128 34.25        60.3 0.46            129            149 258 
 OCA  HZ EP       1128  8.35                             129   -1.11 9  158 353 
 OCA  HN ES       1128 31.19                             129   -0.02 9  158 353 
 OCA  HZ I        1128 36.69        64.5 0.38            130            158 353 
 SPBC HZ EP       1128 10.23                             128    0.15 9  165 219 
 SPBC HN ES       1128 32.14                             128   -0.16 9  165 219 
 SPBC HZ I        1128 38.32        83.4 0.46            127            165 219 
 ZAR  HZ EP       1128 13.77                             122   -0.03 9  204 291 
 ZAR  HN ES       1128 39.27                             122    0.34 9  204 291 
 ZAR  HZ I        1128 45.59        51.4 0.32            121            204 291 
 NOR  HZ EP       1128 17.46                             118    0.12 8  236 234 
 NOR  HN ES       1128 45.52                             118    0.28 8  236 234 
 NOR  HZ I        1128 53.19        38.0 0.18            117            236 234 
 SML  HZ EP       1128 17.54                             117   -0.30 8  242 335 
 SML  HN ES       1128 47.11                             117    0.99 8  242 335 
 SML  HZ I        1128 49.67        69.9 0.26            118            242 335 
 CHI  HZ EP       1128 19.57                             116    0.18 8  251 195 
 CHI  HN ES       1128 48.85                             116   -0.04 8  251 195 
 CHI  HZ I        1128 55.14        33.1 0.30            117            251 195 
 ROSC BZ EP   4   1128 21.21                             116    1.41 0  255 211 
 ROSC BN ES   4   1128 52.32                             116    2.71 0  255 211 
 ROSC BZ I        1128 56.18        54.6 0.45            116            255 211 
 HEL  HZ EP       1128 21.85                             114    0.08 8  273 255 
 HEL  HN ES       1128 52.97                             114   -0.15 8  273 255 
 HEL  HZ I        1129  0.10        44.9 0.42            114            273 255 
 URE  HZ EP   4   1128 21.02                             113   -1.44 0  283 291 
 URE  HN ES   4   1128 51.85                             113   -2.51 0  283 291 
 URE  HZ I        1129  3.56        42.0 0.18            113            283 291 
 GUY2CHZ EP   4   1128 25.47                             112    0.21 0  303 234 
 GUY2CHN ES   4   1128 59.67                             112    0.34 0  303 234 
 GUY2CHZ I        1129 11.65        31.8 0.42                           303 234 
 VIL  SZ EP   4   1128 24.74                             111   -0.41 0  306 192 
 VIL  SN ES   4   1128 58.56                             111   -0.57 0  306 192 
 VIL  SZ I        1129  8.77        24.4 0.52            112            306 192 
 PTGC HZ EP   4   1128 24.44                             111   -1.11 0  311 159 
 PTGC HN ES   4   1128 57.39                             111   -2.46 0  311 159 
 PTGC HZ I        1129  2.80        33.7 0.28            112            311 159 
 CBOC HZ EP       1128 29.03                             109    0.51 7  335 252 
 CBOC HN ES       1129  5.62                             109    0.49 7  335 252 
 CBOC HZ I        1129 22.45        11.2 0.54            109            335 252 
 DBB  SZ EP   4   1128 28.57                             109   -0.41 0  340 274 
 DBB  SZ ES   4   1129  1.22                             109   -4.73 0  340 274 
 DBB  SZ I        1129  7.39        14.9 0.68            109            340 274 
 COD  HZ EP       1128 29.28                             108   -0.30 6  346 354 
 COD  HN ES       1129  6.17                             108   -0.85 6  346 354 
 COD  HZ I        1129 12.72        10.4 0.76            109            346 354 
 ARGC HZ EP   4   1128 32.68                             108    1.79 0  357 340 
 ARGC HN ES   4   1129 10.65                             108    1.30 0  357 340 
 ARGC HZ I        1129 17.09        11.8 0.68            109            357 340 
 ORTC HZ EP       1128 35.53                             106   -0.13 6  398 216 
 ORTC HN ES       1129 18.95                             106    1.10 6  398 216 
 ORTC HZ I        1129 25.28        16.2 0.28            106            398 216 
 SJC  HZ EP   4   1128 35.45                             105   -1.40 0  407 327 
 SJC  HN ES   4   1129 16.20                             105   -3.75 0  407 327 
 SJC  HZ I        1129 23.59         8.5 0.46            106            407 327 
                                                                                
