 2010  810 1228 28.3 L   7.390 -73.275116.0  RSN 12 0.6 2.8LRSN                1
 GAP=120        1.36       5.6     9.6  8.3 -0.2401E+02  0.3002E+01  0.8163E+01E
 Epicentro: EL PLAYON - SANTANDER                                              3
 ACTION:DUP 10-09-07 10:53 OP:vdl  STATUS:               ID:20100810122828 L   I
 2010-08-10-1223-23S.COL___125                                                 6
 STAT SP IPHASW D HRMM SECON CODA AMPLIT PERI AZIMU VELO SNR AR TRES W  DIS CAZ7
 GIR2 SZ EP       1228 44.63                             162     0.010   36 165 
 GIR2 SZ ES   1   1228 57.32                             162     0.0 7   36 165 
 BRR  HZ IP     C 1228 45.36                             152    -0.110   58 237 
 BRR  HZ I        1228 45.57       348.0 0.13                            58 237 
 BRR  HE ES       1228 58.99                             152     0.110   58 237 
 GUE  SZ EP       1228 45.26                                    -1.010   62  38 
 GUE  SZ ES   2   1228 59.80                             150    -0.4 5   62  38 
 GUE  SZ I        1229  1.83        98.4 0.46                            62  38 
 BRI  SZ EP   2   1228 46.88                             149     0.7 5   64  56 
 BRI  SZ ES   2   1229  1.07                             149     1.1 5   64  56 
 BRI  SZ I        1229  6.57        72.3 0.38                            64  56 
 GRA  SZ EP       1228 47.34                             145     0.510   75  43 
 GRA  SZ ES   1   1229  2.32                             145     1.0 7   75  43 
 GRA  SZ I        1229  3.75       244.0 0.43                            75  43 
 BAR2 SZ IP       1228 47.88                             140    -0.110   89 174 
 BAR2 SZ ES   1   1229  3.09                             140    -0.2 7   89 174 
 BAR2 SZ I        1229  4.44       235.8 0.25                            89 174 
 OCA  SZ EP       1228 48.06                             138    -0.210   94 357 
 OCA  SZ ES   2   1229  3.30                             138    -0.5 5   94 357 
 OCA  SZ I        1229  7.10       153.7 0.74                            94 357 
 RUS  HZ EP       1228 55.14                             121    -0.5 9  167 173 
 RUS  HN ES   2   1229 16.34                             121    -0.6 5  167 173 
 ROSC BN ES   2   1229 45.34                             106     0.9 4  305 202 
 ROSC BZ I        1229 55.29        21.7 0.07                           305 202 
 CHI  HZ EP   1   1229 12.05                             105     0.4 5  309 189 
 CHI  HN ES   2   1229 46.58                             105     1.2 4  309 189 
 CHI  HZ I        1229 53.13        27.2 0.64                           309 189 
 RREF HZ EP       1229 18.93                             103     1.2 6  358 220 
 RREF HZ I        1230  4.08        27.5 0.22                           358 220 
 PRA  HZ EP   1   1229 26.47                              99    -0.8 4  444 204 
                                                                                
