 2010  610 1312 14.5 L   6.812 -73.167144.0  RSN  6 0.3 1.2LRSN                1
 GAP=170        0.51       5.1    26.9 10.3 -0.1015E+03  0.2706E+02 -0.2019E+02E
 Epicentro: LOS SANTOS - SANTANDER                                             3
 ACTION:UP  10-08-24 10:09 OP:vdl  STATUS:               ID:20100610131214 L   I
 2010-06-10-1309-25S.COL___113                                                 6
 STAT SP IPHASW D HRMM SECON CODA AMPLIT PERI AZIMU VELO SNR AR TRES W  DIS CAZ7
 BAR2 SZ EP       1312 34.07                             170     0.110   24 184 
 BAR2 SZ ES   3   1312 48.91                             170    -0.2 2   24 184 
 GIR2 SZ EP   3   1312 34.46                             168     0.5 2   30 354 
 RUS  HZ EP       1312 38.07                             143    -0.110  102 175 
 RUS  HN ES   2   1312 56.76                             143     0.1 5  102 175 
 RUS  HZ I        1312 58.48         2.8 0.26                           102 175 
 BRI  SZ EP       1312 38.42                             141     0.210  108  22 
 BRI  SZ ES   3   1312 57.16                             141     0.5 2  108  22 
 GUE  SZ EP       1312 38.67                             139    -0.310  116  13 
 GRA  SZ EP       1312 39.67                             137     0.110  125  19 
 GRA  SZ ES   3   1312 58.25                             137    -0.8 2  125  19 
                                                                                
