 2013  310 1454 59.8 L   6.770 -73.162147.3  RSN  5 0.5 1.9LRSN                1
 GAP=233        0.99       6.7     9.0  8.1  0.2289E+02  0.1001E+02  0.1778E+02E
 Epicentro: LOS SANTOS - SANTANDER                                             3
 ACTION:UPD 13-04-09 14:01 OP:ep   STATUS:               ID:20130310145459 L   I
 2013-03-10-1448-49M.COL___204                                                 6
 STAT SP IPHASW D HRMM SECON CODA AMPLIT PERI AZIMU VELO AIN AR TRES W  DIS CAZ7
 BAR2 SZ EP       1455 19.33                             172   -0.1810 19.8 187 
 BAR2 SZ ES       1455 34.38                             172   -0.5310 19.8 187 
 BAR2 SZ I        1455 35.86        22.9 0.18            164           19.8 187 
 BRR  HZ EP       1455 21.22                             152    0.1410 71.3 302 
 BRR  HN ES       1455 38.35                             152    0.6410 71.3 302 
 BRR  HN I        1455 39.10        16.6 0.24            149           71.3 302 
 RUS  HZ IP   2   1455 23.45                             145    0.01 5 97.5 175 
 RUS  HN ES   1   1455 42.01                             145    0.10 7 97.5 175 
 RUS  HN I        1455 43.83        11.6 0.30            142           97.5 175 
 PTB  HZ EP   2   1455 25.88                             133   -0.76 5  145 260 
 PTB  HN ES   1   1455 46.88                             133   -0.72 7  145 260 
 PTB  HN I        1455 52.78        11.6 0.18            129            145 260 
 CHI  HZ EP       1455 37.35                             118    0.20 8  245 195 
 CHI  HN ES   1   1456  7.02                             118    0.71 6  245 195 
 CHI  HN I        1456 10.30         4.3 0.20            117            245 195 
                                                                                
