 2016 1110 1650 48.3 L   6.780 -73.098149.4  RSN  6 0.4 1.7LRSN                1
 GAP=161        1.03       5.4     5.0  8.0 -0.2576E+01  0.7167E+01  0.1092E+02E
 Epicentro: LOS SANTOS - SANTANDER                                             3
 ACTION:UPD 17-10-26 21:06 OP:lp   STATUS:               ID:20161110165048 L   I
 OLDACT:REG 16-11-10 20:21 OP:dnl  STATUS:               ID:20161110164746     3
 2016-11-10-1648-00M.COL___343                                                 6
 STAT SP IPHASW D HRMM SECON CODA AMPLIT PERI AZIMU VELO AIN AR TRES W  DIS CAZ7
 BAR2 EZ EP       1651  8.14                             171   -0.2210 22.7 204 
 BAR2 EZ ES       1651 23.49                             171   -0.5110 22.7 204 
 BAR2 EZ I        1651 26.29         9.4 0.36            166           22.7 204 
 PAM  EZ EP       1651 11.15                             152    0.3210 76.0  35 
 PAM  EN ES       1651 28.48                             152    0.0910 76.0  35 
 PAM  EZ I        1651 30.55         9.8 0.58            158           76.0  35 
 BRR  HZ EP       1651 10.26                             151    0.0810 76.9 298 
 BRR  HN ES       1651 27.60                             151    0.3710 76.9 298 
 BRR  HZ I        1651 30.51        10.3 0.40            151           76.9 298 
 PTB  HZ EP       1651 15.12                             132   -0.88 9  153 260 
 PTB  HE ES       1651 37.61                             132    0.00 9  153 260 
 PTB  HZ I        1651 43.81         7.3 0.40            131            153 260 
 ZAR  HZ EP   4   1651 24.49                             122    2.91 0  210 292 
 ZAR  HN ES       1651 47.76                             122    0.23 8  210 292 
 ZAR  HZ I        1651 53.24         7.4 0.36            123            210 292 
 CHI  HZ EP   2   1651 26.24                             118    0.11 4  248 196 
 CHI  HN ES       1651 56.36                             118    0.73 8  248 196 
 CHI  HZ I        1652  5.39         2.0 0.58            118            248 196 
                                                                                
