 2017  410 1355 56.8 L   6.792 -73.141144.0  RSN 10 0.4 2.1LRSN                1
 GAP=138        0.89       3.3     3.6  5.1 -0.9563E+00  0.3747E+01  0.4694E+01E
 Epicentro: LOS SANTOS - SANTANDER                                             3
 ACTION:UPD 17-05-30 21:10 OP:jn   STATUS:               ID:20170410135556 L   I
 OLDACT:UP  17-04-10 21:40 OP:cog  STATUS:               ID:20170410134716     3
 OLDACT:REG 17-04-10 20:38 OP:cog  STATUS:               ID:20170410134716     3
 2017-04-10-1348-00M.COL___377                                                 6
 STAT SP IPHASW D HRMM SECON CODA AMPLIT PERI AZIMU VELO AIN AR TRES W  DIS CAZ7
 BAR2 EZ EP       1356 16.13                             171   -0.1010 22.6 192 
 BAR2 EZ ES       1356 31.18                             171   -0.1910 22.6 192 
 BAR2 EZ I        1356 32.79        66.4 0.18            167           22.6 192 
 BRR  HZ EP       1356 18.19                             152    0.3510 72.1 299 
 BRR  HN ES       1356 35.08                             152    0.8510 72.1 299 
 BRR  HZ I        1356 37.82        22.7 0.16            153           72.1 299 
 PAM  EZ EP       1356 19.01                             150    0.1310 77.7  39 
 PAM  EN ES       1356 35.77                             150   -0.3010 77.7  39 
 PAM  EZ I        1356 37.04        12.2 0.18            156           77.7  39 
 RUS  HZ EP       1356 20.15                             144   -0.1910 99.7 176 
 RUS  HN ES       1356 38.55                             144   -0.1310 99.7 176 
 RUS  HZ I        1356 40.12        11.3 0.28            144           99.7 176 
 PTB  HZ EP       1356 23.61                             132   -0.08 9  148 259 
 PTB  HN ES       1356 44.33                             132   -0.31 9  148 259 
 PTB  HZ I        1356 46.08        12.5 0.12            132            148 259 
 SPBC HZ EP       1356 25.07                             129   -0.10 9  163 219 
 SPBC HN ES       1356 47.69                             129    0.42 9  163 219 
 SPBC HZ I        1356 55.29        24.1 0.14            129            163 219 
 ZAR  HE ES       1356 54.13                             122   -0.41 9  205 292 
 NOR  HZ EP       1356 32.24                             118   -0.21 8  235 235 
 NOR  HN ES       1356 59.70                             118   -0.54 8  235 235 
 NOR  HZ I        1357  4.86         8.5 0.36            119            235 235 
 CHI  HZ EP       1356 34.33                             117   -0.03 8  248 195 
 CHI  HN ES       1357  4.07                             117    0.44 8  248 195 
 CHI  HZ I        1357  9.29         5.3 0.42            118            248 195 
 ELA  HZ EP   4   1357 25.14                             110   41.55 0  329 230 
 ELA  HN ES   4   1357 55.01                             110   34.94 0  329 230 
 PRA  HZ EP       1356 50.79                             106    0.55 6  392 210 
 PRA  HE ES   4   1357 34.40                             106    2.51 0  392 210 
                                                                                
