 2016  710 1221  1.8 L   6.266 -73.807111.1  RSN  4 0.3 0.9LRSN                1
 GAP=176        0.81       6.8     4.0  9.6  0.1613E+01 -0.2741E+01  0.3151E+02E
 Epicentro: LANDAZURI - SANTANDER                                              3
 ACTION:UPD 17-03-29 16:49 OP:lp   STATUS:               ID:20160710122101 L   I
 OLDACT:DUP 16-07-10 23:58 OP:edw  STATUS:               ID:20160710120601d    3
 OLDACT:UP  16-07-10 23:51 OP:edw  STATUS:               ID:20160710120600     3
 2016-07-10-1205-59S.COL___325                                                 6
 STAT SP IPHASW D HRMM SECON CODA AMPLIT PERI AZIMU VELO AIN AR TRES W  DIS CAZ7
 BAR2 EZ EP       1221 20.02                             142   -0.1810 77.9  62 
 BAR2 EZ ES       1221 34.36                             142   -0.1610 77.9  62 
 BAR2 EZ I        1221 35.43         3.1 0.24            148           77.9  62 
 PTB  HZ EP       1221 19.35                             142   -0.5410 77.9 293 
 PTB  HE ES       1221 34.20                             142    0.2410 77.9 293 
 PTB  HZ I        1221 36.79         1.5 0.18            145           77.9 293 
 RUS  HZ EP       1221 21.78                             138    0.2710 90.2 117 
 BRR  HZ EP       1221 21.50                             137    0.3910 93.6   6 
 BRR  HN ES       1221 36.11                             137   -0.0210 93.6   6 
                                                                                
