 2014 1010 1242 10.9 L   6.911 -73.170148.0  RSN  6 0.6 1.6LRSN                1
 GAP=118        1.49       8.4     6.9 10.1 -0.5318E+01 -0.5196E+01  0.8446E+01E
 Epicentro: BETULIA - SANTANDER                                                3
 ACTION:UPD 14-11-29 23:48 OP:nd   STATUS:               ID:20141010124210 L   I
 OLDACT:REG 14-10-10 21:30 OP:stll STATUS:               ID:20141010123739     3
 2014-10-10-1237-39M.COL___283                                                 6
 STAT SP IPHASW D HRMM SECON CODA AMPLIT PERI AZIMU VELO AIN AR TRES W  DIS CAZ7
 BAR2 SZ EP       1242 31.29                             166    0.2410 35.2 182 
 BAR2 SZ I        1242 31.45        13.0 0.34            166           35.2 182 
 BAR2 SZ ES       1242 46.67                             166   -0.1410 35.2 182 
 BRR  HZ EP       1242 32.58                             155    0.7310 63.7 290 
 BRR  HN ES       1242 48.60                             155    0.3710 63.7 290 
 PAM  SZ EP       1242 33.40                             153    0.4810 70.4  48 
 PAM  SN ES       1242 49.63                             153   -0.4910 70.4  48 
 PAM  SZ I        1242 51.17        12.7 0.22            154           70.4  48 
 RUS  HZ EP       1242 36.00                             141    0.2510  113 175 
 RUS  HN ES       1242 55.64                             141    0.4710  113 175 
 RUS  HZ I        1242 56.16         2.0 0.40            141            113 175 
 PTB  HZ EP       1242 37.96                             132   -0.07 9  148 254 
 PTB  HN ES       1242 58.13                             132   -1.10 9  148 254 
 PTB  HZ I        1243  0.60         6.6 0.24            133            148 254 
 TAM  HZ EP       1242 38.24                             130   -1.05 9  161 109 
                                                                                
