 2016  510 1722 58.7 L   6.433 -73.862  3.0  RSN  4 0.1 1.1LRSN                1
 GAP=156        0.32       1.0     0.7  2.0  0.1646E+00 -0.1647E+00 -0.2503E+00E
 Epicentro: CIMITARRA - SANTANDER                                              3
 ACTION:UPD 16-08-18 17:44 OP:cam  STATUS:               ID:20160510172258 L   I
 OLDACT:REG 16-05-10 19:39 OP:ak   STATUS:               ID:20160510171748     3
 2016-05-10-1717-48M.COL___297                                                 6
 STAT SP IPHASW D HRMM SECON CODA AMPLIT PERI AZIMU VELO AIN AR TRES W  DIS CAZ7
 PTB  HZ EP       1723  9.49                              47   -0.0410 66.7 280 
 PTB  HN ES       1723 18.03                              47    0.0210 66.7 280 
 PTB  HZ I        1723 18.29         5.8 0.07             47           66.7 280 
 BRR  HZ EP       1723 10.86                              47   -0.1210 76.4  13 
 BRR  HN ES       1723 20.66                              47    0.0810 76.4  13 
 BRR  HZ I        1723 21.54        11.8 0.14             47           76.4  13 
 BAR2 EZ EP       1723 11.40                              47    0.0410 77.2  77 
 BAR2 EZ ES       1723 21.21                              47   -0.0510 77.2  77 
 BAR2 EZ I        1723 21.51         7.7 0.10             47           77.2  77 
 RUS  HZ EP       1723 15.93                              47    0.1210  105 125 
 RUS  HE ES       1723 29.14                              47   -0.0510  105 125 
 RUS  HZ I        1723 30.93         3.7 0.58             47            105 125 
                                                                                
