 2016  410 1912 28.8 L   6.811 -73.126140.6  RSN 20 0.5 2.4LRSN                1
 GAP=121        1.07       3.0     3.5  5.0 -0.3455E+01  0.4207E+01  0.3627E+00E
 Epicentro: LOS SANTOS - SANTANDER                                             3
 ACTION:UPD 16-05-05 14:20 OP:rebc STATUS:               ID:20160410191228 L   I
 OLDACT:UP  16-04-10 23:08 OP:drio STATUS:               ID:20160410190746     3
 OLDACT:UP  16-04-10 23:08 OP:drio STATUS:               ID:20160410190746     3
 OLDACT:REG 16-04-10 20:38 OP:drio STATUS:               ID:20160410190746     3
 2016-04-10-1907-46M.COL___295                                                 6
 STAT SP IPHASW D HRMM SECON CODA AMPLIT PERI AZIMU VELO AIN AR TRES W  DIS CAZ7
 BAR2 EZ IP     C 1912 47.98                             169    0.1310 25.0 194 
 BAR2 EZ ES       1913  2.50                             169   -0.2010 25.0 194 
 BAR2 EZ I        1913  5.22        51.9 0.24            168           25.0 194 
 PAM  EZ EP       1912 50.93                             150    0.6010 75.1  39 
 PAM  EE ES       1913  7.75                             150    0.6310 75.1  39 
 PAM  EZ I        1913  8.49        26.8 0.34            154           75.1  39 
 RUS  HZ EP     C 1912 51.88                             142   -0.2510  102 177 
 RUS  HN ES       1913 10.22                             142   -0.1110  102 177 
 PTB  HZ EP       1912 54.61                             130   -0.96 9  150 259 
 PTB  HE ES       1913 15.92                             130   -0.53 9  150 259 
 PTB  HZ I        1913 18.59        38.8 0.24            130            150 259 
 OCA  HZ EP       1912 56.98                             129    0.35 9  159 352 
 OCA  HN ES       1913 18.04                             129   -0.29 9  159 352 
 OCA  HZ I        1913 22.76        42.6 0.28            130            159 352 
 SPBC HZ EP       1912 56.97                             127   -0.16 9  165 219 
 SPBC HN ES       1913 18.85                             127   -0.38 9  165 219 
 SPBC HZ I        1913 26.03        38.2 0.18            128            165 219 
 ZAR  HZ EP       1913  1.77                             121    0.69 8  206 292 
 ZAR  HN ES       1913 26.45                             121    0.20 8  206 292 
 ZAR  HZ I        1913 32.72        22.7 0.28            121            206 292 
 NOR  HZ EP       1913  3.74                             117   -0.76 8  237 235 
 NOR  HE ES       1913 32.04                             117   -0.31 8  237 235 
 NOR  HZ I        1913 38.68        28.6 0.20            118            237 235 
 CHI  HZ EP       1913  6.37                             116   -0.04 8  250 196 
 CHI  HN ES       1913 36.54                             116    0.79 8  250 196 
 ROSC BZ EP       1913  6.68                             115   -0.20 8  255 211 
 ROSC BN ES   4   1913 39.24                             115    2.65 0  255 211 
 HEL  HZ EP   4   1913 10.31                             113    1.29 0  274 256 
 HEL  HN ES       1913 40.38                             113   -0.02 8  274 256 
 HEL  HZ I        1913 46.93        17.7 0.50            114            274 256 
 SOCV BZ EP       1913 11.00                             111   -0.33 7  299  57 
 SOCV BE ES   4   1913 43.16                             111   -1.35 0  299  57 
 GUY2CHZ EP       1913 12.76                             111    0.30 7  304 235 
 GUY2CHN ES       1913 47.37                             111    0.86 7  304 235 
 GUY2CHZ I        1913 55.19        13.6 0.42                           304 235 
 ELA  HZ EP       1913 16.25                             109    0.53 7  332 230 
 ELA  HN ES   4   1913 55.11                             109    2.79 0  332 230 
 ELA  HZ I        1913 59.25        22.4 0.90            110            332 230 
 CBOC HZ EP       1913 16.11                             109    0.32 7  336 252 
 CBOC HN ES   4   1913 47.52                             109   -4.92 0  336 252 
 CBOC HZ I        1913 57.38         5.7 0.38            110            336 252 
 DBB  SZ EP       1913 15.97                             108   -0.34 7  342 274 
 DBB  SZ ES   4   1913 48.98                             108   -4.39 0  342 274 
 SDV  BZ EP       1913 17.55                             107   -0.81 6  358  50 
 SDV  BE ES   4   1913 54.64                             107   -2.38 0  358  50 
 SDV  BZ I        1913 57.24         3.8 0.50            109            358  50 
 ORTC HZ EP       1913 23.02                             105    0.20 6  398 216 
 ORTC HE ES       1914  5.47                             105    0.52 6  398 216 
 ORTC HZ I        1914 10.85         4.4 0.28            107            398 216 
 PAL  HZ EP       1913 24.23                             105    0.14 6  408 239 
 PAL  HN ES   4   1914  3.94                             105   -3.27 0  408 239 
 PAL  HZ I        1914  9.50         4.9 0.42            106            408 239 
 SJC  HZ EP   4   1913 22.81                             105   -1.41 0  409 327 
 SJC  HN ES   4   1914  3.93                             105   -3.51 0  409 327 
 SJC  HZ I        1914  8.40         4.1 0.44            106            409 327 
                                                                                
