 2013  310 1300 46.0 L   6.817 -73.125146.0  RSN  9 0.5 2.0LRSN                1
 GAP=155        1.25       4.2     5.0  7.4 -0.5337E+01  0.5203E+01 -0.1081E+01E
 Epicentro: LOS SANTOS - SANTANDER                                             3
 ACTION:UPD 13-04-09 14:01 OP:ep   STATUS:               ID:20130310130046 L   I
 2013-03-10-1258-50M.COL___198                                                 6
 STAT SP IPHASW D HRMM SECON CODA AMPLIT PERI AZIMU VELO AIN AR TRES W  DIS CAZ7
 BAR2 SZ EP       13 1  5.83                             170    0.1010 25.7 194 
 BAR2 SZ ES       13 1 20.73                             170   -0.3710 25.7 194 
 BAR2 SZ I        13 1 22.55        11.2 0.36            169           25.7 194 
 BRR  HZ EP       13 1  7.90                             152    0.6310 72.4 296 
 BRR  HE ES       13 1 24.62                             152    0.7910 72.4 296 
 BRR  HN I        13 1 26.32        22.0 0.22            152           72.4 296 
 PAM  SN ES       13 1 25.25                             152   -0.0610 74.5  39 
 PAM  SN I        13 1 27.28        13.1 0.44            155           74.5  39 
 CAPV BZ EP       13 1 13.57                             132    0.40 9  146  38 
 CAPV BZ ES       13 1 34.27                             132   -0.08 9  146  38 
 PTB  HZ EP       13 1 12.76                             131   -0.49 9  150 258 
 PTB  HN ES       13 1 33.81                             131   -0.68 9  150 258 
 PTB  HZ I        13 1 41.12         8.4 0.28            132            150 258 
 OCA  HZ EP       13 1 14.77                             130    0.57 9  159 352 
 OCA  HN ES       13 1 35.32                             130   -0.87 9  159 352 
 OCA  HE I        13 1 40.10        25.8 0.20            132            159 352 
 ZAR  HN ES       13 1 44.74                             122    0.67 8  206 291 
 SML  HZ EP       13 1 22.09                             117   -0.49 8  243 335 
 SML  HE ES       13 1 50.77                             117   -0.33 8  243 335 
 CHI  HZ EP   1   13 1 23.85                             117   -0.15 6  251 196 
 CHI  HE ES       13 1 53.59                             117   -0.03 8  251 196 
 CHI  HN I        13 1 55.69         6.2 0.30            118            251 196 
                                                                                
