 2011  710 1813 41.0 L   6.760 -73.127146.7  RSN 12 0.4 2.7LRSN                1
 GAP=158        0.74       2.9     4.7  5.1 -0.5854E+01  0.5048E+01  0.6213E+00E
 Epicentro: LOS SANTOS - SANTANDER                                             3
 ACTION:UPD 12-07-25 13:59 OP:epov STATUS:               ID:20110710181341 L   I
 2011-07-10-1810-50S.COL___140                                                 6
 STAT SP IPHASW D HRMM SECON CODA AMPLIT PERI AZIMU VELO AIN AR TRES W  DIS CAZ7
 BAR2 SZ EP       1814  0.67                             172   -0.0310 19.5 198 
 BAR2 SZ ES   1   1814 15.62                             172   -0.42 7 19.5 198 
 BAR2 SZ I        1814 17.52       152.7 0.18                          19.5 198 
 BRR  HZ EP       1814  2.63                             151    0.1310 75.2 301 
 BRR  HN ES   1   1814 20.14                             151    0.89 7 75.2 301 
 BRR  HZ I        1814 22.99       163.8 0.15                          75.2 301 
 RUS  HZ EP   1   1814  4.53                             145   -0.02 7 96.1 177 
 RUS  HN ES   1   1814 23.25                             145    0.35 7 96.1 177 
 RUS  HZ I        1814 25.17        75.4 0.28                          96.1 177 
 BRI  SZ IPg  1   1814  5.31                             141    0.04 7  112  19 
 GRA  SZ EP       1814  6.54                             136   -0.1110  129  16 
 GRA  SZ ES   1   1814 26.31                             136   -0.33 7  129  16 
 GRA  SZ I        1814 27.55        37.9 0.58                           129  16 
 OCA  SZ EP       1814  9.58                             129   -0.26 9  165 353 
 OCA  SZ ES   2   1814 32.64                             129    0.32 5  165 353 
 OCA  SZ I        1814 36.05        40.6 0.41                           165 353 
 NOR  SZ EP   1   1814 16.39                             119   -0.33 6  234 236 
 NOR  SN ES   1   1814 44.08                             119   -0.48 6  234 236 
 CHI  HZ EP   1   1814 18.79                             118    0.42 6  245 196 
 CHI  HN ES   1   1814 46.82                             118   -0.69 6  245 196 
 CHI  HZ I        1814 53.48        33.3 0.26                           245 196 
 HEL  HZ EP   1   1814 21.87                             115    0.48 6  273 257 
 HEL  HN ES   1   1814 52.10                             115   -0.77 6  273 257 
 RREF HZ EP   1   1814 27.70                             111    0.64 5  321 230 
 RREF HE ES   2   1815  3.04                             111    0.07 3  321 230 
 RREF HZ I        1815 12.05        45.3 0.48                           321 230 
 TOL  SZ EP   1   1814 29.37                             110    0.25 5  342 225 
 PRA  HZ EP   1   1814 34.24                             107   -0.01 4  389 210 
 PRA  HN ES   1   1815 16.26                             107    0.50 4  389 210 
                                                                                
