 2015  610 1320  7.3 L   6.164 -73.657110.7  RSN 10 0.3 2.0LRSN                1
 GAP= 74        0.82       2.0     2.9  4.9 -0.1190E+01  0.6194E+01 -0.6102E+00E
 Epicentro: LA PAZ - SANTANDER                                                 3
 ACTION:UPD 15-09-10 22:11 OP:cam  STATUS:               ID:20150610132007 L   I
 OLDACT:REG 15-06-10 21:42 OP:ak   STATUS:               ID:20150610131750     3
 2015-06-10-1317-50M.COL___312                                                 6
 STAT SP IPHASW D HRMM SECON CODA AMPLIT PERI AZIMU VELO AIN AR TRES W  DIS CAZ7
 RUS  HZ EP       1320 25.40                             146   -0.0110 70.2 115 
 RUS  HN ES       1320 39.41                             146   -0.1310 70.2 115 
 RUS  HZ I        1320 40.76         9.4 0.19            147           70.2 115 
 BAR2 EZ IP     C 1320 25.33                             145    0.2510 70.6  48 
 BAR2 EZ ES       1320 39.19                             145    0.2410 70.6  48 
 BAR2 EZ I        1320 40.53        58.8 0.14            147           70.6  48 
 SPBC HZ EP       1320 25.34                             144    0.3010 73.0 219 
 SPBC HN ES       1320 39.48                             144    0.6110 73.0 219 
 SPBC HZ I        1320 41.45        35.0 0.28            144           73.0 219 
 BRR  HZ IP     C 1320 27.45                             133   -0.0010  104 357 
 BRR  HN ES       1320 42.69                             133   -0.4810  104 357 
 BRR  HZ I        1320 44.17        21.1 0.28            134            104 357 
 NOR  HZ EP       1320 31.87                             122   -0.05 9  150 244 
 NOR  HN ES       1320 50.72                             122   -0.41 9  150 244 
 NOR  HZ I        1320 53.11        15.1 0.28            122            150 244 
 CHI  HZ EP       1320 34.47                             119   -0.03 9  170 183 
 CHI  HN ES       1320 54.86                             119   -0.87 9  170 183 
 CHI  HZ I        1321  0.40         5.8 0.33            119            170 183 
 ZAR  HZ EP       1320 37.08                             114    0.03 9  198 318 
 ZAR  HN ES       1321  0.29                             114    0.03 9  198 318 
 ZAR  HZ I        1321  2.67        16.9 0.10            115            198 318 
 GUY2CHZ EP       1320 39.83                             112    0.18 8  216 241 
 GUY2CHN ES       1321  4.75                             112   -0.14 8  216 241 
 GUY2CHZ I        1321 10.68         5.5 0.37                           216 241 
 SML  HZ EP       1320 48.04                             105   -0.19 7  295 351 
 SML  HN ES       1321 20.18                             105    0.03 7  295 351 
 SML  HZ I        1321 25.98        11.0 0.10            105            295 351 
 PRA  HZ EP       1320 49.60                             104    0.35 7  303 207 
 PRA  HN ES       1321 22.35                             104    0.37 7  303 207 
 PRA  HZ I        1321 27.99         7.7 0.32            105            303 207 
                                                                                
