 2010  410 1034  2.6 L   6.841 -72.961142.4  RSN  4 0.3 2.1LRSN                1
 GAP=236        0.66       5.3     9.2  7.1 -0.6252E+01 -0.1052E+02 -0.7984E+01E
 Epicentro: CEPITA - SANTANDER                                                 3
 ACTION:UPD 10-08-24 09:58 OP:vdl  STATUS:               ID:20100410103402 L   I
 2010-04-10-1032-41S.COL___097                                                 6
 STAT SP IPHASW D HRMM SECON CODA AMPLIT PERI AZIMU VELO AIN AR TRES W  DIS CAZ7
 BAR2 SZ IP       1034 22.22                             165     0.010   37 222 
 BAR2 SZ ES   1   1034 37.28                             165    -0.2 7   37 222 
 BRR  HZ EP       1034 24.46                             146     0.010   88 290 
 BRR  HN ES   1   1034 41.79                             146     0.3 7   88 290 
 BRR  HZ I        1034 45.02        22.8 0.29                            88 290 
 OCA  SZ EP       1034 30.84                             129     0.2 9  160 346 
 OCA  SZ ES   2   1034 51.52                             129    -0.9 5  160 346 
 OCA  SZ I        1034 56.62        17.2 0.22                           160 346 
 RREF BZ EP   2   1034 50.81                             109     0.0 3  340 231 
 RREF BN ES   2   1035 27.76                             109    -0.6 3  340 231 
 RREF BZ I        1035 34.59         4.5 0.30                           340 231 
                                                                                
