 2017  910 1945 15.4 L   6.723 -73.146154.6  RSN  5 0.3 1.4LRSN                1
 GAP=231        0.76       4.1     5.2  7.4  0.7000E+01  0.7572E+01  0.4427E+01E
 Epicentro: JORDAN - SANTANDER                                                 3
 ACTION:UPD 17-10-05 19:10 OP:rebc STATUS:               ID:20170910194515 L   I
 OLDACT:REG 17-09-10 20:10 OP:lv   STATUS:               ID:20170910193740     3
 2017-09-10-1938-00M.COL___413                                                 6
 STAT SP IPHASW D HRMM SECON CODA AMPLIT PERI AZIMU VELO AIN AR TRES W  DIS CAZ7
 BRR  HZ IP     D 1945 37.43                             153   -0.3410 75.6 304 
 BRR  HN ES       1945 55.38                             153    0.1810 75.6 304 
 BRR  HZ I        1945 57.17         3.8 0.14            154           75.6 304 
 RUS  HZ EP       1945 39.75                             148    0.2810 92.1 176 
 RUS  HN ES       1945 58.35                             148    0.1110 92.1 176 
 RUS  HZ I        1945 59.66         2.6 0.12            149           92.1 176 
 SPBC HZ EP       1945 43.95                             132   -0.05 9  157 221 
 SPBC HN ES       1946  5.75                             132   -0.55 9  157 221 
 SPBC HZ I        1946 10.58         5.8 0.12            133            157 221 
 ZAR  HN ES       1946 14.84                             124    0.03 8  207 294 
 GUY2CHZ EP   4   1946  0.49                             114    1.59 0  296 236 
 GUY2CHN ES       1946 33.31                             114    0.50 7  296 236 
 GUY2CHZ I        1946 41.18         1.5 0.26                           296 236 
                                                                                
