 2013 1110 1200 25.3 L   6.834 -73.147148.3  RSN  7 0.3 1.8LRSN                1
 GAP=135        0.62       3.0     4.3  6.7 -0.1003E+01  0.8313E+01 -0.7272E+00E
 Epicentro: LOS SANTOS - SANTANDER                                             3
 OLDACT:REG 13-11-10 14:20 OP:jn   STATUS:               ID:20131110120000     3
 ACTION:UPD 14-01-09 16:27 OP:ep   STATUS:               ID:20131110120025 L   I
 OLDACT:UP  13-11-10 15:36 OP:jn   STATUS:               ID:20131110120000     3
 2013-11-10-1200-00M.COL___273                                                 6
 STAT SP IPHASW D HRMM SECON CODA AMPLIT PERI AZIMU VELO AIN AR TRES W  DIS CAZ7
 BAR2 SZ EP       12 0 45.35                             169   -0.0010 27.0 188 
 BAR2 SZ ES   1   12 1  1.27                             169    0.31 7 27.0 188 
 BAR2 SZ I        12 1  8.02        20.4 1.40            170           27.0 188 
 BRR  HZ EP   1   12 0 47.03                             154    0.36 7 69.4 296 
 BRR  HN ES   4   12 1  5.06                             154    1.76 0 69.4 296 
 BRR  SZ I        12 1 12.47         9.0 0.56            155           69.4 296 
 PAM  SZ EP   1   12 0 47.90                             152    0.23 7 74.6  41 
 PAM  SN ES   1   12 1  4.87                             152   -0.21 7 74.6  41 
 PAM  SZ I        12 1  5.31         9.0 0.40            160           74.6  41 
 RUS  HZ EP   1   12 0 49.68                             143    0.07 7  104 176 
 RUS  HN ES   1   12 1  8.48                             143   -0.06 7  104 176 
 RUS  SZ I        12 1 10.18         4.8 1.50            150            104 176 
 PTB  HZ EP   1   12 0 52.27                             132   -0.31 7  148 257 
 PTB  HN ES   1   12 1 13.42                             132   -0.40 7  148 257 
 PTB  SZ I        12 1 15.69        10.3 0.22            137            148 257 
 OCA  HN ES       12 1 15.21                             131   -0.26 9  157 353 
 ZAR  HN ES   2   12 1 24.05                             123    0.93 4  203 291 
 SML  HN ES   4   12 1 28.42                             118   -1.72 0  240 335 
                                                                                
