 2016 1010 1108 58.1 L   6.751 -73.209138.0  RSN  4 0.3 1.1LRSN                1
 GAP=236        0.70       7.4     6.4  9.7  0.3104E+02  0.2708E+02 -0.2726E+00E
 Epicentro: VILLANUEVA - SANTANDER                                             3
 ACTION:UPD 16-11-09 19:18 OP:rebc STATUS:               ID:20161010110858 L   I
 OLDACT:REG 16-10-10 20:00 OP:dln  STATUS:               ID:20161010110744     3
 2016-10-10-1108-00M.COL___357                                                 6
 STAT SP IPHASW D HRMM SECON CODA AMPLIT PERI AZIMU VELO AIN AR TRES W  DIS CAZ7
 BAR2 EZ EP   2   11 9 16.66                             172   -0.03 5 17.8 170 
 BAR2 EZ ES       11 9 30.93                             172   -0.2610 17.8 170 
 BAR2 EZ I        11 9 33.81         3.8 0.14            170           17.8 170 
 RUS  HZ EP   2   11 9 20.65                             143   -0.10 5 96.0 172 
 RUS  HN ES       11 9 38.76                             143    0.3410 96.0 172 
 RUS  HZ I        11 9 40.27         1.2 0.32            145           96.0 172 
 PTB  HZ EP   2   11 9 23.22                             131   -0.50 5  140 260 
 PTB  HN ES       11 9 43.42                             131   -0.28 9  140 260 
 PTB  HZ I        11 9 47.33         2.1 0.32            133            140 260 
 ZAR  HE ES       11 9 54.61                             121    0.44 9  200 294 
                                                                                
