 2017 1210 1403 58.7 L   6.819 -73.131143.5  RSN  7 0.4 1.6LRSN                1
 GAP=153        1.16       4.4     6.2  7.9 -0.4108E+01  0.3365E+01  0.3163E+01E
 Epicentro: LOS SANTOS - SANTANDER                                             3
 ACTION:UPD 18-01-04 13:18 OP:rebc STATUS:               ID:20171210140358 L   I
 OLDACT:REG 17-12-10 20:13 OP:lv   STATUS:               ID:20171210135740     3
 2017-12-10-1358-00M.COL___481                                                 6
 STAT SP IPHASW D HRMM SECON CODA AMPLIT PERI AZIMU VELO AIN AR TRES W  DIS CAZ7
 BAR2 EZ EP       14 4 17.92                             169   -0.1810 25.7 193 
 BAR2 EZ ES       14 4 33.94                             169    0.7010 25.7 193 
 BAR2 EZ I        14 4 34.33         6.5 0.22            167           25.7 193 
 PAM  EZ IP     D 14 4 20.70                             151    0.1910 74.7  40 
 PAM  EN ES       14 4 36.93                             151   -0.5910 74.7  40 
 PAM  EZ I        14 4 39.75         5.0 0.56            154           74.7  40 
 PTB  HZ EP   9   14 4 24.68                             131   -0.99 0  150 258 
 PTB  HN ES       14 4 45.11                                   -0.61 9  150 258 
 PTB  HZ I        14 4 51.31         2.7 0.26            129            150 258 
 OCA  HZ EP       14 4 26.89                             129    0.24 9  158 352 
 OCA  HN ES       14 4 48.07                             129   -0.38 9  158 352 
 OCA  HZ I        14 4 52.14        13.1 0.28            129            158 352 
 ZAR  HN ES       14 4 56.58                             122    0.26 9  205 291 
 ZAR  HZ I        14 5  1.97         7.0 0.44            120            205 291 
 CHI  HZ IP       14 4 36.62                             116    0.08 8  251 195 
 CHI  HN ES       14 5  5.69                             116   -0.37 8  251 195 
 CHI  HZ I        14 5 12.31         1.9 0.32            116            251 195 
 GUY2CHZ EP   9   14 4 44.87                             112    2.38 0  304 235 
 GUY2CHN ES       14 5 18.02                                   -1.01 7  304 235 
 GUY2CHZ I        14 5 24.53         1.7 0.28                           304 235 
 SJC  HZ EP   4   14 4 52.20                             105   -1.88 0  408 327 
 SJC  HN ES   4   14 5 32.75                             105   -4.53 0  408 327 
                                                                                
