 2010 1210 1646 10.7 L   6.264 -73.136174.7  RSN 12 0.3 2.7LRSN                1
 GAP=130        0.76       2.5     4.1  4.7 -0.1798E+01  0.3974E+01  0.1754E+01E
 Epicentro: CHARALA - SANTANDER                                                3
 ACTION:UP  11-01-14 15:23 OP:pat  STATUS:               ID:20101210164610 L   I
 2010-12-10-1644-34S.COL___135                                                 6
 STAT SP IPHASW D HRMM SECON CODA AMPLIT PERI AZIMU VELO SNR AR TRES W  DIS CAZ7
 BAR2 SZ IP       1646 34.05                             168     0.010   37 352 
 BAR2 SZ ES   1   1646 52.20                             168    -0.2 7   37 352 
 BAR2 SZ I        1646 53.93       225.4 0.35                            37 352 
 RUS  HZ IP       1646 34.74                             166     0.110   41 172 
 RUS  HN ES   1   1646 53.37                             166     0.1 7   41 172 
 RUS  HZ I        1646 55.51        60.8 0.30                            41 172 
 BTL  SZ IP       1646 35.59                             156     0.110   74 349 
 BTL  SZ ES   1   1646 54.83                             156     0.0 7   74 349 
 GIR2 SZ IP       1646 36.24                             152     0.010   90 356 
 GIR2 SZ ES   1   1646 56.51                             152     0.3 7   90 356 
 YOP  SZ IP       1646 38.65                             142    -0.110  128 142 
 YOP  SZ I        1646 39.24        31.6 0.45                           128 142 
 YOP  SN ES   1   1647  0.63                             142     0.0 7  128 142 
 GRA  SZ IP       1646 43.26                             132    -0.1 9  183  12 
 GRA  SZ ES   1   1647  8.63                             132    -0.3 7  183  12 
 GRA  SZ I        1647 10.87        33.8 0.47                           183  12 
 CHI  HZ EP       1646 44.87                             130     0.2 9  192 200 
 CHI  HZ I        1646 45.27        28.3 0.18                           192 200 
 CHI  HN ES   1   1647 11.56                             130     0.5 7  192 200 
 NOR  SZ EP   2   1646 46.62                             128     1.1 4  207 248 
 NOR  SN ES   1   1647 12.18                             128    -0.5 6  207 248 
 OCA  SZ EP       1646 46.46                             126    -0.4 8  219 355 
 OCA  SZ ES   1   1647 15.14                             126     0.1 6  219 355 
 OCA  SZ I        1647 19.19        36.6 0.32                           219 355 
 HEL  HZ EP       1646 52.59                             121     0.8 8  265 268 
 HEL  HN ES   1   1647 23.49                             121    -0.3 6  265 268 
 HEL  HZ I        1647 30.42        18.9 0.28                           265 268 
 PRA  HZ EP       1646 59.30                             114    -0.4 7  342 215 
 PRA  HN ES   1   1647 37.43                             114    -0.6 5  342 215 
 SJA  SZ EP       1646 59.80                             114    -0.1 7  343 195 
 SJA  SZ ES   2   1647 37.77                             114    -0.5 3  343 195 
 SJA  SZ I        1647 39.24        29.3 0.14                           343 195 
                                                                                
