 2017  210 1810 35.9 L   6.795 -73.204137.6  RSN  8 0.5 1.4LRSN                1
 GAP=130        0.99       4.0     4.5  6.4  0.4081E+01  0.1052E+02  0.6660E+01E
 Epicentro: ZAPATOCA - SANTANDER                                               3
 ACTION:UPD 17-05-24 15:34 OP:jn   STATUS:               ID:20170210181035 L   I
 OLDACT:UP  17-02-11 00:41 OP:and  STATUS:               ID:20170210180740     3
 OLDACT:UP  17-02-11 00:41 OP:and  STATUS:               ID:20170210180740     3
 OLDACT:REG 17-02-10 21:40 OP:and  STATUS:               ID:20170210180740     3
 2017-02-10-1808-00M.COL___363                                                 6
 STAT SP IPHASW D HRMM SECON CODA AMPLIT PERI AZIMU VELO AIN AR TRES W  DIS CAZ7
 BAR2 EZ ES       1811  9.14                             170    0.0910 22.6 174 
 BAR2 EZ I        1811  9.92         6.5 0.14            171           22.6 174 
 BRR  HZ EP       1810 56.10                             153    0.2510 65.9 302 
 BRR  HN ES       1811 11.91                             153    0.4810 65.9 302 
 PAM  EZ EP   2   1810 57.89                             147    0.36 5 82.0  43 
 PAM  EZ ES       1811 14.37                             147   -0.0510 82.0  43 
 PAM  EZ I        1811 17.51         3.3 0.75            149           82.0  43 
 RUS  HZ EP       1810 58.84                             142   -0.0110  101 172 
 RUS  HN ES       1811 16.10                             142   -0.6610  101 172 
 RUS  HZ I        1811 19.49         3.0 0.18            144            101 172 
 PTB  HZ EP       1811  1.24                             131   -0.36 9  141 259 
 PTB  HN ES       1811 21.07                             131   -0.60 9  141 259 
 PTB  HZ I        1811 22.23         2.9 0.16            132            141 259 
 ZAR  HZ EP       1811  6.96                             121   -0.25 9  198 293 
 ZAR  HN ES       1811 31.82                             121    0.17 9  198 293 
 ZAR  HZ I        1811 38.16         5.8 0.26            122            198 293 
 NOR  HZ EP   2   1811 10.69                             117    0.14 4  229 234 
 NOR  HN ES   3   1811 38.95                             117    1.36 2  229 234 
 NOR  HZ I        1811 41.07         2.0 0.14            118            229 234 
 CHI  HZ EP       1811 12.92                             115    0.01 8  247 194 
 CHI  HN ES       1811 42.78                             115    1.00 8  247 194 
                                                                                
