 2011 1010 1648  4.0 L   6.757 -73.105144.3  RSN  8 0.4 2.4LRSN                1
 GAP=144        0.77       3.9     4.7  5.7 -0.1019E+01  0.8928E+01 -0.2511E+00E
 Epicentro: LOS SANTOS - SANTANDER                                             3
 ACTION:UPD 12-07-13 16:03 OP:ep   STATUS:               ID:20111010164804 L   I
 2011-10-10-1645-29S.COL___168                                                 6
 STAT SP IPHASW D HRMM SECON CODA AMPLIT PERI AZIMU VELO AIN AR TRES W  DIS CAZ7
 BAR2 SZ IP       1648 23.15                             172   -0.2010 20.1 205 
 BAR2 SZ ES   1   1648 38.06                             172   -0.42 7 20.1 205 
 BAR2 SZ I        1648 39.18        54.4 0.30                          20.1 205 
 BRR  HZ EP       1648 25.37                             150    0.0510 77.4 300 
 BRR  HZ I        1648 26.72        46.6 0.10                          77.4 300 
 BRR  HN ES   1   1648 42.65                             150    0.68 7 77.4 300 
 PAM  SZ EP       1648 26.29                             150    0.2110 78.5  35 
 PAM  SN ES   1   1648 43.49                             150    0.15 7 78.5  35 
 RUS  HZ EP       1648 26.92                             145   -0.2910 95.6 179 
 RUS  HN ES   1   1648 45.47                             145    0.12 7 95.6 179 
 OCA  SZ EP       1648 32.62                             128   -0.04 9  166 352 
 OCA  SZ ES   3   1648 53.84                             128   -1.21 2  166 352 
 OCA  SZ I        1648 59.15        25.0 0.30                           166 352 
 ZAR  HZ EP   2   1648 36.25                             121   -0.68 4  210 293 
 ZAR  HE ES   1   1649  1.88                             121   -0.77 6  210 293 
 ZAR  HZ I        1649  7.77        26.7 0.34                           210 293 
 HEL  HZ EP       1648 45.06                             114    0.60 7  275 257 
 HEL  HZ I        1649 22.17        11.6 0.54                           275 257 
 GUY  SZ EP       1648 48.04                             112    0.16 7  305 236 
 GUY  SN ES   2   1649 22.51                             112    0.37 4  305 236 
 GUY  SZ I        1649 28.28        17.0 0.58                           305 236 
                                                                                
