 2010 1010 1843 47.7 L   6.825 -73.129157.5  RSN  8 0.6 2.5LRSN                1
 GAP=176        1.44      10.0    15.3 15.8 -0.1061E+03 -0.1116E+03  0.7391E+02E
 Epicentro: LOS SANTOS - SANTANDER                                             3
 ACTION:UP  11-02-18 11:08 OP:tino STATUS:               ID:20101010184347 L   I
 2010-10-10-1839-34S.COL___121                                                 6
 STAT SP IPHASW D HRMM SECON CODA AMPLIT PERI AZIMU VELO SNR AR TRES W  DIS CAZ7
 BAR2 SZ EP       1844  8.46                             171    -0.310   27 193 
 BAR2 SZ I        1844 25.17        36.3 0.28                            27 193 
 BRR  HZ IP     C 1844 10.32                             154     0.210   72 296 
 BRR  HZ I        1844 10.64        98.2 0.43                            72 296 
 BRR  HN ES       1844 28.12                             154     0.510   72 296 
 GUE  SZ EP       1844 13.49                             142     0.310  113  11 
 GRA  SZ EP       1844 14.16                             140     0.410  123  17 
 GRA  SZ ES   1   1844 32.97                             140    -1.1 7  123  17 
 GRA  SZ I        1844 34.80        29.2 1.09                           123  17 
 OCA  SZ EP       1844 16.29                             132    -0.4 9  158 352 
 OCA  SZ ES   1   1844 39.79                             132     0.5 7  158 352 
 OCA  SZ I        1844 44.56        36.2 0.15                           158 352 
 NOR  SZ EP   1   1844 24.41                             121     0.0 6  238 234 
 NOR  SN ES   1   1844 51.65                             121    -1.5 6  238 234 
 CHI  HZ I        1844 28.46         6.4 0.62                           252 195 
 CHI  HN ES   2   1844 56.80                             119     0.2 4  252 195 
 PRA  HZ I        1844 44.32        25.6 0.39                           395 210 
 PRA  HN ES   2   1845 25.10                             108     0.7 3  395 210 
                                                                                
