 2011  710 1937 29.7 L   6.729 -73.451128.5  RSN  4 0.2 1.3LRSN                1
 GAP=169        0.39       7.2    11.9  5.9  0.6993E+02 -0.2290E+02 -0.6146E+01E
 Epicentro: EL CARMEN DE CHUCURI - SANTANDER                                   3
 ACTION:UPD 12-07-25 13:59 OP:epov STATUS:               ID:20110710193729 L   I
 2011-07-10-1935-46S.COL___139                                                 6
 STAT SP IPHASW D HRMM SECON CODA AMPLIT PERI AZIMU VELO AIN AR TRES W  DIS CAZ7
 BTL  SZ EP       1937 47.30                             167   -0.1610 29.1  44 
 BAR2 SZ EP       1937 47.74                             165    0.1610 33.3 117 
 BAR2 SZ ES   2   1938  1.56                             165    0.06 5 33.3 117 
 BAR2 SZ I        1938  2.10         7.7 0.33                          33.3 117 
 BRR  HZ EP   2   1937 48.22                             157    0.29 5 50.8 325 
 BRR  HN ES   1   1938  2.06                             157   -0.05 7 50.8 325 
 BRR  HZ I        1938  3.01         9.3 0.24                          50.8 325 
 RUS  HZ EP   2   1937 51.68                             140   -0.20 5  101 156 
 RUS  HN ES   2   1938  9.11                             140   -0.03 5  101 156 
 RUS  HZ I        1938 11.69         1.7 0.37                           101 156 
                                                                                
