 2013  710 1950 17.2 L   6.818 -73.171141.1  RSN 14 0.5 2.5LRSN                1
 GAP=117        1.30       4.0     4.9  6.7 -0.1107E+01  0.6381E+01  0.3453E+01E
 Epicentro: LOS SANTOS - SANTANDER                                             3
 ACTION:UPD 13-08-12 10:36 OP:ep   STATUS:               ID:20130710195016 L   I
 OLDACT:UP  13-07-15 10:00 OP:ep   STATUS:               ID:20130710195016 L   3
 OLDACT:UP  13-07-14 23:04 OP:Juan STATUS:               ID:20130710195016 L   3
 OLDACT:REG 13-07-10 15:56 OP:stll STATUS:               ID:20130710194841     3
 2013-07-10-1948-41M.COL___226                                                 6
 STAT SP IPHASW D HRMM SECON CODA AMPLIT PERI AZIMU VELO AIN AR TRES W  DIS CAZ7
 BAR2 SZ EP       1950 36.41                             169    0.0710 25.0 183 
 BAR2 SZ ES       1950 50.76                             169   -0.4810 25.0 183 
 BAR2 SZ I        1950 53.08        35.8 0.20            165           25.0 183 
 GIR2 SZ EP       1950 36.57                             168    0.2810 28.9 355 
 GIR2 SZ ES       1950 51.96                             168    0.8110 28.9 355 
 BRR  HZ EP       1950 38.26                             153    0.5710 67.8 298 
 BRR  HN ES   4   1950 55.49                             153    1.85 0 67.8 298 
 BRR  HN I        1950 56.06       114.1 0.24            144           67.8 298 
 PAM  SZ EP       1950 39.09                             150    0.1210 77.6  42 
 RUS  HZ EP       1950 40.48                             142   -0.2210  103 175 
 RUS  HN ES       1950 59.10                             142    0.1010  103 175 
 RUS  HN I        1951  0.69        46.0 0.40            139            103 175 
 PTB  HZ EP       1950 43.06                             131   -0.56 9  145 258 
 PTB  HN ES       1951  3.90                             131   -0.29 9  145 258 
 PTB  HN I        1951  9.13        56.9 0.46            124            145 258 
 CAPV BZ EP       1950 44.27                             131    0.00 9  149  39 
 OCA  HN ES       1951  6.24                             129   -0.35 9  158 354 
 ZAR  HZ EP       1950 48.95                             122   -0.09 9  201 292 
 ZAR  HE ES       1951 12.74                             122   -1.10 9  201 292 
 ZAR  HE I        1951 22.28        59.0 0.44            116            201 292 
 AGZ  SZ EP       1950 50.64                             119   -0.68 8  222 159 
 NOR  HZ EP       1950 52.49                             118   -0.10 8  234 234 
 NOR  HN ES       1951 20.94                             118    0.78 8  234 234 
 NOR  HN I        1951 23.15        27.9 0.16            113            234 234 
 CHI  HZ EP       1950 54.47                             116   -0.35 8  250 194 
 CHI  HZ ES       1951 23.83                             116   -0.30 8  250 194 
 HEL  HZ EP       1950 58.30                             114    1.32 8  270 255 
 HEL  HN I        1951 34.88        13.9 0.22            110            270 255 
 GUY2CHZ EP       1951  1.09                             112    0.58 7  300 234 
 GUY2CHN ES   4   1951 36.21                             112    1.94 0  300 234 
                                                                                
