 2012  310 1656 49.0 L   6.765 -73.121149.3  RSN 10 0.4 2.3LRSN                1
 GAP=141        1.03       3.9     4.9  6.1 -0.1830E+01  0.7488E+01  0.1148E+01E
 ACTION:UP  12-03-31 23:18 OP:EP   STATUS:               ID:20120310165649 L   I
 2012-03-10-1650-00M.COL___193                                                 6
 STAT SP IPHASW D HRMM SECON CODA AMPLIT PERI AZIMU VELO SNR AR TRES W  DIS CAZ7
 BAR2 SZ EP       1657  9.13                             172     0.110   20 200 
 BAR2 SZ ES       1657 24.44                             172    -0.210   20 200 
 BAR2 SZ I        1657 25.51        53.1 0.37                            20 200 
 BRR  HZ EP       1657 11.11                             152     0.310   76 300 
 BRR  HZ I        1657 11.42        92.1 0.21                            76 300 
 BRR  HN ES       1657 28.64                             152     0.910   76 300 
 PAM  SZ EP       1657 11.94                             151     0.310   79  36 
 PAM  SN ES       1657 28.70                             151    -0.710   79  36 
 RUS  HZ EP       1657 12.57                             146    -0.210   97 178 
 RUS  HE ES       1657 31.46                             146     0.110   97 178 
 RUS  HZ I        1657 33.52        16.4 0.18                            97 178 
 PTB  HZ EP       1657 16.20                             132    -0.2 9  150 261 
 PTB  HE ES   1   1657 37.74                             132    -0.1 7  150 261 
 OCA  SZ EP       1657 18.10                             130     0.1 9  164 352 
 ZAR  HZ EP       1657 21.66                             123    -0.4 8  208 293 
 ZAR  HE ES   1   1657 47.23                             123    -0.7 6  208 293 
 ZAR  HZ I        1657 53.02        27.2 0.34                           208 293 
 NOR  SE ES   1   1657 52.71                             119    -0.3 6  235 236 
 CHI  HZ EP   1   1657 27.09                             118     0.5 6  246 196 
 CHI  HN ES   1   1657 55.98                             118     0.1 6  246 196 
 CHI  HZ I        1658  6.15         5.0 0.68                           246 196 
 PRA  HZ EP   1   1657 42.32                             107    -0.1 4  390 210 
 PRA  HN ES   1   1658 23.93                             107    -0.1 4  390 210 
                                                                                
