 2012  910 1028 14.7 L   6.783 -73.135145.4  RSN  7 0.4 1.5LRSN                1
 GAP=139        0.80       5.3     5.1  6.8  0.4845E+01  0.1297E+02  0.4493E+01E
 Epicentro: LOS SANTOS - SANTANDER                                             3
 ACTION:UPD 12-10-22 14:18 OP:ep   STATUS:               ID:20120910102815dL   I
 2012-09-10-1020-00M.COL___227                                                 6
 STAT SP IPHASW D HRMM SECON CODA AMPLIT PERI AZIMU VELO AIN AR TRES W  DIS CAZ7
 BAR2 SZ EP   1   1028 34.24                             171   -0.05 7 21.7 194 
 BAR2 SZ ES   1   1028 49.83                             171    0.29 7 21.7 194 
 BAR2 SZ I        1028 51.47        10.4 0.28                          21.7 194 
 GIR2 SZ EP   1   1028 34.45                             166    0.03 7 33.3 349 
 GIR2 SZ ES   1   1028 49.97                             166    0.19 7 33.3 349 
 BRR  HZ EP   1   1028 35.98                             152    0.02 7 73.1 299 
 BRR  HZ I        1028 36.58         6.1 0.10                          73.1 299 
 BRR  HN ES   1   1028 52.96                             152    0.46 7 73.1 299 
 PAM  SN ES   1   1028 53.64                             150   -0.65 7 78.1  38 
 PAM  SN I        1028 55.42         7.6 0.30                          78.1  38 
 RUS  HZ EP   1   1028 38.43                             144    0.12 7 98.6 177 
 RUS  HN ES   1   1028 56.78                             144    0.08 7 98.6 177 
 RUS  HZ I        1028 57.61         3.0 0.26                          98.6 177 
 PTB  HZ EP   1   1028 41.30                             132   -0.45 7  149 260 
 PTB  HN ES   1   1029  2.06                             132   -0.75 7  149 260 
 PTB  HN I        1029  7.65         5.1 0.18                           149 260 
 ZAR  HZ EP   1   1028 48.17                             122    0.82 6  206 293 
 ZAR  HE ES   1   1029 12.72                             122   -0.06 6  206 293 
 ZAR  HZ I        1029 15.26         2.6 0.28                           206 293 
                                                                                
