 2015 1210 1442 31.4 L   6.830 -73.161148.6  RSN 15 0.5 2.4LRSN                1
 GAP=133        1.04       2.8     4.3  5.1 -0.2121E+01  0.6335E+01  0.3471E+00E
 Epicentro: LOS SANTOS - SANTANDER                                             3
 ACTION:UPD 16-02-04 15:03 OP:cam  STATUS:               ID:20151210144231 L   I
 OLDACT:UP  15-12-10 23:54 OP:mh   STATUS:               ID:20151210143748     3
 OLDACT:UP  15-12-10 23:52 OP:mh   STATUS:               ID:20151210143748     3
 OLDACT:REG 15-12-10 22:02 OP:mh   STATUS:               ID:20151210143748     3
 2015-12-10-1437-48M.COL___331                                                 6
 STAT SP IPHASW D HRMM SECON CODA AMPLIT PERI AZIMU VELO AIN AR TRES W  DIS CAZ7
 BAR2 EZ EP   1   1442 51.52                             170    0.09 7 26.4 185 
 BAR2 EZ ES       1443  6.50                             170   -0.5610 26.4 185 
 BAR2 EZ I        1443  7.78        37.0 0.14            169           26.4 185 
 BRR  HZ EP   1   1442 53.27                             154    0.58 7 68.1 297 
 BRR  HN ES       1443 10.17                             154    0.8710 68.1 297 
 BRR  HZ I        1443 13.20        30.8 0.44            150           68.1 297 
 PAM  EZ EP   1   1442 54.63                             152    0.80 7 76.0  42 
 PAM  EN ES       1443 11.60                             152    0.2610 76.0  42 
 PAM  EZ I        1443 13.25        60.3 0.48            155           76.0  42 
 RUS  HZ EP       1442 55.52                             143   -0.1510  104 175 
 RUS  HN ES       1443 14.24                             143   -0.3710  104 175 
 RUS  HZ I        1443 14.98        24.9 0.32            146            104 175 
 PTB  HZ EP   1   1442 58.04                             133   -0.47 7  147 257 
 PTB  HN ES       1443 19.19                             133   -0.47 9  147 257 
 PTB  HZ I        1443 26.20        17.0 0.30            131            147 257 
 OCA  HZ EP       1442 59.07                             131   -0.53 9  157 354 
 OCA  HN ES   1   1443 21.63                             131    0.02 7  157 354 
 OCA  HZ I        1443 27.90        43.3 0.40            131            157 354 
 SPBC HZ EP       1443  0.24                             129   -0.02 9  165 218 
 SPBC HN ES       1443 22.24                             129   -0.53 9  165 218 
 SPBC HZ I        1443 24.52        44.1 0.28            130            165 218 
 ZAR  HZ EP   1   1443  3.40                             123   -0.34 6  201 291 
 ZAR  HN ES       1443 29.07                             123    0.10 9  201 291 
 ZAR  HZ I        1443 35.93        15.1 0.26            123            201 291 
 NOR  HZ EP       1443  7.49                             119    0.14 8  235 234 
 NOR  HN ES       1443 35.81                             119    0.41 8  235 234 
 NOR  HZ I        1443 37.82        18.4 0.16            119            235 234 
 SML  HZ EP       1443  7.33                             118   -0.45 8  240 335 
 SML  HN ES       1443 36.28                             118    0.12 8  240 335 
 SML  HZ I        1443 39.69        44.1 0.28            119            240 335 
 URE  HZ EP   4   1443 11.68                             114   -0.61 0  281 291 
 URE  HN ES   4   1443 46.24                             114    2.05 0  281 291 
 GUY2CHZ EP       1443 15.88                             113    0.68 7  302 234 
 GUY2CHN ES   4   1443 53.36                             113    4.00 0  302 234 
 GUY2CHZ I        1443 57.35         9.6 0.26                           302 234 
 ANIL HZ EP   4   1443 22.64                             109    1.19 0  359 224 
 ANIL HN ES   4   1444  3.33                             109    2.84 0  359 224 
 ANIL HZ I        1444  5.96        27.4 0.40            110            359 224 
 PRA  HZ EP       1443 25.36                             107    0.11 6  394 209 
 PRA  HN ES       1444  8.16                             107    0.90 6  394 209 
 PRA  HZ I        1444 15.82         7.2 0.42            108            394 209 
 ORTC HZ EP       1443 25.85                             107    0.24 6  397 216 
 ORTC HN ES       1444  8.15                             107    0.25 6  397 216 
 ORTC HZ I        1444 12.82         6.4 0.54            107            397 216 
 SJC  HZ EP       1443 25.76                             106   -0.86 6  406 327 
 SJC  HN ES   4   1444  6.14                             106   -3.55 0  406 327 
 SJC  HZ I        1444 14.18         2.7 0.18            107            406 327 
                                                                                
