 2017  110 1120  2.6 L   6.760 -73.188140.8  RSN  4 0.2 1.3LRSN                1
 GAP=140        0.53       4.3     3.2  5.0 -0.7802E-01  0.1470E+01 -0.8172E+01E
 Epicentro: LOS SANTOS - SANTANDER                                             3
 ACTION:UPD 17-05-22 15:57 OP:jn   STATUS:               ID:20170110112002 L   I
 OLDACT:DUP 17-01-10 23:58 OP:ar   STATUS:               ID:20170110111760d    3
 OLDACT:UP  17-01-10 23:57 OP:ar   STATUS:               ID:20170110111759     3
 OLDACT:UP  17-01-10 23:57 OP:ar   STATUS:               ID:20170110111759     3
 OLDACT:UP  17-01-10 23:55 OP:ar   STATUS:               ID:20170110111759     3
 OLDACT:REG 17-01-10 22:49 OP:ar   STATUS:               ID:20170110111759     3
 2017-01-10-1117-59S.COL___293                                                 6
 STAT SP IPHASW D HRMM SECON CODA AMPLIT PERI AZIMU VELO AIN AR TRES W  DIS CAZ7
 BAR2 HZ EP       1120 21.36                             172   -0.2010 18.5 178 
 BAR2 HZ ES       1120 36.34                             172    0.0110 18.5 178 
 BAR2 HZ I        1120 37.71         7.9 0.52            172           18.5 178 
 PAM  HZ EP     D 1120 24.79                             148    0.0810 83.8  40 
 RUS  HZ EP       1120 25.88                             144    0.2910 96.6 173 
 RUS  HN ES       1120 43.39                             144   -0.1210 96.6 173 
 RUS  HZ I        1120 44.96         1.6 0.34            145           96.6 173 
 PTB  HZ EP       1120 28.43                             132   -0.25 9  142 260 
 PTB  HN ES       1120 49.19                             132    0.17 9  142 260 
 PTB  HZ I        1120 51.37         2.7 0.14            133            142 260 
                                                                                
