 2010  510 1744 34.4 L   6.543 -73.411186.9  RSN  6 0.5 1.7LRSN                1
 GAP=179        0.91       9.9    24.5 13.4 -0.2701E+02 -0.8187E+02 -0.3067E+02E
 Epicentro: HATO - SANTANDER                                                   3
 ACTION:UP  10-08-24 10:04 OP:vdl  STATUS:               ID:20100510174434 L   I
 2010-05-10-1742-21S.COL___104                                                 6
 STAT SP IPHASW D HRMM SECON CODA AMPLIT PERI AZIMU VELO SNR AR TRES W  DIS CAZ7
 BAR2 SZ EP   1   1744 58.76                             172    -0.2 8   26  78 
 BRR  HZ I        1745  3.78        10.5 0.48                            71 332 
 BRR  HN ES   2   1745 19.92                             158    -0.2 5   71 332 
 RUS  HN ES   2   1745 22.46                             156     0.2 5   81 153 
 RUS  HZ I        1745 23.78         3.7 0.38                            81 153 
 BRI  SZ EP   1   1745  4.62                             140    -0.5 8  146  28 
 GUE  SZ EP       1745  6.38                             139     0.710  152  21 
 GUE  SZ ES   2   1745 30.67                             139     0.5 5  152  21 
 GRA  SZ EP   1   1745  5.92                             137    -0.4 7  163  24 
 GRA  SZ ES   2   1745 30.76                             137    -0.6 5  163  24 
                                                                                
