 2016  610 1505 52.7 L   6.820 -73.120145.8  RSN  7 0.3 1.9LRSN                1
 GAP=242        0.86       4.7     4.6  5.5  0.4749E-01  0.6681E+01  0.4480E+01E
 Epicentro: LOS SANTOS - SANTANDER                                             3
 ACTION:UPD 16-07-21 22:17 OP:rebc STATUS:               ID:20160610150552 L   I
 OLDACT:REG 16-06-10 20:48 OP:edw  STATUS:               ID:20160610145742     3
 2016-06-10-1457-42M.COL___343                                                 6
 STAT SP IPHASW D HRMM SECON CODA AMPLIT PERI AZIMU VELO AIN AR TRES W  DIS CAZ7
 BAR2 EZ EP     C 15 6 12.50                             169    0.0910 26.1 195 
 BAR2 EZ ES       15 6 28.19                             169    0.4210 26.1 195 
 BAR2 EZ I        15 6 30.25        17.1 0.22                          26.1 195 
 BRR  HZ EP       15 6 14.34                             152    0.3910 72.7 296 
 BRR  HN ES       15 6 30.42                             152   -0.1010 72.7 296 
 RUS  HZ EP       15 6 16.46                             143   -0.1610  103 178 
 RUS  HN ES       15 6 34.84                             143   -0.4310  103 178 
 RUS  HZ I        15 6 37.78         4.5 0.18                           103 178 
 PTB  HZ EP       15 6 19.41                             131   -0.56 9  151 258 
 PTB  HN ES       15 6 40.78                             131   -0.46 9  151 258 
 PTB  HZ I        15 6 45.77        13.8 0.22                           151 258 
 SPBC HZ EP       15 6 21.57                             128    0.03 9  167 219 
 SPBC HE ES       15 6 44.31                             128    0.27 9  167 219 
 SPBC HZ I        15 6 50.55        16.6 0.36                           167 219 
 NOR  HZ EP       15 6 28.57                             118   -0.26 8  238 234 
 NOR  HN ES       15 6 57.29                             118    0.29 8  238 234 
 NOR  HZ I        15 7  3.76         7.3 0.16                           238 234 
 CHI  HZ EP   4   15 6 42.80                             117   12.08 0  252 196 
 CHI  HN ES   4   15 7  0.23                             117   -0.15 0  252 196 
 GUY2CHZ EP       15 6 37.34                             112    0.62 7  305 235 
 GUY2CHN ES       15 7 11.19                             112    0.14 7  305 235 
 GUY2CHZ I        15 7 21.90         3.6 0.34                           305 235 
                                                                                
