 2017  910 1037 56.4 L   6.463 -73.846 28.6  RSN  4 0.2 0.8LRSN                1
 GAP=245        0.55       2.2     3.3  3.3  0.2888E+01  0.1339E+00  0.3663E+01E
 Epicentro: CIMITARRA - SANTANDER                                              3
 ACTION:UPD 17-10-05 19:10 OP:rebc STATUS:               ID:20170910103756 L   I
 OLDACT:REG 17-09-10 19:41 OP:lv   STATUS:               ID:20170910102743     3
 2017-09-10-1028-00M.COL___397                                                 6
 STAT SP IPHASW D HRMM SECON CODA AMPLIT PERI AZIMU VELO AIN AR TRES W  DIS CAZ7
 BRR  HZ EP       1038  8.31                             101   -0.2410 72.8  12 
 BRR  HN ES       1038 18.32                             101    0.3010 72.8  12 
 BRR  HZ I        1038 18.66         3.2 0.18            106           72.8  12 
 BAR2 EZ EP       1038  8.99                             101   -0.1010 74.8  79 
 BAR2 EZ ES       1038 18.99                             101   -0.0110 74.8  79 
 BAR2 EZ I        1038 20.23         1.9 0.27            105           74.8  79 
 RUS  HZ EP       1038 13.62                              61    0.2510  105 127 
 RUS  HN ES       1038 26.63                              61    0.0210  105 127 
 RUS  HZ I        1038 27.95         2.6 0.16             56            105 127 
 PAM  EZ EP       1038 19.86                              61   -0.27 9  160  53 
 PAM  EN ES       1038 38.66                              61    0.01 9  160  53 
 PAM  EZ I        1038 41.05         1.7 0.18             56            160  53 
                                                                                
