 2017 1110 1522 50.9 L   6.770 -73.178142.0  RSN  6 0.2 1.4LRSN                1
 GAP=141        0.52       2.8     2.9  6.2  0.4035E-01  0.7353E+01  0.6904E+01E
 Epicentro: LOS SANTOS - SANTANDER                                             3
 ACTION:UPD 17-12-12 19:54 OP:rebc STATUS:               ID:20171110152250 L   I
 OLDACT:DUP 17-11-11 00:31 OP:mg   STATUS:               ID:20171110151744d    3
 OLDACT:REG 17-11-10 21:29 OP:mg   STATUS:               ID:20171110151743     3
 2017-11-10-1518-00M.COL___441                                                 6
 STAT SP IPHASW D HRMM SECON CODA AMPLIT PERI AZIMU VELO AIN AR TRES W  DIS CAZ7
 BAR2 EZ EP       1523  9.95                             172   -0.1010 19.6 181 
 BAR2 EZ ES   2   1523 25.03                             172    0.08 5 19.6 181 
 BAR2 EZ I        1523 26.73         7.1 0.25            170           19.6 181 
 BRR  HZ EP       1523 12.04                             152    0.4310 69.8 302 
 PAM  EZ EP       1523 13.02                             148   -0.0410 82.2  40 
 PAM  EN ES       1523 30.21                             148   -0.1010 82.2  40 
 PAM  EZ I        1523 32.16         7.7 0.50            155           82.2  40 
 PTB  HZ EP       1523 17.29                             132    0.06 9  144 260 
 PTB  HN ES   2   1523 37.95                             132    0.22 5  144 260 
 PTB  HZ I        1523 42.79         1.3 0.16            133            144 260 
 ZAR  HE ES       1523 47.58                             122   -0.31 9  202 293 
 ZAR  HZ I        1523 52.65         2.1 0.13            124            202 293 
 CHI  HZ EP   1   1523 27.99                             117    0.01 6  244 195 
 CHI  HN ES       1523 56.74                             117   -0.13 8  244 195 
 CHI  HZ I        1524  1.00         1.6 0.41            120            244 195 
                                                                                
