 2012  310 1935 20.1 L   6.882 -73.076144.7  RSN  4 0.1 1.5LRSN                1
 GAP=141        0.43       3.1     3.8  4.6  0.3488E+00 -0.1337E+01  0.5113E+01E
 ACTION:UP  12-03-31 23:18 OP:EP   STATUS:               ID:20120310193520 L   I
 2012-03-10-1930-00M.COL___193                                                 6
 STAT SP IPHASW D HRMM SECON CODA AMPLIT PERI AZIMU VELO SNR AR TRES W  DIS CAZ7
 PAM  SZ EP   1   1935 41.75                             155     0.2 7   66  39 
 PAM  SE ES   1   1935 58.11                             155    -0.1 7   66  39 
 BRR  HZ EP       1935 41.26                             151     0.010   75 290 
 BRR  HE ES       1935 57.88                             151     0.010   75 290 
 BRR  HZ I        1936 10.15        16.5 0.16                            75 290 
 RUS  HZ EP   1   1935 44.14                             141    -0.2 7  109 180 
 RUS  HE ES   1   1936  3.44                             141     0.1 7  109 180 
 RUS  HZ I        1936  4.17         2.2 0.47                           109 180 
 CHI  HZ EP   1   1935 58.98                             116     0.1 6  259 196 
 CHI  HZ I        1936 34.00         1.9 0.53                           259 196 
                                                                                
