 2013  210 1934 45.8 L   6.800 -73.126149.3  RSN 10 0.3 2.1LRSN                1
 GAP=139        0.67       2.3     3.0  4.6 -0.7398E+00  0.2680E+01  0.2480E+01E
 Epicentro: LOS SANTOS - SANTANDER                                             3
 ACTION:UPD 13-03-12 09:32 OP:ep   STATUS:               ID:20130210193445 L   I
 2013-02-10-1930-00M.COL___241                                                 6
 STAT SP IPHASW D HRMM SECON CODA AMPLIT PERI AZIMU VELO AIN AR TRES W  DIS CAZ7
 BRR  HZ EP       1935  7.67                             152    0.1810 73.1 298 
 BRR  HN ES       1935 24.90                             152    0.5310 73.1 298 
 BRR  HN I        1935 28.44        54.5 0.22            150           73.1 298 
 PAM  SZ EP       1935  8.50                             152    0.1410 76.0  38 
 PAM  SE ES       1935 25.75                             152   -0.1810 76.0  38 
 PAM  SZ I        1935 28.19        10.5 0.20            158           76.0  38 
 RUS  HZ EP       1935  9.81                             145   -0.1410  100 177 
 RUS  HN ES   1   1935 28.42                             145   -0.32 7  100 177 
 RUS  HN I        1935 30.42        16.5 0.19            146            100 177 
 PTB  HZ EP   1   1935 12.72                             132   -0.58 7  150 259 
 PTB  HN ES   1   1935 33.94                             132   -0.78 7  150 259 
 PTB  HZ I        1935 41.20        16.3 0.31            132            150 259 
 OCA  HZ EP   1   1935 14.16                             130   -0.30 7  161 352 
 OCA  HN ES   1   1935 36.91                             130    0.13 7  161 352 
 OCA  HZ I        1935 41.40        17.6 0.21            134            161 352 
 ZAR  HE ES   1   1935 44.36                             123   -0.03 6  206 292 
 ZAR  HZ I        1935 50.28        13.1 0.49            124            206 292 
 NOR  HZ EP       1935 22.18                             119    0.20 8  236 235 
 NOR  HE ES   1   1935 50.30                             119    0.14 6  236 235 
 NOR  HZ I        1935 56.31        10.6 0.28            120            236 235 
 SML  HZ EP   1   1935 22.62                             118   -0.15 6  245 335 
 SML  HE ES   1   1935 51.50                             118   -0.07 6  245 335 
 CHI  HZ EP       1935 24.13                             118    0.32 8  249 196 
 CHI  HN ES       1935 53.55                             118    0.12 8  249 196 
 CHI  HZ I        1936  2.62         4.2 0.37            120            249 196 
 HEL  HZ EP   1   1935 26.67                             115    0.19 6  274 256 
 HEL  HN ES   1   1935 58.07                             115   -0.10 6  274 256 
 HEL  HZ I        1936  6.58         8.1 0.41            116            274 256 
                                                                                
