 2014  610 1151  1.9 L   6.802 -73.142144.0  RSN 21 0.4 2.5LRSN                1
 GAP= 71        0.94       2.2     3.1  4.9 -0.1241E+01  0.5327E+01  0.1079E+01E
 Epicentro: LOS SANTOS - SANTANDER                                             3
 ACTION:UPD 14-07-01 22:52 OP:nd   STATUS:               ID:20140610115101 L   I
 OLDACT:REG 14-06-10 20:13 OP:fm   STATUS:               ID:20140610114817     3
 2014-06-10-1148-17M.COL___256                                                 6
 STAT SP IPHASW D HRMM SECON CODA AMPLIT PERI AZIMU VELO AIN AR TRES W  DIS CAZ7
 BAR2 SZ IP     C 1151 21.43                             170    0.0810 23.6 191 
 BAR2 SZ ES   1   1151 36.42                             170   -0.08 7 23.6 191 
 BAR2 SZ I        1151 39.10       132.9 0.30            168           23.6 191 
 PAM  SZ IP     C 1151 24.18                             151    0.2510 77.0  39 
 PAM  SN ES       1151 41.34                             151    0.2510 77.0  39 
 PAM  SZ I        1151 43.56        37.6 0.22            156           77.0  39 
 RUS  HZ IP       1151 25.28                             143   -0.2310  101 176 
 RUS  HN ES       1151 44.04                             143    0.1310  101 176 
 RUS  HZ I        1151 45.20        28.6 0.42            145            101 176 
 PTB  HZ IP       1151 28.03                             131   -0.76 9  148 259 
 PTB  HE ES       1151 49.50                             131   -0.24 9  148 259 
 PTB  HZ I        1151 56.82        54.1 0.44            133            148 259 
 TAM  HZ EP   2   1151 29.48                             130    0.06 5  155 105 
 TAM  HN ES   2   1151 51.09                             130    0.21 5  155 105 
 TAM  HZ I        1151 57.50        21.8 0.38            135            155 105 
 OCA  HZ EP       1151 29.55                             129   -0.53 9  160 353 
 OCA  HN ES       1151 52.18                             129    0.13 9  160 353 
 OCA  HZ I        1151 56.63        35.9 0.30            133            160 353 
 SPBC HZ IP       1151 30.36                             129    0.04 9  164 219 
 SPBC HN ES       1151 51.98                             129   -0.50 9  164 219 
 SPBC HZ I        1151 58.03        54.2 0.40            130            164 219 
 ZAR  HZ EP       1151 34.09                             122   -0.20 9  204 292 
 ZAR  HN ES       1152  0.12                             122    0.59 9  204 292 
 ZAR  HZ I        1152  6.55        31.9 0.30            124            204 292 
 NOR  HZ EP       1151 37.28                             118   -0.32 8  235 234 
 NOR  HE ES       1152  4.96                             118   -0.47 8  235 234 
 NOR  HZ I        1152  9.25        27.7 0.18            120            235 234 
 SML  HZ EP       1151 37.75                             117   -0.70 8  244 335 
 SML  HE ES       1152  7.39                             117    0.44 8  244 335 
 CHI  HZ EP       1151 39.55                             117   -0.00 8  249 195 
 CHI  HN ES       1152  8.32                             117   -0.58 8  249 195 
 CHI  HZ I        1152 18.59        11.2 0.64            119            249 195 
 ROSC BZ EP       1151 40.89                             116    0.90 8  253 211 
 ROSC BN ES   4   1152 11.62                             116    1.94 0  253 211 
 ROSC BZ I        1152 17.14        34.3 0.50            118            253 211 
 HEL  HZ EP   1   1151 42.28                             114    0.18 6  273 256 
 HEL  HE ES       1152 13.94                             114    0.51 8  273 256 
 HEL  HZ I        1152 19.67        11.4 0.28            116            273 256 
 URE  HZ EP   2   1151 41.97                             113   -0.97 4  284 292 
 URE  HN ES   4   1152 13.59                             113   -1.35 0  284 292 
 GUY2CHZ EP       1151 45.79                             112    0.29 7  302 235 
 GUY2CHN ES   4   1152 22.25                             112    2.76 0  302 235 
 GUY2CHZ I        1152 28.23        23.7 0.76                           302 235 
 VIL  SZ EP   4   1151 44.36                             112   -0.93 0  304 192 
 VIL  SZ I    4   1152 34.14        16.2 0.32            114            304 192 
 RREF HZ EP   4   1151 49.48                             110    1.44 0  322 229 
 RREF HN ES   4   1152 26.75                             110    2.74 0  322 229 
 RREF HZ I        1152 34.29        17.9 0.32            112            322 229 
 CBOC HZ EP       1151 49.00                             109    0.18 7  334 252 
 CBOC HE ES       1152 25.11                             109   -0.29 7  334 252 
 CBOC HZ I        1152 30.60         4.4 0.26            111            334 252 
 TOL  SZ EP       1151 50.69                             109    0.53 7  344 225 
 TOL  SN ES       1152 28.55                             109    0.77 7  344 225 
 TOL  SZ I        1152 35.31        36.1 0.38            111            344 225 
 ANIL HZ EP   4   1151 53.11                             108    1.40 0  358 225 
 ANIL HN ES   4   1152 32.40                             108    1.86 0  358 225 
 PRA  HZ EP       1151 54.96                             106   -0.46 6  392 210 
 PRA  HN ES       1152 37.91                             106    0.75 6  392 210 
 PRA  HZ I        1152 43.21        15.5 0.36            108            392 210 
 ORTC HZ EP       1151 56.33                             106    0.50 6  396 216 
 ORTC HN ES       1152 38.33                             106    0.46 6  396 216 
 ORTC HZ I        1152 44.97        12.1 0.38            108            396 216 
 SJC  HZ EP   4   1151 55.62                             105   -1.82 0  409 327 
 SJC  HE ES   4   1152 35.96                             105   -4.78 0  409 327 
 SJC  HZ I        1152 47.37         4.0 0.28            108            409 327 
                                                                                
