 2010 1210 1830 41.1 L   6.780 -73.139140.7  RSN  4 0.2 1.7LRSN                1
 GAP=181        0.53       8.2    30.1  7.1 -0.2230E+03 -0.6836E+02  0.2415E+02E
 Epicentro: LOS SANTOS - SANTANDER                                             3
 ACTION:UP  11-01-14 15:24 OP:pat  STATUS:               ID:20101210183041 L   I
 2010-12-10-1828-51S.COL___132                                                 6
 STAT SP IPHASW D HRMM SECON CODA AMPLIT PERI AZIMU VELO SNR AR TRES W  DIS CAZ7
 BAR2 SZ EP       1830 59.92                             171    -0.210   21 193 
 BAR2 SZ ES   1   1831 15.14                             171     0.3 7   21 193 
 BAR2 SZ I        1831 15.98        10.6 0.37                            21 193 
 RUS  HZ EP       1831  4.20                             143     0.010   98 176 
 RUS  HZ I        1831 23.31         6.1 0.28                            98 176 
 GRA  SZ EP   2   1831  6.57                             135     0.5 5  128  17 
 GRA  SZ ES   1   1831 25.33                             135    -0.2 7  128  17 
 GRA  SZ I        1831 29.13        12.9 0.46                           128  17 
 CHI  HZ EP   2   1831 18.44                             116     0.1 4  247 195 
 CHI  HN ES   2   1831 47.05                             116    -0.3 4  247 195 
                                                                                
