 2013  110 1502 31.9 L   7.355 -73.210133.0  RSN  5 0.1 1.9LRSN                1
 GAP=260        0.41       3.8     2.9  3.7  0.7272E+01 -0.1834E+01 -0.2830E+01E
 Epicentro: RIONEGRO - SANTANDER                                               3
 ACTION:UPD 13-02-15 09:13 OP:ep   STATUS:               ID:20130110150231 L   I
 2013-01-10-1458-42M.COL___187                                                 6
 STAT SP IPHASW D HRMM SECON CODA AMPLIT PERI AZIMU VELO AIN AR TRES W  DIS CAZ7
 BRR  HZ EP       15 2 51.05                             154   -0.1310 61.8 244 
 BRR  HZ I        15 2 51.18        15.3 0.22            137           61.8 244 
 BRR  HN ES       15 3  6.20                             154    0.0110 61.8 244 
 BAR2 SZ EP       15 2 53.23                             146    0.3010 84.4 178 
 BAR2 SZ ES       15 3  9.23                             146   -0.0610 84.4 178 
 BAR2 SZ I        15 3 10.37        16.2 0.12            131           84.4 178 
 RUS  HZ EP       15 2 59.90                             126   -0.05 9  162 175 
 RUS  HN ES       15 3 21.70                             126   -0.09 9  162 175 
 RUS  HN I        15 3 30.00         3.1 0.38            116            162 175 
 PTB  HZ EP       15 2 59.42                             126   -0.12 9  165 237 
 PTB  HN ES       15 3 21.19                             126    0.13 9  165 237 
 PTB  HN I        15 3 28.33        10.4 0.32            115            165 237 
 ZAR  HN ES       15 3 24.24                             123   -0.02 9  183 275 
 ZAR  HN I        15 3 25.81        20.1 0.14            115            183 275 
                                                                                
