 2011  910 1426 27.6 L   6.776 -73.132145.5  RSN 10 0.4 2.4LRSN                1
 GAP=139        0.75       3.8     4.6  5.8 -0.2832E+01  0.7148E+01  0.2332E+01E
 Epicentro: LOS SANTOS - SANTANDER                                             3
 ACTION:UPD 12-07-13 15:56 OP:ep   STATUS:               ID:20110910142627 L   I
 2011-09-10-1420-00M.COL___171                                                 6
 STAT SP IPHASW D HRMM SECON CODA AMPLIT PERI AZIMU VELO AIN AR TRES W  DIS CAZ7
 BAR2 SZ EP       1426 47.30                             172    0.1210 21.0 195 
 BAR2 SZ ES   1   1427  2.47                             172    0.04 7 21.0 195 
 BAR2 SZ I        1427  3.99        63.2 0.16                          21.0 195 
 GIR2 SZ EP   1   1426 47.38                             166    0.03 7 34.2 349 
 BRR  HZ EP       1426 49.16                             152    0.2610 73.8 300 
 BRR  HZ I        1426 49.49        26.6 0.13                          73.8 300 
 BRR  HN ES   1   1427  5.86                             152    0.37 7 73.8 300 
 PAM  SZ EP   1   1426 50.09                             150    0.21 7 78.6  37 
 PAM  SN ES   2   1427  6.46                             150   -0.79 5 78.6  37 
 RUS  HZ EP   1   1426 51.21                             145    0.06 7 97.8 177 
 RUS  HN ES   1   1427  9.39                             145   -0.11 7 97.8 177 
 RUS  HZ I        1427 11.22        25.8 0.32                          97.8 177 
 ZAR  HN ES   1   1427 25.53                             122   -0.27 6  206 293 
 ZAR  HZ I        1427 31.16        15.9 0.21                           206 293 
 NOR  SZ EP   1   1427  2.49                             119   -0.81 6  234 235 
 NOR  SN ES   1   1427 30.15                             119   -0.99 6  234 235 
 RREF HZ EP   1   1427 14.31                             111    0.62 5  321 230 
 RREF HN ES   1   1427 50.21                             111    0.59 5  321 230 
 RREF HZ I        1427 54.46         8.2 0.26                           321 230 
 COD  HZ EP   1   1427 15.96                             109   -0.36 5  351 354 
 PRA  HZ EP   1   1427 20.65                             107   -0.30 4  390 210 
 PRA  HN ES   1   1428  2.93                             107    0.39 4  390 210 
 PRA  HZ I        1428  7.23        18.5 0.30                           390 210 
                                                                                
