 2010 1210 1511 55.9 L   6.779 -73.055138.7  RSN  6 0.2 1.8LRSN                1
 GAP=169        0.50       2.8    11.1  4.6 -0.8947E+01 -0.1257E+02 -0.2383E+01E
 Epicentro: LOS SANTOS - SANTANDER                                             3
 ACTION:UP  11-01-14 15:23 OP:pat  STATUS:               ID:20101210151155 L   I
 2010-12-10-1508-44S.COL___135                                                 6
 STAT SP IPHASW D HRMM SECON CODA AMPLIT PERI AZIMU VELO SNR AR TRES W  DIS CAZ7
 BAR2 SZ EP       1512 14.79                             169     0.110   25 214 
 BAR2 SZ ES   2   1512 28.79                             169    -0.6 5   25 214 
 BAR2 SZ I        1512 30.42        18.2 0.33                            25 214 
 BTL  SZ EP       1512 14.91                             168     0.110   28 303 
 BTL  SZ ES   1   1512 29.55                             168     0.0 7   28 303 
 GIR2 SZ EP       1512 14.89                             164     0.010   37 335 
 GIR2 SZ ES   2   1512 30.22                             164     0.5 5   37 335 
 RUS  HZ EP   1   1512 18.86                             143     0.1 7   98 182 
 RUS  HN ES   1   1512 36.50                             143    -0.1 7   98 182 
 RUS  HZ I        1512 38.14         3.5 0.22                            98 182 
 GRA  SZ EP       1512 20.54                             135     0.110  125  13 
 GRA  SZ ES   1   1512 39.63                             135     0.0 7  125  13 
 GRA  SZ I        1512 42.40        12.3 0.46                           125  13 
 OCA  SZ EP       1512 23.81                             127    -0.2 9  164 350 
 OCA  SZ I        1512 49.02         9.7 0.15                           164 350 
                                                                                
