 2017  210 1315 22.4 L   6.852 -73.141149.2  RSN 17 0.5 2.5LRSN                1
 GAP= 69        1.03       3.5     2.9  5.0  0.2323E+00  0.3995E+01  0.9015E+00E
 Epicentro: LOS SANTOS - SANTANDER                                             3
 ACTION:UPD 17-05-24 15:34 OP:jn   STATUS:               ID:20170210131522 L   I
 OLDACT:UP  17-02-10 23:13 OP:and  STATUS:               ID:20170210130743d    3
 OLDACT:UP  17-02-10 23:09 OP:and  STATUS:               ID:20170210130743d    3
 OLDACT:UP  17-02-10 23:06 OP:and  STATUS:               ID:20170210130743d    3
 OLDACT:DUP 17-02-10 23:04 OP:and  STATUS:               ID:20170210130743d    3
 OLDACT:REG 17-02-10 20:30 OP:and  STATUS:               ID:20170210130742     3
 2017-02-10-1308-00M.COL___358                                                 6
 STAT SP IPHASW D HRMM SECON CODA AMPLIT PERI AZIMU VELO AIN AR TRES W  DIS CAZ7
 BAR2 EZ IP     D 1315 42.52                             169   -0.0910 29.1 189 
 BAR2 EZ ES       1315 58.23                             169   -0.1110 29.1 189 
 BAR2 EZ I        1316  1.06       112.2 0.80            166           29.1 189 
 BRR  HZ IP     C 1315 44.25                             154    0.4110 69.1 294 
 BRR  HN ES       1316  1.24                             154    0.7010 69.1 294 
 BRR  HZ I        1316  5.13        46.1 0.20            148           69.1 294 
 PAM  EZ IP     D 1315 45.08                             153    0.3310 72.7  42 
 PAM  EN ES       1316  2.05                             153   -0.1010 72.7  42 
 PAM  EZ I        1316  4.24        66.1 0.48            152           72.7  42 
 RUS  HZ IP     C 1315 46.70                             143   -0.2410  106 177 
 RUS  HN ES       1316  5.64                             143   -0.4110  106 177 
 RUS  HZ I        1316  7.19        51.9 0.34            140            106 177 
 PTB  HZ EP     C 1315 49.07                             132   -0.77 9  149 257 
 PTB  HE ES       1316 11.06                             132   -0.15 9  149 257 
 PTB  HZ I        1316 12.92        68.8 0.28            127            149 257 
 TAM  HZ IP     D 1315 50.90                             131    0.41 9  156 107 
 TAM  HN ES       1316 12.33                             131   -0.04 9  156 107 
 TAM  HZ I        1316 13.17        16.4 0.40            130            156 107 
 ZAR  HZ EP       1315 55.21                             123    0.27 9  202 291 
 ZAR  HN ES       1316 20.70                             123    0.41 9  202 291 
 ZAR  HZ I        1316 25.58        41.2 0.41            119            202 291 
 CHI  HZ IP     D 1316  1.10                             117    0.15 8  254 195 
 CHI  HN ES       1316 30.66                             117   -0.32 8  254 195 
 CHI  HZ I        1316 39.51        14.2 0.40            114            254 195 
 ROSC BZ EP   3   1316  2.62                             117    1.30 2  258 210 
 ROSC BN ES   4   1316 34.12                             117    2.48 0  258 210 
 ROSC BZ I        1316 37.86        36.1 0.40            113            258 210 
 URE  HZ EP   4   1316  6.69                             114    3.19 0  282 291 
 URE  HZ I        1316 42.60        30.9 0.30            111            282 291 
 ELA  HZ EP   9   1316 12.61                             111    2.70 0  333 229 
 ELA  HE ES       1316 48.94                                   -0.70 7  333 229 
 ELA  HZ I        1316 58.60        15.1 0.42            108            333 229 
 CBOC HZ EP   2   1316 11.05                             110    1.29 3  336 251 
 CBOC HN ES       1316 47.01                             110    0.34 7  336 251 
 CBOC HZ I        1316 54.39         6.8 0.48            107            336 251 
 DBB  EZ EP     D 1316 10.76                             110    0.69 7  340 273 
 DBB  EN ES       1316 46.23                             110   -0.99 7  340 273 
 DBB  EZ I        1316 50.48        15.0 0.38            107            340 273 
 ORTC HZ EP       1316 16.62                             107   -0.44 6  400 216 
 ORTC HN ES   3   1317  1.09                             107    1.43 1  400 216 
 ORTC HZ I        1317  5.47        11.4 0.22            104            400 216 
 SJC  HZ IP     C 1316 16.63                             106   -0.95 6  405 326 
 SJC  HN ES   4   1316 57.51                             106   -3.08 0  405 326 
 SJC  HZ I        1317  1.64         5.7 0.48            104            405 326 
 PAL  HZ EP       1316 18.53                             106    0.41 6  409 238 
 PAL  HN ES       1317  1.46                             106   -0.08 6  409 238 
 PAL  HZ I        1317  2.81         7.6 0.22            104            409 238 
 CRJC HZ EP   4   1316 22.92                             104   -1.43 0  462   4 
 CRJC HN ES       1317 11.42                             104   -1.22 5  462   4 
                                                                                
