 2017 1110 1518  7.6 L   6.795 -73.147152.0  RSN  8 0.3 1.6LRSN                1
 GAP=151        0.73       4.4     3.5  6.7 -0.3506E+01  0.1447E+01  0.1096E+02E
 Epicentro: LOS SANTOS - SANTANDER                                             3
 ACTION:UPD 17-12-12 19:54 OP:rebc STATUS:               ID:20171110151807 L   I
 OLDACT:REG 17-11-10 21:27 OP:mg   STATUS:               ID:20171110150739     3
 2017-11-10-1508-00M.COL___441                                                 6
 STAT SP IPHASW D HRMM SECON CODA AMPLIT PERI AZIMU VELO AIN AR TRES W  DIS CAZ7
 BAR2 EZ EP       1518 27.69                             171   -0.2610 22.7 190 
 BAR2 EZ ES   2   1518 43.39                             171   -0.45 5 22.7 190 
 BAR2 EZ I        1518 45.12        10.4 0.24            169           22.7 190 
 BRR  HZ EP       1518 29.63                             153    0.2210 71.4 299 
 BRR  HN ES       1518 47.07                             153    0.6210 71.4 299 
 BRR  HZ I        1518 49.08        11.8 0.27            151           71.4 299 
 PAM  EZ EP       1518 30.58                             152    0.0910 77.9  39 
 PAM  EN ES       1518 48.13                             152   -0.2410 77.9  39 
 PAM  EZ I        1518 50.18         5.0 0.23            156           77.9  39 
 PTB  HZ EP   2   1518 34.57                             133   -0.47 5  148 259 
 PTB  HN ES       1518 56.08                             133   -0.38 9  148 259 
 PTB  HZ I        1519  1.64         4.8 0.28            132            148 259 
 ZAR  HZ EP   2   1518 40.86                             124    0.41 4  204 292 
 ZAR  HN ES       1519  5.90                             124   -0.19 9  204 292 
 ZAR  HZ I        1519 13.78         6.3 0.25            124            204 292 
 NOR  HZ EP   2   1518 43.78                             120    0.15 4  234 235 
 NOR  HN ES   1   1519 11.58                             120   -0.17 6  234 235 
 NOR  HZ I        1519 16.23         3.2 0.30            120            234 235 
 CHI  HZ EP   2   1518 45.68                             118    0.11 4  248 195 
 CHI  HN ES   1   1519 15.76                             118    0.56 6  248 195 
 CHI  HZ I        1519 19.29         1.2 0.16            119            248 195 
 GUY2CHN ES   4   1519 29.24                             113    3.60 0  301 235 
 GUY2CHZ I        1519 34.11         2.2 0.31                           301 235 
                                                                                
