 2016  510 1110 52.6 L   6.819 -73.139149.2  RSN  5 0.4 1.4LRSN                1
 GAP=202        0.92       6.5     9.3  8.0  0.4404E+02 -0.8300E+01 -0.1509E+02E
 Epicentro: LOS SANTOS - SANTANDER                                             3
 ACTION:UPD 16-08-18 17:44 OP:cam  STATUS:               ID:20160510111052 L   I
 OLDACT:UP  16-05-10 20:35 OP:ak   STATUS:               ID:20160510110744     3
 OLDACT:REG 16-05-10 19:16 OP:ak   STATUS:               ID:20160510110744     3
 2016-05-10-1107-44M.COL___284                                                 6
 STAT SP IPHASW D HRMM SECON CODA AMPLIT PERI AZIMU VELO AIN AR TRES W  DIS CAZ7
 BAR2 EZ EP       1111 12.59                             170   -0.1210 25.5 191 
 BAR2 EZ ES       1111 27.75                             170   -0.6210 25.5 191 
 BAR2 EZ I        1111 29.20         4.7 0.10            166           25.5 191 
 BRR  HZ EP   2   1111 14.61                             153    0.49 5 70.9 297 
 BRR  HN ES       1111 31.60                             153    0.7110 70.9 297 
 RUS  HZ EP       1111 17.09                             144    0.2410  103 177 
 RUS  HE ES       1111 35.82                             144    0.0710  103 177 
 RUS  HZ I        1111 36.32         3.5 0.32            142            103 177 
 ZAR  HZ EP   2   1111 25.18                             123   -0.10 4  204 292 
 ZAR  HN ES       1111 50.33                             123   -0.43 9  204 292 
 ZAR  HZ I        1111 57.31         1.2 0.22            120            204 292 
 SML  HZ EP   2   1111 29.07                             118   -0.20 4  242 335 
 SML  HE ES       1111 57.80                             118   -0.06 8  242 335 
 SML  HZ I        1112  0.80         4.8 0.26            117            242 335 
                                                                                
