 2013  310 1226 40.5 L   6.739 -73.199136.0  RSN  4 0.4 1.4LRSN                1
 GAP=226        0.68       7.5     6.4  9.2  0.2360E+02  0.1453E+02 -0.1431E+02E
 Epicentro: VILLANUEVA - SANTANDER                                             3
 ACTION:UPD 13-04-09 14:01 OP:ep   STATUS:               ID:20130310122640 L   I
 2013-03-10-1218-50M.COL___198                                                 6
 STAT SP IPHASW D HRMM SECON CODA AMPLIT PERI AZIMU VELO AIN AR TRES W  DIS CAZ7
 BAR2 SZ EP   2   1226 58.17                             173   -0.63 5 16.4 173 
 BAR2 SZ ES   2   1227 13.25                             173    0.16 5 16.4 173 
 BAR2 SZ I        1227 16.88         3.6 0.16            177           16.4 173 
 BRR  HZ EP   2   1227  1.49                             151    1.01 5 69.7 306 
 BRR  HE ES   2   1227 15.75                             151   -0.34 5 69.7 306 
 RUS  HZ ES       1227 20.30                             144    0.0410 94.5 172 
 PTB  HZ EP       1227  5.84                             131   -0.17 9  141 261 
 PTB  HN ES       1227 25.99                             131    0.06 9  141 261 
 PTB  HN I        1227 29.06         5.6 0.24            136            141 261 
                                                                                
