 2012 1210 1415  8.7 L   6.867 -73.407116.5  RSN  4 0.4 1.6LRSN                1
 GAP=153        1.14       7.7    13.3 11.9  0.3476E+02  0.1045E+03  0.3274E+02E
 Epicentro: SAN VICENTE DE CHUCURI - SANTANDER                                 3
 ACTION:UPD 13-01-04 14:26 OP:ep   STATUS:               ID:20121210141508 L   I
 2012-12-10-1410-00M.COL___242                                                 6
 STAT SP IPHASW D HRMM SECON CODA AMPLIT PERI AZIMU VELO AIN AR TRES W  DIS CAZ7
 GIR2 SZ EP       1415 25.15                             163    0.1710 33.2  45 
 GIR2 SZ I        1415 25.30         4.9 0.11                          33.2  45 
 GIR2 SZ ES       1415 37.07                             163   -0.6110 33.2  45 
 BAR2 SZ EP       1415 25.50                             160    0.1410 39.3 141 
 BAR2 SZ I        1415 25.70        22.3 0.12                          39.3 141 
 BAR2 SZ ES       1415 39.15                             160    0.8010 39.3 141 
 RUS  HZ EP       1415 30.87                             133    0.0410  114 162 
 RUS  HE ES       1415 47.58                             133   -0.5110  114 162 
 PTB  HZ EP       1415 30.85                             130   -0.0610  122 253 
                                                                                
