 2010  310 1737 30.8 L   6.813 -72.967145.8  RSN  9 0.4 2.3LRSN                1
 GAP=201        0.85       3.8     6.6  6.3 -0.1780E+01  0.1407E+01  0.7383E+01E
 Epicentro: CEPITA - SANTANDER                                                 3
 ACTION:UP  10-08-24 09:53 OP:vdl  STATUS:               ID:20100310173730 L   I
 2010-03-10-1735-23S.COL___091                                                 6
 STAT SP IPHASW D HRMM SECON CODA AMPLIT PERI AZIMU VELO SNR AR TRES W  DIS CAZ7
 BAR2 SZ EP       1737 51.00                             166     0.310   34 224 
 BAR2 SZ ES   1   1738  6.23                             166     0.0 7   34 224 
 BRR  HZ IP       1737 52.87                             147    -0.110   89 292 
 BRR  HZ I        1737 53.14        56.5 0.18                            89 292 
 BRR  HN ES       1738 10.07                             147    -0.210   89 292 
 RUS  BZ EP       1737 54.85                             143     0.210  103 187 
 RUS  BN ES   1   1738 13.01                             143    -0.3 7  103 187 
 RUS  BZ I        1738 14.93        22.6 0.43                           103 187 
 OCA  SZ EP   1   1737 59.50                             129     0.2 7  162 346 
 OCA  SZ ES   2   1738 21.35                             129    -0.2 5  162 346 
 CHI  HZ EP       1738  8.99                             116    -0.3 8  256 199 
 CHI  HN ES   1   1738 39.80                             116     0.5 6  256 199 
 CHI  HZ I        1738 41.91        10.1 0.50                           256 199 
 ROSC BN ES   1   1738 41.20                             115     0.3 6  265 215 
 ROSC BZ I        1738 46.93        18.6 0.63                           265 215 
 HEL  HE ES   2   1738 46.94                             113     0.7 4  292 257 
 HEL  HZ I        1738 48.90         5.9 0.51                           292 257 
 RREF BZ EP   1   1738 19.11                             110     0.4 5  338 231 
 RREF BE ES       1738 56.47                             110     0.3 7  338 231 
 RREF BZ I        1739  3.55        13.3 0.25                           338 231 
 PRA  HZ EP       1738 24.65                             106    -1.0 6  403 212 
 PRA  HN ES   1   1739  7.25                             106    -1.1 4  403 212 
                                                                                
