 2013  210 1125 14.8 L   6.493 -73.699112.1  RSN  4 0.3 1.3LRSN                1
 GAP=139        0.62       4.8     4.4  8.6  0.8304E+01 -0.4171E+01  0.3204E+01E
 Epicentro: SANTA HELENA DEL OPON - SANTANDER                                  3
 ACTION:UPD 13-03-12 09:32 OP:ep   STATUS:               ID:20130210112514 L   I
 2013-02-10-1120-00M.COL___241                                                 6
 STAT SP IPHASW D HRMM SECON CODA AMPLIT PERI AZIMU VELO AIN AR TRES W  DIS CAZ7
 BAR2 SZ EP   1   1125 31.35                             151   -0.61 7 58.2  79 
 BRR  HZ EP       1125 32.55                             146    0.3110 68.0 359 
 BRR  HE ES   1   1125 45.77                             146   -0.05 7 68.0 359 
 BRR  HZ I        1125 46.57         8.3 0.50            148           68.0 359 
 PTB  HZ EP   1   1125 33.46                             140    0.03 7 83.9 274 
 PTB  HN ES   1   1125 47.80                             140   -0.13 7 83.9 274 
 PTB  HZ I        1125 49.33         3.2 0.14            141           83.9 274 
 RUS  HZ EP   1   1125 35.01                             137    0.02 7 95.1 134 
 RUS  HE ES   1   1125 50.91                             137    0.20 7 95.1 134 
                                                                                
