 2011 1110 1240  1.6 L   6.756 -73.110143.9  RSN  5 0.3 1.6LRSN                1
 GAP=143        0.75       4.0     6.8  6.8  0.3564E+01 -0.5839E+01 -0.3463E+01E
 Epicentro: LOS SANTOS - SANTANDER                                             3
 ACTION:UPD 12-07-13 16:09 OP:ep   STATUS:               ID:20111110124001 L   I
 2011-11-10-1237-09S.COL___178                                                 6
 STAT SP IPHASW D HRMM SECON CODA AMPLIT PERI AZIMU VELO AIN AR TRES W  DIS CAZ7
 BAR2 SZ EP       1240 21.02                             172    0.1210 19.8 204 
 BAR2 SZ I        1240 21.17         6.5 0.16                          19.8 204 
 BAR2 SZ ES   1   1240 36.52                             172    0.54 7 19.8 204 
 BRR  HZ EP       1240 22.95                             150    0.1010 77.1 300 
 BRR  HE ES       1240 39.39                             150   -0.0710 77.1 300 
 BRR  HZ I        1240 45.30        11.2 0.22                          77.1 300 
 PAM  SZ EP   1   1240 23.97                             150    0.30 7 78.9  35 
 PAM  SN ES   1   1240 40.78                             150   -0.13 7 78.9  35 
 RUS  HZ EP   1   1240 25.05                             145    0.29 7 95.5 178 
 RUS  HN ES   1   1240 42.10                             145   -0.76 7 95.5 178 
 RUS  HZ I        1240 44.70         2.9 0.41                          95.5 178 
 OCA  SZ EP   1   1240 29.77                             128   -0.47 7  166 352 
 OCA  SZ ES   1   1240 52.46                             128   -0.15 7  166 352 
 OCA  SZ I        1240 52.72        10.7 0.64                           166 352 
                                                                                
