 2017  810 1222 43.6 L   6.829 -73.112148.3  RSN  7 0.4 1.7LRSN                1
 GAP=139        1.07       4.5     5.0  7.1 -0.2610E+01  0.1192E+02  0.7177E+00E
 Epicentro: LOS SANTOS - SANTANDER                                             3
 ACTION:UPD 17-09-04 20:18 OP:rebc STATUS:               ID:20170810122243 L   I
 OLDACT:UP  17-08-10 22:26 OP:dani STATUS:               ID:20170810121737     3
 OLDACT:REG 17-08-10 20:40 OP:dani STATUS:               ID:20170810121737     3
 2017-08-10-1218-00M.COL___408                                                 6
 STAT SP IPHASW D HRMM SECON CODA AMPLIT PERI AZIMU VELO AIN AR TRES W  DIS CAZ7
 BAR2 EZ EP       1223  3.58                             169   -0.0810 27.4 197 
 BAR2 EZ ES       1223 18.69                             169   -0.5910 27.4 197 
 BAR2 EZ I        1223 21.03        10.1 0.24            168           27.4 197 
 PAM  EZ EP     C 1223  6.17                             153    0.3210 72.5  39 
 PAM  EN ES       1223 23.08                             153   -0.0910 72.5  39 
 PAM  EZ I        1223 25.11         8.1 0.46            155           72.5  39 
 BRR  HZ EP       1223  5.24                             152    0.0710 73.1 295 
 BRR  HN ES       1223 22.29                             152    0.3310 73.1 295 
 BRR  HZ I        1223 22.76         8.6 0.17            151           73.1 295 
 RUS  HZ EP       1223  8.04                             143    0.1810  104 178 
 RUS  HN ES       1223 26.58                             143   -0.1710  104 178 
 RUS  HZ I        1223 28.36         5.0 0.32            144            104 178 
 SPBC HN ES       1223 36.61                             129    1.07 9  168 219 
 ZAR  HZ EP       1223 16.11                             123   -0.38 8  206 291 
 ZAR  HN ES       1223 42.19                             123    0.08 8  206 291 
 ZAR  HZ I        1223 46.93         6.7 0.38            123            206 291 
 NOR  HZ EP       1223 19.73                             118   -0.32 8  240 234 
 NOR  HE ES       1223 47.77                             118   -0.67 8  240 234 
 NOR  HZ I        1223 54.24         2.8 0.12            119            240 234 
                                                                                
