 2010  210 1427 16.4 R   7.445 -73.040129.5  RSN  9 0.6 2.4LRSN                1
 GAP=131        0.99       6.8     7.1  9.1 -0.3177E+02 -0.9542E+01  0.9352E+01E
 Epicentro: SURATA - SANTANDER                                                 3
 ACTION:UP  10-08-24 09:48 OP:vdl  STATUS:               ID:20100210142716 L   I
 2010-02-10-1425-57S.COL___094                                                 6
 STAT SP IPHASW D HRMM SECON CODA AMPLIT PERI AZIMU VELO SNR AR TRES W  DIS CAZ7
 GIR2 SZ EP   1   1427 35.23                             160     0.611   44 203 
 GIR2 SZ ES   2   1427 49.59                             160     0.8 7   44 203 
 OCA  SZ EP   1   1427 37.69                             142     0.111   93 341 
 OCA  SZ ES   2   1427 53.87                             142    -0.2 7   93 341 
 BAR2 SZ EP   1   1427 37.34                             141    -0.511   96 190 
 BAR2 SZ ES   2   1427 53.76                             141    -0.8 7   96 190 
 HEL  HZ EP   1   1427 59.06                             108    -0.9 8  308 243 
 HEL  HE ES   2   1428 33.31                             108    -0.7 5  308 243 
 HEL  HZ I        1428 38.92        10.3 0.31                           308 243 
 SDV  BZ EP       1428  0.79                             108     0.910  309  59 
 SDV  BZ ES       1428 33.09                             108    -0.810  309  59 
 CHI  HZ EP   1   1428  1.57                             108     0.1 7  321 194 
 CHI  HZ I        1428  2.82         6.7 0.76                           321 194 
 RREF BZ EP   1   1428  8.83                             104     0.1 6  380 222 
 RREF BE ES   2   1428 49.78                             104     0.2 4  380 222 
 RREF BZ I        1428 54.17        11.2 0.53                           380 222 
 TOL  SZ EP   1   1428 12.08                             103     0.8 6  405 219 
 TOL  SZ ES   2   1428 54.32                             103     0.2 4  405 219 
 PRA  HZ EP   1   1428 17.50                             101    -0.1 5  460 206 
 PRA  HE ES   2   1429  5.59                             101     0.3 3  460 206 
 PRA  HZ I        1429 12.36         9.4 0.62                           460 206 
                                                                                
