 2017 1010 1711  2.5 L   6.760 -73.139139.8  RSN  5 0.4 1.2LRSN                1
 GAP=139        0.95       4.6     5.1  7.9 -0.4393E+01  0.1811E+02 -0.2237E-01E
 Epicentro: LOS SANTOS - SANTANDER                                             3
 ACTION:UPD 17-11-07 19:30 OP:rebc STATUS:               ID:20171010171102 L   I
 OLDACT:REG 17-10-10 20:20 OP:lv   STATUS:               ID:20171010170208     3
 2017-10-10-1708-00M.COL___444                                                 6
 STAT SP IPHASW D HRMM SECON CODA AMPLIT PERI AZIMU VELO AIN AR TRES W  DIS CAZ7
 BAR2 EZ EP       1711 20.90                             172   -0.4010 19.1 194 
 BAR2 EZ ES       1711 36.27                             172    0.2810 19.1 194 
 BAR2 EZ I        1711 38.07         4.8 0.40            171           19.1 194 
 PAM  EZ EP       1711 24.34                             149    0.1010 80.5  37 
 PAM  EN ES       1711 41.42                             149    0.1910 80.5  37 
 PAM  EZ I        1711 43.97         2.7 0.68            152           80.5  37 
 RUS  HZ EP       1711 25.69                             144    0.3810 96.1 176 
 RUS  HE ES       1711 42.56                             144   -0.5610 96.1 176 
 RUS  HZ I        1711 45.44         1.7 0.24            145           96.1 176 
 ZAR  HE ES       1711 59.60                             121   -0.38 8  206 293 
 NOR  HZ EP       1711 37.45                             117   -0.19 8  233 235 
 NOR  HN ES       1712  5.70                             117    0.63 8  233 235 
 NOR  HZ I        1712  9.02         1.7 0.30            119            233 235 
                                                                                
