 2017  910 1023 40.5 L   6.548 -74.191 18.6  RSN  7 0.6 1.1LRSN                1
 GAP= 83        1.63       3.9     3.9  6.6 -0.1727E+01  0.1172E+02 -0.1732E+01E
 Epicentro: PUERTO PARRA - SANTANDER                                           3
 ACTION:UPD 17-10-05 19:10 OP:rebc STATUS:               ID:20170910102340 L   I
 OLDACT:DUP 17-09-10 20:11 OP:lv   STATUS:               ID:20170910101738d    3
 2017-09-10-1018-00M.COL___397                                                 6
 STAT SP IPHASW D HRMM SECON CODA AMPLIT PERI AZIMU VELO AIN AR TRES W  DIS CAZ7
 BRR  HZ EP       1023 54.02                             101    0.4310 81.4  41 
 BRR  HE ES       1024  3.72                             101   -0.1210 81.4  41 
 BRR  HZ I        1024  4.43         7.4 0.10            100           81.4  41 
 SPBC HN ES       1024  9.27                              99    0.3610 99.9 172 
 SPBC HZ I        1024 10.68         3.0 0.08             98           99.9 172 
 BAR2 EZ EP       1023 58.45                              98    0.0910  112  87 
 BAR2 EZ ES       1024 10.99                              98   -1.3410  112  87 
 BAR2 EZ I        1024 12.20         5.7 0.13             97            112  87 
 ZAR  HE ES       1024 15.72                              56   -0.3310  128 325 
 ZAR  HZ I        1024 18.67         1.7 0.10             96            128 325 
 RUS  HZ EP       1024  3.43                              56    0.58 9  142 121 
 RUS  HN ES       1024 19.81                              56   -0.50 9  142 121 
 RUS  HZ I        1024 22.16         2.1 0.19             56            142 121 
 HEL  HZ EP       1024  4.55                              56    0.50 9  153 255 
 HEL  HE ES       1024 21.53                              56   -0.93 9  153 255 
 PAM  EZ EP       1024  9.22                              56    0.85 9  187  62 
 PAM  EN ES       1024 30.78                              56    0.63 9  187  62 
 PAM  EZ I        1024 31.98         3.7 0.36             56            187  62 
                                                                                
