 2013 1210 1424 50.3 L   6.857 -73.123150.2  RSN 12 0.4 2.4LRSN                1
 GAP=136        1.06       3.7     4.4  5.9 -0.2101E+01  0.4826E+01  0.1638E-01E
 Epicentro: LOS SANTOS - SANTANDER                                             3
 ACTION:UPD 14-01-13 10:17 OP:ep   STATUS:               ID:20131210142450 L   I
 OLDACT:UP  13-12-10 15:28 OP:cam  STATUS:               ID:20131210142001d    3
 OLDACT:DUP 13-12-10 15:23 OP:cam  STATUS:               ID:20131210142001d    3
 OLDACT:REG 13-12-10 14:42 OP:cam  STATUS:               ID:20131210142000     3
 2013-12-10-1420-00M.COL___285                                                 6
 STAT SP IPHASW D HRMM SECON CODA AMPLIT PERI AZIMU VELO AIN AR TRES W  DIS CAZ7
 BAR2 SZ IP     C 1425 10.47                             168   -0.0910 30.0 193 
 BAR2 SZ ES       1425 25.65                             168   -0.7510 30.0 193 
 BAR2 SZ I        1425 27.50        40.8 0.34            170           30.0 193 
 BRR  HZ EP       1425 12.22                             153    0.3710 70.7 293 
 BRR  HE ES       1425 29.34                             153    0.6410 70.7 293 
 BRR  HZ I        1425 33.86        28.2 0.26            153           70.7 293 
 PAM  SZ EP       1425 13.31                             154    0.7310 71.0  41 
 PAM  SN ES       1425 30.21                             154    0.2110 71.0  41 
 PAM  SZ I        1425 32.20        96.1 0.50            155           71.0  41 
 RUS  HZ EP       1425 14.66                             143   -0.2210  107 178 
 RUS  HN ES   4   1425 33.14                             143   -0.95 0  107 178 
 RUS  HZ I        1425 35.01        35.0 0.30            147            107 178 
 PTB  HZ EP       1425 17.24                             132   -0.68 9  152 257 
 PTB  HN ES       1425 39.28                             132   -0.22 9  152 257 
 PTB  HZ I        1425 40.63        26.9 0.14            134            152 257 
 OCA  HZ EP       1425 18.38                             132    0.01 9  154 352 
 OCA  HN ES       1425 39.95                             132   -0.35 9  154 352 
 OCA  HZ I        1425 43.87        27.6 0.22            133            154 352 
 ZAR  HZ EP       1425 23.30                             123    0.31 9  204 290 
 ZAR  HN ES       1425 48.61                             123    0.08 9  204 290 
 ZAR  HZ I        1425 52.85        19.9 0.22            125            204 290 
 SML  HZ EP       1425 26.70                             119    0.06 8  239 334 
 SML  HN ES       1425 54.62                             119   -0.39 8  239 334 
 SML  HZ I        1425 57.62        46.8 0.30            120            239 334 
 NOR  HN ES       1425 55.82                             119    0.42 8  240 234 
 CHI  HZ EP       1425 28.98                             117    0.06 8  255 195 
 HEL  HZ EP   2   1425 31.73                             115    0.60 4  276 255 
 GUY2CHZ EP   4   1425 36.28                             113    1.57 0  307 234 
 SJC  HZ EP       1425 44.63                             107   -0.88 6  405 326 
 SJC  HN ES   4   1426 25.80                             107   -2.81 0  405 326 
 SJC  HZ I        1426 30.28         5.0 0.32            108            405 326 
                                                                                
