 2016 1210 1201 21.5 L   6.776 -73.133143.3  RSN  5 0.2 1.8LRSN                1
 GAP=139        0.60       3.1     3.2  4.3  0.2291E+01  0.3317E+01 -0.6085E+00E
 Epicentro: LOS SANTOS - SANTANDER                                             3
 ACTION:UPD 17-01-11 20:13 OP:rebc STATUS:               ID:20161210120121 L   I
 OLDACT:REG 16-12-10 20:40 OP:dnl  STATUS:               ID:20161210115746     3
 2016-12-10-1158-00M.COL___361                                                 6
 STAT SP IPHASW D HRMM SECON CODA AMPLIT PERI AZIMU VELO AIN AR TRES W  DIS CAZ7
 BAR2 EZ IP     C 12 1 40.60                             171   -0.1910 21.1 195 
 BAR2 EZ ES       12 1 55.57                             171   -0.2610 21.1 195 
 BAR2 EZ I        12 1 56.62        10.9 0.40            172           21.1 195 
 BRR  HZ EP       12 1 42.61                             151    0.0910 73.7 300 
 BRR  HE ES       12 1 59.38                             151    0.4510 73.7 300 
 BRR  HZ I        12 2  1.77        14.7 0.36            150           73.7 300 
 PAM  EZ EP       12 1 43.59                             150    0.0710 78.5  38 
 PAM  EE ES       12 2  0.59                             150   -0.1110 78.5  38 
 PAM  EZ I        12 2  2.72        19.5 0.60            152           78.5  38 
 RUS  HZ EP       12 1 44.92                             144    0.1110 97.9 177 
 RUS  HE ES       12 2  3.05                             144    0.0610 97.9 177 
 RUS  HZ I        12 2  4.04         5.7 0.36            147           97.9 177 
 ZAR  HZ EP       12 1 54.07                             121    0.05 8  206 293 
 ZAR  HE ES       12 2 19.04                             121   -0.35 8  206 293 
 ZAR  HZ I        12 2 24.73         9.4 0.32            122            206 293 
                                                                                
