 2017 1110 1121 53.5 L   6.815 -73.123149.7  RSN 10 0.6 1.5LRSN                1
 GAP=156        0.76       4.1     4.3  6.6 -0.2708E+01  0.2832E+01  0.1546E+02E
 Epicentro: LOS SANTOS - SANTANDER                                             3
 ACTION:UPD 17-12-12 19:54 OP:rebc STATUS:               ID:20171110112153 L   I
 OLDACT:UP  17-11-10 23:04 OP:mg   STATUS:               ID:20171110111738     3
 OLDACT:UP  17-11-10 23:04 OP:mg   STATUS:               ID:20171110111738     3
 OLDACT:UP  17-11-10 23:04 OP:mg   STATUS:               ID:20171110111738     3
 OLDACT:REG 17-11-10 20:37 OP:mg   STATUS:               ID:20171110111738     3
 2017-11-10-1118-00M.COL___453                                                 6
 STAT SP IPHASW D HRMM SECON CODA AMPLIT PERI AZIMU VELO AIN AR TRES W  DIS CAZ7
 BAR2 EZ EP       1122 13.36                             170   -0.2810 25.5 195 
 BAR2 EZ ES   2   1122 28.98                             170   -0.37 5 25.5 195 
 BAR2 EZ I        1122 31.22         9.3 0.24            169           25.5 195 
 BRR  HZ EP       1122 15.10                             153   -0.0410 72.7 296 
 BRR  HN ES       1122 32.30                             153    0.2710 72.7 296 
 BRR  HZ I        1122 33.32         8.9 0.29            152           72.7 296 
 PAM  EZ EP       1122 16.29                             152    0.3410 74.5  39 
 PAM  EN ES       1122 33.43                             152   -0.0510 74.5  39 
 PAM  EZ I        1122 36.19         3.7 0.29            155           74.5  39 
 PTB  HZ EP   2   1122 20.16                             132   -0.87 5  151 258 
 PTB  HN ES   2   1122 42.07                             132   -0.44 5  151 258 
 PTB  HZ I        1122 42.29         2.6 0.14            132            151 258 
 SPBC HZ EP   1   1122 22.47                             129   -0.10 7  166 219 
 ZAR  HZ EP   2   1122 27.11                             123    0.74 4  206 291 
 ZAR  HE ES   1   1122 51.62                             123   -0.39 6  206 291 
 ZAR  HZ I        1122 58.57         2.1 0.27            123            206 291 
 NOR  HZ EP   2   1122 29.91                             119    0.14 4  238 234 
 NOR  HN ES   3   1122 59.80                             119    1.72 2  238 234 
 NOR  HZ I        1123  2.43         2.5 0.30            119            238 234 
 CHI  HZ EP       1122 31.39                             118   -0.27 8  251 196 
 CHI  HE ES       1123  1.57                             118    0.14 8  251 196 
 CHI  HZ I        1123  4.81         1.6 0.30            118            251 196 
 GUY2CHN ES   3   1123 15.94                             113    3.89 2  304 235 
 GUY2CHZ I        1123 19.48         1.6 0.48                           304 235 
 PRA  HZ EP   1   1122 47.62                             107    0.15 4  395 210 
 PRA  HE ES   1   1123 29.81                             107    0.24 4  395 210 
 PRA  HZ I        1123 33.49         1.6 0.30            108            395 210 
                                                                                
