 2017 1010 1921  2.8 L   6.760 -73.132136.0  RSN  8 0.3 1.9LRSN                1
 GAP=140        0.79       2.9     3.8  5.1 -0.1619E+01  0.8460E+01  0.1963E+01E
 Epicentro: LOS SANTOS - SANTANDER                                             3
 ACTION:UPD 17-11-07 19:30 OP:rebc STATUS:               ID:20171010192102 L   I
 OLDACT:REG 17-10-10 20:28 OP:lv   STATUS:               ID:20171010190944     3
 2017-10-10-1918-00M.COL___444                                                 6
 STAT SP IPHASW D HRMM SECON CODA AMPLIT PERI AZIMU VELO AIN AR TRES W  DIS CAZ7
 BAR2 EZ EP       1921 20.91                             171   -0.2410 19.3 197 
 BAR2 EZ ES       1921 35.21                             171   -0.2710 19.3 197 
 BAR2 EZ I        1921 36.96        24.4 0.16            171           19.3 197 
 PAM  EZ IP     C 1921 23.90                             148   -0.2210 80.0  37 
 PAM  EN ES       1921 40.73                             148   -0.0410 80.0  37 
 PAM  EZ I        1921 42.76        31.0 0.52            151           80.0  37 
 RUS  HZ EP       1921 25.40                             143    0.1610 96.1 177 
 RUS  HN ES       1921 43.35                             143    0.5910 96.1 177 
 RUS  HZ I        1921 45.06        14.7 0.38            144           96.1 177 
 ZAR  HZ EP       1921 35.63                             120    0.71 8  207 293 
 ZAR  HN ES       1921 59.98                             120   -0.02 8  207 293 
 ZAR  HZ I        1922  4.17         7.4 0.10            121            207 293 
 NOR  HZ EP       1921 37.53                             116   -0.27 8  233 236 
 NOR  HN ES       1922  5.10                             116   -0.03 8  233 236 
 NOR  HZ I        1922  6.46         5.2 0.14            118            233 236 
 CHI  HZ EP       1921 39.29                             115   -0.23 8  245 196 
 CHI  HN ES       1922  8.13                             115   -0.05 8  245 196 
 CHI  HZ I        1922 12.77         3.3 0.40            117            245 196 
 GUY2CHZ EP   9   1921 47.08                             110    1.29 0  300 236 
 GUY2CHN ES       1922 20.06                                   -0.58 7  300 236 
 GUY2CHZ I        1922 25.93         4.1 0.28                           300 236 
 PRA  HZ EP       1921 55.65                             105    0.05 6  389 210 
 PRA  HN ES       1922 36.46                             105   -0.35 6  389 210 
 SJC  HZ EP   4   1921 55.64                             104   -2.92 0  414 327 
 SJC  HN ES   4   1922 35.73                             104   -6.35 0  414 327 
                                                                                
