 2012  910 1209 36.1 L   6.791 -73.162140.3  RSN  8 0.4 2.1LRSN                1
 GAP=135        0.85       6.0     5.7  7.4  0.9926E+01  0.1574E+02  0.9531E+01E
 Epicentro: LOS SANTOS - SANTANDER                                             3
 ACTION:UPD 12-10-22 14:18 OP:ep   STATUS:               ID:20120910120936 L   I
 2012-09-10-1207-59S.COL___226                                                 6
 STAT SP IPHASW D HRMM SECON CODA AMPLIT PERI AZIMU VELO AIN AR TRES W  DIS CAZ7
 BAR2 SZ EP   1   12 9 54.94                             171   -0.09 7 22.1 186 
 BAR2 SZ ES   1   1210  9.66                             171   -0.14 7 22.1 186 
 BAR2 SZ I        1210 10.49        39.4 0.32                          22.1 186 
 GIR2 SZ EP   1   12 9 54.97                             166   -0.15 7 32.0 354 
 GIR2 SZ ES   1   1210  9.73                             166   -0.24 7 32.0 354 
 BRR  HZ EP   1   12 9 56.82                             152    0.25 7 70.1 300 
 BRR  HZ I        12 9 57.25        43.4 0.10                          70.1 300 
 BRR  HE ES   1   1210 13.26                             152    0.70 7 70.1 300 
 PAM  SN ES   2   1210 14.29                             149   -0.50 5 79.2  40 
 RUS  HZ EP   1   12 9 59.63                             143    0.40 7 99.8 175 
 RUS  HN ES   1   1210 17.57                             143    0.27 7 99.8 175 
 PTB  HZ EP   1   1210  1.65                             131   -0.78 7  146 259 
 PTB  HN ES   1   1210 22.26                             131   -0.72 7  146 259 
 PTB  HN I        1210 25.36        15.4 0.20                           146 259 
 ZAR  HN ES   1   1210 33.44                             121    0.47 6  203 293 
 ZAR  HZ I        1210 39.56        10.6 0.26                           203 293 
 HEL  HZ EP   1   1210 16.12                             114    0.32 6  270 256 
 HEL  HZ I        1210 55.62         4.2 0.24                           270 256 
                                                                                
