 2014  210 1407  4.3 L   6.786 -73.143144.0  RSN  5 0.2 1.6LRSN                1
 GAP=138        0.62       3.4     3.3  5.2  0.1541E+01  0.8123E+01 -0.5142E+00E
 Epicentro: LOS SANTOS - SANTANDER                                             3
 ACTION:UPD 14-03-10 08:09 OP:ep   STATUS:               ID:20140210140704 L   I
 OLDACT:REG 14-02-10 15:57 OP:carl STATUS:               ID:20140210140000     3
 2014-02-10-1400-00M.COL___291                                                 6
 STAT SP IPHASW D HRMM SECON CODA AMPLIT PERI AZIMU VELO AIN AR TRES W  DIS CAZ7
 BAR2 SZ EP       14 7 23.89                             171    0.2210 21.8 191 
 BAR2 SZ ES       14 7 38.64                             171   -0.1610 21.8 191 
 BAR2 SZ I        14 7 41.35        11.4 0.70            171           21.8 191 
 PAM  SN ES       14 7 43.51                             150   -0.0910 78.4  39 
 RUS  HZ EP       14 7 27.82                             144    0.0710 99.0 176 
 RUS  HN ES       14 7 46.24                             144    0.1910 99.0 176 
 RUS  HZ I        14 7 47.34         2.6 0.22            148           99.0 176 
 PTB  HZ EP       14 7 30.73                             132   -0.38 9  148 259 
 PTB  HN ES       14 7 51.83                             132   -0.20 9  148 259 
 PTB  HZ I        14 7 53.71         4.0 0.14            132            148 259 
 ZAR  HZ EP       14 7 36.61                             122   -0.09 9  205 293 
 ZAR  HN ES       14 8  2.45                             122    0.46 9  205 293 
 ZAR  HZ I        14 8 10.87         5.7 0.36            123            205 293 
                                                                                
