 2017 1110 1704 51.0 L   6.778 -73.147146.7  RSN  7 0.4 1.5LRSN                1
 GAP=152        0.92       5.0     4.6  8.2 -0.5054E+01 -0.6633E+00  0.2051E+02E
 Epicentro: LOS SANTOS - SANTANDER                                             3
 ACTION:UPD 17-12-12 19:54 OP:rebc STATUS:               ID:20171110170451 L   I
 OLDACT:REG 17-11-10 21:44 OP:mg   STATUS:               ID:20171110165159     3
 2017-11-10-1658-00M.COL___450                                                 6
 STAT SP IPHASW D HRMM SECON CODA AMPLIT PERI AZIMU VELO AIN AR TRES W  DIS CAZ7
 BAR2 EZ EP       17 5 10.63                             171   -0.0510 20.9 191 
 BAR2 EZ ES   2   17 5 25.86                             171   -0.19 5 20.9 191 
 BAR2 EZ I        17 5 27.32        13.3 0.16            168           20.9 191 
 BRR  HZ EP       17 5 12.28                             153   -0.0210 72.3 300 
 BRR  HE ES       17 5 29.68                             153    0.7610 72.3 300 
 BRR  HZ I        17 5 32.66        10.5 0.31            149           72.3 300 
 PAM  EZ EP       17 5 13.42                             151   -0.0010 79.4  39 
 PAM  EN ES       17 5 30.60                             151   -0.3210 79.4  39 
 PAM  EZ I        17 5 33.15         3.4 0.21            155           79.4  39 
 PTB  HZ EP   2   17 5 17.81                             132   -0.17 5  147 260 
 PTB  HN ES       17 5 38.21                             132   -0.82 9  147 260 
 PTB  HZ I        17 5 45.83         3.3 0.26            131            147 260 
 ZAR  HZ EP   2   17 5 23.61                             123    0.04 4  205 293 
 ZAR  HN ES   1   17 5 49.31                             123    0.32 6  205 293 
 ZAR  HZ I        17 5 57.77         2.8 0.16            122            205 293 
 NOR  HZ EP   2   17 5 26.54                             119   -0.07 4  233 235 
 NOR  HN ES   2   17 5 53.81                             119   -0.58 4  233 235 
 NOR  HZ I        17 6  0.33         1.9 0.18            119            233 235 
 CHI  HZ EP       17 5 28.53                             118    0.05 8  246 195 
 CHI  HN ES       17 5 58.30                             118    0.58 8  246 195 
 CHI  HZ I        17 6  1.99         1.6 0.30            119            246 195 
                                                                                
