 2014 1010 1932 50.6 L   6.722 -73.175142.7  RSN  6 0.5 1.9LRSN                1
 GAP= 92        1.25       6.5     5.6  8.4 -0.1851E+01 -0.3439E+01  0.3799E+01E
 Epicentro: VILLANUEVA - SANTANDER                                             3
 ACTION:UPD 14-11-29 23:48 OP:nd   STATUS:               ID:20141010193250 L   I
 OLDACT:REG 14-10-10 21:48 OP:stll STATUS:               ID:20141010192745     3
 2014-10-10-1927-45M.COL___295                                                 6
 STAT SP IPHASW D HRMM SECON CODA AMPLIT PERI AZIMU VELO AIN AR TRES W  DIS CAZ7
 BAR2 SZ EP       1933  9.84                             174    0.1710 14.4 183 
 BAR2 SZ ES       1933 25.00                             174    0.4210 14.4 183 
 BAR2 SZ I        1933 25.87        24.6 0.28            172           14.4 183 
 BRR  HZ EP       1933 12.13                             151    0.6510 73.0 306 
 BRR  HE ES       1933 28.39                             151    0.5910 73.0 306 
 PAM  SZ EP       1933 13.02                             147    0.0210 86.1  38 
 PAM  SZ I        1933 13.26        13.2 0.28            149           86.1  38 
 PAM  SN ES       1933 29.68                             147   -0.8310 86.1  38 
 RUS  HZ EP       1933 13.60                             146    0.1810 92.3 174 
 RUS  HN ES       1933 31.07                             146   -0.1810 92.3 174 
 RUS  HZ I        1933 33.50         6.7 0.36            145           92.3 174 
 PTB  HZ EP       1933 16.50                             132   -0.35 9  143 262 
 PTB  HN ES       1933 36.56                             132   -0.80 9  143 262 
 PTB  HZ I        1933 38.57         7.7 0.50            133            143 262 
 TAM  HZ EP       1933 18.10                             130   -0.00 9  156 102 
 TAM  HZ I        1933 18.64        18.3 0.42            130            156 102 
                                                                                
