 2010  510 1820 24.1 L   6.797 -73.054142.5  RSN  4 0.3 1.8LRSN                1
 GAP=247        0.61       7.1    16.2  9.6  0.2501E+02  0.6921E+02  0.1023E+02E
 Epicentro: LOS SANTOS - SANTANDER                                             3
 ACTION:UP  10-08-24 10:04 OP:vdl  STATUS:               ID:20100510182024 L   I
 2010-05-10-1816-56S.COL___104                                                 6
 STAT SP IPHASW D HRMM SECON CODA AMPLIT PERI AZIMU VELO SNR AR TRES W  DIS CAZ7
 BAR2 SZ EP   1   1820 43.21                             169    -0.2 7   27 212 
 BAR2 SZ ES   2   1820 57.89                             169    -0.5 5   27 212 
 BRR  HZ EP   1   1820 45.72                             149     0.3 7   80 295 
 BRR  HZ I        1821  2.36        35.7 0.08                            80 295 
 RUS  HZ EP   1   1820 47.43                             144     0.0 7  100 182 
 RUS  HN ES   2   1821  6.18                             144     0.5 5  100 182 
 RUS  HZ I        1821  7.03         4.7 0.23                           100 182 
 PRA  HZ EP   1   1821 17.70                             106    -0.3 4  397 211 
 PRA  HN ES   2   1822  0.00                             106    -0.1 3  397 211 
 PRA  HZ I        1822  3.33         1.5 0.27                           397 211 
                                                                                
