 2012  410 1246 43.5 L   6.783 -73.167142.0  RSN  7 0.4 1.6LRSN                1
 GAP=135        1.00       6.5     7.0  9.1  0.8463E+01  0.1829E+02  0.9564E+01E
 Epicentro: LOS SANTOS - SANTANDER                                             3
 ACTION:UPD 12-07-05 11:52 OP:tino STATUS:               ID:20120410124643 L   I
 2012-04-10-1239-38M.COL___178                                                 6
 STAT SP IPHASW D HRMM SECON CODA AMPLIT PERI AZIMU VELO AIN AR TRES W  DIS CAZ7
 BAR2 SZ EP   1   1247  2.70                             171     0.0 7   21 185 
 BAR2 SZ ES   1   1247 17.36                             171    -0.2 7   21 185 
 BAR2 SZ I        1247 19.18        10.6 0.17                            21 185 
 BRR  HZ EP   1   1247  4.42                             152     0.2 7   70 301 
 BRR  HN ES   1   1247 21.12                             152     0.8 7   70 301 
 BRR  HZ I        1247 24.31        15.4 0.39                            70 301 
 PAM  SZ EP   1   1247  5.59                             149     0.1 7   80  40 
 PAM  SN ES   1   1247 22.42                             149    -0.3 7   80  40 
 PAM  SZ I        1247 24.70         4.4 0.37                            80  40 
 RUS  HZ EP   1   1247  6.90                             144     0.1 7   99 175 
 RUS  HN ES   1   1247 24.80                             144    -0.1 7   99 175 
 RUS  HZ I        1247 27.16         4.5 0.28                            99 175 
 PTB  HZ EP   1   1247  9.19                             132    -0.7 7  145 259 
 PTB  HZ I        1247 33.97         4.3 0.18                           145 259 
 ZAR  HE ES   1   1247 40.13                             122    -0.4 6  203 293 
 ZAR  HZ I        1247 46.75         6.5 0.27                           203 293 
 PRA  HZ EP   1   1247 37.45                             106     0.9 4  389 209 
                                                                                
