 2017  310 1632 16.7 L   6.529 -73.498111.0  RSN  8 0.4 1.5LRSN                1
 GAP= 88        0.68       2.9     3.0  4.8 -0.1687E+01  0.4770E+01 -0.1541E+01E
 Epicentro: EL CARMEN - SANTANDER                                              3
 ACTION:UPD 17-05-25 18:38 OP:jn   STATUS:               ID:20170310163216 L   I
 OLDACT:UP  17-03-10 23:11 OP:and  STATUS:               ID:20170310162745     3
 OLDACT:UP  17-03-10 23:11 OP:and  STATUS:               ID:20170310162745     3
 OLDACT:UP  17-03-10 23:11 OP:and  STATUS:               ID:20170310162745     3
 OLDACT:UP  17-03-10 23:10 OP:and  STATUS:               ID:20170310162745     3
 OLDACT:UP  17-03-10 23:10 OP:and  STATUS:               ID:20170310162745     3
 OLDACT:UP  17-03-10 23:10 OP:and  STATUS:               ID:20170310162745     3
 OLDACT:UP  17-03-10 23:09 OP:and  STATUS:               ID:20170310162745     3
 OLDACT:REG 17-03-10 21:08 OP:and  STATUS:               ID:20170310162745     3
 2017-03-10-1628-00M.COL___409                                                 6
 STAT SP IPHASW D HRMM SECON CODA AMPLIT PERI AZIMU VELO AIN AR TRES W  DIS CAZ7
 BAR2 EZ IP     D 1632 32.56                             161    0.0310 35.6  79 
 BAR2 EZ ES       1632 44.92                             161    0.0110 35.6  79 
 BRR  HZ EP       1632 33.49                             146   -0.4710 68.2 340 
 BRR  HN ES       1632 47.59                             146    0.1310 68.2 340 
 RUS  HZ EP   2   1632 36.56                             140    0.75 5 84.0 147 
 RUS  HN ES       1632 50.97                             140    0.2210 84.0 147 
 RUS  HZ I        1632 52.70         5.6 0.26            141           84.0 147 
 PTB  HZ IP   9 C 1632 35.33                             133   -1.67 0  106 271 
 PTB  HN ES   2   1632 50.74                             133   -0.46 5  106 271 
 PTB  HZ I        1632 54.06         7.5 0.10            132            106 271 
 PAM  EZ EP       1632 39.34                             128   -0.1410  126  44 
 PAM  EN ES       1632 57.16                             128   -0.1210  126  44 
 PAM  EZ I        1632 58.58         4.1 0.20            129            126  44 
 ZAR  HZ EP       1632 45.32                             116    0.42 9  184 305 
 ZAR  HN ES   3   1633  7.91                             116    0.97 2  184 305 
 ZAR  HZ I        1633  9.52         6.4 0.30            116            184 305 
 NOR  HZ EP   9   1632 44.01                             116   -1.10 0  186 235 
 NOR  HN ES       1633  6.01                             116   -0.19 9  186 235 
 NOR  HZ I        1633 10.70         4.0 0.12            116            186 235 
 GUY2CHZ EP   3   1632 53.85                             108    0.69 2  252 235 
 GUY2CHN ES       1633 21.22                             108   -0.41 8  252 235 
 GUY2CHZ  IAML    1633 25.92         1.7 0.38                           252 235 
                                                                                
