 2011  910 1618 59.3 L   6.757 -73.171144.6  RSN  5 0.3 1.6LRSN                1
 GAP=135        0.58       4.2     4.7 10.1 -0.7136E+01  0.2965E+02 -0.1524E+02E
 Epicentro: LOS SANTOS - SANTANDER                                             3
 ACTION:UPD 12-07-13 15:56 OP:ep   STATUS:               ID:20110910161859 L   I
 2011-09-10-1614-40S.COL___136                                                 6
 STAT SP IPHASW D HRMM SECON CODA AMPLIT PERI AZIMU VELO AIN AR TRES W  DIS CAZ7
 GIR2 SZ EP       1619 19.26                             165    0.2510 35.7 356 
 PAM  SZ EP   1   1619 21.78                             149    0.00 7 82.9  39 
 PAM  SN ES   1   1619 39.33                             149    0.06 7 82.9  39 
 PAM  SZ I        1619 41.81         2.6 0.25                          82.9  39 
 RUS  HZ ES   1   1619 40.49                             145   -0.36 7 96.1 174 
 ZAR  HZ EP   1   1619 31.21                             122   -0.43 6  203 294 
 ZAR  HN ES   1   1619 56.68                             122   -0.15 6  203 294 
 ZAR  HZ I        1620  3.28         9.8 0.34                           203 294 
 NOR  SN ES   1   1620  2.27                             119    0.41 6  230 235 
                                                                                
