 2013  110 1926 32.9 L   6.000 -73.701108.8  RSN 10 0.5 2.3LRSN 3.0WRSN        1
 SPEC AVERAGE  MO 13.6 ST  9.6 OM  2.8 f0 4.75 R0.3579 AL 2.80 WI 16.8 MW  3.0 3
 SPEC SD       MO  0.1 ST  7.0 OM  0.8 f0 1.64 R0.1439 AL      WI      MW  0.1 3
 GAP= 82        1.15       3.0     3.8  8.4 -0.2208E-02  0.1565E+02  0.3719E+01E
 Epicentro: VELEZ - SANTANDER                                                  3
 SPEC ZAR HH N MO 13.6 ST 17.7 OM  1.9 f0 6.65 R0.2211 AL 2.88 WI 17.0 MW  3.0 3
 SPEC ZAR HH N T192727 K 0.000 GD  235 VS 4.20 DE 3.00 Q0230.0 QA 0.60 VS 4.20 3
 SPEC CHI HH N MO 13.4 ST0.700 OM  1.8 f0 2.64 R0.5568 AL 2.10 WI 13.0 MW  2.9 3
 SPEC CHI HH N T192717 K 0.000 GD  186 VS 4.20 DE 3.00 Q0230.0 QA 0.60 VS 4.20 3
 SPEC BRR HH N MO 13.8 ST 10.3 OM  2.2 f0 4.97 R0.2958 AL 3.42 WI 20.5 MW  3.1 3
 SPEC BRR HH N T192711 K 0.000 GD  163 VS 4.20 DE 3.00 Q0230.0 QA 0.60 VS 4.20 3
 ACTION:UPD 13-02-15 09:13 OP:ep   STATUS:               ID:20130110192632 L   I
 2013-01-10-1918-42M.COL___175                                                 6
 STAT SP IPHASW D HRMM SECON CODA AMPLIT PERI AZIMU VELO AIN AR TRES W  DIS CAZ7
 RUS  HZ EP       1926 50.55                             145   -0.2110 69.4 100 
 RUS  HN ES       1927  4.45                             145   -0.2410 69.4 100 
 RUS  HN I        1927  6.72        36.3 0.44            156           69.4 100 
 BAR2 SZ EP       1926 51.66                             139   -0.0710 87.1  41 
 BAR2 SZ ES       1927  6.70                             139    0.2710 87.1  41 
 BAR2 SZ I        1927  8.28       147.7 0.40            147           87.1  41 
 PTB  HZ EP       1926 52.06                             133   -0.7010  103 306 
 PTB  HN ES       1927  7.83                             133   -0.4210  103 306 
 BRR  HZ EP       1926 54.40                             128   -0.1710  122 359 
 BRR  HN ES       1927 12.13                             128    0.6510  122 359 
 BRR  HN I        1927 22.98        39.8 0.18            134            122 359 
 CHI  HZ EP       1926 57.54                             122   -0.50 9  152 181 
 CHI  HN ES       1927 18.05                             122    0.39 9  152 181 
 CHI  HN I        1927 20.85        28.7 0.28            129            152 181 
 HEL  HZ EP       1927  4.20                             113    0.58 9  203 276 
 HEL  HN ES       1927 27.45                             113   -0.14 9  203 276 
 HEL  HN I        1927 32.71        10.9 0.22            118            203 276 
 ZAR  HZ EP       1927  3.17                             112   -0.60 8  209 322 
 ZAR  HN ES       1927 27.70                             112   -0.15 8  209 322 
 ZAR  HN I        1927 31.30        20.9 0.24            118            209 322 
 RREF HZ EP       1927  5.59                             111   -0.14 8  219 236 
 RREF HN ES       1927 32.30                             111    0.95 8  219 236 
 RREF HZ I        1927 39.24        11.0 0.26            117            219 236 
 TOL  SZ EP       1927  7.78                             109    0.26 8  238 229 
 OCA  HN ES       1927 37.63                             108    0.81 8  251  10 
                                                                                
