 2010  110 1012 20.3 L   6.527 -72.940126.0  RSN  4 0.7 1.2LRSN                1
 GAP=148        1.35      14.4    39.5 15.7 -0.1525E+03 -0.2720E+03  0.3856E+02E
 Epicentro: MOGOTES - SANTANDER                                                3
 ACTION:UP  10-08-24 09:43 OP:vdl  STATUS:               ID:20100110101220 L   I
 2010-01-10-1000-00S.COL___095                                                 6
 STAT SP IPHASW D HRMM SECON CODA AMPLIT PERI AZIMU VELO SNR AR TRES W  DIS CAZ7
 BAR2 SZ IP       1012 36.89                             168    -0.810   28 285 
 BAR2 SZ ES   1   1012 52.13                             168     0.9 7   28 285 
 RUS  BZ EP   1   1012 40.60                             149     0.5 7   72 193 
 RUS  BN ES   1   1012 55.17                             149    -0.4 7   72 193 
 RUS  BZ I        1012 56.23         3.6 0.28                            72 193 
 CHI  HZ EP   1   1012 55.03                             115     0.4 6  227 203 
 SDV  BZ EP   2   1013 11.02                             105     0.9 3  364  44 
                                                                                
