 2013  510 1147 47.7 L   6.771 -73.095152.9  RSN  4 0.2 1.7LRSN                1
 GAP=241        0.54       4.5     6.5  5.1  0.1264E+02  0.4685E+01  0.1760E+00E
 Epicentro: LOS SANTOS - SANTANDER                                             3
 ACTION:UPD 13-06-20 09:49 OP:ep   STATUS:               ID:20130510114747 L   I
 2013-05-10-1140-00M.COL___256                                                 6
 STAT SP IPHASW D HRMM SECON CODA AMPLIT PERI AZIMU VELO AIN AR TRES W  DIS CAZ7
 BAR2 SZ EP       1148  7.93                             171   -0.2510 22.0 206 
 BAR2 SZ I        1148  8.62         8.2 0.37            172           22.0 206 
 BAR2 SZ ES   1   1148 24.51                             171    0.37 7 22.0 206 
 BRR  HZ EP       1148  9.90                             152   -0.1010 77.7 299 
 BRR  HZ I        1148 10.14        20.9 0.26            152           77.7 299 
 BRR  HN ES   1   1148 27.42                             152    0.03 7 77.7 299 
 RUS  HZ EP       1148 12.18                             146    0.2410 97.1 179 
 RUS  HN ES       1148 30.65                             146   -0.1810 97.1 179 
 RUS  HZ I        1148 31.25         4.0 0.46            146           97.1 179 
 NOR  HZ EP   1   1148 24.42                             120    0.26 6  237 236 
 NOR  HN ES   2   1148 52.42                             120   -0.17 4  237 236 
                                                                                
