 2016 1010 1457 42.9 L   6.835 -73.163146.7  RSN  4 0.2 1.2LRSN                1
 GAP=244        0.46       4.9     3.7  5.0  0.1084E+02  0.3203E+01 -0.5557E+01E
 Epicentro: LOS SANTOS - SANTANDER                                             3
 ACTION:UPD 16-11-09 19:18 OP:rebc STATUS:               ID:20161010145742 L   I
 OLDACT:DUP 16-10-10 22:25 OP:dnl  STATUS:               ID:20161010144747d    3
 OLDACT:REG 16-10-10 20:07 OP:dln  STATUS:               ID:20161010144746     3
 2016-10-10-1448-00M.COL___363                                                 6
 STAT SP IPHASW D HRMM SECON CODA AMPLIT PERI AZIMU VELO AIN AR TRES W  DIS CAZ7
 BAR2 EZ EP       1458  2.79                             169    0.1110 26.9 185 
 BAR2 EZ ES       1458 17.96                             169   -0.1810 26.9 185 
 BAR2 EZ I        1458 21.23         3.8 0.26            173           26.9 185 
 RUS  HZ EP   2   1458  6.87                             143   -0.13 5  105 175 
 RUS  HN ES       1458 25.99                             143    0.1810  105 175 
 RUS  HZ I        1458 26.54         1.2 0.34            151            105 175 
 PTB  HZ EP       1458  9.62                             132   -0.19 9  147 257 
 PTB  HE ES       1458 30.75                             132   -0.08 9  147 257 
 PTB  HZ I        1458 35.36         2.3 0.22            134            147 257 
 ZAR  HE ES       1458 40.36                             123    0.22 9  201 291 
 ZAR  HZ I        1458 50.89         2.8 0.24            124            201 291 
                                                                                
