 2014 1010 1354 10.1 L   5.892 -73.816105.4  RSN  5 0.2 1.2LRSN                1
 GAP=157        0.64       3.0     2.3  6.5 -0.1013E+01  0.5413E+01  0.4526E+01E
 Epicentro: JESUS MARIA - SANTANDER                                            3
 ACTION:UPD 14-11-29 23:48 OP:nd   STATUS:               ID:20141010135410 L   I
 OLDACT:REG 14-10-10 21:32 OP:stll STATUS:               ID:20141010134748     3
 2014-10-10-1347-48M.COL___289                                                 6
 STAT SP IPHASW D HRMM SECON CODA AMPLIT PERI AZIMU VELO AIN AR TRES W  DIS CAZ7
 RUS  HZ EP       1354 28.64                             140    0.1710 81.1  90 
 RUS  HZ I        1354 28.93         3.3 0.30            141           81.1  90 
 RUS  HN ES       1354 42.83                             140   -0.0010 81.1  90 
 PTB  HZ EP       1354 29.23                             133   -0.2410  101 315 
 PTB  HN ES       1354 44.53                             133   -0.0810  101 315 
 PTB  HZ I        1354 45.86         4.8 0.10            133            101 315 
 BAR2 SZ EP       1354 30.30                             132    0.1910  104  42 
 BAR2 SZ ES       1354 45.41                             132   -0.3310  104  42 
 BRR  HZ EP       1354 32.73                             123   -0.0010  135   5 
 BRR  HN ES       1354 50.77                             123    0.3610  135   5 
 GUY2CHZ EP       1354 38.57                             114   -0.34 9  187 247 
 GUY2CHN ES       1355  1.72                             114    0.31 9  187 247 
 GUY2CHZ I        1355  7.32         1.8 0.46                           187 247 
                                                                                
