 2016  510 1242 40.8 L   6.805 -73.149151.5  RSN  8 0.4 1.5LRSN                1
 GAP=136        0.91       3.7     4.1  6.6 -0.1650E+01  0.9272E+01 -0.3833E+01E
 Epicentro: LOS SANTOS - SANTANDER                                             3
 ACTION:UPD 16-08-18 17:44 OP:cam  STATUS:               ID:20160510124240 L   I
 OLDACT:DUP 16-05-10 20:41 OP:ak   STATUS:               ID:20160510123751d    3
 OLDACT:REG 16-05-10 19:22 OP:ak   STATUS:               ID:20160510123750     3
 2016-05-10-1237-50M.COL___288                                                 6
 STAT SP IPHASW D HRMM SECON CODA AMPLIT PERI AZIMU VELO AIN AR TRES W  DIS CAZ7
 BAR2 EZ EP   2   1243  0.82                             171   -0.29 5 23.8 189 
 BAR2 EZ ES       1243 17.05                             171    0.0910 23.8 189 
 BAR2 EZ I        1243 18.96         4.0 0.32            170           23.8 189 
 BRR  HZ EP       1243  2.94                             154    0.4310 70.6 298 
 BRR  HN ES       1243 20.17                             154    0.7010 70.6 298 
 BRR  HZ I        1243 24.20         6.7 0.44            153           70.6 298 
 PAM  EZ EP       1243  3.80                             152    0.2010 77.3  40 
 PAM  EN ES       1243 20.90                             152   -0.5010 77.3  40 
 PAM  EZ I        1243 22.43         5.2 0.30            156           77.3  40 
 RUS  HZ EP   2   1243  5.69                             145    0.56 5  101 176 
 RUS  HE ES       1243 23.91                             145   -0.2210  101 176 
 RUS  HZ I        1243 25.80         2.7 0.42            146            101 176 
 PTB  HZ EP       1243  7.62                             133   -0.57 9  147 259 
 PTB  HN ES       1243 29.41                             133   -0.16 9  147 259 
 PTB  HZ I        1243 32.78         3.5 0.32            134            147 259 
 ZAR  HZ EP   3   1243 13.27                             124   -0.27 2  203 292 
 ZAR  HN ES       1243 38.57                             124   -0.53 9  203 292 
 NOR  HZ EP   2   1243 17.51                             120    0.67 4  235 234 
 NOR  HE ES       1243 44.99                             120    0.02 8  235 234 
 NOR  HZ I        1243 51.77         3.0 0.09            121            235 234 
 SML  HZ EP   2   1243 17.55                             119   -0.11 4  243 335 
 SML  HN ES       1243 46.69                             119    0.26 8  243 335 
 SML  HZ I        1243 48.62         3.2 0.07            120            243 335 
                                                                                
