 2010 1010 1514  6.6 L   6.777 -73.129148.0  RSN  6 0.5 1.9LRSN                1
 GAP=180        1.32      10.9    14.6 15.0 -0.9688E+02 -0.9335E+02  0.6561E+02E
 Epicentro: LOS SANTOS - SANTANDER                                             3
 ACTION:UP  11-02-18 11:08 OP:tino STATUS:               ID:20101010151406 L   I
 2010-10-10-1511-39S.COL___121                                                 6
 STAT SP IPHASW D HRMM SECON CODA AMPLIT PERI AZIMU VELO SNR AR TRES W  DIS CAZ7
 BAR2 SZ EP       1514 26.31                             171    -0.210   21 196 
 BAR2 SZ I        1514 26.84        16.0 0.53                            21 196 
 BTL  SZ EP       1514 25.89                             171    -0.610   22 316 
 BRR  HZ EP       1514 28.07                             152    -0.110   74 300 
 BRR  HZ I        1514 28.40        19.2 0.18                            74 300 
 BRR  HN ES       1514 45.21                             152     0.210   74 300 
 GRA  SZ EP       1514 33.09                             137     0.910  128  16 
 GRA  SZ ES   1   1514 52.68                             137     0.5 7  128  16 
 OCA  SZ EP       1514 34.76                             130    -0.6 9  163 353 
 OCA  SZ ES   2   1514 56.96                             130    -0.8 5  163 353 
 OCA  SZ I        1515  1.13         5.9 0.36                           163 353 
 NOR  SZ EP   1   1514 43.07                             119     0.6 6  235 235 
 NOR  SN ES   2   1515 11.11                             119     0.6 4  235 235 
                                                                                
