 2016  810 1731 18.2 L   6.796 -73.155146.4  RSN 12 0.4 2.1LRSN                1
 GAP=136        1.01       4.1     4.0  6.0 -0.9476E+00  0.7272E+01  0.4603E+01E
 Epicentro: LOS SANTOS - SANTANDER                                             3
 ACTION:UPD 16-10-29 15:34 OP:rebc STATUS:               ID:20160810173118 L   I
 OLDACT:REG 16-08-10 21:20 OP:lv   STATUS:               ID:20160810172759     3
 2016-08-10-1727-59S.COL___352                                                 6
 STAT SP IPHASW D HRMM SECON CODA AMPLIT PERI AZIMU VELO AIN AR TRES W  DIS CAZ7
 BAR2 EZ EP       1731 37.80                             171   -0.0910 22.8 188 
 BAR2 EZ ES       1731 52.47                             171   -0.7910 22.8 188 
 BAR2 EZ I        1731 53.85        34.3 0.34                          22.8 188 
 BRR  HZ IP     C 1731 39.58                             153    0.2010 70.5 299 
 BRR  HE ES       1731 56.79                             153    0.8910 70.5 299 
 BRR  HZ I        1731 59.93        19.1 0.16                          70.5 299 
 PAM  EZ EP       1731 40.76                             151    0.2310 78.3  40 
 PAM  EE ES       1731 57.91                             151   -0.0510 78.3  40 
 PAM  EZ I        1732  0.54         9.5 0.19                          78.3  40 
 RUS  HZ EP       1731 42.16                             144    0.1810  100 175 
 RUS  HN ES       1732  0.67                             144    0.1310  100 175 
 RUS  HZ I        1732  1.41        11.3 0.28                           100 175 
 PTB  HZ EP       1731 44.52                             132   -0.60 9  147 259 
 PTB  HN ES       1732  5.76                             132   -0.36 9  147 259 
 PTB  HZ I        1732  7.51        15.5 0.18                           147 259 
 ZAR  HZ EP       1731 50.31                             123   -0.29 9  203 292 
 ZAR  HN ES       1732 15.80                             123   -0.08 9  203 292 
 ZAR  HZ I        1732 21.60        14.0 0.25                           203 292 
 NOR  HZ EP       1731 53.56                             119   -0.29 8  234 234 
 NOR  HN ES       1732 21.89                             119    0.23 8  234 234 
 NOR  HZ I        1732 27.38        14.0 0.16                           234 234 
 CHI  HZ EP       1731 56.21                             117    0.35 8  248 195 
 CHI  HN ES   2   1732 25.48                             117    0.25 4  248 195 
 CHI  HZ I        1732 30.80         7.9 0.28                           248 195 
 ROSC BZ EP   4   1731 57.59                             117    1.33 0  252 211 
 ROSC BN ES   4   1732 28.00                             117    2.06 0  252 211 
 ROSC BZ I        1732 32.34        18.5 0.35                           252 211 
 URE  HZ EP   4   1731 57.88                             114   -1.33 0  283 292 
 URE  HE ES   4   1732 28.53                             114   -2.67 0  283 292 
 URE  HZ I        1732 36.96         9.4 0.18                           283 292 
 GUY2CHZ EP   4   1732  3.11                             112    1.39 0  300 235 
 GUY2CHE ES       1732 36.05                             112    0.39 7  300 235 
 GUY2CHZ I        1732 44.20         9.0 0.36                           300 235 
 SJC  HZ EP   4   1732 12.03                             106   -1.72 0  409 327 
 SJC  HE ES   4   1732 49.71                             106   -7.38 0  409 327 
 SJC  HZ I        1732 59.80         1.9 0.26                           409 327 
                                                                                
