 2013  810 1308 33.1 L   6.471 -73.356130.0  RSN  7 0.5 1.7LRSN                1
 GAP=100        1.07       5.5     5.2  9.5  0.1698E+01  0.1988E+02  0.9725E+01E
 Epicentro: SIMACOTA - SANTANDER                                               3
 ACTION:UPD 14-01-14 09:00 OP:ep   STATUS:               ID:20130810130833 L   I
 OLDACT:REG 13-08-10 17:23 OP:carl STATUS:               ID:20130810125959     3
 2013-08-10-1259-59M.COL___271                                                 6
 STAT SP IPHASW D HRMM SECON CODA AMPLIT PERI AZIMU VELO AIN AR TRES W  DIS CAZ7
 BAR2 SZ EP   1   13 8 50.82                             169   -0.03 8 23.4  55 
 BAR2 SZ ES   1   13 9  4.55                             169   -0.13 8 23.4  55 
 BAR2 SZ I        13 9  6.12        12.2 0.44            172           23.4  55 
 GIR2 SZ EP   1   13 8 52.48                             150   -0.20 8 69.6  15 
 GIR2 SZ ES   1   13 9  8.17                             150    0.22 8 69.6  15 
 GIR2 SZ I        13 9  8.67        11.7 0.12            153           69.6  15 
 RUS  HZ EP   1   13 8 53.33                             150    0.08 8 70.7 155 
 RUS  HN ES   1   13 9  8.99                             150    0.03 8 70.7 155 
 RUS  HZ I        13 9 10.48         4.6 0.34            153           70.7 155 
 BRR  HZ EP   1   13 8 53.40                             146    0.21 8 80.6 331 
 BRR  HN ES   1   13 9  9.42                             146    0.57 8 80.6 331 
 BRR  HN I        13 9 10.72        22.2 0.28            147           80.6 331 
 PTB  HZ EP       13 8 55.57                             134   -0.8910  122 274 
 PTB  HE ES       13 9 14.02                             134   -0.6610  122 274 
 PTB  HZ I        13 9 16.48         6.4 0.30            135            122 274 
 NOR  HZ EP   1   13 9  4.32                             120    0.62 7  195 239 
 NOR  HN ES       13 9 28.22                             120    0.66 9  195 239 
 NOR  HZ I        13 9 30.78         3.6 0.18            121            195 239 
 ZAR  HE ES       13 9 28.89                             119    0.39 9  201 304 
 ZAR  HE I        13 9 32.72        12.7 0.34            121            201 304 
                                                                                
