 2011 1110 1601 20.6 L   6.773 -73.071147.4  RSN  4 0.1 1.7LRSN                1
 GAP=148        0.40       2.5     4.3  4.1  0.1408E+00 -0.9975E+00 -0.5821E+00E
 Epicentro: LOS SANTOS - SANTANDER                                             3
 ACTION:UPD 12-07-13 16:09 OP:ep   STATUS:               ID:20111110160120 L   I
 2011-11-10-1557-51S.COL___178                                                 6
 STAT SP IPHASW D HRMM SECON CODA AMPLIT PERI AZIMU VELO AIN AR TRES W  DIS CAZ7
 BAR2 SZ EP       16 1 40.21                             171   -0.1910 23.4 212 
 BAR2 SZ I        16 1 40.38         7.6 0.11                          23.4 212 
 BAR2 SZ ES   1   16 1 56.00                             171    0.13 7 23.4 212 
 PAM  SZ EP   1   16 1 43.12                             152    0.30 7 74.9  33 
 PAM  SE ES   1   16 2  0.02                             152   -0.15 7 74.9  33 
 BRR  HZ EP   1   16 1 42.42                             150    0.01 7 79.9 298 
 BRR  HZ I        16 1 58.02        12.3 0.07                          79.9 298 
 BRR  HN ES   1   16 1 59.45                             150    0.01 7 79.9 298 
 RUS  HZ EP   1   16 1 44.27                             145    0.01 7 97.3 181 
 RUS  HE ES       16 2  2.74                             145    0.0110 97.3 181 
                                                                                
