 2014  910 1324 49.2 L   6.807 -73.052154.0  RSN  5 0.4 1.7LRSN                1
 GAP=209        0.98       7.7    13.2  9.7  0.7905E+02 -0.5301E+02 -0.4155E+02E
 Epicentro: LOS SANTOS - SANTANDER                                             3
 ACTION:UPD 14-10-03 23:03 OP:nd   STATUS:               ID:20140910132449 L   I
 OLDACT:DUP 14-09-10 20:43 OP:mh   STATUS:               ID:20140910132001d    3
 2014-09-10-1320-00M.COL___285                                                 6
 STAT SP IPHASW D HRMM SECON CODA AMPLIT PERI AZIMU VELO AIN AR TRES W  DIS CAZ7
 BAR2 SZ EP   1   1325 10.76                             170    0.86 7 27.8 211 
 BAR2 SZ ES   1   1325 25.75                             170   -0.31 7 27.8 211 
 BAR2 SZ I        1325 28.34         6.1 0.29            171           27.8 211 
 BRR  HZ EP       1325 11.77                             151    0.0310 80.1 295 
 BRR  HN ES       1325 29.79                             151    0.4710 80.1 295 
 BRR  HZ I        1325 44.88        13.7 0.35            151           80.1 295 
 RUS  HZ EP       1325 13.47                             145   -0.3310  101 182 
 RUS  HN ES       1325 32.84                             145   -0.1510  101 182 
 RUS  HZ I        1325 34.41         3.1 0.17            156            101 182 
 ZAR  HN ES   1   1325 49.30                             123   -0.31 6  213 291 
 SML  HZ EP       1325 27.05                             119    0.35 8  248 333 
 SML  HN ES       1325 55.28                             119   -0.68 8  248 333 
 SML  HZ I        1326  4.11         8.5 0.06            123            248 333 
                                                                                
