 2010  110 1631  2.3 L   6.840 -73.178145.9  RSN  6 0.4 1.7LRSN                1
 GAP=155        0.93       4.4    14.4  9.1 -0.3128E+02  0.4035E+02 -0.4625E+01E
 Epicentro: ZAPATOCA - SANTANDER                                               3
 ACTION:UP  10-08-24 09:43 OP:vdl  STATUS:               ID:20100110163102 L   I
 2010-01-10-1620-00S.COL___097                                                 6
 STAT SP IPHASW D HRMM SECON CODA AMPLIT PERI AZIMU VELO SNR AR TRES W  DIS CAZ7
 BAR2 SZ IP       1631 22.29                             169     0.310   27 181 
 BAR2 SZ ES   1   1631 37.65                             169     0.3 7   27 181 
 RUS  BZ EP   1   1631 26.32                             143     0.0 7  105 174 
 RUS  BN ES   1   1631 44.69                             143    -0.5 7  105 174 
 RUS  BZ I        1631 46.24         7.3 0.34                           105 174 
 GUE  SZ EP   1   1631 27.16                             140     0.5 7  113  14 
 GUE  SZ ES   1   1631 46.31                             140     0.5 7  113  14 
 GRA  SZ IP       1631 27.03                             138    -0.210  123  20 
 GRA  SZ ES   1   1631 45.93                             138    -0.8 7  123  20 
 CHI  HZ EP   1   1631 40.65                             117     0.3 6  252 194 
 CHI  HE ES   1   1632  9.70                             117    -0.3 6  252 194 
 CHI  HZ I        1632 13.50         5.2 0.46                           252 194 
 MON  HE ES   2   1632 27.87                             109    -0.4 3  347 308 
 MON  HZ I        1632 36.33         1.6 0.50                           347 308 
                                                                                
