 2010  710 1032  2.7 L   6.790 -73.110146.3  RSN 16 0.5 3.1LRSN                1
 GAP=129        1.06       3.8     6.2  5.8 -0.9929E+01 -0.2110E-01  0.4145E+01E
 Epicentro: LOS SANTOS - SANTANDER                                             3
 ACTION:UPD 10-12-01 15:16 OP:pat  STATUS:               ID:20100710103202 L   I
 2010-07-10-1031-24S.COL___120                                                 6
 STAT SP IPHASW D HRMM SECON CODA AMPLIT PERI AZIMU VELO AIN AR TRES W  DIS CAZ7
 BAR2 SZ IP       1032 22.35                             170     0.010   23 201 
 BAR2 SZ ES   1   1032 37.33                             170    -0.4 7   23 201 
 BAR2 SZ I        1032 38.99       644.5 0.22                            23 201 
 GIR2 SZ IP       1032 22.42                             166    -0.110   33 344 
 GIR2 SZ ES   2   1032 37.71                             166    -0.2 5   33 344 
 BRR  HZ IP     C 1032 24.20                             151     0.110   75 298 
 BRR  HZ I        1032 24.61       318.7 0.10                            75 298 
 BRR  HE ES       1032 40.79                             151    -0.110   75 298 
 RUS  HZ EP       1032 26.19                             144    -0.210   99 178 
 RUS  HE ES   1   1032 44.93                             144     0.0 7   99 178 
 RUS  HZ I        1032 46.08       203.9 0.35                            99 178 
 BRI  SZ IP       1032 26.85                             141     0.210  108  19 
 BRI  SZ ES   1   1032 45.22                             141     0.0 7  108  19 
 BRI  SZ I        1032 51.54       132.6 0.48                           108  19 
 GUE  SZ EP       1032 27.21                             139    -0.310  117  10 
 GRA  SZ IP       1032 29.14                             137     1.210  126  16 
 GRA  SZ ES   2   1032 47.63                             137    -0.1 5  126  16 
 GRA  SZ I        1032 50.43       148.2 0.30                           126  16 
 OCA  SZ EP   1   1032 30.51                             129    -0.7 7  162 352 
 OCA  SZ ES   2   1032 53.52                             129     0.1 5  162 352 
 CHI  HZ EP       1032 40.32                             117    -0.1 8  249 196 
 CHI  HN ES   2   1033 10.31                             117     0.5 4  249 196 
 CHI  HZ I        1033 15.37        60.4 0.36                           249 196 
 ROSC BZ EP   1   1032 41.89                             117     0.9 6  254 212 
 ROSC BE ES   1   1033 11.22                             117     0.4 6  254 212 
 ROSC BZ I        1033 17.41       105.2 0.40                           254 212 
 CVER SZ EP   2   1032 42.47                             115    -0.6 4  273 203 
 HEL  HZ EP   1   1032 43.09                             114    -0.2 6  276 256 
 HEL  HN ES   2   1033 15.51                             114     0.5 4  276 256 
 HEL  HZ I        1033 23.44        43.5 0.37                           276 256 
 DBB  SZ EP       1032 50.04                             109    -0.6 7  344 274 
 TOL  SZ EP       1032 51.67                             109     0.5 6  346 225 
 SDV  BZ EP       1032 51.73                             108    -0.7 6  358  50 
 SDV  BZ I        1032 52.51        36.9 0.16                           358  50 
 PRA  HZ EP       1032 55.67                             106    -0.7 6  393 210 
 PRA  HN ES   2   1033 37.71                             106    -0.5 3  393 210 
 PRA  HZ I        1033 43.85        88.9 0.39                           393 210 
                                                                                
