 2011 1110 1622  4.4 L   6.712 -73.073150.6  RSN  4 0.1 1.6LRSN                1
 GAP=150        0.35       3.8     6.0  7.5  0.1134E+02 -0.2910E+02 -0.1620E+02E
 Epicentro: JORDAN - SANTANDER                                                 3
 ACTION:UPD 12-07-13 16:09 OP:ep   STATUS:               ID:20111110162204 L   I
 2011-11-10-1619-06S.COL___178                                                 6
 STAT SP IPHASW D HRMM SECON CODA AMPLIT PERI AZIMU VELO AIN AR TRES W  DIS CAZ7
 BAR2 SZ EP   2   1622 24.18                             173   -0.38 5 18.0 222 
 BAR2 SZ I        1622 42.46         6.0 0.11                          18.0 222 
 PAM  SZ EP       1622 27.40                             151    0.0310 80.7  31 
 BRR  HZ EP   1   1622 26.84                             150    0.04 7 83.0 302 
 BRR  HN ES   1   1622 44.26                             150    0.01 7 83.0 302 
 BRR  HN I        1622 45.62        22.1 0.29                          83.0 302 
 RUS  HZ EP   2   1622 28.10                             148    0.11 5 90.6 181 
 RUS  HE ES   1   1622 46.39                             148    0.02 7 90.6 181 
 RUS  HZ I        1622 48.44         2.7 0.17                          90.6 181 
                                                                                
