 2014 1210 1710 51.5 L   6.799 -73.160140.5  RSN  5 0.4 1.2LRSN                1
 GAP=135        1.10       5.7     5.8  8.9 -0.3069E+01 -0.6540E+00  0.2621E+01E
 Epicentro: LOS SANTOS - SANTANDER                                             3
 ACTION:UPD 15-02-10 17:02 OP:nd   STATUS:               ID:20141210171051 L   I
 OLDACT:DUP 14-12-11 01:26 OP:stll STATUS:               ID:20141210170748d    3
 2014-12-10-1707-47M.COL___303                                                 6
 STAT SP IPHASW D HRMM SECON CODA AMPLIT PERI AZIMU VELO AIN AR TRES W  DIS CAZ7
 BAR2 E  EP       1711 10.31                             170   -0.2310 23.0 186 
 BAR2 E  ES       1711 24.86                             170   -0.4910 23.0 186 
 BRR  HZ EP       1711 12.33                             152    0.2810 69.9 299 
 BRR  HN ES       1711 28.76                             152    0.7110 69.9 299 
 PAM  SZ EP       1711 13.33                             149    0.0610 78.5  40 
 PAM  SZ I        1711 13.51         4.6 0.22            150           78.5  40 
 PAM  SN ES       1711 29.97                             149   -0.2510 78.5  40 
 RUS  HZ EP       1711 14.73                             143   -0.0510  101 175 
 RUS  HN ES       1711 33.43                             143    0.5210  101 175 
 RUS  HZ I        1711 34.71         1.7 0.30            142            101 175 
 PTB  HN ES       1711 37.93                             131   -0.60 9  146 259 
                                                                                
