 2012  110 1439 39.8 L   6.784 -73.171141.9  RSN  5 0.2 1.4LRSN                1
 GAP=134        0.43       3.0     2.6  4.8 -0.1918E+00  0.3940E+01 -0.1240E+01E
 Epicentro: LOS SANTOS - SANTANDER                                             3
 ACTION:UP  12-02-03 08:16 OP:REBC STATUS:               ID:20120110143939 L   I
 2012-01-10-1437-00S.MAN___179                                                 6
 STAT SP IPHASW D HRMM SECON CODA AMPLIT PERI AZIMU VELO SNR AR TRES W  DIS CAZ7
 BAR2 SZ EP   1   1439 59.00                             171     0.1 7   21 183 
 BAR2 SZ ES   1   1440 13.81                             171     0.0 7   21 183 
 BAR2 SZ I        1440 15.12         6.0 0.53                            21 183 
 PAM  SZ EP   1   1440  1.98                             149     0.2 7   81  40 
 PAM  SN ES   1   1440 18.85                             149    -0.1 7   81  40 
 RUS  HZ EP   1   1440  3.16                             143     0.1 7   99 174 
 RUS  HN ES   1   1440 21.19                             143     0.0 7   99 174 
 RUS  HZ I        1440 24.30         2.9 0.34                            99 174 
 PTB  HZ EP   1   1440  5.80                             132    -0.4 7  145 259 
 PTB  HN ES   1   1440 26.88                             132     0.1 7  145 259 
 PTB  HZ I        1440 29.64                                            145 259 
 ZAR  HN ES   1   1440 36.82                             122     0.1 6  202 293 
 ZAR  HZ I        1440 42.94         3.9 0.27                           202 293 
                                                                                
