 2013  410 1406 16.2 L   6.805 -73.116134.0  RSN  5 0.3 1.5LRSN                1
 GAP=194        0.55       5.1     6.2  6.2  0.1583E+02  0.8305E+01 -0.4310E+01E
 Epicentro: LOS SANTOS - SANTANDER                                             3
 ACTION:UPD 13-05-22 14:37 OP:EP   STATUS:               ID:20130410140616 L   I
 2013-04-10-1400-00M.COL___245                                                 6
 STAT SP IPHASW D HRMM SECON CODA AMPLIT PERI AZIMU VELO AIN AR TRES W  DIS CAZ7
 BAR2 SZ EP   1   14 6 34.54                             169    0.06 7 24.7 197 
 BAR2 SZ ES   1   14 6 48.54                             169   -0.17 7 24.7 197 
 BAR2 SZ I        14 6 50.87        15.1 0.20            165           24.7 197 
 GIR2 SZ EP       14 6 34.55                             166    0.0310 31.5 344 
 GIR2 SZ ES   1   14 6 48.52                             166   -0.25 7 31.5 344 
 BRR  HZ EP       14 6 36.37                             149    0.0810 73.9 297 
 BRR  HE ES   2   14 6 52.79                             149    0.86 5 73.9 297 
 BRR  HZ I        14 6 59.34         7.8 0.32            147           73.9 297 
 RUS  HN ES   1   14 6 56.55                             141    0.01 7  101 178 
 RUS  HZ I        14 6 58.54         2.1 0.28            145            101 178 
 ZAR  HN ES   1   14 7 12.89                             119   -0.32 6  207 292 
                                                                                
