 2010  910 1420 17.8 L   6.753 -73.130142.9  RSN  8 0.5 2.0LRSN                1
 GAP=161        0.85       5.3    11.8  9.3 -0.1370E+02 -0.8843E+01  0.4793E+01E
 Epicentro: LOS SANTOS - SANTANDER                                             3
 ACTION:UP  11-02-18 11:01 OP:tino STATUS:               ID:20100910142017 L   I
 2010-09-10-1416-32S.COL___120                                                 6
 STAT SP IPHASW D HRMM SECON CODA AMPLIT PERI AZIMU VELO SNR AR TRES W  DIS CAZ7
 BAR2 SZ EP   1   1420 36.69                             172    -0.3 7   19 199 
 BAR2 SZ ES   2   1420 51.80                             172    -0.2 5   19 199 
 BAR2 SZ I        1420 53.27        38.6 0.14                            19 199 
 GIR2 SZ EP   2   1420 37.02                             165    -0.3 5   37 349 
 GIR2 SZ ES   3   1420 52.84                             165     0.3 2   37 349 
 BRR  HZ IP     C 1420 38.58                             151    -0.310   75 301 
 BRR  HZ I        1420 38.82        23.1 0.12                            75 301 
 BRR  HE ES   2   1420 55.86                             151     0.5 5   75 301 
 RUS  HZ EP   1   1420 40.62                             145    -0.3 7   95 177 
 RUS  HE ES   2   1420 59.55                             145     0.6 5   95 177 
 RUS  HZ I        1421  0.53        14.0 0.28                            95 177 
 GUE  SZ EP   1   1420 42.75                             138     0.1 7  121  11 
 GRA  SZ EP   1   1420 43.51                             135     0.3 7  130  16 
 GRA  SZ ES   2   1421  3.28                             135     0.3 5  130  16 
 GRA  SZ I        1421  4.37        11.6 0.46                           130  16 
 CHI  HZ EP   1   1420 54.76                             117    -0.1 6  244 196 
 CHI  HN ES   3   1421 23.49                             117    -0.3 2  244 196 
 CHI  HZ I        1421 32.08         5.9 0.57                           244 196 
 ROSC BZ EP   2   1420 57.19                             116     1.8 4  249 212 
                                                                                
