 2013  310 1751 48.8 L   6.736 -73.149144.7  RSN  4 0.2 1.4LRSN                1
 GAP=232        0.52       4.6     5.7  6.6  0.7507E+01  0.1090E+02  0.6848E+01E
 Epicentro: JORDAN - SANTANDER                                                 3
 ACTION:UPD 13-04-09 14:01 OP:ep   STATUS:               ID:20130310175148 L   I
 2013-03-10-1748-49M.COL___204                                                 6
 STAT SP IPHASW D HRMM SECON CODA AMPLIT PERI AZIMU VELO AIN AR TRES W  DIS CAZ7
 BAR2 SZ ES   1   1752 23.39                             173    0.08 7 16.4 193 
 BRR  HZ EP   1   1752  9.71                             151   -0.33 7 74.5 303 
 BRR  HE ES   1   1752 26.74                             151    0.14 7 74.5 303 
 BRR  HZ I        1752 29.73         6.3 0.54            147           74.5 303 
 RUS  HZ EP   1   1752 12.32                             146    0.35 7 93.6 176 
 RUS  HN ES   1   1752 29.78                             146   -0.25 7 93.6 176 
 RUS  HZ I        1752 31.59         2.1 0.20            145           93.6 176 
 NOR  HE ES   1   1752 51.51                             119    0.03 6  230 236 
 NOR  HZ I        1752 57.03         2.4 0.50            118            230 236 
                                                                                
