 2014  210 1144 28.6 L   6.825 -73.181143.1  RSN  7 0.5 2.0LRSN                1
 GAP=131        1.31       4.3     5.9  8.6  0.2047E+01  0.1744E+02 -0.2552E+01E
 Epicentro: ZAPATOCA - SANTANDER                                               3
 ACTION:UPD 14-03-10 08:09 OP:ep   STATUS:               ID:20140210114428 L   I
 OLDACT:DUP 14-02-10 16:31 OP:carl STATUS:               ID:20140210114001d    3
 2014-02-10-1140-00M.COL___291                                                 6
 STAT SP IPHASW D HRMM SECON CODA AMPLIT PERI AZIMU VELO AIN AR TRES W  DIS CAZ7
 BAR2 SZ EP       1144 48.17                             169    0.2310 25.8 180 
 BAR2 SZ ES       1145  2.61                             169   -0.4310 25.8 180 
 BAR2 SZ I        1145  4.25        35.0 0.24            168           25.8 180 
 PAM  SZ EP       1144 50.94                             150    0.4010 77.9  43 
 PAM  SN ES       1145  8.10                             150    0.4410 77.9  43 
 PAM  SZ I        1145  8.75         9.8 0.18            156           77.9  43 
 RUS  HZ EP       1144 51.69                             142   -0.6010  104 174 
 RUS  HN ES       1145 10.94                             142    0.1510  104 174 
 RUS  HZ I        1145 11.76        10.9 0.28            145            104 174 
 PTB  HZ EP       1144 54.83                             132   -0.20 9  145 257 
 PTB  HN ES       1145 15.36                             132   -0.30 9  145 257 
 PTB  HZ I        1145 22.57        12.5 0.46            131            145 257 
 ZAR  HZ EP       1145  1.44                             122    1.07 9  199 292 
 ZAR  HN ES       1145 25.87                             122    0.71 9  199 292 
 ZAR  HZ I        1145 34.88         9.7 0.24            122            199 292 
 SML  HZ EP       1145  4.16                             117   -0.44 8  240 336 
 SML  HN ES       1145 31.53                             117   -1.17 8  240 336 
 SML  HZ I        1145 36.70        11.8 0.32            118            240 336 
 CHI  HZ EP     D 1145  6.26                             116   -0.05 8  250 194 
 CHI  HN ES       1145 35.75                             116    0.00 8  250 194 
 CHI  HZ I        1145 40.87         4.8 0.32            118            250 194 
                                                                                
