 2014 1210 1929 43.6 L   6.010 -73.760108.5  RSN 10 0.6 1.9LRSN                1
 GAP= 91        1.43       4.7     4.0  8.3 -0.5988E+01  0.6801E+01 -0.1142E+01E
 Epicentro: BOLIVAR - SANTANDER                                                3
 ACTION:UPD 15-02-10 17:02 OP:nd   STATUS:               ID:20141210192943 L   I
 OLDACT:REG 14-12-10 22:01 OP:stll STATUS:               ID:20141210192746     3
 2014-12-10-1927-46M.COL___303                                                 6
 STAT SP IPHASW D HRMM SECON CODA AMPLIT PERI AZIMU VELO AIN AR TRES W  DIS CAZ7
 SPBC HZ EP       1930  0.01                             152    0.2210 52.5 221 
 SPBC HN ES       1930 12.55                             152    0.1310 52.5 221 
 SPBC HZ I        1930 15.71        40.8 0.20            152           52.5 221 
 RUS  HZ EP       1930  2.22                             143    0.3210 76.0 100 
 RUS  HN ES       1930 17.12                             143    0.9310 76.0 100 
 RUS  HZ I        1930 18.53         7.8 0.34            146           76.0 100 
 PTB  HZ EP       1930  2.43                             135   -0.4810 96.8 307 
 PTB  HN ES       1930 17.61                             135   -0.3810 96.8 307 
 PTB  HZ I        1930 20.46        29.0 0.14            136           96.8 307 
 NOR  HZ EP       1930  6.92                             125    0.6210  132 248 
 NOR  HN ES       1930 23.72                             125   -0.2910  132 248 
 NOR  HZ I        1930 27.79        43.6 0.42            126            132 248 
 CHI  HZ EP       1930  8.42                             121   -0.42 9  153 179 
 CHI  HN ES       1930 27.43                             121   -1.11 9  153 179 
 CHI  HZ I        1930 32.32         5.7 0.40            123            153 179 
 PAM  SZ EP       1930 13.38                             115    0.63 9  188  39 
 PAM  SN ES       1930 34.43                             115   -1.06 9  188  39 
 PAM  SZ I        1930 40.20         5.3 0.60            118            188  39 
 GUY2CHZ EP       1930 14.22                             114    0.40 9  198 244 
 GUY2CHN ES       1930 38.10                             114    0.70 9  198 244 
 GUY2CHZ I        1930 42.37        11.5 0.32                           198 244 
 RREF HZ EP       1930 15.74                             112   -0.14 8  214 235 
 RREF HN ES       1930 40.16                             112   -0.91 8  214 235 
 RREF HZ I        1930 46.77         9.3 0.76            113            214 235 
 TOL  SZ EP       1930 17.93                             110    0.20 8  234 228 
 TOL  SN ES       1930 44.67                             110    0.31 8  234 228 
 TOL  SZ I        1930 52.89        14.1 0.38            111            234 228 
 CBOC HZ EP       1930 19.14                             108   -0.23 8  250 266 
 CBOC HE ES       1930 47.79                             108    0.51 8  250 266 
 CBOC HZ I        1930 55.67         5.3 0.22            109            250 266 
                                                                                
