 2014  510 1721 47.0 L   6.770 -73.132147.0  RSN  8 0.4 1.9LRSN                1
 GAP=140        1.08       4.2     4.5  7.1 -0.2427E+01  0.7138E+01  0.5724E+01E
 Epicentro: LOS SANTOS - SANTANDER                                             3
 ACTION:UPD 15-03-16 16:56 OP:nd   STATUS:               ID:20140510172147 L   I
 OLDACT:REG 14-05-10 21:14 OP:y    STATUS:               ID:20140510172000     3
 2014-05-10-1720-00M.COL___273                                                 6
 STAT SP IPHASW D HRMM SECON CODA AMPLIT PERI AZIMU VELO AIN AR TRES W  DIS CAZ7
 BRR  HZ EP       1722  8.55                             152    0.1310 74.1 300 
 BRR  HN ES       1722 25.93                             152    0.7810 74.1 300 
 BRR  HZ I        1722 36.63        20.7 0.06            151           74.1 300 
 PAM  SZ EP       1722  9.65                             150    0.2310 79.0  37 
 PAM  SN ES       1722 26.65                             150   -0.2710 79.0  37 
 PAM  SZ I        1722 29.01        10.1 0.09            157           79.0  37 
 RUS  HZ EP       1722 11.05                             145    0.4510 97.2 177 
 RUS  HN ES       1722 28.61                             145   -0.4210 97.2 177 
 PTB  HZ EP       1722 13.59                             132   -0.53 9  149 260 
 PTB  HN ES       1722 34.88                             132   -0.41 9  149 260 
 PTB  HZ I        1722 42.19                             134            149 260 
 SPBC HZ EP       1722 15.68                             130    0.27 9  162 220 
 SPBC HN ES       1722 37.22                             130   -0.38 9  162 220 
 SPBC HZ I        1722 40.84         8.1 0.15            133            162 220 
 ZAR  HZ EP       1722 19.42                             122   -0.35 8  207 293 
 ZAR  HN ES       1722 45.23                             122   -0.12 8  207 293 
 NOR  HZ EP       1722 22.11                             119   -0.59 8  234 235 
 NOR  HN ES       1722 51.28                             119    0.71 8  234 235 
 NOR  HZ I        1722 56.70         5.2 0.17            122            234 235 
 PRA  HZ EP       1722 40.85                             107    0.57 6  390 210 
 PRA  HE ES   1   1723 22.28                             107    0.41 4  390 210 
 PRA  HZ I        1723 26.58         2.8 0.30            111            390 210 
                                                                                
