 2017 1010 1918 25.1 L   6.835 -73.155143.6  RSN  7 0.4 1.7LRSN                1
 GAP=134        0.79       3.4     3.9  6.9 -0.1188E+01  0.1349E+02  0.5280E+01E
 Epicentro: LOS SANTOS - SANTANDER                                             3
 ACTION:UPD 17-11-07 19:30 OP:rebc STATUS:               ID:20171010191825 L   I
 OLDACT:REG 17-10-10 20:27 OP:lv   STATUS:               ID:20171010190721     3
 2017-10-10-1908-00M.COL___444                                                 6
 STAT SP IPHASW D HRMM SECON CODA AMPLIT PERI AZIMU VELO AIN AR TRES W  DIS CAZ7
 PAM  EZ EP       1918 46.72                             151   -0.2510 75.1  42 
 PAM  EN ES       1919  4.13                             151    0.1210 75.1  42 
 PAM  EZ I        1919  5.86        10.6 0.56            156           75.1  42 
 RUS  HZ EP       1918 48.68                             142   -0.2610  105 176 
 RUS  HN ES       1919  7.76                             142    0.2310  105 176 
 RUS  HZ I        1919  8.71         5.7 0.40            145            105 176 
 ZAR  HZ EP       1918 57.66                             122    0.49 9  202 291 
 ZAR  HE ES       1919 21.79                             122   -0.39 9  202 291 
 ZAR  HZ I        1919 27.91         9.0 0.38            124            202 291 
 NOR  HZ EP       1919  1.27                             118    0.40 8  236 234 
 NOR  HN ES       1919 28.47                             118   -0.29 8  236 234 
 NOR  HZ I        1919 34.35         3.9 0.34            119            236 234 
 CHI  HZ EP       1919  2.83                             116   -0.24 8  252 195 
 CHI  HN ES   4   1919 31.33                             116   -1.35 0  252 195 
 CHI  HZ I        1919 35.82         1.5 0.56            119            252 195 
 GUY2CHZ EP   4   1919 10.66                             112    1.88 0  303 234 
 GUY2CHN ES       1919 43.33                             112    0.49 7  303 234 
 GUY2CHZ I        1919 50.95         3.8 0.52                           303 234 
 PRA  HZ EP       1919 19.26                             106    0.37 6  395 209 
 PRA  HN ES       1920  0.20                             106   -0.64 6  395 209 
 PRA  HZ I        1920  5.96         1.9 0.18            108            395 209 
                                                                                
