 2017  510 1739 56.3 L   6.773 -73.142137.9  RSN  5 0.2 1.4LRSN                1
 GAP=236        0.48       3.6     3.0  6.7  0.3752E+01  0.1625E+01 -0.8900E+01E
 Epicentro: LOS SANTOS - SANTANDER                                             3
 ACTION:UPD 17-06-16 13:34 OP:jn   STATUS:               ID:20170510173956 L   I
 OLDACT:UP  17-05-11 01:26 OP:lv   STATUS:               ID:20170510173742     3
 OLDACT:REG 17-05-10 21:07 OP:lv   STATUS:               ID:20170510173742     3
 2017-05-10-1738-00M.COL___368                                                 6
 STAT SP IPHASW D HRMM SECON CODA AMPLIT PERI AZIMU VELO AIN AR TRES W  DIS CAZ7
 BRR  HZ EP       1740 16.71                             150    0.0210 73.0 300 
 BRR  HE EP       1740 34.10                                           73.0 300 
 RUS  HZ EP       1740 19.08                             143    0.0510 97.5 176 
 RUS  HN ES       1740 36.84                             143    0.0510 97.5 176 
 RUS  HZ I        1740 39.52         2.1 0.13            139           97.5 176 
 PTB  HZ EP       1740 22.37                             130   -0.23 9  148 260 
 PTB  HN ES       1740 42.87                             130   -0.26 9  148 260 
 ZAR  HZ EP   4   1740 26.97                             120   -1.41 0  206 293 
 ZAR  HE ES   1   1740 53.80                             120    0.38 6  206 293 
 NOR  HZ EP   2   1740 31.55                             117    0.15 4  233 235 
 NOR  HE ES       1740 59.00                             117    0.19 8  233 235 
 NOR  HZ I        1741  4.16         5.0 0.05            115            233 235 
                                                                                
