 2017  310 1442  5.0 L   6.794 -73.134141.4  RSN 23 0.5 2.6LRSN                1
 GAP= 66        0.90       2.8     2.5  4.2 -0.7161E+00  0.3067E+01  0.1188E+01E
 Epicentro: LOS SANTOS - SANTANDER                                             3
 ACTION:UPD 17-05-25 18:38 OP:jn   STATUS:               ID:20170310144205 L   I
 OLDACT:UP  17-03-10 23:00 OP:and  STATUS:               ID:20170310143743     3
 OLDACT:UP  17-03-10 22:59 OP:and  STATUS:               ID:20170310143743     3
 OLDACT:UP  17-03-10 22:58 OP:and  STATUS:               ID:20170310143743     3
 OLDACT:UP  17-03-10 22:57 OP:and  STATUS:               ID:20170310143743     3
 OLDACT:UP  17-03-10 22:56 OP:and  STATUS:               ID:20170310143743     3
 OLDACT:UP  17-03-10 22:54 OP:and  STATUS:               ID:20170310143743     3
 OLDACT:UP  17-03-10 22:53 OP:and  STATUS:               ID:20170310143743     3
 OLDACT:UP  17-03-10 22:53 OP:and  STATUS:               ID:20170310143743     3
 OLDACT:UP  17-03-10 22:51 OP:and  STATUS:               ID:20170310143743     3
 OLDACT:REG 17-03-10 21:01 OP:and  STATUS:               ID:20170310143743     3
 2017-03-10-1438-00M.COL___403                                                 6
 STAT SP IPHASW D HRMM SECON CODA AMPLIT PERI AZIMU VELO AIN AR TRES W  DIS CAZ7
 BAR2 EZ IP     C 1442 24.07                             170   -0.0410 23.0 194 
 BAR2 EZ ES       1442 38.71                             170   -0.2910 23.0 194 
 BAR2 EZ I        1442 41.56        82.8 0.38            171           23.0 194 
 BRR  HZ EP       1442 26.09                             151    0.3210 72.7 298 
 BRR  HN ES       1442 42.72                             151    0.7510 72.7 298 
 BRR  HZ I        1442 44.60        88.0 0.16            142           72.7 298 
 PAM  EZ IP     D 1442 26.97                             150    0.2310 77.0  38 
 PAM  EN ES       1442 43.79                             150    0.1010 77.0  38 
 PAM  EZ I        1442 46.00       114.8 0.60            143           77.0  38 
 RUS  HZ EP       1442 28.07                             143   -0.2110 99.9 177 
 RUS  HN ES       1442 46.18                             143   -0.2510 99.9 177 
 RUS  HZ I        1442 47.41        31.0 0.24            139           99.9 177 
 PTB  HZ EP       1442 30.99                             131   -0.74 9  149 259 
 PTB  HN ES   3   1442 51.40                             131   -1.18 2  149 259 
 PTB  HZ I        1442 55.28        52.5 0.14            123            149 259 
 TAM  HZ IP     C 1442 32.51                             130    0.30 9  154 105 
 TAM  HN ES       1442 53.27                             130   -0.15 9  154 105 
 TAM  HZ I        1442 54.60        29.6 0.60            124            154 105 
 SPBC HZ EP       1442 33.04                             128   -0.17 9  164 219 
 SPBC HN ES       1442 54.78                             128   -0.43 9  164 219 
 SPBC HZ I        1443  2.37        66.9 0.18            121            164 219 
 ZAR  HZ EP       1442 37.09                             121   -0.24 8  206 292 
 ZAR  HN ES       1443  2.94                             121    0.41 8  206 292 
 ZAR  HZ I        1443  8.17        80.1 0.42            113            206 292 
 NOR  HZ EP       1442 40.21                             118   -0.36 8  235 235 
 NOR  HN ES       1443  8.33                             118    0.03 8  235 235 
 NOR  HZ I        1443 10.90        31.8 0.18            111            235 235 
 CHI  HZ EP       1442 42.43                             116   -0.01 8  248 196 
 CHI  HN ES       1443 12.21                             116    0.57 8  248 196 
 CHI  HZ I        1443 18.43        14.7 0.30            111            248 196 
 ROSC BZ EP   9   1442 44.55                             116    1.64 0  253 211 
 ROSC BN ES       1443 14.87                             115    0.76 8  253 211 
 ROSC BZ I        1443 20.44        57.7 0.50            110            253 211 
 HEL  HZ EP   9   1442 46.43                             114    1.30 0  273 256 
 HEL  HN ES       1443 17.63                             114   -0.10 8  273 256 
 HEL  HZ I        1443 23.56        25.4 0.28            107            273 256 
 URE  HZ EP   3   1442 44.52                             113   -1.51 2  285 292 
 URE  HZ I        1443 29.12        42.7 0.18            106            285 292 
 GUY2CHZ EP   3   1442 49.38                             112    0.88 2  302 235 
 GUY2CHN ES       1443 22.91                             112    0.48 7  302 235 
 GUY2CHZ  IAML    1443 31.77        20.3 0.62                           302 235 
 PTGC HZ EP   9   1442 47.34                             111   -1.21 0  308 159 
 PTGC HN ES       1443 20.85                             111   -0.45 7  308 159 
 PTGC HZ I        1443 22.96        26.1 0.38            106            308 159 
 LL6C HN EP   9   1442 30.54                             110   -20.1 0  326 357 
 LL6C HE ES   4   1443  8.28                             111    2.18 0  326 357 
 ELA  HZ EP   9   1442 54.23                             110    2.48 0  330 230 
 ELA  HN ES       1443 31.01                             109    0.32 7  330 230 
 ELA  HZ I        1443 38.10        14.6 0.40            104            330 230 
 CBOC HZ EP       1442 52.28                             109    0.41 7  335 252 
 CBOC HN ES       1443 27.85                             109   -0.57 7  335 252 
 CBOC HZ I        1443 32.82         8.0 0.29            103            335 252 
 DBB  EZ EP       1442 52.28                             109   -0.19 7  341 274 
 DBB  EN ES       1443 28.73                             109   -0.76 7  341 274 
 DBB  EZ I        1443 35.25        10.8 0.36            103            341 274 
 PRA  HZ EP   9   1442 55.52                             106   -2.87 0  392 210 
 PRA  HN ES   3   1443 38.34                             106    1.18 1  392 210 
 PRA  HZ I        1443 44.44        17.5 0.28            101            392 210 
 ORTC HZ EP       1442 59.14                             106    0.33 6  396 216 
 ORTC HN ES       1443 41.60                             106    0.82 6  396 216 
 ORTC HZ I        1443 46.02        15.8 0.46            101            396 216 
 SJC  HZ EP   3   1442 59.00                             105   -1.58 1  410 327 
 SJC  HN ES   4   1443 40.21                             105   -3.71 0  410 327 
 SJC  HZ I        1443 43.89        14.9 0.52             99            410 327 
 CRJC HZ EP   3   1443  4.85                             103   -2.60 1  468   3 
 CRJC HZ I        1443 49.74        15.4 0.22                           468   3 
 YOT  HZ EP       1443  8.69                             103    0.69 5  473 229 
 YOT  HN ES   4   1443 59.30                             103    2.16 0  473 229 
 YOT  HZ I        1444  4.54         2.5 0.44                           473 229 
                                                                                
