 2017 1210 1214 28.1 L   6.812 -73.174146.1  RSN  5 0.2 1.3LRSN                1
 GAP=140        0.46       2.4     2.2  3.8 -0.5413E+00  0.2101E+01  0.2693E+01E
 Epicentro: LOS SANTOS - SANTANDER                                             3
 ACTION:UPD 18-01-04 13:18 OP:rebc STATUS:               ID:20171210121428 L   I
 OLDACT:REG 17-12-10 19:55 OP:lv   STATUS:               ID:20171210120743     3
 2017-12-10-1208-00M.COL___475                                                 6
 STAT SP IPHASW D HRMM SECON CODA AMPLIT PERI AZIMU VELO AIN AR TRES W  DIS CAZ7
 BAR2 EZ EP       1214 47.71                             170   -0.0910 24.4 182 
 BAR2 EZ ES       1215  3.37                             170    0.2110 24.4 182 
 BAR2 EZ I        1215  4.09         7.5 0.22            168           24.4 182 
 PAM  EZ IP     C 1214 50.59                             151    0.1610 78.4  42 
 PAM  EN ES       1215  7.63                             151   -0.2010 78.4  42 
 PAM  EZ I        1215 10.58         3.9 0.52            154           78.4  42 
 PTB  HZ EP       1214 54.66                             133   -0.19 9  145 258 
 PTB  HN ES       1215 15.60                             133   -0.10 9  145 258 
 PTB  HZ I        1215 19.40         2.1 0.28            134            145 258 
 ZAR  HN ES       1215 25.43                             123    0.16 9  201 292 
 CHI  HZ EP       1215  6.07                             117    0.19 8  249 194 
 CHI  HN ES       1215 35.26                             117   -0.09 8  249 194 
 CHI  HZ I        1215 41.49         1.2 0.38            118            249 194 
                                                                                
