 2016  410 1525 14.8 L   6.713 -73.155139.9  RSN  5 0.3 2.0LRSN                1
 GAP=157        0.73       6.1     3.8  6.4 -0.9865E+01  0.9095E+01 -0.1347E+02E
 Epicentro: VILLANUEVA - SANTANDER                                             3
 ACTION:UPD 16-05-05 14:20 OP:rebc STATUS:               ID:20160410152514 L   I
 OLDACT:REG 16-04-10 20:09 OP:drio STATUS:               ID:20160410151744     3
 2016-04-10-1517-44M.COL___291                                                 6
 STAT SP IPHASW D HRMM SECON CODA AMPLIT PERI AZIMU VELO AIN AR TRES W  DIS CAZ7
 BAR2 EZ EP       1525 33.87                             174    0.3310 13.7 193 
 BAR2 EZ ES       1525 48.42                             174    0.2410 13.7 193 
 BAR2 EZ I        1525 49.63        20.3 0.30            175           13.7 193 
 PAM  EZ EP       1525 36.81                             147   -0.0910 85.6  36 
 PAM  EE ES       1525 53.81                             147   -0.3410 85.6  36 
 PAM  EZ I        1525 55.97        14.3 0.48            148           85.6  36 
 PTB  HZ EP       1525 40.62                             131   -0.42 9  145 262 
 PTB  HN ES       1526  1.35                             131   -0.18 9  145 262 
 PTB  HZ I        1526  3.52         8.2 0.16            132            145 262 
 OCA  HZ EP       1525 43.85                             127    0.30 9  170 354 
 OCA  HE ES   4   1526  4.08                             127   -1.92 0  170 354 
 OCA  HZ I        1526  7.23        20.2 0.24            127            170 354 
 ZAR  HZ EP   4   1525 48.25                             121    1.10 0  207 295 
 ZAR  HE ES       1526 12.61                             121    0.20 8  207 295 
 ZAR  HZ I        1526 18.50         8.1 0.32            121            207 295 
                                                                                
