 2014  610 1830 25.0 L   6.827 -73.157148.1  RSN  6 0.4 1.7LRSN                1
 GAP=134        0.80       4.5     4.2  8.4 -0.8346E-01  0.3852E+01 -0.1083E+01E
 Epicentro: LOS SANTOS - SANTANDER                                             3
 ACTION:UPD 14-07-01 22:52 OP:nd   STATUS:               ID:20140610183025 L   I
 OLDACT:REG 14-06-10 20:53 OP:fm   STATUS:               ID:20140610182818     3
 2014-06-10-1828-18M.COL___250                                                 6
 STAT SP IPHASW D HRMM SECON CODA AMPLIT PERI AZIMU VELO AIN AR TRES W  DIS CAZ7
 BRR  HN ES   1   1831  3.59                             154    0.70 7 68.7 297 
 BRR  HZ I        1831 20.12        13.2 0.38            153           68.7 297 
 PAM  SZ EP       1830 47.81                             152    0.4010 75.9  42 
 PAM  SN ES   1   1831  4.50                             152   -0.36 7 75.9  42 
 PAM  SZ I        1831  6.76        12.4 0.46            160           75.9  42 
 RUS  HZ EP   1   1830 49.18                             144   -0.06 7  104 176 
 RUS  HN ES   1   1831  7.84                             144   -0.27 7  104 176 
 PTB  HZ EP       1830 52.10                             133   -0.04 9  147 258 
 PTB  HE ES       1831 13.06                             133   -0.22 9  147 258 
 PTB  HZ I        1831 18.65         2.7 0.22            138            147 258 
 ZAR  HE ES   1   1831 22.81                             123    0.16 6  202 291 
 ZAR  HZ I        1831 29.95         4.9 0.28            129            202 291 
 SML  HN ES   1   1831 29.18                             118   -0.67 6  240 335 
 SML  HZ I        1831 32.48         6.3 0.10            125            240 335 
                                                                                
