 2010  810 1950 57.7 L   7.005 -73.122126.0  RSN  6 0.4 1.7LRSN                1
 GAP=158        0.86       6.0     9.2  9.7 -0.1525E+02 -0.5073E+02  0.5338E+01E
 Epicentro: FLORIDABLANCA - SANTANDER                                          3
 ACTION:UP  10-09-07 10:53 OP:vdl  STATUS:               ID:20100810195057 L   I
 2010-08-10-1946-29S.COL___124                                                 6
 STAT SP IPHASW D HRMM SECON CODA AMPLIT PERI AZIMU VELO SNR AR TRES W  DIS CAZ7
 GIR2 SZ EP   2   1951 14.73                             175     0.1 5   11 316 
 GIR2 SZ ES   2   1951 28.31                             175     0.5 5   11 316 
 BAR2 SZ EP       1951 15.77                             159     0.010   46 189 
 BAR2 SZ I        1951 15.96        41.9 0.03                            46 189 
 BAR2 SZ ES   2   1951 30.01                             159     0.2 5   46 189 
 BRR  HZ EP       1951 16.13                             151    -0.310   66 280 
 BRR  HN ES       1951 31.15                             151     0.110   66 280 
 BRR  HZ I        1951 32.29        22.3 0.57                            66 280 
 GUE  SZ EP       1951 18.80                             141     0.010   94  13 
 GUE  SZ I        1951 19.44         3.9 0.16                            94  13 
 GRA  SZ EP       1951 19.76                             138     0.410  103  20 
 GRA  SZ I        1951 21.05         9.9 0.30                           103  20 
 GRA  SZ ES   2   1951 35.16                             138    -1.0 5  103  20 
 RUS  HZ EP   1   1951 21.25                             133    -0.2 7  123 178 
 RUS  HZ I        1951 21.68         4.6 0.26                           123 178 
                                                                                
