 2014  710 1546 34.8 L   6.790 -73.382122.7  RSN  6 0.5 1.8LRSN                1
 GAP=153        1.12       5.9     5.9  7.9  0.9592E+01  0.8340E+01 -0.9677E+01E
 Epicentro: SAN VICENTE DE CHUCURI - SANTANDER                                 3
 ACTION:UPD 15-03-16 20:42 OP:nd   STATUS:               ID:20140710154634 L   I
 OLDACT:REG 14-07-10 19:47 OP:cam  STATUS:               ID:20140710154000     3
 2014-07-10-1540-00M.COL___282                                                 6
 STAT SP IPHASW D HRMM SECON CODA AMPLIT PERI AZIMU VELO AIN AR TRES W  DIS CAZ7
 BAR2 SZ EP       1546 51.93                             165    0.0710 31.1 135 
 BAR2 SZ ES       1547  5.16                             165   -0.0210 31.1 135 
 BRR  HZ EP       1546 52.43                             156    0.1310 50.6 314 
 BRR  HN ES       1547  6.36                             156    0.3910 50.6 314 
 BRR  HN I        1547  7.22        18.5 0.12            151           50.6 314 
 RUS  HZ EP   1   1546 56.49                             137   -0.18 7  105 162 
 PTB  HZ EP       1546 57.39                             132   -0.1310  122 257 
 PTB  HN ES       1547 14.49                             132   -0.7710  122 257 
 PTB  HZ I        1547 20.70         4.3 0.10            130            122 257 
 ZAR  HZ EP       1547  4.20                             120    0.88 9  181 296 
 ZAR  HN ES       1547 25.97                             120    0.39 9  181 296 
 ZAR  HZ I        1547 32.03         5.4 0.44            119            181 296 
 SML  HZ EP   1   1547  8.83                             113   -0.42 6  235 341 
 SML  HN ES       1547 35.40                             113   -0.74 8  235 341 
 SML  HZ I        1547 40.60        14.2 0.26            113            235 341 
                                                                                
