 2013  310 1307 34.6 L   6.854 -73.305122.5  RSN  4 0.2 1.6LRSN                1
 GAP=111        0.49       4.5     3.0  4.4 -0.2293E+01  0.2532E+01 -0.5411E+00E
 Epicentro: ZAPATOCA - SANTANDER                                               3
 ACTION:UPD 13-04-09 14:01 OP:ep   STATUS:               ID:20130310130734 L   I
 2013-03-10-1258-50M.COL___198                                                 6
 STAT SP IPHASW D HRMM SECON CODA AMPLIT PERI AZIMU VELO AIN AR TRES W  DIS CAZ7
 BAR2 SZ EP       13 7 51.55                             165   -0.1310 32.0 155 
 BAR2 SZ ES       13 8  5.07                             165    0.0710 32.0 155 
 BAR2 SZ I        13 8  5.81        18.9 0.28            165           32.0 155 
 BRR  HZ EP       13 7 52.03                             155   -0.1810 52.9 302 
 BRR  HN ES       13 8  6.04                             155    0.0910 52.9 302 
 BRR  HN I        13 8  6.94        11.0 0.60            155           52.9 302 
 PTB  HZ EP       13 7 58.56                             130    0.3210  132 255 
 PTB  HN ES       13 8 16.52                             130   -0.1710  132 255 
 PTB  HZ I        13 8 18.62         4.4 0.46            130            132 255 
 CAPV BZ ES   2   13 8 21.47                             124    0.03 5  156  44 
                                                                                
