 2012  910 1245 20.3 L   6.752 -73.175144.3  RSN  6 0.3 1.7LRSN                1
 GAP=177        0.63       5.7     5.2  6.6  0.1511E+02  0.2286E+01 -0.3445E+01E
 Epicentro: VILLANUEVA - SANTANDER                                             3
 ACTION:UPD 12-10-22 14:18 OP:ep   STATUS:               ID:20120910124520 L   I
 2012-09-10-1240-00M.COL___226                                                 6
 STAT SP IPHASW D HRMM SECON CODA AMPLIT PERI AZIMU VELO AIN AR TRES W  DIS CAZ7
 BAR2 SZ EP   1   1245 39.60                             173   -0.04 7 17.6 183 
 BAR2 SZ ES   1   1245 54.11                             173   -0.63 7 17.6 183 
 BAR2 SZ I        1245 56.04        18.5 0.18                          17.6 183 
 GIR2 SZ EP   1   1245 39.86                             165   -0.07 7 36.2 357 
 BRR  HZ EP   1   1245 41.40                             152    0.12 7 71.2 304 
 BRR  HN ES   1   1245 58.17                             152    0.52 7 71.2 304 
 RUS  HZ EP   1   1245 43.68                             145    0.14 7 95.5 174 
 RUS  HN ES   1   1246  2.00                             145    0.33 7 95.5 174 
 RUS  HZ I        1246  3.90         3.9 0.30                          95.5 174 
 PTB  HZ EP   1   1245 46.49                             132   -0.27 7  144 261 
 PTB  HN ES   1   1246  7.31                             132   -0.10 7  144 261 
 PTB  HN I        1246 12.72         7.5 0.36                           144 261 
 ZAR  HE ES   1   1246 17.64                             122   -0.07 6  203 294 
 ZAR  HZ I        1246 25.91         3.6 0.25                           203 294 
                                                                                
