 2010  410 1337 11.7 L   6.800 -73.026143.5  RSN 10 0.4 2.6LRSN                1
 GAP=149        0.71       3.9     6.6  5.5 -0.8793E+01 -0.7831E+01  0.3693E+01E
 Epicentro: CEPITA - SANTANDER                                                 3
 ACTION:UPD 10-08-24 09:58 OP:vdl  STATUS:               ID:20100410133711 L   I
 2010-04-10-1334-43S.COL___097                                                 6
 STAT SP IPHASW D HRMM SECON CODA AMPLIT PERI AZIMU VELO AIN AR TRES W  DIS CAZ7
 BAR2 SZ EP       1337 31.29                             168     0.110   29 217 
 BAR2 SZ ES   1   1337 46.10                             168    -0.2 7   29 217 
 BRR  HZ IP     C 1337 33.48                             148     0.210   83 294 
 BRR  HN ES   1   1337 50.44                             148     0.3 7   83 294 
 BRR  HZ I        1337 54.64        53.3 0.27                            83 294 
 OCA  SZ EP       1337 39.70                             129    -0.3 9  162 349 
 OCA  SZ ES   1   1338  1.75                             129    -0.3 7  162 349 
 OCA  SZ I        1338  6.06        79.4 0.38                           162 349 
 CHI  HZ EP   2   1337 48.86                             116    -0.8 4  252 198 
 CHI  HE ES   2   1338 18.46                             116    -0.8 4  252 198 
 HEL  HZ EP   2   1337 53.82                             113     0.6 4  285 256 
 HEL  HZ I        1338 29.77        17.2 0.37                           285 256 
 RREF BZ EP   2   1337 59.03                             110     0.2 3  332 231 
 RREF BN ES   3   1338 34.96                             110    -0.7 2  332 231 
 RREF BZ I        1338 45.47         8.6 0.42                           332 231 
 SDV  BZ EP       1338  0.85                             108     0.4 6  350  49 
 SDV  BZ I        1338  1.98        18.8 0.12                           350  49 
 TOL  SZ EP       1338  1.25                             108     0.3 6  353 226 
 DBB  SZ EP   2   1337 59.52                             108    -1.0 3  353 274 
 PRA  HZ EP   2   1338  5.38                             106    -0.5 3  399 211 
 PRA  HN ES   2   1338 48.62                             106     0.4 3  399 211 
                                                                                
