 2013  210 1154 45.5 L   6.793 -73.163145.3  RSN  7 0.3 1.6LRSN                1
 GAP=135        0.65       2.6     3.3  4.3 -0.3111E+00  0.2127E+01 -0.1351E+00E
 Epicentro: LOS SANTOS - SANTANDER                                             3
 ACTION:UPD 13-03-12 09:32 OP:ep   STATUS:               ID:20130210115445 L   I
 2013-02-10-1150-00M.COL___241                                                 6
 STAT SP IPHASW D HRMM SECON CODA AMPLIT PERI AZIMU VELO AIN AR TRES W  DIS CAZ7
 BAR2 SZ EP       1155  5.02                             171   -0.0310 22.3 185 
 BAR2 SZ ES       1155 20.54                             171    0.2410 22.3 185 
 BAR2 SZ I        1155 22.54        12.4 0.22            168           22.3 185 
 BRR  HZ EP       1155  6.76                             153    0.2410 69.9 300 
 BRR  HZ I        1155  6.92        11.2 0.39            152           69.9 300 
 BRR  HE ES       1155 23.29                             153    0.3710 69.9 300 
 PAM  SZ EP       1155  7.99                             150    0.2210 79.3  40 
 PAM  SZ I        1155  8.19        11.7 0.17            154           79.3  40 
 PAM  SN ES       1155 24.89                             150   -0.2610 79.3  40 
 RUS  HZ EP   1   1155  9.09                             144   -0.06 7 99.9 175 
 RUS  HE ES       1155 27.28                             144   -0.3310 99.9 175 
 RUS  HE I        1155 29.06         5.4 0.50            143           99.9 175 
 PTB  HZ EP   1   1155 12.09                             132   -0.14 7  146 259 
 PTB  HN ES       1155 32.70                             132   -0.39 9  146 259 
 PTB  HZ I        1155 38.18         4.6 0.35            131            146 259 
 SML  HZ EP   1   1155 21.67                             117   -0.41 6  244 336 
 SML  HE ES   1   1155 50.49                             117   -0.14 6  244 336 
 CHI  HZ EP   1   1155 23.25                             117    0.23 6  247 195 
 CHI  HN ES   1   1155 52.63                             117    0.33 6  247 195 
 CHI  HZ I        1155 56.63         1.0 0.42            117            247 195 
                                                                                
