 2017  310 1333 34.0 L   6.805 -73.163146.8  RSN  4 0.3 1.5LRSN                1
 GAP=142        0.56       5.6     6.5  5.8 -0.2255E+02  0.2058E+02 -0.1014E+02E
 Epicentro: LOS SANTOS - SANTANDER                                             3
 ACTION:UPD 17-05-25 18:38 OP:jn   STATUS:               ID:20170310133334 L   I
 OLDACT:UP  17-03-10 22:05 OP:and  STATUS:               ID:20170310132749     3
 OLDACT:UP  17-03-10 22:05 OP:and  STATUS:               ID:20170310132749     3
 OLDACT:REG 17-03-10 20:56 OP:and  STATUS:               ID:20170310132749     3
 2017-03-10-1328-00M.COL___403                                                 6
 STAT SP IPHASW D HRMM SECON CODA AMPLIT PERI AZIMU VELO AIN AR TRES W  DIS CAZ7
 BAR2 EZ EP       1333 53.80                             170    0.0010 23.6 185 
 BAR2 EZ ES       1334  9.05                             170   -0.1610 23.6 185 
 BAR2 EZ I        1334 10.84         8.1 0.28            168           23.6 185 
 PAM  EZ IP     C 1333 56.69                             150    0.2810 78.2  41 
 PAM  EN ES       1334 13.87                             150    0.0110 78.2  41 
 PAM  EZ I        1334 15.88         4.6 0.38            155           78.2  41 
 RUS  HZ EP   2   1333 58.29                             143    0.35 5  101 175 
 RUS  HN ES   2   1334 16.65                             143    0.07 5  101 175 
 RUS  HZ I        1334 17.67         5.8 0.34            149            101 175 
 PTB  HZ EP       1334  0.58                             133   -0.34 9  146 258 
 PTB  HE ES   3   1334 22.91                             133    1.01 2  146 258 
 PTB  HZ I        1334 28.66         2.4 0.09            131            146 258 
                                                                                
