 2013  710 1021 14.0 L   6.818 -73.171149.9  RSN  9 0.5 2.1LRSN                1
 GAP=133        1.29       4.6     6.0  7.2 -0.1005E+01  0.3257E+01 -0.5261E+01E
 Epicentro: LOS SANTOS - SANTANDER                                             3
 ACTION:UPD 13-08-12 10:36 OP:ep   STATUS:               ID:20130710102114 L   I
 OLDACT:REG 13-07-10 15:36 OP:stll STATUS:               ID:20130710101850     3
 2013-07-10-1018-50M.COL___226                                                 6
 STAT SP IPHASW D HRMM SECON CODA AMPLIT PERI AZIMU VELO AIN AR TRES W  DIS CAZ7
 BAR2 SZ EP       1021 34.17                             170   -0.0110 25.0 183 
 BAR2 SZ I        1021 34.27        14.1 0.40            169           25.0 183 
 BAR2 SZ ES       1021 49.59                             170   -0.3110 25.0 183 
 GIR2 SZ EP       1021 34.27                             168    0.1510 28.9 355 
 GIR2 SZ ES       1021 50.41                             168    0.6110 28.9 355 
 BRR  HZ EP       1021 36.01                             154    0.5810 67.8 298 
 BRR  HN ES       1021 52.94                             154    0.8110 67.8 298 
 PAM  SZ EP       1021 36.91                             152    0.2210 77.7  42 
 PAM  SZ I        1021 37.21        21.1 0.22            154           77.7  42 
 PAM  SN ES       1021 54.01                             152   -0.3610 77.7  42 
 RUS  HZ EP       1021 38.71                             144    0.3710  103 175 
 RUS  HN ES       1021 56.40                             144   -0.9110  103 175 
 RUS  HN I        1021 57.22        11.3 0.32            144            103 175 
 PTB  HZ EP       1021 40.77                             133   -0.35 9  145 258 
 PTB  HE ES       1022  2.26                             133    0.00 9  145 258 
 PTB  HE I        1022  8.01        14.3 0.60            131            145 258 
 CAPV BZ EP       1021 42.02                             133    0.25 9  149  39 
 OCA  HN ES       1022  4.20                             131   -0.40 9  158 354 
 SML  HZ EP       1021 50.48                             119   -0.08 8  241 336 
 SML  HN ES       1022 18.02                             119   -1.04 8  241 336 
 SML  HN I        1022 21.52        23.3 0.10            118            241 336 
                                                                                
