 2014  610 1205 33.4 L   6.419 -72.823  4.1  RSN  8 0.6 2.0LRSN                1
 GAP=141        1.38       6.8     5.0 10.2  0.1596E+02  0.2173E+02  0.2474E+02E
 Epicentro: SAN JOAQUIN - SANTANDER                                            3
 ACTION:UPD 14-07-01 22:52 OP:nd   STATUS:               ID:20140610120533 L   I
 OLDACT:UP  14-06-10 22:54 OP:fm   STATUS:               ID:20140610115805     3
 OLDACT:UP  14-06-10 22:48 OP:fm   STATUS:               ID:20140610115805     3
 OLDACT:UP  14-06-10 22:38 OP:fm   STATUS:               ID:20140610115805     3
 OLDACT:REG 14-06-10 20:14 OP:fm   STATUS:               ID:20140610115805     3
 2014-06-10-1158-05M.COL___259                                                 6
 STAT SP IPHASW D HRMM SECON CODA AMPLIT PERI AZIMU VELO AIN AR TRES W  DIS CAZ7
 BAR2 SZ IPg    C 12 5 40.10                              90   -0.8310 44.1 296 
 BAR2 SZ ESg  1   12 5 45.70                              90   -1.10 7 44.1 296 
 BAR2 SZ I        12 5 46.56        88.8 0.22             47           44.1 296 
 RUS  HZ IP       12 5 44.14                              90   -0.2110 65.0 206 
 TAM  HN ES   1   12 6  5.43                              90    0.10 7  114  89 
 BRR  HZ EP       12 5 53.35                              90    0.5110  124 308 
 BRR  HN ES       12 6  8.25                              90    0.2610  124 308 
 BRR  HZ I        12 6  9.71        15.7 0.26             47            124 308 
 PTB  HZ EP       12 6  1.49                              56    0.17 9  181 274 
 PTB  HN ES       12 6 24.04                              56    0.95 9  181 274 
 PTB  HZ I        12 6 26.15        46.7 0.30             37            181 274 
 CHI  HE ES   4   12 6 37.81                              56    4.77 0  222 207 
 ZAR  HZ EP   4   12 6 12.06                              56    1.61 0  254 298 
 HEL  HE ES   1   12 6 50.42                              55    0.05 5  300 265 
 HEL  HZ I        12 6 56.32         5.1 0.24             36            300 265 
 GUY2CHE ES   4   12 6 56.74                              55    3.83 0  311 245 
 GUY2CHZ I        12 7  3.98         3.3 0.50                           311 245 
 SJC  HZ EP   4   12 6 38.55                              55    2.08 0  464 326 
 SJC  HZ I        12 7 10.86         3.6 0.12                           464 326 
                                                                                
