 2012  910 1953 41.2 L   6.788 -73.115142.2  RSN  6 0.2 1.7LRSN                1
 GAP=141        0.52       3.5     4.4  4.9  0.1570E+01  0.7983E+00  0.1334E+01E
 Epicentro: LOS SANTOS - SANTANDER                                             3
 ACTION:UPD 12-10-22 14:18 OP:ep   STATUS:               ID:20120910195341 L   I
 2012-09-10-1950-00M.COL___227                                                 6
 STAT SP IPHASW D HRMM SECON CODA AMPLIT PERI AZIMU VELO AIN AR TRES W  DIS CAZ7
 BAR2 SZ EP   1   1954  0.34                             170   -0.04 7 22.9 199 
 BAR2 SZ I        1954  0.85        17.4 0.16                          22.9 199 
 BAR2 SZ ES   1   1954 15.38                             170    0.03 7 22.9 199 
 GIR2 SZ EP   1   1954  0.15                             166   -0.35 7 33.3 345 
 GIR2 SZ ES   1   1954 15.12                             166   -0.43 7 33.3 345 
 BRR  HZ EP   1   1954  2.13                             151   -0.04 7 74.8 298 
 BRR  HZ I        1954  6.60        21.4 0.50                          74.8 298 
 BRR  HN ES   1   1954 18.85                             151    0.32 7 74.8 298 
 PAM  SZ EP   1   1954  3.35                             150    0.38 7 76.3  37 
 PAM  SN ES   1   1954 20.05                             150    0.10 7 76.3  37 
 PAM  SZ I        1954 22.14         9.3 0.54                          76.3  37 
 RUS  HZ EP   1   1954  4.35                             143   -0.14 7 99.1 178 
 RUS  HN ES   1   1954 22.81                             143    0.16 7 99.1 178 
 RUS  HZ I        1954 24.59         3.8 0.28                          99.1 178 
 ZAR  HE ES   2   1954 39.22                             121    0.01 4  208 292 
                                                                                
