 2010 1110 1356 50.5 L   6.498 -73.587115.2  RSN  4 0.2 1.6LRSN                1
 GAP=114        0.39       3.5     4.1  8.2  0.5143E+00  0.1181E+02  0.6421E+01E
 Epicentro: SANTA HELENA DEL OPON - SANTANDER                                  3
 ACTION:UP  10-12-17 16:51 OP:REBC STATUS:               ID:20101110135650 L   I
 2010-11-10-1353-43S.COL___128                                                 6
 STAT SP IPHASW D HRMM SECON CODA AMPLIT PERI AZIMU VELO SNR AR TRES W  DIS CAZ7
 BAR2 SZ EP   1   1357  7.43                             157     0.1 7   46  77 
 BAR2 SZ I        1357 21.66        39.9 0.26                            46  77 
 BRR  HZ EP   1   1357  8.22                             147    -0.1 7   69 348 
 BRR  HZ I        1357 16.50         9.5 0.15                            69 348 
 BRR  HE ES   2   1357 22.15                             147     0.0 5   69 348 
 RUS  HZ EP   2   1357 10.48                             141     0.2 5   87 140 
 RUS  HN ES   2   1357 25.53                             141    -0.2 5   87 140 
 RUS  HZ I        1357 27.52         3.3 0.14                            87 140 
 NOR  SZ EP   2   1357 17.82                             119    -0.3 4  176 234 
 NOR  SE ES   2   1357 39.89                             119     0.2 4  176 234 
                                                                                
