 2012  310 1602 52.6 L   6.495 -73.742 98.6  RSN 13 0.4 2.6LRSN                1
 GAP= 52        0.96       2.8     2.7  6.1 -0.5387E+00  0.6065E+01  0.3466E+01E
 ACTION:UP  12-03-31 23:18 OP:EP   STATUS:               ID:20120310160252 L   I
 2012-03-10-1600-00M.COL___193                                                 6
 STAT SP IPHASW D HRMM SECON CODA AMPLIT PERI AZIMU VELO SNR AR TRES W  DIS CAZ7
 BAR2 SZ EP       16 3  8.88                             145     0.310   63  80 
 BAR2 SZ ES       16 3 20.98                             145    -0.110   63  80 
 BAR2 SZ I        16 3 23.31       301.9 0.32                            63  80 
 BRR  HZ IP     C 16 3  8.79                             143     0.210   68   3 
 BRR  HE ES       16 3 21.64                             143     0.510   68   3 
 BRR  HZ I        16 3 22.52       121.9 0.14                            68   3 
 PTB  HZ EP       16 3  8.93                             138    -0.610   79 274 
 PTB  HE ES   1   16 3 22.57                             138    -0.2 7   79 274 
 RUS  HZ EP       16 3 11.73                             132    -0.110   99 132 
 RUS  HZ I        16 3 12.48        43.7 0.11                            99 132 
 RUS  HE ES   1   16 3 26.63                             132    -0.3 7   99 132 
 PAM  SZ EP       16 3 16.91                             120     0.1 9  148  51 
 PAM  SE ES   1   16 3 35.38                             120    -0.4 7  148  51 
 NOR  SZ EP       16 3 17.58                             117    -0.2 9  162 231 
 NOR  SE ES       16 3 37.01                             117    -0.4 9  162 231 
 ZAR  HZ EP       16 3 18.67                             116     0.6 9  165 312 
 ZAR  HN ES   1   16 3 38.19                             116     0.2 7  165 312 
 ZAR  HZ I        16 3 42.00        71.5 0.43                           165 312 
 HEL  HZ EP       16 3 22.56                             112     0.1 9  201 260 
 HEL  HE ES   1   16 3 45.92                             112     0.1 6  201 260 
 HEL  HZ I        16 3 50.78        29.5 0.46                           201 260 
 CHI  HZ EP   1   16 3 23.87                             111     0.7 6  206 180 
 CHI  HE ES   1   16 3 47.32                             111     0.2 6  206 180 
 GUY  SZ EP   1   16 3 26.35                             109     0.3 6  230 232 
 GUY  SZ I        16 3 58.62        45.5 0.36                           230 232 
 RREF HZ EP   1   16 3 29.32                             107     0.7 6  250 225 
 RREF HN ES   1   16 3 56.95                             107     0.2 6  250 225 
 RREF HZ I        16 4  3.55        26.0 0.32                           250 225 
 MON  HZ EP       16 3 36.46                             103    -0.9 7  330 320 
 MON  HN ES   1   16 4 11.60                             103    -0.6 5  330 320 
 MON  HZ I        16 4 24.95         8.8 0.47                           330 320 
 PRA  HZ EP   1   16 3 37.58                             103    -0.1 5  333 202 
                                                                                
