 2017  810 1248 12.7 L   6.783 -73.114144.7  RSN  5 0.2 1.4LRSN                1
 GAP=141        0.64       3.3     3.6  5.1  0.2476E+01  0.2187E+01 -0.1974E+00E
 Epicentro: LOS SANTOS - SANTANDER                                             3
 ACTION:UPD 17-09-04 20:18 OP:rebc STATUS:               ID:20170810124812 L   I
 OLDACT:UP  17-08-10 22:47 OP:dani STATUS:               ID:20170810123747d    3
 OLDACT:UP  17-08-10 22:47 OP:dani STATUS:               ID:20170810123747d    3
 OLDACT:DUP 17-08-10 22:43 OP:dani STATUS:               ID:20170810123747d    3
 2017-08-10-1238-00M.COL___408                                                 6
 STAT SP IPHASW D HRMM SECON CODA AMPLIT PERI AZIMU VELO AIN AR TRES W  DIS CAZ7
 BAR2 EZ EP     C 1248 32.10                             171   -0.0410 22.4 200 
 BAR2 EZ ES       1248 46.90                             171   -0.4410 22.4 200 
 BAR2 EZ I        1248 48.45         6.9 0.20            173           22.4 200 
 BRR  HZ EP       1248 33.96                             151    0.0410 75.1 299 
 BRR  HN ES       1248 50.93                             151    0.4210 75.1 299 
 BRR  HZ I        1248 53.07         7.1 0.54            152           75.1 299 
 PAM  EZ EP       1248 34.72                             151    0.0010 76.7  37 
 PAM  EN ES       1248 51.94                             151    0.0110 76.7  37 
 PAM  EZ I        1248 54.63         5.2 0.49            151           76.7  37 
 RUS  HZ EP       1248 36.17                             144    0.0210 98.5 178 
 RUS  HN ES       1248 54.67                             144    0.1810 98.5 178 
 RUS  HZ I        1248 55.43         2.6 0.22            147           98.5 178 
 ZAR  HN ES       1249 10.73                             122   -0.28 8  208 292 
                                                                                
