 2017 1210 1846 47.5 L   6.819 -73.178139.6  RSN 10 0.4 1.7LRSN                1
 GAP=108        1.04       2.7     3.7  6.3 -0.7024E+00  0.5588E+01  0.1826E+01E
 Epicentro: ZAPATOCA - SANTANDER                                               3
 ACTION:UPD 18-01-04 13:19 OP:rebc STATUS:               ID:20171210184647 L   I
 OLDACT:REG 17-12-10 20:33 OP:lv   STATUS:               ID:20171210183742     3
 2017-12-10-1838-00M.COL___469                                                 6
 STAT SP IPHASW D HRMM SECON CODA AMPLIT PERI AZIMU VELO AIN AR TRES W  DIS CAZ7
 BAR2 EZ EP       1847  6.16                             169   -0.2810 25.1 181 
 BAR2 EZ ES       1847 20.95                             169   -0.2510 25.1 181 
 BAR2 EZ I        1847 22.45        13.8 0.28            170           25.1 181 
 PAM  EZ EP       1847  9.20                             149    0.0810 78.2  43 
 PAM  EN ES       1847 26.12                             149    0.1410 78.2  43 
 PAM  EZ I        1847 29.43         6.5 0.52            153           78.2  43 
 PTB  HZ EP       1847 13.14                             131   -0.55 9  145 258 
 PTB  HN ES       1847 33.93                             131   -0.19 9  145 258 
 PTB  HZ I        1847 35.90         4.7 0.18            132            145 258 
 OCA  HZ EP       1847 15.29                             129    0.18 9  158 354 
 OCA  HN ES       1847 36.56                             129   -0.08 9  158 354 
 OCA  HZ I        1847 39.59        13.9 0.16            131            158 354 
 SPBC HZ EP       1847 15.23                             128   -0.25 9  163 218 
 SPBC HN ES       1847 38.30                             128    0.99 9  163 218 
 SPBC HZ I        1847 41.42        10.9 0.36            129            163 218 
 YPLC HZ EP       1847 16.68                             125   -0.54 9  180 151 
 YPLC HN ES       1847 40.67                             125    0.27 9  180 151 
 YPLC HZ I        1847 41.47         5.2 0.32            128            180 151 
 ZAR  HZ EP       1847 18.80                             122   -0.33 9  200 292 
 ZAR  HE ES       1847 43.45                             122   -0.34 9  200 292 
 ZAR  HZ I        1847 51.39         4.7 0.24            123            200 292 
 CHI  HZ EP       1847 24.68                             116   -0.31 8  250 194 
 CHI  HN ES       1847 54.34                             116    0.11 8  250 194 
 CHI  HZ I        1847 58.81         2.9 0.44            118            250 194 
 DRL03HN ES       1848  1.55                             112    1.00 7  286 353 
 GUY2CHZ EP       1847 31.28                             111    0.64 7  299 234 
 GUY2CHN ES       1848  4.71                             111    0.42 7  299 234 
 GUY2CHZ I        1848 12.61         3.2 0.64                           299 234 
 SJC  HZ EP   4   1847 40.52                             105   -1.91 0  405 327 
 SJC  HN ES   4   1848 20.78                             105   -4.49 0  405 327 
                                                                                
