 2013  110 1139 20.1 L   6.686 -73.202140.0  RSN  5 0.5 1.5LRSN                1
 GAP=219        1.37       9.6     9.9 10.0  0.4774E+02  0.2091E+02  0.2490E+02E
 Epicentro: VILLANUEVA - SANTANDER                                             3
 ACTION:UPD 13-02-15 09:13 OP:ep   STATUS:               ID:20130110113920 L   I
 2013-01-10-1138-40M.COL___175                                                 6
 STAT SP IPHASW D HRMM SECON CODA AMPLIT PERI AZIMU VELO AIN AR TRES W  DIS CAZ7
 BAR2 SZ EP       1139 38.28                             175   -0.5910 10.6 168 
 BAR2 SZ ES       1139 52.94                             175   -0.5510 10.6 168 
 BAR2 SZ I        1139 56.08         6.0 0.50            169           10.6 168 
 BRR  HZ EP       1139 41.50                             151    0.7310 73.1 310 
 BRR  HE ES       1139 57.37                             151    0.5110 73.1 310 
 RUS  HZ EP       1139 42.16                             146   -0.3110 88.8 171 
 RUS  HN ES       1140  0.47                             146    0.5710 88.8 171 
 RUS  HN I        1140  2.52         6.0 0.38            145           88.8 171 
 PTB  HZ EP       1139 45.32                             132   -0.57 9  140 263 
 PTB  HN ES       1140  5.73                             132   -0.25 9  140 263 
 PTB  HN I        1140 11.91         4.8 0.24            131            140 263 
 CHI  HZ EP       1139 56.59                             117    0.58 8  235 194 
                                                                                
