 2013 1010 1711 22.2 L   6.346 -73.348155.8  RSN  5 0.5 1.6LRSN                1
 GAP=130        1.24      10.9     9.3 12.7  0.5285E+02  0.1472E+02  0.2653E+02E
 Epicentro: CHIMA - SANTANDER                                                  3
 ACTION:UPD 13-11-25 09:20 OP:ep   STATUS:               ID:20131010171122 L   I
 OLDACT:REG 13-10-10 17:01 OP:nd   STATUS:               ID:20131010170959     3
 2013-10-10-1709-59M.COL___273                                                 6
 STAT SP IPHASW D HRMM SECON CODA AMPLIT PERI AZIMU VELO AIN AR TRES W  DIS CAZ7
 BAR2 SZ EP   2   1711 43.65                             168    0.37 5 32.8  34 
 BAR2 SZ ES   2   1711 59.85                             168    0.15 5 32.8  34 
 BAR2 SZ I        1712  1.07        18.1 0.30            166           32.8  34 
 RUS  HZ EP       1711 44.28                             159   -0.2710 58.0 150 
 RUS  HN ES   2   1712  2.48                             159    0.52 5 58.0 150 
 RUS  HZ I        1712  8.53         3.0 0.28            169           58.0 150 
 BRR  HZ IP     C 1711 46.66                             147    0.8710 93.3 334 
 BRR  HN ES       1712  3.48                             147   -0.6910 93.3 334 
 BRR  HZ I        1712 18.54         8.7 0.40            149           93.3 334 
 PTB  HZ EP       1711 47.31                             139   -0.7710  124 280 
 PTB  HN ES       1712  8.67                             139    0.4210  124 280 
 PTB  HZ I        1712 14.16         3.9 0.18            144            124 280 
 ZAR  HZ EP   2   1711 56.04                             124    0.13 4  210 307 
 ZAR  HN ES       1712 22.37                             124    0.19 8  210 307 
 ZAR  HZ I        1712 32.54         3.8 0.10            129            210 307 
                                                                                
