 2012  910 1915 30.2 L   7.058 -73.209141.9  RSN  4 0.2 1.7LRSN                1
 GAP=252        0.40       6.3     3.9  4.9  0.8348E+01  0.2316E+01 -0.3211E+01E
 Epicentro: GIRON - SANTANDER                                                  3
 ACTION:UPD 12-10-22 14:18 OP:ep   STATUS:               ID:20120910191530 L   I
 2012-09-10-1910-00M.COL___227                                                 6
 STAT SP IPHASW D HRMM SECON CODA AMPLIT PERI AZIMU VELO AIN AR TRES W  DIS CAZ7
 BAR2 SZ EP   1   1915 50.50                             159    0.19 7 51.6 177 
 BAR2 SZ ES   1   1916  5.73                             159   -0.24 7 51.6 177 
 BAR2 SZ I        1916  6.99        14.3 0.16                          51.6 177 
 BRR  HZ EP   1   1915 50.16                             157    0.01 7 55.8 276 
 BRR  HZ I        1915 50.40         9.3 0.14                          55.8 276 
 BRR  HN ES   1   1916  5.82                             157    0.13 7 55.8 276 
 PTB  HZ EP   1   1915 56.93                             131   -0.10 7  149 247 
 PTB  HN ES   1   1916 18.04                             131    0.11 7  149 247 
 PTB  HN I        1916 19.32         6.4 0.22                           149 247 
 ZAR  HE ES   2   1916 24.36                             124   -0.30 4  188 285 
                                                                                
