 2017  310 1938 10.0 L   6.820 -73.118150.3  RSN 11 0.5 1.8LRSN                1
 GAP=139        1.01       3.9     4.5  6.3 -0.1226E+01  0.6019E+01  0.7202E+00E
 Epicentro: LOS SANTOS - SANTANDER                                             3
 ACTION:UPD 17-05-25 18:38 OP:jn   STATUS:               ID:20170310193810 L   I
 OLDACT:UP  17-03-11 01:10 OP:and  STATUS:               ID:20170310193723     3
 OLDACT:UP  17-03-11 01:09 OP:and  STATUS:               ID:20170310193723     3
 OLDACT:UP  17-03-11 01:09 OP:and  STATUS:               ID:20170310193723     3
 OLDACT:UP  17-03-11 01:09 OP:and  STATUS:               ID:20170310193723     3
 OLDACT:UP  17-03-11 01:09 OP:and  STATUS:               ID:20170310193723     3
 OLDACT:UP  17-03-11 01:09 OP:and  STATUS:               ID:20170310193723     3
 OLDACT:UP  17-03-11 01:08 OP:and  STATUS:               ID:20170310193723     3
 OLDACT:UP  17-03-11 01:07 OP:and  STATUS:               ID:20170310193723     3
 OLDACT:UP  17-03-11 01:07 OP:and  STATUS:               ID:20170310193723     3
 OLDACT:UP  17-03-11 01:06 OP:and  STATUS:               ID:20170310193723     3
 OLDACT:UP  17-03-11 01:06 OP:and  STATUS:               ID:20170310193723     3
 OLDACT:REG 17-03-11 01:04 OP:and  STATUS:               ID:20170310193723     3
 2017-03-10-1938-00M.COL___403                                                 6
 STAT SP IPHASW D HRMM SECON CODA AMPLIT PERI AZIMU VELO AIN AR TRES W  DIS CAZ7
 BAR2 EZ EP       1938 30.20                             170   -0.0310 26.2 196 
 BAR2 EZ ES       1938 46.07                             170    0.0510 26.2 196 
 BAR2 EZ I        1938 48.04        11.2 0.24            167           26.2 196 
 BRR  HZ EP       1938 31.90                             153    0.1710 72.9 296 
 BRR  HN ES       1938 48.76                             153    0.0710 72.9 296 
 BRR  HZ I        1938 49.67        19.5 0.26            152           72.9 296 
 PAM  EZ IP     D 1938 33.09                             153    0.6010 73.8  39 
 PAM  EN ES       1938 49.87                             153   -0.1710 73.8  39 
 PAM  EZ I        1938 51.40         7.9 0.18            156           73.8  39 
 RUS  HZ EP       1938 34.23                             144   -0.1110  103 178 
 RUS  HN ES       1938 52.86                             144   -0.4710  103 178 
 RUS  HZ I        1938 55.13         4.3 0.22            143            103 178 
 PTB  HZ EP       1938 36.90                             132   -0.74 9  151 258 
 PTB  HN ES   3   1938 58.12                             132   -1.09 2  151 258 
 PTB  HZ I        1939  0.39        11.7 0.15            131            151 258 
 ZAR  HZ EP   2   1938 43.46                             123    0.52 4  206 291 
 ZAR  HN ES       1939  8.77                             123    0.13 8  206 291 
 ZAR  HZ I        1939 14.55         9.1 0.23            123            206 291 
 NOR  HN ES       1939 15.07                             119    0.29 8  238 234 
 NOR  HZ I        1939 20.42         4.6 0.10            119            238 234 
 CHI  HZ EP   2   1938 46.90                             118   -1.36 4  252 196 
 CHI  HN ES       1939 18.92                             118    0.80 8  252 196 
 CHI  HZ I        1939 25.79         2.0 0.33            118            252 196 
 GUY2CHZ EP   9   1938 55.96                             113    1.72 0  305 235 
 GUY2CHN ES       1939 31.02                             112    0.55 7  305 235 
 GUY2CHZ  IAML    1939 38.55         4.1 0.68                           305 235 
 CBOC HZ EP   9   1938 55.38                             110   -2.13 0  337 252 
 CBOC HN ES       1939 33.26                             110    0.82 7  337 252 
 CBOC HZ I        1939 34.75         4.6 0.10            110            337 252 
 SJC  HZ EP       1939  5.40                             107   -0.29 6  409 326 
 SJC  HN ES   4   1939 47.47                             107   -1.66 0  409 326 
                                                                                
