 2010 1210 1121 57.1 L   6.795 -73.112144.9  RSN  6 0.2 1.5LRSN                1
 GAP=162        0.56       3.1    13.1  4.9 -0.1626E+02 -0.1633E+02  0.1743E+01E
 Epicentro: LOS SANTOS - SANTANDER                                             3
 ACTION:UP  11-01-14 15:23 OP:pat  STATUS:               ID:20101210112157 L   I
 2010-12-10-1120-34S.COL___135                                                 6
 STAT SP IPHASW D HRMM SECON CODA AMPLIT PERI AZIMU VELO SNR AR TRES W  DIS CAZ7
 BTL  SZ EP       1122 17.03                             170     0.410   22 308 
 BTL  SZ ES   1   1122 32.03                             170     0.2 7   22 308 
 BAR2 SZ EP       1122 16.56                             170    -0.110   24 199 
 BAR2 SZ ES   1   1122 31.65                             170    -0.3 7   24 199 
 BAR2 SZ I        1122 34.18        10.5 0.36                            24 199 
 RUS  HZ EP       1122 20.68                             144    -0.110  100 178 
 RUS  HN ES   1   1122 39.27                             144     0.1 7  100 178 
 RUS  HZ I        1122 40.76         4.7 0.23                           100 178 
 GRA  SZ EP       1122 22.23                             137     0.010  125  16 
 GRA  SZ ES   2   1122 41.56                             137    -0.3 5  125  16 
 GRA  SZ I        1122 45.04         4.7 0.32                           125  16 
 OCA  SZ ES   2   1122 47.26                             129    -0.3 5  161 352 
 CHI  HZ EP   1   1122 34.78                             117    -0.1 6  249 196 
 CHI  HN ES   2   1123  3.78                             117    -0.5 4  249 196 
 CHI  HZ I        1123  6.86         2.3 0.64                           249 196 
                                                                                
