 2017  510 1853 31.8 L   6.798 -73.138149.3  RSN 19 0.4 2.4LRSN                1
 GAP=113        0.95       3.0     3.3  5.2  0.1048E+01  0.2916E+01  0.2541E+01E
 Epicentro: LOS SANTOS - SANTANDER                                             3
 ACTION:UPD 17-06-16 13:34 OP:jn   STATUS:               ID:20170510185331 L   I
 OLDACT:REG 17-05-10 22:37 OP:lv   STATUS:               ID:20170510184743     3
 2017-05-10-1848-00M.COL___368                                                 6
 STAT SP IPHASW D HRMM SECON CODA AMPLIT PERI AZIMU VELO AIN AR TRES W  DIS CAZ7
 BRR  HZ EP       1853 53.75                             153    0.3610 72.1 298 
 BRR  HN ES       1854 10.92                             153    0.7010 72.1 298 
 BRR  HZ I        1854 11.91        36.6 0.15            147           72.1 298 
 PAM  EZ EP       1853 54.64                             151    0.2610 77.0  39 
 PAM  EN ES       1854 12.01                             151    0.0310 77.0  39 
 PAM  EZ I        1854 14.34        43.7 0.53            152           77.0  39 
 RUS  HZ EP       1853 55.81                             145   -0.0910  100 177 
 RUS  HN ES       1854 14.64                             145   -0.0410  100 177 
 RUS  HZ I        1854 16.33        63.4 0.31            139            100 177 
 PTB  HZ EP       1853 58.37                             133   -0.77 9  149 259 
 PTB  HN ES       1854 19.84                             133   -0.62 9  149 259 
 SPBC HZ EP       1854  0.77                             130    0.15 9  164 219 
 SPBC HN ES       1854 22.95                             130   -0.15 9  164 219 
 SPBC HZ I        1854 25.71        95.8 0.35            124            164 219 
 YPLC HZ EP       1854  2.07                             127    0.26 9  176 152 
 YPLC HN ES       1854 24.53                             127   -0.68 9  176 152 
 YPLC HZ I        1854 27.01        24.8 0.12            123            176 152 
 ZAR  HZ EP       1854  4.37                             123   -0.21 9  205 292 
 ZAR  HE ES       1854 29.72                             123   -0.42 9  205 292 
 ZAR  HZ I        1854 36.11        21.7 0.26            118            205 292 
 NOR  HZ EP       1854  7.85                             119    0.03 8  235 235 
 NOR  HN ES       1854 36.35                             119    0.45 8  235 235 
 NOR  HZ I        1854 39.34        22.8 0.07            114            235 235 
 CHI  HZ EP       1854  9.81                             118    0.09 8  249 195 
 CHI  HN ES       1854 39.21                             118   -0.07 8  249 195 
 CHI  HZ I        1854 44.60        11.3 0.34            113            249 195 
 ROSC BZ EP   9   1854 11.88                             117    1.72 0  253 211 
 ROSC BN ES       1854 41.62                                   -0.17 8  253 211 
 ROSC BZ I        1854 47.23        21.6 0.47            113            253 211 
 HEL  HZ EP   4   1854 13.54                             115    1.24 0  273 256 
 HEL  HN ES   4   1854 42.42                             115   -1.45 0  273 256 
 HEL  HZ I        1854 50.05        18.6 0.09            111            273 256 
 VIL  EZ EP       1854 15.70                             113    0.30 7  303 192 
 VIL  HN ES   4   1854 51.41                             113    2.02 0  303 192 
 VIL  EZ I        1854 58.70        10.2 0.18            109            303 192 
 PTGC HZ EP   4   1854 14.77                             112   -1.01 0  308 159 
 PTGC HN ES   4   1854 45.09                             112   -4.98 0  308 159 
 ELA  HZ EP   4   1854 22.66                             111    3.78 0  330 230 
 ELA  HN ES   2   1854 56.17                             111    0.58 3  330 230 
 ELA  HZ I        1855  3.43        12.2 0.11            107            330 230 
 CBOC HZ EP       1854 19.85                             110    0.88 7  334 252 
 CBOC HZ I        1854 59.90         3.4 0.07            107            334 252 
 DBB  EZ EP       1854 19.38                             110   -0.16 7  340 274 
 DBB  EN ES   4   1854 54.79                             110   -1.97 0  340 274 
 DBB  EZ I        1854 59.38         7.4 0.26            106            340 274 
 ARGC HN ES   2   1854 59.60                             109   -0.94 3  360 340 
 ORTC HZ EP   4   1854 26.17                             107    0.27 0  396 216 
 ORTC HN ES   4   1855  6.35                             107   -1.74 0  396 216 
 ORTC HZ I        1855 15.36        10.7 0.14            103            396 216 
 SJC  HZ EP   4   1854 26.00                             106   -1.57 0  410 327 
 SJC  HN ES   4   1855  6.98                             106   -4.07 0  410 327 
 SJC  HZ I        1855 11.93         3.5 0.34            103            410 327 
 CAP2 HN ES   4   1855 26.62                             102   -5.09 0  509 294 
 CAP2 HZ I        1855 28.91         2.4 0.10            100            509 294 
                                                                                
