 2013 1010 1851  9.7 L   6.796 -73.210133.5  RSN  4 0.5 1.5LRSN                1
 GAP=145        1.19       6.9     6.6 10.1 -0.1405E+02  0.1947E+02 -0.7368E+01E
 Epicentro: ZAPATOCA - SANTANDER                                               3
 ACTION:UPD 13-11-25 09:20 OP:ep   STATUS:               ID:20131010185109 L   I
 OLDACT:REG 13-10-10 17:19 OP:nd   STATUS:               ID:20131010184959     3
 2013-10-10-1849-59M.COL___273                                                 6
 STAT SP IPHASW D HRMM SECON CODA AMPLIT PERI AZIMU VELO AIN AR TRES W  DIS CAZ7
 BAR2 SZ EP       1851 28.83                             170    1.0310 22.7 172 
 BAR2 SZ ES       1851 42.31                             170    0.3610 22.7 172 
 BAR2 SZ I        1851 43.46        14.8 0.16            171           22.7 172 
 PAM  SZ IP     D 1851 30.73                             147   -0.1810 82.4  43 
 PAM  SN ES       1851 47.14                             147   -0.3510 82.4  43 
 PAM  SZ I        1851 49.89         6.5 0.46            149           82.4  43 
 RUS  HZ EP       1851 32.16                             141   -0.0810  101 172 
 RUS  HN ES       1851 49.40                             141   -0.4610  101 172 
 RUS  HZ I        1851 51.79         2.3 0.30            144            101 172 
 PTB  HZ EP       1851 34.78                             130   -0.21 9  141 258 
 PTB  HN ES       1851 54.58                             130   -0.17 9  141 258 
 PTB  HZ I        1851 58.02         5.9 0.16            132            141 258 
                                                                                
