 2010  510 1527  8.3 L   6.772 -73.018141.7  RSN  7 0.5 2.2LRSN                1
 GAP=171        0.86       5.6    10.9  9.3 -0.1806E+02  0.6089E+01  0.5173E+01E
 Epicentro: CEPITA - SANTANDER                                                 3
 ACTION:UP  10-08-24 10:04 OP:vdl  STATUS:               ID:20100510152708 L   I
 2010-05-10-1525-14S.COL___104                                                 6
 STAT SP IPHASW D HRMM SECON CODA AMPLIT PERI AZIMU VELO SNR AR TRES W  DIS CAZ7
 BAR2 SZ IP     C 1527 27.32                             169    -0.210   27 223 
 BAR2 SZ ES   2   1527 42.15                             169    -0.4 5   27 223 
 BRR  HZ IP     D 1527 29.87                             147     0.010   85 296 
 BRR  HE ES   2   1527 46.87                             147     0.2 5   85 296 
 BRR  HZ I        1527 48.56        30.5 0.12                            85 296 
 RUS  HZ EP   1   1527 31.38                             144    -0.1 7   97 184 
 RUS  HE ES   2   1527 50.16                             144     0.7 5   97 184 
 RUS  HZ I        1527 50.97        18.3 0.19                            97 184 
 BRI  SZ EP   1   1527 32.36                             141     0.6 7  107  13 
 GUE  SZ EP   1   1527 32.34                             138    -0.4 7  118   5 
 GUE  SZ ES   2   1527 51.56                             138    -0.2 5  118   5 
 RREF BZ EP   1   1527 56.27                             109     1.0 5  331 231 
 RREF BZ I        1528 39.38         6.5 0.31                           331 231 
 PRA  HZ EP   1   1528  1.56                             106    -0.7 4  396 212 
 PRA  HE ES   2   1528 43.44                             106    -0.8 3  396 212 
 PRA  HZ I        1528 47.84         7.9 0.65                           396 212 
                                                                                
