 2012  310 1958 54.8 L   6.751 -73.087141.2  RSN  4 0.2 1.6LRSN                1
 GAP=146        0.61       4.1     6.3  6.2 -0.2313E+00 -0.3476E+01  0.3057E+01E
 ACTION:UP  12-03-31 23:18 OP:EP   STATUS:               ID:20120310195854 L   I
 2012-03-10-1950-00M.COL___193                                                 6
 STAT SP IPHASW D HRMM SECON CODA AMPLIT PERI AZIMU VELO SNR AR TRES W  DIS CAZ7
 BAR2 SZ EP       1959 13.83                             171     0.010   20 211 
 BAR2 SZ ES   1   1959 28.63                             171    -0.1 7   20 211 
 BAR2 SZ I        1959 29.94        10.3 0.28                            20 211 
 PAM  SZ EP   1   1959 17.10                             150     0.5 7   78  33 
 PAM  SN ES   1   1959 33.33                             150    -0.2 7   78  33 
 BRR  HZ EP   1   1959 15.75                             149    -0.3 7   80 300 
 BRR  HN ES   1   1959 32.68                             149     0.2 7   80 300 
 BRR  HZ I        1959 33.67        10.7 0.14                            80 300 
 RUS  HZ EP       1959 17.61                             144    -0.110   95 180 
 RUS  HN ES   1   1959 35.78                             144     0.2 7   95 180 
 RUS  HZ I        1959 37.79         4.9 0.76                            95 180 
                                                                                
