 2011  210 1056 25.6 L   6.805 -73.348151.1  RSN  4 0.5 1.2LRSN                1
 GAP=232        0.99      14.5    37.6  9.7  0.4245E+03 -0.5895E+01  0.1992E+02E
 Epicentro: ZAPATOCA - SANTANDER                                               3
 ACTION:UP  11-03-28 15:07 OP:jfem STATUS:               ID:20110210105625 L   I
 2011-02-10-1052-44S.COL___136                                                 6
 STAT SP IPHASW D HRMM SECON CODA AMPLIT PERI AZIMU VELO SNR AR TRES W  DIS CAZ7
 BTL  SZ EP       1056 46.25                             174     0.510   15  35 
 BTL  SZ ES   1   1057  1.02                             174    -0.4 7   15  35 
 BAR2 SZ EP   2   1056 46.20                             169     0.2 5   30 142 
 BAR2 SZ ES   1   1057  1.97                             169     0.0 7   30 142 
 BAR2 SZ I        1057  4.39         5.3 0.49                            30 142 
 RUS  HZ EP       1056 50.18                             144     0.010  105 164 
 RUS  HN ES   1   1057  9.29                             144    -0.1 7  105 164 
 RUS  HZ I        1057  9.73         1.5 0.24                           105 164 
 YOP  SZ EP   1   1056 56.22                             126    -1.0 7  191 147 
 YOP  SN ES   2   1057 22.59                             126     0.8 4  191 147 
                                                                                
