 2011  710 1315 11.1 L   7.048 -73.084137.1  RSN  4 0.1 1.5LRSN                1
 GAP=157        0.30       2.7     4.7  4.2  0.3971E+01 -0.1100E+02 -0.2463E+01E
 Epicentro: FLORIDABLANCA - SANTANDER                                          3
 ACTION:UPD 12-07-25 13:59 OP:epov STATUS:               ID:20110710131511 L   I
 2011-07-10-1311-04S.COL___140                                                 6
 STAT SP IPHASW D HRMM SECON CODA AMPLIT PERI AZIMU VELO AIN AR TRES W  DIS CAZ7
 BAR2 SZ EP   1   1315 30.56                             158   -0.07 8 51.6 192 
 BAR2 SZ ES   1   1315 45.83                             158   -0.04 8 51.6 192 
 BAR2 SZ I        1315 47.36         9.8 0.17                          51.6 192 
 BRR  HZ EP   1   1315 31.11                             151   -0.11 8 69.6 275 
 BRR  HN ES   1   1315 47.00                             151    0.08 8 69.6 275 
 BRR  HZ I        1315 57.89         9.9 0.31                          69.6 275 
 BRI  SZ EP   1   1315 32.17                             148    0.03 8 80.4  23 
 RUS  HZ EP       1315 36.28                             135    0.0710  128 180 
 RUS  HN ES   2   1315 55.77                             135   -0.03 5  128 180 
 RUS  HZ I        1315 58.69         2.2 0.55                           128 180 
                                                                                
