 2010  410 1149  1.6 L   6.337 -73.274146.4  RSN 10 0.5 2.8LRSN                1
 GAP=149        0.89       4.0     7.1  8.5 -0.1285E+02  0.1417E+02  0.4781E+01E
 Epicentro: CONFINES - SANTANDER                                               3
 ACTION:UPD 10-08-24 09:58 OP:vdl  STATUS:               ID:20100410114901 L   I
 2010-04-10-1147-24S.COL___097                                                 6
 STAT SP IPHASW D HRMM SECON CODA AMPLIT PERI AZIMU VELO AIN AR TRES W  DIS CAZ7
 BAR2 SZ EP       1149 21.23                             168    -0.210   30  19 
 BAR2 SZ ES   2   1149 36.48                             168    -0.5 5   30  19 
 BRR  HZ EP       1149 25.08                             144     0.610   98 330 
 BRR  HZ I        1149 25.82        57.8 0.11                            98 330 
 BRR  HE ES   2   1149 43.08                             144     0.7 5   98 330 
 CHI  HZ EP   1   1149 33.70                             124     0.0 6  196 195 
 CHI  HN ES   1   1149 59.16                             124     0.3 6  196 195 
 OCA  SZ EP       1149 34.79                             122    -0.1 8  210 359 
 OCA  SZ ES   1   1150  0.60                             122    -0.3 6  210 359 
 OCA  SZ I        1150  4.19       100.6 0.46                           210 359 
 HEL  HZ EP       1149 38.78                             117    -0.6 8  250 266 
 HEL  HE ES   2   1150  7.98                             117    -1.0 4  250 266 
 HEL  HZ I        1150 15.47        20.5 0.28                           250 266 
 RREF BZ EP       1149 43.52                             114     0.5 7  279 235 
 RREF BE ES   2   1150 15.58                             114     0.3 4  279 235 
 RREF BZ I        1150 23.54        42.9 0.45                           279 235 
 TOL  SZ EP       1149 45.05                             113     0.3 7  298 230 
 TOL  SZ ES   2   1150 17.90                             113    -0.5 4  298 230 
 DBB  SZ EP   1   1149 48.91                             110     0.5 5  333 283 
 PRA  HZ EP       1149 48.79                             110    -0.4 7  341 212 
 PRA  HE ES   1   1150 25.96                             110    -0.4 5  341 212 
 PRA  HZ I        1150 29.80        49.8 0.25                           341 212 
 SDV  BZ EP   1   1149 56.52                             106    -0.4 4  405  46 
                                                                                
