 2010  610 1919  3.7 L   6.061 -73.682105.2  RSN  7 0.4 1.7LRSN                1
 GAP=109        0.61       3.7     6.3 11.0 -0.1408E+02  0.4828E+02 -0.1873E+02E
 Epicentro: BOLIVAR - SANTANDER                                                3
 ACTION:UP  10-08-24 10:09 OP:vdl  STATUS:               ID:20100610191903 L   I
 2010-06-10-1917-28S.COL___114                                                 6
 STAT SP IPHASW D HRMM SECON CODA AMPLIT PERI AZIMU VELO SNR AR TRES W  DIS CAZ7
 RUS  HZ EP       1919 21.15                             147     0.010   69 106 
 RUS  HZ I        1919 21.68        13.0 0.18                            69 106 
 RUS  HN ES   2   1919 34.87                             147     0.1 5   69 106 
 BAR2 SZ EP       1919 21.75                             141     0.110   80  43 
 BAR2 SZ ES   3   1919 36.35                             141     0.6 2   80  43 
 GIR2 SZ EP       1919 25.46                             127    -0.110  125  26 
 CHI  HZ EP       1919 28.93                             120    -0.4 9  158 182 
 CHI  HE ES   2   1919 49.39                             120     0.0 5  158 182 
 CHI  HZ I        1919 52.52         8.1 0.43                           158 182 
 HEL  HZ EP   3   1919 33.72                             112    -0.7 2  205 274 
 HEL  HE ES   3   1919 57.41                             112    -1.0 2  205 274 
 HEL  HZ I        1920  3.47         5.8 0.12                           205 274 
 GUY  HZ EP       1919 35.43                             112     0.5 8  208 244 
 GUY  HE ES   3   1920  0.17                             112     0.8 2  208 244 
 GUE  SZ EP       1919 35.43                             112     0.2 8  213  23 
 GUE  SZ ES   2   1919 59.44                             112    -0.4 4  213  23 
                                                                                
