 2016 1010 1450 18.5 L   6.737 -73.255137.5  RSN  4 0.4 1.4LRSN                1
 GAP=218        0.73       7.1     5.3  8.5  0.2189E+02  0.9283E+01 -0.1507E+02E
 Epicentro: ZAPATOCA - SANTANDER                                               3
 ACTION:UPD 16-11-09 19:18 OP:rebc STATUS:               ID:20161010145018 L   I
 OLDACT:REG 16-10-10 20:07 OP:dln  STATUS:               ID:20161010144746     3
 2016-10-10-1448-00M.COL___363                                                 6
 STAT SP IPHASW D HRMM SECON CODA AMPLIT PERI AZIMU VELO AIN AR TRES W  DIS CAZ7
 BAR2 EZ EP       1450 36.83                             172   -0.1810 17.9 153 
 BAR2 EZ ES       1450 51.35                             172   -0.1210 17.9 153 
 BAR2 EZ I        1450 52.76         4.3 0.58            174           17.9 153 
 RUS  HZ EP   2   1450 40.84                             144   -0.19 5 95.3 169 
 RUS  HN ES       1450 58.98                             144    0.3510 95.3 169 
 RUS  HZ I        1451  0.52         2.4 0.38            146           95.3 169 
 PTB  HZ EP   2   1450 42.84                             133   -0.75 5  135 261 
 PTB  HE ES       1451  2.91                             133   -0.2610  135 261 
 PTB  HZ I        1451  6.53         2.8 0.36            132            135 261 
 ZAR  HZ EP   2   1450 50.29                             122    0.75 4  196 295 
 ZAR  HE ES       1451 14.11                             122    0.34 9  196 295 
 ZAR  HZ I        1451 19.94         5.3 0.32            122            196 295 
                                                                                
