 2010  910 1226 24.3 L   6.735 -73.076143.2  RSN  4 0.4 1.7LRSN                1
 GAP=204        0.78      10.3    14.0 12.4 -0.5024E+02 -0.5041E+02 -0.2294E+02E
 Epicentro: JORDAN - SANTANDER                                                 3
 ACTION:UP  11-02-18 11:01 OP:tino STATUS:               ID:20100910122624 L   I
 2010-09-10-1222-57S.COL___120                                                 6
 STAT SP IPHASW D HRMM SECON CODA AMPLIT PERI AZIMU VELO SNR AR TRES W  DIS CAZ7
 BAR2 SZ EP   1   1226 43.60                             172     0.1 7   20 217 
 BAR2 SZ ES   2   1226 58.46                             172    -0.1 5   20 217 
 BAR2 SZ I        1227  0.26        11.5 0.18                            20 217 
 BRR  HZ EP   1   1226 45.36                             149    -0.4 7   81 300 
 BRR  HZ I        1226 45.66        14.9 0.42                            81 300 
 BRR  HE ES   2   1227  2.80                             149     0.3 5   81 300 
 GUE  SZ EP   1   1226 49.84                             137     0.6 7  122   8 
 GRA  SZ EP   1   1226 49.39                             135    -0.3 7  131  13 
 GRA  SZ ES   2   1227  9.14                             135    -0.4 5  131  13 
 GRA  SZ I        1227 13.30         4.0 0.61                           131  13 
                                                                                
