 2015  910 1940  3.3 L   6.796 -73.106146.5  RSN 17 0.6 2.3LRSN                1
 GAP=142        1.45       4.0     5.3  6.8 -0.2484E+01  0.1234E+02  0.2986E+01E
 Epicentro: LOS SANTOS - SANTANDER                                             3
 ACTION:UPD 15-10-28 16:25 OP:cam  STATUS:               ID:20150910194003 L   I
 OLDACT:REG 15-09-10 21:06 OP:stll STATUS:               ID:20150910193749     3
 2015-09-10-1937-49M.COL___335                                                 6
 STAT SP IPHASW D HRMM SECON CODA AMPLIT PERI AZIMU VELO AIN AR TRES W  DIS CAZ7
 BAR2 EZ EP       1940 23.33                             170    0.2610 24.1 201 
 BAR2 EZ ES       1940 38.35                             170   -0.1210 24.1 201 
 BAR2 EZ I        1940 41.08        25.7 0.28            169           24.1 201 
 PAM  EZ EP       1940 26.17                             152    0.6710 75.0  37 
 PAM  EN ES       1940 43.26                             152    0.4810 75.0  37 
 PAM  EZ I        1940 45.46        19.3 0.22            138           75.0  37 
 BRR  HZ EP       1940 25.40                             151    0.6010 75.3 297 
 BRR  HN ES       1940 42.39                             151    0.8510 75.3 297 
 BRR  HZ I        1940 45.00        22.6 0.18            139           75.3 297 
 RUS  HZ EP       1940 26.60                             144   -0.5210 99.9 179 
 RUS  HZ I        1940 28.18        11.2 0.42            134           99.9 179 
 RUS  HE ES       1940 44.99                             144   -0.6810 99.9 179 
 PTB  HZ EP       1940 30.03                             131   -0.72 9  152 259 
 PTB  HN ES       1940 51.34                             131   -0.79 9  152 259 
 PTB  HZ I        1940 57.16        24.3 0.26            119            152 259 
 SPBC HZ EP       1940 32.37                             129    0.24 9  166 220 
 SPBC HN ES       1940 53.59                             129   -0.99 9  166 220 
 SPBC HZ I        1941  1.44        44.9 0.30            117            166 220 
 ZAR  HZ EP       1940 35.46                             122   -0.81 8  208 292 
 ZAR  HE ES       1941  1.56                             122   -0.39 8  208 292 
 ZAR  HZ I        1941  7.65        23.7 0.26            110            208 292 
 NOR  HZ EP       1940 39.49                             118    0.02 8  238 235 
 NOR  HN ES       1941  8.08                             118    0.43 8  238 235 
 NOR  HZ I        1941 11.00        15.7 0.18            107            238 235 
 SML  HZ EP       1940 39.89                             117   -0.36 8  246 334 
 SML  HN ES       1941  7.96                             117   -1.08 8  246 334 
 SML  HZ I        1941 12.98        32.7 0.22            105            246 334 
 CHI  HZ EP       1940 40.60                             117   -0.56 8  249 196 
 CHI  HZ I        1940 43.97         7.5 0.30            106            249 196 
 CHI  HN ES       1941 11.40                             117    0.74 8  249 196 
 HEL  HZ EP       1940 45.07                             114    1.02 7  276 256 
 HEL  HE ES       1941 16.79                             114    0.99 7  276 256 
 HEL  HZ I        1941 25.47         7.9 0.30            104            276 256 
 GUY2CHZ EP       1940 47.74                             112    0.38 7  305 235 
 GUY2CHN ES       1941 22.49                             112    0.80 7  305 235 
 GUY2CHZ I        1941 30.14        13.4 0.78                           305 235 
 CBOC HZ EP       1940 51.41                             110    0.66 7  338 252 
 CBOC HZ I        1940 52.04         4.3 0.22             99            338 252 
 DBB  SZ EP       1940 51.48                             109    0.13 7  344 274 
 TOL  SZ EP       1940 51.80                             109   -0.14 6  346 225 
 TOL  SN ES       1941 29.49                             109   -0.37 6  346 225 
 TOL  SZ I        1941 36.63         7.0 0.26             99            346 225 
 PRA  HZ EP       1940 56.53                             107   -0.57 6  394 210 
 PRA  HE ES       1941 39.26                             107    0.23 6  394 210 
 PRA  HZ I        1941 46.78         7.0 0.26             96            394 210 
 CRJC HZ EP   4   1941  2.33                             103   -3.55 0  468   3 
 CRJC HZ I        1941 56.63         5.0 0.48                           468   3 
                                                                                
