 2014  110 1110 14.2 L   6.366 -73.392127.1  RSN  5 0.5 1.4LRSN                1
 GAP=124        1.28       6.9     7.5 12.4  0.6958E+01  0.5755E+02  0.2467E+02E
 Epicentro: CHIMA - SANTANDER                                                  3
 ACTION:UPD 14-03-13 09:54 OP:ep   STATUS:               ID:20140110111014 L   I
 OLDACT:REG 14-01-10 15:40 OP:stll STATUS:               ID:20140110110813     3
 2014-01-10-1108-13M.COL___237                                                 6
 STAT SP IPHASW D HRMM SECON CODA AMPLIT PERI AZIMU VELO AIN AR TRES W  DIS CAZ7
 BAR2 SZ EP       1110 32.05                             164    0.1910 34.1  43 
 BAR2 SZ ES       1110 46.30                             164    0.6410 34.1  43 
 BAR2 SZ I        1110 47.95        10.7 0.36            164           34.1  43 
 RUS  HN ES       1110 48.22                             152   -0.3910 62.5 147 
 PTB  HZ EP       1110 36.27                             134   -0.7710  119 279 
 PTB  HN ES       1110 54.50                             134   -0.3710  119 279 
 PTB  HZ I        1110 56.00         3.6 0.34            135            119 279 
 CHI  HN ES       1111  8.99                             119   -0.22 9  196 191 
 GUY2CHZ EP       1110 51.88                             113    0.48 8  252 240 
 GUY2CHN ES       1111 21.26                             113    0.83 8  252 240 
 GUY2CHZ I        1111 25.53         1.7 0.24                           252 240 
                                                                                
