 2015  210 1112 36.3 L   6.814 -73.347123.7  RSN  6 0.5 1.7LRSN                1
 GAP= 92        1.25       4.6     5.5 10.0 -0.3309E+01 -0.5690E+00 -0.4284E+00E
 Epicentro: ZAPATOCA - SANTANDER                                               3
 ACTION:UPD 15-04-30 21:24 OP:nd   STATUS:               ID:20150210111236 L   I
 OLDACT:DUP 15-02-10 22:14 OP:stll STATUS:               ID:20150210110749d    3
 2015-02-10-1107-48M.COL___287                                                 6
 STAT SP IPHASW D HRMM SECON CODA AMPLIT PERI AZIMU VELO AIN AR TRES W  DIS CAZ7
 BAR2 EZ EP       1112 53.64                             165    0.1810 30.6 143 
 BAR2 EZ I        1113  7.82        36.4 0.38            165           30.6 143 
 BRR  HZ EP       1112 54.71                             156    0.7510 51.7 309 
 BRR  HZ ES       1113  8.07                             156    0.3110 51.7 309 
 PAM  SZ EP       1112 57.67                             141    0.4110 92.2  51 
 PAM  SN ES       1113 13.66                             141    0.0310 92.2  51 
 PAM  SZ I        1113 16.29        10.9 0.32            140           92.2  51 
 RUS  HZ EP       1112 58.39                             137    0.0210  106 164 
 RUS  HN ES       1113 15.10                             137   -0.5010  106 164 
 RUS  HZ I        1113 17.27         3.4 0.36            137            106 164 
 PTB  HZ EP       1112 58.89                             131   -0.6110  126 256 
 PTB  HN ES       1113 17.67                             131    0.0610  126 256 
 PTB  HZ I        1113 21.27         8.5 0.54            132            126 256 
 OCA  HZ EP       1113  2.91                             125    0.21 9  158   1 
 OCA  HN ES       1113 22.28                             125   -1.03 9  158   1 
 OCA  HZ I        1113 30.99         8.1 0.22            124            158   1 
                                                                                
