 2010  510 1210 31.3 L   6.762 -73.045140.5  RSN  9 0.5 2.1LRSN                1
 GAP=168        0.97       5.1    11.4  9.3 -0.2961E+02  0.4137E+01  0.9553E+01E
 Epicentro: CEPITA - SANTANDER                                                 3
 ACTION:UP  10-08-24 10:04 OP:vdl  STATUS:               ID:20100510121031 L   I
 2010-05-10-1208-04S.COL___104                                                 6
 STAT SP IPHASW D HRMM SECON CODA AMPLIT PERI AZIMU VELO SNR AR TRES W  DIS CAZ7
 BAR2 SZ IP     D 1210 50.08                             170    -0.210   24 219 
 BAR2 SZ ES   2   1211  4.63                             170    -0.5 5   24 219 
 BRR  HZ IP     D 1210 52.60                             147     0.010   83 297 
 BRR  HE ES   2   1211  9.47                             147     0.3 5   83 297 
 BRR  HZ I        1211 10.18        26.9 0.15                            83 297 
 RUS  HZ EP   1   1210 54.22                             144     0.0 7   96 182 
 RUS  HZ I        1210 55.34        12.5 0.16                            96 182 
 RUS  HN ES   2   1211 12.52                             144     0.4 5   96 182 
 BRI  SZ EP   1   1210 55.49                             140     0.8 7  109  15 
 BRI  SZ ES   2   1211 13.06                             140     0.1 5  109  15 
 GUE  SZ IP       1210 54.97                             138    -0.710  119   6 
 GUE  SZ ES   2   1211 14.20                             138    -0.6 5  119   6 
 GRA  SZ EP   1   1210 56.70                             135     0.5 7  127  12 
 GRA  SZ ES   2   1211 16.32                             135     0.7 5  127  12 
 CHI  HZ EP   1   1211  8.45                             116    -0.1 6  248 198 
 CHI  HE ES   2   1211 38.31                             116     0.6 4  248 198 
 CHI  HZ I        1211 41.82         7.3 0.44                           248 198 
 RREF BZ EP   1   1211 18.62                             109     0.8 5  328 231 
 RREF BZ I        1212  1.85         6.2 0.51                           328 231 
 PRA  HZ EP   1   1211 24.28                             106    -0.6 4  394 211 
 PRA  HN ES   2   1212  6.23                             106    -0.4 3  394 211 
 PRA  HZ I        1212 10.90         8.1 0.71                           394 211 
                                                                                
