 2013 1110 1708 38.0 L   6.790 -73.190150.3  RSN  4 0.1 1.3LRSN                1
 GAP=232        0.42       4.2     3.3  3.7  0.6999E+01  0.1722E+01  0.1074E+01E
 Epicentro: ZAPATOCA - SANTANDER                                               3
 ACTION:UPD 14-01-09 16:27 OP:ep   STATUS:               ID:20131110170838 L   I
 OLDACT:DUP 13-11-10 16:29 OP:jn   STATUS:               ID:20131110170001d    3
 2013-11-10-1700-00M.COL___273                                                 6
 STAT SP IPHASW D HRMM SECON CODA AMPLIT PERI AZIMU VELO AIN AR TRES W  DIS CAZ7
 BAR2 SZ EP       17 8 57.91                             171   -0.2210 21.9 178 
 BAR2 SZ ES       17 9 13.95                             171    0.1010 21.9 178 
 BAR2 SZ I        17 9 14.10         7.3 0.38            169           21.9 178 
 BRR  HN ES   1   17 9 16.17                             154    0.02 7 67.5 301 
 RUS  HZ EP       17 9  2.34                             145    0.2110 99.9 173 
 RUS  HN ES       17 9 20.87                             145   -0.1110 99.9 173 
 RUS  HZ I        17 9 22.08         1.6 0.38            144           99.9 173 
 PTB  HZ EP       17 9  4.88                             134    0.01 9  143 259 
 PTB  HN ES       17 9 25.85                             134   -0.01 9  143 259 
 PTB  HZ I        17 9 28.01         2.1 0.36            133            143 259 
                                                                                
