 2012 1210 1900 43.1 L   6.805 -73.171134.0  RSN  6 0.5 1.7LRSN                1
 GAP=179        0.89       7.5     6.7  8.3  0.1937E+02  0.1724E+02  0.2518E+01E
 Epicentro: LOS SANTOS - SANTANDER                                             3
 ACTION:UPD 13-01-04 14:26 OP:ep   STATUS:               ID:20121210190043 L   I
 2012-12-10-1900-00M.COL___242                                                 6
 STAT SP IPHASW D HRMM SECON CODA AMPLIT PERI AZIMU VELO AIN AR TRES W  DIS CAZ7
 BAR2 SZ EP       19 1  1.43                             170    0.1010 23.6 183 
 BAR2 SZ ES       19 1 15.48                             170   -0.0610 23.6 183 
 BAR2 SZ I        19 1 17.03        20.0 0.20                          23.6 183 
 GIR2 SZ EP   1   19 1  1.33                             166   -0.02 7 30.3 355 
 GIR2 SZ I        19 1 18.26         9.6 0.28                          30.3 355 
 RUS  HZ EP   1   19 1  5.31                             141   -0.47 7  101 174 
 RUS  HN ES   1   19 1 24.04                             141    0.57 7  101 174 
 RUS  HZ I        19 1 24.63         6.1 0.28                           101 174 
 PTB  HZ EP   1   19 1  8.34                             130   -0.55 7  145 258 
 PTB  HN ES   1   19 1 28.37                             130   -0.63 7  145 258 
 PTB  HZ I        19 1 31.21         5.4 0.24                           145 258 
 ZAR  HN ES   1   19 1 39.94                             120    0.94 6  201 292 
 ZAR  HZ I        19 1 46.05         4.7 0.24                           201 292 
 PRA  HZ EP   1   19 1 36.56                             105    0.42 4  391 209 
 PRA  HN ES   2   19 2 17.82                             105    0.31 3  391 209 
 PRA  HZ I        19 2 22.94         2.0 0.22                           391 209 
                                                                                
