 2016  610 1157 28.7 L   6.798 -73.139147.3  RSN  4 0.2 1.5LRSN                1
 GAP=238        0.48       3.8     3.7  3.8  0.7060E+01  0.8513E+00 -0.8694E-01E
 Epicentro: LOS SANTOS - SANTANDER                                             3
 ACTION:UPD 16-07-21 22:17 OP:rebc STATUS:               ID:20160610115728 L   I
 OLDACT:DUP 16-06-10 22:32 OP:edw  STATUS:               ID:20160610114744d    3
 2016-06-10-1147-43M.COL___340                                                 6
 STAT SP IPHASW D HRMM SECON CODA AMPLIT PERI AZIMU VELO AIN AR TRES W  DIS CAZ7
 BAR2 EZ EP       1157 48.45                             171   -0.0810 23.3 192 
 BAR2 EZ ES       1158  3.75                             171   -0.2310 23.3 192 
 BAR2 EZ I        1158  5.02        12.0 0.26                          23.3 192 
 BRR  HZ EP       1157 50.05                             153   -0.0210 71.9 298 
 BRR  HN ES       1158  6.96                             153    0.2310 71.9 298 
 RUS  HZ EP       1157 52.82                             144    0.2210  100 176 
 RUS  HE ES       1158 11.29                             144    0.0610  100 176 
 RUS  HZ I        1158 12.63         2.7 0.44                           100 176 
 PTB  HZ EP       1157 55.69                             132   -0.18 9  148 259 
 PTB  HE ES       1158 17.04                             132   -0.01 9  148 259 
 PTB  HZ I        1158 23.04         3.6 0.46                           148 259 
                                                                                
