 2011  410 1726 33.2 L   6.716 -73.126141.1  RSN  5 0.2 1.5LRSN                1
 GAP=170        0.51       6.2     5.6  6.3 -0.6837E+01 -0.1151E+02 -0.4438E+01E
 Epicentro: JORDAN - SANTANDER                                                 3
 ACTION:UP  11-06-22 15:30 OP:REBC STATUS:               ID:20110410172633 L   I
 2011-04-10-1726-01S.COL___138                                                 6
 STAT SP IPHASW D HRMM SECON CODA AMPLIT PERI AZIMU VELO SNR AR TRES W  DIS CAZ7
 BAR2 SZ EP       1726 52.22                             174     0.110   15 205 
 BAR2 SZ I        1726 52.52         6.5 0.11                            15 205 
 BAR2 SZ ES   2   1727  6.95                             174     0.1 5   15 205 
 BTL  SZ EP       1726 52.33                             169     0.010   27 325 
 BRR  HZ EP       1726 54.01                             149    -0.210   78 304 
 BRR  HZ I        1726 54.25        10.6 0.06                            78 304 
 BRR  HN ES   1   1727 10.72                             149     0.1 7   78 304 
 PAM  SZ EP       1726 55.13                             148    -0.110   84  34 
 PAM  SZ I        1726 55.29         4.5 0.15                            84  34 
 PAM  SN ES   2   1727 12.32                             148    -0.2 5   84  34 
 GRA  SZ EP       1726 58.97                             134     0.310  134  15 
 GRA  SZ I        1727  0.12         3.7 0.27                           134  15 
                                                                                
