 2014 1110 1503 21.6 L   6.853 -73.435104.0  RSN  7 0.3 1.9LRSN                1
 GAP=104        0.80       3.7     3.0  5.2 -0.1648E+01  0.2638E+01  0.5020E+01E
 Epicentro: SAN VICENTE DE CHUCURI - SANTANDER                                 3
 ACTION:UPD 14-12-19 15:41 OP:nd   STATUS:               ID:20141110150321 L   I
 OLDACT:UP  14-11-11 00:13 OP:cam  STATUS:               ID:20141110145819     3
 OLDACT:REG 14-11-10 22:41 OP:ccam STATUS:               ID:20141110145819     3
 2014-11-10-1458-19M.COL___295                                                 6
 STAT SP IPHASW D HRMM SECON CODA AMPLIT PERI AZIMU VELO AIN AR TRES W  DIS CAZ7
 BAR2 SZ EP       15 3 37.18                             157    0.2610 40.1 136 
 BAR2 SZ ES       15 3 49.14                             157    0.3110 40.1 136 
 BAR2 SZ I        15 3 51.31        67.4 0.34            161           40.1 136 
 BRR  HN ES       15 3 48.42                             157    0.0910 41.6 313 
 BRR  HN I        15 3 51.24        28.8 0.34            157           41.6 313 
 PAM  SZ EP       15 3 41.09                             134   -0.2010 97.4  56 
 PAM  SN ES       15 3 56.59                             134   -0.0210 97.4  56 
 PAM  SZ I        15 3 59.54        12.2 0.32            138           97.4  56 
 RUS  HZ EP       15 3 42.71                             129   -0.0210  113 160 
 RUS  HN ES       15 3 58.85                             129   -0.3310  113 160 
 RUS  HZ I        15 4  0.75         8.0 0.30            134            113 160 
 PTB  HZ EP       15 3 42.07                             127   -0.5110  118 253 
 PTB  HN ES       15 3 58.83                             127   -0.0810  118 253 
 PTB  HZ I        15 4  3.55        10.8 0.10            130            118 253 
 SPBC HZ EP       15 3 45.96                             120    0.00 9  150 208 
 GUY2CHZ EP       15 4  1.94                             104    0.82 7  279 230 
                                                                                
