 2011  110 1435  0.8 L   6.791 -73.148144.6  RSN 14 0.4 2.9LRSN                1
 GAP=136        0.81       3.4     5.7  8.0 -0.5830E+01  0.1651E+02  0.2768E+01E
 Epicentro: LOS SANTOS - SANTANDER                                             3
 ACTION:UP  11-02-08 08:40 OP:pat  STATUS:               ID:20110110143500 L   I
 2011-01-10-1420-00M.COL___136                                                 6
 STAT SP IPHASW D HRMM SECON CODA AMPLIT PERI AZIMU VELO SNR AR TRES W  DIS CAZ7
 BTL  SZ EP       1435 20.45                             172     0.310   19 317 
 BAR2 SZ IP       1435 20.23                             171     0.010   22 190 
 BAR2 SZ I        1435 37.88       161.3 0.24                            22 190 
 GIR2 SZ EP   1   1435 20.37                             167     0.0 7   32 351 
 RUS  HZ IP     D 1435 24.09                             144    -0.210  100 176 
 RUS  HN ES   1   1435 42.54                             144    -0.2 7  100 176 
 RUS  HZ I        1435 44.14        66.9 0.22                           100 176 
 GRA  SZ IP       1435 26.07                             136     0.110  127  17 
 GRA  SZ ES   1   1435 45.62                             136     0.0 7  127  17 
 GRA  SZ I        1435 48.08       196.1 0.51                           127  17 
 OCA  SZ EP   1   1435 28.67                             129    -0.4 7  161 353 
 YOP  SZ IP     D 1435 30.69                             126     0.0 9  178 153 
 YOP  SZ I        1435 31.99        48.0 0.59                           178 153 
 YOP  SN ES   2   1435 54.49                             126     0.5 4  178 153 
 NOR  SZ EP   1   1435 36.07                             118    -0.3 6  234 235 
 NOR  SN ES   1   1436  3.42                             118    -0.7 6  234 235 
 CHI  HZ EP   1   1435 38.15                             117    -0.1 6  248 195 
 CHI  HZ I        1436 15.50        47.6 0.39                           248 195 
 ROSC BZ EP   1   1435 39.52                             116     0.8 6  252 211 
 ROSC BN ES   2   1436  8.49                             116     0.2 4  252 211 
 ROSC BZ I        1436 18.00       106.6 0.49                           252 211 
 HEL  HZ EP   1   1435 41.55                             114     0.7 6  272 256 
 RREF HZ EP   1   1435 47.39                             111     0.6 5  321 229 
 RREF HE ES   2   1436 23.12                             111     0.5 3  321 229 
 RREF HZ I        1436 32.48        80.8 0.30                           321 229 
 PRA  HZ EP   1   1435 53.70                             106    -0.4 4  391 210 
 PRA  HE ES   2   1436 36.18                             106     0.4 3  391 210 
 SJA  SZ EP   1   1435 53.91                             106    -1.2 4  399 193 
                                                                                
