 2015 1210 1930 46.9 L   6.808 -73.167143.8  RSN  6 0.5 2.0LRSN                1
 GAP=143        0.97       6.7     6.4  7.6 -0.2768E+02  0.1605E+02  0.3357E+01E
 Epicentro: LOS SANTOS - SANTANDER                                             3
 ACTION:UPD 16-02-04 15:03 OP:cam  STATUS:               ID:20151210193047dL   I
 OLDACT:REG 15-12-10 22:22 OP:mh   STATUS:               ID:20151210192748     3
 2015-12-10-1927-48M.COL___334                                                 6
 STAT SP IPHASW D HRMM SECON CODA AMPLIT PERI AZIMU VELO AIN AR TRES W  DIS CAZ7
 BAR2 EZ EP       1931  6.17                             170   -0.1310 23.9 184 
 BAR2 EZ ES       1931 21.34                             170   -0.0910 23.9 184 
 BAR2 EZ I        1931 23.87        18.5 0.06            170           23.9 184 
 PAM  EZ EP       1931  8.86                             150   -0.0910 78.2  41 
 PAM  EN ES       1931 26.42                             150    0.2710 78.2  41 
 PAM  EZ I        1931 28.33        14.7 0.14            155           78.2  41 
 PTB  HZ EP   1   1931 12.75                             132   -0.76 7  146 258 
 PTB  HN ES       1931 33.98                             132   -0.28 9  146 258 
 PTB  HZ I        1931 41.29        13.0 0.38            133            146 258 
 OCA  HN ES   1   1931 37.10                             129    0.28 7  159 354 
 NOR  HZ EP       1931 21.78                             118   -0.58 8  233 234 
 NOR  HN ES   1   1931 50.18                             118    0.16 6  233 234 
 NOR  HZ I        1931 53.57         8.1 0.36            121            233 234 
 GUY2CHZ EP       1931 30.98                             112    0.73 7  300 234 
 GUY2CHN ES       1932  4.98                             112    0.90 7  300 234 
 GUY2CHZ I        1932 12.88         7.6 0.74                           300 234 
                                                                                
