 2010  110 1906 45.4 L   6.796 -73.106140.4  RSN 15 0.5 3.1LRSN                1
 GAP=129        0.88       3.5     6.2  6.4 -0.1186E+02  0.1525E+02 -0.3930E+01E
 Epicentro: LOS SANTOS - SANTANDER                                             3
 ACTION:UP  10-08-24 09:43 OP:vdl  STATUS:               ID:20100110190645 L   I
 2010-01-10-1905-03S.COL___097                                                 6
 STAT SP IPHASW D HRMM SECON CODA AMPLIT PERI AZIMU VELO SNR AR TRES W  DIS CAZ7
 BAR2 SZ IP       19 7  4.65                             170     0.310   24 201 
 BAR2 SZ ES   1   19 7 19.19                             170     0.0 7   24 201 
 GIR2 SZ IP       19 7  4.70                             166     0.210   33 343 
 RUS  BZ EP   1   19 7  8.59                             143     0.0 7  100 179 
 RUS  BE ES   1   19 7 26.19                             143    -0.5 7  100 179 
 RUS  BZ I        19 7 29.11       162.5 0.34                           100 179 
 GUE  SZ EP   1   19 7  9.56                             138     0.0 7  116  10 
 GRA  SZ IP       19 7 10.59                             136     0.510  125  15 
 OCA  SZ IP       19 7 13.16                             128    -0.2 9  161 352 
 OCA  SZ ES   1   19 7 34.97                             128    -0.3 7  161 352 
 CHI  HZ EP   1   19 7 23.04                             116     0.2 6  249 196 
 CHI  HN ES   1   19 7 52.04                             116    -0.1 6  249 196 
 CHI  HZ I        19 7 55.34        64.6 0.57                           249 196 
 ROSC BZ EP   1   19 7 24.50                             115     1.1 6  255 212 
 ROSC BZ I        19 8  1.03        98.1 0.59                           255 212 
 HEL  HZ EP   1   19 7 25.25                             113    -0.6 6  276 256 
 HEL  HZ I        19 8  1.74        75.5 0.45                           276 256 
 GUY  HZ EP   1   19 7 29.14                             111     0.0 5  305 235 
 GUY  HN ES   1   19 8  3.54                             111     0.2 5  305 235 
 DBB  SZ IP       19 7 32.92                             108    -0.2 7  344 274 
 TOL  SZ EP   1   19 7 34.27                             108     0.5 5  346 225 
 TOL  SZ ES   1   19 8 10.41                             108    -1.1 5  346 225 
 SDV  BZ IP       19 7 33.90                             107    -1.0 6  357  50 
 ANIL BZ EP   1   19 7 35.96                             107     0.6 5  360 225 
 ANIL BN ES   1   19 8 14.38                             107     0.1 5  360 225 
 PRA  HZ EP   1   19 7 38.57                             105    -0.4 4  394 210 
 PRA  HN ES   1   19 8 20.20                             105    -0.5 4  394 210 
                                                                                
