 2014 1210 1710  3.6 L   6.751 -73.176147.0  RSN  5 0.5 1.3LRSN                1
 GAP=135        1.28       6.9     6.9 10.3 -0.3984E+01 -0.2006E+01  0.2003E+01E
 Epicentro: LOS SANTOS - SANTANDER                                             3
 ACTION:UPD 15-02-10 17:02 OP:nd   STATUS:               ID:20141210171003 L   I
 OLDACT:REG 14-12-10 21:51 OP:stll STATUS:               ID:20141210170747     3
 2014-12-10-1707-47M.COL___303                                                 6
 STAT SP IPHASW D HRMM SECON CODA AMPLIT PERI AZIMU VELO AIN AR TRES W  DIS CAZ7
 BAR2 E  EP       1710 23.15                             173   -0.1110 17.5 182 
 BAR2 E  ES       1710 37.86                             173   -0.7410 17.5 182 
 BRR  HZ EP       1710 25.03                             153    0.1710 71.1 304 
 BRR  HN ES       1710 42.27                             153    0.8210 71.1 304 
 PAM  SZ EP       1710 25.81                             149   -0.5010 83.7  39 
 PAM  SZ I        1710 26.10         7.2 0.24            150           83.7  39 
 PAM  SN ES       1710 44.15                             149    0.1110 83.7  39 
 RUS  HZ EP       1710 27.50                             145    0.4110 95.5 174 
 RUS  HN ES       1710 45.77                             145    0.3410 95.5 174 
 RUS  HZ I        1710 46.16         2.0 0.50            145           95.5 174 
 PTB  HN ES       1710 50.50                             133   -0.58 9  143 261 
                                                                                
