 2012 1210 1804 39.8 L   6.789 -73.210142.6  RSN  5 0.3 2.0LRSN                1
 GAP=129        0.83       5.1     5.0  6.2 -0.2014E+01  0.3792E+01 -0.2019E+01E
 Epicentro: ZAPATOCA - SANTANDER                                               3
 ACTION:UPD 13-01-04 14:26 OP:ep   STATUS:               ID:20121210180439 L   I
 2012-12-10-1800-00M.COL___242                                                 6
 STAT SP IPHASW D HRMM SECON CODA AMPLIT PERI AZIMU VELO AIN AR TRES W  DIS CAZ7
 BAR2 SZ EP       18 4 59.02                             171   -0.0210 21.9 172 
 BAR2 SZ ES       18 5 13.69                             171   -0.3410 21.9 172 
 BAR2 SZ I        18 5 14.93        25.7 0.34                          21.9 172 
 GIR2 SZ EP       18 4 58.97                             167   -0.1710 32.1   3 
 GIR2 SZ ES       18 5 14.69                             167    0.4810 32.1   3 
 PAM  SZ EP       18 5  1.79                             148   -0.2510 83.0  43 
 RUS  HZ EP       18 5  3.81                             143    0.5910  100 172 
 RUS  HN ES       18 5 21.31                             143   -0.1710  100 172 
 RUS  HN I        18 5 22.53        15.9 0.20                           100 172 
 PTB  HZ EP       18 5  5.71                             133   -0.17 9  141 259 
 PTB  HN ES       18 5 26.24                             133    0.03 9  141 259 
 PTB  HN I        18 5 27.87         9.3 0.24                           141 259 
                                                                                
