 2013  410 1450 28.6 L   6.671 -73.164150.0  RSN  5 0.4 1.6LRSN                1
 GAP=178        0.85       9.0     7.6 10.3  0.8263E+01  0.8283E+01 -0.3988E+02E
 Epicentro: VILLANUEVA - SANTANDER                                             3
 ACTION:UPD 13-05-22 14:37 OP:EP   STATUS:               ID:20130410145028 L   I
 2013-04-10-1450-00M.COL___245                                                 6
 STAT SP IPHASW D HRMM SECON CODA AMPLIT PERI AZIMU VELO AIN AR TRES W  DIS CAZ7
 BAR2 SZ EP       1450 48.77                             176    0.2310 8.94 193 
 BAR2 SZ ES   1   1451  3.51                             176   -0.58 7 8.94 193 
 GIR2 SZ EP       1450 48.84                             162   -0.3710 45.2 356 
 GIR2 SZ I        1451  8.79         5.7 0.35            149           45.2 356 
 BRR  HZ EP       1450 50.79                             151    0.2310 77.4 309 
 BRR  HE ES   2   1451  8.69                             151    1.00 5 77.4 309 
 RUS  HN ES   1   1451 10.20                             148    0.26 7 86.5 174 
 RUS  HZ I        1451 11.99         5.5 0.22            148           86.5 174 
 PTB  HZ EP   1   1450 55.58                             133    0.03 7  144 264 
 PTB  HN ES   1   1451 16.19                             133   -0.38 7  144 264 
 PTB  HZ I        1451 18.80         8.1 0.12            133            144 264 
                                                                                
