 2017  810 1316 55.0 L   6.771 -73.135141.0  RSN 14 0.4 2.3LRSN                1
 GAP=114        0.79       2.6     2.5  3.9  0.8814E-01  0.2116E+01  0.2601E+01E
 Epicentro: LOS SANTOS - SANTANDER                                             3
 ACTION:UPD 17-09-04 20:18 OP:rebc STATUS:               ID:20170810131655 L   I
 OLDACT:UP  17-08-10 23:03 OP:dani STATUS:               ID:20170810130743d    3
 OLDACT:UP  17-08-10 23:02 OP:dani STATUS:               ID:20170810130743d    3
 OLDACT:DUP 17-08-10 22:58 OP:dani STATUS:               ID:20170810130743d    3
 OLDACT:DUP 17-08-10 22:54 OP:dani STATUS:               ID:20170810130742d    3
 2017-08-10-1308-00M.COL___408                                                 6
 STAT SP IPHASW D HRMM SECON CODA AMPLIT PERI AZIMU VELO AIN AR TRES W  DIS CAZ7
 BAR2 EZ IP     C 1317 13.96        67.5 0.18            171   -0.0710 20.5 195 
 BAR2 EZ ES       1317 28.59                             171   -0.2510 20.5 195 
 BAR2 EZ I        1317 29.74        67.5 0.18            169           20.5 195 
 BRR  HZ EP       1317 15.87                             151    0.0610 73.8 300 
 BRR  HN ES       1317 32.67                             151    0.6510 73.8 300 
 BRR  HZ I        1317 35.84        40.1 0.32            151           73.8 300 
 PAM  EZ EP     D 1317 16.89                             149    0.0410 79.2  37 
 PAM  EN ES       1317 33.62                             149   -0.2410 79.2  37 
 PAM  EZ I        1317 36.13        45.2 0.52            154           79.2  37 
 RUS  HZ EP       1317 18.00                             144   -0.0810 97.3 177 
 RUS  HN ES       1317 36.07                             144    0.0210 97.3 177 
 RUS  HZ I        1317 37.19        15.4 0.26            145           97.3 177 
 SPBC HZ EP       1317 22.96                             128   -0.04 9  161 220 
 SPBC HN ES       1317 44.96                             128    0.14 9  161 220 
 SPBC HZ I        1317 51.77        28.0 0.38            129            161 220 
 YPLC HZ EP       1317 24.47                             126    0.32 9  173 151 
 YPLC HN ES   3   1317 48.33                             126    1.47 2  173 151 
 YPLC HZ I        1317 48.86        11.6 0.34            128            173 151 
 ZAR  HZ EP       1317 27.15                             121   -0.26 8  206 293 
 ZAR  HN ES       1317 52.40                             121   -0.26 8  206 293 
 ZAR  HZ I        1317 58.70        18.6 0.28            122            206 293 
 NOR  HZ EP       1317 30.09                             117   -0.30 8  234 235 
 NOR  HN ES       1317 57.68                             117   -0.29 8  234 235 
 NOR  HZ I        1317 59.88        14.7 0.14            118            234 235 
 CHI  HZ EP       1317 32.74                             116    0.57 8  246 196 
 CHI  HN ES       1318  1.14                             116    0.01 8  246 196 
 CHI  HZ I        1318  7.44         4.8 0.24            118            246 196 
 HEL  HZ EP       1317 35.51                             114    0.47 8  272 257 
 HEL  HE ES       1318  5.71                             114   -0.54 8  272 257 
 HEL  HZ I        1318 12.97        12.0 0.27            115            272 257 
 URE  HZ EP   9   1317 34.52                             112   -1.61 0  286 292 
 URE  HN ES       1318  6.38                             113   -0.19 7  286 292 
 URE  HZ I        1318  7.88        18.7 0.36            114            286 292 
 GUY2CHZ EP   9   1317 39.68                             111    1.36 0  300 235 
 GUY2CHN ES       1318 13.54                             112    0.09 7  300 235 
 GUY2CHZ I        1318 19.39        12.1 0.24                           300 235 
 PTGC HZ EP       1317 37.50                             111   -0.79 7  305 159 
 PTGC HN ES   3   1318 10.68                             111   -1.35 2  305 159 
 PTGC HZ I        1318 11.33        12.9 0.43            113            305 159 
 CBOC HZ EP       1317 42.47                             109    0.70 7  334 253 
 CBOC HN ES       1318 18.26                             109    0.04 7  334 253 
 CBOC HZ I        1318 21.86         4.6 0.35            110            334 253 
                                                                                
