 2010 1010 1026 34.0 L   6.869 -73.205150.0  RSN  6 0.5 3.0LRSN                1
 GAP=240        1.18       8.7    12.1 14.0 -0.3979E+02 -0.5630E+02  0.8553E+02E
 Epicentro: ZAPATOCA - SANTANDER                                               3
 ACTION:UP  11-02-18 11:08 OP:tino STATUS:               ID:20101010102634 L   I
 2010-10-10-1024-18S.COL___121                                                 6
 STAT SP IPHASW D HRMM SECON CODA AMPLIT PERI AZIMU VELO SNR AR TRES W  DIS CAZ7
 BAR2 SZ EP       1026 53.85                             168    -0.510   31 176 
 BRR  HZ EP       1026 55.86                             156     0.710   62 295 
 BRR  HN ES       1027 11.45                             156    -0.210   62 295 
 NOR  SZ EP   1   1027  9.95                             119     0.0 6  234 232 
 NOR  SE ES       1027 37.45                             119    -0.5 8  234 232 
 CHI  HZ EP       1027 11.89                             117    -0.7 8  254 193 
 CHI  HN ES       1027 43.14                             117     0.5 8  254 193 
 CHI  HZ I        1027 47.09        33.9 0.56                           254 193 
 ROSC BZ EP   1   1027 13.54                             117     0.8 6  256 209 
 ROSC BN ES   2   1027 43.25                             117     0.3 4  256 209 
 ROSC BZ I        1027 48.16        36.3 0.41                           256 209 
 PRA  HZ EP       1027 27.73                             107    -0.4 6  396 208 
 PRA  HN ES       1028 10.62                             107     0.4 6  396 208 
 PRA  HZ I        1028 14.77        92.6 1.47                           396 208 
                                                                                
