 2013  610 1921 25.3 L   6.807 -73.163142.5  RSN  7 0.4 1.8LRSN                1
 GAP=199        0.93       4.0     5.6  6.9  0.2818E+01  0.1005E+02  0.8740E+00E
 Epicentro: LOS SANTOS - SANTANDER                                             3
 ACTION:UPD 14-01-08 09:53 OP:ep   STATUS:               ID:20130610192125 L   I
 OLDACT:REG 13-06-10 15:48 OP:mh   STATUS:               ID:20130610191959     3
 2013-06-10-1919-59M.COL___261                                                 6
 STAT SP IPHASW D HRMM SECON CODA AMPLIT PERI AZIMU VELO AIN AR TRES W  DIS CAZ7
 BAR2 SZ EP       1921 44.46                             170   -0.0610 23.8 185 
 BAR2 SZ ES   1   1921 59.34                             170   -0.20 7 23.8 185 
 BAR2 SZ I        1922  0.52        16.2 0.16            165           23.8 185 
 BRR  HZ EP     C 1921 46.39                             153    0.4410 69.2 299 
 BRR  HN ES       1922  2.73                             153    0.6410 69.2 299 
 BRR  HZ I        1922  4.18         6.9 0.10            149           69.2 299 
 RUS  HZ EP   1   1921 48.36                             143   -0.41 7  102 175 
 RUS  HN ES       1922  7.10                             143   -0.0010  102 175 
 RUS  HN I        1922  8.65         5.1 0.24            142            102 175 
 PTB  HZ EP   1   1921 51.22                             132   -0.60 7  146 258 
 PTB  HN ES       1922 12.29                             132   -0.24 9  146 258 
 PTB  HN I        1922 17.42        13.9 0.26            130            146 258 
 NOR  HZ EP       1922  1.11                             118    0.41 8  234 234 
 NOR  HN ES       1922 27.77                             118   -0.56 8  234 234 
 NOR  HN I        1922 37.03        12.4 0.16            117            234 234 
 SML  HN ES       1922 29.40                             117   -0.46 8  242 336 
 GUY2CHZ EP   1   1922  9.17                             112    0.56 5  300 234 
 GUY2CHN ES   2   1922 42.85                             112    0.44 4  300 234 
 GUY2CHZ I        1922 50.92         2.4 0.40                           300 234 
                                                                                
