 2010 1010 1527 17.1 L   6.748 -73.123142.0  RSN  7 0.4 2.1LRSN                1
 GAP=180        1.09       7.5     9.6 11.1 -0.4661E+02 -0.2985E+02  0.4029E+02E
 Epicentro: LOS SANTOS - SANTANDER                                             3
 ACTION:UP  11-02-18 11:08 OP:tino STATUS:               ID:20101010152717 L   I
 2010-10-10-1523-47S.COL___121                                                 6
 STAT SP IPHASW D HRMM SECON CODA AMPLIT PERI AZIMU VELO SNR AR TRES W  DIS CAZ7
 BAR2 SZ EP       1527 36.12                             172    -0.110   19 201 
 BAR2 SZ I        1527 36.30        23.6 0.38                            19 201 
 BAR2 SZ ES   2   1527 51.55                             172     0.5 5   19 201 
 BTL  SZ EP       1527 35.52                             169    -0.810   25 320 
 BRR  HZ EP       1527 37.93                             150    -0.210   76 301 
 BRR  HZ I        1527 38.21        26.2 0.32                            76 301 
 BRR  HN ES       1527 54.78                             150     0.210   76 301 
 GRA  SZ EP       1527 42.98                             135     0.510  131  16 
 GRA  SZ ES   2   1528  2.39                             135     0.2 5  131  16 
 NOR  SZ EP       1527 52.79                             118     0.3 8  234 236 
 NOR  SN ES       1528 19.91                             118    -0.2 8  234 236 
 CHI  HN ES   2   1528 22.93                             117     0.0 4  244 196 
 CHI  HZ I        1528 29.86         2.8 0.09                           244 196 
 PRA  HN ES       1528 52.05                             106     0.7 6  388 210 
 PRA  HZ I        1528 58.96         9.7 0.50                           388 210 
                                                                                
