 2013  710 1149 51.9 L   6.774 -73.148146.4  RSN  8 0.3 2.2LRSN                1
 GAP=137        0.88       4.7     3.6  5.9 -0.1947E+01  0.3739E+01 -0.7993E+01E
 Epicentro: LOS SANTOS - SANTANDER                                             3
 ACTION:UPD 13-08-12 10:36 OP:ep   STATUS:               ID:20130710114951 L   I
 OLDACT:REG 13-07-10 15:39 OP:stll STATUS:               ID:20130710114850     3
 2013-07-10-1148-50M.COL___225                                                 6
 STAT SP IPHASW D HRMM SECON CODA AMPLIT PERI AZIMU VELO AIN AR TRES W  DIS CAZ7
 BAR2 SZ EP       1150 11.51                             172   -0.0210 20.4 191 
 BAR2 SZ ES       1150 26.56                             172   -0.3010 20.4 191 
 BAR2 SZ I        1150 29.19        13.2 0.34            173           20.4 191 
 GIR2 SZ EP       1150 11.59                             166   -0.1210 34.1 352 
 BRR  HZ IP     C 1150 13.34                             152    0.1810 72.4 301 
 BRR  HN ES       1150 30.41                             152    0.6510 72.4 301 
 BRR  HN I        1150 31.59        29.6 0.26            151           72.4 301 
 PAM  SZ EP       1150 14.43                             150    0.1210 79.8  38 
 PAM  SN ES       1150 31.64                             150   -0.1610 79.8  38 
 RUS  HN ES       1150 34.16                             145    0.2610 97.7 176 
 PTB  HZ EP       1150 18.61                             132   -0.22 9  147 260 
 PTB  HN ES       1150 39.40                             132   -0.44 9  147 260 
 CAPV BZ EP       1150 19.28                             131   -0.27 9  152  37 
 ZAR  HZ EP       1150 25.11                             122    0.66 9  205 293 
 ZAR  HE ES       1150 49.48                             122   -0.38 9  205 293 
 ZAR  HE I        1150 55.54        36.7 0.22            123            205 293 
                                                                                
