 2013  210 1358 59.4 L   6.799 -73.154139.2  RSN  4 0.1 1.4LRSN                1
 GAP=135        0.32       2.1     2.7  3.4 -0.1711E+00 -0.1434E+01  0.2147E+01E
 Epicentro: LOS SANTOS - SANTANDER                                             3
 ACTION:UPD 13-03-12 09:32 OP:ep   STATUS:               ID:20130210135859 L   I
 2013-02-10-1354-48M.COL___185                                                 6
 STAT SP IPHASW D HRMM SECON CODA AMPLIT PERI AZIMU VELO AIN AR TRES W  DIS CAZ7
 BRR  HZ EP       1359 19.93                             152    0.1210 70.4 299 
 BRR  HZ I        1359 23.44         6.7 0.43            150           70.4 299 
 BRR  HN ES       1359 35.65                             152   -0.0710 70.4 299 
 PAM  SZ EP       1359 20.99                             149    0.0110 78.1  40 
 PAM  SZ I        1359 21.24         4.0 0.14            151           78.1  40 
 PAM  SN ES   1   1359 37.75                             149   -0.05 7 78.1  40 
 RUS  HZ EP   1   1359 22.50                             142   -0.03 7  101 175 
 RUS  HN ES   1   1359 40.64                             142    0.09 7  101 175 
 RUS  HN I        1359 43.00         3.7 0.72            141            101 175 
 CHI  HZ EP   1   1359 36.57                             116   -0.15 6  248 195 
                                                                                
