 2010  510 1427 14.9 L   6.796 -72.999145.1  RSN  4 0.3 1.7LRSN                1
 GAP=252        0.55       6.5    14.8  8.5  0.1881E+02  0.4990E+02  0.6451E+01E
 Epicentro: CEPITA - SANTANDER                                                 3
 ACTION:UP  10-08-24 10:04 OP:vdl  STATUS:               ID:20100510142714 L   I
 2010-05-10-1424-28S.COL___104                                                 6
 STAT SP IPHASW D HRMM SECON CODA AMPLIT PERI AZIMU VELO SNR AR TRES W  DIS CAZ7
 BAR2 SZ EP   1   1427 34.40                             168    -0.2 7   30 222 
 BAR2 SZ ES   2   1427 49.71                             168    -0.3 5   30 222 
 BRR  HZ EP   1   1427 37.12                             148     0.2 7   86 294 
 BRR  HZ I        1428  5.33        11.0 0.62                            86 294 
 RUS  HZ EP   1   1427 38.80                             144     0.2 7  100 185 
 RUS  HN ES   2   1427 57.22                             144     0.2 5  100 185 
 RUS  HZ I        1427 58.91         3.4 0.39                           100 185 
 PRA  HZ EP   1   1428  8.80                             106    -0.5 4  400 212 
 PRA  HN ES   2   1428 52.00                             106     0.2 3  400 212 
 PRA  HZ I        1428 57.16         2.5 0.41                           400 212 
                                                                                
