 2017  410 1532  5.1 L   6.817 -73.153140.3  RSN 11 0.5 2.3LRSN                1
 GAP=111        1.20       4.6     4.2  6.7  0.3859E+01  0.8789E+01  0.9613E+01E
 Epicentro: LOS SANTOS - SANTANDER                                             3
 ACTION:UPD 17-05-30 21:10 OP:jn   STATUS:               ID:20170410153205 L   I
 OLDACT:UP  17-04-10 22:20 OP:cog  STATUS:               ID:20170410152745     3
 OLDACT:REG 17-04-10 20:47 OP:cog  STATUS:               ID:20170410152745     3
 2017-04-10-1528-00M.COL___368                                                 6
 STAT SP IPHASW D HRMM SECON CODA AMPLIT PERI AZIMU VELO AIN AR TRES W  DIS CAZ7
 BAR2 EZ EP       1532 23.94                             169   -0.1410 25.0 188 
 BAR2 EZ ES       1532 38.63                             169   -0.2810 25.0 188 
 BAR2 EZ I        1532 40.06        73.9 0.16            165           25.0 188 
 BRR  HZ EP       1532 25.91                             152    0.3610 69.6 297 
 BRR  HE ES       1532 42.13                             152    0.6210 69.6 297 
 BRR  HZ I        1532 46.88        52.2 0.12            153           69.6 297 
 PAM  EZ EP       1532 26.74                             150    0.0810 76.5  41 
 PAM  EE ES       1532 43.72                             150    0.2310 76.5  41 
 PAM  EZ I        1532 46.06        47.1 0.62            157           76.5  41 
 RUS  HZ EP       1532 27.96                             142   -0.4710  102 176 
 RUS  HN ES       1532 46.09                             142   -0.5610  102 176 
 RUS  HZ I        1532 47.52        28.9 0.34            142            102 176 
 PTB  HZ EP       1532 30.95                             131   -0.62 9  147 258 
 PTB  HN ES       1532 51.68                             131   -0.55 9  147 258 
 PTB  HZ I        1532 55.08        26.7 0.12            131            147 258 
 YPLC HZ EP       1532 34.34                             125   -0.34 9  179 151 
 YPLC HE ES       1532 58.05                             125    0.29 9  179 151 
 YPLC HZ I        1533  0.85        30.1 0.28            127            179 151 
 NOR  HZ EP       1532 40.52                             117   -0.02 8  235 234 
 NOR  HN ES   4   1533  6.44                             117   -1.76 0  235 234 
 NOR  HZ I        1533 15.28        12.8 0.16            118            235 234 
 CHI  HZ EP       1532 42.34                             116   -0.31 8  250 195 
 CHI  HE ES       1533 13.15                             116    1.19 8  250 195 
 CHI  HZ I        1533 20.47         4.9 0.72            117            250 195 
 ROSC BZ EP       1532 44.13                             115    1.10 8  254 211 
 ROSC BN ES   4   1533 15.85                             115    3.21 0  254 211 
 ROSC BZ I        1533 21.76        12.1 0.45            116            254 211 
 HEL  HE ES       1533 16.35                             114    0.24 8  272 255 
 DBB  EZ EP       1532 52.11                             108   -0.12 7  339 274 
 DBB  EN ES       1533 28.82                             108   -0.19 7  339 274 
                                                                                
