 2014 1210 1811  4.4 L   6.810 -73.229141.0  RSN  4 0.3 1.5LRSN                1
 GAP=147        0.69       4.2     3.9  5.9 -0.4996E+01  0.6302E+01 -0.2569E+01E
 Epicentro: ZAPATOCA - SANTANDER                                               3
 ACTION:UPD 15-02-10 17:02 OP:nd   STATUS:               ID:20141210181104 L   I
 OLDACT:DUP 14-12-11 01:40 OP:stll STATUS:               ID:20141210180746d    3
 OLDACT:REG 14-12-10 21:56 OP:stll STATUS:               ID:20141210180745     3
 2014-12-10-1807-45M.COL___303                                                 6
 STAT SP IPHASW D HRMM SECON CODA AMPLIT PERI AZIMU VELO AIN AR TRES W  DIS CAZ7
 BAR2 E  EP       1811 23.84                             170    0.3110 24.6 168 
 BAR2 E  ES       1811 38.60                             170    0.1810 24.6 168 
 PAM  SZ EP       1811 26.81                             148    0.3110 82.8  45 
 PAM  SN ES       1811 43.35                             148   -0.3410 82.8  45 
 PAM  SZ I        1811 44.34         5.8 0.34            150           82.8  45 
 RUS  HZ EP       1811 27.80                             142   -0.0910  103 171 
 RUS  HZ I        1811 28.80         4.2 0.22            144            103 171 
 RUS  HN ES       1811 46.04                             142   -0.1410  103 171 
 PTB  HZ EP       1811 29.87                             133   -0.36 9  139 258 
 PTB  HN ES       1811 50.44                             133    0.10 9  139 258 
 PTB  HZ I        1811 55.08         7.2 0.42            132            139 258 
                                                                                
