 2010 1210 1154  4.0 L   6.789 -73.082142.7  RSN  6 0.1 1.5LRSN                1
 GAP=166        0.37       2.6     9.9  3.4 -0.7215E+01 -0.4598E+01  0.2820E+01E
 Epicentro: LOS SANTOS - SANTANDER                                             3
 ACTION:UP  11-01-14 15:23 OP:pat  STATUS:               ID:20101210115404 L   I
 2010-12-10-1152-14S.COL___135                                                 6
 STAT SP IPHASW D HRMM SECON CODA AMPLIT PERI AZIMU VELO SNR AR TRES W  DIS CAZ7
 BAR2 SZ EP       1154 23.22                             170    -0.110   25 207 
 BAR2 SZ ES   1   1154 38.12                             170    -0.2 7   25 207 
 BAR2 SZ I        1154 40.80         7.4 0.37                            25 207 
 BTL  SZ EP       1154 23.42                             170     0.110   25 305 
 BTL  SZ ES   1   1154 38.42                             170     0.0 7   25 305 
 GIR2 SZ ES   3   1154 38.82                             166     0.3 2   34 339 
 RUS  HZ EP       1154 27.31                             143    -0.110   99 180 
 RUS  HN ES   1   1154 45.77                             143     0.2 7   99 180 
 RUS  HZ I        1154 47.09         4.1 0.14                            99 180 
 GRA  SZ ES   2   1154 48.33                             136     0.0 5  125  14 
 GRA  SZ I        1154 54.01         3.7 0.62                           125  14 
 CHI  HZ EP   1   1154 41.71                             116     0.1 6  249 197 
 CHI  HN ES   2   1155 10.85                             116    -0.1 4  249 197 
 CHI  HZ I        1155 14.12         2.8 0.24                           249 197 
                                                                                
