 2014  910 1532 27.2 L   7.452 -73.152140.9  RSN  7 0.3 2.3LRSN                1
 GAP=138        0.80       4.7     3.5  5.6  0.1924E+00  0.4996E+01 -0.7346E+01E
 Epicentro: EL PLAYON - SANTANDER                                              3
 ACTION:UPD 14-10-03 23:03 OP:nd   STATUS:               ID:20140910153227 L   I
 OLDACT:DUP 14-09-10 20:58 OP:mh   STATUS:               ID:20140910153001d    3
 OLDACT:REG 14-09-10 19:46 OP:mh   STATUS:               ID:20140910153000     3
 2014-09-10-1530-00M.COL___285                                                 6
 STAT SP IPHASW D HRMM SECON CODA AMPLIT PERI AZIMU VELO AIN AR TRES W  DIS CAZ7
 PAM  SZ EP       1532 47.98                             159    0.4510 51.5 104 
 PAM  SN ES       1533  3.41                             159    0.0210 51.5 104 
 PAM  SZ I        1533  4.97        40.2 0.22            166           51.5 104 
 BRR  HZ EP     D 1532 48.20                             151    0.3010 72.6 238 
 BRR  HN ES       1533  4.06                             151    0.0110 72.6 238 
 BRR  HZ I        1533 10.76        44.6 0.28            152           72.6 238 
 BAR2 SZ EP       1532 49.74                             144    0.0310 95.1 182 
 BAR2 SZ ES       1533  6.76                             144   -0.5210 95.1 182 
 BAR2 SZ I        1533  8.66        31.8 0.38            150           95.1 182 
 RUS  HZ EP       1532 56.90                             126    0.13 9  173 177 
 RUS  HN ES   4   1533 18.60                             126   -1.24 0  173 177 
 RUS  HZ I        1533 20.28         7.5 0.32            132            173 177 
 PTB  HZ EP       1532 56.36                             126   -0.11 9  176 235 
 PTB  HN ES       1533 19.27                             126   -0.03 9  176 235 
 PTB  HZ I        1533 22.30        31.0 0.30            129            176 235 
 SML  HZ EP       1532 56.28                             125   -0.61 9  180 326 
 SML  HN ES   4   1533 15.84                             125   -4.20 0  180 326 
 SML  HZ I        1533 25.01        46.7 0.10            127            180 326 
 ZAR  HZ EP       1532 57.56                             124   -0.15 9  188 271 
 ZAR  HN ES       1533 21.90                             124    0.40 9  188 271 
 ZAR  HZ I        1533 25.24        33.4 0.24            126            188 271 
 MON  HZ EP   4   1533  8.87                             110   -2.49 0  313 298 
 MON  HN ES   4   1533 43.87                             110   -1.95 0  313 298 
                                                                                
