 2012  910 1106  7.5 L   6.029 -73.710114.6  RSN 11 0.4 2.1LRSN                1
 GAP= 79        0.78       2.6     3.0  6.7 -0.1820E+01  0.4257E+01  0.2291E+01E
 Epicentro: BOLIVAR - SANTANDER                                                3
 ACTION:UPD 12-10-22 14:18 OP:ep   STATUS:               ID:20120910110607 L   I
 2012-09-10-1100-00M.COL___227                                                 6
 STAT SP IPHASW D HRMM SECON CODA AMPLIT PERI AZIMU VELO AIN AR TRES W  DIS CAZ7
 RUS  HZ EP   1   11 6 25.91                             146   -0.16 7 71.1 102 
 RUS  HZ I        11 6 26.25        10.9 0.13                          71.1 102 
 RUS  HN ES   1   11 6 40.06                             146   -0.50 7 71.1 102 
 BAR2 SZ EP       11 6 26.92                             141    0.1710 85.3  43 
 BAR2 SZ ES   1   11 6 42.11                             141    0.35 7 85.3  43 
 BAR2 SZ I        11 6 42.80        53.6 0.16                          85.3  43 
 PTB  HN ES   1   11 6 42.74                             136   -0.59 7100.0 304 
 PTB  HN I        11 6 43.91        15.7 0.18                         100.0 304 
 BRR  HZ EP   1   11 6 29.24                             130   -0.08 7  119 360 
 BRR  HE ES   1   11 6 46.44                             130    0.10 7  119 360 
 BRR  HZ I        11 6 48.43        26.5 0.10                           119 360 
 GIR2 SZ EP   1   11 6 30.68                             128    0.21 7  129  26 
 GIR2 SZ ES   1   11 6 48.73                             128    0.34 7  129  26 
 NOR  SN ES       11 6 49.82                             126    0.08 9  138 248 
 CHI  HZ EP   1   11 6 32.80                             123   -0.57 7  155 181 
 CHI  HN ES   1   11 6 53.97                             123    0.42 7  155 181 
 PAM  SN ES   1   11 6 58.94                             118   -0.06 7  183  38 
 HEL  HZ EP   1   11 6 39.11                             115    0.74 6  202 275 
 ZAR  HZ EP   1   11 6 37.48                             114   -0.82 6  206 322 
 ZAR  HE ES   1   11 7  2.51                             114    0.19 6  206 322 
 ZAR  HZ I        11 7  3.44        15.8 0.30                           206 322 
 PRA  HZ EP   1   11 6 47.26                             106   -0.44 5  287 207 
 PRA  HN ES   1   11 7 19.58                             106    0.52 5  287 207 
 PRA  HZ I        11 7 22.88         6.9 0.33                           287 207 
                                                                                
