 2011 1010 1735 53.3 L   6.815 -73.049146.2  RSN  4 0.1 1.4LRSN                1
 GAP=211        0.31       5.3    10.2  4.6  0.4581E+02 -0.2229E+02 -0.1157E+02E
 Epicentro: LOS SANTOS - SANTANDER                                             3
 ACTION:UPD 12-07-13 16:03 OP:ep   STATUS:               ID:20111010173553 L   I
 2011-10-10-1720-00M.COL___171                                                 6
 STAT SP IPHASW D HRMM SECON CODA AMPLIT PERI AZIMU VELO AIN AR TRES W  DIS CAZ7
 BAR2 SZ EP       1736 12.95                             168   -0.1110 28.7 211 
 BAR2 SZ ES   2   1736 28.48                             168   -0.03 5 28.7 211 
 BAR2 SZ I        1736 30.68         3.6 0.36                          28.7 211 
 GIR2 SZ ES   3   1736 28.65                             166    0.18 2 33.3 331 
 BRR  HZ EP       1736 15.00                             149    0.0210 80.1 294 
 BRR  HN ES   2   1736 31.94                             149    0.02 5 80.1 294 
 BRR  HZ I        1736 41.05         7.5 0.44                          80.1 294 
 RUS  HZ EP       1736 17.24                             143    0.0810  102 182 
 RUS  HN ES   1   1736 35.79                             143   -0.01 7  102 182 
                                                                                
