 2016 1110 1618 50.0 L   6.787 -73.135144.0  RSN  6 0.3 1.9LRSN                1
 GAP=156        0.76       3.8     3.6  6.0 -0.1151E+01  0.3671E+01  0.5028E+01E
 Epicentro: LOS SANTOS - SANTANDER                                             3
 ACTION:UPD 17-10-26 21:06 OP:lp   STATUS:               ID:20161110161850 L   I
 OLDACT:UP  16-11-11 01:00 OP:dnl  STATUS:               ID:20161110161746     3
 OLDACT:REG 16-11-10 20:20 OP:dnl  STATUS:               ID:20161110161746     3
 2016-11-10-1618-00M.COL___343                                                 6
 STAT SP IPHASW D HRMM SECON CODA AMPLIT PERI AZIMU VELO AIN AR TRES W  DIS CAZ7
 BAR2 EZ EP       1619  9.27                             171   -0.1410 22.2 194 
 BAR2 EZ ES       1619 24.26                             171   -0.2810 22.2 194 
 BAR2 EZ I        1619 25.61        26.1 0.18            170           22.2 194 
 BRR  HZ EP       1619 11.41                             151    0.3410 72.9 299 
 BRR  HN ES       1619 27.94                             151    0.4510 72.9 299 
 BRR  HZ I        1619 37.70        22.0 0.34            150           72.9 299 
 PAM  EZ EP       1619 12.17                             150    0.1110 77.7  38 
 PAM  EN ES       1619 29.09                             150   -0.1710 77.7  38 
 PAM  EZ I        1619 31.32        10.7 0.44            155           77.7  38 
 PTB  HZ EP   2   1619 16.43                             131   -0.49 5  149 259 
 PTB  HE ES       1619 37.44                             131   -0.47 9  149 259 
 PTB  HZ I        1619 39.57         7.4 0.26            132            149 259 
 ZAR  HZ EP   2   1619 21.86                             122   -0.65 4  206 292 
 ZAR  HN ES       1619 47.95                             122    0.09 8  206 292 
 ZAR  HZ I        1619 53.97         8.7 0.30            123            206 292 
 CHI  HZ EP   2   1619 27.29                             117   -0.21 4  248 196 
 CHI  HN ES       1619 57.19                             117    0.45 8  248 196 
 CHI  HZ I        1620  2.74         3.1 0.28            119            248 196 
                                                                                
