 2010  910 1556  9.8 L   6.756 -73.109141.1  RSN  7 0.4 1.6LRSN                1
 GAP=163        0.80       7.2    15.0 13.4  0.2979E+02 -0.1000E+03 -0.4554E+02E
 Epicentro: LOS SANTOS - SANTANDER                                             3
 ACTION:UP  11-02-18 11:01 OP:tino STATUS:               ID:20100910155609 L   I
 2010-09-10-1552-46S.COL___120                                                 6
 STAT SP IPHASW D HRMM SECON CODA AMPLIT PERI AZIMU VELO SNR AR TRES W  DIS CAZ7
 BAR2 SZ EP   1   1556 28.48                             172    -0.3 7   20 204 
 BAR2 SZ ES   2   1556 43.34                             172    -0.3 5   20 204 
 BAR2 SZ I        1556 44.46         9.6 0.41                            20 204 
 BTL  SZ EP   1   1556 29.00                             170     0.1 7   25 316 
 GIR2 SZ EP   1   1556 28.84                             165    -0.2 7   37 345 
 BRR  HZ EP   1   1556 30.66                             150    -0.1 7   77 300 
 BRR  HE ES   2   1556 47.56                             150     0.4 5   77 300 
 BRR  HZ I        1556 52.13        18.0 0.13                            77 300 
 RUS  HZ EP   1   1556 32.80                             144     0.1 7   96 178 
 RUS  HN ES   2   1556 50.88                             144     0.3 5   96 178 
 RUS  HZ I        1556 52.08         2.7 0.16                            96 178 
 GUE  SZ EP   1   1556 33.87                             137    -0.5 7  121  10 
 GRA  SZ EP   1   1556 35.71                             135     0.8 7  129  15 
                                                                                
