 2014  810 1207 16.4 L   7.282 -74.013 13.6  RSN  5 0.5 1.2LRSN                1
 GAP=196        1.24       5.3     2.9  7.0  0.7688E+01  0.4479E+00  0.6955E+01E
 Epicentro: PUERTO WILCHES - SANTANDER                                         3
 ACTION:UPD 14-09-15 21:48 OP:nd   STATUS:               ID:20140810120716 L   I
 OLDACT:REG 14-08-10 22:18 OP:carl STATUS:               ID:20140810115819     3
 2014-08-10-1158-19M.COL___260                                                 6
 STAT SP IPHASW D HRMM SECON CODA AMPLIT PERI AZIMU VELO AIN AR TRES W  DIS CAZ7
 BRR  HZ EP       12 7 23.08                             106    0.0210 38.4 120 
 BRR  HN ES       12 7 29.11                             106    0.8910 38.4 120 
 BRR  HZ I        12 7 29.83        37.4 0.10            103           38.4 120 
 PTB  HZ EP       12 7 31.37                              96   -0.2410 95.6 211 
 PTB  HN ES       12 7 43.69                              96    0.2510 95.6 211 
 PTB  HZ I        12 7 43.85         7.1 0.20             95           95.6 211 
 ZAR  HZ EP       12 7 31.58                              96   -0.1110 96.1 284 
 ZAR  HN ES       12 7 43.60                              96    0.0210 96.1 284 
 ZAR  HZ I        12 7 46.11         4.4 0.48             95           96.1 284 
 BAR2 SZ EP       12 7 35.09                              95   -0.3310  119 130 
 BAR2 SZ ES       12 7 49.24                              95   -0.9910  119 130 
 BAR2 SZ I        12 7 50.43         4.4 0.18             94            119 130 
 RUS  HZ EP       12 7 45.11                              56    0.53 9  185 146 
 RUS  HN ES       12 8  6.53                              56    0.01 9  185 146 
 RUS  HZ I        12 8  8.47         3.1 0.30             56            185 146 
                                                                                
