 2013 1010 1802  8.1 L   6.789 -73.192144.0  RSN  5 0.2 1.7LRSN                1
 GAP=143        0.51       2.9     2.9  4.0 -0.3665E+01  0.3256E+01 -0.7101E+00E
 Epicentro: ZAPATOCA - SANTANDER                                               3
 ACTION:UPD 13-11-25 09:20 OP:ep   STATUS:               ID:20131010180208 L   I
 OLDACT:REG 13-10-10 17:12 OP:nd   STATUS:               ID:20131010175959     3
 2013-10-10-1759-59M.COL___273                                                 6
 STAT SP IPHASW D HRMM SECON CODA AMPLIT PERI AZIMU VELO AIN AR TRES W  DIS CAZ7
 BAR2 SZ EP       18 2 27.71                             171    0.2110 21.8 177 
 BAR2 SZ ES       18 2 42.78                             171    0.1610 21.8 177 
 BAR2 SZ I        18 2 44.22        23.0 0.26            170           21.8 177 
 PAM  SZ IP     C 18 2 30.66                             149    0.2610 81.7  42 
 PAM  SN ES       18 2 47.51                             149   -0.2810 81.7  42 
 PAM  SZ I        18 2 49.88         6.5 0.40            153           81.7  42 
 RUS  HZ EP       18 2 31.60                             144   -0.0310 99.8 173 
 RUS  HN ES       18 2 49.85                             144   -0.1310 99.8 173 
 RUS  HZ I        18 2 51.58         6.8 0.34            145           99.8 173 
 PTB  HZ EP       18 2 34.35                             133   -0.10 9  142 259 
 PTB  HN ES       18 2 54.98                             133   -0.02 9  142 259 
 PTB  HZ I        18 2 57.32         5.1 0.16            134            142 259 
 SPBC HZ EP       18 2 35.85                             129   -0.23 9  159 218 
 SPBC HN ES       18 2 58.03                             129    0.14 9  159 218 
 SPBC HZ I        18 3  4.93         9.0 0.26            130            159 218 
                                                                                
