 2017 1010 1530 22.9 L   6.633 -74.069  4.0  RSN  7 0.5 1.6LRSN                1
 GAP=105        1.13       3.0     2.3  5.9 -0.1320E+01  0.9802E+00  0.2239E+01E
 Epicentro: PUERTO PARRA - SANTANDER                                           3
 ACTION:UPD 17-11-07 19:30 OP:rebc STATUS:               ID:20171010153022 L   I
 OLDACT:REG 17-10-10 20:15 OP:lv   STATUS:               ID:20171010151930     3
 2017-10-10-1528-00M.COL___441                                                 6
 STAT SP IPHASW D HRMM SECON CODA AMPLIT PERI AZIMU VELO AIN AR TRES W  DIS CAZ7
 BAR2 EZ IP     D 1530 39.05                              47    0.4610 98.2  93 
 BAR2 EZ ES       1530 50.00                              47   -0.8510 98.2  93 
 ZAR  HN ES       1530 58.50                              47   -0.2110  129 318 
 ZAR  HZ I        1531  0.43        10.8 0.28             47            129 318 
 RUS  HZ EP   4   1530 45.84                              47    1.19 0  136 127 
 RUS  HN ES       1531  1.88                              47    0.25 9  136 127 
 RUS  HZ I        1531  5.67        14.0 0.20             47            136 127 
 NOR  HZ EP       1530 46.05                              47    0.14 9  148 217 
 NOR  HN ES       1531  3.50                              47   -0.37 9  148 217 
 NOR  HZ I        1531  6.56         5.9 0.14             47            148 217 
 PAM  EZ EP       1530 50.69                              47    0.91 9  170  63 
 PAM  EN ES       1531 10.44                              47   -0.32 9  170  63 
 PAM  EZ I        1531 13.68        10.3 0.24             47            170  63 
 GUY2CHZ EP       1530 55.22                              37    0.04 8  212 223 
 GUY2CHN ES       1531 20.44                              37    0.07 8  212 223 
 GUY2CHZ I        1531 24.50         4.7 0.32                           212 223 
 ELA  HZ EP   9   1531  1.83                              37    2.41 0  245 217 
 ELA  HN ES       1531 30.43                                    0.09 8  245 217 
 ELA  HZ I        1531 36.78         5.1 0.36             37            245 217 
                                                                                
