 2017  110 1026 58.3 L   6.089 -73.307155.7  RSN 10 0.4 1.9LRSN                1
 GAP=105        0.88       3.1     4.2  5.7  0.9341E+00  0.5071E+01  0.1253E+01E
 Epicentro: SUAITA - SANTANDER                                                 3
 ACTION:UPD 17-05-22 15:57 OP:jn   STATUS:               ID:20170110102658 L   I
 OLDACT:UP  17-01-10 23:24 OP:ar   STATUS:               ID:20170110101759     3
 OLDACT:REG 17-01-10 22:47 OP:ar   STATUS:               ID:20170110101759     3
 2017-01-10-1017-59S.COL___291                                                 6
 STAT SP IPHASW D HRMM SECON CODA AMPLIT PERI AZIMU VELO AIN AR TRES W  DIS CAZ7
 RUS  HZ EP     C 1027 20.15                             167    0.4310 32.9 131 
 RUS  HN ES       1027 36.46                             167    0.0310 32.9 131 
 RUS  HZ I        1027 38.66         8.4 0.46            170           32.9 131 
 BAR2 EZ EP       1027 20.21                             159    0.0110 57.3  14 
 BAR2 EZ ES       1027 37.04                             159   -0.2510 57.3  14 
 BAR2 EZ I        1027 40.20        19.5 0.52            159           57.3  14 
 BRR  HZ EP       1027 23.80                             140   -0.0610  121 338 
 BRR  HN ES       1027 44.53                             140    0.7310  121 338 
 PTB  HZ EP       1027 24.97                             136   -0.16 9  137 291 
 PTB  HE ES       1027 45.85                             136   -0.22 9  137 291 
 PTB  HZ I        1027 47.25        16.0 0.38            137            137 291 
 PAM  EZ EP       1027 27.68                             133    0.42 9  154  26 
 PAM  EE ES       1027 49.21                             133   -0.64 9  154  26 
 PAM  EZ I        1027 51.76         3.7 0.34            135            154  26 
 CHI  HZ EP       1027 28.58                             130    0.12 9  168 196 
 CHI  HN ES       1027 51.83                             130   -0.17 9  168 196 
 CHI  HZ I        1027 53.39         4.3 0.38            132            168 196 
 ZAR  HZ EP       1027 34.28                             121    0.08 8  231 312 
 ZAR  HN ES       1028  1.90                             121   -0.31 8  231 312 
 ZAR  HZ I        1028  9.18        11.3 0.34            122            231 312 
 PTGC HZ EP   2   1027 34.90                             119   -0.86 4  246 148 
 PTGC HN ES   4   1028  3.67                             119   -1.32 0  246 148 
 GUY2CHZ EP   4   1027 38.03                             119    1.53 0  247 247 
 GUY2CHN ES   4   1028  7.74                             119    1.45 0  247 247 
 GUY2CHZ  IAML    1028 19.45         3.4 0.32                           247 247 
 URE  HZ EP   4   1027 40.80                             113   -1.65 0  307 307 
 URE  HN ES   4   1028 13.61                             113   -3.28 0  307 307 
 URE  HZ I        1028 18.13         6.9 0.80            115            307 307 
                                                                                
