 2010  910 1836 13.2 L   6.764 -73.085146.5  RSN 15 0.6 3.4LRSN                1
 GAP=166        1.19       5.4    10.0  9.4 -0.1950E+02  0.2247E+02  0.1465E+02E
 Epicentro: LOS SANTOS - SANTANDER                                             3
 ACTION:UP  11-02-18 11:01 OP:tino STATUS:               ID:20100910183613 L   I
 2010-09-10-1831-13S.COL___120                                                 6
 STAT SP IPHASW D HRMM SECON CODA AMPLIT PERI AZIMU VELO SNR AR TRES W  DIS CAZ7
 BAR2 SZ IP     C 1836 32.52                             171    -0.410   22 210 
 BAR2 SZ ES   2   1836 47.84                             171    -0.4 5   22 210 
 BAR2 SZ I        1836 51.14       437.7 0.63                            22 210 
 GIR2 SZ IP       1836 33.65                             165     0.510   37 341 
 GIR2 SZ ES   2   1836 49.46                             165     0.8 5   37 341 
 BRR  HZ EP       1836 34.49                             150    -0.410   79 299 
 BRR  HE ES   2   1836 51.45                             150    -0.4 5   79 299 
 BRR  HZ I        1836 55.05       407.9 0.14                            79 299 
 RUS  HZ IP     C 1836 36.40                             145    -0.310   96 180 
 RUS  HN ES   2   1836 54.50                             145    -0.6 5   96 180 
 RUS  HZ I        1836 55.82       168.1 0.30                            96 180 
 GRA  SZ IP     D 1836 39.36                             136     0.710  128  14 
 GRA  SZ ES   2   1836 59.34                             136     0.8 5  128  14 
 GRA  SZ I        1837  1.55       340.6 0.28                           128  14 
 OCA  SZ EP   1   1836 41.25                             129    -0.8 7  165 351 
 OCA  SZ ES   2   1837  4.04                             129    -0.5 5  165 351 
 OCA  SZ I        1837  9.31       331.1 0.35                           165 351 
 CHI  HZ EP       1836 50.26                             117    -0.5 8  247 197 
 CHI  HN ES   2   1837 21.25                             117     1.2 4  247 197 
 CHI  HZ I        1837 25.63        92.6 0.51                           247 197 
 ROSC BZ IP     C 1836 52.08                             117     0.7 8  253 213 
 ROSC BZ I        1837 30.49       175.2 0.48                           253 213 
 CVER SZ EP   1   1836 53.74                             115     0.2 6  271 204 
 CVER SZ I        1836 55.28       159.9 0.44                           271 204 
 HEL  HZ EP   1   1836 53.47                             114    -0.6 6  278 257 
 HEL  HE ES   3   1837 24.94                             114    -1.0 2  278 257 
 HEL  HZ I        1837 31.56        82.1 0.44                           278 257 
 GUY  SN ES   2   1837 31.72                             112     0.1 4  305 236 
 GUY  SZ I        1837 43.50       402.2 0.63                           305 236 
 RREF HZ EP   1   1837  0.06                             111     0.4 5  324 231 
 RREF HN ES   2   1837 37.14                             111     1.2 3  324 231 
 RREF HZ I        1837 41.13       147.6 0.40                           324 231 
 TOL  SZ EP       1837  1.89                             109     0.2 6  345 226 
 ANIL HZ EP   1   1837  3.69                             108     0.4 5  359 226 
 ANIL HN ES   2   1837 43.33                             108     1.0 3  359 226 
 ANIL HZ I        1837 46.60       269.2 0.28                           359 226 
 PRA  HZ EP   1   1837  5.96                             106    -0.8 4  392 211 
 PRA  HN ES   2   1837 48.15                             106    -0.4 3  392 211 
 PRA  HZ I        1837 54.02       133.6 0.47                           392 211 
                                                                                
