 2014  310 1254 52.1 L   6.831 -73.178138.7  RSN 12 0.5 2.4LRSN                1
 GAP=131        1.20       4.2     4.9  7.8 -0.6431E+01  0.2002E+02 -0.7944E+01E
 Epicentro: ZAPATOCA - SANTANDER                                               3
 ACTION:UPD 14-04-09 23:15 OP:nd   STATUS:               ID:20140310125452 L   I
 OLDACT:REG 14-03-10 15:45 OP:nd   STATUS:               ID:20140310125042     3
 2014-03-10-1250-42M.COL___223                                                 6
 STAT SP IPHASW D HRMM SECON CODA AMPLIT PERI AZIMU VELO AIN AR TRES W  DIS CAZ7
 BAR2 SZ EP       1255 11.21                             169    0.2310 26.4 181 
 BAR2 SZ ES       1255 25.47                             169   -0.2110 26.4 181 
 BAR2 SZ I        1255 27.31       132.7 0.22            170           26.4 181 
 PAM  SZ EP       1255 14.02                             149    0.4310 77.2  43 
 PAM  SN ES       1255 30.92                             149    0.5910 77.2  43 
 PAM  SZ I        1255 33.59      1183.3 0.62            153           77.2  43 
 RUS  HZ EP       1255 15.09                             141   -0.3810  104 174 
 RUS  HN ES       1255 33.24                             141   -0.4410  104 174 
 RUS  HZ I        1255 34.66        21.5 0.22            146            104 174 
 PTB  HZ EP       1255 17.58                             131   -0.68 9  145 257 
 PTB  HN ES       1255 38.90                             131    0.25 9  145 257 
 PTB  HZ I        1255 42.24        33.7 0.20            131            145 257 
 SPBC HZ EP       1255 20.03                             127   -0.10 9  164 217 
 SPBC HN ES       1255 42.17                             127    0.19 9  164 217 
 SPBC HZ I        1255 47.97        25.9 0.50            130            164 217 
 ZAR  HZ EP       1255 24.12                             121    0.48 9  199 292 
 ZAR  HN ES   2   1255 48.58                             121    0.36 4  199 292 
 ZAR  HZ I        1255 52.14        25.9 0.16            122            199 292 
 NOR  HZ EP       1255 27.13                             117   -0.22 8  234 233 
 NOR  HN ES       1255 54.74                             117   -0.09 8  234 233 
 NOR  HZ I        1255 59.32        17.1 0.56            119            234 233 
 SML  HZ EP       1255 27.37                             116   -0.49 8  239 336 
 SML  HN ES       1255 54.71                             116   -1.03 8  239 336 
 SML  HZ I        1256  6.89        18.6 0.10            118            239 336 
 HEL  HZ EP       1255 33.20                             114    1.51 8  269 255 
 HEL  HN ES       1256  2.64                             114    0.09 8  269 255 
 HEL  HZ I        1256  9.63         8.4 0.54            115            269 255 
 URE  HZ EP   4   1255 32.16                             112   -0.18 0  279 292 
 URE  HN ES   4   1256  3.77                             112    0.06 0  279 292 
 URE  HZ I        1256  5.50        16.4 0.16            114            279 292 
 CBOC HZ EP   2   1255 38.55                             109    0.07 3  331 251 
 CBOC HN ES       1256 14.45                             109   -0.19 7  331 251 
 CBOC HZ I        1256 26.99         4.1 0.46            110            331 251 
 SJC  HZ EP   4   1255 46.11                             105   -0.78 0  404 327 
 SJC  HN ES   4   1256 26.71                             105   -2.91 0  404 327 
 SJC  HZ I        1256 31.25         4.2 0.66            106            404 327 
                                                                                
