 2013 1110 1116 54.9 L   6.740 -73.163153.9  RSN  5 0.3 1.1LRSN                1
 GAP=198        0.64       4.6     5.1  6.4  0.1158E+02 -0.5016E+01 -0.4457E+01E
 Epicentro: VILLANUEVA - SANTANDER                                             3
 ACTION:UPD 14-01-09 16:26 OP:ep   STATUS:               ID:20131110111654 L   I
 OLDACT:REG 13-11-10 14:14 OP:jn   STATUS:               ID:20131110111000     3
 2013-11-10-1110-00M.COL___273                                                 6
 STAT SP IPHASW D HRMM SECON CODA AMPLIT PERI AZIMU VELO AIN AR TRES W  DIS CAZ7
 BAR2 SZ EP       1117 15.34                             174   -0.1010 16.5 188 
 BRR  HZ EP       1117 17.37                             153    0.2910 73.0 304 
 BRR  HE ES       1117 34.51                             153    0.1710 73.0 304 
 RUS  HZ EP       1117 19.33                             147    0.2610 94.1 175 
 RUS  HN ES       1117 37.67                             147   -0.2110 94.1 175 
 RUS  HZ I        1117 40.82         1.7 0.38            146           94.1 175 
 PTB  HZ EP       1117 22.17                             135   -0.16 9  145 261 
 PTB  HN ES       1117 43.55                             135   -0.13 9  145 261 
 PTB  HZ I        1117 46.62         2.1 0.30            134            145 261 
 SML  HN ES   2   1118  1.02                             118   -0.96 4  249 336 
                                                                                
