 2010  310 1013 38.9 L   6.836 -72.984143.5  RSN  7 0.4 1.7LRSN                1
 GAP=199        0.79       4.7     8.3  7.4  0.8562E+01 -0.3852E+00  0.9318E+01E
 Epicentro: CEPITA - SANTANDER                                                 3
 ACTION:UP  10-08-24 09:53 OP:vdl  STATUS:               ID:20100310101338 L   I
 2010-03-10-1010-01S.COL___091                                                 6
 STAT SP IPHASW D HRMM SECON CODA AMPLIT PERI AZIMU VELO SNR AR TRES W  DIS CAZ7
 BAR2 SZ EP       1013 58.69                             166     0.110   35 219 
 BAR2 SZ ES   1   1014 13.80                             166    -0.1 7   35 219 
 BRR  HZ EP       1014  0.52                             147    -0.210   86 291 
 BRR  HZ I        1014  9.73        11.7 1.29                            86 291 
 BRR  HN ES       1014 17.62                             147    -0.110   86 291 
 RUS  BZ EP   1   1014  3.25                             142     0.5 7  105 186 
 RUS  BN ES   1   1014 21.39                             142     0.0 7  105 186 
 RUS  BZ I        1014 22.42         5.7 0.24                           105 186 
 OCA  SZ ES   2   1014 28.94                             129     0.1 5  160 347 
 CHI  HZ EP   1   1014 17.06                             116    -0.4 6  258 199 
 CHI  HE ES   2   1014 46.24                             116    -1.3 4  258 199 
 CHI  HZ I        1014 49.98         2.7 0.77                           258 199 
 RREF BN ES   1   1015  4.96                             109     0.8 5  338 231 
 RREF BZ I        1015  7.31         2.2 0.94                           338 231 
 PRA  HE ES   2   1015 16.51                             105    -0.1 3  405 212 
                                                                                
