 2016  710 1750 37.7 L   6.709 -73.188146.0  RSN  4 0.4 1.6LRSN                1
 GAP=225        0.83       6.8     6.8  8.3  0.3104E+02 -0.2073E+00 -0.4326E+01E
 Epicentro: VILLANUEVA - SANTANDER                                             3
 ACTION:UPD 17-03-29 16:49 OP:lp   STATUS:               ID:20160710175038 L   I
 OLDACT:UP  16-08-18 22:43 OP:nlst STATUS:               ID:20160710175038 L   3
 OLDACT:UP  16-07-11 05:11 OP:dani STATUS:               ID:20160710173605d    3
 OLDACT:DUP 16-07-11 05:04 OP:dani STATUS:               ID:20160710173605d    3
 OLDACT:UP  16-07-11 05:03 OP:dani STATUS:               ID:20160710173604d    3
 OLDACT:UP  16-07-11 05:02 OP:dani STATUS:               ID:20160710173604d    3
 OLDACT:UP  16-07-11 05:02 OP:dani STATUS:               ID:20160710173604d    3
 OLDACT:UP  16-07-11 04:59 OP:dani STATUS:               ID:20160710173604d    3
 OLDACT:UP  16-07-11 04:56 OP:dani STATUS:               ID:20160710173604d    3
 OLDACT:UP  16-07-11 04:55 OP:dani STATUS:               ID:20160710173604d    3
 OLDACT:UP  16-07-11 04:55 OP:dani STATUS:               ID:20160710173604d    3
 OLDACT:UP  16-07-11 04:55 OP:dani STATUS:               ID:20160710173604d    3
 OLDACT:UP  16-07-11 04:50 OP:dani STATUS:               ID:20160710173604d    3
 OLDACT:UP  16-07-11 04:50 OP:dani STATUS:               ID:20160710173604d    3
 OLDACT:DUP 16-07-11 04:44 OP:dani STATUS:               ID:20160710173604d    3
 2016-07-10-1735-59S.COL___331                                                 6
 STAT SP IPHASW D HRMM SECON CODA AMPLIT PERI AZIMU VELO AIN AR TRES W  DIS CAZ7
 BRR  HZ EP       1750 58.75                             152   -0.1910 72.7 307 
 BRR  HE ES       1751 15.45                             152   -0.0810 72.7 307 
 BRR  HZ I        1751 19.68         9.1 0.10            150           72.7 307 
 RUS  HZ EP       1751  0.88                             147    0.0910 91.0 173 
 RUS  HE ES       1751 19.07                             147    0.2510 91.0 173 
 RUS  HZ I        1751 20.05         4.5 0.24            151           91.0 173 
 PTB  HZ EP       1751  3.60                             134   -0.51 9  142 262 
 PTB  HN ES       1751 24.55                             134   -0.17 9  142 262 
 PTB  HZ I        1751 27.35         7.5 0.14            134            142 262 
 ZAR  HZ EP   3   1751 11.47                             123    1.35 2  204 295 
 ZAR  HN ES       1751 36.06                             123    0.64 9  204 295 
 ZAR  HZ I        1751 43.74         4.2 0.28            124            204 295 
                                                                                
