 2015 1010 1728 32.3 L   6.800 -73.208139.9  RSN  5 0.3 1.6LRSN                1
 GAP=129        0.90       4.6     4.7  6.5  0.5529E+01  0.7472E+01 -0.9928E+00E
 Epicentro: ZAPATOCA - SANTANDER                                               3
 ACTION:UPD 15-12-22 20:38 OP:cam  STATUS:               ID:20151010172832 L   I
 OLDACT:UP  15-10-10 23:39 OP:ak   STATUS:               ID:20151010171747     3
 OLDACT:REG 15-10-10 22:03 OP:ak   STATUS:               ID:20151010171747     3
 2015-10-10-1717-47M.COL___340                                                 6
 STAT SP IPHASW D HRMM SECON CODA AMPLIT PERI AZIMU VELO AIN AR TRES W  DIS CAZ7
 BAR2 EZ EP       1728 51.26                             170    0.0310 23.1 173 
 BAR2 EZ ES       1729  5.45                             170   -0.5410 23.1 173 
 BRR  HZ EP       1728 53.08                             153    0.5910 65.2 301 
 BRR  HN ES       1729  8.72                             153    0.4910 65.2 301 
 PAM  EZ EP       1728 54.19                             148   -0.0010 82.0  43 
 PAM  EN ES       1729 11.11                             148   -0.1510 82.0  43 
 PAM  EZ I        1729 13.09         8.5 0.46            151           82.0  43 
 RUS  HZ EP       1728 55.44                             142   -0.1010  101 172 
 RUS  HE ES       1729 13.83                             142    0.1710  101 172 
 RUS  HZ I        1729 15.69         4.9 0.34            144            101 172 
 ZAR  HZ EP       1729  3.40                             122   -0.32 9  198 293 
 ZAR  HN ES       1729 27.86                             122   -0.35 9  198 293 
 ZAR  HZ I        1729 36.34         3.3 0.34            122            198 293 
                                                                                
