 2011 1010 1515 20.4 L   6.782 -73.130146.9  RSN  5 0.4 1.9LRSN                1
 GAP=139        0.72       5.1     6.5  7.3  0.8152E+01 -0.6181E+01 -0.4137E+01E
 Epicentro: LOS SANTOS - SANTANDER                                             3
 ACTION:UPD 12-07-13 16:03 OP:ep   STATUS:               ID:20111010151520 L   I
 2011-10-10-1512-57S.COL___168                                                 6
 STAT SP IPHASW D HRMM SECON CODA AMPLIT PERI AZIMU VELO AIN AR TRES W  DIS CAZ7
 BAR2 SZ EP       1515 40.01                             171   -0.0910 21.8 195 
 BAR2 SZ ES   1   1515 55.11                             171   -0.38 7 21.8 195 
 BAR2 SZ I        1515 56.61        15.8 0.22                          21.8 195 
 BRR  HZ EP       1515 41.84                             152    0.0610 73.7 299 
 BRR  HZ I        1515 57.66        19.8 0.40                          73.7 299 
 BRR  HN ES   1   1515 59.08                             152    0.61 7 73.7 299 
 PAM  SZ EP       1515 42.89                             151    0.1610 77.8  38 
 PAM  SN ES   2   1515 59.67                             151   -0.50 5 77.8  38 
 RUS  HZ EP       1515 44.05                             145   -0.0310 98.5 177 
 RUS  HN ES   1   1516  2.74                             145    0.16 7 98.5 177 
 ZAR  HN ES   2   1516 17.59                             122   -1.09 4  206 292 
 ZAR  HZ I        1516 24.05         5.7 0.46                           206 292 
                                                                                
