 2017  810 1230 38.3 L   6.804 -73.145145.6  RSN  9 0.4 1.9LRSN                1
 GAP=136        0.97       3.4     4.4  5.6 -0.1176E+01  0.7394E+01  0.4687E+01E
 Epicentro: LOS SANTOS - SANTANDER                                             3
 ACTION:UPD 17-09-04 20:18 OP:rebc STATUS:               ID:20170810123038 L   I
 OLDACT:REG 17-08-10 20:41 OP:dani STATUS:               ID:20170810122744     3
 2017-08-10-1228-00M.COL___408                                                 6
 STAT SP IPHASW D HRMM SECON CODA AMPLIT PERI AZIMU VELO AIN AR TRES W  DIS CAZ7
 BAR2 EZ EP     C 1230 57.70                             170   -0.1810 23.8 190 
 BAR2 EZ ES       1231 13.09                             170   -0.0910 23.8 190 
 BAR2 EZ I        1231 14.12        13.9 0.48            168           23.8 190 
 BRR  HZ EP       1230 59.58                             152    0.2010 71.0 298 
 BRR  HE ES       1231 16.46                             152    0.6110 71.0 298 
 BRR  HZ I        1231 19.45        18.6 0.46            151           71.0 298 
 PAM  EZ EP     D 1231  0.59                             151    0.1610 77.0  40 
 PAM  EN ES       1231 17.47                             151   -0.2510 77.0  40 
 PAM  EZ I        1231 19.51        19.6 0.48            155           77.0  40 
 RUS  HZ EP       1231  1.77                             144   -0.2610  101 176 
 RUS  HN ES       1231 20.17                             144   -0.4010  101 176 
 RUS  HZ I        1231 21.84         5.4 0.22            144            101 176 
 SPBC HZ EP       1231  6.74                             129   -0.04 9  164 219 
 SPBC HN ES       1231 29.60                             129    0.57 9  164 219 
 SPBC HZ I        1231 33.06        10.6 0.20            129            164 219 
 ZAR  HZ EP       1231 10.50                             122   -0.18 9  204 292 
 ZAR  HN ES       1231 35.67                             122   -0.30 9  204 292 
 ZAR  HZ I        1231 42.11        12.2 0.44            122            204 292 
 NOR  HZ EP       1231 14.29                             118    0.28 8  235 234 
 NOR  HN ES       1231 40.94                             118   -0.96 8  235 234 
 NOR  HZ I        1231 46.43         4.6 0.28            119            235 234 
 CHI  HZ EP       1231 16.44                             117    0.44 8  249 195 
 CHI  HN ES       1231 46.09                             117    0.65 8  249 195 
 CHI  HZ I        1231 51.91         2.5 0.25            118            249 195 
 PRA  HZ EP       1231 32.01                             106    0.19 6  392 210 
 PRA  HN ES       1232 13.06                             106   -0.55 6  392 210 
 PRA  HZ I        1232 21.47         3.5 0.43            107            392 210 
                                                                                
