 2011 1010 1551 15.6 L   6.788 -73.124138.2  RSN  6 0.3 2.0LRSN                1
 GAP=140        0.58       3.6     4.3  5.1  0.2121E+01  0.3408E+01 -0.1996E+00E
 Epicentro: LOS SANTOS - SANTANDER                                             3
 ACTION:UPD 12-07-13 16:03 OP:ep   STATUS:               ID:20111010155115 L   I
 2011-10-10-1549-15S.COL___168                                                 6
 STAT SP IPHASW D HRMM SECON CODA AMPLIT PERI AZIMU VELO AIN AR TRES W  DIS CAZ7
 BAR2 SZ IP     D 1551 34.16                             170   -0.1310 22.6 196 
 BAR2 SZ ES   1   1551 48.85                             170   -0.03 7 22.6 196 
 BRR  HZ IP     C 1551 35.87                             150   -0.2110 73.9 299 
 BRR  HZ I        1551 36.08        34.2 0.36                          73.9 299 
 BRR  HN ES   1   1551 52.26                             150    0.19 7 73.9 299 
 PAM  SZ EP       1551 37.01                             150    0.0410 76.9  38 
 PAM  SN ES   1   1551 53.76                             150    0.11 7 76.9  38 
 RUS  HZ EP       1551 38.27                             143   -0.2310 99.2 177 
 RUS  HN ES   1   1551 56.66                             143    0.30 7 99.2 177 
 ZAR  HZ EP   1   1551 48.56                             120    0.73 6  207 292 
 ZAR  HE ES   2   1552 12.48                             120   -0.50 4  207 292 
 ZAR  HZ I        1552 17.70         7.6 0.30                           207 292 
 CHI  HZ EP   3   1551 53.11                             116    0.30 2  248 196 
 CHI  HZ I        1552 28.61         3.4 0.32                           248 196 
                                                                                
