 2017 1110 1308 52.1 L   6.810 -73.124148.0  RSN  9 0.6 1.7LRSN                1
 GAP=156        1.10       6.1     5.2  8.4 -0.1058E+02  0.7074E+01  0.9336E+01E
 Epicentro: LOS SANTOS - SANTANDER                                             3
 ACTION:UPD 17-12-12 19:54 OP:rebc STATUS:               ID:20171110130852 L   I
 OLDACT:UP  17-11-10 23:51 OP:mg   STATUS:               ID:20171110125743d    3
 OLDACT:UP  17-11-10 23:51 OP:mg   STATUS:               ID:20171110125743d    3
 OLDACT:DUP 17-11-10 23:42 OP:mg   STATUS:               ID:20171110125743d    3
 OLDACT:REG 17-11-10 21:07 OP:mg   STATUS:               ID:20171110125742     3
 2017-11-10-1258-00M.COL___453                                                 6
 STAT SP IPHASW D HRMM SECON CODA AMPLIT PERI AZIMU VELO AIN AR TRES W  DIS CAZ7
 BAR2 EZ EP       13 9 11.67                             170   -0.4010 25.0 195 
 BAR2 EZ ES   2   13 9 26.94                             170   -0.67 5 25.0 195 
 BAR2 EZ I        13 9 28.45        10.5 0.20            169           25.0 195 
 BRR  HZ EP       13 9 13.63                             153    0.0210 72.8 297 
 BRR  HN ES       13 9 31.14                             153    0.7710 72.8 297 
 BRR  HZ I        13 9 33.77        14.0 0.41            151           72.8 297 
 PAM  EZ EP       13 9 14.54                             152    0.0910 75.0  39 
 PAM  EN ES       13 9 31.88                             152    0.0310 75.0  39 
 PAM  EZ I        13 9 33.58         4.6 0.19            156           75.0  39 
 PTB  HZ EP       13 9 19.29                             132   -0.23 9  150 259 
 PTB  HN ES       13 9 40.12                             132   -0.76 9  150 259 
 PTB  HZ I        13 9 43.83         3.3 0.16            132            150 259 
 SPBC HN ES       13 9 44.05                             129    0.48 9  166 219 
 SPBC HZ I        13 9 47.32         5.5 0.09            130            166 219 
 ZAR  HZ EP       13 9 24.51                             123   -0.40 8  206 292 
 ZAR  HN ES       13 9 50.85                             123    0.37 8  206 292 
 ZAR  HZ I        13 9 56.36         7.9 0.38            124            206 292 
 NOR  HZ EP   1   13 9 28.10                             119   -0.18 6  237 235 
 NOR  HN ES   1   13 9 56.36                             119   -0.11 6  237 235 
 NOR  HZ I        1310  1.39         4.3 0.32            120            237 235 
 GUY2CHZ EP   2   13 9 37.25                             113    1.11 4  304 235 
 GUY2CHE ES   3   1310 13.57                             113    3.10 2  304 235 
 GUY2CHZ I        1310 18.95         3.2 0.53                           304 235 
 SJC  HZ EP   9   13 9 45.59                             106   -2.22 0  410 327 
 SJC  HE ES       1310 27.97                             106   -1.05 6  410 327 
 SJC  HZ I        1310 31.48         1.6 0.58            108            410 327 
                                                                                
