 2011 1010 1417 33.1 L   6.803 -73.138137.3  RSN  4 0.4 1.6LRSN                1
 GAP=137        0.77       6.7    12.4 10.9 -0.2703E+02 -0.4592E+02  0.1688E+02E
 Epicentro: LOS SANTOS - SANTANDER                                             3
 ACTION:UPD 12-07-13 16:03 OP:ep   STATUS:               ID:20111010141733 L   I
 2011-10-10-1415-49S.COL___168                                                 6
 STAT SP IPHASW D HRMM SECON CODA AMPLIT PERI AZIMU VELO AIN AR TRES W  DIS CAZ7
 BAR2 SZ EP       1417 51.34                             170   -0.3610 23.8 192 
 BAR2 SZ ES   2   1418  5.52                             170   -0.71 5 23.8 192 
 BAR2 SZ I        1418  7.63         4.2 0.30                          23.8 192 
 BRR  HN ES   2   1418  9.67                             151    0.49 5 71.8 298 
 BRR  HZ I        1418 24.53        21.9 0.42                          71.8 298 
 PAM  SZ EP       1417 54.55                             149    0.2010 76.6  39 
 PAM  SN ES   2   1418 10.93                             149   -0.02 5 76.6  39 
 RUS  HZ EP       1417 56.03                             142    0.0010  101 177 
 RUS  HE ES   2   1418 14.83                             142    0.90 5  101 177 
                                                                                
