 2013  110 1206 29.0 L   6.790 -73.177147.0  RSN  5 0.4 2.0LRSN                1
 GAP=233        1.02       5.8     7.2  7.3  0.1623E+02  0.7828E+01  0.1185E+02E
 Epicentro: LOS SANTOS - SANTANDER                                             3
 ACTION:UPD 13-02-15 09:13 OP:ep   STATUS:               ID:20130110120629 L   I
 2013-01-10-1158-40M.COL___174                                                 6
 STAT SP IPHASW D HRMM SECON CODA AMPLIT PERI AZIMU VELO AIN AR TRES W  DIS CAZ7
 BAR2 SZ EP       12 6 48.55                             171   -0.1910 21.9 182 
 BAR2 SZ ES       12 7  3.68                             171   -0.4710 21.9 182 
 BAR2 SZ I        12 7  4.72        22.7 0.32            166           21.9 182 
 BRR  HZ EP       12 6 50.75                             154    0.6210 68.7 301 
 BRR  HN ES       12 7  7.10                             154    0.4710 68.7 301 
 BRR  HN I        12 7  8.30        23.9 0.28            150           68.7 301 
 RUS  HZ EP       12 6 52.73                             144   -0.0710 99.8 174 
 RUS  HN ES       12 7 11.47                             144    0.0910 99.8 174 
 PTB  HZ EP       12 6 55.14                             133   -0.59 9  144 259 
 PTB  HN ES       12 7 16.32                             133   -0.27 9  144 259 
 PTB  HN I        12 7 22.00        13.5 0.22            130            144 259 
 CHI  HZ EP       12 7  6.48                             118   -0.06 8  247 194 
 CHI  HN ES       12 7 36.38                             118    0.54 8  247 194 
 CHI  HN I        12 7 39.93         5.5 0.28            117            247 194 
                                                                                
