 2016  810 1558 56.3 L   6.764 -73.301124.9  RSN  4 0.4 1.4LRSN                1
 GAP=246        0.89       7.7     4.8  7.6  0.5393E+01  0.1588E+02  0.3103E+01E
 Epicentro: ZAPATOCA - SANTANDER                                               3
 ACTION:UPD 16-10-29 15:34 OP:rebc STATUS:               ID:20160810155856 L   I
 OLDACT:REG 16-08-10 20:08 OP:lv   STATUS:               ID:20160810155759     3
 2016-08-10-1557-59S.COL___352                                                 6
 STAT SP IPHASW D HRMM SECON CODA AMPLIT PERI AZIMU VELO AIN AR TRES W  DIS CAZ7
 BAR2 EZ EP       1559 13.57                             169    0.1410 23.0 145 
 BAR2 EZ ES       1559 27.09                             169    0.3010 23.0 145 
 BAR2 EZ I        1559 28.32        11.0 0.23                          23.0 145 
 RUS  HZ EP       1559 18.02                             139    0.0510 99.3 166 
 RUS  HE ES       1559 34.48                             139   -0.3810 99.3 166 
 RUS  HZ I        1559 37.37         3.9 0.27                          99.3 166 
 PTB  HZ EP       1559 19.37                             131   -0.6210  130 259 
 PTB  HE ES       1559 38.36                             131   -0.0910  130 259 
 PTB  HZ I        1559 43.68         3.5 0.14                           130 259 
 NOR  HZ EP       1559 29.69                             116    0.56 8  218 233 
 NOR  HN ES       1559 54.95                             116    0.23 8  218 233 
 NOR  HZ I        16 0  1.71         2.5 0.14                           218 233 
                                                                                
