 2012  610 1754 12.9 L   6.778 -73.139142.0  RSN  8 0.4 1.9LRSN                1
 GAP=183        0.74       3.5     4.7  7.0  0.2558E+01  0.1154E+02  0.2157E+01E
 Epicentro: LOS SANTOS - SANTANDER                                             3
 ACTION:UPD 12-08-06 17:48 OP:ep   STATUS:               ID:20120610175411 L   I
 2012-06-10-1750-00M.COL___201                                                 6
 STAT SP IPHASW D HRMM SECON CODA AMPLIT PERI AZIMU VELO AIN AR TRES W  DIS CAZ7
 BAR2 SZ EP   1   1754 32.32                             171    0.32 7 21.0 193 
 BAR2 SZ ES   1   1754 46.42                             171   -0.50 7 21.0 193 
 BAR2 SZ I        1754 49.13        22.7 0.25            172           21.0 193 
 RUS  HZ EP   1   1754 36.27                             144    0.20 7 98.1 176 
 RUS  HN ES   1   1754 54.49                             144    0.33 7 98.1 176 
 RUS  HZ I        1754 56.17         7.4 0.34            148           98.1 176 
 PTB  HZ EP   1   1754 39.10                             131   -0.45 7  148 260 
 PTB  HN ES   1   1755  0.18                             131   -0.18 7  148 260 
 OCA  HN ES   1   1755  3.50                             128    0.32 7  163 353 
 ZAR  HZ EP   1   1754 45.56                             121    0.32 6  206 293 
 ZAR  HN ES   1   1755 10.00                             121   -0.48 6  206 293 
 ZAR  HZ I        1755 17.46        14.0 0.25            123            206 293 
 NOR  SZ EP   1   1754 47.81                             118   -0.48 6  234 235 
 NOR  SN ES   1   1755 16.58                             118    0.67 6  234 235 
 CHI  HZ EP   1   1754 49.62                             116   -0.50 6  246 195 
 CHI  HN ES   1   1755 19.10                             116   -0.07 6  246 195 
 HEL  HN ES   1   1755 24.61                             114    0.49 6  272 256 
                                                                                
