 2010  110 1905  2.5 L   6.829 -73.217142.1  RSN  9 0.5 1.9LRSN                1
 GAP=151        0.93       3.9     6.8  7.4 -0.7070E+01  0.2279E+02 -0.1139E+00E
 Epicentro: ZAPATOCA - SANTANDER                                               3
 ACTION:UP  10-08-24 09:43 OP:vdl  STATUS:               ID:20100110190502 L   I
 2010-01-10-1900-31S.COL___097                                                 6
 STAT SP IPHASW D HRMM SECON CODA AMPLIT PERI AZIMU VELO SNR AR TRES W  DIS CAZ7
 BAR2 SZ EP   2   19 5 20.71                             169    -1.0 5   26 172 
 BAR2 SZ ES   1   19 5 36.42                             169    -0.3 7   26 172 
 GIR2 SZ IP       19 5 21.54                             168    -0.110   28   5 
 GIR2 SZ ES   1   19 5 36.89                             168     0.4 7   28   5 
 RUS  BZ EP   2   19 5 25.78                             142    -0.4 5  105 172 
 RUS  BE ES   2   19 5 44.08                             142    -0.5 5  105 172 
 RUS  BZ I        19 5 44.79         9.6 0.37                           105 172 
 GUE  SZ EP   2   19 5 26.44                             139    -0.3 5  115  16 
 GUE  SZ ES   1   19 5 45.83                             139     0.2 7  115  16 
 GRA  SZ IP       19 5 27.43                             136     0.110  125  21 
 GRA  SZ ES   1   19 5 47.17                             136     0.4 7  125  21 
 CHI  HZ EP   1   19 5 40.85                             116     0.8 6  250 193 
 CHI  HN ES   1   19 6  9.37                             116    -0.1 6  250 193 
 CHI  HZ I        19 6 13.40         3.1 0.10                           250 193 
 HEL  HE ES   1   19 6 12.57                             115     0.2 6  265 255 
 HEL  HZ I        19 6 24.16         6.6 0.14                           265 255 
 MON  HZ IP       19 5 49.37                             108    -1.0 7  345 309 
 MON  HE ES   1   19 6 27.96                             108     0.3 5  345 309 
 MON  HZ I        19 6 48.91         3.7 0.60                           345 309 
 PRA  HZ EP   1   19 5 56.72                             106     1.0 4  391 208 
 PRA  HN ES   2   19 6 38.13                             106     0.8 3  391 208 
 PRA  HZ I        19 6 48.19         3.8 0.53                           391 208 
                                                                                
