 2013  810 1249 18.0 L   6.747 -73.148146.2  RSN  8 0.4 1.9LRSN                1
 GAP=139        1.00       4.7     4.8  6.9 -0.2136E+01  0.5934E+01  0.1567E+01E
 Epicentro: LOS SANTOS - SANTANDER                                             3
 ACTION:UPD 14-01-14 09:00 OP:ep   STATUS:               ID:20130810124918 L   I
 OLDACT:REG 13-08-10 17:36 OP:carl STATUS:               ID:20130810124750     3
 2013-08-10-1247-50M.COL___236                                                 6
 STAT SP IPHASW D HRMM SECON CODA AMPLIT PERI AZIMU VELO AIN AR TRES W  DIS CAZ7
 BAR2 SZ EP       1249 37.45                             173   -0.1510 17.5 192 
 BAR2 SZ ES       1249 52.80                             173   -0.0710 17.5 192 
 BAR2 SZ I        1249 54.31        11.6 0.12            170           17.5 192 
 GIR2 SZ EP       1249 37.68                             165   -0.2310 37.0 352 
 GIR2 SZ ES   1   1249 53.04                             165   -0.38 7 37.0 352 
 GIR2 SZ I        1249 54.41        15.4 0.58            164           37.0 352 
 BRR  HZ EP       1249 39.30                             152   -0.0710 73.9 303 
 BRR  HN ES   1   1249 56.71                             152    0.69 7 73.9 303 
 BRR  HZ I        1250  0.42        16.5 0.50            149           73.9 303 
 PAM  SZ EP       1249 41.41                             149    0.8410 82.2  37 
 PAM  SN ES   1   1249 57.79                             149   -0.37 7 82.2  37 
 PAM  SZ I        1250  0.66         7.0 0.16            155           82.2  37 
 RUS  HZ EP       1249 41.25                             146   -0.1510 94.8 176 
 RUS  HN ES   1   1249 59.74                             146    0.10 7 94.8 176 
 RUS  HZ I        1250  0.83         4.0 0.34            148           94.8 176 
 PTB  HZ EP       1249 44.17                             132   -0.73 9  146 261 
 PTB  HN ES   1   1250  5.49                             132   -0.38 7  146 261 
 PTB  HZ I        1250 12.63        11.8 0.30            132            146 261 
 SPBC HZ EP   1   1249 46.28                             130    0.17 7  158 220 
 SPBC HN ES       1250  8.48                             130    0.46 9  158 220 
 SPBC HZ I        1250 15.08        14.7 0.36            131            158 220 
 ZAR  HN ES       1250 16.41                             122    0.22 8  206 294 
 ZAR  HN I        1250 21.62        23.0 0.28            123            206 294 
                                                                                
