 2015  910 1309 48.8 L   6.792 -73.155147.6  RSN  6 0.4 1.8LRSN                1
 GAP=236        0.90       5.2     5.1  6.0  0.1077E+02  0.9864E+01  0.3251E+01E
 Epicentro: LOS SANTOS - SANTANDER                                             3
 ACTION:UPD 15-10-28 16:25 OP:cam  STATUS:               ID:20150910130948 L   I
 OLDACT:REG 15-09-10 20:31 OP:stll STATUS:               ID:20150910130750     3
 2015-09-10-1307-50M.COL___344                                                 6
 STAT SP IPHASW D HRMM SECON CODA AMPLIT PERI AZIMU VELO AIN AR TRES W  DIS CAZ7
 BAR2 EZ EP     C 1310  8.58                             171   -0.0410 22.3 188 
 BAR2 EZ I        1310  8.87        15.9 0.34            170           22.3 188 
 BAR2 EZ ES       1310 24.16                             171    0.0710 22.3 188 
 BRR  HZ EP       1310 10.34                             153    0.2310 70.7 300 
 BRR  HZ I        1310 10.60        23.6 0.30            151           70.7 300 
 BRR  HN ES       1310 27.06                             153    0.3210 70.7 300 
 RUS  HZ EP       1310 12.73                             144    0.0610 99.8 175 
 RUS  HN ES       1310 31.18                             144   -0.1110 99.8 175 
 RUS  HZ I        1310 32.32         4.2 0.36            146           99.8 175 
 PTB  HZ EP       1310 15.32                             133   -0.48 9  147 259 
 PTB  HN ES       1310 36.20                             133   -0.67 9  147 259 
 PTB  HZ I        1310 40.17         7.6 0.20            132            147 259 
 ZAR  HZ EP       1310 21.53                             123    0.24 9  203 292 
 ZAR  HN ES       1310 46.60                             123   -0.04 9  203 292 
 ZAR  HZ I        1310 51.87        11.1 0.30            123            203 292 
 GUY2CHZ EP       1310 32.06                             113   -0.28 7  300 235 
 GUY2CHN ES       1311  7.24                             113    0.94 7  300 235 
 GUY2CHZ I        1311 19.47         2.1 0.36                           300 235 
                                                                                
