 2011  410 1816  5.3 L   6.810 -73.182137.0  RSN  7 0.4 1.9LRSN                1
 GAP=138        1.07       8.2    12.3 10.8 -0.4222E+02  0.3911E+02 -0.1766E+02E
 Epicentro: LOS SANTOS - SANTANDER                                             3
 ACTION:UP  11-06-22 15:30 OP:REBC STATUS:               ID:20110410181605 L   I
 2011-04-10-1813-41S.COL___138                                                 6
 STAT SP IPHASW D HRMM SECON CODA AMPLIT PERI AZIMU VELO SNR AR TRES W  DIS CAZ7
 BTL  SZ IP       1816 24.13                             173     0.410   15 322 
 BAR2 SZ IP       1816 24.01                             169     0.110   24 180 
 BAR2 SZ ES   2   1816 37.94                             169    -0.5 5   24 180 
 BAR2 SZ I        1816 39.78        25.0 0.32                            24 180 
 GIR2 SZ EP       1816 23.09                             167    -0.810   30 357 
 GIR2 SZ ES   2   1816 37.87                             167    -0.5 5   30 357 
 BRR  HZ EP       1816 25.73                             152     0.510   67 299 
 BRR  HN ES   3   1816 41.17                             152     0.3 2   67 299 
 BRR  HZ I        1816 44.92        26.3 0.14                            67 299 
 PAM  SZ EP       1816 26.88                             149     0.210   79  42 
 PAM  SN ES   1   1816 43.70                             149     0.3 7   79  42 
 PAM  SZ I        1816 46.17         7.3 0.31                            79  42 
 GRA  SZ IP       1816 29.83                             135     0.010  126  19 
 GRA  SZ ES   1   1816 48.84                             135    -0.1 7  126  19 
 GRA  SZ I        1816 50.70         9.7 0.27                           126  19 
 OCA  SZ EP       1816 32.34                             128    -0.5 9  159 355 
 OCA  SZ ES   2   1816 54.75                             128     0.5 5  159 355 
 OCA  SZ I        1817  0.98        11.0 0.50                           159 355 
                                                                                
