 2013  510 1353 45.0 L   6.807 -73.163150.6  RSN  9 0.3 2.0LRSN                1
 GAP=134        0.69       3.6     3.6  4.8 -0.1138E+01  0.3913E+01 -0.3329E+00E
 Epicentro: LOS SANTOS - SANTANDER                                             3
 ACTION:UPD 13-06-20 09:49 OP:ep   STATUS:               ID:20130510135345 L   I
 2013-05-10-1350-00M.COL___256                                                 6
 STAT SP IPHASW D HRMM SECON CODA AMPLIT PERI AZIMU VELO AIN AR TRES W  DIS CAZ7
 BAR2 SZ EP     C 1354  5.13                             171   -0.1410 23.9 185 
 BAR2 SZ ES   1   1354 20.79                             171   -0.26 7 23.9 185 
 BAR2 SZ I        1354 21.52        15.8 0.11            167           23.9 185 
 GIR2 SZ EP       1354  5.16                             168   -0.1110 30.2 354 
 GIR2 SZ ES   2   1354 20.94                             168   -0.10 5 30.2 354 
 BRR  HZ IP       1354  6.82                             154    0.2110 69.1 299 
 BRR  HN ES       1354 23.82                             154    0.3910 69.1 299 
 BRR  HZ I        1354 24.29        19.1 0.14            149           69.1 299 
 BRR  HZ E        1354 24.35                                           69.1 299 
 PAM  SZ IP     C 1354  8.05                             152    0.2310 78.0  41 
 PAM  SZ I        1354  8.23        51.0 0.16            156           78.0  41 
 PAM  SN ES   1   1354 25.18                             152   -0.40 7 78.0  41 
 RUS  HZ EP   1   1354  9.21                             145   -0.14 7  102 175 
 RUS  HN ES       1354 28.52                             145    0.2210  102 175 
 RUS  HZ I        1354 29.68         5.4 0.40            144            102 175 
 PTB  HZ EP   1   1354 11.79                             133   -0.47 7  146 258 
 PTB  HN ES   1   1354 32.98                             133   -0.50 7  146 258 
 PTB  HZ I        1354 40.57         7.9 0.48            130            146 258 
 ZAR  HZ EP   2   1354 18.05                             124    0.45 4  202 292 
 ZAR  HN ES   2   1354 43.45                             124    0.46 4  202 292 
 ZAR  HZ I        1354 49.41        12.4 0.34            122            202 292 
 NOR  HZ EP   1   1354 21.50                             120    0.56 6  234 234 
 NOR  HN ES   1   1354 48.88                             120   -0.06 6  234 234 
 NOR  HZ I        1354 54.86         6.1 0.20            118            234 234 
 URE  HZ EP   1   1354 25.48                             115   -0.64 6  282 292 
                                                                                
