 2015  110 1253 18.8 L   6.814 -73.141146.8  RSN  7 0.5 1.8LRSN                1
 GAP=201        1.06       4.3     5.8  7.9  0.2267E+01  0.7988E+01 -0.7345E+01E
 Epicentro: LOS SANTOS - SANTANDER                                             3
 ACTION:UPD 15-03-02 15:38 OP:nd   STATUS:               ID:20150110125318 L   I
 OLDACT:UP  15-01-10 22:42 OP:mh   STATUS:               ID:20150110124746     3
 OLDACT:UP  15-01-10 22:42 OP:mh   STATUS:               ID:20150110124746     3
 OLDACT:REG 15-01-10 19:38 OP:mh   STATUS:               ID:20150110124746     3
 2015-01-10-1247-46M.COL___268                                                 6
 STAT SP IPHASW D HRMM SECON CODA AMPLIT PERI AZIMU VELO AIN AR TRES W  DIS CAZ7
 BAR2 EZ EP   1   1253 38.76                             170    0.22 7 25.0 191 
 BAR2 EZ ES       1253 54.00                             170    0.0310 25.0 191 
 BAR2 EZ I        1253 57.32         8.3 0.24            171           25.0 191 
 RUS  HZ EP       1253 43.06                             144    0.3410  102 176 
 RUS  HN ES   1   1254  1.49                             144    0.08 7  102 176 
 RUS  HZ I        1254  4.00         6.9 0.42            148            102 176 
 PTB  HZ EP       1253 45.80                             132   -0.08 9  149 258 
 PTB  HN ES       1254  6.18                             132   -0.86 9  149 258 
 PTB  HZ I        1254  8.63         9.8 0.12            134            149 258 
 SPBC HZ EP       1253 47.47                             129   -0.01 9  165 219 
 SPBC HN ES       1254  9.56                             129   -0.32 9  165 219 
 SPBC HZ I        1254 13.25        11.2 0.22            132            165 219 
 ZAR  HN ES       1254 17.50                             123    0.90 9  204 292 
 ZAR  HZ I        1254 25.29         4.3 0.24            125            204 292 
 NOR  HZ EP       1253 54.73                             119    0.04 8  236 234 
 NOR  HN ES       1254 23.15                             119    0.43 8  236 234 
 NOR  HZ I        1254 25.25         4.5 0.18            121            236 234 
 SML  HZ EP       1253 54.51                             118   -0.79 8  242 335 
 SML  HN ES       1254 23.94                             118    0.13 8  242 335 
 SML  HZ I        1254 26.54         6.0 0.24            120            242 335 
                                                                                
