 2010 1010 1353 13.5 L   6.732 -73.083143.8  RSN  7 0.4 2.1LRSN                1
 GAP=202        1.04       9.7    10.6  8.5 -0.6991E+02 -0.1220E+02  0.1751E+02E
 Epicentro: JORDAN - SANTANDER                                                 3
 ACTION:UP  11-02-18 11:08 OP:tino STATUS:               ID:20101010135313 L   I
 2010-10-10-1349-14S.COL___121                                                 6
 STAT SP IPHASW D HRMM SECON CODA AMPLIT PERI AZIMU VELO SNR AR TRES W  DIS CAZ7
 BAR2 SZ ES   1   1353 47.77                             172    -0.1 7   19 216 
 BAR2 SZ I        1353 49.62        25.2 0.71                            19 216 
 BTL  SZ EP       1353 33.43                             168     0.510   29 315 
 BRR  HZ EP       1353 34.51                             149    -0.510   81 301 
 BRR  HZ I        1353 34.83        33.3 0.57                            81 301 
 BRR  HN ES       1353 51.82                             149     0.110   81 301 
 GUE  SZ EP       1353 38.00                             138    -0.510  123   8 
 GRA  SZ EP   1   1353 39.52                             135     0.5 7  131  14 
 GRA  SZ ES   2   1353 59.07                             135     0.2 5  131  14 
 GRA  SZ I        1354  0.29        10.0 0.27                           131  14 
 NOR  SZ EP       1353 49.10                             118    -0.1 8  236 237 
 NOR  SN ES   1   1354 16.97                             118    -0.2 6  236 237 
 HEL  HZ EP   1   1353 54.99                             114     0.9 6  277 258 
 HEL  HZ I        1354 31.76         6.3 0.69                           277 258 
                                                                                
