 2016  710 1152 44.1 L   6.749 -73.194151.3  RSN  6 0.3 1.5LRSN                1
 GAP=228        0.78       4.2     4.5  5.3  0.7545E+01  0.4059E+01 -0.6024E+00E
 Epicentro: VILLANUEVA - SANTANDER                                             3
 ACTION:UPD 17-03-29 16:49 OP:lp   STATUS:               ID:20160710115244 L   I
 OLDACT:DUP 16-07-10 23:34 OP:edw  STATUS:               ID:20160710113401d    3
 2016-07-10-1133-59S.COL___325                                                 6
 STAT SP IPHASW D HRMM SECON CODA AMPLIT PERI AZIMU VELO AIN AR TRES W  DIS CAZ7
 BAR2 EZ EP       1153  4.14                             173   -0.1610 17.4 176 
 BAR2 EZ ES       1153 19.52                             173   -0.5310 17.4 176 
 BAR2 EZ I        1153 20.24         9.2 0.22            169           17.4 176 
 BRR  HZ EP       1153  6.04                             154    0.2710 69.6 305 
 BRR  HN ES       1153 23.07                             154    0.4010 69.6 305 
 RUS  HZ EP       1153  8.06                             146    0.0110 95.5 173 
 RUS  HN ES       1153 27.06                             146    0.3310 95.5 173 
 RUS  HZ I        1153 28.31         3.9 0.28            145           95.5 173 
 PTB  HZ EP       1153 10.63                             135   -0.35 9  141 261 
 PTB  HN ES       1153 31.63                             135   -0.31 9  141 261 
 PTB  HZ I        1153 34.71         2.7 0.15            133            141 261 
 SPBC HZ EP       1153 12.20                             132   -0.12 9  155 219 
 SPBC HE ES       1153 34.60                             132    0.28 9  155 219 
 SPBC HZ I        1153 38.30         4.7 0.20            130            155 219 
 ZAR  HZ EP       1153 16.85                             124    0.20 9  201 294 
 ZAR  HN ES       1153 42.00                             124   -0.03 9  201 294 
                                                                                
