 2017 1210 1133 13.0 L   6.760 -73.103142.5  RSN  9 0.4 1.5LRSN                1
 GAP=117        0.91       3.0     4.1  5.3 -0.3592E+01  0.2447E+01  0.1503E+01E
 Epicentro: LOS SANTOS - SANTANDER                                             3
 ACTION:UPD 18-01-04 13:18 OP:rebc STATUS:               ID:20171210113313 L   I
 OLDACT:REG 17-12-10 19:53 OP:lv   STATUS:               ID:20171210112740     3
 2017-12-10-1128-00M.COL___475                                                 6
 STAT SP IPHASW D HRMM SECON CODA AMPLIT PERI AZIMU VELO AIN AR TRES W  DIS CAZ7
 BAR2 EZ EP       1133 31.70                             171   -0.4810 20.5 205 
 BAR2 EZ ES       1133 47.37                             171    0.2310 20.5 205 
 BAR2 EZ I        1133 48.34         9.0 0.40            171           20.5 205 
 PAM  EZ EP       1133 34.86                             150   -0.0410 78.0  35 
 PAM  EN ES       1133 52.17                             150    0.1810 78.0  35 
 PAM  EZ I        1133 54.14         2.0 0.48            152           78.0  35 
 PTB  HZ EP   9   1133 38.71                             130   -1.34 0  152 261 
 PTB  HN ES       1133 59.59                                   -0.22 9  152 261 
 PTB  HZ I        1134  1.66         2.9 0.18            131            152 261 
 SPBC HZ EP       1133 40.95                             128   -0.26 9  163 221 
 SPBC HN ES       1134  3.32                             128    0.10 9  163 221 
 SPBC HZ I        1134  6.90         6.1 0.26            129            163 221 
 YPLC HZ EP       1133 41.83                             127   -0.12 9  171 152 
 ZAR  HN ES       1134 10.83                             121   -0.65 8  210 293 
 ZAR  HZ I        1134 15.36         6.6 0.32            122            210 293 
 CHI  HZ EP       1133 49.69                             117   -0.50 8  246 196 
 CHI  HN ES       1134 19.49                             117    0.29 8  246 196 
 CHI  HZ I        1134 21.22         1.1 0.38            118            246 196 
 DRL03HZ EP       1133 55.91                             112    0.90 7  294 352 
 DRL03HN ES       1134 27.77                             112   -0.01 7  294 352 
 GUY2CHZ EP       1133 56.84                             112    0.24 7  303 236 
 GUY2CHN ES       1134 31.33                             112    0.71 7  303 236 
 GUY2CHZ I        1134 38.94         2.8 0.26                           303 236 
 SJC  HZ EP   4   1134  6.06                             105   -3.12 0  415 327 
 SJC  HN ES   4   1134 47.35                             105   -5.66 0  415 327 
                                                                                
