 2017  910 1343 24.0 L   6.830 -73.099136.2  RSN  5 0.5 1.5LRSN                1
 GAP=141        1.34       6.7     7.3 10.7  0.9386E+01  0.1069E+02  0.3889E+00E
 Epicentro: LOS SANTOS - SANTANDER                                             3
 ACTION:UPD 17-10-05 19:10 OP:rebc STATUS:               ID:20170910134324 L   I
 OLDACT:REG 17-09-10 19:52 OP:lv   STATUS:               ID:20170910133744     3
 2017-09-10-1338-00M.COL___412                                                 6
 STAT SP IPHASW D HRMM SECON CODA AMPLIT PERI AZIMU VELO AIN AR TRES W  DIS CAZ7
 BAR2 EZ EP       1343 42.40                             168   -0.1610 27.9 199 
 BAR2 EZ ES       1343 56.31                             168   -0.7510 27.9 199 
 BAR2 EZ I        1343 58.58         8.9 0.26            170           27.9 199 
 PAM  EZ EP       1343 45.38                             151    0.5610 71.5  38 
 PAM  EN ES       1344  0.80                             151   -0.2910 71.5  38 
 PAM  EZ I        1344  4.50         9.0 0.62            152           71.5  38 
 BRR  HZ EP       1343 44.36                             150    0.0810 74.3 294 
 BRR  HN ES       1344  0.89                             150    0.7610 74.3 294 
 BRR  HZ I        1344  2.24         7.0 0.34            152           74.3 294 
 RUS  HZ EP       1343 46.59                             141   -0.4410  104 179 
 RUS  HN ES       1344  5.64                             141    0.6110  104 179 
 RUS  HZ I        1344  6.62         3.6 0.46            144            104 179 
 ZAR  HE ES       1344 20.81                             120   -0.51 8  208 291 
                                                                                
