 2017 1210 1610 46.7 L   6.814 -73.200136.5  RSN  5 0.4 1.6LRSN                1
 GAP=132        0.85       5.1     5.2  7.5 -0.1295E+02  0.1499E+02 -0.1268E+02E
 Epicentro: ZAPATOCA - SANTANDER                                               3
 ACTION:UPD 18-01-04 13:19 OP:rebc STATUS:               ID:20171210161046 L   I
 OLDACT:DUP 17-12-10 22:56 OP:lv   STATUS:               ID:20171210155537d    3
 2017-12-10-1608-00M.COL___481                                                 6
 STAT SP IPHASW D HRMM SECON CODA AMPLIT PERI AZIMU VELO AIN AR TRES W  DIS CAZ7
 BAR2 EZ EP       1611  5.28                             169   -0.0210 24.6 176 
 BAR2 EZ ES       1611 19.91                             169    0.1410 24.6 176 
 BAR2 EZ I        1611 21.09         6.3 0.42            173           24.6 176 
 PAM  EZ EP       1611  8.02                             148   -0.1510 80.2  44 
 PAM  EN ES       1611 25.04                             148    0.1710 80.2  44 
 PAM  EZ I        1611 27.09         8.0 0.66            150           80.2  44 
 PTB  HZ EP       1611 12.20                             131   -0.26 9  142 258 
 PTB  HN ES       1611 32.47                             131   -0.05 9  142 258 
 PTB  HZ I        1611 34.93         2.6 0.14            133            142 258 
 OCA  HZ EP       1611 14.79                             128    0.64 9  158 355 
 OCA  HN ES       1611 34.94                             128   -0.58 9  158 355 
 OCA  HZ I        1611 39.13        10.3 0.50            129            158 355 
 ZAR  HE ES   3   1611 43.94                             121    1.62 2  198 292 
                                                                                
