 2011 1010 1430 32.5 L   6.813 -73.111141.2  RSN  6 0.4 1.9LRSN                1
 GAP=140        0.89       5.3     7.9  9.0  0.6127E+00 -0.2929E+01  0.1560E+01E
 Epicentro: LOS SANTOS - SANTANDER                                             3
 ACTION:UPD 12-07-13 16:03 OP:ep   STATUS:               ID:20111010143032 L   I
 2011-10-10-1426-07S.COL___168                                                 6
 STAT SP IPHASW D HRMM SECON CODA AMPLIT PERI AZIMU VELO AIN AR TRES W  DIS CAZ7
 BAR2 SZ EP       1430 51.47                             169   -0.1910 25.6 198 
 BAR2 SZ I        1430 51.61        22.1 0.40                          25.6 198 
 BAR2 SZ ES   1   1431  6.44                             169   -0.15 7 25.6 198 
 PAM  SZ EP       1430 54.53                             151    0.4810 73.8  38 
 PAM  SN ES   1   1431 11.07                             151    0.23 7 73.8  38 
 BRR  HZ EP       1430 53.40                             151    0.0510 74.0 296 
 BRR  HZ I        1430 53.84        20.7 0.30                          74.0 296 
 BRR  HN ES   1   1431 10.13                             151    0.54 7 74.0 296 
 RUS  HZ EP   1   1430 55.73                             143   -0.19 7  102 178 
 RUS  HN ES   2   1431 13.72                             143   -0.45 5  102 178 
 OCA  SZ ES   1   1431 21.11                             129   -1.04 7  159 352 
 ZAR  HE ES   3   1431 30.82                             121    0.49 2  207 291 
 ZAR  HZ I        1431 36.86         6.0 0.64                           207 291 
                                                                                
