 2012  910 1120 44.9 L   6.766 -73.165150.2  RSN  4 0.4 1.4LRSN                1
 GAP=244        0.82      13.8     8.9 10.9  0.6098E+02  0.3425E+02  0.2815E+02E
 Epicentro: LOS SANTOS - SANTANDER                                             3
 ACTION:UPD 12-10-22 14:18 OP:ep   STATUS:               ID:20120910112044 L   I
 2012-09-10-1120-00M.COL___227                                                 6
 STAT SP IPHASW D HRMM SECON CODA AMPLIT PERI AZIMU VELO AIN AR TRES W  DIS CAZ7
 BAR2 SZ EP   1   1121  4.84                             172   -0.15 7 19.3 186 
 BAR2 SZ ES   1   1121 21.19                             172    0.53 7 19.3 186 
 BAR2 SZ I        1121 21.98         6.3 0.72                          19.3 186 
 BRR  HN ES   1   1121 22.80                             153   -0.61 7 71.3 302 
 PTB  HZ EP   1   1121 11.92                             134   -0.06 7  145 260 
 PTB  HN ES   1   1121 32.91                             134   -0.20 7  145 260 
 PTB  HN I        1121 38.50         4.7 0.44                           145 260 
 ZAR  HZ I        1121 24.30         1.2 0.22                           204 293 
 ZAR  HN ES   1   1121 43.71                             123    0.63 6  204 293 
                                                                                
