 2010 1110 1032  2.3 L   6.782 -73.058151.1  RSN  7 0.3 1.9LRSN                1
 GAP=169        0.49       3.3     4.9  6.0 -0.3974E+01  0.5707E+01  0.4706E+00E
 Epicentro: LOS SANTOS - SANTANDER                                             3
 ACTION:UP  10-12-17 16:51 OP:REBC STATUS:               ID:20101110103202 L   I
 2010-11-10-1031-11S.COL___128                                                 6
 STAT SP IPHASW D HRMM SECON CODA AMPLIT PERI AZIMU VELO SNR AR TRES W  DIS CAZ7
 BAR2 SZ EP   1   1032 22.65                             170     0.0 7   25 213 
 BAR2 SZ I        1032 31.43        15.0 0.40                            25 213 
 BAR2 SZ ES   2   1032 38.45                             170     0.0 5   25 213 
 BRR  HZ EP   2   1032 24.27                             150    -0.3 5   81 297 
 BRR  HZ I        1032 24.94        17.2 0.20                            81 297 
 BRR  HE ES   2   1032 42.16                             150     0.2 5   81 297 
 RUS  HZ EP   1   1032 26.57                             145     0.1 7   98 182 
 RUS  HN ES   2   1032 45.30                             145     0.0 5   98 182 
 GRA  SZ EP   2   1032 27.95                             138     0.0 5  125  13 
 GRA  SZ ES   2   1032 48.16                             138     0.1 5  125  13 
 GRA  SZ I        1032 51.09         6.8 0.35                           125  13 
 OCA  SZ EP   2   1032 31.48                             130     0.1 5  164 350 
 OCA  SZ ES   2   1032 53.66                             130    -0.4 5  164 350 
 OCA  SZ I        1032 58.08         9.9 0.40                           164 350 
 NOR  SZ EP   2   1032 38.95                             119    -0.2 4  242 236 
 NOR  SE ES   2   1033  6.95                             119    -0.9 4  242 236 
 HEL  HZ EP   2   1032 44.11                             115     0.3 4  281 257 
 HEL  HN ES   2   1033 16.89                             115     0.7 4  281 257 
 HEL  HZ I        1033 23.31         4.3 0.21                           281 257 
                                                                                
