 2010  410 1628 55.9 L   6.783 -73.029150.3  RSN  6 0.4 2.2LRSN                1
 GAP=209        0.54       3.4     8.7  5.1 -0.3505E+01 -0.7581E+01  0.1468E+01E
 Epicentro: CEPITA - SANTANDER                                                 3
 ACTION:UPD 10-08-24 09:58 OP:vdl  STATUS:               ID:20100410162855 L   I
 2010-04-10-1627-24S.COL___097                                                 6
 STAT SP IPHASW D HRMM SECON CODA AMPLIT PERI AZIMU VELO AIN AR TRES W  DIS CAZ7
 BAR2 SZ EP       1629 16.23                             169     0.110   27 219 
 BAR2 SZ ES   1   1629 31.64                             169    -0.3 7   27 219 
 BRR  HZ EP       1629 18.48                             149     0.210   84 295 
 BRR  HZ I        1629 18.79        43.5 0.13                            84 295 
 BRR  HE ES   1   1629 35.72                             149     0.0 7   84 295 
 OCA  SZ EP       1629 24.81                             130    -0.1 9  164 349 
 OCA  SZ ES   1   1629 47.59                             130     0.0 7  164 349 
 OCA  SZ I        1629 52.53        41.6 0.30                           164 349 
 CHI  HZ EP   3   1629 34.33                             118     0.3 2  250 198 
 CHI  HN ES   3   1630  5.06                             118     1.3 2  250 198 
 CHI  HZ I        1630 11.41         4.6 0.46                           250 198 
 RREF BN ES   3   1630 18.49                             111    -1.6 2  330 231 
 RREF BZ I        1630 25.35         5.3 0.16                           330 231 
 PRA  HZ EP       1629 50.00                             107    -0.1 6  397 211 
 PRA  HN ES   3   1630 32.60                             107     0.1 1  397 211 
 PRA  HZ I        1630 38.04         3.2 0.62                           397 211 
                                                                                
