 2013  610 1649  7.7 L   6.726 -73.195147.3  RSN  7 0.4 2.2LRSN                1
 GAP=195        0.86       4.1     5.0  7.1  0.6592E+01  0.6678E+01 -0.2585E+01E
 Epicentro: VILLANUEVA - SANTANDER                                             3
 ACTION:UPD 14-01-08 09:53 OP:ep   STATUS:               ID:20130610164907 L   I
 OLDACT:UP  13-06-10 18:41 OP:mh   STATUS:               ID:20130610164740     3
 OLDACT:REG 13-06-10 18:29 OP:mh   STATUS:               ID:20130610164740     3
 2013-06-10-1647-40M.COL___223                                                 6
 STAT SP IPHASW D HRMM SECON CODA AMPLIT PERI AZIMU VELO AIN AR TRES W  DIS CAZ7
 BAR2 SZ EP       1649 27.25                             174   -0.1610 14.9 174 
 BAR2 SZ ES   1   1649 42.53                             174   -0.23 7 14.9 174 
 BAR2 SZ I        1649 43.74        18.8 0.20            172           14.9 174 
 BRR  HZ EP       1649 29.09                             153    0.0510 70.9 306 
 BRR  HN ES       1649 46.33                             153    0.6810 70.9 306 
 BRR  HN I        1649 46.88        40.0 0.30            149           70.9 306 
 RUS  HZ EP   1   1649 31.17                             146    0.06 7 93.0 172 
 RUS  HN ES       1649 49.14                             146   -0.2010 93.0 172 
 PTB  HZ EP   1   1649 34.10                             134   -0.12 7  141 262 
 PTB  HN ES       1649 54.78                             134   -0.10 9  141 262 
 PTB  HN I        1649 56.41        10.9 0.16            131            141 262 
 ZAR  HN ES       1650  4.60                             123   -0.74 9  202 295 
 ZAR  HN I        1650  7.06        11.1 0.46            121            202 295 
 NOR  HZ EP   1   1649 43.12                             120    0.54 6  225 235 
 NOR  HN ES   1   1650 10.26                             120    0.51 6  225 235 
 NOR  HN I        1650 18.57        14.8 0.14            118            225 235 
 SML  HN ES       1650 14.14                             117    0.04 8  249 337 
 SML  HN I        1650 20.00        17.6 0.10            116            249 337 
                                                                                
