 2013  310 1524 19.3 L   6.794 -73.132152.5  RSN  6 0.5 2.1LRSN                1
 GAP=139        1.22       6.2     6.0 10.5 -0.1285E+02  0.3418E+01  0.9326E+01E
 Epicentro: LOS SANTOS - SANTANDER                                             3
 ACTION:UPD 13-04-09 14:01 OP:ep   STATUS:               ID:20130310152419 L   I
 2013-03-10-1518-49M.COL___204                                                 6
 STAT SP IPHASW D HRMM SECON CODA AMPLIT PERI AZIMU VELO AIN AR TRES W  DIS CAZ7
 BAR2 SZ IP       1524 39.85                             171    0.1010 23.0 194 
 BAR2 SZ I        1524 39.94        25.8 0.40            170           23.0 194 
 BRR  HZ IP     C 1524 41.73                             153    0.4410 72.9 298 
 BRR  HN ES       1524 59.14                             153    0.7210 72.9 298 
 BRR  HN I        1525  0.43        18.8 0.18            152           72.9 298 
 PAM  SZ IP     D 1524 42.75                             152    0.5210 76.9  38 
 PAM  SZ I        1524 42.81        16.9 0.20            155           76.9  38 
 PAM  SN ES       1524 59.89                             152   -0.2010 76.9  38 
 RUS  HZ EP       1524 43.77                             145    0.0810 99.8 177 
 RUS  HN ES       1525  2.64                             145   -0.0510 99.8 177 
 RUS  HN I        1525  4.14        24.4 0.42            146           99.8 177 
 CAPV BZ ES       1525  8.31                             133   -0.69 9  149  37 
 PTB  HZ EP       1524 46.53                             133   -0.44 9  149 259 
 PTB  HN ES       1525  7.79                             133   -0.74 9  149 259 
 PTB  HN I        1525 12.88        18.9 0.30            133            149 259 
                                                                                
