 2017  110 1336 45.1 L   6.804 -73.158144.8  RSN 13 0.3 2.5LRSN                1
 GAP=108        0.71       2.7     2.5  3.9 -0.5610E+00  0.2033E+01  0.1751E+01E
 Epicentro: LOS SANTOS - SANTANDER                                             3
 ACTION:UPD 17-05-22 15:57 OP:jn   STATUS:               ID:20170110133645 L   I
 OLDACT:UP  17-01-11 00:51 OP:ar   STATUS:               ID:20170110132760d    3
 OLDACT:UP  17-01-11 00:50 OP:ar   STATUS:               ID:20170110132760d    3
 OLDACT:UP  17-01-11 00:50 OP:ar   STATUS:               ID:20170110132760d    3
 OLDACT:DUP 17-01-11 00:41 OP:ar   STATUS:               ID:20170110132760d    3
 OLDACT:UP  17-01-11 00:40 OP:ar   STATUS:               ID:20170110132759     3
 OLDACT:UP  17-01-11 00:38 OP:ar   STATUS:               ID:20170110132759     3
 OLDACT:UP  17-01-11 00:36 OP:ar   STATUS:               ID:20170110132759     3
 OLDACT:UP  17-01-11 00:34 OP:ar   STATUS:               ID:20170110132759     3
 OLDACT:REG 17-01-10 22:55 OP:ar   STATUS:               ID:20170110132759     3
 2017-01-10-1327-59S.COL___312                                                 6
 STAT SP IPHASW D HRMM SECON CODA AMPLIT PERI AZIMU VELO AIN AR TRES W  DIS CAZ7
 BAR2 EZ IP     D 1337  4.71                             170    0.1010 23.5 187 
 BAR2 EZ ES       1337 19.51                             170   -0.3210 23.5 187 
 BAR2 EZ I        1337 22.55        70.8 0.32            168           23.5 187 
 PAM  EZ EP       1337  7.62                             150    0.3810 77.9  40 
 PAM  EN ES       1337 24.50                             150   -0.0110 77.9  40 
 PAM  EZ I        1337 26.88       107.1 0.52            156           77.9  40 
 RUS  HZ EP       1337  8.73                             143   -0.0610  101 175 
 RUS  HN ES       1337 27.40                             143    0.1410  101 175 
 RUS  HZ I        1337 28.51        60.2 0.32            144            101 175 
 PTB  HZ EP       1337 11.55                             132   -0.32 9  147 259 
 PTB  HN ES       1337 32.57                             132   -0.18 9  147 259 
 PTB  HZ I        1337 39.66        22.1 0.18            131            147 259 
 TAM  HZ IP     D 1337 13.08                             130    0.25 9  156 105 
 ZAR  HZ EP       1337 17.16                             122   -0.17 9  203 292 
 ZAR  HN ES       1337 42.67                             122    0.19 9  203 292 
 ZAR  HZ I        1337 48.38        31.8 0.14            123            203 292 
 CHI  HZ EP       1337 22.92                             117    0.18 8  249 195 
 CHI  HN ES       1337 52.39                             117    0.28 8  249 195 
 CHI  HZ I        1337 55.93        17.3 0.62            118            249 195 
 ROSC BZ EP   9   1337 24.74                             116    1.62 0  252 211 
 ROSC BN ES       1337 54.50                             116    0.10 8  252 211 
 ROSC BZ I        1337 58.38        35.3 0.35            117            252 211 
 GUY2CHZ EP   4   1337 29.88                             112    1.32 0  300 235 
 GUY2CHN ES   4   1338  6.53                             112    4.07 0  300 235 
 GUY2CHZ  IAML    1338 10.77        19.2 0.36                           300 235 
 PTGC HZ EP       1337 27.99                             111   -1.02 7  310 158 
 PTGC HN ES   4   1338  0.92                             111   -2.34 0  310 158 
 ELA  HZ EP   4   1337 33.74                             110    1.92 0  328 229 
 ELA  HN ES       1338  8.76                             110    0.50 7  328 229 
 ELA  HZ I        1338 17.66        12.6 0.28            111            328 229 
 ORTC HZ EP       1337 38.91                             106   -0.02 6  395 216 
 ORTC HN ES   4   1338 22.55                             106    1.64 0  395 216 
 ORTC HZ I        1338 28.53        12.3 0.50            107            395 216 
 PAL  HZ EP       1337 40.34                             106    0.23 6  405 239 
 PAL  HN ES       1338 22.72                             106   -0.30 6  405 239 
 PAL  HZ I        1338 26.20         4.4 0.24            106            405 239 
                                                                                
