 2012  910 1443  2.4 L   6.786 -73.155149.0  RSN 17 0.4 4.1LRSN 3.9WRSN        1
 SPEC AVERAGE  MO 14.9 ST 32.3 OM  3.8 f0 2.97 R0.5074 AL 2.73 WI 17.7 MW  3.9 3
 SPEC SD       MO  0.1 ST 12.1 OM  0.7 f00.431 R0.0889 AL      WI      MW  0.1 3
 GAP= 65        0.78       3.0     2.5  4.5  0.1020E+01  0.2793E+01  0.4329E+01E
 Epicentro: LOS SANTOS - SANTANDER                                             3
 SPEC PRA HH N MO 14.9 ST 30.6 OM  2.9 f0 3.06 R0.4804 AL 2.66 WI 22.7 MW  3.9 3
 SPEC PRA HH N T144436 K 0.000 GD  417 VS 4.20 DE 3.00 Q0230.0 QA 0.60 VS 4.20 3
 SPEC TAM HH N MO 14.8 ST 25.1 OM  3.1 f0 3.06 R0.4804 AL 3.04 WI 11.3 MW  3.8 3
 SPEC TAM HH N T144351 K 0.000 GD  215 VS 4.20 DE 3.00 Q0230.0 QA 0.60 VS 4.20 3
 SPEC PTB HH N MO 15.1 ST 51.8 OM  3.4 f0 3.13 R0.4696 AL 2.19 WI  9.8 MW  4.0 3
 SPEC PTB HH N T144350 K 0.000 GD  208 VS 4.20 DE 3.00 Q0230.0 QA 0.60 VS 4.20 3
 SPEC CHI HH N MO 14.8 ST 38.2 OM  3.0 f0 3.45 R0.4261 AL 3.43 WI 12.9 MW  3.8 3
 SPEC CHI HH N T1444 9 K 0.000 GD  288 VS 4.20 DE 3.00 Q0230.0 QA 0.60 VS 4.20 3
 SPEC HEL HH N MO 15.1 ST 15.9 OM  3.2 f0 2.16 R0.6806 AL 2.31 WI 31.8 MW  4.0 3
 SPEC HEL HH N T144413 K 0.000 GD  309 VS 4.20 DE 3.00 Q0230.0 QA 0.60 VS 4.20 3
 ACTION:UPD 12-10-22 14:18 OP:ep   STATUS:               ID:20120910144302 L   I
 2012-09-10-1440-00M.COL___227                                                 6
 STAT SP IPHASW D HRMM SECON CODA AMPLIT PERI AZIMU VELO AIN AR TRES W  DIS CAZ7
 BAR2 SZ EP   1   1443 22.29                             171   -0.14 7 21.6 188 
 BAR2 SZ ES   1   1443 37.86                             171   -0.16 7 21.6 188 
 BAR2 SZ I        1443 41.37      2891.0 0.46                          21.6 188 
 GIR2 SZ EP   1   1443 22.46                             167   -0.08 7 32.7 352 
 GIR2 SZ ES   1   1443 38.16                             167   -0.05 7 32.7 352 
 BRR  HZ IP     C 1443 24.28                             153    0.3410 71.1 300 
 BRR  HZ I        1443 24.63      4164.0 0.28                          71.1 300 
 BRR  HN ES   1   1443 41.57                             153    0.87 7 71.1 300 
 PAM  SZ EP       1443 25.13                             151    0.0210 79.2  39 
 PAM  SE ES   1   1443 42.52                             151   -0.27 7 79.2  39 
 RUS  HZ EP       1443 26.13                             145   -0.2810 99.1 175 
 RUS  HE ES   1   1443 44.91                             145   -0.19 7 99.1 175 
 PTB  HZ EP   1   1443 28.75                             133   -0.81 7  146 259 
 PTB  HN ES   1   1443 50.36                             133   -0.35 7  146 259 
 PTB  HN I        1443 56.09      3020.8 0.40                           146 259 
 TAM  HZ IP     D 1443 30.42                             131   -0.01 9  156 104 
 TAM  HZ I        1443 30.67      1897.6 0.32                           156 104 
 TAM  HN ES   1   1443 51.93                             131   -0.33 7  156 104 
 YOP  SZ EP       1443 32.72                             127    0.09 9  178 153 
 YOP  SN ES   1   1443 56.77                             127    0.59 7  178 153 
 YOP  SZ I        1443 58.01       639.7 0.42                           178 153 
 ZAR  HZ EP   1   1443 34.99                             123   -0.08 6  204 293 
 ZAR  HN ES   1   1444  0.50                             123   -0.01 6  204 293 
 ZAR  HZ I        1444  6.31      1390.1 0.34                           204 293 
 NOR  SZ EP   1   1443 38.11                             119   -0.07 6  233 235 
 NOR  SN ES   1   1444  6.47                             119    0.42 6  233 235 
 CHI  HZ EP   1   1443 40.30                             118    0.17 6  247 195 
 CHI  HN ES   1   1444  9.25                             118   -0.28 6  247 195 
 ROSC BZ EP   1   1443 41.77                             117    1.23 6  251 211 
 HEL  HZ EP   1   1443 43.58                             115    0.91 6  271 256 
 HEL  HN ES   1   1444 14.10                             115    0.05 6  271 256 
 HEL  HZ I        1444 20.85       446.3 0.44                           271 256 
 VIL  SZ EP   1   1443 46.19                             113    0.37 5  302 191 
 VIL  SE ES   1   1444 19.37                             113   -0.28 5  302 191 
 VIL  SZ I        1444 29.19       311.2 0.40                           302 191 
 DBB  SZ EP   1   1443 49.89                             110   -0.06 5  339 275 
 DBB  SZ ES   1   1444 26.08                             110   -0.93 5  339 275 
 DBB  SZ I        1444 30.30       657.2 0.40                           339 275 
 PRA  HZ EP   1   1443 55.74                             107   -0.12 4  390 210 
 PRA  HN ES   1   1444 36.97                             107   -0.56 4  390 210 
 PTA  HZ EP   1   1444  9.87                             102   -0.76 3  516 275 
 PTA  HN ES   1   1445  3.48                             102   -0.33 3  516 275 
 PTA  HZ I        1445  5.39       296.1 0.30                           516 275 
                                                                                
