 2011  910 1054 42.5 L   7.404 -73.191130.2  RSN  6 0.2 1.8LRSN                1
 GAP=171        0.48       3.6     4.2  5.1 -0.2795E+01  0.6830E+00 -0.4989E+00E
 Epicentro: EL PLAYON - SANTANDER                                              3
 ACTION:UPD 12-07-13 15:56 OP:ep   STATUS:               ID:20110910105442 L   I
 2011-09-10-1040-00M.COL___171                                                 6
 STAT SP IPHASW D HRMM SECON CODA AMPLIT PERI AZIMU VELO AIN AR TRES W  DIS CAZ7
 GIR2 SZ EP   1   1055  0.52                             164    0.05 7 35.9 180 
 PAM  SZ EP   1   1055  1.39                             156   -0.38 7 54.7  97 
 PAM  SN ES   1   1055 16.82                             156    0.01 7 54.7  97 
 BRI  SZ EP   1   1055  1.71                             155    0.35 7 55.6  52 
 BRR  HZ EP       1055  1.72                             151    0.0410 66.2 240 
 BRR  HN ES   1   1055 16.58                             151   -0.06 7 66.2 240 
 BRR  HZ I        1055 18.23        29.3 0.15                          66.2 240 
 BAR2 SZ EP   1   1055  3.66                             143    0.09 7 89.8 179 
 BAR2 SZ ES   1   1055 19.86                             143   -0.15 7 89.8 179 
 BAR2 SZ I        1055 21.18        17.8 0.12                          89.8 179 
 RUS  HZ EP   1   1055 10.52                             125   -0.29 7  168 176 
 RUS  HN ES   1   1055 33.22                             125    0.32 7  168 176 
 RUS  HZ I        1055 36.43         2.0 0.17                           168 176 
                                                                                
