 2010  610 1302 51.6 L   6.798 -73.079146.3  RSN 15 0.5 2.3LRSN                1
 GAP=131        0.78       4.0     6.5  6.9 -0.1325E+02  0.1567E+02  0.2237E+00E
 Epicentro: LOS SANTOS - SANTANDER                                             3
 ACTION:UP  10-08-24 10:09 OP:vdl  STATUS:               ID:20100610130251 L   I
 2010-06-10-1300-28S.COL___113                                                 6
 STAT SP IPHASW D HRMM SECON CODA AMPLIT PERI AZIMU VELO SNR AR TRES W  DIS CAZ7
 BAR2 SZ IP       13 3 11.12                             170    -0.210   26 207 
 BAR2 SZ ES   3   13 3 25.53                             170    -1.2 2   26 207 
 GIR2 SZ EP       13 3 11.10                             166    -0.210   33 338 
 GIR2 SZ ES   2   13 3 26.73                             166    -0.1 5   33 338 
 RUS  HZ EP   1   13 3 15.16                             144    -0.2 7  100 180 
 RUS  HZ I        13 3 16.37        26.2 0.15                           100 180 
 RUS  HE ES   2   13 3 33.98                             144     0.1 5  100 180 
 BRI  SZ EP   1   13 3 15.57                             142     0.2 7  106  17 
 BRI  SZ ES   2   13 3 35.34                             142     1.5 5  106  17 
 GUE  SZ EP       13 3 16.04                             140    -0.210  115   8 
 GRA  SZ EP   1   13 3 16.80                             137     0.1 7  124  14 
 GRA  SZ ES   2   13 3 36.33                             137     0.0 5  124  14 
 OCA  SZ EP   1   13 3 19.86                             129    -0.2 7  161 351 
 OCA  SZ I        13 3 45.55        23.8 0.09                           161 351 
 CHI  HZ EP       13 3 29.91                             117     0.4 8  250 197 
 CHI  HE ES   2   13 3 58.07                             117    -1.0 4  250 197 
 CHI  HZ I        13 4  4.12         7.9 0.15                           250 197 
 ROSC BN ES   3   13 4  0.13                             116     0.0 2  256 212 
 HEL  HZ EP   1   13 3 32.52                             114    -0.1 6  279 256 
 HEL  HE ES   2   13 4  5.06                             114     0.5 4  279 256 
 HEL  HZ I        13 4  9.49        20.4 0.33                           279 256 
 RREF BZ EP   3   13 3 38.16                             110    -0.2 2  327 230 
 RREF BN ES   3   13 4 14.96                             110     0.1 2  327 230 
 RREF BZ I        13 4 24.61        14.5 0.09                           327 230 
 DBB  SZ EP       13 3 39.27                             109    -0.6 6  347 274 
 TOL  SZ EP       13 3 41.09                             109     0.7 6  349 226 
 TOL  SZ ES   2   13 4 19.12                             109     0.6 3  349 226 
 SDV  BZ EP   1   13 3 40.69                             109    -0.3 5  355  49 
 SDV  BZ I        13 4 19.86         5.2 0.61                           355  49 
 ANIL BZ EP   2   13 3 42.64                             108     0.7 3  362 225 
 ANIL BN ES   3   13 4 20.84                             108    -0.4 2  362 225 
                                                                                
