 2010  710 1712 45.2 L   6.787 -73.122145.0  RSN  5 0.3 1.5LRSN                1
 GAP=158        0.59       4.6     7.9  8.2 -0.3375E+01 -0.1717E+02 -0.4138E+00E
 Epicentro: LOS SANTOS - SANTANDER                                             3
 ACTION:UPD 10-12-01 15:16 OP:pat  STATUS:               ID:20100710171245 L   I
 2010-07-10-1710-27S.COL___120                                                 6
 STAT SP IPHASW D HRMM SECON CODA AMPLIT PERI AZIMU VELO AIN AR TRES W  DIS CAZ7
 BAR2 SZ EP   2   1713  4.41                             171    -0.3 5   23 198 
 BAR2 SZ I        1713  4.94         7.4 0.12                            23 198 
 BAR2 SZ ES   2   1713 19.39                             171    -0.5 5   23 198 
 BRR  HZ EP   1   1713  6.39                             151     0.0 7   74 299 
 BRR  HZ I        1713  6.82        12.7 0.09                            74 299 
 BRR  HE ES   1   1713 23.11                             151     0.1 7   74 299 
 RUS  HZ EP   2   1713  8.49                             144    -0.2 5   99 178 
 RUS  HE ES   2   1713 27.69                             144     0.6 5   99 178 
 RUS  HZ I        1713 28.46         2.5 0.24                            99 178 
 BRI  SZ EP   2   1713  9.09                             141     0.1 5  109  19 
 BRI  SZ ES   2   1713 28.02                             141     0.4 5  109  19 
 BRI  SZ I        1713 32.50         6.0 0.63                           109  19 
 GUE  SZ EP   2   1713 10.12                             139     0.2 5  117  11 
 GUE  SZ ES   2   1713 28.77                             139    -0.4 5  117  11 
 GUE  SZ I        1713 30.83         2.4 0.27                           117  11 
                                                                                
