 2017 1010 1938 59.7 L   6.781 -73.141140.8  RSN  7 0.2 1.7LRSN                1
 GAP=138        0.46       1.9     2.3  3.2 -0.1006E+01  0.2692E+01  0.8531E+00E
 Epicentro: LOS SANTOS - SANTANDER                                             3
 ACTION:UPD 17-11-07 19:30 OP:rebc STATUS:               ID:20171010193859 L   I
 OLDACT:REG 17-10-10 20:28 OP:lv   STATUS:               ID:20171010193322     3
 2017-10-10-1938-00M.COL___444                                                 6
 STAT SP IPHASW D HRMM SECON CODA AMPLIT PERI AZIMU VELO AIN AR TRES W  DIS CAZ7
 BAR2 EZ EP       1939 18.55                             171   -0.0910 21.3 192 
 BAR2 EZ ES       1939 33.62                             171    0.1710 21.3 192 
 BAR2 EZ I        1939 34.76        13.4 0.22            171           21.3 192 
 PAM  EZ EP       1939 21.47                             149    0.0510 78.7  38 
 PAM  EN ES       1939 38.46                             149    0.0610 78.7  38 
 PAM  EZ I        1939 40.70         7.9 0.58            152           78.7  38 
 RUS  HZ EP       1939 22.54                             143   -0.2110 98.4 176 
 RUS  HN ES       1939 40.69                             143   -0.0810 98.4 176 
 RUS  HZ I        1939 42.12         6.5 0.26            145           98.4 176 
 SPBC HZ EP       1939 27.61                             128   -0.03 9  162 220 
 SPBC HN ES       1939 49.40                             128   -0.07 9  162 220 
 SPBC HZ I        1939 51.90         9.3 0.58            129            162 220 
 ZAR  HE ES       1939 56.81                             121   -0.26 8  205 293 
 NOR  HZ EP       1939 35.47                             117    0.47 8  234 235 
 NOR  HN ES       1940  2.76                             117    0.18 8  234 235 
 NOR  HZ I        1940  5.75         3.2 0.14            119            234 235 
 CHI  HZ EP       1939 36.83                             116   -0.03 8  247 195 
 CHI  HN ES       1940  5.87                             116   -0.02 8  247 195 
                                                                                
