 2015  310 1524 33.6 L   6.807 -73.144145.0  RSN 12 0.5 2.8LRSN 3.2WRSN        1
 SPEC AVERAGE  MO 13.9 ST  2.0 OM  2.3 f0 2.47 R1.1070 AL 0.00 WI 30.0 MW  3.2 3
 SPEC SD       MO  0.1 ST  3.5 OM  0.5 f0 1.95 R0.4415 AL      WI      MW  0.1 3
 GAP=136        1.11       3.3     4.8  5.6 -0.3367E+01  0.7661E+01  0.2264E+01E
 Epicentro: LOS SANTOS - SANTANDER                                             3
 SPEC PAM SH Z MO 13.9 ST0.166 OM  2.0 f0 1.47 R1.3088 AL-0.00 WI 30.0 MW  3.2 3
 SPEC PAM SH Z T152511 K 0.000 GD  164 VS 5.20 DE 3.50 Q0750.0 QA 1.50 VS 5.20 3
 SPEC RUS HH Z MO 14.0 ST0.323 OM  2.0 f0 1.79 R1.0749 AL-0.00 WI 30.0 MW  3.3 3
 SPEC RUS HH Z T152514 K 0.000 GD  176 VS 5.20 DE 3.50 Q0750.0 QA 1.50 VS 5.20 3
 SPEC SPBCHH Z MO 13.8 ST  8.9 OM  1.7 f0 6.35 R0.3030 AL-0.00 WI 30.0 MW  3.1 3
 SPEC SPBCHH Z T152522 K 0.000 GD  218 VS 5.20 DE 3.50 Q0750.0 QA 1.50 VS 5.20 3
 SPEC TOL SH Z MO 14.0 ST0.235 OM  1.7 f0 1.58 R1.2177 AL-0.00 WI 30.0 MW  3.3 3
 SPEC TOL SH Z T152558 K 0.000 GD  373 VS 5.20 DE 3.50 Q0750.0 QA 1.50 VS 5.20 3
 SPEC PRA HH Z MO 14.0 ST0.110 OM  1.7 f0 1.18 R1.6305 AL-0.00 WI 30.0 MW  3.3 3
 SPEC PRA HH Z T1526 7 K 0.000 GD  418 VS 5.20 DE 3.50 Q0750.0 QA 1.50 VS 5.20 3
 OLDACT:REG 15-03-10 20:32 OP:spq  STATUS:               ID:20150310151750     3
 ACTION:UPD 15-04-30 16:24 OP:nd   STATUS:               ID:20150310152433 L   I
 OLDACT:UP  15-03-11 06:51 OP:carl STATUS:               ID:20150310151750     3
 2015-03-10-1517-50M.COL___278                                                 6
 STAT SP IPHASW D HRMM SECON CODA AMPLIT PERI AZIMU VELO AIN AR TRES W  DIS CAZ7
 BAR2 EZ IP     C 1524 53.20                             170    0.0310 24.2 190 
 BAR2 EZ ES       1525  7.83                             170   -0.5910 24.2 190 
 BAR2 EZ I        1525  9.36       174.2 0.24            168           24.2 190 
 BRR  HZ IP     C 1524 55.13                             153    0.4610 70.9 298 
 BRR  HN ES       1525 12.18                             153    1.0910 70.9 298 
 BRR  EZ I        1525 12.74       131.7 0.30            150           70.9 298 
 PAM  SZ IP     C 1524 56.06                             151    0.3510 76.7  40 
 PAM  SN ES       1525 13.10                             151    0.1610 76.7  40 
 PAM  EZ I        1525 14.81       113.2 0.60            154           76.7  40 
 PAM  SZ I        1525 15.32       123.3 0.54                          76.7  40 
 RUS  HZ EP       1524 57.14                             143   -0.2110  101 176 
 RUS  HN ES       1525 15.89                             143    0.0310  101 176 
 RUS  EZ I        1525 16.69        67.0 0.26            143            101 176 
 PTB  HZ EP       1524 59.93                             132   -0.62 9  148 259 
 PTB  HN ES       1525 21.03                             132   -0.53 9  148 259 
 PTB  EZ I        1525 23.27        64.4 0.20            130            148 259 
 PTB  HZ I        1525 24.19        87.1 0.12                           148 259 
 SPBC HZ EP       1525  2.11                             129   -0.02 9  164 219 
 SPBC HN ES       1525 23.95                             129   -0.41 9  164 219 
 SPBC EZ I        1525 26.67       132.5 0.28            128            164 219 
 SPBC HZ I        1525 26.69       141.9 0.30                           164 219 
 NOR  HZ EP       1525  9.38                             118    0.01 8  235 234 
 NOR  HN ES       1525 37.29                             118    0.04 8  235 234 
 NOR  EZ I        1525 41.92        60.4 0.18            117            235 234 
 NOR  HZ I        1525 41.92        58.8 0.18                           235 234 
 SML  HZ EP       1525  9.59                             117   -0.53 8  243 335 
 SML  HN ES       1525 37.95                             117   -0.65 8  243 335 
 SML  EZ I        1525 41.87        51.2 0.10            117            243 335 
 SML  HZ I        1525 44.74        41.7 0.10                           243 335 
 CHI  HZ EP       1525 11.43                             117    0.07 8  249 195 
 CHI  HN ES       1525 40.72                             117   -0.08 8  249 195 
 CHI  EZ I        1525 48.05        23.4 0.70            117            249 195 
 CBOC HZ EP       1525 21.30                             110    0.76 7  334 252 
 CBOC HN ES   4   1525 55.72                             110   -1.43 0  334 252 
 CBOC EZ I        1526  5.19        10.5 0.42            109            334 252 
 TOL  SZ EP       1525 22.72                             109    0.80 7  344 225 
 TOL  SN ES       1525 59.93                             109    0.33 7  344 225 
 TOL  EZ I        1526  6.54        26.8 0.40            109            344 225 
 PRA  HZ EP       1525 26.94                             106   -0.26 6  393 210 
 PRA  HN ES       1526  9.04                             106    0.04 6  393 210 
 PRA  EZ I        1526 16.08        27.1 0.34            106            393 210 
 PRA  HZ I        1526 16.45        22.7 0.28                           393 210 
                                                                                
