 2017 1010 1012 12.6 L   6.766 -73.153142.7  RSN 10 0.4 1.8LRSN                1
 GAP=112        0.93       3.1     4.0  5.5  0.2192E+00  0.6358E+01  0.2422E+01E
 Epicentro: LOS SANTOS - SANTANDER                                             3
 ACTION:UPD 17-11-07 19:30 OP:rebc STATUS:               ID:20171010101212 L   I
 OLDACT:DUP 17-10-10 20:34 OP:lv   STATUS:               ID:20171010095708d    3
 2017-10-10-1008-00M.COL___426                                                 6
 STAT SP IPHASW D HRMM SECON CODA AMPLIT PERI AZIMU VELO AIN AR TRES W  DIS CAZ7
 BAR2 EZ EP       1012 31.55                             172   -0.2010 19.4 190 
 BAR2 EZ ES       1012 46.84                             172    0.1210 19.4 190 
 BAR2 EZ I        1012 49.35        19.6 0.34            170           19.4 190 
 PAM  EZ EP       1012 34.32                             149   -0.3510 80.9  38 
 PAM  EN ES       1012 51.74                             149   -0.1710 80.9  38 
 PAM  EZ I        1012 53.72        10.4 0.50            153           80.9  38 
 RUS  HZ EP       1012 36.17                             144    0.4210 96.8 175 
 RUS  HN ES       1012 54.28                             144    0.4610 96.8 175 
 RUS  HZ I        1012 55.61        10.0 0.28            145           96.8 175 
 SPBC HZ EP       1012 40.78                             129    0.28 9  160 220 
 SPBC HN ES       1013  2.40                             129    0.11 9  160 220 
 SPBC HZ I        1013  5.01        16.6 0.28            129            160 220 
 YPLC HZ EP       1012 41.90                             127    0.05 9  174 150 
 YPLC HN ES       1013  4.43                             127   -0.26 9  174 150 
 YPLC HZ I        1013  8.75         8.5 0.24            128            174 150 
 ZAR  HZ EP       1012 45.64                             122    0.75 9  205 293 
 ZAR  HN ES       1013  9.62                             122   -0.48 9  205 293 
 ZAR  HZ I        1013 15.39         7.4 0.33            122            205 293 
 CHI  HZ EP       1012 49.82                             117    0.15 8  245 195 
 CHI  HN ES       1013 17.77                             117   -0.84 8  245 195 
 CHI  HZ I        1013 22.75         2.0 0.60            118            245 195 
 ROSC BZ EP   4   1012 51.97                             116    1.85 0  249 211 
 GUY2CHZ EP   9   1012 57.19                             112    1.48 0  298 235 
 GUY2CHN ES       1013 31.39                                    0.55 7  298 235 
 GUY2CHZ I        1013 37.48         1.8 0.32                           298 235 
 PTGC HZ EP   9   1012 54.75                             111   -1.17 0  305 158 
 PTGC HN ES       1013 28.20                                   -0.36 7  305 158 
 PRA  HZ EP       1013  5.41                             106   -0.14 6  388 210 
 PRA  HN ES       1013 46.42                             106   -0.45 6  388 210 
 PRA  HZ I        1013 53.76         2.6 0.44            107            388 210 
                                                                                
