 2014 1010 1101 27.7 L   6.812 -73.167145.8  RSN  7 0.4 1.6LRSN                1
 GAP=133        1.02       4.2     4.5  6.8  0.2219E+01  0.5456E+01 -0.5664E+01E
 Epicentro: LOS SANTOS - SANTANDER                                             3
 ACTION:UPD 14-11-29 23:48 OP:nd   STATUS:               ID:20141010110127 L   I
 OLDACT:REG 14-10-10 21:20 OP:stll STATUS:               ID:20141010105738     3
 2014-10-10-1057-38M.COL___290                                                 6
 STAT SP IPHASW D HRMM SECON CODA AMPLIT PERI AZIMU VELO AIN AR TRES W  DIS CAZ7
 BAR2 SZ EP       11 1 47.35                             170   -0.0010 24.4 184 
 BAR2 SZ ES       11 2  1.83                             170   -0.8510 24.4 184 
 BAR2 SZ I        11 2  3.52        15.4 0.18            170           24.4 184 
 BRR  HZ EP       11 1 49.27                             153    0.5710 68.5 298 
 BRR  HN ES       11 2  5.50                             153    0.4210 68.5 298 
 PAM  SZ EP       11 1 50.11                             151    0.1610 77.9  42 
 PAM  SZ I        11 1 50.44         6.5 0.24            152           77.9  42 
 PAM  SN ES       11 2  7.58                             151    0.2810 77.9  42 
 RUS  HZ EP       11 1 51.68                             143    0.1210  102 175 
 RUS  HN ES       11 2 10.11                             143   -0.0710  102 175 
 RUS  HZ I        11 2 10.97         3.4 0.28            144            102 175 
 PTB  HZ EP       11 1 54.47                             132   -0.01 9  146 258 
 PTB  HN ES       11 2 15.34                             132   -0.03 9  146 258 
 PTB  HZ I        11 2 18.63         3.7 0.18            132            146 258 
 ZAR  HN ES       11 2 25.14                             123    0.18 9  201 292 
 SML  HZ EP       11 2  3.35                             118   -0.73 8  241 336 
 SML  HN ES       11 2 32.05                             118   -0.41 8  241 336 
 SML  HZ I        11 2 35.97         4.6 0.10            118            241 336 
                                                                                
