 2010  210 1154 59.2 L   6.806 -73.036145.0  RSN  5 0.5 1.9LRSN                1
 GAP=327        0.70      12.2    12.7 10.1 -0.9432E+02  0.2534E+02  0.3269E+02E
 Epicentro: CEPITA - SANTANDER                                                 3
 ACTION:UP  10-08-24 09:48 OP:vdl  STATUS:               ID:20100210115459 L   I
 2010-02-10-1152-47S.COL___094                                                 6
 STAT SP IPHASW D HRMM SECON CODA AMPLIT PERI AZIMU VELO SNR AR TRES W  DIS CAZ7
 BAR2 SZ EP   1   1155 19.19                             168     0.312   29 215 
 BAR2 SZ ES   2   1155 33.91                             168    -0.3 8   29 215 
 CHI  HZ EP   1   1155 37.25                             117    -0.1 9  253 198 
 CHI  HN ES   2   1156  7.09                             117     0.1 6  253 198 
 CHI  HZ I        1156 11.95         2.8 0.27                           253 198 
 RREF BZ EP   1   1155 46.86                             110     0.4 8  331 231 
 RREF BE ES   2   1156 22.17                             110    -1.1 5  331 231 
 RREF BZ I        1156 26.73         3.8 0.22                           331 231 
 TOL  SZ EP   1   1155 48.11                             109    -0.4 7  353 226 
 TOL  SZ ES       1156 27.22                             109     0.310  353 226 
 PRA  HZ EP   1   1155 52.72                             106    -0.8 7  399 211 
 PRA  HE ES   2   1156 36.59                             106     0.8 4  399 211 
 PRA  HZ I        1156 39.88         2.6 0.31                           399 211 
                                                                                
