 2017 1110 1219 53.0 L   6.751 -73.161143.8  RSN  6 0.3 1.5LRSN                1
 GAP=150        0.73       7.1     4.0  6.9 -0.1136E+02  0.7296E+01  0.5767E+01E
 Epicentro: LOS SANTOS - SANTANDER                                             3
 ACTION:UPD 17-12-12 19:54 OP:rebc STATUS:               ID:20171110121953 L   I
 OLDACT:UP  17-11-10 23:24 OP:mg   STATUS:               ID:20171110121740     3
 OLDACT:UP  17-11-10 23:24 OP:mg   STATUS:               ID:20171110121740     3
 OLDACT:REG 17-11-10 21:00 OP:mg   STATUS:               ID:20171110121740     3
 2017-11-10-1218-00M.COL___453                                                 6
 STAT SP IPHASW D HRMM SECON CODA AMPLIT PERI AZIMU VELO AIN AR TRES W  DIS CAZ7
 BAR2 EZ EP       1220 12.56                             173    0.2310 17.8 188 
 BAR2 EZ ES   2   1220 27.71                             173    0.34 5 17.8 188 
 BAR2 EZ I        1220 28.83         3.9 0.13            172           17.8 188 
 BRR  HZ EP   1   1220 13.86                             152   -0.18 7 72.5 303 
 BRR  HE ES   2   1220 30.89                             152    0.46 5 72.5 303 
 BRR  HZ I        1220 32.80        11.3 0.42            148           72.5 303 
 PAM  EZ EP       1220 15.42                             149    0.0610 82.6  38 
 PAM  EN ES       1220 32.57                             149   -0.2110 82.6  38 
 PAM  EZ I        1220 33.29         3.9 0.18            151           82.6  38 
 PTB  HZ EP       1220 19.03                             132   -0.57 9  145 261 
 PTB  HN ES       1220 40.15                             132   -0.17 9  145 261 
 PTB  HZ I        1220 45.39         2.0 0.17            132            145 261 
 ZAR  HZ EP       1220 25.86                             122    0.45 9  205 294 
 ZAR  HN ES   1   1220 50.72                             122    0.07 6  205 294 
 ZAR  HZ I        1220 56.93         5.0 0.14            122            205 294 
 NOR  HZ EP   2   1220 28.90                             118    0.73 4  230 235 
                                                                                
