 2010  910 1917 34.8 L   6.730 -73.109144.6  RSN  8 0.3 2.2LRSN                1
 GAP=164        0.60       4.2     7.6  6.7 -0.6429E+01  0.2778E+01 -0.1361E+01E
 Epicentro: JORDAN - SANTANDER                                                 3
 ACTION:UP  11-02-18 11:01 OP:tino STATUS:               ID:20100910191734 L   I
 2010-09-10-1914-35S.COL___120                                                 6
 STAT SP IPHASW D HRMM SECON CODA AMPLIT PERI AZIMU VELO SNR AR TRES W  DIS CAZ7
 BAR2 SZ EP   1   1917 54.02                             173    -0.2 7   17 209 
 BAR2 SZ ES   2   1918  9.49                             173     0.2 5   17 209 
 BAR2 SZ I        1918 11.88        31.2 0.27                            17 209 
 GIR2 SZ EP   2   1917 55.16                             164     0.6 5   40 346 
 BRR  HZ IP     C 1917 55.92                             150    -0.310   79 302 
 BRR  HZ I        1917 56.18        39.7 0.17                            79 302 
 BRR  HE ES   2   1918 13.38                             150     0.4 5   79 302 
 RUS  HZ EP   1   1917 57.85                             146     0.0 7   93 178 
 RUS  HN ES   2   1918 15.81                             146    -0.1 5   93 178 
 RUS  HZ I        1918 18.03        10.6 0.25                            93 178 
 GUE  SZ EP   1   1917 60.00                             137     0.0 7  123   9 
 GRA  SZ EP   1   1918  0.78                             135     0.3 7  132  15 
 GRA  SZ ES   2   1918 20.15                             135    -0.4 5  132  15 
 GRA  SZ I        1918 21.73        23.0 0.39                           132  15 
 HEL  HZ EP   2   1918 15.50                             114     0.3 4  274 258 
 HEL  HZ I        1918 52.29         7.0 0.32                           274 258 
 PRA  HZ EP   1   1918 27.97                             106     0.2 4  387 211 
 PRA  HZ I        1919 15.62        12.1 0.27                           387 211 
                                                                                
