 2017  110 1303 16.1 L   7.418 -73.157136.0  RSN  5 0.4 1.3LRSN                1
 GAP=187        0.97       8.1     4.5  8.3 -0.4456E+01  0.1207E+02 -0.9470E+01E
 Epicentro: EL PLAYON - SANTANDER                                              3
 ACTION:UPD 17-05-22 15:57 OP:jn   STATUS:               ID:20170110130316 L   I
 OLDACT:UP  17-04-20 12:18 OP:nlst STATUS:               ID:20170110130316 L   3
 OLDACT:REG 17-01-10 22:54 OP:ar   STATUS:               ID:20170110125759     3
 2017-01-10-1257-59S.COL___297                                                 6
 STAT SP IPHASW D HRMM SECON CODA AMPLIT PERI AZIMU VELO AIN AR TRES W  DIS CAZ7
 PAM  EZ EP       13 3 36.24                             158    0.3910 51.3 100 
 PAM  EN ES       13 3 51.39                             158    0.1210 51.3 100 
 PAM  EZ I        13 3 53.46         2.3 0.28            159           51.3 100 
 BRR  HZ EP       13 3 35.33                             151   -0.7910 70.2 241 
 BRR  HN ES       13 3 51.62                             151   -0.1310 70.2 241 
 BAR2 EZ EP       13 3 38.02                             144    0.1710 91.4 182 
 BAR2 EZ ES       13 3 54.60                             144   -0.2210 91.4 182 
 BAR2 EZ I        13 3 55.52         7.3 0.14            145           91.4 182 
 PTB  HZ EP       13 3 44.64                             125   -0.11 9  173 236 
 PTB  HN ES       13 4  7.69                             125    0.58 9  173 236 
 PTB  HZ I        13 4  8.30         1.7 0.18            126            173 236 
 ZAR  HN ES       13 4  9.84                             122    0.11 9  188 273 
                                                                                
