 2013  410 1321 31.7 L   6.544 -73.531114.2  RSN 18 0.5 2.8LRSN 3.1WRSN        1
 SPEC AVERAGE  MO 13.8 ST  7.2 OM  2.6 f0 4.14 R0.3661 AL 1.84 WI 22.2 MW  3.1 3
 SPEC SD       MO  0.3 ST  4.7 OM  0.5 f00.740 R0.0612 AL      WI      MW  0.2 3
 GAP= 52        1.06       2.9     3.1  5.9 -0.5224E+00  0.7181E+01  0.4469E-01E
 Epicentro: EL CARMEN DE CHUCURI - SANTANDER                                   3
 SPEC PTB HH N MO 13.7 ST  4.3 OM  2.1 f0 4.03 R0.3648 AL 1.15 WI 20.8 MW  3.1 3
 SPEC PTB HH N T1322 5 K 0.000 GD  153 VS 4.20 DE 3.20 Q0300.0 QA 0.60 VS 4.20 3
 SPEC RUS HH N MO 13.7 ST  3.1 OM  2.1 f0 3.66 R0.4016 AL 2.07 WI 13.3 MW  3.0 3
 SPEC RUS HH N T1322 5 K 0.000 GD  143 VS 4.20 DE 3.20 Q0300.0 QA 0.60 VS 4.20 3
 SPEC HEL HH N MO 13.7 ST  3.7 OM  1.9 f0 3.79 R0.3879 AL 1.75 WI 16.4 MW  3.1 3
 SPEC HEL HH N T132230 K 0.000 GD  251 VS 4.20 DE 3.20 Q0300.0 QA 0.60 VS 4.20 3
 SPEC OCA HH Z MO 13.8 ST  5.4 OM  2.1 f0 3.83 R0.3838 AL 1.28 WI 43.1 MW  3.2 3
 SPEC OCA HH Z T132220 K 0.000 GD  220 VS 4.20 DE 3.20 Q0300.0 QA 0.60 VS 4.20 3
 SPEC OCA HH N MO 14.5 ST 15.3 OM  2.8 f0 3.17 R0.4637 AL 2.00 WI 31.8 MW  3.6 3
 SPEC OCA HH N T132220 K 0.000 GD  220 VS 4.20 DE 3.20 Q0300.0 QA 0.60 VS 4.20 3
 SPEC NOR HH N MO 13.8 ST 14.0 OM  2.1 f0 5.30 R0.2774 AL 2.52 WI 13.8 MW  3.2 3
 SPEC NOR HH N T132221 K 0.000 GD  216 VS 4.20 DE 3.20 Q0300.0 QA 0.60 VS 4.20 3
 SPEC BRR HH Z MO 13.4 ST  5.0 OM  1.9 f0 5.18 R0.2838 AL 2.14 WI 16.5 MW  2.9 3
 SPEC BRR HH Z T1322 3 K 0.000 GD  131 VS 4.20 DE 3.20 Q0300.0 QA 0.60 VS 4.20 3
 ACTION:UPD 13-05-22 14:37 OP:EP   STATUS:               ID:20130410132131 L   I
 2013-04-10-1320-00M.COL___245                                                 6
 STAT SP IPHASW D HRMM SECON CODA AMPLIT PERI AZIMU VELO AIN AR TRES W  DIS CAZ7
 BAR2 SZ EP       1321 48.32                             160    0.2710 38.9  82 
 BAR2 SZ ES       1322  0.90                             160    0.0810 38.9  82 
 BAR2 SZ I        1322  2.00      2161.0 0.40            153           38.9  82 
 BRR  HZ EP     D 1321 49.04                             148   -0.0910 65.4 342 
 BRR  HZ I        1322  8.73       146.6 0.12            139           65.4 342 
 GIR2 SZ EP       1321 49.76                             146    0.1310 69.9  32 
 GIR2 SZ ES       1322  3.54                             146   -0.0910 69.9  32 
 GIR2 SZ I        1322  4.61        94.4 0.12            137           69.9  32 
 RUS  HZ EP       1321 51.38                             140   -0.0210 87.4 145 
 RUS  HE ES   1   1322  6.42                             140   -0.36 7 87.4 145 
 RUS  HZ I        1322 10.35        62.4 0.34            129           87.4 145 
 PTB  HZ IP     D 1321 51.17                             135   -0.8010  102 270 
 PTB  HN ES   4   1322  6.06                             135   -1.74 0  102 270 
 ZAR  HN ES   1   1322 22.64                             118    1.12 7  180 306 
 NOR  HZ EP       1322  0.01                             117   -0.08 9  184 234 
 NOR  HN ES       1322 22.24                             117   -0.02 9  184 234 
 NOR  HZ I        1322 25.85        75.0 0.14            108            184 234 
 OCA  HN ES   1   1322 23.97                             116    0.45 7  189   7 
 OCA  HZ I        1322 29.93        85.0 0.26            108            189   7 
 TAM  HZ EP       1322  1.07                             116   -0.01 9  193  93 
 TAM  HN ES   1   1322 23.69                             116   -0.33 7  193  93 
 TAM  HZ I        1322 30.80        54.8 0.48            108            193  93 
 CHI  HZ EP       1322  4.16                             113    0.38 8  213 186 
 CHI  HN ES   1   1322 28.83                             113    0.01 6  213 186 
 CHI  HZ I        1322 33.97        22.3 0.30            106            213 186 
 HEL  HZ EP       1322  5.69                             112    0.66 8  224 260 
 HEL  HN ES       1322 30.93                             112   -0.11 8  224 260 
 HEL  HZ I        1322 36.27        42.1 0.31            105            224 260 
 SML  HN ES   1   1322 37.35                             109    0.60 6  257 347 
 URE  HZ EP   1   1322  7.68                             109   -0.77 6  258 301 
 URE  HN ES   1   1322 36.36                             109   -0.78 6  258 301 
 DBB  SZ EP       1322 13.95                             105    0.46 7  301 280 
 DBB  SZ I        1322 51.39        19.9 0.32            100            301 280 
 PRA  HZ EP       1322 19.14                             102    0.21 6  347 206 
 PRA  HZ I        1323  3.91        28.3 0.26             99            347 206 
 COD  HZ EP       1322 22.96                             101    0.75 6  375   1 
 COD  HN ES   1   1323  1.98                             101    0.35 5  375   1 
 COD  HZ I        1323 12.78        27.6 0.88             98            375   1 
 SDV  BZ EP       1322 26.25                             100   -0.55 6  411  51 
 SDV  BE ES   4   1323  7.04                             100   -2.76 0  411  51 
 SJC  HZ EP   4   1322 24.79                              99   -2.03 0  413 334 
 SJC  HE ES       1323  7.94                              99   -1.90 6  413 334 
 SJC  HZ I        1323  9.53        13.9 0.34             97            413 334 
                                                                                
