 2012 1010 1850 26.1 L   6.538 -73.556112.6  RSN  5 0.5 2.5LRSN                1
 GAP=111        0.77      10.3     8.9 11.2 -0.4358E+02  0.4205E+02 -0.4677E+02E
 Epicentro: EL CARMEN DE CHUCURI - SANTANDER                                   3
 ACTION:UPD 12-11-22 17:03 OP:ep   STATUS:               ID:20121010185026 L   I
 2012-10-10-1850-00M.COL___229                                                 6
 STAT SP IPHASW D HRMM SECON CODA AMPLIT PERI AZIMU VELO AIN AR TRES W  DIS CAZ7
 BAR2 SZ EP       1850 42.64                             159    0.2710 41.7  82 
 BAR2 SZ ES   1   1850 54.74                             159   -0.35 7 41.7  82 
 BAR2 SZ I        1850 56.66       163.1 0.52                          41.7  82 
 BRR  HZ EP       1850 43.63                             147    0.3010 65.2 345 
 BRR  HE I        1850 58.09        56.1 0.16                          65.2 345 
 RUS  HZ EP   3   1850 45.83                             139    0.11 2 88.5 144 
 PAM  SZ EP       1850 49.36                             127   -0.0110  130  47 
 PAM  SE ES   1   1851  7.01                             127   -0.54 7  130  47 
 NOR  SN ES   3   1851 14.03                             116   -1.95 2  181 234 
                                                                                
