 2015  910 1102 14.9 L   6.816 -73.135145.6  RSN 25 0.5 2.7LRSN 3.2WRSN        1
 SPEC AVERAGE  MO 13.9 ST0.785 OM  1.9 f0 2.15 R1.2461 AL 0.00 WI 30.0 MW  3.2 3
 SPEC SD       MO  0.2 ST  1.4 OM  0.2 f0 1.48 R0.5890 AL      WI      MW  0.2 3
 GAP= 71        1.06       2.3     2.8  4.6 -0.5648E+00  0.1786E+01  0.1148E+01E
 Epicentro: LOS SANTOS - SANTANDER                                             3
      77.0      82.0    -122.0 15.0  9.0 29.0  0.0  0.1           RSN FPFIT    F
 SPEC BAR2EH Z MO 13.7 ST0.902 OM  1.8 f0 3.12 R0.6167 AL-0.00 WI 30.0 MW  3.1 3
 SPEC BAR2EH Z T11 247 K 0.000 GD  147 VS 5.20 DE 3.50 Q0750.0 QA 1.50 Q1 0.00 3
 SPEC TAM HH Z MO 13.8 ST0.114 OM  1.8 f0 1.39 R1.3842 AL-0.00 WI 30.0 MW  3.2 3
 SPEC TAM HH Z T11 3 3 K 0.000 GD  211 VS 5.20 DE 3.50 Q0750.0 QA 1.50 Q1 0.00 3
 SPEC OCA HH Z MO 13.9 ST  1.2 OM  1.9 f0 2.78 R0.6921 AL-0.00 WI 30.0 MW  3.2 3
 SPEC OCA HH Z T11 3 3 K 0.000 GD  215 VS 5.20 DE 3.50 Q0750.0 QA 1.50 Q1 0.00 3
 SPEC SPBCHH Z MO 13.6 ST  5.2 OM  1.5 f0 6.15 R0.3128 AL-0.00 WI 30.0 MW  3.0 3
 SPEC SPBCHH Z T11 3 4 K 0.000 GD  220 VS 5.20 DE 3.50 Q0750.0 QA 1.50 Q1 0.00 3
 SPEC ZAR HH Z MO 13.6 ST  1.1 OM  1.5 f0 3.51 R0.5481 AL-0.00 WI 30.0 MW  3.0 3
 SPEC ZAR HH Z T11 310 K 0.000 GD  250 VS 5.20 DE 3.50 Q0750.0 QA 1.50 Q1 0.00 3
 SPEC CHI HH Z MO 13.7 ST0.303 OM  1.5 f0 2.18 R0.8826 AL-0.00 WI 30.0 MW  3.1 3
 SPEC CHI HH Z T11 320 K 0.000 GD  290 VS 5.20 DE 3.50 Q0750.0 QA 1.50 Q1 0.00 3
 SPEC ROSCBH Z MO 14.3 ST0.080 OM  2.1 f00.879 R2.1889 AL-0.00 WI 30.0 MW  3.5 3
 SPEC ROSCBH Z T11 321 K 0.000 GD  293 VS 5.20 DE 3.50 Q0750.0 QA 1.50 Q1 0.00 3
 SPECGUY2CHH Z MO 13.9 ST0.049 OM  1.7 f00.969 R1.9856 AL-0.00 WI 30.0 MW  3.2 3
 SPECGUY2CHH Z T11 331 K 0.000 GD  336 VS 5.20 DE 3.50 Q0750.0 QA 1.50 Q1 0.00 3
 SPEC DBB SH Z MO 14.3 ST0.236 OM  2.0 f0 1.26 R1.5270 AL-0.00 WI 30.0 MW  3.5 3
 SPEC DBB SH Z T11 338 K 0.000 GD  369 VS 5.20 DE 3.50 Q0750.0 QA 1.50 Q1 0.00 3
 SPEC TOL SH Z MO 14.1 ST0.100 OM  1.8 f0 1.10 R1.7491 AL-0.00 WI 30.0 MW  3.3 3
 SPEC TOL SH Z T11 340 K 0.000 GD  375 VS 5.20 DE 3.50 Q0750.0 QA 1.50 Q1 0.00 3
 SPEC PRA HH Z MO 13.9 ST0.128 OM  1.6 f0 1.34 R1.4358 AL-0.00 WI 30.0 MW  3.2 3
 SPEC PRA HH Z T11 348 K 0.000 GD  420 VS 5.20 DE 3.50 Q0750.0 QA 1.50 Q1 0.00 3
 SPEC ORTCHH Z MO 13.9 ST0.088 OM  1.6 f0 1.18 R1.6305 AL-0.00 WI 30.0 MW  3.2 3
 SPEC ORTCHH Z T11 349 K 0.000 GD  423 VS 5.20 DE 3.50 Q0750.0 QA 1.50 Q1 0.00 3
 OLDACT:REG 15-09-10 20:25 OP:stll STATUS:               ID:20150910105747     3
 ACTION:UPD 15-10-28 16:25 OP:cam  STATUS:               ID:20150910110214 L   I
 OLDACT:UP  15-09-28 04:47 OP:DRIO STATUS:               ID:20150910110214 L   3
 OLDACT:UP  15-09-10 22:36 OP:stll STATUS:               ID:20150910105747     3
 2015-09-10-1057-47M.COL___353                                                 6
 STAT SP IPHASW D HRMM SECON CODA AMPLIT PERI AZIMU VELO AIN AR TRES W  DIS CAZ7
 BAR2 EZ IP     D 11 2 34.80                             170    0.2510 25.3 192 
 BAR2 EZ ES       11 2 49.49                             170   -0.3910 25.3 192 
 BAR2 EZ I        11 2 51.39       102.0 0.22            166           25.3 192 
 BRR  HZ IP     C 11 2 36.60                             152    0.5610 71.4 297 
 BRR  HN ES       11 2 53.44                             152    0.9110 71.4 297 
 BRR  HZ I        11 2 57.56        84.2 0.46            142           71.4 297 
 RUS  HZ EP     D 11 2 38.75                             143   -0.0110  102 177 
 RUS  HN ES       11 2 57.10                             143   -0.2710  102 177 
 RUS  HZ I        11 2 58.34        25.5 0.30            140            102 177 
 PTB  HZ EP       11 2 41.50                             132   -0.49 9  149 258 
 PTB  HE ES       11 3  3.05                             132   -0.06 9  149 258 
 PTB  HZ I        11 3  8.05        31.4 0.18            123            149 258 
 TAM  HZ IP     D 11 2 43.22                             131    0.71 9  154 106 
 TAM  HZ I        11 2 43.43        46.3 0.36            129            154 106 
 TAM  HN ES       11 3  4.56                             131    0.52 9  154 106 
 OCA  HZ EP       11 2 42.87                             130   -0.17 9  159 353 
 OCA  HN ES       11 3  4.80                             130   -0.19 9  159 353 
 OCA  HZ I        11 3 10.20        81.6 0.16            123            159 353 
 SPBC HZ EP       11 2 43.69                             129    0.10 9  165 219 
 SPBC HE ES       11 3  5.54                             129   -0.42 9  165 219 
 SPBC HZ I        11 3  9.97        60.1 0.42            122            165 219 
 ZAR  HZ EP       11 2 47.29                             122   -0.09 9  204 292 
 ZAR  HN ES       11 3 12.45                             122   -0.25 9  204 292 
 ZAR  HZ I        11 3 19.49        49.9 0.36            115            204 292 
 NOR  HZ EP       11 2 50.76                             118   -0.07 8  237 234 
 NOR  HE ES       11 3 18.19                             118   -0.67 8  237 234 
 NOR  HZ I        11 3 24.68        26.9 0.22            112            237 234 
 SML  HZ EP       11 2 50.76                             117   -0.63 8  243 335 
 SML  HE ES       11 3 19.68                             117   -0.17 8  243 335 
 SML  HZ I        11 3 22.64        69.7 0.10            111            243 335 
 CHI  HZ EP       11 2 52.98                             117    0.17 8  251 195 
 CHI  HE ES       11 3 21.90                             117   -0.48 8  251 195 
 CHI  HZ I        11 3 25.65        30.0 0.54            112            251 195 
 ROSC BZ EP       11 2 53.71                             116    0.46 8  255 211 
 ROSC BE ES       11 3 23.28                             116    0.13 8  255 211 
 ROSC BZ I        11 3 29.12        52.6 0.50            111            255 211 
 HEL  HZ EP       11 2 55.61                             115    0.33 8  274 255 
 HEL  HE ES       11 3 26.62                             115   -0.15 8  274 255 
 HEL  HZ I        11 3 33.70        13.6 0.40            109            274 255 
 URE  HZ EP   4   11 2 54.57                             113   -1.44 0  284 291 
 URE  HZ I        11 3 37.46        26.8 0.20            108            284 291 
 SOCV BZ EP     C 11 2 56.46                             112   -1.26 7  299  57 
 SOCV BE ES   4   11 3 27.62                             112   -3.50 0  299  57 
 GUY2CHZ EP       11 2 59.13                             112    0.40 7  303 235 
 GUY2CHN ES       11 3 33.09                             112    0.19 7  303 235 
 GUY2CHZ I        11 3 38.87        15.6 0.34                           303 235 
 VIL  SZ EP       11 2 58.48                             112   -0.06 7  305 192 
 VIL  SN ES       11 3 31.52                             112   -1.05 7  305 192 
 VIL  SZ I        11 3 42.48        37.2 0.38            108            305 192 
 PTGC HZ IP   4 D 11 2 57.97                             111   -0.93 0  310 159 
 PTGC HZ I        11 2 58.47        50.6 0.22            108            310 159 
 PTGC HE ES   4   11 3 30.61                             111   -2.60 0  310 159 
 CBOC HZ EP       11 3  2.78                             110    0.78 7  335 252 
 DBB  SZ EP       11 3  2.45                             109   -0.04 7  340 274 
 DBB  SZ I        11 3 40.27        43.5 0.26            104            340 274 
 TOL  SZ EP       11 3  3.87                             109    0.48 6  346 225 
 TOL  SE ES       11 3 42.07                             109    0.86 6  346 225 
 TOL  SZ I        11 3 48.44        18.2 0.30            105            346 225 
 PRA  HZ EP       11 3  8.48                             106   -0.19 6  394 210 
 PRA  HE ES       11 3 50.40                             106   -0.20 6  394 210 
 PRA  HZ I        11 3 55.87        24.6 0.30            102            394 210 
 ORTC HZ EP       11 3  9.25                             106    0.18 6  398 216 
 ORTC HN ES       11 3 51.26                             106   -0.05 6  398 216 
 ORTC HZ I        11 3 56.15        15.8 0.32            102            398 216 
 SJC  HZ EP   4 C 11 3  9.02                             106   -1.34 0  408 327 
 SJC  HN ES   4   11 3 49.82                             106   -3.79 0  408 327 
 SJC  HZ I        11 3 56.45        10.2 0.52            101            408 327 
 CRJC HZ EP   4   11 3 15.07                             103   -2.11 0  466   3 
 CRJC HN ES   4   11 4  2.39                             103   -3.36 0  466   3 
 CRJC HZ I        11 4  9.90        13.5 0.36            100            466   3 
                                                                                
