 2010 1010 1713 27.2 L   6.797 -73.132146.0  RSN 13 0.6 3.5LRSN                1
 GAP=177        1.40       5.4     9.6  9.8 -0.2696E+02 -0.6785E+01  0.1950E+02E
 Epicentro: LOS SANTOS - SANTANDER                                             3
 ACTION:UP  11-02-18 11:08 OP:tino STATUS:               ID:20101010171327 L   I
 2010-10-10-1710-16S.COL___121                                                 6
 STAT SP IPHASW D HRMM SECON CODA AMPLIT PERI AZIMU VELO SNR AR TRES W  DIS CAZ7
 BAR2 SZ EP       1713 46.56                             170    -0.310   23 194 
 BAR2 SZ ES   2   1714  1.80                             170    -0.4 5   23 194 
 BAR2 SZ I        1714  4.43       514.9 0.26                            23 194 
 BRR  HZ EP       1713 48.40                             152    -0.110   73 298 
 BRR  HN ES       1714  5.51                             152     0.510   73 298 
 BRR  HZ I        1714  7.34       317.6 0.34                            73 298 
 GUE  SZ EP       1713 51.44                             140    -0.510  117  11 
 GRA  SZ IP       1713 53.35                             137     0.910  126  17 
 GRA  SZ ES   2   1714 12.53                             137     0.4 5  126  17 
 GRA  SZ I        1714 13.98       236.8 0.41                           126  17 
 OCA  SZ EP       1713 54.85                             130    -0.7 9  161 353 
 OCA  SZ ES   1   1714 17.49                             130    -0.2 7  161 353 
 OCA  SZ I        1714 25.18       258.0 0.44                           161 353 
 NOR  SZ EP       1714  2.73                             119    -0.3 8  236 235 
 NOR  SN ES   1   1714 30.44                             119    -0.6 6  236 235 
 CHI  HZ EP       1714  4.74                             117    -0.2 8  249 196 
 CHI  HN ES       1714 34.09                             117    -0.2 8  249 196 
 CHI  HZ I        1714 37.75       184.8 0.63                           249 196 
 ROSC BZ EP       1714  6.48                             117     1.1 8  253 211 
 ROSC BN ES   1   1714 35.90                             117     0.7 6  253 211 
 ROSC BZ I        1714 41.25       292.1 0.32                           253 211 
 HEL  HZ EP   1   1714  8.32                             115     0.8 6  273 256 
 HEL  HN ES   2   1714 38.63                             115    -0.4 4  273 256 
 HEL  HZ I        1714 45.13       115.9 0.21                           273 256 
 RREF HZ EP   1   1714 14.51                             111     1.1 5  323 230 
 RREF HZ I        1714 58.51       122.7 0.42                           323 230 
 DBB  SZ EP       1714 14.28                             110    -0.6 7  341 274 
 ANIL HZ EP       1714 17.69                             109     0.6 6  358 225 
 PRA  HZ EP       1714 20.16                             107    -0.6 6  392 210 
 PRA  HN ES       1715  1.77                             107    -0.8 6  392 210 
 PRA  HZ I        1715  9.20       349.0 0.49                           392 210 
                                                                                
