 2012  310 1558 44.6 L   6.770 -73.124151.0  RSN  6 0.4 1.7LRSN                1
 GAP=141        0.96       6.3     6.2  7.6  0.2845E+01  0.7694E+01  0.4247E+01E
 ACTION:UP  12-03-31 23:18 OP:EP   STATUS:               ID:20120310155844 L   I
 2012-03-10-1550-00M.COL___193                                                 6
 STAT SP IPHASW D HRMM SECON CODA AMPLIT PERI AZIMU VELO SNR AR TRES W  DIS CAZ7
 BAR2 SZ EP   1   1559  5.01                             172     0.2 7   21 198 
 BAR2 SZ ES   1   1559 20.39                             172    -0.2 7   21 198 
 BAR2 SZ I        1559 22.68         8.3 0.35                            21 198 
 BRR  HZ EP       1559  6.93                             152     0.410   75 300 
 BRR  HZ I        1559  8.53        19.8 0.14                            75 300 
 BRR  HN ES       1559 24.20                             152     0.510   75 300 
 PAM  SZ EP   1   1559  7.56                             151     0.1 7   79  37 
 PAM  SN ES   1   1559 24.60                             151    -0.7 7   79  37 
 RUS  HZ EP       1559  8.79                             146     0.110   97 177 
 RUS  HN ES   1   1559 27.54                             146     0.1 7   97 177 
 RUS  HZ I        1559 29.47         3.4 0.47                            97 177 
 PTB  HZ EP       1559 11.89                             133    -0.3 9  150 260 
 PTB  HE ES   1   1559 33.01                             133    -0.7 7  150 260 
 ZAR  HZ EP   1   1559 17.56                             123    -0.2 6  208 293 
                                                                                
