 2012 1110 1716 22.6 L   6.747 -73.187148.3  RSN  5 0.3 1.8LRSN                1
 GAP=229        0.56       5.5     5.1  5.7  0.1446E+02  0.1367E+01 -0.2366E+01E
 Epicentro: VILLANUEVA - SANTANDER                                             3
 ACTION:UPD 12-12-05 15:32 OP:}ep  STATUS:               ID:20121110171622 L   I
 2012-11-10-1710-00M.COL___230                                                 6
 STAT SP IPHASW D HRMM SECON CODA AMPLIT PERI AZIMU VELO AIN AR TRES W  DIS CAZ7
 BAR2 SZ EP       1716 42.38                             173   -0.0210 17.1 178 
 BAR2 SZ ES   1   1716 57.52                             173   -0.35 7 17.1 178 
 BAR2 SZ I        1717  0.89        12.6 0.38                          17.1 178 
 BRR  HZ EP       1716 44.03                             153    0.0810 70.4 305 
 BRR  HN ES   1   1717  0.72                             153    0.09 7 70.4 305 
 BRR  HN I        1717  1.23        18.5 0.30                          70.4 305 
 RUS  HZ EP   1   1716 46.23                             146    0.03 7 95.1 173 
 RUS  HE ES   1   1717  5.00                             146    0.38 7 95.1 173 
 RUS  HZ I        1717  6.68         4.6 0.42                          95.1 173 
 PTB  HZ EP   1   1716 48.98                             134   -0.27 7  142 261 
 PTB  HN ES   1   1717  9.79                             134   -0.28 7  142 261 
 PTB  HZ I        1717 12.39         7.5 0.24                           142 261 
 ZAR  HN ES   2   1717 21.01                             123    0.73 4  202 294 
 ZAR  HN I        1717 27.31         8.4 0.20                           202 294 
                                                                                
