 2016  610 1120 20.2 L   6.811 -73.151140.1  RSN  7 0.3 1.6LRSN                1
 GAP=238        0.79       3.9     4.5  5.4  0.2479E+01  0.6300E+01  0.5127E+01E
 Epicentro: LOS SANTOS - SANTANDER                                             3
 ACTION:UPD 16-07-21 22:17 OP:rebc STATUS:               ID:20160610112020 L   I
 OLDACT:REG 16-06-10 20:11 OP:edw  STATUS:               ID:20160610111746     3
 2016-06-10-1117-46M.COL___331                                                 6
 STAT SP IPHASW D HRMM SECON CODA AMPLIT PERI AZIMU VELO AIN AR TRES W  DIS CAZ7
 BAR2 EZ EP       1120 39.25                             170    0.0510 24.5 188 
 BAR2 EZ ES       1120 53.69                             170   -0.3110 24.5 188 
 BAR2 EZ I        1120 55.84         9.6 0.16                          24.5 188 
 BRR  HZ EP       1120 41.04                             152    0.3410 70.1 298 
 BRR  HN ES       1120 57.02                             152    0.3510 70.1 298 
 RUS  HZ EP       1120 43.46                             142   -0.0610  102 176 
 RUS  HE ES       1121  1.87                             142    0.1810  102 176 
 RUS  HZ I        1121  2.82         3.8 0.30                           102 176 
 PTB  HZ EP       1120 46.00                             131   -0.70 9  147 258 
 PTB  HN ES       1121  7.16                             131   -0.20 9  147 258 
 PTB  HZ I        1121 10.09         3.2 0.36                           147 258 
 SPBC HZ EP       1120 48.08                             128   -0.27 9  164 219 
 SPBC HN ES       1121 10.26                             128   -0.03 9  164 219 
 SPBC HZ I        1121 12.82         7.5 0.72                           164 219 
 NOR  HZ EP   4   1120 21.84                             117   -33.8 0  235 234 
 NOR  HE ES   4   1120 25.01                             117   -58.3 0  235 234 
 CHI  HN ES       1121 27.15                             116    0.17 8  250 195 
 GUY2CHZ EP       1121  4.14                             111    0.54 7  301 235 
 GUY2CHN ES       1121 37.62                             111    0.19 7  301 235 
 GUY2CHZ I        1121 44.91         2.3 0.50                           301 235 
                                                                                
