 2015  610 1610 31.5 L   6.821 -73.154144.8  RSN 13 0.4 2.0LRSN                1
 GAP=134        0.89       2.5     3.7  4.8 -0.1296E+01  0.5863E+01  0.1856E+01E
 Epicentro: LOS SANTOS - SANTANDER                                             3
 ACTION:UPD 15-09-10 22:11 OP:cam  STATUS:               ID:20150610161031 L   I
 OLDACT:REG 15-06-11 00:25 OP:ak   STATUS:               ID:20150610160947     3
 2015-06-10-1609-47M.COL___297                                                 6
 STAT SP IPHASW D HRMM SECON CODA AMPLIT PERI AZIMU VELO AIN AR TRES W  DIS CAZ7
 BAR2 EZ IP     C 1610 51.10                             170    0.0410 25.5 187 
 BAR2 EZ ES       1611  6.31                             170   -0.0010 25.5 187 
 BAR2 EZ I        1611  7.68        33.0 0.16            168           25.5 187 
 BRR  HZ EP       1610 52.97                             153    0.5310 69.3 297 
 BRR  HN ES       1611  9.19                             153    0.4210 69.3 297 
 PAM  SZ EP       1610 53.91                             151    0.3710 76.2  41 
 PAM  SN ES       1611 10.88                             151    0.1410 76.2  41 
 PAM  SZ I        1611 13.34        10.3 0.50            154           76.2  41 
 RUS  HZ EP       1610 55.27                             143   -0.0610  103 176 
 RUS  HN ES       1611 13.36                             143   -0.5510  103 176 
 RUS  HZ I        1611 14.99        15.8 0.30            144            103 176 
 SPBC HZ EP       1610 59.85                             129   -0.19 9  164 218 
 SPBC HN ES       1611 22.10                             129   -0.20 9  164 218 
 SPBC HZ I        1611 24.78        22.4 0.26            128            164 218 
 ZAR  HN ES       1611 28.17                             122   -0.65 9  202 292 
 ZAR  HZ I        1611 35.60         9.5 0.10            122            202 292 
 NOR  HZ EP       1611  7.72                             118    0.48 8  235 234 
 NOR  HN ES       1611 34.70                             118   -0.41 8  235 234 
 NOR  HZ I        1611 40.81         6.6 0.16            118            235 234 
 SML  HZ EP       1611  7.33                             117   -0.47 8  241 335 
 SML  HN ES       1611 35.72                             117   -0.40 8  241 335 
 SML  HZ I        1611 40.54        12.8 0.13            118            241 335 
 CHI  HZ EP       1611  9.03                             117   -0.33 8  251 195 
 CHI  HN ES       1611 38.92                             117    0.03 8  251 195 
 CHI  HZ I        1611 48.31         4.2 0.52            117            251 195 
 GUY2CHZ EP   1   1611 15.33                             112    0.20 5  302 234 
 GUY2CHN ES       1611 49.67                             112    0.51 7  302 234 
 GUY2CHZ I        1611 58.97         2.9 0.28                           302 234 
 RREF HZ EP   1   1611 17.98                             111    0.29 5  323 229 
 RREF HN ES       1611 54.36                             111    0.64 7  323 229 
 RREF HZ I        1611 58.35         1.7 0.33            111            323 229 
 PRA  HZ EP       1611 24.58                             106   -0.59 6  394 209 
 PRA  HN ES       1612  7.28                             106    0.25 6  394 209 
 PRA  HZ I        1612 13.12         3.7 0.42            107            394 209 
 SJC  HZ EP   4   1611 25.30                             106   -1.45 0  407 327 
 SJC  HN ES   4   1612  6.94                             106   -2.89 0  407 327 
 SJC  HZ I        1612 10.69         1.5 0.35            106            407 327 
                                                                                
