 2014 1210 1913 36.0 L   6.826 -73.157137.4  RSN 12 0.7 2.0LRSN                1
 GAP=134        1.63       4.4     6.5  8.9 -0.9615E+00  0.1974E+02  0.5725E+01E
 Epicentro: LOS SANTOS - SANTANDER                                             3
 ACTION:UPD 15-02-10 17:02 OP:nd   STATUS:               ID:20141210191336 L   I
 OLDACT:REG 14-12-10 22:00 OP:stll STATUS:               ID:20141210190749     3
 2014-12-10-1907-49M.COL___303                                                 6
 STAT SP IPHASW D HRMM SECON CODA AMPLIT PERI AZIMU VELO AIN AR TRES W  DIS CAZ7
 BAR2 E  ES       1914  8.54                             169   -0.7310 26.0 186 
 BRR  HN ES       1914 11.93                             152    0.1310 68.7 297 
 PAM  SZ EP       1913 57.65                             150    0.3910 76.0  42 
 PAM  SN ES       1914 14.75                             150    0.9210 76.0  42 
 PAM  SZ I        1914 16.40        15.4 0.54            143           76.0  42 
 RUS  HZ EP       1913 59.06                             141   -0.1110  104 175 
 RUS  HN ES       1914 17.34                             141    0.1010  104 175 
 RUS  HZ I        1914 18.77        10.2 0.24            134            104 175 
 PTB  HZ EP       1914  1.51                             130   -0.74 9  147 258 
 PTB  HN ES       1914 22.42                             130   -0.29 9  147 258 
 PTB  HZ I        1914 23.54         8.4 0.44            121            147 258 
 OCA  HN ES       1914 24.23                             128   -0.52 9  157 353 
 OCA  HZ I        1914 30.05        14.4 0.32            119            157 353 
 SPBC HZ EP       1914  3.91                             127   -0.11 9  165 218 
 SPBC HN ES       1914 25.81                             127   -0.06 9  165 218 
 SPBC HZ I        1914 31.83        15.4 0.20            118            165 218 
 ZAR  HZ EP       1914  8.86                             121    1.17 9  202 292 
 ZAR  HE ES       1914 33.06                             121    0.66 9  202 292 
 ZAR  HZ I        1914 38.70         8.2 0.12            112            202 292 
 SML  HN ES       1914 38.78                             116   -1.00 8  241 335 
 SML  HZ I        1914 43.51        14.4 0.28            108            241 335 
 CHI  HZ EP       1914 13.22                             115   -0.31 8  251 195 
 CHI  HN ES       1914 42.42                             115   -0.37 8  251 195 
 CHI  HZ I        1914 50.28         5.3 0.38            108            251 195 
 HEL  HZ EP       1914 14.54                             113   -1.22 8  272 255 
 HEL  HZ I        1914 55.10         4.9 0.30            106            272 255 
 GUY2CHZ EP       1914 20.14                             111    0.82 7  302 234 
 GUY2CHN ES       1914 54.62                             111    1.52 7  302 234 
 GUY2CHZ I        1915  2.77         4.2 0.26                           302 234 
                                                                                
