 2014  710 1619 45.9 L   6.694 -73.161143.3  RSN  4 0.3 1.9LRSN                1
 GAP=245        0.82       9.7     6.9  8.8  0.7968E+01 -0.5001E+01  0.1627E+02E
 Epicentro: VILLANUEVA - SANTANDER                                             3
 ACTION:UPD 15-03-16 20:42 OP:nd   STATUS:               ID:20140710161945 L   I
 OLDACT:UP  14-07-10 22:34 OP:cam  STATUS:               ID:20140710161743     3
 OLDACT:REG 14-07-10 22:23 OP:cam  STATUS:               ID:20140710161743     3
 2014-07-10-1617-43M.COL___262                                                 6
 STAT SP IPHASW D HRMM SECON CODA AMPLIT PERI AZIMU VELO AIN AR TRES W  DIS CAZ7
 BAR2 SZ EP   1   1620  5.11                             175    0.05 7 11.5 192 
 BRR  HZ IP     D 1620  6.74                             150   -0.3410 76.1 307 
 BRR  HN ES       1620 23.76                             150    0.1710 76.1 307 
 BRR  HZ I        1620 24.34        14.5 0.18            145           76.1 307 
 PTB  HZ EP       1620 12.12                             132   -0.23 9  144 263 
 PTB  HN ES       1620 33.10                             132    0.12 9  144 263 
 PTB  HZ I        1620 34.68         6.6 0.16            129            144 263 
 ZAR  HZ EP       1620 19.22                             121    0.70 8  207 295 
 ZAR  HE ES       1620 43.59                             121   -0.37 8  207 295 
 ZAR  HZ I        1620 48.68        11.0 0.32            119            207 295 
                                                                                
