 2016  910 1226 44.3 L   6.799 -73.160141.9  RSN 17 0.4 2.4LRSN                1
 GAP=135        0.92       2.6     3.3  5.1 -0.2303E+01  0.5438E+01  0.4788E-03E
 Epicentro: LOS SANTOS - SANTANDER                                             3
 ACTION:UPD 17-08-17 21:08 OP:lp   STATUS:               ID:20160910122644 L   I
 OLDACT:REG 16-09-10 21:10 OP:lv   STATUS:               ID:20160910121743     3
 2016-09-10-1218-00M.COL___339                                                 6
 STAT SP IPHASW D HRMM SECON CODA AMPLIT PERI AZIMU VELO AIN AR TRES W  DIS CAZ7
 BAR2 EZ EP       1227  3.38                             170   -0.0910 23.0 186 
 BAR2 EZ ES       1227 18.15                             170   -0.2710 23.0 186 
 BAR2 EZ I        1227 19.98        99.6 0.24            169           23.0 186 
 BRR  HZ EP       1227  5.18                             152    0.2110 69.9 299 
 BRR  HN ES   4   1227 22.24                             152    1.16 0 69.9 299 
 BRR  HZ I        1227 26.19        44.9 0.26            148           69.9 299 
 PAM  EZ EP       1227  6.35                             150    0.1610 78.5  40 
 PAM  EN ES       1227 23.63                             150    0.3810 78.5  40 
 PAM  EZ I        1227 25.82        46.0 0.39            153           78.5  40 
 RUS  HZ EP       1227  7.58                             143   -0.1110  101 175 
 RUS  HE ES       1227 26.12                             143    0.2010  101 175 
 RUS  HZ I        1227 26.96        19.9 0.23            146            101 175 
 PTB  HZ EP       1227 10.21                             131   -0.62 9  146 259 
 PTB  HN ES       1227 31.29                             131   -0.21 9  146 259 
 OCA  HZ EP       1227 11.57                             129   -0.76 9  160 354 
 OCA  HE ES       1227 34.55                             129    0.38 9  160 354 
 OCA  HZ I        1227 38.68        56.5 0.17            129            160 354 
 SPBC HZ EP       1227 12.36                             128   -0.05 9  162 219 
 SPBC HN ES       1227 33.74                             128   -0.59 9  162 219 
 SPBC HZ I        1227 36.82        41.0 0.20            128            162 219 
 ZAR  HZ EP       1227 17.04                             122    0.67 9  203 292 
 ZAR  HN ES       1227 41.05                             122   -0.31 9  203 292 
 ZAR  HZ I        1227 48.16        30.8 0.34            121            203 292 
 NOR  HZ EP       1227 19.58                             118   -0.10 8  233 234 
 NOR  HN ES       1227 47.80                             118    0.55 8  233 234 
 NOR  HZ I        1227 53.73        15.7 0.22            118            233 234 
 CHI  HZ EP       1227 21.72                             116   -0.02 8  248 195 
 CHI  HN ES       1227 50.99                             116    0.06 8  248 195 
 CHI  HZ I        1227 54.61         7.1 0.31            118            248 195 
 ROSC BZ EP   9   1227 23.80                             116    1.68 0  252 211 
 ROSC BN ES       1227 54.12                                    0.83 8  252 211 
 ROSC BZ I        1227 58.07        18.4 0.40            117            252 211 
 HEL  HZ EP   4   1227 26.08                             114    1.92 0  270 256 
 HEL  HN ES       1227 55.57                             114    0.34 8  270 256 
 HEL  HZ I        1228  3.67        11.8 0.28            114            270 256 
 GUY2CHZ EP       1227 27.84                             112    0.25 7  300 235 
 GUY2CHN ES       1228  1.72                             112    0.38 7  300 235 
 GUY2CHZ I        1228 11.68         8.1 0.35                           300 235 
 LL6C HZ EP   9   1227 28.06                             110   -1.81 0  325 358 
 LL6C HN ES       1228  3.55                                   -0.04 7  325 358 
 LL6C HZ I        1228 11.83         9.2 0.54            110            325 358 
 ELA  HZ EP   9   1227 33.67                             110    2.81 0  328 229 
 ELA  HN ES       1228  9.48                                   -0.49 7  328 229 
 ELA  HZ I        1228 18.22         6.7 0.66            110            328 229 
 SJC  HZ EP   4   1227 38.03                             105   -1.64 0  408 327 
 SJC  HN ES   4   1228 19.12                             105   -3.72 0  408 327 
 SJC  HZ I        1228 32.98         6.1 0.28            105            408 327 
 CRJC HZ EP   9   1227 43.89                             103   -2.85 0  468   4 
 CRJC HN ES       1228 32.54                                   -0.04 5  468   4 
 CRJC HZ I        1228 34.31         9.5 0.42            103            468   4 
                                                                                
