 2013  710 1437  7.2 L   6.770 -73.081134.1  RSN  6 0.5 2.5LRSN                1
 GAP=175        1.32      18.2    10.2 11.6 -0.1157E+03 -0.4243E+02  0.1185E+03E
 Epicentro: LOS SANTOS - SANTANDER                                             3
 ACTION:UPD 13-08-12 10:36 OP:ep   STATUS:               ID:20130710143707 L   I
 OLDACT:REG 13-07-10 15:45 OP:stll STATUS:               ID:20130710142845     3
 2013-07-10-1428-45M.COL___226                                                 6
 STAT SP IPHASW D HRMM SECON CODA AMPLIT PERI AZIMU VELO AIN AR TRES W  DIS CAZ7
 BAR2 SZ EP       1437 25.80                             170    0.4010 22.6 210 
 GIR2 SZ EP       1437 25.91                             164    0.2710 36.3 340 
 GIR2 SZ ES       1437 39.87                             164   -0.1510 36.3 340 
 PAM  SZ EP       1437 28.51                             149    0.4310 75.8  34 
 PAM  SZ I        1437 28.78        47.5 0.20            148           75.8  34 
 PAM  SN ES       1437 43.63                             149   -0.7410 75.8  34 
 BRR  HZ EP       1437 27.78                             148    0.1910 79.1 298 
 BRR  HN ES       1437 43.95                             148    0.4610 79.1 298 
 BRR  HN I        1437 44.91        77.2 0.30            146           79.1 298 
 CAPV BZ EP       1437 33.59                             129    0.07 9  148  35 
 PTB  HZ EP       1437 32.75                             128   -1.10 9  154 261 
                                                                                
