 2015  710 1110 31.4 L   6.801 -73.163142.8  RSN  7 0.3 2.5LRSN                1
 GAP=134        0.82       2.8     4.7  6.9 -0.5381E+00  0.1792E+02 -0.3782E+01E
 Epicentro: LOS SANTOS - SANTANDER                                             3
 ACTION:UPD 15-09-08 21:47 OP:cam  STATUS:               ID:20150710111031 L   I
 OLDACT:REG 15-07-10 20:31 OP:ar   STATUS:               ID:20150710110747     3
 2015-07-10-1107-47M.COL___337                                                 6
 STAT SP IPHASW D HRMM SECON CODA AMPLIT PERI AZIMU VELO AIN AR TRES W  DIS CAZ7
 BAR2 EZ EP       1110 50.75                             170    0.0810 23.2 185 
 BAR2 EZ ES       1111  5.17                             170   -0.5310 23.2 185 
 BAR2 EZ I        1111  7.20        48.7 0.08            169           23.2 185 
 PAM  EN ES       1111 10.77                             150    0.2610 78.6  41 
 PAM  EZ I        1111 13.62        39.5 0.63            155           78.6  41 
 RUS  HZ EP       1110 54.96                             143    0.0910  101 175 
 RUS  HE ES       1111 13.51                             143    0.3210  101 175 
 RUS  HZ I        1111 14.98        30.7 0.42            147            101 175 
 OCA  HN ES       1111 20.96                             129   -0.37 9  160 354 
 OCA  HZ I        1111 26.67        59.4 0.32            131            160 354 
 ZAR  HZ EP       1111  3.36                             122   -0.10 9  202 292 
 ZAR  HE ES       1111 29.01                             122    0.54 9  202 292 
 ZAR  HZ I        1111 35.79        44.3 0.30            123            202 292 
 NOR  HE ES       1111 34.07                             118   -0.33 8  233 234 
 NOR  HZ I        1111 42.61        17.0 0.20            120            233 234 
 SML  HZ EP       1111  7.44                             117   -0.32 8  243 336 
 SML  HN ES       1111 36.39                             117    0.27 8  243 336 
 SML  HZ I        1111 38.59        38.4 0.10            119            243 336 
                                                                                
