 2011  710 1622 38.0 L   6.771 -73.067142.5  RSN 10 0.4 2.5LRSN                1
 GAP=165        0.76       2.9     5.2  5.2 -0.1646E+01  0.6690E+00  0.2032E+01E
 Epicentro: LOS SANTOS - SANTANDER                                             3
 ACTION:UPD 12-07-25 13:59 OP:epov STATUS:               ID:20110710162238 L   I
 2011-07-10-1617-20S.COL___140                                                 6
 STAT SP IPHASW D HRMM SECON CODA AMPLIT PERI AZIMU VELO AIN AR TRES W  DIS CAZ7
 BAR2 SZ EP       1622 57.50                             170    0.2810 23.5 213 
 BAR2 SZ ES   1   1623 11.47                             170   -0.76 7 23.5 213 
 BAR2 SZ I        1623 14.25       154.3 0.21                          23.5 213 
 BRR  HZ IP     C 1622 59.36                             149    0.0410 80.3 298 
 BRR  HN ES       1623 16.22                             149    0.2410 80.3 298 
 BRR  HZ I        1623 19.35        66.2 0.22                          80.3 298 
 RUS  HZ EP       1623  1.37                             144    0.2110 97.2 181 
 RUS  HN ES   1   1623 19.26                             144    0.01 7 97.2 181 
 RUS  HZ I        1623 21.42        29.0 0.53                          97.2 181 
 BRI  SZ EP       1623  1.96                             141    0.3810  109  16 
 OCA  SZ EP       1623  5.94                             128   -0.51 9  165 350 
 OCA  SZ ES   1   1623 28.64                             128   -0.03 7  165 350 
 OCA  SZ I        1623 34.85        31.6 0.38                           165 350 
 NOR  SZ EP   1   1623 13.35                             117   -0.74 6  240 236 
 CHI  HZ EP       1623 15.37                             116   -0.05 8  248 197 
 CHI  HE ES   1   1623 44.47                             116   -0.17 6  248 197 
 CHI  HZ I        1623 54.38        17.7 0.68                           248 197 
 HEL  HZ EP   1   1623 18.50                             113   -0.38 6  280 257 
 HEL  HE ES   1   1623 51.05                             113    0.26 6  280 257 
 TOL  SZ EP   2   1623 26.33                             108   -0.22 3  347 226 
 PRA  HZ EP   2   1623 31.36                             106   -0.21 3  394 211 
 PRA  HE ES   1   1624 14.22                             106    0.84 4  394 211 
                                                                                
