 2011 1110 1346 22.6 L   6.782 -73.059149.5  RSN  4 0.3 1.5LRSN                1
 GAP=149        0.61       4.5     5.7  7.2  0.2302E+01 -0.5062E+01  0.5072E+01E
 Epicentro: LOS SANTOS - SANTANDER                                             3
 ACTION:UPD 12-07-13 16:09 OP:ep   STATUS:               ID:20111110134622 L   I
 2011-11-10-1345-36S.COL___178                                                 6
 STAT SP IPHASW D HRMM SECON CODA AMPLIT PERI AZIMU VELO AIN AR TRES W  DIS CAZ7
 BAR2 SZ EP   1   1346 42.54                             170   -0.19 7 25.0 213 
 BAR2 SZ I        1346 59.65         5.3 0.57                          25.0 213 
 PAM  SZ EP   1   1346 45.43                             153    0.44 7 73.3  33 
 PAM  SN ES   1   1347  2.24                             153   -0.22 7 73.3  33 
 BRR  HZ EP       1346 44.40                             150   -0.3110 80.6 297 
 BRR  HZ I        1346 47.26        17.0 0.48                          80.6 297 
 BRR  HE ES       1347  2.14                             150    0.1910 80.6 297 
 RUS  HZ EP   1   1346 46.84                             145    0.26 7 98.4 182 
 RUS  HE ES   1   1347  5.19                             145   -0.09 7 98.4 182 
 RUS  HZ I        1347  6.01         1.9 0.39                          98.4 182 
                                                                                
