 2017  210 1229 52.5 L   6.788 -73.070142.1  RSN  4 0.2 1.2LRSN                1
 GAP=147        0.65       3.5     4.7  5.9 -0.1200E+01 -0.7331E+01  0.2281E+01E
 Epicentro: LOS SANTOS - SANTANDER                                             3
 ACTION:UPD 17-05-24 15:34 OP:jn   STATUS:               ID:20170210122952 L   I
 OLDACT:REG 17-02-10 20:27 OP:and  STATUS:               ID:20170210122750     3
 2017-02-10-1228-00M.COL___358                                                 6
 STAT SP IPHASW D HRMM SECON CODA AMPLIT PERI AZIMU VELO AIN AR TRES W  DIS CAZ7
 PAM  EZ EP     C 1230 14.46                             151    0.3710 73.4  34 
 PAM  EN ES       1230 30.72                             151   -0.2110 73.4  34 
 PAM  EZ I        1230 33.65         2.4 0.50            152           73.4  34 
 BRR  HZ EP       1230 13.37                             149   -0.3610 79.2 296 
 BRR  HE ES       1230 30.50                             149    0.2110 79.2 296 
 RUS  HZ EP       1230 15.76                             143   -0.0210 99.0 181 
 RUS  HN ES       1230 33.95                             143    0.0110 99.0 181 
 RUS  HZ I        1230 34.92         2.5 0.34            145           99.0 181 
 PTB  HZ EP   9   1230 18.54                             129   -1.37 0  156 260 
 PTB  HN ES       1230 39.75                                   -0.17 9  156 260 
 PTB  HZ I        1230 42.26         3.4 0.10            131            156 260 
                                                                                
