 2011  910 1037 13.4 L   6.769 -73.083140.1  RSN  7 0.3 2.0LRSN                1
 GAP=189        0.55       3.1     5.1  4.7 -0.1286E+01  0.3121E+01  0.6294E+00E
 Epicentro: LOS SANTOS - SANTANDER                                             3
 ACTION:UPD 12-07-13 15:56 OP:ep   STATUS:               ID:20110910103713 L   I
 2011-09-10-1020-00M.COL___171                                                 6
 STAT SP IPHASW D HRMM SECON CODA AMPLIT PERI AZIMU VELO AIN AR TRES W  DIS CAZ7
 BAR2 SZ EP       1037 32.39                             170    0.0710 22.4 209 
 BAR2 SZ ES   1   1037 46.76                             170   -0.32 7 22.4 209 
 BAR2 SZ I        1037 48.37        13.8 0.14                          22.4 209 
 GIR2 SZ EP   1   1037 32.57                             165    0.03 7 36.4 340 
 BRR  HZ EP       1037 34.28                             149   -0.1110 78.9 298 
 BRR  HN ES   1   1037 50.89                             149    0.11 7 78.9 298 
 BRR  HZ I        1037 55.28        15.3 0.15                          78.9 298 
 RUS  HZ EP   1   1037 35.82                             144   -0.49 7 96.9 180 
 RUS  HN ES   1   1037 54.68                             144    0.48 7 96.9 180 
 RUS  HZ I        1037 56.07         8.7 0.32                          96.9 180 
 OCA  SZ EP   1   1037 41.98                             127    0.30 7  165 351 
 OCA  SZ I        1038  9.68         8.1 0.26                           165 351 
 NOR  SN ES   1   1038 17.07                             117   -0.06 6  238 236 
 PRA  HZ EP       1038  6.78                             106    0.01 6  393 211 
 PRA  HZ I        1038  8.79        11.3 0.14                           393 211 
 PRA  HN ES   1   1038 48.54                             106    0.12 4  393 211 
                                                                                
