 2017  510 1436 28.6 L   6.728 -73.230143.1  RSN  4 0.1 1.6LRSN                1
 GAP=222        0.43       3.1     3.1  3.8  0.4131E+01  0.1813E+01  0.2134E+01E
 Epicentro: VILLANUEVA - SANTANDER                                             3
 ACTION:UPD 17-06-16 13:34 OP:jn   STATUS:               ID:20170510143628 L   I
 OLDACT:REG 17-05-10 20:52 OP:lv   STATUS:               ID:20170510142738     3
 2017-05-10-1428-00M.COL___362                                                 6
 STAT SP IPHASW D HRMM SECON CODA AMPLIT PERI AZIMU VELO AIN AR TRES W  DIS CAZ7
 BRR  HZ EP       1436 49.37                             153    0.1410 67.8 308 
 BRR  HN ES       1437  5.32                             153   -0.0410 67.8 308 
 RUS  HZ EP       1436 51.30                             145   -0.2710 93.8 170 
 RUS  HN ES       1437  9.65                             145    0.1410 93.8 170 
 RUS  HZ I        1437 10.58         5.8 0.16            141           93.8 170 
 PTB  HZ EP       1436 54.45                             134    0.09 9  137 261 
 PTB  HN ES       1437 14.35                             134   -0.14 9  137 261 
 PTB  HZ I        1437 19.92         6.2 0.10            129            137 261 
 NOR  HZ EP       1437  2.89                             119    0.06 8  222 235 
 NOR  HN ES   2   1437 29.69                             119    0.14 4  222 235 
 NOR  HZ I        1437 36.47         3.4 0.08            117            222 235 
                                                                                
