 2017  510 1212 50.3 L   6.817 -73.139146.6  RSN 15 0.8 2.4LRSN                1
 GAP=112        1.63       5.1     5.1  8.9  0.3600E+01  0.9023E+01  0.5640E+01E
 Epicentro: LOS SANTOS - SANTANDER                                             3
 ACTION:UPD 17-06-16 13:34 OP:jn   STATUS:               ID:20170510121251 L   I
 OLDACT:UP  17-05-11 14:12 OP:jn   STATUS:               ID:20170510121251 L   3
 OLDACT:UP  17-05-11 12:56 OP:nlst STATUS:               ID:20170510121251 L   3
 OLDACT:REG 17-05-10 20:42 OP:lv   STATUS:               ID:20170510120737     3
 2017-05-10-1208-00M.COL___362                                                 6
 STAT SP IPHASW D HRMM SECON CODA AMPLIT PERI AZIMU VELO AIN AR TRES W  DIS CAZ7
 BRR  HZ IP     D 1213 11.96                             153    0.4110 71.0 297 
 BRR  HE ES       1213 28.96                             153    0.8510 71.0 297 
 BRR  HZ I        1213 30.55        66.4 0.28            151           71.0 297 
 PAM  EZ EP       1213 12.92                             151    0.4010 75.5  40 
 PAM  EN ES       1213 29.86                             151    0.0310 75.5  40 
 PAM  EZ I        1213 31.15        25.9 0.29            155           75.5  40 
 RUS  HZ EP       1213 14.09                             144   -0.2010  102 177 
 RUS  HN ES       1213 32.45                             144   -0.5310  102 177 
 RUS  HZ I        1213 33.55        25.4 0.29            144            102 177 
 PTB  HZ EP       1213 17.10                             132   -0.36 9  149 258 
 PTB  HN ES       1213 37.57                             132   -1.06 9  149 258 
 PTB  HZ I        1213 40.20        49.9 0.28            131            149 258 
 SPBC HZ EP       1213 19.51                             129    0.44 9  165 219 
 SPBC HN ES       1213 41.31                             129   -0.18 9  165 219 
 SPBC HZ I        1213 45.07        36.8 0.16            129            165 219 
 YPLC HZ EP       1213 20.57                             127    0.26 9  178 152 
 YPLC HN ES       1213 43.51                             127   -0.18 9  178 152 
 YPLC HZ I        1213 46.73        12.8 0.12            128            178 152 
 ZAR  HZ EP       1213 23.10                             123    0.28 9  204 292 
 ZAR  HN ES       1213 48.87                             123    0.70 9  204 292 
 ZAR  HZ I        1213 57.07        41.2 0.16            123            204 292 
 NOR  HZ EP       1213 26.70                             119    0.42 8  236 234 
 NOR  HN ES       1213 53.42                             119   -0.91 8  236 234 
 NOR  HZ I        1213 58.41        20.3 0.07            119            236 234 
 ROSC BZ EP       1213 29.49                             117    0.79 8  255 211 
 ROSC BN ES   4   1214  0.49                             117    1.85 0  255 211 
 HEL  HZ EP   4   1213 32.35                             115    1.64 0  273 255 
 HEL  HE ES       1214  2.94                             115    0.73 8  273 255 
 HEL  HZ I        1214  9.50        19.3 0.08            115            273 255 
 PTGC HZ EP       1213 33.70                             112   -0.68 7  310 159 
 PTGC HN ES   4   1214  6.45                             112   -2.30 0  310 159 
 PTGC HZ I        1214  8.61         6.9 0.23            113            310 159 
 CBOC HZ EP       1213 38.58                             110    1.16 7  335 252 
 CBOC HN ES       1214 13.66                             110   -0.49 7  335 252 
 CBOC HZ I        1214 17.15         3.2 0.32            110            335 252 
 ARGC HN ES   3   1214 20.43                             108    1.97 2  358 340 
 ORTC HZ EP   4   1213 45.95                             106    1.45 0  397 216 
 ORTC HN ES   4   1214 25.08                             106   -1.67 0  397 216 
 ORTC HZ I        1214 34.80         5.9 0.13            107            397 216 
 SJC  HZ EP       1213 44.49                             106   -1.29 6  408 327 
 SJC  HN ES       1214 26.19                             106   -2.84 6  408 327 
 SJC  HZ I        1214 30.08         7.8 0.34            107            408 327 
                                                                                
