 2011  610 1725 54.4 L   6.753 -73.093143.6  RSN  5 0.1 1.7LRSN                1
 GAP=165        0.34       2.2     3.6  4.1 -0.1929E+01  0.9442E-01 -0.2237E+01E
 Epicentro: LOS SANTOS - SANTANDER                                             3
 ACTION:UP  11-07-14 19:04 OP:ep   STATUS:               ID:20110610172554 L   I
 2011-06-10-1723-04S.COL___132                                                 6
 STAT SP IPHASW D HRMM SECON CODA AMPLIT PERI AZIMU VELO SNR AR TRES W  DIS CAZ7
 BAR2 SZ IP   1   1726 13.67                             172    -0.1 7   20 209 
 BAR2 SZ ES   1   1726 28.93                             172     0.1 7   20 209 
 BAR2 SZ I        1726 30.91        10.7 0.29                            20 209 
 BRR  HZ EP   1   1726 15.83                             150     0.0 7   79 300 
 BRR  HN ES   1   1726 32.32                             150    -0.2 7   79 300 
 BRR  HZ I        1726 36.63        13.8 0.13                            79 300 
 RUS  HN ES   1   1726 35.56                             145    -0.1 7   95 179 
 RUS  HZ I        1726 37.58         3.8 0.24                            95 179 
 GRA  SZ EP   1   1726 19.80                             136     0.0 7  129  14 
 GRA  SZ ES   1   1726 39.65                             136     0.1 7  129  14 
 GRA  SZ I        1726 40.20         8.6 0.34                           129  14 
 NOR  SN ES   2   1726 58.37                             118     0.2 4  237 236 
                                                                                
