 2010  510 1803 15.6 L   6.715 -73.009148.6  RSN  5 0.3 1.9LRSN                1
 GAP=223        0.52       6.2     9.2  7.1 -0.3190E+02 -0.2022E+02  0.6657E+01E
 Epicentro: ARATOCA - SANTANDER                                                3
 ACTION:UP  10-08-24 10:04 OP:vdl  STATUS:               ID:20100510180315 L   I
 2010-05-10-1802-50S.COL___104                                                 6
 STAT SP IPHASW D HRMM SECON CODA AMPLIT PERI AZIMU VELO SNR AR TRES W  DIS CAZ7
 BAR2 SZ EP   1   18 3 35.56                             170     0.0 7   24 235 
 BAR2 SZ ES   2   18 3 51.11                             170     0.0 5   24 235 
 BRR  HZ EP   1   18 3 38.29                             147     0.2 7   89 299 
 BRR  HE ES   2   18 3 55.41                             147    -0.3 5   89 299 
 BRR  HZ I        18 3 55.99        13.0 0.42                            89 299 
 BRI  SZ EP   1   18 3 40.04                             141    -0.1 7  113  12 
 BRI  SZ ES   2   18 3 59.34                             141     0.1 5  113  12 
 GUE  SZ EP   1   18 3 41.22                             138     0.1 7  124   4 
 GUE  SZ ES   2   18 4  1.79                             138     0.7 5  124   4 
 GRA  SZ EP   1   18 3 41.37                             136    -0.2 7  131  10 
 GRA  SZ ES   2   18 4  1.14                             136    -0.6 5  131  10 
                                                                                
