 2011  610 1157  1.6 L   6.768 -73.063143.8  RSN  4 0.2 1.5LRSN                1
 GAP=168        0.45       3.3     6.4  6.9 -0.3426E+01 -0.1784E+02 -0.8416E+00E
 Epicentro: LOS SANTOS - SANTANDER                                             3
 ACTION:UP  11-07-14 19:04 OP:ep   STATUS:               ID:20110610115701 L   I
 2011-06-10-1152-58S.COL___131                                                 6
 STAT SP IPHASW D HRMM SECON CODA AMPLIT PERI AZIMU VELO SNR AR TRES W  DIS CAZ7
 BAR2 SZ EP   2   1157 21.07                             170     0.0 5   24 214 
 BAR2 SZ ES   2   1157 36.29                             170     0.1 5   24 214 
 BAR2 SZ I        1157 38.92        10.2 0.29                            24 214 
 BRR  HZ EP   2   1157 22.82                             149    -0.3 5   81 298 
 BRR  HE ES   1   1157 40.03                             149     0.1 7   81 298 
 BRR  HZ I        1157 41.88        10.0 0.27                            81 298 
 RUS  HZ EP   2   1157 25.35                             144     0.4 5   97 181 
 RUS  HE ES   2   1157 42.76                             144    -0.3 5   97 181 
 RUS  HZ I        1157 45.05         3.0 0.36                            97 181 
 GRA  SZ EP   1   1157 26.79                             136     0.0 7  127  13 
 GRA  SZ ES   1   1157 46.39                             136     0.0 7  127  13 
 GRA  SZ I        1157 47.49         5.2 0.36                           127  13 
                                                                                
