 2013  210 1913 42.7 L   6.787 -73.142142.9  RSN 11 0.4 2.3LRSN                1
 GAP=138        0.79       2.6     3.5  4.6 -0.5911E+00  0.5213E+01  0.1600E+01E
 Epicentro: LOS SANTOS - SANTANDER                                             3
 ACTION:UPD 13-03-12 09:32 OP:ep   STATUS:               ID:20130210191342 L   I
 2013-02-10-1910-00M.COL___241                                                 6
 STAT SP IPHASW D HRMM SECON CODA AMPLIT PERI AZIMU VELO AIN AR TRES W  DIS CAZ7
 BAR2 SZ EP       1914  2.02                             171    0.0710 21.9 192 
 BAR2 SZ ES       1914 16.99                             171    0.0310 21.9 192 
 BAR2 SZ I        1914 17.85        56.0 0.26            171           21.9 192 
 BRR  HZ IP     C 1914  3.68                             152    0.0910 72.3 299 
 BRR  HN ES       1914 20.17                             152    0.2810 72.3 299 
 BRR  HN I        1914 21.19       107.0 0.29            149           72.3 299 
 PAM  SZ EP       1914  4.63                             150   -0.0210 78.3  39 
 PAM  SN ES       1914 21.56                             150   -0.2210 78.3  39 
 PAM  SZ I        1914 23.94        21.9 0.51            151           78.3  39 
 RUS  HZ EP       1914  6.08                             144    0.0310 99.1 176 
 RUS  HN ES       1914 24.13                             144   -0.1410 99.1 176 
 RUS  HN I        1914 25.92        29.5 0.26            146           99.1 176 
 PTB  HZ EP       1914  8.59                             131   -0.85 9  148 259 
 PTB  HE ES   1   1914 29.89                             131   -0.41 7  148 259 
 PTB  HZ I        1914 32.56        25.6 0.22            131            148 259 
 OCA  HN ES       1914 33.38                             129    0.44 9  162 353 
 OCA  HZ I        1914 39.13        14.4 0.28            128            162 353 
 ZAR  HZ EP   1   1914 15.07                             122    0.02 6  205 292 
 ZAR  HN ES   1   1914 39.92                             122   -0.37 6  205 292 
 ZAR  HZ I        1914 45.67        18.5 0.61            121            205 292 
 NOR  HZ EP       1914 18.21                             118    0.01 8  234 235 
 NOR  HE ES   1   1914 45.78                             118   -0.11 6  234 235 
 NOR  HZ I        1914 48.03        14.5 0.28            118            234 235 
 SML  HZ EP   1   1914 18.81                             117   -0.51 6  245 335 
 CHI  HZ EP       1914 20.52                             117    0.43 8  247 195 
 CHI  HN ES   1   1914 49.54                             117    0.29 6  247 195 
 HEL  HZ EP   1   1914 23.34                             114    0.58 6  272 256 
 HEL  HN ES   1   1914 54.83                             114    0.81 6  272 256 
 HEL  HN I        1915  1.53        13.1 0.29            114            272 256 
                                                                                
