 2014  610 1507  1.5 L   6.640 -73.219151.3  RSN  5 0.2 1.9LRSN                1
 GAP=190        0.56       4.7     5.0  5.3  0.1387E+02  0.2224E+01 -0.1069E+01E
 Epicentro: BARICHARA - SANTANDER                                              3
 ACTION:UPD 14-07-01 22:52 OP:nd   STATUS:               ID:20140610150701 L   I
 OLDACT:REG 14-06-10 20:35 OP:fm   STATUS:               ID:20140610145818     3
 2014-06-10-1458-18M.COL___259                                                 6
 STAT SP IPHASW D HRMM SECON CODA AMPLIT PERI AZIMU VELO AIN AR TRES W  DIS CAZ7
 BAR2 SZ EP       15 7 21.44                             177   -0.1510 6.65 143 
 BAR2 SZ ES   1   15 7 36.80                             177   -0.45 7 6.65 143 
 BAR2 SZ I        15 7 37.75        23.2 0.18            176           6.65 143 
 BRR  HZ EP       15 7 23.70                             152    0.2310 75.1 313 
 BRR  HN ES       15 7 40.72                             152    0.1210 75.1 313 
 BRR  HZ I        15 7 42.21        14.6 0.28            152           75.1 313 
 RUS  HZ EP   1   15 7 24.54                             150   -0.16 7 84.0 170 
 RUS  HN ES       15 7 43.09                             150    0.2810 84.0 170 
 RUS  HZ I        15 7 44.99         8.1 0.54            150           84.0 170 
 PTB  HZ EP   1   15 7 27.82                             135   -0.19 7  137 265 
 PTB  HN ES   1   15 7 48.54                             135   -0.16 7  137 265 
 PTB  HZ I        15 7 50.33         6.9 0.10            135            137 265 
 ZAR  HN ES   2   15 8  0.11                             124    0.18 4  204 298 
 ZAR  HZ I        15 8  2.37         7.0 0.14            124            204 298 
                                                                                
