 2014 1010 1348 40.1 L   6.770 -73.237138.6  RSN  5 0.3 1.6LRSN                1
 GAP=119        0.92       4.7     4.5  6.8 -0.1783E+01  0.3570E+01  0.1391E+01E
 Epicentro: ZAPATOCA - SANTANDER                                               3
 ACTION:UPD 14-11-29 23:48 OP:nd   STATUS:               ID:20141010134840 L   I
 OLDACT:DUP 14-10-11 00:00 OP:stll STATUS:               ID:20141010133746d    3
 2014-10-10-1337-45M.COL___289                                                 6
 STAT SP IPHASW D HRMM SECON CODA AMPLIT PERI AZIMU VELO AIN AR TRES W  DIS CAZ7
 BAR2 SZ EP       1348 58.71                             171   -0.1310 20.5 163 
 BAR2 SZ ES       1349 13.16                             171   -0.2710 20.5 163 
 BAR2 SZ I        1349 14.73        11.1 0.26            156           20.5 163 
 BRR  HZ EP       1349  0.56                             154    0.4410 64.4 305 
 BRR  HN ES       1349 16.27                             154    0.5610 64.4 305 
 PAM  SZ I        1349  1.81        10.1 0.16            157           86.6  43 
 PAM  SZ EP       1349  1.83                             146   -0.3510 86.6  43 
 PAM  SN ES       1349 19.24                             146   -0.1410 86.6  43 
 RUS  HZ EP       1349  3.39                             143    0.3710 98.5 170 
 RUS  HE ES       1349 21.00                             143    0.1210 98.5 170 
 RUS  HZ I        1349 23.37         3.2 0.16            132           98.5 170 
 PTB  HZ EP       1349  5.42                             133   -0.13 9  137 259 
 PTB  HN ES       1349 24.85                             133   -0.53 9  137 259 
 PTB  HZ I        1349 28.97         8.3 0.12            123            137 259 
                                                                                
