 2012  710 1316 58.1 L   6.741 -73.187149.8  RSN  4 0.2 1.3LRSN                1
 GAP=228        0.52       6.2     5.4  5.9  0.1788E+02  0.5635E+01  0.6989E+01E
 Epicentro: VILLANUEVA - SANTANDER                                             3
 ACTION:UPD 12-08-14 11:44 OP:ep   STATUS:               ID:20120710131658 L   I
 2012-07-10-1310-00M.COL___201                                                 6
 STAT SP IPHASW D HRMM SECON CODA AMPLIT PERI AZIMU VELO AIN AR TRES W  DIS CAZ7
 BAR2 SZ EP   1   1317 18.16                             173     0.1 7   16 178 
 BAR2 SZ ES   1   1317 33.33                             173    -0.3 7   16 178 
 BAR2 SZ I        1317 36.27         5.8 0.37            163             16 178 
 BRR  HN ES   1   1317 36.69                             153     0.2 7   71 305 
 RUS  HZ EP   1   1317 21.71                             146    -0.1 7   95 173 
 RUS  HN ES   1   1317 40.56                             146     0.2 7   95 173 
 RUS  HZ I        1317 43.52         1.9 0.18            143             95 173 
 PTB  HZ EP   1   1317 24.83                             134     0.0 7  142 261 
 PTB  HN ES   1   1317 45.69                             134    -0.1 7  142 261 
 PTB  HZ I        1317 52.45         2.3 0.13            131            142 261 
