 2010 1010 1817  8.1 L   6.821 -73.145146.8  RSN 12 0.6 2.7LRSN                1
 GAP=172        1.45       5.6     7.3  9.1 -0.1258E+02  0.1360E+02  0.5097E+01E
 Epicentro: LOS SANTOS - SANTANDER                                             3
 ACTION:UP  11-02-18 11:08 OP:tino STATUS:               ID:20101010181708 L   I
 2010-10-10-1815-34S.COL___121                                                 6
 STAT SP IPHASW D HRMM SECON CODA AMPLIT PERI AZIMU VELO SNR AR TRES W  DIS CAZ7
 BTL  SZ EP       1817 28.05                             173     0.310   17 308 
 BAR2 SZ EP       1817 27.69                             170    -0.210   26 190 
 BAR2 SZ ES   1   1817 42.34                             170    -1.0 7   26 190 
 BAR2 SZ I        1817 43.71       164.5 0.47                            26 190 
 BRR  HZ EP       1817 29.68                             153     0.410   70 297 
 BRR  HN ES       1817 46.61                             153     0.810   70 297 
 BRR  HZ I        1817 48.14        78.6 0.32                            70 297 
 GUE  SZ EP       1817 32.79                             140     0.110  114  12 
 GRA  SZ EP       1817 33.62                             138     0.410  123  18 
 GRA  SZ ES   1   1817 52.95                             138     0.1 7  123  18 
 GRA  SZ I        1817 54.61        83.2 0.59                           123  18 
 OCA  SZ EP       1817 35.66                             130    -0.6 9  158 353 
 OCA  SZ ES   1   1817 57.96                             130    -0.3 7  158 353 
 OCA  SZ I        1817 59.98        47.4 0.71                           158 353 
 NOR  SZ EP       1817 44.10                             119     0.0 8  236 234 
 NOR  SN ES       1818 11.52                             119    -0.6 8  236 234 
 CHI  HZ EP       1817 46.02                             117    -0.1 8  251 195 
 CHI  HZ I        1817 47.78        17.2 0.46                           251 195 
 CHI  HN ES   2   1818 15.29                             117    -0.4 4  251 195 
 HEL  HZ EP   1   1817 49.92                             115     1.5 6  273 255 
 HEL  HN ES   2   1818 20.39                             115     0.5 4  273 255 
 HEL  HZ I        1818 24.73        25.4 0.25                           273 255 
 DBB  SZ EP       1817 56.65                             110     1.0 7  339 274 
 DBB  SZ ES   1   1818 32.10                             110    -0.6 5  339 274 
 MON  HZ EP       1817 55.54                             109    -1.4 6  351 308 
 MON  HN ES       1818 34.26                             109    -0.8 6  351 308 
 MON  HZ I        1818 34.81         6.9 0.11                           351 308 
 PRA  HZ EP   1   1818  1.92                             107     0.0 4  394 209 
 PRA  HZ I        1818  4.69        61.7 0.26                           394 209 
 PRA  HN ES   2   1818 43.52                             107    -0.3 3  394 209 
                                                                                
