 2013  110 1622 37.4 L   6.766 -73.149143.9  RSN  6 0.5 2.0LRSN                1
 GAP=138        1.23       6.2     5.8  8.9 -0.8598E+01  0.9809E+01  0.4568E+01E
 Epicentro: LOS SANTOS - SANTANDER                                             3
 ACTION:UPD 13-02-15 09:13 OP:ep   STATUS:               ID:20130110162237 L   I
 2013-01-10-1618-42M.COL___196                                                 6
 STAT SP IPHASW D HRMM SECON CODA AMPLIT PERI AZIMU VELO AIN AR TRES W  DIS CAZ7
 BAR2 SZ EP       1622 56.79                             172    0.0210 19.5 191 
 BAR2 SZ ES       1623 11.56                             172   -0.3010 19.5 191 
 BAR2 SZ I        1623 13.13        22.3 0.20            174           19.5 191 
 BRR  HZ EP       1622 58.73                             152    0.2610 72.7 301 
 BRR  HN ES       1623 15.83                             152    0.9510 72.7 301 
 BRR  HN I        1623 19.85        25.3 0.20            151           72.7 301 
 PAM  SZ EP       1622 59.65                             149    0.0010 80.6  38 
 PAM  SZ I        1622 59.99        11.1 0.22            150           80.6  38 
 PAM  SN ES       1623 16.60                             149   -0.3810 80.6  38 
 RUS  HZ EP       1623  1.11                             144    0.3710 96.8 176 
 RUS  HN ES       1623 18.95                             144    0.0410 96.8 176 
 PTB  HZ EP       1623  3.61                             132   -0.54 9  147 260 
 PTB  HN ES       1623 24.15                             132   -0.84 9  147 260 
 PTB  HN I        1623 25.68        11.2 0.16            133            147 260 
 NOR  HN ES       1623 40.76                             118    0.40 8  232 235 
                                                                                
