 2011 1110 1931 36.1 L   6.771 -73.060148.5  RSN  4 0.3 1.5LRSN                1
 GAP=149        0.59       4.2     6.2  7.4 -0.2251E+01 -0.5552E+01  0.2708E+01E
 Epicentro: LOS SANTOS - SANTANDER                                             3
 ACTION:UPD 12-07-13 16:09 OP:ep   STATUS:               ID:20111110193136 L   I
 2011-11-10-1929-08S.COL___178                                                 6
 STAT SP IPHASW D HRMM SECON CODA AMPLIT PERI AZIMU VELO AIN AR TRES W  DIS CAZ7
 BAR2 SZ EP   1   1931 55.51                             170   -0.52 7 23.9 214 
 BAR2 SZ I        1932 13.27         5.7 0.36                          23.9 214 
 PAM  SZ EP       1931 58.39                             152    0.0010 74.4  32 
 PAM  SE ES   1   1932 15.89                             152    0.08 7 74.4  32 
 BRR  HZ EP   1   1931 58.52                             150    0.45 7 81.0 297 
 BRR  HZ I        1932  0.68        15.7 0.25                          81.0 297 
 BRR  HN ES   1   1932 15.10                             150   -0.15 7 81.0 297 
 RUS  HZ EP   1   1931 59.80                             145   -0.04 7 97.2 181 
 RUS  HE ES   1   1932 18.57                             145    0.18 7 97.2 181 
 RUS  HZ I        1932 19.50         2.4 0.26                          97.2 181 
                                                                                
