 2010  910 1350 28.4 L   6.612 -73.192150.8  RSN  5 0.2 1.8LRSN                1
 GAP=156        0.50      10.7    11.8  9.1  0.4018E+02 -0.4693E+02 -0.4293E+02E
 Epicentro: BARICHARA - SANTANDER                                              3
 ACTION:UP  11-02-18 11:01 OP:tino STATUS:               ID:20100910135028 L   I
 2010-09-10-1347-45S.COL___120                                                 6
 STAT SP IPHASW D HRMM SECON CODA AMPLIT PERI AZIMU VELO SNR AR TRES W  DIS CAZ7
 BAR2 SZ EP   1   1350 48.59                             179     0.2 7    2 158 
 BAR2 SZ ES   2   1351  3.94                             179    -0.1 5    2 158 
 BAR2 SZ I        1351  7.24         8.9 0.65                             2 158 
 BTL  SZ EP   1   1350 49.03                             166     0.1 7   35 346 
 GIR2 SZ EP   2   1350 48.73                             160    -0.7 5   52 360 
 BRR  HZ EP   1   1350 50.50                             151    -0.1 7   79 314 
 BRR  HZ I        1350 52.06        17.2 0.47                            79 314 
 BRR  HE ES   2   1351  7.99                             151     0.1 5   79 314 
 GUE  SZ EP   1   1350 55.50                             135     0.1 7  138  12 
                                                                                
