 2015 1010 1252 32.0 L   6.769 -73.159144.4  RSN 21 0.5 2.7LRSN                1
 GAP= 71        1.06       2.4     2.9  4.8 -0.7852E+00  0.4954E+01  0.1091E+01E
 Epicentro: LOS SANTOS - SANTANDER                                             3
 ACTION:UPD 15-12-22 20:38 OP:cam  STATUS:               ID:20151010125232 L   I
 OLDACT:REG 15-10-10 21:33 OP:ak   STATUS:               ID:20151010124748     3
 2015-10-10-1247-48M.COL___337                                                 6
 STAT SP IPHASW D HRMM SECON CODA AMPLIT PERI AZIMU VELO AIN AR TRES W  DIS CAZ7
 BAR2 EZ IP     D 1252 51.46                             172    0.0310 19.8 188 
 BAR2 EZ ES       1253  6.66                             172    0.1010 19.8 188 
 BAR2 EZ I        1253  7.61       103.8 0.18            171           19.8 188 
 BRR  HZ IP     D 1252 53.46                             152    0.4110 71.6 301 
 BRR  HN ES       1253  9.92                             152    0.4610 71.6 301 
 BRR  HZ I        1253 12.36       110.4 0.18            149           71.6 301 
 PAM  EZ IP     D 1252 54.48                             150    0.1710 80.9  39 
 PAM  EN ES       1253 11.78                             150    0.0810 80.9  39 
 PAM  EZ I        1253 14.27        63.3 0.60            152           80.9  39 
 RUS  HZ EP       1252 54.99                             145   -0.4210 97.3 175 
 RUS  HE ES       1253 13.57                             145   -0.0810 97.3 175 
 RUS  HZ I        1253 15.01        72.0 0.32            146           97.3 175 
 TAM  HZ IP     D 1252 59.70                             130    0.05 9  156 104 
 TAM  HN ES       1253 20.62                             130   -0.57 9  156 104 
 TAM  HZ I        1253 22.65        31.4 0.60            133            156 104 
 SPBC HZ EP       1253  0.47                             129    0.38 9  160 219 
 SPBC HN ES       1253 22.08                             129    0.11 9  160 219 
 SPBC HZ I        1253 25.60        62.9 0.17            129            160 219 
 OCA  HZ EP       1253  0.04                             129   -0.49 9  163 354 
 OCA  HN ES       1253 22.35                             129   -0.42 9  163 354 
 OCA  HZ I        1253 28.38       120.1 0.34            129            163 354 
 ZAR  HZ EP       1253  4.42                             122    0.04 9  204 293 
 ZAR  HN ES       1253 29.82                             122    0.20 9  204 293 
 ZAR  HZ I        1253 36.84        50.4 0.19            121            204 293 
 NOR  HZ EP       1253  7.63                             119    0.29 8  232 235 
 NOR  HE ES       1253 34.65                             119   -0.24 8  232 235 
 NOR  HZ I        1253 40.66        26.7 0.22            118            232 235 
 CHI  HZ EP       1253  9.36                             117    0.11 8  245 195 
 CHI  HN ES       1253 38.38                             117    0.09 8  245 195 
 CHI  HZ I        1253 48.38        12.1 0.28            118            245 195 
 SML  HZ EP       1253  8.12                             117   -0.73 8  246 336 
 SML  HN ES       1253 38.21                             117    0.65 8  246 336 
 SML  HZ I        1253 48.70        75.5 0.10            117            246 336 
 ROSC BZ IP       1253  9.36                             117   -0.32 8  249 211 
 ROSC BZ EP       1253  9.36                             117            249 211 
 ROSC BE ES       1253 39.48                             117    0.44 8  249 211 
 ROSC BZ I        1253 47.06        37.5 0.40            117            249 211 
 HEL  HZ EP       1253 13.05                             115    1.13 8  270 256 
 HEL  HN ES       1253 41.92                             115   -1.12 8  270 256 
 HEL  HZ I        1253 51.67        21.9 0.38            114            270 256 
 URE  HZ EP       1253 12.38                             113   -0.64 7  284 293 
 URE  HE ES   4   1253 43.12                             113   -1.88 0  284 293 
 URE  HZ I        1253 56.40        40.4 0.34            113            284 293 
 ELA  HZ EP   1   1253 19.14                             110    0.70 5  326 230 
 ELA  HN ES       1253 54.10                             110   -0.55 7  326 230 
 ELA  HZ I        1254  4.19        20.4 0.36            110            326 230 
 DBB  SZ EP       1253 20.14                             109    0.83 7  338 275 
 DBB  SZ ES       1253 55.26                             109   -0.94 7  338 275 
 ANIL HZ EP       1253 21.59                             108    0.21 6  354 225 
 ANIL HE ES       1253 59.80                             108   -0.08 6  354 225 
 ANIL HZ I        1254  5.10        42.5 0.44            109            354 225 
 SDV  BZ EP   4   1253 21.03                             108   -1.36 0  364  50 
 SDV  BE ES   4   1253 58.46                             108   -3.22 0  364  50 
 SDV  BZ I        1254  4.02         6.4 0.70            109            364  50 
 ORTC HZ EP       1253 26.14                             106    0.66 6  392 216 
 ORTC HE ES       1254  6.78                             106   -0.39 6  392 216 
 ORTC HZ I        1254 15.28         8.7 0.40            107            392 216 
 SJC  HZ EP   4   1253 24.54                             105   -3.24 0  411 327 
 SJC  HN ES   4   1254  6.05                             105   -5.23 0  411 327 
 SJC  HZ I        1254 11.21         6.7 0.23            106            411 327 
 CRJC HZ EP   4   1253 31.96                             103   -2.94 0  471   4 
 CRJC HN ES   4   1254 19.47                             103   -4.47 0  471   4 
 CRJC HZ I        1254 30.07         8.4 0.08            104            471   4 
                                                                                
