 2013  310 1430 34.2 L   6.271 -73.671105.3  RSN 10 0.5 2.4LRSN                1
 GAP= 86        1.18       3.4     3.3  8.7 -0.2407E+00  0.1091E+02 -0.1825E+01E
 Epicentro: SANTA HELENA DEL OPON - SANTANDER                                  3
 ACTION:UPD 13-04-09 14:01 OP:ep   STATUS:               ID:20130310143034 L   I
 2013-03-10-1428-49M.COL___198                                                 6
 STAT SP IPHASW D HRMM SECON CODA AMPLIT PERI AZIMU VELO AIN AR TRES W  DIS CAZ7
 BAR2 SZ IP       1430 51.54                             146    0.4710 64.7  57 
 BAR2 SZ ES       1431  4.54                             146    0.3310 64.7  57 
 BAR2 SZ I        1431  6.15       326.2 0.24            149           64.7  57 
 RUS  HZ EP       1430 52.47                             141    0.1310 77.4 123 
 RUS  HN ES       1431  6.25                             141   -0.2210 77.4 123 
 RUS  HN I        1431  7.57        51.3 0.36            146           77.4 123 
 PTB  HZ EP       1430 51.72                             136   -1.1310 91.8 289 
 PTB  HN I        1431 11.59        65.3 0.28            134           91.8 289 
 BRR  HZ EP       1430 52.72                             135   -0.1810 92.6 357 
 BRR  HZ I        1430 53.29        30.9 0.42            135           92.6 357 
 PAM  SZ EP       1431  0.58                             119    0.45 9  160  42 
 PAM  SN ES       1431 19.98                             119   -0.36 9  160  42 
 PAM  SN I        1431 21.61        31.8 0.56            121            160  42 
 CHI  HZ EP       1431  2.13                             115   -0.28 9  182 182 
 CHI  HN ES       1431 24.42                             115    0.02 9  182 182 
 CHI  HN I        1431 28.28        18.7 0.24            117            182 182 
 ZAR  HZ EP       1431  2.32                             114   -0.32 9  188 316 
 ZAR  HN ES       1431 24.49                             114   -0.31 9  188 316 
 HEL  HZ EP       1431  5.23                             112    0.17 8  206 268 
 HEL  HN ES       1431 30.17                             112    1.06 8  206 268 
 HEL  HN I        1431 31.20        18.5 0.24            112            206 268 
 TAM  HZ EP       1431  5.30                             111    0.30 8  209  85 
 TAM  HN ES       1431 28.84                             111   -0.16 8  209  85 
 OCA  HN ES       1431 32.08                             110    0.34 8  221  10 
 OCA  HN I        1431 41.41        61.2 0.18            111            221  10 
                                                                                
