 2012  410 1423  8.6 L   6.790 -73.141144.0  RSN  6 0.4 1.7LRSN                1
 GAP=138        1.08       7.1     7.2 10.0  0.6639E+01  0.1311E+02 -0.1708E+01E
 Epicentro: LOS SANTOS - SANTANDER                                             3
 ACTION:UPD 12-07-05 11:52 OP:tino STATUS:               ID:20120410142308 L   I
 2012-04-10-1419-38M.COL___175                                                 6
 STAT SP IPHASW D HRMM SECON CODA AMPLIT PERI AZIMU VELO AIN AR TRES W  DIS CAZ7
 BAR2 SZ EP       1423 27.99                             171     0.010   22 192 
 BAR2 SZ I        1423 28.36        10.2 0.10                            22 192 
 BAR2 SZ ES   1   1423 42.76                             171    -0.4 7   22 192 
 BRR  HZ EP       1423 29.77                             152     0.110   72 299 
 BRR  HE ES   1   1423 46.86                             152     0.8 7   72 299 
 PAM  SZ EP       1423 30.90                             150     0.210   78  39 
 PAM  SZ I        1423 31.14         9.2 0.18                            78  39 
 PAM  SN ES   1   1423 47.33                             150    -0.5 7   78  39 
 RUS  HZ EP   1   1423 32.42                             144     0.3 7   99 176 
 RUS  HN ES   1   1423 50.45                             144     0.0 7   99 176 
 RUS  HZ I        1423 52.11         8.5 0.32                            99 176 
 PTB  HZ EP   1   1423 34.76                             131    -0.7 7  148 259 
 PTB  HZ I        1423 58.30         3.6 0.16                           148 259 
 ZAR  HN ES   1   1424  5.92                             122    -0.4 6  205 292 
 ZAR  HZ I        1424 12.41         6.1 0.23                           205 292 
                                                                                
