 2011  610 1358 49.1 L   6.707 -72.804132.2  RSN  4 0.3 1.8LRSN                1
 GAP=199        0.66       4.4     9.8  9.3  0.4368E+01 -0.5152E+02 -0.8520E+01E
 Epicentro: MOLAGAVITA - SANTANDER                                             3
 ACTION:UP  11-07-14 19:04 OP:ep   STATUS:               ID:20110610135849 L   I
 2011-06-10-1352-55S.COL___132                                                 6
 STAT SP IPHASW D HRMM SECON CODA AMPLIT PERI AZIMU VELO SNR AR TRES W  DIS CAZ7
 BAR2 SZ EP   1   1359  7.26                             160    -0.5 7   44 253 
 BAR2 SZ ES       1359 22.21                             160    -0.110   44 253 
 BAR2 SZ I        1359 23.33        16.0 0.15                            44 253 
 RUS  HZ EP   1   1359 11.52                             142     0.4 7   95 199 
 RUS  HE ES   1   1359 28.30                             142     0.0 7   95 199 
 RUS  HZ I        1359 31.50         4.4 0.31                            95 199 
 BRR  HE ES   1   1359 29.24                             137     0.1 7  110 294 
 BRR  HZ I        1359 29.95        24.5 0.18                           110 294 
 BRI  SZ EP   1   1359 11.85                             137    -0.1 7  112   0 
 BRI  SZ I        1359 12.55         9.2 0.08                           112   0 
 BRI  SZ ES   2   1359 30.04                             137     0.2 5  112   0 
                                                                                
