 2015  610 1100  6.3 L   6.816 -73.106142.4  RSN 12 0.5 1.8LRSN                1
 GAP=204        1.25       3.9     6.2  7.0  0.4518E+01  0.1386E+02  0.3203E+01E
 Epicentro: LOS SANTOS - SANTANDER                                             3
 ACTION:UPD 15-09-10 22:11 OP:cam  STATUS:               ID:20150610110006 L   I
 OLDACT:REG 15-06-10 21:28 OP:ak   STATUS:               ID:20150610105751     3
 2015-06-10-1057-51M.COL___294                                                 6
 STAT SP IPHASW D HRMM SECON CODA AMPLIT PERI AZIMU VELO AIN AR TRES W  DIS CAZ7
 BAR2 EZ EP       11 0 25.65                             169    0.1110 26.1 199 
 BAR2 EZ ES       11 0 40.36                             169   -0.2210 26.1 199 
 BAR2 EZ I        11 0 43.07         7.1 0.12            165           26.1 199 
 BRR  HZ EP       11 0 27.44                             151    0.2210 74.3 296 
 BRR  HE ES       11 0 44.54                             151    0.9710 74.3 296 
 BRR  HZ I        11 0 48.70        14.7 0.46            149           74.3 296 
 RUS  HZ EP       11 0 30.31                             143    0.5210  102 179 
 RUS  HN ES       11 0 47.69                             143   -0.4610  102 179 
 RUS  HZ I        11 0 51.17         4.1 0.38            144            102 179 
 ZAR  HZ EP       11 0 39.74                             121    0.90 8  207 291 
 ZAR  HE ES       11 1  3.51                             121   -0.74 8  207 291 
 ZAR  HZ I        11 1  9.90         7.7 0.45            122            207 291 
 NOR  HZ EP       11 0 42.08                             117   -0.21 8  239 235 
 NOR  HN ES       11 1 10.13                             117   -0.26 8  239 235 
 NOR  HZ I        11 1 16.14         5.2 0.16            118            239 235 
 SML  HZ EP       11 0 41.96                             117   -0.76 8  244 334 
 SML  HN ES       11 1 10.51                             117   -0.66 8  244 334 
 SML  HZ I        11 1 12.89         7.3 0.10            119            244 334 
 CHI  HZ EP       11 0 43.59                             116   -0.49 8  252 196 
 CHI  HN ES       11 1 13.16                             116   -0.43 8  252 196 
 CHI  HZ I        11 1 19.30         3.1 0.21            118            252 196 
 HEL  HZ EP   1   11 0 47.04                             114    0.22 6  277 256 
 HEL  HN ES       11 1 17.97                             114   -0.49 7  277 256 
 HEL  HZ I        11 1 25.40         4.1 0.40            115            277 256 
 GUY2CHZ EP       11 0 51.11                             111    0.88 7  306 235 
 GUY2CHN ES       11 1 25.08                             111    0.55 7  306 235 
 GUY2CHZ I        11 1 34.06         3.6 0.48                           306 235 
 MON  HZ EP   4   11 0 51.96                             108   -3.44 0  356 308 
 MON  HN ES   4   11 1 31.31                             108   -2.42 0  356 308 
 MON  HZ I        11 1 35.63         1.5 0.32            109            356 308 
 PRA  HZ EP       11 1  0.24                             106    0.14 6  396 210 
 PRA  HN ES       11 1 41.97                             106   -0.12 6  396 210 
 PRA  HZ I        11 1 48.70         4.1 0.28            107            396 210 
 SJC  HZ EP   4   11 0 59.44                             105   -2.38 0  410 326 
 SJC  HN ES   4   11 1 40.87                             105   -4.28 0  410 326 
 SJC  HZ I        11 1 44.94         2.1 0.56            107            410 326 
                                                                                
