 2011 1010 1350 14.2 L   6.752 -73.100140.8  RSN  5 0.3 1.6LRSN                1
 GAP=145        0.68       4.3     6.1  6.5  0.6196E+00 -0.9333E+00  0.2485E+00E
 Epicentro: LOS SANTOS - SANTANDER                                             3
 ACTION:UPD 12-07-13 16:03 OP:ep   STATUS:               ID:20111010135014 L   I
 2011-10-10-1346-18S.COL___168                                                 6
 STAT SP IPHASW D HRMM SECON CODA AMPLIT PERI AZIMU VELO AIN AR TRES W  DIS CAZ7
 BAR2 SZ EP       1350 32.83                             172   -0.3210 19.8 207 
 BAR2 SZ I        1350 33.11         7.7 0.36                          19.8 207 
 BAR2 SZ ES   1   1350 47.61                             172   -0.33 7 19.8 207 
 BRR  HZ EP       1350 34.98                             149   -0.2410 78.2 300 
 BRR  HN ES   1   1350 52.17                             149    0.54 7 78.2 300 
 BRR  HZ I        1350 52.82         9.2 0.46                          78.2 300 
 PAM  SZ EP       1350 35.97                             149    0.0210 78.7  34 
 PAM  SN ES   1   1350 53.06                             149    0.13 7 78.7  34 
 RUS  HZ EP       1350 37.42                             144    0.3810 95.0 179 
 RUS  HN ES   1   1350 54.86                             144   -0.02 7 95.0 179 
 ZAR  HZ EP   3   1350 47.58                             120    0.57 2  211 293 
 ZAR  HE ES   3   1351 11.60                             120   -1.02 2  211 293 
 ZAR  HZ I        1351 13.68         2.8 0.12                           211 293 
                                                                                
