 2011  210 1040 47.7 L   6.753 -73.228147.9  RSN  5 0.2 1.5LRSN                1
 GAP=168        0.49       3.3     7.6  6.0 -0.1169E+01  0.9906E+01 -0.6072E+01E
 Epicentro: VILLANUEVA - SANTANDER                                             3
 ACTION:UP  11-03-28 15:07 OP:jfem STATUS:               ID:20110210104047 L   I
 2011-02-10-1038-42S.COL___136                                                 6
 STAT SP IPHASW D HRMM SECON CODA AMPLIT PERI AZIMU VELO SNR AR TRES W  DIS CAZ7
 BAR2 SZ EP   1   1041  7.41                             173    -0.1 7   18 165 
 BAR2 SZ ES   1   1041 22.68                             173    -0.2 7   18 165 
 BAR2 SZ I        1041 24.04         7.0 0.34                            18 165 
 BTL  SZ EP   1   1041  7.62                             172     0.1 7   19 347 
 RUS  HZ EP       1041 11.18                             145    -0.210   96 170 
 RUS  HN ES   1   1041 30.17                             145     0.4 7   96 170 
 RUS  HZ I        1041 30.86         3.1 0.34                            96 170 
 OCA  SZ EP   1   1041 16.66                             129     0.1 7  165 356 
 OCA  SZ ES   2   1041 39.20                             129     0.1 5  165 356 
 OCA  SZ I        1041 42.31         4.6 0.31                           165 356 
 NOR  SN ES   2   1041 49.56                             120     0.0 4  224 234 
                                                                                
