 2010  910 1214  1.4 L   6.728 -73.056144.0  RSN  5 0.3 1.9LRSN                1
 GAP=211        0.58       7.6    10.5  8.8 -0.2884E+02 -0.2759E+02 -0.9497E+01E
 Epicentro: ARATOCA - SANTANDER                                                3
 ACTION:UP  11-02-18 11:01 OP:tino STATUS:               ID:20100910121401 L   I
 2010-09-10-1210-58S.COL___120                                                 6
 STAT SP IPHASW D HRMM SECON CODA AMPLIT PERI AZIMU VELO SNR AR TRES W  DIS CAZ7
 BAR2 SZ EP   1   1214 20.95                             172     0.2 7   21 223 
 BAR2 SZ ES   2   1214 35.74                             172    -0.2 5   21 223 
 BAR2 SZ I        1214 37.79        12.4 0.42                            21 223 
 GIR2 SZ EP   2   1214 21.08                             163    -0.1 5   42 339 
 GIR2 SZ ES   3   1214 37.21                             163     0.6 2   42 339 
 BRR  HZ EP   1   1214 22.84                             148    -0.3 7   84 300 
 BRR  HZ I        1214 23.13        24.8 0.19                            84 300 
 BRR  HE ES   2   1214 40.27                             148     0.2 5   84 300 
 GUE  SZ EP   1   1214 26.98                             137     0.5 7  123   7 
 GRA  SZ EP   1   1214 26.77                             135    -0.2 7  131  12 
 GRA  SZ I        1214 27.89         7.3 0.24                           131  12 
 GRA  SZ ES   2   1214 46.52                             135    -0.3 5  131  12 
                                                                                
