 2011  810 1157 15.6 L   6.792 -73.126144.3  RSN  6 0.4 2.1LRSN                1
 GAP=139        0.87       4.1     7.5  7.3 -0.1798E+01  0.7723E+01 -0.1887E+01E
 Epicentro: LOS SANTOS - SANTANDER                                             3
 ACTION:UPD 12-07-25 14:07 OP:epov STATUS:               ID:20110810115715 L   I
 2011-08-10-1155-13S.COL___150                                                 6
 STAT SP IPHASW D HRMM SECON CODA AMPLIT PERI AZIMU VELO AIN AR TRES W  DIS CAZ7
 BAR2 SZ EP       1157 35.11                             171    0.1010 22.9 196 
 BAR2 SZ ES   1   1157 49.60                             171   -0.57 7 22.9 196 
 BRR  HZ EP       1157 36.78                             151    0.1010 73.5 298 
 BRR  HE ES   1   1157 53.77                             151    0.61 7 73.5 298 
 BRR  HZ I        1157 57.13        24.9 0.32                          73.5 298 
 PAM  SZ EP   3   1157 37.86                             151    0.28 2 76.7  38 
 RUS  HZ EP       1157 38.88                             144   -0.2110 99.6 177 
 RUS  HN ES   1   1157 57.85                             144    0.40 7 99.6 177 
 RUS  HZ I        1157 58.84        18.2 0.28                          99.6 177 
 OCA  SZ EP       1157 44.30                             129    0.44 9  161 352 
 OCA  SZ ES   1   1158  5.08                             129   -0.86 7  161 352 
 OCA  SZ I        1158 10.11        13.0 0.30                           161 352 
 NOR  SZ EP       1157 51.17                             118   -0.17 8  236 235 
 NOR  SE ES   1   1158 18.95                             118   -0.29 6  236 235 
                                                                                
