 2010  510 1343 47.2 L   6.762 -73.079141.1  RSN  9 0.5 2.2LRSN                1
 GAP=164        1.06       4.8    12.3 10.1 -0.2404E+02 -0.3645E+01  0.8433E+01E
 Epicentro: LOS SANTOS - SANTANDER                                             3
 ACTION:UP  10-08-24 10:04 OP:vdl  STATUS:               ID:20100510134347 L   I
 2010-05-10-1342-01S.COL___104                                                 6
 STAT SP IPHASW D HRMM SECON CODA AMPLIT PERI AZIMU VELO SNR AR TRES W  DIS CAZ7
 BAR2 SZ EP   1   1344  5.91                             171    -0.4 7   22 212 
 BAR2 SZ ES   2   1344 20.70                             171    -0.4 5   22 212 
 BRR  HZ IP     D 1344  8.49                             149     0.110   80 299 
 BRR  HN ES   2   1344 25.45                             149     0.6 5   80 299 
 BRR  HZ I        1344 27.75        44.0 0.26                            80 299 
 RUS  HZ EP       1344 10.05                             144    -0.210   96 180 
 RUS  HN ES   2   1344 28.14                             144     0.0 5   96 180 
 RUS  HZ I        1344 30.59        15.0 0.23                            96 180 
 BRI  SZ EP   1   1344 11.47                             140     0.7 7  110  16 
 BRI  SZ ES   2   1344 29.36                             140     0.2 5  110  16 
 GUE  SZ EP   1   1344 10.92                             138    -0.8 7  119   8 
 GUE  SZ ES   2   1344 30.51                             138    -0.4 5  119   8 
 GRA  SZ IP       1344 12.74                             135     0.510  128  14 
 GRA  SZ ES   2   1344 32.30                             135     0.6 5  128  14 
 OCA  SZ EP   1   1344 14.42                             127    -1.3 7  165 351 
 OCA  SZ ES   2   1344 38.18                             127     0.3 5  165 351 
 OCA  SZ I        1344 41.72        19.7 0.40                           165 351 
 CHI  HZ EP   1   1344 25.12                             116     0.7 6  247 197 
 CHI  HN ES   2   1344 53.34                             116    -0.1 4  247 197 
 CHI  HZ I        1344 56.88        10.6 0.28                           247 197 
 PRA  HZ EP   1   1344 40.96                             106     0.4 4  392 211 
 PRA  HN ES   2   1345 22.05                             106    -0.2 3  392 211 
 PRA  HZ I        1345 29.33         8.5 0.34                           392 211 
                                                                                
