 2012  710 1149 58.6 L   7.336 -73.130  8.2  RSN  5 0.4 1.2LRSN                1
 GAP=174        1.17       5.5     4.4 12.2 -0.2957E+01  0.2346E+02 -0.3238E+02E
 Epicentro: RIONEGRO - SANTANDER                                               3
 ACTION:UPD 12-08-14 11:44 OP:ep   STATUS:               ID:20120710114958 L   I
 2012-07-10-1150-00M.COL___201                                                 6
 STAT SP IPHASW D HRMM SECON CODA AMPLIT PERI AZIMU VELO AIN AR TRES W  DIS CAZ7
 PAM  SZ EP       1150  6.79                              96    -0.210   48  90 
 BRR  HZ EP       1150 10.21                              94     0.510   69 249 
 BRR  HE ES   1   1150 17.84                              94    -0.5 7   69 249 
 BRR  HZ I        1150 22.87         8.9 0.18             47             69 249 
 BAR2 SZ ES   1   1150 22.12                              93    -0.3 7   82 184 
 BAR2 SZ I        1150 24.89         7.6 0.19             47             82 184 
 RUS  HZ EP       1150 23.58                              92    -0.4 9  160 178 
 RUS  HN ES   1   1150 44.44                              92     0.7 7  160 178 
 RUS  HZ I        1150 49.05         3.9 0.22             47            160 178 
 ZAR  HZ EP       1150 27.89                              56     0.4 9  192 275 
 ZAR  HN ES   1   1150 49.56                              56    -0.4 7  192 275 
 ZAR  HZ I        1150 51.66         2.5 0.23             37            192 275 
