 2010  810 1059 47.6 L   6.815 -73.053144.9  RSN 13 0.5 2.8LRSN                1
 GAP=133        1.32       4.0     7.8  6.6 -0.1389E+02  0.1527E+01  0.3883E+01E
 Epicentro: LOS SANTOS - SANTANDER                                             3
 ACTION:UP  10-09-07 10:53 OP:vdl  STATUS:               ID:20100810105947 L   I
 2010-08-10-1056-41S.COL___125                                                 6
 STAT SP IPHASW D HRMM SECON CODA AMPLIT PERI AZIMU VELO SNR AR TRES W  DIS CAZ7
 BAR2 SZ EP       11 0  7.17                             168    -0.110   29 210 
 BAR2 SZ ES       11 0 22.06                             168    -0.510   29 210 
 BAR2 SZ I        11 0 23.35       118.2 0.27                            29 210 
 GIR2 SZ EP       11 0  7.29                             167     0.110   33 332 
 GIR2 SZ ES   1   11 0 22.10                             167    -0.4 7   33 332 
 BRR  HZ EP       11 0  9.03                             150    -0.110   80 294 
 BRR  HN ES   1   11 0 26.19                             150     0.2 7   80 294 
 BRR  HZ I        11 0 28.27        74.1 0.49                            80 294 
 RUS  HZ EP       11 0 11.13                             143    -0.210  102 182 
 RUS  HN ES       11 0 30.18                             143     0.310  102 182 
 RUS  HZ I        11 0 31.01        53.9 0.23                           102 182 
 GRA  SZ EP       11 0 12.94                             138     0.510  121  13 
 GRA  SZ ES       11 0 32.72                             138     1.010  121  13 
 GRA  SZ I        11 0 34.09        83.3 0.78                           121  13 
 OCA  SZ EP       11 0 15.51                             129    -0.3 9  160 349 
 OCA  SZ ES       11 0 37.03                             129    -0.8 9  160 349 
 OCA  SZ I        11 0 40.88        49.7 0.09                           160 349 
 CHI  HZ EP       11 0 25.44                             116    -0.3 8  253 197 
 CHI  HN ES   1   11 0 55.05                             116    -0.4 6  253 197 
 CHI  HZ I        11 0 58.40        51.8 0.46                           253 197 
 ROSC BZ EP       11 0 27.32                             116     0.9 8  260 213 
 ROSC BN ES   2   11 0 57.67                             116     1.0 4  260 213 
 ROSC BZ I        11 1  1.84        58.3 0.44                           260 213 
 RREF HZ EP       11 0 35.35                             110     0.6 7  331 230 
 RREF HZ I        11 1 19.40        36.9 0.27                           331 230 
 DBB  SZ EP   1   11 0 35.64                             109    -0.6 5  350 274 
 SDV  BZ EP       11 0 36.64                             108     0.1 6  351  49 
 SDV  BZ I        11 0 37.59        12.9 0.18                           351  49 
 SDV  BN ES   1   11 1 14.29                             108    -0.5 5  351  49 
 ANIL HN ES       11 1 18.44                             108     0.5 6  366 225 
 PRA  HZ EP       11 0 41.07                             106    -0.8 6  399 211 
 PRA  HN ES   1   11 1 23.79                             106    -0.4 4  399 211 
 PRA  HZ I        11 1 29.30        34.8 0.54                           399 211 
                                                                                
