 2011  710 1111 13.8 L   6.299 -73.621104.8  RSN 16 0.4 2.4LRSN                1
 GAP= 71        0.85       2.9     4.4  6.8 -0.4885E+01  0.1942E+02 -0.3188E+01E
 Epicentro: SANTA HELENA DEL OPON - SANTANDER                                  3
 ACTION:UPD 12-07-25 13:59 OP:epov STATUS:               ID:20110710111113 L   I
 2011-07-10-1108-21S.COL___140                                                 6
 STAT SP IPHASW D HRMM SECON CODA AMPLIT PERI AZIMU VELO AIN AR TRES W  DIS CAZ7
 BAR2 SZ EP       1111 29.99                             149   -0.1310 58.3  56 
 BAR2 SZ ES   1   1111 43.07                             149    0.18 7 58.3  56 
 BAR2 SZ I        1111 44.25       154.6 0.52                          58.3  56 
 RUS  HZ EP   1   1111 31.31                             142   -0.30 7 74.6 127 
 RUS  HE ES       1111 45.68                             142    0.1510 74.6 127 
 RUS  HZ I        1111 48.54        41.6 0.46                          74.6 127 
 BTL  SZ EP       1111 31.69                             140    0.1110 78.9  30 
 BRR  HZ EP       1111 31.61                             136   -0.5410 89.9 354 
 BRR  HZ I        1111 34.92        51.4 0.12                          89.9 354 
 BRR  HN ES   2   1111 46.60                             136    0.10 5 89.9 354 
 GIR2 SZ EP       1111 32.68                             133   -0.4010 98.3  29 
 NOR  SZ EP       1111 38.56                             118   -0.58 9  160 240 
 NOR  SN ES   1   1111 59.51                             118    0.58 7  160 240 
 ROSC BZ EP       1111 41.78                             115    0.18 9  179 206 
 ROSC BZ I        1112 11.56        22.4 0.45                           179 206 
 BRI  SZ EP   3   1111 41.83                             115    0.25 2  181  30 
 CHI  HZ EP       1111 42.05                             114   -0.24 9  185 184 
 CHI  HE ES   2   1112  4.58                             114    0.03 4  185 184 
 CHI  HZ I        1112  9.06        18.2 0.42                           185 184 
 GRA  SZ EP       1111 44.29                             112    0.96 9  197  27 
 GRA  SZ ES   3   1112  7.29                             112    0.89 2  197  27 
 GRA  SZ I        1112 15.62        19.1 0.26                           197  27 
 HEL  HZ EP       1111 45.26                             111    0.04 8  211 267 
 OCA  SZ EP       1111 45.69                             110    0.10 8  217   9 
 OCA  SZ ES   2   1112 10.32                             110   -0.10 4  217   9 
 OCA  SZ I        1112 16.35        29.7 0.37                           217   9 
 RREF HZ EP       1111 49.70                             107    0.18 8  246 231 
 RREF HZ I        1112 24.26        23.1 0.46                           246 231 
 TOL  SZ EP       1111 52.31                             105    0.68 8  267 225 
 DBB  SZ EP       1111 54.76                             103   -0.10 7  297 286 
 PRA  HZ EP       1111 56.93                             102   -0.42 7  318 206 
                                                                                
