 2012  610 1945 24.1 L   6.880 -73.152129.4  RSN  5 0.1 1.5LRSN                1
 GAP=246        0.38       4.0     3.0  8.0  0.5480E+01  0.1882E+01 -0.9626E+01E
 Epicentro: LOS SANTOS - SANTANDER                                             3
 ACTION:UPD 12-08-06 17:48 OP:ep   STATUS:               ID:20120610194531 L   I
 2012-06-10-1940-00M.COL___201                                                 6
 STAT SP IPHASW D HRMM SECON CODA AMPLIT PERI AZIMU VELO AIN AR TRES W  DIS CAZ7
 BAR2 SZ EP   1   1945 42.23                             165    0.23 7 32.1 186 
 BAR2 SZ I        1945 59.25         9.1 0.24            164           32.1 186 
 RUS  HZ EP   1   1945 46.77                             138   -0.23 7  110 176 
 RUS  HN ES   1   1946  4.84                             138   -0.01 7  110 176 
 RUS  HZ I        1946  6.60         6.0 0.33            149            110 176 
 PTB  HZ EP   1   1945 49.93                             128    0.02 7  149 255 
 PTB  HN ES   1   1946  9.92                             128   -0.13 7  149 255 
 PTB  HZ I        1946 13.00         4.3 0.09            137            149 255 
 ZAR  HE ES   1   1946 19.31                             119   -0.02 6  200 290 
 NOR  SN ES   1   1946 27.22                             114    0.17 6  239 233 
                                                                                
