 2013  210 1946 10.2 L   6.773 -73.109147.9  RSN  8 0.4 1.9LRSN                1
 GAP=142        0.95       4.5     5.1  7.5 -0.5284E+01  0.1047E+02  0.7456E+01E
 Epicentro: LOS SANTOS - SANTANDER                                             3
 ACTION:UPD 13-03-12 09:32 OP:ep   STATUS:               ID:20130210194610 L   I
 2013-02-10-1940-00M.COL___241                                                 6
 STAT SP IPHASW D HRMM SECON CODA AMPLIT PERI AZIMU VELO AIN AR TRES W  DIS CAZ7
 BAR2 SZ EP   1   1946 29.61                             171   -0.46 7 21.6 202 
 BRR  HZ EP       1946 32.07                             151    0.1910 76.2 299 
 BRR  HE ES   1   1946 49.41                             151    0.63 7 76.2 299 
 BRR  HZ I        1946 53.87        15.6 0.16            137           76.2 299 
 PAM  SZ EP       1946 32.93                             151    0.2810 77.2  36 
 PAM  SN ES       1946 50.01                             151   -0.1410 77.2  36 
 PAM  SZ I        1946 52.44        10.8 0.28            143           77.2  36 
 RUS  HZ EP       1946 33.97                             145    0.0110 97.4 178 
 RUS  HN ES       1946 52.44                             145   -0.0310 97.4 178 
 RUS  HN I        1946 54.67        11.5 0.24            140           97.4 178 
 PTB  HZ EP       1946 36.81                             132   -0.86 9  151 260 
 PTB  HE ES   1   1946 58.37                             132   -0.71 7  151 260 
 PTB  HZ I        1947  3.44        15.3 0.39            120            151 260 
 NOR  HZ EP   1   1946 46.28                             119    0.04 6  236 236 
 NOR  HN ES       1947 14.91                             119    0.56 8  236 236 
 NOR  HZ I        1947 18.26        13.1 0.28            110            236 236 
 CHI  HZ EP       1946 48.01                             118    0.17 8  247 196 
 CHI  HN ES   1   1947 17.17                             118   -0.03 6  247 196 
 CHI  HZ I        1947 21.51         4.2 0.44            110            247 196 
 HEL  HZ EP   1   1946 51.51                             115    0.62 6  275 257 
 HEL  HZ I        1947 29.85         4.3 0.16            106            275 257 
                                                                                
