 2010  710 1700  7.3 L   6.802 -73.089140.0  RSN 11 0.4 2.5LRSN                1
 GAP=130        0.80       3.4     6.6  5.7 -0.1032E+02 -0.8044E+01  0.3624E+01E
 Epicentro: LOS SANTOS - SANTANDER                                             3
 ACTION:UPD 10-12-01 15:16 OP:pat  STATUS:               ID:20100710170007 L   I
 2010-07-10-1658-08S.COL___120                                                 6
 STAT SP IPHASW D HRMM SECON CODA AMPLIT PERI AZIMU VELO AIN AR TRES W  DIS CAZ7
 BAR2 SZ IP       17 0 26.36                             169     0.110   26 204 
 BAR2 SZ I        17 0 26.73        90.6 0.35                            26 204 
 BAR2 SZ ES   1   17 0 40.50                             169    -0.6 7   26 204 
 BRR  HZ IP     C 17 0 28.07                             149    -0.110   77 296 
 BRR  HZ I        17 0 28.26        92.4 0.19                            77 296 
 BRR  HE ES   1   17 0 44.53                             149     0.1 7   77 296 
 RUS  HZ EP       17 0 30.50                             143     0.010  101 180 
 RUS  HZ I        17 0 31.71        21.4 0.18                           101 180 
 RUS  HN ES   2   17 0 48.59                             143     0.0 5  101 180 
 BRI  SZ EP       17 0 30.81                             141     0.310  106  18 
 BRI  SZ ES   2   17 0 49.22                             141     0.7 5  106  18 
 BRI  SZ I        17 0 51.01        33.7 0.12                           106  18 
 GUE  SZ EP       17 0 31.27                             138    -0.110  115   9 
 GUE  SZ I        17 0 52.68        15.3 0.23                           115   9 
 GRA  SZ EP       17 0 32.04                             136     0.210  124  15 
 GRA  SZ ES       17 0 51.23                             136     0.210  124  15 
 GRA  SZ I        17 0 52.72        58.6 0.23                           124  15 
 OCA  SZ EP   1   17 0 34.97                             128    -0.3 7  161 351 
 OCA  SZ ES   2   17 0 56.19                             128    -0.8 5  161 351 
 OCA  SZ I        17 1  0.73        34.2 0.34                           161 351 
 CHI  HZ EP   2   17 0 44.99                             116     0.1 4  251 197 
 CHI  HE ES   2   17 1 15.04                             116     0.8 4  251 197 
 CHI  HZ I        17 1 21.29        14.3 0.69                           251 197 
 HEL  HZ EP   2   17 0 48.36                             113     0.4 4  278 256 
 HEL  HZ I        17 1 25.79        25.2 0.41                           278 256 
 SDV  BZ EP       17 0 55.89                             107    -0.7 6  355  50 
 SDV  BZ I        17 0 56.49         9.2 0.28                           355  50 
 PRA  HZ EP       17 1  0.99                             105     0.0 6  395 210 
 PRA  HE ES   2   17 1 42.82                             105    -0.1 3  395 210 
 PRA  HZ I        17 1 46.78        21.2 0.29                           395 210 
                                                                                
