 2016  410 1126 58.1 L   6.820 -73.177143.0  RSN  9 0.2 1.9LRSN                1
 GAP=180        0.56       2.0     2.7  4.0 -0.4123E+00  0.2975E+01 -0.1400E+01E
 Epicentro: ZAPATOCA - SANTANDER                                               3
 ACTION:UPD 16-05-05 14:20 OP:rebc STATUS:               ID:20160410112658 L   I
 OLDACT:UP  16-04-10 21:28 OP:drio STATUS:               ID:20160410111745d    3
 OLDACT:DUP 16-04-10 21:24 OP:drio STATUS:               ID:20160410111745d    3
 2016-04-10-1117-44M.COL___273                                                 6
 STAT SP IPHASW D HRMM SECON CODA AMPLIT PERI AZIMU VELO AIN AR TRES W  DIS CAZ7
kkk                                                                             
 BAR2 EZ EP       1127 17.68                             170    0.2210 25.2 181 
 BAR2 EZ ES       1127 32.69                             170    0.1510 25.2 181 
 BAR2 EZ I        1127 34.12        17.1 0.14            166           25.2 181 
 RUS  HZ EP       1127 21.77                             143   -0.0110  103 174 
 RUS  HE ES       1127 39.99                             143   -0.2510  103 174 
 RUS  HZ I        1127 41.45        12.2 0.32            144            103 174 
 PTB  HZ EP       1127 24.00                             132   -0.59 9  145 258 
 PTB  HN ES       1127 45.35                             132    0.11 9  145 258 
 PTB  HZ I        1127 52.73         6.2 0.30            131            145 258 
 OCA  HZ EP       1127 26.00                             129    0.03 9  158 354 
 OCA  HE ES       1127 47.63                             129   -0.07 9  158 354 
 SPBC HZ EP       1127 26.52                             128    0.16 9  163 218 
 SPBC HN ES       1127 48.35                             128   -0.05 9  163 218 
 SPBC HZ I        1127 55.65        12.8 0.34            128            163 218 
 ZAR  HZ EP       1127 30.15                             122    0.18 9  200 292 
 ZAR  HE ES       1127 54.72                             122   -0.09 9  200 292 
 ZAR  HZ I        1128  1.32         5.5 0.38            122            200 292 
 NOR  HZ EP       1127 33.69                             118    0.17 8  233 234 
 NOR  HE ES       1128  1.27                             118    0.13 8  233 234 
 NOR  HZ I        1128  7.20         6.8 0.18            119            233 234 
 GUY2CHZ EP   4   1127 42.87                             112    1.45 0  300 234 
 GUY2CHE ES   4   1128 16.93                             112    1.73 0  300 234 
 GUY2CHZ I        1128 23.75         3.7 0.30                           300 234 
                                                                                
