 2016  210 1031 26.7 L   6.833 -73.196127.7  RSN  8 0.5 1.5LRSN                1
 GAP=129        0.72       5.8     4.7  9.1 -0.5468E+01  0.6696E+01  0.1246E+02E
 Epicentro: ZAPATOCA - SANTANDER                                               3
 ACTION:UPD 16-03-04 21:24 OP:rebc STATUS:               ID:20160210103126 L   I
 OLDACT:REG 16-02-10 21:35 OP:dnl  STATUS:               ID:20160210102738     3
 2016-02-10-1027-38M.COL___316                                                 6
 STAT SP IPHASW D HRMM SECON CODA AMPLIT PERI AZIMU VELO AIN AR TRES W  DIS CAZ7
 BAR2 EZ EP   2   1031 44.87                             168    0.59 5 26.7 177 
 BAR2 EZ ES   2   1031 58.30                             168    0.33 5 26.7 177 
 BAR2 EZ I        1032  1.12         6.9 0.21            171           26.7 177 
 PAM  EZ EP   2   1031 48.02                             147    0.89 5 78.4  44 
 PAM  EE ES   2   1032  1.94                             147   -1.10 5 78.4  44 
 PAM  EZ I        1032  7.14         5.5 0.52            147           78.4  44 
 RUS  HZ EP   2   1031 49.11                             139    0.02 5  105 173 
 RUS  HE ES   2   1032  6.33                             139   -0.19 5  105 173 
 RUS  HZ I        1032  8.67         4.9 0.24            143            105 173 
 PTB  HZ EP   2   1031 51.10                             128   -0.75 5  143 257 
 PTB  HN ES       1032 11.66                             128    0.2310  143 257 
 PTB  HZ I        1032 14.84         3.8 0.08            127            143 257 
 SPBC HZ EP   2   1031 54.02                             125    0.16 5  163 217 
 SPBC HN ES   2   1032 14.49                             125   -0.53 5  163 217 
 SPBC HZ I        1032 18.50         5.6 0.34            126            163 217 
 ZAR  HN ES   3   1032 20.29                             119   -0.98 2  198 292 
 ZAR  HZ I        1032 33.42         3.1 0.14            118            198 292 
 NOR  HZ EP   2   1032  1.32                             115    0.09 4  232 233 
 NOR  HE ES   2   1032 28.56                             115    0.43 4  232 233 
 NOR  HZ I        1032 33.62         3.6 0.22            115            232 233 
 CHI  HZ EP   2   1032  3.28                             113   -0.46 4  251 194 
 CHI  HE ES   2   1032 32.17                             113   -0.43 4  251 194 
 CHI  HZ I        1032 35.93         2.2 0.46            115            251 194 
                                                                                
