 2012  310 1418 47.7 L   6.749 -73.123139.5  RSN  8 0.4 2.1LRSN                1
 GAP=142        0.90       4.8     4.7  6.2 -0.1039E+01  0.9422E+01  0.4016E+01E
 ACTION:UP  12-03-31 23:18 OP:EP   STATUS:               ID:20120310141847 L   I
 2012-03-10-1410-00M.COL___193                                                 6
 STAT SP IPHASW D HRMM SECON CODA AMPLIT PERI AZIMU VELO SNR AR TRES W  DIS CAZ7
 BAR2 SZ EP       1419  6.50                             172     0.010   19 201 
 BAR2 SZ ES       1419 21.13                             172     0.010   19 201 
 BAR2 SZ I        1419 22.79        22.5 0.28                            19 201 
 BRR  HZ EP       1419  8.37                             150    -0.110   76 301 
 BRR  HZ I        1419  9.56        27.6 0.15                            76 301 
 BRR  HN ES   1   1419 25.48                             150     0.8 7   76 301 
 PAM  SZ EP       1419  9.42                             149     0.010   80  36 
 PAM  SN ES       1419 26.14                             149    -0.210   80  36 
 RUS  HZ EP   1   1419 10.51                             144     0.1 7   95 177 
 RUS  HN ES   1   1419 28.14                             144     0.0 7   95 177 
 RUS  HZ I        1419 30.06        12.1 0.29                            95 177 
 PTB  HZ EP   1   1419 13.47                             130    -0.8 7  149 261 
 PTB  HE ES   1   1419 34.71                             130    -0.3 7  149 261 
 ZAR  HZ EP   1   1419 20.99                             120     0.8 6  209 293 
 ZAR  HE ES   1   1419 45.26                             120    -0.3 6  209 293 
 ZAR  HZ I        1419 51.29        17.8 0.44                           209 293 
 NOR  SZ EP       1419 22.95                             117     0.0 8  234 236 
 CHI  HZ EP   1   1419 24.92                             116     0.4 6  244 196 
                                                                                
