 2017  110 1511  7.8 L   6.765 -73.142146.6  RSN  6 0.4 1.7LRSN                1
 GAP=139        1.10       4.7     5.7  7.3 -0.2796E+01  0.4287E+01  0.8938E+01E
 Epicentro: LOS SANTOS - SANTANDER                                             3
 ACTION:UPD 17-05-22 15:57 OP:jn   STATUS:               ID:20170110151107 L   I
 OLDACT:REG 17-01-10 23:00 OP:ar   STATUS:               ID:20170110150759     3
 2017-01-10-1507-59S.COL___321                                                 6
 STAT SP IPHASW D HRMM SECON CODA AMPLIT PERI AZIMU VELO AIN AR TRES W  DIS CAZ7
 BAR2 EZ EP       1511 27.31                             172   -0.1310 19.6 193 
 BAR2 EZ ES       1511 42.51                             172   -0.2710 19.6 193 
 BAR2 EZ I        1511 44.19        20.0 0.22            170           19.6 193 
 BRR  HZ EP       1511 29.43                             152    0.2810 73.5 301 
 BRR  HN ES       1511 46.73                             152    0.9110 73.5 301 
 PAM  EZ EP       1511 30.43                             150    0.1710 80.2  38 
 PAM  EN ES       1511 47.46                             150   -0.3210 80.2  38 
 PAM  EZ I        1511 49.85         6.1 0.46            153           80.2  38 
 RUS  HZ EP       1511 31.33                             145   -0.0110 96.6 176 
 RUS  HN ES       1511 49.63                             145   -0.0810 96.6 176 
 RUS  HZ I        1511 51.00         8.0 0.24            146           96.6 176 
 PTB  HZ EP       1511 34.17                             132   -0.62 9  147 260 
 PTB  HN ES       1511 55.28                             132   -0.58 9  147 260 
 PTB  HZ I        1512  1.16         5.3 0.28            132            147 260 
 CHI  HZ EP       1511 45.36                             118    0.23 8  245 196 
 CHI  HN ES       1512 14.80                             118    0.54 8  245 196 
 CHI  HZ I        1512 18.35         2.0 0.32            119            245 196 
                                                                                
