 2012  810 1804 27.9 L   6.655 -73.625107.0  RSN  4 0.2 1.6LRSN                1
 GAP=118        0.46       3.1     2.7  4.7  0.4212E+01  0.3562E+01  0.6292E+01E
 Epicentro: EL CARMEN DE CHUCURI - SANTANDER                                   3
 ACTION:UPD 12-09-10 11:55 OP:ep   STATUS:               ID:20120810180427 L   I
 2012-08-10-1800-00M.COL___217                                                 6
 STAT SP IPHASW D HRMM SECON CODA AMPLIT PERI AZIMU VELO AIN AR TRES W  DIS CAZ7
 BAR2 SZ EP       18 4 43.78                             154   -0.1510 49.4  98 
 BAR2 SZ ES   1   18 4 56.17                             154   -0.30 7 49.4  98 
 BAR2 SZ I        18 4 56.98        24.0 0.20                          49.4  98 
 BRR  HZ EP   1   18 4 43.61                             153   -0.06 7 50.9 349 
 BRR  HN ES       18 4 56.19                             153    0.1910 50.9 349 
 BRR  HZ I        18 4 57.35        10.6 0.26                          50.9 349 
 PTB  HZ EP       18 4 46.81                             136    0.0910 92.9 262 
 PTB  HN ES   1   18 5  1.21                             136   -0.21 7 92.9 262 
 RUS  HZ EP       18 4 48.30                             133    0.0110  103 145 
 RUS  HZ I        18 4 49.11         5.8 0.09                           103 145 
 RUS  HE ES       18 5  4.40                             133    0.1810  103 145 
                                                                                
