 2017  210 1437 17.4 L   6.774 -73.088147.1  RSN  4 0.2 1.5LRSN                1
 GAP=145        0.47       3.0     3.1  4.5 -0.2281E+01  0.2836E+01  0.1290E+01E
 Epicentro: LOS SANTOS - SANTANDER                                             3
 ACTION:UPD 17-05-24 15:34 OP:jn   STATUS:               ID:20170210143717 L   I
 OLDACT:UP  17-02-10 23:45 OP:and  STATUS:               ID:20170210142747d    3
 OLDACT:DUP 17-02-10 23:44 OP:and  STATUS:               ID:20170210142747d    3
 OLDACT:UP  17-02-10 23:43 OP:and  STATUS:               ID:20170210142746d    3
 OLDACT:UP  17-02-10 23:43 OP:and  STATUS:               ID:20170210142746d    3
 OLDACT:DUP 17-02-10 23:39 OP:and  STATUS:               ID:20170210142746d    3
 OLDACT:UP  17-02-10 23:39 OP:and  STATUS:               ID:20170210142745     3
 OLDACT:REG 17-02-10 20:36 OP:and  STATUS:               ID:20170210142745     3
 2017-02-10-1428-00M.COL___358                                                 6
 STAT SP IPHASW D HRMM SECON CODA AMPLIT PERI AZIMU VELO AIN AR TRES W  DIS CAZ7
 BAR2 EZ EP       1437 37.11                             171   -0.0610 22.6 207 
 BAR2 EZ ES       1437 52.63                             171    0.0310 22.6 207 
 BAR2 EZ I        1437 54.28         6.6 0.32            172           22.6 207 
 PAM  EZ EP   2   1437 40.08                             152    0.42 5 75.8  34 
 PAM  EN ES       1437 56.90                             152   -0.1310 75.8  34 
 PAM  EZ I        1437 58.91         5.2 0.64            153           75.8  34 
 RUS  HZ EP       1437 41.15                             145    0.0910 97.5 180 
 RUS  HN ES       1437 59.47                             145   -0.0410 97.5 180 
 RUS  HZ I        1438  0.74         4.1 0.28            147           97.5 180 
 PTB  HZ EP   2   1437 44.38                             131   -0.62 5  154 260 
 PTB  HN ES       1438  6.70                             131    0.17 9  154 260 
 PTB  HZ I        1438  7.27         3.6 0.34            133            154 260 
                                                                                
