 2016 1210 1433  5.6 L   5.964 -73.813109.5  RSN  6 0.4 1.6LRSN                1
 GAP=149        1.10       5.1     3.9  9.8 -0.2938E-01  0.1643E+02  0.3150E+01E
 Epicentro: SUCRE - SANTANDER                                                  3
 ACTION:UPD 17-01-11 20:13 OP:rebc STATUS:               ID:20161210143305 L   I
 OLDACT:UP  16-12-10 22:24 OP:dnl  STATUS:               ID:20161210142745     3
 OLDACT:REG 16-12-10 20:45 OP:dnl  STATUS:               ID:20161210142745     3
 2016-12-10-1428-00M.COL___361                                                 6
 STAT SP IPHASW D HRMM SECON CODA AMPLIT PERI AZIMU VELO AIN AR TRES W  DIS CAZ7
 RUS  HZ EP       1433 24.30                             141   -0.1010 81.2  96 
 RUS  HE ES       1433 38.45                             141   -0.6210 81.2  96 
 RUS  HZ I        1433 43.45         3.9 0.28            145           81.2  96 
 PTB  HZ EP       1433 24.54                             136   -0.3610 95.5 312 
 PTB  HE ES       1433 39.69                             136   -0.2610 95.5 312 
 PTB  HZ I        1433 42.20         8.6 0.10            139           95.5 312 
 BAR2 EZ EP       1433 25.78                             135    0.3210 98.5  45 
 BAR2 EZ ES       1433 41.79                             135    0.8410 98.5  45 
 BAR2 EZ I        1433 43.05        22.0 0.48            138           98.5  45 
 BRR  HZ EP       1433 27.73                             127   -0.0410  127   5 
 BRR  HE ES   4   1433 47.18                             127    2.13 0  127   5 
 BRR  HZ I        1433 50.93        14.7 0.34            130            127   5 
 GUY2CHZ EP       1433 35.28                             115    0.23 9  190 245 
 GUY2CHN ES       1433 58.52                             115    0.50 9  190 245 
 GUY2CHZ I        1434  2.57         2.4 0.30                           190 245 
 ZAR  HZ EP       1433 35.51                             113   -0.54 9  205 326 
 ZAR  HE ES       1433 59.87                             113    0.07 9  205 326 
 ZAR  HZ I        1434  1.76         5.3 0.26            117            205 326 
                                                                                
