 2014  310 1104 56.2 L   6.492 -73.671101.4  RSN  8 0.4 1.8LRSN                1
 GAP= 99        1.08       4.2     2.9  8.0 -0.1800E+01  0.9077E+01 -0.3933E+01E
 Epicentro: SANTA HELENA DEL OPON - SANTANDER                                  3
 ACTION:UPD 14-04-09 23:15 OP:nd   STATUS:               ID:20140310110456 L   I
 OLDACT:REG 14-03-10 15:42 OP:nd   STATUS:               ID:20140310110045     3
 2014-03-10-1100-45M.COL___219                                                 6
 STAT SP IPHASW D HRMM SECON CODA AMPLIT PERI AZIMU VELO AIN AR TRES W  DIS CAZ7
 BAR2 SZ EP       11 5 12.09                             149    0.0410 55.2  78 
 BAR2 SZ ES       11 5 24.98                             149    0.6010 55.2  78 
 BAR2 SZ I        11 5 26.42        62.1 0.40            154           55.2  78 
 PTB  HZ EP       11 5 13.34                             136   -0.7610 87.0 274 
 PTB  HN ES       11 5 27.59                             136   -0.4510 87.0 274 
 PTB  HZ I        11 5 29.98        13.3 0.18            137           87.0 274 
 RUS  HZ EP       11 5 15.36                             134    0.0910 92.9 135 
 RUS  HN ES       11 5 29.89                             134   -0.2210 92.9 135 
 RUS  HZ I        11 5 31.87         7.6 0.34            139           92.9 135 
 PAM  SZ EP       11 5 20.01                             121   -0.07 9  143  49 
 PAM  SN ES       11 5 38.45                             121   -0.23 9  143  49 
 PAM  SZ I        11 5 40.23       130.6 0.26            125            143  49 
 NOR  HZ EP       11 5 22.59                             116    0.37 9  168 232 
 NOR  HN ES       11 5 42.59                             116    0.10 9  168 232 
 NOR  HZ I        11 5 45.66         4.2 0.42            118            168 232 
 ZAR  HZ EP       11 5 22.09                             115   -0.50 9  172 310 
 ZAR  HN ES       11 5 43.84                             115    0.70 9  172 310 
 ZAR  HZ I        11 5 47.83         9.9 0.18            117            172 310 
 HEL  HZ EP       11 5 27.77                             110    0.60 8  208 261 
 HEL  HN ES       11 5 51.29                             110   -0.01 8  208 261 
 HEL  HZ I        11 5 56.91         4.2 0.26            113            208 261 
 GUY2CHZ EP   4   11 5 32.10                             107    1.80 0  234 233 
 GUY2CHN ES   4   11 5 56.83                             107   -0.04 0  234 233 
 GUY2CHZ I        11 6  2.54         2.3 0.22                           234 233 
                                                                                
