 2010 1210 1916 15.1 L   6.762 -73.200136.3  RSN  5 0.3 1.5LRSN                1
 GAP=153        0.53       3.4    15.0  6.3 -0.1377E+02  0.5280E+00 -0.3375E+01E
 Epicentro: VILLANUEVA - SANTANDER                                             3
 ACTION:UP  11-01-14 15:24 OP:pat  STATUS:               ID:20101210191615 L   I
 2010-12-10-1911-53S.COL___134                                                 6
 STAT SP IPHASW D HRMM SECON CODA AMPLIT PERI AZIMU VELO SNR AR TRES W  DIS CAZ7
 BTL  SZ EP       1916 33.76                             171     0.210   19 337 
 BTL  SZ ES   2   1916 48.10                             171     0.2 5   19 337 
 RUS  HZ EP       1916 37.58                             144    -0.110   97 172 
 RUS  HN ES   1   1916 55.06                             144    -0.2 7   97 172 
 RUS  HZ I        1916 57.47         4.1 0.45                            97 172 
 GRA  SZ EP       1916 40.19                             133     0.110  132  19 
 GRA  SZ I        1916 41.49         5.4 0.31                           132  19 
 OCA  SZ EP   3   1916 42.48                             127    -0.6 2  164 355 
 OCA  SZ ES   3   1917  4.14                             127    -0.7 2  164 355 
 CHI  HZ EP   1   1916 51.34                             116    -0.4 6  243 194 
 CHI  HZ I        1916 52.14         2.0 0.66                           243 194 
 CHI  HN ES   3   1917 20.59                             116     0.4 2  243 194 
                                                                                
