 2014 1010 1633 10.0 L   6.787 -73.160144.2  RSN 12 0.6 2.1LRSN                1
 GAP= 71        1.32       4.9     4.7  6.8 -0.1722E+01  0.5804E+01  0.3756E+01E
 Epicentro: LOS SANTOS - SANTANDER                                             3
 ACTION:UPD 14-11-29 23:48 OP:nd   STATUS:               ID:20141010163310 L   I
 OLDACT:REG 14-10-10 21:39 OP:stll STATUS:               ID:20141010162747     3
 2014-10-10-1627-47M.COL___289                                                 6
 STAT SP IPHASW D HRMM SECON CODA AMPLIT PERI AZIMU VELO AIN AR TRES W  DIS CAZ7
 BAR2 SZ EP       1633 29.51                             171    0.0510 21.6 187 
 BAR2 SZ ES       1633 44.14                             171   -0.4610 21.6 187 
 BAR2 SZ I        1633 45.26        37.7 0.26            171           21.6 187 
 BRR  HZ EP       1633 31.14                             152    0.1510 70.6 300 
 BRR  HN ES       1633 48.14                             152    0.8110 70.6 300 
 BRR  HZ I        1633 52.04        13.4 0.48            143           70.6 300 
 PAM  SZ EP       1633 32.20                             150   -0.0310 79.5  40 
 PAM  SN ES       1633 49.35                             150   -0.1810 79.5  40 
 PAM  SZ I        1633 51.10        23.7 0.52            142           79.5  40 
 RUS  HZ EP       1633 33.54                             144   -0.0110 99.2 175 
 RUS  HN ES       1633 52.14                             144    0.2610 99.2 175 
 RUS  HZ I        1633 53.89        10.1 0.24            139           99.2 175 
 PTB  HZ EP       1633 36.02                             132   -0.70 9  146 259 
 PTB  HN ES       1633 57.26                             132   -0.27 9  146 259 
 PTB  HZ I        1633 59.86        19.0 0.14            123            146 259 
 TAM  HZ EP       1633 37.74                             130    0.03 9  156 104 
 TAM  HZ I        1633 37.96        26.5 0.36            123            156 104 
 SPBC HZ EP       1633 38.23                             129    0.01 9  161 219 
 SPBC HZ I        1634  6.69        12.1 0.38            121            161 219 
 ZAR  HZ EP       1633 43.03                             122    0.73 9  203 293 
 ZAR  HN ES       1634  7.41                             122   -0.05 9  203 293 
 ZAR  HZ I        1634 12.85        14.0 0.26            113            203 293 
 SML  HZ EP       1633 45.59                             117   -1.07 8  244 336 
 SML  HZ I        1634 16.99        14.1 0.26            109            244 336 
 GUY2CHZ EP       1633 55.10                             112    1.76 7  299 235 
 GUY2CHN ES       1634 26.42                             112   -0.69 7  299 235 
 GUY2CHZ I        1634 37.56         4.6 0.66                           299 235 
 RREF HZ EP   9   1633 53.70                             111   -2.18 0  320 229 
 RREF HN ES       1634 28.81                                   -0.64 7  320 229 
 RREF HZ I        1634 35.46         4.3 0.28            104            320 229 
 PRA  HZ EP       1634  3.20                             106   -0.07 6  390 209 
 PRA  HN ES       1634 44.44                             106   -0.35 6  390 209 
 PRA  HZ I        1634 51.77         3.6 0.36            101            390 209 
                                                                                
