 2014 1210 1939 46.1 L   6.826 -73.146145.6  RSN  8 0.5 2.0LRSN                1
 GAP=135        1.07       3.2     4.6  7.7 -0.1237E+01  0.1174E+02 -0.4793E+00E
 Epicentro: LOS SANTOS - SANTANDER                                             3
 ACTION:UPD 15-02-10 17:02 OP:nd   STATUS:               ID:20141210193946 L   I
 OLDACT:REG 14-12-10 22:01 OP:stll STATUS:               ID:20141210193749     3
 2014-12-10-1937-49M.COL___303                                                 6
 STAT SP IPHASW D HRMM SECON CODA AMPLIT PERI AZIMU VELO AIN AR TRES W  DIS CAZ7
 PAM  SZ EP       1940  8.53                             151    0.3810 75.2  41 
 PAM  SN ES       1940 25.72                             151    0.3510 75.2  41 
 PAM  SZ I        1940 27.89        19.3 0.50            157           75.2  41 
 RUS  HZ EP       1940  9.69                             143   -0.3310  103 176 
 RUS  HN ES       1940 28.61                             143   -0.0910  103 176 
 RUS  HZ I        1940 31.42         5.9 0.26            146            103 176 
 PTB  HZ EP       1940 13.17                             132    0.09 9  148 258 
 PTB  HN ES       1940 33.59                             132   -0.56 9  148 258 
 PTB  HZ I        1940 40.93        21.0 0.38            133            148 258 
 SPBC HZ EP       1940 14.78                             129    0.00 9  165 218 
 SPBC HN ES       1940 36.76                             129   -0.40 9  165 218 
 ZAR  HZ EP       1940 17.67                             122   -0.73 9  203 291 
 ZAR  HN ES       1940 44.36                             122    0.75 9  203 291 
 ZAR  HZ I        1940 49.86        12.4 0.28            125            203 291 
 SML  HZ EP       1940 22.13                             118   -0.29 8  241 335 
 SML  HZ E      C 1940 46.74                                            241 335 
 SML  HN ES       1940 50.35                             118   -0.41 8  241 335 
 SML  HZ I        1940 55.67        15.5 0.24            121            241 335 
 CHI  HZ EP       1940 24.01                             117   -0.06 8  251 195 
 CHI  HE ES       1940 53.78                             117    0.08 8  251 195 
 CHI  HZ I        1941  2.81         3.1 0.28            120            251 195 
 GUY2CHZ EP       1940 30.78                             112    0.92 7  303 234 
 GUY2CHN ES       1941  4.79                             112    0.77 7  303 234 
 GUY2CHZ I        1941 11.20         8.5 0.18                           303 234 
                                                                                
