 2010  110 1151 47.3 L   6.829 -73.046143.6  RSN  6 0.1 1.5LRSN                1
 GAP=193        0.34       2.1     5.0  3.6 -0.6781E+00  0.3310E+01  0.1181E+01E
 Epicentro: LOS SANTOS - SANTANDER                                             3
 ACTION:UP  10-08-24 09:43 OP:vdl  STATUS:               ID:20100110115147 L   I
 2010-01-10-1147-21S.COL___096                                                 6
 STAT SP IPHASW D HRMM SECON CODA AMPLIT PERI AZIMU VELO SNR AR TRES W  DIS CAZ7
 BAR2 SZ IP       1152  6.76                             167    -0.110   30 210 
 BAR2 SZ ES   1   1152 22.11                             167     0.1 7   30 210 
 GIR2 SZ IP       1152  6.73                             167     0.010   32 329 
 GIR2 SZ ES   2   1152 22.00                             167     0.1 5   32 329 
 RUS  BZ EP   1   1152 10.92                             142    -0.1 7  104 182 
 RUS  BE ES   1   1152 29.44                             142    -0.1 7  104 182 
 RUS  BZ I        1152 31.30         4.6 0.27                           104 182 
 OCA  SZ ES   2   1152 37.24                             129     0.1 5  159 349 
 CHI  HZ EP   1   1152 25.59                             116     0.1 6  255 197 
 CHI  HN ES   1   1152 55.69                             116     0.3 6  255 197 
 CHI  HZ I        1153  2.49         2.0 0.36                           255 197 
 HEL  HN ES   2   1153  0.77                             113    -0.2 4  284 256 
 HEL  HZ I        1153  5.12         2.2 0.45                           284 256 
                                                                                
