 2017  810 1513  7.1 L   6.872 -73.142142.2  RSN 23 0.8 2.7LRSN                1
 GAP=109        1.60       3.6     4.7  7.0  0.3719E+00  0.1169E+02  0.3441E+01E
 Epicentro: LOS SANTOS - SANTANDER                                             3
 ACTION:UPD 17-09-04 20:18 OP:rebc STATUS:               ID:20170810151307 L   I
 OLDACT:UP  17-08-11 00:10 OP:dani STATUS:               ID:20170810150745     3
 OLDACT:UP  17-08-11 00:09 OP:dani STATUS:               ID:20170810150745     3
 OLDACT:UP  17-08-11 00:08 OP:dani STATUS:               ID:20170810150745     3
 OLDACT:REG 17-08-10 20:58 OP:dani STATUS:               ID:20170810150745     3
 2017-08-10-1508-00M.COL___405                                                 6
 STAT SP IPHASW D HRMM SECON CODA AMPLIT PERI AZIMU VELO AIN AR TRES W  DIS CAZ7
 BAR2 EZ EP     D 1513 26.53                             167    0.0910 31.3 188 
 BAR2 EZ ES       1513 41.43                             167   -0.1410 31.3 188 
 BAR2 EZ I        1513 42.95        68.8 0.24            166           31.3 188 
 BRR  HZ EP     D 1513 28.27                             153    0.6310 68.2 292 
 BRR  HE ES       1513 44.72                             153    1.0210 68.2 292 
 BRR  HZ I        1513 48.89        84.6 0.30            151           68.2 292 
 PAM  EZ EP       1513 29.35                             152    0.8310 71.1  43 
 PAM  EE ES       1513 45.88                             152    0.6210 71.1  43 
 PAM  EZ I        1513 48.30       144.7 0.54            157           71.1  43 
 RUS  HZ EP     D 1513 30.62                             141   -0.4310  108 177 
 RUS  HN ES       1513 49.23                             141   -0.5310  108 177 
 RUS  HZ I        1513 51.00        36.3 0.32            143            108 177 
 SPBC HZ EP       1513 35.63                             127   -0.28 9  170 217 
 SPBC HN ES       1513 57.65                             127   -0.77 9  170 217 
 SPBC HZ I        1514  4.72        78.6 0.28            128            170 217 
 YPLC HZ IP     D 1513 37.12                             125   -0.14 9  184 153 
 YPLC HE ES       1514  0.66                             125   -0.17 9  184 153 
 YPLC HZ I        1514  3.77        43.3 0.30            128            184 153 
 ZAR  HZ EP       1513 39.31                             122    0.30 9  202 290 
 ZAR  HN ES       1514  4.09                             122    0.15 9  202 290 
 ZAR  HZ I        1514 11.02        44.5 0.52            123            202 290 
 TABC EZ EP   3   1513 44.68                             118    1.33 2  237 210 
 TABC EZ ES       1514 12.21                             118    0.54 8  237 210 
 TABC EZ I        1514 17.58        42.9 0.32            119            237 210 
 NOR  HZ EP       1513 42.99                             117   -0.13 8  240 233 
 NOR  HE ES       1514 10.40                             117   -0.86 8  240 233 
 NOR  HZ I        1514 12.65        31.8 0.22            118            240 233 
 CHI  HZ EP       1513 45.15                             116   -0.26 8  256 195 
 CHI  HN ES       1514 13.81                             116   -1.52 8  256 195 
 CHI  HZ I        1514 19.63        24.8 0.32            117            256 195 
 ROSC BZ EP       1513 47.19                             115    1.43 8  260 210 
 ROSC BE ES       1514 16.05                             115    0.11 8  260 210 
 ROSC BZ I        1514 20.61        46.8 0.35            117            260 210 
 URE  HZ EP       1513 47.13                             113   -0.54 7  281 290 
 URE  HN ES       1514 17.70                             113   -1.66 7  281 290 
 URE  HZ I        1514 28.37        31.3 0.18            114            281 290 
 GUY2CHZ EP       1513 51.10                             111    0.03 7  306 234 
 GUY2CHE ES   4   1514 27.97                             111    2.57 0  306 234 
 GUY2CHZ I        1514 34.60        27.3 0.28                           306 234 
 VIL  EZ EP       1513 50.80                             111   -0.40 7  311 191 
 VIL  EN ES       1514 25.25                             111   -0.39 7  311 191 
 VIL  EZ I        1514 28.63        36.5 0.35            113            311 191 
 PTGC HZ EP   3   1513 49.97                             110   -1.61 2  316 159 
 PTGC HN ES   4   1514 23.60                             110   -2.71 0  316 159 
 PTGC HZ I        1514 24.61        24.8 0.36            113            316 159 
 LL6C HZ EP       1513 50.91                             110   -0.78 7  317 357 
 LL6C HN ES       1514 24.96                             110   -1.55 7  317 357 
 LL6C HZ I        1514 32.60        19.6 0.82            112            317 357 
 ELA  HZ EP       1513 55.52                             109    1.13 7  335 228 
 ELA  HN ES       1514 31.88                             109    0.56 7  335 228 
 ELA  HZ I        1514 38.65        18.7 0.52            111            335 228 
 CBOC HZ EP       1513 55.00                             109    0.84 7  337 251 
 CBOC HN ES       1514 30.12                             109   -0.78 7  337 251 
 CBOC HZ I        1514 41.74        11.6 0.32            110            337 251 
 DBB  EZ EP       1513 56.16                             109    1.78 7  339 273 
 DBB  EE ES       1514 30.65                             109   -0.64 7  339 273 
 DBB  EZ I        1514 33.83        11.3 0.48            110            339 273 
 PRA  HZ EP       1514  0.80                             106   -0.49 6  399 209 
 PRA  HE ES       1514 43.38                             106   -0.22 6  399 209 
 PRA  HZ I        1514 49.17        33.6 0.22            107            399 209 
 ORTC HZ EP       1514  1.13                             106   -0.51 6  402 216 
 ORTC HN ES       1514 45.37                             106    1.15 6  402 216 
 ORTC HZ I        1514 48.39        16.6 0.42            107            402 216 
 SJC  HZ EP   3   1514  0.27                             105   -1.47 1  403 326 
 SJC  HN ES   4   1514 41.63                             105   -2.78 0  403 326 
 SJC  HZ I        1514 45.95        18.8 0.54            107            403 326 
 PAL  HZ EP       1514  3.23                             105    0.60 6  410 238 
 PAL  HE ES       1514 47.19                             105    1.21 6  410 238 
 PAL  HZ I        1514 50.41         9.3 0.36            106            410 238 
                                                                                
