 2013  610 1734 59.2 L   6.744 -73.148146.0  RSN  6 0.2 1.9LRSN                1
 GAP=233        0.51       4.4     4.1  5.9 -0.1809E+01  0.2038E+00  0.1313E+02E
 Epicentro: JORDAN - SANTANDER                                                 3
 ACTION:UPD 14-01-08 09:53 OP:ep   STATUS:               ID:20130610173459 L   I
 OLDACT:REG 13-06-10 14:39 OP:mh   STATUS:               ID:20130610172959     3
 2013-06-10-1729-59M.COL___261                                                 6
 STAT SP IPHASW D HRMM SECON CODA AMPLIT PERI AZIMU VELO AIN AR TRES W  DIS CAZ7
 BAR2 SZ EP   1   1735 18.44                             173   -0.26 7 17.2 193 
 BRR  HZ EP   1   1735 20.44                             152   -0.06 7 74.1 303 
 BRR  HE ES       1735 37.33                             152    0.1910 74.1 303 
 BRR  HZ I        1735 42.19         6.1 0.12            153           74.1 303 
 RUS  HZ EP   1   1735 22.86                             146    0.37 7 94.4 176 
 RUS  HN ES   2   1735 40.51                             146   -0.18 5 94.4 176 
 RUS  HN I        1735 42.19        16.0 0.30            150           94.4 176 
 PTB  HZ EP   1   1735 25.87                             133   -0.15 7  146 261 
 PTB  HN ES   2   1735 46.47                             133   -0.50 5  146 261 
 NOR  HZ EP       1735 34.30                             119   -0.19 8  231 236 
 NOR  HN ES       1736  2.29                             119    0.24 8  231 236 
 NOR  HN I        1736  4.28        13.7 0.18            122            231 236 
 GUY2CHZ EP   4   1735 43.84                             113    1.50 0  297 236 
 GUY2CHN ES   2   1736 15.84                             113   -0.19 4  297 236 
 GUY2CHN I        1736 21.70         3.5 0.36                           297 236 
                                                                                
