 2012  610 1646 43.4 L   6.340 -73.683103.2  RSN  6 0.4 1.8LRSN                1
 GAP=110        0.79       4.5     3.5  9.3  0.3137E+01  0.1553E+02  0.1253E+01E
 Epicentro: SANTA HELENA DEL OPON - SANTANDER                                  3
 ACTION:UPD 12-08-06 17:48 OP:ep   STATUS:               ID:20120610164643 L   I
 2012-06-10-1640-00M.COL___201                                                 6
 STAT SP IPHASW D HRMM SECON CODA AMPLIT PERI AZIMU VELO AIN AR TRES W  DIS CAZ7
 BAR2 SZ EP   1   1647  0.29                             146    0.43 8 62.0  63 
 BAR2 SZ ES   1   1647 13.06                             146    0.38 8 62.0  63 
 BAR2 SZ I        1647 14.95        47.0 0.27            147           62.0  63 
 RUS  HZ EP   1   1647  1.64                             138   -0.13 8 82.9 127 
 RUS  HN ES   1   1647 15.80                             138   -0.27 8 82.9 127 
 RUS  HZ I        1647 17.68         6.5 0.27            141           82.9 127 
 PTB  HN ES   1   1647 15.28                             136   -0.42 8 88.3 284 
 NOR  SZ EP   1   1647  8.27                             118   -0.07 8  157 237 
 NOR  SN ES   1   1647 27.65                             118   -0.12 8  157 237 
 ZAR  HZ EP   1   1647 10.50                             114   -0.51 7  182 315 
 ZAR  HN ES       1647 32.44                             114   -0.0910  182 315 
 ZAR  HZ I        1647 34.88         9.8 0.38            116            182 315 
 HEL  HE ES   1   1647 38.91                             111    0.96 7  205 265 
                                                                                
