 2017  110 1501 19.1 L   6.787 -73.170146.1  RSN  8 0.4 2.4LRSN                1
 GAP=100        1.03       4.4     3.8  6.5 -0.1145E+01 -0.4116E+00  0.7412E+01E
 Epicentro: LOS SANTOS - SANTANDER                                             3
 ACTION:UPD 17-05-22 15:57 OP:jn   STATUS:               ID:20170110150119 L   I
 OLDACT:REG 17-01-10 22:59 OP:ar   STATUS:               ID:20170110145759     3
 2017-01-10-1457-59S.COL___321                                                 6
 STAT SP IPHASW D HRMM SECON CODA AMPLIT PERI AZIMU VELO AIN AR TRES W  DIS CAZ7
 BAR2 EZ EP       15 1 38.67                             171   -0.0910 21.6 184 
 BAR2 EZ ES       15 1 54.01                             171   -0.0610 21.6 184 
 BAR2 EZ I        15 1 56.42        97.1 0.30            178           21.6 184 
 BRR  HZ IP     D 15 1 40.49                             153    0.2710 69.5 301 
 BRR  HN ES       15 1 57.60                             153    0.9310 69.5 301 
 BRR  HZ I        15 2  1.37        46.9 0.28            152           69.5 301 
 PAM  EZ IP     D 15 1 41.49                             150   -0.0610 80.2  40 
 PAM  EN ES       15 1 58.66                             150   -0.3810 80.2  40 
 PAM  EZ I        15 2  1.35        28.5 0.60            149           80.2  40 
 RUS  HZ EP       15 1 42.69                             144   -0.1310 99.4 174 
 RUS  HZ ES       15 2  0.98                             144   -0.3210 99.4 174 
 RUS  HZ I        15 2  2.51        34.7 0.34            154           99.4 174 
 PTB  HZ EP       15 1 45.40                             133   -0.45 9  145 259 
 PTB  HN ES       15 2  6.09                             133   -0.61 9  145 259 
 PTB  HZ I        15 2  8.85        16.9 0.16            137            145 259 
 TAM  HZ EP       15 1 47.11                             130    0.07 9  157 104 
 TAM  HN ES       15 2  8.97                             130    0.16 9  157 104 
 CHI  HZ EP       15 1 57.04                             117    0.43 8  247 195 
 CHI  HN ES       15 2 26.34                             117    0.49 8  247 195 
 CHI  HZ I        15 2 32.17        14.8 0.34            124            247 195 
 VIL  EZ EP   4   15 1 44.01                             112   -18.3 0  301 191 
 VIL  HN ES   4   15 2  2.61                             112   -33.4 0  301 191 
 VIL  EZ I        15 2  4.65        32.1 0.38            118            301 191 
                                                                                
