 2017  310 1658 21.2 L   6.729 -73.200148.1  RSN  4 0.3 1.4LRSN                1
 GAP=225        0.85       6.7     6.4  6.9  0.2089E+02  0.4894E+01  0.1744E+01E
 Epicentro: VILLANUEVA - SANTANDER                                             3
 ACTION:UPD 17-05-25 18:38 OP:jn   STATUS:               ID:20170310165821 L   I
 OLDACT:UP  17-03-10 23:22 OP:and  STATUS:               ID:20170310165749     3
 OLDACT:UP  17-03-10 23:22 OP:and  STATUS:               ID:20170310165749     3
 OLDACT:REG 17-03-10 21:11 OP:and  STATUS:               ID:20170310165749     3
 2017-03-10-1658-00M.COL___406                                                 6
 STAT SP IPHASW D HRMM SECON CODA AMPLIT PERI AZIMU VELO AIN AR TRES W  DIS CAZ7
 BAR2 EZ EP       1658 40.82                             174   -0.1510 15.2 172 
 BAR2 EZ ES       1658 55.87                             174   -0.5210 15.2 172 
 BAR2 EZ I        1658 56.69        11.2 0.32            167           15.2 172 
 BRR  HZ EP       1658 42.43                             153   -0.1210 70.4 307 
 BRR  HN ES       1658 59.75                             153    0.5510 70.4 307 
 RUS  HZ EP       1658 44.99                             146    0.3210 93.3 172 
 RUS  HN ES       1659  3.20                             146    0.2210 93.3 172 
 RUS  HZ I        1659  4.81         3.1 0.40            143           93.3 172 
 PTB  HZ EP       1658 47.53                             134   -0.18 9  140 262 
 PTB  HN ES       1659  8.24                             134   -0.14 9  140 262 
 PTB  HZ I        1659 14.50         2.7 0.26            130            140 262 
                                                                                
