 2010  810 1721 52.9 L   6.766 -73.088140.5  RSN  6 0.2 1.8LRSN                1
 GAP=165        0.71       3.3     6.2  6.2 -0.3157E+01 -0.1145E+02 -0.1043E+01E
 Epicentro: LOS SANTOS - SANTANDER                                             3
 ACTION:UP  10-09-07 10:53 OP:vdl  STATUS:               ID:20100810172152 L   I
 2010-08-10-1720-02S.COL___124                                                 6
 STAT SP IPHASW D HRMM SECON CODA AMPLIT PERI AZIMU VELO SNR AR TRES W  DIS CAZ7
 BAR2 SZ EP       1722 11.74                             171    -0.110   22 209 
 BAR2 SZ ES   1   1722 26.41                             171    -0.2 7   22 209 
 BAR2 SZ I        1722 27.62        14.9 0.80                            22 209 
 BRR  HZ EP       1722 13.64                             149    -0.310   79 299 
 BRR  HZ I        1722 15.98        13.3 0.22                            79 299 
 BRR  HN ES       1722 30.50                             149     0.210   79 299 
 RUS  HZ EP       1722 15.77                             144    -0.110   97 180 
 RUS  HN ES   1   1722 34.02                                     0.3 7   97 180 
 RUS  HZ I        1722 36.20         6.9 0.97                            97 180 
 GUE  SZ EP       1722 17.79                             137     0.510  119   9 
 GUE  SZ ES   2   1722 36.23                             137    -0.1 5  119   9 
 GUE  SZ I        1722 39.31         5.4 0.03                           119   9 
 GRA  SZ EP       1722 17.68                             135    -0.110  128  14 
 GRA  SZ ES   1   1722 37.07                             135    -0.2 7  128  14 
 GRA  SZ I        1722 38.42        13.6 0.34                           128  14 
 RREF HN ES   2   1723 15.02                             110    -0.1 3  324 231 
 RREF HZ I        1723 21.01         2.7 0.28                           324 231 
                                                                                
