 2013  710 1621 41.1 L   6.814 -73.140146.8  RSN 13 0.5 2.6LRSN                1
 GAP= 71        1.29       3.8     4.1  6.7 -0.1861E+01  0.3719E+01  0.4447E+00E
 Epicentro: LOS SANTOS - SANTANDER                                             3
 ACTION:UPD 13-08-12 10:36 OP:ep   STATUS:               ID:20130710162141 L   I
 OLDACT:UP  13-07-15 09:58 OP:ep   STATUS:               ID:20130710162141 L   3
 OLDACT:UP  13-07-14 23:04 OP:Juan STATUS:               ID:20130710162141 L   3
 OLDACT:DUP 13-07-10 17:38 OP:stll STATUS:               ID:20130710161840d    3
 2013-07-10-1618-39M.COL___226                                                 6
 STAT SP IPHASW D HRMM SECON CODA AMPLIT PERI AZIMU VELO AIN AR TRES W  DIS CAZ7
 BAR2 SZ IP     C 1622  0.92                             170   -0.0210 25.0 191 
 BAR2 SZ ES       1622 16.00                             170   -0.3710 25.0 191 
 BAR2 SZ I        1622 19.00        37.4 0.22            169           25.0 191 
 GIR2 SZ EP       1622  0.73                             168   -0.1810 29.8 348 
 BRR  HZ IP     C 1622  2.89                             153    0.4910 71.0 297 
 BRR  HN ES       1622 20.18                             153    1.2010 71.0 297 
 BRR  HN I        1622 25.28        95.5 0.18            152           71.0 297 
 PAM  SZ EP       1622  3.68                             152    0.3010 75.7  40 
 PAM  SN ES       1622 20.68                             152   -0.0310 75.7  40 
 PAM  SN I        1622 22.19        98.4 0.66            155           75.7  40 
 RUS  HZ EP       1622  5.27                             144    0.1610  102 176 
 RUS  HN ES       1622 23.93                             144    0.1310  102 176 
 RUS  HN I        1622 25.18        82.7 0.40            146            102 176 
 CAPV BZ EP       1622  8.81                             132    0.33 9  148  38 
 CAPV BZ ES       1622 29.23                             132   -0.56 9  148  38 
 PTB  HZ EP   1   1622  7.77                             132   -0.52 7  149 258 
 PTB  HN ES       1622 28.55                             132   -0.91 9  149 258 
 PTB  HN I        1622 32.45        59.0 0.20            133            149 258 
 TAM  HZ EP       1622  9.06                             131    0.17 9  155 106 
 ZAR  HZ EP       1622 13.67                             123    0.01 9  204 292 
 ZAR  HE ES       1622 39.01                             123   -0.02 9  204 292 
 SML  HZ EP       1622 16.91                             118   -0.80 8  243 335 
 SML  HN ES       1622 45.77                             118   -0.45 8  243 335 
 CHI  HZ EP       1622 19.18                             117    0.09 8  250 195 
 CHI  HN ES       1622 47.77                             117   -0.91 8  250 195 
 CHI  HN I        1622 50.97        25.6 0.52            119            250 195 
 HEL  HZ EP   4   1622 22.83                             115    1.30 0  273 256 
 HEL  HN ES       1622 53.35                             115    0.32 8  273 256 
 HEL  HN I        1623  0.44        15.2 0.46            116            273 256 
 GUY2CHZ EP       1622 26.03                             112    1.06 7  303 235 
 GUY2CHN ES   4   1623  1.46                             112    2.31 0  303 235 
                                                                                
