 2013 1010 1611 29.4 L   6.618 -73.278 28.2  RSN  7 0.5 2.0LRSN                1
 GAP= 80        1.26       3.0     3.5  3.8  0.6414E+00  0.4092E+01 -0.1458E+01E
 Epicentro: GALAN - SANTANDER                                                  3
 ACTION:UPD 13-11-25 09:20 OP:ep   STATUS:               ID:20131010161129 L   I
 OLDACT:REG 13-10-10 16:52 OP:nd   STATUS:               ID:20131010160959     3
 2013-10-10-1609-59M.COL___273                                                 6
 STAT SP IPHASW D HRMM SECON CODA AMPLIT PERI AZIMU VELO AIN AR TRES W  DIS CAZ7
 BAR2 SZ EP       1611 34.84                             158    0.2510 11.0 105 
 BAR2 SZ ES       1611 39.03                             158    0.4110 11.0 105 
 BAR2 SZ I        1611 40.44       142.2 0.42            159           11.0 105 
 BRR  HZ EP       1611 41.40                             101   -0.0810 72.2 318 
 BRR  HN ES       1611 50.44                             101   -0.4510 72.2 318 
 BRR  HZ I        1611 52.06       101.3 0.10             99           72.2 318 
 RUS  HZ IP     C 1611 43.50                              99   -0.0510 83.1 165 
 RUS  HN ES       1611 53.60                              99   -0.9810 83.1 165 
 RUS  HZ I        1611 54.94        31.1 0.32             97           83.1 165 
 PAM  SZ EP       1611 46.40                              61    0.3910  102  39 
 PAM  SN ES       1611 58.71                              61   -0.2510  102  39 
 PAM  SZ I        1611 59.65        59.9 0.24             61            102  39 
 PTB  HZ IP     D 1611 48.96                              61   -0.0310  131 266 
 PTB  HN ES       1612  3.99                              61   -0.2610  131 266 
 PTB  HZ I        1612  5.65        33.7 0.42             61            131 266 
 SPBC HZ EP       1611 51.01                              61    0.96 9  138 219 
 SPBC HN ES   2   1612  6.88                              61    0.74 5  138 219 
 SPBC HZ I        1612 11.46        29.6 0.30             61            138 219 
 GUY2CHZ EP   4   1612  9.48                              60    1.57 0  278 236 
 GUY2CHN ES   4   1612 40.29                              60    2.35 0  278 236 
 GUY2CHZ I        1612 48.85         2.5 0.24                           278 236 
                                                                                
