 2011  110 1317 45.3 L   6.852 -73.268119.5  RSN  4 0.2 1.5LRSN                1
 GAP=191        0.49       3.9    15.6  6.4 -0.2688E+02 -0.1581E+02 -0.1026E+01E
 Epicentro: ZAPATOCA - SANTANDER                                               3
 ACTION:UP  11-02-08 08:40 OP:pat  STATUS:               ID:20110110131745 L   I
 2011-01-10-1300-00M.COL___136                                                 6
 STAT SP IPHASW D HRMM SECON CODA AMPLIT PERI AZIMU VELO SNR AR TRES W  DIS CAZ7
 BTL  SZ IP       1318  1.67                             176     0.110    7 360 
 BTL  SZ ES   2   1318 14.47                             176     0.3 5    7 360 
 BAR2 SZ IP       1318  1.87                             165    -0.110   30 162 
 BAR2 SZ ES   2   1318 14.46                             165    -0.5 5   30 162 
 RUS  HZ EP   1   1318  7.32                             135     0.1 7  108 169 
 RUS  HE ES   2   1318 24.52                             135     0.2 5  108 169 
 RUS  HZ I        1318 25.53         4.1 0.16                           108 169 
 GRA  SZ EP   1   1318  8.14                             130    -0.2 7  125  24 
 GRA  SZ ES   2   1318 26.42                             130     0.2 5  125  24 
 GRA  SZ I        1318 28.14         7.5 0.28                           125  24 
                                                                                
