 2011  210 1412 39.2 L   6.781 -73.127149.9  RSN  7 0.4 1.7LRSN                1
 GAP=161        0.89       4.7     5.8  7.9 -0.6144E+01  0.1992E+02 -0.4185E+01E
 Epicentro: LOS SANTOS - SANTANDER                                             3
 ACTION:UP  11-03-28 15:07 OP:jfem STATUS:               ID:20110210141239 L   I
 2011-02-10-1409-30S.COL___136                                                 6
 STAT SP IPHASW D HRMM SECON CODA AMPLIT PERI AZIMU VELO SNR AR TRES W  DIS CAZ7
 BAR2 SZ IP       1412 58.98                             171    -0.310   22 197 
 BAR2 SZ ES   1   1413 14.93                             171     0.0 7   22 197 
 BAR2 SZ I        1413 16.63        15.7 0.30                            22 197 
 RUS  HZ EP       1413  2.86                             145    -0.310   98 177 
 RUS  HE ES       1413 22.16                             145     0.210   98 177 
 RUS  HZ I        1413 23.32         5.0 0.20                            98 177 
 GRA  SZ EP   1   1413  5.29                             138     0.4 7  127  16 
 GRA  SZ ES   1   1413 25.03                             138     0.1 7  127  16 
 GRA  SZ I        1413 26.76        13.7 0.27                           127  16 
 NOR  SZ EP   2   1413 15.61                             119     0.4 4  235 235 
 NOR  SN ES   1   1413 43.13                             119    -0.2 6  235 235 
 CHI  HZ EP       1413 17.03                             118     0.1 8  247 196 
 CHI  HZ I        1413 19.66         3.3 0.31                           247 196 
 HEL  HE ES   1   1413 52.26                             115     0.8 6  274 256 
 DBB  SZ EP   1   1413 27.64                             110     0.5 5  342 275 
 DBB  SZ ES   1   1414  3.48                             110    -1.0 5  342 275 
 DBB  SZ I        1414  6.29         0.7 0.33                           342 275 
                                                                                
