 2014  110 1049 21.5 L   5.951 -74.149  6.8  RSN  6 0.7 1.0LRSN                1
 GAP=146        1.66       4.8     3.3 12.4 -0.1813E+01  0.1228E+01 -0.2674E+02E
 Epicentro: LA BELLEZA - SANTANDER                                             3
 ACTION:UPD 14-03-13 09:54 OP:ep   STATUS:               ID:20140110104921 L   I
 OLDACT:REG 14-01-10 15:39 OP:stll STATUS:               ID:20140110104813     3
 2014-01-10-1048-13M.COL___237                                                 6
 STAT SP IPHASW D HRMM SECON CODA AMPLIT PERI AZIMU VELO AIN AR TRES W  DIS CAZ7
 PTB  HZ EP       1049 33.56                              92    0.3110 73.4 332 
 PTB  HN ES       1049 42.51                              92    0.1010 73.4 332 
 PTB  HZ I        1049 42.89        10.2 0.14             47           73.4 332 
 NOR  HZ EP       1049 35.61                              92   -0.2810 90.5 242 
 NOR  HN ES       1049 47.04                              92   -0.0510 90.5 242 
 RUS  HZ EP       1049 40.67                              91    0.1310  118  93 
 RUS  HN ES       1049 54.73                              91   -0.6510  118  93 
 RUS  HZ I        1049 55.52         2.3 0.54             47            118  93 
 HEL  HZ EP       1049 46.24                              91    0.26 9  155 280 
 HEL  HZ I        1049 46.38         3.5 0.28             47            155 280 
 HEL  HN ES       1050  3.95                              91   -1.11 9  155 280 
 GUY2CHZ EP       1049 48.10                              91    1.73 9  157 239 
 GUY2CHN ES       1050  5.24                              91   -0.51 9  157 239 
 GUY2CHZ I        1050 12.98         0.9 0.28                           157 239 
 ZAR  HZ EP       1049 50.38                              56    0.39 9  188 335 
 ZAR  HN ES       1050 11.94                              56   -0.26 9  188 335 
 ZAR  HZ I        1050 16.39         2.1 0.44             37            188 335 
                                                                                
