 2015  310 1319 58.4 L   6.818 -73.148144.1  RSN  5 0.4 2.0LRSN                1
 GAP=201        1.01       4.4     7.1  7.5  0.5772E+01  0.1332E+02 -0.5934E+01E
 Epicentro: LOS SANTOS - SANTANDER                                             3
 ACTION:UPD 15-04-30 16:24 OP:nd   STATUS:               ID:20150310131958 L   I
 OLDACT:REG 15-03-10 20:05 OP:spq  STATUS:               ID:20150310131750     3
 2015-03-10-1317-50M.COL___278                                                 6
 STAT SP IPHASW D HRMM SECON CODA AMPLIT PERI AZIMU VELO AIN AR TRES W  DIS CAZ7
 BAR2 EZ EP       1320 18.07                             170    0.2110 25.2 189 
 BAR2 EZ ES       1320 33.47                             170    0.4210 25.2 189 
 BAR2 EZ I        1320 34.75        17.4 0.26            168           25.2 189 
 RUS  HZ EP       1320 22.61                             143    0.4910  103 176 
 RUS  HN ES       1320 39.78                             143   -0.8510  103 176 
 RUS  HZ I        1320 42.23         9.1 0.26            143            103 176 
 PTB  HZ EP       1320 24.88                             132   -0.36 9  148 258 
 PTB  HN ES       1320 46.39                             132    0.21 9  148 258 
 PTB  HZ I        1320 48.54         7.8 0.12            130            148 258 
 SML  HZ EP       1320 34.48                             117   -0.24 8  242 335 
 SML  HN ES       1321  2.88                             117   -0.17 8  242 335 
 SML  HZ I        1321  5.30        12.1 0.10            118            242 335 
 PRA  HZ EP       1320 52.25                             106    0.21 6  394 209 
 PRA  HN ES       1321 34.02                             106    0.13 6  394 209 
 PRA  HZ I        1321 40.54         4.4 0.36            106            394 209 
                                                                                
