 2016  710 1617 36.1 L   6.798 -73.137150.9  RSN  9 0.4 1.9LRSN                1
 GAP=138        0.98       4.4     4.5  6.8  0.1285E+01  0.2532E+01 -0.3043E+01E
 Epicentro: LOS SANTOS - SANTANDER                                             3
 ACTION:UPD 17-03-29 16:49 OP:lp   STATUS:               ID:20160710161736 L   I
 OLDACT:UP  16-07-11 04:21 OP:dani STATUS:               ID:20160710160601d    3
 OLDACT:UP  16-07-11 04:19 OP:dani STATUS:               ID:20160710160601d    3
 OLDACT:UP  16-07-11 04:19 OP:dani STATUS:               ID:20160710160601d    3
 OLDACT:UP  16-07-11 04:14 OP:dani STATUS:               ID:20160710160601d    3
 OLDACT:UP  16-07-11 04:14 OP:dani STATUS:               ID:20160710160601d    3
 OLDACT:DUP 16-07-11 01:54 OP:edw  STATUS:               ID:20160710160601d    3
 2016-07-10-1605-59S.COL___331                                                 6
 STAT SP IPHASW D HRMM SECON CODA AMPLIT PERI AZIMU VELO AIN AR TRES W  DIS CAZ7
 BAR2 EZ EP       1617 56.12                             171   -0.2610 23.3 193 
 BAR2 EZ ES       1618 11.90                             171   -0.2610 23.3 193 
 BAR2 EZ I        1618 13.00        11.7 0.46            167           23.3 193 
 BRR  HZ EP     C 1617 58.11                             153    0.2210 72.2 298 
 BRR  HE ES       1618 15.58                             153    0.7210 72.2 298 
 BRR  HZ I        1618 17.68        11.5 0.14            150           72.2 298 
 PAM  EZ EP       1617 59.04                             152    0.1810 76.9  39 
 RUS  HZ EP       1618  0.41                             145    0.0410  100 177 
 RUS  HN ES       1618 19.11                             145   -0.1610  100 177 
 RUS  HZ I        1618 20.41         4.7 0.40            145            100 177 
 PTB  HZ EP   4   1618  2.98                             133   -0.62 0  149 259 
 PTB  HN ES       1618 24.34                             133   -0.69 9  149 259 
 PTB  HZ I        1618 31.61        12.4 0.40            131            149 259 
 TAM  HE ES   4   1618 15.68                             132   -10.3 0  154 105 
 SPBC HZ EP       1618  5.10                             130    0.03 9  164 219 
 SPBC HE ES       1618 27.73                             130    0.09 9  164 219 
 SPBC HZ I        1618 34.28        19.4 0.32            129            164 219 
 ZAR  HZ EP       1618  8.78                             123   -0.24 9  205 292 
 ZAR  HE ES       1618 34.29                             123   -0.38 9  205 292 
 ZAR  HZ I        1618 40.78        10.7 0.34            123            205 292 
 NOR  HE ES       1618 41.12                             119    0.72 8  235 235 
 GUY2CHZ EP   4   1618 23.39                             113    3.33 0  302 235 
 GUY2CHE ES   4   1618 56.62                             113    2.30 0  302 235 
 GUY2CHZ I        1619  3.17         4.3 0.34                           302 235 
                                                                                
