 2014 1210 1045  2.9 L   6.788 -73.134132.6  RSN 14 0.5 1.9LRSN                1
 GAP= 72        2.04       5.5     5.6 10.3 -0.3075E+01  0.1154E+02  0.8945E+01E
 Epicentro: LOS SANTOS - SANTANDER                                             3
 ACTION:UPD 15-02-10 17:02 OP:nd   STATUS:               ID:20141210104502 L   I
 OLDACT:REG 14-12-10 20:36 OP:stll STATUS:               ID:20141210103749     3
 2014-12-10-1037-49M.COL___299                                                 6
 STAT SP IPHASW D HRMM SECON CODA AMPLIT PERI AZIMU VELO AIN AR TRES W  DIS CAZ7
 BAR2 E  EP       1045 21.32                             170    0.4110 22.3 194 
 BAR2 E  ES       1045 34.63                             170   -0.3310 22.3 194 
 BRR  HZ IP     C 1045 23.08                             149    0.3510 73.0 299 
 BRR  HN ES       1045 39.15                             149    0.9410 73.0 299 
 BRR  HZ I        1045 42.55        11.6 0.14            150           73.0 299 
 PAM  SZ IP     C 1045 24.02                             148    0.2910 77.6  38 
 PAM  SZ I        1045 24.27        45.1 0.24            152           77.6  38 
 PAM  SN ES       1045 40.56                             148    0.5810 77.6  38 
 RUS  HZ EP       1045 25.08                             141   -0.1710 99.2 177 
 RUS  HN ES       1045 42.86                             141    0.1610 99.2 177 
 RUS  HZ I        1045 44.27         9.4 0.24            144           99.2 177 
 PTB  HZ EP       1045 28.56                             128   -0.35 9  149 259 
 PTB  HN ES       1045 48.23                             128   -0.97 9  149 259 
 PTB  HZ I        1045 52.00        10.3 0.18            130            149 259 
 TAM  HZ EP       1045 29.56                             128    0.17 9  153 105 
 TAM  HN ES       1045 49.67                             128   -0.40 9  153 105 
 OCA  HZ EP       1045 29.71                             126   -0.64 9  162 353 
 OCA  HN ES       1045 51.12                             126   -0.65 9  162 353 
 OCA  HZ I        1045 54.52        14.3 0.34            129            162 353 
 SPBC HZ EP       1045 30.38                             126   -0.00 9  163 220 
 SPBC HN ES       1045 51.64                             126   -0.19 9  163 220 
 SPBC HZ I        1045 58.25        10.8 0.22            128            163 220 
 ZAR  HZ EP       1045 34.35                             119   -0.34 8  206 292 
 ZAR  HN ES       1045 59.58                             119    0.08 8  206 292 
 ZAR  HZ I        1046  5.84        14.1 0.36            121            206 292 
 NOR  HZ EP       1045 37.93                             115    0.02 8  235 235 
 NOR  HE ES       1046  5.07                             115   -0.17 8  235 235 
 NOR  HZ I        1046  7.08         6.0 0.16            117            235 235 
 CHI  HZ EP       1045 40.56                             114    0.78 8  248 196 
 CHI  HN ES       1046  8.14                             114   -0.42 8  248 196 
 CHI  HZ I        1046 11.88         2.6 0.28            116            248 196 
 GUY2CHZ EP       1045 46.42                             109    0.47 7  301 235 
 GUY2CHE ES       1046 19.90                             109    0.36 7  301 235 
 GUY2CHZ I        1046 26.38         2.8 0.32                           301 235 
 SOCV BZ EP   9   1045 44.08                             109   -1.24 0  301  56 
 SOCV BE ES       1046 12.73                                   -4.45 7  301  56 
 MON  HZ EP   9   1045 48.71                             106   -2.91 0  356 308 
 MON  HN ES       1046 26.31                                   -0.42 6  356 308 
 MON  HZ I        1046 28.45         2.1 0.26            108            356 308 
                                                                                
