 2017  710 1000 47.3 L   6.784 -73.189147.0  RSN  8 0.3 2.0LRSN                1
 GAP=208        0.80       3.9     3.4  5.2  0.4694E+01  0.2449E+01  0.3661E+01E
 Epicentro: ZAPATOCA - SANTANDER                                               3
 ACTION:UPD 17-08-30 15:31 OP:rebc STATUS:               ID:20170710100047 L   I
 OLDACT:UP  17-07-10 21:41 OP:lv   STATUS:               ID:20170710095741     3
 OLDACT:REG 17-07-10 20:26 OP:lv   STATUS:               ID:20170710095741     3
 2017-07-10-0958-00M.COL___368                                                 6
 STAT SP IPHASW D HRMM SECON CODA AMPLIT PERI AZIMU VELO AIN AR TRES W  DIS CAZ7
 BAR2 EZ EP       10 1  6.71                             171   -0.2910 21.2 178 
 BAR2 EZ ES       10 1 22.04                             171   -0.3610 21.2 178 
 BAR2 EZ I        10 1 23.73        10.0 0.19            166           21.2 178 
 BRR  HZ EP       10 1  8.51                             154    0.1410 67.9 302 
 BRR  HE ES       10 1 25.30                             154    0.4710 67.9 302 
 BRR  HZ I        10 1 30.03        11.1 0.05            152           67.9 302 
 PTB  HZ EP       10 1 13.55                             133   -0.33 9  143 259 
 PTB  HN ES       10 1 34.67                             133    0.03 9  143 259 
 PTB  HZ I        10 1 38.14         6.2 0.06            132            143 259 
 SPBC HZ EP       10 1 15.72                             130    0.27 9  159 218 
 SPBC HN ES       10 1 37.39                             130   -0.04 9  159 218 
 SPBC HZ I        10 1 44.88       990.1 0.03            129            159 218 
 YPLC HZ EP       10 1 16.83                             127   -0.40 9  178 150 
 YPLC HN ES       10 1 41.01                             127    0.41 9  178 150 
 YPLC HZ I        10 1 41.90         3.4 0.19            129            178 150 
 ZAR  HZ EP       10 1 19.88                             123    0.48 9  200 293 
 ZAR  HE ES       10 1 44.12                             123   -0.36 9  200 293 
 ZAR  HZ I        10 1 50.96         9.3 0.17            124            200 293 
 NOR  HZ EP       10 1 22.63                             119    0.09 8  230 234 
 NOR  HN ES       10 1 50.25                             119    0.20 8  230 234 
 NOR  HZ I        10 1 58.10         3.1 0.24            119            230 234 
 HEL  HZ EP   4   10 1 29.74                             115    2.76 0  267 256 
 HEL  HN ES   1   10 1 57.38                             115   -0.57 6  267 256 
 HEL  HZ I        10 2  5.72         3.4 0.24            116            267 256 
 PTGC HZ EP   4   10 1 29.53                             112   -1.66 0  309 158 
 PTGC HN ES   4   10 2  2.76                             112   -2.69 0  309 158 
 SJC  HZ EP   4   10 1 40.87                             106   -1.87 0  408 328 
 SJC  HN ES   4   10 2 24.26                             106   -1.74 0  408 328 
                                                                                
