 2014 1010 1009 53.7 L   6.804 -73.175136.1  RSN 12 0.6 1.8LRSN                1
 GAP=133        1.53       3.7     6.0  7.9 -0.9077E+00  0.8837E+01  0.1448E+01E
 Epicentro: LOS SANTOS - SANTANDER                                             3
 ACTION:UPD 14-11-29 23:48 OP:nd   STATUS:               ID:20141010100953 L   I
 OLDACT:REG 14-10-10 21:18 OP:stll STATUS:               ID:20141010100738     3
 2014-10-10-1007-38M.COL___290                                                 6
 STAT SP IPHASW D HRMM SECON CODA AMPLIT PERI AZIMU VELO AIN AR TRES W  DIS CAZ7
 BAR2 SZ EP       1010 12.63                             170    0.4210 23.4 182 
 BAR2 SZ ES       1010 26.20                             170   -0.4210 23.4 182 
 BAR2 SZ I        1010 28.37        35.1 0.30            167           23.4 182 
 BRR  HZ IP     D 1010 14.32                             152    0.6510 68.2 300 
 BRR  HZ I        1010 14.41        17.6 0.18            149           68.2 300 
 BRR  HN ES       1010 30.35                             152    1.1310 68.2 300 
 PAM  SZ IP     C 1010 15.49                             148    0.4410 79.2  42 
 PAM  SZ I        1010 15.62        21.4 0.18            154           79.2  42 
 PAM  SN ES       1010 31.86                             148    0.1910 79.2  42 
 RUS  HZ EP       1010 16.56                             141   -0.0510  101 174 
 RUS  HN ES       1010 34.17                             141   -0.2710  101 174 
 RUS  HZ I        1010 36.54         5.1 0.24            142            101 174 
 PTB  HN ES       1010 39.27                             130   -0.59 9  145 258 
 PTB  HZ I        1010 47.29         7.3 0.58            129            145 258 
 OCA  HZ EP       1010 20.69                             127   -0.55 9  159 354 
 OCA  HN ES       1010 41.81                             127   -0.88 9  159 354 
 OCA  HZ I        1010 46.27        10.7 0.18            129            159 354 
 SPBC HZ EP       1010 21.52                             127    0.17 9  162 218 
 SPBC HN ES       1010 42.56                             127   -0.33 9  162 218 
 SPBC HZ I        1010 51.94         5.9 0.48            126            162 218 
 ZAR  HZ EP       1010 26.37                             121    1.13 9  201 292 
 ZAR  HE ES       1010 49.87                             121    0.05 9  201 292 
 ZAR  HZ I        1010 56.07         8.6 0.28            120            201 292 
 SML  HZ EP       1010 29.03                             115   -0.62 8  242 336 
 SML  HN ES       1010 56.88                             115   -0.79 8  242 336 
 SML  HZ I        1011  0.69        10.7 0.26            116            242 336 
 CHI  HZ EP       1010 31.22                             115    0.34 8  248 194 
 CHI  HE ES       1010 58.92                             115   -0.92 8  248 194 
 CHI  HZ I        1011  4.81         2.0 0.36            116            248 194 
 MON  HZ EP   9   1010 39.48                             107   -2.58 0  351 309 
 MON  HN ES       1011 15.56                                   -1.61 6  351 309 
 MON  HZ I        1011 22.27         1.0 0.22            107            351 309 
 PRA  HZ EP       1010 46.85                             105    0.05 6  391 209 
 PRA  HN ES       1011 28.55                             105    0.36 6  391 209 
 PRA  HZ I        1011 34.02         2.3 0.30            105            391 209 
                                                                                
