 2010  610 1628  4.5 L   6.706 -72.826130.0  RSN  4 0.4 1.4LRSN                1
 GAP=196        0.84       8.2    47.8 19.9 -0.2937E+03 -0.5544E+03  0.3617E+02E
 Epicentro: MOLAGAVITA - SANTANDER                                             3
 ACTION:UP  10-08-24 10:09 OP:vdl  STATUS:               ID:20100610162804 L   I
 2010-06-10-1626-16S.COL___114                                                 6
 STAT SP IPHASW D HRMM SECON CODA AMPLIT PERI AZIMU VELO SNR AR TRES W  DIS CAZ7
 BAR2 SZ EP       1628 22.70                             161    -0.110   42 252 
 BAR2 SZ ES   3   1628 36.49                             161    -0.6 2   42 252 
 RUS  HZ EP       1628 26.09                             142    -0.210   94 198 
 RUS  HE ES   2   1628 43.91                             142     0.7 5   94 198 
 RUS  HZ I        1628 46.54         5.0 0.38                            94 198 
 GUE  SZ EP       1628 29.11                             134     0.610  125 355 
 GRA  SZ EP       1628 28.48                             132    -0.310  130   1 
 GRA  SZ ES   2   1628 47.63                             132    -0.1 5  130   1 
                                                                                
