 2017  910 1027 29.6 L   6.779 -73.120138.8  RSN  7 0.4 1.5LRSN                1
 GAP=141        1.03       4.2     4.9  6.7  0.3969E+00  0.1252E+02  0.5267E+01E
 Epicentro: LOS SANTOS - SANTANDER                                             3
 ACTION:UPD 17-10-05 19:10 OP:rebc STATUS:               ID:20170910102729 L   I
 OLDACT:DUP 17-09-10 20:11 OP:lv   STATUS:               ID:20170910101739d    3
 2017-09-10-1018-00M.COL___397                                                 6
 STAT SP IPHASW D HRMM SECON CODA AMPLIT PERI AZIMU VELO AIN AR TRES W  DIS CAZ7
 BAR2 EZ EP       1027 48.16                             171   -0.1910 21.8 198 
 BAR2 EZ ES       1028  2.43                             171   -0.5510 21.8 198 
 BAR2 EZ I        1028  3.95        13.5 0.32            169           21.8 198 
 BRR  HZ IP     C 1027 49.85                             150   -0.3610 74.8 299 
 BRR  HE ES       1028  7.06                             150    0.7810 74.8 299 
 BRR  HZ I        1028 10.81         7.6 0.20            148           74.8 299 
 PAM  EZ EP       1027 51.01                             149   -0.0710 77.5  37 
 PAM  EN ES       1028  8.03                             149    0.2010 77.5  37 
 PAM  EZ I        1028 10.21         5.0 0.50            153           77.5  37 
 RUS  HZ EP       1027 52.47                             143   -0.0110 98.1 178 
 RUS  HN ES       1028 10.51                             143    0.1810 98.1 178 
 RUS  HZ I        1028 12.88         3.3 0.26            145           98.1 178 
 ZAR  HZ EP       1028  2.54                             120    0.58 8  208 292 
 ZAR  HN ES       1028 26.42                             120   -0.78 8  208 292 
 ZAR  HZ I        1028 33.97         3.4 0.13            121            208 292 
 GUY2CHZ EP   4   1028 15.25                             111    2.25 0  302 235 
 GUY2CHN ES       1028 47.01                             111    0.15 7  302 235 
 GUY2CHZ I        1028 54.46         1.5 0.30                           302 235 
 PRA  HZ EP       1028 22.87                             105    0.06 6  391 210 
 PRA  HE ES       1029  4.52                             105    0.20 6  391 210 
 PRA  HZ I        1029 10.51         0.9 0.28            107            391 210 
                                                                                
