 2017  310 1129 50.0 L   6.827 -73.154138.4  RSN  9 0.4 1.6LRSN                1
 GAP=134        0.67       3.1     3.9  5.2 -0.2292E+00  0.9580E+01  0.8812E+00E
 Epicentro: LOS SANTOS - SANTANDER                                             3
 ACTION:UPD 17-05-25 18:38 OP:jn   STATUS:               ID:20170310112950 L   I
 OLDACT:UP  17-03-10 21:57 OP:and  STATUS:               ID:20170310112743     3
 OLDACT:UP  17-03-10 21:56 OP:and  STATUS:               ID:20170310112743     3
 OLDACT:UP  17-03-10 21:55 OP:and  STATUS:               ID:20170310112743     3
 OLDACT:REG 17-03-10 20:48 OP:and  STATUS:               ID:20170310112743     3
 2017-03-10-1128-00M.COL___400                                                 6
 STAT SP IPHASW D HRMM SECON CODA AMPLIT PERI AZIMU VELO AIN AR TRES W  DIS CAZ7
 BAR2 EZ EP       1130  8.53                             169   -0.2710 26.1 187 
 BAR2 EZ ES       1130 23.06                             169   -0.4010 26.1 187 
 BAR2 EZ I        1130 24.82        11.4 0.28            167           26.1 187 
 BRR  HZ EP       1130 10.51                             152    0.2910 69.0 297 
 BRR  HN ES   3   1130 27.43                             152    1.43 2 69.0 297 
 BRR  HZ I        1130 30.75         8.8 0.32            149           69.0 297 
 PAM  EZ EP     C 1130 11.52                             149    0.2010 75.7  41 
 PAM  EN ES       1130 28.02                             149    0.0610 75.7  41 
 PAM  EZ I        1130 30.73         7.3 0.50            155           75.7  41 
 RUS  HZ EP   2   1130 13.02                             141   -0.23 5  104 176 
 RUS  HN ES       1130 31.63                             141    0.2410  104 176 
 RUS  HZ I        1130 32.36         4.3 0.24            143            104 176 
 ZAR  HZ EP   2   1130 21.52                             121   -0.25 4  202 291 
 ZAR  HN ES       1130 46.28                             121   -0.27 9  202 291 
 ZAR  HZ I        1130 51.90         3.8 0.28            121            202 291 
 NOR  HZ EP   2   1130 25.32                             116   -0.09 4  236 234 
 NOR  HN ES   2   1130 53.02                             116   -0.02 4  236 234 
 NOR  HZ I        1130 58.55         2.5 0.16            117            236 234 
 CHI  HZ EP   2   1130 26.94                             115   -0.64 4  251 195 
 CHI  HN ES   3   1130 56.45                             115   -0.44 2  251 195 
 CHI  HZ I        1130 59.98         2.8 0.43            117            251 195 
 GUY2CHZ EP   2   1130 34.88                             110    1.50 4  302 234 
 GUY2CHN ES   4   1131 10.48                             110    3.26 0  302 234 
 GUY2CHZ  IAML    1131 14.91         1.7 0.32                           302 234 
 PRA  HZ EP       1130 43.61                             105    0.09 6  394 209 
 PRA  HN ES   2   1131 25.39                             105    0.13 3  394 209 
 PRA  HZ I        1131 29.87         2.0 0.32            106            394 209 
                                                                                
