 2011 1110 1825  8.3 L   6.762 -73.102145.9  RSN  4 0.2 1.5LRSN                1
 GAP=144        0.47       3.3     4.4  5.2  0.1585E+01 -0.2464E+01  0.1382E+01E
 Epicentro: LOS SANTOS - SANTANDER                                             3
 ACTION:UPD 12-07-13 16:09 OP:ep   STATUS:               ID:20111110182508 L   I
 2011-11-10-1820-52S.COL___178                                                 6
 STAT SP IPHASW D HRMM SECON CODA AMPLIT PERI AZIMU VELO AIN AR TRES W  DIS CAZ7
 BAR2 SZ EP   2   1825 27.31                             172   -0.62 5 20.8 205 
 BAR2 SZ ES   2   1825 42.84                             172   -0.38 5 20.8 205 
 BAR2 SZ I        1825 44.72         8.9 0.18                          20.8 205 
 BRR  HZ EP       1825 29.79                             150   -0.0710 77.5 300 
 BRR  HZ I        1825 30.38        10.2 0.22                          77.5 300 
 BRR  HE ES       1825 46.75                             150    0.1010 77.5 300 
 PAM  SZ EP   1   1825 30.59                             151    0.00 7 77.8  35 
 PAM  SE ES   1   1825 48.04                             151    0.09 7 77.8  35 
 RUS  HZ EP   1   1825 32.05                             145    0.26 7 96.2 179 
 RUS  HE ES   1   1825 50.12                             145    0.04 7 96.2 179 
 RUS  HZ I        1825 51.74         2.4 0.14                          96.2 179 
                                                                                
