 2010 1010 1808 56.1 L   6.656 -73.192134.3  RSN  4 0.1 1.8LRSN                1
 GAP=160        0.33       3.7     4.0  4.1 -0.4030E+01 -0.6915E+01  0.1162E+01E
 Epicentro: BARICHARA - SANTANDER                                              3
 ACTION:UP  11-02-18 11:08 OP:tino STATUS:               ID:20101010180856 L   I
 2010-10-10-1805-34S.COL___121                                                 6
 STAT SP IPHASW D HRMM SECON CODA AMPLIT PERI AZIMU VELO SNR AR TRES W  DIS CAZ7
 BAR2 SZ EP   1   18 9 14.22                             177     0.1 7    7 173 
 BAR2 SZ ES   2   18 9 28.05                             177    -0.1 5    7 173 
 BAR2 SZ I        18 9 28.80        14.9 0.24                             7 173 
 BRR  HZ EP       18 9 16.23                             149    -0.110   76 311 
 BRR  HZ I        18 9 16.46        45.7 0.15                            76 311 
 BRR  HN ES       18 9 32.11                             149     0.010   76 311 
 GUE  SZ EP       18 9 21.19                             133     0.010  133  13 
 GUE  SZ I        18 9 21.35         3.1 0.14                           133  13 
 NOR  SN ES   2   18 9 55.98                             118     0.0 4  222 237 
                                                                                
