 2013  110 1701 17.3 L   6.684 -73.207155.6  RSN  4 0.3 1.7LRSN                1
 GAP=215        0.73       6.2     6.6  7.2  0.1625E+02  0.1762E+02 -0.3042E+00E
 Epicentro: VILLANUEVA - SANTANDER                                             3
 ACTION:UPD 13-02-15 09:13 OP:ep   STATUS:               ID:20130110170117 L   I
 2013-01-10-1658-42M.COL___196                                                 6
 STAT SP IPHASW D HRMM SECON CODA AMPLIT PERI AZIMU VELO AIN AR TRES W  DIS CAZ7
 BAR2 SZ ES       17 1 53.73                             176   -0.3210 10.5 165 
 BAR2 SZ I        17 1 55.15         7.9 0.18            174           10.5 165 
 BRR  HZ EP       17 1 39.38                             154   -0.2410 72.9 310 
 BRR  HN ES       17 1 57.41                             154    0.3910 72.9 310 
 RUS  HN ES       17 2  0.12                             149    0.2010 88.6 171 
 PTB  HZ EP       17 1 44.55                             136    0.20 9  139 263 
 PTB  HN ES       17 2  5.21                             136   -0.23 9  139 263 
 PTB  HN I        17 2  8.36         6.7 0.24            135            139 263 
                                                                                
