 2011  610 1102 20.9 L   6.771 -73.090141.3  RSN  8 0.3 2.4LRSN                1
 GAP=162        0.53       2.8     5.3  5.3 -0.8145E+01  0.2045E+01  0.7260E+00E
 Epicentro: LOS SANTOS - SANTANDER                                             3
 ACTION:UP  11-07-14 19:04 OP:ep   STATUS:               ID:20110610110220 L   I
 2011-06-10-1101-23S.COL___131                                                 6
 STAT SP IPHASW D HRMM SECON CODA AMPLIT PERI AZIMU VELO SNR AR TRES W  DIS CAZ7
 BAR2 SZ IP       11 2 39.89                             171    -0.110   22 207 
 BAR2 SZ I        11 2 40.28        57.2 0.12                            22 207 
 BAR2 SZ ES   2   11 2 54.62                             171    -0.2 5   22 207 
 BRR  HZ EP   1   11 2 41.84                             149    -0.2 7   78 298 
 BRR  HZ I        11 2 42.24        68.9 0.10                            78 298 
 BRR  HE ES   2   11 2 58.86                             149     0.4 5   78 298 
 RUS  HZ EP   1   11 2 43.80                             144    -0.2 7   97 180 
 RUS  HZ I        11 2 44.61        18.1 0.23                            97 180 
 RUS  HE ES   2   11 3  2.13                             144     0.2 5   97 180 
 BRI  SZ EP       11 2 44.62                             140     0.210  109  17 
 BRI  SZ ES   2   11 3  2.77                             140     0.0 5  109  17 
 BRI  SZ I        11 3  5.10        39.1 0.31                           109  17 
 GRA  SZ IP       11 2 45.80                             136    -0.110  127  14 
 GRA  SZ ES   2   11 3  5.49                             136     0.1 5  127  14 
 GRA  SZ I        11 3  6.39        36.5 0.41                           127  14 
 OCA  SZ EP   1   11 2 49.38                             128     0.1 7  164 351 
 OCA  SZ ES   2   11 3 11.29                             128    -0.1 5  164 351 
 OCA  SZ I        11 3 14.65        29.7 0.26                           164 351 
 NOR  SZ EP   2   11 2 56.28                             117    -0.5 4  238 236 
 NOR  SE ES   2   11 3 24.04                             117    -0.6 4  238 236 
 PRA  HZ EP   2   11 3 14.11                             106    -0.2 3  392 211 
 PRA  HN ES       11 3 56.61                             106     0.6 6  392 211 
                                                                                
