 2010  810 1011  9.3 L   5.761 -74.057  2.0  RSN  5 0.5 1.7LRSN                1
 GAP=138        1.01       4.4     6.2 11.8 -0.1519E+02 -0.8821E+01 -0.9077E+01E
 Epicentro: FLORIAN - SANTANDER                                                3
 ACTION:UP  10-09-07 10:53 OP:vdl  STATUS:               ID:20100810101109 L   I
 2010-08-10-1009-41S.COL___125                                                 6
 STAT SP IPHASW D HRMM SECON CODA AMPLIT PERI AZIMU VELO SNR AR TRES W  DIS CAZ7
 CHI  HN ES   2   1011 47.40                              47     0.7 5  130 164 
 BAR2 SZ EP   1   1011 30.11                              47    -0.5 8  133  46 
 BAR2 SZ ES   1   1011 46.80                              47    -0.4 8  133  46 
 BAR2 SZ I        1011 48.65         7.9 0.47                           133  46 
 BRR  HN ES       1011 52.60                              47     0.310  154  14 
 BRR  HZ I        1011 53.70        20.7 0.23                           154  14 
 RREF HZ EP   1   1011 37.12                              47     0.3 7  172 236 
 RREF HN ES   2   1011 57.26                              47    -1.1 5  172 236 
 GRA  SZ EP   2   1011 49.64                              37     0.5 4  273  30 
 GRA  SZ I        1012  6.61         3.6 0.55                           273  30 
                                                                                
