 2013 1110 1017 15.3 L   6.813 -73.169150.2  RSN  7 0.4 1.6LRSN                1
 GAP=181        0.84       4.0     5.6  6.1  0.8424E+01 -0.6109E+00 -0.7174E+01E
 Epicentro: LOS SANTOS - SANTANDER                                             3
 ACTION:UPD 14-01-09 16:26 OP:ep   STATUS:               ID:20131110101715 L   I
 OLDACT:DUP 13-11-10 15:04 OP:jn   STATUS:               ID:20131110101002d    3
 2013-11-10-1010-00M.COL___273                                                 6
 STAT SP IPHASW D HRMM SECON CODA AMPLIT PERI AZIMU VELO AIN AR TRES W  DIS CAZ7
 BAR2 SZ EP       1017 35.62                             171    0.1710 24.4 183 
 BAR2 SZ ES       1017 51.31                             171    0.1110 24.4 183 
 BAR2 SZ I        1017 51.76        14.7 0.24            172           24.4 183 
 BRR  HZ EP       1017 37.03                             154    0.2910 68.2 299 
 BRR  HN ES       1017 53.98                             154    0.4910 68.2 299 
 BRR  HZ I        1017 58.58         5.9 0.42            154           68.2 299 
 RUS  HZ EP       1017 39.77                             144    0.2010  102 175 
 RUS  HN ES       1017 58.00                             144   -0.5310  102 175 
 RUS  HZ I        1017 59.43         4.9 0.28            147            102 175 
 PTB  HZ EP       1017 42.17                             134   -0.23 9  145 258 
 PTB  HN ES       1018  3.27                             134   -0.29 9  145 258 
 PTB  HZ I        1018  5.01         4.4 0.30            135            145 258 
 OCA  HN ES   2   1018  5.17                             131   -0.83 5  159 354 
 ZAR  HN ES   2   1018 13.17                             124    0.16 4  201 292 
 SML  HZ EP       1017 52.13                             119    0.24 8  241 336 
 SML  HN ES       1018 20.01                             119   -0.44 8  241 336 
                                                                                
