 2011 1010 1143 10.4 L   6.771 -73.334138.0  RSN  4 0.2 1.5LRSN                1
 GAP=131        0.49       7.7    14.3  6.9  0.5754E+02  0.3910E+02  0.2393E+02E
 Epicentro: ZAPATOCA - SANTANDER                                               3
 ACTION:UPD 12-07-13 16:03 OP:ep   STATUS:               ID:20111010114310 L   I
 2011-10-10-1140-00M.COL___171                                                 6
 STAT SP IPHASW D HRMM SECON CODA AMPLIT PERI AZIMU VELO AIN AR TRES W  DIS CAZ7
 BAR2 SZ EP       1143 29.27                             169    0.1210 26.0 140 
 BAR2 SZ ES   1   1143 44.08                             169    0.30 7 26.0 140 
 BAR2 SZ I        1143 47.23         6.8 0.66                          26.0 140 
 GIR2 SZ ES   2   1143 43.61                             164   -0.49 5 37.4  25 
 RUS  HZ EP       1143 33.31                             142   -0.1110  101 164 
 RUS  HE ES   2   1143 51.18                             142   -0.21 5  101 164 
 ZAR  HE ES   3   1144  3.88                             123   -0.10 2  186 295 
                                                                                
