 2011  710 1349  4.5 L   6.786 -73.094145.5  RSN 16 0.4 2.8LRSN                1
 GAP=130        0.78       3.2     4.7  4.6 -0.7402E+01  0.4445E+01  0.2125E+00E
 Epicentro: LOS SANTOS - SANTANDER                                             3
 ACTION:UPD 12-07-25 13:59 OP:epov STATUS:               ID:20110710134904 L   I
 2011-07-10-1347-16S.COL___140                                                 6
 STAT SP IPHASW D HRMM SECON CODA AMPLIT PERI AZIMU VELO AIN AR TRES W  DIS CAZ7
 BAR2 SZ EP       1349 24.19                             170    0.0910 23.6 204 
 BAR2 SZ ES   1   1349 38.66                             170   -0.73 7 23.6 204 
 BAR2 SZ I        1349 40.88       152.1 0.11                          23.6 204 
 PAM  SZ EP   1   1349 26.64                             151    0.09 7 75.1  35 
 PAM  SN ES   1   1349 43.30                             151   -0.46 7 75.1  35 
 BRR  HZ EP       1349 26.00                             151    0.0510 76.9 297 
 BRR  HZ I        1349 42.64        94.6 0.16                          76.9 297 
 BRR  HN ES   1   1349 43.14                             151    0.46 7 76.9 297 
 RUS  HZ EP   1   1349 28.06                             144   -0.04 7 98.9 179 
 RUS  HN ES   1   1349 47.16                             144    0.65 7 98.9 179 
 RUS  HZ I        1349 48.59        96.2 0.30                          98.9 179 
 BRI  SZ EP       1349 28.72                             141    0.3910  108  18 
 GRA  SZ EP       1349 30.04                             137    0.3310  126  15 
 GRA  SZ I        1349 51.10        90.4 0.34                           126  15 
 OCA  SZ EP       1349 32.75                             129   -0.25 9  163 351 
 OCA  SZ I        1349 59.16        80.2 0.23                           163 351 
 NOR  SZ EP       1349 40.04                             118   -0.58 8  238 236 
 NOR  SE ES   1   1350  8.37                             118   -0.42 6  238 236 
 CHI  HZ EP       1349 42.37                             117    0.17 8  249 197 
 CHI  HN ES   1   1350 11.29                             117   -0.31 6  249 197 
 CHI  HZ I        1350 16.01        48.0 0.56                           249 197 
 ROSC BZ EP   1   1349 43.04                             116    0.25 6  254 212 
 ROSC BZ I        1350 18.81        63.5 0.42                           254 212 
 HEL  HZ EP   1   1349 45.02                             114   -0.25 6  277 256 
 RREF HZ EP   2   1349 51.57                             110    0.56 3  325 230 
 RREF HE ES   2   1350 27.20                             110   -0.09 3  325 230 
 RREF HZ I        1350 36.36        52.1 0.46                           325 230 
 DBB  SZ EP       1349 52.62                             109   -0.01 7  345 274 
 TOL  SZ EP       1349 53.73                             109    0.64 6  346 225 
 SDV  BZ EP       1349 53.39                             108   -0.75 6  357  49 
 SDV  BZ I        1350 34.29        14.1 0.34                           357  49 
 PRA  HZ EP       1349 58.04                             106   -0.15 6  394 210 
 PRA  HE ES   1   1350 39.90                             106   -0.17 4  394 210 
                                                                                
