 2013  710 1205 37.8 L   6.694 -73.204148.2  RSN  5 0.3 1.7LRSN                1
 GAP=166        0.75       5.8     5.5  7.6  0.1063E+02 -0.3386E+01 -0.1401E+02E
 Epicentro: VILLANUEVA - SANTANDER                                             3
 ACTION:UPD 13-08-12 10:36 OP:ep   STATUS:               ID:20130710120537 L   I
 OLDACT:REG 13-07-10 15:41 OP:stll STATUS:               ID:20130710115835     3
 2013-07-10-1158-35M.COL___225                                                 6
 STAT SP IPHASW D HRMM SECON CODA AMPLIT PERI AZIMU VELO AIN AR TRES W  DIS CAZ7
 BAR2 SZ EP       12 5 57.50                             175   -0.0210 11.5 168 
 BAR2 SZ ES       12 6 12.60                             175   -0.3210 11.5 168 
 BAR2 SZ I        12 6 13.53         4.3 0.28            177           11.5 168 
 GIR2 SZ EP       12 5 57.75                             163   -0.3310 42.5   2 
 BRR  HZ EP       12 5 59.55                             153    0.3110 72.3 309 
 BRR  HE ES       12 6 16.32                             153    0.3310 72.3 309 
 BRR  HE I        12 6 17.33        25.4 0.18            153           72.3 309 
 RUS  HN ES       12 6 19.40                             147    0.2610 89.7 171 
 PTB  HN ES       12 6 24.57                             134   -0.26 9  140 263 
                                                                                
