 2011 1010 1116 35.8 L   6.067 -74.126 14.9  RSN  4 0.1 1.6LRSN                1
 GAP=233        0.34       2.7     3.5 10.8  0.4939E+01  0.2171E+02  0.7287E+01E
 Epicentro: CIMITARRA - SANTANDER                                              3
 ACTION:UPD 12-07-13 16:03 OP:ep   STATUS:               ID:20111010111635 L   I
 2011-10-10-1100-00M.COL___171                                                 6
 STAT SP IPHASW D HRMM SECON CODA AMPLIT PERI AZIMU VELO AIN AR TRES W  DIS CAZ7
 RUS  HZ EP   2   1116 54.91                              96    0.16 5  117  99 
 RUS  HE ES   2   1117  9.55                              96    0.05 5  117  99 
 BAR2 SZ EP       1116 54.89                              95    0.0410  119  61 
 BAR2 SZ ES   1   1117  9.55                              95   -0.13 7  119  61 
 BAR2 SZ I        1117 11.25        16.2 0.60                           119  61 
 BRR  HZ EP       1116 55.12                              95   -0.1310  124  22 
 BRR  HN ES   1   1117 10.57                              95    0.18 7  124  22 
 BRR  HZ I        1117 13.76         7.6 0.30                           124  22 
 ZAR  HN ES   3   1117 23.01                              56    0.05 2  177 333 
 ZAR  HZ I        1117 26.47         5.8 0.26                           177 333 
                                                                                
