 2011  310 1710 31.6 L   6.817 -73.190146.3  RSN  5 0.3 1.6LRSN                1
 GAP=154        0.49       3.7    15.5  5.6 -0.3922E+02  0.2362E+02 -0.6537E+01E
 Epicentro: ZAPATOCA - SANTANDER                                               3
 ACTION:UP  11-06-16 14:32 OP:jfem STATUS:               ID:20110310171031 L   I
 2011-03-10-1708-20S.COL___135                                                 6
 STAT SP IPHASW D HRMM SECON CODA AMPLIT PERI AZIMU VELO SNR AR TRES W  DIS CAZ7
 BAR2 SZ EP       1710 51.14                             169    -0.110   25 178 
 BAR2 SZ ES   1   1711  6.43                             169    -0.2 7   25 178 
 BAR2 SZ I        1711  7.92        17.9 0.37                            25 178 
 RUS  HZ EP       1710 55.55                             143     0.010  103 173 
 RUS  HZ I        1710 55.91         3.6 0.32                           103 173 
 RUS  HN ES   1   1711 14.53                             143     0.3 7  103 173 
 GRA  SZ EP       1710 56.92                             137     0.110  126  20 
 GRA  SZ ES   1   1711 16.48                             137    -0.1 7  126  20 
 CHI  HN ES   3   1711 38.13                             117    -0.7 2  249 194 
 HEL  HZ EP   3   1711 12.30                             115     1.0 2  268 255 
                                                                                
