 2014  710 1650 57.3 L   6.756 -73.184152.0  RSN  4 0.2 1.7LRSN                1
 GAP=236        0.51       6.0     3.8  4.4  0.9478E+01  0.4142E+01  0.1907E+00E
 Epicentro: LOS SANTOS - SANTANDER                                             3
 ACTION:UPD 15-03-16 20:42 OP:nd   STATUS:               ID:20140710165057 L   I
 OLDACT:UP  14-07-10 21:51 OP:cam  STATUS:               ID:20140710165002d    3
 OLDACT:DUP 14-07-10 21:33 OP:cam  STATUS:               ID:20140710165002d    3
 OLDACT:REG 14-07-10 19:50 OP:cam  STATUS:               ID:20140710165000     3
 2014-07-10-1650-00M.COL___282                                                 6
 STAT SP IPHASW D HRMM SECON CODA AMPLIT PERI AZIMU VELO AIN AR TRES W  DIS CAZ7
 BAR2 SZ EP       1651 17.51                             173   -0.0410 18.1 179 
 BAR2 SZ ES       1651 33.20                             173   -0.1810 18.1 179 
 BAR2 SZ I        1651 34.16         7.4 0.46            165           18.1 179 
 BRR  HZ EP   1   1651 19.38                             154    0.36 7 70.0 304 
 BRR  HN ES       1651 36.17                             154    0.1710 70.0 304 
 BRR  HN I        1651 37.60        12.8 0.20            149           70.0 304 
 PTB  HZ EP       1651 24.43                             134    0.14 9  143 260 
 PTB  HN ES       1651 45.41                             134    0.03 9  143 260 
 PTB  HZ I        1651 52.92         4.6 0.40            130            143 260 
 ZAR  HZ EP   1   1651 29.51                             124   -0.40 6  202 294 
 ZAR  HN ES       1651 55.21                             124   -0.17 9  202 294 
 ZAR  HZ I        1652  1.82         4.7 0.46            122            202 294 
                                                                                
