 2017  210 1407 54.7 L   6.772 -73.102139.0  RSN 14 0.4 2.2LRSN                1
 GAP=143        0.74       2.6     3.3  4.2 -0.4776E+00  0.4019E+01  0.2597E+01E
 Epicentro: LOS SANTOS - SANTANDER                                             3
 ACTION:UPD 17-05-24 15:34 OP:jn   STATUS:               ID:20170210140754 L   I
 OLDACT:UP  17-02-10 23:29 OP:and  STATUS:               ID:20170210135746d    3
 OLDACT:UP  17-02-10 23:27 OP:and  STATUS:               ID:20170210135746d    3
 OLDACT:UP  17-02-10 23:27 OP:and  STATUS:               ID:20170210135746d    3
 OLDACT:UP  17-02-10 23:24 OP:and  STATUS:               ID:20170210135746d    3
 OLDACT:DUP 17-02-10 23:22 OP:and  STATUS:               ID:20170210135746d    3
 2017-02-10-1358-00M.COL___358                                                 6
 STAT SP IPHASW D HRMM SECON CODA AMPLIT PERI AZIMU VELO AIN AR TRES W  DIS CAZ7
 BAR2 EZ IP     C 14 8 13.27                             171   -0.2310 21.8 204 
 BAR2 EZ ES       14 8 28.16                             171    0.0110 21.8 204 
 BAR2 EZ I        14 8 33.34        30.9 0.24            167           21.8 204 
 BRR  HZ IP     C 14 8 15.20                             149   -0.2810 76.9 299 
 BRR  HE ES       14 8 32.19                             149    0.5210 76.9 299 
 BRR  HZ I        14 8 36.59        28.7 0.14            147           76.9 299 
 PAM  EZ IP     C 14 8 16.13                             150   -0.0610 76.9  35 
 PAM  EN ES       14 8 32.86                             150   -0.0710 76.9  35 
 PAM  EZ I        14 8 34.66        29.5 0.18            154           76.9  35 
 RUS  HZ IP     C 14 8 17.24                             143   -0.3210 97.3 179 
 RUS  HN ES       14 8 35.58                             143    0.2010 97.3 179 
 RUS  HZ I        14 8 36.79        27.2 0.34            144           97.3 179 
 PTB  HZ EP   9 D 14 8 19.92                             130   -1.61 0  152 260 
 PTB  HN ES       14 8 40.75                                   -0.08 9  152 260 
 PTB  HZ I        14 8 43.30        31.4 0.24            129            152 260 
 ZAR  HZ EP       14 8 27.57                             120    0.25 8  210 292 
 ZAR  HN ES       14 8 52.31                             120   -0.43 8  210 292 
 ZAR  HZ I        14 9  0.34        25.6 0.29            120            210 292 
 CHI  HZ EP   2   14 8 32.19                             116    0.33 4  247 196 
 CHI  HN ES       14 9  0.91                             116    0.07 8  247 196 
 CHI  HZ I        14 9  3.97         6.3 0.28            117            247 196 
 ROSC BN ES   9   14 9  3.92                             115    2.02 0  253 212 
 ROSC BZ I        14 9  8.18        19.0 0.35            116            253 212 
 URE  HZ EP   2   14 8 37.81                             112    1.71 4  289 292 
 ELA  HN ES       14 9 17.64                             109   -0.32 7  331 230 
 ELA  HZ I        14 9 24.66        10.4 0.62            110            331 230 
 CBOC HZ EP   2   14 8 41.39                             108   -0.39 3  337 253 
 CBOC HN ES   3   14 9 17.17                             108   -1.32 2  337 253 
 CBOC HZ I        14 9 21.09         4.3 0.24            109            337 253 
 PRA  HZ EP   2   14 8 48.79                             105    0.81 3  392 210 
 PRA  HN ES       14 9 29.31                             105   -0.21 6  392 210 
 PRA  HZ I        14 9 35.27         5.8 0.36            106            392 210 
 ORTC HZ EP       14 8 48.51                             105    0.05 6  396 217 
 ORTC HN ES       14 9 31.08                             105    0.71 6  396 217 
 ORTC HZ I        14 9 36.31         5.5 0.50            106            396 217 
 SJC  HZ EP   4   14 8 48.28                             104   -2.40 0  414 327 
 SJC  HN ES   4   14 9 30.45                             104   -3.88 0  414 327 
 SJC  HZ I        14 9 38.85         2.9 0.46            105            414 327 
                                                                                
