 2012  610 1447 50.4 L   6.770 -73.178144.3  RSN  5 0.4 1.8LRSN                1
 GAP=240        0.73       7.1     5.7  8.2  0.1580E+02  0.1638E+02  0.2263E+01E
 Epicentro: LOS SANTOS - SANTANDER                                             3
 ACTION:UPD 12-08-06 17:48 OP:ep   STATUS:               ID:20120610144750dL   I
 2012-06-10-1440-00M.COL___201                                                 6
 STAT SP IPHASW D HRMM SECON CODA AMPLIT PERI AZIMU VELO AIN AR TRES W  DIS CAZ7
 BAR2 SZ EP   1   1448 10.12                             172    0.34 7 19.7 181 
 BAR2 SZ ES   1   1448 24.92                             172    0.02 7 19.7 181 
 BAR2 SZ I        1448 26.36        32.1 0.19            170           19.7 181 
 RUS  HZ EP   1   1448 14.14                             144    0.36 7 97.6 174 
 RUS  HZ I        1448 15.11         6.2 0.10            145           97.6 174 
 RUS  HN ES   1   1448 31.59                             144   -0.44 7 97.6 174 
 PTB  HZ EP   1   1448 16.84                             132   -0.03 7  144 260 
 PTB  HN ES   1   1448 37.42                             132   -0.10 7  144 260 
 PTB  HZ I        1448 42.83         6.3 0.15            132            144 260 
 ZAR  HN ES   1   1448 47.46                             122   -0.14 6  202 293 
 NOR  SZ EP   1   1448 24.75                             119   -0.77 6  230 235 
 NOR  SN ES   1   1448 53.57                             119    0.66 6  230 235 
                                                                                
