 2010 1110 1511 40.4 L   5.991 -73.574121.5  RSN  7 0.4 1.9LRSN                1
 GAP=109        0.71       4.4     5.8  8.8 -0.5363E+01  0.1867E+02  0.5323E+01E
 Epicentro: GUEPSA - SANTANDER                                                 3
 ACTION:UP  10-12-17 16:51 OP:REBC STATUS:               ID:20101110151140 L   I
 2010-11-10-1509-41S.COL___129                                                 6
 STAT SP IPHASW D HRMM SECON CODA AMPLIT PERI AZIMU VELO SNR AR TRES W  DIS CAZ7
 RUS  HZ EP       1511 58.68                             154    -0.110   55 101 
 RUS  HE ES   2   1512 12.42                             154    -0.7 5   55 101 
 RUS  HZ I        1512 14.84         6.7 0.32                            55 101 
 BAR2 SZ EP       1512  0.26                             145     0.310   79  33 
 BAR2 SZ ES   1   1512 15.64                             145     0.5 7   79  33 
 BAR2 SZ I        1512 16.83        51.0 0.25                            79  33 
 BRR  HZ EP       1512  3.25                             131     0.010  124 353 
 BRR  HZ I        1512  3.65        12.5 0.12                           124 353 
 BRR  HN ES   1   1512 20.79                             131    -0.3 7  124 353 
 GIR2 SZ EP   2   1512  3.03                             130    -0.7 5  127  19 
 NOR  SZ EP   2   1512  5.98                             125     0.0 5  151 252 
 NOR  SE ES   2   1512 25.88                             125     0.0 5  151 252 
 GUE  SZ EP   2   1512 13.05                             115    -0.1 4  216  19 
 PRA  HZ EP   2   1512 21.75                             108     0.4 4  291 210 
 PRA  HN ES   2   1512 53.08                             108    -0.1 4  291 210 
                                                                                
