 2012  810 1510 32.9 L   6.763 -73.142152.2  RSN  8 0.4 2.2LRSN                1
 GAP=183        0.81       4.3     4.6  5.5  0.7164E+01  0.1691E+01  0.3476E+00E
 Epicentro: LOS SANTOS - SANTANDER                                             3
 ACTION:UPD 12-09-10 11:55 OP:ep   STATUS:               ID:20120810151032 L   I
 2012-08-10-1510-00M.COL___219                                                 6
 STAT SP IPHASW D HRMM SECON CODA AMPLIT PERI AZIMU VELO AIN AR TRES W  DIS CAZ7
 BAR2 SZ EP       1510 53.13                             173   -0.1110 19.4 193 
 BAR2 SZ ES   1   1511  9.10                             173    0.00 7 19.4 193 
 BAR2 SZ I        1511 11.13        29.8 0.24                          19.4 193 
 BRR  HZ EP       1510 55.02                             153    0.1310 73.6 301 
 BRR  HZ I        1510 55.36        41.1 0.13                          73.6 301 
 BRR  HE ES       1511 12.32                             153    0.2910 73.6 301 
 RUS  HZ EP       1510 57.04                             146    0.0310 96.4 176 
 RUS  HN ES       1511 15.71                             146   -0.1010 96.4 176 
 PTB  HZ EP       1511  0.00                             134   -0.37 9  147 260 
 PTB  HN ES       1511 21.25                             134   -0.55 9  147 260 
 PTB  HZ I        1511 28.86        16.0 0.33                           147 260 
 OCA  HZ EP   1   1511  1.89                             130   -0.22 7  164 353 
 ZAR  HZ EP   1   1511  5.39                             123   -0.59 6  206 293 
 ZAR  HN ES       1511 32.36                             123    0.59 8  206 293 
 ZAR  HZ I        1511 37.62        13.6 0.20                           206 293 
 NOR  SZ EP   1   1511  8.93                             120    0.13 6  233 235 
 NOR  SN ES   1   1511 36.81                             120    0.01 6  233 235 
 CHI  HZ EP       1511 11.23                             119    0.68 8  245 196 
 CHI  HZ I        1511 48.25         5.6 0.72                           245 196 
                                                                                
