 2016  910 1152 29.6 L   6.861 -73.187136.5  RSN  4 0.3 1.2LRSN                1
 GAP=150        0.87       5.2     5.0  7.5 -0.8240E+01  0.1189E+02 -0.3486E+01E
 Epicentro: ZAPATOCA - SANTANDER                                               3
 ACTION:UPD 17-08-17 21:08 OP:lp   STATUS:               ID:20160910115229 L   I
 OLDACT:REG 16-09-10 21:07 OP:lv   STATUS:               ID:20160910114738     3
 2016-09-10-1148-00M.COL___336                                                 6
 STAT SP IPHASW D HRMM SECON CODA AMPLIT PERI AZIMU VELO AIN AR TRES W  DIS CAZ7
 BAR2 EZ ES       1153  3.34                             167    0.5510 29.7 179 
 BAR2 EZ I        1153  5.81         4.7 0.32            170           29.7 179 
 PAM  EZ EP       1152 50.94                             150    0.2610 75.5  45 
 PAM  EN ES       1153  6.75                             150   -0.4010 75.5  45 
 PAM  EZ I        1153 10.16         3.1 0.50            153           75.5  45 
 RUS  HZ EP       1152 53.13                             140    0.1710  108 174 
 RUS  HN ES       1153 10.81                             140   -0.4010  108 174 
 RUS  HZ I        1153 11.90         2.5 0.32            145            108 174 
 PTB  HZ EP       1152 55.39                             130   -0.12 9  145 256 
 PTB  HN ES       1153 15.65                             130   -0.10 9  145 256 
 PTB  HZ I        1153 20.95         1.5 0.09            132            145 256 
                                                                                
