 2017  410 1435 36.0 L   6.794 -73.140140.0  RSN  9 0.5 2.1LRSN                1
 GAP=112        1.14       4.1     4.3  7.7 -0.1340E+01  0.1120E+01  0.8790E+01E
 Epicentro: LOS SANTOS - SANTANDER                                             3
 ACTION:UPD 17-05-30 21:10 OP:jn   STATUS:               ID:20170410143536 L   I
 OLDACT:UP  17-04-10 21:45 OP:cog  STATUS:               ID:20170410142741     3
 OLDACT:REG 17-04-10 20:42 OP:cog  STATUS:               ID:20170410142741     3
 2017-04-10-1428-00M.COL___377                                                 6
 STAT SP IPHASW D HRMM SECON CODA AMPLIT PERI AZIMU VELO AIN AR TRES W  DIS CAZ7
 BRR  HZ EP       1435 56.62                             151    0.0910 72.0 299 
 BRR  HN ES       1436 13.33                             151    0.7510 72.0 299 
 BRR  HZ I        1436 18.45        24.8 0.16            153           72.0 299 
 PAM  EZ EP       1435 57.69                             150    0.1210 77.5  39 
 PAM  EN ES       1436 14.42                             150   -0.0110 77.5  39 
 PAM  EZ I        1436 16.55        30.3 0.42            154           77.5  39 
 RUS  HZ EP       1435 58.53                             143   -0.5710 99.9 176 
 RUS  HN ES       1436 16.94                             143   -0.2110 99.9 176 
 RUS  HZ I        1436 19.03        13.3 0.40            144           99.9 176 
 PTB  HZ EP       1436  1.72                             131   -0.78 9  148 259 
 PTB  HN ES       1436 22.45                             131   -0.76 9  148 259 
 PTB  HZ I        1436 25.17        27.3 0.16            133            148 259 
 SPBC HE ES       1436 25.84                             128   -0.05 9  163 219 
 YPLC HZ EP       1436  5.33                             125    0.07 9  176 151 
 YPLC HN ES       1436 28.02                             125   -0.09 9  176 151 
 YPLC HZ I        1436 31.61        10.0 0.28            128            176 151 
 NOR  HZ EP       1436 11.49                             117    0.12 8  235 235 
 NOR  HN ES       1436 39.52                             117    0.53 8  235 235 
 NOR  HZ I        1436 44.20        12.7 0.52            119            235 235 
 CHI  HZ EP       1436 14.22                             116    0.93 8  248 195 
 CHI  HN ES       1436 42.79                             116    0.37 8  248 195 
 CHI  HZ I        1436 50.07         5.4 0.26            118            248 195 
 ROSC BE EP   9   1436 15.69                             116    1.95 0  253 211 
 ROSC BN ES       1436 45.39                             116    0.23 8  253 211 
                                                                                
