 2016  610 1728 32.9 L   6.805 -73.156141.7  RSN 16 0.4 2.4LRSN                1
 GAP= 70        0.85       2.5     3.0  4.0 -0.2418E+01  0.2499E+01  0.8894E+00E
 Epicentro: LOS SANTOS - SANTANDER                                             3
 ACTION:UPD 16-07-21 22:17 OP:rebc STATUS:               ID:20160610172832 L   I
 OLDACT:UP  16-06-11 00:02 OP:edw  STATUS:               ID:20160610172744     3
 OLDACT:REG 16-06-10 21:02 OP:edw  STATUS:               ID:20160610172744     3
 2016-06-10-1727-44M.COL___343                                                 6
 STAT SP IPHASW D HRMM SECON CODA AMPLIT PERI AZIMU VELO AIN AR TRES W  DIS CAZ7
 BAR2 EZ IP     D 1728 51.99                             170   -0.0510 23.7 187 
 BAR2 EZ ES       1729  6.80                             170   -0.1710 23.7 187 
 BAR2 EZ I        1729  7.98        61.2 0.22                          23.7 187 
 BRR  HZ EP       1728 53.93                             152    0.4110 69.9 299 
 BRR  HN ES       1729  9.95                             152    0.3310 69.9 299 
 BRR  HZ I        1729 11.84        43.4 0.24                          69.9 299 
 PAM  EZ EP     C 1728 55.01                             150    0.3210 77.7  40 
 PAM  EN ES       1729 11.83                             150    0.1310 77.7  40 
 PAM  EZ I        1729 14.29        72.7 0.68                          77.7  40 
 RUS  HZ EP       1728 55.98                             143   -0.3110  101 175 
 RUS  HE ES       1729 14.36                             143   -0.1810  101 175 
 RUS  HZ I        1729 15.60        22.3 0.32                           101 175 
 PTB  HZ EP       1728 58.69                             131   -0.74 9  147 259 
 PTB  HN ES       1729 19.78                             131   -0.35 9  147 259 
 PTB  HZ I        1729 21.59        39.2 0.46                           147 259 
 TAM  HZ EP     D 1729  0.33                             129   -0.03 9  156 105 
 TAM  HN ES   4   1729 18.24                             129   -3.56 0  156 105 
 OCA  HZ EP       1729  0.56                             129   -0.26 9  160 354 
 OCA  HN ES       1729 22.85                             129    0.25 9  160 354 
 OCA  HZ I        1729 25.53        51.5 0.26                           160 354 
 SPBC HZ EP       1729  1.20                             128    0.15 9  163 219 
 SPBC HN ES       1729 22.92                             128   -0.09 9  163 219 
 SPBC HZ I        1729 26.02        21.9 0.34                           163 219 
 NOR  HZ EP       1729  8.56                             118    0.25 8  234 234 
 NOR  HN ES       1729 35.66                             118   -0.29 8  234 234 
 NOR  HZ I        1729 41.24        14.8 0.16                           234 234 
 GUY2CHZ EP       1729 16.64                             112    0.41 7  301 235 
 GUY2CHE ES       1729 51.01                             112    0.96 7  301 235 
 GUY2CHZ I        1729 57.04        10.5 0.36                           301 235 
 PTGC HZ EP   4   1729 15.19                             111   -1.48 0  310 158 
 PTGC HN ES   4   1729 48.55                             111   -2.27 0  310 158 
 PTGC HZ I        1729 50.99        26.4 0.46                           310 158 
 LL6C HZ EP       1729 17.58                             110   -0.76 7  324 358 
 DBB  SZ EP       1729 20.28                             109    0.22 7  338 274 
 DBB  SZ ES       1729 56.28                             109   -0.57 7  338 274 
 PRA  HZ EP       1729 26.42                             106    0.16 6  392 209 
 PRA  HN ES       1730  7.87                             106   -0.02 6  392 209 
 PRA  HZ I        1730 14.79         8.5 0.50                           392 209 
 ORTC HZ EP       1729 27.01                             106    0.37 6  395 216 
 ORTC HN ES       1730  8.90                             106    0.33 6  395 216 
 ORTC HZ I        1730 13.71         4.4 0.32                           395 216 
 SJC  HZ EP   4   1729 26.40                             105   -1.78 0  408 327 
 SJC  HN ES   4   1730  8.84                             105   -2.48 0  408 327 
 SJC  HZ I        1730 11.99         4.8 0.54                           408 327 
                                                                                
