 2012  310 1512 26.3 L   6.772 -73.083140.4  RSN  4 0.1 1.3LRSN                1
 GAP=146        0.40       2.7     4.1  4.4 -0.2934E+00 -0.1269E+01  0.2115E+00E
 ACTION:UP  12-03-31 23:18 OP:EP   STATUS:               ID:20120310151226 L   I
 2012-03-10-1510-00M.COL___193                                                 6
 STAT SP IPHASW D HRMM SECON CODA AMPLIT PERI AZIMU VELO SNR AR TRES W  DIS CAZ7
 BAR2 SZ ES   1   1513  0.16                             170     0.1 7   23 209 
 BAR2 SZ I        1513  2.32         4.2 0.45                            23 209 
 PAM  SZ EP   1   1512 48.06                             150     0.2 7   76  34 
 PAM  SN ES   1   1513  4.51                             150    -0.1 7   76  34 
 BRR  HZ EP   1   1512 47.34                             149     0.0 7   79 298 
 BRR  HZ I        1512 58.87         9.4 0.37                            79 298 
 BRR  HN ES   1   1513  3.71                             149     0.0 7   79 298 
 RUS  HZ EP   1   1512 49.10                             144    -0.2 7   97 180 
 RUS  HE ES   1   1513  7.27                             144     0.1 7   97 180 
 RUS  HZ I        1513 10.37         2.0 0.55                            97 180 
                                                                                
