 2017 1010 1237 47.1 L   6.785 -73.137136.3  RSN 12 0.4 2.1LRSN                1
 GAP=113        0.98       3.3     3.8  5.7 -0.4000E+00  0.6985E+01  0.1934E+01E
 Epicentro: LOS SANTOS - SANTANDER                                             3
 ACTION:UPD 17-11-07 19:30 OP:rebc STATUS:               ID:20171010123747 L   I
 OLDACT:REG 17-10-10 19:48 OP:lv   STATUS:               ID:20171010122352     3
 2017-10-10-1228-00M.COL___432                                                 6
 STAT SP IPHASW D HRMM SECON CODA AMPLIT PERI AZIMU VELO AIN AR TRES W  DIS CAZ7
 BAR2 EZ IP     C 1238  5.39                             171   -0.1510 21.9 193 
 BAR2 EZ ES       1238 20.01                             171    0.0710 21.9 193 
 BAR2 EZ I        1238 21.39        37.4 0.18            165           21.9 193 
 PAM  EZ EP       1238  8.40                             149    0.0610 78.1  38 
 PAM  EN ES       1238 25.01                             149    0.0910 78.1  38 
 PAM  EZ I        1238 25.81        19.2 0.36            140           78.1  38 
 RUS  HZ EP       1238  9.42                             142   -0.3610 98.9 177 
 RUS  HN ES       1238 27.63                             142    0.1410 98.9 177 
 RUS  HZ I        1238 28.62         7.2 0.20            131           98.9 177 
 SPBC HZ EP       1238 14.45                             127   -0.35 9  163 220 
 SPBC HN ES       1238 35.74                             127   -0.68 9  163 220 
 SPBC HZ I        1238 39.58        15.1 0.22            116            163 220 
 YPLC HZ IP     C 1238 15.81                             125   -0.20 9  175 151 
 YPLC HN ES       1238 39.02                             125    0.44 9  175 151 
 YPLC HZ I        1238 42.12        20.1 0.26            115            175 151 
 ZAR  HZ EP       1238 18.62                             120   -0.46 8  206 292 
 ZAR  HE ES       1238 44.36                             120    0.32 8  206 292 
 ZAR  HZ I        1238 47.59        14.1 0.34            111            206 292 
 NOR  HZ EP   9   1238 21.50                             116   -0.75 0  235 235 
 NOR  HN ES       1238 48.46                                   -0.48 8  235 235 
 NOR  HZ I        1238 51.30        12.0 0.16            108            235 235 
 CHI  HZ EP       1238 23.86                             115   -0.26 8  247 195 
 CHI  HN ES       1238 53.16                             115    0.15 8  247 195 
 CHI  HZ I        1239  0.22         3.6 0.44            107            247 195 
 ROSC BZ EP   4   1238 26.36                             115    1.77 0  252 211 
 ROSC BZ I        1239  0.12        12.5 0.72            107            252 211 
 GUY2CHZ EP       1238 31.37                             110    1.13 7  301 235 
 GUY2CHN ES       1239  4.76                             110    0.85 7  301 235 
 GUY2CHZ I        1239 12.53         6.5 0.54                           301 235 
 PRA  HZ EP   9   1238 39.77                             105   -0.40 0  391 210 
 PRA  HN ES       1239 20.58                                   -0.61 6  391 210 
 PRA  HZ I        1239 26.05         4.2 0.30            100            391 210 
 PAL  HZ EP       1238 41.85                             104   -0.08 6  406 239 
 PAL  HZ I        1239 26.75         2.8 0.22            100            406 239 
                                                                                
