 2014  210 1339 20.9 L   6.833 -73.165145.7  RSN 17 0.5 2.6LRSN                1
 GAP= 69        1.04       2.4     2.9  4.7 -0.8532E+00  0.3302E+01  0.1252E+01E
 Epicentro: LOS SANTOS - SANTANDER                                             3
 ACTION:UPD 14-03-10 08:09 OP:ep   STATUS:               ID:20140210133920 L   I
 OLDACT:REG 14-02-10 16:52 OP:carl STATUS:               ID:20140210133746     3
 2014-02-10-1337-46M.COL___227                                                 6
 STAT SP IPHASW D HRMM SECON CODA AMPLIT PERI AZIMU VELO AIN AR TRES W  DIS CAZ7
 BAR2 SZ EP       1339 40.73                             169    0.1110 26.7 184 
 BAR2 SZ ES       1339 55.59                             169   -0.3910 26.7 184 
 BAR2 SZ I        1339 57.11       118.2 0.22            169           26.7 184 
 BRR  HZ IP     C 1339 42.50                             154    0.6310 67.6 297 
 BRR  HN ES       1339 59.29                             154    1.0810 67.6 297 
 BRR  HZ I        1340  3.31        95.0 0.14            153           67.6 297 
 PAM  SZ EP     C 1339 43.41                             151    0.3610 76.0  43 
 PAM  SE ES       1340  0.49                             151    0.1810 76.0  43 
 PAM  SZ I        1340  3.00        40.2 0.32            154           76.0  43 
 RUS  HZ EP       1339 44.68                             143   -0.2710  104 175 
 RUS  HN ES       1340  3.35                             143   -0.3310  104 175 
 RUS  HZ I        1340  6.64        22.9 0.34            145            104 175 
 PTB  HZ EP       1339 47.32                             132   -0.45 9  146 257 
 PTB  HN ES       1340  8.28                             132   -0.43 9  146 257 
 PTB  HZ I        1340 10.87        53.9 0.16            133            146 257 
 OCA  HZ EP       1339 48.39                             130   -0.48 9  156 354 
 OCA  HN ES       1340 10.52                             130   -0.14 9  156 354 
 OCA  HZ I        1340 15.56        54.9 0.32            132            156 354 
 TAM  HZ EP       1339 49.18                             130    0.31 9  158 106 
 TAM  HN ES       1340 10.56                             130   -0.12 9  158 106 
 TAM  HZ I        1340 12.22        19.7 0.52            133            158 106 
 SPBC HZ EP       1339 49.74                             129    0.17 9  165 218 
 SPBC HE ES       1340 11.45                             129   -0.46 9  165 218 
 SPBC HZ I        1340 17.62        47.7 0.24            130            165 218 
 ZAR  HZ EP       1339 53.03                             123    0.01 9  201 291 
 ZAR  HN ES       1340 18.47                             123    0.41 9  201 291 
 ZAR  HZ I        1340 24.01        48.6 0.54            124            201 291 
 NOR  HZ EP       1339 56.87                             118    0.17 8  235 233 
 NOR  HE ES       1340 24.36                             118   -0.24 8  235 233 
 NOR  HZ I        1340 26.51        25.1 0.22            119            235 233 
 SML  HZ EP       1339 56.75                             118   -0.34 8  240 335 
 SML  HN ES       1340 24.52                             118   -0.78 8  240 335 
 SML  HZ I        1340 27.50        68.9 0.44            119            240 335 
 CHI  HZ EP       1339 59.38                             117    0.44 8  252 194 
 CHI  HN ES       1340 28.60                             117   -0.00 8  252 194 
 CHI  HZ I        1340 32.89        23.4 0.30            118            252 194 
 HEL  HZ EP   4   1340  1.92                             115    0.91 0  271 255 
 HEL  HN ES   4   1340 29.93                             115   -2.35 0  271 255 
 URE  HZ EP   4   1340  0.58                             114   -1.04 0  281 291 
 URE  HE ES   4   1340 31.45                             114   -1.91 0  281 291 
 GUY2CHZ EP   1   1340  4.73                             112    0.15 5  302 234 
 GUY2CHE ES       1340 37.76                             112   -0.87 7  302 234 
 GUY2CHZ I        1340 48.54        17.0 0.34                           302 234 
 CBOC HZ EP       1340  7.93                             110    0.19 7  333 251 
 CBOC HN ES       1340 44.65                             110    0.40 7  333 251 
 CBOC HZ I        1340 53.71         7.0 0.40            111            333 251 
 COD  HZ EP   1   1340  8.51                             109   -0.34 5  344 355 
 COD  HN ES   4   1340 42.61                             109   -3.63 0  344 355 
 COD  HZ I        1340 52.39         5.3 0.46            110            344 355 
 PRA  HZ EP       1340 14.76                             106    0.07 6  394 209 
 PRA  HN ES       1340 56.58                             106   -0.06 6  394 209 
 PRA  HZ I        1341  1.27        29.9 0.42            108            394 209 
 ORTC HZ EP       1340 14.98                             106   -0.06 6  397 216 
 ORTC HE ES       1340 58.49                             106    1.23 6  397 216 
 ORTC HZ I        1341  5.90        13.5 0.54            107            397 216 
                                                                                
