 2016  910 1627 58.7 L   6.812 -73.163146.0  RSN 15 0.3 2.5LRSN                1
 GAP=134        0.83       2.2     2.8  4.2 -0.1018E+01  0.3336E+01  0.6414E-01E
 Epicentro: LOS SANTOS - SANTANDER                                             3
 ACTION:UPD 17-08-17 21:08 OP:lp   STATUS:               ID:20160910162758 L   I
 OLDACT:REG 16-09-10 21:25 OP:lv   STATUS:               ID:20160910161741     3
 2016-09-10-1618-00M.COL___336                                                 6
 STAT SP IPHASW D HRMM SECON CODA AMPLIT PERI AZIMU VELO AIN AR TRES W  DIS CAZ7
 BAR2 EZ EP       1628 18.30                             170   -0.0710 24.4 185 
 BAR2 EZ ES       1628 33.30                             170   -0.4210 24.4 185 
 BAR2 EZ I        1628 34.70       134.3 0.28            169           24.4 185 
 BRR  HZ IP     C 1628 20.10                             153    0.3710 68.9 298 
 BRR  HN ES       1628 36.74                             153    0.5910 68.9 298 
 BRR  HZ I        1628 40.48        57.2 0.16            151           68.9 298 
 PAM  EZ EP       1628 21.29                             151    0.3510 77.6  41 
 PAM  EN ES       1628 38.49                             151    0.1910 77.6  41 
 PAM  EZ I        1628 40.51        72.9 0.54            154           77.6  41 
 RUS  HZ EP       1628 22.36                             143   -0.2110  102 175 
 RUS  HE ES       1628 40.88                             143   -0.3210  102 175 
 RUS  HZ I        1628 42.00        25.2 0.17            144            102 175 
 PTB  HZ EP       1628 25.08                             132   -0.44 9  146 258 
 PTB  HN ES       1628 46.15                             132   -0.31 9  146 258 
 PTB  HZ I        1628 47.10        33.1 0.18            131            146 258 
 SPBC HZ EP       1628 27.47                             129    0.28 9  163 218 
 SPBC HE ES       1628 49.60                             129    0.18 9  163 218 
 SPBC HZ I        1628 54.37        42.9 0.12            129            163 218 
 ZAR  HZ EP       1628 30.97                             123    0.06 9  202 292 
 ZAR  HE ES       1628 56.05                             123    0.00 9  202 292 
 ZAR  HZ I        1629  2.55        26.2 0.12            122            202 292 
 NOR  HZ EP       1628 34.47                             119    0.13 8  234 234 
 NOR  HN ES       1629  2.21                             119    0.05 8  234 234 
 NOR  HZ I        1629  7.40        23.1 0.19            119            234 234 
 CHI  HZ EP       1628 36.65                             117    0.17 8  249 195 
 CHI  HN ES       1629  6.14                             117    0.17 8  249 195 
 CHI  HZ I        1629  9.63         6.8 0.27            118            249 195 
 ROSC BZ EP   4   1628 38.90                             117    2.06 0  253 210 
 ROSC BN ES       1629  6.04                             117   -0.55 8  253 210 
 ROSC BZ I        1629 13.07        22.2 0.35            117            253 210 
 HEL  HZ EP   4   1628 39.98                             115    1.24 0  271 255 
 HEL  HN ES       1629 10.19                             115    0.21 8  271 255 
 HEL  HZ I        1629 18.64        17.3 0.28            115            271 255 
 URE  HZ EP   4   1628 38.35                             114   -1.16 0  282 292 
 URE  HN ES       1629 10.63                             114   -0.72 7  282 292 
 URE  HZ I        1629 19.34        16.2 0.22            114            282 292 
 GUY2CHZ EP       1628 42.55                             112    0.34 7  300 234 
 GUY2CHN ES       1629 16.59                             112    0.42 7  300 234 
 GUY2CHZ I        1629 26.89        12.0 0.36                           300 234 
 PTGC HZ EP   4   1628 41.58                             111   -1.19 0  311 158 
 PTGC HE ES   4   1629 14.88                             111   -2.28 0  311 158 
 PTGC HZ I        1629 19.79        26.3 0.35            113            311 158 
 LL6C HZ EP       1628 43.57                             111   -0.66 7  323 358 
 LL6C HN ES       1629 19.61                             111   -0.15 7  323 358 
 LL6C HZ I        1629 21.47         8.7 0.33            111            323 358 
                                                                                
