 2014  210 1642 23.5 L   6.792 -73.171147.6  RSN 11 0.4 2.2LRSN                1
 GAP=134        1.04       3.0     4.1  5.5 -0.9271E+00  0.5135E+01  0.2125E+01E
 Epicentro: LOS SANTOS - SANTANDER                                             3
 ACTION:UPD 14-03-10 08:09 OP:ep   STATUS:               ID:20140210164223 L   I
 OLDACT:REG 14-02-10 16:05 OP:carl STATUS:               ID:20140210164000     3
 2014-02-10-1640-00M.COL___291                                                 6
 STAT SP IPHASW D HRMM SECON CODA AMPLIT PERI AZIMU VELO AIN AR TRES W  DIS CAZ7
 BAR2 SZ EP       1642 43.29                             171   -0.0110 22.1 183 
 BAR2 SZ ES       1642 58.54                             171   -0.2210 22.1 183 
 BAR2 SZ I        1642 59.84        38.3 0.54            169           22.1 183 
 BRR  HZ EP       1642 45.20                             154    0.5010 69.2 300 
 BRR  HN ES       1643  2.06                             154    0.7910 69.2 300 
 BRR  HZ I        1643  7.49        15.2 0.14            151           69.2 300 
 PAM  SZ EP       1642 46.20                             150    0.1710 79.9  41 
 PAM  SN ES       1643  3.37                             150   -0.2510 79.9  41 
 PAM  SZ I        1643  5.50        30.9 0.56            156           79.9  41 
 RUS  HZ EP       1642 47.04                             144   -0.3110 99.9 174 
 RUS  HN ES       1643  6.22                             144    0.2410 99.9 174 
 RUS  HZ I        1643  8.77        13.5 0.38            147           99.9 174 
 PTB  HZ EP       1642 50.11                             133   -0.21 9  145 259 
 PTB  HN ES       1643 10.83                             133   -0.43 9  145 259 
 PTB  HZ I        1643 17.19        16.6 0.44            133            145 259 
 OCA  HN ES   4   1643 13.68                             130   -0.53 0  161 354 
 SPBC HZ EP       1642 52.17                             130    0.29 9  161 218 
 SPBC HN ES       1643 13.88                             130   -0.15 9  161 218 
 SPBC HZ I        1643 19.30        25.3 0.22            131            161 218 
 ZAR  HN ES       1643 21.39                             123    0.37 9  202 293 
 ZAR  HZ I        1643 30.07        10.5 0.52            124            202 293 
 NOR  HZ EP       1642 59.62                             119    0.62 8  232 234 
 NOR  HN ES       1643 26.32                             119   -0.40 8  232 234 
 NOR  HZ I        1643 30.99        10.0 0.20            120            232 234 
 SML  HZ EP       1642 59.73                             118   -0.43 8  243 336 
 SML  HN ES       1643 27.92                             118   -0.85 8  243 336 
 SML  HZ I        1643 31.15        23.7 0.10            120            243 336 
 CHI  HZ EP       1643  1.46                             118    0.36 8  247 195 
 CHI  HN ES       1643 29.84                             118   -0.61 8  247 195 
 CHI  HZ I        1643 36.18         5.0 0.26            120            247 195 
 PRA  HZ EP       1643 17.42                             107    0.62 6  390 209 
 PRA  HN ES       1643 58.04                             107   -0.36 6  390 209 
 PRA  HZ I        1644  4.55         5.5 0.26            109            390 209 
                                                                                
