 2016  310 1942 49.0 L   6.858 -73.134152.4  RSN 24 0.6 3.0LRSN 3.7WRSN        1
 SPEC AVERAGE  MO 14.6 ST0.155 OM  2.8 f00.839 R2.6460 AL 0.00 WI 30.0 MW  3.7 3
 SPEC SD       MO  0.6 ST0.253 OM  0.6 f0 1.01 R1.4733 AL      WI      MW  0.4 3
 GAP= 70        1.22       2.7     3.0  5.3 -0.1518E+01  0.4399E+01 -0.1137E+01E
 Epicentro: LOS SANTOS - SANTANDER                                             3
 SPEC TAM HH Z MO 14.4 ST0.156 OM  2.3 f0 1.04 R1.8500 AL-0.00 WI 30.0 MW  3.5 3
 SPEC TAM HH Z T194338 K 0.000 GD  218 VS 5.20 DE 3.50 Q0750.0 QA 1.50 VS 3.50 3
 SPEC CHI HH Z MO 14.5 ST0.078 OM  2.3 f00.746 R2.5791 AL-0.00 WI 30.0 MW  3.6 3
 SPEC CHI HH Z T194356 K 0.000 GD  297 VS 5.20 DE 3.50 Q0750.0 QA 1.50 VS 3.50 3
 SPEC HEL HH Z MO 15.1 ST0.037 OM  2.9 f00.361 R5.3296 AL-0.00 WI 30.0 MW  4.0 3
 SPEC HEL HH Z T1944 0 K 0.000 GD  314 VS 5.20 DE 3.50 Q0750.0 QA 1.50 VS 3.50 3
 SPECGUY2CHH Z MO 14.5 ST0.134 OM  2.3 f00.851 R2.2609 AL-0.00 WI 30.0 MW  3.6 3
 SPECGUY2CHH Z T1944 8 K 0.000 GD  341 VS 5.20 DE 3.50 Q0750.0 QA 1.50 Q1 0.00 3
 SPEC CBOCHH Z MO 14.3 ST0.107 OM  2.0 f00.969 R1.9856 AL-0.00 WI 30.0 MW  3.5 3
 SPEC CBOCHH Z T194413 K 0.000 GD  369 VS 5.20 DE 3.50 Q0750.0 QA 1.50 VS 3.50 3
 SPEC DBB SH Z MO 15.1 ST0.379 OM  2.8 f00.797 R2.4141 AL-0.00 WI 30.0 MW  4.0 3
 SPEC DBB SH Z T194413 K 0.000 GD  372 VS 5.20 DE 3.50 Q0750.0 QA 1.50 VS 3.50 3
 SPEC MON HH Z MO 14.3 ST0.171 OM  2.0 f0 1.12 R1.7179 AL-0.00 WI 30.0 MW  3.5 3
 SPEC MON HH Z T194413 K 0.000 GD  382 VS 5.20 DE 3.50 Q0750.0 QA 1.50 VS 3.50 3
 OLDACT:UP  16-03-11 01:35 OP:ar   STATUS:               ID:20160310193748     3
 OLDACT:UP  16-03-11 01:34 OP:ar   STATUS:               ID:20160310193748     3
 OLDACT:REG 16-03-10 22:09 OP:ar   STATUS:               ID:20160310193748     3
 ACTION:UPD 16-05-13 21:23 OP:cam  STATUS:               ID:20160310194249 L   I
 OLDACT:UP  16-03-11 01:42 OP:ar   STATUS:               ID:20160310193748     3
 2016-03-10-1937-48M.COL___310                                                 6
 STAT SP IPHASW D HRMM SECON CODA AMPLIT PERI AZIMU VELO AIN AR TRES W  DIS CAZ7
 BAR2 EZ IP     D 1943  9.33                             169   -0.2110 29.8 190 
 BAR2 EZ ES       1943 24.98                             169   -0.6010 29.8 190 
 BAR2 EZ I        1943 26.92       167.5 0.38            167           29.8 190 
 PAM  EZ EP       1943 12.23                             153    0.6510 71.7  42 
 PAM  EN ES       1943 29.50                             153    0.2910 71.7  42 
 PAM  EZ I        1943 31.62       214.5 0.56            157           71.7  42 
 RUS  HZ IP     D 1943 13.20                             143   -0.6210  107 177 
 RUS  HN ES       1943 32.91                             143   -0.3010  107 177 
 RUS  HZ I        1943 33.55        48.5 0.20            146            107 177 
 PTB  HZ EP       1943 16.04                             133   -0.68 9  150 257 
 PTB  HN ES       1943 37.66                             133   -0.71 9  150 257 
 PTB  HZ I        1943 44.79       210.7 0.42            132            150 257 
 OCA  HZ EP       1943 18.19                             132    0.95 9  154 352 
 OCA  HN ES       1943 39.72                             132    0.43 9  154 352 
 OCA  HZ I        1943 44.98       216.7 0.66            133            154 352 
 TAM  HZ IP     D 1943 17.49                             132    0.27 9  156 107 
 TAM  HN ES       1943 39.57                             132    0.31 9  156 107 
 TAM  HZ I        1943 39.77        51.8 0.32            137            156 107 
 SPBC HZ EP       1943 18.31                             129   -0.22 9  169 218 
 SPBC HN ES       1943 41.50                             129   -0.08 9  169 218 
 SPBC HZ I        1943 43.78       158.7 0.14            130            169 218 
 ZAR  HZ EP       1943 22.03                             124    0.28 9  203 290 
 ZAR  HN ES       1943 48.31                             124    1.00 9  203 290 
 ZAR  HZ I        1943 55.76       104.4 0.24            124            203 290 
 NOR  HZ EP       1943 25.11                             119   -0.49 8  240 233 
 NOR  HN ES       1943 53.46                             119   -0.72 8  240 233 
 NOR  HZ I        1943 58.09        66.6 0.24            120            240 233 
 CHI  HZ EP       1943 27.28                             118   -0.46 8  255 195 
 CHI  HN ES       1943 57.81                             118   -0.17 8  255 195 
 CHI  HZ I        1944  4.44        41.9 0.54            119            255 195 
 ROSC BZ EP       1943 29.01                             117    0.89 8  259 211 
 ROSC BN ES       1943 58.63                             117   -0.03 8  259 211 
 ROSC BZ I        1944  6.96        72.7 0.45            118            259 211 
 HEL  HZ EP   4   1943 31.36                             116    1.51 0  275 255 
 HEL  HN ES       1944  2.35                             116    0.62 8  275 255 
 HEL  HZ I        1944  9.02        52.1 0.24            116            275 255 
 URE  HZ EP       1943 29.40                             115   -0.85 7  283 291 
 URE  HN ES   4   1944  0.90                             115   -1.55 0  283 291 
 URE  HZ I        1944 10.24        66.3 0.34            115            283 291 
 GUY2CHZ EP       1943 34.16                             113    0.73 7  306 234 
 GUY2CHE ES   4   1944  9.91                             113    1.80 0  306 234 
 GUY2CHZ I        1944 14.29        55.1 0.32                           306 234 
 VIL  SZ EP       1943 34.02                             113    0.59 7  310 192 
 VIL  SE ES       1944  8.32                             113    0.22 7  310 192 
 PTGC HZ EP   4   1943 32.20                             112   -1.54 0  314 159 
 PTGC HN ES   4   1944  5.54                             112   -3.13 0  314 159 
 PTGC HZ I        1944  8.03        55.3 0.36            115            314 159 
 CBOC HZ EP       1943 36.77                             111    0.23 7  337 251 
 CBOC HN ES       1944 14.53                             111    0.89 7  337 251 
 CBOC HZ I        1944 22.77        15.5 0.52            111            337 251 
 DBB  SZ EP       1943 36.75                             110   -0.08 7  340 273 
 DBB  SZ ES       1944 14.60                             110    0.44 7  340 273 
 DBB  SZ I        1944 32.48       105.9 0.48            111            340 273 
 MON  HZ EP       1943 36.62                             110   -1.29 6  351 307 
 MON  HN ES       1944 15.45                             110   -0.63 6  351 307 
 MON  HZ I        1944 17.93        17.8 0.58            110            351 307 
 SDV  BZ EP       1943 38.90                             109    0.21 6  355  51 
 SDV  BE ES       1944 17.07                             109   -0.39 6  355  51 
 ORTC HZ EP       1943 44.23                             107    0.42 6  401 216 
 ORTC HN ES       1944 27.13                             107    0.54 6  401 216 
 ORTC HZ I        1944 32.98        25.7 0.44            108            401 216 
 SJC  HZ EP       1943 43.29                             107   -0.93 6  405 326 
 SJC  HN ES   2   1944 27.24                             107   -0.08 3  405 326 
 SJC  HZ I        1944 29.32        28.1 0.54            108            405 326 
 PAL  HZ EP       1943 45.01                             107    0.13 6  410 238 
 PAL  HN ES   4   1944 25.79                             107   -2.69 0  410 238 
 PAL  HZ I        1944 39.81        13.4 0.48            107            410 238 
 CRJC HZ EP       1943 50.13                             104   -0.77 5  461   3 
 CRJC HN ES       1944 39.08                             104   -0.13 5  461   3 
 CRJC HZ I        1944 41.65        25.4 0.18            106            461   3 
                                                                                
