 2013  110 1442  1.0 L   6.715 -73.245144.7  RSN  6 0.4 1.9LRSN                1
 GAP=203        1.01       7.1     7.0  8.8  0.3103E+02  0.3249E+01  0.9540E+01E
 Epicentro: VILLANUEVA - SANTANDER                                             3
 ACTION:UPD 13-02-15 09:13 OP:ep   STATUS:               ID:20130110144201 L   I
 2013-01-10-1438-41M.COL___190                                                 6
 STAT SP IPHASW D HRMM SECON CODA AMPLIT PERI AZIMU VELO AIN AR TRES W  DIS CAZ7
 BAR2 SZ EP       1442 20.21                             174   -0.2010 15.3 153 
 BAR2 SZ I        1442 36.29        17.5 0.18            170           15.3 153 
 BRR  HZ EP       1442 21.79                             154   -0.0710 67.4 310 
 BRR  HN ES       1442 38.77                             154    0.6710 67.4 310 
 BRR  HN I        1442 41.72        22.1 0.16            151           67.4 310 
 RUS  HZ EP       1442 23.91                             146   -0.2210 92.7 169 
 RUS  HN ES       1442 41.85                             146   -0.3010 92.7 169 
 RUS  HZ I        1442 43.90         6.1 0.26            149           92.7 169 
 PTB  HZ EP       1442 26.77                             134   -0.04 9  135 262 
 PTB  HN ES       1442 46.84                             134   -0.08 9  135 262 
 PTB  HN I        1442 50.12        10.8 0.34            137            135 262 
 ZAR  HN ES       1442 57.07                             123   -0.46 9  198 296 
 ZAR  HN I        1443  4.08        11.1 0.44            122            198 296 
 CHI  HZ EP       1442 38.28                             118    0.88 8  237 193 
                                                                                
