 2014  310 1408 57.6 L   6.780 -73.147147.0  RSN  9 0.3 2.0LRSN                1
 GAP=137        0.81       3.4     3.7  5.0 -0.3657E+01  0.2450E+01  0.4917E+01E
 Epicentro: LOS SANTOS - SANTANDER                                             3
 ACTION:UPD 14-04-09 23:16 OP:nd   STATUS:               ID:20140310140857 L   I
 OLDACT:REG 14-03-10 15:47 OP:nd   STATUS:               ID:20140310140042     3
 2014-03-10-1400-42M.COL___240                                                 6
 STAT SP IPHASW D HRMM SECON CODA AMPLIT PERI AZIMU VELO AIN AR TRES W  DIS CAZ7
 BAR2 SZ EP       14 9 17.43                             171    0.0510 21.2 191 
 BAR2 SZ ES       14 9 32.27                             171   -0.5110 21.2 191 
 BAR2 SZ I        14 9 35.33        37.0 0.36            169           21.2 191 
 BRR  HZ EP   2   14 9 19.16                             152    0.18 5 72.1 300 
 BRR  HN ES       14 9 36.31                             152    0.6910 72.1 300 
 BRR  HZ I        14 9 37.44        12.2 0.38            154           72.1 300 
 PAM  SZ EP       14 9 20.23                             150    0.1310 79.2  39 
 PAM  SN ES       14 9 37.41                             150   -0.2010 79.2  39 
 RUS  HZ EP       14 9 21.11                             145   -0.2510 98.4 176 
 RUS  HN ES       14 9 40.25                             145    0.3910 98.4 176 
 RUS  HZ I        14 9 41.73        12.6 0.26            144           98.4 176 
 PTB  HZ EP       14 9 24.31                             132   -0.35 9  147 260 
 PTB  HN ES       14 9 45.30                             132   -0.44 9  147 260 
 PTB  HZ I        14 9 47.98        10.5 0.14            133            147 260 
 SPBC HZ EP       14 9 26.29                             130    0.22 9  161 219 
 SPBC HN ES       14 9 48.31                             130    0.07 9  161 219 
 SPBC HZ I        14 9 51.29        20.1 0.24            130            161 219 
 NOR  HZ EP       14 9 33.24                             119   -0.06 8  233 235 
 NOR  HN ES       1410  1.17                             119    0.06 8  233 235 
 NOR  HZ I        1410  5.02        12.1 0.20            120            233 235 
 CHI  HZ EP       14 9 35.44                             118    0.26 8  246 195 
 CHI  HN ES       1410  4.35                             118   -0.11 8  246 195 
 CHI  HZ I        1410 10.30         4.5 0.24            118            246 195 
 GUY2CHZ EP   4   14 9 42.70                             113    1.54 0  300 235 
 GUY2CHN ES   4   1410 18.64                             113    3.55 0  300 235 
 GUY2CHZ I        1410 21.73         6.4 0.28                           300 235 
                                                                                
