 2016  110 1947 41.3 L   6.807 -73.169145.5  RSN 13 0.5 2.1LRSN                1
 GAP=133        1.18       3.2     4.3  5.9  0.4928E+00  0.7541E+01  0.3730E+01E
 Epicentro: LOS SANTOS - SANTANDER                                             3
 ACTION:UPD 16-03-09 23:24 OP:cam  STATUS:               ID:20160110194741 L   I
 OLDACT:REG 16-01-10 20:49 OP:ar   STATUS:               ID:20160110193753     3
 2016-01-10-1937-53M.COL___229                                                 6
 STAT SP IPHASW D HRMM SECON CODA AMPLIT PERI AZIMU VELO AIN AR TRES W  DIS CAZ7
 BAR2 EZ EP       1948  0.77                             170   -0.1610 23.7 184 
 BAR2 EZ ES       1948 15.58                             170   -0.6410 23.7 184 
 BAR2 EZ I        1948 17.31        27.3 0.18            168           23.7 184 
 BRR  HZ EP       1948  2.52                             153    0.2210 68.6 299 
 BRR  HN ES       1948 19.64                             153    0.9910 68.6 299 
 BRR  HZ I        1948 23.38        18.9 0.32            148           68.6 299 
 PAM  EZ EP       1948  3.67                             150    0.0910 78.5  41 
 PAM  EN ES       1948 20.93                             150   -0.0010 78.5  41 
 PAM  EZ I        1948 22.92        24.8 0.50            153           78.5  41 
 RUS  HZ EP       1948  5.12                             143    0.0110  102 175 
 RUS  HN ES       1948 23.75                             143    0.0810  102 175 
 RUS  HZ I        1948 24.64        17.2 0.34            142            102 175 
 PTB  HZ EP       1948  7.29                             132   -0.76 9  145 258 
 PTB  HN ES       1948 28.22                             132   -0.68 9  145 258 
 PTB  HZ I        1948 35.43        16.4 0.40            128            145 258 
 ZAR  HZ EP       1948 12.96                             123   -0.52 9  201 292 
 ZAR  HN ES       1948 37.90                             123   -0.65 9  201 292 
 ZAR  HZ I        1948 49.20        10.4 0.24            120            201 292 
 NOR  HZ EP       1948 17.25                             119    0.39 8  233 234 
 NOR  HN ES       1948 44.68                             119    0.11 8  233 234 
 NOR  HZ I        1948 52.64        13.5 0.16            116            233 234 
 SML  HZ EP       1948 17.17                             118   -0.58 8  242 336 
 SML  HN ES       1948 46.95                             118    0.80 8  242 336 
 SML  HZ I        1948 49.05        26.8 0.28            116            242 336 
 CHI  HZ EP       1948 19.00                             117   -0.01 8  249 195 
 CHI  HN ES       1948 48.67                             117    0.27 8  249 195 
 CHI  HZ I        1948 51.50         5.9 0.48            115            249 195 
 HEL  HZ EP       1948 21.42                             115    0.16 8  270 256 
 HEL  HN ES       1948 53.40                             115    0.99 8  270 256 
 HEL  HZ I        1948 58.35         7.3 0.36            113            270 256 
 GUY2CHZ EP   4   1948 26.65                             112    1.92 0  299 234 
 GUY2CHN ES   4   1949  2.19                             112    3.61 0  299 234 
 GUY2CHZ I        1949  5.94         6.8 0.58                           299 234 
 VIL  SZ EP       1948 25.20                             112    0.45 7  304 191 
 VIL  SN ES       1948 58.84                             112    0.22 7  304 191 
 PRA  HZ EP       1948 34.82                             106    0.06 6  391 209 
 PRA  HZ I        1949 14.82         2.3 0.46            105            391 209 
 PRA  HN ES       1949 16.05                             106   -0.39 6  391 209 
                                                                                
