 2012  610 1448 55.0 L   6.767 -73.179140.9  RSN  6 0.4 1.7LRSN                1
 GAP=240        0.77       6.7     6.7  8.4  0.1715E+02  0.3083E+02 -0.4829E+01E
 Epicentro: LOS SANTOS - SANTANDER                                             3
 ACTION:UPD 12-08-06 17:48 OP:ep   STATUS:               ID:20120610144901 L   I
 2012-06-10-1447-49M.COL___179                                                 6
 STAT SP IPHASW D HRMM SECON CODA AMPLIT PERI AZIMU VELO AIN AR TRES W  DIS CAZ7
 BAR2 SZ ES   1   1449 28.33                             172   -0.46 7 19.4 181 
 RUS  HE ES       1449 36.40                             143    0.3710 97.3 174 
 RUS  HZ I        1449 38.21         9.7 0.34            134           97.3 174 
 PTB  HZ EP   1   1449 21.03                             132   -0.18 7  143 260 
 PTB  HN ES   1   1449 41.22                             132   -0.41 7  143 260 
 PTB  HZ I        1449 44.80         7.0 0.06            123            143 260 
 ZAR  HZ EP   1   1449 26.82                             121   -0.13 6  202 293 
 ZAR  HN ES   1   1449 52.56                             121    0.71 6  202 293 
 ZAR  HZ I        1449 55.88         5.6 0.13            112            202 293 
 NOR  SZ EP   1   1449 29.39                             118   -0.54 6  230 235 
 NOR  SN ES   1   1449 57.30                             118    0.15 6  230 235 
 HEL  HZ EP   1   1449 35.00                             114    0.50 6  268 256 
 HEL  HZ I        1449 52.61         2.6 0.42            105            268 256 
 HEL  HN ES   1   1450  5.02                             114   -0.27 6  268 256 
                                                                                
