 2014  610 1557 52.4 L   6.837 -73.117142.3  RSN 12 0.5 2.1LRSN                1
 GAP=138        1.12       3.5     4.6  6.5 -0.1787E+01  0.9342E+01  0.2383E+00E
 Epicentro: LOS SANTOS - SANTANDER                                             3
 ACTION:UPD 14-07-01 22:52 OP:nd   STATUS:               ID:20140610155752 L   I
 OLDACT:DUP 14-06-11 00:13 OP:fm   STATUS:               ID:20140610154814d    3
 OLDACT:DUP 14-06-11 00:07 OP:fm   STATUS:               ID:20140610154813d    3
 2014-06-10-1548-12M.COL___250                                                 6
 STAT SP IPHASW D HRMM SECON CODA AMPLIT PERI AZIMU VELO AIN AR TRES W  DIS CAZ7
 BAR2 SZ EP       1558 11.81                             168    0.1310 28.0 195 
 BAR2 SZ ES   1   1558 26.92                             168    0.17 7 28.0 195 
 BAR2 SZ I        1558 29.74        23.5 0.40            167           28.0 195 
 PAM  SZ EP       1558 14.18                             152    0.2710 72.2  40 
 PAM  SE ES       1558 30.27                             152   -0.4410 72.2  40 
 PAM  SZ I        1558 33.95        26.2 0.60            158           72.2  40 
 BRR  HZ EP       1558 13.92                             152    0.7210 72.3 294 
 BRR  HN ES       1558 30.23                             152    0.7810 72.3 294 
 BRR  HZ I        1558 39.15        15.7 0.22            150           72.3 294 
 RUS  HZ EP       1558 15.95                             142   -0.1110  104 178 
 RUS  HN ES       1558 34.41                             142   -0.1410  104 178 
 RUS  HZ I        1558 37.29         9.4 0.42            146            104 178 
 PTB  HZ EP       1558 18.53                             130   -0.89 9  152 258 
 PTB  HE ES       1558 40.34                             130   -0.18 9  152 258 
 PTB  HZ I        1558 42.10        10.4 0.42            132            152 258 
 SPBC HZ EP       1558 20.56                             127   -0.54 9  168 219 
 SPBC HN ES       1558 43.10                             127   -0.41 9  168 219 
 SPBC HZ I        1558 47.80        16.3 0.20            130            168 219 
 ZAR  HZ EP       1558 24.94                             121    0.20 8  206 291 
 ZAR  HE ES       1558 49.32                             121   -0.67 8  206 291 
 ZAR  HZ I        1558 58.40         9.3 0.30            124            206 291 
 NOR  HN ES   2   1558 56.41                             117   -0.15 4  240 234 
 NOR  HZ I        1558 59.94         9.2 0.26            120            240 234 
 SML  HZ EP       1558 28.61                             117    0.06 8  241 334 
 SML  HN ES       1558 56.57                             117   -0.20 8  241 334 
 SML  HZ I        1558 59.51        13.2 0.32            120            241 334 
 GUY2CHZ EP   1   1558 36.46                             111    0.08 5  306 235 
 GUY2CHE ES   4   1559 12.63                             111    1.92 0  306 235 
 GUY2CHZ I        1559 17.18         5.4 0.28                           306 235 
 RREF HE ES   1   1559 16.07                             110    0.80 5  327 229 
 RREF HZ I        1559 22.72         6.7 0.24            113            327 229 
 TOL  SZ EP       1558 41.83                             108    0.75 6  349 225 
 TOL  SN ES       1559 19.76                             108    0.69 6  349 225 
 TOL  SZ I        1559 24.00        10.3 0.38            111            349 225 
                                                                                
