 2017 1210 1544 52.6 L   6.805 -73.148136.7  RSN  9 0.4 1.8LRSN                1
 GAP=111        0.92       2.7     3.4  5.4  0.3557E-01  0.5272E+01  0.2056E+01E
 Epicentro: LOS SANTOS - SANTANDER                                             3
 ACTION:UPD 18-01-04 13:19 OP:rebc STATUS:               ID:20171210154452 L   I
 OLDACT:REG 17-12-10 20:17 OP:lv   STATUS:               ID:20171210153724     3
 2017-12-10-1538-00M.COL___484                                                 6
 STAT SP IPHASW D HRMM SECON CODA AMPLIT PERI AZIMU VELO AIN AR TRES W  DIS CAZ7
 BAR2 EZ EP       1545 11.20                             170    0.0510 23.8 189 
 BAR2 EZ ES       1545 25.75                             170    0.1310 23.8 189 
 BAR2 EZ I        1545 26.69        10.2 0.30            168           23.8 189 
 PAM  EZ EP       1545 13.93                             149    0.0910 77.1  40 
 PAM  EN ES       1545 30.70                             149    0.2910 77.1  40 
 PAM  EZ I        1545 32.90        10.3 0.32            152           77.1  40 
 PTB  HZ EP       1545 18.26                             130   -0.56 9  148 259 
 PTB  HN ES       1545 39.00                             130   -0.28 9  148 259 
 PTB  HZ I        1545 40.73         7.1 0.22            130            148 259 
 YPLC HZ EP       1545 21.66                             124   -0.15 9  177 151 
 YPLC HN ES       1545 44.43                             124   -0.17 9  177 151 
 YPLC HZ I        1545 47.55         8.3 0.24            125            177 151 
 ZAR  HZ EP       1545 24.09                             120   -0.33 9  204 292 
 ZAR  HN ES       1545 49.19                             120   -0.05 9  204 292 
 ZAR  HZ I        1545 55.14        10.4 0.46            121            204 292 
 CHI  HZ EP       1545 29.34                             115   -0.52 8  249 195 
 CHI  HN ES       1545 58.86                             115   -0.06 8  249 195 
 CHI  HZ I        1546  4.24         2.2 0.30            116            249 195 
 DRL03HZ EP       1545 34.52                             111    0.80 7  288 353 
 DRL03HN ES       1546  5.29                             111   -0.51 7  288 353 
 GUY2CHZ EP       1545 36.87                             110    1.06 7  301 235 
 GUY2CHN ES       1546 10.14                             110    0.62 7  301 235 
 GUY2CHZ I        1546 20.99         3.7 0.38                           301 235 
 PRA  HZ EP       1545 45.91                             105    0.05 6  392 209 
 PRA  HE ES       1546 27.49                             105    0.09 6  392 209 
 PRA  HZ I        1546 33.90         3.7 0.26            106            392 209 
                                                                                
