 2013  110 1057 39.4 L   6.756 -73.210134.3  RSN  6 0.4 1.7LRSN                1
 GAP=174        0.97       3.6     5.7  7.5  0.5247E+01  0.1617E+02  0.1063E+01E
 Epicentro: VILLANUEVA - SANTANDER                                             3
 ACTION:UPD 13-02-15 09:13 OP:ep   STATUS:               ID:20130110105739 L   I
 2013-01-10-1048-40M.COL___174                                                 6
 STAT SP IPHASW D HRMM SECON CODA AMPLIT PERI AZIMU VELO AIN AR TRES W  DIS CAZ7
 BAR2 SZ EP       1057 56.83                             172   -0.6910 18.3 170 
 BAR2 SZ ES       1058 11.93                             172    0.2410 18.3 170 
 BAR2 SZ I        1058 13.65         7.6 0.30            174           18.3 170 
 RUS  HN ES       1058 19.07                             143   -0.0510 96.5 172 
 PTB  HZ EP       1058  4.59                             131   -0.09 9  140 260 
 PTB  HN ES       1058 24.04                             131   -0.39 9  140 260 
 PTB  HN I        1058 30.25         6.2 0.56            132            140 260 
 OCA  HN ES       1058 29.26                             126    0.31 9  164 356 
 OCA  HN I        1058 33.89        14.7 0.28            128            164 356 
 ZAR  HZ EP       1058 10.80                             120    0.20 9  199 294 
 ZAR  HE ES       1058 35.16                             120    0.20 9  199 294 
 CHI  HZ EP       1058 15.52                             115   -0.21 8  242 194 
 CHI  HN ES       1058 44.92                             115    0.82 8  242 194 
                                                                                
