 2010 1110 1203  3.0 L   6.793 -73.067144.0  RSN  7 0.3 1.7LRSN                1
 GAP=167        0.67       4.3     7.2  7.7 -0.1609E+02  0.1953E+01 -0.4779E+00E
 Epicentro: LOS SANTOS - SANTANDER                                             3
 ACTION:UP  10-12-17 16:51 OP:REBC STATUS:               ID:20101110120303 L   I
 2010-11-10-1159-40S.COL___128                                                 6
 STAT SP IPHASW D HRMM SECON CODA AMPLIT PERI AZIMU VELO SNR AR TRES W  DIS CAZ7
 BAR2 SZ EP       12 3 22.31                             169    -0.110   26 210 
 BAR2 SZ ES   2   12 3 37.64                             169     0.0 5   26 210 
 BAR2 SZ I        12 3 39.04        17.2 0.16                            26 210 
 BRR  HZ EP   1   12 3 24.26                             149    -0.1 7   79 296 
 BRR  HZ I        12 3 24.52        10.5 0.14                            79 296 
 BRR  HN ES   2   12 3 41.61                             149     0.5 5   79 296 
 RUS  HZ EP   1   12 3 26.40                             143    -0.1 7  100 181 
 RUS  HN ES   2   12 3 45.03                             143     0.2 5  100 181 
 RUS  HZ I        12 3 46.20         4.1 0.22                           100 181 
 GUE  SZ EP   1   12 3 27.79                             139     0.3 7  116   8 
 GRA  SZ EP       12 3 28.17                             137     0.210  124  14 
 GRA  SZ ES   1   12 3 46.82                             137    -0.6 7  124  14 
 GRA  SZ I        12 4  0.59         4.2 0.28                           124  14 
 NOR  SE ES   2   12 4  7.69                             117     0.0 4  242 236 
 RREF HZ EP   2   12 3 50.23                             110     0.5 3  328 230 
 RREF HN ES   2   12 4 25.41                             110    -0.8 3  328 230 
 RREF HZ I        12 4 33.80         3.3 0.54                           328 230 
                                                                                
