 2010  910 1215 52.5 L   6.738 -73.083151.2  RSN  4 0.1 1.7LRSN                1
 GAP=201        0.38       7.6     8.2  7.7  0.9719E+01 -0.2952E+02 -0.2774E+02E
 Epicentro: JORDAN - SANTANDER                                                 3
 ACTION:UP  11-02-18 11:01 OP:tino STATUS:               ID:20100910121552 L   I
 2010-09-10-1212-57S.COL___120                                                 6
 STAT SP IPHASW D HRMM SECON CODA AMPLIT PERI AZIMU VELO SNR AR TRES W  DIS CAZ7
 BAR2 SZ EP   1   1216 12.85                             172     0.1 7   20 215 
 BAR2 SZ ES   2   1216 28.37                             172    -0.1 5   20 215 
 BAR2 SZ I        1216 29.63         8.8 0.15                            20 215 
 GIR2 SZ EP   2   1216 12.79                             165    -0.3 5   40 342 
 BRR  HZ EP   1   1216 14.69                             150    -0.1 7   81 300 
 BRR  HZ I        1216 15.33        10.5 0.35                            81 300 
 BRR  HE ES   2   1216 32.29                             150     0.1 5   81 300 
 GRA  SZ EP   1   1216 18.68                             137     0.1 7  131  14 
                                                                                
