 2011  910 1822 29.5 L   6.846 -73.160162.1  RSN  7 0.4 1.7LRSN                1
 GAP=182        0.74       4.1     5.7  8.6  0.2459E+01  0.5770E+00 -0.3163E+01E
 Epicentro: LOS SANTOS - SANTANDER                                             3
 ACTION:UPD 12-07-13 15:56 OP:ep   STATUS:               ID:20110910182229 L   I
 2011-09-10-1820-00M.COL___171                                                 6
 STAT SP IPHASW D HRMM SECON CODA AMPLIT PERI AZIMU VELO AIN AR TRES W  DIS CAZ7
 GIR2 SZ EP   1   1822 51.00                             170   -0.03 7 26.0 352 
 BAR2 SZ EP   1   1822 50.70                             170   -0.52 7 28.2 185 
 BAR2 SZ I        1822 51.15        11.4 0.08                          28.2 185 
 BRR  HZ EP       1822 52.83                             156    0.5610 67.4 295 
 BRR  HN ES   1   1823  9.85                             156   -0.16 7 67.4 295 
 BRR  HZ I        1823 11.56        16.0 0.20                          67.4 295 
 RUS  HZ EP   1   1822 54.87                             145   -0.40 7  106 175 
 RUS  HZ I        1822 55.86         3.7 0.09                           106 175 
 RUS  HN ES   1   1823 15.72                             145    0.37 7  106 175 
 OCA  SZ EP   1   1822 58.46                             134   -0.23 7  155 354 
 OCA  SZ ES   1   1823 21.41                             134   -0.02 7  155 354 
 ZAR  HZ EP   1   1823  3.18                             126    0.43 6  201 291 
 ZAR  HN ES   1   1823 28.38                             126   -0.29 6  201 291 
 NOR  SN ES   1   1823 35.00                             122   -0.22 6  236 233 
                                                                                
