 2013 1210 1453  0.5 L   6.740 -73.184156.8  RSN  4 0.5 1.6LRSN                1
 GAP=228        1.18      10.2     9.6 11.3  0.4793E+02 -0.6921E+01  0.3648E+01E
 Epicentro: VILLANUEVA - SANTANDER                                             3
 ACTION:UPD 14-01-13 10:17 OP:ep   STATUS:               ID:20131210145300 L   I
 OLDACT:REG 13-12-10 14:43 OP:cam  STATUS:               ID:20131210145000     3
 2013-12-10-1450-00M.COL___285                                                 6
 STAT SP IPHASW D HRMM SECON CODA AMPLIT PERI AZIMU VELO AIN AR TRES W  DIS CAZ7
 BAR2 SZ EP       1453 21.23                             174   -0.1310 16.3 179 
 BAR2 SZ ES       1453 36.96                             174   -0.6610 16.3 179 
 BAR2 SZ I        1453 38.06        13.9 0.46            171           16.3 179 
 BRR  HZ EP   1   1453 22.32                             154   -0.54 7 71.0 305 
 BRR  HN ES       1453 41.03                             154    0.7410 71.0 305 
 RUS  HZ EP       1453 25.34                             148    0.3910 94.4 173 
 RUS  HN ES       1453 44.23                             148    0.2210 94.4 173 
 RUS  HZ I        1453 46.56         4.2 0.46            146           94.4 173 
 PTB  HN ES       1453 49.06                             135   -0.27 9  142 261 
                                                                                
