 2014  810 1355 30.5 L   6.077 -73.567126.5  RSN  5 0.4 1.5LRSN                1
 GAP=138        1.02       5.6     4.3  8.6  0.1359E+01  0.1691E+02 -0.1313E+01E
 Epicentro: GUEPSA - SANTANDER                                                 3
 ACTION:UPD 14-09-15 21:48 OP:nd   STATUS:               ID:20140810135530 L   I
 OLDACT:DUP 14-08-11 00:54 OP:carl STATUS:               ID:20140810134819d    3
 2014-08-10-1348-18M.COL___251                                                 6
 STAT SP IPHASW D HRMM SECON CODA AMPLIT PERI AZIMU VELO AIN AR TRES W  DIS CAZ7
 RUS  HZ EP       1355 49.66                             154    0.2110 57.3 111 
 RUS  HN ES       1356  3.86                             154   -0.4210 57.3 111 
 RUS  HZ I        1356  6.56         2.5 0.22            156           57.3 111 
 BAR2 SZ EP       1355 50.30                             149    0.4210 71.0  37 
 BAR2 SZ ES       1356  5.26                             149    0.2210 71.0  37 
 BAR2 SZ I        1356  6.57        14.4 0.32            151           71.0  37 
 PTB  HZ EP       1355 51.60                             136   -0.9510  111 297 
 PTB  HN ES       1356  9.80                             136    0.0110  111 297 
 PTB  HZ I        1356 10.70         5.3 0.10            138            111 297 
 NOR  HZ EP       1355 56.76                             126    0.08 9  155 249 
 NOR  HN ES       1356 17.54                             126    0.39 9  155 249 
 NOR  HZ I        1356 18.44         5.9 0.24            128            155 249 
 ZAR  HZ EP       1356  2.64                             117    0.08 8  212 318 
 ZAR  HN ES       1356 27.64                             117    0.04 8  212 318 
 ZAR  HZ I        1356 29.47         2.5 0.14            119            212 318 
                                                                                
