 2013  710 1236 20.8 L   6.772 -73.161146.4  RSN  7 0.5 2.1LRSN                1
 GAP=136        1.34       6.8     6.6  9.0 -0.9356E+01 -0.3339E+00 -0.6216E+01E
 Epicentro: LOS SANTOS - SANTANDER                                             3
 ACTION:UPD 13-08-12 10:36 OP:ep   STATUS:               ID:20130710123620 L   I
 OLDACT:REG 13-07-10 15:42 OP:stll STATUS:               ID:20130710122842     3
 2013-07-10-1228-42M.COL___226                                                 6
 STAT SP IPHASW D HRMM SECON CODA AMPLIT PERI AZIMU VELO AIN AR TRES W  DIS CAZ7
 BAR2 SZ EP       1236 40.39                             172   -0.0210 20.0 187 
 BAR2 SZ ES       1236 55.22                             172   -0.5110 20.0 187 
 BAR2 SZ I        1236 57.16        20.9 0.26            173           20.0 187 
 GIR2 SZ EP       1236 40.66                             166    0.0710 34.1 354 
 BRR  HZ EP       1236 42.58                             153    0.6010 71.2 301 
 BRR  HN ES       1236 59.38                             153    0.8510 71.2 301 
 BRR  HN I        1237  0.05        39.4 0.28            153           71.2 301 
 PAM  SZ EP       1236 43.50                             150    0.2410 80.9  39 
 PAM  SN ES       1237  0.17                             150   -0.6310 80.9  39 
 PAM  SN I        1237  2.47        12.9 0.66            150           80.9  39 
 RUS  HZ EP       1236 44.61                             145    0.2410 97.7 175 
 RUS  HN ES       1237  3.13                             145    0.3510 97.7 175 
 PTB  HZ EP       1236 46.56                             133   -1.02 9  145 260 
 PTB  HN ES       1237  8.14                             133   -0.35 9  145 260 
 CAPV BZ EP       1236 48.53                             131    0.00 9  153  38 
                                                                                
