 2010  410 1832 31.9 L   7.109 -73.237124.1  RSN  6 0.3 2.2LRSN                1
 GAP=178        0.58       3.4     5.5  4.8 -0.2703E+01  0.5545E+01  0.2516E+00E
 Epicentro: LEBRIJA - SANTANDER                                                3
 ACTION:UPD 10-08-24 09:58 OP:vdl  STATUS:               ID:20100410183231 L   I
 2010-04-10-1830-45S.COL___097                                                 6
 STAT SP IPHASW D HRMM SECON CODA AMPLIT PERI AZIMU VELO AIN AR TRES W  DIS CAZ7
 BRR  HZ IP     C 1832 49.85                             156     0.210   52 270 
 BRR  HZ I        1832 50.06        53.7 0.12                            52 270 
 BRR  HN ES   1   1833  3.19                             156    -0.3 7   52 270 
 BAR2 SZ IP       1832 50.46                             154     0.210   57 174 
 BAR2 SZ ES   1   1833  4.62                             154     0.0 7   57 174 
 OCA  SZ EP       1832 55.10                             132    -0.110  125 356 
 OCA  SZ ES   2   1833 13.47                             132     0.0 5  125 356 
 OCA  SZ I        1833 15.53        56.7 0.23                           125 356 
 HEL  HZ EP       1833 11.39                             110     0.2 8  273 248 
 HEL  HN ES   2   1833 42.05                             110     0.2 4  273 248 
 HEL  HZ I        1833 49.10         8.3 0.38                           273 248 
 CHI  HZ EP   2   1833 11.59                             109    -0.4 4  280 191 
 CHI  HZ I        1833 12.12         4.1 0.37                           280 191 
 PRA  HZ EP       1833 27.19                             101    -0.6 5  417 206 
 PRA  HN ES   2   1834 11.43                             101     0.1 3  417 206 
 PRA  HZ I        1834 20.54         4.4 0.32                           417 206 
                                                                                
