 2010  710 1304  7.8 L   6.742 -73.133147.5  RSN  5 0.3 1.5LRSN                1
 GAP=180        0.57       8.8    11.6  9.6 -0.3340E+02 -0.4013E+02 -0.1750E+02E
 Epicentro: JORDAN - SANTANDER                                                 3
 ACTION:UPD 10-12-01 15:16 OP:pat  STATUS:               ID:20100710130407 L   I
 2010-07-10-1302-48S.COL___120                                                 6
 STAT SP IPHASW D HRMM SECON CODA AMPLIT PERI AZIMU VELO AIN AR TRES W  DIS CAZ7
 BAR2 SZ EP   2   13 4 27.43                             173    -0.1 5   18 199 
 BAR2 SZ ES   2   13 4 42.96                             173     0.0 5   18 199 
 BAR2 SZ I        13 4 45.15         8.6 0.27                            18 199 
 BRR  HZ EP   2   13 4 29.32                             151    -0.1 5   76 302 
 BRR  HE ES   2   13 4 46.25                             151     0.0 5   76 302 
 BRR  HZ I        13 4 54.88        10.3 0.37                            76 302 
 BRI  SZ EP   2   13 4 31.95                             140    -0.3 5  114  19 
 GUE  SZ EP   2   13 4 32.73                             138    -0.4 5  123  11 
 GUE  SZ I        13 4 32.94         1.4 0.25                           123  11 
 GRA  SZ EP   1   13 4 34.18                             136     0.5 7  132  16 
 GRA  SZ I        13 4 35.42         4.6 0.25                           132  16 
 GRA  SZ ES   2   13 4 53.74                             136    -0.1 5  132  16 
                                                                                
