 2013  210 1750 25.0 L   7.161 -73.034154.7  RSN  4 0.4 1.9LRSN                1
 GAP=156        0.78      14.8     6.8 10.0 -0.5284E+02 -0.7593E+01  0.8888E+02E
 Epicentro: BUCARAMANGA - SANTANDER                                            3
 ACTION:UPD 13-03-12 09:32 OP:ep   STATUS:               ID:20130210175025 L   I
 2013-02-10-1750-00M.COL___241                                                 6
 STAT SP IPHASW D HRMM SECON CODA AMPLIT PERI AZIMU VELO AIN AR TRES W  DIS CAZ7
 PAM  SZ EP   1   1750 46.65                             164    0.07 7 41.9  62 
 PAM  SN ES       1751  3.09                             164   -0.3110 41.9  62 
 PAM  SZ I        1751  5.23         8.6 0.38            133           41.9  62 
 BRR  HZ EP   1   1750 47.66                             152    0.31 7 75.1 265 
 BRR  HN ES   1   1751  5.37                             152    0.60 7 75.1 265 
 BRR  HN I        1751  7.27        18.9 0.16            132           75.1 265 
 RUS  HZ EP   1   1750 53.03                             136    0.29 7  140 182 
 RUS  HN I        1751  9.79        11.2 0.38            111            140 182 
 PTB  HZ EP   1   1750 54.54                             129   -0.35 7  172 246 
 PTB  HE ES   1   1751 17.68                             129   -0.51 7  172 246 
 PTB  HZ I        1751 19.41         8.5 0.24            115            172 246 
                                                                                
