 2014  710 1655 11.2 L   6.787 -73.148158.0  RSN  6 0.4 1.8LRSN                1
 GAP=200        0.95       4.5     7.7  9.8  0.6493E+01 -0.8765E+01 -0.1551E+02E
 Epicentro: LOS SANTOS - SANTANDER                                             3
 ACTION:UPD 15-03-16 20:42 OP:nd   STATUS:               ID:20140710165511 L   I
 OLDACT:REG 14-07-10 19:50 OP:cam  STATUS:               ID:20140710165000     3
 2014-07-10-1650-00M.COL___282                                                 6
 STAT SP IPHASW D HRMM SECON CODA AMPLIT PERI AZIMU VELO AIN AR TRES W  DIS CAZ7
 BRR  HZ EP       1655 34.12                             154    0.4410 71.7 300 
 BRR  HN ES   1   1655 51.52                             154    0.28 7 71.7 300 
 BRR  HN I        1655 52.46        13.8 0.18            152           71.7 300 
 RUS  HN ES   1   1655 55.51                             146    0.06 7 99.1 176 
 RUS  HN I        1655 56.63         6.3 0.16            149           99.1 176 
 PTB  HZ EP       1655 39.28                             135    0.16 9  147 259 
 PTB  HN ES       1656  0.43                             135   -0.48 9  147 259 
 PTB  HZ I        1656  3.10         5.5 0.36            134            147 259 
 SPBC HZ EP   1   1655 40.59                             132    0.07 7  162 219 
 SPBC HN ES       1656  2.98                             132   -0.43 9  162 219 
 SPBC HZ I        1656 10.21         7.5 0.24            133            162 219 
 ZAR  HZ EP   1   1655 44.99                             125    0.51 6  204 293 
 ZAR  HN ES       1656 11.01                             125    0.56 9  204 293 
 ZAR  HZ I        1656 16.60         4.0 0.40            124            204 293 
 SML  HZ EP   1   1655 48.00                             120   -0.65 6  245 335 
 SML  HN ES       1656 17.22                             120   -0.65 8  245 335 
 SML  HZ I        1656 28.64         9.3 0.24            120            245 335 
                                                                                
