 2016 1210 1845 20.0 L   6.816 -73.127142.5  RSN 16 0.5 2.5LRSN                1
 GAP=103        1.09       3.9     4.2  5.6 -0.8064E+00  0.3161E+01  0.6532E+01E
 Epicentro: LOS SANTOS - SANTANDER                                             3
 ACTION:UPD 17-01-11 20:13 OP:rebc STATUS:               ID:20161210184520 L   I
 OLDACT:UP  16-12-11 00:11 OP:dnl  STATUS:               ID:20161210183743     3
 OLDACT:UP  16-12-11 00:10 OP:dnl  STATUS:               ID:20161210183743     3
 OLDACT:UP  16-12-11 00:10 OP:dnl  STATUS:               ID:20161210183743     3
 OLDACT:REG 16-12-10 20:57 OP:dnl  STATUS:               ID:20161210183743     3
 2016-12-10-1838-00M.COL___379                                                 6
 STAT SP IPHASW D HRMM SECON CODA AMPLIT PERI AZIMU VELO AIN AR TRES W  DIS CAZ7
 BAR2 EZ EP       1845 38.99                             169   -0.2510 25.5 194 
 BAR2 EZ ES       1845 53.40                             169   -0.8810 25.5 194 
 BAR2 EZ I        1845 55.39        45.6 0.34            164           25.5 194 
 BRR  HZ EP       1845 40.77                             152   -0.0410 72.2 296 
 BRR  HE ES       1845 57.48                             152    0.4010 72.2 296 
 BRR  HZ I        1846  0.74        40.9 0.24            151           72.2 296 
 PAM  EZ EP       1845 41.92                             151    0.2610 74.7  39 
 PAM  EE ES       1845 58.76                             151    0.1710 74.7  39 
 PAM  EZ I        1846  0.73       110.8 0.54            158           74.7  39 
 RUS  HZ EP       1845 43.08                             143   -0.4210  102 177 
 RUS  HN ES       1846  2.51                             143    0.6310  102 177 
 RUS  HZ I        1846  3.50        28.8 0.28            141            102 177 
 PTB  HZ EP   9   1845 45.61                             131   -1.27 0  150 258 
 PTB  HN ES       1846  6.65                             130    0.04 9  150 258 
 PTB  HZ I        1846  9.30        34.5 0.16            130            150 258 
 TAM  HZ EP     D 1845 47.41                             130    0.18 9  154 106 
 TAM  HE ES   4   1846  6.29                             130   -2.21 0  154 106 
 TAM  HZ I        1846  9.05        13.5 0.50            133            154 106 
 ZAR  HZ EP       1845 52.41                             121    0.09 8  205 291 
 ZAR  HN ES       1846 17.07                             121   -0.50 8  205 291 
 ZAR  HZ I        1846 23.39        22.5 0.34            122            205 291 
 CHI  HZ EP       1845 57.58                             116   -0.14 8  251 196 
 CHI  HE ES       1846 27.34                             116    0.16 8  251 196 
 CHI  HZ I        1846 32.18        15.1 0.32            116            251 196 
 GUY2CHZ EP   4   1846  0.38                             111   -3.34 0  304 235 
 GUY2CHN ES       1846 38.95                             111    1.09 7  304 235 
 GUY2CHZ I        1846 47.15        15.5 0.70                           304 235 
 LL6C HZ EP   4   1845 44.00                             110   -21.3 0  323 357 
 LL6C HN ES   4   1846 16.45                             110   -24.3 0  323 357 
 LL6C HZ I        1846 24.09         9.0 0.62            112            323 357 
 ELA  HZ EP   4   1846  8.60                             109    1.62 0  332 229 
 ELA  HN ES   4   1846 47.91                             109    4.24 0  332 229 
 ELA  HZ I        1846 51.46        10.4 0.74            110            332 229 
 ANIL HZ EP       1846 10.59                             108    0.64 6  360 225 
 ANIL HN ES   4   1846 50.76                             108    1.81 0  360 225 
 ANIL HZ I        1846 56.89        33.8 0.26            108            360 225 
 PRA  HZ EP       1846 13.30                             106   -0.37 6  395 210 
 PRA  HN ES       1846 54.77                             106   -0.79 6  395 210 
 PRA  HZ I        1847  1.84        14.8 0.28            106            395 210 
 ORTC HZ EP       1846 13.55                             106   -0.53 6  398 216 
 ORTC HE ES   4   1846 57.88                             106    1.59 0  398 216 
 ORTC HZ I        1847  1.76        10.2 0.38            106            398 216 
 SJC  HZ EP   4   1846 13.03                             105   -2.34 0  409 327 
 SJC  HN ES   4   1846 54.33                             105   -4.26 0  409 327 
 SJC  HZ I        1846 58.43        10.6 0.52            107            409 327 
 CRJC HZ EP   4   1846 19.08                             103   -3.05 0  466   3 
 CRJC HE ES   4   1847  8.22                             103   -2.41 0  466   3 
 CRJC HZ I        1847 20.36         7.5 0.78            105            466   3 
                                                                                
