 2013  510 1715 49.7 L   6.770 -73.121150.0  RSN  7 0.4 1.7LRSN                1
 GAP=141        0.92       5.6     5.2  6.7 -0.6159E+01  0.6878E+01  0.1236E+02E
 Epicentro: LOS SANTOS - SANTANDER                                             3
 ACTION:UPD 13-06-20 09:49 OP:ep   STATUS:               ID:20130510171549 L   I
 2013-05-10-1710-00M.COL___256                                                 6
 STAT SP IPHASW D HRMM SECON CODA AMPLIT PERI AZIMU VELO AIN AR TRES W  DIS CAZ7
 BAR2 SZ EP       1716  9.72                             172   -0.0710 20.8 199 
 BAR2 SZ ES   1   1716 25.73                             172    0.27 7 20.8 199 
 BAR2 SZ I        1716 26.78         7.4 0.43            168           20.8 199 
 GIR2 SZ EP   2   1716  9.90                             166   -0.07 5 35.1 347 
 GIR2 SZ ES   1   1716 24.90                             166   -0.89 7 35.1 347 
 BRR  HZ EP       1716 11.68                             152    0.1510 75.2 300 
 BRR  HN ES       1716 29.25                             152    0.7010 75.2 300 
 BRR  HZ I        1716 33.01        12.2 0.26            150           75.2 300 
 PAM  SZ EP   1   1716 12.82                             151    0.41 7 78.3  36 
 PAM  SN ES       1716 29.99                             151   -0.1510 78.3  36 
 PAM  SZ I        1716 31.69         5.6 0.52            156           78.3  36 
 RUS  HZ EP       1716 13.59                             146   -0.0310 97.1 178 
 RUS  HN ES   1   1716 32.46                             146    0.18 7 97.1 178 
 RUS  HZ I        1716 33.53         4.3 0.36            147           97.1 178 
 PTB  HZ EP       1716 16.64                             133   -0.56 9  150 260 
 PTB  HN ES   1   1716 38.10                             133   -0.55 7  150 260 
 PTB  HZ I        1716 43.55         9.0 0.42            132            150 260 
 NOR  HZ EP       1716 25.91                             119    0.20 8  235 236 
 NOR  HE ES   1   1716 53.93                             119    0.13 6  235 236 
 NOR  HZ I        1717  1.00         6.5 0.18            120            235 236 
                                                                                
