 2017  810 1617 31.9 L   6.773 -73.124148.0  RSN  6 0.3 1.6LRSN                1
 GAP=122        0.77       3.9     4.3  5.4  0.4693E+01  0.8288E+00  0.3030E+01E
 Epicentro: LOS SANTOS - SANTANDER                                             3
 ACTION:UPD 17-09-04 20:18 OP:rebc STATUS:               ID:20170810161731 L   I
 OLDACT:UP  17-08-11 00:39 OP:dani STATUS:               ID:20170810160744d    3
 OLDACT:DUP 17-08-11 00:37 OP:dani STATUS:               ID:20170810160744d    3
 OLDACT:UP  17-08-11 00:37 OP:dani STATUS:               ID:20170810160743     3
 OLDACT:UP  17-08-11 00:36 OP:dani STATUS:               ID:20170810160743     3
 OLDACT:UP  17-08-11 00:36 OP:dani STATUS:               ID:20170810160743     3
 OLDACT:UP  17-08-11 00:36 OP:dani STATUS:               ID:20170810160743     3
 OLDACT:UP  17-08-11 00:34 OP:dani STATUS:               ID:20170810160743     3
 OLDACT:UP  17-08-11 00:32 OP:dani STATUS:               ID:20170810160743     3
 OLDACT:REG 17-08-10 21:04 OP:dani STATUS:               ID:20170810160743     3
 2017-08-10-1608-00M.COL___408                                                 6
 STAT SP IPHASW D HRMM SECON CODA AMPLIT PERI AZIMU VELO AIN AR TRES W  DIS CAZ7
 BAR2 EZ EP       1617 51.74                             172   -0.0110 21.0 198 
 BAR2 EZ ES       1618  6.81                             172   -0.4310 21.0 198 
 BAR2 EZ I        1618  7.94        11.8 0.36            173           21.0 198 
 BRR  HZ EP       1617 53.55                             152    0.0610 74.7 300 
 BRR  HN ES       1618 10.74                             152    0.4110 74.7 300 
 BRR  HZ I        1618 14.90        13.5 0.22            152           74.7 300 
 PAM  EZ EP     D 1617 54.70                             151    0.3010 78.3  37 
 PAM  EN ES       1618 11.74                             151   -0.2210 78.3  37 
 PAM  EZ I        1618 14.21         5.4 0.46            152           78.3  37 
 RUS  HZ EP       1617 55.89                             145    0.2410 97.5 177 
 RUS  HN ES       1618 14.34                             145    0.1610 97.5 177 
 RUS  HZ I        1618 15.25         3.4 0.37            148           97.5 177 
 ZAR  HN ES       1618 30.13                             122   -0.39 8  207 293 
 PTGC HZ EP       1618 14.98                             112   -0.47 7  305 159 
                                                                                
