 2014  110 1709 27.0 L   6.811 -73.131142.4  RSN 17 0.6 2.4LRSN 2.8WRSN        1
 SPEC AVERAGE  MO 13.3 ST250.5 OM  1.5 f0 18.6 R0.2539 AL 0.00 WI 20.0 MW  2.8 3
 SPEC SD       MO  0.2 ST368.8 OM  0.3 f0 14.3 R0.2402 AL      WI      MW  0.1 3
 GAP=120        1.39       3.4     4.3  6.2 -0.4320E+01  0.4488E+01  0.6452E+00E
 Epicentro: LOS SANTOS - SANTANDER                                             3
 SPEC BAR2SH Z MO 13.5 ST 49.6 OM  1.7 f0 13.3 R0.1447 AL-0.00 WI 20.0 MW  3.0 3
 SPEC BAR2SH Z T17 959 K 0.050 GD  144 VS 5.20 DE 3.20 Q0750.0 QA 1.50 VS 5.20 3
 SPEC BRR HH Z MO 13.3 ST 37.1 OM  1.4 f0 14.7 R0.1309 AL-0.00 WI 20.0 MW  2.8 3
 SPEC BRR HH Z T1710 3 K 0.050 GD  159 VS 5.20 DE 3.20 Q0750.0 QA 1.50 VS 5.20 3
 SPEC PAM SH Z MO 13.1 ST  6.0 OM  1.2 f0 9.33 R0.2062 AL-0.00 WI 20.0 MW  2.7 3
 SPEC PAM SH Z T1710 4 K 0.050 GD  161 VS 5.20 DE 3.20 Q0750.0 QA 1.50 VS 5.20 3
 SPEC RUS HH Z MO 12.9 ST 20.9 OM  1.0 f0 16.0 R0.1202 AL-0.00 WI 20.0 MW  2.6 3
 SPEC RUS HH Z T1710 7 K 0.050 GD  175 VS 5.20 DE 3.20 Q0750.0 QA 1.50 VS 5.20 3
 SPEC PTB HH Z MO 13.4 ST967.9 OM  1.4 f0 40.0 R0.0481 AL-0.00 WI 20.0 MW  2.9 3
 SPEC PTB HH Z T171012 K 0.050 GD  206 VS 5.20 DE 3.20 Q0750.0 QA 1.50 VS 5.20 3
 SPEC ZAR HH Z MO 13.3 ST737.0 OM  1.2 f0 40.0 R0.0481 AL-0.00 WI 20.0 MW  2.8 3
 SPEC ZAR HH Z T171022 K 0.050 GD  249 VS 5.20 DE 3.20 Q0750.0 QA 1.50 VS 5.20 3
 SPEC NOR HH Z MO 13.2 ST103.5 OM  1.1 f0 21.7 R0.0887 AL-0.00 WI 20.0 MW  2.8 3
 SPEC NOR HH Z T171028 K 0.050 GD  276 VS 5.20 DE 3.20 Q0750.0 QA 1.50 VS 5.20 3
 SPEC SML HH Z MO 13.3 ST831.6 OM  1.2 f0 40.0 R0.0481 AL-0.00 WI 20.0 MW  2.8 3
 SPEC SML HH Z T171030 K 0.050 GD  281 VS 5.20 DE 3.20 Q0750.0 QA 1.50 VS 5.20 3
 SPEC CHI HH Z MO 13.5 ST0.345 OM  1.4 f0 2.54 R0.7575 AL-0.00 WI 20.0 MW  3.0 3
 SPEC CHI HH Z T171032 K 0.050 GD  287 VS 5.20 DE 3.20 Q0750.0 QA 1.50 VS 5.20 3
 SPEC HEL HH Z MO 13.4 ST0.871 OM  1.2 f0 3.94 R0.4883 AL-0.00 WI 20.0 MW  2.9 3
 SPEC HEL HH Z T171037 K 0.050 GD  308 VS 5.20 DE 3.20 Q0750.0 QA 1.50 VS 5.20 3
 SPECGUY2CHH Z MO 13.7 ST  0.4 OM  1.5 f0 2.42 R 0.796 AL-0.00 WI 20.0 MW  3.0 3
 SPECGUY2CHH Z T171043 K 0.050 GD332.3 VS 5.20 DE 3.20 Q0750.0 QA 1.50 VS 5.20 3
 SPEC RREFHH Z MO 13.5 ST0.405 OM  1.3 f0 2.70 R0.7126 AL-0.00 WI 20.0 MW  3.0 3
 SPEC RREFHH Z T171047 K 0.050 GD  353 VS 5.20 DE 3.20 Q0750.0 QA 1.50 VS 5.20 3
 OLDACT:REG 14-01-10 15:58 OP:stll STATUS:               ID:20140110170818     3
 ACTION:UPD 14-03-13 09:54 OP:ep   STATUS:               ID:20140110170927 L   I
 OLDACT:UP  14-01-10 21:08 OP:stll STATUS:               ID:20140110170818     3
 2014-01-10-1708-18M.COL___246                                                 6
 STAT SP IPHASW D HRMM SECON CODA AMPLIT PERI AZIMU VELO AIN AR TRES W  DIS CAZ7
 BAR2 SZ IP     C 17 9 46.48                             170    0.2710 24.8 193 
 BAR2 SZ ES       1710  1.08                             170   -0.1510 24.8 193 
 BAR2 SZ I        1710  4.08        87.9 0.26            168           24.8 193 
 BRR  HZ IP     C 17 9 48.31                             152    0.5210 72.1 297 
 BRR  HN ES       1710  4.94                             152    0.9010 72.1 297 
 BRR  SZ I        1710  9.22        37.0 0.24            151           72.1 297 
 PAM  SZ EP       17 9 49.25                             151    0.5610 75.4  39 
 PAM  SN ES       1710  6.24                             151    0.5910 75.4  39 
 PAM  SZ I        1710  8.38        38.1 0.54            156           75.4  39 
 RUS  HZ EP       17 9 50.47                             143    0.0210  102 177 
 RUS  HN ES       1710  8.65                             143   -0.1310  102 177 
 RUS  SZ I        1710 10.29        23.1 0.36            145            102 177 
 PTB  HZ EP       17 9 53.18                             131   -0.64 9  150 259 
 PTB  HN ES       1710 13.84                             131   -0.93 9  150 259 
 PTB  SZ I        1710 21.59        23.8 0.28            132            150 259 
 OCA  HZ EP       17 9 54.89                             129   -0.02 9  159 352 
 OCA  HN ES       1710 16.31                             129   -0.41 9  159 352 
 OCA  SZ I        1710 21.78        22.5 0.36            132            159 352 
 SPBC HZ EP       17 9 55.07                             128   -0.31 9  165 219 
 SPBC HN ES       1710 16.87                             128   -0.69 9  165 219 
 SPBC SZ I        1710 24.35        34.4 0.22            129            165 219 
 ZAR  HZ EP       17 9 58.94                             122   -0.35 9  205 292 
 ZAR  HN ES       1710 23.84                             122   -0.68 9  205 292 
 ZAR  SZ I        1710 29.15        20.2 0.28            123            205 292 
 NOR  HZ EP       1710  2.64                             118   -0.07 8  237 234 
 NOR  HN ES       1710 29.96                             118   -0.64 8  237 234 
 NOR  SZ I        1710 35.46        22.2 0.36            119            237 234 
 SML  HZ EP       1710  3.33                             117   -0.02 8  243 335 
 SML  HN ES       1710 31.65                             117   -0.09 8  243 335 
 SML  HZ I        1710 33.59        46.9 0.08            119            243 335 
 CHI  HZ EP       1710  4.81                             116    0.17 8  250 195 
 CHI  HN ES       1710 33.50                             116   -0.53 8  250 195 
 CHI  SZ I        1710 44.00        10.2 1.24            119            250 195 
 HEL  HZ EP       1710  8.49                             114    1.28 8  274 256 
 HEL  HN ES       1710 38.83                             114    0.23 8  274 256 
 HEL  SZ I        1710 45.19        14.8 0.46            116            274 256 
 SOCV BZ EP       1710  8.69                             112   -0.93 7  299  57 
 GUY2CHZ EP       1710 11.18                             112    0.54 7  303 235 
 GUY2CHN ES       1710 44.79                             112    0.08 7  303 235 
 GUY2CSZ I        1710 52.46        16.9 0.36                           303 235 
 RREF HZ EP       1710 13.38                             110    0.20 7  324 229 
 RREF HN ES       1710 49.31                             110    0.07 7  324 229 
 RREF SZ I        1710 57.82        13.8 0.62            112            324 229 
 SDV  BZ EP       1710 16.11                             108   -0.52 6  358  50 
 ANIL HE ES       1710 57.90                             108    2.11 6  359 225 
                                                                                
