 2011 1210 1727  2.4 L   6.783 -73.150148.4  RSN 11 0.4 2.2LRSN                1
 GAP=137        0.72       3.5     4.3  5.4 -0.5503E+01  0.3674E+01  0.1155E+01E
 Epicentro: LOS SANTOS - SANTANDER                                             3
 ACTION:UPD 12-07-13 16:15 OP:ep   STATUS:               ID:20111210172702 L   I
 2011-12-10-1720-00M.COL___186                                                 6
 STAT SP IPHASW D HRMM SECON CODA AMPLIT PERI AZIMU VELO AIN AR TRES W  DIS CAZ7
 BAR2 SZ EP   1   1727 22.21                             171   -0.14 7 21.4 190 
 BAR2 SZ ES   1   1727 37.66                             171   -0.22 7 21.4 190 
 BAR2 SZ I        1727 40.47        44.9 0.44                          21.4 190 
 GIR2 SZ EP   1   1727 22.10                             167   -0.37 7 33.0 352 
 BRR  HZ EP       1727 24.32                             153    0.4210 71.7 300 
 BRR  HN ES   1   1727 41.46                             153    0.82 7 71.7 300 
 BRR  HZ I        1727 44.10        35.9 0.22                          71.7 300 
 PAM  SZ EP   1   1727 25.19                             151    0.15 7 79.1  39 
 PAM  SE ES   1   1727 42.44                             151   -0.23 7 79.1  39 
 RUS  HZ EP   1   1727 26.29                             145   -0.03 7 98.8 176 
 RUS  HN ES   1   1727 44.85                             145   -0.10 7 98.8 176 
 RUS  HZ I        1727 46.27        13.9 0.18                          98.8 176 
 BRI  SZ EP   1   1727 27.00                             141    0.28 7  110  21 
 PTB  HZ EP   1   1727 29.15                             133   -0.39 7  147 260 
 PTB  HN ES   1   1727 50.22                             133   -0.47 7  147 260 
 OCA  SZ EP   1   1727 30.65                             130   -0.47 7  162 353 
 NOR  SZ EP   1   1727 38.19                             119    0.03 6  233 235 
 NOR  SN ES   1   1728  5.59                             119   -0.44 6  233 235 
 CHI  HZ EP   1   1727 40.40                             118    0.33 6  247 195 
 CHI  HN ES   1   1728  9.83                             118    0.40 6  247 195 
 CHI  HZ I        1728 13.87         6.6 0.49                           247 195 
 RREF HN ES   1   1728 24.57                             111    0.12 5  320 230 
 RREF HZ I        1728 32.00         9.1 0.28                           320 230 
                                                                                
