 2012  410 1628 15.6 L   6.804 -73.190136.0  RSN  9 0.4 1.7LRSN                1
 GAP=131        0.83       5.0     4.7  7.8 -0.2836E+01  0.1411E+02  0.2583E+01E
 Epicentro: ZAPATOCA - SANTANDER                                               3
 ACTION:UPD 12-07-05 11:52 OP:tino STATUS:               ID:20120410162815 L   I
 2012-04-10-1627-49M.COL___178                                                 6
 STAT SP IPHASW D HRMM SECON CODA AMPLIT PERI AZIMU VELO AIN AR TRES W  DIS CAZ7
 BAR2 SZ EP   1   1628 33.90                             170    -0.1 7   23 178 
 BAR2 SZ ES   1   1628 48.27                             170    -0.2 7   23 178 
 BAR2 SZ I        1628 50.68         9.4 0.28                            23 178 
 BRR  HZ EP   1   1628 35.88                             152     0.5 7   67 300 
 PAM  SZ EP   1   1628 36.91                             148     0.0 7   80  42 
 PAM  SN ES   1   1628 53.98                             148     0.4 7   80  42 
 PAM  SZ I        1628 55.75         8.8 0.52                            80  42 
 RUS  HZ EP   1   1628 37.99                             141    -0.5 7  102 173 
 RUS  HE ES   1   1628 56.34                             141     0.0 7  102 173 
 RUS  HZ I        1628 58.10         7.6 0.23                           102 173 
 PTB  HZ EP   1   1628 40.80                             131    -0.5 7  143 258 
 PTB  HN ES   1   1629  1.22                             131    -0.2 7  143 258 
 PTB  HZ I        1629  4.63         7.8 0.17                           143 258 
 ZAR  HN ES   1   1629 11.08                             121    -0.3 6  199 293 
 ZAR  HZ I        1629 17.57         7.5 0.21                           199 293 
 NOR  SN ES   1   1629 18.32                             117     0.8 6  231 234 
 RREF HZ EP   1   1629  1.46                             109     0.5 5  318 229 
 PRA  HZ EP   1   1629  8.51                             105     0.0 4  390 209 
                                                                                
