 2010  310 1239 41.7 L   6.808 -73.005150.6  RSN 10 0.4 2.7LRSN                1
 GAP=197        0.82       3.4     7.0  5.5  0.9791E+00  0.7012E+01  0.5442E+01E
 Epicentro: CEPITA - SANTANDER                                                 3
 ACTION:UP  10-08-24 09:53 OP:vdl  STATUS:               ID:20100310123941 L   I
 2010-03-10-1236-34S.COL___091                                                 6
 STAT SP IPHASW D HRMM SECON CODA AMPLIT PERI AZIMU VELO SNR AR TRES W  DIS CAZ7
 BAR2 SZ IP       1240  2.28                             168     0.210   31 219 
 BAR2 SZ ES   1   1240 17.51                             168    -0.5 7   31 219 
 BRR  HZ IP       1240  4.17                             149     0.010   85 293 
 BRR  HZ I        1240  4.47       162.3 0.16                            85 293 
 BRR  HN ES       1240 21.74                             149     0.010   85 293 
 RUS  BZ EP       1240  6.19                             144     0.110  102 185 
 RUS  BE ES   1   1240 24.97                             144     0.0 7  102 185 
 RUS  BZ I        1240 26.60        23.0 0.34                           102 185 
 OCA  SZ EP   1   1240 10.76                             130     0.2 7  162 348 
 OCA  SZ ES   1   1240 33.36                             130     0.3 7  162 348 
 OCA  SZ I        1240 39.10       101.1 0.41                           162 348 
 CHI  HZ EP       1240 20.37                             117     0.1 8  254 199 
 CHI  HN ES   1   1240 50.00                             117    -0.4 6  254 199 
 CHI  HZ I        1240 57.55        14.4 0.50                           254 199 
 RREF BZ EP   1   1240 29.90                             111     0.4 5  334 231 
 RREF BN ES   2   1241  8.25                             111     1.5 3  334 231 
 RREF BZ I        1241 14.48        21.7 0.41                           334 231 
 DBB  SZ EP       1240 30.40                             109    -0.8 6  355 274 
 TOL  SZ EP       1240 30.92                             109    -0.6 6  355 226 
 ANIL BE ES   1   1241 13.63                             108     0.5 5  369 226 
 ANIL BZ I        1241 26.62        25.0 0.36                           369 226 
 PRA  HZ EP       1240 36.72                             107     0.3 6  401 211 
 PRA  HE ES   1   1241 19.31                             107     0.2 4  401 211 
 PRA  HZ I        1241 22.25        15.0 0.39                           401 211 
                                                                                
