 2012  310 1031 41.6 L   6.796 -73.139145.3  RSN  7 0.3 1.7LRSN                1
 GAP=138        0.81       4.3     5.3  6.6  0.4946E+01  0.7466E+01  0.8867E+01E
 ACTION:UP  12-03-31 23:18 OP:EP   STATUS:               ID:20120310103141 L   I
 2012-03-10-1030-00M.COL___193                                                 6
 STAT SP IPHASW D HRMM SECON CODA AMPLIT PERI AZIMU VELO SNR AR TRES W  DIS CAZ7
 BAR2 SZ EP       1032  1.12                             171     0.010   23 192 
 BAR2 SZ ES   1   1032 16.60                             171     0.2 7   23 192 
 BAR2 SZ I        1032 18.24         9.7 0.32                            23 192 
 BRR  HZ EP       1032  2.87                             152     0.210   72 299 
 BRR  HZ I        1032  3.26        13.0 0.17                            72 299 
 BRR  HE ES       1032 19.45                             152     0.210   72 299 
 PAM  SZ EP   1   1032  3.78                             151     0.1 7   77  39 
 PAM  SE ES   1   1032 20.87                             151    -0.1 7   77  39 
 RUS  HZ EP       1032  5.26                             144     0.010  100 176 
 RUS  HE ES   1   1032 23.11                             144    -0.6 7  100 176 
 RUS  HZ I        1032 26.02         3.3 0.25                           100 176 
 PTB  HZ EP       1032  8.06                             132    -0.5 9  148 259 
 ZAR  HE ES   1   1032 39.26                             122    -0.2 6  205 292 
 ZAR  HZ I        1032 45.06         8.2 0.50                           205 292 
 CHI  HZ EP   1   1032 19.86                             117     0.6 6  248 195 
 CHI  HN ES   1   1032 48.99                             117     0.4 6  248 195 
 CHI  HZ I        1032 58.15         2.4 0.37                           248 195 
                                                                                
