 2017  910 1757 20.3 L   6.814 -73.097149.7  RSN 10 0.3 1.9LRSN                1
 GAP=116        0.83       3.2     3.0  4.7  0.1244E+01  0.5028E+01  0.3075E+01E
 Epicentro: LOS SANTOS - SANTANDER                                             3
 ACTION:UPD 17-10-05 19:10 OP:rebc STATUS:               ID:20170910175720 L   I
 OLDACT:REG 17-09-10 20:06 OP:lv   STATUS:               ID:20170910174739     3
 2017-09-10-1748-00M.COL___413                                                 6
 STAT SP IPHASW D HRMM SECON CODA AMPLIT PERI AZIMU VELO AIN AR TRES W  DIS CAZ7
 BAR2 EZ EP       1757 40.14                             170   -0.3210 26.2 201 
 BAR2 EZ ES       1757 55.80                             170   -0.3910 26.2 201 
 BAR2 EZ I        1757 57.75        19.3 0.19            168           26.2 201 
 PAM  EZ EP       1757 43.02                             153    0.3510 72.8  37 
 PAM  EN ES       1758  0.33                             153    0.2010 72.8  37 
 PAM  EZ I        1758  2.56        13.4 0.38            157           72.8  37 
 BRR  HZ IP     C 1757 41.99                             152   -0.1110 75.3 296 
 BRR  HE ES       1757 59.51                             152    0.3910 75.3 296 
 BRR  HZ I        1758  3.72        11.0 0.15            152           75.3 296 
 RUS  HZ EP       1757 44.06                             144   -0.4610  102 179 
 RUS  HN ES       1758  3.51                             144    0.0910  102 179 
 RUS  HZ I        1758  5.85         6.5 0.18            146            102 179 
 YPLC HZ EP       1757 50.33                             128    0.07 9  176 153 
 YPLC HN ES       1758 13.79                             128    0.16 9  176 153 
 YPLC HZ I        1758 16.35         4.8 0.36            130            176 153 
 ZAR  HZ EP       1757 52.68                             123   -0.77 8  209 291 
 ZAR  HN ES       1758 19.24                             123   -0.08 8  209 291 
 ZAR  HZ I        1758 24.34        10.5 0.10            124            209 291 
 NOR  HZ EP       1757 56.63                             119   -0.18 8  240 235 
 NOR  HE ES       1758 25.43                             119    0.13 8  240 235 
 NOR  HZ I        1758 29.69         5.1 0.34            120            240 235 
 HEL  HZ EP       1758  1.92                             115    0.60 7  278 256 
 HEL  HN ES       1758 33.31                             115   -0.02 7  278 256 
 HEL  HZ I        1758 39.35         5.8 0.36            116            278 256 
 GUY2CHZ EP       1758  5.32                             113    0.64 7  306 235 
 GUY2CHN ES       1758 39.42                             113    0.12 7  306 235 
 GUY2CHZ I        1758 45.61         3.8 0.26                           306 235 
 PRA  HZ EP   9   1758 13.53                             107   -0.88 0  396 210 
 PRA  HN ES       1758 55.92                                    0.17 6  396 210 
 PRA  HZ I        1758 59.66         4.3 0.58            108            396 210 
                                                                                
