 2011  310 1943  2.0 L   7.018 -73.474 97.3  RSN 10 0.5 2.6LRSN                1
 GAP=119        1.38       4.6    10.3 16.0 -0.9357E+01  0.9324E+02  0.2776E+01E
 Epicentro: SAN VICENTE DE CHUCURI - SANTANDER                                 3
 ACTION:UP  11-06-16 14:32 OP:jfem STATUS:               ID:20110310194302 L   I
 2011-03-10-1940-55S.COL___135                                                 6
 STAT SP IPHASW D HRMM SECON CODA AMPLIT PERI AZIMU VELO SNR AR TRES W  DIS CAZ7
 BAR2 SZ IP       1943 17.60                             148     0.110   57 146 
 BAR2 SZ I        1943 17.98       192.5 0.11                            57 146 
 BAR2 SZ ES   2   1943 30.34                             148     0.8 5   57 146 
 GUE  SZ EP       1943 21.67                             129    -0.210  108  34 
 GRA  SZ EP       1943 23.18                             125     0.310  121  38 
 GRA  SZ ES   1   1943 40.13                             125     0.9 7  121  38 
 GRA  SZ I        1943 42.82        87.3 0.34                           121  38 
 RUS  HZ EP       1943 23.69                             123    -0.710  132 161 
 RUS  HE ES   1   1943 41.33                             123    -0.6 7  132 161 
 RUS  HZ I        1943 43.17        85.5 0.51                           132 161 
 OCA  SZ EP       1943 23.71                             122    -0.7 9  136   7 
 OCA  SZ ES   1   1943 41.59                             122    -0.4 7  136   7 
 OCA  SZ I        1943 43.65       135.2 0.25                           136   7 
 YOP  SZ EP       1943 33.78                             110     0.3 8  218 148 
 YOP  SZ I        1944  2.09        38.2 0.23                           218 148 
 HEL  HZ EP       1943 37.00                             108     0.0 8  245 248 
 HEL  HZ I        1944  7.35        20.9 0.17                           245 248 
 GUY  SZ EP       1943 42.98                             105     0.7 7  288 227 
 GUY  SZ I        1944 19.92        17.9 0.60                           288 227 
 SDV  BZ EP   2   1943 52.96                             101     0.6 3  375  57 
 PRA  HZ EP       1943 55.66                             100     0.7 6  397 203 
                                                                                
