 2014 1210 1349 19.9 L   6.826 -73.211137.4  RSN  4 0.3 1.5LRSN                1
 GAP=148        0.74       4.4     4.2  6.3 -0.5815E+01  0.7709E+01 -0.2774E+01E
 Epicentro: ZAPATOCA - SANTANDER                                               3
 ACTION:UPD 15-02-10 17:02 OP:nd   STATUS:               ID:20141210134919 L   I
 OLDACT:REG 14-12-10 21:38 OP:stll STATUS:               ID:20141210134746     3
 2014-12-10-1347-46M.COL___308                                                 6
 STAT SP IPHASW D HRMM SECON CODA AMPLIT PERI AZIMU VELO AIN AR TRES W  DIS CAZ7
 BAR2 E  EP       1349 38.74                             169    0.2010 26.1 173 
 BAR2 E  ES       1349 53.43                             169    0.3210 26.1 173 
 PAM  SZ EP       1349 41.63                             148    0.2710 80.1  45 
 PAM  SZ I        1349 41.82        13.3 0.20            150           80.1  45 
 PAM  SN ES       1349 57.77                             148   -0.3610 80.1  45 
 RUS  HZ EP       1349 42.66                             141   -0.4110  104 172 
 RUS  HN ES       1350  1.17                             141    0.0010  104 172 
 RUS  HZ I        1350  2.93         3.0 0.44            141            104 172 
 PTB  HZ EP       1349 45.75                             131    0.20 9  141 257 
 PTB  HN ES       1350  5.36                             131   -0.24 9  141 257 
 PTB  HZ I        1350  8.38         4.0 0.16            131            141 257 
                                                                                
