 2013 1210 1535 45.4 L   6.756 -73.186150.2  RSN  4 0.4 2.0LRSN                1
 GAP=229        1.00       9.1     7.8  8.6  0.3812E+02  0.1129E+02  0.1442E+02E
 Epicentro: VILLANUEVA - SANTANDER                                             3
 ACTION:UPD 14-01-13 10:17 OP:ep   STATUS:               ID:20131210153545 L   I
 OLDACT:REG 13-12-10 14:47 OP:cam  STATUS:               ID:20131210153000     3
 2013-12-10-1530-00M.COL___285                                                 6
 STAT SP IPHASW D HRMM SECON CODA AMPLIT PERI AZIMU VELO AIN AR TRES W  DIS CAZ7
 BAR2 SZ EP       1536  5.21                             173   -0.3110 18.2 179 
 BAR2 SZ ES       1536 20.61                             173   -0.5710 18.2 179 
 BAR2 SZ I        1536 21.75        25.7 0.18            165           18.2 179 
 BRR  HE ES       1536 24.40                             154    0.5810 69.9 304 
 BRR  HE I        1536 24.94        43.3 0.34            149           69.9 304 
 RUS  HZ EP       1536  9.51                             146    0.1810 96.2 173 
 RUS  HN ES       1536 28.34                             146    0.3810 96.2 173 
 PTB  HZ EP       1536 12.31                             134   -0.00 9  143 260 
 PTB  HN ES       1536 32.98                             134   -0.29 9  143 260 
 PTB  HZ I        1536 40.42         4.8 0.52            130            143 260 
                                                                                
