 2017  410 1023 57.9 L   6.727 -73.217150.5  RSN  5 0.6 1.4LRSN                1
 GAP=125        1.16       8.9     8.4  9.3  0.3280E+02  0.8523E+01  0.3259E+01E
 Epicentro: VILLANUEVA - SANTANDER                                             3
 ACTION:UPD 17-05-30 21:10 OP:jn   STATUS:               ID:20170410102357 L   I
 OLDACT:DUP 17-04-10 21:15 OP:cog  STATUS:               ID:20170410101745d    3
 2017-04-10-1018-00M.COL___368                                                 6
 STAT SP IPHASW D HRMM SECON CODA AMPLIT PERI AZIMU VELO AIN AR TRES W  DIS CAZ7
 BAR2 EZ EP       1024 17.47                             173   -0.5110 15.4 165 
 BAR2 EZ ES       1024 32.89                             173   -0.7410 15.4 165 
 BAR2 EZ I        1024 34.07         3.5 0.16            171           15.4 165 
 BRR  HZ EP       1024 19.30                             154   -0.1510 69.0 308 
 BRR  HN ES       1024 36.48                             154    0.2310 69.0 308 
 BRR  HZ I        1024 44.77        11.5 0.32            149           69.0 308 
 PAM  EE ES   3   1024 42.12                             149    2.54 2 88.7  40 
 RUS  HZ EP     C 1024 21.71                             146    0.0810 93.4 171 
 RUS  HN ES       1024 40.70                             146    0.5610 93.4 171 
 PTB  HZ EP       1024 24.52                             134    0.06 9  139 261 
 PTB  HN ES       1024 45.51                             134    0.35 9  139 261 
 PTB  HZ I        1024 52.48         2.3 0.28            133            139 261 
                                                                                
