 2017 1110 1520 11.3 L   6.749 -73.094143.9  RSN  4 0.0 1.3LRSN                1
 GAP=176        0.29       4.9     4.4  5.1 -0.1660E+02  0.5836E+01  0.5204E+01E
 Epicentro: LOS SANTOS - SANTANDER                                             3
 ACTION:UPD 17-12-12 19:54 OP:rebc STATUS:               ID:20171110152011 L   I
 OLDACT:REG 17-11-10 21:29 OP:mg   STATUS:               ID:20171110151743     3
 2017-11-10-1518-00M.COL___441                                                 6
 STAT SP IPHASW D HRMM SECON CODA AMPLIT PERI AZIMU VELO AIN AR TRES W  DIS CAZ7
 BAR2 EZ EP       1520 30.68                             172   -0.0110 19.9 209 
 PAM  EZ EP       1520 33.43                             150    0.0010 78.5  34 
 PAM  EN ES       1520 50.66                             150    0.0010 78.5  34 
 PAM  EZ I        1520 53.00         2.5 0.26            157           78.5  34 
 BRR  HZ EP       1520 32.75                             150   -0.0010 79.0 300 
 NOR  HZ EP   2   1520 47.16                             118    0.03 4  236 236 
 NOR  HE ES   1   1521 15.05                             118    0.00 6  236 236 
 NOR  HZ I        1521 18.59         1.9 0.13            121            236 236 
                                                                                
