 2010 1210 1931 59.4 L   6.759 -73.114145.0  RSN  5 0.3 1.7LRSN                1
 GAP=192        0.66       6.3    24.4  8.3 -0.1394E+02  0.5942E+01  0.1719E+02E
 Epicentro: LOS SANTOS - SANTANDER                                             3
 ACTION:UP  11-01-14 15:24 OP:pat  STATUS:               ID:20101210193159 L   I
 2010-12-10-1920-00M.COL___135                                                 6
 STAT SP IPHASW D HRMM SECON CODA AMPLIT PERI AZIMU VELO SNR AR TRES W  DIS CAZ7
 BAR2 SZ EP       1932 18.47                             172    -0.510   20 203 
 BAR2 SZ ES   2   1932 33.93                             172    -0.2 5   20 203 
 BAR2 SZ I        1932 35.56        13.5 0.56                            20 203 
 BTL  SZ EP       1932 19.18                             170     0.210   25 316 
 BTL  SZ ES   2   1932 34.64                             170     0.4 5   25 316 
 GIR2 SZ EP   3   1932 18.70                             165    -0.5 2   36 346 
 RUS  HZ EP       1932 23.02                             145     0.210   96 178 
 RUS  HN ES   2   1932 40.99                             145     0.0 5   96 178 
 RUS  HZ I        1932 43.27         7.0 0.72                            96 178 
 CHI  HZ EP   1   1932 36.95                             117     0.2 6  245 196 
 CHI  HN ES   2   1933  5.47                             117    -0.3 4  245 196 
 CHI  HZ I        1933 12.14         3.8 0.53                           245 196 
                                                                                
