 2012 1110 1825 51.0 L   6.775 -73.148147.2  RSN  7 0.4 1.9LRSN                1
 GAP=137        0.88       4.4     4.9  7.0  0.6921E+00  0.5230E+01  0.6886E+01E
 Epicentro: LOS SANTOS - SANTANDER                                             3
 ACTION:UPD 12-12-05 15:32 OP:}ep  STATUS:               ID:20121110182551 L   I
 2012-11-10-1820-00M.COL___230                                                 6
 STAT SP IPHASW D HRMM SECON CODA AMPLIT PERI AZIMU VELO AIN AR TRES W  DIS CAZ7
 BAR2 SZ EP       1826 10.76                             172   -0.0410 20.6 191 
 BAR2 SZ ES   1   1826 26.24                             172    0.04 7 20.6 191 
 BAR2 SZ I        1826 28.47        21.9 0.28                          20.6 191 
 BRR  HZ EP       1826 12.77                             152    0.3610 72.3 301 
 BRR  HN ES   1   1826 29.94                             152    0.86 7 72.3 301 
 BRR  HN I        1826 30.49        30.5 0.28                          72.3 301 
 PAM  SZ EP       1826 13.52                             150   -0.0310 79.7  38 
 PAM  SN ES   1   1826 30.78                             150   -0.32 7 79.7  38 
 PAM  SZ I        1826 32.94         8.7 0.20                          79.7  38 
 RUS  HZ EP   1   1826 14.65                             145   -0.09 7 97.8 176 
 RUS  HN ES   1   1826 32.86                             145   -0.36 7 97.8 176 
 RUS  HZ I        1826 34.59         4.6 0.42                          97.8 176 
 PTB  HZ EP       1826 17.50                             132   -0.56 9  147 260 
 PTB  HN ES   1   1826 38.55                             132   -0.58 7  147 260 
 PTB  HZ I        1826 44.63        10.5 0.48                           147 260 
 ZAR  HE ES   1   1826 49.04                             123   -0.08 6  205 293 
 ZAR  HE I        1826 55.37        23.6 0.14                           205 293 
 CHI  HZ EP       1826 28.99                             118    0.46 8  246 195 
 CHI  HN ES   1   1826 58.21                             118    0.45 6  246 195 
 CHI  HZ I        1827  8.09         2.5 0.40                           246 195 
                                                                                
