 2015  210 1416 17.6 L   6.786 -73.186138.3  RSN  5 0.4 1.5LRSN                1
 GAP=142        0.93       5.1     5.2  7.8 -0.1157E+02  0.1150E+02 -0.4732E+01E
 Epicentro: ZAPATOCA - SANTANDER                                               3
 ACTION:UPD 15-04-30 21:24 OP:nd   STATUS:               ID:20150210141617 L   I
 OLDACT:DUP 15-02-11 00:25 OP:stll STATUS:               ID:20150210140748d    3
 2015-02-10-1407-47M.COL___287                                                 6
 STAT SP IPHASW D HRMM SECON CODA AMPLIT PERI AZIMU VELO AIN AR TRES W  DIS CAZ7
 BAR2 EZ EP       1416 36.42                             171    0.1410 21.5 179 
 BAR2 EZ ES       1416 50.90                             171    0.0410 21.5 179 
 BAR2 EZ I        1416 52.97         6.3 0.28            171           21.5 179 
 PAM  SZ EP       1416 39.31                             148    0.0410 81.5  41 
 PAM  SZ I        1416 39.65        14.0 0.20            152           81.5  41 
 PAM  SN ES       1416 56.36                             148    0.1810 81.5  41 
 RUS  HZ EP       1416 40.29                             143   -0.2410 99.5 173 
 RUS  HN ES       1416 57.98                             143   -0.4410 99.5 173 
 RUS  HZ I        1417  0.45         5.4 0.40            146           99.5 173 
 PTB  HZ EP       1416 43.47                             131   -0.05 9  143 259 
 PTB  HN ES       1417  3.30                             131   -0.44 9  143 259 
 PTB  HZ I        1417 10.36         3.2 0.24            131            143 259 
 SPBC HN ES       1417  7.46                             128    0.84 9  159 218 
                                                                                
