 2012 1010 1240 34.7 L   6.733 -73.091143.1  RSN  5 0.2 2.0LRSN                1
 GAP=147        0.45       2.8     4.3  4.4 -0.1187E+00 -0.1360E+01  0.1079E+01E
 Epicentro: JORDAN - SANTANDER                                                 3
 ACTION:UPD 12-11-22 17:03 OP:ep   STATUS:               ID:20121010124034 L   I
 2012-10-10-1240-00M.COL___226                                                 6
 STAT SP IPHASW D HRMM SECON CODA AMPLIT PERI AZIMU VELO AIN AR TRES W  DIS CAZ7
 BAR2 SZ EP       1240 53.95                             172    0.0110 18.5 213 
 BAR2 SZ I        1240 54.10        22.0 0.20                          18.5 213 
 BAR2 SZ ES   2   1241  9.14                             172    0.20 5 18.5 213 
 GIR2 SZ EP       1240 54.17                             164   -0.1710 39.9 344 
 GIR2 SZ ES   2   1241  9.24                             164   -0.41 5 39.9 344 
 PAM  SZ EP       1240 57.05                             149    0.2510 79.8  33 
 PAM  SZ I        1240 57.36        12.9 0.36                          79.8  33 
 PAM  SE ES   1   1241 13.94                             149   -0.09 7 79.8  33 
 BRR  HZ EP       1240 55.97                             149   -0.1510 80.1 301 
 BRR  HN ES   1   1241 13.08                             149    0.27 7 80.1 301 
 BRR  HN I        1241 13.90        53.4 0.16                          80.1 301 
 RUS  HZ EP       1240 57.71                             145    0.0410 92.9 179 
 RUS  HN ES   1   1241 15.52                             145   -0.04 7 92.9 179 
 RUS  HZ I        1241 17.44         7.8 0.30                          92.9 179 
                                                                                
