 2013 1010 1225 19.9 L   6.855 -73.203139.2  RSN  4 0.5 1.5LRSN                1
 GAP=197        1.23       6.5     8.6 11.3  0.1715E+02  0.8464E+01 -0.3322E+02E
 Epicentro: ZAPATOCA - SANTANDER                                               3
 ACTION:UPD 13-11-25 09:20 OP:ep   STATUS:               ID:20131010122519 L   I
 OLDACT:DUP 13-10-10 18:19 OP:nd   STATUS:               ID:20131010121960d    3
 2013-10-10-1219-59M.COL___273                                                 6
 STAT SP IPHASW D HRMM SECON CODA AMPLIT PERI AZIMU VELO AIN AR TRES W  DIS CAZ7
 BAR2 SZ EP       1225 39.13                             168    0.2110 29.2 176 
 BAR2 SZ ES       1225 54.22                             168    0.4910 29.2 176 
 BAR2 SZ I        1225 55.01        10.2 0.30            168           29.2 176 
 RUS  HZ EP       1225 43.28                             141   -0.2810  107 173 
 RUS  HN ES       1226  1.48                             141   -0.5010  107 173 
 RUS  HZ I        1226  3.56         3.1 0.32            144            107 173 
 PTB  HZ EP       1225 46.00                             132    0.07 9  143 256 
 PTB  HN ES       1226  6.25                             132    0.04 9  143 256 
 PTB  HZ I        1226 12.81         3.9 0.56            131            143 256 
 SML  HZ EP       1225 56.21                             117    0.90 8  236 336 
 SML  HN ES       1226 21.94                             117   -0.96 8  236 336 
 SML  HZ I        1226 27.35         4.7 0.10            118            236 336 
                                                                                
