 2010 1210 1215 34.7 L   6.433 -73.272134.2  RSN 11 0.4 1.9LRSN                1
 GAP=132        0.69       3.0     4.9  4.5 -0.7164E+01  0.6477E+01  0.1665E+00E
 Epicentro: SOCORRO - SANTANDER                                                3
 ACTION:UP  11-01-14 15:23 OP:pat  STATUS:               ID:20101210121534 L   I
 2010-12-10-1213-04S.COL___135                                                 6
 STAT SP IPHASW D HRMM SECON CODA AMPLIT PERI AZIMU VELO SNR AR TRES W  DIS CAZ7
 BAR2 SZ EP       1215 52.71                             171    -0.210   20  29 
 BAR2 SZ ES   1   1216  6.63                             171    -0.4 7   20  29 
 BAR2 SZ I        1216  8.79        23.4 0.25                            20  29 
 BTL  SZ EP       1215 54.36                             157     0.310   54   0 
 BTL  SZ ES   1   1216  9.14                             157     0.0 7   54   0 
 RUS  HZ EP       1215 54.73                             154    -0.210   63 161 
 RUS  HN ES   1   1216 10.89                             154     0.3 7   63 161 
 RUS  HZ I        1216 12.08        15.4 0.44                            63 161 
 GIR2 SZ EP       1215 54.92                             150     0.010   72   7 
 GIR2 SZ ES   1   1216 10.91                             150     0.3 7   72   7 
 GRA  SZ EP       1216  3.21                             125     0.2 9  169  18 
 GRA  SZ ES   1   1216 24.76                             125    -0.3 7  169  18 
 GRA  SZ I        1216 29.83         5.7 0.58                           169  18 
 OCA  SZ EP       1216  5.81                             120    -0.4 9  200 358 
 OCA  SZ I        1216 34.46        18.7 0.53                           200 358 
 NOR  SZ EP   2   1216  7.03                             120     0.8 4  201 242 
 NOR  SN ES   1   1216 30.84                             120     0.0 6  201 242 
 CHI  HZ EP       1216  7.18                             120     0.0 8  206 194 
 CHI  HN ES   3   1216 31.84                             120    -0.6 2  206 194 
 CHI  HZ I        1216 39.28         4.3 0.20                           206 194 
 HEL  HZ EP   2   1216 12.00                             114     0.0 4  251 264 
 HEL  HN ES   2   1216 40.39                             114    -0.7 4  251 264 
 HEL  HZ I        1216 48.43         5.2 0.56                           251 264 
 RREF HZ EP   2   1216 16.95                             111     0.7 4  286 234 
 RREF HN ES   2   1216 49.13                             111     0.5 4  286 234 
 RREF HZ I        1216 58.00         7.8 0.45                           286 234 
 PRA  HZ EP   1   1216 22.66                             107    -0.3 5  350 211 
 PRA  HN ES   2   1216 59.65                             107    -0.9 3  350 211 
                                                                                
