 2011  410 1851  6.1 L   6.800 -73.152141.2  RSN  6 0.4 1.7LRSN                1
 GAP=148        0.65       6.3    11.7  7.1 -0.3856E+02  0.3217E+01 -0.3307E+01E
 Epicentro: LOS SANTOS - SANTANDER                                             3
 ACTION:UP  11-06-22 15:30 OP:REBC STATUS:               ID:20110410185106 L   I
 2011-04-10-1850-04S.COL___138                                                 6
 STAT SP IPHASW D HRMM SECON CODA AMPLIT PERI AZIMU VELO SNR AR TRES W  DIS CAZ7
 BTL  SZ EP       1851 25.43                             172     0.310   18 316 
 BTL  SZ ES   2   1851 40.48                             172     0.6 5   18 316 
 BAR2 SZ EP       1851 24.94                             170    -0.210   23 188 
 BAR2 SZ ES   2   1851 39.65                             170    -0.4 5   23 188 
 BAR2 SZ I        1851 40.82        15.8 0.22                            23 188 
 GIR2 SZ EP   3   1851 24.06                             167    -1.2 2   31 352 
 GIR2 SZ ES   3   1851 39.16                             167    -1.0 2   31 352 
 PAM  SZ EP       1851 27.95                             150     0.110   78  40 
 PAM  SN ES   1   1851 44.91                             150     0.1 7   78  40 
 PAM  SZ I        1851 47.31         5.3 0.41                            78  40 
 GRA  SZ EP       1851 30.90                             136    -0.110  126  18 
 GRA  SZ I        1851 32.27        12.3 0.20                           126  18 
 GRA  SZ ES   2   1851 50.14                             136    -0.2 5  126  18 
 OCA  SZ ES   2   1851 55.75                             128    -0.1 5  160 353 
                                                                                
