 2015  910 1728 10.6 L   6.811 -73.145148.2  RSN 11 0.5 2.2LRSN                1
 GAP=136        1.27       3.6     5.0  6.8 -0.4031E+01  0.1027E+02 -0.1652E+01E
 Epicentro: LOS SANTOS - SANTANDER                                             3
 ACTION:UPD 15-10-28 16:25 OP:cam  STATUS:               ID:20150910172810 L   I
 OLDACT:DUP 15-09-11 01:37 OP:stll STATUS:               ID:20150910171748d    3
 2015-09-10-1717-47M.COL___350                                                 6
 STAT SP IPHASW D HRMM SECON CODA AMPLIT PERI AZIMU VELO AIN AR TRES W  DIS CAZ7
 BAR2 EZ EP       1728 30.58                             170    0.0110 24.6 190 
 BAR2 EZ ES       1728 46.31                             170    0.1810 24.6 190 
 BAR2 EZ I        1728 47.67        21.3 0.26            171           24.6 190 
 BRR  HZ IP     C 1728 32.64                             153    0.6310 70.7 298 
 BRR  HN ES       1728 50.01                             153    1.3210 70.7 298 
 BRR  HZ I        1728 54.36        17.0 0.30            151           70.7 298 
 PAM  EZ EP       1728 33.45                             152    0.4110 76.4  40 
 PAM  EN ES       1728 49.75                             152   -0.7710 76.4  40 
 RUS  HZ EP       1728 34.88                             144    0.1810  102 176 
 RUS  HN ES       1728 52.92                             144   -0.5610  102 176 
 RUS  HZ I        1728 55.84        13.5 0.54            148            102 176 
 PTB  HZ EP       1728 37.31                             132   -0.51 9  148 258 
 PTB  HN ES       1728 58.58                             132   -0.45 9  148 258 
 PTB  HZ I        1729  0.63        24.3 0.14            133            148 258 
 OCA  HZ EP       1728 39.15                             130    0.14 9  159 353 
 OCA  HN ES       1729  0.90                             130   -0.25 9  159 353 
 OCA  HZ I        1729  4.68        32.7 0.24            132            159 353 
 SPBC HZ EP       1728 39.56                             129    0.16 9  164 219 
 SPBC HE ES       1729  2.07                             129    0.22 9  164 219 
 SPBC HZ I        1729  6.62        28.0 0.20            131            164 219 
 ZAR  HZ EP       1728 43.51                             123    0.32 9  204 292 
 ZAR  HE ES       1729  8.23                             123   -0.36 9  204 292 
 ZAR  HZ I        1729 15.48        18.5 0.34            124            204 292 
 NOR  HZ EP       1728 46.46                             119   -0.12 8  235 234 
 NOR  HE ES       1729 14.11                             119   -0.52 8  235 234 
 NOR  HZ I        1729 18.26        11.7 0.14            121            235 234 
 SML  HZ EP       1728 46.83                             118   -0.44 8  243 335 
 SML  HN ES       1729 15.41                             118   -0.44 8  243 335 
 SML  HZ I        1729 23.19        24.0 0.10            120            243 335 
 GUY2CHZ EP       1728 55.19                             113    0.76 7  302 235 
 GUY2CHN ES       1729 28.27                             113   -0.34 7  302 235 
 GUY2CHZ I        1729 36.10         7.8 0.56                           302 235 
                                                                                
