 2011  310 1649 29.2 L   6.782 -73.160130.6  RSN 11 0.4 2.8LRSN                1
 GAP=135        0.90       3.5     6.4  7.3 -0.7478E+01  0.2004E+02 -0.3415E+01E
 Epicentro: LOS SANTOS - SANTANDER                                             3
 ACTION:UP  11-06-16 14:32 OP:jfem STATUS:               ID:20110310164929 L   I
 2011-03-10-1648-03S.COL___135                                                 6
 STAT SP IPHASW D HRMM SECON CODA AMPLIT PERI AZIMU VELO SNR AR TRES W  DIS CAZ7
 BAR2 SZ IP       1649 47.47                             170     0.610   21 187 
 BAR2 SZ ES   1   1650  0.06                             170    -0.7 7   21 187 
 BAR2 SZ I        1650  3.35        95.2 0.18                            21 187 
 RUS  HZ EP       1649 51.25                             141     0.010   99 175 
 RUS  HN ES   1   1650  8.97                             141     0.4 7   99 175 
 GUE  SZ EP   1   1649 52.73                             135     0.0 7  119  13 
 GRA  SZ IP       1649 53.57                             132     0.310  128  18 
 GRA  SZ I        1649 55.00        90.9 0.22                           128  18 
 GRA  SZ ES   1   1650 11.62                             132    -0.5 7  128  18 
 OCA  SZ EP       1649 56.08                             125    -0.4 9  162 354 
 OCA  SZ ES   2   1650 18.51                             125     0.7 5  162 354 
 OCA  SZ I        1650 22.92        83.9 0.21                           162 354 
 YOP  SZ EP   1   1649 57.92                             122    -0.1 7  178 153 
 CHI  HZ EP   3   1650  5.30                             114    -0.5 2  246 195 
 CHI  HE ES   3   1650 33.45                             114    -0.9 2  246 195 
 HEL  HZ EP   1   1650  8.18                             111    -0.2 6  270 256 
 HEL  HN ES   1   1650 39.20                             111     0.2 6  270 256 
 HEL  HZ I        1650 46.11        22.0 0.26                           270 256 
 DBB  SZ EP   1   1650 15.92                             106     0.0 5  338 275 
 TOL  SZ EP       1650 17.04                             106     0.5 7  341 225 
 PRA  HZ EP   1   1650 21.66                             104    -0.2 4  389 210 
 PRA  HE ES   1   1651  2.02                             104    -1.0 4  389 210 
 PRA  HZ I        1651  6.13        39.4 0.31                           389 210 
                                                                                
