 2013 1010 1011 24.2 L   6.769 -73.218141.7  RSN  8 0.5 1.6LRSN                1
 GAP=191        1.12       4.9     6.7  6.9  0.6270E+01  0.3025E+01 -0.1390E+01E
 Epicentro: ZAPATOCA - SANTANDER                                               3
 ACTION:UPD 13-11-25 09:20 OP:ep   STATUS:               ID:20131010101124 L   I
 OLDACT:REG 13-10-10 15:15 OP:nd   STATUS:               ID:20131010100959     3
 2013-10-10-1009-59M.COL___273                                                 6
 STAT SP IPHASW D HRMM SECON CODA AMPLIT PERI AZIMU VELO AIN AR TRES W  DIS CAZ7
 BAR2 SZ EP       1011 43.25                             172   -0.0210 19.9 169 
 BAR2 SZ ES       1011 58.16                             172    0.0110 19.9 169 
 BAR2 SZ I        1012  0.57        13.9 0.16            167           19.9 169 
 BRR  HZ EP       1011 44.97                             154    0.3510 66.2 304 
 BRR  HN ES       1012  1.36                             154    0.8010 66.2 304 
 BRR  HZ I        1012 16.96         8.0 0.68            148           66.2 304 
 RUS  HZ EP       1011 47.26                             144   -0.1010 98.0 171 
 RUS  HN ES       1012  5.01                             144   -0.4210 98.0 171 
 RUS  HZ I        1012  7.06         5.0 0.34            149           98.0 171 
 PTB  HZ EP       1011 50.33                             133    0.27 9  139 260 
 PTB  HN ES       1012  9.52                             133   -0.72 9  139 260 
 PTB  HZ I        1012 18.72         3.6 0.44            131            139 260 
 SPBC HZ EP       1011 51.97                             130    0.32 9  156 217 
 SPBC HN ES       1012 12.87                             130   -0.20 9  156 217 
 SPBC HZ I        1012 21.33         4.9 0.22            131            156 217 
 ZAR  HZ EP   4   1011 59.78                             122    4.03 0  198 294 
 ZAR  HN ES   4   1012 21.58                             122    1.21 0  198 294 
 ZAR  HZ I        1012 27.34         3.9 0.28            123            198 294 
 CHI  HZ EP       1012  1.56                             117    0.47 8  243 194 
 CHI  HN ES   4   1012 28.38                             117   -1.48 0  243 194 
 CHI  HZ I        1012 35.17         1.9 0.38            121            243 194 
 SML  HZ EP       1011 59.81                             117   -0.78 8  244 337 
 SML  HN ES   2   1012 28.16                             117   -0.82 4  244 337 
 SML  HZ I        1012 32.96         4.7 0.10            120            244 337 
                                                                                
