 2012  710 1034 35.6 L   6.757 -73.472115.0  RSN  5 0.2 1.3LRSN                1
 GAP=154        0.57       4.4     3.7  5.5  0.9319E+01  0.6544E+01  0.2898E+01E
 Epicentro: EL CARMEN DE CHUCURI - SANTANDER                                   3
 ACTION:UPD 12-08-14 11:44 OP:ep   STATUS:               ID:20120710103435 L   I
 2012-07-10-1030-00M.COL___201                                                 6
 STAT SP IPHASW D HRMM SECON CODA AMPLIT PERI AZIMU VELO AIN AR TRES W  DIS CAZ7
 BAR2 SZ EP       1034 52.14                             161     0.110   37 120 
 BAR2 SZ I        1034 52.52        11.8 0.18            163             37 120 
 BAR2 SZ ES   1   1035  4.72                             161    -0.1 7   37 120 
 BRR  HZ EP       1034 52.45                             156     0.310   47 326 
 BRR  HE ES   1   1035  4.72                             156    -0.2 7   47 326 
 RUS  HZ EP   1   1034 56.65                             135    -0.2 7  105 156 
 RUS  HN ES   1   1035 13.33                             135    -0.1 7  105 156 
 RUS  HZ I        1035 17.21         1.5 0.39            135            105 156 
 PTB  HZ EP       1034 56.78                             133     0.010  111 258 
 PTB  HE ES   1   1035 13.43                             133     0.1 7  111 258 
 PTB  HZ I        1035 18.33         3.6 0.07            130            111 258 
 ZAR  HZ EP   1   1035  2.52                             119    -0.4 7  173 298 
 ZAR  HN ES   1   1035 24.16                             119    -0.1 7  173 298 
 ZAR  HZ I        1035 28.94         2.5 0.23            120            173 298 
