 2012  610 1658  0.2 L   6.801 -73.135141.7  RSN 12 0.4 3.1LRSN                1
 GAP=184        0.73       2.7     4.0  5.3  0.4267E+00  0.7768E+01  0.4144E+00E
 Epicentro: LOS SANTOS - SANTANDER                                             3
 ACTION:UPD 12-08-06 17:48 OP:ep   STATUS:               ID:20120610165759 L   I
 2012-06-10-1650-00M.COL___201                                                 6
 STAT SP IPHASW D HRMM SECON CODA AMPLIT PERI AZIMU VELO AIN AR TRES W  DIS CAZ7
 BAR2 SZ EP   1   1658 19.75                             170    0.39 8 23.7 193 
 BAR2 SZ ES   1   1658 34.61                             170    0.31 8 23.7 193 
 BAR2 SZ I        1658 35.68       336.8 0.29            168           23.7 193 
 RUS  HZ EP       1658 23.55                             143   -0.0210  101 177 
 RUS  HN ES       1658 41.73                             143   -0.0610  101 177 
 RUS  HZ I        1658 42.95       135.4 0.25            146            101 177 
 PTB  HZ EP   1   1658 26.32                             131   -0.64 7  149 259 
 PTB  HN ES   1   1658 47.31                             131   -0.52 7  149 259 
 PTB  HZ I        1658 50.42        92.6 0.14            130            149 259 
 OCA  HZ EP   1   1658 28.25                             129    0.04 7  160 353 
 OCA  HN ES   1   1658 49.72                             129   -0.34 7  160 353 
 OCA  HZ I        1658 55.74       330.6 0.24            130            160 353 
 ZAR  HZ EP   1   1658 32.94                             121    0.43 6  205 292 
 ZAR  HN ES   1   1658 58.24                             121    0.54 6  205 292 
 ZAR  HZ I        1659  6.62       126.7 0.26            121            205 292 
 NOR  SZ EP   1   1658 35.48                             117   -0.34 6  236 235 
 NOR  SN ES   1   1659  4.24                             117    0.64 6  236 235 
 CHI  HZ EP   1   1658 37.57                             116   -0.17 6  249 195 
 CHI  HN ES   1   1659  6.21                             116   -0.80 6  249 195 
 CHI  HZ I        1659 10.17        49.6 0.26            118            249 195 
 ROSC BZ EP   1   1658 38.28                             116    0.09 6  253 211 
 ROSC BN ES   1   1659  8.25                             116    0.43 6  253 211 
 ROSC BZ I        1659 15.79        99.6 0.45            117            253 211 
 HEL  HZ EP   1   1658 40.22                             114   -0.14 6  273 256 
 HEL  HN ES   1   1659 10.92                             114   -0.75 6  273 256 
 HEL  HZ I        1659 18.73        93.1 0.47            115            273 256 
 DBB  SZ EP   1   1658 47.96                             109    0.29 5  341 274 
 TOL  SZ EP   1   1658 49.09                             108    0.67 5  344 225 
 TOL  SZ ES   1   1659 26.14                             108    0.13 5  344 225 
 PRA  HZ EP   1   1658 53.57                             106   -0.11 4  393 210 
 PRA  HN ES   1   1659 35.88                             106    0.50 4  393 210 
                                                                                
