 2017 1010 1018 33.2 L   6.793 -73.168138.6  RSN 23 0.6 2.5LRSN                1
 GAP= 64        0.91       2.4     2.7  4.4 -0.5706E+00  0.4623E+01 -0.2767E+00E
 Epicentro: LOS SANTOS - SANTANDER                                             3
 ACTION:UPD 17-11-07 19:30 OP:rebc STATUS:               ID:20171010101833 L   I
 OLDACT:UP  17-10-10 21:03 OP:lv   STATUS:               ID:20171010101140     3
 OLDACT:REG 17-10-10 19:42 OP:lv   STATUS:               ID:20171010101140     3
 2017-10-10-1018-00M.COL___426                                                 6
 STAT SP IPHASW D HRMM SECON CODA AMPLIT PERI AZIMU VELO AIN AR TRES W  DIS CAZ7
 BAR2 EZ IP     C 1018 51.91                             171   -0.0410 22.3 184 
 BAR2 EZ ES       1019  6.47                             171   -0.1010 22.3 184 
 BAR2 EZ I        1019  7.95        90.1 0.20            166           22.3 184 
 PAM  EZ EP       1018 54.84                             149    0.0410 79.5  41 
 PAM  EN ES       1019 11.56                             149   -0.0710 79.5  41 
 PAM  EZ I        1019 13.87        58.7 0.50            155           79.5  41 
 RUS  HZ IP     D 1018 55.94                             143   -0.2810  100 175 
 RUS  HN ES       1019 14.15                             143   -0.0210  100 175 
 RUS  HZ I        1019 16.34        29.8 0.42            142            100 175 
 TAM  HZ IP     C 1019  0.26                             129   -0.27 9  157 104 
 TAM  HN ES       1019 21.94                             129    0.09 9  157 104 
 TAM  HZ I        1019 23.24        18.5 0.52            132            157 104 
 SPBC HZ EP       1019  0.87                             128   -0.09 9  161 218 
 SPBC HN ES       1019 23.09                             128    0.48 9  161 218 
 SPBC HZ I        1019 26.25        51.5 0.10            127            161 218 
 YPLC HZ IP     C 1019  2.34                             125   -0.20 9  177 151 
 YPLC HN ES       1019 24.87                             125   -0.56 9  177 151 
 YPLC HZ I        1019 27.26        16.1 0.24            126            177 151 
 ZAR  HZ EP       1019  4.98                             121   -0.00 9  202 293 
 ZAR  HN ES       1019 30.06                             121    0.29 9  202 293 
 ZAR  HZ I        1019 36.06        45.4 0.40            121            202 293 
 TABC EZ EP       1019  9.96                             118    1.62 8  228 210 
 TABC EZ ES       1019 35.36                             118   -0.38 8  228 210 
 TABC EZ I        1019 43.54        34.9 0.66            118            228 210 
 NOR  HZ EP       1019  8.29                             117    0.02 8  232 234 
 NOR  HN ES       1019 35.74                             117    0.13 8  232 234 
 NOR  HZ I        1019 41.11        23.2 0.50            117            232 234 
 CHI  HZ EP       1019 10.28                             116   -0.09 8  247 195 
 CHI  HN ES       1019 39.07                             116   -0.29 8  247 195 
 CHI  HZ I        1019 46.52        15.6 0.54            116            247 195 
 ROSC BZ EP   9   1019 11.98                             115    1.24 0  251 211 
 ROSC BN ES       1019 41.34                                    0.09 8  251 211 
 ROSC BZ I        1019 46.49        31.6 0.45            115            251 211 
 GUY2CHZ EP       1019 16.38                             111    0.16 7  299 235 
 GUY2CHN ES   4   1019 52.25                             111    2.49 0  299 235 
 GUY2CHZ I        1019 58.49        17.4 0.58                           299 235 
 PTGC HZ EP   9   1019 15.01                             110   -1.77 0  309 158 
 PTGC HN ES       1019 48.95                                   -0.04 7  309 158 
 PTGC HZ I        1019 53.95         9.0 0.36            111            309 158 
 RECRCHN EP   4   1019 21.30                             110    3.07 0  316 230 
 RECRCHE ES   4   1019 55.47                             110    2.12 0  316 230 
 ELA  HZ EP   4   1019 21.45                             109    1.96 0  327 229 
 ELA  HN ES   4   1019 58.86                             109    3.26 0  327 229 
 ELA  HZ I        1020  4.27        19.1 0.86            109            327 229 
 DBB  EZ EP       1019 20.51                             108    0.39 7  337 274 
 DBB  EN ES   4   1019 55.33                             108   -1.39 0  337 274 
 DBB  EZ I        1019 57.76         7.9 0.16            109            337 274 
 ANIL HZ EP       1019 22.49                             107    0.01 6  355 224 
 ANIL HN ES   4   1019 59.71                             107   -1.21 0  355 224 
 ANIL HZ I        1020 12.30        30.8 0.40            108            355 224 
 ARGC HZ EP       1019 22.96                             107    0.38 6  359 341 
 ARGC HE ES       1020  1.00                             107   -0.09 6  359 341 
 PRA  HZ EP       1019 25.70                             105   -0.57 6  390 209 
 PRA  HN ES       1020  7.75                             105    0.09 6  390 209 
 PRA  HZ I        1020 12.81        20.8 0.74            106            390 209 
 ORTC HZ EP       1019 26.54                             105   -0.11 6  393 216 
 ORTC HN ES   4   1020 10.07                             105    1.74 0  393 216 
 ORTC HZ I        1020 16.55        10.4 0.28            106            393 216 
 APAC HZ EP   3   1019 25.20                             105   -1.71 1  396 288 
 APAC HN ES   3   1020  3.08                             105   -5.72 1  396 288 
 APAC HZ I        1020 11.80         6.1 0.76            106            396 288 
 PAL  HZ EP       1019 27.84                             105   -0.00 6  403 239 
 PAL  HN ES   3   1020  9.26                             105   -1.20 1  403 239 
 PAL  HZ I        1020 14.85         4.0 0.36            105            403 239 
 SJC  HZ EP   4   1019 26.28                             104   -2.17 0  408 327 
 SJC  HN ES   4   1020  7.40                             104   -4.15 0  408 327 
 SJC  HZ I        1020 11.64         5.3 0.54            106            408 327 
 CRJC HZ EP   4   1019 32.24                             102   -3.38 0  469   4 
 MACC HZ EP   4   1019 39.47                             101   -2.15 0  519 188 
 MACC HN ES   4   1020 30.51                             101   -4.47 0  519 188 
 MACC HZ I        1020 35.47         2.9 0.14            101            519 188 
                                                                                
