 2010  910 1611 10.8 L   6.748 -73.433111.3  RSN  8 0.5 2.4LRSN                1
 GAP= 86        0.91       4.1     7.8  8.6 -0.1432E+01  0.1993E+02  0.4307E+01E
 Epicentro: EL CARMEN DE CHUCURI - SANTANDER                                   3
 ACTION:UP  11-02-18 11:01 OP:tino STATUS:               ID:20100910161110 L   I
 2010-09-10-1608-46S.COL___120                                                 6
 STAT SP IPHASW D HRMM SECON CODA AMPLIT PERI AZIMU VELO SNR AR TRES W  DIS CAZ7
 BAR2 SZ IP     D 1611 26.55                             163     0.010   33 122 
 BAR2 SZ ES   2   1611 38.57                             163    -0.3 5   33 122 
 GIR2 SZ IP       1611 26.87                             156    -0.110   45  36 
 GIR2 SZ ES   2   1611 39.64                             156     0.0 5   45  36 
 BRR  HZ IP     D 1611 26.90                             154    -0.110   50 322 
 BRR  HZ I        1611 27.06       239.6 0.13                            50 322 
 BRR  HE ES   2   1611 40.13                             154     0.4 5   50 322 
 RUS  HZ EP       1611 31.05                             134    -0.410  102 158 
 RUS  HE ES   2   1611 47.43                             134    -0.2 5  102 158 
 RUS  HZ I        1611 49.23        27.2 0.37                           102 158 
 GRA  SZ EP   1   1611 35.64                             123     0.7 7  144  29 
 GRA  SZ ES   2   1611 54.83                             123     1.0 5  144  29 
 GRA  SZ I        1611 56.60        52.4 0.33                           144  29 
 OCA  SZ EP   1   1611 36.77                             119    -0.4 7  165   4 
 OCA  SZ ES   2   1611 57.62                             119    -0.2 5  165   4 
 OCA  SZ I        1612  3.49        60.3 0.40                           165   4 
 CHI  HZ EP   1   1611 45.64                             110     0.2 6  237 188 
 CHI  HE ES   2   1612 14.10                             110     1.6 4  237 188 
 CHI  HZ I        1612 18.88        16.1 0.28                           237 188 
 HEL  HZ EP   1   1611 45.67                             110    -0.1 6  240 255 
 HEL  HN ES   3   1612 13.21                             110     0.2 2  240 255 
 HEL  HZ I        1612 17.62        12.2 0.22                           240 255 
                                                                                
