 2013 1110 1652 32.1 L   6.779 -73.136145.9  RSN  6 0.3 1.4LRSN                1
 GAP=201        0.86       4.6     5.6  6.8  0.1329E+02  0.2457E+01 -0.5661E+01E
 Epicentro: LOS SANTOS - SANTANDER                                             3
 ACTION:UPD 14-01-09 16:27 OP:ep   STATUS:               ID:20131110165232 L   I
 OLDACT:REG 13-11-10 14:37 OP:jn   STATUS:               ID:20131110165000     3
 2013-11-10-1650-00M.COL___273                                                 6
 STAT SP IPHASW D HRMM SECON CODA AMPLIT PERI AZIMU VELO AIN AR TRES W  DIS CAZ7
 BAR2 SZ EP       1652 51.92                             171    0.2510 21.3 194 
 BAR2 SZ ES       1653  6.49                             171   -0.4810 21.3 194 
 BAR2 SZ I        1653  8.51        10.9 0.28            165           21.3 194 
 BRR  HZ EP       1652 53.81                             152    0.4710 73.2 300 
 BRR  HN ES       1653 10.37                             152    0.4310 73.2 300 
 RUS  HZ EP       1652 55.73                             144    0.0710 98.2 177 
 RUS  HN ES       1653 14.02                             144   -0.0510 98.2 177 
 RUS  HZ I        1653 15.75         2.8 0.34            143           98.2 177 
 PTB  HZ EP       1652 58.68                             132   -0.42 9  148 260 
 PTB  HN ES       1653 20.09                             132   -0.10 9  148 260 
 PTB  HZ I        1653 27.18         2.8 0.42            130            148 260 
 ZAR  HN ES       1653 30.24                             122    0.07 8  206 293 
 SML  HE ES       1653 37.30                             117   -0.46 8  246 335 
                                                                                
