 2015 1110 1009 55.0 L   6.812 -73.124137.2  RSN 11 0.4 2.0LRSN                1
 GAP=241        1.04       4.2     5.1  6.1  0.5603E+01  0.1159E+02  0.5343E+01E
 Epicentro: LOS SANTOS - SANTANDER                                             3
 ACTION:UPD 15-12-28 16:09 OP:cam  STATUS:               ID:20151110100955 L   I
 OLDACT:DUP 15-11-10 21:48 OP:cara STATUS:               ID:20151110100749d    3
 2015-11-10-1007-48M.COL___313                                                 6
 STAT SP IPHASW D HRMM SECON CODA AMPLIT PERI AZIMU VELO AIN AR TRES W  DIS CAZ7
 BAR2 EZ IP     C 1010 13.82                             169    0.1310 25.2 195 
 BAR2 EZ ES       1010 27.51                             169   -0.7310 25.2 195 
 BAR2 EZ I        1010 31.44        17.2 0.72            166           25.2 195 
 BRR  HZ EP       1010 15.67                             150    0.3010 72.7 297 
 BRR  HN ES       1010 31.70                             150    0.4810 72.7 297 
 BRR  HZ I        1010 35.10        15.5 0.32            147           72.7 297 
 RUS  HZ EP       1010 17.93                             142   -0.1310  102 177 
 RUS  HN ES       1010 36.53                             142    0.5210  102 177 
 RUS  HZ I        1010 37.65         8.6 0.24            144            102 177 
 SPBC HZ EP       1010 22.88                             127   -0.27 9  166 219 
 SPBC HE ES       1010 45.18                             127    0.10 9  166 219 
 SPBC HZ I        1010 51.97        13.9 0.22            127            166 219 
 ZAR  HZ EP       1010 27.05                             120   -0.08 8  206 292 
 ZAR  HE ES       1010 51.78                             120   -0.37 8  206 292 
 ZAR  HZ I        1010 57.39         8.6 0.58            121            206 292 
 NOR  HZ EP       1010 29.76                             116   -0.83 8  237 235 
 NOR  HE ES       1010 57.72                             116   -0.60 8  237 235 
 NOR  HZ I        1011  2.60         7.4 0.24            117            237 235 
 SML  HZ EP   4   1010 30.33                             116   -0.85 0  243 335 
 SML  HE ES   4   1010 59.92                             116    0.55 0  243 335 
 SML  HZ I        1011  2.37        12.8 0.10            117            243 335 
 CHI  HZ EP     C 1010 32.14                             115   -0.36 8  251 196 
 CHI  HE ES       1011  1.96                             115    0.24 8  251 196 
 CHI  HZ I        1011  4.74         5.4 0.34            117            251 196 
 HEL  HZ EP       1010 35.66                             113    0.53 8  275 256 
 HEL  HE ES       1011  6.56                             113    0.16 8  275 256 
 HEL  HZ I        1011 11.49         5.6 0.38            114            275 256 
 URE  HZ EP   4   1010 34.40                             112   -1.51 0  286 291 
 URE  HN ES   4   1011  5.34                             112   -2.44 0  286 291 
 URE  HZ I        1011 18.44         6.3 0.18            113            286 291 
 GUY2CHZ EP       1010 39.30                             110    0.71 7  304 235 
 GUY2CHN ES       1011 12.83                             110    0.28 7  304 235 
 GUY2CHZ I        1011 19.12         3.1 0.24                           304 235 
                                                                                
