 2013  910 1049  5.8 L   6.794 -73.134142.9  RSN  8 0.6 1.9LRSN                1
 GAP=138        1.33       6.3     6.1  8.9 -0.4402E+01  0.1440E+02 -0.4580E+01E
 Epicentro: LOS SANTOS - SANTANDER                                             3
 ACTION:UPD 13-10-22 09:21 OP:ep   STATUS:               ID:20130910104905 L   I
 OLDACT:UP  13-09-10 16:47 OP:cam  STATUS:               ID:20130910104736     3
 OLDACT:REG 13-09-10 16:36 OP:cam  STATUS:               ID:20130910104736     3
 2013-09-10-1047-36M.COL___247                                                 6
 STAT SP IPHASW D HRMM SECON CODA AMPLIT PERI AZIMU VELO AIN AR TRES W  DIS CAZ7
 BAR2 SZ EP   1   1049 25.19                             170    0.08 7 22.9 193 
 BAR2 SZ ES       1049 39.65                             170   -0.5010 22.9 193 
 BAR2 SZ I        1049 40.82        15.4 0.16            171           22.9 193 
 BRR  HZ EP       1049 26.99                             151    0.2310 72.6 299 
 BRR  HN ES       1049 43.87                             151    0.7910 72.6 299 
 BRR  HZ I        1049 47.43        15.2 0.24            150           72.6 299 
 PAM  SZ EP     C 1049 28.10                             150    0.3710 77.1  38 
 PAM  SN ES       1049 44.89                             150    0.0810 77.1  38 
 PAM  SZ I        1049 47.16        16.1 0.58            153           77.1  38 
 RUS  HZ EP   1   1049 29.86                             143    0.61 7 99.8 177 
 RUS  HN ES   2   1049 47.52                             143    0.01 5 99.8 177 
 RUS  HZ I        1049 48.95         4.1 0.58            147           99.8 177 
 PTB  HZ EP       1049 31.98                             131   -0.69 9  149 259 
 PTB  HN ES       1049 52.91                             131   -0.69 9  149 259 
 PTB  HZ I        1049 55.41        38.8 0.90            132            149 259 
 OCA  HN ES       1049 55.09                             129   -0.89 9  161 353 
 ZAR  HZ EP       1049 38.29                             121    0.05 8  205 292 
 ZAR  HN ES       1050  4.42                             121    0.90 8  205 292 
 ZAR  HZ I        1050  9.87        11.9 0.32            123            205 292 
 SML  HZ EP   1   1049 42.11                             117   -0.32 6  245 335 
                                                                                
