 2014  610 1124 51.1 L   6.819 -73.146139.7  RSN 18 0.5 2.4LRSN                1
 GAP= 70        1.12       2.7     3.9  6.1 -0.2014E+01  0.7953E+01  0.1046E+01E
 Epicentro: LOS SANTOS - SANTANDER                                             3
 ACTION:UPD 14-07-01 22:52 OP:nd   STATUS:               ID:20140610112451 L   I
 OLDACT:REG 14-06-10 20:11 OP:fm   STATUS:               ID:20140610111818     3
 2014-06-10-1118-18M.COL___253                                                 6
 STAT SP IPHASW D HRMM SECON CODA AMPLIT PERI AZIMU VELO AIN AR TRES W  DIS CAZ7
 BAR2 SZ IP     C 1125 10.11                             169    0.0810 25.4 189 
 BAR2 SZ ES   1   1125 24.79                             169   -0.02 7 25.4 189 
 BAR2 SZ I        1125 25.99       105.9 0.12            166           25.4 189 
 PAM  SZ IP       1125 12.98                             150    0.4210 75.8  41 
 PAM  SN ES       1125 30.00                             150    0.6810 75.8  41 
 PAM  SZ I        1125 32.02        67.8 0.50            148           75.8  41 
 RUS  HZ EP       1125 14.07                             142   -0.3310  103 176 
 RUS  HE ES       1125 32.52                             142   -0.0610  103 176 
 RUS  HZ I        1125 33.45        35.3 0.28            137            103 176 
 PTB  HZ EP       1125 16.97                             131   -0.63 9  148 258 
 PTB  HN ES       1125 37.56                             131   -0.71 9  148 258 
 PTB  HZ I        1125 41.77        29.3 0.16            127            148 258 
 TAM  HZ EP   2   1125 18.40                             129    0.05 5  156 106 
 OCA  HZ EP       1125 18.76                             129    0.03 9  158 353 
 OCA  HN ES       1125 39.99                             129   -0.31 9  158 353 
 OCA  HZ I        1125 45.55        24.8 0.26            126            158 353 
 SPBC HZ EP       1125 19.16                             127   -0.12 9  165 219 
 SPBC HN ES       1125 41.20                             127   -0.07 9  165 219 
 SPBC HZ I        1125 43.62        39.2 0.18            123            165 219 
 ZAR  HZ EP       1125 23.21                             121    0.16 9  203 292 
 ZAR  HN ES       1125 49.02                             121    1.03 9  203 292 
 NOR  HZ EP       1125 26.60                             117    0.01 8  236 234 
 NOR  HN ES       1125 53.82                             117   -0.47 8  236 234 
 NOR  HZ I        1126  1.26        21.6 0.20            114            236 234 
 SML  HZ EP       1125 26.57                             116   -0.60 8  242 335 
 SML  HE ES       1125 54.42                             116   -0.89 8  242 335 
 SML  HZ I        1125 57.23        17.6 0.24            114            242 335 
 CHI  HZ EP       1125 28.13                             116   -0.54 8  251 195 
 CHI  HE ES       1125 57.80                             116   -0.19 8  251 195 
 CHI  HZ I        1126  0.87        11.7 0.52            112            251 195 
 ROSC BZ EP   1   1125 29.40                             115    0.33 6  254 211 
 ROSC BZ I        1126  4.37        14.2 0.55            112            254 211 
 HEL  HZ IP       1125 31.96                             113    0.92 8  273 255 
 HEL  HN ES       1126  2.41                             113    0.20 8  273 255 
 HEL  HZ I        1126  7.14        11.2 0.30            110            273 255 
 URE  HN ES   4   1126  2.11                             112   -1.40 0  283 292 
 GUY2CHZ EP   4   1125 36.30                             111    1.75 0  302 234 
 GUY2CHN ES       1126  9.16                             111    0.71 7  302 234 
 GUY2CHZ I        1126 15.04        14.3 0.26                           302 234 
 PTGC HZ EP   4   1125 33.53                             110   -1.37 0  311 159 
 PTGC HN ES   4   1126  6.62                             110   -2.45 0  311 159 
 RREF HZ EP       1125 37.38                             110    0.26 7  323 229 
 RREF HN ES   4   1126 15.47                             110    2.44 0  323 229 
 RREF HZ I        1126 18.66         8.5 0.36            107            323 229 
 TOL  SZ EP       1125 40.24                             108    0.97 7  345 224 
 TOL  SN ES   4   1126 18.73                             108    1.88 0  345 224 
 TOL  SZ I        1126 21.76        17.4 0.64            105            345 224 
 PRA  HZ EP       1125 44.71                             105    0.10 6  394 209 
 PRA  HZ IP       1125 44.80                                            394 209 
 PRA  HN ES       1126 26.10                             105   -0.26 6  394 209 
 PRA  HZ I        1126 32.07         7.5 0.30            103            394 209 
 SJC  HZ EP   4   1125 45.02                             105   -1.22 0  407 327 
 SJC  HN ES   4   1126 26.30                             105   -2.97 0  407 327 
 SJC  HZ I        1126 29.82         6.9 0.44            102            407 327 
                                                                                
