 2016  310 1952 11.9 L   6.829 -73.160145.1  RSN  7 0.3 1.9LRSN                1
 GAP=133        0.80       2.9     4.1  5.9  0.3407E+00  0.1004E+02  0.1425E+01E
 Epicentro: LOS SANTOS - SANTANDER                                             3
 ACTION:UPD 16-05-13 21:23 OP:cam  STATUS:               ID:20160310195211 L   I
 OLDACT:REG 16-03-10 22:10 OP:ar   STATUS:               ID:20160310194747     3
 2016-03-10-1947-47M.COL___313                                                 6
 STAT SP IPHASW D HRMM SECON CODA AMPLIT PERI AZIMU VELO AIN AR TRES W  DIS CAZ7
 BAR2 EZ EP       1952 31.27                             169   -0.2010 26.3 185 
 BAR2 EZ ES       1952 46.43                             169   -0.3410 26.3 185 
 BAR2 EZ I        1952 47.93        11.7 0.38            167           26.3 185 
 PAM  EZ EP       1952 34.08                             151    0.1510 76.0  42 
 PAM  EN ES       1952 51.07                             151   -0.0710 76.0  42 
 PAM  EZ I        1952 53.08        20.7 0.50            156           76.0  42 
 RUS  HZ EP       1952 36.14                             143    0.3510  104 175 
 RUS  HN ES       1952 54.63                             143    0.1810  104 175 
 RUS  HZ I        1952 55.75        15.5 0.34            144            104 175 
 SPBC HZ EP       1952 40.30                             128   -0.15 9  165 218 
 SPBC HN ES       1953  2.56                             128   -0.19 9  165 218 
 SPBC HZ I        1953  9.46        15.3 0.16            129            165 218 
 ZAR  HZ EP   2   1952 43.62                             122   -0.37 4  201 291 
 ZAR  HN ES       1953  9.85                             122    0.81 9  201 291 
 ZAR  HZ I        1953 14.41         6.7 0.26            123            201 291 
 CHI  HZ EP       1952 49.80                             117   -0.01 8  251 195 
 CHI  HN ES       1953 19.41                             117   -0.00 8  251 195 
 CHI  HZ I        1953 24.42         2.6 0.30            118            251 195 
 MON  HN ES       1953 37.64                             108   -0.73 6  350 308 
 MON  HZ I        1953 37.68         2.1 0.26            110            350 308 
                                                                                
