 2012  410 1826 49.8 L   6.802 -73.166144.7  RSN  5 0.3 1.5LRSN                1
 GAP=134        0.71       5.0     4.7  8.5  0.3004E+01  0.8445E+01  0.5638E+01E
 Epicentro: LOS SANTOS - SANTANDER                                             3
 ACTION:UPD 12-07-05 11:52 OP:tino STATUS:               ID:20120410182649 L   I
 2012-04-10-1819-38M.COL___178                                                 6
 STAT SP IPHASW D HRMM SECON CODA AMPLIT PERI AZIMU VELO AIN AR TRES W  DIS CAZ7
 BRR  HZ EP   1   1827 10.72                             153     0.0 7   69 299 
 BRR  HZ I        1827 11.14        10.4 0.20                            69 299 
 BRR  HN ES   1   1827 27.28                             153     0.3 7   69 299 
 PAM  SZ EP   1   1827 12.03                             150     0.1 7   79  41 
 PAM  SN ES   1   1827 29.01                             150    -0.2 7   79  41 
 RUS  HZ EP   1   1827 13.95                             143     0.5 7  101 175 
 RUS  HN ES   1   1827 31.66                             143    -0.2 7  101 175 
 RUS  HZ I        1827 33.92         2.8 0.27                           101 175 
 PTB  HZ EP   1   1827 15.89                             132    -0.6 7  146 259 
 PTB  HN ES   2   1827 37.37                             132     0.1 5  146 259 
 PTB  HZ I        1827 39.90         3.3 0.13                           146 259 
 ZAR  HN ES   1   1827 46.97                             122     0.0 6  202 292 
 ZAR  HZ I        1827 53.05         5.9 0.31                           202 292 
                                                                                
