 2016  910 1115 39.3 L   6.721 -73.210161.2  RSN  4 0.2 1.4LRSN                1
 GAP=224        0.66       5.7     5.6  6.6  0.2163E+02 -0.1541E+01 -0.3007E+01E
 Epicentro: VILLANUEVA - SANTANDER                                             3
 ACTION:UPD 17-08-17 21:08 OP:lp   STATUS:               ID:20160910111539 L   I
 OLDACT:REG 16-09-10 21:04 OP:lv   STATUS:               ID:20160910110732     3
 2016-09-10-1108-00M.COL___336                                                 6
 STAT SP IPHASW D HRMM SECON CODA AMPLIT PERI AZIMU VELO AIN AR TRES W  DIS CAZ7
 BRR  HZ EP       1116  2.37                             155    0.2510 70.0 308 
 BRR  HN ES       1116 19.84                             155   -0.0410 70.0 308 
 BRR  HZ I        1116 21.38         7.1 0.38            155           70.0 308 
 RUS  HN EP       1116  3.70                             149   -0.4310 92.7 171 
 RUS  HE ES       1116 23.61                             149    0.1510 92.7 171 
 RUS  HN I        1116 25.01         3.4 0.23            150           92.7 171 
 PTB  HZ EP       1116  7.21                             137    0.31 9  139 262 
 PTB  HN ES       1116 28.36                             137   -0.03 9  139 262 
 PTB  HZ I        1116 30.76         2.2 0.10            137            139 262 
 ZAR  HZ EP   4   1116 10.54                             126   -2.01 0  201 295 
 ZAR  HN ES       1116 38.21                             126   -0.23 9  201 295 
 ZAR  HZ I        1116 41.05         1.6 0.10            127            201 295 
                                                                                
