 2010 1010 1050 51.2 L   7.303 -73.666 32.2  RSN  4 0.5 1.3LRSN                1
 GAP=187        1.10       7.2    21.7 19.7  0.4442E+02 -0.3644E+03 -0.8052E+02E
 Epicentro: SABANA DE TORRES - SANTANDER                                       3
 ACTION:UP  11-02-18 11:08 OP:tino STATUS:               ID:20101010105051 L   I
 2010-10-10-1045-49S.COL___121                                                 6
 STAT SP IPHASW D HRMM SECON CODA AMPLIT PERI AZIMU VELO SNR AR TRES W  DIS CAZ7
 BRR  HZ EP       1050 56.80                             139    -0.510   22 193 
 BRR  HZ I        1050 57.05        34.5 0.25                            22 193 
 BRR  HN ES       1051  2.22                             139     0.210   22 193 
 BAR2 SZ EP   1   1051  7.03                              92     0.7 7   95 146 
 BAR2 SZ ES   2   1051 17.17                              92    -0.9 5   95 146 
 GUE  SZ EP       1051  7.23                              92     0.210  100  54 
 GUE  SZ I        1051 20.90         5.9 0.07                           100  54 
 OCA  SZ EP   1   1051  8.05                              91    -0.1 7  110  20 
                                                                                
