 2012  710 1942 56.2 L   7.322 -74.110 67.7  RSN  4 0.3 1.6LRSN                1
 GAP=195        0.73       4.5     3.1  7.0  0.3962E+01  0.3306E+01  0.6236E+01E
 Epicentro: PUERTO WILCHES - SANTANDER                                         3
 ACTION:UPD 12-08-14 11:44 OP:ep   STATUS:               ID:20120710194256 L   I
 2012-07-10-1940-00M.COL___201                                                 6
 STAT SP IPHASW D HRMM SECON CODA AMPLIT PERI AZIMU VELO AIN AR TRES W  DIS CAZ7
 BRR  HZ EP       1943  7.58                             139    -0.310   50 118 
 BRR  HZ I        1943  8.05        42.1 0.11            147             50 118 
 BRR  HN ES       1943 17.13                             139     0.110   50 118 
 ZAR  HZ EP   1   1943 10.93                             123    -0.2 7   85 283 
 ZAR  HE ES   1   1943 23.07                             123     0.2 7   85 283 
 ZAR  HZ I        1943 26.94        13.8 0.19            124             85 283 
 PTB  HZ EP       1943 12.10                             119    -0.110   95 204 
 PTB  HE ES       1943 24.69                             119     0.010   95 204 
 PTB  HZ I        1943 27.95         5.3 0.21            122             95 204 
 RUS  HZ EP       1943 24.94                             103     0.5 9  195 144 
 RUS  HN ES   1   1943 46.19                             103    -0.3 6  195 144 
