 2013  510 1309 45.4 L   6.790 -73.147150.4  RSN 16 0.4 2.8LRSN                1
 GAP= 71        0.89       3.2     3.0  4.6 -0.6358E+00  0.2041E+01  0.2423E+01E
 Epicentro: LOS SANTOS - SANTANDER                                             3
 ACTION:UPD 13-06-20 09:49 OP:ep   STATUS:               ID:20130510130945 L   I
 2013-05-10-1308-48M.COL___228                                                 6
 STAT SP IPHASW D HRMM SECON CODA AMPLIT PERI AZIMU VELO AIN AR TRES W  DIS CAZ7
 BAR2 SZ EP     C 1310  5.47                             171   -0.1110 22.2 190 
 BAR2 SZ ES       1310 20.91                             171   -0.4010 22.2 190 
 BAR2 SZ I        1310 22.35       141.7 0.23            169           22.2 190 
 GIR2 SZ EP     C 1310  5.57                             167   -0.0910 32.4 351 
 GIR2 SZ ES   1   1310 21.71                             167    0.25 7 32.4 351 
 GIR2 SZ I        1310 23.00       104.8 0.57            155           32.4 351 
 BRR  HZ IP     C 1310  7.36                             153    0.2710 71.7 299 
 BRR  HN ES       1310 24.75                             153    0.7510 71.7 299 
 BRR  HZ I        1310 28.59       100.9 0.14            138           71.7 299 
 PAM  SZ EP     C 1310  8.30                             151    0.1310 78.3  39 
 PAM  SZ I        1310  8.63       105.2 0.44            141           78.3  39 
 PAM  SN ES       1310 25.76                             151   -0.1710 78.3  39 
 RUS  HZ EP       1310  9.31                             145   -0.2310 99.5 176 
 RUS  HN ES   1   1310 27.78                             145   -0.58 7 99.5 176 
 RUS  HZ I        1310 29.32        49.3 0.34            138           99.5 176 
 PTB  HZ EP   1   1310 12.39                             133   -0.34 7  147 259 
 PTB  HN ES       1310 33.31                             133   -0.73 9  147 259 
 PTB  HZ I        1310 36.49       467.3 1.04            120            147 259 
 TAM  HZ EP     D 1310 13.66                             131    0.22 9  155 105 
 TAM  HZ I        1310 13.84        44.0 0.22            124            155 105 
 TAM  HN ES       1310 35.51                             131    0.21 9  155 105 
 OCA  HZ EP   1   1310 13.90                             130   -0.29 7  161 353 
 OCA  HN ES   2   1310 37.26                             130    0.63 5  161 353 
 OCA  HZ I        1310 45.38        57.5 0.22            117            161 353 
 ZAR  HZ EP   1   1310 17.95                             123   -0.24 6  204 292 
 NOR  HZ EP       1310 21.37                             119    0.04 8  234 235 
 NOR  HZ I        1310 57.57        40.8 0.18            109            234 235 
 SML  HZ EP   2   1310 22.22                             118   -0.18 4  245 335 
 SML  HN ES   2   1310 51.80                             118    0.54 4  245 335 
 SML  HZ I        1310 57.82        59.5 0.26            107            245 335 
 CHI  HZ EP   1   1310 23.83                             118    0.58 6  248 195 
 CHI  HN ES   1   1310 52.99                             118    0.23 6  248 195 
 CHI  HZ I        1310 56.63        20.8 0.46            109            248 195 
 HEL  HZ EP   4   1310 27.55                             116    1.73 0  272 256 
 HEL  HN ES   1   1310 58.04                             116    0.70 6  272 256 
 HEL  HZ I        1311  3.76        20.5 0.32            105            272 256 
 URE  HZ EP   2   1310 25.81                             114   -0.93 4  284 292 
 COD  HZ EP   1   1310 33.28                             110   -0.82 5  349 355 
 COD  HZ I        1311 16.33         9.4 0.32            100            349 355 
 PRA  HZ EP   1   1310 38.93                             107   -0.04 4  391 210 
 PRA  HN ES       1311 21.68                             107    0.93 6  391 210 
 PRA  HZ I        1311 27.16        34.4 0.30             99            391 210 
                                                                                
