 2010 1010 1559 44.8 L   6.764 -73.079144.0  RSN  9 0.5 2.1LRSN                1
 GAP=183        1.02       6.2     9.4  8.5 -0.2192E+02 -0.7695E+01  0.2497E+02E
 Epicentro: LOS SANTOS - SANTANDER                                             3
 ACTION:UP  11-02-18 11:08 OP:tino STATUS:               ID:20101010155944 L   I
 2010-10-10-1557-07S.COL___121                                                 6
 STAT SP IPHASW D HRMM SECON CODA AMPLIT PERI AZIMU VELO SNR AR TRES W  DIS CAZ7
 BAR2 SZ EP       16 0  4.25                             171     0.010   22 211 
 BAR2 SZ ES   1   16 0 19.20                             171    -0.2 7   22 211 
 BAR2 SZ I        16 0 20.67        33.9 0.46                            22 211 
 BTL  SZ EP       16 0  3.87                             169    -0.510   27 309 
 BRR  HZ EP       16 0  6.13                             150    -0.210   80 299 
 BRR  HN ES       16 0 23.46                             150     0.410   80 299 
 BRR  HZ I        16 0 26.59        22.3 0.59                            80 299 
 GUE  SZ EP   1   16 0  9.49                             139    -0.1 7  119   8 
 GRA  SZ ES   2   16 0 30.81                             137     1.0 5  128  14 
 GRA  SZ I        16 0 31.86         9.9 0.36                           128  14 
 NOR  SZ EP       16 0 20.27                             118    -0.6 8  239 236 
 NOR  SN ES   2   16 0 48.21                             118    -0.8 4  239 236 
 CHI  HZ EP   1   16 0 22.15                             117    -0.1 6  247 197 
 CHI  HN ES   1   16 0 52.08                             117     0.7 6  247 197 
 CHI  HZ I        16 0 59.78         5.2 0.15                           247 197 
 RREF HZ EP   2   16 0 31.84                             111     0.6 3  325 231 
 RREF HN ES   2   16 1  7.59                             111     0.1 3  325 231 
 RREF HZ I        16 1 15.70         5.3 0.43                           325 231 
 PRA  HZ EP       16 0 39.16                             106     0.8 6  392 211 
 PRA  HZ I        16 0 39.95        15.2 0.27                           392 211 
 PRA  HN ES   2   16 1 20.33                             106     0.3 3  392 211 
                                                                                
