 2017  210 1525 28.2 L   6.820 -73.125146.8  RSN  8 0.3 1.7LRSN                1
 GAP=138        0.72       3.2     3.5  4.5  0.7858E+00  0.8733E+00  0.2651E+01E
 Epicentro: LOS SANTOS - SANTANDER                                             3
 ACTION:UPD 17-05-24 15:34 OP:jn   STATUS:               ID:20170210152528 L   I
 OLDACT:DUP 17-02-11 00:05 OP:and  STATUS:               ID:20170210151749d    3
 OLDACT:UP  17-02-11 00:04 OP:and  STATUS:               ID:20170210151748     3
 OLDACT:UP  17-02-11 00:03 OP:and  STATUS:               ID:20170210151748     3
 OLDACT:UP  17-02-11 00:02 OP:and  STATUS:               ID:20170210151748     3
 OLDACT:UP  17-02-11 00:00 OP:and  STATUS:               ID:20170210151748     3
 OLDACT:UP  17-02-10 23:59 OP:and  STATUS:               ID:20170210151748     3
 OLDACT:REG 17-02-10 20:40 OP:and  STATUS:               ID:20170210151748     3
 2017-02-10-1518-00M.COL___363                                                 6
 STAT SP IPHASW D HRMM SECON CODA AMPLIT PERI AZIMU VELO AIN AR TRES W  DIS CAZ7
 BAR2 EZ EP       1525 47.77                             170   -0.2310 25.9 194 
 BAR2 EZ ES       1526  3.34                             170   -0.1110 25.9 194 
 BAR2 EZ I        1526  4.06        11.9 0.15            168           25.9 194 
 BRR  HZ EP       1525 49.67                             152    0.1610 72.3 296 
 BRR  HN ES       1526  6.37                             152    0.2310 72.3 296 
 BRR  HZ I        1526 20.83        21.9 0.34            150           72.3 296 
 PAM  EZ IP     D 1525 50.77                             152    0.4410 74.2  39 
 PAM  EN ES       1526  7.48                             152   -0.1210 74.2  39 
 PAM  EZ I        1526  9.98        11.0 0.56            156           74.2  39 
 RUS  HZ EP       1525 51.78                             143   -0.4110  103 177 
 RUS  HN ES       1526 10.90                             143   -0.0110  103 177 
 RUS  HZ I        1526 11.56         7.4 0.26            147            103 177 
 PTB  HZ EP   9   1525 54.70                             131   -0.79 0  150 258 
 PTB  HN ES       1526 15.75                                   -0.24 9  150 258 
 PTB  HZ I        1526 16.94         4.8 0.15            132            150 258 
 ZAR  HN ES       1526 25.94                             122   -0.37 8  205 291 
 ZAR  HZ I        1526 28.22         4.4 0.10            123            205 291 
 NOR  HZ EP   2   1526  4.51                             118    0.19 4  238 234 
 NOR  HN ES   2   1526 33.65                             118    1.16 4  238 234 
 NOR  HZ I        1526 40.28         3.0 0.16            120            238 234 
 CHI  HZ EP       1526  6.26                             117    0.02 8  251 196 
 CHI  HN ES   2   1526 36.47                             117    0.55 4  251 196 
 CHI  HZ I        1526 38.79         3.7 0.52            119            251 196 
                                                                                
