 2014  110 1511 43.5 L   6.798 -73.151140.4  RSN  8 0.5 1.9LRSN                1
 GAP=136        1.10       4.1     4.5  6.5  0.8118E+00  0.9316E+01  0.6040E+01E
 Epicentro: LOS SANTOS - SANTANDER                                             3
 ACTION:UPD 14-03-13 09:54 OP:ep   STATUS:               ID:20140110151143 L   I
 OLDACT:REG 14-01-10 15:53 OP:stll STATUS:               ID:20140110150813     3
 2014-01-10-1508-13M.COL___243                                                 6
 STAT SP IPHASW D HRMM SECON CODA AMPLIT PERI AZIMU VELO AIN AR TRES W  DIS CAZ7
 BAR2 SZ IP     D 1512  2.45                             170   -0.0610 23.0 189 
 BAR2 SZ ES       1512 17.43                             170    0.1310 23.0 189 
 BAR2 SZ I        1512 19.01        36.1 0.16            170           23.0 189 
 BRR  HZ EP       1512  4.27                             152    0.2010 70.8 299 
 BRR  HN ES       1512 20.56                             152    0.4710 70.8 299 
 BRR  HZ I        1512 25.08        22.5 0.16            150           70.8 299 
 PAM  SZ EP       1512  5.43                             150    0.2210 77.9  40 
 PAM  SN ES       1512 22.10                             150   -0.0210 77.9  40 
 PAM  SZ I        1512 24.52        18.4 0.50            153           77.9  40 
 RUS  HZ IP     C 1512  6.46                             143   -0.2810  100 176 
 RUS  HZ I        1512  7.11         5.2 0.32            146            100 176 
 RUS  HE ES       1512 24.67                             143   -0.1810  100 176 
 PTB  HZ EP       1512  9.28                             131   -0.72 9  147 259 
 PTB  HN ES       1512 29.90                             131   -0.75 9  147 259 
 PTB  HZ I        1512 35.86         7.1 0.16            131            147 259 
 ZAR  HZ EP       1512 15.95                             121    0.37 9  204 292 
 ZAR  HE ES       1512 40.18                             121   -0.40 9  204 292 
 ZAR  HZ I        1512 48.76         8.6 0.26            122            204 292 
 CHI  HZ EP       1512 20.79                             116   -0.11 8  248 195 
 CHI  HN ES       1512 50.15                             116    0.11 8  248 195 
 CHI  HZ I        1512 53.80         4.3 0.40            118            248 195 
 GUY2CHZ EP       1512 27.05                             111    0.23 7  301 235 
 GUY2CHN ES       1513  1.97                             111    1.38 7  301 235 
 GUY2CHZ I        1513 10.29         2.1 0.26                           301 235 
                                                                                
