 2013  610 1330 32.2 L   6.793 -73.151141.1  RSN  9 0.5 2.8LRSN                1
 GAP=195        1.00       4.4     6.0  7.0 -0.7180E+01  0.1008E+02  0.8754E+01E
 Epicentro: LOS SANTOS - SANTANDER                                             3
 ACTION:UPD 14-01-08 09:53 OP:ep   STATUS:               ID:20130610133032 L   I
 OLDACT:UP  13-06-10 17:26 OP:mh   STATUS:               ID:20130610132959     3
 OLDACT:REG 13-06-10 14:21 OP:mh   STATUS:               ID:20130610132959     3
 2013-06-10-1329-59M.COL___261                                                 6
 STAT SP IPHASW D HRMM SECON CODA AMPLIT PERI AZIMU VELO AIN AR TRES W  DIS CAZ7
 BAR2 SZ IP     D 1330 51.36                             170    0.0810 22.5 189 
 BAR2 SZ ES   1   1331  6.08                             170   -0.06 7 22.5 189 
 BAR2 SZ I        1331  7.34       134.3 0.24            167           22.5 189 
 GIR2 SZ EP       1330 51.21                             167   -0.1510 31.9 352 
 GIR2 SZ ES   1   1331  6.40                             167    0.11 7 31.9 352 
 GIR2 SZ I        1331  7.56        67.0 0.28            166           31.9 352 
 BRR  HZ IP     C 1330 53.16                             152    0.3010 71.0 299 
 BRR  HN ES   1   1331  9.08                             152    0.12 7 71.0 299 
 BRR  HN I        1331 10.79       400.8 0.24            149           71.0 299 
 PTB  HZ EP     C 1330 57.71                             131   -1.04 9  147 259 
 PTB  HN ES   2   1331 18.77                             131   -0.67 5  147 259 
 PTB  HZ I        1331 20.87        61.8 0.60            130            147 259 
 OCA  HZ EP   1   1331  0.13                             128   -0.11 7  161 353 
 OCA  HN ES   1   1331 22.36                             128    0.27 7  161 353 
 NOR  HZ EP     D 1331  7.18                             118   -0.41 8  234 235 
 NOR  HN ES       1331 35.82                             118    0.65 8  234 235 
 NOR  HN I        1331 45.15       121.6 0.18            118            234 235 
 CHI  HZ EP       1331  9.50                             116   -0.07 8  248 195 
 CHI  HN ES       1331 38.75                             116    0.05 8  248 195 
 HEL  HZ EP       1331 12.99                             114    0.87 8  271 256 
 HEL  HN ES       1331 42.88                             114   -0.35 8  271 256 
 HEL  HN I        1331 48.95        26.9 0.24            114            271 256 
 GUY2CHZ EP   1   1331 16.27                             111    0.75 5  300 235 
 GUY2CHE ES   4   1331 51.48                             111    2.20 0  300 235 
 GUY2CHZ I        1331 56.45        16.5 0.24                           300 235 
                                                                                
