 2014  510 1909 18.3 L   6.806 -73.162143.8  RSN  7 0.3 1.9LRSN                1
 GAP=134        0.82       2.9     3.6  6.7 -0.1670E+01  0.8467E+01 -0.2204E+01E
 Epicentro: LOS SANTOS - SANTANDER                                             3
 ACTION:UPD 15-03-16 16:56 OP:nd   STATUS:               ID:20140510190918 L   I
 OLDACT:REG 14-05-10 22:06 OP:mh   STATUS:               ID:20140510190848     3
 2014-05-10-1908-48M.COL___251                                                 6
 STAT SP IPHASW D HRMM SECON CODA AMPLIT PERI AZIMU VELO AIN AR TRES W  DIS CAZ7
 PAM  SZ EP       19 9 40.67                             150    0.3110 78.1  41 
 PAM  SE ES       19 9 57.63                             150    0.0710 78.1  41 
 RUS  HZ EP       19 9 42.23                             143    0.3010  101 175 
 RUS  HN ES       1910  0.04                             143   -0.3110  101 175 
 PTB  HZ EP       19 9 44.66                             132   -0.31 9  146 258 
 PTB  HN ES       1910  5.53                             132   -0.24 9  146 258 
 SPBC HZ EP       19 9 46.52                             129   -0.08 9  163 218 
 SPBC HN ES   1   1910  8.69                             129    0.02 7  163 218 
 SPBC HZ I        1910 11.32         7.7 0.10            128            163 218 
 ZAR  HN ES       1910 16.22                             122    0.73 9  202 292 
 NOR  HZ EP       19 9 53.66                             118   -0.15 8  234 234 
 NOR  HN ES       1910 21.72                             118    0.22 8  234 234 
 NOR  HZ I        1910 27.78         5.0 0.16            118            234 234 
 SML  HZ EP       19 9 54.73                             117    0.04 8  242 336 
 SML  HN ES       1910 22.37                             117   -0.69 8  242 336 
 SML  HZ I        1910 26.36         7.2 0.08            117            242 336 
                                                                                
