 2017 1110 1232 24.2 L   6.660 -74.077  9.1  RSN  5 0.3 1.6LRSN                1
 GAP=158        0.64       2.6     1.7  4.4 -0.6181E+00 -0.3142E+01  0.3480E+00E
 Epicentro: PUERTO PARRA - SANTANDER                                           3
 ACTION:UPD 17-12-12 19:54 OP:rebc STATUS:               ID:20171110123224 L   I
 OLDACT:DUP 17-11-10 23:33 OP:mg   STATUS:               ID:20171110122744d    3
 OLDACT:UP  17-11-10 23:33 OP:mg   STATUS:               ID:20171110122743d    3
 OLDACT:UP  17-11-10 23:32 OP:mg   STATUS:               ID:20171110122743d    3
 OLDACT:UP  17-11-10 23:32 OP:mg   STATUS:               ID:20171110122743d    3
 OLDACT:DUP 17-11-10 23:26 OP:mg   STATUS:               ID:20171110122743d    3
 2017-11-10-1228-00M.COL___453                                                 6
 STAT SP IPHASW D HRMM SECON CODA AMPLIT PERI AZIMU VELO AIN AR TRES W  DIS CAZ7
 PTB  HZ EP       1232 31.54                              98    0.0310 44.0 252 
 PTB  HE ES   2   1232 37.43                              98    0.21 5 44.0 252 
 PTB  HZ I        1232 38.22        15.9 0.11             47           44.0 252 
 BRR  HZ EP       1232 34.56                              95    0.0710 63.8  39 
 BRR  HN ES       1232 42.84                              95    0.3210 63.8  39 
 BRR  HZ I        1232 43.63        29.9 0.10             47           63.8  39 
 BAR2 EZ EP       1232 39.97                              93   -0.1210 99.2  94 
 BAR2 EZ ES   2   1232 51.87                              93   -0.62 5 99.2  94 
 ZAR  HN ES       1232 58.95                              93   -0.3610  126 317 
 ZAR  HZ I        1233  1.25        13.4 0.22             47            126 317 
 PAM  EZ EP       1232 51.16                              56    0.35 9  170  64 
 PAM  EN ES       1233 11.39                              56   -0.19 9  170  64 
 PAM  EZ I        1233 14.69        13.7 0.30             47            170  64 
                                                                                
