 2012  910 1814  0.7 L   6.622 -73.630105.6  RSN  4 0.2 1.4LRSN                1
 GAP=121        0.39       2.9     2.0  4.7  0.2553E+01  0.1675E+01  0.4081E+01E
 Epicentro: EL CARMEN DE CHUCURI - SANTANDER                                   3
 ACTION:UPD 12-10-22 14:18 OP:ep   STATUS:               ID:20120910181400 L   I
 2012-09-10-1810-00M.COL___227                                                 6
 STAT SP IPHASW D HRMM SECON CODA AMPLIT PERI AZIMU VELO AIN AR TRES W  DIS CAZ7
 BAR2 SZ EP   1   1814 16.61                             153   -0.06 7 49.6  94 
 BAR2 SZ ES   1   1814 28.90                             153   -0.20 7 49.6  94 
 BAR2 SZ I        1814 29.74        20.9 0.24                          49.6  94 
 BRR  HZ EP   2   1814 16.32                             150   -0.28 5 54.4 350 
 BRR  HE ES   1   1814 29.23                             150    0.25 7 54.4 350 
 PTB  HZ EP   1   1814 19.37                             136   -0.01 7 91.8 264 
 PTB  HN ES       1814 33.88                             136   -0.0410 91.8 264 
 PTB  HN I        1814 38.64         4.9 0.24                          91.8 264 
 RUS  HZ EP   1   1814 21.00                             133    0.18 7  101 143 
 RUS  HZ I        1814 21.36         2.9 0.32                           101 143 
 RUS  HN ES       1814 36.51                             133    0.0210  101 143 
                                                                                
