 2015  210 1721 10.9 L   6.806 -73.147142.6  RSN 11 0.7 2.1LRSN                1
 GAP=136        1.59       4.6     6.4  8.4 -0.9872E+01  0.1878E+02 -0.2990E+01E
 Epicentro: LOS SANTOS - SANTANDER                                             3
 ACTION:UPD 15-04-30 21:24 OP:nd   STATUS:               ID:20150210172110 L   I
 OLDACT:ARG 15-02-10 21:08 OP:stll STATUS:               ID:20150210171745     3
 2015-02-10-1717-45M.COL___290                                                 6
 STAT SP IPHASW D HRMM SECON CODA AMPLIT PERI AZIMU VELO AIN AR TRES W  DIS CAZ7
 BAR2 EZ EP       1721 30.31                             170    0.1510 23.9 189 
 BAR2 EZ ES       1721 45.33                             170    0.1410 23.9 189 
 BAR2 EZ I        1721 46.26        18.4 0.28            169           23.9 189 
 BRR  HZ EP       1721 32.21                             152    0.5310 70.7 298 
 BRR  HZ I        1721 32.44        18.0 0.16            149           70.7 298 
 BRR  HN ES       1721 48.88                             152    0.9910 70.7 298 
 PAM  SZ EP       1721 33.11                             150    0.3510 77.0  40 
 PAM  SN ES       1721 50.02                             150    0.2110 77.0  40 
 PAM  SZ I        1721 52.20        27.9 0.56            154           77.0  40 
 RUS  HZ EP       1721 34.18                             143   -0.2110  101 176 
 RUS  HZ I        1721 35.10         6.2 0.46            146            101 176 
 RUS  HN ES       1721 52.25                             143   -0.4610  101 176 
 PTB  HZ EP       1721 37.22                             131   -0.38 9  148 259 
 PTB  HN ES       1721 57.91                             131   -0.52 9  148 259 
 PTB  HZ I        1722  5.40        14.1 0.38            131            148 259 
 OCA  HZ EP       1721 38.42                             129   -0.48 9  160 353 
 OCA  HN ES       1722  0.53                             129   -0.22 9  160 353 
 OCA  HZ I        1722  5.24        15.4 0.48            130            160 353 
 SPBC HZ EP       1721 39.50                             128    0.31 9  164 219 
 SPBC HN ES       1722  0.65                             128   -0.61 9  164 219 
 SPBC HZ I        1722  8.51        17.3 0.18            129            164 219 
 NOR  HZ EP       1721 45.88                             118   -0.59 8  235 234 
 NOR  HE ES       1722 13.35                             118   -0.86 8  235 234 
 NOR  HZ I        1722 19.61        10.4 0.34            119            235 234 
 SML  HZ EP       1721 46.46                             117   -0.82 8  243 335 
 SML  HN ES       1722 14.70                             117   -0.95 8  243 335 
 SML  HZ I        1722 20.73        14.1 0.22            118            243 335 
 HEL  HZ EP       1721 52.92                             114    1.97 8  272 256 
 HEL  HN ES       1722 22.79                             114    0.60 8  272 256 
 HEL  HZ I        1722 29.48         8.9 0.32            115            272 256 
 GUY2CHZ EP       1721 55.48                             112    1.10 7  301 235 
 GUY2CHE ES       1722 28.23                             112   -0.07 7  301 235 
 GUY2CHZ I        1722 37.03         8.5 0.74                           301 235 
                                                                                
