 2016  910 1543 50.7 L   6.772 -73.165133.3  RSN  9 0.3 1.9LRSN                1
 GAP=135        0.73       2.5     3.0  4.4 -0.9814E-01  0.3979E+01  0.1399E+01E
 Epicentro: LOS SANTOS - SANTANDER                                             3
 ACTION:UPD 17-08-17 21:08 OP:lp   STATUS:               ID:20160910154350 L   I
 OLDACT:REG 16-09-10 21:21 OP:lv   STATUS:               ID:20160910153743     3
 2016-09-10-1538-00M.COL___336                                                 6
 STAT SP IPHASW D HRMM SECON CODA AMPLIT PERI AZIMU VELO AIN AR TRES W  DIS CAZ7
 BAR2 EZ EP       1544  8.51                             171   -0.2210 20.0 185 
 BAR2 EZ ES       1544 22.97                             171    0.1510 20.0 185 
 BAR2 EZ I        1544 24.86        28.4 0.20            169           20.0 185 
 BRR  HZ IP     C 1544 10.29                             150   -0.1810 70.9 302 
 BRR  HN ES       1544 26.03                             150    0.1310 70.9 302 
 BRR  HZ I        1544 30.78        24.0 0.28            149           70.9 302 
 PAM  EZ EP       1544 11.37                             147   -0.4510 81.1  39 
 PAM  EE ES       1544 28.69                             147    0.3810 81.1  39 
 PAM  EZ I        1544 30.69        30.5 0.54            153           81.1  39 
 RUS  HZ EP       1544 13.00                             142    0.0010 97.7 175 
 RUS  HN ES       1544 30.22                             142   -0.1910 97.7 175 
 RUS  HZ I        1544 32.41         9.9 0.32            145           97.7 175 
 PTB  HZ EP       1544 16.34                             130   -0.06 9  145 260 
 PTB  HN ES       1544 36.23                             130   -0.23 9  145 260 
 PTB  HZ I        1544 43.10         5.2 0.18            130            145 260 
 SPBC HZ EP       1544 17.75                             127   -0.12 9  159 219 
 SPBC HE ES       1544 39.28                             127    0.19 9  159 219 
 SPBC HZ I        1544 44.34        13.4 0.10            129            159 219 
 ZAR  HZ EP       1544 22.96                             120    0.71 9  203 293 
 ZAR  HN ES       1544 46.57                             120   -0.31 9  203 293 
 ZAR  HZ I        1544 52.73         8.6 0.27            121            203 293 
 CHI  HZ EP   4   1544 26.53                             115   -0.79 0  245 195 
 CHI  HN ES       1544 56.10                             115    0.20 8  245 195 
 CHI  HZ I        1544 59.66         4.0 0.24            118            245 195 
 GUY2CHZ EP       1544 33.65                             110    0.32 7  298 235 
 GUY2CHN ES   4   1545  8.71                             110    2.11 0  298 235 
 GUY2CHZ I        1545 14.82         3.8 0.28                           298 235 
                                                                                
