 2013 1110 1255 18.4 L   6.808 -73.066142.0  RSN  5 0.5 1.7LRSN                1
 GAP=208        1.12      10.9    15.3 10.4  0.1345E+03 -0.3275E+02 -0.3034E+02E
 Epicentro: LOS SANTOS - SANTANDER                                             3
 OLDACT:REG 13-11-10 14:21 OP:jn   STATUS:               ID:20131110125000     3
 ACTION:UPD 14-01-09 16:27 OP:ep   STATUS:               ID:20131110125518 L   I
 OLDACT:UP  13-11-10 15:53 OP:jn   STATUS:               ID:20131110125000     3
 2013-11-10-1250-00M.COL___273                                                 6
 STAT SP IPHASW D HRMM SECON CODA AMPLIT PERI AZIMU VELO AIN AR TRES W  DIS CAZ7
 BAR2 SZ EP       1255 37.87                             169    0.2210 27.1 208 
 BAR2 SZ ES       1255 52.04                             169   -0.6310 27.1 208 
 BAR2 SZ I        1255 53.95        18.2 0.20            143           27.1 208 
 BRR  HZ EP       1255 39.67                             149    0.0910 78.7 295 
 BRR  HN ES       1255 56.87                             149    0.7610 78.7 295 
 BRR  SZ I        1255 59.97         9.7 0.32            138           78.7 295 
 RUS  HZ EP       1255 41.83                             143    0.0110  101 181 
 RUS  HN ES       1256  0.10                             143    0.0110  101 181 
 RUS  SZ I        1256 21.05         3.8 2.18            127            101 181 
 ZAR  HN ES   1   1256 16.37                             120   -0.80 6  212 291 
 SML  HN ES   2   1256 22.88                             116   -0.92 4  247 333 
                                                                                
