 2017  510 1954 56.6 L   6.833 -73.155148.8  RSN  6 0.3 1.5LRSN                1
 GAP=145        0.55       4.3     3.0  6.2 -0.4191E+01 -0.9704E+00  0.1394E+02E
 Epicentro: LOS SANTOS - SANTANDER                                             3
 ACTION:UPD 17-06-16 13:34 OP:jn   STATUS:               ID:20170510195456 L   I
 OLDACT:REG 17-05-10 22:40 OP:lv   STATUS:               ID:20170510194600     3
 2017-05-10-1948-00M.COL___368                                                 6
 STAT SP IPHASW D HRMM SECON CODA AMPLIT PERI AZIMU VELO AIN AR TRES W  DIS CAZ7
 PAM  EZ EP       1955 19.34                             152    0.3410 75.3  42 
 PAM  EE ES       1955 36.48                             152   -0.0010 75.3  42 
 PAM  EZ I        1955 38.67        10.2 0.45            160           75.3  42 
 RUS  HZ EP       1955 20.73                             143   -0.1710  104 176 
 RUS  HN ES   2   1955 39.98                             143    0.11 5  104 176 
 RUS  HZ I        1955 43.14         2.4 0.28            147            104 176 
 PTB  HZ EP       1955 23.61                             133   -0.16 9  148 257 
 PTB  HN ES       1955 44.80                             133   -0.18 9  148 257 
 PTB  HZ I        1955 52.09         4.0 0.30            133            148 257 
 YPLC HZ EP       1955 26.87                             127   -0.09 9  181 152 
 ZAR  HZ EP   4   1955 31.42                             123    2.43 0  202 291 
 ZAR  HN ES   4   1955 56.00                             123    1.73 0  202 291 
 ZAR  HZ I        1956  0.36         3.7 0.15            125            202 291 
 NOR  HZ EP   2   1955 32.82                             119    0.19 4  236 234 
 NOR  HN ES   2   1956  1.54                             119    0.80 4  236 234 
 NOR  HZ I        1956  7.30         2.6 0.08            121            236 234 
                                                                                
