 2017 1210 1457 45.3 L   6.817 -73.160136.0  RSN 13 0.5 1.9LRSN                1
 GAP=110        1.02       2.5     3.6  5.6 -0.1380E+01  0.4521E+01  0.2128E+01E
 Epicentro: LOS SANTOS - SANTANDER                                             3
 ACTION:UPD 18-01-04 13:18 OP:rebc STATUS:               ID:20171210145745 L   I
 OLDACT:REG 17-12-10 20:16 OP:lv   STATUS:               ID:20171210144727     3
 2017-12-10-1448-00M.COL___481                                                 6
 STAT SP IPHASW D HRMM SECON CODA AMPLIT PERI AZIMU VELO AIN AR TRES W  DIS CAZ7
 BAR2 EZ EP       1458  3.72                             169   -0.0610 25.0 186 
 BAR2 EZ ES       1458 18.39                             169    0.1910 25.0 186 
 BAR2 EZ I        1458 19.85        29.3 0.18            168           25.0 186 
 PAM  EZ EP       1458  6.63                             149    0.1910 77.0  41 
 PAM  EN ES       1458 23.50                             149    0.5610 77.0  41 
 PAM  EZ I        1458 25.47        16.0 0.44            153           77.0  41 
 PTB  HZ EP       1458 10.81                             130   -0.55 9  147 258 
 PTB  HN ES       1458 31.30                             130   -0.40 9  147 258 
 PTB  HZ I        1458 34.16         6.3 0.10            131            147 258 
 OCA  HZ EP       1458 12.26                             128   -0.39 9  158 354 
 OCA  HN ES       1458 33.61                             128   -0.39 9  158 354 
 OCA  HZ I        1458 35.03        24.7 0.18            131            158 354 
 SPBC HZ EP       1458 12.66                             127   -0.44 9  164 218 
 SPBC HN ES       1458 34.93                             127    0.13 9  164 218 
 SPBC HZ I        1458 41.10        10.0 0.20            128            164 218 
 YPLC HZ IP     C 1458 14.29                             124   -0.34 9  179 151 
 YPLC HN ES       1458 37.51                             124   -0.01 9  179 151 
 YPLC HZ I        1458 40.18         5.6 0.52            126            179 151 
 ZAR  HN ES       1458 42.29                             120    0.76 9  202 292 
 ZAR  HZ I        1458 44.37         8.7 0.10            122            202 292 
 CHI  HZ EP       1458 22.33                             115   -0.29 8  250 195 
 CHI  HN ES       1458 51.53                             115   -0.21 8  250 195 
 CHI  HZ I        1458 54.83         2.7 0.62            116            250 195 
 DRL03HZ EP       1458 26.92                             111    0.71 7  287 353 
 DRL03HN ES       1458 57.44                             111   -0.69 7  287 353 
 GUY2CHZ EP       1458 29.34                             110    0.90 7  301 234 
 GUY2CHN ES       1459  2.12                             110    0.02 7  301 234 
 GUY2CHZ I        1459  9.21         2.9 0.32                           301 234 
 PRA  HZ EP       1458 38.72                             105    0.13 6  393 209 
 PRA  HN ES       1459 20.12                             105   -0.04 6  393 209 
 PRA  HZ I        1459 25.44         3.6 0.30            106            393 209 
 ORTC HZ EP       1458 40.03                             105    1.07 6  396 216 
 ORTC HN ES       1459 20.91                             105    0.09 6  396 216 
 ORTC HZ I        1459 25.57         2.0 0.52            106            396 216 
 SJC  HZ EP   4   1458 38.59                             104   -1.66 0  407 327 
 SJC  HN ES   4   1459 18.17                             104   -4.95 0  407 327 
 SJC  HZ I        1459 23.69         3.5 0.58            106            407 327 
                                                                                
