 2014  510 1512 57.3 L   6.801 -73.148147.1  RSN 12 0.4 2.2LRSN                1
 GAP=136        0.83       2.5     3.5  5.8 -0.7808E+00  0.6031E+01  0.9477E+00E
 Epicentro: LOS SANTOS - SANTANDER                                             3
 OLDACT:UP  14-05-10 23:06 OP:mh   STATUS:               ID:20140510151000     3
 OLDACT:UP  14-05-10 23:01 OP:mh   STATUS:               ID:20140510151000     3
 OLDACT:REG 14-05-10 21:10 OP:y    STATUS:               ID:20140510151000     3
 ACTION:UPD 15-03-16 16:56 OP:nd   STATUS:               ID:20140510151257 L   I
 OLDACT:UP  14-05-10 23:06 OP:mh   STATUS:               ID:20140510151000     3
 2014-05-10-1510-00M.COL___273                                                 6
 STAT SP IPHASW D HRMM SECON CODA AMPLIT PERI AZIMU VELO AIN AR TRES W  DIS CAZ7
 PAM  SZ EP     C 1513 20.13                             151    0.4610 77.5  40 
 PAM  SN ES       1513 37.18                             151    0.0710 77.5  40 
 PAM  SZ I        1513 39.33        19.6 0.32            146           77.5  40 
 RUS  HZ EP       1513 21.17                             144   -0.0310  101 176 
 RUS  HN ES       1513 39.24                             144   -0.6010  101 176 
 PTB  HZ EP       1513 24.29                             132   -0.07 9  147 259 
 PTB  HN ES       1513 45.58                             132    0.12 9  147 259 
 PTB  SZ I        1513 50.98        19.5 0.42            122            147 259 
 SPBC HZ EP       1513 26.29                             129    0.39 9  163 219 
 SPBC HN ES       1513 48.87                             129    0.66 9  163 219 
 SPBC SZ I        1513 53.25        20.7 0.28            121            163 219 
 ZAR  HZ EP   1   1513 29.74                             123   -0.06 6  204 292 
 ZAR  HN ES       1513 55.40                             123    0.25 9  204 292 
 ZAR  SZ I        1514  1.53        14.5 0.28            113            204 292 
 NOR  HZ EP       1513 33.23                             119    0.13 8  235 234 
 NOR  HN ES       1514  0.55                             119   -0.46 8  235 234 
 NOR  SZ I        1514  5.06        11.2 0.22            111            235 234 
 SML  HZ EP   1   1513 33.64                             118   -0.34 6  243 335 
 SML  HN ES       1514  2.00                             118   -0.58 8  243 335 
 SML  SZ I        1514  7.03        23.6 0.08            110            243 335 
 CHI  HZ EP       1513 35.11                             117    0.02 8  249 195 
 CHI  HN ES       1514  4.38                             117   -0.18 8  249 195 
 ROSC BN ES   4   1514  7.93                             117    2.65 0  253 211 
 HEL  HZ EP   1   1513 37.01                             115   -0.55 6  272 256 
 HEL  SZ I        1514 22.62         5.3 0.56            107            272 256 
 URE  HZ EP   4   1513 40.32                             114    1.92 0  283 292 
 URE  HE ES   4   1514  7.72                             114   -2.74 0  283 292 
 URE  SZ I        1514 17.01         5.1 0.30            106            283 292 
 PRA  HZ EP       1513 51.17                             107    0.30 6  392 210 
 PRA  HN ES   1   1514 32.16                             107   -0.49 4  392 210 
 PRA  SZ I        1514 37.74         7.7 0.32            101            392 210 
 SJC  HZ EP   4   1513 49.82                             106   -3.06 0  409 327 
 SJC  HN ES   4   1514 31.04                             106   -5.18 0  409 327 
 SJC  SZ I        1514 48.18         9.1 1.68            100            409 327 
                                                                                
