 2012 1210 1608 45.8 L   6.577 -73.460114.7  RSN  4 0.1 1.9LRSN                1
 GAP=120        0.39       2.2     2.0  3.5  0.4626E+00  0.2348E+01  0.1167E+01E
 Epicentro: EL CARMEN DE CHUCURI - SANTANDER                                   3
 ACTION:UPD 13-01-04 14:26 OP:ep   STATUS:               ID:20121210160845 L   I
 2012-12-10-1600-00M.COL___242                                                 6
 STAT SP IPHASW D HRMM SECON CODA AMPLIT PERI AZIMU VELO AIN AR TRES W  DIS CAZ7
 BAR2 SZ EP       16 9  2.03                             164    0.1110 30.7  87 
 BAR2 SZ ES       16 9 14.59                             164    0.0810 30.7  87 
 BAR2 SZ I        16 9 15.91        24.2 0.18                          30.7  87 
 GIR2 SZ EP       16 9  3.20                             149   -0.1410 62.8  28 
 GIR2 SZ ES       16 9 17.01                             149   -0.0110 62.8  28 
 RUS  HZ EP       16 9  5.67                             141    0.1810 86.4 151 
 RUS  HN ES       16 9 20.69                             141   -0.1710 86.4 151 
 PTB  HZ EP       16 9  6.75                             133   -0.0910  110 268 
 PTB  HN ES       16 9 23.29                             133    0.0410  110 268 
                                                                                
