 2012 1110 1616 28.2 L   6.751 -73.463117.7  RSN  5 0.2 1.7LRSN                1
 GAP=154        0.55       4.0     3.6  5.3  0.8884E+01  0.5078E+01  0.3405E+01E
 Epicentro: EL CARMEN DE CHUCURI - SANTANDER                                   3
 ACTION:UPD 12-12-05 15:32 OP:}ep  STATUS:               ID:20121110161628 L   I
 2012-11-10-1610-00M.COL___229                                                 6
 STAT SP IPHASW D HRMM SECON CODA AMPLIT PERI AZIMU VELO AIN AR TRES W  DIS CAZ7
 BAR2 SZ EP       1616 44.83                             162   -0.0710 35.7 120 
 BAR2 SZ ES   1   1616 57.74                             162   -0.15 7 35.7 120 
 BAR2 SZ I        1616 59.35        14.0 0.24                          35.7 120 
 BRR  HZ EP       1616 44.82                             156   -0.2610 48.0 325 
 BRR  HN ES   1   1616 58.47                             156    0.25 7 48.0 325 
 BRR  HN I        1617  0.11        15.5 0.20                          48.0 325 
 RUS  HZ EP       1616 49.90                             136    0.2810  104 156 
 RUS  HE ES       1617  6.35                             136    0.0510  104 156 
 RUS  HZ I        1617  7.95         3.2 0.68                           104 156 
 PTB  HZ EP       1616 49.57                             133   -0.1410  112 258 
 PTB  HN ES   1   1617  6.26                             133   -0.20 7  112 258 
 PTB  HZ I        1617 12.30         6.2 0.12                           112 258 
 ZAR  HE ES   1   1617 17.79                             120    0.43 7  175 298 
 ZAR  HE I        1617 21.16        20.9 0.38                           175 298 
                                                                                
