 2017  110 1239 44.5 L   6.793 -73.148147.7  RSN  6 0.2 1.7LRSN                1
 GAP=103        0.63       3.3     3.0  4.1  0.2800E+01  0.4245E+00 -0.5517E+00E
 Epicentro: LOS SANTOS - SANTANDER                                             3
 ACTION:UPD 17-05-22 15:57 OP:jn   STATUS:               ID:20170110123944 L   I
 OLDACT:REG 17-01-10 22:53 OP:ar   STATUS:               ID:20170110123759     3
 2017-01-10-1237-59S.COL___297                                                 6
 STAT SP IPHASW D HRMM SECON CODA AMPLIT PERI AZIMU VELO AIN AR TRES W  DIS CAZ7
 BAR2 EZ EP       1240  4.22                             171   -0.1610 22.6 190 
 BAR2 EZ ES       1240 19.78                             171   -0.0810 22.6 190 
 BAR2 EZ I        1240 21.19         8.8 0.42            171           22.6 190 
 BRR  HZ EP       1240  5.99                             153    0.0910 71.3 299 
 BRR  HN ES       1240 22.88                             153    0.3210 71.3 299 
 PAM  EZ EP       1240  7.20                             151    0.2010 78.1  39 
 PAM  EN ES       1240 24.23                             151   -0.2910 78.1  39 
 PAM  EZ I        1240 26.26        11.6 0.50            152           78.1  39 
 RUS  HZ EP       1240  8.51                             144    0.0810 99.9 176 
 RUS  HN ES       1240 26.97                             144   -0.0810 99.9 176 
 RUS  HZ I        1240 27.83         6.5 0.36            146           99.9 176 
 TAM  HZ EP       1240 12.63                             131    0.26 9  155 105 
 ZAR  HZ EP       1240 16.59                             123   -0.52 9  204 292 
 ZAR  HN ES       1240 42.63                             123    0.11 9  204 292 
 ZAR  HZ I        1240 50.99         5.3 0.16            122            204 292 
                                                                                
