 2013  610 1150 46.0 L   6.797 -73.133148.7  RSN 16 0.5 2.4LRSN                1
 GAP= 66        1.02       3.0     3.3  5.4  0.1633E+00  0.2006E+01  0.1765E+00E
 Epicentro: LOS SANTOS - SANTANDER                                             3
 ACTION:UPD 14-01-08 09:53 OP:ep   STATUS:               ID:20130610115046 L   I
 OLDACT:UP  13-06-10 16:42 OP:mh   STATUS:               ID:20130610114959     3
 OLDACT:UP  13-06-10 16:42 OP:mh   STATUS:               ID:20130610114959     3
 OLDACT:UP  13-06-10 16:41 OP:mh   STATUS:               ID:20130610114959     3
 OLDACT:UP  13-06-10 16:40 OP:mh   STATUS:               ID:20130610114959     3
 OLDACT:UP  13-06-10 16:39 OP:mh   STATUS:               ID:20130610114959     3
 OLDACT:REG 13-06-10 14:15 OP:mh   STATUS:               ID:20130610114959     3
 2013-06-10-1149-59M.COL___261                                                 6
 STAT SP IPHASW D HRMM SECON CODA AMPLIT PERI AZIMU VELO AIN AR TRES W  DIS CAZ7
 BAR2 SZ IP     D 1151  6.04                             171    0.0310 23.3 194 
 BAR2 SZ ES   1   1151 21.29                             171   -0.31 7 23.3 194 
 BAR2 SZ I        1151 22.73        66.3 0.36            169           23.3 194 
 GIR2 SZ IP     C 1151  6.04                             167   -0.0310 31.8 348 
 GIR2 SZ ES   1   1151 21.78                             167    0.09 7 31.8 348 
 GIR2 SZ I        1151 23.13        37.7 0.12            167           31.8 348 
 BRR  HZ IP     C 1151  7.96                             153    0.3910 72.6 298 
 BRR  HN ES       1151 25.28                             153    0.9010 72.6 298 
 BRR  HZ I        1151 30.74        43.9 0.54            152           72.6 298 
 PAM  SZ IP     C 1151  8.86                             152    0.3410 76.7  39 
 PAM  SN ES   2   1151 25.86                             152   -0.20 5 76.7  39 
 PAM  SZ I        1151 28.09        33.7 0.52            150           76.7  39 
 RUS  HZ EP       1151 10.13                             145    0.0910  100 177 
 RUS  HN ES       1151 28.30                             145   -0.4710  100 177 
 RUS  HZ I        1151 29.78        28.8 0.24            142            100 177 
 PTB  HZ EP       1151 12.62                             132   -0.74 9  149 259 
 PTB  HN ES       1151 34.32                             132   -0.35 9  149 259 
 PTB  HN I        1151 38.94       120.1 0.28            131            149 259 
 TAM  HZ EP       1151 14.20                             132    0.39 9  154 105 
 TAM  HZ I        1151 34.64        16.8 0.34            129            154 105 
 TAM  HN ES       1151 35.24                             132   -0.23 9  154 105 
 OCA  HZ EP       1151 14.16                             130   -0.45 9  161 353 
 OCA  HN ES       1151 36.91                             130    0.00 9  161 353 
 YOP  SE ES   2   1151 40.34                             127    0.61 4  178 154 
 NOR  HZ EP   1   1151 21.42                             119   -0.61 6  236 235 
 NOR  HN ES       1151 50.37                             119    0.25 8  236 235 
 NOR  HZ I        1151 55.22        17.4 0.14            117            236 235 
 SML  HZ EP   1   1151 22.56                             118   -0.35 6  245 335 
 SML  HN ES       1151 50.85                             118   -0.83 8  245 335 
 SML  HZ I        1151 57.59        52.1 0.10            116            245 335 
 CHI  HZ EP   1   1151 23.97                             118    0.07 6  249 196 
 CHI  HN ES   2   1151 53.03                             118   -0.41 4  249 196 
 CHI  HN I        1151 57.45        15.5 0.26            116            249 196 
 HEL  HZ EP       1151 27.62                             115    1.08 8  273 256 
 HEL  HN ES   2   1151 58.54                             115    0.41 4  273 256 
 HEL  HZ I        1152  4.34        16.9 0.32            113            273 256 
 GUY2CHZ EP   4   1151 31.94                             113    2.06 0  302 235 
 GUY2CHN ES   4   1152  6.76                             113    2.67 0  302 235 
 GUY2CHZ I        1152 15.68         9.9 0.56                           302 235 
 COD  HZ EP   1   1151 35.07                             109    0.50 5  349 354 
 COD  HN ES   4   1152 10.76                             109   -1.67 0  349 354 
 COD  HN I        1152 14.48         9.6 0.64            108            349 354 
 PRA  HZ EP   1   1151 39.72                             107    0.02 4  392 210 
 PRA  HN ES   2   1152 20.93                             107   -0.64 3  392 210 
 PRA  HZ I        1152 27.11         7.7 0.40            105            392 210 
 SMAR HE ES   4   1152 39.20                             103   -4.35 0  498 346 
                                                                                
