 2010  710 1535 47.8 L   7.426 -73.479115.9  RSN  7 0.2 2.0LRSN                1
 GAP=155        0.62       3.2     5.0  5.4 -0.8140E+01 -0.5405E+01  0.2911E+01E
 Epicentro: SABANA DE TORRES - SANTANDER                                       3
 ACTION:UPD 10-12-01 15:16 OP:pat  STATUS:               ID:20100710153547 L   I
 2010-07-10-1534-53S.COL___120                                                 6
 STAT SP IPHASW D HRMM SECON CODA AMPLIT PERI AZIMU VELO AIN AR TRES W  DIS CAZ7
 BRR  HZ EP       1536  4.22                             158     0.010   44 216 
 BRR  HN ES       1536 17.14                             158     0.110   44 216 
 BRR  HZ I        1536 18.23        73.7 0.13                            44 216 
 GUE  SZ EP       1536  6.24                             145    -0.310   76  54 
 GUE  SZ I        1536 22.09        15.5 0.31                            76  54 
 BRI  SZ EP   1   1536  7.07                             142     0.3 7   82  67 
 BRI  SZ ES   2   1536 22.06                             142     0.4 5   82  67 
 BRI  SZ I        1536 23.60        16.1 0.26                            82  67 
 GRA  SZ EP   1   1536  7.77                             139     0.4 7   90  56 
 GRA  SZ ES       1536 22.70                             139     0.010   90  56 
 GRA  SZ I        1536 23.94        33.6 0.33                            90  56 
 OCA  SZ EP   1   1536  7.54                             139     0.0 7   92  11 
 OCA  SZ ES   1   1536 22.60                             139    -0.3 7   92  11 
 OCA  SZ I        1536 23.50        25.6 0.04                            92  11 
 BAR2 SZ EP       1536  8.20                             137     0.010   98 161 
 BAR2 SZ ES   2   1536 23.66                             137    -0.4 5   98 161 
 BAR2 SZ I        1536 24.66        25.6 0.23                            98 161 
 RUS  HZ EP   2   1536 16.11                             119     0.2 4  175 166 
 RUS  HN ES   2   1536 37.51                             119    -0.4 4  175 166 
 RUS  HZ I        1536 40.40         3.2 0.21                           175 166 
                                                                                
