 2011  410 1855  1.6 L   6.749 -73.124147.2  RSN  5 0.4 1.5LRSN                1
 GAP=165        0.47      27.6    23.2 16.0 -0.4814E+03 -0.2643E+02 -0.1502E+03E
 Epicentro: LOS SANTOS - SANTANDER                                             3
 ACTION:UP  11-06-22 15:30 OP:REBC STATUS:               ID:20110410185501 L   I
 2011-04-10-1854-24S.COL___138                                                 6
 STAT SP IPHASW D HRMM SECON CODA AMPLIT PERI AZIMU VELO SNR AR TRES W  DIS CAZ7
 BAR2 SZ EP   3   1855 21.26                             172     0.0 2   18 200 
 BAR2 SZ ES   3   1855 36.25                             172    -0.4 2   18 200 
 BAR2 SZ I        1855 37.73         8.7 0.24                            18 200 
 BTL  SZ EP       1855 21.46                             170     0.110   25 320 
 BTL  SZ ES   3   1855 37.12                             170     0.3 2   25 320 
 GIR2 SZ EP   3   1855 20.29                             165    -1.3 2   37 348 
 PAM  SZ EP       1855 24.13                             150     0.010   80  36 
 PAM  SZ I        1855 24.36         4.0 0.18                            80  36 
 GRA  SZ EP   3   1855 27.08                             136    -0.2 2  131  16 
                                                                                
