 2015 1210 1725 23.3 L   6.783 -73.115142.6  RSN  8 0.4 1.8LRSN                1
 GAP=141        1.00       4.6     4.6  6.1 -0.6403E+01  0.6858E+01  0.8030E+01E
 Epicentro: LOS SANTOS - SANTANDER                                             3
 ACTION:UPD 16-02-04 15:03 OP:cam  STATUS:               ID:20151210172523 L   I
 OLDACT:UP  15-12-11 00:15 OP:mh   STATUS:               ID:20151210171748     3
 OLDACT:REG 15-12-10 22:19 OP:mh   STATUS:               ID:20151210171748     3
 2015-12-10-1717-48M.COL___331                                                 6
 STAT SP IPHASW D HRMM SECON CODA AMPLIT PERI AZIMU VELO AIN AR TRES W  DIS CAZ7
 BAR2 EZ EP       1725 42.48                             171   -0.0910 22.4 199 
 BAR2 EZ ES       1725 56.81                             171   -0.7510 22.4 199 
 BAR2 EZ I        1725 58.86        13.8 0.22            171           22.4 199 
 BRR  HZ EP       1725 44.31                             151   -0.0610 75.0 299 
 BRR  HZ I        1725 52.95        20.6 0.34            149           75.0 299 
 BRR  HN ES       1726  1.21                             151    0.4410 75.0 299 
 PAM  EZ EP       1725 45.45                             150    0.2710 76.7  37 
 PAM  EN ES       1726  2.29                             150    0.0810 76.7  37 
 PAM  EZ I        1726  4.54         8.1 0.28            149           76.7  37 
 RUS  HZ EP       1725 46.54                             144   -0.0910 98.6 178 
 RUS  HN ES       1726  5.21                             144    0.4110 98.6 178 
 RUS  HZ I        1726  6.75         4.8 0.44            143           98.6 178 
 PTB  HZ EP   1   1725 49.46                             131   -0.86 7  151 260 
 PTB  HN ES       1726 11.58                             131    0.21 9  151 260 
 PTB  HZ I        1726 12.41         8.1 0.21            129            151 260 
 NOR  HZ EP       1725 58.65                             118   -0.42 8  236 235 
 NOR  HN ES       1726 26.38                             118   -0.55 8  236 235 
 NOR  HZ I        1726 32.05         5.7 0.24            117            236 235 
 GUY2CHZ EP       1726  7.56                             111    0.57 7  303 235 
 GUY2CHN ES       1726 41.34                             111    0.30 7  303 235 
 GUY2CHZ I        1726 48.79         3.5 0.34                           303 235 
 PRA  HZ EP       1726 16.61                             106   -0.15 6  392 210 
 PRA  HE ES       1726 59.17                             106    0.74 6  392 210 
 PRA  HZ I        1727  4.80         4.8 0.32            105            392 210 
                                                                                
