 2016  510 1936 32.4 L   6.784 -73.142147.7  RSN 10 0.5 1.9LRSN                1
 GAP=138        1.20       3.5     4.8  6.4 -0.8700E+00  0.7802E+01  0.5638E+00E
 Epicentro: LOS SANTOS - SANTANDER                                             3
 ACTION:UPD 16-08-18 17:44 OP:cam  STATUS:               ID:20160510193632 L   I
 OLDACT:REG 16-05-10 20:20 OP:ak   STATUS:               ID:20160510192746     3
 2016-05-10-1927-46M.COL___268                                                 6
 STAT SP IPHASW D HRMM SECON CODA AMPLIT PERI AZIMU VELO AIN AR TRES W  DIS CAZ7
 BAR2 EZ EP       1936 52.18                             171   -0.0510 21.7 192 
 BAR2 EZ ES       1937  7.15                             171   -0.5510 21.7 192 
 BAR2 EZ I        1937  8.59        20.6 0.14            170           21.7 192 
 BRR  HZ EP       1936 54.25                             152    0.4210 72.4 300 
 BRR  HN ES       1937 11.03                             152    0.4910 72.4 300 
 BRR  HZ I        1937 12.54        14.2 0.22            152           72.4 300 
 PAM  EZ IP     D 1936 55.15                             151    0.2610 78.5  38 
 PAM  EN ES       1937 12.55                             151    0.1210 78.5  38 
 PAM  EZ I        1937 14.91         9.9 0.66            154           78.5  38 
 RUS  HZ EP       1936 56.28                             145    0.0610 98.8 176 
 RUS  HN ES       1937 14.94                             145    0.1510 98.8 176 
 RUS  HZ I        1937 15.97         8.5 0.40            145           98.8 176 
 PTB  HZ EP       1936 59.13                             132   -0.40 9  148 260 
 PTB  HN ES       1937 19.96                             132   -0.73 9  148 260 
 PTB  HZ I        1937 22.37         8.6 0.11            132            148 260 
 SPBC HZ EP       1937  0.88                             130   -0.07 9  162 219 
 SPBC HN ES       1937 22.73                             130   -0.48 9  162 219 
 SPBC HZ I        1937 29.01        15.3 0.10            130            162 219 
 ZAR  HZ EP       1937  5.75                             123    0.67 9  205 293 
 ZAR  HN ES       1937 31.43                             123    0.86 9  205 293 
 ZAR  HZ I        1937 33.44         9.3 0.12            123            205 293 
 NOR  HZ EP       1937  7.30                             119   -0.87 8  234 235 
 NOR  HE ES       1937 36.56                             119    0.49 8  234 235 
 NOR  HZ I        1937 41.42         7.7 0.32            119            234 235 
 SML  HZ EP       1937  8.96                             118   -0.37 8  245 335 
 SML  HN ES       1937 37.36                             118   -0.77 8  245 335 
 SML  HZ I        1937 41.95        14.0 0.10            119            245 335 
 CHI  HZ EP       1937 10.09                             118    0.05 8  247 195 
 CHI  HN ES       1937 39.99                             118    0.60 8  247 195 
 CHI  HZ I        1937 44.72         3.0 0.30            118            247 195 
                                                                                
