 2017  610 1040 38.9 L   6.990 -73.433  0.0  RSN  4 0.2 1.0LRSN                1
 GAP=275        0.56       3.8     8.2  9.0  0.2455E+02  0.6386E+02  0.2532E+02E
 Epicentro: SAN VICENTE DE CHUCURI - SANTANDER                                 3
 ACTION:UPD 17-09-14 16:51 OP:jn   STATUS:               ID:20170610104038 L   I
 OLDACT:REG 17-06-10 20:18 OP:edw  STATUS:               ID:20170610103739     3
 2017-06-10-1038-00M.COL___344                                                 6
 STAT SP IPHASW D HRMM SECON CODA AMPLIT PERI AZIMU VELO AIN AR TRES W  DIS CAZ7
 PTB  HZ EP       1040 58.38                              47   -0.4510  124 246 
 PTB  HN ES       1041 14.47                              47    0.1110  124 246 
 PTB  HZ I        1041 15.18         2.1 0.18             47            124 246 
 SPBC HZ EP       1041  5.28                              47    0.26 9  164 206 
 SPBC HE ES       1041 25.35                              47   -0.03 9  164 206 
 SPBC HZ I        1041 29.00         2.0 0.28             47            164 206 
 ZAR  HZ EP       1041  5.45                              47    0.08 9  167 290 
 ZAR  HN ES       1041 26.06                              47    0.05 9  167 290 
 ZAR  HZ I        1041 28.56         1.7 0.32             47            167 290 
 URE  HN EP   2   1041 15.82                              37    0.14 4  247 290 
                                                                                
