 2016  710 1010 10.0 L   7.177 -73.062157.4  RSN  4 0.1 1.3LRSN                1
 GAP=272        0.44       5.5     3.5  4.0  0.9265E+01 -0.1287E+01 -0.8824E+01E
 Epicentro: BUCARAMANGA - SANTANDER                                            3
 ACTION:UPD 17-03-29 16:49 OP:lp   STATUS:               ID:20160710101010 L   I
 OLDACT:REG 16-07-10 19:38 OP:edw  STATUS:               ID:20160710100000     3
 2016-07-10-0959-59S.COL___310                                                 6
 STAT SP IPHASW D HRMM SECON CODA AMPLIT PERI AZIMU VELO AIN AR TRES W  DIS CAZ7
 BAR2 EZ EP       1010 32.43                             156   -0.1010 66.1 192 
 BAR2 EZ ES       1010 49.94                             156   -0.1410 66.1 192 
 BAR2 EZ I        1010 50.86         4.9 0.26            154           66.1 192 
 BRR  HZ EP       1010 32.72                             154    0.2310 72.2 264 
 BRR  HN ES       1010 50.14                             154    0.1210 72.2 264 
 PTB  HZ EP       1010 40.04                             130    0.12 9  170 245 
 PTB  HE ES       1011  3.30                             130    0.06 9  170 245 
 PTB  HZ I        1011  4.38         1.8 0.38            130            170 245 
 ZAR  HZ EP       1010 42.83                             125   -0.15 9  201 280 
 ZAR  HN ES       1011  8.50                             125   -0.19 9  201 280 
                                                                                
