 2010  810 1227 18.3 L   7.551 -73.232130.0  RSN  4 0.7 1.5LRSN                1
 GAP=180        1.49      21.2    28.1 22.2 -0.4370E+03  0.2476E+03 -0.7055E+02E
 Epicentro: EL PLAYON - SANTANDER                                              3
 ACTION:UP  10-09-07 10:53 OP:vdl  STATUS:               ID:20100810122718 L   I
 2010-08-10-1223-23S.COL___125                                                 6
 STAT SP IPHASW D HRMM SECON CODA AMPLIT PERI AZIMU VELO SNR AR TRES W  DIS CAZ7
 GUE  SZ EP       1227 36.17                             160    -0.710   46  48 
 GUE  SZ I        1227 36.48         4.1 0.23                            46  48 
 GUE  SZ ES   1   1227 51.61                             160     0.2 7   46  48 
 GRA  SZ ES   2   1227 53.12                                     1.0 5   60  52 
 GRA  SZ I        1227 54.45        17.2 0.19                            60  52 
 BRR  HZ EP       1227 38.42                             149     0.610   72 227 
 BRR  HN ES   2   1227 52.09                             149    -0.9 5   72 227 
 BRR  HZ I        1227 56.01         7.2 0.03                            72 227 
 BAR2 SZ ES   2   1227 57.73                             139    -0.3 5  106 177 
                                                                                
