 2012 1010 1534 45.5 L   6.528 -73.509113.3  RSN  7 0.4 2.1LRSN                1
 GAP= 89        0.75       4.3     5.2  7.5 -0.1392E+01  0.1729E+01  0.2426E+01E
 Epicentro: EL CARMEN DE CHUCURI - SANTANDER                                   3
 ACTION:UPD 12-11-22 17:03 OP:ep   STATUS:               ID:20121010153445 L   I
 2012-10-10-1530-00M.COL___229                                                 6
 STAT SP IPHASW D HRMM SECON CODA AMPLIT PERI AZIMU VELO AIN AR TRES W  DIS CAZ7
 BAR2 SZ EP       1535  2.01                             161    0.3110 36.8  79 
 BAR2 SZ ES   1   1535 14.13                             161   -0.20 7 36.8  79 
 BAR2 SZ I        1535 15.95       207.2 0.48                          36.8  79 
 BRR  HZ EP       1535  2.99                             147   -0.0510 67.9 341 
 BRR  HE ES   1   1535 16.86                             147    0.14 7 67.9 341 
 BRR  HN I        1535 17.35        76.4 0.14                          67.9 341 
 GIR2 SZ EP       1535  3.55                             146    0.1510 70.2  30 
 RUS  HZ EP       1535  4.93                             141   -0.0110 84.5 146 
 RUS  HN ES   2   1535 20.60                             141    0.52 5 84.5 146 
 RUS  HN I        1535 23.78        10.2 0.46                          84.5 146 
 PAM  SZ EP       1535  8.68                             128    0.0810  127  45 
 PAM  SZ I        1535 10.16         8.3 0.20                           127  45 
 PAM  SN ES   1   1535 25.81                             128   -0.80 7  127  45 
 ZAR  HN ES   3   1535 36.91                             117    1.05 2  183 306 
 ZAR  HN I        1535 40.98        14.8 0.14                           183 306 
 NOR  SN ES   2   1535 35.17                             117   -1.02 4  185 235 
                                                                                
