 2017  410 1543 26.0 L   5.859 -73.719128.9  RSN  5 0.2 1.3LRSN                1
 GAP= 94        0.39       1.8     2.1  4.8 -0.1137E+01 -0.1546E-01  0.5168E+00E
 Epicentro: PUENTE NACIONAL - SANTANDER                                        3
 ACTION:UPD 17-05-30 21:10 OP:jn   STATUS:               ID:20170410154326 L   I
 OLDACT:REG 17-04-10 20:48 OP:cog  STATUS:               ID:20170410153745     3
 2017-04-10-1538-00M.COL___371                                                 6
 STAT SP IPHASW D HRMM SECON CODA AMPLIT PERI AZIMU VELO AIN AR TRES W  DIS CAZ7
 RUS  HZ EP       1543 45.84                             150   -0.1610 70.5  87 
 RUS  HN ES   3   1544  1.41                             150   -0.21 2 70.5  87 
 BAR2 EZ EP       1543 47.84                             140    0.0910  100  36 
 BAR2 EZ ES       1544  4.72                             140   -0.0110  100  36 
 BAR2 EZ I        1544  6.21         7.0 0.34            144            100  36 
 PTB  HZ EP       1543 48.42                             137    0.1310  111 313 
 PTB  HE ES   3   1544  6.31                             137    0.61 2  111 313 
 PTB  HZ I        1544 12.19         3.3 0.26            138            111 313 
 NOR  HN ES       1544  8.83                             131   -0.1710  131 256 
 CHI  HZ EP       1543 50.99                             131   -0.06 9  136 181 
 CHI  HN ES       1544 10.76                             131    0.15 9  136 181 
 CHI  HZ I        1544 11.65         1.6 0.40            137            136 181 
                                                                                
