 2011  410 1101  1.4 L   6.739 -73.102141.2  RSN  7 0.3 2.2LRSN                1
 GAP=175        0.58       5.8     5.1  5.4 -0.1784E+02  0.2332E+01  0.8697E+01E
 Epicentro: LOS SANTOS - SANTANDER                                             3
 ACTION:UP  11-06-22 15:30 OP:REBC STATUS:               ID:20110410110101 L   I
 2011-04-10-1100-00M.COL___139                                                 6
 STAT SP IPHASW D HRMM SECON CODA AMPLIT PERI AZIMU VELO SNR AR TRES W  DIS CAZ7
 BAR2 SZ IP     C 11 1 20.49                             172     0.110   19 209 
 BAR2 SZ ES   1   11 1 35.22                             172     0.0 7   19 209 
 BAR2 SZ I        11 1 36.35        54.3 0.25                            19 209 
 BRR  HZ IP     C 11 1 22.37                             149    -0.110   79 301 
 BRR  HZ I        11 1 24.25        68.7 0.19                            79 301 
 BRR  HN ES   1   11 1 39.27                             149     0.3 7   79 301 
 PAM  SZ EP       11 1 23.27                             149     0.010   80  34 
 PAM  SZ I        11 1 23.62        12.5 0.12                            80  34 
 PAM  SN ES   1   11 1 40.19                             149    -0.2 7   80  34 
 NOR  SZ EP       11 1 37.16                             117     0.3 8  235 236 
 NOR  SN ES   1   11 2  4.01                             117    -0.6 6  235 236 
 HEL  HZ EP   2   11 1 41.78                             113     0.0 4  275 257 
 HEL  HZ I        11 2 19.66         7.5 0.45                           275 257 
 MON  HZ EP   4   11 1 47.95                             107    -3.2 0  362 309 
 MON  HZ I        11 1 54.95         5.1 0.41                           362 309 
 MON  HN ES   4   11 2 24.03                             107    -5.9 0  362 309 
 PRA  HZ EP   3   11 1 54.81                             106     0.4 1  389 211 
 PRA  HN ES   3   11 2 36.46                             106     0.8 1  389 211 
                                                                                
