 2014  210 1459 17.3 L   6.803 -73.152140.2  RSN 11 0.5 2.3LRSN                1
 GAP=136        1.20       3.3     4.7  6.2 -0.8080E+00  0.7934E+01  0.2020E+01E
 Epicentro: LOS SANTOS - SANTANDER                                             3
 ACTION:UPD 14-03-10 08:09 OP:ep   STATUS:               ID:20140210145917 L   I
 OLDACT:REG 14-02-10 16:52 OP:carl STATUS:               ID:20140210145748     3
 2014-02-10-1457-48M.COL___227                                                 6
 STAT SP IPHASW D HRMM SECON CODA AMPLIT PERI AZIMU VELO AIN AR TRES W  DIS CAZ7
 BAR2 SZ IP     D 1459 36.33                             170    0.1010 23.6 188 
 BAR2 SZ ES       1459 50.77                             170   -0.2510 23.6 188 
 BAR2 SZ I        1459 53.31        93.8 0.22            170           23.6 188 
 BRR  HZ IP     C 1459 38.19                             152    0.4310 70.4 299 
 BRR  HN ES       1459 54.71                             152    0.9610 70.4 299 
 BRR  HZ I        1459 55.97        30.1 0.12            150           70.4 299 
 PAM  SZ EP       1459 39.19                             150    0.2910 77.6  40 
 PAM  SN ES       1459 55.88                             150    0.1110 77.6  40 
 PAM  SZ I        1459 58.37        35.2 0.44            151           77.6  40 
 RUS  HZ EP       1459 40.36                             142   -0.1410  101 176 
 RUS  HN ES       1459 57.78                             142   -0.8410  101 176 
 RUS  HZ I        15 0  0.57        18.1 0.38            144            101 176 
 PTB  HZ EP       1459 43.00                             131   -0.72 9  147 259 
 PTB  HN ES       15 0  3.61                             131   -0.75 9  147 259 
 PTB  HZ I        15 0  6.16        23.0 0.18            130            147 259 
 SPBC HZ EP       1459 45.32                             128   -0.00 9  163 219 
 SPBC HN ES       15 0  7.35                             128    0.14 9  163 219 
 SPBC HZ I        15 0 11.76        24.8 0.34            128            163 219 
 ZAR  HZ EP       1459 49.66                             121    0.39 9  203 292 
 ZAR  HN ES       15 0 14.51                             121    0.28 9  203 292 
 ZAR  HZ I        15 0 20.36        24.1 0.40            121            203 292 
 NOR  HZ EP       1459 52.42                             117   -0.21 8  234 234 
 NOR  HE ES       15 0 20.05                             117   -0.17 8  234 234 
 NOR  HZ I        15 0 23.48        16.5 0.22            118            234 234 
 SML  HZ EP       1459 52.96                             116   -0.55 8  243 335 
 SML  HE ES       15 0 21.26                             116   -0.53 8  243 335 
 SML  HZ I        15 0 32.06        16.1 0.10            117            243 335 
 CHI  HZ EP       1459 54.78                             116    0.11 8  249 195 
 CHI  HE ES       15 0 24.82                             116    0.97 8  249 195 
 CHI  HZ I        15 0 29.96         5.2 0.26            117            249 195 
 HEL  HZ EP   4   1459 58.78                             114    1.65 0  271 256 
 HEL  HN ES   4   15 0 25.99                             114   -2.23 0  271 256 
 PRA  HZ EP       15 0 10.82                             106    0.23 6  392 209 
 PRA  HE ES       15 0 52.74                             106    0.56 6  392 209 
 PRA  HZ I        15 0 58.17         6.5 0.24            106            392 209 
                                                                                
