 2011  610 1740  1.9 L   6.759 -73.081148.7  RSN  8 0.3 2.2LRSN                1
 GAP=166        0.67       3.0     5.8  5.5 -0.6134E+01  0.3744E+01  0.1075E+01E
 Epicentro: LOS SANTOS - SANTANDER                                             3
 ACTION:UP  11-07-14 19:04 OP:ep   STATUS:               ID:20110610174001 L   I
 2011-06-10-1737-29S.COL___132                                                 6
 STAT SP IPHASW D HRMM SECON CODA AMPLIT PERI AZIMU VELO SNR AR TRES W  DIS CAZ7
 BAR2 SZ IP       1740 21.62                             171    -0.210   22 211 
 BAR2 SZ ES   1   1740 37.51                             171     0.1 7   22 211 
 BAR2 SZ I        1740 39.66        35.4 0.37                            22 211 
 BRR  HZ EP   1   1740 23.59                             150    -0.2 7   80 299 
 BRR  HE ES   1   1740 40.67                             150    -0.3 7   80 299 
 BRR  HZ I        1740 43.27        53.1 0.11                            80 299 
 RUS  HZ EP   1   1740 25.50                             146    -0.1 7   96 180 
 RUS  HZ I        1740 27.06        11.1 0.34                            96 180 
 RUS  HN ES   1   1740 44.37                             146     0.3 7   96 180 
 GRA  SZ EP   1   1740 27.45                             137    -0.1 7  128  14 
 GRA  SZ ES   1   1740 47.41                             137    -0.2 7  128  14 
 GRA  SZ I        1740 50.32        18.7 0.28                           128  14 
 OCA  SZ EP   1   1740 31.00                             129     0.1 7  166 351 
 OCA  SZ ES   1   1740 54.37                             129     0.8 7  166 351 
 OCA  SZ I        1740 57.17        30.4 0.34                           166 351 
 NOR  SE ES   1   1741  6.32                             119    -0.1 6  238 236 
 TOL  SZ EP   1   1740 50.89                             110     0.4 5  345 226 
 PRA  HZ EP   1   1740 55.19                             107    -0.3 4  392 211 
 PRA  HN ES   1   1741 37.64                             107     0.4 4  392 211 
                                                                                
