 2012  210 1848 23.7 L   6.790 -73.144149.0  RSN 11 0.4 2.6LRSN                1
 GAP=137        0.79       3.8     3.8  5.7  0.1373E+01  0.6416E+01  0.6161E+01E
 ACTION:UP  12-03-07 16:29 OP:epov STATUS:               ID:20120210184823 L   I
 2012-02-10-1846-00S.MAN___181                                                 6
 STAT SP IPHASW D HRMM SECON CODA AMPLIT PERI AZIMU VELO AIN AR TRES W  DIS CAZ7
 BAR2 SZ IP       1848 43.66                             171   -0.0610 22.2 191 
 BAR2 SZ ES   1   1848 59.19                             171   -0.13 7 22.2 191 
 BAR2 SZ I        1849  1.73        71.2 0.22                          22.2 191 
 BRR  HZ EP       1848 45.66                             153    0.3910 71.9 299 
 BRR  HE ES   1   1849  2.80                             153    0.74 7 71.9 299 
 BRR  HZ I        1849  5.33       129.8 0.12                          71.9 299 
 PAM  SZ EP   1   1848 46.55                             151    0.22 7 78.2  39 
 PAM  SE ES   1   1849  3.89                             151   -0.08 7 78.2  39 
 RUS  HZ EP       1848 47.51                             145   -0.2110 99.4 176 
 RUS  HN ES   1   1849  6.12                             145   -0.30 7 99.4 176 
 RUS  HZ I        1849  7.31        29.6 0.19                          99.4 176 
 PTB  HZ EP   1   1848 50.27                             133   -0.68 7  148 259 
 PTB  HN ES   1   1849 11.53                             133   -0.66 7  148 259 
 ZAR  HZ EP   1   1848 55.88                             123   -0.57 6  205 292 
 ZAR  HE ES       1849 21.80                             123   -0.16 9  205 292 
 ZAR  HZ I        1849 28.69        53.1 0.23                           205 292 
 NOR  SZ EP       1848 59.56                             119   -0.03 8  234 235 
 NOR  SN ES   1   1849 28.09                             119    0.53 6  234 235 
 CHI  HZ EP   1   1849  1.61                             118    0.12 6  248 195 
 CHI  HN ES   1   1849 31.36                             118    0.41 6  248 195 
 CHI  HZ I        1849 38.95        20.5 0.56                           248 195 
 HEL  HN ES   1   1849 35.76                             115    0.18 6  272 256 
 HEL  HZ I        1849 42.01        19.2 0.32                           272 256 
 RREF HZ EP   1   1849 10.79                             111    0.85 5  321 230 
 RREF HZ I        1849 55.88        30.2 0.38                           321 230 
 PRA  HZ EP   1   1849 17.20                             107   -0.05 4  391 210 
                                                                                
