 2010  610 1146  3.8 L   7.007 -73.650103.9  RSN  5 0.3 1.2LRSN                1
 GAP=248        0.45       5.1    21.2 15.4 -0.7873E+02  0.2214E+03 -0.4286E+02E
 Epicentro: SAN VICENTE DE CHUCURI - SANTANDER                                 3
 ACTION:UP  10-08-24 10:09 OP:vdl  STATUS:               ID:20100610114603 L   I
 2010-06-10-1143-43S.COL___113                                                 6
 STAT SP IPHASW D HRMM SECON CODA AMPLIT PERI AZIMU VELO SNR AR TRES W  DIS CAZ7
 GIR2 SZ EP       1146 19.29                             150    -0.210   51  81 
 BAR2 SZ EP       1146 20.90                             142     0.110   69 132 
 BAR2 SZ ES   3   1146 34.53                             142     0.5 2   69 132 
 GUE  SZ EP       1146 25.42                             125     0.010  121  41 
 GUE  SZ ES   2   1146 41.97                             125    -0.3 5  121  41 
 BRI  SZ EP   3   1146 25.94                             125     0.6 2  123  50 
 BRI  SZ ES   3   1146 42.66                             125     0.5 2  123  50 
 RUS  HZ EP   2   1146 27.32                             121     0.0 5  138 153 
 RUS  HN ES   3   1146 44.77                             121    -0.9 2  138 153 
 RUS  HZ I        1146 48.32         2.5 0.24                           138 153 
                                                                                
