 2016  510 1246 27.9 L   6.789 -73.158141.8  RSN 16 0.6 2.2LRSN                1
 GAP=135        1.15       2.8     3.9  6.1 -0.7344E+00  0.7753E+01  0.6760E+00E
 Epicentro: LOS SANTOS - SANTANDER                                             3
 ACTION:UPD 16-08-18 17:44 OP:cam  STATUS:               ID:20160510124627 L   I
 OLDACT:REG 16-05-10 19:22 OP:ak   STATUS:               ID:20160510123750     3
 2016-05-10-1237-50M.COL___288                                                 6
 STAT SP IPHASW D HRMM SECON CODA AMPLIT PERI AZIMU VELO AIN AR TRES W  DIS CAZ7
 BAR2 EZ EP       1246 47.31                             171    0.2910 22.0 187 
 BAR2 EZ ES       1247  1.94                             171    0.0010 22.0 187 
 BAR2 EZ I        1247  2.99        56.7 0.28            170           22.0 187 
 BRR  HZ IP     C 1246 49.20                             152    0.6210 70.5 300 
 BRR  HE ES       1247  5.61                             152    0.9010 70.5 300 
 BRR  HZ I        1247 10.45        23.7 0.39            146           70.5 300 
 PAM  EZ EP       1246 50.31                             150    0.5110 79.2  40 
 PAM  EN ES       1247  6.96                             150    0.0710 79.2  40 
 PAM  EZ I        1247  9.41        41.8 0.56            141           79.2  40 
 RUS  HZ EP       1246 51.28                             143    0.1010 99.5 175 
 RUS  HN ES       1247  8.37                             143   -0.9710 99.5 175 
 RUS  HZ I        1247 11.43        14.6 0.28            137           99.5 175 
 PTB  HZ EP   1   1246 53.96                             132   -0.43 7  146 259 
 PTB  HN ES       1247 14.56                             132   -0.50 9  146 259 
 PTB  HZ I        1247 17.11        15.2 0.21            124            146 259 
 OCA  HZ EP   2   1246 55.02                             129   -0.97 5  161 354 
 OCA  HN ES       1247 17.39                             129   -0.52 9  161 354 
 OCA  HZ I        1247 25.20        45.2 0.48            120            161 354 
 SPBC HZ EP   2   1246 56.46                             129    0.54 5  161 219 
 SPBC HN ES       1247 18.32                             129    0.54 9  161 219 
 SPBC HZ I        1247 20.21        22.0 0.18            122            161 219 
 ZAR  HZ EP       1247  0.32                             122    0.33 9  203 293 
 ZAR  HN ES       1247 25.45                             122    0.42 9  203 293 
 ZAR  HZ I        1247 33.88        13.7 0.26            114            203 293 
 NOR  HZ EP   2   1247  3.77                             118    0.57 4  233 234 
 NOR  HN ES       1247 30.92                             118    0.18 8  233 234 
 NOR  HZ I        1247 35.65         8.0 0.14            111            233 234 
 SML  HZ EP       1247  3.84                             117   -0.51 8  244 336 
 SML  HN ES       1247 31.95                             117   -0.84 8  244 336 
 SML  HZ I        1247 35.47        20.7 0.10            109            244 336 
 CHI  HZ EP       1247  5.35                             117    0.14 8  247 195 
 CHI  HN ES       1247 33.75                             117   -0.57 8  247 195 
 CHI  HZ I        1247 38.58        25.8 0.04            110            247 195 
 HEL  HZ EP   2   1247  8.70                             114    0.98 4  270 256 
 HEL  HE ES       1247 38.30                             114   -0.49 8  270 256 
 HEL  HZ I        1247 49.86         6.8 0.13            108            270 256 
 URE  HZ EP   2   1247  9.63                             113    0.96 4  283 292 
 URE  HN ES       1247 39.73                             113   -0.75 7  283 292 
 URE  HZ I        1247 41.40        12.0 0.14            106            283 292 
 CBOC HZ EP   2   1247 14.94                             109    0.49 3  332 252 
 CBOC HN ES   1   1247 50.78                             109    0.02 5  332 252 
 PRA  HZ EP   2   1247 20.87                             106   -0.21 3  390 209 
 PRA  HN ES       1248  2.39                             106   -0.17 6  390 209 
 PRA  HZ I        1248  9.00         4.1 0.22            100            390 209 
 SJC  HZ EP   9   1247 19.90                             105   -3.45 0  409 327 
 SJC  HN ES       1248  3.40                                    0.24 6  409 327 
                                                                                
