 2017  210 1518 58.7 L   6.863 -73.141151.2  RSN 19 0.5 2.5LRSN                1
 GAP= 69        1.05       3.8     3.3  5.1 -0.1036E+01  0.3997E+01  0.3055E+01E
 Epicentro: LOS SANTOS - SANTANDER                                             3
 ACTION:UPD 17-05-24 15:34 OP:jn   STATUS:               ID:20170210151858 L   I
 OLDACT:UP  17-02-11 00:04 OP:and  STATUS:               ID:20170210151748     3
 OLDACT:UP  17-02-11 00:03 OP:and  STATUS:               ID:20170210151748     3
 OLDACT:UP  17-02-11 00:02 OP:and  STATUS:               ID:20170210151748     3
 OLDACT:UP  17-02-11 00:00 OP:and  STATUS:               ID:20170210151748     3
 OLDACT:UP  17-02-10 23:59 OP:and  STATUS:               ID:20170210151748     3
 OLDACT:REG 17-02-10 20:40 OP:and  STATUS:               ID:20170210151748     3
 2017-02-10-1518-00M.COL___363                                                 6
 STAT SP IPHASW D HRMM SECON CODA AMPLIT PERI AZIMU VELO AIN AR TRES W  DIS CAZ7
 BAR2 EZ IP     C 1519 19.00                             168   -0.1110 30.3 189 
 BAR2 EZ ES       1519 34.03                             168   -1.0210 30.3 189 
 BAR2 EZ I        1519 35.32        73.5 0.21            166           30.3 189 
 BRR  HZ IP     C 1519 20.81                             154    0.5510 68.6 293 
 BRR  HN ES       1519 38.04                             154    0.9310 68.6 293 
 BRR  HZ I        1519 41.71        51.2 0.32            153           68.6 293 
 PAM  EZ EP   2 D 1519 21.87                             153    0.72 5 71.8  43 
 PAM  EN ES       1519 39.01                             153    0.3210 71.8  43 
 PAM  EZ I        1519 41.31        42.6 0.48            156           71.8  43 
 RUS  HZ EP       1519 23.06                             143   -0.3910  107 177 
 RUS  HZ I        1519 42.85        39.3 0.26            141            107 177 
 PTB  HZ EP   2   1519 25.55                             133   -0.71 5  150 256 
 PTB  HN ES   2   1519 46.93                             133   -0.85 5  150 256 
 PTB  HZ I        1519 53.82        38.5 0.40            131            150 256 
 TAM  HZ IP     D 1519 27.56                             131    0.65 9  157 107 
 TAM  HN ES       1519 48.68                             131   -0.27 9  157 107 
 TAM  HZ I        1519 57.85        27.3 0.44            132            157 107 
 ZAR  HZ EP       1519 31.05                             124   -0.21 9  202 290 
 ZAR  HN ES       1519 56.49                             124   -0.19 9  202 290 
 ZAR  HZ I        1520  2.20        34.4 0.20            123            202 290 
 NOR  HZ EP       1519 35.11                             119   -0.08 8  239 233 
 NOR  HN ES       1520  3.45                             119   -0.23 8  239 233 
 NOR  HZ I        1520  7.78        23.1 0.24            118            239 233 
 CHI  HZ EP       1519 37.27                             117   -0.14 8  255 195 
 CHI  HN ES   3   1520  7.15                             117   -0.48 2  255 195 
 CHI  HZ I        1520  8.96        22.8 0.38            117            255 195 
 ROSC BZ EP   9   1519 39.11                             117    1.35 0  259 210 
 ROSC BN ES       1520 10.13                             117    0.53 8  259 210 
 ROSC BZ I        1520 13.79        42.9 0.35            116            259 210 
 URE  HZ EP       1519 39.56                             115   -0.21 7  282 291 
 URE  HE ES   4   1520 10.35                             115   -1.49 0  282 291 
 URE  HZ I        1520 24.11        19.5 0.26            114            282 291 
 ELA  HZ EP   9   1519 48.97                             111    2.66 0  334 229 
 ELA  HN ES       1520 25.95                             110   -0.18 7  334 229 
 ELA  HZ I        1520 30.89        10.6 0.38            110            334 229 
 CBOC HZ EP       1519 47.16                             111    1.05 7  336 251 
 CBOC HN ES   4   1520 21.80                             111   -1.32 0  336 251 
 CBOC HZ I        1520 38.99         5.2 0.50            110            336 251 
 ANIL HZ EP   9   1519 50.55                             109    1.25 0  363 224 
 ANIL HN ES       1520 30.40                             109    0.36 6  363 224 
 PRA  HZ EP       1519 53.53                             107    0.42 6  398 209 
 PRA  HN ES       1520 35.65                             107    0.07 6  398 209 
 PRA  HZ I        1520 39.28        15.4 0.72            107            398 209 
 ORTC HZ EP       1519 53.60                             107    0.14 6  401 216 
 ORTC HN ES   3   1520 37.67                             107    1.46 1  401 216 
 ORTC HZ I        1520 42.13         8.9 0.56            106            401 216 
 SJC  HZ EP       1519 53.28                             107   -0.48 6  404 326 
 SJC  HN ES   4   1520 34.41                             107   -2.33 0  404 326 
 SJC  HZ I        1520 40.45         4.0 0.26            107            404 326 
 PAL  HZ EP       1519 54.51                             106    0.03 6  410 238 
 PAL  HN ES       1520 37.78                             106   -0.23 6  410 238 
 PAL  HZ I        1520 41.49         4.8 0.25            106            410 238 
 CRJC HZ EP   3   1519 59.43                             104   -1.07 1  461   4 
 CRJC HN ES       1520 47.91                             104   -0.82 5  461   4 
                                                                                
