 2010  910 1801 36.3 L   6.557 -73.492112.9  RSN 12 0.6 2.7LRSN                1
 GAP= 78        1.26       5.3     8.8 12.7 -0.1975E+02  0.5913E+02 -0.7800E+00E
 Epicentro: EL CARMEN DE CHUCURI - SANTANDER                                   3
 ACTION:UP  11-02-18 11:01 OP:tino STATUS:               ID:20100910180136 L   I
 2010-09-10-1757-37S.COL___120                                                 6
 STAT SP IPHASW D HRMM SECON CODA AMPLIT PERI AZIMU VELO SNR AR TRES W  DIS CAZ7
 BAR2 SZ IP     C 18 1 52.24                             162    -0.210   34  83 
 BAR2 SZ ES   2   18 2  4.09                             162    -0.8 5   34  83 
 BRR  HZ EP       18 1 53.10                             148    -0.610   66 338 
 GIR2 SZ IP     D 18 1 54.68                             147     0.710   67  30 
 GIR2 SZ ES   2   18 2  8.90                             147     1.2 5   67  30 
 RUS  HZ IP     D 18 1 55.36                             140    -0.510   86 148 
 RUS  HN ES   2   18 2 11.05                             140     0.0 5   86 148 
 RUS  HZ I        18 2 16.74        55.5 0.35                            86 148 
 GRA  SZ EP       18 2  3.41                             120     0.5 9  165  27 
 GRA  SZ ES   2   18 2 24.07                             120     0.5 5  165  27 
 GRA  SZ I        18 2 26.60        95.5 0.35                           165  27 
 OCA  SZ EP   1   18 2  4.43                             116    -0.8 7  187   6 
 OCA  SZ ES   2   18 2 27.17                             116    -0.5 4  187   6 
 OCA  SZ I        18 2 30.41        82.6 0.51                           187   6 
 ROSC BZ EP   1   18 2  9.32                             113     1.2 6  211 206 
 ROSC BN ES   2   18 2 34.11                             113     1.2 4  211 206 
 CHI  HZ EP   1   18 2  8.27                             113    -0.3 6  215 187 
 CHI  HZ I        18 2 10.12        28.5 0.33                           215 187 
 HEL  HZ EP   1   18 2  9.61                             111    -0.5 6  229 260 
 HEL  HN ES   2   18 2 36.37                             111    -0.1 4  229 260 
 HEL  HZ I        18 2 39.80        31.5 0.44                           229 260 
 RREF HZ EP   1   18 2 16.00                             107     0.2 6  275 228 
 RREF HE ES   2   18 2 46.87                             107     0.3 4  275 228 
 RREF HZ I        18 2 51.70        35.3 0.83                           275 228 
 TOL  SZ EP   1   18 2 18.23                             105     0.2 5  298 223 
 TOL  SZ ES   2   18 2 51.03                             105     0.4 4  298 223 
 PRA  HZ EP   1   18 2 23.08                             102    -0.9 5  350 206 
 PRA  HE ES   2   18 3  0.60                             102    -0.5 3  350 206 
 PRA  HZ I        18 3  5.95        24.4 0.27                           350 206 
                                                                                
