 2017  210 1849 38.8 L   6.789 -73.109140.0  RSN  9 0.4 1.9LRSN                1
 GAP=142        0.83       3.4     3.7  4.8  0.1473E+00  0.3082E+01  0.2805E+01E
 Epicentro: LOS SANTOS - SANTANDER                                             3
 ACTION:UPD 17-05-24 15:34 OP:jn   STATUS:               ID:20170210184938 L   I
 OLDACT:UP  17-02-11 00:52 OP:and  STATUS:               ID:20170210184740     3
 OLDACT:UP  17-02-11 00:51 OP:and  STATUS:               ID:20170210184740     3
 OLDACT:UP  17-02-11 00:51 OP:and  STATUS:               ID:20170210184740     3
 OLDACT:UP  17-02-11 00:50 OP:and  STATUS:               ID:20170210184740     3
 OLDACT:UP  17-02-11 00:50 OP:and  STATUS:               ID:20170210184740     3
 OLDACT:REG 17-02-10 21:43 OP:and  STATUS:               ID:20170210184740     3
 2017-02-10-1848-00M.COL___363                                                 6
 STAT SP IPHASW D HRMM SECON CODA AMPLIT PERI AZIMU VELO AIN AR TRES W  DIS CAZ7
 BAR2 EZ EP       1849 57.56                             170   -0.1510 23.2 200 
 BAR2 EZ ES       1850 12.01                             170   -0.4710 23.2 200 
 BAR2 EZ I        1850 13.60        19.9 0.26            169           23.2 200 
 BRR  HZ EP       1849 59.37                             150   -0.1810 75.3 298 
 BRR  HN ES       1850 16.05                             150    0.3010 75.3 298 
 BRR  HZ I        1850 19.98        18.1 0.20            150           75.3 298 
 PAM  EZ IP     C 1850  0.27                             151   -0.0210 75.8  37 
 PAM  EN ES       1850 17.19                             151    0.1310 75.8  37 
 PAM  EZ I        1850 19.88        12.9 0.52            153           75.8  37 
 RUS  HZ EP       1850  1.87                             143    0.0110 99.2 178 
 RUS  HN ES       1850 20.34                             143    0.4710 99.2 178 
 RUS  HZ I        1850 21.51        10.2 0.24            144           99.2 178 
 PTB  HZ EP   9   1850  4.49                             130   -1.14 0  151 260 
 PTB  HN ES       1850 25.89                             130    0.46 9  151 260 
 PTB  HZ I        1850 27.15         8.3 0.10            130            151 260 
 ZAR  HZ EP       1850 11.69                             121    0.40 8  208 292 
 ZAR  HE ES       1850 36.60                             121   -0.05 8  208 292 
 ZAR  HZ I        1850 41.42         9.4 0.34            121            208 292 
 NOR  HE ES       1850 41.79                             117   -0.51 8  237 235 
 NOR  HZ I        1850 43.63         6.3 0.14            118            237 235 
 CHI  HZ EP       1850 16.11                             116   -0.05 8  249 196 
 CHI  HN ES   2   1850 46.55                             116    1.24 4  249 196 
 CHI  HZ I        1850 52.50         3.5 0.48            117            249 196 
 PRA  HZ EP       1850 31.76                             106   -0.46 6  393 210 
 SJC  HZ EP   4 C 1850 32.15                             105   -2.38 0  412 327 
 SJC  HN ES   4   1851 14.11                             105   -3.91 0  412 327 
                                                                                
