 2016 1210 1927 25.3 L   6.744 -72.967109.3  RSN  4 0.3 1.3LRSN                1
 GAP=256        0.74       9.6     9.3 11.4  0.6617E+02 -0.2839E+02 -0.7102E+02E
 Epicentro: CEPITA - SANTANDER                                                 3
 ACTION:UPD 17-01-11 20:13 OP:rebc STATUS:               ID:20161210192725 L   I
 OLDACT:DUP 16-12-11 00:20 OP:dnl  STATUS:               ID:20161210191750d    3
 2016-12-10-1918-00M.COL___379                                                 6
 STAT SP IPHASW D HRMM SECON CODA AMPLIT PERI AZIMU VELO AIN AR TRES W  DIS CAZ7
 RUS  HZ EP   4   1927 47.50                             136    2.34 0 95.1 188 
 RUS  HN ES       1928  0.72                             136    0.0410 95.1 188 
 RUS  HZ I        1928  9.65         1.3 0.38            145           95.1 188 
 PTB  HZ EP       1927 50.89                             119   -0.59 9  166 262 
 PTB  HN ES       1928 12.05                             119    0.12 9  166 262 
 PTB  HZ I        1928 19.07         4.2 0.42            128            166 262 
 ZAR  HZ EP       1927 58.38                             111    0.42 8  225 292 
 ZAR  HE ES       1928 23.40                             111   -0.07 8  225 292 
 ZAR  HZ I        1928 28.29         3.3 0.30            120            225 292 
 GUY2CHZ EP       1928  9.22                             103    0.22 7  314 238 
 GUY2CHN ES   4   1928 45.65                             103    2.53 0  314 238 
 GUY2CHZ I        1928 50.51         1.8 0.48                           314 238 
                                                                                
