 2017  310 1702  0.5 L   6.798 -73.141142.3  RSN 25 0.5 3.0LRSN 3.4WRSN        1
 SPEC AVERAGE  MO 14.2 ST  1.2 OM  2.7 f0 1.82 R1.3045 AL 0.00 WI 30.0 MW  3.4 3
 SPEC SD       MO  0.3 ST  1.8 OM  0.6 f0 1.17 R0.6123 AL      WI      MW  0.2 3
 GAP= 66        0.85       2.5     2.2  3.8 -0.7785E+00  0.1973E+01  0.1510E+01E
 Epicentro: LOS SANTOS - SANTANDER                                             3
 SPEC RUS HH Z MO 14.5 ST0.579 OM  2.5 f0 1.49 R1.2913 AL-0.00 WI 30.0 MW  3.6 3
 SPEC RUS HH Z T17 240 K 0.000 GD  173 VS 5.20 DE 3.50 Q0750.0 QA 1.50 VS 5.20 3
 SPEC ZAR HH Z MO 14.1 ST  4.9 OM  2.0 f0 3.95 R0.4871 AL-0.00 WI 30.0 MW  3.4 3
 SPEC ZAR HH Z T17 256 K 0.000 GD  249 VS 5.20 DE 3.50 Q0750.0 QA 1.50 VS 5.20 3
 SPEC CHI HH Z MO 14.2 ST0.183 OM  2.0 f0 1.26 R1.5270 AL-0.00 WI 30.0 MW  3.4 3
 SPEC CHI HH Z T17 3 5 K 0.000 GD  286 VS 5.20 DE 3.50 Q0750.0 QA 1.50 VS 5.20 3
 SPECGUY2CHH Z MO 14.5 ST  0.1 OM  2.2 f00.908 R  2.12 AL-0.00 WI 30.0 MW  3.6 3
 SPECGUY2CHH Z T17 317 K       GD333.1 VS 5.20 DE 3.50 Q0750.0 QA 1.50 VS 5.20 3
 SPEC PRA HH Z MO 14.3 ST0.167 OM  2.0 f0 1.08 R1.7815 AL-0.00 WI 30.0 MW  3.5 3
 SPEC PRA HH Z T17 334 K 0.000 GD  417 VS 5.20 DE 3.50 Q0750.0 QA 1.50 VS 5.20 3
 SPEC SJC HH Z MO 14.1 ST0.210 OM  1.8 f0 1.34 R1.4358 AL-0.00 WI 30.0 MW  3.4 3
 SPEC SJC HH Z T17 333 K 0.000 GD  433 VS 5.20 DE 3.50 Q0750.0 QA 1.50 VS 5.20 3
 OLDACT:UP  17-03-10 23:32 OP:and  STATUS:               ID:20170310165750d    3
 OLDACT:UP  17-03-10 23:31 OP:and  STATUS:               ID:20170310165750d    3
 OLDACT:UP  17-03-10 23:29 OP:and  STATUS:               ID:20170310165750d    3
 OLDACT:UP  17-03-10 23:28 OP:and  STATUS:               ID:20170310165750d    3
 OLDACT:UP  17-03-10 23:28 OP:and  STATUS:               ID:20170310165750d    3
 OLDACT:UP  17-03-10 23:26 OP:and  STATUS:               ID:20170310165750d    3
 OLDACT:UP  17-03-10 23:26 OP:and  STATUS:               ID:20170310165750d    3
 OLDACT:UP  17-03-10 23:24 OP:and  STATUS:               ID:20170310165750d    3
 OLDACT:DUP 17-03-10 23:22 OP:and  STATUS:               ID:20170310165750d    3
 OLDACT:UP  17-03-10 23:22 OP:and  STATUS:               ID:20170310165749     3
 OLDACT:UP  17-03-10 23:22 OP:and  STATUS:               ID:20170310165749     3
 OLDACT:REG 17-03-10 21:11 OP:and  STATUS:               ID:20170310165749     3
 ACTION:UPD 17-05-25 18:38 OP:jn   STATUS:               ID:20170310170200 L   I
 OLDACT:UP  17-03-10 23:34 OP:and  STATUS:               ID:20170310165750d    3
 OLDACT:UP  17-03-10 23:32 OP:and  STATUS:               ID:20170310165750d    3
 2017-03-10-1658-00M.COL___406                                                 6
 STAT SP IPHASW D HRMM SECON CODA AMPLIT PERI AZIMU VELO AIN AR TRES W  DIS CAZ7
 BAR2 EZ IP     C 17 2 19.68                             170   -0.0110 23.2 191 
 BAR2 EZ ES       17 2 34.88                             170    0.2110 23.2 191 
 BAR2 EZ I        17 2 36.32       244.0 0.54            167           23.2 191 
 BRR  HZ IP     C 17 2 21.44                             152    0.1510 71.8 298 
 BRR  HN ES       17 2 38.41                             152    0.8910 71.8 298 
 BRR  HZ I        17 2 41.58       220.5 0.19            151           71.8 298 
 PAM  EZ IP     C 17 2 22.38                             150    0.0610 77.2  39 
 PAM  EN ES       17 2 39.04                             150   -0.3110 77.2  39 
 PAM  EZ I        17 2 41.53       296.3 0.48            150           77.2  39 
 RUS  HZ EP       17 2 23.55                             143   -0.3210  100 176 
 RUS  HN ES       17 2 42.00                             143   -0.1110  100 176 
 RUS  HZ I        17 2 44.19       227.1 0.34            139            100 176 
 PTB  HZ EP       17 2 26.65                             131   -0.56 9  148 259 
 PTB  HN ES       17 2 47.35                             131   -0.71 9  148 259 
 PTB  HZ I        17 2 49.59       182.8 0.26            129            148 259 
 TAM  HZ IP     C 17 2 28.04                             130    0.21 9  154 105 
 TAM  HZ I        17 2 48.61        48.5 0.36            127            154 105 
 TAM  HN ES       17 2 49.39                             130    0.23 9  154 105 
 SPBC HZ EP       17 2 28.72                             128   -0.01 9  163 219 
 SPBC HN ES       17 2 50.86                             128    0.10 9  163 219 
 SPBC HZ I        17 2 55.79       206.5 0.24            125            163 219 
 ZAR  HZ EP       17 2 32.54                             122   -0.22 9  205 292 
 ZAR  HN ES       17 2 58.07                             122    0.13 9  205 292 
 ZAR  HZ I        17 3  3.04       164.0 0.30            120            205 292 
 NOR  HZ EP       17 2 35.84                             118   -0.20 8  235 235 
 NOR  HN ES       17 3  3.80                             118    0.02 8  235 235 
 NOR  HZ I        17 3  9.92        72.2 0.20            115            235 235 
 CHI  HZ EP       17 2 38.17                             116    0.19 8  249 195 
 CHI  HN ES       17 3  6.77                             116   -0.45 8  249 195 
 CHI  HZ I        17 3 14.60        41.3 0.48            114            249 195 
 ROSC BZ EP   9   17 2 40.28                             116    1.86 0  253 211 
 ROSC BN ES       17 3  9.89                             116    0.02 8  253 211 
 ROSC BZ I        17 3 16.56        84.4 0.40            113            253 211 
 HEL  HZ EP   3   17 2 42.14                             114    1.57 2  273 256 
 HEL  HN ES       17 3 11.98                             114    0.14 8  273 256 
 HEL  HZ I        17 3 17.85        70.4 0.42            112            273 256 
 URE  HZ EP   9   17 2 39.69                             113   -1.76 0  284 292 
 URE  HN ES       17 3 11.25                             113   -0.40 7  284 292 
 URE  HZ I        17 3 22.69        96.2 0.16            111            284 292 
 GUY2CHZ EP   3   17 2 45.48                             112    1.52 2  301 235 
 GUY2CHN ES       17 3 18.70                             112    0.82 7  301 235 
 GUY2CHZ  IAML    17 3 24.97        37.5 0.24                           301 235 
 PTGC HZ EP   9   17 2 43.08                             111   -1.05 0  308 159 
 PTGC HN ES       17 3 16.45                             111   -0.68 7  308 159 
 PTGC HZ I        17 3 23.38        53.7 0.26            109            308 159 
 ELA  HZ EP   2   17 2 48.70                             110    1.48 3  329 230 
 ELA  HN ES       17 3 24.00                             110    0.33 7  329 230 
 ELA  HZ I        17 3 34.35        31.6 0.50            108            329 230 
 CBOC HZ EP   3   17 2 48.73                             109    1.43 2  334 252 
 CBOC HN ES       17 3 23.07                             109   -0.76 7  334 252 
 CBOC HZ I        17 3 33.11        20.3 0.38            107            334 252 
 DBB  EZ EP       17 2 47.49                             109   -0.39 7  340 274 
 DBB  EN ES   3   17 3 23.45                             109   -1.41 2  340 274 
 DBB  EZ I        17 3 28.08        36.6 0.34            107            340 274 
 ANIL HZ EP   9   17 2 52.11                             108    1.93 0  358 225 
 ANIL HN ES       17 3 30.86                             108   -0.01 6  358 225 
 ANIL HZ I        17 3 39.23        79.1 0.44            106            358 225 
 PRA  HZ EP       17 2 53.76                             106   -0.13 6  392 210 
 PRA  HN ES       17 3 35.60                             106    0.05 6  392 210 
 PRA  HZ I        17 3 39.44        39.3 0.24            104            392 210 
 ORTC HZ EP       17 2 54.56                             106    0.26 6  396 216 
 ORTC HN ES   4   17 3 38.73                             106    2.46 0  396 216 
 ORTC HZ I        17 3 42.05        20.6 0.36            104            396 216 
 SJC  HZ EP   4   17 2 53.56                             105   -2.43 0  410 327 
 SJC  HN ES   4   17 3 35.09                             105   -4.20 0  410 327 
 SJC  HZ I        17 3 39.26        23.4 0.48            104            410 327 
 CRJC HZ EP   4   17 3  0.07                             103   -2.84 0  468   3 
 CRJC HN ES   4   17 3 46.23                             103   -5.37 0  468   3 
 CRJC HZ I        17 3 52.87        13.5 0.18            101            468   3 
 YOT  HZ EP       17 3  3.89                             103    0.43 5  472 229 
 YOT  HN ES       17 3 52.31                             103   -0.27 5  472 229 
 SMAR HZ EP       17 3  5.94                             102   -0.37 4  497 346 
 SMAR HN ES   4   17 3 52.74                             102   -4.91 0  497 346 
 SMAR HZ I        17 3 53.96         9.1 0.38            100            497 346 
 POP2 HZ EP   4   17 3 23.67                              99    3.22 0  613 220 
 POP2 HN ES   4   17 4 23.91                              99    1.09 0  613 220 
                                                                                
