 2013 1010 1713 58.0 L   6.741 -73.197139.5  RSN  5 0.4 1.4LRSN                1
 GAP=227        1.04       7.6     7.1  7.5  0.3329E+02  0.9227E+01 -0.2956E+01E
 Epicentro: VILLANUEVA - SANTANDER                                             3
 ACTION:UPD 13-11-25 09:20 OP:ep   STATUS:               ID:20131010171358 L   I
 OLDACT:DUP 13-10-10 19:02 OP:nd   STATUS:               ID:20131010170960d    3
 2013-10-10-1709-59M.COL___273                                                 6
 STAT SP IPHASW D HRMM SECON CODA AMPLIT PERI AZIMU VELO AIN AR TRES W  DIS CAZ7
 BAR2 SZ EP       1714 16.33                             173   -0.4310 16.6 175 
 BAR2 SZ ES       1714 31.17                             173   -0.2210 16.6 175 
 BAR2 SZ I        1714 32.43         9.1 0.28            169           16.6 175 
 BRR  HZ EP       1714 18.03                             152   -0.3710 69.9 305 
 BRR  HN ES       1714 34.81                             152    0.5010 69.9 305 
 BRR  HZ I        1714 36.25         4.3 0.52            151           69.9 305 
 RUS  HZ EP       1714 21.03                             144    0.3110 94.7 172 
 RUS  HN ES       1714 38.65                             144    0.2210 94.7 172 
 RUS  HZ I        1714 41.18         2.3 0.36            144           94.7 172 
 PTB  HZ EP       1714 23.46                             132   -0.40 9  141 261 
 PTB  HN ES       1714 43.90                             132   -0.12 9  141 261 
 PTB  HZ I        1714 47.70         3.3 0.13            131            141 261 
 ZAR  HZ EP       1714 30.63                             121    0.85 9  201 294 
 ZAR  HN ES       1714 54.32                             121   -0.24 9  201 294 
 ZAR  HZ I        1714 57.54         3.4 0.30            122            201 294 
                                                                                
