 2014 1110 1318 48.0 L   6.796 -73.200144.8  RSN  4 0.1 1.4LRSN                1
 GAP=144        0.33       2.0     1.9  3.1 -0.1198E+01  0.1579E+01 -0.5020E+00E
 Epicentro: ZAPATOCA - SANTANDER                                               3
 ACTION:UPD 14-12-19 15:41 OP:nd   STATUS:               ID:20141110131848 L   I
 OLDACT:UP  14-11-11 22:09 OP:cam  STATUS:               ID:20141110131848 L   3
 OLDACT:UP  14-11-11 11:11 OP:CF   STATUS:               ID:20141110131848 L   3
 OLDACT:UP  14-11-10 23:35 OP:cam  STATUS:               ID:20141110131817     3
 OLDACT:REG 14-11-10 22:38 OP:ccam STATUS:               ID:20141110131817     3
 2014-11-10-1318-17M.COL___295                                                 6
 STAT SP IPHASW D HRMM SECON CODA AMPLIT PERI AZIMU VELO AIN AR TRES W  DIS CAZ7
 BAR2 SZ EP       1319  7.55                             171    0.0710 22.7 175 
 BAR2 SZ ES   1   1319 22.82                             171    0.13 7 22.7 175 
 PAM  SZ EP       1319 10.44                             149    0.0910 81.6  43 
 PAM  SN ES       1319 27.70                             149   -0.1010 81.6  43 
 PAM  SZ I        1319 29.56         5.9 0.52            154           81.6  43 
 RUS  HZ EP       1319 11.53                             143   -0.1210  101 173 
 RUS  HE ES       1319 30.12                             143    0.0110  101 173 
 RUS  HZ I        1319 31.10         1.6 0.22            148            101 173 
 PTB  HZ EP       1319 14.39                             133    0.05 9  142 259 
 PTB  HN ES       1319 34.82                             133   -0.07 9  142 259 
 PTB  HZ I        1319 42.61         6.0 0.36            133            142 259 
                                                                                
