 2016  710 1921 50.8 L   6.806 -73.123147.2  RSN 21 0.5 2.8LRSN                1
 GAP= 72        1.13       3.3     3.0  5.8  0.1186E-01  0.3295E+01  0.4418E+01E
 Epicentro: LOS SANTOS - SANTANDER                                             3
 ACTION:UPD 17-03-29 16:49 OP:lp   STATUS:               ID:20160710192150 L   I
 OLDACT:UP  16-07-11 05:33 OP:dani STATUS:               ID:20160710191200     3
 OLDACT:UP  16-07-11 05:33 OP:dani STATUS:               ID:20160710191200     3
 OLDACT:UP  16-07-11 05:29 OP:dani STATUS:               ID:20160710191200     3
 OLDACT:UP  16-07-11 05:28 OP:dani STATUS:               ID:20160710191200     3
 OLDACT:REG 16-07-10 22:38 OP:edw  STATUS:               ID:20160710191200     3
 2016-07-10-1911-59S.COL___331                                                 6
 STAT SP IPHASW D HRMM SECON CODA AMPLIT PERI AZIMU VELO AIN AR TRES W  DIS CAZ7
 BRR  HZ EP     D 1922 12.41                             152    0.1610 73.2 297 
 BRR  HZ IP       1922 12.41                             152    0.1610 73.2 297 
 BRR  HE ES       1922 29.15                             152    0.2010 73.2 297 
 BRR  HZ I        1922 30.03       107.5 0.11            152           73.2 297 
 PAM  EZ EP       1922 13.49                             151    0.4110 75.3  38 
 PAM  EN ES       1922 30.22                             151   -0.2110 75.3  38 
 PAM  EZ I        1922 32.43       108.9 0.46            156           75.3  38 
 RUS  HZ EP       1922 14.62                             144   -0.1410  101 178 
 RUS  HE ES       1922 33.30                             144   -0.1210  101 178 
 RUS  HZ I        1922 34.98        69.2 0.38            143            101 178 
 PTB  HZ EP       1922 17.23                             132   -0.92 9  150 259 
 PTB  HN ES   4   1922 38.22                             132   -1.24 0  150 259 
 PTB  HZ I        1922 41.60        85.4 0.46            131            150 259 
 TAM  HZ EP       1922 19.05                             131    0.64 9  153 105 
 TAM  HE ES       1922 40.53                             131    0.60 9  153 105 
 TAM  HZ I        1922 41.11        57.6 0.26            133            153 105 
 SPBC HZ EP       1922 19.59                             129   -0.05 9  165 220 
 SPBC HE ES       1922 41.84                             129   -0.27 9  165 220 
 SPBC HZ I        1922 45.96       103.9 0.32            128            165 220 
 ZAR  HZ EP       1922 23.21                             122   -0.38 8  206 292 
 ZAR  HE ES       1922 48.92                             122   -0.22 8  206 292 
 ZAR  HZ I        1922 54.42       104.8 0.44            123            206 292 
 NOR  HZ EP       1922 27.08                             118    0.18 8  237 235 
 NOR  HN ES   4   1922 56.15                             118    1.11 0  237 235 
 NOR  HZ I        1922 57.53        64.7 0.24            119            237 235 
 CHI  HZ EP       1922 29.07                             117    0.32 8  250 196 
 CHI  HN ES       1922 58.21                             117   -0.11 8  250 196 
 CHI  HZ I        1923  2.71        19.5 0.36            117            250 196 
 ROSC BZ EP   4   1922 25.96                             117   -3.27 0  255 211 
 ROSC BN ES   4   1923  1.27                             117    2.09 0  255 211 
 ROSC BZ I        1923  5.46        45.1 0.35            117            255 211 
 HEL  HZ EP       1922 31.69                             115    0.28 8  275 256 
 HEL  HE ES       1923  3.54                             115    0.49 8  275 256 
 HEL  HZ I        1923  8.83        37.5 0.38            115            275 256 
 URE  HZ EP   9   1922 30.36                             114   -1.85 0  286 292 
 URE  HE ES       1923  1.77                             114   -0.86 7  286 292 
 URE  HZ I        1923  3.60        40.8 0.14            115            286 292 
 SOCV BZ EP       1922 33.56                             112   -0.11 7  299  57 
 SOCV BN ES   4   1923  5.52                             112   -1.56 0  299  57 
 GUY2CHZ EP       1922 35.16                             112    0.38 7  304 235 
 GUY2CHN ES   4   1923 12.41                             112    3.35 0  304 235 
 GUY2CHZ I        1923 16.98        23.4 0.26                           304 235 
 PTGC HZ EP       1922 34.04                             112   -0.67 7  308 159 
 PTGC HE ES       1923  7.32                             112   -1.62 7  308 159 
 PTGC HZ I        1923 14.41        33.7 0.42            112            308 159 
 CBOC HZ EP   3   1922 38.91                             110    0.81 2  336 252 
 CBOC HN ES       1923 14.82                             110   -0.16 7  336 252 
 CBOC HZ I        1923 20.98         8.5 0.24            110            336 252 
 ANIL HE ES       1923 21.32                             109    1.28 6  360 225 
 ANIL HZ I        1923 30.62        57.0 0.26            109            360 225 
 PRA  HZ EP       1922 44.92                             107    0.31 6  394 210 
 PRA  HE ES       1923 26.21                             107   -0.35 6  394 210 
 PRA  HZ I        1923 33.20        30.9 0.30            107            394 210 
 PAL  HZ EP       1922 46.76                             106    0.43 6  408 239 
 PAL  HE ES   4   1923 32.92                             106    3.30 0  408 239 
 PAL  HZ I        1923 35.30         9.9 0.42            106            408 239 
 SJC  HZ EP       1922 45.48                             106   -1.06 6  410 327 
 SJC  HN ES   4   1923 26.28                             106   -3.72 0  410 327 
 SJC  HZ I        1923 30.52        10.3 0.44            107            410 327 
 BBAC HZ EP       1923 21.96                              98    0.64 1  699 221 
                                                                                
