 2017  110 1055 20.9 L   7.199 -74.119  4.0  RSN  6 0.3 1.9LRSN                1
 GAP=153        0.76       2.5     1.4  5.6  0.4230E+00 -0.6154E+00  0.4300E+01E
 Epicentro: PUERTO WILCHES - SANTANDER                                         3
 ACTION:UPD 17-05-22 15:57 OP:jn   STATUS:               ID:20170110105520 L   I
 OLDACT:REG 17-01-10 22:48 OP:ar   STATUS:               ID:20170110104759     3
 2017-01-10-1047-59S.COL___291                                                 6
 STAT SP IPHASW D HRMM SECON CODA AMPLIT PERI AZIMU VELO AIN AR TRES W  DIS CAZ7
 BRR  HZ IP     D 1055 27.96                              90   -0.5010 46.0 103 
 BRR  HE ES       1055 33.96                              90   -0.4010 46.0 103 
 BRR  HZ I        1055 35.59        35.3 0.18             47           46.0 103 
 PTB  HZ IP       1055 33.94                              90    0.0310 81.9 207 
 PTB  HE ES       1055 43.94                              90   -0.1310 81.9 207 
 PTB  HZ I        1055 44.42        34.1 0.18             47           81.9 207 
 ZAR  HZ EP       1055 34.99                              90    0.1810 87.8 292 
 ZAR  HN ES       1055 45.51                              90   -0.1510 87.8 292 
 ZAR  HZ I        1055 46.14        39.8 0.50             47           87.8 292 
 BAR2 EZ EP       1055 40.80                              90    0.3810  123 123 
 BAR2 EZ ES       1055 55.92                              90    0.2710  123 123 
 BAR2 EZ I        1056  2.32        12.7 0.62             47            123 123 
 PAM  EZ EP       1055 45.90                              90    0.05 9  157  84 
 PAM  EE ES       1056  5.51                              90    0.19 9  157  84 
 PAM  EZ I        1056  7.64        23.8 0.38             47            157  84 
 RUS  HZ EP       1055 50.20                              56    0.42 9  184 142 
 RUS  HN ES       1056 12.10                              56   -0.22 9  184 142 
 RUS  HZ I        1056 14.17        23.9 0.30             37            184 142 
                                                                                
