 2014  410 1652  2.8 L   6.801 -73.156136.3  RSN  5 0.2 1.7LRSN                1
 GAP=200        0.48       2.6     3.5  7.1  0.2755E+01 -0.2908E+01 -0.7833E+01E
 Epicentro: LOS SANTOS - SANTANDER                                             3
 ACTION:UPD 14-05-13 23:07 OP:nd   STATUS:               ID:20140410165202 L   I
 OLDACT:UP  14-04-10 22:42 OP:cam  STATUS:               ID:20140410164811     3
 OLDACT:REG 14-04-10 20:40 OP:cam  STATUS:               ID:20140410164811     3
 2014-04-10-1648-11M.COL___256                                                 6
 STAT SP IPHASW D HRMM SECON CODA AMPLIT PERI AZIMU VELO AIN AR TRES W  DIS CAZ7
 RUS  HZ EP       1652 25.57                             142   -0.0810  101 175 
 RUS  HE ES       1652 43.45                             142   -0.0210  101 175 
 PTB  HZ EP   4   1652 28.19                             130   -0.72 0  147 259 
 PTB  HN ES       1652 49.04                             130   -0.23 9  147 259 
 PTB  HZ I        1652 51.35         5.5 0.56            128            147 259 
 SPBC HZ EP       1652 30.47                             127   -0.06 9  163 219 
 SPBC HE ES       1652 52.46                             127    0.31 9  163 219 
 SPBC HZ I        1652 59.09         5.3 0.20            126            163 219 
 SML  HN ES       1653  7.10                             115    0.14 8  243 336 
 SML  HZ I        1653 11.21         6.5 0.10            115            243 336 
 GUY2CHZ EP   4   1652 47.73                             110    1.84 0  300 235 
 GUY2CHN ES   4   1653 21.77                             110    2.27 0  300 235 
 GUY2CHZ I        1653 29.10         2.2 0.28                           300 235 
                                                                                
