 2013  210 1317 14.4 L   6.776 -73.132148.3  RSN 11 0.4 2.1LRSN                1
 GAP=139        0.89       3.0     4.0  5.4 -0.3539E+00  0.4856E+01  0.6351E+00E
 Epicentro: LOS SANTOS - SANTANDER                                             3
 ACTION:UPD 13-03-12 09:32 OP:ep   STATUS:               ID:20130210131714 L   I
 2013-02-10-1310-00M.COL___241                                                 6
 STAT SP IPHASW D HRMM SECON CODA AMPLIT PERI AZIMU VELO AIN AR TRES W  DIS CAZ7
 BAR2 SZ EP       1317 34.21                             171   -0.0410 21.1 195 
 BAR2 SZ ES   1   1317 49.67                             171   -0.09 7 21.1 195 
 BAR2 SZ I        1317 51.31        36.6 0.41            165           21.1 195 
 BRR  HZ IP     C 1317 36.16                             152    0.2410 73.8 300 
 BRR  HE ES       1317 53.60                             152    0.8610 73.8 300 
 BRR  HE I        1317 54.66        53.1 0.33            143           73.8 300 
 PAM  SZ EP       1317 36.91                             151    0.0010 78.5  37 
 PAM  SE ES       1317 53.97                             151   -0.5210 78.5  37 
 PAM  SZ I        1317 56.78         9.4 0.65            150           78.5  37 
 RUS  HZ EP   1   1317 38.28                             145    0.11 7 97.9 177 
 RUS  HN ES       1317 56.84                             145    0.1110 97.9 177 
 RUS  HN I        1317 57.72        26.7 0.41            138           97.9 177 
 PTB  HZ EP   1   1317 41.07                             132   -0.55 7  149 260 
 PTB  HE ES   1   1318  2.53                             132   -0.35 7  149 260 
 PTB  HZ I        1318  5.58        16.3 0.18            123            149 260 
 OCA  HZ EP       1317 43.16                             130    0.04 9  163 353 
 ZAR  HE ES       1318 12.20                             123   -0.63 8  206 293 
 ZAR  HZ I        1318 18.38        18.0 0.25            115            206 293 
 NOR  HZ EP   1   1317 49.89                             119   -0.31 6  234 235 
 NOR  HE ES   1   1318 18.27                             119    0.11 6  234 235 
 NOR  HZ I        1318 25.53        13.5 0.20            112            234 235 
 SML  HZ EP   1   1317 51.47                             118    0.02 6  247 335 
 SML  HN ES   1   1318 20.50                             118    0.12 6  247 335 
 CHI  HZ EP       1317 52.15                             118    0.18 8  247 196 
 CHI  HN ES       1318 21.02                             118   -0.28 8  247 196 
 CHI  HZ I        1318 27.44         5.8 0.36            112            247 196 
 HEL  HZ EP   1   1317 55.70                             115    0.91 6  273 256 
 HEL  HZ I        1318 33.12         5.8 0.32            109            273 256 
                                                                                
