 2016  310 1035 42.6 L   6.814 -73.160147.8  RSN 19 0.4 2.3LRSN                1
 GAP= 64        0.87       2.3     2.4  4.3 -0.6954E+00  0.2804E+01  0.9536E+00E
 Epicentro: LOS SANTOS - SANTANDER                                             3
 ACTION:UPD 16-05-13 21:22 OP:cam  STATUS:               ID:20160310103542 L   I
 OLDACT:UP  16-03-14 10:33 OP:Ak   STATUS:               ID:20160310103542 L   3
 OLDACT:UP  16-03-10 22:45 OP:ar   STATUS:               ID:20160310102749     3
 OLDACT:UP  16-03-10 22:30 OP:ar   STATUS:               ID:20160310102749     3
 OLDACT:REG 16-03-10 20:35 OP:ar   STATUS:               ID:20160310102749     3
 2016-03-10-1027-49M.COL___285                                                 6
 STAT SP IPHASW D HRMM SECON CODA AMPLIT PERI AZIMU VELO AIN AR TRES W  DIS CAZ7
 BAR2 EZ EP       1036  2.53                             170    0.0110 24.6 186 
 BAR2 EZ ES       1036 18.01                             170   -0.0310 24.6 186 
 BAR2 EZ I        1036 18.66        52.2 0.20            171           24.6 186 
 PAM  EZ EP       1036  5.42                             151    0.3710 77.3  41 
 PAM  EN ES       1036 22.55                             151    0.0110 77.3  41 
 PAM  EZ I        1036 25.24        21.0 0.44            154           77.3  41 
 RUS  HZ EP       1036  6.53                             144   -0.1610  102 175 
 RUS  HN ES       1036 25.41                             144   -0.0610  102 175 
 RUS  HZ I        1036 26.17        25.2 0.26            146            102 175 
 PTB  HZ EP       1036  9.00                             133   -0.64 9  146 258 
 PTB  HN ES       1036 30.32                             133   -0.39 9  146 258 
 PTB  HZ I        1036 37.14        25.3 0.22            134            146 258 
 TAM  HZ EP     D 1036 10.91                             131    0.27 9  157 105 
 TAM  HN ES       1036 32.52                             131    0.02 9  157 105 
 TAM  HZ I        1036 46.33        15.8 0.24            134            157 105 
 OCA  HZ EP       1036 11.21                             130    0.28 9  159 354 
 OCA  HN ES       1036 32.78                             130   -0.23 9  159 354 
 OCA  HZ I        1036 40.90        35.8 0.24            132            159 354 
 SPBC HZ EP       1036 11.43                             129    0.13 9  163 218 
 SPBC HN ES       1036 34.08                             129    0.42 9  163 218 
 SPBC HZ I        1036 42.05        26.6 0.34            131            163 218 
 ZAR  HN ES       1036 40.15                             123   -0.08 9  202 292 
 ZAR  HZ I        1036 50.72        17.2 0.40            125            202 292 
 NOR  HZ EP       1036 18.60                             119    0.17 8  234 234 
 NOR  HN ES       1036 46.28                             119   -0.07 8  234 234 
 NOR  HZ I        1036 53.76        12.4 0.18            121            234 234 
 CHI  HZ EP       1036 20.69                             117    0.14 8  250 195 
 CHI  HN ES       1036 49.94                             117   -0.19 8  250 195 
 CHI  HZ I        1036 52.29        15.7 0.38            120            250 195 
 ROSC BZ EP   9   1036 23.10                             117    2.19 0  253 211 
 ROSC BN ES       1036 53.02                             117    0.06 8  253 211 
 ROSC BZ I        1036 57.06        31.0 0.40            119            253 211 
 HEL  HZ EP       1036 23.45                             115    0.64 8  271 255 
 HEL  HN ES       1036 55.08                             115    0.93 8  271 255 
 HEL  HZ I        1037  0.60        10.0 0.34            117            271 255 
 URE  HZ EP       1036 22.52                             114   -1.04 7  282 292 
 URE  HE ES   4   1036 52.85                             114   -2.64 0  282 292 
 URE  HZ I        1037  1.55        12.1 0.18            116            282 292 
 GUY2CHZ EP       1036 26.23                             113   -0.05 7  301 234 
 GUY2CHN ES   4   1037  3.65                             113    3.32 0  301 234 
 GUY2CHZ I        1037  8.66         8.1 0.34                           301 234 
 VIL  SZ EP       1036 25.51                             112   -0.76 7  305 191 
 VIL  SE ES       1037  0.13                             112   -0.18 7  305 191 
 PTGC HZ EP   9   1036 25.58                             112   -1.22 0  311 158 
 PTGC HN ES       1036 59.59                             112   -0.45 7  311 158 
 PTGC HZ I        1037  3.46        12.7 0.24            114            311 158 
 MON  HZ EP   9   1036 29.74                             109   -1.70 0  351 308 
 MON  HN ES       1037  8.26                             109    0.44 6  351 308 
 MON  HZ I        1037 10.25         5.0 0.30            111            351 308 
 ANIL HZ EP       1036 32.94                             109    0.44 6  357 224 
 ANIL HN ES   4   1037 13.34                             109    1.93 0  357 224 
 ANIL HZ I        1037 17.97        20.5 0.32            110            357 224 
 PAL  HE ES       1037 20.90                             106    0.10 6  405 239 
                                                                                
