 2013 1210 1857 57.8 L   6.721 -73.161150.5  RSN  4 0.3 1.6LRSN                1
 GAP=230        0.77       6.3     6.1  6.8  0.1514E+02  0.8465E+01 -0.3798E+01E
 Epicentro: VILLANUEVA - SANTANDER                                             3
 ACTION:UPD 14-01-13 10:17 OP:ep   STATUS:               ID:20131210185757 L   I
 OLDACT:UP  13-12-10 16:24 OP:cam  STATUS:               ID:20131210185000     3
 OLDACT:REG 13-12-10 14:59 OP:cam  STATUS:               ID:20131210185000     3
 2013-12-10-1850-00M.COL___285                                                 6
 STAT SP IPHASW D HRMM SECON CODA AMPLIT PERI AZIMU VELO AIN AR TRES W  DIS CAZ7
 BAR2 SZ EP       1858 17.89                             174    0.0410 14.5 189 
 BAR2 SZ ES       1858 32.99                             174   -0.5010 14.5 189 
 BAR2 SZ I        1858 36.33        10.3 0.58            173           14.5 189 
 BRR  HZ EP       1858 19.56                             152   -0.0710 74.3 305 
 BRR  HN ES       1858 37.08                             152    0.4210 74.3 305 
 RUS  HN ES       1858 40.17                             147    0.3110 92.1 175 
 PTB  HZ EP       1858 24.81                             134   -0.06 9  145 262 
 PTB  HN ES       1858 45.84                             134   -0.16 9  145 262 
 PTB  HZ I        1858 48.41         3.8 0.20            135            145 262 
                                                                                
