 2015  610 1838 14.4 L   6.531 -73.496109.4  RSN 16 0.5 2.3LRSN                1
 GAP= 68        1.06       2.2     3.2  5.4 -0.2242E+01  0.8443E+01 -0.4825E+00E
 Epicentro: EL CARMEN - SANTANDER                                              3
 ACTION:UPD 15-09-10 22:11 OP:cam  STATUS:               ID:20150610183814 L   I
 OLDACT:UP  15-06-18 07:46 OP:AK   STATUS:               ID:20150610183814 L   3
 OLDACT:REG 15-06-11 00:31 OP:ak   STATUS:               ID:20150610183649     3
 2015-06-10-1836-49M.COL___303                                                 6
 STAT SP IPHASW D HRMM SECON CODA AMPLIT PERI AZIMU VELO AIN AR TRES W  DIS CAZ7
 BAR2 EZ IP     D 1838 30.48                             161    0.4410 35.3  79 
 BAR2 EZ ES       1838 42.48                             161    0.2110 35.3  79 
 BAR2 EZ I        1838 44.40       177.9 0.50            162           35.3  79 
 BRR  HZ EP       1838 31.39                             146   -0.1010 68.0 339 
 BRR  HN ES       1838 44.79                             146   -0.0710 68.0 339 
 RUS  HZ EP       1838 33.52                             140    0.1510 84.1 147 
 RUS  HE ES       1838 48.31                             140    0.1010 84.1 147 
 SPBC HZ EP       1838 35.53                             130   -0.0910  116 213 
 SPBC HN ES       1838 51.83                             130   -0.3710  116 213 
 SPBC HZ I        1838 53.53        41.1 0.10            130            116 213 
 PAM  SZ EP       1838 37.12                             128    0.0910  125  45 
 PAM  SE ES       1838 54.56                             128   -0.1510  125  45 
 PAM  SZ I        1838 56.61        30.5 0.26            128            125  45 
 ZAR  HZ EP       1838 42.84                             116    0.31 9  184 305 
 ZAR  HN ES       1839  5.31                             116    0.81 9  184 305 
 ZAR  HZ I        1839  7.09        29.1 0.48            116            184 305 
 NOR  HZ EP       1838 42.04                             116   -0.73 9  186 235 
 NOR  HE ES       1839  3.98                             116   -0.95 9  186 235 
 NOR  HZ I        1839  6.05        17.3 0.18            116            186 235 
 OCA  HZ EP       1838 42.80                             115   -0.53 9  190   6 
 OCA  HE ES       1839  5.22                             115   -0.71 9  190   6 
 OCA  HZ I        1839 11.26        34.3 0.22            115            190   6 
 HEL  HZ EP       1838 48.25                             110    0.35 8  228 261 
 HEL  HN ES       1839 13.71                             110   -0.36 8  228 261 
 HEL  HZ I        1839 15.67         9.8 0.36            111            228 261 
 GUY2CHZ EP       1838 51.29                             108    0.45 8  252 235 
 GUY2CHN ES       1839 20.12                             108    0.82 8  252 235 
 GUY2CHZ I        1839 22.93        12.9 0.32                           252 235 
 SML  HZ EP       1838 50.62                             107   -0.38 8  259 346 
 SML  HN ES       1839 20.57                             107    0.99 8  259 346 
 SML  HZ I        1839 22.59        22.7 0.09            107            259 346 
 RREF HZ EP   1   1838 53.36                             106   -0.08 6  273 229 
 RREF HN ES       1839 23.78                             106   -0.15 8  273 229 
 TOL  SZ EP       1838 56.16                             105    0.48 7  295 223 
 TOL  SN ES       1839 28.30                             105    0.39 7  295 223 
 TOL  SZ I        1839 30.77         7.6 0.66            105            295 223 
 MON  HZ EP   4   1838 59.85                             101   -1.32 0  345 316 
 MON  HE ES       1839 36.90                             101   -0.79 7  345 316 
 MON  HZ I        1839 39.73         2.8 0.24            102            345 316 
 PRA  HZ EP       1839  1.49                             101   -0.05 6  348 206 
 PRA  HN ES       1839 38.26                             101   -0.08 6  348 206 
 PRA  HZ I        1839 40.99         6.5 0.28            102            348 206 
 ORTC HZ EP       1839  1.65                             101   -0.04 6  349 214 
 ORTC HN ES       1839 38.73                             101    0.12 6  349 214 
 ORTC HZ I        1839 46.33         4.9 0.39            102            349 214 
                                                                                
