 2015  210 1031 23.2 L   6.812 -73.124146.5  RSN 11 0.6 1.9LRSN                1
 GAP= 72        1.46       4.3     4.9  7.4 -0.5888E+01 -0.6340E+00 -0.2200E+01E
 Epicentro: LOS SANTOS - SANTANDER                                             3
 ACTION:UPD 15-04-30 21:24 OP:nd   STATUS:               ID:20150210103123 L   I
 OLDACT:ARG 15-02-10 21:07 OP:stll STATUS:               ID:20150210102748     3
 2015-02-10-1027-48M.COL___284                                                 6
 STAT SP IPHASW D HRMM SECON CODA AMPLIT PERI AZIMU VELO AIN AR TRES W  DIS CAZ7
 BAR2 EZ EP       1031 43.07                             170    0.1610 25.2 195 
 BAR2 EZ ES       1031 58.19                             170   -0.1310 25.2 195 
 BAR2 EZ I        1031 59.35        11.5 0.14            170           25.2 195 
 BRR  HZ EP       1031 44.99                             152    0.5210 72.7 297 
 BRR  HN ES       1032  1.43                             152    0.3410 72.7 297 
 BRR  HZ I        1032  3.38        13.4 0.52            153           72.7 297 
 PAM  SZ EP       1031 45.99                             151    0.6910 74.8  39 
 PAM  SN ES       1032  2.87                             151    0.3110 74.8  39 
 PAM  SZ I        1032  5.64        12.4 0.64            153           74.8  39 
 RUS  HZ EP       1031 47.35                             143    0.2910  102 177 
 RUS  HN ES       1032  5.47                             143   -0.2410  102 177 
 RUS  HZ I        1032  7.26         6.9 0.24            145            102 177 
 PTB  HZ EP       1031 49.95                             132   -0.47 9  150 259 
 PTB  HN ES       1032 10.63                             132   -1.06 9  150 259 
 PTB  HZ I        1032 12.57         7.0 0.38            133            150 259 
 TAM  HZ EP       1031 51.30                             131    0.59 9  153 106 
 OCA  HN EP       1031 52.13                             130    0.70 9  159 352 
 OCA  HN ES       1032 13.39                             130   -0.08 9  159 352 
 SPBC HZ EP       1031 52.03                             129    0.08 9  166 219 
 SPBC HN ES       1032 13.87                             129   -0.54 9  166 219 
 SPBC HZ I        1032 20.99        14.2 0.14            130            166 219 
 SML  HZ EP       1031 59.64                             117   -0.16 8  244 335 
 SML  HN ES       1032 28.07                             117   -0.31 8  244 335 
 SML  HZ I        1032 31.94        10.5 0.28            119            244 335 
 SOCV BZ EP       1032  5.82                             112   -0.11 7  299  57 
 SOCV BE ES       1032 37.10                             112   -2.18 7  299  57 
 GUY2CHZ EP       1032  7.72                             112    0.61 7  304 235 
 GUY2CHE ES       1032 41.20                             112   -0.19 7  304 235 
 GUY2CHZ I        1032 49.48         3.5 0.64                           304 235 
                                                                                
