 2010 1010 1127 56.3 L   6.749 -73.073138.9  RSN  4 0.6 1.7LRSN                1
 GAP=246        1.55      12.0    22.8 17.1  0.6494E+02 -0.7424E+02  0.7172E+02E
 Epicentro: LOS SANTOS - SANTANDER                                             3
 ACTION:UP  11-02-18 11:08 OP:tino STATUS:               ID:20101010112756 L   I
 2010-10-10-1126-00S.COL___121                                                 6
 STAT SP IPHASW D HRMM SECON CODA AMPLIT PERI AZIMU VELO SNR AR TRES W  DIS CAZ7
 BAR2 SZ EP       1128 14.75                             171    -0.310   21 215 
 BAR2 SZ ES   1   1128 29.12                             171    -0.5 7   21 215 
 BAR2 SZ I        1128 31.34        10.9 0.15                            21 215 
 BTL  SZ EP       1128 16.17                             168     1.010   29 311 
 BRR  HZ EP       1128 16.65                             148    -0.610   81 299 
 BRR  HZ I        1128 16.87        15.2 0.34                            81 299 
 BRR  HN ES       1128 33.82                             148     0.210   81 299 
 CHI  HZ EP   1   1128 32.76                             116    -0.5 6  245 197 
 CHI  HN ES   1   1129  2.57                             116     0.5 6  245 197 
 CHI  HZ I        1129  4.65         2.9 0.13                           245 197 
                                                                                
