 2011  510 1128 60.0 L   6.849 -73.321120.8  RSN  9 0.2 2.2LRSN                1
 GAP=137        0.54       2.7     6.5  5.8 -0.3870E+01  0.6617E+01 -0.3033E+01E
 Epicentro: ZAPATOCA - SANTANDER                                               3
 ACTION:UP  11-06-29 08:52 OP:tino STATUS:               ID:20110510112860 L   I
 2011-05-10-1122-50S.COL___132                                                 6
 STAT SP IPHASW D HRMM SECON CODA AMPLIT PERI AZIMU VELO SNR AR TRES W  DIS CAZ7
 BTL  SZ IP       1129 16.73                             175     0.310   10  38 
 BTL  SZ ES   2   1129 29.53                             175     0.3 5   10  38 
 GIR2 SZ EP   1   1129 16.66                             166     0.0 7   29  29 
 BAR2 SZ IP       1129 17.10                             164     0.210   32 152 
 BAR2 SZ ES   2   1129 29.63                             164    -0.4 5   32 152 
 BAR2 SZ I        1129 31.60       139.0 0.39                            32 152 
 BRR  HZ EP   1   1129 17.04                             155    -0.3 7   52 303 
 BRR  HZ I        1129 33.96        54.6 0.35                            52 303 
 PAM  SZ EP   1   1129 20.22                             142    -0.1 7   87  52 
 PAM  SN ES   2   1129 36.25                             142     0.0 5   87  52 
 RUS  HZ EP   1   1129 22.11                             135     0.0 7  109 166 
 RUS  HE ES   2   1129 38.81                             135    -0.5 5  109 166 
 RUS  HZ I        1129 40.79        10.9 0.31                           109 166 
 BRI  SZ EP   1   1129 21.98                             134     0.1 7  112  31 
 BRI  SZ I        1129 22.23        11.2 0.10                           112  31 
 GRA  SZ EP   1   1129 23.22                             130    -0.1 7  128  26 
 GRA  SZ ES   1   1129 41.50                             130     0.0 7  128  26 
 GRA  SZ I        1129 44.37        20.6 0.38                           128  26 
 OCA  SZ EP   1   1129 25.73                             125    -0.1 7  154   0 
 OCA  SZ ES   1   1129 45.87                             125    -0.1 7  154   0 
 OCA  SZ I        1129 48.68        40.8 0.27                           154   0 
                                                                                
