 2011 1010 1540 34.5 L   6.779 -73.128147.8  RSN 14 0.4 2.6LRSN                1
 GAP=116        0.81       3.4     5.0  5.3 -0.9726E+00  0.6040E+01  0.4271E+01E
 Epicentro: LOS SANTOS - SANTANDER                                             3
 ACTION:UPD 12-07-13 16:03 OP:ep   STATUS:               ID:20111010154034 L   I
 2011-10-10-1538-44S.COL___168                                                 6
 STAT SP IPHASW D HRMM SECON CODA AMPLIT PERI AZIMU VELO AIN AR TRES W  DIS CAZ7
 BAR2 SZ IP       1540 54.40                             171    0.0910 21.5 196 
 BAR2 SZ ES   1   1541  9.56                             171   -0.22 7 21.5 196 
 BAR2 SZ I        1541 12.28        95.1 0.32                          21.5 196 
 BRR  HZ IP     D 1540 56.28                             152    0.2810 74.1 299 
 BRR  HE ES   1   1541 13.29                             152    0.50 7 74.1 299 
 BRR  HZ I        1541 15.98        61.1 0.12                          74.1 299 
 PAM  SZ IP       1540 57.19                             151    0.2610 77.9  37 
 PAM  SN ES   1   1541 14.62                             151    0.17 7 77.9  37 
 RUS  HZ IP     C 1540 58.22                             145   -0.0310 98.2 177 
 RUS  HN ES   1   1541 16.13                             145   -0.67 7 98.2 177 
 OCA  SZ EP       1541  2.39                             130   -0.79 9  163 353 
 OCA  SZ I        1541 29.81        52.4 0.40                           163 353 
 YOP  SZ EP       1541  4.80                             127    0.43 9  176 154 
 ZAR  HZ EP   2   1541  6.92                             122   -0.41 4  207 293 
 ZAR  HE ES   2   1541 32.59                             122   -0.37 4  207 293 
 ZAR  HZ I        1541 38.64        38.5 0.56                           207 293 
 NOR  SZ EP       1541 10.07                             119   -0.28 8  235 235 
 NOR  SN ES   3   1541 37.88                             119   -0.46 2  235 235 
 CHI  HZ EP       1541 12.02                             118   -0.08 8  247 196 
 CHI  HE ES   1   1541 41.25                             118   -0.20 6  247 196 
 ROSC BZ EP   3   1541 12.65                             117    0.05 2  252 212 
 ROSC BE ES   2   1541 43.08                             117    0.74 4  252 212 
 HEL  HZ EP   3   1541 15.81                             115    0.87 2  273 256 
 HEL  HZ I        1541 55.69        17.4 0.22                           273 256 
 GUY  SZ EP       1541 19.20                             112    0.73 7  304 236 
 GUY  SZ I        1542  0.71        33.7 0.34                           304 236 
 TOL  SZ EP   3   1541 22.85                             110    0.07 2  343 225 
 PRA  HZ EP       1541 27.33                             107   -0.62 6  391 210 
                                                                                
