 2013 1110 1156 37.1 L   6.774 -73.144144.6  RSN  7 0.4 1.6LRSN                1
 GAP=138        0.94       4.4     4.2  6.8  0.1822E+01  0.5695E+01 -0.7127E+00E
 Epicentro: LOS SANTOS - SANTANDER                                             3
 ACTION:UPD 14-01-09 16:26 OP:ep   STATUS:               ID:20131110115637 L   I
 OLDACT:UP  13-11-10 15:32 OP:jn   STATUS:               ID:20131110115000     3
 OLDACT:REG 13-11-10 14:14 OP:jn   STATUS:               ID:20131110115000     3
 2013-11-10-1150-00M.COL___273                                                 6
 STAT SP IPHASW D HRMM SECON CODA AMPLIT PERI AZIMU VELO AIN AR TRES W  DIS CAZ7
 BAR2 SZ EP       1156 56.66                             172    0.1410 20.6 192 
 BAR2 SZ ES       1157 11.47                             172   -0.2110 20.6 192 
 BAR2 HZ I        1157 17.07        16.1 0.74            151           20.6 192 
 BRR  HZ EP       1156 58.43                             152    0.2410 72.7 300 
 BRR  HN ES       1157 15.16                             152    0.5010 72.7 300 
 BRR  HZ I        1157 16.19        11.1 0.14            160           72.7 300 
 PAM  SZ EP       1156 59.58                             150    0.2810 79.5  38 
 PAM  SN ES       1157 16.21                             150   -0.4210 79.5  38 
 PAM  SZ I        1157 18.86         4.7 0.42            159           79.5  38 
 RUS  HZ EP       1157  0.67                             144    0.1510 97.7 176 
 RUS  HN ES       1157 18.92                             144    0.1310 97.7 176 
 RUS  HZ I        1157 59.56         5.3 3.22            133           97.7 176 
 PTB  HZ EP       1157  3.27                             132   -0.65 9  147 260 
 PTB  HN ES       1157 24.42                             132   -0.43 9  147 260 
 PTB  HZ I        1157 26.95         4.9 0.40            134            147 260 
 ZAR  HN ES       1157 35.31                             122    0.38 8  205 293 
 SML  HN ES   2   1157 41.80                             117   -0.87 4  246 336 
                                                                                
