 2015  910 1512 42.0 L   6.555 -73.435121.8  RSN  5 0.4 1.7LRSN                1
 GAP=108        1.13       5.3     5.5  8.8  0.4518E+01  0.1263E+02  0.8533E+01E
 Epicentro: HATO - SANTANDER                                                   3
 ACTION:UPD 15-10-28 16:25 OP:cam  STATUS:               ID:20150910151242 L   I
 OLDACT:REG 15-09-10 20:57 OP:stll STATUS:               ID:20150910150752     3
 2015-09-10-1507-52M.COL___338                                                 6
 STAT SP IPHASW D HRMM SECON CODA AMPLIT PERI AZIMU VELO AIN AR TRES W  DIS CAZ7
 BAR2 EZ EP       1512 58.40                             166   -0.4410 28.2  82 
 BAR2 EZ ES       1513 11.76                             166   -0.2610 28.2  82 
 BAR2 EZ I        1513 13.65        16.8 0.26            170           28.2  82 
 BRR  HZ EP       1513  0.56                             149    0.1810 68.3 333 
 BRR  HN ES       1513 14.97                             149    0.2210 68.3 333 
 RUS  HZ EP       1513  2.67                             144    0.5910 83.0 152 
 RUS  HE ES       1513 17.86                             144    0.0810 83.0 152 
 RUS  HZ I        1513 20.42         4.8 0.42            144           83.0 152 
 PTB  HZ EP       1513  3.00                             134   -0.8210  113 269 
 PTB  HN ES       1513 21.32                             134    0.4410  113 269 
 PTB  HZ I        1513 23.29         9.1 0.10            135            113 269 
 SPBC HZ EP       1513  5.12                             132    0.3610  122 215 
 SPBC HN ES       1513 22.19                             132   -0.3510  122 215 
 SPBC HZ I        1513 28.24        16.3 0.20            132            122 215 
                                                                                
