 2016  910 1923 29.1 L   6.771 -73.136143.6  RSN  9 0.4 2.0LRSN                1
 GAP=139        0.97       3.9     4.0  5.9 -0.1931E+01  0.7052E+01  0.1350E+01E
 Epicentro: LOS SANTOS - SANTANDER                                             3
 ACTION:UPD 17-08-17 21:08 OP:lp   STATUS:               ID:20160910192329 L   I
 OLDACT:UP  16-09-11 01:22 OP:lv   STATUS:               ID:20160910191741     3
 OLDACT:REG 16-09-10 21:39 OP:lv   STATUS:               ID:20160910191741     3
 2016-09-10-1918-00M.COL___333                                                 6
 STAT SP IPHASW D HRMM SECON CODA AMPLIT PERI AZIMU VELO AIN AR TRES W  DIS CAZ7
 BAR2 EZ IP     C 1923 48.42                             172   -0.0410 20.4 194 
 BAR2 EZ ES       1924  3.27                             172   -0.2510 20.4 194 
 BAR2 EZ I        1924  4.61        17.3 0.26            170           20.4 194 
 BRR  HZ IP     C 1923 50.32                             151    0.1110 73.7 300 
 BRR  HE ES       1924  7.43                             151    0.8010 73.7 300 
 BRR  HZ I        1924 10.28        16.7 0.19            150           73.7 300 
 PAM  EZ EP       1923 51.44                             150    0.1910 79.3  37 
 PAM  EN ES       1924  8.24                             150   -0.2510 79.3  37 
 PAM  EZ I        1924  9.89        14.5 0.18            153           79.3  37 
 RUS  HZ EP       1923 52.54                             144    0.0910 97.3 177 
 RUS  HN ES       1924 10.58                             144   -0.0410 97.3 177 
 RUS  HZ I        1924 11.95        11.2 0.32            146           97.3 177 
 PTB  HZ EP       1923 55.28                             131   -0.70 9  148 260 
 PTB  HE ES       1924 17.07                             131    0.17 9  148 260 
 PTB  HZ I        1924 18.45        16.0 0.11            131            148 260 
 SPBC HZ EP       1923 57.51                             129    0.21 9  161 220 
 SPBC HE ES       1924 18.85                             129   -0.41 9  161 220 
 SPBC HZ I        1924 22.73        16.6 0.12            130            161 220 
 ZAR  HZ EP       1924  1.76                             122    0.08 8  206 293 
 ZAR  HN ES       1924 26.32                             122   -0.73 8  206 293 
 ZAR  HZ I        1924 35.18        10.7 0.14            122            206 293 
 NOR  HZ EP       1924  5.07                             118    0.43 8  234 235 
 NOR  HN ES       1924 32.64                             118    0.32 8  234 235 
 NOR  HZ I        1924 39.48         8.9 0.26            119            234 235 
 URE  HZ EP   4   1924 13.14                             113    2.78 0  286 292 
 URE  HN ES   4   1924 40.52                             113   -1.98 0  286 292 
 URE  HZ I        1924 42.26         7.9 0.14            114            286 292 
                                                                                
