 2011  510 1927 53.5 L   6.751 -73.162164.2  RSN  6 0.1 1.9LRSN                1
 GAP=137        0.38       3.9     9.2  9.2  0.8749E+01 -0.5554E+02 -0.1551E+02E
 Epicentro: LOS SANTOS - SANTANDER                                             3
 ACTION:UP  11-06-29 08:52 OP:tino STATUS:               ID:20110510192753 L   I
 2011-05-10-1920-00M.COL___138                                                 6
 STAT SP IPHASW D HRMM SECON CODA AMPLIT PERI AZIMU VELO SNR AR TRES W  DIS CAZ7
 BTL  SZ EP   1   1928 15.66                             172     0.3 7   22 328 
 BRR  HZ EP   2   1928 16.69                             155    -0.1 5   72 303 
 BRR  HN ES   2   1928 34.78                             155    -0.1 5   72 303 
 BRR  HZ I        1928 36.54        18.4 0.18                            72 303 
 PAM  SZ EP   2   1928 17.96                             152    -0.1 5   83  38 
 RUS  HZ EP   1   1928 18.72                             149    -0.1 7   95 175 
 RUS  HZ I        1928 36.59         3.9 0.48                            95 175 
 RUS  HN ES   2   1928 38.52                             149     0.0 5   95 175 
 BRI  SZ EP   1   1928 19.65                             144     0.0 7  114  21 
 BRI  SZ I        1928 45.74        34.6 0.17                           114  21 
 GRA  SZ EP   1   1928 20.86                             139    -0.1 7  131  17 
 GRA  SZ I        1928 42.16         8.0 0.31                           131  17 
                                                                                
