 2017 1210 1522 15.4 L   6.790 -73.351131.1  RSN  6 0.3 1.5LRSN                1
 GAP= 93        0.79       3.6     3.4  5.9 -0.5045E+01  0.8331E+01 -0.3019E+01E
 Epicentro: ZAPATOCA - SANTANDER                                               3
 ACTION:UPD 18-01-04 13:19 OP:rebc STATUS:               ID:20171210152215 L   I
 OLDACT:REG 17-12-10 20:17 OP:lv   STATUS:               ID:20171210151249     3
 2017-12-10-1518-00M.COL___481                                                 6
 STAT SP IPHASW D HRMM SECON CODA AMPLIT PERI AZIMU VELO AIN AR TRES W  DIS CAZ7
 BAR2 EZ EP       1522 32.88                             167   -0.5310 28.7 139 
 BAR2 EZ ES       1522 47.37                             167   -0.0810 28.7 139 
 BAR2 EZ I        1522 49.53         6.6 0.42            172           28.7 139 
 PAM  EZ EP       1522 37.11                             142   -0.1510 94.3  50 
 PAM  EN ES       1522 54.79                             142    0.4910 94.3  50 
 PTB  HZ EP       1522 39.23                             133    0.0910  125 257 
 PTB  HN ES       1522 57.65                             133    0.0010  125 257 
 PTB  HZ I        1522 59.02         4.2 0.12            134            125 257 
 OCA  HZ EP       1522 42.32                             126   -0.30 9  160   1 
 OCA  HN ES       1523  3.95                             126    0.10 9  160   1 
 ZAR  HZ EP       1522 45.26                             122    0.47 9  184 295 
 ZAR  HN ES       1523  7.34                             122   -0.37 9  184 295 
 ZAR  HZ I        1523 14.04         4.7 0.32            123            184 295 
 GUY2CHZ EP       1522 56.31                             111    0.11 7  282 232 
 GUY2CHN ES       1523 28.40                             111    0.38 7  282 232 
 GUY2CHZ I        1523 37.84         2.1 0.48                           282 232 
                                                                                
