 2017 1110 1644 27.0 L   6.774 -73.151140.5  RSN  5 0.2 1.3LRSN                1
 GAP=151        0.41       5.0     3.3  5.6 -0.7154E+01  0.8264E+01  0.9140E+00E
 Epicentro: LOS SANTOS - SANTANDER                                             3
 ACTION:UPD 17-12-12 19:54 OP:rebc STATUS:               ID:20171110164427 L   I
 OLDACT:REG 17-11-10 21:40 OP:mg   STATUS:               ID:20171110163243     3
 2017-11-10-1638-00M.COL___450                                                 6
 STAT SP IPHASW D HRMM SECON CODA AMPLIT PERI AZIMU VELO AIN AR TRES W  DIS CAZ7
 BAR2 EZ EP       1644 45.71                             171   -0.1710 20.4 190 
 BAR2 EZ ES   2   1645  0.52                             171   -0.13 5 20.4 190 
 BAR2 EZ I        1645  2.64         6.6 0.34            173           20.4 190 
 BRR  HZ EP       1644 47.72                             151    0.1410 72.1 301 
 PAM  EZ EP   2   1644 48.71                             149   -0.05 5 80.0  39 
 PAM  EN ES       1645  5.81                             149    0.0310 80.0  39 
 PAM  EZ I        1645  7.79         2.6 0.33            150           80.0  39 
 PTB  HZ EP   2   1644 53.64                             131    0.25 5  147 260 
 PTB  HE ES   1   1645 14.19                             131    0.18 7  147 260 
 PTB  HZ I        1645 16.13         2.5 0.16            132            147 260 
 ZAR  HZ EP   2   1644 59.11                             121   -0.00 4  205 293 
 ZAR  HN ES   2   1645 23.64                             121   -0.56 4  205 293 
 ZAR  HZ I        1645 29.84         1.9 0.17            122            205 293 
                                                                                
