 2017 1210 1421 32.4 L   6.917 -73.192145.6  RSN  7 0.3 1.6LRSN                1
 GAP=129        0.88       3.3     4.0  6.3 -0.2662E+01  0.4789E+01  0.2266E+01E
 Epicentro: BETULIA - SANTANDER                                                3
 ACTION:UPD 18-01-04 13:18 OP:rebc STATUS:               ID:20171210142132 L   I
 OLDACT:REG 17-12-10 20:14 OP:lv   STATUS:               ID:20171210141740     3
 2017-12-10-1418-00M.COL___481                                                 6
 STAT SP IPHASW D HRMM SECON CODA AMPLIT PERI AZIMU VELO AIN AR TRES W  DIS CAZ7
 BAR2 EZ EP       1421 52.23                             165   -0.1110 36.0 178 
 BAR2 EZ ES       1422  8.01                             165    0.1210 36.0 178 
 BAR2 EZ I        1422  8.52         5.4 0.40            166           36.0 178 
 PAM  EZ EP       1421 54.35                             153    0.0710 71.7  49 
 PAM  EN ES       1422 11.40                             153    0.0710 71.7  49 
 PAM  EZ I        1422 13.23         8.5 0.28            153           71.7  49 
 PTB  HZ EP       1421 58.84                             132   -0.36 9  146 253 
 PTB  HN ES       1422 19.48                             132   -0.60 9  146 253 
 PTB  HZ I        1422 21.61         4.7 0.32            133            146 253 
 OCA  HZ EP       1421 59.63                             132    0.16 9  147 355 
 OCA  HE ES       1422 20.37                             132   -0.20 9  147 355 
 OCA  HZ I        1422 23.73        13.8 0.26            133            147 355 
 ZAR  HN ES       1422 29.13                             124    0.70 9  195 289 
 CHI  HZ EP       1422 11.40                             116    0.06 8  260 193 
 CHI  HN ES       1422 41.98                             116    0.28 8  260 193 
 CHI  HZ I        1422 45.26         1.4 0.32            116            260 193 
 GUY2CHZ EP   9   1422 18.13                             112    1.71 0  305 232 
 GUY2CHN ES       1422 53.23                                    0.78 7  305 232 
 GUY2CHZ I        1422 58.22         2.1 0.30                           305 232 
 SJC  HZ EP   4   1422 25.17                             106   -1.20 0  396 327 
 SJC  HN ES   4   1423  3.87                             106   -4.58 0  396 327 
                                                                                
