 2013 1210 1200 19.2 L   6.802 -73.209145.9  RSN  6 0.3 1.7LRSN                1
 GAP=231        0.81       4.4     4.6  5.9  0.8555E+01  0.3907E+01 -0.2150E+01E
 Epicentro: ZAPATOCA - SANTANDER                                               3
 ACTION:UPD 14-01-13 10:17 OP:ep   STATUS:               ID:20131210120019 L   I
 OLDACT:UP  13-12-10 15:15 OP:cam  STATUS:               ID:20131210120000     3
 OLDACT:REG 13-12-10 14:35 OP:cam  STATUS:               ID:20131210120000     3
 2013-12-10-1200-00M.COL___285                                                 6
 STAT SP IPHASW D HRMM SECON CODA AMPLIT PERI AZIMU VELO AIN AR TRES W  DIS CAZ7
 BAR2 SZ EP       12 0 38.47                             171   -0.3410 23.4 173 
 BAR2 SZ ES       12 0 53.82                             171   -0.3110 23.4 173 
 BAR2 SZ I        12 0 54.97         9.2 0.20            167           23.4 173 
 BRR  HZ EP       12 0 40.37                             155    0.3810 65.0 301 
 BRR  HE ES       12 0 56.75                             155    0.5110 65.0 301 
 RUS  HZ EP       12 0 42.98                             144   -0.0210  102 172 
 RUS  HN ES       12 1  1.57                             144   -0.0210  102 172 
 RUS  HZ I        12 1  3.91         4.6 0.38            143            102 172 
 PTB  HZ EP   1   12 0 45.52                             133   -0.01 7  141 258 
 PTB  HN ES       12 1  5.77                             133   -0.33 9  141 258 
 PTB  HZ I        12 1  8.04         6.6 0.28            131            141 258 
 SPBC HZ EP   2   12 0 47.07                             130   -0.22 5  159 217 
 SPBC HN ES       12 1  9.62                             130    0.40 9  159 217 
 SPBC HZ I        12 1 14.53         9.8 0.12            128            159 217 
 ZAR  HZ EP       12 0 51.13                             123    0.18 9  198 293 
 ZAR  HN ES       12 1 15.29                             123   -0.45 9  198 293 
 ZAR  HZ I        12 1 22.79         5.5 0.42            122            198 293 
                                                                                
