 2011  210 1151 49.6 L   6.809 -73.181130.7  RSN  5 0.4 1.4LRSN                1
 GAP=155        0.91       6.4    14.3 10.8 -0.5093E+02  0.1957E+02 -0.5748E+01E
 Epicentro: LOS SANTOS - SANTANDER                                             3
 ACTION:UP  11-03-28 15:07 OP:jfem STATUS:               ID:20110210115149 L   I
 2011-02-10-1148-39S.COL___136                                                 6
 STAT SP IPHASW D HRMM SECON CODA AMPLIT PERI AZIMU VELO SNR AR TRES W  DIS CAZ7
 BTL  SZ EP   1   1152  7.80                             172     0.5 7   15 322 
 BAR2 SZ IP       1152  7.56                             169     0.110   24 181 
 BAR2 SZ ES   1   1152 20.85                             169    -0.5 7   24 181 
 BAR2 SZ I        1152 24.40         7.9 0.20                            24 181 
 RUS  HZ EP       1152 11.73                             140    -0.310  102 174 
 RUS  HZ I        1152 12.62         2.1 0.15                           102 174 
 RUS  HN ES   2   1152 30.45                             140     0.9 5  102 174 
 GRA  SZ EP   1   1152 13.36                             133    -0.2 7  126  19 
 GRA  SZ ES   1   1152 32.47                             133     0.2 7  126  19 
 GRA  SZ I        1152 34.24         5.2 0.41                           126  19 
 NOR  SN ES   2   1152 51.42                             115     0.1 4  232 234 
                                                                                
