 2012  810 1741 58.3 L   6.785 -73.178137.0  RSN  4 0.2 1.6LRSN                1
 GAP=133        0.44       3.3     3.3  6.4 -0.2867E+01  0.7495E+01 -0.2048E+01E
 Epicentro: LOS SANTOS - SANTANDER                                             3
 ACTION:UPD 12-09-10 11:55 OP:ep   STATUS:               ID:20120810174158 L   I
 2012-08-10-1740-00M.COL___217                                                 6
 STAT SP IPHASW D HRMM SECON CODA AMPLIT PERI AZIMU VELO AIN AR TRES W  DIS CAZ7
 BRR  HZ EP   1   1742 18.44                             152    0.10 7 68.9 301 
 BRR  HZ I        1742 24.64        25.1 0.53                          68.9 301 
 PAM  SZ EP   1   1742 19.46                             148   -0.32 7 80.9  41 
 PAM  SZ I        1742 19.64         5.0 0.18                          80.9  41 
 PAM  SN ES   1   1742 36.70                             148    0.14 7 80.9  41 
 RUS  HZ EP   1   1742 21.33                             142    0.26 7 99.3 174 
 RUS  HN ES   1   1742 38.71                             142   -0.14 7 99.3 174 
 RUS  HZ I        1742 41.88         2.8 0.46                          99.3 174 
 PTB  HZ EP   1   1742 24.15                             131   -0.03 7  144 259 
 PTB  HN ES   1   1742 44.35                             131   -0.04 7  144 259 
                                                                                
