 2016  310 1243 54.8 L   6.804 -73.157148.1  RSN  6 0.2 1.9LRSN                1
 GAP=142        0.64       3.6     3.6  4.7 -0.6282E+01  0.3922E+01 -0.1227E+01E
 Epicentro: LOS SANTOS - SANTANDER                                             3
 ACTION:UPD 16-05-13 21:23 OP:cam  STATUS:               ID:20160310124354 L   I
 OLDACT:REG 16-03-10 20:42 OP:ar   STATUS:               ID:20160310123749     3
 2016-03-10-1237-49M.COL___273                                                 6
 STAT SP IPHASW D HRMM SECON CODA AMPLIT PERI AZIMU VELO AIN AR TRES W  DIS CAZ7
 BAR2 EZ EP       1244 14.72                             171    0.0310 23.5 187 
 BAR2 EZ ES       1244 29.99                             171   -0.2310 23.5 187 
 BAR2 EZ I        1244 31.15        40.2 0.16            171           23.5 187 
 PAM  EZ EP       1244 17.62        12.3 0.46            151    0.3610 77.8  40 
 PAM  EN ES       1244 34.84                             151    0.0410 77.8  40 
 PAM  EZ I        1244 36.95        12.3 0.46            154           77.8  40 
 RUS  HZ EP       1244 18.65                             144   -0.1410  101 175 
 RUS  HN ES       1244 37.55                             144    0.0310  101 175 
 RUS  HZ I        1244 38.48         8.0 0.46            146            101 175 
 PTB  HZ EP       1244 21.74                             133   -0.09 9  147 259 
 PTB  HN ES       1244 42.89                             133   -0.05 9  147 259 
 PTB  HZ I        1244 45.58         7.7 0.30            133            147 259 
 SPBC HZ EP       1244 23.07                             130   -0.34 9  163 219 
 SPBC HN ES       1244 46.11                             130    0.37 9  163 219 
 SPBC HZ I        1244 50.28        19.3 0.44            131            163 219 
 GUY2CHZ EP   9   1244 40.89                             113    2.48 0  300 235 
 GUY2CHE ES       1245 15.46                                    0.54 7  300 235 
 GUY2CHZ I        1245 26.85         3.4 0.58                           300 235 
                                                                                
