 2011 1210 1521 14.2 L   6.263 -73.684104.0  RSN  8 0.3 1.5LRSN                1
 GAP= 68        0.62       2.5     2.8  6.3  0.6502E-01  0.5333E+01  0.6071E+01E
 Epicentro: SANTA HELENA DEL OPON - SANTANDER                                  3
 ACTION:UPD 12-07-13 16:15 OP:ep   STATUS:               ID:20111210152114 L   I
 2011-12-10-1520-00M.COL___186                                                 6
 STAT SP IPHASW D HRMM SECON CODA AMPLIT PERI AZIMU VELO AIN AR TRES W  DIS CAZ7
 BAR2 SZ IP       1521 31.19                             145    0.1910 66.4  57 
 BAR2 SZ ES   1   1521 44.31                             145    0.19 7 66.4  57 
 BAR2 SZ I        1521 45.59        12.7 0.10                          66.4  57 
 RUS  HZ EP   1   1521 32.15                             140   -0.07 7 78.1 122 
 RUS  HN ES   1   1521 46.04                             140   -0.25 7 78.1 122 
 RUS  HZ I        1521 48.34         6.2 0.34                          78.1 122 
 PTB  HZ EP   1   1521 32.19                             135   -0.40 7 90.7 290 
 PTB  HE ES   1   1521 46.54                             135   -0.42 7 90.7 290 
 BRR  HZ EP   1   1521 32.73                             134   -0.07 7 93.4 358 
 BRR  HZ I        1521 33.02        10.4 0.10                          93.4 358 
 BRR  HE ES   1   1521 47.54                             134    0.21 7 93.4 358 
 GIR2 SZ EP   2   1521 34.08                             131    0.02 5  105  31 
 NOR  SZ EP   1   1521 38.47                             119   -0.17 7  152 240 
 NOR  SN ES   1   1521 58.50                             119    0.77 7  152 240 
 CHI  HZ EP   1   1521 42.48                             115    0.29 7  181 182 
 CHI  HN ES       1522  3.87                             115   -0.17 9  181 182 
 RREF HZ EP   1   1521 48.91                             108   -0.07 6  238 231 
                                                                                
