 2017  810 1314 46.8 L   6.824 -73.122138.3  RSN  4 0.3 1.2LRSN                1
 GAP=138        0.77       4.0     5.8  6.3 -0.6622E+00 -0.2430E+01  0.1490E+01E
 Epicentro: LOS SANTOS - SANTANDER                                             3
 ACTION:UPD 17-09-04 20:18 OP:rebc STATUS:               ID:20170810131446 L   I
 OLDACT:UP  17-08-10 23:08 OP:dani STATUS:               ID:20170810130744d    3
 OLDACT:UP  17-08-10 23:08 OP:dani STATUS:               ID:20170810130744d    3
 OLDACT:DUP 17-08-10 23:04 OP:dani STATUS:               ID:20170810130744d    3
 OLDACT:UP  17-08-10 23:03 OP:dani STATUS:               ID:20170810130743d    3
 OLDACT:UP  17-08-10 23:02 OP:dani STATUS:               ID:20170810130743d    3
 OLDACT:DUP 17-08-10 22:58 OP:dani STATUS:               ID:20170810130743d    3
 OLDACT:DUP 17-08-10 22:54 OP:dani STATUS:               ID:20170810130742d    3
 2017-08-10-1308-00M.COL___408                                                 6
 STAT SP IPHASW D HRMM SECON CODA AMPLIT PERI AZIMU VELO AIN AR TRES W  DIS CAZ7
 BAR2 EZ EP       1315  5.24                             169   -0.3710 26.5 195 
 BAR2 EZ ES       1315 20.16                             169   -0.1210 26.5 195 
 BAR2 EZ I        1315 22.78         5.8 0.30            170           26.5 195 
 BRR  HZ EP       1315  7.42                             151    0.2010 72.3 296 
 BRR  HN ES       1315 23.13                             151   -0.0110 72.3 296 
 PAM  EZ EP       1315  8.39                             151    0.3910 73.7  39 
 PAM  EN ES       1315 24.41                             151   -0.1310 73.7  39 
 PAM  EZ I        1315 27.54         3.0 0.30            151           73.7  39 
 RUS  HZ EP       1315  9.66                             141   -0.3610  103 178 
 RUS  HE ES       1315 28.52                             141    0.3910  103 178 
 RUS  HZ I        1315 28.73         1.6 0.39            144            103 178 
                                                                                
