 2011  610 1948 53.6 L   6.752 -73.173150.4  RSN  4 0.1 1.6LRSN                1
 GAP=231        0.38       3.8     5.2  4.6  0.8704E+01  0.1460E+01  0.1420E+01E
 Epicentro: VILLANUEVA - SANTANDER                                             3
 ACTION:UP  11-07-14 19:04 OP:ep   STATUS:               ID:20110610194853 L   I
 2011-06-10-1947-48S.COL___132                                                 6
 STAT SP IPHASW D HRMM SECON CODA AMPLIT PERI AZIMU VELO SNR AR TRES W  DIS CAZ7
 BAR2 SZ EP   1   1949 13.46                             173    -0.2 7   18 183 
 BAR2 SZ ES   1   1949 29.28                             173    -0.1 7   18 183 
 BAR2 SZ I        1949 30.05         7.4 0.19                            18 183 
 BRR  HZ EP   1   1949 15.32                             153     0.1 7   71 303 
 BRR  HZ I        1949 17.07        17.3 0.30                            71 303 
 BRR  HN ES   1   1949 32.23                             153     0.1 7   71 303 
 RUS  HZ EP   1   1949 17.59                             146     0.1 7   96 174 
 RUS  HZ I        1949 18.64         3.8 0.11                            96 174 
 RUS  HN ES   1   1949 36.13                             146     0.1 7   96 174 
 NOR  SN ES   2   1949 56.48                             120    -0.2 4  229 235 
                                                                                
