 2013  110 1052 12.1 L   6.824 -73.103143.6  RSN  7 0.5 1.8LRSN                1
 GAP=244        1.13       5.8     6.4  7.1  0.1803E+02  0.1268E+02  0.6906E+01E
 Epicentro: LOS SANTOS - SANTANDER                                             3
 ACTION:UPD 13-02-15 09:13 OP:ep   STATUS:               ID:20130110105212 L   I
 2013-01-10-1048-40M.COL___174                                                 6
 STAT SP IPHASW D HRMM SECON CODA AMPLIT PERI AZIMU VELO AIN AR TRES W  DIS CAZ7
 BAR2 SZ EP       1052 31.74                             169    0.1910 27.0 199 
 BAR2 SZ I        1052 31.84        12.5 0.22            165           27.0 199 
 BAR2 SZ ES       1052 46.80                             169    0.0910 27.0 199 
 BRR  HZ EP       1052 33.72                             151    0.5310 74.2 295 
 BRR  HN ES       1052 50.03                             151    0.4010 74.2 295 
 BRR  HN I        1052 54.52        14.2 0.32            147           74.2 295 
 RUS  HZ EP       1052 35.71                             143   -0.1010  103 179 
 RUS  HZ I        1052 36.87         2.9 0.28            144            103 179 
 RUS  HN ES       1052 53.87                             143   -0.4310  103 179 
 PTB  HZ EP       1052 38.47                             131   -0.89 9  153 258 
 PTB  HE ES       1052 59.95                             131   -0.68 9  153 258 
 PTB  HN I        1053  5.03        15.0 0.22            128            153 258 
 ZAR  HZ EP       1052 44.55                             121   -0.21 8  207 291 
 ZAR  HN ES       1053 10.07                             121   -0.16 8  207 291 
 ZAR  HN I        1053 23.10         5.9 0.38            120            207 291 
 CHI  HZ EP       1052 49.94                             116   -0.15 8  252 196 
 CHI  HN ES       1053 20.43                             116    0.71 8  252 196 
 CHI  HN I        1053 25.14         4.6 0.44            117            252 196 
 HEL  HZ EP       1052 53.23                             114    0.45 7  277 256 
 HEL  HN ES       1053 25.12                             114    0.61 7  277 256 
                                                                                
