 2010 1210 1453 43.4 L   6.798 -73.151144.6  RSN 15 0.5 2.6LRSN                1
 GAP=103        0.93       3.0     5.2  5.4 -0.4366E+01  0.5184E+01  0.2701E+01E
 Epicentro: LOS SANTOS - SANTANDER                                             3
 ACTION:UP  11-01-14 15:23 OP:pat  STATUS:               ID:20101210145343 L   I
 2010-12-10-1452-14S.COL___135                                                 6
 STAT SP IPHASW D HRMM SECON CODA AMPLIT PERI AZIMU VELO SNR AR TRES W  DIS CAZ7
 BTL  SZ IP       1454  3.01                             172     0.210   19 316 
 BTL  SZ ES   1   1454 18.37                             172     0.5 7   19 316 
 BAR2 SZ IP       1454  2.88                             170     0.010   23 189 
 BAR2 SZ ES   1   1454 17.58                             170    -0.5 7   23 189 
 BAR2 SZ I        1454 20.85       101.4 0.46                            23 189 
 RUS  HZ IP     D 1454  6.83                             144    -0.210  100 176 
 RUS  HN ES   1   1454 25.18                             144    -0.2 7  100 176 
 RUS  HZ I        1454 26.88        37.8 0.11                           100 176 
 GRA  SZ IP       1454  8.72                             137     0.210  126  18 
 GRA  SZ ES   1   1454 28.30                             137     0.1 7  126  18 
 GRA  SZ I        1454 32.65        32.4 0.42                           126  18 
 OCA  SZ EP   1   1454 11.42                             129    -0.2 7  160 353 
 OCA  SZ ES   1   1454 33.27                             129    -0.3 7  160 353 
 OCA  SZ I        1454 37.93        52.9 0.17                           160 353 
 YOP  SZ EP       1454 13.51                             126     0.2 9  179 153 
 YOP  SN ES   1   1454 37.08                             126     0.4 7  179 153 
 YOP  SZ I        1454 38.28        27.5 0.10                           179 153 
 NOR  SZ EP       1454 18.85                             118    -0.1 8  234 235 
 NOR  SN ES   1   1454 45.68                             118    -1.1 6  234 235 
 CHI  HZ IP     D 1454 21.07                             117     0.1 8  248 195 
 CHI  HN ES   1   1454 50.60                             117     0.3 6  248 195 
 HEL  HZ EP   1   1454 24.11                             115     0.7 6  271 256 
 HEL  HZ I        1455  3.17        28.7 0.30                           271 256 
 GUY  SZ EP   3   1454 26.58                             112    -0.3 2  301 235 
 GUY  SZ I        1455 10.69        50.3 0.27                           301 235 
 RREF HZ EP   1   1454 30.37                             111     1.0 5  321 229 
 RREF HN ES   2   1455  5.40                             111     0.1 3  321 229 
 RREF HZ I        1455 17.06        20.7 0.44                           321 229 
 TOL  SZ EP   1   1454 32.17                             109     0.7 5  343 225 
 SDV  BZ EP       1454 32.43                             108    -1.0 6  361  50 
 SDV  BZ I        1454 33.27         7.4 0.18                           361  50 
 PRA  HZ EP       1454 36.83                             106     0.1 6  392 210 
 PRA  HN ES   1   1455 18.00                             106    -0.5 4  392 210 
 SJA  SZ EP       1454 37.40                             106    -0.4 6  400 193 
 SJA  SZ ES   2   1455 19.36                             106    -1.0 3  400 193 
 SJA  SZ I        1455 31.91        26.7 0.61                           400 193 
                                                                                
