 2017  810 2334 56.5 L   6.780 -73.098146.3  RSN  7 0.2 1.5LRSN                1
 GAP=144        0.53       2.5     2.9  4.1  0.9660E+00  0.4821E+01  0.2615E+01E
 Epicentro: LOS SANTOS - SANTANDER                                             3
 ACTION:UPD 17-09-04 20:18 OP:rebc STATUS:               ID:20170810233456 L   I
 OLDACT:UP  17-08-11 06:18 OP:edw  STATUS:               ID:20170810232744     3
 OLDACT:UP  17-08-11 06:17 OP:edw  STATUS:               ID:20170810232744     3
 OLDACT:REG 17-08-11 05:22 OP:edw  STATUS:               ID:20170810232744     3
 2017-08-10-2328-00M.COL___414                                                 6
 STAT SP IPHASW D HRMM SECON CODA AMPLIT PERI AZIMU VELO AIN AR TRES W  DIS CAZ7
 BAR2 EZ EP     D 2335 16.21                             171   -0.0210 22.8 204 
 BAR2 EZ ES       2335 31.23                             171   -0.3510 22.8 204 
 BAR2 EZ I        2335 33.94         8.2 0.36            169           22.8 204 
 PAM  EE ES       2335 35.99                             151   -0.0410 75.9  35 
 BRR  HZ EP       2335 18.28                             151    0.1910 76.9 298 
 BRR  HN ES       2335 35.18                             151    0.3010 76.9 298 
 RUS  HZ EP       2335 20.16                             144   -0.0210 98.2 179 
 RUS  HN ES       2335 38.76                             144    0.1510 98.2 179 
 RUS  HZ I        2335 41.90         3.0 0.18            146           98.2 179 
 SPBC HZ EP       2335 25.25                             129   -0.00 9  165 221 
 SPBC HN ES   3   2335 48.66                             129    1.02 2  165 221 
 ZAR  HZ EP   2   2335 29.78                             122    0.16 4  210 292 
 ZAR  HN ES       2335 55.15                             122   -0.27 8  210 292 
 ZAR  HZ I        2336  0.65         5.1 0.30            123            210 292 
 NOR  HE ES       2336  0.64                             118   -0.15 8  238 236 
                                                                                
