 2011  310 2358 10.9 L   6.832 -73.140136.5  RSN  9 0.4 1.9LRSN                1
 GAP=136        0.85       3.7     5.2  7.1 -0.5211E+01  0.1400E+02  0.4112E+00E
 Epicentro: LOS SANTOS - SANTANDER                                             3
 ACTION:UP  11-06-16 14:32 OP:jfem STATUS:               ID:20110310235810 L   I
 2011-03-10-2356-49S.COL___135                                                 6
 STAT SP IPHASW D HRMM SECON CODA AMPLIT PERI AZIMU VELO SNR AR TRES W  DIS CAZ7
 BAR2 SZ EP       2358 29.77                             168     0.310   27 190 
 BAR2 SZ I        2358 30.13        31.7 0.04                            27 190 
 BAR2 SZ ES   1   2358 44.42                             168     0.4 7   27 190 
 RUS  HZ EP       2358 33.79                             141    -0.210  104 177 
 RUS  HE ES   1   2358 51.81                             141    -0.3 7  104 177 
 RUS  HZ I        2358 55.68         9.7 0.40                           104 177 
 GRA  SZ EP       2358 35.55                             136     0.510  122  18 
 GRA  SZ ES   1   2358 53.18                             136    -0.7 7  122  18 
 GRA  SZ I        2358 56.01         9.6 0.32                           122  18 
 YOP  SZ EP   1   2358 40.39                             124    -0.2 7  182 154 
 YOP  SE ES   2   2359  3.31                             124    -0.5 4  182 154 
 NOR  SZ EP   1   2358 45.98                             116    -0.4 6  237 234 
 NOR  SE ES   1   2359 13.63                             116    -0.5 6  237 234 
 CHI  HZ EP   1   2358 48.69                             115     0.2 6  252 195 
 CHI  HN ES   1   2359 18.72                             115     0.9 6  252 195 
 CHI  HZ I        2359 21.75         5.0 0.33                           252 195 
 HEL  HZ EP   1   2358 50.78                             113    -0.1 6  274 255 
 HEL  HN ES   1   2359 22.09                             113     0.1 6  274 255 
 HEL  HZ I        2359 28.30         8.6 0.41                           274 255 
 DBB  SZ EP   1   2358 57.94                             108    -0.1 5  340 274 
 PRA  HZ EP   1   2359  4.58                             105     0.1 4  395 209 
 PRA  HN ES   1   2359 46.10                             105    -0.2 4  395 209 
                                                                                
