 2011  910 2306 20.3 L   6.784 -73.133142.7  RSN 18 0.3 2.7LRSN                1
 GAP=116        0.62       2.0     2.9  3.6 -0.1191E+00  0.3069E+01  0.2322E+01E
 Epicentro: LOS SANTOS - SANTANDER                                             3
 ACTION:UPD 12-07-13 15:56 OP:ep   STATUS:               ID:20110910230620 L   I
 2011-09-10-2300-00M.COL___171                                                 6
 STAT SP IPHASW D HRMM SECON CODA AMPLIT PERI AZIMU VELO AIN AR TRES W  DIS CAZ7
 BAR2 SZ IP       23 6 39.37                             171   -0.1310 21.9 194 
 BAR2 SZ ES   1   23 6 54.07                             171   -0.43 7 21.9 194 
 BAR2 SZ I        23 6 55.79       212.1 0.17                          21.9 194 
 GIR2 SZ EP   1   23 6 39.46                             166   -0.17 7 33.3 348 
 GIR2 SZ ES   1   23 6 55.21                             166    0.48 7 33.3 348 
 BRR  HZ EP   1   23 6 41.25                             151    0.04 7 73.3 299 
 BRR  HE ES   1   23 6 58.05                             151    0.51 7 73.3 299 
 BRR  HZ I        23 7  0.73       115.5 0.18                          73.3 299 
 PAM  SZ EP       23 6 42.20                             150    0.0110 77.9  38 
 PAM  SE ES   1   23 6 59.28                             150    0.00 7 77.9  38 
 RUS  HZ EP       23 6 43.35                             144   -0.2310 98.7 177 
 RUS  HN ES   1   23 7  1.55                             144   -0.21 7 98.7 177 
 RUS  HZ I        23 7  3.42        54.5 0.24                          98.7 177 
 BRI  SZ EP   1   23 6 43.97                             140    0.01 7  110  20 
 OCA  SZ EP   1   23 6 48.87                             128    0.34 7  162 353 
 OCA  SZ ES   1   23 7 10.53                             128   -0.04 7  162 353 
 OCA  SZ I        23 7 13.60        68.5 0.20                           162 353 
 YOP  SE EP   1   23 6 50.16                             126    0.29 7  177 153 
 YOP  SE ES   1   23 7 12.99                             126    0.03 7  177 153 
 ZAR  HZ EP   1   23 6 52.38                             121   -0.34 6  206 292 
 ZAR  HN ES   1   23 7 17.45                             121   -0.58 6  206 292 
 ZAR  HZ I        23 7 26.06        50.8 0.34                           206 292 
 NOR  SZ EP   1   23 6 55.83                             118    0.00 6  235 235 
 NOR  SE ES   1   23 7 23.21                             118   -0.36 6  235 235 
 CHI  HZ EP       23 6 57.62                             117   -0.03 8  247 196 
 CHI  HE ES   1   23 7 26.98                             117    0.17 6  247 196 
 CHI  HZ I        23 7 34.07        27.7 0.47                           247 196 
 ROSC BZ EP   1   23 6 58.67                             116    0.54 6  252 212 
 ROSC BZ I        23 7 37.74        42.3 0.36                           252 212 
 HEL  HZ EP   1   23 7  0.52                             114    0.09 6  273 256 
 HEL  HZ I        23 7 39.14        24.1 0.51                           273 256 
 VIL  SZ EP   1   23 7  2.47                             111   -0.91 5  302 192 
 VIL  SN ES   1   23 7 37.56                             111    0.55 5  302 192 
 VIL  SZ I        23 7 47.19        15.8 0.37                           302 192 
 GUY  SZ EP   1   23 7  4.21                             111    0.19 5  304 236 
 RREF HZ EP   1   23 7  6.71                             110    0.44 5  322 230 
 RREF HN ES   1   23 7 42.42                             110    0.27 5  322 230 
 TOL  SZ EP   1   23 7  8.88                             109    0.51 5  343 225 
 PRA  HZ EP   1   23 7 12.86                             106   -0.72 4  391 210 
 PRA  HE ES   1   23 7 55.52                             106    0.35 4  391 210 
                                                                                
