 2016  110 2023 47.7 L   6.869 -73.183144.8  RSN  7 0.5 1.7LRSN                1
 GAP=134        0.73       7.9     5.4  7.8 -0.2230E+02  0.8628E+01  0.2313E+02E
 Epicentro: ZAPATOCA - SANTANDER                                               3
 ACTION:UPD 16-03-09 23:24 OP:cam  STATUS:               ID:20160110202347 L   I
 OLDACT:DUP 16-01-11 03:17 OP:dnl  STATUS:               ID:20160110201756d    3
 2016-01-10-2017-55M.COL___232                                                 6
 STAT SP IPHASW D HRMM SECON CODA AMPLIT PERI AZIMU VELO AIN AR TRES W  DIS CAZ7
 BAR2 EZ EP       2024  7.06                             167   -0.2710 30.6 180 
 BAR2 EZ ES   2   2024 23.06                             167    0.37 5 30.6 180 
 BAR2 EZ I        2024 29.53                             169           30.6 180 
 BRR  HZ EP   2   2024  8.96                             155    0.65 5 64.1 294 
 BRR  HN ES   2   2024 25.08                             155    0.65 5 64.1 294 
 PAM  EZ EP       2024  9.62                             152    0.0210 74.6  46 
 PAM  EN ES       2024 26.64                             152   -0.0810 74.6  46 
 PAM  EZ I        2024 27.48         7.3 0.17            158           74.6  46 
 PTB  HZ EP       2024 13.96                             132   -0.37 9  145 256 
 PTB  HN ES   2   2024 35.06                             132   -0.08 5  145 256 
 PTB  HZ I        2024 37.27         5.8 0.12            134            145 256 
 ZAR  HE ES   2   2024 43.76                             123   -0.33 4  197 291 
 ZAR  HZ I        2024 52.39         5.5 0.22            125            197 291 
 NOR  HZ EP       2024 23.86                             118    0.40 8  236 232 
 NOR  HE ES   2   2024 50.71                             118   -0.67 4  236 232 
 NOR  HZ I        2024 54.79         4.8 0.24            121            236 232 
 GUY2CHZ EP   2   2024 32.73                             112    1.38 4  302 233 
 GUY2CHE ES   2   2025  5.31                             112   -0.12 4  302 233 
 GUY2CHZ I        2025 14.18         2.3 0.32                           302 233 
                                                                                
